 2011  614 0452 32.8 L   6.767 -73.092144.0  RSN  7 0.4 1.8LRSN                1
 GAP=162        0.71       4.4     6.5  7.1 -0.1334E+02  0.1577E+01  0.1114E+01E
 Epicentro: LOS SANTOS - SANTANDER                                             3
 ACTION:UP  11-07-14 19:05 OP:ep   STATUS:               ID:20110614045232 L   I
 2011-06-14-0440-00M.COL___122                                                 6
 STAT SP IPHASW D HRMM SECON CODA AMPLIT PERI AZIMU VELO SNR AR TRES W  DIS CAZ7
 BAR2 SZ EP   1    452 52.23                             171     0.1 7   22 207 
 BAR2 SZ ES   2    453  6.89                             171    -0.4 5   22 207 
 BRR  HZ IP     D  452 54.13                             150     0.010   78 299 
 BRR  HZ I         452 54.54        31.7 0.10                            78 299 
 BRR  HN ES   1    453 11.29                             150     0.5 7   78 299 
 RUS  HZ EP   2    452 56.65                             145     0.6 5   97 179 
 RUS  HN ES   2    453 14.35                             145     0.1 5   97 179 
 RUS  HZ I         453 15.83         5.3 0.20                            97 179 
 BRI  SZ EP   1    452 56.89                             141     0.3 7  110  17 
 BRI  SZ I         452 57.46         9.7 0.28                           110  17 
 BRI  SZ ES   2    453 15.02                             141    -0.2 5  110  17 
 GRA  SZ EP   2    452 58.07                             136     0.1 5  128  14 
 GRA  SZ ES   2    453 16.94                             136    -0.8 5  128  14 
 GRA  SZ I         453 18.77         7.8 0.48                           128  14 
 OCA  SZ EP   1    453  0.89                             129    -0.5 7  165 351 
 OCA  SZ ES   2    453 24.17                             129     0.5 5  165 351 
 OCA  SZ I         453 29.25        10.0 0.15                           165 351 
 NOR  SZ EP   1    453  8.49                             118    -0.2 6  237 236 
 NOR  SN ES   1    453 36.35                             118    -0.4 6  237 236 
                                                                                
