 2014 1214 0641 24.8 L   6.796 -73.168148.0  RSN  5 0.4 1.2LRSN                1
 GAP=134        1.02       5.5     5.3  7.4 -0.2762E+01  0.4557E+01  0.1848E+01E
 Epicentro: LOS SANTOS - SANTANDER                                             3
 ACTION:UPD 15-02-10 17:03 OP:nd   STATUS:               ID:20141214064124 L   I
 OLDACT:REG 14-12-14 13:58 OP:stll STATUS:               ID:20141214063740     3
 2014-12-14-0637-40M.COL___279                                                 6
 STAT SP IPHASW D HRMM SECON CODA AMPLIT PERI AZIMU VELO AIN AR TRES W  DIS CAZ7
 BAR2 EZ EP        641 44.70                             171    0.0210 22.6 184 
 BAR2 EZ ES        642  0.07                             171   -0.1110 22.6 184 
 BAR2 EZ I         642  2.29         4.1 0.34            170           22.6 184 
 BRR  HZ EP        641 46.47                             154    0.3910 69.2 300 
 BRR  HN ES        642  3.31                             154    0.6410 69.2 300 
 BRR  HZ I         642  4.21         2.6 0.12            152           69.2 300 
 PAM  SZ EP        641 47.61                             151    0.2510 79.3  41 
 PAM  SN ES        642  4.36                             151   -0.6010 79.3  41 
 PAM  SZ I         642  6.54         3.8 0.46            154           79.3  41 
 RUS  HZ EP        641 48.81                             144    0.0610  100 175 
 RUS  HN ES        642  7.61                             144    0.1810  100 175 
 RUS  HZ I         642  8.39         2.6 0.32            146            100 175 
 PTB  HZ EP        641 51.24                             133   -0.48 9  145 259 
 PTB  HN ES        642 12.24                             133   -0.47 9  145 259 
 PTB  HZ I         642 19.36         2.0 0.60            133            145 259 
                                                                                
