 2011  814 0223 44.7 L   6.770 -73.129146.8  RSN  9 0.3 2.1LRSN                1
 GAP=140        0.52       2.0     3.6  3.6 -0.1995E+01  0.3843E+01  0.1192E+01E
 Epicentro: LOS SANTOS - SANTANDER                                             3
 ACTION:UPD 12-07-13 15:51 OP:ep   STATUS:               ID:20110814022344 L   I
 2011-08-14-0220-04S.COL___150                                                 6
 STAT SP IPHASW D HRMM SECON CODA AMPLIT PERI AZIMU VELO AIN AR TRES W  DIS CAZ7
 BAR2 SZ EP        224  4.03                             172   -0.3210 20.5 197 
 BAR2 SZ ES        224 19.58                             172   -0.1410 20.5 197 
 BAR2 SZ I         224 21.25        36.9 0.44                          20.5 197 
 BRR  HZ IP     C  224  6.27                             152    0.1810 74.4 300 
 BRR  HZ I         224  6.55        57.7 0.12                          74.4 300 
 BRR  HE ES   1    224 23.12                             152    0.31 7 74.4 300 
 PAM  SZ EP   1    224  7.15                             151    0.09 7 78.9  37 
 PAM  SZ I         224  7.45        16.9 0.17                          78.9  37 
 PAM  SE ES   1    224 24.51                             151   -0.03 7 78.9  37 
 RUS  HZ EP        224  8.26                             145    0.0010 97.2 177 
 RUS  HE ES   1    224 26.87                             145    0.19 7 97.2 177 
 RUS  HZ I         224 28.28        13.6 0.45                          97.2 177 
 OCA  SZ EP   1    224 13.19                             129   -0.18 7  164 353 
 OCA  SZ ES        224 35.83                             129    0.06 9  164 353 
 OCA  SZ I         224 44.85        17.0 0.44                           164 353 
 NOR  SZ EP   1    224 19.86                             119   -0.54 6  234 235 
 NOR  SE ES   1    224 47.94                             119   -0.33 6  234 235 
 CHI  HZ EP   1    224 22.17                             118    0.05 6  246 196 
 CHI  HE ES   1    224 51.65                             118    0.31 6  246 196 
 CHI  HZ I         224 59.61         6.3 0.33                           246 196 
 RREF HZ EP   1    224 31.47                             111    0.72 5  321 230 
 RREF HE ES   1    225  6.44                             111   -0.27 5  321 230 
 RREF HZ I         225 12.79         6.0 0.26                           321 230 
 PRA  HZ EP   1    224 38.19                             107    0.21 4  390 210 
 PRA  HN ES   1    225 19.75                             107    0.18 4  390 210 
                                                                                
