 2014  914 0337 10.9 L   6.796 -73.177149.3  RSN 10 0.5 1.9LRSN                1
 GAP=198        1.08       3.3     5.3  6.0  0.3373E+01  0.4285E+01  0.5183E+00E
 Epicentro: LOS SANTOS - SANTANDER                                             3
 ACTION:UPD 14-10-03 23:04 OP:nd   STATUS:               ID:20140914033710 L   I
 OLDACT:REG 14-09-14 14:04 OP:carl STATUS:               ID:20140914032817     3
 2014-09-14-0328-17M.COL___296                                                 6
 STAT SP IPHASW D HRMM SECON CODA AMPLIT PERI AZIMU VELO AIN AR TRES W  DIS CAZ7
 BAR2 SZ EP        337 30.80                             171   -0.1010 22.5 182 
 BAR2 SZ ES        337 46.50                             171   -0.0410 22.5 182 
 BAR2 SZ I         337 47.46        29.7 0.22            170           22.5 182 
 BRR  HZ IP     C  337 32.63                             154    0.3910 68.4 300 
 BRR  HN ES        337 49.77                             154    0.8510 68.4 300 
 BRR  HZ I         337 50.97         9.5 0.36            151           68.4 300 
 RUS  HZ EP        337 35.05                             145    0.1010  100 174 
 RUS  HN ES        337 53.39                             145   -0.3510  100 174 
 RUS  HZ I         337 54.65        12.2 0.22            146            100 174 
 PTB  HZ EP        337 37.62                             134   -0.19 9  144 259 
 PTB  HN ES        337 58.62                             134   -0.22 9  144 259 
 PTB  HZ I         338  4.28         7.6 0.32            132            144 259 
 SPBC HZ EP        337 39.76                             130    0.36 9  161 218 
 SPBC HN ES        338  1.67                             130    0.01 9  161 218 
 SPBC HZ I         338  4.48        14.0 0.32            130            161 218 
 ZAR  HZ EP        337 43.63                             124    0.40 9  201 293 
 ZAR  HN ES        338  8.40                             124   -0.08 9  201 293 
 ZAR  HZ I         338 15.10         7.2 0.36            123            201 293 
 NOR  HN ES        338 13.44                             120   -0.81 8  232 234 
 SML  HZ EP        337 47.17                             118   -0.41 8  243 336 
 SML  HN ES        338 15.53                             118   -0.69 8  243 336 
 SML  HZ I         338 22.90         9.5 0.28            118            243 336 
 CHI  HZ EP        337 48.66                             118    0.04 8  247 194 
 CHI  HN ES        338 17.51                             118   -0.56 8  247 194 
 CHI  HZ I         338 24.29         3.3 0.28            118            247 194 
 PRA  HZ EP        338  4.51                             107    0.25 6  390 209 
 PRA  HN ES        338 47.23                             107    1.31 6  390 209 
 PRA  HZ I         338 49.68         3.6 0.52            107            390 209 
                                                                                
