 2011  914 0115 32.3 L   6.422 -73.679 96.6  RSN  4 0.1 1.2LRSN                1
 GAP=226        0.31       8.7    16.6 10.6  0.1375E+03  0.1337E+03  0.6928E+02E
 Epicentro: SANTA HELENA DEL OPON - SANTANDER                                  3
 ACTION:UPD 12-07-13 15:57 OP:ep   STATUS:               ID:20110914011532 L   I
 2011-09-14-0112-30S.COL___169                                                 6
 STAT SP IPHASW D HRMM SECON CODA AMPLIT PERI AZIMU VELO AIN AR TRES W  DIS CAZ7
 BAR2 SZ ES   3    115 59.98                             147    0.11 2 58.1  71 
 BAR2 SZ I         116  2.04        10.1 0.17                          58.1  71 
 BRR  HZ EP   1    115 48.87                             139    0.10 7 75.8 357 
 BRR  HZ I         115 51.95         7.0 0.28                          75.8 357 
 BRR  HN ES   2    116  1.50                             139   -0.13 5 75.8 357 
 RUS  HZ EP   1    115 50.42                             135   -0.07 7 88.2 132 
 RUS  HN ES   2    116  4.75                             135    0.06 5 88.2 132 
 RUS  HZ I         116  7.49         1.9 0.28                          88.2 132 
 GIR2 SZ EP   3    115 50.12                             134   -0.08 2 90.3  36 
                                                                                
