 2017  914 0902 27.1 L   7.312 -73.379117.4  RSN  7 0.4 1.3LRSN                1
 GAP=171        1.10       4.8     4.2  7.2  0.1563E+01  0.1014E+02  0.6225E+01E
 Epicentro: SABANA DE TORRES - SANTANDER                                       3
 ACTION:UPD 17-10-05 19:12 OP:rebc STATUS:               ID:20170914090227 L   I
 OLDACT:REG 17-09-14 11:45 OP:dhb  STATUS:               ID:20170914085747     3
 2017-09-14-0858-00M.COL___410                                                 6
 STAT SP IPHASW D HRMM SECON CODA AMPLIT PERI AZIMU VELO AIN AR TRES W  DIS CAZ7
 BRR  HZ EP        9 2 43.36                             158   -0.3310 43.2 238 
 BRR  HN ES        9 2 56.13                             158   -0.4910 43.2 238 
 PAM  EZ EP        9 2 46.34                             145    0.1010 75.1  88 
 PAM  EN ES        9 3  1.86                             145    0.7010 75.1  88 
 PAM  EZ I         9 3  3.71         2.6 0.24            149           75.1  88 
 BAR2 EZ EP        9 2 46.44                             142    0.0210 82.5 165 
 BAR2 EZ ES        9 3  0.88                             142   -0.6010 82.5 165 
 BAR2 EZ I         9 3  2.73         6.4 0.28            142           82.5 165 
 RUS  HZ EP        9 2 53.49                             122   -0.35 9  160 168 
 RUS  HN ES        9 3 15.11                             122    0.42 9  160 168 
 RUS  HZ I         9 3 19.81         1.0 0.16            123            160 168 
 ZAR  HZ EP        9 2 53.48                             121   -0.16 9  165 277 
 ZAR  HN ES        9 3 14.78                             121    0.46 9  165 277 
 ZAR  HZ I         9 3 18.40         3.7 0.14            123            165 277 
 SPBC HZ EP        9 2 57.34                             116   -0.09 9  199 203 
 SPBC HN ES        9 3 21.22                             116    0.14 9  199 203 
 SPBC HZ I         9 3 28.44         2.8 0.32            116            199 203 
 NOR  HZ EP        9 3  3.09                             110   -0.49 8  254 221 
 NOR  HN ES        9 3 32.91                             110    0.88 8  254 221 
 NOR  HZ I         9 3 37.57         1.5 0.34            111            254 221 
 SJC  HN ES   4    9 3 47.71                             103   -3.85 0  348 325 
                                                                                
