 2017  414 0655 46.9 L   6.805 -73.148147.5  RSN  7 0.3 1.6LRSN                1
 GAP=136        0.82       3.2     3.7  6.6 -0.7824E+00  0.6824E+01  0.1805E+01E
 Epicentro: LOS SANTOS - SANTANDER                                             3
 ACTION:UPD 17-05-30 21:12 OP:jn   STATUS:               ID:20170414065546 L   I
 OLDACT:UP  17-04-14 16:58 OP:edw  STATUS:               ID:20170414064744     3
 OLDACT:REG 17-04-14 12:51 OP:edw  STATUS:               ID:20170414064744     3
 2017-04-14-0648-00M.COL___356                                                 6
 STAT SP IPHASW D HRMM SECON CODA AMPLIT PERI AZIMU VELO AIN AR TRES W  DIS CAZ7
 PAM  EZ EP        656  9.56                             151    0.2610 77.1  40 
 PAM  EN ES        656 26.94                             151    0.1910 77.1  40 
 PAM  EZ I         656 29.15         8.2 0.62            155           77.1  40 
 RUS  HZ EP        656 11.01                             144    0.1310  101 176 
 RUS  HN ES        656 29.00                             144   -0.5810  101 176 
 RUS  HZ I         656 30.45         4.1 0.42            146            101 176 
 PTB  HZ EP        656 13.49                             132   -0.53 9  148 259 
 PTB  HN ES        656 34.97                             132   -0.19 9  148 259 
 PTB  HZ I         656 36.41         3.7 0.22            133            148 259 
 SPBC HZ EP        656 15.36                             129   -0.22 9  164 219 
 SPBC HN ES        656 38.31                             129    0.37 9  164 219 
 SPBC HZ I         656 44.76         7.2 0.36            131            164 219 
 ZAR  HZ EP        656 19.49                             123    0.06 9  204 292 
 ZAR  HN ES        656 44.88                             123    0.09 9  204 292 
 ZAR  HZ I         656 50.27         6.4 0.30            124            204 292 
 NOR  HN ES   2    656 51.38                             119    0.65 4  235 234 
 CHI  HZ EP        656 24.67                             117   -0.10 8  249 195 
 CHI  HN ES        656 54.86                             117    0.57 8  249 195 
 CHI  HZ I         656 59.55         1.3 0.30            119            249 195 
                                                                                
