 2015 1014 0922 43.0 L   6.768 -73.147144.0  RSN  8 0.4 1.5LRSN                1
 GAP=200        0.95       3.0     5.4  5.5  0.4068E+01  0.7749E+01  0.3395E+00E
 Epicentro: LOS SANTOS - SANTANDER                                             3
 ACTION:UPD 15-12-22 20:40 OP:cam  STATUS:               ID:20151014092243 L   I
 OLDACT:REG 15-10-14 12:46 OP:stll STATUS:               ID:20151014091744     3
 2015-10-14-0917-44M.COL___334                                                 6
 STAT SP IPHASW D HRMM SECON CODA AMPLIT PERI AZIMU VELO AIN AR TRES W  DIS CAZ7
 BAR2 EZ EP        923  2.42                             172    0.1010 19.8 191 
 BAR2 EZ ES        923 17.15                             172   -0.2610 19.8 191 
 BAR2 EZ I         923 19.97         5.9 0.16            168           19.8 191 
 BRR  HZ EP        923  3.92                             152   -0.1010 72.8 301 
 BRR  HE ES        923 21.08                             152    0.6410 72.8 301 
 RUS  HZ EP        923  6.41                             144    0.1210 97.0 176 
 RUS  HE ES        923 24.75                             144    0.2710 97.0 176 
 RUS  HZ I         923 25.94         3.3 0.34            145           97.0 176 
 SPBC HZ EP        923 11.02                             129   -0.04 9  160 220 
 SPBC HE ES        923 32.14                             129   -0.83 9  160 220 
 ZAR  HZ EP        923 16.00                             122    0.57 8  205 293 
 ZAR  HE ES        923 40.50                             122   -0.24 8  205 293 
 ZAR  HZ I         923 51.01         2.7 0.30            121            205 293 
 CHI  HZ EP        923 20.04                             117   -0.15 8  245 195 
 CHI  HN ES        923 49.07                             117   -0.15 8  245 195 
 CHI  HZ I         923 58.22         1.4 0.76            118            245 195 
 SML  HZ EP        923 19.42                             117   -0.42 8  247 336 
 SML  HE ES        923 48.18                             117   -0.42 8  247 336 
 SML  HZ I         923 51.08         3.1 0.24            118            247 336 
 GUY2CHZ EP        923 26.84                             112    0.59 7  299 235 
 GUY2CHN ES        924  0.28                             112    0.27 7  299 235 
 GUY2CHZ I         924  8.70         2.1 0.30                           299 235 
                                                                                
