 2010  214 0721 35.2 L   6.813 -73.014153.0  RSN 10 0.4 3.0LRSN                1
 GAP=210        0.76       3.9     8.4  7.0 -0.8459E+01  0.2531E+02  0.4186E+01E
 Epicentro: CEPITA - SANTANDER                                                 3
 ACTION:UP  10-08-24 09:48 OP:vdl  STATUS:               ID:20100214072135 L   I
 2010-02-14-0720-23S.COL___093                                                 6
 STAT SP IPHASW D HRMM SECON CODA AMPLIT PERI AZIMU VELO SNR AR TRES W  DIS CAZ7
 BAR2 SZ IP        721 56.04                             168     0.210   31 217 
 BAR2 SZ ES   1    722 11.56                             168    -0.4 7   31 217 
 OCA  SZ IP        722  4.36                             131     0.2 9  161 348 
 OCA  SZ ES   1    722 26.80                             131     0.1 7  161 348 
 CHI  HZ EP        722 13.92                             118     0.0 8  254 198 
 CHI  HE ES   2    722 43.78                             118    -0.3 4  254 198 
 CHI  HZ I         722 53.02        30.6 0.52                           254 198 
 ROSC BZ EP   1    722 15.12                             117     0.4 6  262 214 
 ROSC BZ I         722 50.34        41.7 0.35                           262 214 
 HEL  HZ EP        722 17.36                             115     0.0 7  287 256 
 HEL  HE ES   2    722 50.93                             115     0.7 4  287 256 
 RREF BZ EP   1    722 22.90                             111    -0.1 5  334 231 
 RREF BZ I         723  7.72        42.8 0.28                           334 231 
 DBB  SZ IP        722 23.70                             110    -0.9 6  354 274 
 TOL  SZ EP        722 24.96                             110    -0.1 6  355 226 
 ANIL BN ES   1    723  7.55                             109     0.9 5  369 226 
 ANIL BZ I         723 12.41        66.3 0.45                           369 226 
 PRA  HZ EP        722 29.61                             107    -0.4 6  401 211 
 PRA  HN ES   2    723 12.82                             107     0.1 3  401 211 
 PRA  HZ I         723 17.15        38.7 0.30                           401 211 
                                                                                
