 2011 1114 0803  7.9 L   6.762 -73.085147.4  RSN  5 0.3 1.5LRSN                1
 GAP=146        0.53       3.3     6.1  5.7  0.2054E+01  0.2508E+01 -0.2895E+00E
 Epicentro: LOS SANTOS - SANTANDER                                             3
 ACTION:UPD 12-07-13 16:10 OP:ep   STATUS:               ID:20111114080307 L   I
 2011-11-14-0802-41S.COL___179                                                 6
 STAT SP IPHASW D HRMM SECON CODA AMPLIT PERI AZIMU VELO AIN AR TRES W  DIS CAZ7
 BAR2 SZ EP   1    8 3 27.28                             171   -0.37 7 21.7 210 
 BAR2 SZ ES   1    8 3 42.82                             171   -0.28 7 21.7 210 
 BAR2 SZ I         8 3 44.43         6.5 0.30                          21.7 210 
 PAM  SN ES   1    8 3 47.69                             151    0.04 7 76.7  34 
 BRR  HZ EP   1    8 3 29.47                             150   -0.17 7 79.1 299 
 BRR  HN ES   1    8 3 46.85                             150    0.21 7 79.1 299 
 BRR  HZ I         8 3 51.13         7.0 0.12                          79.1 299 
 RUS  HZ EP   1    8 3 31.46                             145    0.00 7 96.2 180 
 RUS  HN ES   1    8 3 50.25                             145    0.38 7 96.2 180 
 RUS  HZ I         8 3 51.60         4.3 0.51                          96.2 180 
 OCA  SZ EP   2    8 3 37.23                             129    0.46 5  165 351 
 OCA  SZ ES   2    8 3 59.38                             129    0.05 5  165 351 
 OCA  SZ I         8 4  4.37         3.9 0.22                           165 351 
                                                                                
