 2014  714 0114 42.4 L   6.793 -73.103151.7  RSN 18 0.5 2.1LRSN                1
 GAP=187        0.98       3.2     4.9  5.8  0.6001E+00  0.6064E+01  0.4531E+00E
 Epicentro: LOS SANTOS - SANTANDER                                             3
 ACTION:UPD 15-03-16 20:43 OP:nd   STATUS:               ID:20140714011442 L   I
 OLDACT:REG 14-07-14 12:31 OP:fm   STATUS:               ID:20140714010812     3
 2014-07-14-0108-12M.COL___253                                                 6
 STAT SP IPHASW D HRMM SECON CODA AMPLIT PERI AZIMU VELO AIN AR TRES W  DIS CAZ7
 BAR2 SZ EP        115  2.80                             171    0.0010 23.9 202 
 BAR2 SZ ES   1    115 18.66                             171   -0.02 7 23.9 202 
 BAR2 SZ I         115 19.64        11.9 0.23            165           23.9 202 
 BRR  HZ EP        115  4.86                             152    0.3710 75.8 297 
 BRR  HN ES        115 22.10                             152    0.4110 75.8 297 
 BRR  HZ I         115 24.38        10.6 0.16            146           75.8 297 
 RUS  HZ EP   1    115  7.12                             145    0.41 7 99.6 179 
 RUS  HE ES        115 25.26                             145   -0.3810 99.6 179 
 RUS  HZ I         115 26.59         5.9 0.46            145           99.6 179 
 PTB  HZ EP        115  9.58                             132   -0.73 9  152 259 
 PTB  HE ES        115 31.38                             132   -0.66 9  152 259 
 PTB  HZ I         115 36.73        12.5 0.40            129            152 259 
 OCA  HN ES   1    115 33.86                             131   -0.04 7  162 352 
 SPBC HZ EP        115 11.74                             130    0.11 9  166 220 
 SPBC HN ES        115 34.64                             130    0.24 9  166 220 
 SPBC HZ I         115 40.91        17.8 0.32            128            166 220 
 ZAR  HZ EP   1    115 15.17                             123   -0.59 6  209 292 
 ZAR  HN ES        115 41.61                             123   -0.14 8  209 292 
 ZAR  HZ I         115 47.29        12.0 0.46            121            209 292 
 NOR  HZ EP   1    115 18.82                             119   -0.07 6  238 235 
 NOR  HN ES        115 47.42                             119    0.10 8  238 235 
 NOR  HZ I         115 50.48         6.8 0.20            118            238 235 
 SML  HZ EP   1    115 19.00                             118   -0.70 6  246 334 
 SML  HN ES        115 49.16                             118    0.40 8  246 334 
 SML  HZ I         115 56.95        15.3 0.10            118            246 334 
 HEL  HZ EP   1    115 24.14                             115    0.69 6  277 256 
 HEL  HN ES   1    115 55.57                             115    0.13 6  277 256 
 HEL  HZ I         116  1.43         4.3 0.32            114            277 256 
 URE  HE ES   4    115 54.17                             114   -2.83 0  289 292 
 URE  HZ I         116  3.52         5.5 0.30            113            289 292 
 GUY2CHZ EP   1    115 27.40                             113    0.68 5  305 235 
 GUY2CHE ES   4    116  5.40                             113    4.14 0  305 235 
 GUY2CHZ I         116  9.58         6.1 0.78                           305 235 
 RREF HZ EP   4    115 32.22                             112    3.02 0  325 230 
 RREF HN ES   4    116  8.02                             112    2.34 0  325 230 
 RREF HZ I         116 11.37         5.0 0.28            111            325 230 
 CBOC HZ EP   1    115 30.64                             111    0.54 5  338 252 
 TOL  SN ES   4    116 11.19                             110    1.84 0  346 225 
 TOL  SZ I         116 16.21         8.1 0.52            109            346 225 
 PRA  HZ EP   1    115 36.70                             107    0.33 4  394 210 
 PRA  HN ES   4    116 19.94                             107    1.50 0  394 210 
 PRA  HZ I         116 24.40         4.3 0.42            107            394 210 
 ORTC HZ EP   1    115 35.25                             107   -1.58 4  398 217 
 ORTC HN ES   1    116 20.53                             107    1.28 4  398 217 
 ORTC HZ I         116 24.14         2.7 0.50            107            398 217 
 SJC  HZ EP   4    115 37.08                             106   -1.51 0  412 326 
 SJC  HN ES   4    116 18.21                             106   -4.17 0  412 326 
 SJC  HZ I         116 27.24         6.7 0.94            106            412 326 
                                                                                
