 2014  514 0455 15.3 L   6.828 -73.144156.6  RSN  7 0.2 1.6LRSN                1
 GAP=202        0.49       2.4     6.4  4.9  0.6707E-01 -0.1043E+02  0.5567E+00E
 Epicentro: LOS SANTOS - SANTANDER                                             3
 ACTION:UPD 15-03-16 16:57 OP:nd   STATUS:               ID:20140514045515 L   I
 OLDACT:UP  14-05-14 17:32 OP:cam  STATUS:               ID:20140514044819     3
 OLDACT:REG 14-05-14 12:58 OP:spq  STATUS:               ID:20140514044819     3
 2014-05-14-0448-19M.COL___257                                                 6
 STAT SP IPHASW D HRMM SECON CODA AMPLIT PERI AZIMU VELO AIN AR TRES W  DIS CAZ7
 BRR  HZ EP        455 37.51                             155   -0.0710 69.9 296 
 BRR  HN ES        455 55.01                             155    0.0610 69.9 296 
 BRR  HZ I         455 55.41         4.1 0.28            145           69.9 296 
 OCA  HN ES   2    456  6.98                             133    0.22 5  157 353 
 OCA  HZ I         456 11.44         5.1 0.40            128            157 353 
 SPBC HZ EP   1    455 44.46                             131   -0.45 7  166 218 
 SPBC HN ES   1    456  8.00                             131    0.02 7  166 218 
 ZAR  HZ EP   1    455 48.46                             125    0.07 6  203 291 
 ZAR  HE ES   1    456 14.36                             125    0.17 6  203 291 
 ZAR  HZ I         456 20.02         3.5 0.24            119            203 291 
 SML  HZ EP        455 52.57                             120    0.29 8  241 335 
 SML  HE ES        456 20.78                             120   -0.33 8  241 335 
 SML  HZ I         456 24.24         4.5 0.10            116            241 335 
 CHI  HZ EP   1    455 54.24                             119    0.27 6  252 195 
 HEL  HZ EP   4    455 58.23                             117    2.02 0  273 255 
 HEL  HN ES   4    456 32.01                             117    3.91 0  273 255 
 HEL  HZ I         456 35.04         2.5 0.30            113            273 255 
 SJC  HZ EP   4    456 10.08                             107   -0.88 0  407 327 
                                                                                
