 2017  614 0724 51.2 L   7.478 -73.239  0.0  RSN  4 0.4 1.7LRSN                1
 GAP=294        0.84       8.1     8.4  9.4  0.4851E+02  0.5826E+02  0.5641E+02E
 Epicentro: EL PLAYON - SANTANDER                                              3
 ACTION:UPD 17-09-14 16:52 OP:jn   STATUS:               ID:20170614072451 L   I
 OLDACT:UP  17-07-05 18:52 OP:nlst STATUS:               ID:20170614072451 L   3
 OLDACT:REG 17-06-14 13:28 OP:ar   STATUS:               ID:20170614071728     3
 2017-06-14-0718-00M.COL___356                                                 6
 STAT SP IPHASW D HRMM SECON CODA AMPLIT PERI AZIMU VELO AIN AR TRES W  DIS CAZ7
 BRR  HZ EP        725  1.91                              47   -0.4710 66.3 232 
 BRR  HZ I         725 10.78        13.1 0.12             98           66.3 232 
 BRR  HE ES        725 10.83                              47   -0.3010 66.3 232 
 PTB  HZ EP   4    725 16.57                              47   -1.51 0  170 232 
 PTB  HN ES   4    725 36.46                              47   -2.61 0  170 232 
 ZAR  HZ EP        725 19.54                              47    0.13 9  179 271 
 ZAR  HN ES        725 41.48                              47    0.04 9  179 271 
 ZAR  HZ I         725 42.56        14.4 0.24             56            179 271 
 SPBC HZ EP        725 24.94                              37    0.01 8  222 205 
 SPBC HN ES        725 51.67                              37    0.40 8  222 205 
 SPBC HZ I         725 52.70         6.8 0.46             56            222 205 
 HEL  HE ES        726  7.79                              37    0.69 7  290 241 
                                                                                
