 2016 1014 0358 41.8 L   6.795 -73.190142.5  RSN  4 0.4 1.1LRSN                1
 GAP=232        0.97       7.2     8.0 13.1  0.7441E+01 -0.3530E+02 -0.7002E+01E
 Epicentro: ZAPATOCA - SANTANDER                                               3
 ACTION:UPD 16-11-09 19:19 OP:rebc STATUS:               ID:20161014035841 L   I
 OLDACT:DUP 16-10-14 17:43 OP:ar   STATUS:               ID:20161014035738d    3
 OLDACT:UP  16-10-14 17:42 OP:ar   STATUS:               ID:20161014035737     3
 OLDACT:UP  16-10-14 17:40 OP:ar   STATUS:               ID:20161014035737     3
 OLDACT:REG 16-10-14 12:38 OP:ar   STATUS:               ID:20161014035737     3
 2016-10-14-0358-00M.COL___362                                                 6
 STAT SP IPHASW D HRMM SECON CODA AMPLIT PERI AZIMU VELO AIN AR TRES W  DIS CAZ7
 BRR  HZ EP        359  2.40                             153    0.0310 67.2 301 
 BRR  HN ES   2    359 19.00                             153    0.58 5 67.2 301 
 BRR  HZ I         359 23.27         4.2 0.32            155           67.2 301 
 RUS  HZ EP        359  4.90                             143   -0.3210  100 173 
 RUS  HN ES   2    359 23.38                             143   -0.11 5  100 173 
 RUS  HZ I         359 24.61         1.6 0.32            149            100 173 
 PTB  HZ EP        359  7.57                             132   -0.48 9  143 259 
 PTB  HE ES        359 28.43                             132   -0.09 9  143 259 
 PTB  HZ I         359 32.06         1.1 0.17            136            143 259 
 SPBC HZ EP        359 10.59                             129    0.88 9  160 218 
 SPBC HN ES        359 31.40                             129   -0.08 9  160 218 
 SPBC HZ I         359 35.67         2.6 0.10            134            160 218 
                                                                                
