 2011 1114 0637 23.3 L   7.200 -73.266112.3  RSN  4 0.3 1.1LRSN                1
 GAP=251        0.54      13.7    16.5  8.5  0.2044E+03 -0.5943E+02 -0.5879E+02E
 Epicentro: LEBRIJA - SANTANDER                                                3
 ACTION:UPD 12-07-13 16:10 OP:ep   STATUS:               ID:20111114063723 L   I
 2011-11-14-0637-26S.COL___179                                                 6
 STAT SP IPHASW D HRMM SECON CODA AMPLIT PERI AZIMU VELO AIN AR TRES W  DIS CAZ7
 BRR  HZ EP        637 39.84                             155    0.1710 50.3 258 
 BRR  HZ I         637 39.95         2.8 0.13                          50.3 258 
 BRR  HE ES   1    637 52.19                             155   -0.24 7 50.3 258 
 BAR2 SZ EP   2    637 40.43                             147   -0.64 5 67.8 172 
 BAR2 SZ ES   1    637 55.15                             147    0.23 7 67.8 172 
 BAR2 SZ I         637 55.50         4.0 0.52                          67.8 172 
 RUS  HN ES   2    638  7.50                             124   -0.16 5  146 172 
 RUS  HZ I         638  8.54         1.4 0.53                           146 172 
 ZAR  HZ EP   2    637 51.19                             118    0.15 4  179 281 
 ZAR  HZ I         638 15.10         1.9 0.26                           179 281 
                                                                                
