 2016  314 0823 10.8 L   6.829 -73.199137.9  RSN  8 0.2 1.2LRSN                1
 GAP=129        0.48       2.2     4.0  5.4 -0.2751E+01  0.8330E+01 -0.3763E+00E
 Epicentro: ZAPATOCA - SANTANDER                                               3
 ACTION:UPD 16-05-13 21:24 OP:cam  STATUS:               ID:20160314082310 L   I
 OLDACT:UP  16-03-28 15:55 OP:Mher STATUS:               ID:20160314082310 L   3
 OLDACT:UP  16-03-14 18:06 OP:mher STATUS:               ID:20160314081747     3
 OLDACT:UP  16-03-14 18:06 OP:mher STATUS:               ID:20160314081747     3
 OLDACT:REG 16-03-14 12:59 OP:dnl  STATUS:               ID:20160314081747     3
 2016-03-14-0817-47M.COL___291                                                 6
 STAT SP IPHASW D HRMM SECON CODA AMPLIT PERI AZIMU VELO AIN AR TRES W  DIS CAZ7
 BAR2 EZ EP   2    823 29.62                             169    0.04 5 26.2 176 
 BAR2 EZ I         823 46.57         4.2 0.20            161           26.2 176 
 PAM  EZ EP        823 32.55                             149    0.2410 78.9  44 
 PAM  EE ES        823 49.17                             149    0.1110 78.9  44 
 PAM  EZ I         823 51.53         3.5 0.58            147           78.9  44 
 RUS  HZ EP        823 33.92                             141   -0.1810  104 173 
 RUS  HN ES        823 52.16                             141   -0.0810  104 173 
 RUS  HZ I         823 52.82         1.3 0.18            133            104 173 
 PTB  HZ EP   2    823 36.62                             131   -0.07 5  143 257 
 PTB  HN ES   2    823 57.25                             131    0.39 5  143 257 
 PTB  HZ I         824  0.24         3.2 0.12            126            143 257 
 OCA  HZ EP   2    823 38.50                             128    0.33 5  156 355 
 OCA  HE ES   1    823 58.98                             128   -0.52 7  156 355 
 OCA  HZ I         824  1.10         5.1 0.26            126            156 355 
 SPBC HZ EP   2    823 38.46                             127   -0.17 5  162 217 
 SPBC HN ES   2    824  0.34                             127    0.03 5  162 217 
 SPBC HZ I         824  2.84         1.9 0.07            121            162 217 
 CHI  HZ EP   2    823 48.51                             115    0.23 4  250 194 
 CHI  HN ES   4    824 19.05                             115    1.55 0  250 194 
 CHI  HZ I         824 37.37         0.8 0.46            110            250 194 
 MON  HN ES   4    824 34.34                             107   -1.82 0  347 309 
 MON  HZ I         824 36.73         0.5 0.24            104            347 309 
                                                                                
