 2013  114 0816  7.4 L   6.427 -73.613100.5  RSN  5 0.2 1.3LRSN                1
 GAP=142        0.53       4.8     3.3  6.5  0.7331E+01  0.9482E+01  0.1104E+02E
 Epicentro: SANTA HELENA DEL OPON - SANTANDER                                  3
 ACTION:UPD 13-02-15 09:14 OP:ep   STATUS:               ID:20130114081607 L   I
 2013-01-14-0810-00M.COL___241                                                 6
 STAT SP IPHASW D HRMM SECON CODA AMPLIT PERI AZIMU VELO AIN AR TRES W  DIS CAZ7
 BAR2 SZ EP   1    816 22.56                             151   -0.27 7 51.0  69 
 BAR2 SZ ES   1    816 35.18                             151    0.28 7 51.0  69 
 BRR  HN ES   1    816 37.12                             140   -0.27 7 76.0 352 
 BRR  HZ I         816 37.96         5.7 0.10            140           76.0 352 
 RUS  HZ EP   1    816 25.65                             137    0.15 7 83.2 135 
 PTB  HZ EP   1    816 25.48                             133   -0.30 7 94.1 278 
 PTB  HN ES   1    816 40.16                             133    0.02 7 94.1 278 
 PTB  HZ I         816 42.64         2.9 0.15            132           94.1 278 
 ZAR  HZ EP   1    816 34.91                             113    0.16 7  181 311 
 ZAR  HE ES   1    816 56.44                             113    0.34 7  181 311 
 ZAR  HZ I         816 59.14         4.4 0.26            114            181 311 
                                                                                
