 2012 1214 0951 24.0 L   6.797 -73.183140.2  RSN  5 0.3 1.3LRSN                1
 GAP=241        0.54       5.0     4.9  5.8  0.1128E+02  0.7796E+01  0.5739E+01E
 Epicentro: LOS SANTOS - SANTANDER                                             3
 ACTION:UPD 13-01-04 14:27 OP:ep   STATUS:               ID:20121214095124 L   I
 2012-12-14-0950-00M.COL___242                                                 6
 STAT SP IPHASW D HRMM SECON CODA AMPLIT PERI AZIMU VELO AIN AR TRES W  DIS CAZ7
 BAR2 SZ EP   1    951 43.12                             170    0.15 7 22.7 180 
 BAR2 SZ ES   1    951 57.39                             170   -0.36 7 22.7 180 
 BAR2 SZ I         951 58.93         7.5 0.32                          22.7 180 
 RUS  HZ EP   1    951 47.37                             143    0.14 7  101 174 
 RUS  HN ES   1    952  5.68                             143    0.34 7  101 174 
 RUS  HZ I         952  7.60         2.8 0.48                           101 174 
 PTB  HZ EP   1    951 49.78                             132   -0.38 7  144 259 
 PTB  HN ES   1    952 10.60                             132    0.04 7  144 259 
 PTB  HZ I         952 13.33         3.5 0.17                           144 259 
 ZAR  HN ES   2    952 21.02                             122    0.57 4  200 293 
 CHI  HZ EP   1    952  1.20                             116   -0.07 6  247 194 
 CHI  HN ES   1    952 30.14                             116   -0.18 6  247 194 
 CHI  HZ I         952 35.35         1.2 0.32                           247 194 
                                                                                
