 2010  714 0052 36.0 L   6.800 -73.045144.2  RSN 13 0.5 2.8LRSN                1
 GAP=133        1.24       4.9     9.3  7.7 -0.2096E+02  0.2924E+01  0.2992E+01E
 Epicentro: LOS SANTOS - SANTANDER                                             3
 ACTION:UPD 10-12-01 15:17 OP:pat  STATUS:               ID:20100714005236 L   I
 2010-07-14-0049-34S.COL___120                                                 6
 STAT SP IPHASW D HRMM SECON CODA AMPLIT PERI AZIMU VELO AIN AR TRES W  DIS CAZ7
 BAR2 SZ IP        052 55.69                             169     0.210   28 214 
 BAR2 SZ ES   1    053  9.98                             169    -0.8 7   28 214 
 BAR2 SZ I         053 11.84       257.0 0.31                            28 214 
 GIR2 SZ EP   1    052 55.67                             166     0.1 7   35 332 
 GIR2 SZ ES   1    053 11.41                             166     0.6 7   35 332 
 BRR  HZ IP     D  052 57.43                             149    -0.110   81 295 
 BRR  HZ I         052 57.63       200.6 0.17                            81 295 
 BRR  HE ES   1    053 14.27                             149    -0.1 7   81 295 
 RUS  HZ IP     C  052 59.67                             144     0.110  100 182 
 RUS  HN ES   1    053 18.15                             144     0.2 7  100 182 
 RUS  HZ I         053 20.22        61.7 0.33                           100 182 
 BRI  SZ IP        052 59.15                             142    -0.310  105  15 
 BRI  SZ ES   1    053 17.62                             142    -0.1 7  105  15 
 BRI  SZ I         053 22.85        49.4 0.34                           105  15 
 GUE  SZ EP        052 59.50                             140    -0.910  115   7 
 GUE  SZ I         053 21.31        24.1 0.15                           115   7 
 GRA  SZ IP        053  1.41                             138     0.610  123  12 
 GRA  SZ I         053  2.70        63.8 0.35                           123  12 
 GRA  SZ ES   1    053 21.09                             138     0.9 7  123  12 
 OCA  SZ IP        053  4.01                             129    -0.3 9  162 349 
 OCA  SZ ES   1    053 26.30                             129    -0.1 7  162 349 
 OCA  SZ I         053 30.56        84.3 0.19                           162 349 
 HEL  HZ EP   2    053 17.32                             114     0.0 4  283 256 
 HEL  HZ I         053 54.06        30.3 0.65                           283 256 
 GUY  SZ EP   2    053 20.27                             111    -0.3 3  310 236 
 GUY  SZ I         054  3.09        69.7 0.47                           310 236 
 RREF HZ EP   1    053 23.99                             110     1.0 5  330 231 
 RREF HE ES   1    054  0.59                             110     0.9 5  330 231 
 RREF HZ I         054  7.59        31.3 0.37                           330 231 
 SDV  BZ EP   2    053 25.58                             109     0.6 3  352  49 
 SDV  BZ I         054  7.01        11.8 0.48                           352  49 
 PRA  HZ EP   1    053 29.52                             106    -0.6 4  398 211 
 PRA  HN ES   1    054 11.44                             106    -0.8 4  398 211 
 PRA  HZ I         054 17.00        32.5 0.30                           398 211 
                                                                                
