 2011  814 0629 57.1 L   6.781 -73.148140.5  RSN 14 0.4 2.9LRSN                1
 GAP=137        0.67       2.3     3.9  3.9 -0.2138E+01  0.4154E+01  0.2307E+01E
 Epicentro: LOS SANTOS - SANTANDER                                             3
 ACTION:UPD 12-07-13 15:51 OP:ep   STATUS:               ID:20110814062957 L   I
 2011-08-14-0628-23S.COL___149                                                 6
 STAT SP IPHASW D HRMM SECON CODA AMPLIT PERI AZIMU VELO AIN AR TRES W  DIS CAZ7
 BAR2 SZ IP        630 16.29                             171    0.2810 21.2 190 
 BAR2 SZ ES        630 30.76                             171   -0.0310 21.2 190 
 BAR2 SZ I         630 32.55       206.8 0.37                          21.2 190 
 GIR2 SZ EP   2    630 16.53                             166    0.37 5 33.3 351 
 BRR  HZ EP        630 17.98                             151    0.3010 72.0 300 
 BRR  HE ES        630 33.56                             151   -0.2110 72.0 300 
 BRR  HZ I         630 36.00       216.7 0.13                          72.0 300 
 PAM  SZ EP   1    630 19.10                             149    0.28 7 79.2  39 
 PAM  SE ES   1    630 35.81                             149    0.01 7 79.2  39 
 RUS  HZ EP        630 20.27                             143    0.1310 98.5 176 
 RUS  HZ I         630 21.57        66.4 0.12                          98.5 176 
 RUS  HN ES   1    630 38.04                             143   -0.11 7 98.5 176 
 OCA  SZ EP        630 24.66                             128   -0.49 9  162 353 
 OCA  SZ ES   1    630 46.92                             128   -0.15 7  162 353 
 OCA  SZ I         630 51.07       166.0 0.16                           162 353 
 NOR  SZ EP        630 32.22                             117   -0.11 8  233 235 
 NOR  SN ES   1    630 59.92                             117    0.08 6  233 235 
 CHI  HZ EP        630 34.59                             116    0.35 8  247 195 
 CHI  HZ I         630 36.55        23.2 0.21                           247 195 
 CHI  HE ES   1    631  2.49                             116   -0.75 6  247 195 
 VIL  SZ EP   1    630 39.17                             111   -0.83 5  301 192 
 VIL  SN ES   1    631 13.30                             111   -0.19 5  301 192 
 VIL  SZ I         631 18.56        24.8 0.62                           301 192 
 RREF HZ EP   1    630 42.80                             110    0.01 5  320 230 
 RREF HE ES   1    631 18.20                             110   -0.27 5  320 230 
 RREF HZ I         631 27.00        48.0 0.41                           320 230 
 DBB  SZ EP   1    630 43.96                             108   -0.34 5  339 275 
 TOL  SZ EP   1    630 45.57                             108    0.66 5  342 225 
 ANIL HZ EP   1    630 47.23                             107    0.77 5  356 225 
 ANIL HE ES   1    631 25.46                             107    0.46 5  356 225 
 PRA  HZ EP   1    630 49.48                             106   -0.69 4  390 210 
 PRA  HE ES   1    631 31.72                             106    0.12 4  390 210 
                                                                                
