 2011 1214 0648 36.3 L   6.946 -73.647107.1  RSN  5 0.4 1.3LRSN                1
 GAP= 96        0.67       7.7     5.8 11.9 -0.1156E+01 -0.6089E+01  0.2125E+02E
 Epicentro: SAN VICENTE DE CHUCURI - SANTANDER                                 3
 ACTION:UPD 12-07-13 16:16 OP:ep   STATUS:               ID:20111214064836 L   I
 2011-12-14-0640-00M.COL___185                                                 6
 STAT SP IPHASW D HRMM SECON CODA AMPLIT PERI AZIMU VELO AIN AR TRES W  DIS CAZ7
 BRR  HZ EP   1    648 51.13                             169    0.25 7 19.2 338 
 BRR  HZ I         648 51.23         6.3 0.12                          19.2 338 
 BRR  HE ES   2    649  2.56                             169    0.34 5 19.2 338 
 GIR2 SZ EP   1    648 51.89                             152   -0.55 7 52.2  74 
 BAR2 SZ EP   1    648 53.42                             147    0.07 7 64.6 127 
 BAR2 SZ I         649 13.95         6.8 0.82                          64.6 127 
 PTB  HZ EP   1    648 56.19                             133    0.35 7  100 243 
 PTB  HN ES   2    649 10.43                             133   -0.62 5  100 243 
 RUS  HN ES   2    649 17.61                             125    0.04 5  132 152 
                                                                                
