 2013  814 0209 32.1 L   6.829 -73.160147.2  RSN 30 0.5 3.3LRSN                1
 GAP= 48        1.11       2.1     2.7  4.1 -0.1178E+01  0.2208E+01  0.5826E+00E
 Epicentro: LOS SANTOS - SANTANDER                                             3
 ACTION:UPD 14-01-14 09:02 OP:ep   STATUS:               ID:20130814020932 L   I
 OLDACT:UP  13-08-16 16:40 OP:ep   STATUS:               ID:20130814020932 L   3
 OLDACT:UP  13-08-15 05:15 OP:CF   STATUS:               ID:20130814020932 L   3
 OLDACT:UPD 13-08-14 12:02 OP:stll STATUS:               ID:20130814020932 L   3
 2013-08-14-0208-50M.COL___230                                                 6
 STAT SP IPHASW D HRMM SECON CODA AMPLIT PERI AZIMU VELO AIN AR TRES W  DIS CAZ7
 BAR2 SZ IP     C  2 9 52.09                             169    0.1110 26.3 185 
 BAR2 SZ ES        210  6.97                             169   -0.5010 26.3 185 
 BAR2 SZ I         210  8.33       222.3 0.22            170           26.3 185 
 GIR2 SZ IP        2 9 52.18                             169    0.3110 27.9 352 
 GIR2 SZ ES        210  7.37                             169    0.0910 27.9 352 
 BRR  HZ IP     D  2 9 53.93                             154    0.6710 68.4 297 
 BRR  HN ES        210 10.70                             154    0.9410 68.4 297 
 BRR  HN I         210 11.89       710.4 0.20            145           68.4 297 
 PAM  SZ IP     D  2 9 54.93                             152    0.5310 76.0  42 
 PAM  SN ES        210 11.77                             152   -0.0110 76.0  42 
 PAM  SN I         210 13.47       431.3 0.36            148           76.0  42 
 RUS  HZ EP        2 9 56.16                             143   -0.0810  104 175 
 RUS  HE ES        210 14.57                             143   -0.4910  104 175 
 RUS  HE I         210 15.74       320.9 0.48            143            104 175 
 PTB  HZ EP        2 9 58.63                             132   -0.49 9  147 258 
 PTB  HE ES        210 20.00                             132   -0.18 9  147 258 
 PTB  HE I         210 25.60       195.2 0.28            126            147 258 
 CAPV BZ EP        210  0.03                             132    0.55 9  148  39 
 TAM  HZ IP     D  210  0.51                             130    0.39 9  157 106 
 TAM  HZ I         210  0.66       197.7 0.20            130            157 106 
 TAM  HN ES        210 21.78                             130   -0.18 9  157 106 
 OCA  HZ EP        210  0.16                             131   -0.06 9  157 354 
 OCA  HN ES        210 21.43                             131   -0.72 9  157 354 
 OCA  HN I         210 29.04       415.5 0.20            125            157 354 
 SPBC HZ EP        210  0.93                             129    0.07 9  165 218 
 SPBC HN ES        210 23.09                             129   -0.20 9  165 218 
 SPBC HN I         210 26.39       536.6 0.14            125            165 218 
 YOP  SZ EP        210  2.80                             126    0.20 9  182 153 
 YOP  SN ES        210 26.42                             126    0.03 9  182 153 
 CTAU SZ ES        210 31.44                             123    0.11 9  205 209 
 CTAB SZ EP        210  9.47                             119    1.32 8  232 210 
 CTAB SZ ES        210 36.61                             119    0.35 8  232 210 
 NOR  HZ EP        210  7.84                             119   -0.15 8  235 234 
 NOR  HE ES        210 35.45                             119   -0.52 8  235 234 
 NOR  HE I         210 41.34       213.4 0.48            115            235 234 
 SML  HZ EP        210  8.31                             118   -0.13 8  240 335 
 SML  HE ES        210 36.81                             118    0.04 8  240 335 
 SML  HE I         210 45.11       291.9 0.32            113            240 335 
 CHI  HZ EP        210 10.14                             117   -0.04 8  251 195 
 CHI  HN ES        210 39.08                             117   -0.79 8  251 195 
 CHI  HN I         210 42.65       164.8 0.38            114            251 195 
 ROSC BZ EP   4    210 11.90                             117    1.38 0  255 210 
 ROSC BN ES        210 40.58                             117    0.10 8  255 210 
 HEL  HZ EP        210 12.98                             115    0.66 8  271 255 
 HEL  HN ES        210 43.76                             115    0.08 8  271 255 
 HEL  HN I         210 51.35        55.6 0.28            111            271 255 
 CVER SZ EP   4    210 14.42                             115    1.62 0  274 202 
 URE  HZ EP        210 11.92                             114   -1.04 7  281 291 
 URE  HE ES   4    210 43.34                             114   -1.48 0  281 291 
 URE  HE I         210 55.75       228.5 0.22            110            281 291 
 SOCV BZ EP        210 14.44                             112   -0.74 7  301  58 
 GUY2CHZ EP   4    210 17.35                             113    1.50 0  302 234 
 GUY2CHN ES        210 50.46                             113    0.49 7  302 234 
 VIL  SZ EP        210 15.47                             112   -0.44 7  306 191 
 VIL  SN ES        210 49.52                             112   -0.55 7  306 191 
 VIL  SN I         210 57.04       255.1 0.58            110            306 191 
 CBOC HZ EP        210 19.77                             110    0.74 7  333 251 
 CBOC HN ES        210 54.88                             110   -0.74 7  333 251 
 CBOC HN I         210 59.80        41.9 0.30            107            333 251 
 DBB  SZ EP        210 19.65                             110    0.21 7  338 274 
 DBB  SZ I         210 59.69        37.2 0.72            106            338 274 
 COD  HZ EP        210 19.55                             109   -0.61 7  345 355 
 COD  HN ES        210 56.89                             109   -0.75 7  345 355 
 COD  HN I         211  1.34        37.6 0.34            106            345 355 
 SDV  BN ES   4    210 59.48                             108   -1.63 0  360  51 
 PRA  HZ EP        210 25.48                             107   -0.43 6  394 209 
 PRA  HE ES        211  7.93                             107    0.05 6  394 209 
 PRA  HE I         211 10.13        68.0 0.26            104            394 209 
 ORTC HZ EP        210 26.23                             106   -0.04 6  397 216 
 ORTC HE ES        211  8.87                             106    0.35 6  397 216 
 ORTC HE I         211 14.31        66.4 0.22            104            397 216 
 PAL  HZ EP        210 27.79                             106    0.44 6  406 239 
 PAL  HN ES   4    211  8.53                             106   -1.91 0  406 239 
 SJC  HZ EP   4    210 25.79                             106   -1.52 0  406 327 
 SJC  HN I         211 12.23        46.7 0.44            103            406 327 
 YOT  HZ EP        210 34.54                             103   -0.76 5  473 228 
                                                                                
