 2014  514 0749 46.5 L   6.806 -73.213160.5  RSN  5 0.4 1.4LRSN                1
 GAP=281        0.91       6.5     9.8 10.3 -0.1171E+02 -0.3468E+02 -0.9260E+01E
 Epicentro: ZAPATOCA - SANTANDER                                               3
 ACTION:UPD 15-03-16 16:57 OP:nd   STATUS:               ID:20140514074946 L   I
 OLDACT:REG 14-05-14 13:15 OP:spq  STATUS:               ID:20140514074806     3
 2014-05-14-0748-06M.COL___257                                                 6
 STAT SP IPHASW D HRMM SECON CODA AMPLIT PERI AZIMU VELO AIN AR TRES W  DIS CAZ7
 BRR  HZ EP     C  750  8.91                             157    0.0110 64.4 301 
 BRR  HN ES   1    750 26.69                             157    0.30 7 64.4 301 
 BRR  HZ I         750 29.64         2.6 0.14            156           64.4 301 
 PTB  HZ EP        750 14.21                             136    0.13 9  141 258 
 PTB  HN ES        750 34.96                             136   -0.65 9  141 258 
 PTB  HZ I         750 36.58         2.5 0.48            139            141 258 
 ZAR  HZ EP   1    750 19.94                             126    0.72 6  197 293 
 ZAR  HE ES        750 45.27                             126    0.51 9  197 293 
 ZAR  HZ I         750 47.94         1.9 0.24            128            197 293 
 SML  HZ EP   1    750 23.50                             121   -0.09 6  240 337 
 SML  HN ES        750 52.16                             121   -0.37 8  240 337 
 SML  HZ I         750 56.86         2.6 0.10            122            240 337 
 SJC  HZ EP   1    750 41.38                             108   -0.65 4  405 328 
                                                                                
