 2015  814 0225 47.5 L   6.768 -73.091140.2  RSN  5 0.4 1.6LRSN                1
 GAP=188        1.07       4.0     9.4  8.0 -0.1668E+01 -0.5176E+00 -0.4585E+01E
 Epicentro: LOS SANTOS - SANTANDER                                             3
 ACTION:UPD 15-09-15 23:02 OP:cam  STATUS:               ID:20150814022547 L   I
 OLDACT:UP  15-08-14 13:44 OP:mh   STATUS:               ID:20150814021748     3
 OLDACT:UP  15-08-14 13:44 OP:mh   STATUS:               ID:20150814021748     3
 OLDACT:REG 15-08-14 12:38 OP:mh   STATUS:               ID:20150814021748     3
 2015-08-14-0217-48M.COL___331                                                 6
 STAT SP IPHASW D HRMM SECON CODA AMPLIT PERI AZIMU VELO AIN AR TRES W  DIS CAZ7
 BAR2 EZ EP        226  6.63                             171    0.2410 21.9 207 
 BAR2 EZ ES        226 20.83                             171   -0.3210 21.9 207 
 BAR2 EZ I         226 22.50         4.8 0.23            170           21.9 207 
 BRR  HZ EP        226  8.50                             149    0.0810 78.1 299 
 BRR  HN ES        226 25.52                             149    0.7410 78.1 299 
 BRR  HZ I         226 30.06         5.8 0.08            147           78.1 299 
 RUS  HZ EP   1    226 10.56                             144    0.17 7 96.9 179 
 RUS  HN ES        226 28.35                             144    0.0710 96.9 179 
 RUS  HZ I         226 29.45         4.9 0.34            147           96.9 179 
 SPBC HZ EP        226 15.54                             127   -0.11 9  164 221 
 SPBC HN ES        226 37.11                             127   -0.53 9  164 221 
 SPBC HZ I         226 39.34         6.0 0.36            129            164 221 
 OCA  HZ EP        226 16.09                             127    0.34 9  165 351 
 OCA  HN ES        226 37.02                             127   -0.80 9  165 351 
 OCA  HZ I         226 41.01         9.4 0.56            129            165 351 
                                                                                
