 2012  114 0701 11.2 L   6.595 -73.595108.0  RSN  6 0.3 1.5LRSN                1
 GAP=123        0.59       4.7     4.3  6.8  0.8407E+01  0.8553E+01  0.9015E+01E
 Epicentro: EL CARMEN DE CHUCURI - SANTANDER                                   3
 ACTION:UP  12-02-03 08:17 OP:REBC STATUS:               ID:20120114070111 L   I
 2012-01-14-0700-00M.COL___187                                                 6
 STAT SP IPHASW D HRMM SECON CODA AMPLIT PERI AZIMU VELO SNR AR TRES W  DIS CAZ7
 BAR2 SZ EP   1    7 1 27.21                             156     0.0 7   46  90 
 BAR2 SZ ES   1    7 1 39.68                             156     0.0 7   46  90 
 BAR2 SZ I         7 1 40.24        26.6 0.24                            46  90 
 BRR  HZ EP        7 1 27.49                             150     0.010   58 347 
 BRR  HN ES   1    7 1 40.74                             150     0.5 7   58 347 
 BRR  HZ I         7 1 41.55         6.4 0.27                            58 347 
 GIR2 SZ EP   1    7 1 28.28                             145    -0.2 7   70  40 
 GIR2 SZ ES   2    7 1 41.37                             145    -0.6 5   70  40 
 PTB  HZ EP   2    7 1 30.13                             135    -0.2 5   95 266 
 PTB  HE ES   2    7 1 44.83                             135    -0.5 5   95 266 
 RUS  HZ EP   1    7 1 31.23                             136     0.2 7   96 144 
 RUS  HN ES   2    7 1 46.78                             136     0.2 5   96 144 
 RUS  HZ I         7 1 47.71         4.5 0.32                            96 144 
 ZAR  HE ES   2    7 1 59.04                             118     0.4 4  171 305 
                                                                                
