 2017  114 0140 11.0 L   6.803 -73.159148.0  RSN  4 0.4 1.2LRSN                1
 GAP=135        1.00       5.6     5.3  8.8 -0.3442E+01  0.3795E+01  0.6937E+01E
 Epicentro: LOS SANTOS - SANTANDER                                             3
 ACTION:UPD 17-05-22 15:59 OP:jn   STATUS:               ID:20170114014011 L   I
 OLDACT:REG 17-01-14 12:22 OP:dani STATUS:               ID:20170114013747     3
 2017-01-14-0138-00M.COL___332                                                 6
 STAT SP IPHASW D HRMM SECON CODA AMPLIT PERI AZIMU VELO AIN AR TRES W  DIS CAZ7
 BRR  HZ EP        140 32.87                             153    0.5810 69.8 299 
 BRR  HN ES        140 49.29                             153    0.3710 69.8 299 
 BRR  HZ I         140 51.23         6.2 0.33            153           69.8 299 
 PAM  EZ EP        140 33.60                             151    0.1310 78.1  40 
 PAM  EE ES        140 50.54                             151   -0.4810 78.1  40 
 PAM  EZ I         140 53.37         3.0 0.55            155           78.1  40 
 RUS  HZ EP        140 34.72                             144   -0.2610  101 175 
 RUS  HN ES        140 53.98                             144    0.2810  101 175 
 RUS  HZ I         140 55.36         1.5 0.39            147            101 175 
 PTB  HZ EP        140 37.83                             133   -0.18 9  146 259 
 PTB  HE ES        140 58.57                             133   -0.52 9  146 259 
 PTB  HZ I         141  4.83         1.7 0.34            134            146 259 
                                                                                
