 2015 1214 0934 58.5 L   6.448 -73.190147.4  RSN 15 0.4 2.4LRSN                1
 GAP=140        0.84       2.3     3.1  4.0 -0.2465E+01  0.3649E+01  0.2717E+00E
 Epicentro: PARAMO - SANTANDER                                                 3
 ACTION:UPD 16-02-04 15:04 OP:cam  STATUS:               ID:20151214093458 L   I
 OLDACT:REG 15-12-14 13:54 OP:cara STATUS:               ID:20151214092749     3
 2015-12-14-0927-49M.COL___330                                                 6
 STAT SP IPHASW D HRMM SECON CODA AMPLIT PERI AZIMU VELO AIN AR TRES W  DIS CAZ7
 BAR2 EZ IP     C  935 18.07                             174   -0.1710 15.9   3 
 BAR2 EZ ES        935 33.15                             174   -0.4510 15.9   3 
 BAR2 EZ I         935 34.09        64.8 0.46            171           15.9   3 
 RUS  HZ EP        935 20.28                             156    0.1510 62.6 169 
 RUS  HE ES        935 37.08                             156    0.1210 62.6 169 
 RUS  HZ I         935 38.45        90.8 0.20            159           62.6 169 
 BRR  HZ EP        935 21.59                             146    0.3710 92.9 322 
 BRR  HN ES        935 39.58                             146    0.6810 92.9 322 
 BRR  HZ I         935 41.29        29.9 0.18            144           92.9 322 
 PAM  EZ EP        935 23.69                             141    0.3610  112  29 
 PAM  EN ES        935 42.85                             141    0.1910  112  29 
 PAM  EZ I         935 44.80        38.5 0.26            142            112  29 
 SPBC HZ EP        935 24.37                             136    0.0510  131 228 
 SPBC HN ES        935 44.11                             136   -0.3110  131 228 
 SPBC HZ I         935 49.21        66.5 0.38            136            131 228 
 PTB  HZ EP        935 24.51                             134   -0.48 9  140 274 
 PTB  HN ES        935 45.53                             134   -0.09 9  140 274 
 PTB  HZ I         935 47.36        18.3 0.14            133            140 274 
 OCA  HZ EP        935 30.59                             124   -0.13 9  199 356 
 OCA  HE ES        935 55.24                             124   -0.58 9  199 356 
 OCA  HZ I         935 59.60        60.9 0.30            124            199 356 
 NOR  HZ EP        935 32.14                             122    0.37 8  210 242 
 NOR  HN ES        935 57.63                             122   -0.06 8  210 242 
 NOR  HZ I         936  2.88        12.4 0.18            122            210 242 
 ZAR  HZ EP   4    935 33.45                             121    0.96 0  217 302 
 ZAR  HE ES        935 59.21                             121    0.25 8  217 302 
 ZAR  HZ I         936  4.07        22.1 0.46            121            217 302 
 HEL  HZ EP        935 37.01                             116   -0.54 8  260 264 
 HEL  HN ES   4    936  6.45                             116   -1.52 0  260 264 
 HEL  HZ I         936 10.30         6.1 0.24            116            260 264 
 GUY2CHZ EP        935 40.09                             115    0.65 7  276 241 
 GUY2CHN ES        936 11.30                             115   -0.04 7  276 241 
 GUY2CHZ I         936 20.41         8.1 0.64                           276 241 
 SML  HZ EP        935 38.71                             114   -0.28 7  278 340 
 SML  HE ES        936 10.13                             114   -0.41 7  278 340 
 SML  HZ I         936 18.60        20.3 0.10            115            278 340 
 CBOC HZ EP        935 44.51                             111    0.66 7  319 258 
 CBOC HE ES        936 19.31                             111    0.11 7  319 258 
 CBOC HZ I         936 23.03         3.5 0.44            112            319 258 
 PRA  HZ EP        935 47.69                             109   -0.26 6  356 212 
 PRA  HN ES        936 26.13                             109   -0.35 6  356 212 
 PRA  HZ I         936 28.89         9.6 0.26            110            356 212 
 ORTC HZ EP        935 48.37                             108   -0.22 6  362 219 
 ORTC HN ES        936 27.61                             108   -0.01 6  362 219 
 ORTC HZ I         936 30.17         4.8 0.56            109            362 219 
                                                                                
