 2011  314 0544 52.9 L   6.855 -73.148144.9  RSN  7 0.3 1.5LRSN                1
 GAP=183        0.61       2.6     6.7  5.8 -0.3869E+01  0.1644E+02 -0.4899E+00E
 Epicentro: LOS SANTOS - SANTANDER                                             3
 ACTION:UP  11-06-16 14:33 OP:jfem STATUS:               ID:20110314054452 L   I
 2011-03-14-0542-36S.COL___131                                                 6
 STAT SP IPHASW D HRMM SECON CODA AMPLIT PERI AZIMU VELO SNR AR TRES W  DIS CAZ7
 BAR2 SZ EP        545 12.85                             168     0.310   29 188 
 BAR2 SZ ES   1    545 27.91                             168     0.0 7   29 188 
 BAR2 SZ I         545 29.56        10.5 0.44                            29 188 
 RUS  HZ EP   1    545 16.91                             142    -0.1 7  107 176 
 RUS  HN ES   1    545 35.66                             142    -0.1 7  107 176 
 RUS  HZ I         545 36.80         4.4 0.30                           107 176 
 OCA  SZ EP        545 20.19                             131    -0.4 9  154 353 
 OCA  SZ ES        545 42.19                             131     0.1 9  154 353 
 NOR  SZ EP        545 29.21                             118     0.3 8  238 233 
 NOR  SN ES   1    545 56.66                             118    -0.4 6  238 233 
 NOR  SZ I         546  3.34         0.8 0.24                           238 233 
 CHI  HZ EP   1    545 31.00                             116    -0.2 6  254 195 
 CHI  HZ I         545 33.56         2.6 0.40                           254 195 
 CHI  HN ES   2    546  0.70                             116    -0.3 4  254 195 
 HEL  HZ EP   3    545 34.14                             114     1.0 2  273 255 
 HEL  HZ I         546 11.87         3.5 0.33                           273 255 
 PRA  HZ EP   1    545 47.22                             106     0.3 4  397 209 
                                                                                
