 2013  714 0740 14.2 L   6.788 -73.158141.4  RSN  7 0.5 1.6LRSN                1
 GAP=136        1.30       5.7     6.3  8.0 -0.9767E+01  0.6536E+01  0.8380E+01E
 Epicentro: LOS SANTOS - SANTANDER                                             3
 ACTION:UPD 13-08-12 10:37 OP:ep   STATUS:               ID:20130714074014 L   I
 OLDACT:REG 13-07-14 07:35 OP:nd   STATUS:               ID:20130714073959     3
 2013-07-14-0739-59M.COL___267                                                 6
 STAT SP IPHASW D HRMM SECON CODA AMPLIT PERI AZIMU VELO AIN AR TRES W  DIS CAZ7
 BAR2 SZ E         740 33.26                                           21.8 187 
 BAR2 SZ EP        740 33.26                             171    0.0210 21.8 187 
 BAR2 SZ ES        740 48.16                             171    0.0510 21.8 187 
 BAR2 SZ I         740 49.13         9.3 0.12            172           21.8 187 
 GIR2 SZ EP        740 33.18                             166   -0.1710 32.4 353 
 GIR2 SZ ES        740 47.55                             166   -0.7610 32.4 353 
 GIR2 SZ I         740 49.32         4.7 0.22            165           32.4 353 
 BRR  HZ EP        740 35.06                             152    0.2510 70.7 300 
 BRR  HN ES        740 52.19                             152    1.2810 70.7 300 
 BRR  HZ I         740 56.62         7.0 0.12            150           70.7 300 
 PAM  SZ IP     D  740 36.29                             149    0.2610 79.3  40 
 PAM  SN ES        740 52.77                             149   -0.3210 79.3  40 
 PAM  SZ I         740 55.16        10.9 0.52            152           79.3  40 
 RUS  HZ EP        740 37.62                             143    0.2310 99.3 175 
 RUS  HN ES        740 55.60                             143    0.0810 99.3 175 
 RUS  HZ I         740 56.74         5.8 0.34            147           99.3 175 
 PTB  HZ EP        740 40.03                             131   -0.60 9  146 259 
 PTB  HN ES        741  0.64                             131   -0.63 9  146 259 
 PTB  HZ I         741  4.94         5.1 0.14            132            146 259 
 SPBC HZ EP        740 42.35                             128    0.21 9  161 219 
 SPBC HN ES        741  3.96                             128   -0.01 9  161 219 
                                                                                
