 2012  614 0243 38.5 L   6.765 -73.135143.6  RSN 10 0.4 2.0LRSN                1
 GAP=140        0.69       2.8     3.5  5.7 -0.2260E+01  0.7776E+01 -0.3364E+00E
 Epicentro: LOS SANTOS - SANTANDER                                             3
 ACTION:UPD 12-08-06 17:49 OP:ep   STATUS:               ID:20120614024338 L   I
 2012-06-14-0240-00M.COL___201                                                 6
 STAT SP IPHASW D HRMM SECON CODA AMPLIT PERI AZIMU VELO AIN AR TRES W  DIS CAZ7
 BAR2 SZ EP   1    243 58.04                             172    0.19 7 19.8 195 
 BAR2 SZ I         243 58.40        26.6 0.14                          19.8 195 
 BAR2 SZ ES   1    244 12.71                             172   -0.19 7 19.8 195 
 PAM  SZ EP        244  0.82                             150    0.1510 79.6  37 
 PAM  SN ES   1    244 17.83                             150   -0.09 7 79.6  37 
 RUS  HZ EP   1    244  1.88                             144    0.08 7 96.7 177 
 RUS  HE ES   1    244 20.06                             144    0.12 7 96.7 177 
 RUS  HZ I         244 21.64        12.6 0.25                          96.7 177 
 PTB  HZ EP   1    244  4.61                             131   -0.77 7  148 260 
 PTB  HN ES   1    244 25.99                             131   -0.32 7  148 260 
 PTB  HZ I         244 27.49         9.9 0.32                           148 260 
 OCA  HZ EP   1    244  6.71                             128   -0.35 7  164 353 
 OCA  HE ES   1    244 29.82                             128    0.51 7  164 353 
 ZAR  HZ EP   1    244 10.98                             121   -0.14 6  207 293 
 ZAR  HN ES   1    244 36.17                             121   -0.36 6  207 293 
 ZAR  HZ I         244 41.93        14.9 0.40                           207 293 
 NOR  SZ EP   2    244 14.71                             118    0.69 4  233 235 
 NOR  SE ES   1    244 42.50                             118    0.81 6  233 235 
 CHI  HZ EP   2    244 15.53                             117   -0.23 4  245 196 
 CHI  HN ES   1    244 44.32                             117   -0.46 6  245 196 
 CHI  HZ I         244 49.99         3.3 0.28                           245 196 
 HEL  HZ EP   1    244 18.86                             114    0.18 6  272 257 
 HEL  HN ES   1    244 50.50                             114    0.52 6  272 257 
 HEL  HZ I         244 56.52         6.9 0.42                           272 257 
 PRA  HE ES   1    245 13.10                             106   -0.01 4  389 210 
                                                                                
