 2012  914 0357 48.9 L   6.816 -73.142146.7  RSN  6 0.2 1.7LRSN                1
 GAP=136        0.51       3.5     3.1  5.4  0.1090E+01  0.1782E+01 -0.1996E+00E
 Epicentro: LOS SANTOS - SANTANDER                                             3
 ACTION:UPD 12-10-22 14:18 OP:ep   STATUS:               ID:20120914035748 L   I
 2012-09-14-0350-00M.COL___227                                                 6
 STAT SP IPHASW D HRMM SECON CODA AMPLIT PERI AZIMU VELO AIN AR TRES W  DIS CAZ7
 BAR2 SZ EP   1    358  8.45                             170   -0.21 7 25.2 190 
 BAR2 SZ ES   1    358 23.77                             170   -0.32 7 25.2 190 
 BAR2 SZ I         358 26.07        13.3 0.32                          25.2 190 
 BRR  HZ EP   1    358 10.09                             153   -0.01 7 70.7 297 
 BRR  HN ES   1    358 27.09                             153    0.43 7 70.7 297 
 PAM  SZ EP   1    358 11.34                             151    0.24 7 75.7  40 
 PAM  SZ I         358 11.54        10.1 0.20                          75.7  40 
 PAM  SN ES   1    358 28.33                             151   -0.10 7 75.7  40 
 RUS  HZ EP   1    358 12.89                             143    0.04 7  102 176 
 RUS  HE ES   1    358 31.65                             143    0.10 7  102 176 
 PTB  HN ES   1    358 37.26                             132    0.12 7  149 258 
 ZAR  HN ES   1    358 46.30                             123   -0.39 6  204 292 
 ZAR  HZ I         358 55.54         2.8 0.10                           204 292 
                                                                                
