 2015  314 0304 51.6 L   6.804 -73.176143.0  RSN  7 0.4 2.2LRSN                1
 GAP= 77        0.99       4.0     4.6  6.9 -0.1122E+01  0.9403E-01  0.1208E+01E
 Epicentro: LOS SANTOS - SANTANDER                                             3
 ACTION:UPD 15-04-30 16:25 OP:nd   STATUS:               ID:20150314030451 L   I
 OLDACT:REG 15-03-14 12:32 OP:cam  STATUS:               ID:20150314025745     3
 2015-03-14-0257-45M.COL___272                                                 6
 STAT SP IPHASW D HRMM SECON CODA AMPLIT PERI AZIMU VELO AIN AR TRES W  DIS CAZ7
 BAR2 EZ EP     C  3 5 10.81                             170   -0.0610 23.4 182 
 BAR2 EZ ES        3 5 25.53                             170   -0.3910 23.4 182 
 BAR2 EZ I         3 5 26.86        34.3 0.22            171           23.4 182 
 BRR  HZ IP     C  3 5 12.72                             153    0.4710 68.1 300 
 BRR  HN ES        3 5 29.01                             153    0.6410 68.1 300 
 BRR  HZ I         3 5 30.78        20.8 0.20            153           68.1 300 
 PAM  SZ EP        3 5 13.82                             150    0.2210 79.2  42 
 PAM  SN ES        3 5 30.83                             150    0.0410 79.2  42 
 PAM  SZ I         3 5 32.56        18.6 0.74            151           79.2  42 
 RUS  HZ EP        3 5 15.53                             143    0.4310  101 174 
 RUS  HN ES        3 5 33.32                             143   -0.1410  101 174 
 RUS  HN I         3 5 35.08        21.4 0.26            145            101 174 
 PTB  HZ EP        3 5 17.46                             132   -0.57 9  145 258 
 PTB  HN ES        3 5 38.48                             132   -0.18 9  145 258 
 PTB  HZ I         3 5 41.84        13.0 0.18            133            145 258 
 TAM  HZ EP   1    3 5 19.13                             129   -0.21 7  158 105 
 OCA  HN ES        3 5 40.91                             129   -0.54 9  159 354 
 OCA  HN I         3 5 44.21        47.1 0.18            130            159 354 
                                                                                
