 2012  914 0104  1.3 L   6.462 -73.767 98.0  RSN  5 0.2 1.6LRSN                1
 GAP=147        0.43       3.1     2.4  5.3  0.2281E+01  0.8651E+00  0.3399E+01E
 Epicentro: SANTA HELENA DEL OPON - SANTANDER                                  3
 ACTION:UPD 12-10-22 14:18 OP:ep   STATUS:               ID:20120914010401 L   I
 2012-09-14-0100-00M.COL___227                                                 6
 STAT SP IPHASW D HRMM SECON CODA AMPLIT PERI AZIMU VELO AIN AR TRES W  DIS CAZ7
 BAR2 SZ EP   1    1 4 17.53                             144   -0.03 7 66.2  77 
 BAR2 SZ ES   1    1 4 29.86                             144   -0.35 7 66.2  77 
 BRR  HZ EP   1    1 4 17.54                             141   -0.09 7 71.5   5 
 BRR  HZ I         1 4 17.89        19.0 0.12                          71.5   5 
 BRR  HE ES   1    1 4 30.58                             141    0.26 7 71.5   5 
 PTB  HZ EP   1    1 4 18.02                             139   -0.04 7 76.7 276 
 PTB  HN ES   1    1 4 31.05                             139   -0.04 7 76.7 276 
 PTB  HN I         1 4 32.31        16.2 0.19                          76.7 276 
 GIR2 SZ EP   2    1 4 19.84                             133    0.21 5 93.1  43 
 RUS  HZ EP   1    1 4 20.52                             132   -0.07 7 98.5 130 
 RUS  HN ES   1    1 4 35.87                             132    0.27 7 98.5 130 
 RUS  HZ I         1 4 37.29         5.7 0.26                          98.5 130 
                                                                                
