 2010  714 0627 53.5 L   6.884 -73.161144.0  RSN  6 0.4 1.5LRSN                1
 GAP=269        0.68      11.7    13.5 13.7 -0.1011E+03 -0.1382E+03  0.7085E+02E
 Epicentro: BETULIA - SANTANDER                                                3
 ACTION:UPD 10-12-01 15:17 OP:pat  STATUS:               ID:20100714062753 L   I
 2010-07-14-0627-52S.COL___120                                                 6
 STAT SP IPHASW D HRMM SECON CODA AMPLIT PERI AZIMU VELO AIN AR TRES W  DIS CAZ7
 GIR2 SZ EP   2    628 12.19                             171    -0.5 5   22 350 
 BRR  HZ EP   1    628 14.00                             154    -0.2 8   66 292 
 BRR  HE ES   1    628 30.48                             154     0.2 8   66 292 
 BRR  HZ I         628 35.13         9.1 0.12                            66 292 
 BRI  SZ IP        628 16.74                             143     0.110  100  24 
 BRI  SZ I         628 39.90         4.1 0.37                           100  24 
 GUE  SZ EP   2    628 16.89                             141    -0.5 5  108  14 
 GRA  SZ IP        628 17.96                             139     0.110  117  20 
 GRA  SZ ES   2    628 37.11                             139     0.2 5  117  20 
 GRA  SZ I         628 38.32         3.1 0.32                           117  20 
 OCA  SZ EP   2    628 21.44                             131     0.6 5  151 353 
 OCA  SZ ES   2    628 41.46                             131    -0.6 5  151 353 
 OCA  SZ I         628 45.55         4.2 0.53                           151 353 
                                                                                
