 2011 1014 0025 27.6 L   6.756 -73.061148.5  RSN 11 0.3 2.1LRSN                1
 GAP=150        0.42       2.5     3.8  4.5 -0.1173E+01  0.4900E+01  0.1709E+01E
 Epicentro: LOS SANTOS - SANTANDER                                             3
 ACTION:UPD 12-07-13 16:03 OP:ep   STATUS:               ID:20111014002527 L   I
 2011-10-14-0020-00M.COL___171                                                 6
 STAT SP IPHASW D HRMM SECON CODA AMPLIT PERI AZIMU VELO AIN AR TRES W  DIS CAZ7
 BAR2 SZ EP   1    025 47.55                             171   -0.02 7 22.5 216 
 BAR2 SZ ES   2    026  2.85                             171   -0.28 5 22.5 216 
 BAR2 SZ I         026  4.36        34.5 0.23                          22.5 216 
 BTL  SZ EP   2    025 48.47                             168    0.76 5 29.0 308 
 GIR2 SZ EP   3    025 47.71                             165   -0.13 2 38.6 338 
 GIR2 SZ ES   2    026  3.67                             165    0.07 5 38.6 338 
 PAM  SZ EP   2    025 50.36                             152    0.32 5 75.9  32 
 PAM  SN ES   2    026  7.49                             152   -0.04 5 75.9  32 
 BRR  HZ EP   1    025 49.47                             150   -0.22 7 81.7 298 
 BRR  HZ I         025 49.73        24.2 0.17                          81.7 298 
 BRR  HN ES   2    026  6.93                             150    0.03 5 81.7 298 
 RUS  HZ EP   2    025 51.15                             146   -0.14 5 95.5 181 
 RUS  HN ES   2    026  9.94                             146    0.19 5 95.5 181 
 OCA  SZ EP   2    025 56.23                             129   -0.50 5  166 350 
 OCA  SZ ES   2    026 19.53                             129    0.10 5  166 350 
 OCA  SZ I         026 28.06        12.5 0.46                           166 350 
 ZAR  HZ EP   2    026  1.19                             122   -0.14 4  215 292 
 ZAR  HN ES   2    026 27.59                             122   -0.03 4  215 292 
 ZAR  HZ I         026 32.55         9.7 0.45                           215 292 
 NOR  SN ES   2    026 32.52                             118    0.07 4  240 237 
 CHI  HZ EP   2    026  5.63                             118    0.38 4  247 198 
 CHI  HE ES   2    026 33.93                             118   -0.68 4  247 198 
 CHI  HZ I         026 44.49         6.2 0.31                           247 198 
 RREF HZ EP   2    026 14.45                             111    0.10 3  326 231 
 RREF HN ES   2    026 51.26                             111    0.46 3  326 231 
 RREF HZ I         027  0.11         8.3 0.43                           326 231 
                                                                                
