 2015  914 0128 29.6 L   6.786 -73.149144.5  RSN 10 0.4 1.7LRSN                1
 GAP=137        1.00       2.8     4.3  5.8 -0.7193E+00  0.5744E+01 -0.2122E+01E
 Epicentro: LOS SANTOS - SANTANDER                                             3
 ACTION:UPD 15-10-28 16:26 OP:cam  STATUS:               ID:20150914012829 L   I
 OLDACT:DUP 15-09-14 14:07 OP:mh   STATUS:               ID:20150914011745d    3
 OLDACT:UP  15-09-14 14:07 OP:mh   STATUS:               ID:20150914011744     3
 OLDACT:UP  15-09-14 14:06 OP:mh   STATUS:               ID:20150914011744     3
 OLDACT:UP  15-09-14 14:05 OP:mh   STATUS:               ID:20150914011744     3
 OLDACT:REG 15-09-14 12:48 OP:mh   STATUS:               ID:20150914011744     3
 2015-09-14-0117-44M.COL___332                                                 6
 STAT SP IPHASW D HRMM SECON CODA AMPLIT PERI AZIMU VELO AIN AR TRES W  DIS CAZ7
 BAR2 EZ EP        128 48.93                             171   -0.0610 21.7 190 
 BAR2 EZ ES        129  3.91                             171   -0.2510 21.7 190 
 BAR2 EZ I         129  4.85        11.8 0.26            166           21.7 190 
 BRR  HZ EP        128 50.86                             152    0.2810 71.6 300 
 BRR  HN ES        129  7.69                             152    0.7010 71.6 300 
 BRR  HZ I         129 11.61         8.1 0.12            147           71.6 300 
 PAM  EZ EP        128 51.89                             150    0.1710 78.9  39 
 PAM  EE ES        129  8.97                             150   -0.0410 78.9  39 
 PAM  EZ I         129 10.90         7.9 0.54            149           78.9  39 
 RUS  HZ EP   1    128 52.40                             144   -0.66 7 99.0 176 
 RUS  HN ES        129 11.49                             144    0.0910 99.0 176 
 RUS  HZ I         129 13.34         3.0 0.36            137           99.0 176 
 PTB  HZ EP   1    128 55.72                             132   -0.63 7  147 259 
 PTB  HN ES        129 16.86                             132   -0.39 9  147 259 
 PTB  HZ I         129 21.18         4.4 0.10            125            147 259 
 OCA  HZ EP        128 57.42                             129   -0.48 9  162 353 
 OCA  HE ES        129 20.07                             129    0.05 9  162 353 
 OCA  HZ I         129 24.19        10.2 0.46            125            162 353 
 SPBC HZ EP        128 57.99                             129    0.18 9  162 219 
 SPBC HN ES   1    129 19.58                             129   -0.27 7  162 219 
 SPBC HZ I         129 25.69         6.3 0.28            122            162 219 
 ZAR  HZ EP        129  2.68                             122    0.75 9  204 293 
 ZAR  HN ES        129 27.06                             122   -0.13 9  204 293 
 ZAR  HZ I         129 33.03         5.8 0.34            116            204 293 
 SML  HZ EP        129  6.79                             117    0.55 8  245 336 
 SML  HN ES        129 34.11                             117   -0.75 8  245 336 
 SML  HZ I         129 41.68         5.7 0.10            112            245 336 
 CHI  HN ES        129 36.46                             117    0.25 8  247 195 
 CHI  HZ I         129 43.27         1.6 0.38            111            247 195 
                                                                                
