 2013  614 0414 27.8 L   6.808 -73.112142.0  RSN 11 0.4 2.2LRSN                1
 GAP=186        0.65       2.2     4.7  4.5  0.1469E+01  0.9648E+01 -0.5533E+00E
 Epicentro: LOS SANTOS - SANTANDER                                             3
 ACTION:UPD 14-01-08 09:54 OP:ep   STATUS:               ID:20130614041427 L   I
 OLDACT:REG 13-06-14 08:06 OP:cam  STATUS:               ID:20130614040959     3
 2013-06-14-0409-59M.COL___261                                                 6
 STAT SP IPHASW D HRMM SECON CODA AMPLIT PERI AZIMU VELO AIN AR TRES W  DIS CAZ7
 BAR2 SZ EP        414 47.17                             169    0.2010 25.1 198 
 BAR2 SZ ES        415  1.85                             169   -0.1110 25.1 198 
 BAR2 SZ I         415  3.01        36.4 0.29            163           25.1 198 
 GIR2 SZ EP        414 47.15                             167    0.1710 31.3 343 
 GIR2 SZ ES   1    415  1.92                             167   -0.05 7 31.3 343 
 BRR  HZ IP     C  414 49.04                             151    0.3710 74.1 297 
 BRR  HN ES   4    415  5.94                             151    0.96 0 74.1 297 
 BRR  HZ I         415 10.27        27.6 0.14            145           74.1 297 
 RUS  HZ EP        414 51.17                             143   -0.0210  101 178 
 RUS  HN ES        415  9.53                             143    0.0610  101 178 
 RUS  HZ I         415 11.11        12.5 0.30            146            101 178 
 PTB  HZ EP        414 54.28                             130   -0.50 9  152 259 
 PTB  HN ES   4    415 14.54                             130   -1.31 0  152 259 
 PTB  HZ I         415 22.08        15.9 0.36            128            152 259 
 OCA  HZ EP        414 55.57                             129   -0.17 9  160 352 
 OCA  HN ES        415 17.28                             129   -0.28 9  160 352 
 OCA  HZ I         415 21.00        20.0 0.48            130            160 352 
 ZAR  HZ EP        415  0.44                             121    0.15 8  207 292 
 ZAR  HN ES   1    415 26.18                             121    0.52 6  207 292 
 ZAR  HZ I         415 31.33        23.9 0.32            120            207 292 
 SML  HZ EP   2    415  3.63                             117   -0.63 4  244 334 
 SML  HN ES   1    415 32.74                             117    0.01 6  244 334 
 SML  HZ I         415 38.63        28.8 0.24            118            244 334 
 CHI  HZ EP   2    415  5.91                             116    0.46 4  251 196 
 CHI  HN ES   2    415 34.56                             116   -0.30 4  251 196 
 HEL  HZ EP   2    415  9.16                             114    0.95 4  276 256 
 HEL  HN ES   2    415 39.11                             114   -0.65 4  276 256 
 HEL  HZ I         415 46.64         4.8 0.56            114            276 256 
 PRA  HZ EP   2    415 21.84                             106    0.38 3  395 210 
 PRA  HN ES   1    416  2.52                             106   -0.83 4  395 210 
 PRA  HZ I         416  5.87         4.4 0.32            107            395 210 
                                                                                
