 2016  414 0753 14.0 L   6.797 -73.153138.2  RSN  7 0.4 1.3LRSN                1
 GAP=141        0.99       5.3     4.9  7.6 -0.1027E+02  0.1410E+02 -0.2553E+01E
 Epicentro: LOS SANTOS - SANTANDER                                             3
 ACTION:UPD 16-05-05 14:21 OP:rebc STATUS:               ID:20160414075314 L   I
 OLDACT:UP  16-04-15 00:24 OP:mh   STATUS:               ID:20160414074746d    3
 OLDACT:UP  16-04-15 00:24 OP:mh   STATUS:               ID:20160414074746d    3
 OLDACT:DUP 16-04-15 00:17 OP:mh   STATUS:               ID:20160414074746d    3
 OLDACT:UP  16-04-14 20:28 OP:cara STATUS:               ID:20160414074745     3
 OLDACT:REG 16-04-14 12:33 OP:mh   STATUS:               ID:20160414074745     3
 2016-04-14-0747-45M.COL___304                                                 6
 STAT SP IPHASW D HRMM SECON CODA AMPLIT PERI AZIMU VELO AIN AR TRES W  DIS CAZ7
 BAR2 EZ EP        753 32.70                             170    0.0410 22.8 188 
 BAR2 EZ ES        753 46.42                             170   -0.8310 22.8 188 
 BAR2 EZ I         753 48.98         4.6 0.24            169           22.8 188 
 PAM  EZ EP        753 35.65                             149    0.2410 78.2  40 
 PAM  EN ES        753 52.42                             149    0.2710 78.2  40 
 PAM  EZ I         753 54.03         3.9 0.42            154           78.2  40 
 RUS  HZ EP        753 36.73                             142   -0.2110  100 176 
 RUS  HN ES        753 55.34                             142    0.4710  100 176 
 RUS  HZ I         753 57.10         1.1 0.39            144            100 176 
 PTB  HZ EP        753 39.79                             130   -0.45 9  147 259 
 PTB  HN ES        754  1.19                             130    0.45 9  147 259 
 PTB  HZ I         754  4.51         6.4 0.05            132            147 259 
 SPBC HZ EP        753 41.67                             127   -0.13 9  162 219 
 SPBC HN ES        754  3.71                             127    0.18 9  162 219 
 SPBC HZ I         754  9.97         3.4 0.22            129            162 219 
 HEL  HN ES        754 24.67                             113   -0.03 8  271 256 
 GUY2CHN ES   4    754 34.37                             111    3.57 0  300 235 
 GUY2CHZ I         754 39.43         1.4 0.76                           300 235 
                                                                                
