 2010  614 0243 18.0 L   6.809 -73.090136.5  RSN  9 0.4 1.8LRSN                1
 GAP=162        0.77       2.9     8.1  6.4 -0.1084E+02  0.1338E+02 -0.2020E+01E
 Epicentro: LOS SANTOS - SANTANDER                                             3
 ACTION:UP  10-08-24 10:10 OP:vdl  STATUS:               ID:20100614024318 L   I
 2010-06-14-0240-20S.COL___114                                                 6
 STAT SP IPHASW D HRMM SECON CODA AMPLIT PERI AZIMU VELO SNR AR TRES W  DIS CAZ7
 BAR2 SZ IP        243 36.53                             169     0.010   26 203 
 BAR2 SZ ES   1    243 50.98                             169    -0.1 7   26 203 
 GIR2 SZ EP   1    243 36.69                             166     0.1 7   32 339 
 RUS  HZ EP        243 40.60                             141    -0.310  101 180 
 RUS  HZ I         243 41.75        10.3 0.15                           101 180 
 RUS  HE ES   1    243 59.26                             141     0.5 7  101 180 
 BRI  SZ EP        243 41.14                             140     0.410  105  18 
 BRI  SZ ES   1    243 58.76                             140     0.2 7  105  18 
 GUE  SZ IP        243 41.62                             138    -0.110  114   9 
 GUE  SZ ES   1    243 59.61                             138    -0.6 7  114   9 
 GRA  SZ EP        243 42.42                             135     0.210  123  15 
 GRA  SZ ES   1    244  1.15                             135     0.1 7  123  15 
 OCA  SZ EP        243 45.42                             127    -0.2 9  160 351 
 OCA  SZ ES   1    244  6.69                             127    -0.4 7  160 351 
 OCA  SZ I         244 10.06        10.5 0.18                           160 351 
 CHI  HZ EP   2    243 55.70                             115     0.2 4  251 196 
 CHI  HE ES   1    244 23.97                             115    -0.7 6  251 196 
 CHI  HZ I         244 31.67         3.1 0.35                           251 196 
 HEL  HZ EP   2    243 58.90                             112     0.5 4  278 256 
 HEL  HN ES   2    244 30.93                             112     0.9 4  278 256 
 HEL  HZ I         244 35.02         3.9 0.38                           278 256 
                                                                                
