 2012  214 0727  5.2 L   6.432 -74.008 30.5  RSN  4 0.3 1.0LRSN                1
 GAP=182        0.52       5.8     3.2  5.6 -0.4321E+01 -0.1163E+02 -0.2598E+00E
 ACTION:UP  12-03-07 16:30 OP:epov STATUS:               ID:20120214072705 L   I
 2012-02-14-0720-00M.COL___187                                                 6
 STAT SP IPHASW D HRMM SECON CODA AMPLIT PERI AZIMU VELO AIN AR TRES W  DIS CAZ7
 PTB  HZ EP   1    727 14.43                             114   -0.10 7 51.0 284 
 PTB  HN ES   2    727 21.72                             114   -0.05 5 51.0 284 
 BRR  HZ EP   2    727 18.44                              61   -0.06 5 81.5  24 
 BRR  HN ES   2    727 28.89                              61    0.04 5 81.5  24 
 BRR  HZ I         727 29.71         4.2 0.10                          81.5  24 
 BAR2 SZ EP   1    727 20.64                              61    0.42 7 93.0  79 
 BAR2 SZ ES   2    727 31.25                              61   -0.66 5 93.0  79 
 BAR2 SZ I         727 33.85         3.6 0.40                          93.0  79 
 HEL  HN ES   2    727 49.43                              61    0.02 4  170 261 
                                                                                
