 2012  914 0959  9.4 L   6.802 -73.161148.6  RSN 13 0.3 2.8LRSN 3.1WRSN        1
 SPEC AVERAGE  MO 13.8 ST  5.5 OM  4.0 f0 4.10 R0.3585 AL 2.37 WI 11.9 MW  3.1 3
 SPEC SD       MO  0.0 ST0.461 OM  2.2 f00.020 R0.0017 AL      WI      MW  0.0 3
 GAP=112        0.65       2.9     3.1  4.2  0.7210E+00  0.3989E+01  0.3926E+01E
 Epicentro: LOS SANTOS - SANTANDER                                             3
 SPEC PRA HH N MO 13.8 ST  6.0 OM  1.8 f0 4.12 R0.3568 AL 2.21 WI 10.2 MW  3.1 3
 SPEC PRA HH N T10 045 K 0.000 GD  418 VS 4.20 DE 3.00 Q0230.0 QA 0.60 VS 4.20 3
 SPEC CHI HH N MO 13.7 ST  5.0 OM  1.9 f0 4.08 R0.3603 AL 2.53 WI 13.5 MW  3.1 3
 SPEC CHI HH N T10 016 K 0.000 GD  289 VS 4.20 DE 3.00 Q0230.0 QA 0.60 VS 4.20 3
 ACTION:UPD 12-10-22 14:18 OP:ep   STATUS:               ID:20120914095909 L   I
 2012-09-14-0957-59S.COL___226                                                 6
 STAT SP IPHASW D HRMM SECON CODA AMPLIT PERI AZIMU VELO AIN AR TRES W  DIS CAZ7
 BAR2 SZ EP   1    959 29.46                             171    0.05 7 23.3 186 
 BAR2 SZ ES   1    959 45.28                             171    0.29 7 23.3 186 
 BAR2 SZ I         959 46.16       160.6 0.46                          23.3 186 
 GIR2 SZ EP        959 29.49                             168    0.0510 30.8 353 
 GIR2 SZ ES   1    959 44.41                             168   -0.63 7 30.8 353 
 BRR  HZ EP   1    959 31.29                             153    0.48 7 69.6 299 
 BRR  HZ I         959 31.63       243.5 0.24                          69.6 299 
 BRR  HN ES   1    959 48.19                             153    0.71 7 69.6 299 
 PAM  SZ EP   1    959 32.22                             151    0.21 7 78.3  41 
 PAM  SZ I         959 32.55        43.7 0.24                          78.3  41 
 PAM  SN ES   1    959 49.52                             151   -0.10 7 78.3  41 
 RUS  HZ EP   1    959 33.31                             144   -0.18 7  101 175 
 RUS  HN ES   1    959 51.84                             144   -0.42 7  101 175 
 RUS  HZ I         959 53.42        41.5 0.32                           101 175 
 PTB  HZ EP   1    959 35.97                             133   -0.53 7  146 259 
 PTB  HN ES   1    959 57.18                             133   -0.42 7  146 259 
 PTB  HN I        10 0  3.11       162.3 0.36                           146 259 
 YOP  SZ EP   1    959 39.85                             127    0.07 7  180 153 
 YOP  SE ES   2   10 0  3.66                             127    0.21 4  180 153 
 YOP  SZ I        10 0  4.50        38.1 0.30                           180 153 
 ZAR  HZ EP   1    959 41.76                             123   -0.14 6  202 292 
 ZAR  HE ES   1   10 0  7.33                             123    0.10 6  202 292 
 ZAR  HZ I        10 0 14.56        67.0 0.34                           202 292 
 NOR  SZ EP   1    959 45.49                             119    0.29 6  233 234 
 NOR  SN ES   1   10 0 13.13                             119    0.03 6  233 234 
 CHI  HZ EP   1    959 47.33                             118    0.06 6  248 195 
 CHI  HZ I         959 49.64        22.7 0.14                           248 195 
 CHI  HN ES   1   10 0 17.02                             118    0.24 6  248 195 
 HEL  HZ EP   1    959 49.05                             115   -0.57 6  270 256 
 HEL  HZ I        10 0 28.63        33.6 0.28                           270 256 
 DBB  SZ EP   1    959 56.83                             110   -0.01 5  338 274 
 PRA  HZ EP   1   10 0  2.88                             107   -0.10 4  391 209 
 PRA  HZ I        10 0  5.19        26.8 0.18                           391 209 
 PRA  HN ES   1   10 0 45.34                             107    0.59 4  391 209 
                                                                                
