 2013  114 0413 48.1 L   6.755 -73.132144.9  RSN  4 0.4 1.1LRSN                1
 GAP=235        0.76       8.3     8.5  8.4  0.3891E+02  0.1228E+02  0.4717E+01E
 Epicentro: LOS SANTOS - SANTANDER                                             3
 ACTION:UPD 13-02-15 09:14 OP:ep   STATUS:               ID:20130114041348 L   I
 2013-01-14-0410-00M.COL___241                                                 6
 STAT SP IPHASW D HRMM SECON CODA AMPLIT PERI AZIMU VELO AIN AR TRES W  DIS CAZ7
 BAR2 SZ ES   1    414 22.02                             172   -0.67 7 18.8 197 
 BRR  HZ EP   1    414  9.47                             151    0.12 7 75.0 301 
 BRR  HN ES   1    414 26.41                             151    0.46 7 75.0 301 
 BRR  HZ I         414 31.32         3.2 0.46            152           75.0 301 
 RUS  HZ EP   1    414 11.28                             145   -0.10 7 95.5 177 
 RUS  HN ES   1    414 30.05                             145    0.49 7 95.5 177 
 RUS  HZ I         414 31.65         2.2 0.26            150           95.5 177 
 PTB  HZ EP   1    414 14.86                             132   -0.17 7  148 261 
 PTB  HE ES   1    414 35.86                             132   -0.19 7  148 261 
 PTB  HZ I         414 38.68         1.5 0.10            135            148 261 
                                                                                
