 2014 1214 0444 21.4 L   7.564 -73.102150.8  RSN  6 0.5 1.4LRSN                1
 GAP=157        1.22       5.2     6.8  9.0  0.7268E+01  0.1017E+02 -0.2480E+01E
 Epicentro: EL PLAYON - SANTANDER                                              3
 ACTION:UPD 15-02-10 17:03 OP:nd   STATUS:               ID:20141214044421 L   I
 OLDACT:REG 14-12-14 13:51 OP:stll STATUS:               ID:20141214043749     3
 2014-12-14-0437-49M.COL___279                                                 6
 STAT SP IPHASW D HRMM SECON CODA AMPLIT PERI AZIMU VELO AIN AR TRES W  DIS CAZ7
 PAM  SZ EP        444 43.47                             161    0.6410 50.9 119 
 PAM  SZ I         444 43.60         4.9 0.12            163           50.9 119 
 PAM  SN ES        444 59.49                             161   -0.0710 50.9 119 
 BRR  HZ EP        444 44.46                             149    0.6110 84.2 233 
 BRR  HN ES        445  1.69                             149    0.3310 84.2 233 
 BRR  HZ I         445  4.26         3.2 0.12            147           84.2 233 
 BAR2 EZ EP        444 45.92                             143    0.1110  108 185 
 BAR2 EZ I         444 46.29         5.0 0.22            142            108 185 
 BAR2 EZ ES        445  4.47                             143   -0.3810  108 185 
 SML  HZ EP   1    444 51.39                             128    0.25 7  174 322 
 SML  HN ES        445 13.57                             128   -0.76 9  174 322 
 RUS  HZ EP        444 52.72                             127   -0.17 9  185 179 
 RUS  HZ I         444 53.13         2.3 0.14            127            185 179 
 RUS  HN ES        445 16.79                             127   -0.67 9  185 179 
 PTB  HZ EP        444 51.86                             126   -0.68 9  188 233 
 PTB  HN ES        445 17.38                             126    0.55 9  188 233 
 PTB  HZ I         445 21.72         1.7 0.26            125            188 233 
                                                                                
