 2011 1014 0458 54.6 L   6.836 -73.097143.7  RSN  6 0.3 1.7LRSN                1
 GAP=141        0.45       3.7     4.8  6.3  0.3400E+01  0.6824E+01 -0.2549E+00E
 Epicentro: LOS SANTOS - SANTANDER                                             3
 ACTION:UPD 12-07-13 16:03 OP:ep   STATUS:               ID:20111014045435 L   I
 2011-10-14-0454-35S.COL___168                                                 6
 STAT SP IPHASW D HRMM SECON CODA AMPLIT PERI AZIMU VELO AIN AR TRES W  DIS CAZ7
 BAR2 SZ EP   1    459 13.85                             168   -0.22 7 28.6 199 
 BAR2 SZ ES   2    459 29.45                             168    0.17 5 28.6 199 
 BAR2 SZ I         459 31.48         6.5 0.36                          28.6 199 
 PAM  SZ EP   2    459 16.48                             153    0.30 5 70.9  38 
 PAM  SE ES   2    459 32.96                             153   -0.08 5 70.9  38 
 BRR  HZ EP   2    459 15.98                             151    0.31 5 74.3 294 
 BRR  HZ I         459 32.24         8.8 0.73                          74.3 294 
 BRR  HE ES   2    459 32.56                             151    0.43 5 74.3 294 
 RUS  HZ EP   2    459 18.49                             142    0.10 5  104 179 
 RUS  HZ I         459 34.37        13.7 0.92                           104 179 
 RUS  HN ES   2    459 36.69                             142   -0.28 5  104 179 
 OCA  SZ ES   2    459 43.78                             130   -0.36 5  157 351 
 OCA  SZ I         459 53.05         5.3 0.52                           157 351 
 ZAR  HZ EP   2    459 27.54                             121    0.29 4  208 291 
 ZAR  HN ES   2    459 52.23                             121   -0.51 4  208 291 
 ZAR  HZ I         459 58.42         4.0 0.31                           208 291 
                                                                                
