 2013  414 0351 57.5 L   6.813 -73.139152.0  RSN 27 0.6 3.4LRSN 3.5WRSN        1
 SPEC AVERAGE  MO 14.4 ST 22.7 OM  2.8 f0 3.47 R0.4636 AL 2.48 WI 30.0 MW  3.5 3
 SPEC SD       MO  0.2 ST 29.1 OM  0.3 f0 1.04 R0.1374 AL      WI      MW  0.1 3
 GAP= 68        1.19       2.6     3.2  4.5 -0.2152E+01  0.1460E+01  0.1709E+01E
 Epicentro: LOS SANTOS - SANTANDER                                             3
 SPEC TAM HH N MO 14.3 ST  3.8 OM  2.6 f0 2.33 R0.6309 AL 2.36 WI 18.4 MW  3.5 3
 SPEC TAM HH N T 35247 K 0.000 GD  217 VS 4.20 DE 3.20 Q0300.0 QA 0.60 VS 4.20 3
 SPEC PRA HH E MO 14.4 ST 10.2 OM  2.4 f0 3.04 R0.4836 AL 2.07 WI 27.4 MW  3.6 3
 SPEC PRA HH E T 35331 K 0.000 GD  422 VS 4.20 DE 3.20 Q0300.0 QA 0.60 VS 4.20 3
 SPEC COD HH N MO 14.2 ST  3.2 OM  2.2 f0 2.50 R0.5880 AL 1.34 WI 34.8 MW  3.4 3
 SPEC COD HH N T 35323 K 0.000 GD  378 VS 4.20 DE 3.20 Q0300.0 QA 0.60 VS 4.20 3
 SPEC HEL HH N MO 14.3 ST  7.4 OM  2.4 f0 3.02 R0.4868 AL 2.13 WI 44.4 MW  3.5 3
 SPEC HEL HH N T 353 9 K 0.000 GD  312 VS 4.20 DE 3.20 Q0300.0 QA 0.60 VS 4.20 3
 SPEC ROSCBH Z MO 14.4 ST  5.9 OM  2.5 f0 2.64 R0.5568 AL 3.21 WI 27.4 MW  3.5 3
 SPEC ROSCBH Z T 353 5 K 0.000 GD  296 VS 4.20 DE 3.20 Q0300.0 QA 0.60 VS 4.20 3
 SPEC CHI HH N MO 14.4 ST 18.2 OM  2.5 f0 3.85 R0.3818 AL 3.00 WI 32.6 MW  3.5 3
 SPEC CHI HH N T 353 4 K 0.000 GD  292 VS 4.20 DE 3.20 Q0300.0 QA 0.60 VS 4.20 3
 SPEC NOR HH N MO 14.6 ST100.8 OM  2.8 f0 5.49 R0.2678 AL 3.72 WI 29.9 MW  3.7 3
 SPEC NOR HH N T 353 1 K 0.000 GD  280 VS 4.20 DE 3.20 Q0300.0 QA 0.60 VS 4.20 3
 SPEC OCA HH N MO 14.7 ST 59.3 OM  3.0 f0 4.28 R0.3435 AL 2.32 WI 37.0 MW  3.8 3
 SPEC OCA HH N T 35248 K 0.000 GD  219 VS 4.20 DE 3.20 Q0300.0 QA 0.60 VS 4.20 3
 SPEC PTB HH N MO 14.3 ST  9.8 OM  2.6 f0 3.23 R0.4551 AL 1.45 WI 34.8 MW  3.5 3
 SPEC PTB HH N T 35245 K 0.000 GD  212 VS 4.20 DE 3.20 Q0300.0 QA 0.60 VS 4.20 3
 SPEC RUS HH E MO 14.0 ST 12.0 OM  2.3 f0 4.57 R0.3217 AL 3.26 WI 16.4 MW  3.2 3
 SPEC RUS HH E T 35240 K 0.000 GD  183 VS 4.20 DE 3.20 Q0300.0 QA 0.60 VS 4.20 3
 SPEC PAM SH N MO 14.1 ST  5.9 OM  2.5 f0 3.18 R0.4623 AL 2.58 WI 19.4 MW  3.4 3
 SPEC PAM SH N T 35237 K 0.000 GD  169 VS 4.20 DE 3.20 Q0300.0 QA 0.60 VS 4.20 3
 SPEC BRR HH N MO 14.5 ST 56.6 OM  2.9 f0 4.98 R0.2952 AL 3.33 WI 38.9 MW  3.6 3
 SPEC BRR HH N T 35237 K 0.000 GD  167 VS 4.20 DE 3.20 Q0300.0 QA 0.60 VS 4.20 3
 SPEC BAR2SH Z MO 14.4 ST  2.5 OM  2.8 f0 1.95 R0.7538 AL 1.53 WI 28.6 MW  3.5 3
 SPEC BAR2SH Z T 35232 K 0.000 GD  154 VS 4.20 DE 3.20 Q0300.0 QA 0.60 VS 4.20 3
 ACTION:UPD 13-05-22 14:38 OP:EP   STATUS:               ID:20130414035157 L   I
 2013-04-14-0348-49M.COL___212                                                 6
 STAT SP IPHASW D HRMM SECON CODA AMPLIT PERI AZIMU VELO AIN AR TRES W  DIS CAZ7
 BAR2 SZ IP     C  352 18.08                             170    0.1410 24.9 191 
 BAR2 SZ ES        352 33.00                             170   -0.8610 24.9 191 
 BAR2 SZ I         352 35.80       421.6 0.28            168           24.9 191 
 GIR2 SZ EP        352 18.21                             168    0.3010 30.0 348 
 GIR2 SZ ES        352 33.57                             168   -0.2410 30.0 348 
 BRR  HZ EP     C  352 20.01                             153    0.6610 71.2 297 
 BRR  HE ES        352 36.75                             153    0.3710 71.2 297 
 BRR  HN I         352 39.96       620.5 0.20            153           71.2 297 
 PAM  SZ IP     C  352 20.89                             152    0.5710 75.8  40 
 PAM  SZ I         352 21.22       214.1 0.44            156           75.8  40 
 PAM  SN ES        352 38.09                             152    0.0010 75.8  40 
 RUS  HZ IP     D  352 21.92                             144   -0.0710  102 177 
 RUS  HE I         352 41.76       280.9 0.46            144            102 177 
 CAPV BZ EP        352 25.89                             133    0.60 9  148  38 
 CAPV BZ ES        352 46.46                             133   -0.49 9  148  38 
 PTB  HZ IP     D  352 24.58                             133   -0.52 9  149 258 
 PTB  HN ES        352 45.62                             133   -0.99 9  149 258 
 PTB  HE I         352 53.41       381.2 0.42            132            149 258 
 TAM  HZ IP     C  352 26.25                             132    0.58 9  155 106 
 TAM  HN ES        352 47.58                             132   -0.04 9  155 106 
 TAM  HN I         352 48.75       442.4 0.36            134            155 106 
 OCA  HZ EP        352 26.32                             131    0.11 9  159 353 
 OCA  HN ES        352 48.74                             131    0.16 9  159 353 
 OCA  HN I         352 52.70       737.9 0.30            133            159 353 
 NOR  HZ EP        352 33.82                             119    0.04 8  236 234 
 NOR  HN ES        353  2.20                             119    0.14 8  236 234 
 NOR  HE I         353  7.40       339.6 0.22            119            236 234 
 SML  HZ EP        352 34.49                             119    0.08 8  243 335 
 SML  HE ES        353  3.69                             119    0.52 8  243 335 
 SML  HE I         353  7.60       416.6 0.10            120            243 335 
 CHI  HZ EP     C  352 36.02                             118    0.27 8  250 195 
 CHI  HN ES        353  5.14                             118   -0.42 8  250 195 
 CHI  HN I         353 13.13       126.4 0.42            118            250 195 
 ROSC BN ES        353  5.63                             118   -0.68 8  254 211 
 ROSC BZ I         353 15.80       158.0 0.45            117            254 211 
 HEL  HZ EP        352 38.65                             116    0.46 8  273 256 
 HEL  HN ES        353 10.29                             116    0.39 8  273 256 
 HEL  HE I         353 18.51       100.9 0.28            116            273 256 
 URE  HZ EP   4    352 37.89                             114   -1.04 0  284 292 
 URE  HN ES   4    353  8.32                             114   -2.90 0  284 292 
 SOCV BZ IP     C  352 40.22                             113   -0.48 7  300  57 
 VIL  SZ EP        352 41.16                             113   -0.25 7  305 192 
 VIL  SN ES        353 17.11                             113    1.47 7  305 192 
 DBB  SZ EP     C  352 45.59                             110    0.25 7  340 274 
 COD  HZ EP     C  352 45.99                             110   -0.01 6  347 354 
 COD  HN ES        353 23.16                             110   -0.65 6  347 354 
 COD  HN I         353 29.17        57.8 0.50            111            347 354 
 SDV  BZ EP        352 47.25                             109   -0.39 6  359  50 
 PRA  HZ EP        352 51.60                             107    0.14 6  394 210 
 PRA  HN ES        353 34.14                             107    0.61 6  394 210 
 PRA  HE I         353 37.71        76.0 0.30            107            394 210 
 PAL  HZ EP        352 53.46                             107    0.40 6  407 239 
 SJC  HZ EP        352 51.91                             106   -1.30 6  408 327 
 YOT  HZ EP        353  0.64                             104   -0.29 5  473 229 
 GUA  SZ EP     C  353  0.43                             104   -0.58 5  475 173 
 GUA  SN ES        353 49.09                             104   -1.44 5  475 173 
 GUA  SN I         353 54.66        93.9 0.42            104            475 173 
 SMAR HZ EP        353  3.03                             103   -0.39 4  496 346 
 MARA HZ EP        353  8.97                             102    0.08 4  539 216 
 MARA HZ I         353 11.23        12.3 0.12            102            539 216 
 URI  HZ EP        353  8.19                             101   -2.30 4  555  13 
                                                                                
