 2016  714 0101  0.9 L   6.782 -73.135145.5  RSN  7 0.5 1.5LRSN                1
 GAP=139        1.19       5.1     5.3  8.7 -0.1610E+01  0.8093E+01  0.4135E+01E
 Epicentro: LOS SANTOS - SANTANDER                                             3
 ACTION:UPD 17-03-29 16:50 OP:lp   STATUS:               ID:20160714010100 L   I
 OLDACT:DUP 16-07-14 13:41 OP:dani STATUS:               ID:20160714005760d    3
 2016-07-14-0057-59S.COL___331                                                 6
 STAT SP IPHASW D HRMM SECON CODA AMPLIT PERI AZIMU VELO AIN AR TRES W  DIS CAZ7
 BAR2 EZ ES        1 1 36.57                             171    0.8310 21.6 194 
 BAR2 EZ I         1 1 38.06         7.0 0.44            170           21.6 194 
 BRR  HZ EP        1 1 22.44                             152    0.2810 73.2 299 
 BRR  HE ES        1 1 38.34                             152   -0.3810 73.2 299 
 BRR  HZ I         1 1 43.52         4.3 0.12            154           73.2 299 
 PAM  EZ EP        1 1 22.87                             151   -0.2810 78.2  38 
 PAM  EN ES        1 1 40.11                             151   -0.3910 78.2  38 
 PAM  EZ I         1 1 42.74         5.5 0.50            155           78.2  38 
 RUS  HZ EP        1 1 24.51                             144    0.0210 98.5 177 
 RUS  HE ES        1 1 43.06                             144    0.1810 98.5 177 
 RUS  HZ I         1 1 46.29         2.0 0.22            146           98.5 177 
 PTB  HN ES        1 1 48.50                             132   -0.52 9  149 260 
 SPBC HZ EP        1 1 29.57                             129    0.25 9  162 220 
 SPBC HN ES        1 1 50.83                             129   -0.65 9  162 220 
 SPBC HZ I         1 1 56.91         8.5 0.78            131            162 220 
 ZAR  HN ES        1 1 59.72                             122    0.73 8  206 293 
                                                                                
