 2015  114 0256  7.9 L   6.788 -73.189146.7  RSN  4 0.3 1.1LRSN                1
 GAP=274        0.69       5.1     5.0  5.6  0.7644E+01  0.6557E+01  0.5394E+01E
 Epicentro: ZAPATOCA - SANTANDER                                               3
 ACTION:UPD 15-03-02 15:39 OP:nd   STATUS:               ID:20150114025607 L   I
 OLDACT:REG 15-01-14 14:07 OP:carl STATUS:               ID:20150114024743     3
 2015-01-14-0247-43M.COL___256                                                 6
 STAT SP IPHASW D HRMM SECON CODA AMPLIT PERI AZIMU VELO AIN AR TRES W  DIS CAZ7
 BAR2 EZ EP        256 27.58                             171   -0.0110 21.7 178 
 BAR2 EZ ES        256 42.66                             171   -0.3010 21.7 178 
 BAR2 EZ I         256 44.90         3.8 0.22            160           21.7 178 
 RUS  HZ EP        256 32.09                             144    0.4310 99.7 173 
 RUS  HN ES        256 50.37                             144    0.1610 99.7 173 
 RUS  HZ I         256 51.89         1.5 0.24            139           99.7 173 
 PTB  HZ EP        256 34.19                             133   -0.29 9  143 259 
 PTB  HN ES        256 55.49                             133    0.27 9  143 259 
 PTB  HZ I         257  3.18         2.3 0.36            128            143 259 
 CHI  HZ EP        256 45.20                             117   -0.16 8  246 194 
 CHI  HN ES        257 14.33                             117   -0.26 8  246 194 
 CHI  HZ I         257 25.23         0.8 0.50            116            246 194 
                                                                                
