 2011 1014 0344 18.4 L   7.319 -72.953162.0  RSN 10 0.3 2.1LRSN                1
 GAP=100        0.47       3.4     3.7  5.3 -0.1611E+01  0.6841E+01 -0.1781E+01E
 Epicentro: CHARTA - SANTANDER                                                 3
 ACTION:UPD 12-07-13 16:03 OP:ep   STATUS:               ID:20111014034418 L   I
 2011-10-14-0340-00M.COL___171                                                 6
 STAT SP IPHASW D HRMM SECON CODA AMPLIT PERI AZIMU VELO AIN AR TRES W  DIS CAZ7
 PAM  SZ IP        344 40.43                             170    0.0210 28.0  85 
 PAM  SN ES   2    344 57.31                             170   -0.31 5 28.0  85 
 BRI  SZ EP   2    344 40.67                             163    0.17 5 47.2  21 
 BTL  SZ EP   2    344 41.42                             160    0.48 5 56.3 218 
 BAR2 SZ EP   2    344 42.76                             151    0.41 5 84.3 198 
 BAR2 SZ ES   2    345  0.55                             151   -0.52 5 84.3 198 
 BAR2 SZ I         345  3.00        22.1 0.34                          84.3 198 
 BRR  HZ EP   2    344 42.61                             150    0.44 5 87.1 254 
 BRR  HN ES   2    345  1.09                             150    0.34 5 87.1 254 
 BRR  HZ I         345  4.05        23.5 0.13                          87.1 254 
 OCA  SZ EP   1    344 43.79                             144   -0.08 7  109 338 
 OCA  SZ ES   2    345  4.00                             144    0.23 5  109 338 
 RUS  HZ EP   2    344 47.89                             134   -0.38 5  158 185 
 RUS  HN ES   2    345 11.48                             134   -0.13 5  158 185 
 RUS  HZ I         345 13.29         5.6 0.35                           158 185 
 ZAR  HZ EP   2    344 52.44                             125   -0.18 4  211 275 
 ZAR  HZ IPg       344 52.44                             125   -0.18 8  211 275 
 ZAR  HN ES   2    345 18.97                             125   -0.38 4  211 275 
 ZAR  HZ I         345 23.93        14.2 0.37                           211 275 
 NOR  SN ES   2    345 34.54                             116    0.79 4  287 228 
 HEL  HZ EP   2    345  3.47                             114   -0.23 3  311 246 
 HEL  HE ES   2    345 38.90                             114   -0.17 3  311 246 
                                                                                
