 2017  314 0647 56.7 L   6.766 -73.136141.2  RSN  6 0.3 1.4LRSN                1
 GAP=139        0.89       4.4     3.9  6.0  0.1651E+01  0.6278E+01 -0.1240E+01E
 Epicentro: LOS SANTOS - SANTANDER                                             3
 ACTION:UPD 17-05-25 18:40 OP:jn   STATUS:               ID:20170314064756 L   I
 OLDACT:DUP 17-03-14 16:05 OP:cara STATUS:               ID:20170314064742d    3
 2017-03-14-0648-00M.COL___391                                                 6
 STAT SP IPHASW D HRMM SECON CODA AMPLIT PERI AZIMU VELO AIN AR TRES W  DIS CAZ7
 BAR2 HZ EP        648 15.78                             172    0.0510 19.8 195 
 BAR2 HZ ES        648 30.24                             172   -0.3210 19.8 195 
 BRR  HZ EP        648 17.53                             151   -0.0110 74.0 301 
 BRR  HN ES        648 34.33                             151    0.5510 74.0 301 
 BRR  HZ I         648 38.44         4.6 0.14            150           74.0 301 
 PAM  EZ EP        648 18.54                             149   -0.0510 79.7  37 
 PAM  EN ES        648 35.51                             149   -0.1510 79.7  37 
 PAM  EZ I         648 37.70         6.0 0.74            152           79.7  37 
 RUS  HZ EP        648 20.41                             144    0.6710 96.7 177 
 RUS  HN ES        648 37.55                             144   -0.1510 96.7 177 
 RUS  HZ I         648 39.09         1.9 0.60            148           96.7 177 
 PTB  HZ EP        648 23.22                             131   -0.13 9  148 260 
 PTB  HN ES        648 43.82                             131   -0.30 9  148 260 
 PTB  HZ I         648 47.23         2.3 0.24            132            148 260 
 ZAR  HZ EP        648 28.54                             121   -0.58 8  206 293 
 ZAR  HN ES        648 54.66                             121    0.27 8  206 293 
 ZAR  HZ I         648 59.52         3.6 0.40            122            206 293 
                                                                                
