 2010  814 0116 54.9 L   6.754 -73.126141.2  RSN  5 0.2 1.4LRSN                1
 GAP=161        0.60       4.5     7.9  6.9 -0.7785E+01 -0.2136E+02 -0.1486E+00E
 Epicentro: LOS SANTOS - SANTANDER                                             3
 ACTION:UP  10-09-07 10:54 OP:vdl  STATUS:               ID:20100814011655 L   I
 2010-08-14-0114-56S.COL___111                                                 6
 STAT SP IPHASW D HRMM SECON CODA AMPLIT PERI AZIMU VELO SNR AR TRES W  DIS CAZ7
 BTL  SZ EP        117 13.73                             170    -0.310   24 319 
 BTL  SZ ES   1    117 28.88                             170     0.0 7   24 319 
 BRR  HZ EP   1    117 15.59                             150    -0.2 7   76 301 
 BRR  HE ES   1    117 32.38                             150     0.2 7   76 301 
 BRR  HZ I         117 35.76         9.2 0.39                            76 301 
 RUS  HZ EP   2    117 17.82                             144     0.0 5   95 177 
 RUS  HE ES   2    117 35.97                             144     0.3 5   95 177 
 RUS  HZ I         117 37.02         1.8 0.26                            95 177 
 GUE  SZ EP   1    117 20.02                             137     0.4 7  121  11 
 GRA  SZ EP   1    117 20.28                             135     0.2 7  130  16 
 GRA  SZ ES   1    117 39.55                             135    -0.2 7  130  16 
 GRA  SZ I         117 41.30         3.5 0.28                           130  16 
                                                                                
