 2011  914 0257 24.8 L   6.849 -72.983146.8  RSN  4 0.2 1.3LRSN                1
 GAP=256        0.35       7.0     8.2  5.9  0.4732E+02 -0.1636E+02 -0.1409E+02E
 Epicentro: CEPITA - SANTANDER                                                 3
 ACTION:UPD 12-07-13 15:57 OP:ep   STATUS:               ID:20110914025724 L   I
 2011-09-14-0251-57S.COL___169                                                 6
 STAT SP IPHASW D HRMM SECON CODA AMPLIT PERI AZIMU VELO AIN AR TRES W  DIS CAZ7
 BAR2 SZ EP   1    257 44.87                             166    0.00 7 35.9 218 
 BAR2 SZ I         257 45.51         3.7 0.41                          35.9 218 
 BAR2 SZ ES   2    258  0.78                             166    0.26 5 35.9 218 
 BRR  HZ EP   1    257 46.83                             148   -0.09 7 85.4 290 
 BRR  HE ES   2    258  4.00                             148   -0.17 5 85.4 290 
 BRR  HZ I         258  6.75         6.0 0.40                          85.4 290 
 RUS  HZ EP   1    257 49.16                             142    0.09 7  106 186 
 RUS  HZ I         257 49.93         1.6 0.64                           106 186 
 RUS  HN ES   2    258  7.78                             142   -0.22 5  106 186 
 ZAR  HN ES   2    258 25.60                             121    0.18 4  219 289 
 ZAR  HZ I         258 31.42         3.3 0.38                           219 289 
                                                                                
