 2011  714 0418 48.1 L   6.767 -73.075143.7  RSN  9 0.3 2.2LRSN                1
 GAP=147        0.56       2.8     3.9  4.5 -0.2726E+01  0.3938E+01  0.1759E+01E
 Epicentro: LOS SANTOS - SANTANDER                                             3
 ACTION:UPD 12-07-25 14:00 OP:epov STATUS:               ID:20110714041848 L   I
 2011-07-14-0417-35S.COL___112                                                 6
 STAT SP IPHASW D HRMM SECON CODA AMPLIT PERI AZIMU VELO AIN AR TRES W  DIS CAZ7
 BTL  SZ EP   1    419  7.59                             169   -0.02 7 27.1 308 
 GIR2 SZ EP   1    419  7.48                             165   -0.26 7 36.9 339 
 GIR2 SZ ES   1    419 23.14                             165    0.12 7 36.9 339 
 PAM  SZ EP   1    419 10.42                             151    0.38 7 75.7  33 
 PAM  SN ES   1    419 27.27                             151    0.15 7 75.7  33 
 BRR  HZ EP   1    419  9.28                             149   -0.30 7 79.8 298 
 BRR  HZ I         419  9.47        65.3 0.17                          79.8 298 
 BRR  HN ES   1    419 26.37                             149    0.07 7 79.8 298 
 RUS  HZ EP   1    419 11.55                             144    0.14 7 96.7 181 
 RUS  HN ES   1    419 29.31                             144   -0.25 7 96.7 181 
 RUS  HZ I         419 31.62        22.8 0.29                          96.7 181 
 BRI  SZ EP   1    419 12.00                             141    0.08 7  109  16 
 BRI  SZ ES   1    419 30.46                             141    0.00 7  109  16 
 BRI  SZ I         419 35.62        11.4 0.57                           109  16 
 OCA  SZ EP   1    419 16.12                             128   -0.63 7  165 351 
 OCA  SZ ES   1    419 39.08                             128    0.03 7  165 351 
 OCA  SZ I         419 41.03        25.1 0.23                           165 351 
 HEL  HZ EP   1    419 29.79                             114    0.79 6  279 257 
 HEL  HN ES   1    420  0.81                             114   -0.05 6  279 257 
 HEL  HZ I         420  8.48         8.4 0.58                           279 257 
 PRA  HZ EP   1    419 41.66                             106   -0.02 4  393 211 
                                                                                
