 2010 1114 0016 43.9 L   6.788 -73.048151.0  RSN 10 0.3 2.1LRSN                1
 GAP=170        0.74       3.4     6.2  6.2 -0.9281E-01 -0.5132E+01  0.2125E+01E
 Epicentro: LOS SANTOS - SANTANDER                                             3
 ACTION:UP  10-12-17 16:52 OP:REBC STATUS:               ID:20101114001644 L   I
 2010-11-14-0013-31S.COL___129                                                 6
 STAT SP IPHASW D HRMM SECON CODA AMPLIT PERI AZIMU VELO SNR AR TRES W  DIS CAZ7
 BAR2 SZ EP        017  4.21                             170    -0.110   26 215 
 BAR2 SZ ES   2    017 19.65                             170    -0.5 5   26 215 
 BAR2 SZ I         017 20.54        27.7 0.47                            26 215 
 BTL  SZ EP        017  4.91                             169     0.610   28 301 
 BTL  SZ ES   2    017 20.63                             169     0.4 5   28 301 
 BRR  HZ EP        017  6.02                             150    -0.210   82 296 
 BRR  HN ES        017 23.56                             150    -0.110   82 296 
 BRR  HZ I         017 25.91        29.9 0.40                            82 296 
 RUS  HZ EP        017  8.00                             145    -0.110   99 182 
 RUS  HN ES   1    017 27.00                             145     0.0 7   99 182 
 RUS  HZ I         017 28.49         6.0 0.34                            99 182 
 GRA  SZ ES   3    017 29.80                             139     0.3 2  124  13 
 GRA  SZ I         017 32.99        17.3 0.34                           124  13 
 OCA  SZ EP        017 12.69                             130    -0.3 9  163 349 
 OCA  SZ ES   2    017 35.71                             130     0.1 5  163 349 
 OCA  SZ I         017 38.05        17.1 0.24                           163 349 
 NOR  SE ES   2    017 49.10                             119    -0.6 4  243 236 
 CHI  HZ EP   1    017 22.32                             118     0.2 6  250 198 
 CHI  HN ES   1    017 51.78                             118    -0.1 6  250 198 
 CHI  HZ I         017 55.15         5.0 0.66                           250 198 
 HEL  HE ES   2    017 58.63                             115     0.6 4  282 257 
 HEL  HZ I         018  2.82         5.5 0.04                           282 257 
 RREF HN ES   2    018  8.47                             111     0.5 3  329 231 
 RREF HZ I         018 13.86         8.7 0.07                           329 231 
                                                                                
