 2013 1214 0755 49.7 L   6.801 -73.161143.7  RSN  8 0.5 1.5LRSN                1
 GAP=181        1.07       4.3     6.2  8.5  0.3411E+01  0.1185E+02 -0.6640E-01E
 Epicentro: LOS SANTOS - SANTANDER                                             3
 ACTION:UPD 14-01-13 10:18 OP:ep   STATUS:               ID:20131214075549 L   I
 OLDACT:REG 13-12-14 07:32 OP:jn   STATUS:               ID:20131214075000     3
 2013-12-14-0750-00M.COL___285                                                 6
 STAT SP IPHASW D HRMM SECON CODA AMPLIT PERI AZIMU VELO AIN AR TRES W  DIS CAZ7
 BAR2 SZ EP        756  9.02                             170   -0.0810 23.2 186 
 BAR2 SZ ES        756 24.08                             170   -0.1410 23.2 186 
 BAR2 SZ I         756 25.20        10.4 0.28            170           23.2 186 
 BRR  HZ EP        756 11.02                             153    0.4710 69.6 299 
 BRR  HE ES   2    756 27.96                             153    1.15 5 69.6 299 
 BRR  HZ I         756 31.88         4.5 0.54            150           69.6 299 
 RUS  HZ EP        756 13.32                             143    0.0410  101 175 
 RUS  HN ES        756 31.75                             143    0.0810  101 175 
 RUS  HZ I         756 32.83         2.5 0.38            147            101 175 
 PTB  HZ EP        756 15.93                             132   -0.43 9  146 259 
 PTB  HN ES        756 36.19                             132   -0.96 9  146 259 
 PTB  HZ I         756 42.86         5.2 0.24            132            146 259 
 OCA  HN ES        756 39.56                             129   -0.21 9  160 354 
 OCA  HZ I         756 44.96         3.2 0.12            131            160 354 
 SPBC HZ EP        756 18.05                             129    0.09 9  162 218 
 SPBC HE ES   1    756 40.57                             129    0.57 7  162 218 
 SPBC HZ I         756 45.07         6.8 0.38            131            162 218 
 ZAR  HN ES   1    756 47.66                             122    0.73 6  202 292 
 CHI  HN ES   2    756 57.11                             117    0.56 4  248 195 
                                                                                
