 2013  214 0433 44.6 L   6.825 -73.127147.6  RSN  9 0.5 1.7LRSN                1
 GAP=138        0.95       3.9     5.1  6.6  0.2035E+01  0.8069E+01 -0.5850E+00E
 Epicentro: LOS SANTOS - SANTANDER                                             3
 ACTION:UPD 13-03-12 09:32 OP:ep   STATUS:               ID:20130214043344 L   I
 2013-02-14-0430-00M.COL___241                                                 6
 STAT SP IPHASW D HRMM SECON CODA AMPLIT PERI AZIMU VELO AIN AR TRES W  DIS CAZ7
 BAR2 SZ EP        434  4.53                             170    0.0110 26.4 193 
 BAR2 SZ ES   1    434 19.75                             170   -0.30 7 26.4 193 
 BAR2 SZ I         434 20.70        16.4 0.22            164           26.4 193 
 BRR  HZ EP     C  434  6.18                             153    0.2010 71.8 296 
 BRR  HN ES   1    434 23.41                             153    0.76 7 71.8 296 
 BRR  HZ I         434 27.52         9.6 0.14            143           71.8 296 
 PAM  SZ EP        434  7.11                             152    0.3010 73.9  40 
 PAM  SN ES   1    434 24.33                             152    0.19 7 73.9  40 
 PAM  SZ I         434 26.07         5.5 0.30            151           73.9  40 
 RUS  HZ EP        434  8.62                             143   -0.1010  103 177 
 RUS  HN ES   1    434 27.24                             143   -0.30 7  103 177 
 RUS  HZ I         434 28.68         4.9 0.22            138            103 177 
 PTB  HZ EP        434 11.26                             132   -0.69 9  150 258 
 PTB  HN ES   1    434 32.81                             132   -0.47 7  150 258 
 PTB  HZ I         434 34.82         6.5 0.12            123            150 258 
 ZAR  HZ EP   1    434 17.65                             123    0.39 6  205 291 
 ZAR  HN ES   1    434 42.91                             123    0.18 6  205 291 
 ZAR  HZ I         434 48.25        12.1 0.34            115            205 291 
 SML  HZ EP        434 20.71                             118   -0.44 8  242 335 
 SML  HN ES   1    434 48.93                             118   -0.73 6  242 335 
 SML  HZ I         434 52.66         6.5 0.10            112            242 335 
 CHI  HZ EP   1    434 23.18                             117    0.43 6  252 195 
 CHI  HN ES   1    434 52.47                             117   -0.03 6  252 195 
 CHI  HZ I         434 54.73         1.5 0.54            112            252 195 
 HEL  HZ EP   1    434 26.43                             115    1.23 6  275 255 
 HEL  HZ I         435  3.93         1.6 0.30            109            275 255 
                                                                                
