 2015 1214 0850  5.7 L   6.813 -73.120144.8  RSN 14 0.3 2.2LRSN                1
 GAP=139        0.80       2.2     2.9  3.9 -0.1733E+01  0.4329E+01 -0.2720E+00E
 Epicentro: LOS SANTOS - SANTANDER                                             3
 ACTION:UPD 16-02-04 15:04 OP:cam  STATUS:               ID:20151214085005 L   I
 OLDACT:REG 15-12-14 13:51 OP:cara STATUS:               ID:20151214084737     3
 2015-12-14-0847-37M.COL___330                                                 6
 STAT SP IPHASW D HRMM SECON CODA AMPLIT PERI AZIMU VELO AIN AR TRES W  DIS CAZ7
 BAR2 EZ EP        850 25.14                             170   -0.1310 25.4 196 
 BAR2 EZ ES        850 39.92                             170   -0.6110 25.4 196 
 BAR2 EZ I         850 40.98        28.6 0.12            169           25.4 196 
 BRR  HZ EP        850 27.10                             152    0.2410 73.0 296 
 BRR  HN ES        850 44.01                             152    0.6510 73.0 296 
 BRR  HZ I         850 48.43        27.1 0.46            151           73.0 296 
 PAM  EZ EP        850 28.09                             152    0.4310 74.5  39 
 PAM  EE ES        850 45.01                             152    0.2410 74.5  39 
 PAM  EZ I         850 47.30        33.5 0.64            155           74.5  39 
 RUS  HZ EP        850 29.46                             143   -0.0010  102 178 
 RUS  HN ES        850 47.87                             143   -0.1210  102 178 
 RUS  HZ I         850 48.12         9.3 0.44            146            102 178 
 PTB  HZ EP        850 32.63                             131   -0.25 9  151 259 
 PTB  HE ES        850 54.06                             131   -0.01 9  151 259 
 PTB  HZ I         850 55.70        26.2 0.10            132            151 259 
 OCA  HZ EP        850 33.49                             130   -0.36 9  159 352 
 OCA  HN ES        850 55.44                             130   -0.35 9  159 352 
 OCA  HZ I         850 58.54        53.8 0.32            132            159 352 
 SPBC HZ EP        850 34.12                             128   -0.29 9  166 219 
 SPBC HN ES        850 57.02                             128    0.22 9  166 219 
 SPBC HZ I         851  4.78        17.4 0.22            130            166 219 
 ZAR  HZ EP        850 38.15                             122   -0.16 8  206 291 
 ZAR  HN ES        851  3.57                             122   -0.16 8  206 291 
 ZAR  HZ I         851 10.09        22.2 0.30            123            206 291 
 NOR  HZ EP        850 41.56                             118   -0.16 8  238 235 
 NOR  HN ES        851 10.05                             118    0.24 8  238 235 
 NOR  HZ I         851 11.08        10.0 0.18            120            238 235 
 SML  HZ EP        850 41.98                             117   -0.29 8  244 335 
 SML  HE ES        851 10.95                             117    0.16 8  244 335 
 SML  HZ I         851 11.87        17.1 0.46            119            244 335 
 HEL  HZ EP        850 46.73                             114    0.51 8  275 256 
 HEL  HE ES        851 17.37                             114   -0.44 8  275 256 
 HEL  HZ I         851 19.43         5.1 0.24            116            275 256 
 GUY2CHZ EP        850 50.07                             112    0.44 7  304 235 
 GUY2CHN ES        851 24.12                             112    0.24 7  304 235 
 GUY2CHZ I         851 31.91         4.3 0.28                           304 235 
 CBOC HZ EP        850 53.37                             109    0.43 7  337 252 
 CBOC HN ES        851 29.85                             109    0.07 7  337 252 
 CBOC HZ I         851 32.97         3.2 0.24            111            337 252 
 PAL  HZ EP        851  1.41                             106    0.20 6  409 239 
 PAL  HN ES        851 43.79                             106   -0.71 6  409 239 
 PAL  HZ I         851 48.63         2.9 0.48            107            409 239 
                                                                                
