 2015  714 0856  5.4 L   6.811 -73.086144.1  RSN  7 0.4 1.6LRSN                1
 GAP=144        0.94       4.1     5.7  8.3 -0.1823E+01  0.1890E+02 -0.7360E+01E
 Epicentro: LOS SANTOS - SANTANDER                                             3
 ACTION:UPD 15-09-08 21:48 OP:cam  STATUS:               ID:20150714085605 L   I
 OLDACT:REG 15-07-14 14:21 OP:spq  STATUS:               ID:20150714084749     3
 2015-07-14-0847-49M.COL___337                                                 6
 STAT SP IPHASW D HRMM SECON CODA AMPLIT PERI AZIMU VELO AIN AR TRES W  DIS CAZ7
 BAR2 EZ EP        856 24.95                             169    0.0110 26.4 204 
 BAR2 EZ ES   1    856 39.63                             169   -0.52 7 26.4 204 
 BAR2 EZ I         856 40.87        10.0 0.36            172           26.4 204 
 PAM  EZ EP        856 27.90                             152    0.7110 72.4  36 
 PAM  EE ES   1    856 44.67                             152    0.52 7 72.4  36 
 PAM  EZ I         856 46.71         4.3 0.60            153           72.4  36 
 RUS  HZ EP   1    856 28.62                             143   -0.48 7  102 180 
 RUS  HN ES   1    856 47.50                             143   -0.05 7  102 180 
 RUS  HZ I         856 48.45         4.5 0.32            150            102 180 
 OCA  HZ EP        856 33.25                             129   -0.36 9  160 351 
 OCA  HN ES        856 55.11                             129   -0.46 9  160 351 
 OCA  HZ I         857  4.24         5.6 0.16            130            160 351 
 ZAR  HZ EP        856 38.10                             121   -0.28 8  210 291 
 ZAR  HN ES        857  4.45                             121    0.38 8  210 291 
 ZAR  HZ I         857  8.95         5.8 0.20            123            210 291 
 SML  HZ EP   1    856 42.33                             117    0.16 6  246 334 
 GUY2CHZ EP   4    856 50.78                             111    1.11 0  307 235 
 GUY2CHE ES   1    857 24.63                             111    0.47 5  307 235 
 GUY2CHZ I         857 32.37         1.3 0.32                           307 235 
                                                                                
