 2010 1114 0836 18.6 L   6.804 -73.037146.1  RSN  4 0.1 1.6LRSN                1
 GAP=194        0.34       6.4    12.4  8.7  0.7408E+02 -0.9243E+02 -0.4753E+02E
 Epicentro: CEPITA - SANTANDER                                                 3
 ACTION:UP  10-12-17 16:52 OP:REBC STATUS:               ID:20101114083618 L   I
 2010-11-14-0834-47S.COL___128                                                 6
 STAT SP IPHASW D HRMM SECON CODA AMPLIT PERI AZIMU VELO SNR AR TRES W  DIS CAZ7
 BAR2 SZ EP   1    836 38.29                             168    -0.1 7   29 215 
 BRR  HZ EP        836 40.49                             149     0.110   82 294 
 BRR  HN ES        836 57.41                             149     0.010   82 294 
 BRR  HZ I         836 59.16         9.4 0.43                            82 294 
 RUS  HZ EP   2    836 42.29                             143    -0.1 5  101 183 
 RUS  HN ES        837  1.03                             143     0.010  101 183 
 RUS  HZ I         837  2.53         3.2 0.53                           101 183 
 OCA  SZ EP   2    836 47.16                             129     0.1 5  162 349 
 OCA  SZ I         837 13.29         5.7 0.37                           162 349 
                                                                                
