 2013  514 0602  4.6 L   6.675 -73.981 19.2  RSN  7 0.4 1.4LRSN                1
 GAP= 88        0.90       2.7     1.8  3.3 -0.8524E-01  0.1319E+01  0.1282E+01E
 Epicentro: PUERTO PARRA - SANTANDER                                           3
 ACTION:UPD 13-06-20 09:50 OP:ep   STATUS:               ID:20130514060204 L   I
 2013-05-14-0600-00M.COL___256                                                 6
 STAT SP IPHASW D HRMM SECON CODA AMPLIT PERI AZIMU VELO AIN AR TRES W  DIS CAZ7
 PTB  HZ EP        6 2 13.87                             107    0.0310 54.7 254 
 PTB  HN ES        6 2 20.82                             107   -0.2310 54.7 254 
 PTB  HZ I         6 2 21.03        18.5 0.34            105           54.7 254 
 BRR  HZ IP     C  6 2 14.25                             106    0.2010 56.2  32 
 BRR  HN ES   1    6 2 21.60                             106    0.18 7 56.2  32 
 BRR  HZ I         6 2 22.28        21.0 0.10            104           56.2  32 
 BAR2 SZ EP        6 2 19.37                             100    0.2610 88.8  96 
 BAR2 SZ ES        6 2 29.83                             100   -0.5810 88.8  96 
 BAR2 SZ I         6 2 30.42         9.9 0.36             99           88.8  96 
 ZAR  HZ EP        6 2 25.26                              56    0.1310  132 313 
 ZAR  HE ES        6 2 40.71                              56   -0.4310  132 313 
 ZAR  HZ I         6 2 41.19        10.1 0.36             96            132 313 
 RUS  HZ EP        6 2 26.29                              56    0.6710  132 131 
 RUS  HN ES   1    6 2 41.45                              56   -0.56 7  132 131 
 RUS  HZ I         6 2 45.60         3.2 0.24             96            132 131 
 NOR  HE ES   1    6 2 46.95                              56    0.17 7  157 219 
 HEL  HN ES   1    6 2 52.53                              56    0.18 7  179 253 
                                                                                
