 2017  814 0020 29.2 L   6.830 -73.169145.7  RSN 15 0.8 2.1LRSN                1
 GAP=109        1.41       4.5     5.6  6.9  0.1201E+01  0.1335E+02  0.4365E+01E
 Epicentro: LOS SANTOS - SANTANDER                                             3
 ACTION:UPD 17-09-04 20:20 OP:rebc STATUS:               ID:20170814002029 L   I
 OLDACT:UP  17-08-14 15:11 OP:mg   STATUS:               ID:20170814001740     3
 OLDACT:UP  17-08-14 15:10 OP:mg   STATUS:               ID:20170814001740     3
 OLDACT:REG 17-08-14 13:17 OP:mg   STATUS:               ID:20170814001740     3
 2017-08-14-0018-00M.COL___413                                                 6
 STAT SP IPHASW D HRMM SECON CODA AMPLIT PERI AZIMU VELO AIN AR TRES W  DIS CAZ7
 BAR2 EZ EP        020 48.53                             169   -0.3110 26.3 183 
 BAR2 EZ ES        021  3.07                             169   -1.1210 26.3 183 
 BAR2 EZ I         021  4.58        42.7 0.32            167           26.3 183 
 BRR  HZ IP     C  020 50.31                             153    0.2210 67.4 297 
 BRR  HN ES        021  7.44                             153    1.0310 67.4 297 
 BRR  HZ I         021 10.50        22.7 0.28            150           67.4 297 
 PAM  EZ EP        020 51.56                             151    0.2410 76.6  43 
 PAM  EN ES        021  8.48                             151   -0.1210 76.6  43 
 PAM  EZ I         021 10.70        15.8 0.48            156           76.6  43 
 RUS  HZ EP        020 52.75                             143   -0.4110  104 175 
 RUS  HN ES        021 11.42                             143   -0.4510  104 175 
 RUS  HZ I         021 12.17        21.1 0.18            143            104 175 
 SPBC HZ EP        020 58.13                             128    0.38 9  164 218 
 SPBC HN ES        021 20.50                             128    0.46 9  164 218 
 SPBC HZ I         021 21.92        26.1 0.10            128            164 218 
 YPLC HZ IP     D  020 58.93                             126   -0.42 9  181 151 
 YPLC HN ES   3    021 24.44                             126    1.54 2  181 151 
 YPLC HZ I         021 27.22         6.4 0.36            128            181 151 
 ZAR  HZ EP        021  1.40                             122    0.17 9  200 292 
 ZAR  HN ES        021 26.30                             122    0.06 9  200 292 
 ZAR  HZ I         021 31.66        10.9 0.10            122            200 292 
 NOR  HZ EP        021  4.75                             118   -0.12 8  235 233 
 NOR  HN ES        021 32.87                             118    0.15 8  235 233 
 NOR  HZ I         021 38.02         8.4 0.20            118            235 233 
 CHI  HZ EP        021  7.62                             117    0.49 8  251 194 
 CHI  HN ES        021 36.06                             117   -0.68 8  251 194 
 CHI  HZ I         021 41.12         8.5 0.38            117            251 194 
 ROSC BZ EP        021  8.76                             116    1.32 8  254 210 
 ROSC BN ES   3    021 39.72                             116    2.42 2  254 210 
 ROSC BZ I         021 43.34        20.8 0.26            117            254 210 
 URE  HZ EP        021  8.68                             113   -1.14 7  280 291 
 URE  HE ES   3    021 39.41                             113   -2.13 2  280 291 
 URE  HZ I         021 50.76         9.7 0.20            114            280 291 
 GUY2CHZ EP        021 13.59                             112    0.84 7  301 234 
 GUY2CHE ES   4    021 51.11                             112    4.37 0  301 234 
 GUY2CHZ I         021 54.72         7.1 0.34                           301 234 
 CBOC HZ EP        021 16.28                             110    0.37 7  332 251 
 CBOC HN ES   3    021 50.72                             110   -1.65 2  332 251 
 CBOC HZ I         022  6.10         2.2 0.70            110            332 251 
 DBB  EZ EP        021 16.69                             109    0.38 7  337 274 
 DBB  EN ES   3    021 51.35                             109   -1.74 2  337 274 
 DBB  EZ I         021 54.15         3.3 0.12            110            337 274 
 SJC  HZ EP        021 22.80                             106   -1.43 6  405 327 
 SJC  HN ES   4    022  3.47                             106   -3.71 0  405 327 
 SJC  HZ I         022  7.91         2.7 0.48            107            405 327 
                                                                                
