 2016  614 0152 15.8 L   6.728 -73.140142.0  RSN  6 0.5 1.4LRSN                1
 GAP=140        0.80       7.0     5.7  8.0  0.2490E+01  0.6785E+01  0.8253E+01E
 Epicentro: JORDAN - SANTANDER                                                 3
 ACTION:UPD 16-07-21 22:18 OP:rebc STATUS:               ID:20160614015215 L   I
 OLDACT:DUP 16-06-14 14:37 OP:dnl  STATUS:               ID:20160614014744d    3
 OLDACT:REG 16-06-14 12:23 OP:dnl  STATUS:               ID:20160614014743     3
 2016-06-14-0147-43M.COL___301                                                 6
 STAT SP IPHASW D HRMM SECON CODA AMPLIT PERI AZIMU VELO AIN AR TRES W  DIS CAZ7
 BAR2 EZ EP   2    152 34.91                             173    0.08 5 15.7 197 
 BAR2 EZ ES   2    152 48.91                             173   -0.78 5 15.7 197 
 BAR2 EZ I         152 51.19         5.5 0.12                          15.7 197 
 BRR  HZ EP        152 36.93                             151    0.1310 75.8 304 
 BRR  HN ES        152 53.70                             151    0.5010 75.8 304 
 BRR  HZ I         152 58.36         6.5 0.12                          75.8 304 
 PAM  EZ EP   3    152 37.93                             149   -0.05 2 83.4  36 
 PAM  EN ES   2    152 54.48                             149   -0.80 5 83.4  36 
 PAM  EZ I         152 57.33         5.8 0.23                          83.4  36 
 RUS  HZ EP   2    152 39.02                             146    0.42 5 92.6 176 
 RUS  HE ES   2    152 57.12                             146    0.73 5 92.6 176 
 RUS  HZ I         152 58.24         2.0 0.26                          92.6 176 
 PTB  HZ EP        152 41.90                             132   -0.48 9  147 262 
 PTB  HN ES        153  2.94                             132   -0.18 9  147 262 
 PTB  HZ I         153  5.36         4.4 0.16                           147 262 
 ZAR  HZ EP   2    152 48.70                             121    0.33 4  208 294 
 ZAR  HN ES   2    153 13.69                             121   -0.10 4  208 294 
 ZAR  HZ I         153 21.89         3.2 0.26                           208 294 
                                                                                
