 2017  414 0545 26.1 L   6.329 -73.717101.5  RSN  6 0.1 1.1LRSN                1
 GAP= 83        0.59       2.3     2.9  4.4  0.5852E+00  0.1596E+01 -0.1391E+01E
 Epicentro: SANTA HELENA DEL OPON - SANTANDER                                  3
 ACTION:UPD 17-05-30 21:12 OP:jn   STATUS:               ID:20170414054526 L   I
 OLDACT:UP  17-04-14 16:25 OP:edw  STATUS:               ID:20170414053739     3
 OLDACT:REG 17-04-14 12:46 OP:edw  STATUS:               ID:20170414053739     3
 2017-04-14-0538-00M.COL___356                                                 6
 STAT SP IPHASW D HRMM SECON CODA AMPLIT PERI AZIMU VELO AIN AR TRES W  DIS CAZ7
 BAR2 EZ EP        545 42.64                             144   -0.0410 65.9  64 
 BAR2 EZ ES        545 55.68                             144    0.1010 65.9  64 
 BAR2 EZ I         545 56.85         4.6 0.38            143           65.9  64 
 SPBC HN ES        545 57.82                             137    0.0310 84.6 208 
 PTB  HZ EP   9 D  545 43.00                             137   -0.86 0 85.0 286 
 PTB  HN ES        545 56.24                             137   -0.5810 85.0 286 
 PTB  HZ I         545 56.92         5.4 0.40            138           85.0 286 
 RUS  HZ EP        545 44.63                             137    0.1010 85.2 125 
 RUS  HN ES        545 58.78                             137   -0.0910 85.2 125 
 RUS  HZ I         546  0.13         1.6 0.20            136           85.2 125 
 BRR  HZ EP        545 43.78                             136   -0.1410 86.0   0 
 BRR  HN ES        545 57.76                             136   -0.0210 86.0   0 
 ZAR  HZ EP        545 53.53                             115    0.08 9  180 316 
 ZAR  HN ES   4    546 15.75                             115    1.00 0  180 316 
                                                                                
