 2010 1214 0838 54.7 L   6.784 -72.992147.1  RSN  9 0.4 2.1LRSN                1
 GAP=176        0.99       4.4    11.8  8.6 -0.3010E+02  0.3057E+02 -0.2711E+01E
 Epicentro: CEPITA - SANTANDER                                                 3
 ACTION:UP  11-01-14 15:24 OP:pat  STATUS:               ID:20101214083854 L   I
 2010-12-14-0837-24S.COL___137                                                 6
 STAT SP IPHASW D HRMM SECON CODA AMPLIT PERI AZIMU VELO SNR AR TRES W  DIS CAZ7
 BAR2 SZ EP   1    839 14.50                             168    -0.2 7   30 225 
 BAR2 SZ ES   1    839 29.67                             168    -0.5 7   30 225 
 BAR2 SZ I         839 31.08        28.7 0.17                            30 225 
 BTL  SZ EP        839 14.66                             167    -0.110   34 296 
 RUS  HZ EP   1    839 18.39                             144    -0.1 7   99 186 
 RUS  HN ES   1    839 37.58                             144     0.5 7   99 186 
 RUS  HZ I         839 40.02         9.3 0.22                            99 186 
 GRA  SZ IP        839 20.31                             138     0.410  124  10 
 GRA  SZ ES   1    839 40.06                             138     0.5 7  124  10 
 GRA  SZ I         839 41.19        17.6 0.39                           124  10 
 OCA  SZ EP   1    839 22.90                             129    -0.7 7  165 347 
 OCA  SZ ES   1    839 45.77                             129    -0.3 7  165 347 
 OCA  SZ I         839 49.70        17.4 0.15                           165 347 
 CHI  HZ EP   1    839 32.65                             117    -0.2 6  252 199 
 CHI  HE ES   1    840  1.79                             117    -0.8 6  252 199 
 CHI  HZ I         840  5.38         6.1 0.56                           252 199 
 ROSC BE ES   1    840  4.68                             116     0.5 6  260 214 
 ROSC BZ I         840  8.30        10.8 0.51                           260 214 
 RREF HZ EP   1    839 42.76                             110     0.5 5  334 232 
 RREF HN ES   1    840 19.81                             110     0.4 5  334 232 
 RREF HZ I         840 27.03         9.1 0.35                           334 232 
 PRA  HZ EP   1    839 49.09                             106     0.0 4  399 212 
                                                                                
