 2011 1214 0354 26.9 L   6.790 -73.152144.0  RSN  6 0.4 1.5LRSN                1
 GAP=136        0.66       5.6     5.7  7.1 -0.3245E+00 -0.2314E+01  0.6010E+01E
 Epicentro: LOS SANTOS - SANTANDER                                             3
 ACTION:UPD 12-07-13 16:16 OP:ep   STATUS:               ID:20111214035426 L   I
 2011-12-14-0350-00M.COL___185                                                 6
 STAT SP IPHASW D HRMM SECON CODA AMPLIT PERI AZIMU VELO AIN AR TRES W  DIS CAZ7
 BAR2 SZ EP   1    354 46.15                             171   -0.15 7 22.1 189 
 BAR2 SZ I         354 46.33         7.8 0.15                          22.1 189 
 BAR2 SZ ES   2    355  0.90                             171   -0.52 5 22.1 189 
 GIR2 SZ EP   1    354 46.19                             167   -0.21 7 32.3 352 
 GIR2 SZ ES   2    355  1.59                             167   -0.01 5 32.3 352 
 BRR  HZ EP        354 47.91                             152    0.0510 71.1 300 
 BRR  HZ I         354 48.18        12.1 0.18                          71.1 300 
 BRR  HE ES   1    355  4.82                             152    0.62 7 71.1 300 
 PAM  SZ EP   1    354 49.20                             150    0.19 7 78.7  39 
 PAM  SE ES   2    355  5.71                             150   -0.55 5 78.7  39 
 RUS  HZ EP   1    354 50.65                             144    0.25 7 99.5 176 
 RUS  HZ I         354 50.88         3.2 0.26                          99.5 176 
 RUS  HN ES   2    355  9.10                             144    0.37 5 99.5 176 
 PTB  HZ EP   2    354 53.20                             132   -0.44 5  147 259 
 PTB  HN ES   2    355 13.73                             132   -0.77 5  147 259 
                                                                                
