 2013  114 0655 29.1 L   7.223 -73.919 83.4  RSN  5 0.4 1.0LRSN                1
 GAP=104        0.74       4.0     3.9  7.8  0.3742E+01  0.4662E+01  0.6862E+01E
 Epicentro: PUERTO WILCHES - SANTANDER                                         3
 ACTION:UPD 13-02-15 09:14 OP:ep   STATUS:               ID:20130114065529 L   I
 2013-01-14-0650-00M.COL___241                                                 6
 STAT SP IPHASW D HRMM SECON CODA AMPLIT PERI AZIMU VELO AIN AR TRES W  DIS CAZ7
 BRR  HN ES   1    655 50.30                             161   -0.06 7 26.2 119 
 BRR  HZ I         655 50.92         5.5 0.14            161           26.2 119 
 PTB  HZ EP   1    655 45.59                             127   -0.76 7 96.1 218 
 PTB  HN ES   4    655 58.08                             127   -1.71 0 96.1 218 
 PTB  HZ I         655 59.01         2.7 0.20            126           96.1 218 
 ZAR  HZ EP   1    655 47.84                             123    0.31 7  108 286 
 ZAR  HE ES   1    656  2.15                             123    0.25 7  108 286 
 ZAR  HZ I         656  4.36         3.4 0.14            122            108 286 
 OCA  HN ES   1    656  6.39                             118   -0.12 7  130  30 
 RUS  HZ EP   1    655 55.45                             111    0.02 7  174 148 
 RUS  HN ES   1    656 16.41                             111    0.45 7  174 148 
 RUS  HZ I         656 18.18         0.7 0.27            110            174 148 
                                                                                
