 2015 1014 0311  1.7 L   6.834 -73.141144.2  RSN  9 0.6 1.8LRSN                1
 GAP=135        1.42       3.9     7.6  8.3 -0.4848E+01  0.1869E+02  0.2347E+01E
 Epicentro: LOS SANTOS - SANTANDER                                             3
 ACTION:UPD 15-12-22 20:39 OP:cam  STATUS:               ID:20151014031101 L   I
 OLDACT:REG 15-10-14 12:29 OP:stll STATUS:               ID:20151014030748     3
 2015-10-14-0307-48M.COL___337                                                 6
 STAT SP IPHASW D HRMM SECON CODA AMPLIT PERI AZIMU VELO AIN AR TRES W  DIS CAZ7
 BAR2 EZ EP     D  311 21.38                             169    0.1610 27.1 190 
 BAR2 EZ ES        311 36.47                             169    0.0210 27.1 190 
 BAR2 EZ I         311 37.71         6.8 0.12            170           27.1 190 
 BRR  HZ EP     D  311 23.13                             153    0.5310 69.9 296 
 BRR  HN ES        311 40.06                             153    1.1510 69.9 296 
 BRR  HZ I         311 44.59         8.3 0.10            151           69.9 296 
 PAM  EZ EP        311 23.94                             152    0.3810 74.2  41 
 PAM  EZ I         311 24.35        18.7 0.22            154           74.2  41 
 PAM  EN ES        311 40.43                             152   -0.1810 74.2  41 
 RUS  HZ EP        311 25.82                             142    0.2510  104 176 
 RUS  HN ES        311 43.89                             142   -0.2910  104 176 
 RUS  HZ I         311 45.99         6.4 0.34            146            104 176 
 OCA  HN ES        311 50.47                             130   -0.79 9  157 353 
 OCA  HZ I         311 56.80        10.5 0.28            131            157 353 
 SPBC HZ EP        311 30.37                             128   -0.02 9  166 218 
 SPBC HN ES        311 51.86                             128   -0.90 9  166 218 
 SPBC HZ I         311 55.09        15.3 0.22            130            166 218 
 SML  HZ EP        311 38.17                             117    0.28 8  241 335 
 SML  HE ES        312  4.93                             117   -1.19 8  241 335 
 SML  HZ I         312  8.09        11.1 0.10            119            241 335 
 CHI  HZ EP        311 39.94                             116    0.22 8  252 195 
 CHI  HZ I         311 40.90         2.7 0.46            118            252 195 
 CHI  HN ES        312  8.60                             116   -0.77 8  252 195 
 GUY2CHZ EP   1    311 46.11                             112    0.58 5  304 234 
 GUY2CHN ES        312 20.01                             112    0.30 7  304 234 
 GUY2CHZ I         312 27.86         3.6 0.36                           304 234 
                                                                                
