 2017  514 0104 33.6 L   6.802 -73.450  9.2  RSN  5 0.5 1.1LRSN                1
 GAP=104        1.28       3.1     2.9  8.3  0.7792E+00  0.6820E+01 -0.1991E+01E
 Epicentro: SAN VICENTE DE CHUCURI - SANTANDER                                 3
 ACTION:UPD 17-06-16 13:36 OP:jn   STATUS:               ID:20170514010433 L   I
 OLDACT:DUP 17-05-14 13:34 OP:lv   STATUS:               ID:20170514005737d    3
 2017-05-14-0058-00M.COL___356                                                 6
 STAT SP IPHASW D HRMM SECON CODA AMPLIT PERI AZIMU VELO AIN AR TRES W  DIS CAZ7
 BRR  HZ EP        1 4 41.01                              97    0.0210 44.5 319 
 BRR  HN ES        1 4 47.01                              97    0.2610 44.5 319 
 BRR  HZ I         1 4 47.86        28.7 0.06             47           44.5 319 
 PAM  EZ EP        1 4 50.84                              93    0.6410  102  54 
 PAM  EN ES        1 5  2.28                              93   -0.8610  102  54 
 PAM  EZ I         1 5  4.16         4.8 0.06             47            102  54 
 RUS  HZ EP        1 4 51.85                              93    0.6910  108 158 
 RUS  HN ES        1 5  4.52                              93   -0.3310  108 158 
 RUS  HZ I         1 5 11.75         1.6 0.12             47            108 158 
 PTB  HZ EP        1 4 51.74                              93    0.0810  115 255 
 PTB  HN ES        1 5  5.11                              93   -0.6210  115 255 
 PTB  HZ I         1 5  5.87         1.9 0.15             47            115 255 
 ZAR  HZ EP        1 5  0.46                              56    0.37 9  173 296 
 ZAR  HE ES        1 5 20.49                              56   -0.25 9  173 296 
 ZAR  HZ I         1 5 23.06         3.5 0.35             47            173 296 
                                                                                
