 2016  314 0925 47.9 L   6.788 -73.161142.2  RSN 10 0.4 1.3LRSN                1
 GAP=135        1.03       3.3     4.6  7.2 -0.1743E+01  0.8705E+01  0.3393E+01E
 Epicentro: LOS SANTOS - SANTANDER                                             3
 ACTION:UPD 16-05-13 21:24 OP:cam  STATUS:               ID:20160314092547 L   I
 OLDACT:UP  16-03-14 17:53 OP:mher STATUS:               ID:20160314091751     3
 OLDACT:REG 16-03-14 13:00 OP:dnl  STATUS:               ID:20160314091751     3
 2016-03-14-0917-51M.COL___291                                                 6
 STAT SP IPHASW D HRMM SECON CODA AMPLIT PERI AZIMU VELO AIN AR TRES W  DIS CAZ7
 BAR2 EZ EP        926  6.89                             171   -0.2110 21.8 186 
 BAR2 EZ ES        926 21.40                             171   -0.6510 21.8 186 
 BAR2 EZ I         926 24.94         2.5 0.22            169           21.8 186 
 PAM  EN EP        926  9.93                             149    0.0410 79.5  40 
 PAM  EZ ES        926 27.19                             149    0.1610 79.5  40 
 PAM  EN I         926 28.07         3.8 0.46            150           79.5  40 
 RUS  HZ EP        926 11.16                             143   -0.0810 99.4 175 
 RUS  HN ES        926 29.56                             143    0.1310 99.4 175 
 RUS  HZ I         926 30.52         1.6 0.33            143           99.4 175 
 PTB  HZ EP        926 13.74                             132   -0.68 9  146 259 
 PTB  HN ES        926 35.10                             132    0.01 9  146 259 
 PTB  HZ I         926 39.48         3.3 0.37            128            146 259 
 OCA  HN ES        926 38.64                             129    0.62 9  161 354 
 OCA  HZ I         926 41.08         5.0 0.25            127            161 354 
 SPBC HZ EP        926 15.71                             129   -0.24 9  161 219 
 SPBC HN ES        926 38.23                             129    0.42 9  161 219 
 SPBC HZ I         926 45.97         2.4 0.10            126            161 219 
 ZAR  HN ES        926 45.13                             122    0.07 9  203 293 
 ZAR  HZ I         926 51.15         3.8 0.24            119            203 293 
 CHI  HZ EP        926 25.06                             116   -0.18 8  247 195 
 CHI  HN ES        926 55.29                             116    0.95 8  247 195 
 CHI  HZ I         927  0.23         0.9 0.28            115            247 195 
 GUY2CHZ EP   4    926 35.21                             112    4.09 0  299 235 
 GUY2CHN ES   4    927  8.29                             112    3.47 0  299 235 
 GUY2CHZ I         927 15.03         0.9 0.37                           299 235 
 SJC  HZ EP   4    926 40.90                             105   -2.49 0  409 327 
 SJC  HZ I         927  1.10         1.4 0.52            104            409 327 
 SJC  HN ES   4    927 22.56                             105   -4.09 0  409 327 
                                                                                
