 2011  314 0813 37.4 L   6.808 -73.283137.6  RSN  6 0.3 1.4LRSN                1
 GAP=157        0.49       2.6     5.3  5.6 -0.3883E+01  0.1550E+02 -0.2950E+01E
 Epicentro: ZAPATOCA - SANTANDER                                               3
 ACTION:UP  11-06-16 14:33 OP:jfem STATUS:               ID:20110314081337 L   I
 2011-03-14-0810-55S.COL___131                                                 6
 STAT SP IPHASW D HRMM SECON CODA AMPLIT PERI AZIMU VELO SNR AR TRES W  DIS CAZ7
 BAR2 SZ EP   1    813 56.22                             169     0.1 7   26 155 
 BAR2 SZ ES   1    814 10.89                             169     0.2 7   26 155 
 BAR2 SZ I         814 12.18        10.4 0.22                            26 155 
 RUS  HZ EP   1    814  0.37                             141    -0.2 7  104 168 
 RUS  HN ES   1    814 18.64                             141     0.0 7  104 168 
 RUS  HZ I         814 20.43         7.7 0.43                           104 168 
 OCA  SZ EP   1    814  5.08                             128     0.2 7  158 359 
 OCA  SZ ES   1    814 26.07                             128    -0.3 7  158 359 
 NOR  SZ EP   1    814 11.85                             118     0.4 6  223 232 
 NOR  SE ES   1    814 37.82                             118    -0.2 6  223 232 
 NOR  SZ I         814 45.40         0.5 0.19                           223 232 
 CHI  HZ EP   3    814 14.55                             116     0.2 2  246 192 
 CHI  HE ES   3    814 41.98                             116    -1.2 2  246 192 
 PRA  HZ EP   2    814 30.13                             105     0.2 3  386 208 
 PRA  HE ES   3    815  9.91                             105    -0.9 1  386 208 
                                                                                
