 2013  214 0043 56.6 L   6.793 -73.166146.7  RSN  9 0.5 1.6LRSN                1
 GAP= 70        0.96       4.4     5.0  7.7  0.3968E+01  0.8198E+01  0.7912E+01E
 Epicentro: LOS SANTOS - SANTANDER                                             3
 ACTION:UPD 13-03-12 09:32 OP:ep   STATUS:               ID:20130214004356 L   I
 2013-02-14-0040-00M.COL___241                                                 6
 STAT SP IPHASW D HRMM SECON CODA AMPLIT PERI AZIMU VELO AIN AR TRES W  DIS CAZ7
 BAR2 SZ ES   1    044 31.44                             171   -0.22 7 22.2 185 
 BAR2 SZ I         044 32.81        23.0 0.18            168           22.2 185 
 BRR  HN ES   1    044 35.33                             153    1.10 7 69.7 300 
 PAM  SZ EP   1    044 19.32                             150    0.33 7 79.4  40 
 PAM  SN ES   1    044 36.26                             150   -0.24 7 79.4  40 
 PAM  SZ I         044 36.85         4.8 0.26            154           79.4  40 
 RUS  HZ EP        044 20.40                             144    0.0510 99.9 175 
 RUS  HE ES   1    044 38.67                             144   -0.25 7 99.9 175 
 RUS  HZ I         044 39.98         3.9 0.20            143           99.9 175 
 PTB  HZ EP        044 23.22                             133   -0.17 9  145 259 
 PTB  HN ES   1    044 43.79                             133   -0.53 7  145 259 
 PTB  HZ I         044 46.82         6.4 0.14            131            145 259 
 TAM  HN ES   2    044 46.15                             130   -0.12 5  157 104 
 ZAR  HE ES   1    044 54.31                             123    0.21 6  202 293 
 ZAR  HZ I         044 59.72         5.5 0.32            122            202 293 
 SML  HN ES   1    045  0.94                             118   -0.87 6  244 336 
 CHI  HZ IP     C  044 34.76                             117    0.60 8  247 195 
 CHI  HN ES   1    045  2.98                             117   -0.51 6  247 195 
 CHI  HZ I         045 10.82         2.5 0.66            117            247 195 
                                                                                
