 2015  614 0645 42.2 L   6.824 -73.217137.5  RSN  5 0.3 1.4LRSN                1
 GAP=127        0.75       3.7     4.8  6.6  0.6876E+01  0.1037E+00 -0.1812E+01E
 Epicentro: ZAPATOCA - SANTANDER                                               3
 ACTION:UPD 15-09-10 22:12 OP:cam  STATUS:               ID:20150614064542 L   I
 OLDACT:REG 15-06-14 13:05 OP:stll STATUS:               ID:20150614063747     3
 2015-06-14-0637-47M.COL___312                                                 6
 STAT SP IPHASW D HRMM SECON CODA AMPLIT PERI AZIMU VELO AIN AR TRES W  DIS CAZ7
 BRR  HZ EP        646  1.88                             154   -0.1210 63.0 300 
 BRR  HN ES        646 17.43                             154   -0.0110 63.0 300 
 PAM  SZ EP   1    646  4.42                             148    0.67 7 80.8  45 
 RUS  HZ EP        646  5.31                             141   -0.1010  104 172 
 RUS  HN ES        646 23.14                             141   -0.3710  104 172 
 RUS  HZ I         646 25.34         1.4 0.36            143            104 172 
 SPBC HZ EP        646  9.83                             127    0.02 9  160 216 
 SPBC HZ I         646  9.84         5.3 0.22            128            160 216 
 SPBC HN ES        646 31.84                             127    0.50 9  160 216 
 ZAR  HZ EP        646 12.97                             122   -0.28 9  196 292 
 ZAR  HE ES        646 37.45                             122   -0.02 9  196 292 
 ZAR  HZ I         646 42.98         4.1 0.60            122            196 292 
                                                                                
