 2012  914 0612 53.6 L   6.722 -73.104146.0  RSN  5 0.4 1.8LRSN                1
 GAP=178        0.64       8.3     5.7  9.0 -0.6482E+01  0.1520E+02  0.2085E+01E
 Epicentro: JORDAN - SANTANDER                                                 3
 ACTION:UPD 12-10-22 14:18 OP:ep   STATUS:               ID:20120914061253 L   I
 2012-09-14-0610-00M.COL___227                                                 6
 STAT SP IPHASW D HRMM SECON CODA AMPLIT PERI AZIMU VELO AIN AR TRES W  DIS CAZ7
 BAR2 SZ EP   1    613 13.39                             173    0.21 7 16.7 211 
 BAR2 SZ ES   1    613 28.41                             173   -0.01 7 16.7 211 
 BAR2 SZ I         613 31.26        12.8 0.24                          16.7 211 
 BRR  HZ EP   1    613 15.30                             150    0.00 7 79.6 302 
 BRR  HZ I         613 15.46        10.6 0.16                          79.6 302 
 BRR  HE ES   1    613 32.70                             150    0.50 7 79.6 302 
 PAM  SN ES   1    613 33.28                             150   -0.40 7 81.7  33 
 PTB  HN ES   2    613 41.49                             131   -0.69 5  151 262 
 PTB  HN I         613 47.08         9.7 0.28                           151 262 
 ZAR  HN ES   2    613 52.69                             121   -0.13 4  212 294 
 ZAR  HZ I         613 58.46         5.2 0.30                           212 294 
                                                                                
