 2011 1014 0349 26.1 L   6.818 -73.038139.0  RSN 10 0.3 1.8LRSN                1
 GAP=150        0.47       3.2     3.9  5.6 -0.1627E+01  0.8480E+01 -0.2756E+00E
 Epicentro: CEPITA - SANTANDER                                                 3
 ACTION:UPD 12-07-13 16:03 OP:ep   STATUS:               ID:20111014034926 L   I
 2011-10-14-0347-34S.COL___167                                                 6
 STAT SP IPHASW D HRMM SECON CODA AMPLIT PERI AZIMU VELO AIN AR TRES W  DIS CAZ7
 BAR2 SZ IP        349 44.95                             167   -0.0710 29.6 213 
 BAR2 SZ I         349 45.32        18.3 0.13                          29.6 213 
 BAR2 SZ ES   2    349 59.58                             167   -0.23 5 29.6 213 
 PAM  SZ EP   2    349 47.68                             153    0.64 5 68.7  33 
 PAM  SN ES   2    350  3.84                             153    0.44 5 68.7  33 
 BRR  HZ EP        349 46.76                             148   -0.3210 81.0 293 
 BRR  HN ES   2    350  3.49                             148    0.01 5 81.0 293 
 BRR  HZ I         350  8.57        17.0 0.04                          81.0 293 
 RUS  HZ EP   2    349 48.95                             142   -0.34 5  102 183 
 RUS  HN ES   2    350  7.63                             142    0.22 5  102 183 
 RUS  HZ I         350  8.94         5.4 0.42                           102 183 
 OCA  SZ EP   2    349 53.85                             128    0.02 5  160 349 
 ZAR  HZ EP   2    349 59.30                             119    0.14 4  214 290 
 ZAR  HN ES   2    350 25.08                             119    0.10 4  214 290 
 ZAR  HZ I         350 29.31        13.9 0.39                           214 290 
 NOR  SN ES   2    350 31.18                             116    0.09 4  246 236 
 CHI  HN ES   2    350 33.47                             115   -0.07 4  254 198 
 CHI  HZ I         350 36.58         2.3 0.19                           254 198 
 HEL  HZ EP   2    350  7.37                             112    0.09 4  284 256 
 HEL  HN ES   2    350 39.85                             112    0.41 4  284 256 
 HEL  HZ I         350 44.24         2.5 0.42                           284 256 
 RREF HE ES   2    350 50.53                             109    0.72 3  332 230 
 RREF HZ I         350 59.89         2.5 0.30                           332 230 
                                                                                
