 2016  414 0230 48.3 L   6.787 -73.163144.5  RSN  7 0.3 1.6LRSN                1
 GAP=135        0.78       3.5     3.5  5.3 -0.1588E+01  0.7233E+01 -0.1252E+01E
 Epicentro: LOS SANTOS - SANTANDER                                             3
 ACTION:UPD 16-05-05 14:21 OP:rebc STATUS:               ID:20160414023049dL   I
 OLDACT:UP  16-04-14 14:28 OP:mh   STATUS:               ID:20160414022749d    3
 OLDACT:DUP 16-04-14 14:28 OP:mh   STATUS:               ID:20160414022749d    3
 OLDACT:UP  16-04-14 14:28 OP:mh   STATUS:               ID:20160414022748     3
 OLDACT:REG 16-04-14 12:17 OP:mh   STATUS:               ID:20160414022748     3
 2016-04-14-0227-48M.COL___316                                                 6
 STAT SP IPHASW D HRMM SECON CODA AMPLIT PERI AZIMU VELO AIN AR TRES W  DIS CAZ7
 BAR2 EZ EP        231  7.73                             171   -0.0410 21.6 186 
 BAR2 EZ ES        231 23.03                             171    0.0910 21.6 186 
 BAR2 EZ I         231 25.76         7.1 0.26            171           21.6 186 
 PAM  EZ EP        231 10.56                             150    0.0110 79.7  40 
 PAM  EN ES        231 27.81                             150   -0.0710 79.7  40 
 PAM  EZ I         231 29.62         4.6 0.46            154           79.7  40 
 RUS  HZ EP        231 12.00                             144    0.1410 99.3 175 
 RUS  HN ES        231 30.31                             144    0.0910 99.3 175 
 RUS  HZ I         231 31.11         3.6 0.46            149           99.3 175 
 PTB  HZ EP        231 14.65                             132   -0.35 9  146 259 
 PTB  HN ES        231 35.29                             132   -0.51 9  146 259 
 PTB  HZ I         231 42.30         3.4 0.34            133            146 259 
 SPBC HZ EP        231 16.04                             129   -0.47 9  161 219 
 SPBC HN ES        231 38.71                             129    0.22 9  161 219 
 SPBC HZ I         231 40.45         7.4 0.10            132            161 219 
 ZAR  HZ EP        231 20.56                             122   -0.01 9  203 293 
 ZAR  HN ES        231 46.26                             122    0.55 9  203 293 
 ZAR  HZ I         231 51.84         6.1 0.51            124            203 293 
 GUY2CHZ EP        231 32.26                             112    0.65 7  299 235 
 GUY2CHN ES   4    232  9.43                             112    4.06 0  299 235 
 GUY2CHZ I         232 14.09         1.8 0.40                           299 235 
                                                                                
