 2011  814 0118  0.8 L   6.789 -73.103146.7  RSN  8 0.3 2.1LRSN                1
 GAP=143        0.65       2.7     4.7  4.9 -0.3141E+01  0.5117E+01  0.1264E+01E
 Epicentro: LOS SANTOS - SANTANDER                                             3
 ACTION:UPD 12-07-13 15:51 OP:ep   STATUS:               ID:20110814011800 L   I
 2011-08-14-0116-19S.COL___150                                                 6
 STAT SP IPHASW D HRMM SECON CODA AMPLIT PERI AZIMU VELO AIN AR TRES W  DIS CAZ7
 BAR2 SZ EP        118 20.69                             170    0.1810 23.4 202 
 BAR2 SZ ES   1    118 35.63                             170   -0.28 7 23.4 202 
 BAR2 SZ I         118 37.48        45.0 0.23                          23.4 202 
 PAM  SZ EP   1    118 23.40                             152    0.43 7 75.5  36 
 PAM  SN ES   1    118 39.85                             152   -0.43 7 75.5  36 
 BRR  HZ EP     C  118 22.58                             151    0.2910 76.0 298 
 BRR  HZ I         118 22.86        58.8 0.14                          76.0 298 
 BRR  HE ES   1    118 39.63                             151    0.56 7 76.0 298 
 RUS  HZ EP        118 24.57                             144    0.0710 99.1 179 
 RUS  HE ES   1    118 42.79                             144   -0.23 7 99.1 179 
 RUS  HZ I         118 44.56        11.5 0.45                          99.1 179 
 OCA  SZ EP        118 29.23                             129   -0.10 9  162 352 
 OCA  SZ ES   1    118 50.99                             129   -0.61 7  162 352 
 OCA  SZ I         118 57.75        15.1 0.53                           162 352 
 NOR  SZ EP   1    118 36.70                             118   -0.19 6  238 235 
 NOR  SN ES   1    119  4.93                             118   -0.13 6  238 235 
 CHI  HZ EP   1    118 38.43                             117   -0.10 6  249 196 
 CHI  HN ES   1    119  8.16                             117    0.18 6  249 196 
 CHI  HZ I         119 13.93         4.9 0.33                           249 196 
 RREF HZ EP   2    118 46.92                             111   -0.35 3  325 230 
 RREF HN ES   2    119 22.87                             111   -0.67 3  325 230 
 RREF HZ I         119 32.18         6.4 0.47                           325 230 
                                                                                
