 2015  914 0853  6.9 L   5.852 -73.647125.6  RSN 16 0.4 2.1LRSN                1
 GAP= 98        1.02       2.3     3.3  5.5 -0.2502E+01  0.8894E+00  0.6749E-01E
 Epicentro: PUENTE NACIONAL - SANTANDER                                        3
 ACTION:UPD 15-10-28 16:26 OP:cam  STATUS:               ID:20150914085306 L   I
 OLDACT:DUP 15-09-14 20:00 OP:mh   STATUS:               ID:20150914084736d    3
 2015-09-14-0847-35M.COL___326                                                 6
 STAT SP IPHASW D HRMM SECON CODA AMPLIT PERI AZIMU VELO AIN AR TRES W  DIS CAZ7
 SPBC HZ EP        853 24.97                             156   -0.0110 52.0 245 
 SPBC HN ES        853 39.02                             156   -0.0310 52.0 245 
 SPBC HZ I         853 42.97        34.2 0.30            155           52.0 245 
 RUS  HZ EP        853 26.06                             152   -0.0710 62.6  86 
 BAR2 EZ EP        853 28.15                             140    0.0610 96.7  32 
 BAR2 EZ ES        853 44.40                             140   -0.2010 96.7  32 
 BAR2 EZ I         853 45.56        84.8 0.32            142           96.7  32 
 PTB  HZ EP        853 29.10                             134   -0.4210  117 310 
 PTB  HN ES        853 46.60                             134   -0.5310  117 310 
 PTB  HZ I         853 51.29        19.8 0.10            134            117 310 
 CHI  HZ EP        853 31.99                             130    0.30 9  135 184 
 CHI  HN ES        853 50.86                             130   -0.14 9  135 184 
 CHI  HZ I         853 53.59        14.6 0.38            133            135 184 
 BRR  HZ EP        853 31.42                             129   -0.05 9  139 357 
 BRR  HN ES        853 50.66                             129    0.06 9  139 357 
 BRR  HZ I         853 53.87        18.6 0.14            130            139 357 
 NOR  HZ EP        853 31.82                             129    0.28 9  139 257 
 NOR  HE ES        853 51.27                             129    0.53 9  139 257 
 NOR  HZ I         853 54.56        21.5 0.18            129            139 257 
 PAM  EZ EP   1    853 37.70                             119   -0.10 6  195  32 
 PAM  EE ES        854  2.23                             119    0.35 9  195  32 
 PAM  EZ I         854  2.70         7.1 0.22            121            195  32 
 GUY2CHZ EP        853 39.25                             118    0.66 9  203 250 
 GUY2CHN ES   4    854  5.59                             118    2.31 0  203 250 
 GUY2CHZ I         854 10.80         4.0 0.46                           203 250 
 HEL  HZ EP        853 40.08                             117    0.65 8  212 280 
 HEL  HN ES     C  854  5.22                             117    0.44 8  212 280 
 HEL  HZ I         854 12.13         8.0 0.44            117            212 280 
 ZAR  HZ EP        853 39.78                             115   -0.71 8  225 324 
 ZAR  HN ES        854  5.84                             115   -0.82 8  225 324 
 ZAR  HZ I         854 12.53        20.4 0.32            116            225 324 
 OCA  HZ EP   1    853 45.20                             111   -0.09 6  266   8 
 OCA  HN ES        854 16.42                             111    1.22 8  266   8 
 OCA  HZ I         854 23.35        19.0 0.40            112            266   8 
 PRA  HZ EP        853 45.29                             110   -0.65 8  273 210 
 PRA  HN ES        854 16.10                             110   -0.27 8  273 210 
 PRA  HZ I         854 19.46         7.9 0.22            112            273 210 
 ORTC HZ EP        853 46.28                             110   -0.25 7  279 220 
 ORTC HN ES   1    854 17.43                             110    0.02 6  279 220 
 ORTC HZ I         854 20.97         4.5 0.30            111            279 220 
 URE  HZ EP   4    853 46.76                             108   -1.74 0  296 315 
 URE  HN ES   4    854 17.97                             108   -2.95 0  296 315 
 URE  HZ I         854 20.93        12.5 0.12            109            296 315 
 SML  HZ EP   1    853 51.69                             106   -0.69 5  329 352 
 SML  HN ES        854 27.82                             106   -0.02 7  329 352 
 SML  HZ I         854 34.11        13.1 0.22            107            329 352 
                                                                                
