 2010  514 0429 13.0 L   6.771 -73.027147.6  RSN 12 0.5 2.2LRSN                1
 GAP=170        1.15       4.4     9.1  7.5 -0.1673E+02  0.9483E+01  0.3281E+01E
 Epicentro: CEPITA - SANTANDER                                                 3
 ACTION:UP  10-08-24 10:04 OP:vdl  STATUS:               ID:20100514042913 L   I
 2010-05-14-0427-27S.COL___105                                                 6
 STAT SP IPHASW D HRMM SECON CODA AMPLIT PERI AZIMU VELO AIN AR TRES W  DIS CAZ7
 BAR2 SZ EP        429 32.82                             170    -0.110   26 221 
 BAR2 SZ ES   1    429 47.62                             170    -0.8 7   26 221 
 BRR  HZ IP     C  429 35.54                             149     0.410   84 296 
 BRR  HN ES   1    429 53.15                             149     0.7 7   84 296 
 RUS  HZ EP        429 36.74                             145     0.010   97 184 
 RUS  HN ES   1    429 55.39                             145     0.2 7   97 184 
 RUS  HZ I         429 56.71        14.5 0.23                            97 184 
 BRI  SZ EP        429 37.44                             142     0.410  108  14 
 GUE  SZ EP        429 37.81                             140    -0.210  118   6 
 GRA  SZ IP        429 38.68                             138     0.310  126  11 
 GRA  SZ ES   1    429 58.17                             138     0.0 7  126  11 
 OCA  SZ EP        429 41.28                             129    -0.7 9  165 349 
 OCA  SZ ES   2    430  4.11                             129    -0.4 5  165 349 
 OCA  SZ I         430  9.20        28.5 0.33                           165 349 
 CHI  HZ EP        429 50.88                             117     0.0 8  249 198 
 CHI  HZ I         429 53.55         7.1 0.30                           249 198 
 CHI  HN ES   2    430 19.60                             117    -0.8 4  249 198 
 ROSC BZ EP        429 52.51                             117     0.8 8  257 214 
 ROSC BZ I         430 30.68         9.7 0.26                           257 214 
 HEL  HZ EP        429 53.74                             114    -0.9 7  284 257 
 HEL  HZ I         430 31.58        11.8 0.33                           284 257 
 RREF BZ EP        429 59.97                             111    -0.2 7  330 231 
 RREF BN ES   2    430 37.64                             111     0.7 3  330 231 
 RREF BZ I         430 45.08         8.7 0.37                           330 231 
 PRA  HZ EP        430  6.99                             107    -0.1 6  396 211 
 PRA  HE ES   2    430 48.98                             107    -0.2 3  396 211 
 PRA  HZ I         430 51.82         4.7 0.39                           396 211 
                                                                                
