 2011  214 0718 43.9 L   6.797 -73.113139.7  RSN  6 0.2 1.4LRSN                1
 GAP=162        0.49       2.5     6.8  6.2 -0.5004E+01  0.1657E+02 -0.2710E+01E
 Epicentro: LOS SANTOS - SANTANDER                                             3
 ACTION:UP  11-03-28 15:08 OP:jfem STATUS:               ID:20110214071843 L   I
 2011-02-14-0716-23S.COL___137                                                 6
 STAT SP IPHASW D HRMM SECON CODA AMPLIT PERI AZIMU VELO SNR AR TRES W  DIS CAZ7
 BAR2 SZ IP        719  2.86                             170     0.010   24 199 
 BAR2 SZ ES   1    719 17.55                             170     0.0 7   24 199 
 BAR2 SZ I         719 18.70         9.9 0.26                            24 199 
 RUS  HZ EP   1    719  6.94                             143    -0.1 7  100 178 
 RUS  HN ES   1    719 25.17                             143     0.1 7  100 178 
 RUS  HZ I         719 25.30         4.7 0.58                           100 178 
 GRA  SZ ES   1    719 27.55                             136    -0.2 7  125  16 
 GRA  SZ I         719 30.44         3.6 0.44                           125  16 
 OCA  SZ EP   2    719 11.63                             128    -0.2 5  161 352 
 OCA  SZ ES   1    719 33.82                             128     0.2 7  161 352 
 OCA  SZ I         719 38.30         3.1 0.36                           161 352 
 NOR  SN ES   2    719 46.92                             117    -0.5 4  238 235 
 HEL  HZ EP   2    719 24.74                             113     0.5 4  276 256 
 HEL  HZ I         720  1.28         1.4 0.42                           276 256 
                                                                                
