 2016  814 0029 34.9 L   6.839 -73.146141.9  RSN  7 0.4 1.7LRSN                1
 GAP=241        1.07       5.9     6.3  8.2 -0.9419E+00  0.1585E+02 -0.2163E+01E
 Epicentro: LOS SANTOS - SANTANDER                                             3
 ACTION:UPD 16-10-29 15:35 OP:rebc STATUS:               ID:20160814002934 L   I
 OLDACT:UP  16-08-14 13:56 OP:dani STATUS:               ID:20160814002734     3
 OLDACT:UP  16-08-14 13:55 OP:dani STATUS:               ID:20160814002734     3
 OLDACT:REG 16-08-14 12:22 OP:dani STATUS:               ID:20160814002734     3
 2016-08-14-0028-00M.COL___383                                                 6
 STAT SP IPHASW D HRMM SECON CODA AMPLIT PERI AZIMU VELO AIN AR TRES W  DIS CAZ7
 BAR2 EZ EP        029 54.24                             169    0.0710 27.5 188 
 BAR2 EZ ES        030  9.11                             169   -0.0810 27.5 188 
 BAR2 EZ I         030  9.86        17.1 0.64                          27.5 188 
 BRR  HZ EP        029 56.34                             152    0.8110 69.2 295 
 BRR  HE ES   4    030 13.93                             152    2.32 0 69.2 295 
 BRR  HZ I         030 17.77         6.8 0.29                          69.2 295 
 RUS  HZ EP        029 58.40                             142   -0.2010  105 176 
 RUS  HE ES        030 16.72                             142   -0.3510  105 176 
 RUS  HZ I         030 18.31         4.2 0.32                           105 176 
 PTB  HZ EP        030  1.41                             131   -0.23 9  149 257 
 PTB  HN ES        030 22.42                             131   -0.07 9  149 257 
 PTB  HZ I         030 25.48         4.2 0.11                           149 257 
 SPBC HZ EP        030  3.42                             128   -0.01 9  167 218 
 SPBC HN ES        030 25.72                             128    0.04 9  167 218 
 SPBC HZ I         030 27.72        11.2 0.10                           167 218 
 NOR  HZ EP        030  9.83                             117   -0.86 8  237 234 
 NOR  HN ES        030 38.55                             117   -0.04 8  237 234 
 NOR  HZ I         030 42.62         3.2 0.22                           237 234 
 CHI  HN ES        030 43.35                             116    0.91 8  253 195 
 PRA  HE ES   4    031 12.92                             106    2.20 0  396 209 
                                                                                
