 2011  214 0244 16.4 L   6.817 -73.037140.1  RSN  6 0.4 1.8LRSN                1
 GAP=171        0.80       3.7     9.3  7.6 -0.1514E+02  0.2507E+02 -0.5215E+01E
 Epicentro: CEPITA - SANTANDER                                                 3
 ACTION:UP  11-03-28 15:08 OP:jfem STATUS:               ID:20110214024416 L   I
 2011-02-14-0241-52S.COL___137                                                 6
 STAT SP IPHASW D HRMM SECON CODA AMPLIT PERI AZIMU VELO SNR AR TRES W  DIS CAZ7
 BAR2 SZ EP   1    244 35.59                             168     0.0 8   30 213 
 BAR2 SZ ES   1    244 50.67                             168     0.2 8   30 213 
 BAR2 SZ I         244 52.35        23.6 0.31                            30 213 
 RUS  HZ EP        244 39.89                             142     0.110  102 183 
 RUS  HN ES   1    244 57.87                             142    -0.1 7  102 183 
 RUS  HZ I         244 59.29         7.6 0.25                           102 183 
 GRA  SZ IP        244 40.52                             137    -0.310  121  12 
 GRA  SZ I         244 41.80         7.5 0.25                           121  12 
 GRA  SZ ES   1    244 59.39                             137    -0.4 7  121  12 
 OCA  SZ EP   1    244 44.41                             128     0.1 7  160 349 
 OCA  SZ ES   1    245  6.54                             128     0.5 7  160 349 
 OCA  SZ I         245  9.41         7.1 0.23                           160 349 
 HEL  HZ EP   2    244 57.94                             113     0.2 4  284 256 
 HEL  HZ I         245 33.88         3.6 0.36                           284 256 
 RREF HZ EP   1    245  4.15                             109     0.6 5  332 230 
 RREF HN ES   1    245 39.36                             109    -0.9 5  332 230 
 RREF HZ I         245 49.83         3.2 0.37                           332 230 
                                                                                
