 2013  214 0456 55.7 L   6.834 -73.161148.3  RSN 18 0.5 2.7LRSN                1
 GAP= 69        0.99       3.1     3.2  5.5 -0.9692E-01  0.3217E+01 -0.1920E+01E
 Epicentro: LOS SANTOS - SANTANDER                                             3
 ACTION:UPD 13-03-12 09:32 OP:ep   STATUS:               ID:20130214045655 L   I
 2013-02-14-0450-00M.COL___241                                                 6
 STAT SP IPHASW D HRMM SECON CODA AMPLIT PERI AZIMU VELO AIN AR TRES W  DIS CAZ7
 BAR2 SZ IP        457 15.72                             169    0.0010 26.8 185 
 BAR2 SZ ES   1    457 30.46                             169   -0.87 7 26.8 185 
 BAR2 SZ I         457 31.68       348.6 0.30            168           26.8 185 
 BRR  HZ IP     D  457 17.49                             154    0.5210 68.0 296 
 BRR  HN ES   1    457 34.58                             154    1.04 7 68.0 296 
 BRR  HZ I         457 35.62       168.3 0.14            150           68.0 296 
 PAM  SZ EP        457 18.51                             152    0.4110 75.6  42 
 PAM  SN ES   1    457 35.49                             152   -0.07 7 75.6  42 
 PAM  SZ I         457 37.75       126.0 0.44            147           75.6  42 
 RUS  HZ IP     C  457 19.79                             143   -0.2010  104 175 
 RUS  HE ES   1    457 38.64                             143   -0.29 7  104 175 
 RUS  HZ I         457 40.17        60.5 0.26            138            104 175 
 PTB  HZ IP     D  457 22.18                             133   -0.64 9  147 257 
 PTB  HN ES   1    457 43.13                             133   -0.82 7  147 257 
 PTB  HZ I         457 44.50        76.1 0.22            127            147 257 
 OCA  HZ EP        457 23.99                             131    0.13 9  156 354 
 OCA  HN ES   1    457 46.05                             131    0.23 7  156 354 
 OCA  HZ I         457 48.76        75.6 0.20            125            156 354 
 TAM  HZ IP     C  457 24.18                             131    0.35 9  158 106 
 TAM  HN ES   1    457 45.86                             131    0.10 7  158 106 
 TAM  HZ I         457 46.43        24.0 0.24            125            158 106 
 ZAR  HZ EP        457 28.36                             123    0.33 9  201 291 
 ZAR  HN ES   1    457 53.45                             123    0.21 6  201 291 
 ZAR  HZ I         458  2.28        79.4 0.24            118            201 291 
 SML  HZ EP        457 31.98                             118   -0.07 8  240 335 
 SML  HN ES   1    458  0.13                             118   -0.25 6  240 335 
 CHI  HZ EP        457 34.11                             117    0.21 8  252 195 
 CHI  HN ES   1    458  3.63                             117   -0.05 6  252 195 
 CHI  HZ I         458  6.99        19.8 0.52            113            252 195 
 ROSC BZ EP   4    457 35.98                             117    1.75 0  255 210 
 ROSC BN ES   4    458  6.88                             117    2.61 0  255 210 
 ROSC BZ I         458  9.92        33.3 0.35            112            255 210 
 HEL  HZ EP   1    457 36.81                             115    0.82 6  271 255 
 HEL  HN ES   1    458  7.94                             115    0.54 6  271 255 
 HEL  HZ I         458 13.99        40.3 0.38            111            271 255 
 URE  HZ EP        457 35.64                             114   -0.95 7  281 291 
 URE  HN ES   4    458  6.43                             114   -2.04 0  281 291 
 RREF HZ EP   4    457 44.00                             111    1.89 0  323 229 
 RREF HN ES   4    458 18.94                             111    0.65 0  323 229 
 RREF HZ I         458 27.91        20.5 0.30            107            323 229 
 DBB  SZ EP        457 43.23                             110    0.15 7  338 274 
 DBB  SZ ES   1    458 19.35                             110   -0.67 5  338 274 
 DBB  SZ I   L4    458 23.57        38.9 0.46            110    3.55 0  338 274 
 COD  HZ EP        457 43.62                             110   -0.13 7  344 355 
 COD  HN ES   1    458 20.82                             110   -0.39 5  344 355 
 COD  HZ I         458 29.30         8.1 0.30            105            344 355 
 ANIL HN ES   1    458 25.26                             109    0.40 5  359 224 
 ANIL HZ I         458 35.42        16.1 0.36            105            359 224 
 SDV  BZ EP        457 45.00                             109   -0.73 6  359  51 
 SDV  BE ES   4    458 22.76                             109   -1.97 0  359  51 
 SDV  BZ I         458 25.38         1.7 0.40            105            359  51 
                                                                                
