 2012  814 0624  4.4 L   6.590 -73.138142.0  RSN  4 0.3 1.6LRSN                1
 GAP=316        0.68      11.0     6.9 12.3  0.1064E+02 -0.1027E+02  0.4321E+02E
 Epicentro: SAN GIL - SANTANDER                                                3
 ACTION:UPD 12-09-10 11:56 OP:ep   STATUS:               ID:20120814062404 L   I
 2012-08-14-0620-00M.COL___217                                                 6
 STAT SP IPHASW D HRMM SECON CODA AMPLIT PERI AZIMU VELO AIN AR TRES W  DIS CAZ7
 BAR2 SZ EP   1    624 23.84                             178    0.52 7 4.87 273 
 BAR2 SZ I         624 24.20        12.8 0.09                          4.87 273 
 BRR  HZ EP        624 25.69                             147   -0.3110 85.4 312 
 BRR  HZ I         624 26.07        10.0 0.17                          85.4 312 
 BRR  HN ES   1    624 42.73                             147   -0.14 7 85.4 312 
 PTB  HZ EP   1    624 30.71                             132   -0.16 7  146 268 
 PTB  HN ES   1    624 51.48                             132   -0.05 7  146 268 
 PTB  HZ I         624 53.98         2.8 0.14                           146 268 
 ZAR  HN ES   1    625  4.17                             120    0.50 6  215 298 
                                                                                
