 2017 1214 0220 43.2 L   6.823 -73.166143.9  RSN  8 0.5 1.7LRSN                1
 GAP=109        1.10       3.9     4.1  7.7 -0.3668E+00  0.8023E+01  0.7490E+01E
 Epicentro: LOS SANTOS - SANTANDER                                             3
 ACTION:UPD 18-01-04 13:20 OP:rebc STATUS:               ID:20171214022043 L   I
 OLDACT:REG 17-12-14 12:41 OP:osc  STATUS:               ID:20171214021741     3
 2017-12-14-0218-00M.COL___468                                                 6
 STAT SP IPHASW D HRMM SECON CODA AMPLIT PERI AZIMU VELO AIN AR TRES W  DIS CAZ7
 BAR2 EZ EP        221  2.23                             169   -0.4510 25.6 184 
 BAR2 EZ ES        221 17.94                             169    0.0910 25.6 184 
 BAR2 EZ I         221 20.44        14.2 0.28            169           25.6 184 
 PAM  EZ EP        221  5.63                             151    0.4210 76.9  42 
 PAM  EE ES        221 22.72                             151    0.3610 76.9  42 
 PAM  EZ I         221 25.72         5.6 0.30            157           76.9  42 
 PTB  HZ EP        221  9.23                             132   -0.66 9  146 258 
 PTB  HE ES        221 30.22                             132   -0.46 9  146 258 
 PTB  HZ I         221 37.65         3.0 0.20            134            146 258 
 OCA  HN ES        221 32.28                             130   -0.61 9  157 354 
 SPBC HZ EP        221 11.41                             128   -0.23 9  164 218 
 SPBC HN ES        221 33.56                             128   -0.24 9  164 218 
 SPBC HZ I         221 39.88        10.1 0.22            131            164 218 
 YPLC HZ EP        221 13.13                             126   -0.08 9  180 151 
 YPLC HN ES        221 36.90                             126    0.30 9  180 151 
 YPLC HZ I         221 38.07         8.3 0.28            130            180 151 
 ZAR  HZ EP   2    221 15.94                             122    0.71 4  201 292 
 ZAR  HN ES        221 41.05                             122    0.85 9  201 292 
 ZAR  HZ I         221 43.86         3.5 0.26            125            201 292 
 GUY2CHZ EP        221 27.22                             112    0.51 7  301 234 
 GUY2CHN ES        222  1.18                             112    0.56 7  301 234 
 GUY2CHZ I         222  9.40         2.3 0.24                           301 234 
                                                                                
