 2012  514 0237 43.0 L   6.805 -73.168148.1  RSN  6 0.4 1.8LRSN                1
 GAP=133        0.90       4.8     6.2  8.1 -0.3443E+01  0.5054E+01 -0.4118E+01E
 Epicentro: LOS SANTOS - SANTANDER                                             3
 ACTION:UP  12-07-05 12:05 OP:pat  STATUS:               ID:20120514023743 L   I
 2012-05-14-0230-00M.COL___195                                                 6
 STAT SP IPHASW D HRMM SECON CODA AMPLIT PERI AZIMU VELO SNR AR TRES W  DIS CAZ7
 BAR2 SZ EP   1    238  2.94                             171     0.0 7   24 184 
 BAR2 SZ ES   1    238 18.22                             171    -0.2 7   24 184 
 BAR2 SZ I         238 19.49        14.2 0.19                            24 184 
 BRR  HZ EP   1    238  4.84                             154     0.6 7   69 299 
 BRR  HN ES   1    238 21.36                             154     0.5 7   69 299 
 BRR  HZ I         238 25.56        12.0 0.15                            69 299 
 PAM  SZ EP   1    238  6.05                             151     0.5 7   79  41 
 PAM  SN ES   1    238 22.90                             151    -0.2 7   79  41 
 RUS  HZ EP   1    238  7.15                             144     0.1 7  101 175 
 RUS  HN ES   1    238 25.58                             144    -0.2 7  101 175 
 RUS  HZ I         238 28.11         6.3 0.31                           101 175 
 PTB  HZ EP   1    238  9.74                             133    -0.2 7  145 258 
 PTB  HN ES   1    238 30.64                             133    -0.3 7  145 258 
 PTB  HZ I         238 32.92         5.9 0.15                           145 258 
 OCA  HZ EP   1    238 10.66                             130    -0.7 7  159 354 
 OCA  HN ES   1    238 33.39                             130    -0.2 7  159 354 
 OCA  HZ I         238 37.05        13.3 0.22                           159 354 
                                                                                
