 2014  614 0202 56.5 L   6.799 -73.141135.6  RSN  5 0.4 1.9LRSN                1
 GAP=201        0.76       3.8     5.2  8.4  0.1206E+01  0.9482E+01 -0.1554E+02E
 Epicentro: LOS SANTOS - SANTANDER                                             3
 ACTION:UPD 14-07-01 22:53 OP:nd   STATUS:               ID:20140614020256 L   I
 OLDACT:REG 14-06-14 13:29 OP:mh   STATUS:               ID:20140614015819     3
 2014-06-14-0158-19M.COL___244                                                 6
 STAT SP IPHASW D HRMM SECON CODA AMPLIT PERI AZIMU VELO AIN AR TRES W  DIS CAZ7
 BAR2 SZ EP   1    2 3 15.18                             170    0.25 8 23.3 191 
 BAR2 SZ ES   1    2 3 28.87                             170   -0.42 8 23.3 191 
 BAR2 SZ I    1    2 3 32.36        20.6 0.32            176           23.3 191 
 RUS  HZ EP   1    2 3 19.00                             141   -0.28 7  100 176 
 RUS  HE ES        2 3 37.20                             141    0.1810  100 176 
 RUS  HZ I         2 3 39.04         7.4 0.19            150            100 176 
 PTB  HZ EP        2 3 22.69                             129   -0.04 9  148 259 
 PTB  HN ES        2 3 42.85                             129   -0.31 9  148 259 
 PTB  HZ I         2 3 46.27        30.3 0.04            134            148 259 
 SPBC HN ES        2 3 46.25                             126    0.32 9  163 219 
 SML  HZ EP   1    2 3 32.01                             115   -0.63 6  244 335 
 SML  HN ES        2 4  1.34                             115    0.53 8  244 335 
 SML  HZ I         2 4 10.15         5.1 0.09            117            244 335 
 SJC  HZ EP   4    2 3 50.66                             104   -1.16 0  410 327 
 SJC  HN ES   4    2 4 30.49                             104   -4.45 0  410 327 
                                                                                
