 2011 1214 0441 34.9 L   6.827 -73.094144.0  RSN 13 0.3 2.2LRSN                1
 GAP=142        0.46       2.3     3.1  3.5 -0.2614E+01  0.2908E+01  0.9859E+00E
 Epicentro: LOS SANTOS - SANTANDER                                             3
 ACTION:UPD 12-07-13 16:16 OP:ep   STATUS:               ID:20111214044134 L   I
 2011-12-14-0440-00M.COL___184                                                 6
 STAT SP IPHASW D HRMM SECON CODA AMPLIT PERI AZIMU VELO AIN AR TRES W  DIS CAZ7
 BAR2 SZ EP   1    441 54.24                             169   -0.17 7 27.7 201 
 BAR2 SZ ES   2    442  9.61                             169   -0.03 5 27.7 201 
 BAR2 SZ I         442 10.89        46.5 0.16                          27.7 201 
 GIR2 SZ EP        441 54.23                             168   -0.0910 30.0 338 
 GIR2 SZ ES   1    442  9.52                             168    0.04 7 30.0 338 
 PAM  SZ EP        441 56.85                             152    0.2710 71.5  38 
 PAM  SN ES   1    442 13.59                             152    0.09 7 71.5  38 
 BRR  HZ IP     D  441 56.02                             151   -0.0610 75.0 294 
 BRR  HZ I         441 56.19        35.9 0.18                          75.0 294 
 BRR  HE ES   2    442 12.82                             151    0.22 5 75.0 294 
 RUS  HZ EP   1    441 58.31                             143   -0.36 7  103 179 
 RUS  HN ES   2    442 17.20                             143   -0.02 5  103 179 
 RUS  HZ I         442 18.57        13.2 0.38                           103 179 
 PTB  HZ EP   2    442  2.13                             130   -0.16 5  154 258 
 PTB  HN ES   2    442 23.10                             130   -0.56 5  154 258 
 OCA  SZ EP   1    442  2.89                             130    0.02 7  158 351 
 OCA  SZ ES   2    442 24.80                             130    0.11 5  158 351 
 OCA  SZ I         442 29.17        13.8 0.19                           158 351 
 NOR  SN ES   2    442 39.43                             117   -0.10 4  241 235 
 CHI  HZ EP   1    442 12.68                             116   -0.29 6  253 196 
 CHI  HN ES   2    442 43.21                             116    0.53 4  253 196 
 CHI  HZ I         442 50.07         3.9 0.57                           253 196 
 HEL  HZ EP   1    442 16.14                             114    0.42 6  278 256 
 HEL  HN ES   2    442 47.25                             114   -0.31 4  278 256 
 HEL  HZ I         442 54.85         7.1 0.47                           278 256 
 GUY  SZ EP   1    442 19.80                             111    0.39 5  310 235 
 GUY  SE ES   2    442 54.79                             111    0.66 4  310 235 
 GUY  SZ I         443  2.12        13.8 0.39                           310 235 
 RREF HZ EP   2    442 22.43                             110    0.75 3  328 230 
 RREF HN ES   2    442 57.85                             110   -0.32 3  328 230 
 RREF HZ I         443  6.13         4.7 0.28                           328 230 
 COD  HZ EP   2    442 22.49                             109   -0.44 3  346 354 
 COD  HZ I         442 23.25        14.4 0.79                           346 354 
 COD  HN ES   2    442 59.78                             109   -0.62 3  346 354 
                                                                                
