 2016 1014 0726 30.3 L   6.789 -73.123144.8  RSN 11 0.4 1.9LRSN                1
 GAP=140        0.98       3.2     4.0  5.8 -0.2764E+01  0.4938E+01  0.7345E+00E
 Epicentro: LOS SANTOS - SANTANDER                                             3
 ACTION:UPD 16-11-09 19:19 OP:rebc STATUS:               ID:20161014072630 L   I
 OLDACT:UP  16-10-14 18:14 OP:ar   STATUS:               ID:20161014071745     3
 OLDACT:REG 16-10-14 13:12 OP:ar   STATUS:               ID:20161014071745     3
 2016-10-14-0718-00M.COL___362                                                 6
 STAT SP IPHASW D HRMM SECON CODA AMPLIT PERI AZIMU VELO AIN AR TRES W  DIS CAZ7
 BAR2 EZ EP        726 49.90                             171    0.1410 22.7 197 
 BAR2 EZ ES        727  4.82                             171   -0.1510 22.7 197 
 BAR2 EZ I         727  6.28        24.0 0.20            167           22.7 197 
 BRR  HZ IP        726 51.74                             151    0.2810 74.0 298 
 BRR  HE ES        727  8.75                             151    0.7410 74.0 298 
 BRR  HZ I         727  9.35        16.1 0.30            149           74.0 298 
 PAM  EZ EP        726 52.82                             151    0.4910 76.8  37 
 PAM  EN ES        727  9.22                             151   -0.3310 76.8  37 
 PAM  EZ I         727 12.05        13.8 0.30            155           76.8  37 
 RUS  HZ EP        726 53.92                             144    0.1110 99.2 177 
 RUS  HE ES        727 12.08                             144   -0.1010 99.2 177 
 PTB  HZ EP        726 56.57                             131   -0.78 9  150 259 
 PTB  HE ES        727 18.22                             131   -0.27 9  150 259 
 PTB  HZ I         727 25.00         9.2 0.34            130            150 259 
 OCA  HZ EP        726 58.12                             129   -0.51 9  162 352 
 OCA  HN ES        727 20.43                             129   -0.34 9  162 352 
 OCA  HZ I         727 24.19        19.0 0.20            131            162 352 
 SPBC HZ EP        726 58.91                             129    0.17 9  164 220 
 SPBC HE ES        727 20.88                             129   -0.08 9  164 220 
 SPBC HZ I         727 28.49        11.1 0.12            128            164 220 
 ZAR  HZ EP   4    727  4.60                             122    1.67 0  207 292 
 ZAR  HE ES        727 28.79                             122    0.37 8  207 292 
 ZAR  HZ I         727 34.33         8.3 0.32            122            207 292 
 NOR  HZ EP        727  6.42                             118    0.35 8  236 235 
 NOR  HE ES        727 33.64                             118   -0.37 8  236 235 
 NOR  HZ I         727 41.44         5.3 0.20            118            236 235 
 CHI  HZ EP   2    727  8.52                             117    0.68 4  248 196 
 CHI  HN ES   4    727 35.70                             117   -1.46 0  248 196 
 CHI  HZ I         727 40.81         2.9 0.28            118            248 196 
 ROSC BZ EP   4    727 10.49                             116    2.14 0  253 212 
 ROSC BN ES   4    727 41.00                             116    2.94 0  253 212 
 ROSC BZ I         727 42.41         6.1 0.35            117            253 212 
                                                                                
