 2017  714 0842 49.1 L   6.801 -73.124141.6  RSN  6 0.4 1.3LRSN                1
 GAP=240        0.96       5.7     5.9  7.5  0.1535E+02  0.8679E+01  0.2054E+01E
 Epicentro: LOS SANTOS - SANTANDER                                             3
 ACTION:UPD 17-08-30 15:32 OP:rebc STATUS:               ID:20170714084249 L   I
 OLDACT:REG 17-07-14 12:49 OP:dnl  STATUS:               ID:20170714083740     3
 2017-07-14-0838-00M.COL___385                                                 6
 STAT SP IPHASW D HRMM SECON CODA AMPLIT PERI AZIMU VELO AIN AR TRES W  DIS CAZ7
 BAR2 EZ EP        843  8.44                             170    0.1710 24.0 196 
 BAR2 EZ ES        843 23.62                             170    0.4110 24.0 196 
 BAR2 EZ I         843 24.51         6.3 0.60            165           24.0 196 
 BRR  HZ EP   2    843 10.39                             151    0.44 5 73.2 298 
 BRR  HN ES        843 26.13                             151   -0.0610 73.2 298 
 BRR  HZ I         843 28.05         6.1 0.26            149           73.2 298 
 RUS  HZ EP        843 12.77                             143    0.3010  101 177 
 RUS  HN ES        843 29.80                             143   -0.8910  101 177 
 RUS  HZ I         843 32.40         0.9 0.46            141            101 177 
 PTB  HZ EP        843 15.73                             131   -0.25 9  150 259 
 PTB  HE ES        843 36.95                             131    0.03 9  150 259 
 PTB  HZ I         843 37.71         1.4 0.34            129            150 259 
 SPBC HZ EP   2    843 17.72                             128    0.25 5  165 220 
 SPBC HN ES        843 40.06                             128    0.49 9  165 220 
 SPBC HZ I         843 46.99         3.2 0.22            126            165 220 
 ZAR  HZ EP   2    843 20.82                             121   -0.71 4  206 292 
 ZAR  HN ES        843 46.56                             121   -0.24 8  206 292 
 ZAR  HZ I         843 52.28         2.0 0.64            121            206 292 
                                                                                
