 2015 1214 0325 55.7 L   6.390 -73.663101.6  RSN  9 0.3 1.3LRSN                1
 GAP= 78        0.89       2.7     2.7  5.9 -0.2241E+00  0.7625E+01  0.1574E+01E
 Epicentro: SANTA HELENA DEL OPON - SANTANDER                                  3
 ACTION:UPD 16-02-04 15:04 OP:cam  STATUS:               ID:20151214032555 L   I
 OLDACT:REG 15-12-14 13:09 OP:cara STATUS:               ID:20151214031735     3
 2015-12-14-0317-35M.COL___336                                                 6
 STAT SP IPHASW D HRMM SECON CODA AMPLIT PERI AZIMU VELO AIN AR TRES W  DIS CAZ7
 BAR2 EZ EP        326 12.07                             148    0.3710 57.7  67 
 BAR2 EZ ES        326 24.62                             148    0.4510 57.7  67 
 BAR2 EZ I         326 26.16        14.7 0.42            154           57.7  67 
 BRR  HZ EP        326 12.86                             139   -0.0910 79.4 356 
 BRR  HE ES        326 26.53                             139    0.1410 79.4 356 
 BRR  HZ I         326 34.15         2.5 0.36            142           79.4 356 
 RUS  HZ IP     D  326 14.03                             137   -0.0210 84.6 131 
 RUS  HE ES        326 27.75                             137   -0.6110 84.6 131 
 RUS  HZ I         326 31.64         2.0 0.30            145           84.6 131 
 PTB  HZ EP        326 13.01                             135   -0.7810 89.2 281 
 PTB  HE ES        326 27.51                             135   -0.3810 89.2 281 
 PTB  HZ I         326 29.82         7.0 0.18            139           89.2 281 
 SPBC HZ EP        326 14.22                             134   -0.0310 93.3 209 
 SPBC HE ES        326 29.08                             134    0.3710 93.3 209 
 SPBC HZ I         326 31.12         7.9 0.30            140           93.3 209 
 NOR  HZ EP        326 20.89                             117   -0.17 9  162 236 
 NOR  HE ES        326 40.80                             117   -0.04 9  162 236 
 NOR  HZ I         326 45.39         3.8 0.12            122            162 236 
 ZAR  HZ EP        326 23.01                             114    0.04 9  180 313 
 ZAR  HE ES        326 44.34                             114    0.10 9  180 313 
 ZAR  HZ I         326 49.30         5.7 0.24            118            180 313 
 HEL  HZ EP        326 26.64                             110    0.05 8  208 264 
 HEL  HE ES        326 50.79                             110    0.12 8  208 264 
 HEL  HZ I         326 54.40         2.2 0.24            115            208 264 
 GUY2CHZ EP        326 29.37                             108    0.26 8  228 236 
 GUY2CHN ES        326 55.67                             108    0.51 8  228 236 
 GUY2CHZ I         327  1.01         1.0 0.30                           228 236 
                                                                                
