 2014 1214 0606 48.6 L   6.806 -73.157145.6  RSN  6 0.4 1.1LRSN                1
 GAP=135        0.94       4.0     4.8  8.2 -0.1980E+01  0.2812E+01  0.4370E+01E
 Epicentro: LOS SANTOS - SANTANDER                                             3
 ACTION:UPD 15-02-10 17:03 OP:nd   STATUS:               ID:20141214060648 L   I
 OLDACT:DUP 14-12-14 18:29 OP:stll STATUS:               ID:20141214055747d    3
 2014-12-14-0557-46M.COL___279                                                 6
 STAT SP IPHASW D HRMM SECON CODA AMPLIT PERI AZIMU VELO AIN AR TRES W  DIS CAZ7
 BAR2 EZ EP        6 7  8.45                             170    0.1910 23.8 187 
 BRR  HZ EP        6 7 10.19                             153    0.5010 69.8 299 
 BRR  HN ES        6 7 26.63                             153    0.5210 69.8 299 
 BRR  HZ I         6 7 31.98         2.0 0.36            154           69.8 299 
 PAM  SZ EP        6 7 11.20                             151    0.3510 77.6  41 
 PAM  SN ES        6 7 27.95                             151   -0.2310 77.6  41 
 PAM  SZ I         6 7 30.23         3.7 0.56            155           77.6  41 
 RUS  HZ EP        6 7 12.13                             144   -0.3010  101 175 
 RUS  HE ES        6 7 30.85                             144   -0.1310  101 175 
 RUS  HZ I         6 7 32.21         0.8 0.42            148            101 175 
 PTB  HZ EP        6 7 15.31                             132   -0.19 9  147 258 
 PTB  HN ES        6 7 36.12                             132   -0.32 9  147 258 
 PTB  HZ I         6 7 39.13         2.0 0.16            135            147 258 
 OCA  HN ES        6 7 38.32                             130   -0.55 9  159 354 
                                                                                
