 2016 1014 0402  4.2 L   6.525 -73.604107.4  RSN  6 0.3 1.3LRSN                1
 GAP= 91        0.58       3.2     2.8  4.7  0.3918E+01  0.4784E+01  0.3051E+01E
 Epicentro: SANTA HELENA DEL OPON - SANTANDER                                  3
 ACTION:UPD 16-11-09 19:19 OP:rebc STATUS:               ID:20161014040204 L   I
 OLDACT:UP  16-10-14 17:42 OP:ar   STATUS:               ID:20161014035737     3
 OLDACT:UP  16-10-14 17:40 OP:ar   STATUS:               ID:20161014035737     3
 OLDACT:REG 16-10-14 12:38 OP:ar   STATUS:               ID:20161014035737     3
 2016-10-14-0358-00M.COL___362                                                 6
 STAT SP IPHASW D HRMM SECON CODA AMPLIT PERI AZIMU VELO AIN AR TRES W  DIS CAZ7
 BAR2 EZ EP        4 2 20.24                             154    0.0210 47.2  81 
 BAR2 EZ ES        4 2 32.56                             154   -0.1510 47.2  81 
 BRR  HZ IP     C  4 2 20.93                             146   -0.0510 65.5 349 
 BRR  HE ES        4 2 34.37                             146    0.3110 65.5 349 
 BRR  HZ I         4 2 37.44         6.7 0.30            148           65.5 349 
 RUS  HZ EP        4 2 23.60                             137    0.0210 90.6 140 
 RUS  HN ES        4 2 38.63                             137   -0.0510 90.6 140 
 RUS  HZ I         4 2 40.18         2.1 0.22            144           90.6 140 
 PTB  HZ EP        4 2 23.34                             135    0.1010 94.3 271 
 PTB  HN ES        4 2 37.85                             135   -0.2210 94.3 271 
 PTB  HZ I         4 2 43.51         5.1 0.12            135           94.3 271 
 SPBC HZ EP   2    4 2 25.58                             131    0.88 5  110 208 
 SPBC HN ES   4    4 2 43.04                             131    2.36 0  110 208 
 ZAR  HZ EP        4 2 31.04                             116   -0.24 9  175 308 
 ZAR  HN ES   4    4 2 54.18                             116    1.80 0  175 308 
 ZAR  HZ I         4 2 59.40         4.0 0.24            119            175 308 
                                                                                
