 2015  314 0751 12.0 L   6.822 -73.209144.4  RSN  4 0.2 1.1LRSN                1
 GAP=196        0.58       3.7     4.7  8.6  0.7317E+01 -0.9462E+01 -0.2015E+02E
 Epicentro: ZAPATOCA - SANTANDER                                               3
 ACTION:UPD 15-04-30 16:25 OP:nd   STATUS:               ID:20150314075112 L   I
 OLDACT:REG 15-03-14 12:45 OP:cam  STATUS:               ID:20150314074742     3
 2015-03-14-0747-42M.COL___272                                                 6
 STAT SP IPHASW D HRMM SECON CODA AMPLIT PERI AZIMU VELO AIN AR TRES W  DIS CAZ7
 BRR  HZ EP        751 33.08                             155    0.4410 63.9 300 
 RUS  HZ EP        751 35.90                             143    0.0110  104 172 
 RUS  HN ES        751 54.33                             143   -0.1610  104 172 
 RUS  HZ I         751 55.48         2.3 0.22            144            104 172 
 PTB  HZ EP        751 38.12                             133   -0.20 9  141 257 
 PTB  HN ES        751 58.87                             133    0.05 9  141 257 
 PTB  HZ I         752  1.64         1.7 0.14            133            141 257 
 SML  HZ EP        751 48.03                             118   -0.01 8  239 337 
 SML  HN ES        752 15.88                             118   -0.23 8  239 337 
                                                                                
