 2016 1014 0130 40.9 L   6.057 -73.703118.1  RSN  7 0.4 1.8LRSN                1
 GAP=118        1.02       3.8     3.5  7.1 -0.1798E+01  0.6825E+01 -0.5353E+01E
 Epicentro: VELEZ - SANTANDER                                                  3
 ACTION:UPD 16-11-09 19:19 OP:rebc STATUS:               ID:20161014013040 L   I
 OLDACT:UP  16-10-14 14:51 OP:ar   STATUS:               ID:20161014012740     3
 OLDACT:REG 16-10-14 12:23 OP:ar   STATUS:               ID:20161014012740     3
 2016-10-14-0128-00M.COL___362                                                 6
 STAT SP IPHASW D HRMM SECON CODA AMPLIT PERI AZIMU VELO AIN AR TRES W  DIS CAZ7
 SPBC HZ EP        130 58.87                             151    0.2310 60.6 222 
 SPBC HE ES        131 12.45                             151    0.0110 60.6 222 
 SPBC HZ I         131 13.85        23.6 0.16            153           60.6 222 
 RUS  HZ EP        130 59.90                             147    0.0410 70.9 105 
 RUS  HE ES        131 14.12                             147   -0.5010 70.9 105 
 BAR2 EZ EP        131  0.86                             143    0.5410 82.6  44 
 BAR2 EZ ES        131 15.09                             143   -0.3410 82.6  44 
 BAR2 EZ I         131 16.28        23.7 0.12            145           82.6  44 
 PTB  HZ EP        131  0.71                             137   -0.5910 99.0 303 
 PTB  HE ES        131 17.44                             137    0.2610 99.0 303 
 PTB  HZ I         131 19.96         6.0 0.10            137           99.0 303 
 BRR  HZ EP        131  3.08                             132    0.3110  116 359 
 BRR  HN ES        131 20.38                             132    0.5910  116 359 
 BRR  HZ I         131 24.30         8.5 0.38            133            116 359 
 NOR  HZ EP        131  5.20                             126    0.09 9  140 247 
 NOR  HE ES        131 24.11                             126    0.15 9  140 247 
 NOR  HZ I         131 26.20        15.0 0.16            128            140 247 
 ZAR  HZ EP        131 11.25                             116   -0.47 9  204 321 
 ZAR  HN ES        131 35.18                             116   -0.54 9  204 321 
 ZAR  HZ I         131 40.29         3.9 0.38            117            204 321 
                                                                                
