 2012  714 0951  9.4 L   6.811 -73.128138.9  RSN  8 0.5 2.0LRSN                1
 GAP=185        1.06       5.1     6.6  8.6  0.1613E+01  0.1336E+02 -0.3211E+01E
 Epicentro: LOS SANTOS - SANTANDER                                             3
 ACTION:UPD 12-08-14 11:44 OP:ep   STATUS:               ID:20120714095109 L   I
 2012-07-14-0950-00M.COL___197                                                 6
 STAT SP IPHASW D HRMM SECON CODA AMPLIT PERI AZIMU VELO AIN AR TRES W  DIS CAZ7
 BAR2 SZ IP        951 28.44                             169     0.210   25 194 
 BAR2 SZ ES   1    951 42.45                             169    -0.5 7   25 194 
 BAR2 SZ I         951 45.78        25.0 0.18            160             25 194 
 BRR  HZ EP        951 30.22                             151     0.310   72 297 
 BRR  HZ I         951 30.53        44.2 0.16            138             72 297 
 BRR  HN ES   1    951 46.45                             151     0.6 7   72 297 
 RUS  HZ EP   1    951 32.48                             142    -0.1 7  102 177 
 RUS  HE ES   1    951 51.00                             142     0.4 7  102 177 
 RUS  HZ I         951 52.20         9.6 0.28            129            102 177 
 PTB  HZ EP   1    951 35.36                             130    -0.7 7  150 259 
 PTB  HN ES   1    951 56.35                             130    -0.4 7  150 259 
 PTB  HZ I         951 59.54         9.6 0.27            117            150 259 
 OCA  HZ EP   1    951 36.62                             128    -0.5 7  159 352 
 OCA  HN ES   1    951 58.17                             128    -0.5 7  159 352 
 OCA  HZ I         952  2.83        13.0 0.17            118            159 352 
 ZAR  HZ EP   1    951 42.18                             121     0.6 6  205 292 
 ZAR  HN ES   1    952  6.90                             121     0.3 6  205 292 
 ZAR  HZ I         952 12.24        11.9 0.22            110            205 292 
 NOR  SZ EP   1    951 44.79                             117    -0.2 6  237 234 
 NOR  SE ES   1    952 12.11                             117    -0.6 6  237 234 
 HEL  HZ EP   1    951 50.08                             113     0.6 6  274 256 
 HEL  HZ I         952 29.14         5.6 0.23            105            274 256 
