 2014  614 0816 48.9 L   7.256 -73.289123.8  RSN  5 0.4 1.5LRSN                1
 GAP=173        0.95       3.9     6.1 10.5 -0.9079E+00  0.1811E+02 -0.7938E+01E
 Epicentro: RIONEGRO - SANTANDER                                               3
 ACTION:UPD 14-07-01 22:53 OP:nd   STATUS:               ID:20140614081649 L   I
 OLDACT:UP  14-06-16 08:57 OP:STLL STATUS:               ID:20140614081649 L   3
 OLDACT:UP  14-06-14 18:52 OP:mh   STATUS:               ID:20140614080818     3
 OLDACT:REG 14-06-14 15:14 OP:mh   STATUS:               ID:20140614080818     3
 2014-06-14-0808-18M.COL___253                                                 6
 STAT SP IPHASW D HRMM SECON CODA AMPLIT PERI AZIMU VELO AIN AR TRES W  DIS CAZ7
 BAR2 SZ EP        817  8.95                             147    0.6810 74.3 171 
 BAR2 SZ ES   1    817 23.22                             147   -0.15 7 74.3 171 
 OCA  HZ EP        817 10.38                             136   -0.4010  109 358 
 OCA  HN ES   1    817 27.60                             136   -0.24 7  109 358 
 OCA  HZ I         817 41.26         3.3 0.28            142            109 358 
 PTB  HZ EP        817 14.40                             126   -0.13 9  151 239 
 PTB  HN ES   1    817 33.80                             126   -0.72 7  151 239 
 PTB  HZ I         817 38.43         2.7 0.06            138            151 239 
 ZAR  HZ EP        817 16.89                             121   -0.06 9  175 279 
 ZAR  HN ES   1    817 39.45                             121    0.63 7  175 279 
 ZAR  HZ I         817 43.38         2.8 0.17            131            175 279 
 SML  HZ EP        817 18.47                             119   -0.18 9  191 333 
 SML  HN ES        817 42.22                             119    0.38 9  191 333 
 SML  HZ I         817 48.59         9.2 0.19            127            191 333 
                                                                                
