 2012  814 0238 30.4 L   6.662 -73.420115.8  RSN  9 0.2 2.0LRSN                1
 GAP=101        0.47       2.2     2.0  3.6  0.4920E+00  0.9666E+00  0.1219E+00E
 Epicentro: EL CARMEN DE CHUCURI - SANTANDER                                   3
 ACTION:UPD 12-09-10 11:56 OP:ep   STATUS:               ID:20120814023830 L   I
 2012-08-14-0237-43M.COL___200                                                 6
 STAT SP IPHASW D HRMM SECON CODA AMPLIT PERI AZIMU VELO AIN AR TRES W  DIS CAZ7
 BAR2 SZ EP   1    238 46.64                             166    0.05 8 27.4 106 
 BAR2 SZ ES   1    238 59.44                             166    0.25 8 27.4 106 
 BAR2 SZ I         239  0.09        83.8 0.24                          27.4 106 
 GIR2 SZ EP   1    238 47.56                             154    0.06 8 52.4  28 
 GIR2 SZ ES   1    239  1.05                             154    0.24 8 52.4  28 
 BRR  HZ EP   1    238 47.48                             151   -0.18 8 58.8 327 
 BRR  HZ I         239  0.09        32.2 0.08                          58.8 327 
 BRR  HN ES   1    239  1.14                             151    0.05 8 58.8 327 
 RUS  HZ EP   1    238 50.51                             139   -0.24 8 92.9 156 
 RUS  HN ES   2    239  6.24                             139   -0.35 5 92.9 156 
 RUS  HZ I         239  7.53        10.4 0.23                          92.9 156 
 PTB  HE ES        239  8.79                             132   -0.0910  115 263 
 PTB  HZ I         239 10.08        12.4 0.12                           115 263 
 OCA  HN ES        239 19.51                             119   -0.22 9  175   4 
 TAM  HZ EP   1    238 58.84                             118    0.09 7  182  98 
 TAM  HZ I         239  0.40        22.0 0.41                           182  98 
 ZAR  HZ EP   1    238 59.35                             118    0.47 7  183 300 
 ZAR  HN ES        239 20.89                             118   -0.18 9  183 300 
 ZAR  HZ I         239 27.29         9.0 0.12                           183 300 
 HEL  HZ EP   1    239  5.85                             111    0.33 6  239 258 
 HEL  HZ I         239 36.86         6.8 0.28                           239 258 
                                                                                
