 2010  314 0752 48.0 L   6.817 -73.196143.6  RSN  4 0.4 1.6LRSN                1
 GAP=178        0.62       5.8    14.2  9.5  0.4932E+02 -0.2294E+02 -0.2102E+02E
 Epicentro: ZAPATOCA - SANTANDER                                               3
 ACTION:UP  10-08-24 09:53 OP:vdl  STATUS:               ID:20100314075248 L   I
 2010-03-14-0747-47S.COL___095                                                 6
 STAT SP IPHASW D HRMM SECON CODA AMPLIT PERI AZIMU VELO SNR AR TRES W  DIS CAZ7
 BAR2 SZ EP   1    753  7.37                             170     0.0 7   25 177 
 BAR2 SZ ES   2    753 22.04                             170    -0.5 5   25 177 
 BRR  HZ IP        753  8.67                             154     0.110   65 299 
 BRR  HZ I         753  8.90         6.3 0.14                            65 299 
 BRR  HN ES   2    753 24.58                             154    -0.1 5   65 299 
 RUS  HZ EP   2    753 11.89                             143     0.2 5  103 173 
 RUS  HE ES   1    753 30.38                             143     0.2 7  103 173 
 OCA  SZ EP   2    753 15.14                             130    -0.8 5  158 355 
 OCA  SZ ES   2    753 38.34                             130     0.6 5  158 355 
 OCA  SZ I         753 43.84         6.1 0.42                           158 355 
                                                                                
