 2016  714 0758 49.6 L   6.761 -73.190150.3  RSN  4 0.3 1.2LRSN                1
 GAP=229        0.72       4.4     5.3  6.5  0.7022E+01 -0.1996E+01  0.1017E+01E
 Epicentro: LOS SANTOS - SANTANDER                                             3
 ACTION:UPD 17-03-29 16:50 OP:lp   STATUS:               ID:20160714075849 L   I
 OLDACT:UP  16-07-14 17:18 OP:dani STATUS:               ID:20160714075760d    3
 OLDACT:DUP 16-07-14 17:10 OP:dani STATUS:               ID:20160714075760d    3
 2016-07-14-0757-59S.COL___322                                                 6
 STAT SP IPHASW D HRMM SECON CODA AMPLIT PERI AZIMU VELO AIN AR TRES W  DIS CAZ7
 BRR  HZ EP        759 10.99                             154   -0.1410 69.2 304 
 BRR  HN ES        759 28.21                             154    0.2910 69.2 304 
 BRR  HZ I         759 34.11         2.2 0.20            152           69.2 304 
 RUS  HZ EP        759 13.57                             146    0.0410 96.8 173 
 RUS  HN ES        759 31.98                             146   -0.2210 96.8 173 
 PTB  HZ EP        759 16.60                             134    0.16 9  142 260 
 PTB  HN ES        759 36.88                             134   -0.50 9  142 260 
 PTB  HZ I         759 42.73         2.2 0.52            135            142 260 
 SPBC HZ EP        759 17.83                             131   -0.02 9  157 219 
 SPBC HN ES        759 40.31                             131    0.42 9  157 219 
 SPBC HZ I         759 45.55         2.8 0.18            133            157 219 
                                                                                
