 2015  414 0110 28.8 L   6.766 -73.136145.2  RSN  5 0.4 1.3LRSN                1
 GAP=201        1.08       5.8     7.7  9.3  0.2251E+02 -0.1151E+02 -0.2068E+02E
 Epicentro: LOS SANTOS - SANTANDER                                             3
 ACTION:UPD 15-06-03 16:54 OP:cam  STATUS:               ID:20150414011028 L   I
 OLDACT:UP  15-04-14 16:09 OP:nlst STATUS:               ID:20150414011028 L   3
 OLDACT:UP  15-04-14 13:28 OP:carl STATUS:               ID:20150414010749     3
 OLDACT:REG 15-04-14 12:35 OP:carl STATUS:               ID:20150414010749     3
 2015-04-14-0107-49M.COL___272                                                 6
 STAT SP IPHASW D HRMM SECON CODA AMPLIT PERI AZIMU VELO AIN AR TRES W  DIS CAZ7
 BRR  HN ES        111  7.14                             151    0.5010 74.0 301 
 RUS  HZ EP        110 52.97                             145    0.7310 96.7 177 
 RUS  HE ES        111  9.88                             145   -0.6210 96.7 177 
 RUS  HZ I         111 14.10         1.2 0.36            149           96.7 177 
 PTB  HZ EP        110 55.53                             132   -0.24 9  148 260 
 PTB  HN ES        111 16.57                             132   -0.23 9  148 260 
 PTB  HZ I         111 19.26         2.6 0.16            133            148 260 
 ZAR  HZ EP        111  1.67                             122    0.19 8  207 293 
 ZAR  HN ES        111 27.09                             122    0.13 8  207 293 
 ZAR  HZ I         111 35.59         2.1 0.22            123            207 293 
 SML  HZ EP        111  5.57                             117   -0.26 8  248 335 
 SML  HE ES        111 34.27                             117   -0.44 8  248 335 
 SML  HZ I         111 41.17         2.7 0.10            118            248 335 
                                                                                
