 2014  714 0319  6.5 L   6.797 -73.136144.0  RSN 15 0.5 1.9LRSN                1
 GAP=138        1.12       3.1     4.4  6.3 -0.2957E+01  0.8755E+01 -0.1318E+00E
 Epicentro: LOS SANTOS - SANTANDER                                             3
 ACTION:UPD 15-03-16 20:43 OP:nd   STATUS:               ID:20140714031906 L   I
 OLDACT:REG 14-07-14 13:03 OP:fm   STATUS:               ID:20140714031817     3
 2014-07-14-0318-17M.COL___253                                                 6
 STAT SP IPHASW D HRMM SECON CODA AMPLIT PERI AZIMU VELO AIN AR TRES W  DIS CAZ7
 BAR2 SZ EP        319 25.88                             170    0.0110 23.3 193 
 BAR2 SZ ES   1    319 40.80                             170   -0.21 7 23.3 193 
 BAR2 SZ I         319 42.22        28.2 0.18            169           23.3 193 
 BRR  HZ EP        319 27.79                             152    0.3210 72.3 298 
 BRR  HN ES        319 44.68                             152    0.8210 72.3 298 
 BRR  HZ I         319 47.97        12.7 0.32            149           72.3 298 
 PAM  SZ EP   1    319 28.82                             151    0.37 7 76.9  39 
 PAM  SN ES        319 46.13                             151    0.5210 76.9  39 
 PAM  SZ I         319 47.88        14.3 0.54            154           76.9  39 
 RUS  HZ EP        319 29.86                             144   -0.1410  100 177 
 RUS  HN ES        319 48.02                             144   -0.3510  100 177 
 RUS  HZ I         319 49.63        12.2 0.34            146            100 177 
 PTB  HZ EP   1    319 32.51                             131   -0.85 7  149 259 
 PTB  HN ES        319 53.76                             131   -0.59 9  149 259 
 PTB  HZ I         319 55.99         8.6 0.36            131            149 259 
 OCA  HZ EP        319 34.44                             129   -0.22 9  161 353 
 OCA  HN ES        319 55.72                             129   -0.95 9  161 353 
 OCA  HZ I         320  0.11         9.2 0.16            130            161 353 
 SPBC HZ EP   1    319 34.96                             129    0.10 7  164 219 
 SPBC HN ES        319 56.87                             129   -0.14 9  164 219 
 SPBC HZ I         319 59.49        13.0 0.16            129            164 219 
 ZAR  HZ EP        319 39.58                             122    0.69 9  205 292 
 ZAR  HN ES        320  4.33                             122    0.13 9  205 292 
 ZAR  HZ I         320 10.66         9.1 0.26            122            205 292 
 NOR  HZ EP   1    319 41.91                             118   -0.24 6  235 235 
 NOR  HN ES        320  9.85                             118   -0.15 8  235 235 
 NOR  HZ I         320 16.10         5.6 0.18            118            235 235 
 SML  HZ EP   1    319 42.20                             117   -0.85 6  244 335 
 SML  HE ES        320 11.44                             117   -0.16 8  244 335 
 SML  HZ I         320 14.40        11.0 0.10            118            244 335 
 HEL  HZ EP   2    319 47.40                             114    0.72 4  273 256 
 HEL  HN ES   1    320 18.91                             114    0.85 6  273 256 
 HEL  HZ I         320 24.52         3.3 0.26            115            273 256 
 GUY2CHZ EP   1    319 50.87                             112    0.81 5  302 235 
 GUY2CHN ES        320 23.39                             112   -0.68 7  302 235 
 GUY2CHZ I         320 30.91         2.3 0.54                           302 235 
 RREF HZ EP   4    319 54.03                             110    1.44 0  322 230 
 RREF HN ES   4    320 29.41                             110    0.84 0  322 230 
 RREF HZ I    4    320 36.84         2.5 0.66            111            322 230 
 CBOC HZ EP   1    319 54.24                             109    0.84 5  335 252 
 CBOC HN ES   4    320 28.56                             109   -1.45 0  335 252 
 CBOC HZ I         320 39.78         1.2 0.62            110            335 252 
 PRA  HZ EP   1    320  0.27                             106    0.33 4  392 210 
 PRA  HN ES   1    320 42.53                             106    0.87 4  392 210 
 PRA  HZ I         320 47.27         2.8 0.24            107            392 210 
 SJC  HZ EP   4    320  0.43                             105   -1.62 0  410 327 
 SJC  HN ES   4    320 41.53                             105   -3.89 0  410 327 
 SJC  HZ I         320 45.61         1.8 0.48            106            410 327 
                                                                                
