 2013 1114 0401 30.2 L   6.795 -73.132144.1  RSN 16 0.5 2.2LRSN                1
 GAP=138        1.16       3.0     4.2  5.7 -0.1830E+01  0.7013E+01  0.3014E+00E
 Epicentro: LOS SANTOS - SANTANDER                                             3
 ACTION:UPD 14-01-09 16:27 OP:ep   STATUS:               ID:20131114040130 L   I
 OLDACT:REG 13-11-14 09:27 OP:nd   STATUS:               ID:20131114040000     3
 2013-11-14-0400-00M.COL___279                                                 6
 STAT SP IPHASW D HRMM SECON CODA AMPLIT PERI AZIMU VELO AIN AR TRES W  DIS CAZ7
 BAR2 SZ EP        4 1 49.80                             170    0.2010 23.1 194 
 BAR2 SZ ES        4 2  4.87                             170    0.1110 23.1 194 
 BAR2 SZ I         4 2  6.49        47.7 0.26            169           23.1 194 
 BRR  HZ EP        4 1 51.81                             152    0.5710 72.8 298 
 BRR  HN ES        4 2  8.38                             152    0.7110 72.8 298 
 BRR  HZ I         4 2 15.31        20.0 0.20            148           72.8 298 
 PAM  SZ EP        4 1 52.52                             151    0.3310 76.9  38 
 PAM  SN ES        4 2  9.74                             151    0.3810 76.9  38 
 PAM  SZ I         4 2 11.96        22.7 0.22            154           76.9  38 
 RUS  HZ EP        4 1 53.66                             144   -0.0610 99.9 177 
 RUS  HN ES        4 2 11.23                             144   -0.8510 99.9 177 
 RUS  HZ I         4 2 13.82        13.2 0.34            148           99.9 177 
 PTB  HZ EP        4 1 56.57                             131   -0.56 9  149 259 
 PTB  HN ES        4 2 17.89                             131   -0.27 9  149 259 
 PTB  HZ I         4 2 23.77        20.3 0.40            131            149 259 
 OCA  HZ EP        4 1 58.28                             129   -0.15 9  161 353 
 OCA  HN ES        4 2 19.88                             129   -0.59 9  161 353 
 OCA  HZ I         4 2 28.19        17.8 0.34            130            161 353 
 SPBC HZ EP        4 1 58.73                             129    0.13 9  164 220 
 SPBC HN ES        4 2 21.13                             129    0.36 9  164 220 
 SPBC HZ I         4 2 25.84        30.4 0.22            130            164 220 
 ZAR  HZ EP        4 2  3.36                             122    0.68 8  206 292 
 ZAR  HN ES        4 2 27.45                             122   -0.58 8  206 292 
 ZAR  HZ I         4 2 33.34        22.2 0.42            122            206 292 
 NOR  HZ EP        4 2  5.88                             118   -0.03 8  236 235 
 NOR  HN ES        4 2 33.41                             118   -0.37 8  236 235 
 NOR  HZ I         4 2 40.96        13.9 0.26            119            236 235 
 SML  HZ EP        4 2  6.60                             117   -0.23 8  245 335 
 SML  HN ES        4 2 34.52                             117   -0.91 8  245 335 
 SML  HZ I         4 2 39.53        31.5 0.10            118            245 335 
 CHI  HZ EP        4 2  7.56                             117   -0.21 8  248 196 
 CHI  HN ES        4 2 36.66                             117   -0.43 8  248 196 
 CHI  HZ I         4 2 41.86         8.7 0.32            119            248 196 
 ROSC BZ EP   4    4 2 10.30                             116    2.06 0  253 211 
 ROSC BN ES   4    4 2 39.71                             116    1.78 0  253 211 
 HEL  HZ EP        4 2 10.92                             114    0.47 8  273 256 
 HEL  HN ES        4 2 42.48                             114    0.61 8  273 256 
 HEL  HZ I         4 2 48.24         8.0 0.50            115            273 256 
 GUY2CHZ EP        4 2 14.23                             112    0.42 7  302 235 
 GUY2CHN ES   4    4 2 51.40                             112    3.55 0  302 235 
 GUY2CHZ I         4 2 56.67        11.9 0.74                           302 235 
 CBOC HZ EP   4    4 2 17.58                             110    0.41 0  335 252 
 CBOC HN ES   4    4 2 53.49                             110   -0.33 0  335 252 
 CBOC HZ I         4 3  0.50         2.3 0.16            111            335 252 
 COD  HZ EP   4    4 2 17.48                             109   -1.09 0  349 354 
 COD  HN ES   4    4 2 53.94                             109   -2.38 0  349 354 
 COD  HZ I         4 3  1.59        11.9 0.92            110            349 354 
 SJC  HZ EP   4    4 2 23.98                             105   -1.85 0  411 327 
 SJC  HN ES   4    4 3  1.24                             105   -8.01 0  411 327 
 SJC  HZ I         4 3 24.34         2.6 0.58            106            411 327 
                                                                                
