 2017  214 0904 51.1 L   6.851 -73.128149.8  RSN 18 0.5 2.2LRSN                1
 GAP= 75        1.11       3.7     3.1  5.2  0.3311E+00  0.4173E+01  0.3131E+01E
 Epicentro: LOS SANTOS - SANTANDER                                             3
 ACTION:UPD 17-05-24 15:36 OP:jn   STATUS:               ID:20170214090451 L   I
 OLDACT:UP  17-02-14 16:33 OP:dani STATUS:               ID:20170214085746d    3
 OLDACT:UP  17-02-14 16:33 OP:dani STATUS:               ID:20170214085746d    3
 OLDACT:DUP 17-02-14 16:27 OP:dani STATUS:               ID:20170214085746d    3
 2017-02-14-0858-00M.COL___349                                                 6
 STAT SP IPHASW D HRMM SECON CODA AMPLIT PERI AZIMU VELO AIN AR TRES W  DIS CAZ7
 BAR2 EZ IP     C  9 5 11.26                             169   -0.1010 29.2 192 
 BAR2 EZ ES        9 5 26.39                             169   -0.7610 29.2 192 
 BAR2 EZ I         9 5 27.75        41.7 0.38            165           29.2 192 
 BRR  HZ EP        9 5 13.11                             153    0.4510 70.4 294 
 BRR  HN ES        9 5 29.90                             153    0.4410 70.4 294 
 BRR  HZ I         9 5 33.35        25.8 0.11            150           70.4 294 
 PAM  EZ EP        9 5 13.79                             153    0.3410 71.8  41 
 PAM  EE ES        9 5 31.06                             153    0.2010 71.8  41 
 PAM  EZ I         9 5 31.64        14.2 0.24            156           71.8  41 
 RUS  HZ EP        9 5 15.28                             143   -0.3810  106 177 
 RUS  HN ES        9 5 34.14                             143   -0.6710  106 177 
 RUS  HZ I         9 5 35.35        13.7 0.30            141            106 177 
 PTB  HZ EP        9 5 17.99                             132   -0.70 9  151 257 
 PTB  HN ES        9 5 40.07                             132   -0.13 9  151 257 
 PTB  HZ I         9 5 41.93        29.7 0.42            129            151 257 
 TAM  HZ EP        9 5 19.43                             131    0.34 9  155 107 
 TAM  HN ES        9 5 41.10                             131    0.19 9  155 107 
 TAM  HZ I         9 5 42.82        10.1 0.23            133            155 107 
 ZAR  HZ EP        9 5 23.82                             123    0.02 9  204 290 
 ZAR  HN ES        9 5 49.23                             123   -0.06 9  204 290 
 ZAR  HZ I         9 5 54.85        19.3 0.24            121            204 290 
 NOR  HZ EP        9 5 27.58                             118   -0.02 8  240 234 
 NOR  HN ES        9 5 56.50                             118    0.44 8  240 234 
 NOR  HZ I         9 5 58.84        17.3 0.14            117            240 234 
 CHI  HZ EP        9 5 29.51                             117   -0.18 8  255 195 
 CHI  HN ES        9 6  0.68                             117    0.91 8  255 195 
 CHI  HZ I         9 6  7.48         5.1 0.26            116            255 195 
 ROSC BZ EP   9    9 5 31.26                             116    1.17 0  259 211 
 ROSC BN ES        9 6  0.85                             117   -0.81 8  259 211 
 ROSC BZ I         9 6  7.63        16.6 0.52            115            259 211 
 URE  HZ EP   9    9 5 31.14                             114   -1.21 0  284 291 
 URE  HN ES        9 6  2.51                             114   -0.79 7  284 291 
 URE  HZ I         9 6 14.37        10.1 0.27            113            284 291 
 PTGC HZ EP   3    9 5 34.38                             112   -1.30 2  313 159 
 PTGC HE ES   4 C  9 6  7.84                             112   -2.59 0  313 159 
 PTGC HZ I         9 6 10.34         5.4 0.22            112            313 159 
 ELA  HZ EP   3    9 5 40.54                             110    1.81 2  334 229 
 ELA  HN ES   4    9 6 18.33                             110    2.47 0  334 229 
 ELA  HZ I         9 6 23.64         8.0 0.28            109            334 229 
 CBOC HZ EP        9 5 39.49                             110    0.88 7  337 251 
 CBOC HE ES        9 6 16.41                             110    0.75 7  337 251 
 CBOC HZ I         9 6 33.03         4.1 0.46            109            337 251 
 DBB  EZ EP        9 5 38.98                             110    0.04 7  341 273 
 DBB  EN ES        9 6 15.53                             110   -0.70 7  341 273 
 DBB  EZ I         9 6 17.85         4.6 0.18            109            341 273 
 PRA  HZ EP        9 5 45.03                             107   -0.43 6  398 209 
 PRA  HE ES        9 6 27.93                             107    0.08 6  398 209 
 PRA  HZ I         9 6 34.27         7.7 0.30            106            398 209 
 ORTC HZ EP        9 5 45.94                             106    0.10 6  401 216 
 ORTC HE ES   3    9 6 29.79                             106    1.26 1  401 216 
 ORTC HZ I         9 6 35.07         6.5 0.43            106            401 216 
 SJC  HZ EP        9 5 45.34                             106   -1.04 6  406 326 
 SJC  HN ES   4    9 6 26.40                             106   -3.09 0  406 326 
 SJC  HZ I         9 6 33.86         3.7 0.38            106            406 326 
                                                                                
