 2012  614 0642 53.7 L   6.779 -73.151144.0  RSN  7 0.2 1.9LRSN                1
 GAP=137        0.41       2.9     2.6  4.1  0.4596E+00  0.3439E+01 -0.1360E+01E
 Epicentro: LOS SANTOS - SANTANDER                                             3
 ACTION:UPD 12-08-06 17:49 OP:ep   STATUS:               ID:20120614064253 L   I
 2012-06-14-0640-00M.COL___201                                                 6
 STAT SP IPHASW D HRMM SECON CODA AMPLIT PERI AZIMU VELO AIN AR TRES W  DIS CAZ7
 BAR2 SZ EP   1    643 13.07                             171   -0.03 7 20.9 189 
 BAR2 SZ ES   1    643 28.51                             171    0.30 7 20.9 189 
 BAR2 SZ I         643 29.65        30.1 0.15                          20.9 189 
 PAM  SZ EP   1    643 15.72                             150   -0.17 7 79.6  39 
 PAM  SN ES   2    643 33.48                             150    0.31 5 79.6  39 
 RUS  HZ EP   1    643 16.88                             144   -0.26 7 98.3 176 
 RUS  HN ES   1    643 35.42                             144    0.01 7 98.3 176 
 RUS  HZ I         643 36.91         8.8 0.47                          98.3 176 
 PTB  HZ EP   2    643 20.14                             132   -0.32 5  147 260 
 PTB  HN ES   1    643 41.06                             132   -0.25 7  147 260 
 PTB  HZ I         643 48.32         6.3 0.25                           147 260 
 ZAR  HZ EP   1    643 26.12                             122    0.03 6  204 293 
 ZAR  HN ES   1    643 51.41                             122    0.07 6  204 293 
 ZAR  HZ I         643 58.09         8.7 0.40                           204 293 
 HEL  HZ EP   2    643 33.82                             115    0.10 4  271 256 
 HEL  HE ES   2    644  5.36                             115    0.44 4  271 256 
 PRA  HZ EP   2    643 47.53                             107    0.61 3  390 210 
 PRA  HN ES   2    644 28.73                             107    0.32 3  390 210 
                                                                                
