 2010  214 0009 22.5 L   6.820 -72.978138.4  RSN  5 0.5 2.1LRSN                1
 GAP=303        0.91      12.1    16.2 10.5 -0.1025E+03  0.1448E+02  0.5391E+02E
 Epicentro: CEPITA - SANTANDER                                                 3
 ACTION:UP  10-08-24 09:48 OP:vdl  STATUS:               ID:20100214000922 L   I
 2010-02-14-0000-00S.COL___092                                                 6
 STAT SP IPHASW D HRMM SECON CODA AMPLIT PERI AZIMU VELO SNR AR TRES W  DIS CAZ7
 BAR2 SZ EP        0 9 41.98                             166     0.410   34 222 
 BAR2 SZ ES   1    0 9 55.85                             166    -0.5 7   34 222 
 CHI  HZ EP        010  0.19                             115    -0.5 8  256 199 
 CHI  HN ES   1    010 31.07                             115     0.7 6  256 199 
 CHI  HZ I         010 35.46         3.8 0.19                           256 199 
 HEL  HZ EP   3    010  4.49                             111     0.0 2  291 256 
 RREF BZ EP   2    010 10.13                             108     0.0 3  337 231 
 RREF BN ES   1    010 47.59                             108     0.3 5  337 231 
 RREF BZ I         010 51.02         6.3 0.28                           337 231 
 PRA  HZ EP   1    010 16.44                             105    -0.7 4  403 212 
 PRA  HN ES   1    010 59.34                             105    -0.4 4  403 212 
 PRA  HZ I         011  4.86         4.8 0.37                           403 212 
                                                                                
