 2010  314 0934 24.2 L   6.788 -73.063146.3  RSN  7 0.3 1.8LRSN                1
 GAP=191        0.60       2.9     6.2  5.1  0.3262E+01 -0.2705E+01  0.1275E+01E
 Epicentro: LOS SANTOS - SANTANDER                                             3
 ACTION:UP  10-08-24 09:53 OP:vdl  STATUS:               ID:20100314093424 L   I
 2010-03-14-0932-42S.COL___095                                                 6
 STAT SP IPHASW D HRMM SECON CODA AMPLIT PERI AZIMU VELO SNR AR TRES W  DIS CAZ7
 BAR2 SZ EP        934 43.87                             170    -0.110   25 212 
 BAR2 SZ ES   1    934 58.98                             170    -0.4 7   25 212 
 BRR  HZ IP        934 45.75                             150    -0.210   80 296 
 BRR  HZ I         934 46.10        18.1 0.11                            80 296 
 BRR  HN ES        935  3.10                             150     0.210   80 296 
 RUS  HZ EP   1    934 48.05                             144     0.2 7   99 181 
 RUS  HE ES   1    935  6.65                             144     0.3 7   99 181 
 RUS  HZ I         935  7.80         7.0 0.31                            99 181 
 OCA  SZ EP   1    934 53.26                             129     0.5 7  163 350 
 OCA  SZ ES   1    935 14.87                             129    -0.2 7  163 350 
 OCA  SZ I         935 20.60        12.5 0.22                           163 350 
 CHI  HZ EP   1    935  1.87                             117    -0.2 6  250 197 
 CHI  HZ I         935  3.37         2.5 0.35                           250 197 
 CHI  HE ES   2    935 31.35                             117    -0.3 4  250 197 
 HEL  HE ES   2    935 37.21                             114    -0.3 4  281 257 
 HEL  HZ I         935 43.10         1.7 0.28                           281 257 
 PRA  HZ EP   2    935 17.92                             106    -0.2 3  395 211 
 PRA  HZ I         935 52.19         2.8 0.42                           395 211 
 PRA  HE ES   2    936  0.75                             106     0.5 3  395 211 
                                                                                
