 2013  714 0549  1.8 L   6.733 -73.168148.4  RSN  4 0.4 0.9LRSN                1
 GAP=230        1.00       8.0     7.6  8.1  0.2994E+02  0.6034E+01  0.1270E+01E
 Epicentro: VILLANUEVA - SANTANDER                                             3
 ACTION:UPD 13-08-12 10:37 OP:ep   STATUS:               ID:20130714054901 L   I
 OLDACT:REG 13-07-14 07:29 OP:nd   STATUS:               ID:20130714053959     3
 2013-07-14-0539-59M.COL___267                                                 6
 STAT SP IPHASW D HRMM SECON CODA AMPLIT PERI AZIMU VELO AIN AR TRES W  DIS CAZ7
 BAR2 SZ EP        549 21.50                             174   -0.1010 15.6 186 
 BAR2 SZ ES        549 36.36                             174   -0.6910 15.6 186 
 BAR2 SZ I         549 37.70         4.1 0.40            167           15.6 186 
 BRR  HZ EP     C  549 23.28                             152   -0.0310 73.0 305 
 BRR  HN ES        549 40.72                             152    0.6110 73.0 305 
 BRR  HZ I         549 43.20         2.6 0.14            146           73.0 305 
 RUS  HZ EP        549 25.56                             146    0.2710 93.4 174 
 RUS  HZ I         549 43.84         0.6 0.40            132           93.4 174 
 RUS  HN ES        549 43.95                             146    0.3310 93.4 174 
 PTB  HZ EP        549 28.32                             133   -0.32 9  144 262 
 PTB  HZ I         549 40.05         0.8 0.52            123            144 262 
 PTB  HN ES        549 49.46                             133   -0.12 9  144 262 
                                                                                
