 2012  714 0412 19.6 L   6.411 -73.393133.0  RSN  6 0.4 1.4LRSN                1
 GAP=115        1.05       7.5     6.7 11.5  0.2336E+02  0.3693E+02  0.1950E+02E
 Epicentro: CHIMA - SANTANDER                                                  3
 ACTION:UPD 12-08-14 11:44 OP:ep   STATUS:               ID:20120714041219 L   I
 2012-07-14-0410-00M.COL___197                                                 6
 STAT SP IPHASW D HRMM SECON CODA AMPLIT PERI AZIMU VELO AIN AR TRES W  DIS CAZ7
 BAR2 SZ EP   1    412 37.71                             166    -0.2 7   31  49 
 BAR2 SZ I         412 38.03         9.2 0.16            171             31  49 
 BAR2 SZ ES   1    412 51.33                             166    -0.8 7   31  49 
 RUS  HZ EP   1    412 40.27                             152     0.4 7   67 149 
 RUS  HN ES   1    412 56.06                             152     0.4 7   67 149 
 RUS  HZ I         412 57.61         3.7 0.15            154             67 149 
 BRR  HZ EP   1    412 40.24                             145     0.0 7   85 335 
 BRR  HZ I         412 40.50         7.8 0.13            146             85 335 
 BRR  HN ES        412 56.55                             145     0.210   85 335 
 PTB  HZ EP   1    412 42.45                             136    -0.5 7  118 277 
 PTB  HN ES   1    413  1.31                             136     0.2 7  118 277 
 PTB  HZ I         413  4.46         3.3 0.13            135            118 277 
 ZAR  HN ES        413 15.77                             120     0.4 9  201 307 
 ZAR  HZ I         413 21.62         1.7 0.11            120            201 307 
 HEL  HN ES   1    413 22.61                             115    -0.6 6  238 264 
