 2013  114 0637 52.5 L   6.742 -73.238146.3  RSN  4 0.2 1.0LRSN                1
 GAP=222        0.37       4.0     4.1  5.0  0.1005E+02 -0.2768E+00 -0.3825E+00E
 Epicentro: VILLANUEVA - SANTANDER                                             3
 ACTION:UPD 13-02-15 09:14 OP:ep   STATUS:               ID:20130114063752 L   I
 2013-01-14-0630-00M.COL___241                                                 6
 STAT SP IPHASW D HRMM SECON CODA AMPLIT PERI AZIMU VELO AIN AR TRES W  DIS CAZ7
 BRR  HZ EP   1    638 13.56                             154    0.09 7 66.1 308 
 BRR  HN ES   1    638 29.70                             154   -0.09 7 66.1 308 
 BRR  HZ I         638 34.16         1.7 0.16            151           66.1 308 
 RUS  HZ EP   1    638 15.79                             145   -0.19 7 95.5 170 
 RUS  HN ES   1    638 34.43                             145    0.16 7 95.5 170 
 PTB  HZ EP   1    638 18.60                             135    0.04 7  137 261 
 PTB  HN ES   1    638 38.73                             135   -0.12 7  137 261 
 PTB  HZ I         638 46.48         1.4 0.18            133            137 261 
 ZAR  HE ES   2    638 49.41                             123    0.30 4  197 295 
                                                                                
