 2013  614 0408 11.7 L   6.782 -73.137152.8  RSN  8 0.4 2.1LRSN                1
 GAP=184        0.99       3.8     5.2  6.4  0.3797E+00  0.4415E+01 -0.5032E+01E
 Epicentro: LOS SANTOS - SANTANDER                                             3
 ACTION:UPD 14-01-08 09:54 OP:ep   STATUS:               ID:20130614040811 L   I
 OLDACT:REG 13-06-14 08:03 OP:cam  STATUS:               ID:20130614035959     3
 2013-06-14-0359-59M.COL___261                                                 6
 STAT SP IPHASW D HRMM SECON CODA AMPLIT PERI AZIMU VELO AIN AR TRES W  DIS CAZ7
 BAR2 SZ EP        4 8 32.19                             172    0.0610 21.5 193 
 BAR2 SZ ES        4 8 47.56                             172   -0.5110 21.5 193 
 BAR2 SZ I         4 8 48.98        17.1 0.44            172           21.5 193 
 GIR2 SZ EP        4 8 32.25                             167   -0.0010 33.4 349 
 GIR2 SZ ES   1    4 8 49.03                             167    0.74 7 33.4 349 
 BRR  HZ EP     C  4 8 34.04                             153    0.3410 73.0 300 
 BRR  HZ I         4 8 34.32        21.9 0.26            150           73.0 300 
 BRR  HN ES        4 8 51.51                             153    0.6510 73.0 300 
 RUS  HZ EP        4 8 36.14                             146    0.1510 98.5 177 
 RUS  HN ES        4 8 54.74                             146   -0.2010 98.5 177 
 RUS  HZ I         4 8 55.74        10.7 0.32            147           98.5 177 
 PTB  HZ EP   1    4 8 39.06                             133   -0.22 7  148 260 
 PTB  HN ES        4 9  0.40                             133   -0.41 9  148 260 
 PTB  HZ I         4 9  2.26        18.1 0.12            132            148 260 
 OCA  HZ EP   1    4 8 41.34                             131    0.59 7  162 353 
 OCA  HN ES        4 9  2.74                             131   -0.67 9  162 353 
 OCA  HZ I         4 9  8.07        11.7 0.18            130            162 353 
 SML  HZ EP        4 8 48.71                             119   -0.24 8  246 335 
 SML  HN ES   1    4 9 17.74                             119   -0.28 6  246 335 
 SML  HZ I         4 9 23.62        14.7 0.22            118            246 335 
 HEL  HN ES        4 9 24.14                             116    0.14 8  272 256 
 HEL  HZ I         4 9 31.42         5.5 0.24            115            272 256 
                                                                                
