 2015  714 0739 17.8 L   6.769 -73.104146.0  RSN  6 0.3 1.4LRSN                1
 GAP=143        0.61       2.8     4.0  5.4  0.1190E+01  0.8253E+01 -0.4077E+00E
 Epicentro: LOS SANTOS - SANTANDER                                             3
 ACTION:UPD 15-09-08 21:48 OP:cam  STATUS:               ID:20150714073917 L   I
 OLDACT:REG 15-07-14 14:18 OP:spq  STATUS:               ID:20150714073750     3
 2015-07-14-0737-50M.COL___331                                                 6
 STAT SP IPHASW D HRMM SECON CODA AMPLIT PERI AZIMU VELO AIN AR TRES W  DIS CAZ7
 BAR2 EZ EP        739 37.21                             171   -0.2510 21.4 204 
 BAR2 EZ ES   1    739 52.87                             171    0.10 7 21.4 204 
 BAR2 EZ I         739 54.87         6.4 0.22            170           21.4 204 
 PAM  EZ EP        739 40.07                             151   -0.0010 77.2  35 
 PAM  EN ES   1    739 57.22                             151   -0.19 7 77.2  35 
 PAM  EZ I         739 59.30         5.2 0.54            155           77.2  35 
 RUS  HZ EP        739 41.36                             145    0.0010 97.0 179 
 RUS  HE ES   1    739 59.91                             145    0.21 7 97.0 179 
 RUS  HZ I         740  1.03         1.4 0.38            149           97.0 179 
 OCA  HZ EP   1    739 46.27                             129   -0.27 7  164 352 
 OCA  HN ES        740  9.37                             129    0.44 9  164 352 
 OCA  HZ I         740 11.30         7.9 0.18            131            164 352 
 ZAR  HZ EP        739 50.65                             122   -0.23 8  210 293 
 ZAR  HE ES        740 16.51                             122   -0.14 8  210 293 
 ZAR  HZ I         740 23.43         2.0 0.22            123            210 293 
 GUY2CHZ EP   1    740  2.42                             112    0.75 5  303 236 
 GUY2CHN ES   4    740 38.71                             112    2.85 0  303 236 
 GUY2CHZ I         740 44.13         1.4 0.68                           303 236 
                                                                                
