 2015  714 0929 40.3 L   6.802 -73.101151.2  RSN  8 0.3 1.6LRSN                1
 GAP=142        0.62       2.3     3.5  5.3 -0.1213E+01  0.8035E+01 -0.2365E+01E
 Epicentro: LOS SANTOS - SANTANDER                                             3
 ACTION:UPD 15-09-08 21:48 OP:cam  STATUS:               ID:20150714092940 L   I
 OLDACT:REG 15-07-14 14:22 OP:spq  STATUS:               ID:20150714092748     3
 2015-07-14-0927-48M.COL___337                                                 6
 STAT SP IPHASW D HRMM SECON CODA AMPLIT PERI AZIMU VELO AIN AR TRES W  DIS CAZ7
 BAR2 EZ EP        930  0.74                             170    0.1410 24.8 201 
 BAR2 EZ ES   1    930 16.20                             170   -0.25 7 24.8 201 
 BAR2 EZ I         930 16.76         5.3 0.20            170           24.8 201 
 PAM  EN ES   1    930 20.75                             153    0.21 7 74.2  37 
 PAM  EZ I         930 22.76         9.4 0.60            154           74.2  37 
 RUS  HZ EP        930  4.70                             145    0.1310  101 179 
 RUS  HN ES   1    930 23.39                             145   -0.12 7  101 179 
 RUS  HZ I         930 24.73         2.8 0.46            149            101 179 
 OCA  HZ EP        930  9.30                             131    0.24 9  161 351 
 OCA  HE ES        930 31.13                             131   -0.39 9  161 351 
 OCA  HZ I         930 35.62         7.6 0.54            131            161 351 
 ZAR  HZ EP        930 13.11                             123   -0.44 8  209 292 
 ZAR  HN ES        930 39.91                             123    0.41 8  209 292 
 ZAR  HZ I         930 45.63         4.5 0.30            123            209 292 
 NOR  HE ES        930 45.34                             119    0.10 8  239 235 
 NOR  HZ I         930 48.57         2.9 0.21            121            239 235 
 SML  HZ EP        930 17.34                             118   -0.09 8  246 334 
 SML  HE ES   1    930 46.63                             118    0.23 6  246 334 
 SML  HZ I         930 53.81         4.6 0.10            119            246 334 
 GUY2CHE ES   1    930 58.75                             113   -0.44 5  305 235 
 GUY2CHZ I         931  5.19         1.6 0.30                           305 235 
                                                                                
