 2017  114 0248 48.2 L   6.769 -73.090149.5  RSN 10 0.5 2.0LRSN                1
 GAP=125        1.41       5.4     5.9  7.9  0.7348E+01  0.9953E+01  0.9041E+01E
 Epicentro: LOS SANTOS - SANTANDER                                             3
 ACTION:UPD 17-05-22 15:59 OP:jn   STATUS:               ID:20170114024847 L   I
 OLDACT:UP  17-03-28 20:26 OP:nlst STATUS:               ID:20170114024847 L   3
 OLDACT:REG 17-01-14 12:26 OP:dani STATUS:               ID:20170114024607     3
 2017-01-14-0248-00M.COL___326                                                 6
 STAT SP IPHASW D HRMM SECON CODA AMPLIT PERI AZIMU VELO AIN AR TRES W  DIS CAZ7
 BAR2 EZ EP        249  8.48                             171    0.2410 22.1 208 
 BAR2 HN ES        249 23.49                             171   -0.4010 22.1 208 
 BAR2 EZ I         249 24.53        23.9 0.18            171           22.1 208 
 PAM  EZ EP        249 11.35                             152    0.6110 76.4  34 
 PAM  EN ES        249 28.17                             152   -0.1610 76.4  34 
 PAM  EZ I         249 30.33        18.8 0.58            152           76.4  34 
 BRR  HZ EP        249 10.51                             151    0.3710 78.3 299 
 BRR  HN ES        249 27.12                             151   -0.1510 78.3 299 
 BRR  HZ I         249 28.34        18.8 0.12            151           78.3 299 
 RUS  HZ EP        249 12.46                             146    0.4110 97.0 180 
 RUS  HN ES        249 30.69                             146    0.0210 97.0 180 
 RUS  HZ I         249 31.88         7.3 0.24            146           97.0 180 
 PTB  HZ EP        249 15.13                             132   -0.82 9  153 261 
 PTB  HE ES   1    249 37.31                             132   -0.30 7  153 261 
 PTB  HZ I         249 38.76         9.4 0.16            132            153 261 
 ZAR  HZ EP        249 21.26                             122   -0.33 8  211 292 
 ZAR  HN ES        249 47.61                             122   -0.05 8  211 292 
 ZAR  HZ I         249 52.72        16.6 0.40            122            211 292 
 PTGC HZ EP        249 31.70                             113    0.10 7  303 160 
 PTGC HE ES        250  4.86                             113   -0.61 7  303 160 
 PTGC HZ I         250  7.50         5.3 0.32            113            303 160 
 GUY2CHZ EP   1    249 33.07                             113    0.75 5  304 236 
 GUY2CHE ES        250  7.96                             113    1.21 7  304 236 
 GUY2CHZ I         250 13.89         5.0 0.32                           304 236 
 LL6C HZ EP   9    249 14.77                             111   -19.7 0  329 357 
 LL6C HN ES        249 52.79                                    1.92 7  329 357 
 SJC  HZ EP     C  249 43.34                             106   -1.26 5  415 326 
 SJC  HN ES   4    250 24.88                             106   -3.72 0  415 326 
 SJC  HZ I         250 28.72         2.6 0.49            106            415 326 
                                                                                
