 2012 1014 0252 32.0 L   6.871 -72.920149.4  RSN  4 0.4 1.4LRSN                1
 GAP=242        0.48      16.4    29.2 16.5  0.4470E+03 -0.4167E+03 -0.2223E+03E
 Epicentro: GUACA - SANTANDER                                                  3
 ACTION:UPD 12-11-22 17:03 OP:ep   STATUS:               ID:20121014025232 L   I
 2012-10-14-0250-00M.COL___231                                                 6
 STAT SP IPHASW D HRMM SECON CODA AMPLIT PERI AZIMU VELO AIN AR TRES W  DIS CAZ7
 GIR2 SZ EP   3    252 53.14                             165    0.84 2 38.0 307 
 BAR2 SZ EP   3    252 51.21                             163   -1.38 2 42.4 223 
 BAR2 SZ ES   3    253  8.51                             163   -0.14 2 42.4 223 
 BRR  HZ EP        252 54.79                             147    0.0110 91.3 287 
 BRR  HZ I         252 56.31         3.7 0.10                          91.3 287 
 BRR  HN ES   1    253 12.54                             147    0.00 7 91.3 287 
 RUS  HZ EP   2    252 56.84                             142    0.06 5  110 189 
 RUS  HE ES   2    253 16.19                             142    0.08 5  110 189 
 RUS  HN I         253 17.14         4.3 0.42                           110 189 
                                                                                
