 2014  714 0204 35.9 L   6.802 -73.160152.7  RSN  7 0.5 1.5LRSN                1
 GAP=247        0.93       6.2     6.9  8.6 -0.4017E+01  0.8951E+01  0.1624E+02E
 Epicentro: LOS SANTOS - SANTANDER                                             3
 ACTION:UPD 15-03-16 20:43 OP:nd   STATUS:               ID:20140714020435 L   I
 OLDACT:REG 14-07-14 12:53 OP:fm   STATUS:               ID:20140714015818     3
 2014-07-14-0158-18M.COL___253                                                 6
 STAT SP IPHASW D HRMM SECON CODA AMPLIT PERI AZIMU VELO AIN AR TRES W  DIS CAZ7
 BAR2 SZ EP   1    2 4 55.71                             171   -0.62 7 23.3 186 
 BAR2 SZ ES   1    2 5 12.17                             171   -0.13 7 23.3 186 
 BAR2 SZ I         2 5 13.00         5.9 0.18            165           23.3 186 
 BRR  HZ EP   1    2 4 58.29                             154    0.60 7 69.7 299 
 BRR  HN ES        2 5 15.20                             154    0.4810 69.7 299 
 BRR  HZ I         2 5 17.51         6.0 0.14            154           69.7 299 
 PTB  HZ EP   1    2 5  2.73                             134   -0.55 7  146 259 
 PTB  HN ES        2 5 24.14                             134   -0.52 9  146 259 
 PTB  HZ I         2 5 26.53         3.9 0.20            133            146 259 
 SPBC HZ EP   1    2 5  5.43                             131    0.60 7  162 219 
 SPBC HN ES        2 5 27.29                             131   -0.14 9  162 219 
 SPBC HZ I         2 5 34.34         7.2 0.20            129            162 219 
 ZAR  HN ES   1    2 5 34.06                             124   -0.10 6  203 292 
 NOR  HZ EP   1    2 5 11.84                             120   -0.05 6  234 234 
 NOR  HN ES   1    2 5 39.98                             120   -0.01 6  234 234 
 NOR  HZ I         2 5 48.04         2.1 0.12            120            234 234 
 GUY2CHN ES   1    2 5 54.64                             114    0.79 5  300 235 
 GUY2CHZ I         2 6  2.34         1.3 0.26                           300 235 
 SJC  HZ EP   4    2 5 30.45                             107   -1.09 0  408 327 
 SJC  HN ES   4    2 6 10.65                             107   -4.32 0  408 327 
                                                                                
