 2013 1014 0601 17.0 L   6.817 -73.142148.0  RSN  8 0.6 1.6LRSN                1
 GAP=183        1.21       4.2    10.0  9.7 -0.8132E+01 -0.2152E+02  0.5293E+01E
 Epicentro: LOS SANTOS - SANTANDER                                             3
 ACTION:UPD 13-11-25 09:21 OP:ep   STATUS:               ID:20131014060117 L   I
 OLDACT:UP  13-10-14 10:18 OP:mh   STATUS:               ID:20131014055959     3
 OLDACT:UP  13-10-14 10:17 OP:mh   STATUS:               ID:20131014055959     3
 OLDACT:REG 13-10-14 07:37 OP:mh   STATUS:               ID:20131014055959     3
 2013-10-14-0559-59M.COL___273                                                 6
 STAT SP IPHASW D HRMM SECON CODA AMPLIT PERI AZIMU VELO AIN AR TRES W  DIS CAZ7
 BRR  HZ EP        6 1 38.86                             154    0.5310 70.7 297 
 BRR  HN ES        6 1 55.83                             154    0.8410 70.7 297 
 BRR  HZ I         6 1 59.92         3.8 0.10            148           70.7 297 
 RUS  HZ EP        6 1 40.67                             144   -0.4010  102 176 
 RUS  HN ES   2    6 1 59.52                             144   -0.36 5  102 176 
 RUS  HZ I         6 2  0.86         2.8 0.23            144            102 176 
 PTB  HZ EP        6 1 43.59                             133   -0.60 9  149 258 
 PTB  HN ES   1    6 2  4.73                             133   -0.69 7  149 258 
 PTB  HZ I         6 2 12.34         7.2 0.46            130            149 258 
 OCA  HZ EP   1    6 1 46.24                             131    0.96 7  158 353 
 OCA  HN ES        6 2  7.03                             131   -0.33 9  158 353 
 SPBC HZ EP        6 1 45.88                             130    0.08 9  165 219 
 SPBC HN ES        6 2  8.27                             130   -0.02 9  165 219 
 SPBC HZ I         6 2 11.93         7.2 0.16            128            165 219 
 SML  HZ EP        6 1 53.09                             119   -0.46 8  242 335 
 SML  HN ES        6 2 21.60                             119   -0.48 8  242 335 
 SML  HZ I         6 2 25.65         7.4 0.06            119            242 335 
 GUY2CHZ EP   1    6 2  2.05                             113    1.21 5  303 235 
 GUY2CHN ES   4    6 2 37.86                             113    2.80 0  303 235 
 PRA  HZ EP   1    6 2 10.63                             107   -0.15 4  394 209 
 PRA  HN ES   2    6 2 53.07                             107    0.31 3  394 209 
 PRA  HZ I         6 3  1.56         1.4 0.46            108            394 209 
                                                                                
