 2013  914 0354 40.4 L   6.720 -73.197147.4  RSN  7 0.4 1.6LRSN                1
 GAP=225        0.95       5.3     5.3  8.2  0.6341E+01  0.8200E+01  0.4319E+01E
 Epicentro: VILLANUEVA - SANTANDER                                             3
 ACTION:UPD 13-10-22 09:22 OP:ep   STATUS:               ID:20130914035440 L   I
 OLDACT:REG 13-09-14 08:27 OP:carl STATUS:               ID:20130914034959     3
 2013-09-14-0349-59M.COL___269                                                 6
 STAT SP IPHASW D HRMM SECON CODA AMPLIT PERI AZIMU VELO AIN AR TRES W  DIS CAZ7
 BAR2 SZ EP        354 59.79                             174   -0.2610 14.2 174 
 BAR2 SZ ES   1    355 15.06                             174   -0.34 7 14.2 174 
 BRR  HZ EP        355  1.70                             153    0.0110 71.2 307 
 BRR  HN ES   1    355 18.75                             153    0.42 7 71.2 307 
 BRR  HZ I         355 23.61         5.7 0.40            153           71.2 307 
 RUS  HZ EP        355  3.66                             146   -0.0510 92.4 172 
 RUS  HN ES   1    355 21.98                             146    0.06 7 92.4 172 
 RUS  HZ I         355 23.56         3.1 0.26            148           92.4 172 
 PTB  HZ EP        355  6.41                             134   -0.43 9  141 262 
 PTB  HN ES   1    355 27.32                             134   -0.17 7  141 262 
 PTB  HZ I         355 29.89         5.1 0.16            135            141 262 
 SPBC HZ EP        355  8.80                             131    0.78 9  153 219 
 SPBC HN ES   1    355 30.25                             131    0.65 7  153 219 
 SPBC HZ I         355 33.18         7.2 0.30            133            153 219 
 ZAR  HN ES        355 38.22                             123    0.21 9  202 295 
 NOR  HE ES        355 41.65                             120   -0.65 8  225 235 
 NOR  HE I         355 49.09         5.9 0.42            122            225 235 
                                                                                
