 2017  914 0527 53.6 L   6.802 -73.100151.3  RSN  4 0.2 1.1LRSN                1
 GAP=142        0.56       3.1     4.6  4.5 -0.3690E+00 -0.1364E+01  0.6003E+00E
 Epicentro: LOS SANTOS - SANTANDER                                             3
 ACTION:UPD 17-10-05 19:12 OP:rebc STATUS:               ID:20170914052753 L   I
 OLDACT:DUP 17-09-14 16:46 OP:and  STATUS:               ID:20170914051744d    3
 2017-09-14-0518-00M.COL___419                                                 6
 STAT SP IPHASW D HRMM SECON CODA AMPLIT PERI AZIMU VELO AIN AR TRES W  DIS CAZ7
 BAR2 EZ EP        528 13.56                             170   -0.4110 24.9 201 
 BAR2 EZ ES        528 29.79                             170   -0.0410 24.9 201 
 BAR2 EZ I         528 31.27         2.9 0.48            171           24.9 201 
 PAM  EZ IP     D  528 16.43                             153    0.1610 74.1  37 
 PAM  EN ES        528 33.89                             153   -0.0210 74.1  37 
 PAM  EZ I         528 35.78         2.6 0.50            155           74.1  37 
 BRR  HZ EP        528 15.54                             152   -0.1010 75.6 297 
 BRR  HN ES        528 32.94                             152    0.1510 75.6 297 
 BRR  HZ I         528 35.91         3.2 0.42            152           75.6 297 
 RUS  HZ EP        528 18.20                             145    0.2610  101 179 
 RUS  HN ES        528 36.90                             145    0.0110  101 179 
 RUS  HZ I         528 38.42         1.2 0.32            147            101 179 
                                                                                
