 2013  614 0057  6.3 L   6.730 -73.208155.8  RSN  3 0.1 1.5LRSN                1
 GAP=225        0.34       3.1     3.2  4.0  0.5609E+01  0.1210E-01  0.1235E+00E
 Epicentro: VILLANUEVA - SANTANDER                                             3
 ACTION:UPD 14-01-08 09:54 OP:ep   STATUS:               ID:20130614005706 L   I
 OLDACT:UP  13-06-14 09:10 OP:cam  STATUS:               ID:20130614004959     3
 OLDACT:REG 13-06-14 07:34 OP:cam  STATUS:               ID:20130614004959     3
 2013-06-14-0049-59M.COL___259                                                 6
 STAT SP IPHASW D HRMM SECON CODA AMPLIT PERI AZIMU VELO AIN AR TRES W  DIS CAZ7
 BRR  HZ EP   1    057 28.41                             155   -0.00 7 69.6 307 
 BRR  HN ES        057 45.69                             155   -0.0010 69.6 307 
 RUS  HZ EP   1    057 30.70                             148    0.16 7 93.6 172 
 RUS  HN ES        057 49.43                             148   -0.0510 93.6 172 
 RUS  HZ I         057 51.79         3.7 0.36            146           93.6 172 
 PTB  HZ EP   1    057 33.21                             136   -0.15 7  140 261 
 PTB  HN ES        057 54.55                             136    0.05 9  140 261 
 PTB  HZ I         057 56.42         5.2 0.10            136            140 261 
                                                                                
