 2017  414 0444 53.6 L   6.804 -73.159149.8  RSN 21 0.3 2.2LRSN                1
 GAP=110        0.83       2.3     2.6  3.9  0.3350E+00  0.2338E+01  0.3599E+00E
 Epicentro: LOS SANTOS - SANTANDER                                             3
 ACTION:UPD 17-05-30 21:11 OP:jn   STATUS:               ID:20170414044453 L   I
 OLDACT:UP  17-04-14 16:00 OP:edw  STATUS:               ID:20170414043741d    3
 OLDACT:UP  17-04-14 15:55 OP:edw  STATUS:               ID:20170414043741d    3
 OLDACT:DUP 17-04-14 15:51 OP:edw  STATUS:               ID:20170414043741d    3
 2017-04-14-0438-00M.COL___359                                                 6
 STAT SP IPHASW D HRMM SECON CODA AMPLIT PERI AZIMU VELO AIN AR TRES W  DIS CAZ7
 BAR2 EZ IP     C  445 13.56                             171   -0.1510 23.5 186 
 BAR2 EZ ES        445 29.14                             171   -0.2710 23.5 186 
 BAR2 EZ I         445 30.42        32.3 0.38            168           23.5 186 
 BRR  HZ IP     C  445 15.41                             154    0.3110 69.7 299 
 BRR  HE ES        445 32.69                             154    0.8210 69.7 299 
 BRR  HZ I         445 36.84        28.5 0.14            148           69.7 299 
 PAM  EZ EP     C  445 16.35                             151    0.0810 78.0  41 
 PAM  EE ES        445 33.76                             151   -0.2110 78.0  41 
 RUS  HZ EP        445 17.56                             144   -0.2210  101 175 
 RUS  HN ES        445 36.32                             144   -0.3310  101 175 
 RUS  HZ I         445 37.25        23.8 0.22            142            101 175 
 PTB  HZ EP        445 20.40                             133   -0.37 9  146 259 
 PTB  HN ES        445 41.49                             133   -0.48 9  146 259 
 PTB  HZ I         445 43.39        23.0 0.14            128            146 259 
 SPBC HZ EP        445 22.58                             130    0.23 9  163 218 
 SPBC HN ES        445 44.89                             130    0.11 9  163 218 
 SPBC HZ I         445 50.60        27.5 0.22            126            163 218 
 YPLC HZ EP     D  445 23.86                             127    0.08 9  178 151 
 YPLC HN ES        445 47.64                             127    0.30 9  178 151 
 YPLC HZ I         445 51.31         9.8 0.44            125            178 151 
 ZAR  HZ EP        445 25.90                             123   -0.25 9  203 292 
 ZAR  HN ES        445 51.71                             123    0.17 9  203 292 
 ZAR  HZ I         445 57.38        24.5 0.34            119            203 292 
 NOR  HZ EP        445 29.43                             119   -0.03 8  234 234 
 NOR  HN ES        445 57.52                             119    0.09 8  234 234 
 NOR  HZ I         446  1.04        11.8 0.18            116            234 234 
 CHI  HZ EP        445 32.00                             118    0.48 8  249 195 
 CHI  HN ES   4    446  0.18                             118   -0.92 0  249 195 
 CHI  HZ I         446  3.30         7.0 0.40            115            249 195 
 ROSC BZ EP   4    445 33.37                             118    1.48 0  252 211 
 ROSC BN ES        446  2.00                             118    0.23 8  252 211 
 ROSC BZ I         446  8.34        15.0 0.40            114            252 211 
 HEL  HZ EP   4    445 35.31                             116    1.45 0  271 256 
 HEL  HN ES        446  5.09                             116   -0.19 8  271 256 
 HEL  HZ I         446 12.52        10.6 0.30            112            271 256 
 URE  HZ EP        445 34.00                             114   -0.69 7  282 292 
 URE  HN ES   4    446  4.23                             114   -2.52 0  282 292 
 URE  HZ I         446 15.16        13.3 0.16            111            282 292 
 VIL  EZ EP   4    445 41.79                             113    4.58 0  303 191 
 VIL  EN ES   4    446 10.20                             113   -1.03 0  303 191 
 VIL  EZ I         446 14.19         8.5 0.42            110            303 191 
 PTGC HZ EP   4    445 36.55                             112   -1.18 0  310 158 
 PTGC HN ES   4    446 10.02                             112   -2.15 0  310 158 
 PTGC HZ I         446 12.77         6.4 0.46            110            310 158 
 CBOC HZ EP   4    445 41.90                             111    1.37 0  332 252 
 CBOC HN ES   4    446 19.04                             111    1.90 0  332 252 
 CBOC HZ I         446 21.50         2.6 0.18            108            332 252 
 ARGC HZ EP        445 43.06                             109   -0.24 6  358 341 
 ARGC HN ES        446 22.48                             109    0.41 6  358 341 
 ARGC HZ I         446 32.13         5.2 0.34            107            358 341 
 PRA  HZ EP   9    445 47.43                             107    0.22 0  392 209 
 PRA  HN ES        446 28.32                             107   -0.94 6  392 209 
 PRA  HZ I         446 33.36         5.5 0.32            105            392 209 
 ORTC HZ EP        445 47.78                             107    0.19 6  395 216 
 ORTC HN ES   4    446 31.67                             107    1.96 0  395 216 
 ORTC HZ I         446 36.22         2.4 0.38            105            395 216 
 APAC HZ EP   4    445 38.62                             107   -9.12 0  397 288 
 APAC HN ES   4    446 28.07                             107   -1.91 0  397 288 
 PAL  HZ EP        445 48.92                             107    0.16 6  405 239 
 PAL  HZ I         446 26.11         3.5 0.10            104            405 239 
 PAL  HN ES   4    446 33.28                             107    1.48 0  405 239 
 SJC  HZ IP   9 C  445 47.74                             106   -1.41 0  408 327 
 SJC  HN ES        446 31.36                             106    0.28 6  408 327 
 SJC  HZ I         446 36.84         3.0 0.50            104            408 327 
                                                                                
