 2010  914 0946 18.2 L   6.814 -73.032138.3  RSN  6 0.3 2.0LRSN                1
 GAP=195        0.73       3.2     7.5  6.2 -0.2074E+01 -0.2909E+01  0.4710E+01E
 Epicentro: CEPITA - SANTANDER                                                 3
 ACTION:UP  11-02-18 11:02 OP:tino STATUS:               ID:20100914094618 L   I
 2010-09-14-0943-15S.COL___113                                                 6
 STAT SP IPHASW D HRMM SECON CODA AMPLIT PERI AZIMU VELO SNR AR TRES W  DIS CAZ7
 BAR2 SZ EP        946 37.32                             167     0.210   30 214 
 BAR2 SZ ES   1    946 51.79                             167     0.0 7   30 214 
 BAR2 SZ I         946 53.21        21.2 0.31                            30 214 
 BRR  HZ IP        946 39.01                             148    -0.210   82 293 
 BRR  HN ES   1    946 55.70                             148     0.1 7   82 293 
 BRR  HZ I         946 58.15        24.3 0.13                            82 293 
 RUS  HZ EP        946 41.70                             142     0.410  102 183 
 RUS  HE ES   3    946 58.92                             142    -0.5 2  102 183 
 RUS  HZ I         947  1.75        11.1 0.07                           102 183 
 OCA  SZ EP        946 46.02                             128     0.0 9  161 349 
 OCA  SZ ES   1    947  7.29                             128    -0.4 7  161 349 
 OCA  SZ I         947 10.38        10.6 0.21                           161 349 
 CHI  HZ EP        946 55.75                             115    -0.3 8  254 198 
 CHI  HE ES   1    947 24.93                             115    -0.7 6  254 198 
 CHI  HZ I         947 29.25         5.3 0.58                           254 198 
 RREF HZ EP   1    947  5.49                             109     0.2 5  332 231 
 RREF HN ES   1    947 42.29                             109     0.3 5  332 231 
 RREF HZ I         947 47.38         5.7 0.45                           332 231 
                                                                                
