 2015  414 0114 41.1 L   6.099 -73.792103.0  RSN  5 0.3 1.4LRSN                1
 GAP=197        0.81       4.8     3.6  7.4  0.8938E+01  0.9230E+01  0.2894E+01E
 Epicentro: EL PENON - SANTANDER                                               3
 ACTION:UPD 15-06-03 16:54 OP:cam  STATUS:               ID:20150414011441 L   I
 OLDACT:UP  15-04-14 16:09 OP:nlst STATUS:               ID:20150414011441 L   3
 OLDACT:DUP 15-04-14 13:28 OP:carl STATUS:               ID:20150414010750d    3
 2015-04-14-0107-49M.COL___272                                                 6
 STAT SP IPHASW D HRMM SECON CODA AMPLIT PERI AZIMU VELO AIN AR TRES W  DIS CAZ7
 RUS  HZ EP        114 59.53                             139    0.1810 81.7 106 
 RUS  HN ES        115 13.60                             139    0.0310 81.7 106 
 RUS  HZ I         115 14.39         2.9 0.30            144           81.7 106 
 BAR2 EZ EP        114 59.35                             137   -0.0510 86.7  51 
 BAR2 EZ ES        115 13.92                             137    0.2510 86.7  51 
 BAR2 EZ I         115 14.82        13.5 0.34            141           86.7  51 
 PTB  HZ EP        114 59.12                             136   -0.1010 88.2 304 
 PTB  HN ES        115 13.17                             136   -0.1810 88.2 304 
 PTB  HZ I         115 16.41         4.4 0.14            138           88.2 304 
 BRR  HZ EP        115  1.15                             128   -0.1810  112   5 
 BRR  HN ES        115 16.73                             128   -0.3810  112   5 
 ZAR  HZ EP        115  9.77                             112   -0.27 9  194 323 
 ZAR  HN ES        115 33.43                             112    0.82 9  194 323 
 ZAR  HZ I         115 35.32         3.9 0.36            115            194 323 
                                                                                
