 2012  714 0350 12.6 L   6.735 -73.165152.9  RSN  5 0.2 1.1LRSN                1
 GAP=230        0.44       6.1     4.2  8.0  0.7668E+01 -0.6527E+01 -0.1463E+02E
 Epicentro: VILLANUEVA - SANTANDER                                             3
 ACTION:UPD 12-08-14 11:44 OP:ep   STATUS:               ID:20120714035012 L   I
 2012-07-14-0350-00M.COL___197                                                 6
 STAT SP IPHASW D HRMM SECON CODA AMPLIT PERI AZIMU VELO AIN AR TRES W  DIS CAZ7
 BAR2 SZ EP   1    350 32.91                             174    -0.1 8   16 187 
 BAR2 SZ I         350 33.22         2.5 0.10            174             16 187 
 BRR  HZ EP   1    350 34.86                             153     0.2 8   73 304 
 BRR  HZ I         350 36.95         3.3 0.20            149             73 304 
 BRR  HN ES   2    350 51.76                             153    -0.1 5   73 304 
 RUS  HN ES   2    350 55.14                             147    -0.1 5   94 174 
 PTB  HZ EP   1    350 39.77                             134    -0.1 7  144 261 
 PTB  HZ I         350 42.30         0.8 0.08            130            144 261 
 PTB  HE ES        351  1.24                             134     0.110  144 261 
 ZAR  HN ES   2    351 10.88                             124    -0.5 5  205 294 
