 2010  314 0609 26.6 L   6.816 -73.067148.0  RSN 12 0.3 2.9LRSN                1
 GAP=191        0.67       2.9     6.7  5.0  0.2234E+01  0.1155E+02  0.2928E+01E
 Epicentro: LOS SANTOS - SANTANDER                                             3
 ACTION:UP  10-08-24 09:53 OP:vdl  STATUS:               ID:20100314060926 L   I
 2010-03-14-0605-04S.COL___095                                                 6
 STAT SP IPHASW D HRMM SECON CODA AMPLIT PERI AZIMU VELO SNR AR TRES W  DIS CAZ7
 BAR2 SZ IP        6 9 46.59                             169     0.010   28 207 
 BAR2 SZ ES   1    610  2.33                             169     0.2 7   28 207 
 BRR  HZ IP        6 9 48.34                             151     0.010   78 294 
 BRR  HN ES   1    610  5.54                             151     0.2 7   78 294 
 BRR  HZ I         610  8.70       108.4 0.11                            78 294 
 RUS  HZ IP        6 9 50.55                             144    -0.110  102 181 
 RUS  HE ES   1    610  9.00                             144    -0.4 7  102 181 
 OCA  SZ EP   1    6 9 55.32                             130     0.3 7  160 350 
 OCA  SZ ES   1    610 16.89                             130    -0.3 7  160 350 
 OCA  SZ I         610 20.75        83.1 0.13                           160 350 
 CHI  HZ EP   1    610  4.87                             117     0.1 6  253 197 
 CHI  HN ES   1    610 34.73                             117     0.1 6  253 197 
 CHI  HZ I         610 40.43        22.5 0.36                           253 197 
 ROSC BZ EP   2    610  6.19                             116     0.7 4  259 212 
 ROSC BZ I         610 41.94        40.2 0.45                           259 212 
 HEL  HZ EP   2    610  7.68                             114    -0.2 4  281 256 
 HEL  HZ I         610 47.40        36.2 0.47                           281 256 
 RREF BZ EP   2    610 13.90                             111     0.2 3  330 230 
 RREF BZ I         610 56.38        35.4 0.31                           330 230 
 DBB  SZ EP        610 14.38                             109    -0.7 6  348 274 
 TOL  SZ EP   1    610 16.13                             109     0.4 5  351 225 
 ANIL BZ EP   1    610 18.04                             108     0.7 5  365 225 
 ANIL BN ES   2    610 57.06                             108     0.2 3  365 225 
 ANIL BZ I         611  4.08        63.4 0.30                           365 225 
 PRA  HZ EP   1    610 20.40                             107    -0.4 4  398 211 
 PRA  HN ES   2    611  2.66                             107    -0.5 3  398 211 
 PRA  HZ I         611  9.46        36.3 0.45                           398 211 
                                                                                
