 2013 1214 0623 14.2 L   6.763 -73.182141.9  RSN  5 0.4 1.2LRSN                1
 GAP=230        0.97       7.6    10.5  9.1  0.4415E+02 -0.4775E+01  0.2968E+00E
 Epicentro: VILLANUEVA - SANTANDER                                             3
 ACTION:UPD 14-01-13 10:18 OP:ep   STATUS:               ID:20131214062314 L   I
 OLDACT:REG 13-12-14 07:31 OP:jn   STATUS:               ID:20131214062000     3
 2013-12-14-0620-00M.COL___285                                                 6
 STAT SP IPHASW D HRMM SECON CODA AMPLIT PERI AZIMU VELO AIN AR TRES W  DIS CAZ7
 BAR2 SZ EP   1    623 32.95                             171   -0.34 7 18.9 180 
 BAR2 SZ ES        623 47.52                             171   -0.6510 18.9 180 
 BAR2 SZ I         623 51.12         4.3 0.28            166           18.9 180 
 BRR  HZ EP        623 34.71                             152   -0.1510 69.9 303 
 BRR  HN ES        623 51.46                             152    0.4810 69.9 303 
 BRR  HZ I         623 52.19         3.1 0.30            151           69.9 303 
 RUS  HZ EP        623 37.44                             144    0.1310 96.9 174 
 RUS  HN ES        623 55.84                             144    0.5110 96.9 174 
 RUS  HZ I         623 57.53         1.8 0.34            142           96.9 174 
 PTB  HN ES   2    624  0.75                             132   -0.14 5  143 260 
 SPBC HN ES   2    624  3.02                             129   -0.43 5  157 219 
 SPBC HZ I         624  8.28         2.2 0.22            127            157 219 
                                                                                
