 2016  414 0833 14.6 L   6.794 -73.178143.5  RSN  6 0.3 1.2LRSN                1
 GAP=133        0.73       3.7     3.8  5.7 -0.5075E+01  0.5717E+01 -0.9324E+00E
 Epicentro: LOS SANTOS - SANTANDER                                             3
 ACTION:UPD 16-05-05 14:21 OP:rebc STATUS:               ID:20160414083314 L   I
 OLDACT:DUP 16-04-14 19:19 OP:ak   STATUS:               ID:20160414082743d    3
 OLDACT:REG 16-04-14 12:36 OP:mh   STATUS:               ID:20160414082742     3
 2016-04-14-0827-42M.COL___310                                                 6
 STAT SP IPHASW D HRMM SECON CODA AMPLIT PERI AZIMU VELO AIN AR TRES W  DIS CAZ7
 BAR2 EZ EP        833 33.90                             171   -0.0110 22.3 181 
 BAR2 EZ ES        833 49.21                             171    0.2210 22.3 181 
 BAR2 EZ I         833 50.37         4.3 0.20            171           22.3 181 
 PAM  EZ EP        833 36.75                             149    0.0310 80.2  41 
 PAM  EN ES        833 54.05                             149    0.0610 80.2  41 
 PAM  EZ I         833 55.40         3.1 0.40            152           80.2  41 
 RUS  HZ EP        833 37.89                             144   -0.1910  100 174 
 RUS  HN ES        833 55.85                             144   -0.5610  100 174 
 RUS  HZ I         833 57.19         1.5 0.28            148            100 174 
 PTB  HZ EP   2    833 40.26                             132   -0.77 5  144 259 
 PTB  HN ES        834  1.74                             132    0.08 9  144 259 
 PTB  HZ I         834  7.07         2.6 0.16            131            144 259 
 SPBC HZ EP        833 43.12                             129    0.48 9  160 218 
 SPBC HN ES        834  4.82                             129    0.29 9  160 218 
 SPBC HZ I         834  6.07         2.1 0.17            131            160 218 
 ZAR  HZ EP   2    833 46.50                             122   -0.06 4  201 293 
 ZAR  HN ES   2    834 11.08                             122   -0.43 4  201 293 
 ZAR  HZ I         834 18.48         2.4 0.16            122            201 293 
                                                                                
