 2017  514 0304 32.3 L   6.801 -73.133148.0  RSN  5 0.2 1.1LRSN                1
 GAP=138        0.68       3.8     3.8  6.0  0.3858E+01  0.1782E+01  0.2729E+01E
 Epicentro: LOS SANTOS - SANTANDER                                             3
 ACTION:UPD 17-06-16 13:36 OP:jn   STATUS:               ID:20170514030432 L   I
 OLDACT:REG 17-05-14 12:54 OP:lv   STATUS:               ID:20170514025736     3
 2017-05-14-0258-00M.COL___359                                                 6
 STAT SP IPHASW D HRMM SECON CODA AMPLIT PERI AZIMU VELO AIN AR TRES W  DIS CAZ7
 BRR  HZ EP        3 4 53.75                             152   -0.0010 72.4 298 
 BRR  HE ES        3 5 10.88                             152    0.3910 72.4 298 
 BRR  HZ I         3 5 15.59         2.7 0.25            153           72.4 298 
 PAM  EN ES        3 5 11.94                             151   -0.2210 76.4  39 
 PAM  EZ I         3 5 14.02         2.1 0.13            152           76.4  39 
 RUS  HZ EP        3 4 56.50                             144    0.2410  101 177 
 RUS  HN ES        3 5 14.75                             144   -0.2110  101 177 
 PTB  HZ EP   9    3 4 58.53                             132   -1.04 0  149 259 
 PTB  HN ES        3 5 19.54                                   -0.27 9  149 259 
 PTB  HZ I         3 5 21.26         1.2 0.09            134            149 259 
 ZAR  HN ES        3 5 30.27                             122   -0.27 8  205 292 
                                                                                
