 2017  214 0103 19.1 L   6.814 -73.144148.3  RSN 17 0.6 2.2LRSN                1
 GAP= 73        1.20       4.1     3.5  5.8 -0.1658E+00  0.4103E+01  0.3002E+01E
 Epicentro: LOS SANTOS - SANTANDER                                             3
 ACTION:UPD 17-05-24 15:36 OP:jn   STATUS:               ID:20170214010319 L   I
 OLDACT:UP  17-02-14 13:35 OP:dani STATUS:               ID:20170214005747     3
 OLDACT:UP  17-02-14 13:32 OP:dani STATUS:               ID:20170214005747     3
 OLDACT:UP  17-02-14 13:31 OP:dani STATUS:               ID:20170214005747     3
 OLDACT:UP  17-02-14 13:31 OP:dani STATUS:               ID:20170214005747     3
 OLDACT:REG 17-02-14 12:20 OP:dani STATUS:               ID:20170214005747     3
 2017-02-14-0058-00M.COL___358                                                 6
 STAT SP IPHASW D HRMM SECON CODA AMPLIT PERI AZIMU VELO AIN AR TRES W  DIS CAZ7
 BAR2 EZ EP     C  1 3 39.01                             170   -0.0910 24.9 190 
 BAR2 EZ ES        1 3 54.58                             170   -0.1010 24.9 190 
 BAR2 EZ I         1 3 57.97        32.0 0.46            167           24.9 190 
 BRR  HZ EP     C  1 3 40.86                             153    0.3310 70.6 297 
 BRR  HN ES        1 3 58.20                             153    0.9810 70.6 297 
 BRR  HZ I         1 4  2.35        23.5 0.17            151           70.6 297 
 PAM  EZ EP        1 3 41.90                             152    0.3510 76.1  40 
 PAM  EN ES        1 3 59.03                             152    0.0010 76.1  40 
 PAM  EZ I         1 3 59.74        11.8 0.22            152           76.1  40 
 RUS  HZ EP        1 3 42.84                             144   -0.4110  102 176 
 RUS  HE ES        1 4  1.42                             144   -0.6310  102 176 
 RUS  HZ I         1 4  2.95        10.6 0.32            141            102 176 
 PTB  HZ EP        1 3 45.92                             132   -0.43 9  148 258 
 PTB  HN ES        1 4  6.83                             132   -0.75 9  148 258 
 PTB  HZ I         1 4 14.35        26.0 0.40            129            148 258 
 TAM  HZ EP     C  1 3 47.18                             131    0.14 9  155 106 
 TAM  HZ I         1 4  8.18        13.2 0.32            129            155 106 
 TAM  HE ES        1 4  8.89                             131    0.09 9  155 106 
 ZAR  HZ EP        1 3 51.52                             123   -0.18 9  204 292 
 ZAR  HN ES        1 4 16.92                             123   -0.19 9  204 292 
 ZAR  HZ I         1 4 23.48        26.3 0.31            121            204 292 
 NOR  HZ EP        1 3 54.96                             119   -0.16 8  236 234 
 NOR  HE ES        1 4 23.07                             119   -0.12 8  236 234 
 NOR  HZ I         1 4 28.49        16.6 0.30            116            236 234 
 CHI  HZ EP        1 3 56.69                             117   -0.45 8  250 195 
 CHI  HN ES        1 4 27.24                             117    0.46 8  250 195 
 CHI  HZ I         1 4 31.96         5.0 0.26            115            250 195 
 ROSC BZ EP   9    1 3 58.64                             117    1.09 0  254 211 
 ROSC BN ES        1 4 28.79                             117    0.19 8  254 211 
 ROSC BZ I         1 4 36.96        19.7 0.55            114            254 211 
 URE  HZ EP   9    1 3 59.00                             114   -1.28 0  283 292 
 URE  HE ES        1 4 30.76                             115   -0.34 7  283 292 
 URE  HZ I         1 4 42.17         9.7 0.12            112            283 292 
 PTGC HZ EP   3    1 4  1.94                             112   -1.32 2  310 159 
 PTGC HE ES   4    1 4 35.05                             112   -2.63 0  310 159 
 PTGC HZ I         1 4 39.27         5.6 0.29            110            310 159 
 ELA  HZ EP   4    1 4  8.55                             111    2.33 0  330 229 
 ELA  HE ES   4    1 4 45.44                             111    2.49 0  330 229 
 ELA  HZ I         1 4 59.00         8.3 0.60            109            330 229 
 CBOC HZ EP   3    1 4  7.08                             110    0.85 2  334 252 
 DBB  EZ EP        1 4  7.35                             110    0.63 7  340 274 
 ANIL HZ EP        1 4 10.46                             109    1.28 6  359 224 
 ANIL HE ES        1 4 49.44                             109    1.23 6  359 224 
 SJC  HZ EP        1 4 13.29                             106   -1.35 6  408 327 
 SJC  HN ES   4    1 4 53.63                             106   -4.30 0  408 327 
 SJC  HZ I         1 4 56.20         2.4 0.30            105            408 327 
                                                                                
