 2014 1214 0212 40.5 L   6.810 -73.171146.5  RSN  7 0.3 1.4LRSN                1
 GAP=133        0.75       2.6     3.9  6.3 -0.2242E+01  0.7827E+01 -0.3004E+01E
 Epicentro: LOS SANTOS - SANTANDER                                             3
 ACTION:UPD 15-02-10 17:03 OP:nd   STATUS:               ID:20141214021240 L   I
 OLDACT:REG 14-12-14 13:46 OP:stll STATUS:               ID:20141214020742     3
 2014-12-14-0207-42M.COL___279                                                 6
 STAT SP IPHASW D HRMM SECON CODA AMPLIT PERI AZIMU VELO AIN AR TRES W  DIS CAZ7
 BAR2 EZ EP        213  0.12                             170   -0.1510 24.1 183 
 BAR2 EZ ES        213 15.39                             170   -0.2710 24.1 183 
 BAR2 EZ I         213 18.26         5.5 0.36            169           24.1 183 
 PAM  SZ EP        213  3.06                             151    0.1710 78.3  42 
 PAM  SZ I         213  3.29         7.7 0.22            155           78.3  42 
 PAM  SN ES        213 20.26                             151   -0.0610 78.3  42 
 RUS  HZ EP        213  4.42                             144   -0.0410  102 175 
 RUS  HN ES        213 23.07                             144   -0.0410  102 175 
 RUS  HZ I         213 25.33         2.3 0.52            146            102 175 
 PTB  HZ EP        213  7.16                             133   -0.18 9  145 258 
 PTB  HN ES        213 28.32                             133    0.08 9  145 258 
 PTB  HZ I         213 35.54         3.7 0.50            133            145 258 
 OCA  HN ES        213 31.41                             130    0.62 9  159 354 
 SPBC HN ES        213 31.60                             129    0.38 9  162 218 
 SML  HN ES        213 44.81                             118   -0.57 8  242 336 
                                                                                
