 2011  814 0345 42.5 L   6.746 -73.112148.2  RSN  4 0.2 1.4LRSN                1
 GAP=186        0.41       2.4     5.3  5.3  0.4278E+00 -0.9748E+00 -0.2134E+01E
 Epicentro: JORDAN - SANTANDER                                                 3
 ACTION:UPD 12-07-13 15:51 OP:ep   STATUS:               ID:20110814034542 L   I
 2011-08-14-0340-00M.COL___151                                                 6
 STAT SP IPHASW D HRMM SECON CODA AMPLIT PERI AZIMU VELO AIN AR TRES W  DIS CAZ7
 BRR  HZ EP   1    346  4.20                             151   -0.09 7 77.4 301 
 BRR  HZ I         346  6.69         7.2 0.35                          77.4 301 
 BRR  HN ES   1    346 21.51                             151    0.23 7 77.4 301 
 RUS  HZ EP   2    346  6.41                             146    0.33 5 94.4 178 
 RUS  HE ES   1    346 24.34                             146   -0.12 7 94.4 178 
 RUS  HZ I         346 25.92         2.2 0.56                          94.4 178 
 OCA  SZ EP   1    346 11.70                             129    0.08 7  167 352 
 OCA  SZ ES   1    346 34.12                             129   -0.21 7  167 352 
 OCA  SZ I         346 52.82         4.4 0.60                           167 352 
 NOR  SZ EP   2    346 18.56                             119    0.20 4  234 236 
 NOR  SN ES   2    346 45.93                             119   -0.39 4  234 236 
                                                                                
