 2013  214 0613 15.5 L   6.797 -73.155145.0  RSN  8 0.5 1.6LRSN                1
 GAP=135        0.85       3.6     5.0  6.9  0.1046E+01  0.3725E+01  0.2571E+01E
 Epicentro: LOS SANTOS - SANTANDER                                             3
 ACTION:UPD 13-03-12 09:32 OP:ep   STATUS:               ID:20130214061315 L   I
 2013-02-14-0610-00M.COL___241                                                 6
 STAT SP IPHASW D HRMM SECON CODA AMPLIT PERI AZIMU VELO AIN AR TRES W  DIS CAZ7
 BAR2 SZ EP   2    613 34.87                             171   -0.17 5 22.9 187 
 BAR2 SZ ES   2    613 49.53                             171   -0.74 5 22.9 187 
 BAR2 SZ I         613 51.20        19.0 0.22            171           22.9 187 
 BRR  HZ EP        613 36.81                             153    0.2810 70.4 299 
 BRR  HN ES   1    613 53.83                             153    0.90 7 70.4 299 
 BRR  HZ I         613 56.61         5.4 0.64            151           70.4 299 
 PAM  SZ EP        613 37.84                             150    0.1410 78.3  40 
 PAM  SN ES   1    613 54.87                             150   -0.14 7 78.3  40 
 PAM  SZ I         613 56.55         6.4 0.68            153           78.3  40 
 RUS  HZ EP        613 38.98                             144   -0.1910  100 175 
 RUS  HN ES   1    613 57.58                             144   -0.05 7  100 175 
 RUS  HZ I         613 58.95         4.8 0.26            146            100 175 
 PTB  HZ EP   1    613 41.78                             132   -0.54 7  147 259 
 PTB  HN ES   1    614  2.64                             132   -0.58 7  147 259 
 PTB  HZ I         614  5.99         5.1 0.14            132            147 259 
 ZAR  HE ES   2    614 13.50                             122    0.49 4  203 292 
 SML  HZ EP   1    613 52.41                             117    0.33 6  244 336 
 SML  HE ES   1    614 19.75                             117   -0.84 6  244 336 
 SML  HZ I         614 25.73         4.2 0.26            118            244 336 
 CHI  HZ EP        613 53.35                             117    0.24 8  248 195 
 CHI  HN ES   1    614 22.67                             117    0.24 6  248 195 
 CHI  HZ I         614 26.28         1.9 0.80            118            248 195 
                                                                                
