 2013  714 0408 41.4 L   6.789 -73.159145.2  RSN  7 0.3 1.5LRSN                1
 GAP=135        0.88       4.0     4.4  5.5 -0.4771E+01  0.2913E+01  0.3823E+01E
 Epicentro: LOS SANTOS - SANTANDER                                             3
 ACTION:UPD 13-08-12 10:37 OP:ep   STATUS:               ID:20130714040841 L   I
 OLDACT:REG 13-07-14 07:19 OP:nd   STATUS:               ID:20130714035959     3
 2013-07-14-0359-59M.COL___267                                                 6
 STAT SP IPHASW D HRMM SECON CODA AMPLIT PERI AZIMU VELO AIN AR TRES W  DIS CAZ7
 BAR2 SZ EP        4 9  0.75                             171   -0.1310 21.9 187 
 BAR2 SZ ES        4 9 16.11                             171   -0.0110 21.9 187 
 BAR2 SZ I         4 9 17.12         6.9 0.18            171           21.9 187 
 GIR2 SZ EP        4 9  0.85                             167   -0.1310 32.3 353 
 GIR2 SZ ES        4 9 15.94                             167   -0.3610 32.3 353 
 GIR2 SZ I         4 9 17.82         8.5 0.10            165           32.3 353 
 BRR  HZ EP        4 9  2.73                             153    0.3310 70.5 300 
 BRR  HN ES        4 9 19.52                             153    0.7010 70.5 300 
 BRR  HZ I         4 9 24.15         6.4 0.48            150           70.5 300 
 PAM  SZ EP        4 9  3.76                             150    0.1410 79.3  40 
 PAM  SN ES        4 9 20.67                             150   -0.3210 79.3  40 
 PAM  SZ I         4 9 22.92        10.3 0.48            153           79.3  40 
 RUS  HZ EP        4 9  5.05                             144    0.0910 99.4 175 
 RUS  HN ES        4 9 23.70                             144    0.3210 99.4 175 
 RUS  HZ I         4 9 24.77         4.9 0.32            147           99.4 175 
 PTB  HZ EP        4 9  7.70                             132   -0.42 9  146 259 
 PTB  HN ES        4 9 28.81                             132   -0.19 9  146 259 
 PTB  HZ I         4 9 34.83         3.6 0.10            132            146 259 
 SPBC HZ EP        4 9  9.97                             129    0.34 9  161 219 
 SPBC HN ES        4 9 31.22                             129   -0.46 9  161 219 
                                                                                
