 2011 1114 0411 21.1 L   6.795 -73.049150.0  RSN  5 0.4 1.2LRSN                1
 GAP=149        0.56       4.5     7.4  7.3  0.4675E+01 -0.9235E+01 -0.2915E+01E
 Epicentro: LOS SANTOS - SANTANDER                                             3
 ACTION:UPD 12-07-13 16:10 OP:ep   STATUS:               ID:20111114041121 L   I
 2011-11-14-0407-30S.COL___178                                                 6
 STAT SP IPHASW D HRMM SECON CODA AMPLIT PERI AZIMU VELO AIN AR TRES W  DIS CAZ7
 BAR2 SZ EP   1    411 41.19                             169   -0.10 7 26.8 213 
 BAR2 SZ ES   2    411 57.02                             169   -0.04 5 26.8 213 
 BAR2 SZ I         411 57.94         2.8 0.21                          26.8 213 
 PAM  SZ EP   2    411 44.22                             153    0.80 5 71.5  33 
 PAM  SN ES   2    412  0.71                             153   -0.13 5 71.5  33 
 BRR  HZ EP   1    411 43.09                             150   -0.16 7 81.0 295 
 BRR  HZ I         411 43.37         5.7 0.16                          81.0 295 
 BRR  HN ES   1    412  0.79                             150    0.24 7 81.0 295 
 RUS  HZ EP   2    411 45.58                             145    0.38 5 99.9 182 
 RUS  HE ES   2    412  3.67                             145   -0.34 5 99.9 182 
 RUS  HZ I         412  5.08         1.0 0.28                          99.9 182 
 OCA  SZ EP   2    411 49.29                             130   -0.63 5  162 349 
 OCA  SZ I         411 51.54         2.4 0.30                           162 349 
 OCA  SZ ES   2    412 12.31                             130   -0.11 5  162 349 
                                                                                
