 2017  814 0225 43.9 L   6.798 -73.128144.6  RSN 12 0.4 2.0LRSN                1
 GAP=100        0.87       3.1     2.9  4.6  0.1954E+01  0.4106E+01  0.3970E+01E
 Epicentro: LOS SANTOS - SANTANDER                                             3
 ACTION:UPD 17-09-04 20:20 OP:rebc STATUS:               ID:20170814022543 L   I
 OLDACT:UP  17-08-14 19:30 OP:and  STATUS:               ID:20170814021742     3
 OLDACT:UP  17-08-14 18:21 OP:mg   STATUS:               ID:20170814021742     3
 OLDACT:UP  17-08-14 18:20 OP:mg   STATUS:               ID:20170814021742     3
 OLDACT:REG 17-08-14 13:47 OP:mg   STATUS:               ID:20170814021742     3
 2017-08-14-0218-00M.COL___413                                                 6
 STAT SP IPHASW D HRMM SECON CODA AMPLIT PERI AZIMU VELO AIN AR TRES W  DIS CAZ7
 BAR2 EZ IP     C  226  3.02                             170   -0.4010 23.5 195 
 BAR2 EZ ES        226 18.78                             170    0.1510 23.5 195 
 BAR2 EZ I         226 19.19        34.1 0.22            168           23.5 195 
 BRR  HZ IP     C  226  4.92                             152   -0.1410 73.1 298 
 BRR  HN ES        226 22.03                             152    0.4910 73.1 298 
 BRR  HZ I         226 22.95        23.9 0.14            150           73.1 298 
 PAM  EZ EP        226  5.98                             151    0.0310 76.3  38 
 PAM  EN ES        226 23.05                             151   -0.0910 76.3  38 
 PAM  EZ I         226 25.36        14.3 0.26            155           76.3  38 
 RUS  HZ EP        226  6.97                             144   -0.5710  100 177 
 RUS  HN ES        226 25.87                             144   -0.0810  100 177 
 RUS  HZ I         226 27.29        13.1 0.44            143            100 177 
 TAM  HZ IP     C  226 11.29                             131   -0.04 9  153 105 
 YPLC HZ EP     C  226 13.30                             127   -0.22 9  176 152 
 YPLC HE ES        226 37.38                             127    0.78 9  176 152 
 YPLC HZ I         226 42.00         4.6 0.34            128            176 152 
 ZAR  HZ EP        226 16.70                             122    0.21 8  206 292 
 ZAR  HN ES        226 41.51                             122   -0.39 8  206 292 
 ZAR  HZ I         226 47.21        14.0 0.32            122            206 292 
 NOR  HZ EP        226 19.49                             118   -0.25 8  236 235 
 NOR  HE ES   3    226 46.85                             118   -0.84 2  236 235 
 NOR  HZ I         226 52.13         8.2 0.18            118            236 235 
 CHI  HZ EP        226 21.73                             117    0.14 8  249 196 
 CHI  HN ES        226 50.61                             117   -0.36 8  249 196 
 HEL  HZ EP   2    226 24.36                             114    0.08 4  274 256 
 HEL  HE ES        226 55.53                             114   -0.24 8  274 256 
 HEL  HZ I         227  3.31         5.3 0.30            114            274 256 
 GUY2CHZ EP        226 28.36                             112    0.71 7  303 235 
 GUY2CHE ES   4    227  4.89                             112    3.14 0  303 235 
 GUY2CHZ I         227 10.54         5.4 0.32                           303 235 
 PTGC HZ EP   4    226 25.98                             111   -1.64 0  308 159 
 PTGC HN ES   4    226 59.23                             111   -2.47 0  308 159 
 CBOC HZ EP        226 31.79                             110    0.79 7  335 252 
 CBOC HN ES        227  7.90                             110    0.18 7  335 252 
 CBOC HZ I         227 15.78         1.6 0.34            110            335 252 
                                                                                
