 2011  714 0045 16.9 L   6.749 -73.026146.3  RSN  5 0.2 1.4LRSN                1
 GAP=170        0.51       4.7     8.7  6.5  0.1851E+02 -0.2905E+02 -0.1220E+02E
 Epicentro: ARATOCA - SANTANDER                                                3
 ACTION:UPD 12-07-25 14:00 OP:epov STATUS:               ID:20110714004516 L   I
 2011-07-14-0043-41S.COL___132                                                 6
 STAT SP IPHASW D HRMM SECON CODA AMPLIT PERI AZIMU VELO AIN AR TRES W  DIS CAZ7
 BAR2 SZ EP   1    045 36.52                             170   -0.13 7 24.4 225 
 BAR2 SZ ES   2    045 51.88                             170   -0.14 5 24.4 225 
 BAR2 SZ I         045 52.81         5.4 0.31                          24.4 225 
 BTL  SZ EP   1    045 36.81                             167   -0.04 7 32.6 305 
 BTL  SZ ES   1    045 52.08                             167   -0.30 7 32.6 305 
 BRR  HZ EP   1    045 38.71                             148   -0.30 7 85.5 298 
 BRR  HZ I         045 38.91        11.5 0.11                          85.5 298 
 BRR  HE ES   1    045 56.58                             148    0.36 7 85.5 298 
 RUS  HZ EP   2    045 40.30                             146   -0.04 5 94.9 184 
 RUS  HN ES   1    045 58.80                             146    0.22 7 94.9 184 
 RUS  HZ I         045 59.52         1.6 0.29                          94.9 184 
 BRI  SZ EP   1    045 41.28                             141    0.28 7  110  13 
 BRI  SZ I         045 41.46         2.7 0.26                           110  13 
                                                                                
