 2011 1114 0717  9.5 L   6.769 -73.098150.0  RSN  4 0.2 1.4LRSN                1
 GAP=144        0.45       3.3     4.8  5.2  0.3531E+00  0.7321E+00  0.4840E+00E
 Epicentro: LOS SANTOS - SANTANDER                                             3
 ACTION:UPD 12-07-13 16:10 OP:ep   STATUS:               ID:20111114071709 L   I
 2011-11-14-0714-54S.COL___179                                                 6
 STAT SP IPHASW D HRMM SECON CODA AMPLIT PERI AZIMU VELO AIN AR TRES W  DIS CAZ7
 BAR2 SZ EP   2    717 29.55                             171   -0.11 5 21.6 206 
 BAR2 SZ ES   2    717 44.83                             171   -0.51 5 21.6 206 
 BAR2 SZ I         717 46.63         4.3 0.32                          21.6 206 
 PAM  SZ EP   1    717 32.27                             152    0.08 7 76.9  35 
 PAM  SN ES   1    717 49.89                             152    0.04 7 76.9  35 
 BRR  HZ EP        717 31.52                             151    0.0110 77.5 299 
 BRR  HZ I         717 32.02         4.6 0.11                          77.5 299 
 BRR  HN ES   1    717 48.74                             151    0.09 7 77.5 299 
 RUS  HZ EP   1    717 33.20                             146   -0.26 7 96.9 179 
 RUS  HN ES   1    717 52.42                             146    0.31 7 96.9 179 
                                                                                
