 2010  514 0529 47.6 L   6.793 -73.014140.3  RSN  6 0.3 1.3LRSN                1
 GAP=171        0.66       4.0     8.8  9.0 -0.6653E+01 -0.2803E+02 -0.7466E+01E
 Epicentro: CEPITA - SANTANDER                                                 3
 ACTION:UP  10-08-24 10:04 OP:vdl  STATUS:               ID:20100514052947 L   I
 2010-05-14-0526-13S.COL___105                                                 6
 STAT SP IPHASW D HRMM SECON CODA AMPLIT PERI AZIMU VELO AIN AR TRES W  DIS CAZ7
 BAR2 SZ EP        530  6.55                             168    -0.210   29 220 
 BAR2 SZ ES   2    530 21.40                             168    -0.2 5   29 220 
 BRR  HZ EP        530  9.21                             147     0.210   85 294 
 BRR  HE ES   2    530 25.66                             147     0.0 5   85 294 
 BRR  HZ I         530 29.80         5.8 0.42                            85 294 
 RUS  HZ EP        530 10.83                             143     0.110  100 184 
 RUS  HN ES   2    530 28.98                             143     0.1 5  100 184 
 RUS  HZ I         530 30.89         2.4 0.62                           100 184 
 BRI  SZ EP        530 11.05                             141     0.310  105  13 
 GUE  SZ EP        530 11.21                             138    -0.510  115   5 
 GRA  SZ EP        530 12.16                             136     0.010  123  11 
 GRA  SZ ES   2    530 31.56                             136     0.3 5  123  11 
                                                                                
