 2012  614 0035 57.5 L   6.801 -73.180140.0  RSN  6 0.4 1.5LRSN                1
 GAP=132        0.66       4.0     4.1  7.0 -0.6348E+00  0.1136E+02 -0.4283E+01E
 Epicentro: LOS SANTOS - SANTANDER                                             3
 ACTION:UPD 12-08-06 17:49 OP:ep   STATUS:               ID:20120614003557 L   I
 2012-06-14-0030-00M.COL___201                                                 6
 STAT SP IPHASW D HRMM SECON CODA AMPLIT PERI AZIMU VELO AIN AR TRES W  DIS CAZ7
 BAR2 SZ ES   1    036 31.22                             170    0.05 7 23.1 181 
 PAM  SZ EP   1    036 19.28                             149    0.05 7 79.8  42 
 PAM  SE ES   1    036 36.30                             149    0.10 7 79.8  42 
 RUS  HZ EP   1    036 20.48                             142   -0.22 7  101 174 
 RUS  HN ES   1    036 38.98                             142    0.17 7  101 174 
 RUS  HZ I         036 40.11         3.3 0.18                           101 174 
 PTB  HZ EP   1    036 23.14                             131   -0.49 7  144 258 
 PTB  HN ES   1    036 43.89                             131   -0.15 7  144 258 
 PTB  HZ I         036 46.87         3.5 0.26                           144 258 
 OCA  HE ES   2    036 46.25                             128   -0.74 5  160 354 
 ZAR  HZ EP   1    036 29.94                             122    0.76 6  200 293 
 ZAR  HN ES   1    036 54.07                             122    0.17 6  200 293 
 ZAR  HZ I         036 59.97         5.3 0.51                           200 293 
                                                                                
