 2013 1014 0535 43.1 L   6.770 -73.087137.5  RSN  4 0.4 1.3LRSN                1
 GAP=205        0.76       6.2     8.9 12.6  0.1366E+02 -0.5747E+01 -0.4616E+02E
 Epicentro: LOS SANTOS - SANTANDER                                             3
 ACTION:UPD 13-11-25 09:21 OP:ep   STATUS:               ID:20131014053543 L   I
 OLDACT:REG 13-10-14 07:36 OP:mh   STATUS:               ID:20131014052959     3
 2013-10-14-0529-59M.COL___273                                                 6
 STAT SP IPHASW D HRMM SECON CODA AMPLIT PERI AZIMU VELO AIN AR TRES W  DIS CAZ7
 BRR  HZ EP   1    536  4.46                             148    0.63 7 78.5 298 
 BRR  HE ES   2    536 20.16                             148    0.17 5 78.5 298 
 BRR  HZ I         536 29.58         3.2 0.35            152           78.5 298 
 RUS  HN ES   1    536 23.24                             143   -0.26 7 97.0 180 
 PTB  HZ EP   1    536 10.36                             129    0.39 7  154 261 
 PTB  HN ES   1    536 30.55                             129   -0.37 7  154 261 
 PTB  HZ I         536 32.45         1.8 0.18            139            154 261 
 SML  HZ EP   1    536 19.29                             115   -0.64 6  249 334 
 SML  HN ES   1    536 48.55                             115   -0.10 6  249 334 
 SML  HZ I         536 54.03         1.8 0.11            122            249 334 
                                                                                
