 2012 1114 0242 54.5 L   6.821 -73.168148.4  RSN  6 0.3 1.2LRSN                1
 GAP=133        0.68       4.5     5.4  6.7 -0.6429E+01  0.7066E+01  0.6263E+01E
 Epicentro: LOS SANTOS - SANTANDER                                             3
 ACTION:UPD 12-12-05 15:33 OP:}ep  STATUS:               ID:20121114024254 L   I
 2012-11-14-0240-00M.COL___230                                                 6
 STAT SP IPHASW D HRMM SECON CODA AMPLIT PERI AZIMU VELO AIN AR TRES W  DIS CAZ7
 BAR2 SZ EP   1    243 14.49                             170    0.04 7 25.3 184 
 BAR2 SZ ES   1    243 30.25                             170    0.21 7 25.3 184 
 BAR2 SZ I         243 30.90         6.7 0.50                          25.3 184 
 GIR2 SZ ES   1    243 30.07                             168    0.15 7 28.7 354 
 PAM  SZ EP   1    243 17.41                             151    0.46 7 77.3  42 
 PAM  SN ES   1    243 34.28                             151   -0.21 7 77.3  42 
 PAM  SZ I         243 36.53         2.5 0.20                          77.3  42 
 RUS  HZ EP   1    243 18.40                             144   -0.25 7  103 175 
 RUS  HE ES   1    243 37.02                             144   -0.50 7  103 175 
 PTB  HZ EP   1    243 21.04                             133   -0.42 7  146 258 
 PTB  HE ES   1    243 42.56                             133    0.03 7  146 258 
 PTB  HZ I         243 45.34         1.2 0.08                           146 258 
 CHI  HE ES   1    244  2.80                             117    0.67 6  250 194 
                                                                                
