 2014  314 0539 22.4 L   6.806 -73.196147.9  RSN  6 0.3 1.5LRSN                1
 GAP=130        0.78       3.8     3.9  6.5 -0.1246E+01  0.7552E+01 -0.6613E+01E
 Epicentro: ZAPATOCA - SANTANDER                                               3
 OLDACT:REG 14-03-14 07:36 OP:fm   STATUS:               ID:20140314053807     3
 ACTION:UPD 14-04-09 23:17 OP:nd   STATUS:               ID:20140314053922 L   I
 OLDACT:UP  14-03-14 12:07 OP:fm   STATUS:               ID:20140314053807     3
 2014-03-14-0538-07M.COL___232                                                 6
 STAT SP IPHASW D HRMM SECON CODA AMPLIT PERI AZIMU VELO AIN AR TRES W  DIS CAZ7
 BAR2 SZ EP        539 42.08                             170   -0.1910 23.7 176 
 BAR2 SZ ES   1    539 58.09                             170    0.31 7 23.7 176 
 BAR2 SZ I         540  8.73        17.8 0.70            178           23.7 176 
 PAM  SZ EP        539 45.21                             150    0.2110 80.5  43 
 PAM  SN ES        540  2.34                             150   -0.3110 80.5  43 
 PAM  SZ I         540 12.39         2.3 1.26            154           80.5  43 
 RUS  HZ EP        539 46.30                             144   -0.1310  102 173 
 RUS  HN ES        540  5.53                             144    0.3510  102 173 
 RUS  SZ I         540  7.21         2.5 1.28            158            102 173 
 PTB  HZ EP        539 48.76                             134   -0.29 9  142 258 
 PTB  HN ES        540  9.47                             134   -0.38 9  142 258 
 PTB  SZ I         540 17.18         3.7 0.36            142            142 258 
 ZAR  HE ES   1    540 20.10                             124    0.70 6  199 293 
 SML  HZ EP        539 59.21                             118    0.40 8  241 336 
 SML  HN ES   2    540 26.85                             118   -0.38 4  241 336 
 SML  SZ I         540 35.37         3.1 0.26            125            241 336 
                                                                                
