 2012  814 0806 53.3 L   6.812 -73.171145.3  RSN 21 0.5 3.6LRSN 3.7WRSN        1
 SPEC AVERAGE  MO 14.6 ST 73.7 OM  3.3 f0 4.47 R0.3403 AL 3.14 WI 21.4 MW  3.7 3
 SPEC SD       MO  0.1 ST 81.9 OM  0.7 f00.868 R0.0603 AL      WI      MW  0.1 3
 GAP= 55        0.94       2.8     3.1  4.9  0.1219E+01  0.3773E+01  0.2997E+01E
 Epicentro: LOS SANTOS - SANTANDER                                             3
 SPEC TAM HH N MO 14.6 ST 21.0 OM  2.9 f0 3.37 R0.4362 AL 2.90 WI 15.1 MW  3.7 3
 SPEC TAM HH N T 8 740 K 0.000 GD  214 VS 4.20 DE 3.00 Q0230.0 QA 0.60 VS 4.20 3
 SPEC PRA HH N MO 14.7 ST 41.3 OM  2.7 f0 3.94 R0.3731 AL 2.22 WI 22.8 MW  3.7 3
 SPEC PRA HH N T 8 826 K 0.000 GD  418 VS 4.20 DE 3.00 Q0230.0 QA 0.60 VS 4.20 3
 SPEC RUS HH E MO 14.9 ST272.2 OM  3.3 f0 6.20 R0.2371 AL 5.74 WI 13.3 MW  3.9 3
 SPEC RUS HH E T 8 733 K 0.000 GD  177 VS 4.20 DE 3.00 Q0230.0 QA 0.60 VS 4.20 3
 SPEC PTB HH N MO 14.6 ST 65.3 OM  2.9 f0 4.99 R0.2946 AL 2.36 WI 16.5 MW  3.7 3
 SPEC PTB HH N T 8 737 K 0.000 GD  205 VS 4.20 DE 3.00 Q0230.0 QA 0.60 VS 4.20 3
 SPEC HEL HH N MO 14.7 ST 40.8 OM  2.8 f0 4.03 R0.3648 AL 3.31 WI 25.9 MW  3.7 3
 SPEC HEL HH N T 8 8 2 K 0.000 GD  306 VS 4.20 DE 3.00 Q0230.0 QA 0.60 VS 4.20 3
 SPEC CHI HH Z MO 14.4 ST 37.7 OM  1.8 f0 4.77 R0.3082 AL 2.34 WI 29.4 MW  3.5 3
 SPEC CHI HH Z T 8 728 K 0.000 GD  288 VP 7.60 DE 3.00 Q0230.0 QA 0.60 VS 4.20 3
 SPEC CHI HH N MO 14.6 ST 37.3 OM  2.8 f0 3.99 R0.3684 AL 3.11 WI 27.1 MW  3.7 3
 SPEC CHI HH N T 8 756 K 0.000 GD  288 VS 4.20 DE 3.00 Q0230.0 QA 0.60 VS 4.20 3
 ACTION:UP  12-09-10 11:56 OP:ep   STATUS:               ID:20120814080653 L   I
 2012-08-14-0800-00M.COL___217                                                 6
 STAT SP IPHASW D HRMM SECON CODA AMPLIT PERI AZIMU VELO AIN AR TRES W  DIS CAZ7
 BAR2 SZ IP        8 7 12.87                             170    0.0210 24.3 183 
 BAR2 SZ I         8 7 13.16      1066.8 0.19                          24.3 183 
 BAR2 SZ ES   1    8 7 27.49                             170   -0.64 7 24.3 183 
 GIR2 SZ IP        8 7 12.98                             168    0.1510 29.6 355 
 GIR2 SZ ES   1    8 7 28.06                             168   -0.03 7 29.6 355 
 BRR  HZ IP     D  8 7 14.76                             153    0.5810 68.1 299 
 BRR  HZ I         8 7 15.21       850.6 0.12                          68.1 299 
 BRR  HN ES   1    8 7 31.42                             153    0.92 7 68.1 299 
 PAM  SZ EP        8 7 15.75                             150    0.2810 78.2  42 
 PAM  SZ I         8 7 16.14       865.5 0.23                          78.2  42 
 PAM  SN ES   1    8 7 32.86                             150    0.07 7 78.2  42 
 RUS  HZ EP        8 7 16.72                             143   -0.3510  102 175 
 RUS  HN ES   1    8 7 34.79                             143   -0.86 7  102 175 
 RUS  HZ I         8 7 36.71       343.6 0.28                           102 175 
 PTB  HZ EP   1    8 7 19.45                             132   -0.51 7  145 258 
 PTB  HN ES   1    8 7 40.65                             132   -0.14 7  145 258 
 PTB  HZ I         8 7 42.88       338.0 0.15                           145 258 
 TAM  HZ IP     C  8 7 21.28                             130    0.10 9  158 105 
 TAM  HN ES   1    8 7 42.74                             130   -0.22 7  158 105 
 TAM  HZ I         8 7 43.35       348.1 0.28                           158 105 
 OCA  HZ EP        8 7 21.10                             130   -0.27 9  159 354 
 OCA  HN ES        8 7 42.88                             130   -0.43 9  159 354 
 OCA  HZ I         8 7 49.07       808.2 0.36                           159 354 
 YOP  SZ EP   1    8 7 23.61                             126    0.11 7  181 153 
 YOP  SN ES        8 7 48.00                             126    0.90 9  181 153 
 YOP  SZ I         8 7 48.25       262.7 0.27                           181 153 
 ZAR  HZ EP   1    8 7 25.55                             123    0.20 6  201 292 
 ZAR  HN ES   1    8 7 51.16                             123    0.78 6  201 292 
 ZAR  HZ I         8 7 56.95       505.1 0.26                           201 292 
 NOR  SZ EP   1    8 7 28.80                             119    0.01 6  233 234 
 NOR  SN ES   2    8 7 56.06                             119   -0.46 4  233 234 
 NOR  SZ I         8 8  0.88       211.0 0.41                           233 234 
 CHI  HZ EP   1    8 7 30.68                             117   -0.31 6  249 194 
 CHI  HN ES   1    8 8  0.22                             117   -0.20 6  249 194 
 CHI  HZ I         8 8  8.06       106.8 0.37                           249 194 
 HEL  HZ EP        8 7 33.10                             115   -0.08 8  270 255 
 HEL  HZ I         8 8 12.08       211.4 0.30                           270 255 
 URE  HZ EP   1    8 7 32.87                             114   -1.08 6  281 292 
 URE  HE ES   1    8 8  5.11                             114   -0.59 6  281 292 
 URE  HZ I         8 8 16.90       283.3 0.26                           281 292 
 GUY  SZ EP   1    8 7 37.56                             112    0.63 5  302 235 
 GUY  SZ I         8 8 18.48       418.0 0.35                           302 235 
 VIL  SZ EP   1    8 7 36.64                             112   -0.09 5  304 191 
 VIL  SN ES   2    8 8  9.81                             112   -0.84 4  304 191 
 VIL  SZ I         8 8 16.84       186.6 0.35                           304 191 
 DBB  SZ EP   1    8 7 40.70                             110    0.32 5  337 274 
 TOL  SZ EP   1    8 7 42.28                             109    0.91 5  342 224 
 SDV  BZ EP   1    8 7 42.68                             108   -0.75 5  362  51 
 PRA  HZ EP   1    8 7 46.40                             106   -0.33 4  392 209 
 PRA  HN ES   1    8 8 28.32                             106   -0.12 4  392 209 
 PRA  HZ I         8 8 34.89       146.5 0.34                           392 209 
 PAL  HZ EP   1    8 7 48.71                             106    0.52 4  404 239 
                                                                                
