 2012  314 0630  9.0 L   6.858 -73.013149.9  RSN  4 0.3 1.3LRSN                1
 GAP=254        0.83      12.8    18.9 12.1  0.1897E+03 -0.6131E+02 -0.3793E+02E
 ACTION:UP  12-03-31 23:19 OP:EP   STATUS:               ID:20120314063009 L   I
 2012-03-14-0630-00M.COL___202                                                 6
 STAT SP IPHASW D HRMM SECON CODA AMPLIT PERI AZIMU VELO SNR AR TRES W  DIS CAZ7
 BAR2 SZ EP   1    630 28.90                             166    -0.6 7   35 213 
 BAR2 SZ I         630 46.24         4.3 0.13                            35 213 
 BRR  HZ EP   1    630 31.61                             150     0.3 7   82 290 
 BRR  HE ES   1    630 48.68                             150     0.1 7   82 290 
 BRR  HZ I         630 52.43         3.8 0.30                            82 290 
 RUS  HZ EP   1    630 34.06                             143     0.4 7  107 184 
 RUS  HN ES   1    630 52.87                             143     0.0 7  107 184 
 RUS  HZ I         630 53.56         2.5 0.30                           107 184 
 PTB  HZ EP   1    630 37.55                             130    -0.2 7  163 258 
 PTB  HZ I         630 58.07         2.9 0.58                           163 258 
                                                                                
