 2013  414 0342 39.2 L   6.764 -73.094140.5  RSN  5 0.3 1.9LRSN                1
 GAP=162        0.69       3.8     5.6  5.1 -0.7369E+01 -0.3277E+01  0.9181E+01E
 Epicentro: LOS SANTOS - SANTANDER                                             3
 ACTION:UPD 13-05-22 14:38 OP:EP   STATUS:               ID:20130414034239 L   I
 2013-04-14-0338-52M.COL___212                                                 6
 STAT SP IPHASW D HRMM SECON CODA AMPLIT PERI AZIMU VELO AIN AR TRES W  DIS CAZ7
 BAR2 SZ EP        342 58.17                             171   -0.0310 21.4 207 
 BAR2 SZ ES        343 12.61                             171   -0.3810 21.4 207 
 BAR2 SZ I         343 14.03        40.2 0.34            171           21.4 207 
 GIR2 SZ EP        342 58.11                             165   -0.3310 36.5 342 
 GIR2 SZ ES        343 13.47                             165    0.0510 36.5 342 
 GIR2 SZ I         343 15.53         8.1 0.30            166           36.5 342 
 PAM  SZ EP        343  1.06                             150    0.1810 77.1  34 
 PAM  SN ES        343 17.98                             150    0.2210 77.1  34 
 BRR  HZ IP     D  342 59.92                             149   -0.3210 78.1 299 
 BRR  HZ I         343  0.19        19.9 0.28            150           78.1 299 
 BRR  HN ES        343 16.96                             149    0.3410 78.1 299 
 CHI  HZ EP        343 16.57                             116    0.16 8  246 197 
 CHI  HN ES        343 45.67                             116    0.27 8  246 197 
                                                                                
