 2017 1014 0312 13.3 L   6.772 -73.099134.0  RSN  7 0.5 1.2LRSN                1
 GAP=240        0.96       5.0     7.6  7.7  0.1352E+02  0.3076E+02  0.1587E+02E
 Epicentro: LOS SANTOS - SANTANDER                                             3
 ACTION:UPD 17-11-07 19:31 OP:rebc STATUS:               ID:20171014031213 L   I
 OLDACT:DUP 17-10-14 13:51 OP:osc  STATUS:               ID:20171014030722d    3
 OLDACT:REG 17-10-14 11:16 OP:osc  STATUS:               ID:20171014030721     3
 2017-10-14-0308-00M.COL___438                                                 6
 STAT SP IPHASW D HRMM SECON CODA AMPLIT PERI AZIMU VELO AIN AR TRES W  DIS CAZ7
 BAR2 EZ ES        312 45.60                             170   -0.0910 21.9 205 
 BRR  HZ EP        312 32.93                             148   -0.6510 77.2 299 
 BRR  HE ES        312 49.94                             148    0.5610 77.2 299 
 RUS  HZ EP   3    312 37.32                             142    1.64 2 97.3 179 
 RUS  HN ES        312 53.40                             142    0.2810 97.3 179 
 RUS  HZ I         312 55.84         1.8 0.18            142           97.3 179 
 PTB  HZ EP        312 39.84                             128    0.06 9  152 260 
 PTB  HE ES        313  0.07                             128   -0.35 9  152 260 
 PTB  HZ I         313  1.49         2.2 0.15            130            152 260 
 CHI  HN ES        313 18.45                             115   -0.55 8  247 197 
 GUY2CHZ EP        312 57.06                             110    0.37 7  304 236 
 GUY2CHE ES        313 30.76                             110    0.24 7  304 236 
 GUY2CHZ I         313 39.72         1.1 0.50                           304 236 
 PRA  HE ES        313 48.13                             105    0.25 6  392 210 
                                                                                
