 2013  314 0255 35.5 L   6.802 -73.146134.3  RSN  5 0.3 1.5LRSN                1
 GAP=136        0.75       3.6     3.6  8.6  0.2921E+00  0.9487E+01  0.2121E+01E
 Epicentro: LOS SANTOS - SANTANDER                                             3
 ACTION:UPD 13-04-09 14:02 OP:ep   STATUS:               ID:20130314025535 L   I
 2013-03-14-0250-00M.COL___243                                                 6
 STAT SP IPHASW D HRMM SECON CODA AMPLIT PERI AZIMU VELO AIN AR TRES W  DIS CAZ7
 PAM  SZ EP        255 56.55                             149    0.0210 77.2  40 
 PAM  SN ES   1    256 12.83                             149   -0.08 7 77.2  40 
 PAM  SN I         256 14.12         8.6 0.56            152           77.2  40 
 RUS  HZ EP        255 58.24                             141    0.0510  101 176 
 RUS  HN ES        256 16.01                             141    0.1510  101 176 
 RUS  HN I         256 20.07         2.1 0.32            140            101 176 
 PTB  HZ EP   1    256  0.94                             129   -0.66 7  148 259 
 PTB  HN ES        256 21.54                             129   -0.38 9  148 259 
 PTB  HN I         256 23.77         6.4 0.28            128            148 259 
 ZAR  HN ES        256 32.53                             120    0.54 9  204 292 
 ZAR  HN I         256 38.98         5.2 0.18            119            204 292 
 PRA  HN ES        257 10.45                             104    0.28 6  392 210 
 PRA  HN I         257 20.57         0.7 0.38            104            392 210 
                                                                                
