 2012 1114 0859 60.0 L   6.801 -73.180141.9  RSN 12 0.4 2.4LRSN                1
 GAP= 69        0.69       2.5     2.9  4.7  0.8507E+00  0.2956E+01  0.1566E+01E
 Epicentro: LOS SANTOS - SANTANDER                                             3
 ACTION:UPD 12-12-05 15:33 OP:}ep  STATUS:               ID:20121114085960 L   I
 2012-11-14-0900-00M.COL___230                                                 6
 STAT SP IPHASW D HRMM SECON CODA AMPLIT PERI AZIMU VELO AIN AR TRES W  DIS CAZ7
 BAR2 SZ EP        9 0 19.20                             170    0.0910 23.1 181 
 BAR2 SZ ES   1    9 0 34.09                             170    0.03 7 23.1 181 
 BAR2 SZ I         9 0 37.01        70.2 0.24                          23.1 181 
 BRR  HZ EP   1    9 0 21.06                             153    0.57 7 67.9 300 
 BRR  HE ES   1    9 0 37.24                             153    0.72 7 67.9 300 
 BRR  HZ I         9 0 41.15        47.1 0.28                          67.9 300 
 PAM  SZ EP   1    9 0 22.04                             149    0.14 7 79.7  42 
 PAM  SN ES   1    9 0 39.15                             149    0.13 7 79.7  42 
 PAM  SZ I         9 0 42.03        21.9 0.46                          79.7  42 
 RUS  HZ EP   1    9 0 23.20                             143   -0.16 7  101 174 
 RUS  HN ES   1    9 0 41.25                             143   -0.36 7  101 174 
 RUS  HZ I         9 0 42.96        29.1 0.34                           101 174 
 PTB  HZ EP   1    9 0 25.88                             132   -0.39 7  144 258 
 PTB  HN ES   1    9 0 46.10                             132   -0.70 7  144 258 
 PTB  HZ I         9 0 49.30        36.9 0.16                           144 258 
 TAM  HZ EP   1    9 0 27.57                             129   -0.10 7  159 105 
 TAM  HZ I         9 0 48.11        24.2 0.32                           159 105 
 TAM  HN ES   1    9 0 49.18                             129   -0.11 7  159 105 
 OCA  HN ES   1    9 0 49.39                             129   -0.33 7  160 354 
 ZAR  HZ EP   1    9 0 31.82                             122    0.04 6  201 293 
 ZAR  HN ES   1    9 0 56.61                             122    0.00 6  201 293 
 ZAR  HZ I         9 1  3.27        56.3 0.48                           201 293 
 SML  HZ EP   1    9 0 35.64                             117   -0.54 6  242 336 
 SML  HE ES   1    9 1  4.15                             117   -0.29 6  242 336 
 CHI  HZ EP   1    9 0 37.56                             116    0.21 6  248 194 
 CHI  HN ES   1    9 1  6.34                             116   -0.17 6  248 194 
 CHI  HZ I         9 1 14.56         9.1 0.50                           248 194 
 HEL  HZ EP   1    9 0 40.19                             114    0.62 6  268 256 
 HEL  HZ I         9 1 18.46        15.5 0.30                           268 256 
 PRA  HZ EP   1    9 0 53.77                             106    0.63 4  390 209 
 PRA  HE ES   1    9 1 34.87                             106    0.25 4  390 209 
                                                                                
