 2017 1114 0856 34.2 L   6.743 -73.132145.8  RSN  8 0.4 1.1LRSN                1
 GAP=141        1.10       4.4     5.1  6.6 -0.5855E+01  0.5844E+01  0.7464E+01E
 Epicentro: LOS SANTOS - SANTANDER                                             3
 ACTION:UPD 17-12-12 19:55 OP:rebc STATUS:               ID:20171114085634 L   I
 OLDACT:REG 17-11-14 13:01 OP:leo  STATUS:               ID:20171114084740     3
 2017-11-14-0848-00M.COL___423                                                 6
 STAT SP IPHASW D HRMM SECON CODA AMPLIT PERI AZIMU VELO AIN AR TRES W  DIS CAZ7
 BAR2 EZ EP        856 53.73                             173   -0.0210 17.6 198 
 BAR2 EZ ES        857  8.58                             173   -0.4110 17.6 198 
 BAR2 EZ I         857  9.84         4.2 0.22            172           17.6 198 
 BRR  HZ EP        856 55.70                             151    0.0710 75.6 302 
 BRR  HN ES        857 12.85                             151    0.5210 75.6 302 
 PAM  EZ EP        856 56.54                             150   -0.1510 81.5  36 
 PAM  EN ES        857 14.15                             150   -0.0610 81.5  36 
 PAM  EZ I         857 15.35         1.6 0.46            151           81.5  36 
 RUS  HZ EP        856 57.65                             146    0.1210 94.2 177 
 RUS  HN ES        857 16.37                             146    0.6610 94.2 177 
 RUS  HZ I         857 17.96         1.2 0.26            146           94.2 177 
 PTB  HZ EP        857  0.79                             132   -0.43 9  148 261 
 PTB  HN ES        857 21.59                             132   -0.70 9  148 261 
 PTB  HZ I         857 23.86         1.4 0.09            133            148 261 
 SPBC HZ EP        857  2.43                             130    0.07 9  159 221 
 SPBC HN ES        857 24.55                             130    0.25 9  159 221 
 SPBC HZ I         857 25.89         2.2 0.09            131            159 221 
 CHI  HZ EP        857 11.44                             118    0.13 8  243 196 
 CHI  HN ES        857 39.18                             118   -1.05 8  243 196 
 GUY2CHZ EP        857 18.00                             113    0.44 7  299 236 
 GUY2CHN ES        857 52.04                             113    0.67 7  299 236 
 GUY2CHZ I         858  0.20         1.1 0.64                           299 236 
                                                                                
