 2014 1014 0108 14.3 L   6.838 -73.228144.4  RSN  4 0.4 1.6LRSN                1
 GAP=175        0.82       3.5     5.8 10.5 -0.1719E+01  0.5874E+01 -0.1747E+01E
 Epicentro: ZAPATOCA - SANTANDER                                               3
 ACTION:UPD 14-11-29 23:49 OP:nd   STATUS:               ID:20141014010814 L   I
 OLDACT:REG 14-10-14 12:25 OP:mh   STATUS:               ID:20141014010744     3
 2014-10-14-0107-44M.COL___288                                                 6
 STAT SP IPHASW D HRMM SECON CODA AMPLIT PERI AZIMU VELO AIN AR TRES W  DIS CAZ7
 RUS  HZ EP   1    1 8 37.67                             142   -0.61 7  106 171 
 RUS  HN ES        1 8 56.97                             142   -0.0310  106 171 
 RUS  HZ I         1 8 58.09         4.3 0.20            149            106 171 
 PTB  HZ EP   1    1 8 40.50                             133    0.08 7  140 256 
 PTB  HN ES        1 9  0.36                             133   -0.4410  140 256 
 PTB  HZ I         1 9  9.33         4.0 0.29            135            140 256 
 OCA  HN ES        1 9  3.82                             130    0.18 9  155 356 
 OCA  HZ I         1 9  8.69         5.3 0.36            133            155 356 
 SPBC HZ EP        1 8 42.66                             129    0.19 9  161 216 
 SPBC HN ES        1 9  4.95                             129    0.49 9  161 216 
 SPBC HZ I         1 9  7.54         7.9 0.16            133            161 216 
                                                                                
