 2014 1214 0357 16.2 L   7.451 -73.197135.9  RSN  7 0.4 1.6LRSN                1
 GAP=135        1.07       4.9     4.6  7.6  0.4165E+01  0.8797E+01 -0.1341E+01E
 Epicentro: EL PLAYON - SANTANDER                                              3
 ACTION:UPD 15-02-10 17:03 OP:nd   STATUS:               ID:20141214035716 L   I
 OLDACT:REG 14-12-14 13:49 OP:stll STATUS:               ID:20141214034749     3
 2014-12-14-0347-49M.COL___279                                                 6
 STAT SP IPHASW D HRMM SECON CODA AMPLIT PERI AZIMU VELO AIN AR TRES W  DIS CAZ7
 PAM  SZ EP        357 36.81                             156    0.5810 56.2 103 
 PAM  SN ES        357 52.09                             156    0.2710 56.2 103 
 PAM  SZ I         357 54.51         7.8 0.34            158           56.2 103 
 BRR  HZ EP        357 36.41                             152    0.2510 68.4 236 
 BRR  HZ I         357 36.49         8.7 0.16            152           68.4 236 
 BRR  HN ES        357 51.64                             152   -0.0710 68.4 236 
 BAR2 EZ EP        357 38.15                             143   -0.1110 94.9 179 
 BAR2 EZ ES        357 55.04                             143   -0.3910 94.9 179 
 PTB  HZ EP        357 44.59                             125   -0.16 9  172 234 
 PTB  HN ES        358  6.94                             125   -0.06 9  172 234 
 PTB  HZ I         358  9.76         3.4 0.14            127            172 234 
 RUS  HZ EP        357 44.92                             125   -0.56 9  173 176 
 SML  HN ES        358  7.16                             124   -0.85 9  178 327 
 ZAR  HZ EP        357 46.30                             123    0.38 9  183 272 
 ZAR  HN ES        358  9.66                             123    0.59 9  183 272 
 ZAR  HZ I         358 10.82         4.2 0.18            125            183 272 
                                                                                
