 2012  814 0838 27.0 L   6.687 -73.167157.3  RSN  4 0.1 1.4LRSN                1
 GAP=242        0.41       6.4     4.1  6.1  0.8366E+01  0.8578E+00  0.1489E+02E
 Epicentro: VILLANUEVA - SANTANDER                                             3
 ACTION:UPD 12-09-10 11:56 OP:ep   STATUS:               ID:20120814083827 L   I
 2012-08-14-0830-00M.COL___217                                                 6
 STAT SP IPHASW D HRMM SECON CODA AMPLIT PERI AZIMU VELO AIN AR TRES W  DIS CAZ7
 BAR2 SZ EP   1    838 47.64                             176   -0.19 7 10.6 189 
 BAR2 SZ I         839  3.99         4.7 0.27                          10.6 189 
 BRR  HZ EP   1    838 49.67                             153    0.01 7 76.1 308 
 BRR  HN ES        839  7.43                             153    0.0910 76.1 308 
 BRR  HZ I         839 11.96         5.2 0.25                          76.1 308 
 PTB  HZ EP   1    838 54.83                             135    0.27 7  144 264 
 PTB  HN ES   1    839 15.97                             135   -0.08 7  144 264 
 PTB  HZ I         839 17.22         2.7 0.44                           144 264 
 ZAR  HE ES        839 26.54                             124   -0.11 8  207 296 
                                                                                
