 2014 1014 0251 50.5 L   6.801 -73.044154.2  RSN 10 0.3 2.2LRSN                1
 GAP=193        0.71       2.1     5.0  4.8  0.1195E+00  0.2907E+01  0.4900E+00E
 Epicentro: LOS SANTOS - SANTANDER                                             3
 ACTION:UPD 14-11-29 23:49 OP:nd   STATUS:               ID:20141014025150 L   I
 OLDACT:REG 14-10-14 12:29 OP:mh   STATUS:               ID:20141014024746     3
 2014-10-14-0247-46M.COL___289                                                 6
 STAT SP IPHASW D HRMM SECON CODA AMPLIT PERI AZIMU VELO AIN AR TRES W  DIS CAZ7
 BRR  HZ EP        252 13.41                             151    0.2910 81.2 295 
 BRR  HN ES        252 30.75                             151   -0.0210 81.2 295 
 BRR  HZ I         252 33.51        11.1 0.32            144           81.2 295 
 RUS  HZ EP        252 15.00                             145   -0.0810  101 182 
 RUS  HN ES        252 34.10                             145   -0.1510  101 182 
 PTB  HZ EP   4    252 17.85                             132   -1.30 0  159 260 
 PTB  HN ES   4    252 39.38                             132   -2.12 0  159 260 
 PTB  HZ I         252 46.45        16.5 0.38            128            159 260 
 OCA  HZ EP   1    252 20.28                             131    0.67 7  162 349 
 OCA  HN ES        252 42.28                             131   -0.05 9  162 349 
 OCA  HZ I         252 46.98        14.6 0.44            131            162 349 
 SPBC HZ EP        252 20.41                             130    0.07 9  171 222 
 SPBC HN ES        252 43.76                             130    0.15 9  171 222 
 SPBC HZ I         252 49.93        18.4 0.57            128            171 222 
 ZAR  HZ EP        252 23.91                             123   -0.64 8  214 291 
 ZAR  HN ES   1    252 51.07                             123   -0.05 6  214 291 
 ZAR  HZ I         253  0.24        10.9 0.34            121            214 291 
 SML  HZ EP        252 27.86                             119   -0.25 8  248 333 
 SML  HN ES        252 57.43                             119   -0.02 8  248 333 
 SML  HZ I         252 59.23        20.5 0.28            119            248 333 
 GUY2CHZ EP        252 36.24                             113    0.70 7  310 236 
 GUY2CHN ES   4    253  9.17                             113   -1.51 0  310 236 
 GUY2CHZ I         253 17.90         6.7 0.50                           310 236 
 TOL  SZ EP   1    252 40.27                             110    0.25 5  352 226 
 TOL  SN ES   1    253 18.76                             110    0.11 5  352 226 
 TOL  SZ I         253 23.10        11.0 0.44            110            352 226 
 PRA  HZ EP        252 44.28                             108   -0.71 6  398 211 
 PRA  HN ES        253 27.37                             108   -0.12 6  398 211 
 PRA  HZ I         253 33.72         2.9 0.32            108            398 211 
                                                                                
