 2011  614 0010 26.0 L   6.769 -73.101142.4  RSN  9 0.2 2.1LRSN                1
 GAP=161        0.51       2.7     5.1  3.8 -0.5337E+01 -0.7573E+00 -0.1804E+00E
 Epicentro: LOS SANTOS - SANTANDER                                             3
 ACTION:UP  11-07-14 19:05 OP:ep   STATUS:               ID:20110614001026 L   I
 2011-06-14-0008-40S.COL___135                                                 6
 STAT SP IPHASW D HRMM SECON CODA AMPLIT PERI AZIMU VELO SNR AR TRES W  DIS CAZ7
 BAR2 SZ EP   1    010 45.23                             171     0.1 7   22 205 
 BAR2 SZ ES   2    011  0.01                             171    -0.1 5   22 205 
 BAR2 SZ I         011  1.54        39.6 0.32                            22 205 
 BTL  SZ EP        010 45.34                             170     0.110   25 312 
 BTL  SZ ES        011  0.14                             170    -0.110   25 312 
 BRR  HZ IP     D  010 47.08                             150     0.010   77 299 
 BRR  HZ I         010 49.03        49.7 0.07                            77 299 
 BRR  HN ES   2    011  3.99                             150     0.4 5   77 299 
 RUS  HZ EP   1    010 49.34                             144     0.2 7   97 179 
 RUS  HN ES   2    011  6.72                             144    -0.5 5   97 179 
 RUS  HZ I         011  9.21        15.8 0.41                            97 179 
 BRI  SZ EP   1    010 49.83                             140     0.2 7  110  18 
 BRI  SZ I         010 50.57        11.8 0.09                           110  18 
 GRA  SZ IP        010 51.12                             136     0.010  128  15 
 GRA  SZ I         010 52.42        23.0 0.23                           128  15 
 GRA  SZ ES   2    011 10.95                             136     0.3 5  128  15 
 OCA  SZ EP   1    010 54.00                             128    -0.4 7  164 352 
 OCA  SZ ES   2    011 16.36                             128    -0.2 5  164 352 
 OCA  SZ I         011 20.25        22.5 0.29                           164 352 
 NOR  SZ EP   1    011  1.43                             117    -0.3 6  237 236 
 NOR  SN ES   2    011 29.83                             117     0.2 4  237 236 
 CHI  HE ES   2    011 32.77                             117     0.4 4  247 196 
 CHI  HZ I         011 40.46         6.3 0.45                           247 196 
                                                                                
