 2010  714 0239 24.2 L   6.887 -72.936148.2  RSN  4 0.2 1.3LRSN                1
 GAP=188        0.41       5.7     9.6  8.4  0.3447E+02 -0.5342E+02 -0.2483E+02E
 Epicentro: GUACA - SANTANDER                                                  3
 ACTION:UPD 10-12-01 15:17 OP:pat  STATUS:               ID:20100714023924 L   I
 2010-07-14-0236-36S.COL___120                                                 6
 STAT SP IPHASW D HRMM SECON CODA AMPLIT PERI AZIMU VELO AIN AR TRES W  DIS CAZ7
 BAR2 SZ EP   1    239 44.77                             163     0.1 7   43 220 
 BAR2 SZ ES   2    240  0.86                             163     0.2 5   43 220 
 BAR2 SZ I         240  1.66         9.5 0.17                            43 220 
 BRR  HZ EP   1    239 46.88                             147     0.2 7   89 286 
 BRR  HZ I         240  2.38         6.7 0.45                            89 286 
 BRR  HE ES   1    240  4.13                             147    -0.1 7   89 286 
 GUE  SZ EP   2    239 48.08                             143    -0.1 5  104   1 
 GUE  SZ I         240 11.20         1.0 0.11                           104   1 
 RUS  HZ EP   2    239 48.83                             141    -0.2 5  111 188 
 RUS  HE ES   2    240  8.14                             141    -0.2 5  111 188 
 RUS  HZ I         240  9.49         2.7 0.47                           111 188 
                                                                                
