 2017  314 0405 50.4 L   6.744 -73.151141.8  RSN  7 0.3 1.6LRSN                1
 GAP=232        0.76       3.9     4.4  4.8  0.6849E+01  0.5240E+01  0.9487E+00E
 Epicentro: LOS SANTOS - SANTANDER                                             3
 ACTION:UPD 17-05-25 18:40 OP:jn   STATUS:               ID:20170314040550 L   I
 OLDACT:DUP 17-03-14 14:33 OP:cara STATUS:               ID:20170314035649d    3
 2017-03-14-0358-00M.COL___403                                                 6
 STAT SP IPHASW D HRMM SECON CODA AMPLIT PERI AZIMU VELO AIN AR TRES W  DIS CAZ7
 BAR2 EZ EP        4 6  9.55                             173    0.1210 17.1 192 
 BAR2 EZ ES        4 6 24.22                             173   -0.0710 17.1 192 
 BAR2 EZ I         4 6 25.78         5.1 0.12            168           17.1 192 
 BRR  HZ EP        4 6 11.21                             151   -0.0610 73.8 303 
 BRR  HN ES        4 6 27.96                             151    0.4110 73.8 303 
 BRR  HZ I         4 6 30.83         9.9 0.44            148           73.8 303 
 RUS  HZ EP        4 6 13.12                             145   -0.1910 94.4 175 
 RUS  HN ES        4 6 31.06                             145   -0.1310 94.4 175 
 PTB  HZ EP        4 6 16.25                             131   -0.63 9  146 261 
 PTB  HN ES        4 6 37.24                             131   -0.31 9  146 261 
 PTB  HZ I         4 6 41.85         3.4 0.24            130            146 261 
 SPBC HZ EP        4 6 18.36                             129    0.27 9  158 220 
 SPBC HN ES        4 6 39.98                             129    0.28 9  158 220 
 SPBC HZ I         4 6 45.27         7.0 0.38            129            158 220 
 ZAR  HZ EP        4 6 23.05                             121    0.28 8  206 294 
 ZAR  HN ES        4 6 47.82                             121   -0.21 8  206 294 
 ZAR  HZ I         4 6 53.46         5.6 0.30            122            206 294 
 GUY2CHZ EP        4 6 33.80                             112    0.44 7  297 236 
 GUY2CHE ES   4    4 7 10.26                             112    3.39 0  297 236 
 GUY2CHZ  IAML     4 7 15.81         1.5 0.60                           297 236 
                                                                                
