 2014 1114 0850 55.0 L   6.795 -73.142145.8  RSN 12 0.4 1.9LRSN                1
 GAP=137        1.05       4.1     4.0  5.8 -0.3036E+01  0.5890E+01  0.6765E+01E
 Epicentro: LOS SANTOS - SANTANDER                                             3
 ACTION:UPD 14-12-19 15:42 OP:nd   STATUS:               ID:20141114085055 L   I
 OLDACT:UP  14-11-14 20:08 OP:mh   STATUS:               ID:20141114084741     3
 OLDACT:ARG 14-11-14 12:39 OP:stll STATUS:               ID:20141114084741     3
 2014-11-14-0847-41M.COL___271                                                 6
 STAT SP IPHASW D HRMM SECON CODA AMPLIT PERI AZIMU VELO AIN AR TRES W  DIS CAZ7
 BAR2 SZ EP        851 14.24                             171   -0.3410 22.9 191 
 BAR2 SZ ES        851 29.44                             171   -0.4410 22.9 191 
 BAR2 SZ I         851 31.12        15.5 0.14            168           22.9 191 
 BRR  HZ EP        851 16.37                             152    0.2310 71.8 299 
 BRR  HN ES        851 33.43                             152    0.7710 71.8 299 
 BRR  HZ I         851 37.04        23.7 0.30            150           71.8 299 
 PAM  SZ EP        851 17.41                             151    0.2310 77.5  39 
 PAM  SN ES        851 34.60                             151    0.0810 77.5  39 
 PAM  SZ I         851 36.98         9.4 0.42            155           77.5  39 
 RUS  HZ EP        851 18.56                             144   -0.1110  100 176 
 RUS  HN ES        851 36.98                             144   -0.1810  100 176 
 RUS  HZ I         851 38.97         6.0 0.36            145            100 176 
 PTB  HZ EP        851 21.11                             132   -0.84 9  148 259 
 PTB  HN ES        851 42.42                             132   -0.58 9  148 259 
 PTB  HZ I         851 43.94        15.4 0.60            131            148 259 
 SPBC HZ EP        851 23.56                             129    0.12 9  163 219 
 SPBC HN ES        851 46.31                             129    0.65 9  163 219 
 SPBC HZ I         851 52.44        15.7 0.20            129            163 219 
 CHI  HZ EP   1    851 32.24                             117   -0.37 6  248 195 
 CHI  HN ES        852  2.16                             117    0.18 8  248 195 
 CHI  HZ I         852  5.09         4.2 0.34            118            248 195 
 HEL  HZ EP   1    851 35.56                             115    0.36 6  272 256 
 HEL  HN ES        852  7.01                             115    0.43 8  272 256 
 HEL  HZ I         852 14.61         5.8 0.34            115            272 256 
 URE  HZ EP   9    851 34.67                             113   -1.42 0  284 292 
 URE  HN ES        852  5.66                                   -1.09 7  284 292 
 CBOC HZ EP   1    851 41.87                             110   -0.02 5  334 252 
 CBOC HN ES        852 18.23                             110   -0.27 7  334 252 
 CBOC HZ I         852 32.38         1.8 0.32            110            334 252 
 TOL  SZ EP        851 42.96                             109   -0.24 7  343 225 
 TOL  SN ES        852 20.91                             109    0.08 7  343 225 
 PRA  HZ EP        851 48.87                             106    0.43 6  392 210 
 PRA  HN ES   1    852 30.43                             106    0.26 4  392 210 
 PRA  HZ I         852 36.26         2.7 0.07            107            392 210 
                                                                                
