 2013  314 0001  7.1 L   6.750 -73.138141.6  RSN  8 0.3 1.6LRSN                1
 GAP=140        0.52       3.1     3.9  4.9  0.1025E+01  0.3975E+01  0.2360E+01E
 Epicentro: LOS SANTOS - SANTANDER                                             3
 ACTION:UPD 13-04-09 14:02 OP:ep   STATUS:               ID:20130314000107 L   I
 2013-03-14-0000-00M.COL___243                                                 6
 STAT SP IPHASW D HRMM SECON CODA AMPLIT PERI AZIMU VELO AIN AR TRES W  DIS CAZ7
 BAR2 SZ EP        0 1 26.09                             172   -0.0610 18.2 196 
 BAR2 SZ ES   1    0 1 41.18                             172    0.18 7 18.2 196 
 BAR2 SZ I         0 1 42.09        20.2 0.36            156           18.2 196 
 BRR  HZ EP   1    0 1 28.04                             151    0.02 7 74.7 302 
 BRR  HZ I         0 1 31.16         9.2 0.30            140           74.7 302 
 BRR  HN ES   1    0 1 44.74                             151    0.41 7 74.7 302 
 PAM  SZ EP   2    0 1 29.00                             149   -0.12 5 81.2  37 
 PAM  SN ES   1    0 1 45.95                             149   -0.34 7 81.2  37 
 PAM  SZ I         0 1 48.08         6.4 0.50            133           81.2  37 
 RUS  HZ EP   1    0 1 30.07                             145    0.01 7 95.0 176 
 RUS  HN ES   1    0 1 47.93                             145   -0.02 7 95.0 176 
 RUS  HZ I         0 1 49.70         3.7 0.34            121           95.0 176 
 PTB  HZ EP   2    0 1 33.54                             131   -0.19 5  148 261 
 PTB  HN ES   2    0 1 53.97                             131   -0.53 5  148 261 
 PTB  HZ I         0 1 55.99         4.2 0.16            114            148 261 
 OCA  HN ES   2    0 1 58.31                             128    0.43 5  166 353 
 ZAR  HN ES   2    0 2  4.36                             121   -0.57 4  207 293 
 ZAR  HZ I         0 2  6.20         3.1 0.07            107            207 293 
 PRA  HZ EP   1    0 2  0.54                             106    0.56 4  388 210 
 PRA  HZ I         0 2 47.23         2.3 0.26             97            388 210 
                                                                                
