 2015  914 0930 47.1 L   6.812 -73.144148.9  RSN 17 0.5 2.5LRSN                1
 GAP= 71        1.06       2.9     3.2  5.1 -0.6751E-01  0.3698E+01  0.2585E+01E
 Epicentro: LOS SANTOS - SANTANDER                                             3
 ACTION:UPD 15-10-28 16:26 OP:cam  STATUS:               ID:20150914093047 L   I
 OLDACT:REG 15-09-14 13:05 OP:mh   STATUS:               ID:20150914092746     3
 2015-09-14-0927-46M.COL___326                                                 6
 STAT SP IPHASW D HRMM SECON CODA AMPLIT PERI AZIMU VELO AIN AR TRES W  DIS CAZ7
 BAR2 EZ EP        931  7.15                             170    0.0410 24.7 190 
 BAR2 EZ ES        931 22.37                             170   -0.3610 24.7 190 
 BAR2 EZ I         931 23.59        46.5 0.26            170           24.7 190 
 BRR  HZ EP     C  931  8.98                             153    0.4410 70.8 297 
 BRR  HN ES        931 26.18                             153    0.9010 70.8 297 
 BRR  HZ I         931 28.95        26.2 0.32            153           70.8 297 
 PAM  EZ EP        931  9.87                             152    0.3210 76.2  40 
 PAM  EN ES        931 26.71                             152   -0.3810 76.2  40 
 PAM  EZ I         931 29.00        61.9 0.56            153           76.2  40 
 RUS  HZ EP        931 11.05                             144   -0.1810  102 176 
 RUS  HN ES        931 29.84                             144   -0.2210  102 176 
 RUS  HZ I         931 31.27        15.1 0.48            145            102 176 
 PTB  HZ EP        931 13.60                             133   -0.74 9  148 258 
 PTB  HN ES        931 34.85                             133   -0.76 9  148 258 
 PTB  HZ I         931 42.50        29.9 0.40            133            148 258 
 TAM  HZ EP        931 15.16                             131    0.15 9  155 105 
 TAM  HN ES        931 37.16                             131    0.36 9  155 105 
 TAM  HZ I         931 54.10        16.9 0.39            133            155 105 
 OCA  HZ EP   1    931 15.14                             131   -0.37 7  159 353 
 OCA  HN ES   1    931 37.46                             131   -0.23 7  159 353 
 OCA  HZ I         931 41.75        53.4 0.48            132            159 353 
 SPBC HZ EP        931 16.11                             129    0.18 9  164 219 
 SPBC HN ES        931 38.43                             129    0.00 9  164 219 
 SPBC HZ I         931 43.80        52.0 0.24            130            164 219 
 ZAR  HZ EP   1    931 18.95                             123   -0.75 6  204 292 
 ZAR  HN ES        931 45.88                             123    0.74 9  204 292 
 ZAR  HZ I         931 55.57        22.6 0.48            124            204 292 
 SML  HZ EP   1    931 23.20                             118   -0.56 6  243 335 
 SML  HN ES   1    931 52.10                             118   -0.27 6  243 335 
 SML  HZ I         931 54.34        40.6 0.32            119            243 335 
 CHI  HZ EP        931 25.20                             118    0.11 8  250 195 
 CHI  HN ES        931 54.45                             118   -0.30 8  250 195 
 CHI  HZ I         931 57.98         8.6 0.58            118            250 195 
 ROSC BZ EP   1    931 26.47                             117    0.97 6  254 211 
 ROSC BN ES   4    931 57.97                             117    2.49 0  254 211 
 ROSC BZ I         932  1.11        23.3 0.35            118            254 211 
 URE  HZ EP   4    931 27.33                             114   -0.94 0  284 292 
 URE  HN ES   4    931 58.18                             114   -2.22 0  284 292 
 URE  HZ I         932 11.17        14.8 0.20            115            284 292 
 GUY2CHZ EP   1    931 31.54                             113    0.60 5  302 235 
 GUY2CHN ES   4    932  9.61                             113    4.46 0  302 235 
 GUY2CHZ I         932 13.67        17.6 0.74                           302 235 
 DBB  SZ EP        931 34.90                             110    0.20 7  340 274 
 DBB  SZ ES   1    932 11.84                             110    0.00 5  340 274 
 DBB  SZ I         932 15.36        26.0 0.33            111            340 274 
 PRA  HZ EP        931 40.84                             107   -0.01 6  393 210 
 PRA  HN ES        932 23.65                             107    0.85 6  393 210 
 PRA  HZ I         932 28.56        10.1 0.42            108            393 210 
 ORTC HZ EP        931 40.35                             107   -0.90 6  397 216 
 ORTC HN ES        932 23.61                             107    0.11 6  397 216 
 ORTC HZ I         932 31.86        11.3 0.26            107            397 216 
 CRJC HZ EP   4    931 47.01                             104   -2.50 0  466   4 
 CRJC HN ES   4    932 36.69                             104   -1.51 0  466   4 
                                                                                
