 2014  914 0505  0.2 L   6.808 -73.146148.1  RSN  9 0.5 1.8LRSN                1
 GAP=136        1.28       4.5     5.3  8.1 -0.3911E+01  0.1061E+02  0.4566E+01E
 Epicentro: LOS SANTOS - SANTANDER                                             3
 ACTION:UPD 14-10-03 23:04 OP:nd   STATUS:               ID:20140914050500 L   I
 OLDACT:REG 14-09-14 14:05 OP:carl STATUS:               ID:20140914045810     3
 2014-09-14-0458-10M.COL___296                                                 6
 STAT SP IPHASW D HRMM SECON CODA AMPLIT PERI AZIMU VELO AIN AR TRES W  DIS CAZ7
 BAR2 SZ IP        5 5 20.33                             170    0.2010 24.2 190 
 BAR2 SZ ES        5 5 35.52                             170   -0.1610 24.2 190 
 BAR2 SZ I         5 5 38.13         9.5 0.22            171           24.2 190 
 BRR  HZ IP     C  5 5 22.21                             153    0.6310 70.8 298 
 BRR  HN ES        5 5 39.17                             153    0.9210 70.8 298 
 BRR  HZ I         5 5 42.49        12.1 0.22            152           70.8 298 
 PAM  SZ EP        5 5 23.01                             151    0.3810 76.7  40 
 PAM  SN ES        5 5 40.27                             151    0.1510 76.7  40 
 PAM  SZ I         5 5 42.57        15.3 0.76            154           76.7  40 
 RUS  HZ EP        5 5 24.13                             144   -0.1210  101 176 
 RUS  HN ES        5 5 42.66                             144   -0.3410  101 176 
 RUS  HZ I         5 5 44.40         7.6 0.46            148            101 176 
 PTB  HZ EP        5 5 26.93                             132   -0.44 9  148 258 
 PTB  HN ES        5 5 48.14                             132   -0.43 9  148 258 
 PTB  HZ I         5 5 53.51         8.2 0.18            134            148 258 
 OCA  HN ES        5 5 49.44                             130   -1.33 9  159 353 
 OCA  HZ I         5 5 56.29         4.7 0.30            132            159 353 
 SPBC HZ EP        5 5 29.15                             129    0.21 9  164 219 
 SPBC HN ES        5 5 51.10                             129   -0.26 9  164 219 
 SPBC HZ I         5 5 53.86        14.2 0.28            132            164 219 
 ZAR  HN ES        5 5 58.43                             123    0.27 9  204 292 
 NOR  HZ EP        5 5 36.19                             119    0.07 8  235 234 
 NOR  HN ES        5 6  4.15                             119    0.01 8  235 234 
 NOR  HZ I         5 6  9.59         6.9 0.20            121            235 234 
                                                                                
