 2010 1014 0253 28.2 L   6.809 -73.099148.3  RSN 16 0.5 2.8LRSN                1
 GAP=105        1.13       4.1     6.5  7.3 -0.7646E+01  0.4478E+01  0.5326E+01E
 Epicentro: LOS SANTOS - SANTANDER                                             3
 ACTION:UP  11-02-18 11:09 OP:tino STATUS:               ID:20101014025328 L   I
 2010-10-14-0250-23S.COL___126                                                 6
 STAT SP IPHASW D HRMM SECON CODA AMPLIT PERI AZIMU VELO SNR AR TRES W  DIS CAZ7
 BTL  SZ EP        253 48.41                             169     0.310   22 303 
 BAR2 SZ EP        253 47.95                             170    -0.310   26 201 
 BAR2 SZ ES   1    254  2.89                             170    -0.9 7   26 201 
 BAR2 SZ I         254  5.04       217.8 0.30                            26 201 
 GIR2 SZ EP   1    253 48.07                             166    -0.1 7   32 341 
 URB  SZ EP   1    253 49.48                             157     0.5 7   54 331 
 BRR  HZ IP     C  253 49.85                             150     0.010   75 296 
 BRR  HN ES   1    254  7.43                             150     0.6 7   75 296 
 BRR  HZ I         254 11.50       176.4 0.08                            75 296 
 GRA  SZ EP        253 53.76                             137     0.310  123  15 
 GRA  SZ ES   1    254 13.15                             137    -0.1 7  123  15 
 GRA  SZ I         254 14.62        62.6 0.33                           123  15 
 OCA  SZ EP        253 56.51                             129    -0.2 9  160 351 
 OCA  SZ I         254 24.22        60.0 0.15                           160 351 
 YOP  SZ EP   1    253 58.40                             127     0.1 7  178 155 
 YOP  SN ES   1    254 22.51                                     0.7 7  178 155 
 NOR  SZ EP   1    254  3.88                             118    -0.8 6  240 235 
 NOR  SN ES   2    254 32.54                             118    -0.5 4  240 235 
 CHI  HZ EP   1    254  6.01                             117    -0.3 6  251 196 
 CHI  HE ES   1    254 35.14                             117    -0.9 6  251 196 
 CHI  HZ I         254 41.23        41.4 0.44                           251 196 
 ROSC BZ EP        254  7.72                             116     0.8 8  256 212 
 ROSC BN ES   1    254 37.53                             116     0.5 6  256 212 
 ROSC BZ I         254 45.14        56.0 0.60                           256 212 
 HEL  HZ EP   1    254  9.55                             114     0.4 6  277 256 
 HEL  HZ I         254 47.04        35.9 0.22                           277 256 
 DBB  SZ EP        254 15.82                             109    -0.6 7  345 274 
 DBB  SZ I         254 54.26        13.7 0.13                           345 274 
 TOL  SZ EP   1    254 17.88                             109     0.8 5  348 225 
 SDV  BZ EP        254 17.33                             109    -0.5 6  356  50 
 SDV  BZ I         254 56.52        12.9 0.43                           356  50 
 PRA  HZ EP        254 21.76                             106    -0.5 6  395 210 
 PRA  HN ES   1    255  4.30                             106    -0.1 4  395 210 
                                                                                
