 2010 1114 0510 15.9 L   6.733 -73.111139.9  RSN  6 0.4 1.7LRSN                1
 GAP=163        1.01       6.0    10.9 10.8 -0.2593E+01 -0.5103E+02 -0.4453E-02E
 Epicentro: JORDAN - SANTANDER                                                 3
 ACTION:UP  10-12-17 16:52 OP:REBC STATUS:               ID:20101114051015 L   I
 2010-11-14-0505-46S.COL___129                                                 6
 STAT SP IPHASW D HRMM SECON CODA AMPLIT PERI AZIMU VELO SNR AR TRES W  DIS CAZ7
 BAR2 SZ EP   1    510 34.41                             173    -0.3 7   18 207 
 BAR2 SZ ES   2    510 49.04                             173    -0.4 5   18 207 
 BTL  SZ EP        510 35.64                             169     0.710   27 320 
 BTL  SZ ES   2    510 49.99                             169     0.2 5   27 320 
 BRR  HZ EP        510 36.26                             149    -0.610   78 302 
 BRR  HN ES        510 53.34                             149     0.110   78 302 
 BRR  HZ I         510 54.62        13.3 0.05                            78 302 
 RUS  HZ EP   1    510 38.84                             145     0.3 7   93 178 
 RUS  HN ES   2    510 55.85                             145    -0.4 5   93 178 
 RUS  HZ I         510 57.89         3.2 0.71                            93 178 
 GRA  SZ EP        510 41.25                             134     0.110  132  15 
 GRA  SZ I         510 42.67         9.9 0.30                           132  15 
 GRA  SZ ES   1    511  0.63                             134    -0.2 7  132  15 
 OCA  SZ ES   2    511  7.04                             127     0.2 5  168 352 
 OCA  SZ I         511  8.30         9.3 0.04                           168 352 
                                                                                
