 2013 1114 0420 56.3 L   6.257 -73.771 96.5  RSN  4 0.5 1.0LRSN                1
 GAP=128        1.34       6.9     4.9 13.2 -0.6198E-01  0.1918E+01 -0.5136E+01E
 Epicentro: LANDAZURI - SANTANDER                                              3
 ACTION:UPD 14-01-09 16:27 OP:ep   STATUS:               ID:20131114042056 L   I
 OLDACT:REG 13-11-14 09:29 OP:nd   STATUS:               ID:20131114042000     3
 2013-11-14-0420-00M.COL___279                                                 6
 STAT SP IPHASW D HRMM SECON CODA AMPLIT PERI AZIMU VELO AIN AR TRES W  DIS CAZ7
 SPBC HZ EP        421 13.09                             139    0.2410 74.8 206 
 SPBC HN ES        421 26.27                             139    0.5410 74.8 206 
 SPBC HZ I         421 31.15         2.6 0.32            144           74.8 206 
 BAR2 SZ EP        421 13.51                             140    0.4410 74.9  60 
 BAR2 SZ ES        421 26.60                             140    0.4810 74.9  60 
 BAR2 SZ I         421 28.51        10.6 0.28            148           74.9  60 
 PTB  HZ EP        421 12.78                             137   -0.5610 82.0 292 
 PTB  HN ES        421 26.36                             137   -0.2410 82.0 292 
 PTB  HZ I         421 29.70         2.9 0.16            144           82.0 292 
 RUS  HZ EP        421 14.42                             136    0.0610 86.2 118 
 RUS  HN ES        421 27.45                             136   -0.9610 86.2 118 
 RUS  HZ I         421 32.59         1.0 0.34            142           86.2 118 
                                                                                
