 2017  414 0158 45.2 L   6.779 -73.112140.6  RSN  5 0.4 1.2LRSN                1
 GAP=142        0.93       4.6     4.2  7.4  0.1467E+01  0.8011E+01  0.1217E+01E
 Epicentro: LOS SANTOS - SANTANDER                                             3
 ACTION:UPD 17-05-30 21:11 OP:jn   STATUS:               ID:20170414015845 L   I
 OLDACT:UP  17-04-14 13:48 OP:edw  STATUS:               ID:20170414015739     3
 OLDACT:REG 17-04-14 12:16 OP:edw  STATUS:               ID:20170414015739     3
 2017-04-14-0158-00M.COL___367                                                 6
 STAT SP IPHASW D HRMM SECON CODA AMPLIT PERI AZIMU VELO AIN AR TRES W  DIS CAZ7
 BRR  HZ EP        159  6.15                             150    0.1010 75.6 299 
 BRR  HE ES        159 22.82                             150    0.5010 75.6 299 
 PAM  EZ EP     D  159  7.29                             150    0.4510 76.9  36 
 PAM  EN ES        159 23.20                             150   -0.5210 76.9  36 
 RUS  HZ EP        159  8.38                             143    0.1210 98.1 178 
 RUS  HN ES        159 26.16                             143   -0.1010 98.1 178 
 RUS  HZ I         159 28.42         3.1 0.32            144           98.1 178 
 PTB  HZ EP        159 11.46                             130   -0.59 9  151 260 
 PTB  HE ES        159 33.08                             130    0.08 9  151 260 
 ZAR  HZ EP        159 17.96                             121    0.20 8  208 292 
 ZAR  HN ES        159 42.81                             121   -0.36 8  208 292 
 ZAR  HZ I         159 48.94         1.3 0.34            121            208 292 
                                                                                
