 2012  114 0517 48.5 L   6.818 -73.131149.0  RSN  8 0.3 1.6LRSN                1
 GAP=137        0.63       4.6     4.9  6.5  0.1529E+01  0.2707E+00  0.7966E+01E
 Epicentro: LOS SANTOS - SANTANDER                                             3
 ACTION:UP  12-02-03 08:17 OP:REBC STATUS:               ID:20120114051748 L   I
 2012-01-14-0510-00M.COL___187                                                 6
 STAT SP IPHASW D HRMM SECON CODA AMPLIT PERI AZIMU VELO SNR AR TRES W  DIS CAZ7
 BAR2 SZ EP        518  8.37                             170    -0.210   26 193 
 BAR2 SZ ES   2    518 24.11                             170    -0.1 5   26 193 
 BAR2 SZ I         518 25.37         6.8 0.30                            26 193 
 GIR2 SZ EP   2    518  8.38                             168    -0.2 5   30 347 
 GIR2 SZ ES   2    518 23.61                             168    -0.5 5   30 347 
 BRR  HZ EP        518 10.17                             153     0.110   72 297 
 BRR  HZ I         518 11.96        10.7 0.12                            72 297 
 BRR  HN ES   1    518 27.34                             153     0.5 7   72 297 
 PAM  SZ EP   1    518 11.28                             152     0.3 7   75  40 
 PAM  SE ES   2    518 28.12                             152    -0.3 5   75  40 
 RUS  HZ EP   1    518 13.00                             144     0.3 7  102 177 
 RUS  HE ES   2    518 31.73                             144     0.1 5  102 177 
 RUS  HZ I         518 33.08         4.8 0.33                           102 177 
 PTB  HZ EP   2    518 15.13                             132    -0.8 5  150 258 
 PTB  HE ES   2    518 37.21                             132    -0.1 5  150 258 
 ZAR  HE ES   2    518 46.61                             123    -0.2 4  205 291 
 ZAR  HZ I         518 51.86         5.0 0.33                           205 291 
 CHI  HZ EP   2    518 26.74                             117     0.1 4  251 195 
 CHI  HZ I         518 28.66         2.2 0.32                           251 195 
 CHI  HN ES   2    518 56.51                             117     0.1 4  251 195 
                                                                                
