 2015 1114 0540 53.9 L   6.797 -73.099146.8  RSN 11 0.4 1.7LRSN                1
 GAP=143        0.97       3.0     6.3  5.4 -0.4951E+01  0.5552E+01  0.7409E+00E
 Epicentro: LOS SANTOS - SANTANDER                                             3
 ACTION:UPD 15-12-28 16:10 OP:cam  STATUS:               ID:20151114054053 L   I
 OLDACT:UP  15-11-14 23:19 OP:dnl  STATUS:               ID:20151114053752     3
 OLDACT:UP  15-11-14 23:15 OP:dnl  STATUS:               ID:20151114053752     3
 OLDACT:REG 15-11-14 14:40 OP:dnl  STATUS:               ID:20151114053752     3
 2015-11-14-0537-52M.COL___310                                                 6
 STAT SP IPHASW D HRMM SECON CODA AMPLIT PERI AZIMU VELO AIN AR TRES W  DIS CAZ7
 BAR2 EZ EP        541 13.81                             170    0.1310 24.4 202 
 BAR2 EZ ES        541 29.18                             170    0.0810 24.4 202 
 PAM  EZ EP        541 16.45                             152    0.4010 74.5  36 
 PAM  EN ES        541 33.05                             152   -0.2810 74.5  36 
 PAM  EZ I         541 34.21         6.0 0.22            157           74.5  36 
 BRR  HZ EP        541 15.50                             151    0.0710 76.0 297 
 BRR  HN ES        541 33.01                             151    0.7810 76.0 297 
 BRR  HZ I         541 36.62         5.1 0.12            148           76.0 297 
 RUS  HZ EP        541 17.94                             144    0.2310  100 179 
 RUS  HE ES        541 36.21                             144   -0.0710  100 179 
 RUS  HZ I         541 37.77         3.6 0.34            145            100 179 
 OCA  HZ EP        541 22.40                             130    0.01 9  161 351 
 OCA  HE ES        541 43.88                             130   -0.73 9  161 351 
 SPBC HZ EP        541 22.70                             129   -0.06 9  166 220 
 SPBC HN ES        541 44.70                             129   -0.58 9  166 220 
 SPBC HZ I         541 51.97         8.1 0.30            128            166 220 
 ZAR  HE ES   4    541 50.80                             122   -1.88 0  209 292 
 ZAR  HZ I         541 57.53         4.2 0.54            122            209 292 
 SML  HZ EP        541 30.61                             117   -0.25 8  246 334 
 SML  HN ES   4    541 57.89                             117   -1.80 0  246 334 
 CHI  HZ EP        541 31.98                             117    0.21 8  250 196 
 CHI  HN ES   1    542  0.32                             117   -0.99 6  250 196 
 URE  HZ EP   4    541 37.99                             113    2.42 0  289 292 
 URE  HN ES   4    542  5.06                             113   -3.02 0  289 292 
 URE  HZ I         542  8.51         3.4 0.16            114            289 292 
 PRA  HZ EP        541 48.05                             107    0.33 6  394 210 
 PRA  HN ES   2    542 30.31                             107    0.61 3  394 210 
 PRA  HZ I         542 36.22         2.8 0.48            107            394 210 
                                                                                
