 2016  414 0856 11.5 L   6.824 -73.154135.3  RSN 12 0.5 1.5LRSN                1
 GAP=125        0.97       3.1     4.1  6.9 -0.3594E+01  0.1342E+02 -0.1638E+01E
 Epicentro: LOS SANTOS - SANTANDER                                             3
 ACTION:UPD 16-05-05 14:21 OP:rebc STATUS:               ID:20160414085611 L   I
 OLDACT:UP  16-04-14 19:09 OP:ak   STATUS:               ID:20160414084747d    3
 OLDACT:DUP 16-04-14 19:01 OP:ak   STATUS:               ID:20160414084747d    3
 OLDACT:REG 16-04-14 12:38 OP:mh   STATUS:               ID:20160414084746     3
 2016-04-14-0847-46M.COL___310                                                 6
 STAT SP IPHASW D HRMM SECON CODA AMPLIT PERI AZIMU VELO AIN AR TRES W  DIS CAZ7
 BAR2 EZ EP   2    856 30.34                             169    0.42 5 25.8 187 
 BAR2 EZ ES        856 44.70                             169    0.4110 25.8 187 
 BAR2 EZ I         856 45.60         9.2 0.14            171           25.8 187 
 PAM  EZ EP        856 32.74                             149    0.2310 76.0  41 
 PAM  EN ES        856 49.36                             149    0.4510 76.0  41 
 PAM  EZ I         856 53.99         5.0 0.64            153           76.0  41 
 RUS  HZ EP        856 34.45                             141    0.0210  103 176 
 RUS  HE ES        856 51.58                             141   -0.7510  103 176 
 RUS  HZ I         856 54.07         3.3 0.34            146            103 176 
 PTB  HZ EP        856 36.91                             130   -0.67 9  147 258 
 PTB  HN ES        856 57.54                             130   -0.40 9  147 258 
 PTB  HZ I         857  1.44         3.6 0.10            132            147 258 
 OCA  HZ EP   2    856 38.92                             128    0.19 5  157 353 
 OCA  HN ES        856 59.45                             128   -0.54 9  157 353 
 OCA  HZ I         857  2.88         9.9 0.26            130            157 353 
 SPBC HZ EP   1    856 38.87                             126   -0.48 7  165 218 
 SPBC HN ES        857  1.10                             126    0.02 9  165 218 
 SPBC HZ I         857  5.82         4.5 0.22            130            165 218 
 ZAR  HZ EP        856 43.45                             120    0.38 9  202 292 
 ZAR  HN ES        857  7.75                             120    0.04 9  202 292 
 ZAR  HZ I         857 15.76         3.4 0.11            122            202 292 
 NOR  HE ES        857 14.53                             116    0.34 8  235 234 
 CHI  HN ES   2    857 18.65                             115    0.59 4  251 195 
 URE  HN ES   4    857 22.09                             112   -1.25 0  282 291 
 GUY2CHZ EP   2    856 54.30                             110   -0.42 4  302 234 
 GUY2CHE ES        857 29.35                             110    0.91 7  302 234 
 GUY2CHZ I         857 35.29         1.9 0.30                           302 234 
 CBOC HZ EP   2    856 58.45                             108    0.47 3  334 252 
 CBOC HN ES   2    857 34.16                             108   -0.08 3  334 252 
 SDV  BZ EP   9    856 59.37                             106   -1.66 0  359  51 
 SDV  BE ES        857 37.84                                   -0.18 6  359  51 
                                                                                
