 2011 1014 0225 15.1 L   6.786 -73.088156.3  RSN  6 0.3 1.5LRSN                1
 GAP=145        0.41       4.4     4.8  5.8  0.4310E+01  0.3254E+01  0.2021E+01E
 Epicentro: LOS SANTOS - SANTANDER                                             3
 ACTION:UPD 12-07-13 16:03 OP:ep   STATUS:               ID:20111014022515 L   I
 2011-10-14-0220-00M.COL___171                                                 6
 STAT SP IPHASW D HRMM SECON CODA AMPLIT PERI AZIMU VELO AIN AR TRES W  DIS CAZ7
 BAR2 SZ EP   2    225 35.96                             171   -0.02 5 23.8 206 
 BAR2 SZ ES   2    225 52.18                             171   -0.11 5 23.8 206 
 BAR2 SZ I         225 53.80         8.3 0.65                          23.8 206 
 GIR2 SZ EP   3    225 35.84                             167   -0.25 2 34.4 340 
 GIR2 SZ ES   2    225 52.36                             167   -0.12 5 34.4 340 
 PAM  SZ EP   2    225 38.61                             153    0.33 5 74.7  35 
 PAM  SN ES   2    225 56.09                             153   -0.28 5 74.7  35 
 BRR  HZ EP   2    225 37.88                             152    0.16 5 77.6 297 
 BRR  HN ES   2    225 55.93                             152    0.54 5 77.6 297 
 BRR  HZ I         225 59.22         4.9 0.09                          77.6 297 
 RUS  HZ EP   2    225 39.62                             146   -0.13 5 98.8 180 
 RUS  HN ES   2    225 59.05                             146    0.04 5 98.8 180 
 RUS  HZ I         226  0.33         3.6 0.64                          98.8 180 
 ZAR  HN ES   2    226 14.78                             124   -0.48 4  211 292 
 ZAR  HZ I         226 20.82         4.1 0.48                           211 292 
                                                                                
