 2011  814 0831  7.4 L   6.751 -73.113135.0  RSN  5 0.4 1.7LRSN                1
 GAP=186        0.74       3.8     8.9  6.1  0.1034E+02 -0.5024E+01  0.2910E+00E
 Epicentro: LOS SANTOS - SANTANDER                                             3
 ACTION:UPD 12-07-13 15:51 OP:ep   STATUS:               ID:20110814083107 L   I
 2011-08-14-0820-00M.COL___151                                                 6
 STAT SP IPHASW D HRMM SECON CODA AMPLIT PERI AZIMU VELO AIN AR TRES W  DIS CAZ7
 BAR2 SZ EP        831 25.47                             172   -0.1710 19.2 204 
 BAR2 SZ ES   1    831 39.89                             172    0.01 7 19.2 204 
 BAR2 SZ I         831 41.76         9.6 0.39                          19.2 204 
 BRR  HZ EP        831 27.35                             149   -0.3910 77.0 301 
 BRR  HN ES        831 43.84                             149    0.2210 77.0 301 
 BRR  HZ I         831 48.69        17.3 0.14                          77.0 301 
 RUS  HZ EP   1    831 29.69                             143    0.01 7 95.0 178 
 RUS  HN ES   1    831 47.29                             143    0.23 7 95.0 178 
 RUS  HZ I         831 49.04         6.8 0.41                          95.0 178 
 OCA  SZ EP   1    831 36.35                             126    0.89 7  166 352 
 OCA  SZ ES   1    831 57.00                             126   -0.35 7  166 352 
 PRA  HZ EP        831 59.96                             105   -0.26 6  389 210 
 PRA  HE ES   2    832 41.83                             105    0.41 3  389 210 
                                                                                
