 2015  114 0619 54.6 L   6.788 -73.153148.1  RSN  7 0.4 1.5LRSN                1
 GAP=136        1.12       4.7     4.8  7.1 -0.6540E+00  0.8555E+01  0.2942E+00E
 Epicentro: LOS SANTOS - SANTANDER                                             3
 ACTION:UPD 15-03-02 15:39 OP:nd   STATUS:               ID:20150114061954 L   I
 OLDACT:REG 15-01-14 14:22 OP:carl STATUS:               ID:20150114061743     3
 2015-01-14-0617-43M.COL___256                                                 6
 STAT SP IPHASW D HRMM SECON CODA AMPLIT PERI AZIMU VELO AIN AR TRES W  DIS CAZ7
 BAR2 EZ EP        620 14.97                             171    0.5310 21.8 189 
 BAR2 EZ ES        620 29.41                             171   -0.5310 21.8 189 
 BAR2 EZ I         620 32.91         3.2 0.10            168           21.8 189 
 BRR  HZ EP        620 15.41                             153   -0.5410 71.2 300 
 BRR  HN ES        620 33.67                             153    1.0210 71.2 300 
 BRR  HZ I         620 36.86         4.8 0.28            151           71.2 300 
 PAM  SZ EP        620 17.24                             151    0.1310 78.9  39 
 PAM  SN ES        620 34.36                             151   -0.3510 78.9  39 
 RUS  HZ EP        620 18.61                             145    0.1710 99.3 176 
 RUS  HN ES        620 37.11                             145    0.0410 99.3 176 
 RUS  HZ I         620 38.20         2.6 0.36            147           99.3 176 
 PTB  HZ EP        620 21.51                             133   -0.11 9  147 259 
 PTB  HN ES        620 42.23                             133   -0.50 9  147 259 
 PTB  HZ I         620 48.88         4.1 0.48            132            147 259 
 SPBC HZ EP        620 22.95                             130   -0.13 9  162 219 
 SPBC HN ES        620 45.55                             130    0.21 9  162 219 
 SPBC HZ I         620 51.99         6.5 0.16            130            162 219 
 ZAR  HZ EP        620 27.27                             123    0.14 9  204 293 
 ZAR  HN ES        620 52.39                             123   -0.15 9  204 293 
 ZAR  HZ I         620 58.42         5.1 0.32            124            204 293 
                                                                                
