 2015  414 0029 33.5 L   6.775 -73.118143.0  RSN  9 0.5 2.0LRSN                1
 GAP=141        1.18       4.6     4.7  6.8 -0.3725E+01  0.1075E+02  0.3180E+01E
 Epicentro: LOS SANTOS - SANTANDER                                             3
 ACTION:UPD 15-06-03 16:54 OP:cam  STATUS:               ID:20150414002933 L   I
 OLDACT:REG 15-04-14 12:33 OP:carl STATUS:               ID:20150414002747     3
 2015-04-14-0027-47M.COL___269                                                 6
 STAT SP IPHASW D HRMM SECON CODA AMPLIT PERI AZIMU VELO AIN AR TRES W  DIS CAZ7
 BAR2 EZ EP        029 52.75                             171   -0.0410 21.5 199 
 BAR2 EZ ES        030  8.21                             171    0.4010 21.5 199 
 BAR2 EZ I         030  9.10        13.9 0.18            170           21.5 199 
 BRR  HZ EP        029 54.64                             151    0.0210 75.2 299 
 BRR  HN ES        030 11.47                             151    0.4110 75.2 299 
 BRR  HZ I         030 14.88        15.6 0.16            150           75.2 299 
 PAM  SZ EP        029 55.59                             150    0.1210 77.7  37 
 PAM  SE ES        030 12.50                             150   -0.0810 77.7  37 
 PAM  SZ I         030 14.92        15.2 0.34            154           77.7  37 
 RUS  HZ EP        029 56.65                             144   -0.1610 97.7 178 
 RUS  HN ES        030 14.84                             144   -0.1110 97.7 178 
 RUS  HZ I         030 17.49         6.2 0.36            147           97.7 178 
 PTB  HZ EP        029 59.62                             131   -0.88 9  150 260 
 PTB  HN ES        030 20.64                             131   -0.90 9  150 260 
 PTB  HZ I         030 23.50        11.9 0.10            132            150 260 
 SPBC HZ EP        030  1.79                             128   -0.02 9  163 220 
 SPBC HN ES        030 23.49                             128   -0.37 9  163 220 
 SPBC HZ I         030 27.12        15.3 0.20            130            163 220 
 ZAR  HZ EP        030  6.96                             121    0.76 8  208 293 
 ZAR  HN ES        030 31.34                             121   -0.34 8  208 293 
 ZAR  HZ I         030 37.69        14.4 0.50            122            208 293 
 NOR  HZ EP        030  9.19                             118   -0.01 8  236 235 
 NOR  HE ES        030 37.38                             118    0.36 8  236 235 
 NOR  HZ I         030 43.14        10.4 0.26            119            236 235 
 GUY2CHZ EP        030 17.31                             112    0.19 7  302 236 
 GUY2CHN ES        030 52.44                             112    1.32 7  302 236 
 GUY2CHZ I         030 59.31         7.5 0.48                           302 236 
                                                                                
