 2014 1214 0011 49.3 L   7.320 -73.826 77.0  RSN  6 0.5 1.3LRSN                1
 GAP= 98        1.15       3.8     4.6 17.8  0.6229E+01 -0.2892E+02 -0.2857E+02E
 Epicentro: PUERTO WILCHES - SANTANDER                                         3
 ACTION:UPD 15-02-10 17:03 OP:nd   STATUS:               ID:20141214001149 L   I
 OLDACT:UP  14-12-15 06:24 OP:CF   STATUS:               ID:20141214001149 L   3
 OLDACT:REG 14-12-14 13:41 OP:stll STATUS:               ID:20141214000742     3
 2014-12-14-0007-42M.COL___291                                                 6
 STAT SP IPHASW D HRMM SECON CODA AMPLIT PERI AZIMU VELO AIN AR TRES W  DIS CAZ7
 BAR2 EZ ES        012 21.44                             120   -0.3010  107 139 
 PTB  HZ EP        012  7.28                             119   -0.3210  111 219 
 PTB  HN ES        012 21.56                             119   -0.3510  111 219 
 PTB  HZ I         012 22.08         2.7 0.10            119            111 219 
 ZAR  HN ES   1    012 23.89                             118    1.11 7  116 280 
 PAM  SZ EP        012 10.30                             116    0.6310  124  89 
 PAM  SZ I         012 27.47         3.1 0.24            110            124  89 
 SML  HZ EP        012 13.30                             109   -0.49 9  166 351 
 SML  HN ES        012 32.71                             109   -0.22 9  166 351 
 SML  HZ I         012 35.94        10.6 0.28            105            166 351 
 RUS  HZ EP        012 16.14                             107    0.33 9  178 152 
 RUS  HN ES        012 36.61                             107    0.09 9  178 152 
 RUS  HZ I         012 38.82         2.7 0.22            104            178 152 
                                                                                
