 2017 1014 0752 31.9 L   6.796 -73.115152.9  RSN  7 0.4 1.2LRSN                1
 GAP=240        0.93       4.5     5.3  5.9  0.9848E+01  0.8462E+01  0.5500E+01E
 Epicentro: LOS SANTOS - SANTANDER                                             3
 ACTION:UPD 17-11-07 19:31 OP:rebc STATUS:               ID:20171014075231 L   I
 OLDACT:DUP 17-10-14 17:03 OP:osc  STATUS:               ID:20171014074719d    3
 2017-10-14-0748-00M.COL___396                                                 6
 STAT SP IPHASW D HRMM SECON CODA AMPLIT PERI AZIMU VELO AIN AR TRES W  DIS CAZ7
 BAR2 EZ EP        752 52.19                             171   -0.2010 23.7 198 
 BAR2 EZ ES        753  7.98                             171   -0.4010 23.7 198 
 BAR2 EZ I         753 10.53         4.1 0.40            168           23.7 198 
 BRR  HZ EP        752 54.37                             153    0.3810 74.3 298 
 BRR  HE ES        753 11.51                             153    0.2810 74.3 298 
 BRR  HZ I         753 13.46         2.3 0.14            153           74.3 298 
 RUS  HZ EP        752 56.71                             145    0.4010  100 178 
 RUS  HN ES        753 15.47                             145    0.1110  100 178 
 RUS  HZ I         753 16.45         2.3 0.46            145            100 178 
 PTB  HZ EP        752 59.81                             133    0.07 9  151 259 
 PTB  HE ES        753 21.64                             133    0.18 9  151 259 
 PTB  HZ I         753 22.44         1.7 0.10            133            151 259 
 ZAR  HZ EP        753  4.39                             123   -0.76 8  207 292 
 ZAR  HN ES        753 30.86                             123   -0.22 8  207 292 
 ZAR  HZ I         753 33.34         1.3 0.05            125            207 292 
 CHI  HZ EP        753  9.59                             118   -0.46 8  249 196 
 CHI  HN ES        753 39.57                             118   -0.24 8  249 196 
 CHI  HZ I         753 45.84         1.0 0.24            119            249 196 
 GUY2CHZ EP        753 16.98                             113    0.86 7  304 235 
 GUY2CHE ES        753 50.46                             113   -0.16 7  304 235 
 GUY2CHZ I         753 59.07         1.1 0.30                           304 235 
                                                                                
