 2016  414 0904 45.7 L   6.778 -73.155140.2  RSN  7 0.4 1.9LRSN                1
 GAP=136        0.94       3.2     4.1  6.5 -0.2743E+01  0.9357E+01 -0.3929E+01E
 Epicentro: LOS SANTOS - SANTANDER                                             3
 ACTION:UPD 16-05-05 14:21 OP:rebc STATUS:               ID:20160414090445 L   I
 OLDACT:UP  16-04-15 00:33 OP:mh   STATUS:               ID:20160414085746     3
 OLDACT:UP  16-04-15 00:32 OP:mh   STATUS:               ID:20160414085746     3
 OLDACT:UP  16-04-15 00:32 OP:mh   STATUS:               ID:20160414085746     3
 OLDACT:REG 16-04-14 12:38 OP:mh   STATUS:               ID:20160414085746     3
 2016-04-14-0857-46M.COL___310                                                 6
 STAT SP IPHASW D HRMM SECON CODA AMPLIT PERI AZIMU VELO AIN AR TRES W  DIS CAZ7
 BAR2 EZ EP        9 5  4.78                             171    0.1910 20.7 189 
 BAR2 EZ ES        9 5 19.12                             171   -0.2210 20.7 189 
 BAR2 EZ I         9 5 22.09         6.8 0.20            172           20.7 189 
 PAM  EZ EP        9 5  7.60                             149    0.1410 79.9  39 
 PAM  EE ES        9 5 24.66                             149    0.2110 79.9  39 
 PAM  EZ I         9 5 25.10       387.5 0.52            152           79.9  39 
 RUS  HZ EP        9 5  8.24                             143   -0.4710 98.2 175 
 RUS  HN ES        9 5 26.94                             143    0.2610 98.2 175 
 RUS  HZ I         9 5 27.78         3.4 0.22            147           98.2 175 
 PTB  HZ EP        9 5 11.43                             131   -0.63 9  146 260 
 PTB  HN ES        9 5 32.29                             131   -0.36 9  146 260 
 PTB  HZ I         9 5 34.68         4.2 0.10            132            146 260 
 SPBC HZ EP        9 5 13.79                             128    0.28 9  161 219 
 SPBC HN ES        9 5 35.40                             128    0.18 9  161 219 
 SPBC HZ I         9 5 37.06         6.1 0.10            130            161 219 
 OCA  HZ EP        9 5 14.07                             128    0.29 9  163 354 
 OCA  HN ES        9 5 35.18                             128   -0.53 9  163 354 
 OCA  HZ I         9 5 38.26         9.0 0.32            130            163 354 
 ZAR  HZ EP        9 5 17.85                             121    0.08 9  204 293 
 ZAR  HN ES        9 5 43.51                             121    0.71 9  204 293 
 ZAR  HZ I         9 5 48.65         6.2 0.48            122            204 293 
                                                                                
