 2015  214 0230 56.4 L   7.495 -73.168130.0  RSN  4 0.2 1.2LRSN                1
 GAP=234        0.48       6.1     3.5  4.5 -0.8192E+01  0.4221E+01 -0.4406E+01E
 Epicentro: EL PLAYON - SANTANDER                                              3
 ACTION:UPD 15-04-30 21:26 OP:nd   STATUS:               ID:20150214023056 L   I
 OLDACT:REG 15-02-14 12:48 OP:fm   STATUS:               ID:20150214022748     3
 2015-02-14-0227-48M.COL___299                                                 6
 STAT SP IPHASW D HRMM SECON CODA AMPLIT PERI AZIMU VELO AIN AR TRES W  DIS CAZ7
 PAM  SZ EP        231 15.56                             156   -0.0810 54.5 108 
 PAM  SE ES        231 30.58                             156   -0.0710 54.5 108 
 PAM  SZ I         231 33.31         3.1 0.36            158           54.5 108 
 BRR  HZ EP        231 16.27                             148    0.2510 73.8 234 
 BRR  HN ES        231 31.29                             148   -0.0410 73.8 234 
 BRR  HZ I         231 33.06         3.7 0.10            151           73.8 234 
 BAR2 EZ EP        231 18.37                             140    0.1510 99.9 181 
 BAR2 EZ ES   1    231 35.18                             140   -0.06 7 99.9 181 
 BAR2 EZ I         231 35.82         3.8 0.12            144           99.9 181 
 PTB  HZ EP   1    231 24.66                             122   -0.40 7  177 233 
                                                                                
