 2011 1014 0642 10.5 L   6.777 -73.068149.1  RSN  8 0.2 1.6LRSN                1
 GAP=148        0.38       2.7     3.4  4.8 -0.9681E+00  0.4982E+01  0.3487E+00E
 Epicentro: LOS SANTOS - SANTANDER                                             3
 ACTION:UPD 12-07-13 16:03 OP:ep   STATUS:               ID:20111014064039 L   I
 2011-10-14-0640-39S.COL___168                                                 6
 STAT SP IPHASW D HRMM SECON CODA AMPLIT PERI AZIMU VELO AIN AR TRES W  DIS CAZ7
 BAR2 SZ EP   1    642 30.36                             170   -0.21 7 24.0 212 
 BAR2 SZ ES   2    642 46.49                             170    0.29 5 24.0 212 
 BAR2 SZ I         642 48.03         7.0 0.35                          24.0 212 
 PAM  SZ EP   2    642 32.95                             152    0.03 5 74.4  33 
 PAM  SN ES   2    642 50.11                             152   -0.27 5 74.4  33 
 BRR  HZ EP   1    642 32.30                             150   -0.24 7 79.9 297 
 BRR  HN ES   2    642 49.90                             150    0.19 5 79.9 297 
 BRR  HZ I         642 51.54         8.1 0.13                          79.9 297 
 RUS  HZ EP   2    642 34.75                             145    0.34 5 97.8 181 
 RUS  HN ES   2    642 53.05                             145    0.01 5 97.8 181 
 RUS  HZ I         642 55.80         3.2 0.39                          97.8 181 
 OCA  SZ EP   2    642 39.97                             130    0.52 5  164 350 
 OCA  SZ ES   2    643  2.10                             130    0.10 5  164 350 
 ZAR  HN ES   2    643 10.12                             122   -0.17 4  213 292 
 ZAR  HZ I         643 14.36         4.2 0.32                           213 292 
 HEL  HZ ES   2    643 24.02                             115    0.10 4  280 257 
 HEL  HZ I         643 29.20         2.5 0.49                           280 257 
 RREF HZ EP   2    642 57.37                             111    0.00 3  327 231 
 RREF HN ES   2    643 33.81                             111   -0.10 3  327 231 
 RREF HZ I         643 43.13         2.2 0.30                           327 231 
                                                                                
