 2017  714 0332  1.7 L   6.810 -73.093144.8  RSN 10 0.5 1.7LRSN                1
 GAP=217        1.10       5.7     5.1  6.5  0.1448E+02  0.2153E+01  0.3596E+01E
 Epicentro: LOS SANTOS - SANTANDER                                             3
 ACTION:UPD 17-08-30 15:32 OP:rebc STATUS:               ID:20170714033213 L   I
 OLDACT:UP  17-07-21 19:43 OP:nlst STATUS:               ID:20170714033213 L   3
 OLDACT:UP  17-07-14 13:14 OP:dnl  STATUS:               ID:20170714032743     3
 OLDACT:UP  17-07-14 13:14 OP:dnl  STATUS:               ID:20170714032743     3
 OLDACT:REG 17-07-14 12:35 OP:dnl  STATUS:               ID:20170714032743     3
 2017-07-14-0328-00M.COL___377                                                 6
 STAT SP IPHASW D HRMM SECON CODA AMPLIT PERI AZIMU VELO AIN AR TRES W  DIS CAZ7
 BAR2 EZ EP        332 21.10                             169   -0.1810 26.0 202 
 BAR2 EZ ES        332 36.32                             169   -0.2310 26.0 202 
 BAR2 EZ I         332 37.71        13.2 0.28            165           26.0 202 
 BRR  HZ EP        332 23.12                             151    0.0910 75.9 296 
 BRR  HE ES        332 40.31                             151    0.6610 75.9 296 
 BRR  HZ I         332 43.57         8.7 0.28            147           75.9 296 
 RUS  HZ EP        332 25.09                             143   -0.3410  101 179 
 RUS  HN ES        332 44.00                             143    0.0710  101 179 
 RUS  HZ I         332 44.95         3.0 0.26            142            101 179 
 PTB  HZ EP   9    332 28.00                             131   -1.14 0  154 259 
 PTB  HN ES        332 49.22                             130   -0.17 9  154 259 
 PTB  HZ I         332 56.31         4.8 0.22            128            154 259 
 SPBC HZ EP        332 30.08                             128   -0.49 9  168 220 
 SPBC HE ES        332 52.53                             128   -0.55 9  168 220 
 SPBC HZ I         332 56.44         8.6 0.38            126            168 220 
 YPLC HZ EP        332 31.37                             127    0.10 9  175 153 
 YPLC HE ES        332 54.77                             127    0.45 9  175 153 
 YPLC HZ I         332 58.98         3.0 0.38            128            175 153 
 ZAR  HZ EP   4    332 35.76                             121    1.15 0  209 291 
 ZAR  HE ES        332 59.50                             121   -0.77 8  209 291 
 ZAR  HZ I         333  8.51         4.6 0.28            120            209 291 
 NOR  HZ EP   2    332 37.54                             118   -0.43 4  240 235 
 NOR  HN ES   4    333  5.90                             118   -0.34 0  240 235 
 NOR  HZ I         333 10.67         4.3 0.34            116            240 235 
 HEL  HZ EP   2    332 43.49                             114    0.96 4  278 256 
 HEL  HE ES        333 15.38                             114    1.01 7  278 256 
 HEL  HZ I         333 21.77         3.5 0.34            113            278 256 
 GUY2CHZ EP        332 46.43                             112    0.54 7  307 235 
 GUY2CHN ES   4    333 23.67                             112    3.33 0  307 235 
 GUY2CHZ I         333 27.78         3.4 0.44                           307 235 
                                                                                
