 2014  914 0245 32.1 L   6.814 -73.162145.2  RSN 13 0.5 1.9LRSN                1
 GAP=134        1.23       3.0     4.6  6.1 -0.2342E+01  0.7417E+01  0.1453E+01E
 Epicentro: LOS SANTOS - SANTANDER                                             3
 ACTION:UPD 14-10-03 23:04 OP:nd   STATUS:               ID:20140914024532 L   I
 OLDACT:UP  14-09-14 18:12 OP:carl STATUS:               ID:20140914023805     3
 OLDACT:REG 14-09-14 14:03 OP:carl STATUS:               ID:20140914023805     3
 2014-09-14-0238-05M.COL___296                                                 6
 STAT SP IPHASW D HRMM SECON CODA AMPLIT PERI AZIMU VELO AIN AR TRES W  DIS CAZ7
 BAR2 SZ EP        245 51.67                             170   -0.0410 24.6 185 
 BAR2 SZ ES        246  6.82                             170   -0.1710 24.6 185 
 BAR2 SZ I         246  8.75        16.8 0.30            170           24.6 185 
 BRR  HZ EP        245 53.61                             153    0.5310 68.9 298 
 BRR  HN ES        246 10.58                             153    1.1510 68.9 298 
 BRR  HZ I         246 14.65        10.1 0.16            152           68.9 298 
 PAM  SZ EP        245 54.66                             151    0.3810 77.4  41 
 PAM  SN ES        246 11.77                             151    0.2110 77.4  41 
 PAM  SZ I         246 16.32        12.8 0.40            155           77.4  41 
 RUS  HZ EP        245 55.74                             143   -0.2010  102 175 
 RUS  HN ES        246 14.25                             143   -0.2610  102 175 
 RUS  HZ I         246 15.59        15.2 0.34            146            102 175 
 PTB  HZ EP        245 58.18                             132   -0.73 9  146 258 
 PTB  HN ES        246 18.90                             132   -0.91 9  146 258 
 PTB  HZ I         246 21.14         8.1 0.30            133            146 258 
 OCA  HZ EP        245 59.86                             130   -0.37 9  159 354 
 OCA  HN ES        246 21.73                             130   -0.42 9  159 354 
 OCA  HZ I         246 26.26        10.0 0.34            132            159 354 
 SPBC HZ EP        246  0.61                             129    0.03 9  163 218 
 SPBC HN ES        246 22.30                             129   -0.48 9  163 218 
 SPBC HZ I         246 29.72        15.6 0.20            131            163 218 
 ZAR  HZ EP        246  4.85                             123    0.55 9  202 292 
 ZAR  HN ES        246 29.46                             123    0.06 9  202 292 
 ZAR  HZ I         246 36.16         6.3 0.14            124            202 292 
 NOR  HZ EP        246  7.92                             118    0.16 8  234 234 
 NOR  HN ES        246 35.08                             118   -0.47 8  234 234 
 NOR  HZ I         246 43.50         7.6 0.22            120            234 234 
 SML  HZ EP        246  8.04                             118   -0.45 8  242 336 
 SML  HN ES        246 36.47                             118   -0.38 8  242 336 
 SML  HZ I         246 40.03        12.5 0.26            120            242 336 
 CHI  HZ EP        246  9.98                             117    0.08 8  250 195 
 CHI  HN ES        246 39.37                             117    0.01 8  250 195 
 CHI  HZ I         246 42.97         5.4 0.72            119            250 195 
 GUY2CHZ EP        246 16.35                             112    0.71 7  301 234 
 GUY2CHN ES        246 50.80                             112    1.22 7  301 234 
 GUY2CHZ I         247  1.98         4.6 0.46                           301 234 
 PRA  HZ EP        246 25.68                             106    0.01 6  392 209 
 PRA  HN ES        247  7.76                             106    0.32 6  392 209 
 PRA  HZ I         247 11.50         3.1 0.30            108            392 209 
                                                                                
