 2013  714 0956 35.5 L   6.723 -73.141145.3  RSN  6 0.3 1.5LRSN                1
 GAP=162        0.86       7.0     4.0  5.6 -0.6231E+01  0.5990E+01  0.2209E+01E
 Epicentro: JORDAN - SANTANDER                                                 3
 ACTION:UPD 13-08-12 10:37 OP:ep   STATUS:               ID:20130714095635 L   I
 OLDACT:UP  13-07-14 10:39 OP:nd   STATUS:               ID:20130714094959     3
 OLDACT:REG 13-07-14 07:40 OP:nd   STATUS:               ID:20130714094959     3
 2013-07-14-0949-59M.COL___266                                                 6
 STAT SP IPHASW D HRMM SECON CODA AMPLIT PERI AZIMU VELO AIN AR TRES W  DIS CAZ7
 BAR2 SZ EP        956 55.34                             174    0.4010 15.2 198 
 BAR2 SZ ES        957 10.11                             174    0.0110 15.2 198 
 BAR2 SZ I         957 11.67        10.1 0.18            174           15.2 198 
 GIR2 SZ EP        956 55.47                             164    0.0910 39.8 352 
 GIR2 SZ ES        957 10.70                             164   -0.1810 39.8 352 
 GIR2 SZ I         957 11.36         3.8 0.20            159           39.8 352 
 BRR  HZ IP     C  956 57.23                             151    0.3510 76.1 304 
 BRR  HN ES        957 14.14                             151    0.5810 76.1 304 
 BRR  HZ I         957 18.13         5.4 0.12            147           76.1 304 
 PAM  SZ EP        956 58.05                             149   -0.0110 83.8  36 
 PAM  SN ES        957 15.19                             149   -0.4710 83.8  36 
 PAM  SZ I         957 17.66         5.4 0.42            148           83.8  36 
 PTB  HZ EP        957  2.00                             132   -0.35 9  147 262 
 PTB  HN ES        957 22.82                             132   -0.47 9  147 262 
 PTB  HZ I         957 24.93         3.8 0.24            132            147 262 
 ZAR  HZ EP        957  8.20                             122   -0.11 8  208 294 
 ZAR  HE ES        957 33.91                             122    0.01 8  208 294 
 ZAR  HZ I         957 40.36         4.0 0.34            121            208 294 
                                                                                
