 2017 1014 0459  3.2 L   6.692 -73.182141.4  RSN  6 0.3 1.3LRSN                1
 GAP=200        0.82       5.8     5.3  5.4  0.2336E+02  0.1270E+01 -0.7043E-02E
 Epicentro: VILLANUEVA - SANTANDER                                             3
 ACTION:UPD 17-11-07 19:31 OP:rebc STATUS:               ID:20171014045903 L   I
 OLDACT:REG 17-10-14 11:24 OP:osc  STATUS:               ID:20171014045204     3
 2017-10-14-0457-00M.COL___432                                                 6
 STAT SP IPHASW D HRMM SECON CODA AMPLIT PERI AZIMU VELO AIN AR TRES W  DIS CAZ7
 BAR2 EZ EP        459 22.16                             175    0.0610 11.0 180 
 BAR2 EZ ES        459 36.52                             175   -0.3410 11.0 180 
 BAR2 EZ I         459 37.97         8.8 0.24            171           11.0 180 
 BRR  HZ EP        459 23.71                             151   -0.3410 74.4 308 
 BRR  HE ES        459 40.55                             151    0.2210 74.4 308 
 BRR  HZ I         459 43.89         3.9 0.13            150           74.4 308 
 RUS  HZ EP        459 26.02                             146    0.3210 89.1 173 
 RUS  HN ES        459 43.80                             146    0.5410 89.1 173 
 RUS  HZ I         459 45.02         3.3 0.26            146           89.1 173 
 PTB  HZ EP        459 29.14                             132   -0.13 9  142 263 
 PTB  HN ES        459 49.16                             132   -0.45 9  142 263 
 PTB  HZ I         459 55.18         1.9 0.28            132            142 263 
 YPLC HZ EP        459 31.71                             127   -0.14 9  169 148 
 YPLC HE ES        459 53.93                             127   -0.28 9  169 148 
 ZAR  HZ EP        459 35.71                             121    0.24 9  205 296 
 ZAR  HN ES        5 0  0.97                             121    0.32 9  205 296 
                                                                                
