 2010  614 0300 45.8 L   6.821 -73.096140.0  RSN  5 0.4 1.3LRSN                1
 GAP=164        0.82       5.3    18.0  8.8 -0.5546E+02  0.3203E+02 -0.1455E+02E
 Epicentro: LOS SANTOS - SANTANDER                                             3
 ACTION:UP  10-08-24 10:10 OP:vdl  STATUS:               ID:20100614030045 L   I
 2010-06-14-0256-08S.COL___114                                                 6
 STAT SP IPHASW D HRMM SECON CODA AMPLIT PERI AZIMU VELO SNR AR TRES W  DIS CAZ7
 BAR2 SZ EP        3 1  4.59                             168    -0.210   27 201 
 BAR2 SZ ES   1    3 1 19.25                             168    -0.4 7   27 201 
 RUS  HZ EP        3 1  8.94                             142    -0.210  103 179 
 RUS  HN ES   1    3 1 27.95                             142     0.6 7  103 179 
 RUS  HZ I         3 1 28.53         2.2 0.25                           103 179 
 GUE  SZ EP   1    3 1  9.46                             139    -0.2 7  113  10 
 GRA  SZ EP        3 1 10.29                             137     0.110  122  15 
 GRA  SZ ES   1    3 1 29.63                             137     0.4 7  122  15 
 HEL  HZ EP   2    3 1 27.19                             113     0.8 4  278 256 
 HEL  HZ I         3 1 41.77         1.5 0.29                           278 256 
                                                                                
