 2017  914 0637 29.8 L   6.749 -73.059147.9  RSN  7 0.3 1.3LRSN                1
 GAP=129        0.72       2.9     4.2  4.3 -0.2567E+01 -0.2779E+01  0.4955E+01E
 Epicentro: JORDAN - SANTANDER                                                 3
 ACTION:UPD 17-10-05 19:12 OP:rebc STATUS:               ID:20170914063729 L   I
 OLDACT:UP  17-09-14 17:53 OP:and  STATUS:               ID:20170914062743d    3
 OLDACT:UP  17-09-14 17:52 OP:and  STATUS:               ID:20170914062743d    3
 OLDACT:DUP 17-09-14 17:48 OP:and  STATUS:               ID:20170914062743d    3
 OLDACT:UP  17-09-14 17:46 OP:and  STATUS:               ID:20170914062741     3
 OLDACT:UP  17-09-14 17:44 OP:and  STATUS:               ID:20170914062741     3
 OLDACT:UP  17-09-14 17:38 OP:and  STATUS:               ID:20170914062741     3
 OLDACT:UP  17-09-14 17:38 OP:and  STATUS:               ID:20170914062741     3
 OLDACT:UP  17-09-14 17:37 OP:and  STATUS:               ID:20170914062741     3
 OLDACT:UP  17-09-14 17:36 OP:and  STATUS:               ID:20170914062741     3
 OLDACT:UP  17-09-14 17:36 OP:and  STATUS:               ID:20170914062741     3
 OLDACT:REG 17-09-14 11:31 OP:dhb  STATUS:               ID:20170914062741     3
 2017-09-14-0628-00M.COL___410                                                 6
 STAT SP IPHASW D HRMM SECON CODA AMPLIT PERI AZIMU VELO AIN AR TRES W  DIS CAZ7
 BAR2 EZ IP     D  637 49.53                             171   -0.0910 22.1 218 
 BAR2 EZ ES        638  5.08                             171   -0.0310 22.1 218 
 BAR2 EZ I         638  6.08         3.7 0.18            170           22.1 218 
 PAM  EZ IP     C  637 52.42                             152    0.2810 76.4  31 
 PAM  EN ES        638  9.65                             152    0.0610 76.4  31 
 PAM  EZ I         638 11.69         4.8 0.54            154           76.4  31 
 BRR  HZ EP        637 51.35                             150   -0.4410 82.3 299 
 BRR  HN ES        638  8.95                             150   -0.0310 82.3 299 
 BRR  HZ I         638 12.53         3.9 0.12            151           82.3 299 
 RUS  HZ EP   9    637 53.99                             146    0.68 0 94.8 182 
 RUS  HN ES        638 12.63                             146    0.2710 94.8 182 
 RUS  HZ I         638 15.01         2.7 0.38            146           94.8 182 
 SPBC HZ EP        637 58.70                             129    0.09 9  165 223 
 SPBC HN ES        638 20.86                             129   -0.26 9  165 223 
 SPBC HZ I         638 22.41         4.7 0.10            130            165 223 
 CHI  HZ EP        638  7.92                             118    0.63 8  246 198 
 CHI  HN ES        638 36.99                             118    0.43 8  246 198 
 CHI  HZ I         638 41.10         0.9 0.10            119            246 198 
 PTGC HZ EP        638 12.44                             113   -0.29 7  300 160 
 PTGC HN ES        638 46.01                             113   -0.25 7  300 160 
                                                                                
