 2016 1114 0137  0.2 L   6.828 -73.153151.3  RSN 14 0.5 2.1LRSN                1
 GAP=146        1.08       3.9     4.3  5.8 -0.1656E+01  0.6711E+01  0.5200E+01E
 Epicentro: LOS SANTOS - SANTANDER                                             3
 ACTION:UPD 17-10-26 21:07 OP:lp   STATUS:               ID:20161114013700 L   I
 OLDACT:REG 16-11-14 12:45 OP:lv   STATUS:               ID:20161114012745     3
 2016-11-14-0128-00M.COL___337                                                 6
 STAT SP IPHASW D HRMM SECON CODA AMPLIT PERI AZIMU VELO AIN AR TRES W  DIS CAZ7
 BAR2 EZ EP        137 20.40                             170   -0.2010 26.2 187 
 BAR2 EZ ES        137 35.70                             170   -0.7810 26.2 187 
 BAR2 EZ I         137 36.53        27.1 0.25            168           26.2 187 
 BRR  HZ IP     C  137 22.23                             154    0.3510 69.1 297 
 BRR  HN ES        137 39.70                             154    0.9410 69.1 297 
 BRR  HZ I         137 46.78        15.1 0.22            151           69.1 297 
 PAM  EZ EP        137 23.23                             152    0.2810 75.6  41 
 PAM  EN ES        137 40.62                             152   -0.0310 75.6  41 
 PAM  EZ I         137 42.82        11.6 0.33            157           75.6  41 
 PTB  HZ EP        137 27.26                             133   -0.40 9  148 258 
 PTB  HN ES        137 48.65                             133   -0.39 9  148 258 
 PTB  HZ I         137 50.62        16.0 0.15            132            148 258 
 ZAR  HZ EP        137 33.12                             124    0.25 9  202 291 
 ZAR  HE ES        137 58.74                             124    0.43 9  202 291 
 ZAR  HZ I         138  4.89        13.9 0.12            124            202 291 
 NOR  HZ EP        137 36.70                             119    0.27 8  236 234 
 NOR  HN ES        138  4.41                             119   -0.23 8  236 234 
 NOR  HZ I         138  8.12        14.4 0.20            120            236 234 
 CHI  HZ EP        137 38.69                             118    0.14 8  251 195 
 CHI  HN ES        138  8.53                             118    0.10 8  251 195 
 CHI  HZ I         138 12.87         3.7 0.26            119            251 195 
 URE  HZ EP        137 40.84                             115   -0.54 7  282 291 
 URE  HE ES        138 12.59                             115   -0.88 7  282 291 
 URE  HZ I         138 23.70         8.2 0.14            115            282 291 
 PTGC HZ EP   4    137 43.21                             112   -1.50 0  312 159 
 PTGC HN ES   4    138 16.78                             112   -2.61 0  312 159 
 PTGC HZ I         138 20.49         5.7 0.34            114            312 159 
 ELA  HZ EP   4    137 48.98                             111    1.48 0  331 229 
 ELA  HN ES        138 24.93                             111    0.58 7  331 229 
 ELA  HZ I         138 33.29         5.3 0.35            112            331 229 
 ANIL HZ EP   9    137 52.72                             109    2.26 0  359 224 
 ANIL HN ES        138 32.37                                    0.49 6  359 224 
 PRA  HZ EP        137 54.14                             107   -0.09 6  394 209 
 PRA  HE ES        138 36.12                             107   -0.21 6  394 209 
 PRA  HZ I         138 41.12         4.4 0.36            108            394 209 
 ORTC HZ EP        137 55.35                             107    0.76 6  397 216 
 ORTC HN ES   4    138 38.23                             107    1.24 0  397 216 
 ORTC HZ I         138 43.49         3.5 0.27            108            397 216 
 SJC  HZ EP        137 55.08                             107   -0.56 6  406 327 
 SJC  HN ES   4    138 36.09                             107   -2.76 0  406 327 
 SJC  HZ I         138 40.64         2.4 0.11            108            406 327 
                                                                                
