 2016 1114 0128 44.1 L   6.051 -73.781103.0  RSN  9 0.4 1.5LRSN                1
 GAP=130        0.92       2.4     3.1  7.2 -0.2564E+01 -0.9817E+00  0.6062E+01E
 Epicentro: EL PENON - SANTANDER                                               3
 ACTION:UPD 17-10-26 21:07 OP:lp   STATUS:               ID:20161114012844 L   I
 OLDACT:DUP 16-11-14 14:21 OP:lv   STATUS:               ID:20161114011744d    3
 2016-11-14-0118-00M.COL___337                                                 6
 STAT SP IPHASW D HRMM SECON CODA AMPLIT PERI AZIMU VELO AIN AR TRES W  DIS CAZ7
 BAR2 EZ EP        129  2.57                             136   -0.0510 89.2  48 
 BAR2 EZ ES        129 17.17                             136    0.1110 89.2  48 
 BAR2 EZ I         129 19.01        15.9 0.30            136           89.2  48 
 PTB  HZ EP   4    129  1.40                             135   -1.17 0 92.2 306 
 PTB  HN ES        129 16.18                             135   -0.7810 92.2 306 
 PTB  HZ I         129 18.30         4.6 0.13            134           92.2 306 
 BRR  HZ EP        129  4.63                             127   -0.2110  117   4 
 BRR  HE ES        129 21.64                             127    0.6410  117   4 
 BRR  HZ I         129 22.72         6.9 0.13            127            117   4 
 NOR  HZ EP        129  6.26                             123   -0.1510  132 246 
 NOR  HN ES        129 24.10                             123    0.3010  132 246 
 NOR  HZ I         129 25.39        10.4 0.14            123            132 246 
 CHI  HZ EP        129  8.93                             118   -0.59 9  157 178 
 CHI  HE ES        129 29.41                             118    0.06 9  157 178 
 CHI  HZ I         129 33.12         1.2 0.15            118            157 178 
 PAM  EZ EP        129 12.50                             114   -0.26 9  186  40 
 PAM  EE ES        129 35.23                             114    0.12 9  186  40 
 PAM  EZ I         129 40.35         3.5 0.34            114            186  40 
 ZAR  HZ EP        129 13.74                             112    0.13 9  199 323 
 ZAR  HN ES        129 36.85                             112    0.24 9  199 323 
 ZAR  HZ I         129 42.17         4.9 0.13            112            199 323 
 PRA  HZ EP        129 23.74                             103   -0.06 7  286 205 
 PRA  HN ES        129 55.36                             103    0.61 7  286 205 
 PRA  HZ I         130  0.36         1.8 0.25            103            286 205 
 ORTC HZ EP   4    129 22.74                             103   -1.20 0  287 215 
 ORTC HN ES        129 55.29                             103    0.29 7  287 215 
 ORTC HZ I         129 58.57         1.3 0.23            103            287 215 
                                                                                
