 2010  714 0939 17.1 L   6.309 -73.607110.0  RSN  8 0.3 1.5LRSN                1
 GAP=138        0.71       4.5     7.7  7.6  0.1055E+02  0.2275E+02 -0.2540E+01E
 Epicentro: SANTA HELENA DEL OPON - SANTANDER                                  3
 ACTION:UPD 10-12-01 15:17 OP:pat  STATUS:               ID:20100714093917 L   I
 2010-07-14-0934-39S.COL___120                                                 6
 STAT SP IPHASW D HRMM SECON CODA AMPLIT PERI AZIMU VELO AIN AR TRES W  DIS CAZ7
 BAR2 SZ IP        939 33.77                             151    -0.110   56  56 
 BAR2 SZ I         939 33.94        18.2 0.12                            56  56 
 BAR2 SZ ES   1    939 47.06                             151     0.1 7   56  56 
 RUS  HZ EP   1    939 35.06                             144    -0.4 7   74 128 
 RUS  HZ I         939 35.49         5.5 0.22                            74 128 
 RUS  HE ES   1    939 50.05                             144     0.3 7   74 128 
 BRR  HZ EP   1    939 35.41                             138    -0.5 7   89 353 
 BRR  HZ I         939 44.79        11.7 0.10                            89 353 
 BRR  HE ES   1    939 50.57                             138     0.0 7   89 353 
 GIR2 SZ EP   2    939 36.44                             136    -0.3 5   97  28 
 BRI  SZ ES   2    940  6.87                             117     0.1 4  180  30 
 BRI  SZ I         940 10.58         4.0 0.45                           180  30 
 GUE  SZ EP   1    939 45.80                             116     0.1 7  184  24 
 GUE  SZ I         939 46.17         2.1 0.12                           184  24 
 HEL  HZ EP   2    939 49.67                             112     0.7 4  213 267 
 HEL  HZ I         940 17.65         3.1 0.33                           213 267 
 OCA  SZ EP   2    939 49.76                             112     0.8 4  216   8 
 OCA  SZ ES   2    940 14.10                             112     0.2 4  216   8 
 OCA  SZ I         940 20.16         4.4 0.29                           216   8 
                                                                                
