 2014  514 0636  3.7 L   6.863 -73.130152.8  RSN  4 0.3 1.4LRSN                1
 GAP=282        0.55       5.2     6.8  7.8  0.4248E+01 -0.1260E+02 -0.7862E+01E
 Epicentro: LOS SANTOS - SANTANDER                                             3
 ACTION:UPD 15-03-16 16:57 OP:nd   STATUS:               ID:20140514063603 L   I
 OLDACT:REG 14-05-14 13:08 OP:spq  STATUS:               ID:20140514062808     3
 2014-05-14-0628-08M.COL___257                                                 6
 STAT SP IPHASW D HRMM SECON CODA AMPLIT PERI AZIMU VELO AIN AR TRES W  DIS CAZ7
 BRR  HZ EP     C  636 25.55                             154    0.0310 69.7 293 
 BRR  HN ES   1    636 42.67                             154    0.13 7 69.7 293 
 BRR  HZ I         636 48.26         2.5 0.14            159           69.7 293 
 PTB  HZ EP   2    636 30.79                             133   -0.73 5  151 256 
 ZAR  HZ EP   2    636 37.10                             124    0.59 4  203 290 
 ZAR  HN ES        637  2.12                             124    0.02 9  203 290 
 SML  HZ EP   1    636 40.37                             120    0.25 6  238 334 
 SML  HN ES        637  8.30                             120   -0.24 8  238 334 
 SML  HZ I         637 15.52         3.8 0.24            124            238 334 
                                                                                
