 2016  214 0523 51.0 L   6.772 -73.142143.6  RSN  4 0.3 1.3LRSN                1
 GAP=138        0.73       4.2     4.4  8.3 -0.9011E+01  0.1301E+02 -0.6201E+01E
 Epicentro: LOS SANTOS - SANTANDER                                             3
 ACTION:UPD 16-03-04 21:26 OP:rebc STATUS:               ID:20160214052351 L   I
 OLDACT:REG 16-02-14 14:20 OP:ak   STATUS:               ID:20160214051739     3
 2016-02-14-0517-39M.COL___298                                                 6
 STAT SP IPHASW D HRMM SECON CODA AMPLIT PERI AZIMU VELO AIN AR TRES W  DIS CAZ7
 PAM  EZ EP        524 13.17                             150    0.0610 79.6  38 
 PAM  EN ES        524 30.51                             150    0.1410 79.6  38 
 PAM  EZ I         524 32.74         2.5 0.54            156           79.6  38 
 RUS  HZ EP   1    524 14.23                             144   -0.07 7 97.4 176 
 RUS  HN ES        524 32.16                             144   -0.3310 97.4 176 
 RUS  HZ I         524 34.18         2.1 0.32            147           97.4 176 
 PTB  HZ EP        524 17.64                             131   -0.13 9  148 260 
 PTB  HN ES        524 38.41                             131   -0.25 9  148 260 
 PTB  HZ I         524 43.32         2.6 0.28            133            148 260 
 SPBC HZ EP   4    524 19.44                             129    0.32 0  161 220 
 SPBC HE ES        524 41.65                             129    0.59 9  161 220 
 SPBC HZ I         524 50.64         6.0 0.20            131            161 220 
                                                                                
