 2011 1114 0726  1.7 L   6.789 -73.151142.0  RSN  4 0.4 1.2LRSN                1
 GAP=236        0.82      11.9    13.6  9.7  0.1351E+03  0.1418E+01 -0.6855E+01E
 Epicentro: LOS SANTOS - SANTANDER                                             3
 ACTION:UPD 12-07-13 16:10 OP:ep   STATUS:               ID:20111114072601 L   I
 2011-11-14-0724-53S.COL___179                                                 6
 STAT SP IPHASW D HRMM SECON CODA AMPLIT PERI AZIMU VELO AIN AR TRES W  DIS CAZ7
 BAR2 SZ EP   1    726 20.59                             171   -0.28 7 22.1 189 
 BAR2 SZ ES   1    726 35.25                             171   -0.55 7 22.1 189 
 BAR2 SZ I         726 36.84         5.5 0.60                          22.1 189 
 BRR  HZ EP   1    726 22.48                             152    0.02 7 71.2 300 
 BRR  HZ I         726 22.78         6.9 0.13                          71.2 300 
 BRR  HN ES   1    726 39.34                             152    0.71 7 71.2 300 
 RUS  HZ EP   1    726 25.33                             143    0.31 7 99.5 176 
 RUS  HN ES   1    726 43.30                             143    0.11 7 99.5 176 
 RUS  HZ I         726 44.05         1.0 0.35                          99.5 176 
 ZAR  HN ES   1    726 58.55                             121   -0.46 6  204 293 
                                                                                
