 2014  514 0419 45.5 L   7.161 -73.047157.4  RSN  4 0.4 1.4LRSN                1
 GAP=260        0.88       8.0     9.3  9.6 -0.3023E+02 -0.1048E+02  0.1902E+02E
 Epicentro: BUCARAMANGA - SANTANDER                                            3
 ACTION:UPD 15-03-16 16:57 OP:nd   STATUS:               ID:20140514041945 L   I
 OLDACT:REG 14-05-14 12:54 OP:spq  STATUS:               ID:20140514041818     3
 2014-05-14-0418-18M.COL___257                                                 6
 STAT SP IPHASW D HRMM SECON CODA AMPLIT PERI AZIMU VELO AIN AR TRES W  DIS CAZ7
 BRR  HZ EP        420  8.49                             154    0.4310 73.7 265 
 BRR  HN ES        420 25.92                             154    0.2810 73.7 265 
 BRR  HZ I         420 33.88         4.1 0.50            158           73.7 265 
 OCA  HN ES   1    420 31.36                             140   -0.55 7  123 346 
 PTB  HZ EP        420 15.19                             130   -0.28 9  170 246 
 PTB  HN ES        420 38.34                             130   -0.51 9  170 246 
 PTB  HZ I         420 41.35         2.5 0.46            136            170 246 
 ZAR  HZ EP   1    420 18.71                             125    0.05 6  203 280 
 ZAR  HE ES        420 44.80                             125    0.28 9  203 280 
 ZAR  HZ I         420 46.56         1.9 0.10            132            203 280 
                                                                                
