 2012  814 0228 18.3 L   6.792 -73.141150.0  RSN  4 0.3 1.7LRSN                1
 GAP=237        0.51       5.5     5.5  5.9  0.1666E+02  0.1543E+00  0.5147E+01E
 Epicentro: LOS SANTOS - SANTANDER                                             3
 ACTION:UPD 12-09-10 11:56 OP:ep   STATUS:               ID:20120814022818 L   I
 2012-08-14-0220-00M.COL___217                                                 6
 STAT SP IPHASW D HRMM SECON CODA AMPLIT PERI AZIMU VELO AIN AR TRES W  DIS CAZ7
 BAR2 SZ EP   1    228 38.23                             171   -0.17 7 22.5 192 
 BAR2 SZ ES   2    228 53.57                             171   -0.52 5 22.5 192 
 BAR2 SZ I         228 55.61        13.4 0.24                          22.5 192 
 BRR  HZ EP   2    228 39.87                             153   -0.06 5 72.1 299 
 BRR  HN ES        228 57.02                             153    0.1910 72.1 299 
 BRR  HZ I         229  1.67        25.1 0.26                          72.1 299 
 RUS  HZ EP   1    228 42.67                             145    0.29 7 99.6 176 
 RUS  HE ES   1    229  1.26                             145    0.08 7 99.6 176 
 RUS  HZ I         229  1.79         4.1 0.21                          99.6 176 
 PTB  HZ EP   1    228 45.27                             133   -0.35 7  148 259 
 PTB  HN ES   1    229  6.98                             133    0.02 7  148 259 
 PTB  HZ I         229  8.76         3.7 0.29                           148 259 
                                                                                
