 2017  914 0319 49.6 L   6.765 -73.086151.2  RSN  7 0.2 1.4LRSN                1
 GAP=119        0.42       1.9     2.4  3.1  0.7304E+00  0.1318E+01  0.1765E+01E
 Epicentro: LOS SANTOS - SANTANDER                                             3
 ACTION:UPD 17-10-05 19:12 OP:rebc STATUS:               ID:20170914031949 L   I
 OLDACT:UP  17-09-14 15:12 OP:mg   STATUS:               ID:20170914031739     3
 OLDACT:UP  17-09-14 15:10 OP:mg   STATUS:               ID:20170914031739     3
 OLDACT:REG 17-09-14 11:11 OP:dhb  STATUS:               ID:20170914031739     3
 2017-09-14-0318-00M.COL___470                                                 6
 STAT SP IPHASW D HRMM SECON CODA AMPLIT PERI AZIMU VELO AIN AR TRES W  DIS CAZ7
 BAR2 EZ EP        320  9.71                             171   -0.1110 21.8 209 
 BAR2 EZ ES   1    320 25.68                             171    0.07 7 21.8 209 
 BAR2 EZ I         320 27.68         2.9 0.11            168           21.8 209 
 PAM  EZ EP   1    320 12.42                             152    0.11 7 76.6  34 
 PAM  EN ES        320 29.79                             152   -0.2610 76.6  34 
 PAM  EZ I         320 31.99         4.9 0.59            157           76.6  34 
 BRR  HZ EP        320 11.84                             151    0.1010 78.9 299 
 BRR  HN ES        320 29.10                             151    0.0710 78.9 299 
 BRR  HZ I         320 32.06         4.5 0.18            150           78.9 299 
 RUS  HZ EP        320 13.68                             146    0.1210 96.4 180 
 RUS  HN ES        320 32.44                             146    0.1610 96.4 180 
 RUS  HZ I         320 33.61         1.8 0.28            146           96.4 180 
 SPBC HZ EP        320 18.78                             130    0.18 9  164 222 
 SPBC HN ES   2    320 40.98                             130   -0.27 5  164 222 
 SPBC HZ I         320 43.80         2.5 0.09            130            164 222 
 YPLC HZ EP   1    320 18.93                             129   -0.19 7  170 153 
 YPLC HN ES        320 42.11                             129   -0.08 9  170 153 
 YPLC HZ I         320 44.23         5.2 0.16            131            170 153 
 NOR  HZ EP   1    320 25.88                             119   -0.07 6  238 236 
 NOR  HN ES   2    320 53.74                             119   -0.60 4  238 236 
 NOR  HZ I         321  1.77         1.7 0.26            120            238 236 
                                                                                
