 2012  314 0352  3.5 L   6.794 -73.152148.0  RSN 10 0.5 2.0LRSN                1
 GAP=136        1.08       6.4     6.0  8.4 -0.6587E+00  0.1232E+02  0.1679E+02E
 ACTION:UP  12-03-31 23:19 OP:EP   STATUS:               ID:20120314035203 L   I
 2012-03-14-0350-00M.COL___202                                                 6
 STAT SP IPHASW D HRMM SECON CODA AMPLIT PERI AZIMU VELO SNR AR TRES W  DIS CAZ7
 BAR2 SZ EP   1    352 23.35                             171     0.0 7   23 189 
 BAR2 SZ ES   1    352 38.99                             171     0.1 7   23 189 
 BAR2 SZ I         352 39.78        46.6 0.16                            23 189 
 BRR  HZ EP   1    352 25.19                             153     0.3 7   71 299 
 BRR  HN ES   1    352 42.52                             153     1.0 7   71 299 
 BRR  HZ I         352 44.94        15.5 0.14                            71 299 
 PAM  SZ EP   1    352 26.06                             151     0.1 7   78  40 
 PAM  SN ES   1    352 43.37                             151    -0.2 7   78  40 
 RUS  HZ EP   1    352 27.28                             144    -0.1 7  100 176 
 RUS  HN ES   1    352 45.74                             144    -0.3 7  100 176 
 RUS  HZ I         352 47.36        18.0 0.24                           100 176 
 PTB  HZ EP   1    352 29.98                             133    -0.6 7  147 259 
 PTB  HN ES   1    352 51.09                             133    -0.6 7  147 259 
 PTB  HZ I         352 53.14         8.5 0.12                           147 259 
 ZAR  HN ES   1    353  0.63                             123    -0.8 6  204 292 
 ZAR  HZ I         353 12.10         7.5 0.30                           204 292 
 NOR  SZ EP   1    352 39.54                             119     0.3 6  234 234 
 NOR  SE ES   1    353  7.76                             119     0.6 6  234 234 
 CHI  HZ EP   1    352 41.10                                    -0.1 6  248 195 
 CHI  HZ I         353 19.33         8.1 0.70                           248 195 
 RREF HZ EP   1    352 50.60                             111     1.0 5  321 229 
 RREF HZ I         353 30.31         6.5 0.29                           321 229 
 PRA  HZ EP   1    352 56.91                             107    -0.1 4  391 210 
                                                                                
