 2017 1014 0216 33.8 L   7.383 -73.178137.8  RSN  5 0.2 1.6LRSN                1
 GAP=263        0.48       4.3     3.5  4.2  0.1023E+02 -0.3417E+01 -0.6578E+01E
 Epicentro: EL PLAYON - SANTANDER                                              3
 ACTION:UPD 17-11-07 19:31 OP:rebc STATUS:               ID:20171014021633 L   I
 OLDACT:DUP 17-10-14 13:01 OP:osc  STATUS:               ID:20171014020604d    3
 OLDACT:REG 17-10-14 11:01 OP:osc  STATUS:               ID:20171014020603     3
 2017-10-14-0208-00M.COL___432                                                 6
 STAT SP IPHASW D HRMM SECON CODA AMPLIT PERI AZIMU VELO AIN AR TRES W  DIS CAZ7
 BRR  HZ EP        216 53.89                             153    0.0510 66.4 243 
 BRR  HN ES        217  9.43                             153   -0.0210 66.4 243 
 BAR2 EZ EP        216 55.78                             146    0.2810 87.4 180 
 BAR2 EZ ES        217 12.31                             146   -0.0910 87.4 180 
 BAR2 EZ I         217 13.37        19.6 0.14            146           87.4 180 
 RUS  HZ EP        217  2.38                             127   -0.07 9  165 176 
 RUS  HN ES        217 24.68                             127   -0.10 9  165 176 
 RUS  HZ I         217 25.99         2.8 0.38            127            165 176 
 PTB  HZ EP        217  2.40                             126    0.18 9  169 237 
 PTB  HE ES        217 24.40                             126    0.03 9  169 237 
 ZAR  HZ EP        217  3.48                             123   -0.40 9  186 274 
 ZAR  HN ES        217 27.42                             123    0.10 9  186 274 
 ZAR  HZ I         217 30.54         3.2 0.09            123            186 274 
                                                                                
