 2011 1114 0929  4.2 L   6.786 -73.132140.6  RSN  4 0.2 1.2LRSN                1
 GAP=238        0.46       8.4     8.9  5.0  0.6498E+02  0.7257E+01  0.2428E+01E
 Epicentro: LOS SANTOS - SANTANDER                                             3
 ACTION:UPD 12-07-13 16:10 OP:ep   STATUS:               ID:20111114092904 L   I
 2011-11-14-0925-58S.COL___179                                                 6
 STAT SP IPHASW D HRMM SECON CODA AMPLIT PERI AZIMU VELO AIN AR TRES W  DIS CAZ7
 BAR2 SZ EP   2    929 23.02                             171   -0.14 5 22.2 195 
 BAR2 SZ ES   1    929 37.63                             171   -0.34 7 22.2 195 
 BAR2 SZ I         929 38.28         4.2 0.58                          22.2 195 
 BRR  HZ EP   1    929 25.09                             151    0.21 7 73.2 299 
 BRR  HZ I         929 25.57         7.0 0.38                          73.2 299 
 BRR  HN ES   1    929 41.32                             151    0.28 7 73.2 299 
 RUS  HZ EP   1    929 27.40                             143    0.10 7 99.0 177 
 RUS  HN ES   2    929 45.53                             143    0.19 5 99.0 177 
 RUS  HZ I         929 46.56         1.3 0.40                          99.0 177 
 ZAR  HZ EP   1    929 36.27                             121   -0.22 6  206 292 
 ZAR  HE ES   1    930  1.55                             121   -0.15 6  206 292 
 ZAR  HZ I         930  7.56         1.4 0.21                           206 292 
                                                                                
