 2010 1214 0542 37.1 L   6.780 -72.997148.6  RSN  7 0.4 2.1LRSN                1
 GAP=176        0.80       4.3     8.6 10.7 -0.1825E+02  0.4200E+02 -0.1194E+02E
 Epicentro: CEPITA - SANTANDER                                                 3
 ACTION:UP  11-01-14 15:24 OP:pat  STATUS:               ID:20101214054237 L   I
 2010-12-14-0540-55S.COL___137                                                 6
 STAT SP IPHASW D HRMM SECON CODA AMPLIT PERI AZIMU VELO SNR AR TRES W  DIS CAZ7
 RUS  HZ EP   1    543  0.95                             145     0.0 8   99 186 
 RUS  HE ES   1    543 19.64                             145     0.0 8   99 186 
 RUS  HZ I         543 20.93        15.5 0.43                            99 186 
 GRA  SZ IP        543  2.82                             138     0.410  124  10 
 GRA  SZ I         543 25.46        13.0 0.88                           124  10 
 OCA  SZ EP   1    543  5.42                             129    -0.7 7  165 348 
 OCA  SZ ES   2    543 28.61                             129    -0.1 5  165 348 
 OCA  SZ I         543 33.54        23.7 0.25                           165 348 
 CHI  HZ EP   1    543 15.15                             117    -0.1 6  251 199 
 CHI  HE ES   2    543 44.15                             117    -0.9 4  251 199 
 CHI  HZ I         543 50.41         5.4 0.50                           251 199 
 HEL  HZ EP   1    543 19.21                             114     0.0 6  288 257 
 HEL  HN ES   2    543 51.43                             114    -0.5 4  288 257 
 HEL  HZ I         543 55.97         5.0 0.43                           288 257 
 RREF HZ EP   1    543 25.21                             111     0.6 5  333 232 
 RREF HN ES   1    544  2.24                             111     0.5 5  333 232 
 RREF HZ I         544  5.84         7.1 0.34                           333 232 
 PRA  HZ EP   1    543 30.77                             107    -0.7 4  398 212 
 PRA  HE ES   1    544 14.26                             107     0.4 4  398 212 
                                                                                
