 2013  114 0925 31.9 L   6.719 -73.151135.9  RSN  4 0.3 1.0LRSN                1
 GAP=231        0.59       6.8     6.1  6.9  0.2315E+02  0.9548E+01  0.9818E+01E
 Epicentro: VILLANUEVA - SANTANDER                                             3
 ACTION:UPD 13-02-15 09:14 OP:ep   STATUS:               ID:20130114092531 L   I
 2013-01-14-0920-00M.COL___241                                                 6
 STAT SP IPHASW D HRMM SECON CODA AMPLIT PERI AZIMU VELO AIN AR TRES W  DIS CAZ7
 BAR2 SZ EP   1    925 49.86                             174   -0.28 7 14.4 194 
 BAR2 SZ ES   1    926  4.03                             174   -0.38 7 14.4 194 
 BAR2 SZ I         926  7.79         3.9 0.21            171           14.4 194 
 BRR  HN ES   1    926  8.50                             149    0.43 7 75.4 305 
 RUS  HZ EP   1    925 54.20                             144    0.20 7 91.7 175 
 RUS  HN ES   1    926 11.50                             144    0.24 7 91.7 175 
 RUS  HZ I         926 13.25         1.4 0.38            146           91.7 175 
 PTB  HZ EP   1    925 57.80                             130   -0.04 7  146 262 
 PTB  HN ES   1    926 17.91                             130   -0.20 7  146 262 
 PTB  HZ I         926 20.81         1.2 0.19            132            146 262 
                                                                                
