 2017  914 0852 35.4 L   6.720 -73.139136.5  RSN  6 0.4 1.1LRSN                1
 GAP=141        0.95       3.8     4.6  6.4 -0.3667E+00  0.8544E+01  0.2541E-01E
 Epicentro: JORDAN - SANTANDER                                                 3
 ACTION:UPD 17-10-05 19:12 OP:rebc STATUS:               ID:20170914085235 L   I
 OLDACT:REG 17-09-14 11:43 OP:dhb  STATUS:               ID:20170914084743     3
 2017-09-14-0848-00M.COL___410                                                 6
 STAT SP IPHASW D HRMM SECON CODA AMPLIT PERI AZIMU VELO AIN AR TRES W  DIS CAZ7
 BAR2 EZ EP        852 53.68                             173   -0.1210 14.9 199 
 BAR2 EZ ES        853  7.85                             173   -0.2810 14.9 199 
 BAR2 EZ I         853 12.49         1.9 0.33            173           14.9 199 
 BRR  HZ EP        852 55.72                             149   -0.1910 76.4 304 
 BRR  HN ES        853 12.51                             149    0.6310 76.4 304 
 BRR  HZ I         853 13.11         3.3 0.20            149           76.4 304 
 PAM  EZ EP        852 57.04                             147   -0.0610 84.0  35 
 PAM  EN ES        853 13.76                             147   -0.2410 84.0  35 
 PAM  EZ I         853 16.63         2.0 0.40            150           84.0  35 
 RUS  HZ EP        852 58.09                             144    0.4610 91.7 176 
 RUS  HN ES        853 15.15                             144    0.2010 91.7 176 
 SPBC HZ EP        853  3.04                             128    0.42 9  157 221 
 SPBC HN ES        853 23.16                             128   -0.67 9  157 221 
 SPBC HZ I         853 26.69         2.0 0.15            130            157 221 
 ZAR  HZ EP        853  7.36                             120   -0.37 8  208 294 
 ZAR  HE ES        853 33.01                             120    0.09 8  208 294 
 ZAR  HZ I         853 37.58         2.1 0.44            122            208 294 
                                                                                
