 2015  714 0954 27.5 L   6.822 -73.110146.5  RSN 10 0.5 1.9LRSN                1
 GAP=140        1.07       3.5     5.8  7.8 -0.3464E+00  0.2119E+02 -0.1348E+01E
 Epicentro: LOS SANTOS - SANTANDER                                             3
 ACTION:UPD 15-09-08 21:48 OP:cam  STATUS:               ID:20150714095427 L   I
 OLDACT:DUP 15-07-14 17:11 OP:spq  STATUS:               ID:20150714094749d    3
 2015-07-14-0947-48M.COL___337                                                 6
 STAT SP IPHASW D HRMM SECON CODA AMPLIT PERI AZIMU VELO AIN AR TRES W  DIS CAZ7
 BAR2 EZ IP     C  954 47.27                             169    0.0210 26.6 198 
 BAR2 EZ ES   1    955  2.58                             169   -0.11 7 26.6 198 
 BAR2 EZ I         955  9.03         5.4 0.24            167           26.6 198 
 PAM  EZ EP     D  954 50.32                             152    0.8210 73.0  38 
 PAM  EN ES        955  7.18                             152    0.4910 73.0  38 
 PAM  EZ I         955  9.23        22.1 0.44            157           73.0  38 
 RUS  HZ EP        954 51.27                             143   -0.1710  103 178 
 RUS  HN ES        955  9.66                             143   -0.4910  103 178 
 RUS  HZ I         955 10.27         8.4 0.48            148            103 178 
 OCA  HZ EP        954 55.49                             130   -0.16 9  158 352 
 OCA  HN ES        955 17.06                             130   -0.58 9  158 352 
 OCA  HZ I         955 20.65        22.6 0.30            132            158 352 
 ZAR  HZ EP        955  0.48                             122    0.24 8  207 291 
 ZAR  HN ES        955 26.20                             122    0.39 8  207 291 
 ZAR  HZ I         955 31.52        14.2 0.60            123            207 291 
 SML  HZ EP        955  3.48                             118   -0.59 8  243 334 
 SML  HN ES   1    955 31.89                             118   -0.74 6  243 334 
 SML  HZ I         955 40.56        13.2 0.24            120            243 334 
 HEL  HZ EP   4    955  7.16                             114   -1.04 0  277 256 
 HEL  HN ES   1    955 40.57                             114    0.59 6  277 256 
 HEL  HZ I         955 46.04         3.9 0.46            116            277 256 
 GUY2CHZ EP   4    955 12.76                             112    1.14 0  306 235 
 GUY2CHE ES   4    955 48.45                             112    2.38 0  306 235 
 GUY2CHZ I         955 54.73         2.1 0.58                           306 235 
 PRA  HZ EP        955 21.99                             106    0.51 6  396 210 
 PRA  HN ES        956  3.13                             106   -0.49 6  396 210 
 PRA  HZ I         956 10.56         2.4 0.38            109            396 210 
 SJC  HZ EP   4    955 21.76                             106   -1.30 0  409 326 
 SJC  HN ES   4    956  3.76                             106   -2.67 0  409 326 
 SJC  HZ I         956 13.68         1.4 0.42            108            409 326 
                                                                                
