 2016 1114 0500 15.2 L   6.771 -73.152142.0  RSN 17 0.5 2.1LRSN                1
 GAP=151        1.26       5.3     5.1  7.2 -0.3746E+01  0.5062E+01  0.1510E+02E
 Epicentro: LOS SANTOS - SANTANDER                                             3
 ACTION:UPD 17-10-26 21:07 OP:lp   STATUS:               ID:20161114050015 L   I
 OLDACT:REG 16-11-14 12:57 OP:lv   STATUS:               ID:20161114045646     3
 2016-11-14-0457-00M.COL___338                                                 6
 STAT SP IPHASW D HRMM SECON CODA AMPLIT PERI AZIMU VELO AIN AR TRES W  DIS CAZ7
 BAR2 EZ IP     C  5 0 34.33                             171   -0.0210 20.1 190 
 BAR2 EZ ES        5 0 48.75                             171   -0.5110 20.1 190 
 BAR2 EZ I         5 0 50.65        32.2 0.14            166           20.1 190 
 BRR  HZ EP        5 0 36.32                             152    0.2810 72.2 301 
 BRR  HN ES        5 0 53.16                             152    0.8910 72.2 301 
 BRR  HZ I         5 0 55.45        22.7 0.16            147           72.2 301 
 PAM  EZ EP        5 0 37.17                             150   -0.0610 80.3  38 
 PAM  EN ES        5 0 54.48                             150    0.0910 80.3  38 
 PAM  EZ I         5 0 55.11        10.4 0.32            154           80.3  38 
 PTB  HZ EP        5 0 41.02                             132   -0.77 9  147 260 
 PTB  HN IS        5 1  2.11                             132   -0.39 9  147 260 
 PTB  HZ I         5 1  8.10        14.3 0.14            127            147 260 
 ZAR  HZ EP        5 0 47.23                             122   -0.28 9  205 293 
 ZAR  HN ES        5 1 12.59                             122   -0.08 9  205 293 
 ZAR  HZ I         5 1 18.57        14.8 0.19            119            205 293 
 NOR  HZ EP        5 0 50.55                             118    0.05 8  232 235 
 NOR  HN ES        5 1 17.72                             118   -0.28 8  232 235 
 NOR  HZ I         5 1 23.28        10.4 0.15            115            232 235 
 CHI  HZ EP        5 0 52.48                             117    0.10 8  245 195 
 CHI  HN ES        5 1 22.15                             117    0.81 8  245 195 
 ROSC BZ EP   4    5 0 54.27                             116    1.45 0  250 211 
 ROSC BN ES   4    5 1 25.61                             116    3.48 0  250 211 
 ROSC BZ I         5 1 31.96        13.7 0.35            114            250 211 
 URE  HZ EP   9    5 0 54.59                             113   -1.61 0  284 293 
 URE  HN ES        5 1 26.44                                   -0.10 7  284 293 
 URE  HZ I         5 1 33.05         9.3 0.14            111            284 293 
 PTGC HZ EP   4    5 0 57.16                             111   -1.46 0  306 158 
 PTGC HN ES   4    5 1 30.63                             111   -1.82 0  306 158 
 PTGC HZ I         5 1 31.45         4.8 0.45            110            306 158 
 ELA  HZ EP   9    5 1  4.01                             110    2.37 0  327 230 
 ELA  HE ES        5 1 41.56                                    1.36 7  327 230 
 ELA  HZ I         5 1 45.95         5.8 0.38            108            327 230 
 LL6C HZ EP   9    5 0 40.66                             110   -20.5 0  328 358 
 LL6C HN ES        5 1 17.71                                    1.24 7  328 358 
 CBOC HZ EP   4    5 1  2.83                             110    1.01 0  332 253 
 CBOC HZ I         5 1 25.71         6.8 0.18            107            332 253 
 CBOC HE ES   4    5 1 30.83                             110   -7.32 0  332 253 
 PRA  HZ EP        5 1  7.79                             106   -0.48 6  389 210 
 PRA  HE ES   4    5 1 49.50                             106   -0.13 0  389 210 
 PRA  HZ I         5 1 56.55         5.8 0.28            105            389 210 
 ORTC HZ EP        5 1  9.58                             106    0.90 6  392 216 
 ORTC HE ES   4    5 1 53.94                             106    3.57 0  392 216 
 ORTC HZ I         5 1 57.22         4.0 0.26            104            392 216 
 PAL  HZ EP        5 1 10.13                             106    0.11 6  403 239 
 PAL  HE ES   4    5 1 46.58                             106   -6.17 0  403 239 
 SJC  HZ EP   4    5 1  8.90                             105   -2.05 0  412 327 
 SJC  HE ES   4    5 1 49.81                             105   -4.60 0  412 327 
 SJC  HZ I         5 1 53.36         1.5 0.18            104            412 327 
                                                                                
