 2013 1214 0448 21.3 L   6.730 -73.202139.5  RSN  5 0.2 1.3LRSN                1
 GAP=225        0.46       3.5     3.3  3.7  0.6084E+01  0.1920E+01  0.6924E+00E
 Epicentro: VILLANUEVA - SANTANDER                                             3
 ACTION:UPD 14-01-13 10:18 OP:ep   STATUS:               ID:20131214044821 L   I
 OLDACT:DUP 13-12-14 09:08 OP:jn   STATUS:               ID:20131214044001d    3
 OLDACT:REG 13-12-14 07:29 OP:jn   STATUS:               ID:20131214044000     3
 2013-12-14-0440-00M.COL___285                                                 6
 STAT SP IPHASW D HRMM SECON CODA AMPLIT PERI AZIMU VELO AIN AR TRES W  DIS CAZ7
 BAR2 SZ EP        448 39.92                             173   -0.1010 15.4 172 
 BAR2 SZ ES        448 54.57                             173   -0.0610 15.4 172 
 BAR2 SZ I         448 56.18         6.2 0.24            167           15.4 172 
 BRR  HZ EP        448 41.66                             152   -0.0310 70.1 307 
 BRR  HN ES        448 57.73                             152    0.1110 70.1 307 
 BRR  HZ I         448 59.07         4.2 0.50            150           70.1 307 
 RUS  HZ EP        448 44.23                             145    0.3310 93.5 172 
 RUS  HN ES        449  1.43                             145   -0.1210 93.5 172 
 RUS  HZ I         449  3.81         1.5 0.34            143           93.5 172 
 PTB  HZ EP        448 46.84                             132   -0.22 9  140 261 
 PTB  HN ES        449  7.27                             132    0.10 9  140 261 
 PTB  HZ I         449 13.36         3.2 0.26            130            140 261 
 ZAR  HN ES   2    449 17.72                             121   -0.12 4  201 295 
                                                                                
