 2011  914 0857 12.0 L   6.538 -73.444120.0  RSN  4 0.2 1.2LRSN                1
 GAP=153        0.34       6.3     7.5  6.7  0.3903E+02  0.3220E+02  0.2120E+02E
 Epicentro: SIMACOTA - SANTANDER                                               3
 ACTION:UP  12-07-13 15:57 OP:ep   STATUS:               ID:20110914085711 L   I
 OLDACT:UP  12-07-12 21:28 OP:ep   STATUS:               ID:20110914085711 L   3
 OLDACT:UPD 12-07-12 20:31 OP:ep   STATUS:               ID:20110914085711 L   3
 2011-09-14-0851-51S.COL___169                                                 6
 STAT SP IPHASW D HRMM SECON CODA AMPLIT PERI AZIMU VELO AIN AR TRES W  DIS CAZ7
 BAR2 SZ EP   2    857 28.59                             165   -0.14 5 29.5  78 
 BAR2 SZ I         857 36.22         6.2 0.70                          29.5  78 
 BAR2 SZ ES   1    857 41.80                             165    0.04 7 29.5  78 
 BRR  HZ EP   2    857 30.16                             148   -0.18 5 69.6 335 
 BRR  HE ES   2    857 44.72                             148    0.09 5 69.6 335 
 BRR  HZ I         857 46.61         4.2 0.47                          69.6 335 
 RUS  HZ EP   2    857 32.18                             144    0.31 5 81.8 151 
 RUS  HN ES   2    857 47.19                             144   -0.17 5 81.8 151 
 RUS  HZ I         857 49.04         3.0 0.26                          81.8 151 
 ZAR  HZ I         857 41.28         1.1 0.70                           189 304 
 ZAR  HN ES   2    858  4.04                             118    0.00 4  189 304 
                                                                                
