 2017  514 0353 39.8 L   6.765 -73.151149.8  RSN  6 0.3 1.2LRSN                1
 GAP=137        0.85       3.7     3.8  7.3 -0.4150E+00  0.5243E+01  0.4973E+01E
 Epicentro: LOS SANTOS - SANTANDER                                             3
 ACTION:UPD 17-06-16 13:36 OP:jn   STATUS:               ID:20170514035339 L   I
 OLDACT:REG 17-05-14 12:57 OP:lv   STATUS:               ID:20170514034742     3
 2017-05-14-0348-00M.COL___359                                                 6
 STAT SP IPHASW D HRMM SECON CODA AMPLIT PERI AZIMU VELO AIN AR TRES W  DIS CAZ7
 BRR  HZ EP        354  1.57                             153    0.1110 72.7 301 
 BRR  HN ES        354 18.92                             153    0.5610 72.7 301 
 PAM  EZ EP        354  2.66                             150    0.0210 80.7  38 
 PAM  EN ES        354 20.33                             150   -0.1310 80.7  38 
 PAM  EZ I         354 22.52         2.3 0.11            154           80.7  38 
 RUS  HZ EP        354  3.90                             146    0.2210 96.8 176 
 RUS  HN ES        354 21.98                             146   -0.3310 96.8 176 
 RUS  HZ I         354 23.79         1.8 0.23            145           96.8 176 
 PTB  HZ EP        354  6.63                             133   -0.36 9  147 260 
 PTB  HN ES        354 27.72                             133   -0.47 9  147 260 
 PTB  HZ I         354 32.74         1.9 0.28            133            147 260 
 ZAR  HN ES        354 38.15                             123   -0.05 9  205 293 
 ROSC BZ EP   4    354 20.25                             118    2.50 0  249 211 
 ROSC BN ES        354 47.87                             118    0.51 8  249 211 
 ROSC BZ I         354 54.36         2.5 0.60            118            249 211 
                                                                                
