 2011 1114 0624 20.7 L   6.805 -73.062152.7  RSN  4 0.2 1.1LRSN                1
 GAP=147        0.40       4.7     5.9  6.7  0.8274E+01 -0.2128E+01  0.1094E+02E
 Epicentro: LOS SANTOS - SANTANDER                                             3
 ACTION:UPD 12-07-13 16:10 OP:ep   STATUS:               ID:20111114062420 L   I
 2011-11-14-0621-08S.COL___186                                                 6
 STAT SP IPHASW D HRMM SECON CODA AMPLIT PERI AZIMU VELO AIN AR TRES W  DIS CAZ7
 BAR2 SZ EP   1    624 40.92                             169   -0.29 7 27.0 209 
 PAM  SN ES   2    625  1.03                             154    0.09 5 71.4  34 
 BRR  HZ EP   1    624 43.07                             151    0.04 7 79.2 295 
 BRR  HZ I         624 43.30         3.8 0.17                          79.2 295 
 BRR  HN ES   1    625  0.49                             151    0.03 7 79.2 295 
 RUS  HZ EP   1    624 45.34                             145    0.20 7  101 181 
 RUS  HN ES   2    625  4.18                             145   -0.04 5  101 181 
 RUS  HZ I         625  5.50         1.1 0.27                           101 181 
                                                                                
