 2012  614 0750 15.6 L   6.800 -73.172151.7  RSN  5 0.4 1.3LRSN                1
 GAP=133        0.74       6.0     5.4  8.8 -0.6476E+01  0.1521E+02 -0.9031E+01E
 Epicentro: LOS SANTOS - SANTANDER                                             3
 ACTION:UPD 12-08-06 17:49 OP:ep   STATUS:               ID:20120614075015 L   I
 2012-06-14-0750-00M.COL___201                                                 6
 STAT SP IPHASW D HRMM SECON CODA AMPLIT PERI AZIMU VELO AIN AR TRES W  DIS CAZ7
 BAR2 SZ EP   1    750 36.04                             171    0.11 7 23.1 183 
 BAR2 SZ ES   1    750 51.75                             171   -0.04 7 23.1 183 
 BAR2 SZ I         750 53.64         4.6 0.24                          23.1 183 
 PAM  SZ EP   1    750 39.05                             151    0.50 7 79.2  41 
 PAM  SN ES   1    750 56.20                             151   -0.25 7 79.2  41 
 RUS  HZ EP   2    750 40.06                             145    0.11 5  101 174 
 RUS  HN ES   1    750 58.74                             145   -0.21 7  101 174 
 RUS  HZ I         751  0.36         2.3 0.22                           101 174 
 PTB  HZ EP   1    750 42.15                             134   -0.65 7  145 259 
 PTB  HN ES   1    751  4.66                             134    0.64 7  145 259 
 PTB  HZ I         751 11.33         2.6 0.44                           145 259 
 ZAR  HN ES   2    751 13.10                             124   -0.46 4  201 292 
                                                                                
