 2014  814 0856 37.4 L   6.745 -73.210150.3  RSN  4 0.4 1.5LRSN                1
 GAP=224        1.13       9.1     8.5  9.1  0.3709E+02  0.7762E+01  0.2803E+01E
 Epicentro: VILLANUEVA - SANTANDER                                             3
 ACTION:UPD 14-09-15 21:49 OP:nd   STATUS:               ID:20140814085637 L   I
 OLDACT:UP  14-08-14 16:46 OP:cam  STATUS:               ID:20140814085002d    3
 OLDACT:DUP 14-08-14 16:37 OP:cam  STATUS:               ID:20140814085002d    3
 2014-08-14-0850-00M.COL___285                                                 6
 STAT SP IPHASW D HRMM SECON CODA AMPLIT PERI AZIMU VELO AIN AR TRES W  DIS CAZ7
 BAR2 SZ EP        856 57.05                             173   -0.3810 17.2 170 
 BAR2 SZ ES        857 12.38                             173   -0.7010 17.2 170 
 BAR2 SZ I         857 13.27        13.8 0.28            174           17.2 170 
 BRR  HZ EP        856 58.98                             154    0.1310 68.4 306 
 BRR  HN ES        857 16.24                             154    0.6310 68.4 306 
 BRR  HZ I         857 19.89         5.2 0.36            154           68.4 306 
 RUS  HZ EP        857  1.59                             146    0.4010 95.3 172 
 RUS  HN ES        857 20.14                             146    0.3610 95.3 172 
 RUS  HZ I         857 21.57         4.1 0.40            149           95.3 172 
 PTB  HZ EP        857  3.63                             135   -0.35 9  140 261 
 PTB  HN ES        857 24.60                             135   -0.15 9  140 261 
 PTB  HZ I         857 26.76         2.6 0.24            136            140 261 
                                                                                
