 2011  314 0610 32.7 L   6.806 -73.176143.2  RSN  9 0.3 1.8LRSN                1
 GAP=180        0.50       2.3     3.9  4.5 -0.1211E+01  0.8829E+01 -0.4048E+00E
 Epicentro: LOS SANTOS - SANTANDER                                             3
 ACTION:UP  11-06-16 14:33 OP:jfem STATUS:               ID:20110314061032 L   I
 2011-03-14-0608-12S.COL___135                                                 6
 STAT SP IPHASW D HRMM SECON CODA AMPLIT PERI AZIMU VELO SNR AR TRES W  DIS CAZ7
 BAR2 SZ EP   1    610 52.11                             170     0.111   24 182 
 BAR2 SZ ES   1    611  7.11                             170     0.111   24 182 
 BAR2 SZ I         611  9.95        20.2 0.32                            24 182 
 RUS  HZ EP   1    610 56.11                             143    -0.111  102 174 
 RUS  HN ES   1    611 14.83                             143     0.211  102 174 
 RUS  HZ I         611 17.06         7.9 0.30                           102 174 
 OCA  SZ EP   1    611  0.59                             129    -0.110  159 354 
 OCA  SZ ES   1    611 22.42                             129    -0.110  159 354 
 OCA  SZ I         611 26.98        10.9 0.25                           159 354 
 NOR  SZ EP   1    611  7.84                             118    -0.2 9  233 234 
 NOR  SE ES   1    611 35.36                             118    -0.2 9  233 234 
 NOR  SZ I         611 42.40         1.5 0.18                           233 234 
 CHI  HZ EP   1    611 10.11                             117    -0.1 9  248 194 
 CHI  HN ES   1    611 39.41                             117     0.0 9  248 194 
 CHI  HZ I         611 42.74         5.0 0.42                           248 194 
 HEL  HZ EP   1    611 12.71                             115     0.3 9  269 255 
 HEL  HN ES   1    611 42.97                             115    -0.4 9  269 255 
 HEL  HZ I         611 52.32         6.9 0.37                           269 255 
 GUY  SZ EP   3    611 16.32                             112     0.4 3  299 234 
 GUY  SN ES   3    611 51.32                             112     1.7 3  299 234 
 DBB  SZ EP        611 19.85                             109     0.210  336 274 
 PRA  HZ EP        611 26.12                             106     0.2 9  391 209 
 PRA  HN ES   2    612  6.61                             106    -0.9 4  391 209 
                                                                                
