 2015  614 0959 34.3 L   6.159 -73.647114.4  RSN  8 0.4 1.8LRSN                1
 GAP=105        0.99       3.5     4.5  6.9 -0.6238E+00  0.8447E+01 -0.1139E+02E
 Epicentro: LA PAZ - SANTANDER                                                 3
 ACTION:UPD 15-09-10 22:12 OP:cam  STATUS:               ID:20150614095934 L   I
 OLDACT:ARG 15-06-14 13:15 OP:stll STATUS:               ID:20150614095636     3
 2015-06-14-0956-36M.COL___312                                                 6
 STAT SP IPHASW D HRMM SECON CODA AMPLIT PERI AZIMU VELO AIN AR TRES W  DIS CAZ7
 RUS  HZ EP        959 53.01                             147    0.3410 69.0 115 
 RUS  HE ES       10 0  6.32                             147   -0.7110 69.0 115 
 RUS  HZ I        10 0  7.99         8.3 0.36            152           69.0 115 
 BAR2 EZ IP     C  959 52.76                             146    0.3710 70.3  47 
 BAR2 EZ ES       10 0  6.46                             146   -0.0810 70.3  47 
 BAR2 EZ I        10 0  8.01        28.9 0.32            148           70.3  47 
 SPBC HZ EP        959 52.58                             145    0.2010 73.2 220 
 SPBC HE ES       10 0  6.70                             145    0.1710 73.2 220 
 SPBC HZ I        10 0 10.26        10.5 0.26            147           73.2 220 
 BRR  HZ IP     C  959 54.86                             134    0.0710  105 356 
 BRR  HZ I         959 55.17        17.1 0.14            134            105 356 
 BRR  HE ES       10 0 10.78                             134   -0.0310  105 356 
 PAM  SZ EP   1   10 0  1.89                             120    0.37 7  167  39 
 ZAR  HZ EP       10 0  4.28                             115   -0.06 9  199 318 
 ZAR  HN ES       10 0 27.51                             115   -0.29 9  199 318 
 ZAR  HZ I        10 0 29.45        11.3 0.42            116            199 318 
 OCA  HZ EP       10 0  7.64                             111   -0.66 8  233   9 
 OCA  HN ES       10 0 35.71                             111    0.86 8  233   9 
 SML  HZ EP       10 0 14.71                             106   -0.69 7  296 351 
 SML  HN ES       10 0 47.44                             106   -0.06 7  296 351 
 SML  HZ I        10 1  0.81         4.5 0.10            107            296 351 
                                                                                
