 2013 1014 0703 54.0 L   6.857 -73.178140.3  RSN  5 0.4 1.7LRSN                1
 GAP=187        0.66       3.1     6.8  7.0 -0.9077E+01  0.1272E+02 -0.3373E+01E
 Epicentro: ZAPATOCA - SANTANDER                                               3
 ACTION:UPD 13-11-25 09:21 OP:ep   STATUS:               ID:20131014070354 L   I
 OLDACT:UP  13-10-14 11:17 OP:mh   STATUS:               ID:20131014065959     3
 OLDACT:REG 13-10-14 08:08 OP:mh   STATUS:               ID:20131014065959     3
 2013-10-14-0659-59M.COL___273                                                 6
 STAT SP IPHASW D HRMM SECON CODA AMPLIT PERI AZIMU VELO AIN AR TRES W  DIS CAZ7
 BAR2 SZ EP   1    7 4 13.46                             167    0.32 8 29.2 181 
 BAR2 SZ ES   1    7 4 27.72                             167   -0.32 8 29.2 181 
 BAR2 SZ I         7 4 29.02        16.5 0.30            167           29.2 181 
 PTB  HZ EP   1    7 4 20.04                             131   -0.32 8  146 256 
 PTB  HN ES   1    7 4 40.78                             131   -0.11 8  146 256 
 PTB  HZ I         7 4 43.87         6.4 0.11            130            146 256 
 OCA  HN ES        7 4 42.61                             130    0.0610  154 354 
 OCA  HZ I         7 4 46.33         4.0 0.20            130            154 354 
 SPBC HZ EP        7 4 22.55                             127    0.1710  166 217 
 SPBC HN ES        7 4 44.66                             127    0.1710  166 217 
 SPBC HZ I         7 4 51.67         4.3 0.27            128            166 217 
 SML  HZ EP   1    7 4 28.88                             117   -0.69 7  237 335 
 SML  HN ES   2    7 4 58.11                             117    0.82 4  237 335 
 SML  HZ I         7 5  1.36         5.5 0.07            118            237 335 
                                                                                
