 2012  514 0822 55.3 L   7.434 -73.144140.2  RSN  5 0.4 1.5LRSN                1
 GAP=266        0.87      14.1     8.8 11.0  0.7504E+02 -0.2648E+02 -0.4809E+02E
 Epicentro: EL PLAYON - SANTANDER                                              3
 ACTION:UP  12-07-05 12:05 OP:pat  STATUS:               ID:20120514082255 L   I
 2012-05-14-0820-00M.COL___195                                                 6
 STAT SP IPHASW D HRMM SECON CODA AMPLIT PERI AZIMU VELO SNR AR TRES W  DIS CAZ7
 BRR  HZ EP   1    823 16.27                             151     0.3 7   72 240 
 BRR  HE ES   1    823 32.31                             151     0.3 7   72 240 
 BRR  HZ I         823 33.71         7.2 0.12                            72 240 
 BAR2 SZ EP   1    823 17.80                             145     0.2 7   93 183 
 BAR2 SZ ES   1    823 34.69                             145    -0.4 7   93 183 
 BAR2 SZ I         823 35.88         7.1 0.28                            93 183 
 RUS  HZ EP   1    823 24.25                             127    -0.4 7  171 178 
 PTB  HZ EP   1    823 24.81                             125     0.3 7  176 236 
 PTB  HN ES   1    823 47.60                             125     0.3 7  176 236 
 PTB  HZ I         823 50.02         2.6 0.16                           176 236 
 ZAR  HN ES   1    823 49.04                             123    -0.7 7  189 272 
 ZAR  HZ I         823 55.09         4.1 0.29                           189 272 
                                                                                
