 2015  714 0645 14.4 L   6.810 -73.136145.2  RSN 20 0.4 2.3LRSN                1
 GAP=137        0.90       2.4     4.0  5.3 -0.1298E+01  0.1074E+02  0.1542E+01E
 Epicentro: LOS SANTOS - SANTANDER                                             3
 ACTION:UPD 15-09-08 21:48 OP:cam  STATUS:               ID:20150714064514 L   I
 OLDACT:REG 15-07-14 14:15 OP:spq  STATUS:               ID:20150714063747     3
 2015-07-14-0637-47M.COL___337                                                 6
 STAT SP IPHASW D HRMM SECON CODA AMPLIT PERI AZIMU VELO AIN AR TRES W  DIS CAZ7
 BAR2 EZ EP     D  645 33.77                             170   -0.2010 24.6 192 
 BAR2 EZ ES   1    645 49.01                             170   -0.24 7 24.6 192 
 BAR2 EZ I         645 52.91        26.5 0.24            166           24.6 192 
 PAM  EZ EP        645 36.61                             151    0.1710 75.8  39 
 PAM  EN ES        645 53.87                             151    0.2210 75.8  39 
 PAM  EZ I         645 55.88        27.3 0.56            159           75.8  39 
 RUS  HZ EP     D  645 37.61                             143   -0.5410  102 177 
 RUS  HE ES        645 56.66                             143   -0.0310  102 177 
 OCA  HZ EP        645 42.22                             130   -0.33 9  159 353 
 OCA  HE ES        646  5.14                             130    0.61 9  159 353 
 OCA  HZ I         646  9.56        42.2 0.44            134            159 353 
 ZAR  HZ EP        645 46.40                             122   -0.45 9  205 292 
 ZAR  HN ES        646 12.35                             122    0.18 9  205 292 
 ZAR  HZ I         646 18.17        15.9 0.26            124            205 292 
 NOR  HZ EP        645 50.05                             118   -0.19 8  236 234 
 NOR  HN ES        646 17.75                             118   -0.46 8  236 234 
 NOR  HZ I         646 23.20        16.0 0.32            120            236 234 
 SML  HZ EP        645 50.33                             117   -0.58 8  243 335 
 SML  HE ES   1    646 18.96                             117   -0.45 6  243 335 
 SML  HZ I         646 20.88        17.8 0.09            121            243 335 
 CHI  HZ EP        645 51.93                             117   -0.26 8  250 195 
 CHI  HE ES   1    646 22.24                             117    0.55 6  250 195 
 ROSC BZ EP        645 53.47                             116    0.84 8  254 211 
 ROSC BN ES   1    646 22.95                             116    0.48 6  254 211 
 ROSC BZ I         646 31.53        15.5 0.40            119            254 211 
 HEL  HZ EP        645 55.26                             114    0.55 8  273 256 
 HEL  HN ES   1    646 26.46                             114    0.29 6  273 256 
 HEL  HZ I         646 33.15        10.6 0.30            116            273 256 
 GUY2CHZ EP        645 58.36                             112    0.23 7  303 235 
 GUY2CHN ES   4    646 33.74                             112    1.48 0  303 235 
 GUY2CHZ I         646 41.08        10.0 0.30                           303 235 
 PTGC HZ EP   4    645 56.72                             111   -1.56 0  309 159 
 PTGC HN ES   4    646 30.10                             111   -2.43 0  309 159 
 PTGC HZ I         646 36.94         8.0 0.30            115            309 159 
 CBOC HZ EP        646  1.49                             110    0.07 7  335 252 
 CBOC HN ES   1    646 37.42                             110   -0.71 5  335 252 
 CBOC HZ I         646 46.01         2.7 0.32            112            335 252 
 TOL  SZ EP        646  3.54                             109    0.75 7  345 225 
 TOL  SE ES   4    646 42.11                             109    1.56 0  345 225 
 TOL  SZ I         646 45.55         6.2 0.42            111            345 225 
 MON  HN ES   4    646 39.46                             108   -2.13 0  354 308 
 MON  HZ I         646 42.06         6.0 0.66            111            354 308 
 ANIL HZ EP   1    646  5.04                             108    0.70 5  359 225 
 ANIL HE ES   4    646 44.46                             108    1.15 0  359 225 
 ANIL HZ I         646 50.26        15.4 0.36            110            359 225 
 PRA  HZ EP        646  7.51                             106   -0.54 6  394 210 
 PRA  HE ES        646 49.54                             106   -0.38 6  394 210 
 PRA  HZ I         646 58.15         5.3 0.62            109            394 210 
 ORTC HZ EP   1    646  8.35                             106   -0.11 4  397 216 
 ORTC HE ES   4    646 51.57                             106    0.93 0  397 216 
 ORTC HZ I         647  0.48         3.5 0.36            108            397 216 
 PAL  HZ EP        646 10.30                             106    0.61 6  407 239 
 SJC  HZ EP   4    646  7.89                             106   -1.99 0  409 327 
 SJC  HE ES   4    646 49.83                             106   -3.34 0  409 327 
 SJC  HZ I         646 53.44         4.3 0.44            108            409 327 
                                                                                
