 2016  714 0008 16.8 L   6.766 -73.171155.5  RSN  4 0.2 1.0LRSN                1
 GAP=232        0.57       3.7     4.3  5.8  0.4831E+01 -0.2497E+01 -0.1504E+01E
 Epicentro: LOS SANTOS - SANTANDER                                             3
 ACTION:UPD 17-03-29 16:50 OP:lp   STATUS:               ID:20160714000816 L   I
 OLDACT:DUP 16-07-14 13:11 OP:dani STATUS:               ID:20160714000016d    3
 OLDACT:UP  16-07-14 13:10 OP:dani STATUS:               ID:20160714000015d    3
 OLDACT:UP  16-07-14 13:10 OP:dani STATUS:               ID:20160714000015d    3
 OLDACT:DUP 16-07-14 13:07 OP:dani STATUS:               ID:20160714000015d    3
 OLDACT:REG 16-07-14 12:15 OP:dani STATUS:               ID:20160714000014     3
 2016-07-14-0000-14S.COL___331                                                 6
 STAT SP IPHASW D HRMM SECON CODA AMPLIT PERI AZIMU VELO AIN AR TRES W  DIS CAZ7
 BRR  HZ EP        0 8 39.12                             154    0.1510 70.7 302 
 BRR  HE ES        0 8 56.37                             154    0.1010 70.7 302 
 BRR  HZ I         0 8 57.30         2.8 0.30            154           70.7 302 
 RUS  HZ EP        0 8 41.14                             147   -0.1310 97.0 174 
 RUS  HE ES        0 9  0.26                             147   -0.1010 97.0 174 
 RUS  HZ I         0 9  0.85         0.8 0.32            148           97.0 174 
 PTB  HZ EP        0 8 44.25                             135   -0.01 9  144 260 
 PTB  HN ES        0 9  5.34                             135   -0.35 9  144 260 
 PTB  HZ I         0 9  6.61         1.6 0.62            136            144 260 
 SPBC HE ES        0 9  8.46                             132    0.35 9  158 219 
                                                                                
