 2016  114 0544 46.5 L   6.775 -73.108141.4  RSN 11 0.5 1.8LRSN                1
 GAP=143        1.25       4.1     4.8  7.0 -0.4827E+01  0.1120E+02 -0.1168E+01E
 Epicentro: LOS SANTOS - SANTANDER                                             3
 ACTION:UPD 16-03-09 23:25 OP:cam  STATUS:               ID:20160114054446 L   I
 OLDACT:UP  16-01-14 18:58 OP:mher STATUS:               ID:20160114053741d    3
 OLDACT:DUP 16-01-14 18:58 OP:mher STATUS:               ID:20160114053741d    3
 OLDACT:UP  16-01-14 18:56 OP:mher STATUS:               ID:20160114053740     3
 OLDACT:UP  16-01-14 18:55 OP:mher STATUS:               ID:20160114053740     3
 OLDACT:UP  16-01-14 18:55 OP:mher STATUS:               ID:20160114053740     3
 OLDACT:REG 16-01-14 12:57 OP:mh   STATUS:               ID:20160114053740     3
 2016-01-14-0537-40M.COL___328                                                 6
 STAT SP IPHASW D HRMM SECON CODA AMPLIT PERI AZIMU VELO AIN AR TRES W  DIS CAZ7
 BAR2 EZ EP        545  5.69                             171    0.0710 21.8 202 
 BAR2 EZ ES        545 20.12                             171   -0.3710 21.8 202 
 BAR2 EZ I         545 22.79         8.1 0.13            172           21.8 202 
 BRR  HZ EP        545  7.66                             150    0.1410 76.2 299 
 BRR  HE ES        545 24.30                             150    0.4210 76.2 299 
 BRR  HZ I         545 27.78         9.3 0.10            148           76.2 299 
 PAM  EZ EP        545  8.83                             150    0.5510 77.1  36 
 PAM  EN ES        545 25.87                             150    0.6410 77.1  36 
 PAM  EZ I         545 29.56         6.2 0.66            151           77.1  36 
 RUS  HZ EP        545  9.32                             144   -0.3310 97.6 178 
 RUS  HN ES        545 27.53                             144   -0.1410 97.6 178 
 RUS  HZ I         545 28.64        10.2 0.32            149           97.6 178 
 PTB  HN ES        545 33.60                             130   -0.91 9  151 260 
 PTB  HZ I         545 37.19         6.9 0.10            132            151 260 
 SPBC HE ES        545 37.19                             128    0.42 9  164 221 
 OCA  HZ EP        545 13.96                             128   -0.88 9  164 352 
 OCA  HN ES        545 36.11                             128   -0.80 9  164 352 
 OCA  HZ I         545 43.77        15.0 0.42            129            164 352 
 ZAR  HZ EP        545 19.72                             121    0.50 8  209 292 
 ZAR  HN ES        545 45.21                             121    0.50 8  209 292 
 ZAR  HZ I         545 50.71        10.6 0.28            122            209 292 
 NOR  HZ EP        545 22.12                             117   -0.10 8  236 236 
 NOR  HN ES        545 49.56                             117   -0.48 8  236 236 
 NOR  HZ I         545 50.97         5.5 0.38            120            236 236 
 HEL  HZ EP        545 26.80                             114   -0.12 7  275 257 
 HEL  HN ES        545 58.91                             114    0.51 7  275 257 
 HEL  HZ I         546  4.62         2.8 0.26            115            275 257 
 GUY2CHZ EP        545 30.71                             111    0.55 7  303 236 
 GUY2CHN ES   4    546  5.54                             111    1.36 0  303 236 
 GUY2CHZ I         546 11.93         3.2 0.56                           303 236 
                                                                                
