 2014  114 0404 27.6 L   6.822 -73.123148.2  RSN 11 0.5 1.7LRSN                1
 GAP= 71        1.07       3.5     4.2  7.3 -0.2313E+01  0.6790E+01 -0.2611E+01E
 Epicentro: LOS SANTOS - SANTANDER                                             3
 ACTION:UPD 14-03-13 09:55 OP:ep   STATUS:               ID:20140114040427 L   I
 OLDACT:UP  14-01-14 10:42 OP:cam  STATUS:               ID:20140114040000     3
 OLDACT:REG 14-01-14 08:28 OP:cam  STATUS:               ID:20140114040000     3
 2014-01-14-0400-00M.COL___285                                                 6
 STAT SP IPHASW D HRMM SECON CODA AMPLIT PERI AZIMU VELO AIN AR TRES W  DIS CAZ7
 BRR  HZ EP        4 4 49.64                             152    0.5210 72.3 296 
 BRR  HN ES        4 5  6.30                             152    0.4310 72.3 296 
 BRR  HZ I         4 5 11.30        10.3 0.16            152           72.3 296 
 PAM  SZ EP        4 4 50.36                             152    0.4410 73.9  39 
 PAM  SN ES        4 5  7.32                             152    0.0210 73.9  39 
 PAM  SZ I         4 5  9.67         8.5 0.60            154           73.9  39 
 RUS  HZ EP        4 4 51.92                             144    0.1110  103 178 
 RUS  HN ES        4 5  9.81                             144   -0.8410  103 178 
 RUS  HZ I         4 5 11.11         4.3 0.26            148            103 178 
 PTB  HZ EP   1    4 4 54.81                             132   -0.27 7  151 258 
 PTB  HN ES        4 5 16.38                             132   -0.10 9  151 258 
 PTB  HZ I         4 5 17.97         5.6 0.14            134            151 258 
 TAM  HZ EP   2    4 4 55.85                             131    0.49 5  153 106 
 OCA  HZ EP        4 4 55.90                             130   -0.05 9  158 352 
 OCA  HN ES   1    4 5 17.79                             130   -0.24 7  158 352 
 OCA  HZ I         4 5 21.76         8.4 0.54            132            158 352 
 ZAR  HZ EP        4 5  0.76                             122    0.36 8  205 291 
 ZAR  HN ES        4 5 26.32                             122    0.38 8  205 291 
 ZAR  HZ I         4 5 32.18         6.5 0.34            124            205 291 
 NOR  HZ EP   4    4 5  5.74                             118    1.85 0  238 234 
 NOR  HN ES        4 5 31.47                             118   -0.69 8  238 234 
 NOR  HZ I         4 5 33.96         1.7 0.20            121            238 234 
 SML  HZ EP   1    4 5  4.25                             118   -0.03 6  243 335 
 SML  HN ES        4 5 32.06                             118   -0.80 8  243 335 
 SML  HZ I         4 5 35.87         6.4 0.10            120            243 335 
 GUY2CHZ EP   4    4 5 13.45                             112    1.69 0  305 235 
 GUY2CHN ES        4 5 46.65                             112    0.48 7  305 235 
 GUY2CHZ I         4 5 54.25         1.2 0.32                           305 235 
 SJC  HZ EP   2    4 5 22.59                             106   -0.62 3  409 326 
 SJC  HE ES   2    4 6  4.33                             106   -2.22 3  409 326 
                                                                                
