 2011 1014 0921 57.6 L   6.605 -73.356120.3  RSN 10 0.3 2.2LRSN                1
 GAP= 77        0.58       3.0     3.6  5.7 -0.1149E+01  0.9225E+01 -0.6760E+01E
 Epicentro: GALAN - SANTANDER                                                  3
 ACTION:UPD 12-07-13 16:03 OP:ep   STATUS:               ID:20111014092000 L   I
 2011-10-14-0920-00M.COL___171                                                 6
 STAT SP IPHASW D HRMM SECON CODA AMPLIT PERI AZIMU VELO AIN AR TRES W  DIS CAZ7
 BAR2 SZ IP        922 14.17                             170    0.0710 19.2  94 
 BAR2 SZ ES   1    922 27.03                             170    0.08 7 19.2  94 
 BAR2 SZ I         922 28.80        45.1 0.34                          19.2  94 
 BTL  SZ EP   1    922 14.83                             162    0.25 7 36.0  16 
 GIR2 SZ EP        922 15.20                             153   -0.1310 55.4  19 
 GIR2 SZ ES   3    922 29.21                             153    0.07 2 55.4  19 
 BRR  HZ IP     C  922 15.67                             148   -0.2010 68.1 325 
 BRR  HZ I         922 15.93        97.1 0.12                          68.1 325 
 BRR  HN ES   2    922 30.32                             148    0.21 5 68.1 325 
 RUS  HZ EP   2    922 17.67                             143   -0.02 5 84.3 159 
 RUS  HN ES        922 33.05                             143   -0.2910 84.3 159 
 PAM  SZ EP   1    922 20.30                             135    0.65 7  109  42 
 PAM  SE ES   2    922 37.28                             135    0.44 5  109  42 
 OCA  SZ EP   1    922 25.91                             119   -0.30 7  181   1 
 OCA  SZ ES   2    922 47.57                             119   -0.95 4  181   1 
 OCA  SZ I         922 49.44        14.0 0.62                           181   1 
 ZAR  HZ EP   1    922 27.31                             118   -0.01 7  193 301 
 ZAR  HN ES   2    922 50.85                             118    0.37 4  193 301 
 ZAR  HZ I         922 53.26        11.7 0.42                           193 301 
 NOR  SN ES   2    922 52.63                             116    0.02 4  203 236 
 HEL  HZ EP   2    922 33.76                             112    0.23 4  245 259 
 HEL  HE ES   2    923  1.91                             112    0.36 4  245 259 
                                                                                
