 2017 1114 0240 20.3 L   6.824 -73.126150.9  RSN 21 0.8 2.5LRSN                1
 GAP= 67        1.61       3.6     3.9  6.7  0.7559E+00  0.5455E+01  0.8622E+00E
 Epicentro: LOS SANTOS - SANTANDER                                             3
 ACTION:UPD 17-12-12 19:55 OP:rebc STATUS:               ID:20171114024020 L   I
 OLDACT:UP  17-11-14 14:45 OP:leo  STATUS:               ID:20171114023741     3
 OLDACT:REG 17-11-14 12:40 OP:leo  STATUS:               ID:20171114023741     3
 2017-11-14-0238-00M.COL___447                                                 6
 STAT SP IPHASW D HRMM SECON CODA AMPLIT PERI AZIMU VELO AIN AR TRES W  DIS CAZ7
 BAR2 EZ IP     C  240 40.69                             170    0.0410 26.3 194 
 BAR2 EZ ES        240 55.78                             170   -0.7110 26.3 194 
 BAR2 EZ I         240 57.30        80.2 0.40            168           26.3 194 
 BRR  HZ IP     C  240 42.60                             153    0.5110 71.9 296 
 BRR  HN ES        240 59.97                             153    0.9210 71.9 296 
 BRR  HZ I         241  3.09        36.3 0.12            153           71.9 296 
 PAM  EZ IP     D  240 43.45                             153    0.5410 74.0  40 
 PAM  EN ES        241  0.76                             153    0.2510 74.0  40 
 PAM  EZ I         241  2.79        54.8 0.56            152           74.0  40 
 RUS  HZ EP        240 44.55                             144   -0.2310  103 177 
 RUS  HN ES        241  3.47                             144   -0.3710  103 177 
 RUS  HZ I         241  4.26        49.2 0.36            143            103 177 
 PTB  HZ EP        240 47.62                             133   -0.35 9  150 258 
 PTB  HN ES        241  8.60                             133   -0.92 9  150 258 
 PTB  HZ I         241 16.14        29.3 0.46            132            150 258 
 TAM  HZ IP     C  240 48.85                             132    0.55 9  154 106 
 TAM  HZ I         241  9.59        18.6 0.36            131            154 106 
 TAM  HN ES        241 10.59                             132    0.48 9  154 106 
 SPBC HZ EP        240 49.68                             130    0.12 9  167 219 
 SPBC HN ES        241 12.08                             130   -0.27 9  167 219 
 SPBC HZ I         241 14.10        62.4 0.44            128            167 219 
 YPLC HZ IP     C  240 50.90                             128    0.26 9  178 152 
 YPLC HE ES        241 14.45                             128    0.18 9  178 152 
 YPLC HZ I         241 19.08        25.2 0.30            126            178 152 
 ZAR  HZ EP        240 53.44                             123    0.21 9  205 291 
 ZAR  HN ES        241 19.14                             123    0.25 9  205 291 
 ZAR  HZ I         241 24.29        45.9 0.34            123            205 291 
 NOR  HZ EP        240 56.76                             119    0.04 8  238 234 
 NOR  HN ES        241 25.01                             119   -0.09 8  238 234 
 NOR  HZ I         241 31.47        26.3 0.28            118            238 234 
 CHI  HZ EP        240 58.78                             118    0.12 8  252 195 
 CHI  HN ES        241 28.02                             118   -0.53 8  252 195 
 CHI  HZ I         241 34.43        10.4 0.64            117            252 195 
 ROSC BZ EP   4    241  0.56                             117    1.45 0  256 211 
 ROSC BN ES   4    241 31.28                             117    1.93 0  256 211 
 ROSC BZ I         241 35.13        32.8 0.40            116            256 211 
 GUY2CHZ EP   4    241  4.91                             113    0.35 0  304 235 
 GUY2CHN ES   4    241 43.36                             113    4.31 0  304 235 
 GUY2CHZ I    4    241 47.56        24.4 0.70                           304 235 
 PTGC HZ EP        241  3.59                             112   -1.03 7  310 159 
 PTGC HN ES        241 37.25                             112   -1.91 7  310 159 
 DRL01HZ EP        241  6.46                             111    0.25 7  325 349 
 DRL01HN ES        241 43.09                             111    1.11 7  325 349 
 CBOC HZ EP        241  8.69                             111    0.89 7  336 252 
 CBOC HN ES        241 46.10                             111    1.28 7  336 252 
 CBOC HZ I         241 54.98         5.1 0.46            110            336 252 
 DBB  EN ES        241 44.50                             110   -1.13 7  341 274 
 PRA  HZ EP        241 14.22                             107   -0.21 6  395 210 
 PRA  HN ES        241 56.89                             107    0.26 6  395 210 
 PRA  HZ I         242  5.15        15.6 0.58            106            395 210 
 ORTC HZ EP        241 15.12                             107    0.28 6  399 216 
 ORTC HN ES        241 59.62                             107    2.28 6  399 216 
 ORTC HZ I         242  4.45         4.2 0.40            106            399 216 
 SJC  HZ EP        241 14.53                             107   -1.43 6  408 326 
 SJC  HN ES        241 57.01                             107   -2.33 6  408 326 
 SJC  HZ I         242  0.91         4.7 0.50            106            408 326 
 PAL  HZ EP        241 16.61                             107    0.56 6  409 239 
 PAL  HN ES        241 59.29                             107   -0.21 6  409 239 
 PAL  HZ I         242  2.50         6.3 0.26            106            409 239 
 CRJC HZ EP        241 21.02                             104   -1.64 5  465   3 
 CRJC HN ES        242 10.88                             104   -0.39 5  465   3 
 CRJC HZ I         242 16.95         9.7 0.24            104            465   3 
                                                                                
