 2014  714 0918 45.5 L   6.806 -73.164147.3  RSN  8 0.3 1.9LRSN                1
 GAP=191        0.66       2.3     3.8  4.5 -0.1953E+01  0.2935E+01  0.1134E+00E
 Epicentro: LOS SANTOS - SANTANDER                                             3
 ACTION:UPD 15-03-16 20:43 OP:nd   STATUS:               ID:20140714091845 L   I
 OLDACT:REG 14-07-14 13:36 OP:fm   STATUS:               ID:20140714090816     3
 2014-07-14-0908-16M.COL___241                                                 6
 STAT SP IPHASW D HRMM SECON CODA AMPLIT PERI AZIMU VELO AIN AR TRES W  DIS CAZ7
 BAR2 SZ EP        919  5.44                             170    0.1510 23.7 185 
 BAR2 SZ ES        919 20.55                             170   -0.1910 23.7 185 
 BAR2 SZ I         919 22.25        14.1 0.44            167           23.7 185 
 PTB  HZ EP        919 12.06                             133   -0.33 9  146 258 
 PTB  HN ES        919 33.27                             133   -0.13 9  146 258 
 PTB  HZ I         919 38.61         6.8 0.12            129            146 258 
 OCA  HZ EP        919 14.05                             130    0.23 9  159 354 
 OCA  HN ES        919 36.15                             130    0.22 9  159 354 
 OCA  HZ I         919 41.32         8.1 0.20            128            159 354 
 SPBC HZ EP        919 14.36                             129    0.35 9  162 218 
 SPBC HZ I         919 39.23        11.1 0.28            126            162 218 
 ZAR  HZ EP        919 18.06                             123    0.26 9  202 292 
 ZAR  HN ES        919 43.28                             123    0.27 9  202 292 
 ZAR  HZ I         919 49.49         9.5 0.38            120            202 292 
 NOR  HZ EP        919 20.84                             119   -0.31 8  233 234 
 NOR  HE ES        919 49.17                             119    0.19 8  233 234 
 NOR  HZ I         919 54.62         4.0 0.22            116            233 234 
 SML  HZ EP        919 21.43                             118   -0.60 8  242 336 
 SML  HN ES        919 50.29                             118   -0.25 8  242 336 
 SML  HZ I         919 55.03        10.8 0.24            116            242 336 
 PRA  HZ EP        919 39.21                             107    0.22 6  392 209 
 PRA  HN ES        920 20.55                             107   -0.19 6  392 209 
 PRA  HZ I         920 24.80         2.6 0.40            104            392 209 
                                                                                
