 2013  814 0121 48.4 L   6.789 -73.134143.1  RSN  9 0.6 2.0LRSN                1
 GAP=139        1.46       5.8     5.8  8.3 -0.6682E+01  0.4435E+01  0.2591E+01E
 Epicentro: LOS SANTOS - SANTANDER                                             3
 ACTION:UPD 14-01-14 09:02 OP:ep   STATUS:               ID:20130814012148 L   I
 OLDACT:REG 13-08-14 08:20 OP:stll STATUS:               ID:20130814011849     3
 2013-08-14-0118-49M.COL___230                                                 6
 STAT SP IPHASW D HRMM SECON CODA AMPLIT PERI AZIMU VELO AIN AR TRES W  DIS CAZ7
 BAR2 SZ EP        122  7.69                             171   -0.0310 22.4 194 
 BAR2 SZ ES        122 23.33                             171    0.5710 22.4 194 
 BAR2 SZ I         122 24.05        17.7 0.20            171           22.4 194 
 GIR2 SZ EP        122  7.46                             166   -0.3610 32.7 348 
 GIR2 SZ ES        122 21.78                             166   -1.1610 32.7 348 
 BRR  HZ EP        122  9.69                             151    0.3010 72.9 299 
 BRR  HN ES        122 26.67                             151    0.9410 72.9 299 
 BRR  HN I         122 27.22        46.9 0.28            152           72.9 299 
 PAM  SZ EP        122 10.77                             150    0.4110 77.5  38 
 PAM  SZ I         122 10.95        14.6 0.24            151           77.5  38 
 PAM  SN ES        122 27.41                             150   -0.0610 77.5  38 
 RUS  HZ EP        122 11.73                             144   -0.0910 99.3 177 
 RUS  HN ES        122 29.95                             144   -0.1210 99.3 177 
 RUS  HN I         122 31.48         7.7 0.18            144           99.3 177 
 CAPV BZ EP        122 15.79                             131    0.17 9  149  37 
 PTB  HZ EP        122 14.60                             131   -0.67 9  149 259 
 PTB  HN ES        122 35.25                             131   -0.96 9  149 259 
 SPBC HZ EP        122 16.73                             128    0.02 9  163 220 
 SPBC HN ES        122 39.42                             128    0.65 9  163 220 
 ZAR  HN ES        122 46.61                             121    0.43 8  206 292 
 ZAR  HN I         122 48.11        10.8 0.12            122            206 292 
                                                                                
