 2016 1114 0237 54.6 L   6.779 -73.149144.4  RSN 19 0.4 2.6LRSN                1
 GAP= 65        1.42       5.2     4.1  7.3 -0.1763E+01  0.5106E+01  0.1019E+02E
 Epicentro: LOS SANTOS - SANTANDER                                             3
 ACTION:UPD 17-10-26 21:07 OP:lp   STATUS:               ID:20161114023754 L   I
 OLDACT:DUP 16-11-14 15:23 OP:lv   STATUS:               ID:20161114022743d    3
 2016-11-14-0228-00M.COL___339                                                 6
 STAT SP IPHASW D HRMM SECON CODA AMPLIT PERI AZIMU VELO AIN AR TRES W  DIS CAZ7
 BAR2 HZ EP        238 13.85                             171   -0.1510 21.0 190 
 BAR2 HZ ES        238 28.69                             171   -0.4610 21.0 190 
 BAR2 HZ I         238 29.86       111.7 0.14            167           21.0 190 
 BRR  HZ IP     C  238 15.80                             152    0.1710 72.0 300 
 BRR  HN ES        238 32.92                             152    0.8810 72.0 300 
 BRR  HZ I         238 33.43        81.3 0.12            151           72.0 300 
 PAM  EZ IP     C  238 16.73                             150   -0.0410 79.4  39 
 PAM  EN ES        238 34.02                             150   -0.0610 79.4  39 
 PAM  EZ I         238 36.32        34.1 0.25            154           79.4  39 
 PTB  HZ EP        238 20.41                             132   -0.96 9  147 260 
 PTB  HN ES        238 41.62                             132   -0.64 9  147 260 
 PTB  HZ I         238 44.48        62.8 0.14            130            147 260 
 TAM  HZ IP     C  238 22.07                             130   -0.06 9  155 104 
 TAM  HN ES        238 43.58                             130   -0.03 9  155 104 
 TAM  HZ I         238 44.21        18.8 0.20            131            155 104 
 ZAR  HZ EP        238 27.17                             122    0.17 9  205 293 
 ZAR  HN ES        238 52.75                             122    0.47 9  205 293 
 ZAR  HZ I         238 58.29        72.3 0.26            121            205 293 
 NOR  HZ EP        238 29.83                             118   -0.23 8  233 235 
 NOR  HE ES        238 57.68                             118   -0.05 8  233 235 
 NOR  HZ I         239  3.51        44.4 0.20            117            233 235 
 CHI  HZ EP        238 32.03                             117    0.08 8  246 195 
 CHI  HN ES        239  2.00                             117    0.90 8  246 195 
 CHI  HZ I         239 10.83        14.3 0.50            115            246 195 
 ROSC BZ EP   9    238 33.96                             116    1.57 0  251 211 
 ROSC BE ES        239  3.39                                   -0.06 8  251 211 
 ROSC BZ I         239  9.19        53.9 0.45            115            251 211 
 URE  HZ EP   9    238 34.14                             113   -1.51 0  284 292 
 URE  HE ES        239  5.82                                   -0.35 7  284 292 
 URE  HZ I         239 14.86        40.8 0.30            113            284 292 
 PTGC HZ EP   9    238 36.81                             111   -1.34 0  307 158 
 PTGC HN ES        239 10.27                                   -0.52 7  307 158 
 PTGC HZ I         239 17.13        10.7 0.19            111            307 158 
 LL6C HZ EP   9    238 19.43                             110   -21.1 0  327 358 
 LL6C HN ES        238 52.48                                   -2.75 7  327 358 
 ELA  HZ EP   4    238 42.88                             110    1.71 0  327 230 
 ELA  HN ES        239 17.56                             110    0.04 7  327 230 
 ELA  HZ I         239 25.87        18.7 0.62            109            327 230 
 CBOC HZ EP        238 41.81                             109    0.49 7  333 252 
 CBOC HE ES   4    239 20.65                             109    2.87 0  333 252 
 CBOC HZ I         239 21.13         6.6 0.16            109            333 252 
 DBB  HZ EP        238 41.82                             109   -0.16 7  339 275 
 DBB  HN ES   4    239 17.73                             109   -1.23 0  339 275 
 ANIL HZ EP   9    238 45.65                             108    1.53 0  355 225 
 ANIL HN ES        239 24.44                                    0.15 6  355 225 
 ORTC HZ EP        238 48.39                             106    0.18 6  393 216 
 ORTC HN ES   4    239 31.94                             106    1.89 0  393 216 
 ORTC HZ I         239 37.21         9.9 0.33            105            393 216 
 SJC  HZ EP   4    238 48.31                             105   -1.99 0  411 327 
 SJC  HN ES   4    239 29.98                             105   -3.79 0  411 327 
 SJC  HZ I         239 34.23         7.6 0.37            105            411 327 
 CRJC HZ EP   4    238 54.59                             103   -2.73 0  470   4 
 CRJC HN ES   4    239 41.96                             103   -4.29 0  470   4 
 CRJC HZ I         239 48.06         8.2 0.14            103            470   4 
                                                                                
