 2013  714 0217 38.3 L   6.771 -73.167142.3  RSN 19 0.5 2.2LRSN                1
 GAP=113        0.86       2.3     3.7  4.4 -0.1531E+01  0.5564E+01  0.1221E+01E
 Epicentro: LOS SANTOS - SANTANDER                                             3
 ACTION:UPD 13-08-12 10:37 OP:ep   STATUS:               ID:20130714021738 L   I
 OLDACT:REG 13-07-14 07:14 OP:nd   STATUS:               ID:20130714020959     3
 2013-07-14-0209-59M.COL___267                                                 6
 STAT SP IPHASW D HRMM SECON CODA AMPLIT PERI AZIMU VELO AIN AR TRES W  DIS CAZ7
 BAR2 SZ IP     C  217 57.53                             172    0.0910 19.8 185 
 BAR2 SZ ES        218 12.39                             172    0.0210 19.8 185 
 BAR2 SZ I         218 13.77        31.6 0.20            170           19.8 185 
 GIR2 SZ EP        217 57.68                             166    0.0410 34.2 355 
 GIR2 SZ ES        218 12.30                             166   -0.4310 34.2 355 
 GIR2 SZ I         218 13.73        30.0 0.12            165           34.2 355 
 BRR  HZ IP     D  217 59.66                             152    0.6110 70.8 302 
 BRR  HN ES   2    218 15.80                             152    0.57 5 70.8 302 
 BRR  HZ I         218 21.53        27.8 0.14            149           70.8 302 
 PAM  SZ EP        218  0.70                             149    0.3110 81.4  39 
 PAM  SN ES        218 17.70                             149    0.0810 81.4  39 
 PAM  SZ I         218 20.17        23.4 0.40            152           81.4  39 
 RUS  HZ IP     D  218  1.26                             144   -0.2310 97.5 175 
 RUS  HN ES        218 19.81                             144    0.2410 97.5 175 
 RUS  HZ I         218 21.33        13.6 0.32            145           97.5 175 
 PTB  HZ EP        218  4.42                             132   -0.30 9  145 260 
 PTB  HN ES   2    218 25.37                             132    0.04 5  145 260 
 PTB  HZ I         218 26.31        20.9 0.10            130            145 260 
 SPBC HZ EP   2    218  5.52                             129   -0.63 5  159 219 
 SPBC HN ES   2    218 27.84                             129   -0.04 5  159 219 
 OCA  HZ EP        218  6.22                             128   -0.40 9  163 354 
 OCA  HN ES        218 28.18                             128   -0.54 9  163 354 
 OCA  HZ I         218 31.81        16.4 0.46            129            163 354 
 YOP  SZ EP   2    218  7.88                             126   -0.03 4  177 152 
 YOP  SN ES   3    218 31.09                             126    0.08 2  177 152 
 YOP  SZ I         218 32.82         9.9 0.24            128            177 152 
 ZAR  HZ EP   4    218 12.06                             122    1.63 0  203 293 
 ZAR  HE ES        218 36.05                             122    0.56 9  203 293 
 ZAR  HZ I         218 42.32        20.7 0.36            121            203 293 
 NOR  HZ EP        218 13.21                             118   -0.21 8  231 235 
 NOR  HN ES        218 41.38                             118    0.56 8  231 235 
 NOR  HZ I         218 43.11        16.1 0.36            118            231 235 
 CHI  HZ EP        218 15.44                             117    0.04 8  245 195 
 CHI  HN ES        218 44.00                             117   -0.33 8  245 195 
 CHI  HZ I         218 52.21         6.2 0.54            117            245 195 
 SML  HZ EP   2    218 14.71                             117   -0.24 4  246 336 
 SML  HN ES   4    218 45.68                             117    2.14 0  246 336 
 SML  HZ I         218 50.04        20.9 0.26            117            246 336 
 HEL  HZ EP   2    218 19.07                             114    1.07 4  269 256 
 HEL  HN ES   2    218 46.66                             114   -2.30 4  269 256 
 HEL  HZ I         218 56.53         9.9 0.24            114            269 256 
 GUY2CHZ EP   4    218 22.36                             112    1.04 0  297 235 
 GUY2CHN ES   4    218 57.27                             112    2.39 0  297 235 
 GUY2CHZ I         219  3.98        10.5 0.36                           297 235 
 COD  HZ EP   4    218 25.07                             108   -1.82 0  351 355 
 COD  HN ES        219  5.01                             108    0.22 6  351 355 
 COD  HZ I         219  8.72         2.7 0.68            109            351 355 
 PRA  HZ EP        218 30.91                             106   -0.33 6  388 210 
 PRA  HN ES        219 12.28                             106   -0.24 6  388 210 
 PRA  HZ I         219 21.15         6.4 0.58            106            388 210 
 ORTC HZ EP        218 32.02                             106    0.39 6  391 216 
 ORTC HN ES   2    219 13.67                             106    0.44 3  391 216 
 ORTC HZ I         219 19.68         4.0 0.38            106            391 216 
 SJC  HZ EP   4    218 32.44                             105   -1.48 0  411 327 
 SJC  HN ES   4    219 13.90                             105   -3.41 0  411 327 
 SJC  HZ I         219 19.80         2.8 0.38            105            411 327 
                                                                                
