 2017  414 0625 36.5 L   6.785 -73.118151.0  RSN 12 0.4 1.7LRSN                1
 GAP=115        1.06       3.5     4.2  6.6  0.2440E+00  0.2687E+01  0.4328E+01E
 Epicentro: LOS SANTOS - SANTANDER                                             3
 ACTION:UPD 17-05-30 21:12 OP:jn   STATUS:               ID:20170414062536 L   I
 OLDACT:UP  17-04-14 16:55 OP:edw  STATUS:               ID:20170414061742     3
 OLDACT:UP  17-04-14 16:54 OP:edw  STATUS:               ID:20170414061742     3
 OLDACT:REG 17-04-14 12:49 OP:edw  STATUS:               ID:20170414061742     3
 2017-04-14-0618-00M.COL___356                                                 6
 STAT SP IPHASW D HRMM SECON CODA AMPLIT PERI AZIMU VELO AIN AR TRES W  DIS CAZ7
 BAR2 EZ EP        625 56.69                             171   -0.0110 22.5 198 
 BRR  HZ EP        625 58.65                             152    0.2810 74.6 299 
 BRR  HN ES        626 15.79                             152    0.3310 74.6 299 
 BRR  HZ I         626 16.74         6.5 0.14            150           74.6 299 
 PAM  EZ EP        625 59.62                             151    0.4210 76.8  37 
 PAM  EN ES        626 16.87                             151   -0.0610 76.8  37 
 PAM  EZ I         626 18.79        11.8 0.56            154           76.8  37 
 RUS  HZ EP        626  0.46                             145   -0.1410 98.8 178 
 RUS  HN ES        626 18.77                             145   -0.6610 98.8 178 
 RUS  HZ I         626 20.37         8.5 0.30            145           98.8 178 
 PTB  HZ EP   9    626  3.58                             132   -0.52 0  150 260 
 PTB  HN ES        626 24.38                             132   -0.76 9  150 260 
 PTB  HZ I         626 28.21         4.8 0.18            131            150 260 
 SPBC HZ EP        626  5.43                             130    0.00 9  164 220 
 SPBC HN ES        626 27.55                             130   -0.47 9  164 220 
 SPBC HZ I         626 31.69         8.2 0.20            128            164 220 
 YPLC HN ES        626 29.56                             128   -0.12 9  174 152 
 ZAR  HZ EP   4    626 10.46                             122    0.86 0  207 292 
 ZAR  HN ES        626 35.12                             122   -0.33 8  207 292 
 ZAR  HZ I         626 41.67         7.9 0.34            122            207 292 
 NOR  HZ EP   4    626 13.88                             119    1.22 0  236 235 
 NOR  HN ES        626 41.61                             119    0.71 8  236 235 
 NOR  HZ I         626 44.52         3.7 0.24            118            236 235 
 CHI  HZ EP        626 14.97                             118    0.60 8  248 196 
 CHI  HN ES        626 44.15                             118    0.21 8  248 196 
 CHI  HZ I         626 50.01         1.7 0.26            118            248 196 
 PRA  HZ EP        626 30.03                             107   -0.15 6  392 210 
 PRA  HN ES   4    627 14.19                             107    2.12 0  392 210 
 PRA  HZ I         627 19.32         2.2 0.38            107            392 210 
 SJC  HZ EP        626 31.42                             106   -1.13 6  412 327 
 SJC  HN ES   4    627 13.22                             106   -3.08 0  412 327 
                                                                                
