 2013  314 0854 18.4 L   6.757 -73.168139.4  RSN  6 0.4 1.6LRSN                1
 GAP=136        0.67       3.9     4.1  7.5  0.3025E+01  0.9913E+01 -0.3851E+01E
 Epicentro: LOS SANTOS - SANTANDER                                             3
 ACTION:UPD 13-04-09 14:02 OP:ep   STATUS:               ID:20130314085418 L   I
 2013-03-14-0850-00M.COL___243                                                 6
 STAT SP IPHASW D HRMM SECON CODA AMPLIT PERI AZIMU VELO AIN AR TRES W  DIS CAZ7
 BAR2 SZ EP   1    854 37.12                             172   -0.07 7 18.3 185 
 BAR2 SZ ES   2    854 51.53                             172   -0.30 5 18.3 185 
 BAR2 SZ I         854 58.06        23.3 0.92            174           18.3 185 
 BRR  HZ EP        854 39.36                             151    0.4610 71.5 303 
 BRR  HN ES   2    854 55.80                             151    0.92 5 71.5 303 
 BRR  HN I         855  0.40         8.6 0.20            154           71.5 303 
 PAM  SZ EP   1    854 40.04                             148   -0.26 7 82.6  39 
 PAM  SN ES   1    854 57.13                             148   -0.23 7 82.6  39 
 PAM  SN I         854 58.24         9.7 0.48            154           82.6  39 
 RUS  HZ EP   1    854 41.37                             144    0.15 7 96.0 174 
 RUS  HN ES        854 58.96                             144   -0.0410 96.0 174 
 RUS  HN I         855  0.56         3.5 0.22            151           96.0 174 
 PTB  HZ EP   1    854 44.43                             131   -0.14 7  144 261 
 PTB  HN ES   2    855  4.41                             131   -0.57 5  144 261 
 PTB  HN I         855  6.17         3.5 0.20            137            144 261 
 ZAR  HN ES        855 15.17                             121   -0.21 9  204 294 
 ZAR  HN I         855 17.27         2.9 0.12            127            204 294 
                                                                                
