 2010  714 0844 45.7 L   6.780 -73.096146.0  RSN  8 0.3 1.6LRSN                1
 GAP=161        0.74       4.5     8.8  7.5  0.3882E+01 -0.2129E+02 -0.9799E+01E
 Epicentro: LOS SANTOS - SANTANDER                                             3
 ACTION:UPD 10-12-01 15:17 OP:pat  STATUS:               ID:20100714084445 L   I
 2010-07-14-0843-31S.COL___120                                                 6
 STAT SP IPHASW D HRMM SECON CODA AMPLIT PERI AZIMU VELO AIN AR TRES W  DIS CAZ7
 BAR2 SZ EP   1    845  4.98                             171    -0.3 7   23 205 
 BAR2 SZ ES   1    845 20.79                             171     0.1 7   23 205 
 BAR2 SZ I         845 21.13         9.6 0.37                            23 205 
 BRR  HZ EP        845  6.89                             151    -0.310   77 298 
 BRR  HN ES   1    845 23.95                             151     0.0 7   77 298 
 BRR  HZ I         845 25.87         8.5 0.08                            77 298 
 RUS  HZ EP   1    845  9.39                             145     0.1 7   98 179 
 RUS  HN ES   2    845 28.11                             145     0.4 5   98 179 
 RUS  HZ I         845 29.42         3.8 0.44                            98 179 
 BRI  SZ EP   2    845  9.73                             142     0.1 5  109  18 
 BRI  SZ I         845 35.54         5.9 0.51                           109  18 
 GUE  SZ EP   2    845 10.90                             139     0.4 5  118   9 
 GRA  SZ IP        845 10.86                             137    -0.110  126  15 
 GRA  SZ I         845 35.05         3.6 0.33                           126  15 
 OCA  SZ EP   1    845 14.02                             129    -0.3 7  163 351 
 OCA  SZ ES   1    845 37.12                             129     0.5 7  163 351 
 OCA  SZ I         845 43.69         5.1 0.27                           163 351 
 HEL  HZ EP   2    845 27.27                             115     0.8 4  277 257 
 HEL  HZ I         846  3.16         2.2 0.55                           277 257 
                                                                                
