 2015 1014 0427 56.0 L   6.755 -73.136137.0  RSN  5 0.4 1.5LRSN                1
 GAP=140        1.02       4.7     6.5  7.5 -0.9645E+01  0.3473E+01  0.4908E+01E
 Epicentro: LOS SANTOS - SANTANDER                                             3
 ACTION:UPD 15-12-22 20:39 OP:cam  STATUS:               ID:20151014042756 L   I
 OLDACT:REG 15-10-14 12:33 OP:stll STATUS:               ID:20151014041747     3
 2015-10-14-0417-47M.COL___337                                                 6
 STAT SP IPHASW D HRMM SECON CODA AMPLIT PERI AZIMU VELO AIN AR TRES W  DIS CAZ7
 BAR2 EZ EP        428 14.60                             172    0.1510 18.7 196 
 BAR2 EZ ES        428 28.05                             172   -0.8210 18.7 196 
 BAR2 EZ I         428 29.87         9.2 0.26            170           18.7 196 
 BRR  HZ EP     D  428 16.27                             150   -0.1110 74.6 302 
 BRR  HZ I         428 16.55         5.2 0.22            151           74.6 302 
 BRR  HN ES        428 32.78                             150    0.4810 74.6 302 
 PAM  EZ EP     C  428 17.45                             148   -0.0110 80.7  37 
 PAM  EZ I         428 17.63        12.3 0.20            150           80.7  37 
 PAM  EN ES        428 34.26                             148    0.0310 80.7  37 
 RUS  HZ EP        428 18.39                             143   -0.1010 95.5 176 
 RUS  HN ES        428 36.72                             143    0.6710 95.5 176 
 RUS  HZ I         428 38.01         2.9 0.26            143           95.5 176 
 SPBC HZ EP        428 23.35                             128   -0.14 9  160 220 
 SPBC HN ES        428 44.76                             128   -0.21 9  160 220 
 SPBC HZ I         428 47.17         3.2 0.12            128            160 220 
                                                                                
