 2012 1114 0049  3.2 L   6.764 -73.148147.6  RSN  6 0.4 1.3LRSN                1
 GAP=138        0.79       5.4     5.0  7.6 -0.7205E+00  0.1034E+02  0.1206E+01E
 Epicentro: LOS SANTOS - SANTANDER                                             3
 ACTION:UPD 12-12-05 15:33 OP:}ep  STATUS:               ID:20121114004904 L   I
 2012-11-14-0045-39M.COL___207                                                 6
 STAT SP IPHASW D HRMM SECON CODA AMPLIT PERI AZIMU VELO AIN AR TRES W  DIS CAZ7
 BAR2 SZ EP   1    049 22.96                             172    0.00 7 19.4 191 
 BAR2 SZ ES   1    049 38.66                             172    0.28 7 19.4 191 
 GIR2 SZ EP   1    049 23.08                             166   -0.10 7 35.1 352 
 GIR2 SZ ES   1    049 38.58                             166   -0.19 7 35.1 352 
 PAM  SZ EP   1    049 25.98                             150    0.20 7 80.6  38 
 PAM  SE ES   1    049 43.14                             150   -0.27 7 80.6  38 
 PAM  SZ I         049 43.76         3.6 0.20                          80.6  38 
 RUS  HZ EP   1    049 26.93                             145    0.10 7 96.7 176 
 RUS  HN ES   1    049 45.57                             145    0.29 7 96.7 176 
 RUS  HZ I         049 47.65         1.7 0.36                          96.7 176 
 PTB  HZ EP   1    049 29.80                             133   -0.41 7  147 260 
 PTB  HN ES   1    049 50.54                             133   -0.75 7  147 260 
 PTB  HZ I         049 54.11         3.5 0.16                           147 260 
 ZAR  HN ES   1    050  2.34                             123    0.96 6  205 293 
 SML  HZ EP   4    049 43.56                             117    3.27 0  247 336 
 SML  HN ES   4    050  6.55                             117   -2.68 0  247 336 
                                                                                
