 2010 1014 0354 15.3 L   6.853 -72.988136.0  RSN  5 0.3 1.6LRSN                1
 GAP=284        0.68      13.3    13.4  9.3  0.8654E+02 -0.6820E+01  0.2366E+02E
 Epicentro: CEPITA - SANTANDER                                                 3
 ACTION:UP  11-02-18 11:09 OP:tino STATUS:               ID:20101014035415 L   I
 2010-10-14-0352-34S.COL___126                                                 6
 STAT SP IPHASW D HRMM SECON CODA AMPLIT PERI AZIMU VELO SNR AR TRES W  DIS CAZ7
 BTL  SZ EP   1    354 34.29                             166     0.4 7   32 283 
 BAR2 SZ EP   1    354 34.12                             164     0.1 7   36 217 
 BAR2 SZ ES   2    354 48.43                             164    -0.3 5   36 217 
 BAR2 SZ I         354 51.56         8.2 0.27                            36 217 
 BRR  HZ EP        354 35.88                             146    -0.310   85 289 
 BRR  HZ I         354 36.12        13.4 0.14                            85 289 
 BRR  HN ES   1    354 52.86                             146     0.3 7   85 289 
 ROSC BZ EP   2    354 54.68                             113     0.2 4  267 214 
 ROSC BZ I         355 30.01         2.9 0.78                           267 214 
 HEL  HZ EP   2    354 56.90                             111    -0.2 4  290 256 
 HEL  HZ I         355 11.19         1.4 0.23                           290 256 
                                                                                
