 2015  214 0735  9.9 L   6.819 -73.132137.0  RSN 13 0.4 1.8LRSN                1
 GAP=184        1.04       2.5     4.6  5.4 -0.8661E+00  0.5898E+01  0.1064E+01E
 Epicentro: LOS SANTOS - SANTANDER                                             3
 ACTION:UPD 15-04-30 21:26 OP:nd   STATUS:               ID:20150214073509 L   I
 OLDACT:REG 15-02-14 13:00 OP:fm   STATUS:               ID:20150214072742     3
 2015-02-14-0727-42M.COL___290                                                 6
 STAT SP IPHASW D HRMM SECON CODA AMPLIT PERI AZIMU VELO AIN AR TRES W  DIS CAZ7
 BAR2 EZ EP        735 28.97                             169    0.4510 25.7 193 
 BAR2 EZ ES        735 43.18                             169    0.1310 25.7 193 
 BAR2 EZ I         735 46.46         8.9 0.30            168           25.7 193 
 BRR  HZ EP        735 31.21                             151    1.0810 71.6 296 
 BRR  HE ES        735 46.33                             151    0.4310 71.6 296 
 BRR  HZ I         735 51.19        12.1 0.16            148           71.6 296 
 RUS  HZ EP        735 32.78                             141   -0.1610  103 177 
 RUS  HE ES        735 50.68                             141   -0.2410  103 177 
 RUS  HZ I         735 53.53         3.9 0.42            145            103 177 
 PTB  HZ EP        735 36.25                             130   -0.09 9  150 258 
 PTB  HN ES        735 56.42                             130   -0.55 9  150 258 
 PTB  HZ I         736  3.13        11.2 0.42            130            150 258 
 OCA  HZ EP        735 36.60                             128   -0.76 9  158 353 
 OCA  HE ES        735 58.18                             128   -0.60 9  158 353 
 OCA  HZ I         736  8.33         4.1 0.14            130            158 353 
 SPBC HZ EP        735 38.25                             127    0.26 9  166 219 
 SPBC HE ES        735 59.51                             127   -0.39 9  166 219 
 SPBC HZ I         736  8.42         8.0 0.12            128            166 219 
 SML  HZ EP        735 45.83                             116   -0.08 8  242 335 
 SML  HE ES        736 14.29                             116    0.29 8  242 335 
 SML  HZ I         736 22.05         7.4 0.32            118            242 335 
 CHI  HZ EP        735 47.08                             115   -0.31 8  251 195 
 CHI  HN ES        736 16.41                             115   -0.22 8  251 195 
 CHI  HZ I         736 26.40         2.6 0.50            118            251 195 
 URE  HE ES        736 22.01                             112   -0.39 7  284 291 
 URE  HZ I         736 30.42         4.4 0.26            113            284 291 
 GUY2CHZ EP        735 53.61                             110    0.22 7  304 235 
 GUY2CHN ES        736 27.49                             110    0.17 7  304 235 
 GUY2CHZ I         736 34.89         2.3 0.50                           304 235 
 RREF HZ EP        735 56.56                             109    0.60 7  324 229 
 RREF HE ES        736 32.34                             109    0.45 7  324 229 
 RREF HZ I         736 37.88         3.1 0.30            111            324 229 
 TOL  SZ EP   1    735 58.61                             108    0.50 5  346 225 
 TOL  SN ES        736 35.41                             108   -0.31 6  346 225 
 TOL  SZ I         736 41.42         2.0 0.38            109            346 225 
 PRA  HZ EP   1    736  3.22                             105   -0.21 4  395 210 
 PRA  HN ES        736 44.85                             105   -0.33 6  395 210 
 PRA  HZ I         736 48.64         3.3 0.56            107            395 210 
                                                                                
