 2017 1014 0555 59.6 L   6.788 -73.407126.5  RSN  4 0.3 0.8LRSN                1
 GAP=175        0.81       5.7     4.9  6.6  0.1344E+02  0.6480E+01  0.7565E+01E
 Epicentro: SAN VICENTE DE CHUCURI - SANTANDER                                 3
 ACTION:UPD 17-11-07 19:31 OP:rebc STATUS:               ID:20171014055559 L   I
 OLDACT:REG 17-10-14 11:30 OP:osc  STATUS:               ID:20171014054744     3
 2017-10-14-0548-00M.COL___396                                                 6
 STAT SP IPHASW D HRMM SECON CODA AMPLIT PERI AZIMU VELO AIN AR TRES W  DIS CAZ7
 BAR2 EZ EP        556 16.94                             165   -0.2110 33.0 131 
 BAR2 EZ ES        556 30.43                             165   -0.4410 33.0 131 
 BRR  HZ EP        556 17.38                             158   -0.0410 48.8 316 
 BRR  HN ES        556 31.80                             158    0.4410 48.8 316 
 BRR  HZ I         556 32.28         2.4 0.16            156           48.8 316 
 RUS  HZ EP        556 21.83                             138   -0.0210  105 160 
 RUS  HN ES        556 39.65                             138    0.4110  105 160 
 RUS  HZ I         556 40.63         1.5 0.28            138            105 160 
 PTB  HZ EP        556 22.55                             134    0.1710  119 257 
 PTB  HN ES        556 39.89                             134   -0.2910  119 257 
 PTB  HZ I         556 45.97         0.7 0.20            131            119 257 
                                                                                
