 2014  714 0731 39.5 L   6.838 -73.138139.4  RSN 12 0.5 2.1LRSN                1
 GAP=136        1.23       3.3     4.7  6.9 -0.4039E+01  0.1394E+02 -0.1677E+01E
 Epicentro: LOS SANTOS - SANTANDER                                             3
 ACTION:UPD 15-03-16 20:43 OP:nd   STATUS:               ID:20140714073139 L   I
 OLDACT:REG 14-07-14 13:28 OP:fm   STATUS:               ID:20140714072814     3
 2014-07-14-0728-14M.COL___244                                                 6
 STAT SP IPHASW D HRMM SECON CODA AMPLIT PERI AZIMU VELO AIN AR TRES W  DIS CAZ7
 BAR2 SZ EP        731 58.61                             168    0.1610 27.6 190 
 BAR2 SZ ES        732 13.44                             168    0.2010 27.6 190 
 BAR2 SZ I         732 14.77        38.1 0.18            168           27.6 190 
 PAM  SZ EP        732  1.57                             151    0.7610 73.7  41 
 PAM  SN ES        732 17.62                             151    0.1910 73.7  41 
 RUS  HZ EP        732  2.62                             141   -0.3110  105 177 
 RUS  HN ES        732 21.08                             141   -0.1310  105 177 
 PTB  HZ EP        732  5.22                             130   -0.88 9  149 257 
 PTB  HN ES        732 25.73                             130   -1.12 9  149 257 
 PTB  HZ I         732 28.93        15.5 0.14            129            149 257 
 OCA  HZ EP        732  6.37                             129   -0.56 9  156 353 
 OCA  HN ES        732 28.45                             129    0.12 9  156 353 
 OCA  HZ I         732 32.00        10.4 0.58            129            156 353 
 SPBC HZ EP        732  7.64                             127   -0.23 9  167 218 
 SPBC HE ES        732 30.00                             127   -0.01 9  167 218 
 SPBC HZ I         732 37.34        13.5 0.22            128            167 218 
 ZAR  HZ EP        732 12.03                             121    0.58 9  203 291 
 ZAR  HN ES        732 37.18                             121    0.81 9  203 291 
 ZAR  HZ I         732 43.16         9.4 0.26            121            203 291 
 NOR  HZ EP        732 15.00                             117   -0.19 8  238 234 
 NOR  HE ES        732 43.36                             117    0.32 8  238 234 
 NOR  HZ I         732 50.42         6.7 0.24            117            238 234 
 SML  HZ EP        732 15.45                             116    0.06 8  240 335 
 SML  HE ES        732 42.62                             116   -0.77 8  240 335 
 SML  HZ I         732 56.34        10.6 0.10            117            240 335 
 ROSC BN ES   4    732 49.03                             115    1.51 0  257 211 
 HEL  HZ EP        732 19.77                             113    0.18 8  274 255 
 HEL  HE ES        732 50.86                             113   -0.01 8  274 255 
 HEL  HZ I         732 56.98         4.9 0.30            114            274 255 
 GUY2CHZ EP        732 23.95                             111    0.79 7  304 234 
 GUY2CHE ES        732 58.09                             111    0.87 7  304 234 
 GUY2CHZ I         733  4.08         4.8 0.32                           304 234 
 PRA  HZ EP        732 32.82                             105   -0.45 6  396 209 
 PRA  HE ES        733 15.17                             105   -0.05 6  396 209 
 PRA  HZ I         733 20.30         4.5 0.30            107            396 209 
                                                                                
