 2013  414 0647 50.5 L   6.777 -73.168141.0  RSN  6 0.4 1.9LRSN                1
 GAP=135        1.15       6.0     5.8  8.7 -0.4314E+01  0.3734E+01  0.1210E+02E
 Epicentro: LOS SANTOS - SANTANDER                                             3
 ACTION:UPD 13-05-22 14:38 OP:EP   STATUS:               ID:20130414064750 L   I
 2013-04-14-0638-51M.COL___211                                                 6
 STAT SP IPHASW D HRMM SECON CODA AMPLIT PERI AZIMU VELO AIN AR TRES W  DIS CAZ7
 BAR2 SZ EP        648  9.59                             171    0.0910 20.5 184 
 BAR2 SZ I         648  9.75        25.8 0.40            170           20.5 184 
 GIR2 SZ EP        648  9.63                             166   -0.0410 33.5 355 
 GIR2 SZ ES        648 24.37                             166   -0.2510 33.5 355 
 BRR  HZ EP        648 11.27                             152    0.1810 70.4 301 
 BRR  HN ES        648 28.14                             152    0.9910 70.4 301 
 PAM  SZ EP        648 12.52                             149    0.0910 80.9  40 
 PAM  SN ES        648 29.03                             149   -0.5110 80.9  40 
 PAM  SN I         648 30.11        22.5 0.26            152           80.9  40 
 RUS  HZ EP        648 13.99                             143    0.3810 98.2 175 
 RUS  HN ES        648 31.62                             143   -0.0210 98.2 175 
 RUS  HN I         648 33.84         8.6 0.44            144           98.2 175 
 PTB  HZ EP        648 16.48                             131   -0.34 9  145 260 
 PTB  HN ES        648 36.65                             131   -0.70 9  145 260 
 PTB  HN I         648 41.24        10.2 0.24            132            145 260 
                                                                                
