 2013  514 0024 25.7 L   6.818 -73.135140.3  RSN  9 0.4 1.7LRSN                1
 GAP=184        1.09       3.6     5.8  7.5  0.1643E+01  0.8876E+01 -0.3766E+01E
 Epicentro: LOS SANTOS - SANTANDER                                             3
 ACTION:UPD 13-06-20 09:50 OP:ep   STATUS:               ID:20130514002425 L   I
 2013-05-14-0020-00M.COL___256                                                 6
 STAT SP IPHASW D HRMM SECON CODA AMPLIT PERI AZIMU VELO AIN AR TRES W  DIS CAZ7
 BAR2 SZ EP        024 45.10                             169    0.3610 25.5 192 
 BAR2 SZ ES        025  0.03                             169    0.4610 25.5 192 
 BAR2 SZ I         025  0.91         6.8 0.18            162           25.5 192 
 BRR  HZ EP        024 46.81                             151    0.5310 71.3 297 
 BRR  HN ES   1    025  2.64                             151    0.31 7 71.3 297 
 BRR  HZ I         025  7.71         9.5 0.30            144           71.3 297 
 RUS  HZ EP        024 48.90                             142   -0.1810  103 177 
 RUS  HN ES        025  6.82                             142   -0.4810  103 177 
 RUS  HZ I         025  8.59         4.8 0.32            132            103 177 
 PTB  HZ EP        024 52.59                             130    0.20 9  149 258 
 PTB  HN ES        025 12.48                             130   -0.71 9  149 258 
 PTB  HZ I         025 15.95         6.5 0.14            121            149 258 
 OCA  HN ES        025 14.25                             129   -0.80 9  158 353 
 OCA  HZ I         025 19.02         7.5 0.20            121            158 353 
 ZAR  HN ES   1    025 23.30                             121    0.39 6  204 291 
 ZAR  HZ I         025 29.69         7.2 0.24            113            204 291 
 NOR  HE ES        025 29.18                             117    0.01 8  237 234 
 SML  HZ EP        025  1.49                             116   -0.41 8  242 335 
 SML  HN ES        025 30.55                             116    0.43 8  242 335 
 PRA  HZ EP        025 19.54                             105    0.21 6  394 210 
 PRA  HZ I         026  7.60         1.5 0.70             99            394 210 
                                                                                
