 2012  914 0011 31.8 L   6.754 -73.155142.4  RSN  7 0.4 1.5LRSN                1
 GAP=137        0.81       5.7     5.0  8.7 -0.1256E+00  0.9872E+01 -0.5150E+01E
 Epicentro: LOS SANTOS - SANTANDER                                             3
 ACTION:UPD 12-10-22 14:18 OP:ep   STATUS:               ID:20120914001131 L   I
 2012-09-14-0010-00M.COL___227                                                 6
 STAT SP IPHASW D HRMM SECON CODA AMPLIT PERI AZIMU VELO AIN AR TRES W  DIS CAZ7
 BAR2 SZ EP   1    011 50.85                             172   -0.05 7 18.1 190 
 BAR2 SZ ES   1    012  5.43                             172   -0.38 7 18.1 190 
 BAR2 SZ I         012  6.93        12.2 0.22                          18.1 190 
 GIR2 SZ ES   1    012  6.16                             165   -0.17 7 36.2 353 
 BRR  HZ EP   1    011 52.76                             151    0.10 7 72.9 302 
 BRR  HZ I         011 53.03         9.4 0.25                          72.9 302 
 BRR  HN ES   1    012  9.69                             151    0.75 7 72.9 302 
 PAM  SZ EP   1    011 53.82                             149   -0.09 7 82.0  38 
 PAM  SZ I         011 54.02         2.7 0.22                          82.0  38 
 PAM  SN ES   1    012 11.01                             149   -0.17 7 82.0  38 
 RUS  HE ES   1    012 13.31                             144    0.50 7 95.6 175 
 RUS  HZ I         012 14.29         2.6 0.20                          95.6 175 
 PTB  HN ES   1    012 18.22                             132   -0.76 7  146 261 
 PTB  HN I         012 20.59         4.3 0.32                           146 261 
 ZAR  HN ES   1    012 29.58                             121    0.25 6  205 294 
 ZAR  HZ I         012 31.85         3.7 0.28                           205 294 
                                                                                
