 2017  914 0704 18.7 L   6.875 -73.039171.7  RSN 26 0.6 2.3LRSN                1
 GAP= 73        0.89       2.7     2.8  4.4  0.2225E+00  0.3456E+01  0.6432E-01E
 Epicentro: PIEDECUESTA - SANTANDER                                            3
 ACTION:UPD 17-10-05 19:12 OP:rebc STATUS:               ID:20170914070418 L   I
 OLDACT:UP  17-09-14 19:45 OP:and  STATUS:               ID:20170914065744     3
 OLDACT:UP  17-09-14 19:44 OP:and  STATUS:               ID:20170914065744     3
 OLDACT:UP  17-09-14 19:43 OP:and  STATUS:               ID:20170914065744     3
 OLDACT:UP  17-09-14 19:39 OP:and  STATUS:               ID:20170914065744     3
 OLDACT:UP  17-09-14 19:30 OP:and  STATUS:               ID:20170914065744     3
 OLDACT:UP  17-09-14 19:29 OP:and  STATUS:               ID:20170914065744     3
 OLDACT:UP  17-09-14 19:29 OP:and  STATUS:               ID:20170914065744     3
 OLDACT:UP  17-09-14 19:16 OP:and  STATUS:               ID:20170914065744     3
 OLDACT:UP  17-09-14 16:43 OP:leo  STATUS:               ID:20170914065744     3
 OLDACT:UP  17-09-14 16:41 OP:leo  STATUS:               ID:20170914065744     3
 OLDACT:UP  17-09-14 16:32 OP:leo  STATUS:               ID:20170914065744     3
 OLDACT:UP  17-09-14 16:25 OP:leo  STATUS:               ID:20170914065744     3
 OLDACT:UP  17-09-14 16:18 OP:leo  STATUS:               ID:20170914065744     3
 OLDACT:REG 17-09-14 11:34 OP:dhb  STATUS:               ID:20170914065744     3
 2017-09-14-0658-00M.COL___410                                                 6
 STAT SP IPHASW D HRMM SECON CODA AMPLIT PERI AZIMU VELO AIN AR TRES W  DIS CAZ7
 BAR2 EZ IP     D  7 4 41.48                             168   -0.2510 35.1 207 
 BAR2 EZ I         7 5  0.77        37.5 0.50            166           35.1 207 
 PAM  EZ IP     D  7 4 43.45                             159    0.3510 63.5  36 
 PAM  EN ES        7 5  1.78                             159   -0.3210 63.5  36 
 PAM  EZ I         7 5  4.01        40.7 0.42            155           63.5  36 
 BRR  HZ EP        7 4 43.46                             154    0.3510 78.7 289 
 BRR  HN ES        7 5  2.84                             154    0.7110 78.7 289 
 BRR  HZ I         7 5  5.77        18.7 0.14            151           78.7 289 
 RUS  HZ EP     C  7 4 45.41                             146   -0.2410  109 183 
 RUS  HE ES   2    7 5  5.72                             146   -0.92 5  109 183 
 RUS  HZ I         7 5  7.23        26.3 0.44            141            109 183 
 TAM  HZ IP     D  7 4 48.13                             138    0.29 9  146 109 
 TAM  HZ I         7 5  9.63        13.2 0.56            132            146 109 
 TAM  HN ES        7 5 10.46                             138   -0.08 9  146 109 
 SPBC HZ EP        7 4 50.33                             132   -0.25 9  177 220 
 SPBC HN ES   2    7 5 14.64                             132   -0.77 4  177 220 
 SPBC HZ I         7 5 19.72        26.1 0.24            127            177 220 
 YPLC HZ IP     D  7 4 50.68                             132   -0.05 9  179 156 
 YPLC HN ES        7 5 16.11                             132    0.42 9  179 156 
 YPLC HZ I         7 5 21.70        10.7 0.40            126            179 156 
 ZAR  HZ EP        7 4 53.47                             126   -0.31 8  212 289 
 ZAR  HN ES        7 5 20.68                             126   -0.44 8  212 289 
 ZAR  HZ I         7 5 27.91        18.9 0.28            121            212 289 
 TABC EZ EP   9    7 4 58.98                             123    1.48 0  243 212 
 TABC EZ ES        7 5 28.84                             123   -0.38 8  243 212 
 TABC EZ I         7 5 33.80        26.8 0.38            118            243 212 
 NOR  HZ EP        7 4 57.43                             122   -0.14 8  249 234 
 NOR  HN ES        7 5 27.35                             122   -0.52 8  249 234 
 NOR  HZ I         7 5 34.98        12.4 0.26            117            249 234 
 CHI  HZ EP   2    7 4 58.68                             121   -0.49 4  260 197 
 CHI  HN ES        7 5 30.60                             121   -0.11 8  260 197 
 CHI  HZ I         7 5 35.72         5.6 0.34            116            260 197 
 ROSC BZ EP   9    7 5  1.43                             120    1.65 0  266 212 
 ROSC BN ES        7 5 33.79                                    0.34 8  266 212 
 ROSC BZ I         7 5 43.42         7.3 0.35            115            266 212 
 HEL  HZ EP        7 5  2.58                             118    0.75 7  286 255 
 HEL  HN ES   2    7 5 35.44                             118   -0.01 4  286 255 
 HEL  HZ I         7 5 42.26         6.7 0.32            114            286 255 
 URE  HZ EP        7 5  1.41                             118   -0.65 7  292 290 
 URE  HN ES   3    7 5 33.44                             118   -2.41 2  292 290 
 URE  HZ I         7 5 35.97        13.1 0.64            113            292 290 
 PTGC HZ IP   3 D  7 5  2.93                             116   -1.35 2  312 161 
 PTGC HN ES   4    7 5 36.97                             116   -2.84 0  312 161 
 PTGC HZ I         7 5 42.98         5.7 0.32            111            312 161 
 GUY2CHZ EP   4    7 5  6.37                             116    1.13 0  316 235 
 GUY2CHN ES   4    7 5 46.38                             116    4.87 0  316 235 
 GUY2CHZ I         7 5 53.03        11.0 0.52                           316 235 
 ELA  HZ EP        7 5  8.96                             114    0.57 7  344 230 
 ELA  HN ES   3    7 5 48.69                             114    1.56 2  344 230 
 ELA  HZ I         7 5 54.42         6.4 0.46            109            344 230 
 CBOC HZ EP        7 5  8.93                             113    0.55 6  347 251 
 CBOC HN ES   3    7 5 48.87                             113    1.77 2  347 251 
 CBOC HZ  AMP      7 5 59.38        49.0 0.48                           347 251 
 DBB  EZ EP        7 5  9.39                             113    0.75 6  351 273 
 DBB  EN ES   3    7 5 49.20                             113    1.64 2  351 273 
 DBB  EZ I         7 5 50.14         4.9 0.28            109            351 273 
 VALLCHE ES        7 5 57.93                             110    0.05 6  402 357 
 PRA  HZ EP        7 5 14.82                             110    0.06 6  405 210 
 PRA  HN ES   3    7 5 57.09                             110   -1.37 1  405 210 
 PRA  HZ I         7 6  1.28         6.7 0.20            106            405 210 
 SJC  HZ EP     C  7 5 14.34                             110   -0.88 6  409 325 
 SJC  HN ES   4    7 5 56.34                             110   -2.94 0  409 325 
 SJC  HZ I         7 6  0.89         5.0 0.38            106            409 325 
 ORTC HZ EP        7 5 15.17                             110   -0.05 6  409 217 
 PAL  HZ EP     D  7 5 16.33                             109   -0.19 5  420 239 
 PAL  HZ I         7 6  4.89         3.8 0.20            105            420 239 
 CRJC HZ EP        7 5 21.84                             107    0.82 5  459   2 
 CRJC HN ES   4    7 6  7.23                             107   -2.37 0  459   2 
 URI  HZ EP        7 5 30.15                             104   -0.99 4  546  12 
 URI  HN ES   3    7 6 25.98                             104   -1.63 1  546  12 
                                                                                
