 2012  914 0750 54.7 L   6.708 -73.207153.2  RSN  4 0.5 1.3LRSN                1
 GAP=220        0.89       9.9    10.6 11.7  0.4355E+02  0.4649E+02  0.2525E+00E
 Epicentro: VILLANUEVA - SANTANDER                                             3
 ACTION:UPD 12-10-22 14:18 OP:ep   STATUS:               ID:20120914075049 L   I
 2012-09-14-0750-00M.COL___227                                                 6
 STAT SP IPHASW D HRMM SECON CODA AMPLIT PERI AZIMU VELO AIN AR TRES W  DIS CAZ7
 BAR2 SZ ES   1    751 30.22                             175   -0.73 7 13.1 168 
 BAR2 SZ I         751 32.80         6.2 0.42                          13.1 168 
 BRR  HZ EP   1    751 16.55                             154   -0.09 7 71.1 308 
 BRR  HN ES   1    751 34.39                             154    0.62 7 71.1 308 
 RUS  HN ES   1    751 37.63                             148    0.46 7 91.2 171 
 RUS  HZ I         751 39.78         1.9 0.46                          91.2 171 
 PTB  HZ EP   1    751 21.51                             135   -0.04 7  139 262 
 PTB  HN ES   1    751 42.24                             135   -0.26 7  139 262 
 PTB  HN I         751 43.96         3.9 0.38                           139 262 
                                                                                
