 2017  114 0412 51.3 L   6.798 -73.123146.0  RSN  9 0.5 1.4LRSN                1
 GAP=121        1.02       4.2     5.4  6.8  0.3134E+01  0.9237E+01  0.7583E+01E
 Epicentro: LOS SANTOS - SANTANDER                                             3
 ACTION:UPD 17-05-22 15:59 OP:jn   STATUS:               ID:20170114041251 L   I
 OLDACT:UP  17-01-14 14:49 OP:dani STATUS:               ID:20170114040745d    3
 OLDACT:DUP 17-01-14 14:43 OP:dani STATUS:               ID:20170114040745d    3
 OLDACT:REG 17-01-14 12:31 OP:dani STATUS:               ID:20170114040744     3
 2017-01-14-0408-00M.COL___326                                                 6
 STAT SP IPHASW D HRMM SECON CODA AMPLIT PERI AZIMU VELO AIN AR TRES W  DIS CAZ7
 BAR2 EZ EP        413 10.72                             170   -0.2910 23.7 196 
 BAR2 EZ ES        413 26.30                             170   -0.0510 23.7 196 
 BAR2 EZ I         413 27.52         7.1 0.17            167           23.7 196 
 BRR  HZ EP        413 12.79                             152    0.1410 73.5 298 
 BRR  HN ES        413 29.97                             152    0.7010 73.5 298 
 BRR  HZ I         413 35.26         4.4 0.30            149           73.5 298 
 PAM  HZ EP        413 13.65                             152    0.1410 76.0  38 
 PAM  HN ES        413 30.86                             152    0.0710 76.0  38 
 PAM  HZ I         413 33.19         3.0 0.25            157           76.0  38 
 RUS  HZ EP        413 14.76                             144   -0.3410  100 177 
 RUS  HN ES        413 33.32                             144   -0.3010  100 177 
 RUS  HZ I         413 34.67         2.3 0.30            146            100 177 
 PTB  HZ EP        413 17.83                             132   -0.72 9  150 259 
 PTB  HE ES   3    413 38.92                             132   -0.85 2  150 259 
 PTB  HZ I         413 46.27         3.1 0.16            131            150 259 
 ZAR  HN ES        413 49.24                             122   -0.32 8  206 292 
 ZAR  HZ I         413 55.39         3.2 0.30            122            206 292 
 CHI  HZ EP        413 29.77                             117    0.66 8  249 196 
 CHI  HN ES        413 59.21                             117    0.65 8  249 196 
 CHI  HZ I         414  3.96         1.2 0.28            119            249 196 
 GUY2CHZ EP   3    413 37.15                             112    1.97 2  303 235 
 GUY2CHE ES   4    414 12.61                             112    3.24 0  303 235 
 GUY2CHZ I         414 17.75         2.2 0.70                           303 235 
 PTGC HZ EP   3    413 33.83                             112   -1.26 2  308 159 
                                                                                
