 2012 1014 0753 20.3 L   6.719 -73.100144.5  RSN  4 0.1 1.3LRSN                1
 GAP=146        0.31       5.8     4.3  6.3 -0.9691E+00 -0.1408E+02  0.3314E+01E
 Epicentro: JORDAN - SANTANDER                                                 3
 ACTION:UPD 12-11-22 17:03 OP:ep   STATUS:               ID:20121014075320 L   I
 2012-10-14-0750-00M.COL___231                                                 6
 STAT SP IPHASW D HRMM SECON CODA AMPLIT PERI AZIMU VELO AIN AR TRES W  DIS CAZ7
 BAR2 SZ EP   2    753 39.55                             173   -0.08 5 16.7 213 
 BRR  HZ EP        753 41.76                             150   -0.0510 80.1 302 
 BRR  HZ I         753 44.94         3.8 0.32                          80.1 302 
 BRR  HN ES   1    753 58.64                             150    0.03 7 80.1 302 
 PAM  SZ EP        753 42.67                             149    0.0610 81.7  33 
 PAM  SZ I         753 43.46         3.8 0.28                          81.7  33 
 PAM  SN ES   3    753 59.79                             149   -0.25 2 81.7  33 
 RUS  HN ES   3    754  1.31                             146    0.14 2 91.4 179 
                                                                                
