 2017 1014 0104 33.0 L   6.730 -73.199146.5  RSN  8 0.6 1.3LRSN                1
 GAP=133        1.00       5.4     5.1  7.4  0.8005E+01  0.9407E+01 -0.4064E+00E
 Epicentro: VILLANUEVA - SANTANDER                                             3
 ACTION:UPD 17-11-07 19:31 OP:rebc STATUS:               ID:20171014010433 L   I
 OLDACT:UP  17-10-14 12:46 OP:osc  STATUS:               ID:20171014005525     3
 OLDACT:REG 17-10-14 10:55 OP:osc  STATUS:               ID:20171014005525     3
 2017-10-14-0058-00M.COL___429                                                 6
 STAT SP IPHASW D HRMM SECON CODA AMPLIT PERI AZIMU VELO AIN AR TRES W  DIS CAZ7
 BAR2 EZ EP        1 4 53.20                             174    0.6310 15.4 173 
 BAR2 EZ ES        1 5  7.47                             174   -0.3810 15.4 173 
 BAR2 EZ I         1 5  9.62         3.8 0.26            176           15.4 173 
 BRR  HZ EP        1 4 54.29                             153    0.1210 70.4 306 
 BRR  HN ES        1 5 10.98                             153    0.2910 70.4 306 
 PAM  EZ EP   2    1 4 54.93                             148   -0.95 5 87.1  39 
 PAM  EN ES   3    1 5 12.26                             148   -1.48 2 87.1  39 
 PAM  EZ I         1 5 14.41         4.1 0.17            149           87.1  39 
 RUS  HZ EP        1 4 56.66                             146    0.3410 93.5 172 
 RUS  HN ES        1 5 14.40                             146   -0.1110 93.5 172 
 RUS  HZ I         1 5 15.21         1.9 0.44            149           93.5 172 
 PTB  HN ES        1 5 19.93                             134   -0.03 9  141 261 
 ZAR  HZ EP        1 5  4.55                             123   -0.69 9  202 295 
 ZAR  HN ES        1 5 30.63                             123    0.23 9  202 295 
 ZAR  HZ I         1 5 37.13         4.9 0.32            123            202 295 
 NOR  HN ES   3    1 5 32.63                             120   -2.28 2  225 235 
 GUY2CHN ES        1 5 48.60                             113   -0.22 7  292 235 
                                                                                
