 2014  314 0826 21.2 L   6.790 -73.144148.4  RSN  5 0.3 1.3LRSN                1
 GAP=137        0.75       4.1     3.6  8.4 -0.2136E+01  0.8057E+01  0.2101E+01E
 Epicentro: LOS SANTOS - SANTANDER                                             3
 OLDACT:REG 14-03-14 07:48 OP:fm   STATUS:               ID:20140314081814     3
 OLDACT:UP  14-03-14 13:01 OP:fm   STATUS:               ID:20140314081814     3
 OLDACT:UP  14-03-14 13:01 OP:fm   STATUS:               ID:20140314081814     3
 ACTION:UPD 14-04-09 23:17 OP:nd   STATUS:               ID:20140314082621 L   I
 OLDACT:UP  14-03-14 13:06 OP:fm   STATUS:               ID:20140314081814     3
 2014-03-14-0818-14M.COL___225                                                 6
 STAT SP IPHASW D HRMM SECON CODA AMPLIT PERI AZIMU VELO AIN AR TRES W  DIS CAZ7
 PAM  SZ EP        826 43.94                             151    0.1710 78.1  39 
 PAM  SN ES        827  1.34                             151   -0.0110 78.1  39 
 PAM  SZ I         827  2.89         3.2 0.54            162           78.1  39 
 RUS  HZ EP        826 45.10                             145   -0.0610 99.4 176 
 RUS  HN ES   1 C  827  3.68                             145   -0.15 7 99.4 176 
 RUS  SZ I         827 18.64         3.3 4.04            143           99.4 176 
 PTB  HZ EP        826 48.20                             132   -0.21 9  148 259 
 PTB  HN ES        827  9.17                             132   -0.45 9  148 259 
 PTB  SZ I         827 14.67         3.7 1.44            139            148 259 
 SPBC HN ES   1    827 12.99                             130    0.79 7  162 219 
 ZAR  HE ES        827 19.68                             123    0.28 9  205 292 
                                                                                
