 2015  414 0753  8.6 L   6.809 -73.130147.0  RSN  7 0.5 1.9LRSN                1
 GAP=256        1.25       8.6     7.9  8.6 -0.1612E+02  0.1480E+02  0.1531E+02E
 Epicentro: LOS SANTOS - SANTANDER                                             3
 ACTION:UPD 15-06-03 16:54 OP:cam  STATUS:               ID:20150414075308 L   I
 OLDACT:REG 15-04-14 13:07 OP:carl STATUS:               ID:20150414074735     3
 2015-04-14-0747-35M.COL___272                                                 6
 STAT SP IPHASW D HRMM SECON CODA AMPLIT PERI AZIMU VELO AIN AR TRES W  DIS CAZ7
 BAR2 EZ EP        753 28.36                             170   -0.0210 24.6 193 
 BAR2 EZ ES        753 43.95                             170    0.1210 24.6 193 
 BAR2 EZ I         753 44.67        13.6 0.28            167           24.6 193 
 BRR  HZ EP        753 30.19                             153    0.2710 72.2 297 
 BRR  HN ES        753 46.88                             153    0.3210 72.2 297 
 BRR  HZ I         753 51.64         8.3 0.26            149           72.2 297 
 PTB  HZ EP        753 34.97                             132   -0.84 9  150 259 
 PTB  HN ES        753 55.97                             132   -1.08 9  150 259 
 PTB  HZ I         753 58.21         8.5 0.14            131            150 259 
 SPBC HZ EP        753 37.55                             129    0.21 9  165 219 
 SPBC HN ES        753 59.88                             129    0.11 9  165 219 
 SPBC HZ I         754  2.94        10.4 0.10            129            165 219 
 NOR  HZ EP        753 44.34                             119   -0.24 8  237 235 
 NOR  HN ES        754 12.78                             119    0.11 8  237 235 
 NOR  HZ I         754 18.48         7.9 0.18            119            237 235 
 HEL  HZ EP        753 49.40                             115    0.34 8  274 256 
 HEL  HE ES        754 21.68                             115    1.05 8  274 256 
 HEL  HZ I         754 27.60         3.3 0.28            115            274 256 
 GUY2CHZ EP   4    753 53.89                             112    1.43 0  303 235 
 GUY2CHE ES   4    754 29.74                             112    3.05 0  303 235 
 GUY2CHZ I         754 37.57         3.8 0.50                           303 235 
                                                                                
