 2017  314 0719 43.7 L   6.685 -73.165147.5  RSN  4 0.4 1.0LRSN                1
 GAP=226        0.91       5.5     7.7  8.7  0.1048E+02  0.8180E+01  0.1716E+00E
 Epicentro: VILLANUEVA - SANTANDER                                             3
 ACTION:UPD 17-05-25 18:40 OP:jn   STATUS:               ID:20170314071943 L   I
 OLDACT:REG 17-03-14 13:05 OP:cara STATUS:               ID:20170314071743     3
 2017-03-14-0718-00M.COL___391                                                 6
 STAT SP IPHASW D HRMM SECON CODA AMPLIT PERI AZIMU VELO AIN AR TRES W  DIS CAZ7
 BRR  HZ EP        720  4.81                             151   -0.4910 76.4 308 
 BRR  HN ES        720 22.57                             151    0.3910 76.4 308 
 RUS  HN ES        720 24.62                             148   -0.1110 88.1 174 
 RUS  HZ I         720 27.07         1.0 0.18            145           88.1 174 
 PTB  HZ EP        720 10.33                             133   -0.09 9  144 264 
 PTB  HN ES        720 31.11                             133   -0.18 9  144 264 
 PTB  HZ I         720 33.50         1.0 0.58            132            144 264 
 SPBC HZ EP        720 11.93                             132    0.66 9  152 221 
 SPBC HN ES        720 32.67                             132   -0.14 9  152 221 
 SPBC HZ I         720 39.74         2.1 0.34            129            152 221 
                                                                                
