 2017  314 0948 51.0 L   6.813 -73.175143.8  RSN  6 0.4 1.5LRSN                1
 GAP=132        0.85       4.1     3.8  6.6 -0.1753E+01  0.1075E+02 -0.2763E+01E
 Epicentro: LOS SANTOS - SANTANDER                                             3
 ACTION:UPD 17-05-25 18:40 OP:jn   STATUS:               ID:20170314094851 L   I
 OLDACT:REG 17-03-14 13:12 OP:cara STATUS:               ID:20170314094746     3
 2017-03-14-0948-00M.COL___385                                                 6
 STAT SP IPHASW D HRMM SECON CODA AMPLIT PERI AZIMU VELO AIN AR TRES W  DIS CAZ7
 BAR2 EZ EP        949 10.40                             170    0.0310 24.5 182 
 BAR2 EZ ES        949 25.72                             170    0.2010 24.5 182 
 BAR2 EZ I         949 27.02        12.9 0.24            172           24.5 182 
 PAM  EZ EP        949 13.34                             150    0.3210 78.4  42 
 PAM  EN ES        949 30.36                             150    0.1210 78.4  42 
 PAM  EZ I         949 33.73         4.6 0.38            153           78.4  42 
 RUS  HZ EP        949 14.46                             143   -0.1810  102 174 
 RUS  HN ES        949 32.78                             143   -0.3410  102 174 
 RUS  HZ I         949 34.06         3.6 0.52            149            102 174 
 PTB  HZ EP        949 17.07                             132   -0.43 9  145 258 
 PTB  HN ES        949 38.09                             132   -0.12 9  145 258 
 PTB  HZ I         949 44.99         3.3 0.18            134            145 258 
 ZAR  HZ EP        949 22.93                             122    0.02 9  200 292 
 ZAR  HN ES        949 47.55                             122   -0.27 9  200 292 
 ZAR  HZ I         949 54.15         3.8 0.24            124            200 292 
 GUY2CHZ EP   4    949 35.90                             112    1.63 0  299 234 
 GUY2CHN ES        950  9.07                             112    1.01 7  299 234 
 GUY2CHZ  IAML     950 16.80         2.4 0.62                           299 234 
                                                                                
