 2013  714 0056 25.1 L   6.755 -73.189142.0  RSN  4 0.4 1.1LRSN                1
 GAP=174        1.08       6.6     7.1  9.0  0.1220E+02  0.9220E+01  0.1371E+02E
 Epicentro: VILLANUEVA - SANTANDER                                             3
 ACTION:UPD 13-08-12 10:37 OP:ep   STATUS:               ID:20130714005625 L   I
 OLDACT:REG 13-07-14 07:11 OP:nd   STATUS:               ID:20130714004959     3
 2013-07-14-0049-59M.COL___267                                                 6
 STAT SP IPHASW D HRMM SECON CODA AMPLIT PERI AZIMU VELO AIN AR TRES W  DIS CAZ7
 GIR2 SZ EP        056 44.09                             165   -0.3810 35.8 359 
 GIR2 SZ ES        056 59.12                             165   -0.4510 35.8 359 
 GIR2 SZ I         057  1.45         3.1 0.14            167           35.8 359 
 BRR  HZ EP        056 45.88                             152    0.1110 69.7 304 
 BRR  HN ES        057  2.69                             152    0.8010 69.7 304 
 BRR  HZ I         057  3.86         5.3 0.54            152           69.7 304 
 RUS  HZ EP        056 48.45                             144    0.2810 96.1 173 
 RUS  HN ES        057  6.20                             144    0.0410 96.1 173 
 RUS  HZ I         057  8.07         1.3 0.48            145           96.1 173 
 PTB  HZ EP        056 51.34                             132    0.07 9  142 260 
 PTB  HN ES        057 11.16                             132   -0.51 9  142 260 
 PTB  HZ I         057 17.22         1.7 0.24            132            142 260 
                                                                                
