 2016  214 0915 58.5 L   6.817 -73.186140.7  RSN  9 0.3 1.5LRSN                1
 GAP=131        0.82       2.5     3.4  5.4 -0.1185E+01  0.6357E+01  0.9119E+00E
 Epicentro: ZAPATOCA - SANTANDER                                               3
 ACTION:UPD 16-03-04 21:26 OP:rebc STATUS:               ID:20160214091558 L   I
 OLDACT:REG 16-02-14 14:49 OP:ak   STATUS:               ID:20160214090737     3
 2016-02-14-0907-37M.COL___292                                                 6
 STAT SP IPHASW D HRMM SECON CODA AMPLIT PERI AZIMU VELO AIN AR TRES W  DIS CAZ7
 BAR2 EZ EP        916 17.63                             169    0.0610 24.9 179 
 BAR2 EZ ES        916 32.44                             169    0.0010 24.9 179 
 BAR2 EZ I         916 34.15         8.1 0.20            165           24.9 179 
 PAM  EZ EP        916 20.66                             149    0.3710 78.9  43 
 PAM  EN ES        916 37.41                             149    0.1410 78.9  43 
 PAM  EZ I         916 39.64         4.3 0.46            144           78.9  43 
 RUS  HZ EP        916 21.86                             142   -0.0810  103 174 
 RUS  HN ES        916 40.07                             142   -0.1510  103 174 
 RUS  HZ I         916 41.88         1.7 0.24            135            103 174 
 PTB  HZ EP        916 24.35                             132   -0.36 9  144 258 
 PTB  HN ES        916 44.67                             132   -0.47 9  144 258 
 PTB  HZ I         916 48.06         5.1 0.24            125            144 258 
 OCA  HZ EP   2    916 26.32                             129    0.11 5  158 355 
 OCA  HN ES        916 47.58                             129   -0.23 9  158 355 
 OCA  HZ I         916 50.60         9.9 0.18            123            158 355 
 SPBC HZ EP        916 26.48                             128   -0.03 9  162 217 
 SPBC HN ES        916 48.29                             128   -0.05 9  162 217 
 SPBC HZ I         916 55.98         4.2 0.22            121            162 217 
 ZAR  HZ EP        916 29.56                             122   -0.57 9  199 292 
 ZAR  HN ES        916 55.52                             122    0.73 9  199 292 
 ZAR  HZ I         917  3.35         2.9 0.20            116            199 292 
 CHI  HZ EP        916 35.98                             116   -0.03 8  249 194 
 CHI  HZ I         917  2.54         2.8 0.78            110            249 194 
 CHI  HN ES        917  5.47                             116    0.21 8  249 194 
 GUY2CHN ES        917 15.97                             111    0.76 7  299 234 
                                                                                
