 2017 1114 0814  0.0 L   6.784 -73.121146.6  RSN  8 0.4 1.3LRSN                1
 GAP=140        1.10       4.5     4.6  6.6 -0.2233E+01  0.9436E+01  0.2267E+01E
 Epicentro: LOS SANTOS - SANTANDER                                             3
 OLDACT:UP  17-11-14 17:42 OP:osc  STATUS:               ID:20171114080744     3
 OLDACT:REG 17-11-14 12:58 OP:leo  STATUS:               ID:20171114080744     3
 ACTION:UPD 17-12-12 19:55 OP:rebc STATUS:               ID:20171114081400 L   I
 OLDACT:UP  17-11-14 17:45 OP:osc  STATUS:               ID:20171114080744     3
 OLDACT:UP  17-11-14 17:44 OP:osc  STATUS:               ID:20171114080744     3
 OLDACT:UP  17-11-14 17:43 OP:osc  STATUS:               ID:20171114080744     3
 2017-11-14-0808-00M.COL___432                                                 6
 STAT SP IPHASW D HRMM SECON CODA AMPLIT PERI AZIMU VELO AIN AR TRES W  DIS CAZ7
 BAR2 EZ EP        814 19.65                             171   -0.0910 22.2 198 
 BAR2 EZ ES        814 35.04                             171   -0.0810 22.2 198 
 BAR2 EZ I         814 37.87         6.1 0.42            169           22.2 198 
 BRR  HZ EP        814 21.47                             152    0.0110 74.4 299 
 BRR  HN ES        814 38.87                             152    0.7110 74.4 299 
 PAM  EZ EP        814 22.43                             151    0.1110 77.1  37 
 PAM  EN ES        814 39.40                             151   -0.3110 77.1  37 
 PAM  EZ I         814 40.29         3.6 0.34            156           77.1  37 
 RUS  HZ EP        814 23.61                             145   -0.1210 98.7 178 
 RUS  HE ES        814 42.49                             145    0.2810 98.7 178 
 RUS  HZ I         814 44.63         1.1 0.22            145           98.7 178 
 PTB  HZ EP        814 26.28                             132   -1.00 9  150 260 
 PTB  HE ES        814 48.17                             132   -0.36 9  150 260 
 PTB  HZ I         814 53.44         2.4 0.42            133            150 260 
 SPBC HZ EP        814 28.51                             129   -0.12 9  164 220 
 SPBC HN ES        814 51.05                             129    0.12 9  164 220 
 SPBC HZ I         814 55.17         4.5 0.16            130            164 220 
 ZAR  HZ EP        814 33.79                             122    0.93 8  207 292 
 ZAR  HN ES        814 58.08                             122   -0.38 8  207 292 
 GUY2CHZ EP        814 44.38                             112    0.57 7  302 235 
 GUY2CHN ES        815 17.94                             112   -0.02 7  302 235 
 GUY2CHZ I         815 26.56         1.2 0.58                           302 235 
                                                                                
