 2014  714 0908 31.0 L   7.101 -73.389109.7  RSN  5 0.4 1.7LRSN                1
 GAP=154        1.08       4.1     5.3 10.8 -0.4093E+01  0.2143E+02 -0.1962E+02E
 Epicentro: LEBRIJA - SANTANDER                                                3
 ACTION:UPD 15-03-16 20:43 OP:nd   STATUS:               ID:20140714090830 L   I
 OLDACT:UP  14-07-14 18:57 OP:nlst STATUS:               ID:20140714090830 L   3
 OLDACT:DUP 14-07-14 16:57 OP:carl STATUS:               ID:20140714085821d    3
 2014-07-14-0858-20M.COL___241                                                 6
 STAT SP IPHASW D HRMM SECON CODA AMPLIT PERI AZIMU VELO AIN AR TRES W  DIS CAZ7
 BAR2 SZ EP        9 8 48.22                             149    0.1910 60.7 158 
 BAR2 SZ ES        9 9  1.36                             149    0.0510 60.7 158 
 BAR2 SZ I         9 9  4.12        19.9 0.24            162           60.7 158 
 OCA  HZ EP        9 8 53.23                             127   -0.0810  126   3 
 OCA  HN ES        9 9 10.92                             127    0.2110  126   3 
 OCA  HZ I         9 9 13.52        13.9 0.20            131            126   3 
 PTB  HZ EP        9 8 53.77                             125   -0.0710  133 242 
 PTB  HN ES        9 9 10.93                             125   -0.7310  133 242 
 PTB  HZ I         9 9 15.61         6.1 0.48            131            133 242 
 ZAR  HZ EP        9 8 57.97                             118    0.55 9  168 285 
 ZAR  HN ES        9 9 18.76                             118    0.74 9  168 285 
 ZAR  HZ I         9 9 23.01         5.1 0.12            123            168 285 
 SML  HZ EP        9 9  0.92                             113   -0.28 9  203 338 
 SML  HE ES        9 9 24.11                             113   -0.64 9  203 338 
 SML  HZ I         9 9 39.69         5.6 0.10            118            203 338 
                                                                                
