 2011  914 0200 57.2 L   6.799 -73.282126.0  RSN  4 0.1 1.3LRSN                1
 GAP=209        0.34       6.2     7.0  4.2  0.3720E+02  0.5515E+01  0.5398E+01E
 Epicentro: ZAPATOCA - SANTANDER                                               3
 ACTION:UPD 12-07-13 15:57 OP:ep   STATUS:               ID:20110914020057 L   I
 2011-09-14-0158-21S.COL___169                                                 6
 STAT SP IPHASW D HRMM SECON CODA AMPLIT PERI AZIMU VELO AIN AR TRES W  DIS CAZ7
 BAR2 SZ EP   1    2 1 14.65                             168    0.16 7 25.4 154 
 BAR2 SZ ES   1    2 1 27.84                             168   -0.15 7 25.4 154 
 BAR2 SZ I         2 1 28.70         9.6 0.28                          25.4 154 
 BRR  HZ EP   1    2 1 15.35                             153   -0.12 7 58.4 306 
 BRR  HE ES   1    2 1 29.87                             153    0.13 7 58.4 306 
 BRR  HZ I         2 1 30.26         8.6 0.44                          58.4 306 
 RUS  HZ EP   1    2 1 19.19                             139   -0.02 7  103 168 
 RUS  HN ES   2    2 1 36.47                             139    0.08 5  103 168 
 RUS  HZ I         2 1 36.67         1.4 0.32                           103 168 
 ZAR  HN ES   2    2 1 50.06                             120   -0.08 4  190 294 
 ZAR  HZ I         2 1 53.10         2.7 0.12                           190 294 
                                                                                
