 2011 1014 0442 31.4 L   6.829 -73.006146.4  RSN 10 0.3 1.9LRSN                1
 GAP=154        0.40       2.3     3.4  4.3 -0.1350E+01  0.4332E+01  0.6450E+00E
 Epicentro: CEPITA - SANTANDER                                                 3
 ACTION:UPD 12-07-13 16:03 OP:ep   STATUS:               ID:20111014044059 L   I
 2011-10-14-0440-59S.COL___167                                                 6
 STAT SP IPHASW D HRMM SECON CODA AMPLIT PERI AZIMU VELO AIN AR TRES W  DIS CAZ7
 BAR2 SZ EP   1    442 51.30                             167   -0.03 7 32.7 217 
 BAR2 SZ ES   2    443  6.57                             167   -0.30 5 32.7 217 
 BAR2 SZ I         443  8.04        24.1 0.22                          32.7 217 
 PAM  SZ EP   2    442 53.12                             155    0.09 5 65.8  31 
 PAM  SN ES   2    443 10.04                             155    0.13 5 65.8  31 
 BRR  HZ EP   1    442 53.15                             149   -0.23 7 83.9 292 
 BRR  HZ I         442 54.70        18.7 0.16                          83.9 292 
 BRR  HN ES   2    443 10.64                             149    0.12 5 83.9 292 
 RUS  HZ EP   2    442 55.15                             143   -0.30 5  104 185 
 RUS  HN ES   2    443 14.55                             143    0.34 5  104 185 
 RUS  HZ I         443 15.55         5.4 0.20                           104 185 
 OCA  SZ EP   1    442 60.00                             130    0.29 7  160 347 
 OCA  SZ ES   2    443 21.79                             130    0.00 5  160 347 
 OCA  SZ I         443 30.13         7.0 0.83                           160 347 
 ZAR  HZ EP   2    443  5.22                             121   -0.05 4  217 290 
 ZAR  HN ES   2    443 31.15                             121   -0.54 4  217 290 
 ZAR  HZ I         443 35.57         6.4 0.33                           217 290 
 NOR  SZ EP   2    443  8.91                             117    0.18 4  249 236 
 NOR  SN ES   2    443 38.32                             117    0.47 4  249 236 
 CHI  HZ EP   2    443  9.31                             116   -0.64 4  256 198 
 CHI  HN ES   2    443 40.01                             116   -0.01 4  256 198 
 CHI  HZ I         443 41.48         3.1 0.22                           256 198 
 HEL  HZ I         443 44.89         5.5 0.64                           288 256 
 HEL  HN ES   2    443 46.22                             113    0.06 4  288 256 
 RREF HZ EP   2    443 19.68                             110    0.52 3  336 231 
 RREF HN ES   2    443 56.55                             110    0.14 3  336 231 
 RREF HZ I         444  0.17         4.4 0.76                           336 231 
                                                                                
