 2014  114 0142 53.6 L   6.706 -73.215154.7  RSN  4 0.2 1.0LRSN                1
 GAP=193        0.50       4.1     4.5  5.4  0.9224E+01 -0.3065E+01 -0.4634E+01E
 Epicentro: VILLANUEVA - SANTANDER                                             3
 ACTION:UPD 14-03-13 09:55 OP:ep   STATUS:               ID:20140114014253 L   I
 OLDACT:UP  14-01-14 09:57 OP:cam  STATUS:               ID:20140114014000     3
 OLDACT:REG 14-01-14 08:24 OP:cam  STATUS:               ID:20140114014000     3
 2014-01-14-0140-00M.COL___285                                                 6
 STAT SP IPHASW D HRMM SECON CODA AMPLIT PERI AZIMU VELO AIN AR TRES W  DIS CAZ7
 BRR  HZ EP        143 15.61                             154   -0.0710 70.6 309 
 BRR  HE ES        143 32.97                             154    0.0610 70.6 309 
 RUS  HZ EP   1    143 18.06                             148    0.46 7 91.1 171 
 RUS  HN ES        143 36.17                             148   -0.1610 91.1 171 
 RUS  HZ I         143 37.05         1.2 0.44            147           91.1 171 
 PTB  HZ EP   1    143 20.24                             136   -0.27 7  139 262 
 PTB  HN ES        143 41.58                             136    0.08 9  139 262 
 PTB  HZ I         143 44.55         1.7 0.20            134            139 262 
 SML  HZ EP   2    143 31.29                             118   -0.14 4  250 338 
                                                                                
