 2013  814 0628 23.6 L   6.735 -73.130150.9  RSN  6 0.5 1.6LRSN                1
 GAP=201        0.95       7.0     8.9  7.9  0.2701E+02 -0.3100E+01 -0.1813E+02E
 Epicentro: JORDAN - SANTANDER                                                 3
 ACTION:UPD 14-01-14 09:02 OP:ep   STATUS:               ID:20130814061849 L   I
 OLDACT:UPD 13-08-14 12:02 OP:stll STATUS:               ID:20130814061849 L   3
 2013-08-14-0618-49M.COL___230                                                 6
 STAT SP IPHASW D HRMM SECON CODA AMPLIT PERI AZIMU VELO AIN AR TRES W  DIS CAZ7
 BAR2 SZ ES   1    628 59.06                             174   -0.38 7 16.8 200 
 BRR  HZ EP        628 46.36                             152    0.7710 76.4 303 
 BRR  HE ES        629  2.92                             152    0.1710 76.4 303 
 BRR  HE I         629  3.61        11.6 0.28            151           76.4 303 
 RUS  HZ EP   1    628 46.69                             147   -0.66 7 93.3 177 
 RUS  HN ES   1    629  6.10                             147    0.22 7 93.3 177 
 RUS  HN I         629  7.72         2.7 0.20            149           93.3 177 
 PTB  HZ EP   1    628 51.37                             133    0.34 7  148 262 
 PTB  HN ES   1    629 11.82                             133   -0.61 7  148 262 
 PTB  HN I         629 14.12         4.3 0.24            134            148 262 
 ZAR  HZ EP   1    628 56.83                             123    0.00 6  208 294 
 ZAR  HN ES   2    629 22.68                             123   -0.07 4  208 294 
 ZAR  HN I         629 24.71         4.8 0.46            123            208 294 
 SML  HZ EP        629  0.87                             118   -0.42 8  251 336 
 SML  HN ES   2    629 30.17                             118   -0.53 4  251 336 
 SML  HN I         629 35.94         5.2 0.10            118            251 336 
                                                                                
