 2013  514 0505 17.9 L   6.798 -73.176147.7  RSN  8 0.5 1.4LRSN                1
 GAP=178        1.23       4.7     7.4  8.7  0.7065E+01  0.6983E+01 -0.7518E+01E
 Epicentro: LOS SANTOS - SANTANDER                                             3
 ACTION:UPD 13-06-20 09:50 OP:ep   STATUS:               ID:20130514050517 L   I
 2013-05-14-0500-00M.COL___256                                                 6
 STAT SP IPHASW D HRMM SECON CODA AMPLIT PERI AZIMU VELO AIN AR TRES W  DIS CAZ7
 BAR2 SZ ES   1    5 5 53.44                             171    0.20 7 22.8 182 
 BAR2 SZ I         5 5 54.01        10.4 0.16            170           22.8 182 
 GIR2 SZ EP   1    5 5 37.79                             168   -0.01 7 31.1 356 
 GIR2 SZ ES   1    5 5 53.46                             168    0.14 7 31.1 356 
 BRR  HZ EP        5 5 39.55                             154    0.4410 68.3 300 
 BRR  HN ES        5 5 56.45                             154    0.8110 68.3 300 
 BRR  HZ I         5 5 57.81         3.6 0.15            153           68.3 300 
 RUS  HZ EP        5 5 41.75                             144   -0.1110  101 174 
 RUS  HN ES        5 5 59.98                             144   -0.5510  101 174 
 RUS  HZ I         5 6  1.37         3.3 0.32            145            101 174 
 PTB  HZ EP        5 5 45.58                             133    0.85 9  144 259 
 PTB  HN ES        5 6  5.05                             133   -0.60 9  144 259 
 PTB  HZ I         5 6  8.44         2.9 0.16            133            144 259 
 OCA  HE ES        5 6  7.94                             130   -0.59 9  160 354 
 ZAR  HE ES   1    5 6 14.60                             123   -0.73 6  201 293 
 SML  HZ EP        5 5 54.20                             118   -0.31 8  242 336 
 SML  HE ES        5 6 23.05                             118   -0.01 8  242 336 
                                                                                
