 2012 1214 0218 27.3 L   6.302 -73.973  4.0  RSN  4 0.4 1.3LRSN                1
 GAP=181        0.79       4.4     2.4  7.0  0.3433E+01 -0.3453E+01 -0.7051E+01E
 Epicentro: CIMITARRA - SANTANDER                                              3
 ACTION:UPD 13-01-04 14:27 OP:ep   STATUS:               ID:20121214021827 L   I
 2012-12-14-0216-51M.COL___209                                                 6
 STAT SP IPHASW D HRMM SECON CODA AMPLIT PERI AZIMU VELO AIN AR TRES W  DIS CAZ7
 PTB  HZ EP   1    218 36.79                              47   -0.19 7 59.5 296 
 PTB  HN ES   1    218 44.46                              47   -0.03 7 59.5 296 
 PTB  HZ I         218 45.99        20.3 0.14                          59.5 296 
 BAR2 SZ EP   1    218 43.03                              47    0.73 7 93.2  70 
 BAR2 SZ ES   1    218 54.03                              47    0.07 7 93.2  70 
 BAR2 SZ I         218 55.82        14.3 0.10                          93.2  70 
 RUS  HZ EP   1    218 44.73                              47   -0.15 7  108 115 
 RUS  HN ES   1    218 58.28                              47   -0.27 7  108 115 
 RUS  HZ I         218 58.91         6.4 0.16                           108 115 
 GIR2 SZ EP   1    218 46.96                              47    0.44 7  122  45 
 GIR2 SZ ES   1    219  0.85                              47   -0.62 7  122  45 
 GIR2 SZ I         219  3.44         2.4 0.22                           122  45 
                                                                                
