 2012 1214 0334 45.4 L   6.681 -73.218146.1  RSN  5 0.2 1.1LRSN                1
 GAP=207        0.43       4.3     4.0  4.6  0.1047E+02  0.3457E+01  0.7667E+00E
 Epicentro: BARICHARA - SANTANDER                                              3
 ACTION:UPD 13-01-04 14:27 OP:ep   STATUS:               ID:20121214033445 L   I
 2012-12-14-0330-00M.COL___242                                                 6
 STAT SP IPHASW D HRMM SECON CODA AMPLIT PERI AZIMU VELO AIN AR TRES W  DIS CAZ7
 BAR2 SZ EP   1    335  4.70                             176   -0.16 7 10.5 158 
 BAR2 SZ ES   1    335 19.83                             176   -0.23 7 10.5 158 
 BAR2 SZ I         335 21.52         6.0 0.28                          10.5 158 
 BRR  HZ EP   1    335  6.61                             152   -0.01 7 72.1 311 
 BRR  HN ES   1    335 23.53                             152    0.34 7 72.1 311 
 RUS  HZ EP   1    335  8.58                             147    0.25 7 88.4 170 
 RUS  HN ES   1    335 26.20                             147   -0.02 7 88.4 170 
 RUS  HZ I         335 28.15         1.2 0.56                          88.4 170 
 PTB  HZ EP   1    335 11.45                             134   -0.04 7  138 264 
 PTB  HN ES   1    335 31.89                             134    0.03 7  138 264 
 PTB  HZ I         335 33.48         1.7 0.10                           138 264 
 ZAR  HN ES   1    335 42.61                             123   -0.22 6  202 296 
                                                                                
