 2011  714 0907  3.0 L   6.778 -73.116143.9  RSN 11 0.3 1.6LRSN                1
 GAP=141        0.58       3.1     5.0  4.4 -0.2641E+01  0.4600E+01  0.5057E+00E
 Epicentro: LOS SANTOS - SANTANDER                                             3
 ACTION:UPD 12-07-25 14:00 OP:epov STATUS:               ID:20110714090703 L   I
 2011-07-14-0905-30S.COL___132                                                 6
 STAT SP IPHASW D HRMM SECON CODA AMPLIT PERI AZIMU VELO AIN AR TRES W  DIS CAZ7
 BAR2 SZ EP        9 7 22.22                             171   -0.1210 21.9 200 
 BAR2 SZ ES   1    9 7 37.23                             171   -0.22 7 21.9 200 
 BAR2 SZ I         9 7 38.72        18.1 0.10                          21.9 200 
 BTL  SZ EP        9 7 22.41                             171    0.0510 22.8 313 
 BRR  HZ EP        9 7 24.01                             151   -0.1310 75.3 299 
 BRR  HN ES   1    9 7 40.71                             151    0.05 7 75.3 299 
 BRR  HZ I         9 7 44.92        14.5 0.25                          75.3 299 
 PAM  SZ EP   1    9 7 25.01                             150    0.04 7 77.2  37 
 PAM  SN ES   1    9 7 42.43                             150    0.30 7 77.2  37 
 PAM  SZ I         9 7 44.07         1.8 0.31                          77.2  37 
 RUS  HZ EP        9 7 26.17                             144   -0.1710 98.0 178 
 RUS  HN ES   1    9 7 44.76                             144    0.18 7 98.0 178 
 RUS  HZ I         9 7 46.00         6.5 0.20                          98.0 178 
 GRA  SZ EP   1    9 7 28.08                             136   -0.07 7  127  16 
 GRA  SZ I         9 7 48.79         2.9 0.56                           127  16 
 OCA  SZ EP   1    9 7 31.40                             129    0.01 7  163 352 
 OCA  SZ I         9 7 57.21         6.8 0.44                           163 352 
 NOR  SZ EP   1    9 7 38.27                             118   -0.46 6  236 235 
 CHI  HZ EP   2    9 7 40.07                             117   -0.33 4  247 196 
 CHI  HZ I         9 8 13.21         3.8 0.42                           247 196 
 ROSC BZ EP   1    9 7 41.79                             116    0.84 6  252 212 
 HEL  HZ EP   2    9 7 44.34                             114    0.97 4  275 256 
 HEL  HZ I         9 8 20.97         5.8 0.40                           275 256 
                                                                                
