 2013  114 0937 18.6 L   6.699 -73.177143.5  RSN  6 0.3 1.5LRSN                1
 GAP=179        0.64       3.9     4.8  6.2  0.6034E+01  0.6201E+01 -0.2336E+01E
 Epicentro: VILLANUEVA - SANTANDER                                             3
 ACTION:UPD 13-02-15 09:14 OP:ep   STATUS:               ID:20130114093718 L   I
 2013-01-14-0930-00M.COL___241                                                 6
 STAT SP IPHASW D HRMM SECON CODA AMPLIT PERI AZIMU VELO AIN AR TRES W  DIS CAZ7
 BAR2 SZ EP   1    937 37.80                             175    0.03 7 11.9 183 
 BAR2 SZ ES   1    937 52.16                             175   -0.56 7 11.9 183 
 BAR2 SZ I         937 54.12        13.5 0.16            169           11.9 183 
 BRR  HZ EP   1    937 39.57                             151   -0.10 7 74.3 307 
 BRR  HN ES   1    937 56.71                             151    0.59 7 74.3 307 
 BRR  HZ I         937 57.29         7.3 0.30            148           74.3 307 
 RUS  HZ EP   1    937 41.72                             146    0.36 7 89.8 173 
 RUS  HN ES   1    937 59.15                             146    0.03 7 89.8 173 
 RUS  HZ I         938  1.18         2.3 0.22            146           89.8 173 
 PTB  HZ EP   1    937 45.01                             133    0.11 7  143 263 
 PTB  HN ES   1    938  5.32                             133   -0.10 7  143 263 
 PTB  HZ I         938 10.91         2.9 0.16            130            143 263 
 OCA  HN ES   1    938 10.50                             127    0.01 7  171 355 
 ZAR  HZ EP   1    937 50.54                             122   -0.48 6  205 295 
 ZAR  HN ES   1    938 16.29                             122   -0.02 6  205 295 
 ZAR  HZ I         938 21.69         4.7 0.30            121            205 295 
                                                                                
