 2016  914 0148 41.6 L   6.814 -73.158150.5  RSN 26 0.4 2.9LRSN                1
 GAP= 70        0.90       2.2     2.4  3.9 -0.7405E+00  0.1282E+01  0.3681E+00E
 Epicentro: LOS SANTOS - SANTANDER                                             3
 ACTION:UPD 17-08-17 21:09 OP:lp   STATUS:               ID:20160914014841 L   I
 OLDACT:UP  16-09-14 10:03 OP:dani STATUS:               ID:20160914014734     3
 OLDACT:UP  16-09-14 10:03 OP:dani STATUS:               ID:20160914014734     3
 OLDACT:UP  16-09-14 09:46 OP:dani STATUS:               ID:20160914014734     3
 OLDACT:REG 16-09-14 08:41 OP:dani STATUS:               ID:20160914014734     3
 2016-09-14-0148-00M.COL___318                                                 6
 STAT SP IPHASW D HRMM SECON CODA AMPLIT PERI AZIMU VELO AIN AR TRES W  DIS CAZ7
 BAR2 EZ EP        149  1.82                             170   -0.0310 24.6 186 
 BAR2 EZ ES        149 17.12                             170   -0.5110 24.6 186 
 BAR2 EZ I         149 18.42       345.1 0.30            168           24.6 186 
 BRR  HZ EP        149  3.59                             154    0.4110 69.3 298 
 BRR  HN ES        149 20.72                             154    0.7210 69.3 298 
 BRR  HZ I         149 24.69       163.1 0.34            146           69.3 298 
 PAM  EZ EP        149  4.61                             152    0.2810 77.1  41 
 PAM  EE ES        149 22.00                             152   -0.0410 77.1  41 
 PAM  EZ I         149 24.03       136.7 0.50            151           77.1  41 
 RUS  HZ EP        149  5.75                             144   -0.2110  102 175 
 RUS  HN ES        149 24.44                             144   -0.5010  102 175 
 RUS  HZ I         149 25.85        82.7 0.36            143            102 175 
 PTB  HZ EP        149  8.59                             133   -0.30 9  147 258 
 PTB  HE ES        149 30.30                             133    0.14 9  147 258 
 PTB  HZ I         149 36.26        57.7 0.14            127            147 258 
 TAM  HZ EP        149 10.21                             131    0.37 9  157 105 
 TAM  HE ES        149 31.85                             131    0.00 9  157 105 
 TAM  HZ I         149 33.30        40.3 0.46            131            157 105 
 OCA  HZ EP        149  9.80                             131   -0.35 9  159 354 
 OCA  HE ES        149 32.51                             131    0.11 9  159 354 
 OCA  HZ I         149 41.77       165.2 0.48            126            159 354 
 SPBC HZ EP        149 10.81                             130    0.29 9  164 218 
 SPBC HN ES        149 33.11                             130    0.05 9  164 218 
 SPBC HZ I         149 37.66       171.7 0.22            126            164 218 
 ZAR  HZ EP        149 14.28                             124    0.09 9  202 292 
 ZAR  HN ES        149 39.66                             124    0.06 9  202 292 
 ZAR  HZ I         149 45.21        87.4 0.40            118            202 292 
 NOR  HZ EP        149 17.98                             119    0.37 8  234 234 
 NOR  HE ES        149 45.75                             119    0.07 8  234 234 
 NOR  HZ I         149 53.64        51.1 0.13            115            234 234 
 CHI  HZ EP        149 19.95                             118    0.24 8  250 195 
 CHI  HN ES        149 49.35                             118   -0.07 8  250 195 
 CHI  HZ I         149 52.79        55.1 0.66            115            250 195 
 ROSC BZ EP   4    149 21.61                             118    1.54 0  253 211 
 ROSC BE ES   4    149 48.51                             118   -1.55 0  253 211 
 ROSC BZ I         149 56.27       121.4 0.41            114            253 211 
 HEL  HZ EP   4    149 23.72                             116    1.74 0  271 255 
 HEL  HN ES        149 52.86                             116   -0.59 8  271 255 
 HEL  HZ I         150  0.75        29.8 0.52            112            271 255 
 URE  HZ EP        149 22.33                             115   -0.39 7  282 292 
 URE  HE ES   4    149 53.22                             115   -1.56 0  282 292 
 URE  HZ I         150  5.55        41.1 0.36            111            282 292 
 GUY2CHZ EP   4    149 26.71                             113    1.28 0  301 234 
 GUY2CHE ES        149 59.12                             113   -0.48 7  301 234 
 GUY2CHZ I         150  8.09        43.3 0.27                           301 234 
 SOCV BZ EP        149 24.61                             113   -0.32 7  302  57 
 SOCV BN ES   4    149 56.95                             113   -1.76 0  302  57 
 VIL  EZ EP        149 25.47                             113    0.07 7  305 191 
 VIL  EE ES        149 59.91                             113    0.37 7  305 191 
 VIL  EZ I         150  5.32        80.6 0.65            110            305 191 
 LL6C HZ EP   9    149 26.33                             111   -1.02 0  323 358 
 LL6C HE ES        150  1.66                             111   -0.34 7  323 358 
 LL6C HZ I         150  8.04        22.8 0.34            108            323 358 
 ELA  HZ EP   4    149 30.57                             111    1.90 0  329 229 
 ELA  HN ES   4    150  1.72                             111   -3.65 0  329 229 
 ELA  HZ I         150 14.78        36.3 0.52            108            329 229 
 CBOC HZ EP   4    149 30.35                             111    1.71 0  333 252 
 CBOC HZ I         150 14.09        11.9 0.36            107            333 252 
 ANIL HZ EP   9    149 34.12                             109    2.49 0  357 224 
 ANIL HZ ES        150 13.50                             109    0.38 6  357 224 
 ARGC HZ EP        149 31.88                             109    0.63 6  357 340 
 ARGC HE ES   4    150 11.77                             109    1.82 0  357 340 
 ARGC HZ I         150 20.22        12.8 0.59            106            357 340 
 PAL  HZ EP        149 37.35                             107    0.45 6  405 239 
 PAL  HN ES   4    150 18.66                             107   -1.35 0  405 239 
 PAL  HZ I         150 27.17         9.0 0.43            104            405 239 
 SJC  HZ EP        149 35.39                             106   -1.72 6  407 327 
 SJC  HN ES   4    150 17.13                             106   -3.26 0  407 327 
 SJC  HZ I         150 25.16        19.1 0.41            104            407 327 
 CRJC HZ EP   9    149 42.05                             104   -2.04 0  466   4 
 CRJC HE ES        150 30.41                             104   -0.36 5  466   4 
 CRJC HZ I         150 37.14        28.2 0.39            102            466   4 
 SMAR HZ EP   2    149 47.33                             103   -0.08 2  495 346 
 SMAR HN ES   4    150 35.56                             103   -3.16 0  495 346 
 MACC HE ES   4    150 39.83                             102   -4.58 0  522 188 
                                                                                
