 2012  214 0327 17.0 L   6.773 -73.146154.0  RSN  6 0.3 1.4LRSN                1
 GAP=138        0.57       5.8     5.0  6.9  0.4512E+01  0.4684E+01  0.4849E+01E
 ACTION:UP  12-03-07 16:30 OP:epov STATUS:               ID:20120214032717 L   I
 2012-02-14-0319-59S.COL___187                                                 6
 STAT SP IPHASW D HRMM SECON CODA AMPLIT PERI AZIMU VELO AIN AR TRES W  DIS CAZ7
 BAR2 SZ EP   1    327 37.48                             172   -0.06 7 20.4 191 
 BAR2 SZ ES   2    327 53.48                             172   -0.10 5 20.4 191 
 BAR2 SZ I         327 53.69         6.0 0.29                          20.4 191 
 BRR  HZ EP   1    327 39.35                             154    0.26 7 72.6 301 
 BRR  HZ I         327 39.67         7.4 0.15                          72.6 301 
 BRR  HN ES   1    327 56.81                             154    0.46 7 72.6 301 
 PAM  SZ EP   2    327 40.56                             152    0.35 5 79.8  38 
 PAM  SN ES   2    327 57.60                             152   -0.73 5 79.8  38 
 RUS  HZ EP   2    327 41.42                             146    0.08 5 97.6 176 
 RUS  HE ES   2    328  0.46                             146    0.12 5 97.6 176 
 RUS  HZ I         328  2.00         1.5 0.44                          97.6 176 
 PTB  HZ EP   1    327 44.22                             134   -0.35 7  147 260 
 PTB  HE ES   2    328  5.88                             134   -0.21 5  147 260 
 ZAR  HN ES   2    328 15.41                             124   -0.49 4  205 293 
                                                                                
