 2016  114 0240 15.1 L   6.781 -73.152146.0  RSN  9 0.4 1.6LRSN                1
 GAP=137        0.94       3.5     4.1  5.8 -0.2982E+00  0.4471E+01  0.4992E+01E
 Epicentro: LOS SANTOS - SANTANDER                                             3
 ACTION:UPD 16-03-09 23:25 OP:cam  STATUS:               ID:20160114024015 L   I
 OLDACT:UP  16-01-14 14:42 OP:mh   STATUS:               ID:20160114023740     3
 OLDACT:UP  16-01-14 14:42 OP:mh   STATUS:               ID:20160114023740     3
 OLDACT:REG 16-01-14 12:33 OP:mh   STATUS:               ID:20160114023740     3
 2016-01-14-0237-40M.COL___334                                                 6
 STAT SP IPHASW D HRMM SECON CODA AMPLIT PERI AZIMU VELO AIN AR TRES W  DIS CAZ7
 BAR2 EZ EP   1    240 35.10                             171    0.38 7 21.1 189 
 BAR2 EZ ES        240 49.98                             171   -0.0410 21.1 189 
 BAR2 EZ I         240 51.35         6.5 0.36            169           21.1 189 
 BRR  HZ EP        240 36.43                             153    0.1210 71.7 300 
 BRR  HN ES        240 53.73                             153    0.8910 71.7 300 
 BRR  HZ I         240 56.73         6.3 0.66            152           71.7 300 
 PAM  EZ EP        240 37.33                             150   -0.1410 79.5  39 
 PAM  EN ES        240 54.71                             150   -0.2010 79.5  39 
 PAM  EZ I         240 56.78         5.2 0.48            155           79.5  39 
 RUS  HZ EP        240 38.47                             145   -0.2610 98.5 176 
 RUS  HN ES        240 57.14                             145   -0.0110 98.5 176 
 RUS  HZ I         240 59.35         3.2 0.22            145           98.5 176 
 PTB  HZ EP        240 41.32                             132   -0.67 9  147 260 
 PTB  HN ES        241  2.60                             132   -0.37 9  147 260 
 PTB  HZ I         241  4.38         6.1 0.10            132            147 260 
 SPBC HZ EP        240 43.52                             130    0.10 9  161 219 
 SPBC HN ES        241  5.44                             130   -0.07 9  161 219 
 SPBC HZ I         241 11.12        10.4 0.10            130            161 219 
 ZAR  HN ES        241 12.65                             123   -0.27 9  204 293 
 ZAR  HZ I         241 18.89         5.4 0.24            123            204 293 
 CHI  HZ EP        240 52.83                             118    0.26 8  246 195 
 CHI  HE ES        241 21.92                             118    0.13 8  246 195 
 CHI  HZ I         241 31.64         1.9 0.74            118            246 195 
 GUY2CHZ EP   1    240 59.45                             113    0.93 5  299 235 
 GUY2CHN ES   4    241 33.84                             113    1.45 0  299 235 
 GUY2CHZ I         241 40.86         2.2 0.30                           299 235 
                                                                                
