 2013  214 0727  3.5 L   6.831 -73.130149.7  RSN 20 0.5 3.1LRSN 3.3WRSN        1
 SPEC AVERAGE  MO 14.0 ST  7.9 OM  2.5 f0 3.67 R0.4221 AL 2.18 WI 21.6 MW  3.3 3
 SPEC SD       MO  0.2 ST  5.7 OM  0.3 f00.774 R0.1034 AL      WI      MW  0.1 3
 GAP= 71        1.05       2.7     3.3  5.3 -0.5618E+00  0.3737E+01  0.7663E+00E
 Epicentro: LOS SANTOS - SANTANDER                                             3
 SPEC VIL SH Z MO 14.1 ST  6.9 OM  2.2 f0 3.33 R0.4414 AL 2.78 WI 26.2 MW  3.4 3
 SPEC VIL SH Z T 72814 K 0.000 GD  341 VS 4.20 DE 3.20 Q0300.0 QA 0.60 VS 4.20 3
 SPEC ZAR HH Z MO 14.1 ST  8.5 OM  2.3 f0 3.66 R0.4016 AL 1.78 WI 20.2 MW  3.3 3
 SPEC ZAR HH Z T 728 0 K 0.000 GD  253 VS 4.20 DE 3.20 Q0300.0 QA 0.60 VS 4.20 3
 SPEC TAM HH Z MO 13.7 ST  2.4 OM  2.0 f0 3.17 R0.4637 AL 3.07 WI 20.2 MW  3.1 3
 SPEC TAM HH Z T 72745 K 0.000 GD  214 VS 4.20 DE 3.20 Q0300.0 QA 0.60 VS 4.20 3
 SPEC PTB HH Z MO 14.0 ST  8.8 OM  2.3 f0 3.93 R0.3740 AL 1.33 WI 18.6 MW  3.3 3
 SPEC PTB HH Z T 72751 K 0.000 GD  211 VS 4.20 DE 3.20 Q0300.0 QA 0.60 VS 4.20 3
 SPEC RUS HH Z MO 13.6 ST  3.3 OM  1.9 f0 4.03 R0.3648 AL 2.48 WI 16.0 MW  3.0 3
 SPEC RUS HH Z T 72743 K 0.000 GD  182 VS 4.20 DE 3.20 Q0300.0 QA 0.60 VS 4.20 3
 SPEC HEL HH Z MO 14.0 ST  4.0 OM  2.1 f0 3.10 R0.4742 AL 1.93 WI 38.8 MW  3.3 3
 SPEC HEL HH Z T 728 9 K 0.000 GD  313 VS 4.20 DE 3.20 Q0300.0 QA 0.60 VS 4.20 3
 SPEC OCA HH Z MO 14.1 ST 17.7 OM  2.4 f0 4.55 R0.3231 AL 2.41 WI 20.6 MW  3.4 3
 SPEC OCA HH Z T 72750 K 0.000 GD  216 VS 4.20 DE 3.20 Q0300.0 QA 0.60 VS 4.20 3
 SPEC PAM SH Z MO 14.0 ST  1.9 OM  2.4 f0 2.35 R0.6255 AL 1.72 WI 13.0 MW  3.3 3
 SPEC PAM SH Z T 72740 K 0.000 GD  166 VS 4.20 DE 3.20 Q0300.0 QA 0.60 VS 4.20 3
 SPEC ANILHH Z MO 14.3 ST 21.0 OM  2.3 f0 4.28 R0.3435 AL 3.06 WI 26.6 MW  3.5 3
 SPEC ANILHH Z T 72828 K 0.000 GD  390 VS 4.20 DE 3.20 Q0300.0 QA 0.60 VS 4.20 3
 SPEC COD HH Z MO 13.9 ST  6.0 OM  1.9 f0 3.89 R0.3779 AL 2.79 WI 35.8 MW  3.2 3
 SPEC COD HH Z T 72822 K 0.000 GD  376 VS 4.20 DE 3.20 Q0300.0 QA 0.60 VS 4.20 3
 SPEC CHI HH Z MO 14.1 ST  1.9 OM  2.2 f0 2.29 R0.6419 AL 1.67 WI 23.3 MW  3.3 3
 SPEC CHI HH Z T 728 7 K 0.000 GD  293 VS 4.20 DE 3.20 Q0300.0 QA 0.60 VS 4.20 3
 SPEC BRR HH Z MO 13.8 ST 11.7 OM  2.2 f0 5.06 R0.2905 AL 1.51 WI 12.0 MW  3.2 3
 SPEC BRR HH Z T 72741 K 0.000 GD  165 VS 4.20 DE 3.20 Q0300.0 QA 0.60 VS 4.20 3
 SPEC BAR2SH Z MO 14.0 ST  8.6 OM  2.4 f0 4.03 R0.3648 AL 1.81 WI  9.7 MW  3.3 3
 SPEC BAR2SH Z T 72737 K 0.000 GD  152 VS 4.20 DE 3.20 Q0300.0 QA 0.60 VS 4.20 3
 ACTION:UPD 13-03-12 09:32 OP:ep   STATUS:               ID:20130214072703 L   I
 2013-02-14-0720-00M.COL___241                                                 6
 STAT SP IPHASW D HRMM SECON CODA AMPLIT PERI AZIMU VELO AIN AR TRES W  DIS CAZ7
 BAR2 SZ IP        727 23.63                             169   -0.0810 27.0 192 
 BAR2 SZ ES   1    727 38.88                             169   -0.57 7 27.0 192 
 BAR2 SZ I         727 40.39       281.3 0.34            169           27.0 192 
 BRR  HZ IP     C  727 25.54                             153    0.4310 71.2 295 
 BRR  HN ES   1    727 42.86                             153    0.93 7 71.2 295 
 BRR  HZ I         727 46.61       188.9 0.42            152           71.2 295 
 PAM  SZ IP     C  727 26.41                             153    0.4610 73.7  40 
 PAM  SN ES   1    727 43.70                             153    0.26 7 73.7  40 
 PAM  SZ I         727 45.88       330.7 0.60            153           73.7  40 
 RUS  HZ IP     C  727 27.43                             144   -0.4810  104 177 
 RUS  HN ES   1    727 46.43                             144   -0.49 7  104 177 
 RUS  HZ I         727 49.24        74.7 0.22            144            104 177 
 PTB  HZ IP        727 30.10                             132   -0.94 9  150 258 
 PTB  HN ES   1    727 52.01                             132   -0.48 7  150 258 
 PTB  HZ I         727 57.52       231.6 0.26            132            150 258 
 TAM  HZ IP     C  727 31.77                             131    0.31 9  154 106 
 TAM  HZ I         727 52.65       100.7 0.36            133            154 106 
 TAM  HN ES   1    727 53.52                             131    0.28 7  154 106 
 OCA  HZ EP        727 31.69                             131   -0.17 9  157 352 
 OCA  HN ES   1    727 53.73                             131   -0.22 7  157 352 
 OCA  HZ I         727 59.47       186.7 0.26            131            157 352 
 ZAR  HZ EP        727 36.46                             123    0.19 9  204 291 
 ZAR  HN ES   1    728  1.86                             123    0.05 6  204 291 
 ZAR  HZ I         728  8.75       163.6 0.46            123            204 291 
 SML  HZ EP        727 39.79                             118   -0.34 8  241 335 
 SML  HE ES   1    728  9.20                             118    0.53 6  241 335 
 SML  HZ I         728 12.61        83.2 0.20            119            241 335 
 CHI  HZ IP     D  727 41.57                             117   -0.29 8  252 195 
 CHI  HE ES   1    728 10.91                             117   -0.84 6  252 195 
 CHI  HZ I         728 14.80        63.1 0.62            118            252 195 
 ROSC BZ IP     C  727 43.12                             117    0.84 8  257 211 
 ROSC BN ES   1    728 13.52                             117    1.01 6  257 211 
 ROSC BZ I         728 19.68       170.1 0.50            117            257 211 
 HEL  HZ EP        727 44.45                             115    0.22 8  275 255 
 HEL  HN ES   1    728 16.01                             115    0.04 6  275 255 
 HEL  HZ I         728 22.41        71.5 0.34            115            275 255 
 URE  HZ EP   1    727 44.08                             114   -0.75 6  284 291 
 URE  HN ES   1    728 17.03                             114   -0.02 6  284 291 
 URE  HZ I         728 27.91        89.9 0.26            114            284 291 
 VIL  SZ EP        727 48.48                             112    0.93 7  307 192 
 VIL  SN ES   1    728 20.97                             112   -0.91 5  307 192 
 RREF HZ EP        727 51.13                             111    0.88 7  325 229 
 RREF HN ES   1    728 26.77                             111    0.08 5  325 229 
 RREF HZ I         728 33.07       106.9 0.34            111            325 229 
 DBB  SZ EP        727 51.18                             110   -0.16 7  341 274 
 DBB  SZ ES   4    728 27.56                             110   -1.07 0  341 274 
 DBB  SZ I         728 34.58        69.8 0.48            110            341 274 
 COD  HZ EP        727 50.98                             110   -0.72 7  345 354 
 COD  HN ES   1    728 29.21                             110   -0.05 5  345 354 
 COD  HZ I         728 34.55        23.3 0.32            110            345 354 
 SDV  BZ IP     D  727 52.83                             109   -0.49 6  357  50 
 SDV  BE ES   4    728 29.98                             109   -2.18 0  357  50 
 SDV  BZ I         728 32.26         3.0 0.40            109            357  50 
 ANIL HZ EP   1    727 54.12                             109    0.21 5  361 224 
 ANIL HE ES   1    728 32.96                             109   -0.24 5  361 224 
 ANIL HZ I         728 39.67        60.5 0.32            109            361 224 
 PAL  HZ EP        727 59.24                             106    0.04 6  409 239 
 PAL  HE ES   4    728 41.55                             106   -1.08 0  409 239 
                                                                                
