 2013  314 0151 36.3 L   6.336 -73.614106.4  RSN 11 0.5 2.3LRSN                1
 GAP= 71        1.22       3.5     4.4  8.7  0.7382E+00  0.1785E+02  0.2387E+01E
 Epicentro: SANTA HELENA DEL OPON - SANTANDER                                  3
 ACTION:UPD 13-04-09 14:02 OP:ep   STATUS:               ID:20130314015135 L   I
 2013-03-14-0150-00M.COL___243                                                 6
 STAT SP IPHASW D HRMM SECON CODA AMPLIT PERI AZIMU VELO AIN AR TRES W  DIS CAZ7
 BAR2 SZ IP        151 52.72                             151    0.0710 55.4  59 
 BAR2 SZ ES        152  5.92                             151    0.5110 55.4  59 
 BAR2 SZ I         152  6.47        93.8 0.44            150           55.4  59 
 RUS  HZ EP        151 54.10                             142   -0.3410 76.5 130 
 RUS  HN ES        152  8.25                             142   -0.3510 76.5 130 
 RUS  HN I         152  9.14        31.7 0.30            142           76.5 130 
 BRR  HZ EP        151 53.93                             138   -0.5610 85.9 353 
 BRR  HN ES   1    152  9.32                             138    0.63 7 85.9 353 
 BRR  HN I         152 10.29        41.9 0.18            135           85.9 353 
 PTB  HZ IP     C  151 54.43                             135   -0.9310 95.9 284 
 PTB  HN ES   1    152  9.57                             135   -0.66 7 95.9 284 
 PTB  HN I         152 12.47        79.6 0.22            131           95.9 284 
 CTAB SZ EP        152  3.31                             119    1.01 9  160 204 
 NOR  HZ EP   1    152  1.28                             118   -0.78 7  163 238 
 NOR  HE ES        152 22.48                             118    0.31 9  163 238 
 NOR  HN I         152 24.45        65.0 0.14            116            163 238 
 ZAR  HZ EP        152  4.55                             114   -0.14 9  188 313 
 ZAR  HN ES        152 27.44                             114    0.59 9  188 313 
 ZAR  HN I         152 32.38        29.9 0.14            112            188 313 
 CHI  HN ES        152 28.21                             114    0.16 9  189 184 
 CHI  HN I         152 31.76        16.2 0.26            113            189 184 
 OCA  HZ EP        152  7.89                             111    0.19 8  213   9 
 OCA  HN ES   2    152 32.28                             111    0.07 4  213   9 
 OCA  HN I         152 40.89        43.0 0.26            109            213   9 
 HEL  HZ EP   1    152  8.50                             111    0.56 6  213 266 
 HEL  HN ES   2    152 32.72                             111    0.09 4  213 266 
 HEL  HN I         152 39.29        10.0 0.16            109            213 266 
 PRA  HN ES   1    152 54.94                             102    0.13 5  322 206 
 PRA  HN I         153  2.54         3.9 0.26            100            322 206 
                                                                                
