 2015 1114 0843 51.0 L   6.785 -73.097148.0  RSN  6 0.2 1.5LRSN                1
 GAP=241        0.57       2.8     4.1  4.0  0.5389E+01  0.2506E+01  0.1602E+01E
 Epicentro: LOS SANTOS - SANTANDER                                             3
 ACTION:UPD 15-12-28 16:10 OP:cam  STATUS:               ID:20151114084351 L   I
 OLDACT:UP  15-11-19 06:51 OP:CARA STATUS:               ID:20151114084351 L   3
 OLDACT:REG 15-11-14 15:01 OP:dnl  STATUS:               ID:20151114083740     3
 2015-11-14-0837-40M.COL___316                                                 6
 STAT SP IPHASW D HRMM SECON CODA AMPLIT PERI AZIMU VELO AIN AR TRES W  DIS CAZ7
 BAR2 EZ EP        844 10.98                             171    0.0610 23.3 204 
 BAR2 EZ ES   1    844 25.99                             171   -0.45 7 23.3 204 
 BAR2 EZ I         844 28.60        11.5 0.22            168           23.3 204 
 BRR  HZ EP   1    844 12.83                             151    0.10 7 76.7 298 
 BRR  HN ES        844 30.11                             151    0.4410 76.7 298 
 BRR  HZ I         844 32.45         4.3 0.22            149           76.7 298 
 RUS  HZ EP        844 14.84                             145   -0.0210 98.7 179 
 RUS  HZ I         844 18.60         2.7 0.40            145           98.7 179 
 RUS  HE ES        844 33.39                             145   -0.0710 98.7 179 
 SPBC HZ EP        844 19.81                             129   -0.09 9  165 221 
 SPBC HN ES        844 42.34                             129   -0.09 9  165 221 
 ZAR  HZ EP        844 23.93                             122   -0.27 8  210 292 
 ZAR  HN ES        844 49.89                             122   -0.18 8  210 292 
 ZAR  HZ I         844 55.85         3.8 0.70            122            210 292 
 CHI  HZ EP        844 29.00                             118    0.16 8  249 196 
 CHI  HE ES        844 58.58                             118    0.25 8  249 196 
 CHI  HZ I         845  3.90         1.9 0.28            118            249 196 
                                                                                
