 2010 1014 0959 30.1 L   7.364 -73.212137.2  RSN  8 0.4 2.1LRSN                1
 GAP=138        0.99       7.9    11.9 10.6 -0.5490E+02  0.1739E+01 -0.1044E+02E
 Epicentro: RIONEGRO - SANTANDER                                               3
 ACTION:UP  11-02-18 11:09 OP:tino STATUS:               ID:20101014095930 L   I
 2010-10-14-0956-16S.COL___126                                                 6
 STAT SP IPHASW D HRMM SECON CODA AMPLIT PERI AZIMU VELO SNR AR TRES W  DIS CAZ7
 GIR2 SZ EP   2    959 48.76                             166     0.0 5   32 176 
 BTL  SZ EP   1    959 48.92                             159    -0.7 7   50 187 
 GUE  SZ EP        959 49.88                             155    -0.310   61  32 
 BRR  HZ EP   1    959 49.95                             154     0.1 7   62 243 
 BRR  HN ES   1   10 0  5.42                             154     0.2 7   62 243 
 BRR  HZ I        10 0  6.61        34.7 0.16                            62 243 
 GRA  SZ IP        959 51.42                             150     0.710   73  38 
 GRA  SZ ES   1   10 0  6.56                             150    -0.2 7   73  38 
 GRA  SZ I        10 0  7.32        25.1 0.26                            73  38 
 BAR2 SZ EP   1    959 51.82                             146     0.2 7   85 178 
 BAR2 SZ ES   1   10 0  8.23                             146    -0.1 7   85 178 
 BAR2 SZ I        10 0  9.30        33.0 0.26                            85 178 
 OCA  SZ EP   2    959 51.71                             142    -0.6 5   97 353 
 OCA  SZ I        10 0 10.70         8.4 0.34                            97 353 
 NOR  SZ EP   2   10 0  9.28                             113    -0.1 4  271 223 
                                                                                
