 2011 1214 0810  2.0 L   6.750 -73.136149.4  RSN  5 0.3 1.3LRSN                1
 GAP=186        0.49       5.7     6.0  7.0  0.1115E+02  0.4653E+01  0.8529E+01E
 Epicentro: LOS SANTOS - SANTANDER                                             3
 ACTION:UPD 12-07-13 16:16 OP:ep   STATUS:               ID:20111214081002 L   I
 2011-12-14-0810-00M.COL___186                                                 6
 STAT SP IPHASW D HRMM SECON CODA AMPLIT PERI AZIMU VELO AIN AR TRES W  DIS CAZ7
 BAR2 SZ EP   1    810 21.84                             173   -0.10 7 18.2 196 
 BAR2 SZ I         810 33.37        10.4 0.57                          18.2 196 
 GIR2 SZ EP   2    810 22.09                             165   -0.14 5 36.9 350 
 GIR2 SZ ES   2    810 37.57                             165   -0.46 5 36.9 350 
 BRR  HZ EP   1    810 23.78                             152    0.06 7 74.9 302 
 BRR  HE ES   2    810 41.39                             152    0.71 5 74.9 302 
 BRR  HZ I         810 42.10         4.3 0.16                          74.9 302 
 RUS  HZ EP   1    810 25.86                             146    0.17 7 95.0 176 
 RUS  HE ES   2    810 44.21                             146    0.02 5 95.0 176 
 RUS  HZ I         810 45.52         1.2 0.30                          95.0 176 
 PTB  HZ EP   1    810 29.17                             133   -0.07 7  148 261 
 PTB  HN ES   2    810 50.16                             133   -0.35 5  148 261 
                                                                                
