 2011 1214 0547 18.6 L   6.800 -73.056148.6  RSN 12 0.4 2.4LRSN                1
 GAP=148        0.65       3.0     5.0  5.4 -0.5324E+01  0.8745E+01 -0.1860E+01E
 Epicentro: LOS SANTOS - SANTANDER                                             3
 ACTION:UPD 12-07-13 16:16 OP:ep   STATUS:               ID:20111214054718 L   I
 2011-12-14-0540-00M.COL___184                                                 6
 STAT SP IPHASW D HRMM SECON CODA AMPLIT PERI AZIMU VELO AIN AR TRES W  DIS CAZ7
 BAR2 SZ IP     D  547 38.44                             169   -0.2110 26.9 211 
 BAR2 SZ I         547 39.03        46.1 0.37                          26.9 211 
 BAR2 SZ ES   2    547 54.17                             169   -0.11 5 26.9 211 
 GIR2 SZ EP   1    547 38.53                             166   -0.16 7 34.3 334 
 GIR2 SZ ES   2    547 53.60                             166   -0.76 5 34.3 334 
 PAM  SZ EP        547 41.23                             153    0.4510 71.5  33 
 PAM  SN ES   2    547 58.65                             153    0.57 5 71.5  33 
 BRR  HZ IP     C  547 40.34                             150   -0.2310 80.0 295 
 BRR  HZ I         547 40.62        91.0 0.20                          80.0 295 
 BRR  HE ES   2    547 58.03                             150    0.33 5 80.0 295 
 RUS  HZ EP   1    547 42.32                             144   -0.30 7  100 182 
 RUS  HE ES   1    548  1.41                             144    0.06 7  100 182 
 RUS  HZ I         548  2.33        22.8 0.38                           100 182 
 OCA  SZ EP   1    547 47.65                             130    0.38 7  162 350 
 OCA  SZ ES   2    548  9.71                             130    0.08 5  162 350 
 OCA  SZ I         548 14.60        27.8 0.29                           162 350 
 NOR  SZ EP   1    547 54.98                             118   -0.39 6  243 236 
 NOR  SN ES   2    548 23.91                             118   -0.13 4  243 236 
 CHI  HZ EP   2    547 56.46                             117   -0.30 4  251 197 
 CHI  HN ES   2    548 26.69                             117    0.17 4  251 197 
 CHI  HZ I         548 35.62         8.8 0.46                           251 197 
 ROSC BZ EP   2    547 58.00                             117    0.55 4  258 213 
 ROSC BE ES   2    548 27.99                             117    0.24 4  258 213 
 ROSC BZ I         548 35.61        17.5 0.49                           258 213 
 HEL  HZ EP   1    548  0.79                             114    0.77 6  282 256 
 HEL  HN ES   2    548 32.47                             114    0.14 4  282 256 
 HEL  HZ I         548 35.86         8.9 0.50                           282 256 
 GUY  SN ES   2    548 39.04                             112    0.47 3  312 236 
 GUY  SZ I         548 44.71        18.3 0.38                           312 236 
 COD  HZ EP   1    548  6.26                             109   -0.95 5  349 353 
 COD  HE ES   2    548 44.89                             109   -0.23 3  349 353 
 COD  HZ I         548 46.03        11.4 0.50                           349 353 
                                                                                
