 2014 1214 0114 15.9 L   6.800 -73.188132.4  RSN  6 0.6 1.4LRSN                1
 GAP=131        1.38       4.8     6.2 12.6 -0.1403E+01  0.3166E+02 -0.1189E+02E
 Epicentro: ZAPATOCA - SANTANDER                                               3
 ACTION:UPD 15-02-10 17:03 OP:nd   STATUS:               ID:20141214011415 L   I
 OLDACT:DUP 14-12-14 15:47 OP:stll STATUS:               ID:20141214010746d    3
 2014-12-14-0107-44M.COL___288                                                 6
 STAT SP IPHASW D HRMM SECON CODA AMPLIT PERI AZIMU VELO AIN AR TRES W  DIS CAZ7
 PAM  SZ EP        114 36.80                             147   -0.0810 80.4  42 
 PAM  SN ES        114 53.28                             147    0.0110 80.4  42 
 RUS  HZ EP        114 38.65                             141    0.2910  101 173 
 RUS  HN ES        114 55.73                             141   -0.1810  101 173 
 RUS  HZ I         114 57.66         2.7 0.30            144            101 173 
 PTB  HZ EP        114 40.41                             130   -0.94 9  143 258 
 PTB  HN ES        115  1.40                             130    0.18 9  143 258 
 PTB  HZ I         115  6.98         3.5 0.18            130            143 258 
 OCA  HN ES        115  4.91                             126    0.51 9  160 355 
 ZAR  HZ EP        114 48.29                             120    1.26 9  200 293 
 ZAR  HE ES        115 11.36                             120    0.03 9  200 293 
 ZAR  HZ I         115 18.24         5.0 0.26            122            200 293 
 SML  HZ EP        114 51.36                             115   -0.21 8  242 336 
 SML  HE ES        115 18.47                             115   -0.95 8  242 336 
                                                                                
