 2016  314 0607 11.2 L   6.752 -73.135138.0  RSN  7 0.4 1.5LRSN                1
 GAP=140        0.57       5.4     6.0  7.0 -0.2194E+02  0.1289E+02 -0.3358E+00E
 Epicentro: LOS SANTOS - SANTANDER                                             3
 ACTION:UPD 16-05-13 21:24 OP:cam  STATUS:               ID:20160314060711 L   I
 OLDACT:REG 16-03-14 12:50 OP:dnl  STATUS:               ID:20160314055748     3
 2016-03-14-0557-48M.COL___289                                                 6
 STAT SP IPHASW D HRMM SECON CODA AMPLIT PERI AZIMU VELO AIN AR TRES W  DIS CAZ7
 BAR2 EZ EP   2    6 7 29.95                             172    0.17 5 18.5 196 
 BAR2 EZ ES   2    6 7 44.43                             172    0.14 5 18.5 196 
 BAR2 EZ I         6 7 48.27         5.2 0.28            171           18.5 196 
 PAM  EZ EP        6 7 32.58                             148   -0.2110 80.8  37 
 PAM  EN ES        6 7 49.86                             148    0.2110 80.8  37 
 PAM  EZ I         6 7 51.95         8.7 0.58            153           80.8  37 
 RUS  HZ EP   2    6 7 33.86                             144    0.08 5 95.3 177 
 RUS  HN ES   2    6 7 50.77                             144   -0.64 5 95.3 177 
 RUS  HZ I         6 7 53.71         2.3 0.28            148           95.3 177 
 PTB  HZ EP   2    6 7 37.01                             130   -0.53 5  148 261 
 PTB  HN ES   2    6 7 57.60                             130   -0.50 5  148 261 
 PTB  HZ I         6 7 59.02         2.7 0.22            133            148 261 
 SPBC HZ EP   2    6 7 39.08                             128    0.31 5  160 220 
 SPBC HN ES   2    6 8  0.82                             128    0.53 5  160 220 
 SPBC HZ I         6 8  6.72         5.5 0.33            131            160 220 
 OCA  HZ EP   4    6 7 43.01                             127    3.59 0  166 353 
 OCA  HN ES   4    6 7 59.74                             127   -1.70 0  166 353 
 OCA  HZ I         6 8  5.53         9.8 0.30            131            166 353 
 GUY2CHZ EP   3    6 7 55.05                             111    0.85 2  299 236 
 GUY2CHE ES   2    6 8 28.43                             111    0.67 4  299 236 
 GUY2CHZ I         6 8 35.60         1.2 0.54                           299 236 
                                                                                
