 2012  114 0418  0.4 L   6.752 -73.090145.9  RSN  4 0.2 1.2LRSN                1
 GAP=228        0.42       8.2     5.4  5.9  0.3866E+01  0.4285E+00  0.1463E+02E
 Epicentro: LOS SANTOS - SANTANDER                                             3
 ACTION:UP  12-02-03 08:17 OP:REBC STATUS:               ID:20120114041800 L   I
 2012-01-14-0410-00M.COL___187                                                 6
 STAT SP IPHASW D HRMM SECON CODA AMPLIT PERI AZIMU VELO SNR AR TRES W  DIS CAZ7
 BAR2 SZ EP   1    418 20.26                             172     0.3 7   20 210 
 BAR2 SZ I         418 20.66         2.0 0.10                            20 210 
 BAR2 SZ ES   2    418 35.13                             172    -0.2 5   20 210 
 GIR2 SZ EP   2    418 20.13                             165    -0.2 5   38 342 
 GIR2 SZ ES   2    418 35.56                             165    -0.2 5   38 342 
 BRR  HZ EP   1    418 22.03                             150     0.0 7   79 300 
 BRR  HZ I         418 22.17         5.3 0.20                            79 300 
 BRR  HN ES   1    418 39.05                             150     0.1 7   79 300 
 PTB  HZ EP   2    418 27.48                             131    -0.4 5  153 261 
 PTB  HE ES   2    418 49.27                             131     0.0 5  153 261 
                                                                                
