 2012  214 0729 49.9 L   6.730 -73.107143.9  RSN  9 0.4 1.7LRSN                1
 GAP=145        0.63       4.6     4.6  7.6 -0.4158E+01  0.1010E+02  0.1725E+00E
 ACTION:UP  12-03-07 16:30 OP:epov STATUS:               ID:20120214072949 L   I
 2012-02-14-0730-00M.COL___187                                                 6
 STAT SP IPHASW D HRMM SECON CODA AMPLIT PERI AZIMU VELO AIN AR TRES W  DIS CAZ7
 BAR2 SZ EP   1    730  9.25                             173    0.04 7 17.4 208 
 BAR2 SZ ES   2    730 24.15                             173   -0.12 5 17.4 208 
 BAR2 SZ I         730 25.67        12.4 0.21                          17.4 208 
 BRR  HZ EP   1    730 11.07                             150   -0.24 7 78.7 302 
 BRR  HZ I         730 11.34        13.5 0.18                          78.7 302 
 BRR  HN ES   2    730 28.36                             150    0.36 5 78.7 302 
 PAM  SZ EP   1    730 12.16                             149    0.01 7 81.0  34 
 PAM  SE ES   2    730 28.98                             149   -0.52 5 81.0  34 
 RUS  HZ EP   2    730 13.55                             146    0.63 5 92.7 178 
 RUS  HE ES   2    730 31.13                             146    0.26 5 92.7 178 
 RUS  HZ I         730 33.00         2.0 0.28                          92.7 178 
 PTB  HZ EP   1    730 16.28                             131   -0.71 7  151 262 
 PTB  HE ES   2    730 38.03                             131   -0.09 5  151 262 
 OCA  SZ ES   2    730 42.38                             128    0.94 5  168 352 
 ZAR  HN ES   2    730 48.57                             121   -0.15 4  211 294 
 ZAR  HZ I         730 53.02         7.1 0.45                           211 294 
 NOR  SE ES   2    730 53.48                             118    0.33 4  234 237 
 HEL  HZ EP   2    730 30.79                             114    0.50 4  274 258 
 HEL  HE ES   2    731  1.98                             114    0.20 4  274 258 
 HEL  HZ I         731  6.16         4.2 0.78                           274 258 
                                                                                
