 2017  114 0228 19.0 L   6.838 -73.151148.9  RSN 18 0.6 2.2LRSN                1
 GAP= 64        1.06       3.7     3.2  5.1  0.8101E+00  0.4136E+01  0.1868E+01E
 Epicentro: LOS SANTOS - SANTANDER                                             3
 ACTION:UPD 17-05-22 15:59 OP:jn   STATUS:               ID:20170114022819 L   I
 OLDACT:UP  17-01-14 13:46 OP:dani STATUS:               ID:20170114022744     3
 OLDACT:UP  17-01-14 13:46 OP:dani STATUS:               ID:20170114022744     3
 OLDACT:UP  17-01-14 13:45 OP:dani STATUS:               ID:20170114022744     3
 OLDACT:UP  17-01-14 13:45 OP:dani STATUS:               ID:20170114022744     3
 OLDACT:UP  17-01-14 13:45 OP:dani STATUS:               ID:20170114022744     3
 OLDACT:REG 17-01-14 12:24 OP:dani STATUS:               ID:20170114022744     3
 2017-01-14-0228-00M.COL___326                                                 6
 STAT SP IPHASW D HRMM SECON CODA AMPLIT PERI AZIMU VELO AIN AR TRES W  DIS CAZ7
 BAR2 EZ EP        228 39.02                             169   -0.0910 27.4 187 
 BAR2 EZ ES        228 54.21                             169   -0.5810 27.4 187 
 BAR2 EZ I         228 56.81        59.3 0.32            166           27.4 187 
 BRR  HZ EP        228 40.79                             154    0.4110 68.8 296 
 BRR  HN ES        228 57.86                             154    0.8310 68.8 296 
 BRR  HZ I         229  1.81        34.5 0.26            152           68.8 296 
 PAM  EZ EP        228 41.82                             152    0.4110 74.5  42 
 PAM  EN ES        228 58.99                             152    0.1310 74.5  42 
 PAM  EZ I         229  2.25        15.6 0.44            158           74.5  42 
 RUS  HZ EP        228 42.97                             143   -0.4210  105 176 
 RUS  HN ES        229  1.72                             143   -0.6710  105 176 
 RUS  HZ I         229  3.10        18.6 0.24            143            105 176 
 PTB  HZ EP        228 45.82                             133   -0.45 9  148 257 
 PTB  HN ES        229  6.93                             133   -0.60 9  148 257 
 PTB  HZ I         229  9.37        17.3 0.14            131            148 257 
 TAM  HZ EP        228 47.42                             131    0.32 9  157 106 
 TAM  HN ES        229  9.25                             131    0.24 9  157 106 
 TAM  HZ I         229 10.55        13.0 0.45            134            157 106 
 ZAR  HZ EP   4    228 47.46                             123   -4.00 0  202 291 
 ZAR  HN ES        229 17.15                             123    0.39 9  202 291 
 ZAR  HZ I         229 22.30        19.0 0.14            123            202 291 
 CHI  HZ EP        228 57.33                             117    0.01 8  253 195 
 CHI  HN ES   3    229 26.40                             117   -0.79 2  253 195 
 CHI  HZ I         229 32.77         7.5 0.34            118            253 195 
 ROSC BZ EP   9    228 58.84                             117    1.16 0  256 210 
 ROSC BE ES        229 29.32                             117    0.33 8  256 210 
 ROSC BZ I         229 33.73        24.4 0.50            117            256 210 
 URE  HZ EP        228 59.56                             114   -0.45 7  282 291 
 URE  HE ES   4    229 29.68                             114   -2.31 0  282 291 
 URE  HZ I         229 39.30         7.8 0.23            115            282 291 
 GUY2CHZ EP   3    229  4.12                             113    1.12 2  303 234 
 GUY2CHN ES   3    229 36.47                             113   -0.83 2  303 234 
 GUY2CHZ I         229 45.89         7.8 0.32                           303 234 
 PTGC HZ EP   3    229  2.26                             112   -1.23 2  313 159 
 PTGC HE ES   4    229 34.83                             112   -3.34 0  313 159 
 PTGC HZ I         229 37.25         8.3 0.47            113            313 159 
 LL6C HZ EP   9    228 45.15                             111   -19.2 0  321 358 
 LL6C HN ES        229 20.55                                    0.03 7  321 358 
 LL6C HZ I         229 26.45         7.4 0.43            113            321 358 
 ELA  HZ EP        229  6.75                             111    0.48 7  331 229 
 ELA  HN ES   3    229 44.48                             111    1.35 2  331 229 
 ELA  HZ I         229 51.73         6.7 0.59            111            331 229 
 CBOC HZ EP        229  7.10                             110    0.94 7  334 251 
 CBOC HE ES        229 43.15                             110    0.23 7  334 251 
 CBOC HZ I         229 54.24         2.3 0.49            111            334 251 
 ORTC HZ EP        229 13.53                             107    0.12 6  399 216 
 ORTC HE ES        229 56.66                             107    0.83 6  399 216 
 ORTC HZ I         230  2.88         3.9 0.46            107            399 216 
 SJC  HZ EP        229 13.16                             106   -1.08 6  405 327 
 SJC  HN ES        229 56.48                             106   -0.82 6  405 327 
 SJC  HZ I         230  2.14         2.8 0.23            107            405 327 
 CRJC HZ EP   3    229 19.34                             104   -1.77 1  463   4 
 CRJC HE ES   3    230  7.27                             104   -2.28 1  463   4 
 CRJC HZ I         230 18.32         7.9 0.48            105            463   4 
                                                                                
