 2014  614 0013 15.4 L   6.833 -73.148145.1  RSN  8 0.4 2.0LRSN                1
 GAP=135        0.86       3.2     4.7  6.9 -0.1101E+01  0.9850E+01 -0.2757E+00E
 Epicentro: LOS SANTOS - SANTANDER                                             3
 ACTION:UPD 14-07-01 22:53 OP:nd   STATUS:               ID:20140614001315 L   I
 OLDACT:DUP 14-06-14 16:41 OP:mh   STATUS:               ID:20140614000819d    3
 2014-06-14-0008-18M.COL___262                                                 6
 STAT SP IPHASW D HRMM SECON CODA AMPLIT PERI AZIMU VELO AIN AR TRES W  DIS CAZ7
 BAR2 SZ EP        013 35.26                             169    0.2210 26.9 188 
 BAR2 SZ ES   1    013 49.98                             169   -0.37 7 26.9 188 
 PAM  SZ EP        013 37.87                             151    0.4710 74.8  41 
 PAM  SN ES   1    013 54.70                             151    0.14 7 74.8  41 
 RUS  HZ EP        013 38.72                             143   -0.6510  104 176 
 RUS  HN ES   1    013 58.21                             143    0.16 7  104 176 
 PTB  HZ EP   1    013 42.10                             132   -0.27 7  148 257 
 PTB  HN ES   1    014  2.82                             132   -0.58 7  148 257 
 PTB  HZ I         014 10.95         8.3 0.68            109            148 257 
 SPBC HZ EP        013 44.12                             128    0.00 9  166 218 
 SPBC HN ES   1    014  6.88                             128    0.37 7  166 218 
 SPBC HZ I         014 12.30         9.4 0.24            112            166 218 
 ZAR  HN ES   1    014 13.35                             122    0.56 6  202 291 
 ZAR  HZ I         015 30.25        21.2 0.10            105            202 291 
 SML  HZ EP   1    013 50.92                             118   -0.71 6  240 335 
 SML  HE ES        014 19.96                             118    0.09 8  240 335 
 PRA  HZ EP   1    014  9.48                             106    0.21 4  395 209 
 PRA  HN ES        014 51.78                             106    0.50 6  395 209 
 PRA  HZ I         014 57.08         2.8 0.32            101            395 209 
                                                                                
