 2012  314 0802 45.8 L   7.186 -73.979 17.2  RSN  9 0.4 2.4LRSN                1
 GAP=103        0.97       3.0     2.3  3.9 -0.4244E-01  0.1041E+01 -0.1157E+01E
 ACTION:UP  12-03-31 23:19 OP:EP   STATUS:               ID:20120314080245 L   I
 2012-03-14-0800-00M.COL___202                                                 6
 STAT SP IPHASW D HRMM SECON CODA AMPLIT PERI AZIMU VELO SNR AR TRES W  DIS CAZ7
 BRR  HZ IP     C  8 2 51.53                             116     0.010   31 107 
 BRR  HZ I         8 2 56.20       610.3 0.14                            31 107 
 BRR  HN ES   1    8 2 56.37                             116     0.4 7   31 107 
 PTB  HZ EP   1    8 3  0.08                              99     0.1 7   89 216 
 PTB  HE ES   1    8 3 10.88                              99    -0.2 7   89 216 
 PTB  HZ I         8 3 11.57       126.0 0.15                            89 216 
 ZAR  HZ EP   1    8 3  2.38                              98     0.3 7  103 289 
 ZAR  HE ES   1    8 3 14.85                              98     0.0 7  103 289 
 ZAR  HZ I         8 3 18.95        61.8 0.31                           103 289 
 BAR2 SZ EP        8 3  3.18                              97    -0.210  110 127 
 BAR2 SZ ES   1    8 3 16.39                              97    -0.7 7  110 127 
 BAR2 SZ I         8 3 18.81        47.8 0.23                           110 127 
 OCA  SZ EP   1    8 3  7.74                              56     0.5 7  137  32 
 OCA  SZ ES   1    8 3 23.29                              56    -0.7 7  137  32 
 PAM  SZ EP   1    8 3  8.33                              56     0.0 7  142  83 
 RUS  HZ EP   1    8 3 12.89                              56     0.6 7  174 145 
 RUS  HN ES   1    8 3 33.52                              56     0.6 7  174 145 
 RUS  HZ I         8 3 35.36       136.1 0.48                           174 145 
 HEL  HN ES   1    8 3 38.77                              56    -0.5 6  204 237 
 HEL  HZ I         8 3 41.69        23.6 0.16                           204 237 
 NOR  SE ES   1    8 3 38.85                              56     0.1 6  205 209 
                                                                                
