 2012  914 0856 12.0 L   6.739 -73.161153.4  RSN  6 0.3 1.7LRSN                1
 GAP=180        0.56       4.6     4.4  4.8  0.8728E+01  0.5352E+01  0.1238E+01E
 Epicentro: VILLANUEVA - SANTANDER                                             3
 ACTION:UPD 12-10-22 14:18 OP:ep   STATUS:               ID:20120914085612 L   I
 2012-09-14-0850-00M.COL___227                                                 6
 STAT SP IPHASW D HRMM SECON CODA AMPLIT PERI AZIMU VELO AIN AR TRES W  DIS CAZ7
 BAR2 SZ EP   1    856 32.36                             174   -0.03 7 16.4 188 
 BAR2 SZ ES   1    856 47.84                             174   -0.50 7 16.4 188 
 BAR2 SZ I         856 49.31        10.3 0.30                          16.4 188 
 GIR2 SZ EP   1    856 32.63                             166   -0.09 7 37.7 355 
 GIR2 SZ ES   1    856 48.83                             166   -0.09 7 37.7 355 
 BRR  HZ EP   1    856 34.27                             153    0.22 7 73.2 304 
 BRR  HZ I         856 35.80        14.8 0.10                          73.2 304 
 BRR  HN ES   1    856 51.79                             153    0.51 7 73.2 304 
 RUS  HZ EP   1    856 35.91                             147   -0.11 7 94.0 175 
 RUS  HE ES   1    856 55.18                             147    0.39 7 94.0 175 
 PTB  HZ EP   1    856 39.19                             134   -0.12 7  145 261 
 PTB  HN ES   1    857  0.47                             134   -0.18 7  145 261 
 PTB  HN I         857  8.15         3.9 0.25                           145 261 
 ZAR  HZ EP   1    856 45.13                             124    0.11 6  205 294 
 ZAR  HN ES   1    857 10.64                             124   -0.17 6  205 294 
 ZAR  HZ I         857 16.83         5.7 0.34                           205 294 
                                                                                
