 2015 1214 0424  1.9 L   6.835 -73.141147.5  RSN  7 0.3 1.4LRSN                1
 GAP=135        0.92       4.0     4.0  6.2 -0.4523E+00  0.6146E+01 -0.1451E+01E
 Epicentro: LOS SANTOS - SANTANDER                                             3
 ACTION:UPD 16-02-04 15:04 OP:cam  STATUS:               ID:20151214042401 L   I
 OLDACT:REG 15-12-14 13:14 OP:cara STATUS:               ID:20151214041747     3
 2015-12-14-0417-47M.COL___336                                                 6
 STAT SP IPHASW D HRMM SECON CODA AMPLIT PERI AZIMU VELO AIN AR TRES W  DIS CAZ7
 BAR2 EZ EP        424 21.56                             169   -0.3110 27.2 190 
 BAR2 EZ ES        424 36.75                             169   -0.6610 27.2 190 
 BAR2 EZ I         424 38.85         4.3 0.16            170           27.2 190 
 BRR  HZ EP        424 23.53                             153    0.3210 69.9 296 
 BRR  HN ES        424 40.25                             153    0.4610 69.9 296 
 BRR  HZ I         424 43.64         4.3 0.38            153           69.9 296 
 PAM  EZ EP        424 24.48                             152    0.3310 74.1  41 
 PAM  EN ES        424 41.38                             152   -0.1010 74.1  41 
 PAM  EZ I         424 43.35         4.1 0.42            155           74.1  41 
 RUS  HZ EP        424 26.39                             143    0.2510  104 176 
 RUS  HN ES        424 45.25                             143    0.2310  104 176 
 RUS  HZ I         424 46.68         1.9 0.38            146            104 176 
 PTB  HZ EP        424 28.58                             132   -0.59 9  149 257 
 PTB  HE ES        424 50.36                             132   -0.04 9  149 257 
 PTB  HZ I         424 51.34         2.7 0.16            133            149 257 
 SPBC HN ES        424 53.69                             129    0.22 9  167 218 
 SPBC HZ I         424 56.85         3.3 0.10            131            167 218 
 ZAR  HZ EP        424 34.12                             123   -0.28 9  203 291 
 ZAR  HN ES        424 59.78                             123    0.06 9  203 291 
 ZAR  HZ I         425  5.20         3.7 0.36            124            203 291 
                                                                                
