 2014  214 0143  7.0 L   7.483 -73.435115.5  RSN  8 0.5 1.5LRSN                1
 GAP= 92        1.18       3.5     4.3  8.8 -0.4191E+00  0.1199E+02  0.1290E+01E
 Epicentro: SABANA DE TORRES - SANTANDER                                       3
 ACTION:UPD 14-03-10 08:10 OP:ep   STATUS:               ID:20140214014307 L   I
 OLDACT:DUP 14-02-14 09:58 OP:carl STATUS:               ID:20140214014001d    3
 2014-02-14-0140-00M.COL___291                                                 6
 STAT SP IPHASW D HRMM SECON CODA AMPLIT PERI AZIMU VELO AIN AR TRES W  DIS CAZ7
 BRR  HZ EP        143 24.04                             154    0.2410 51.6 216 
 BRR  HE ES        143 37.02                             154    0.1410 51.6 216 
 BRR  HZ I         143 45.22        12.6 0.46            158           51.6 216 
 PAM  SZ EP        143 26.84                             142    0.3310 82.7 101 
 PAM  SN ES        143 41.99                             142    0.2810 82.7 101 
 PAM  SZ I         143 44.18         6.7 0.14            151           82.7 101 
 OCA  HZ EP        143 25.55                             141   -0.6310 84.6   9 
 OCA  HN ES        143 41.43                             141    0.3110 84.6   9 
 OCA  HZ I         143 43.35         9.8 0.24            146           84.6   9 
 BAR2 SZ EP        143 28.06                             136    0.3210  102 164 
 BAR2 SZ ES        143 43.16                             136   -0.7310  102 164 
 BAR2 SZ I         143 45.97         5.8 0.10            144            102 164 
 PTB  HZ EP     C  143 32.03                             123   -0.28 9  154 227 
 PTB  HN ES        143 51.56                             123   -0.48 9  154 227 
 PTB  HZ I         143 53.80         3.9 0.16            129            154 227 
 ZAR  HZ EP        143 33.16                             122    0.51 9  157 270 
 ZAR  HN ES        143 53.26                             122    0.62 9  157 270 
 ZAR  HZ I         143 55.03         3.7 0.28            128            157 270 
 SML  HE ES        143 52.73                             121   -0.75 9  162 334 
 SML  HZ I         144  2.73         4.5 0.10            127            162 334 
 SPBC HN ES        144  3.89                             114    0.05 8  214 199 
                                                                                
