 2012  514 0545  7.9 L   6.805 -73.189137.2  RSN  7 0.3 1.9LRSN                1
 GAP=131        0.77       3.9     4.6  7.9 -0.1596E+01  0.1073E+02 -0.6793E+01E
 Epicentro: ZAPATOCA - SANTANDER                                               3
 ACTION:UP  12-07-05 12:05 OP:pat  STATUS:               ID:20120514054507 L   I
 2012-05-14-0540-00M.COL___195                                                 6
 STAT SP IPHASW D HRMM SECON CODA AMPLIT PERI AZIMU VELO SNR AR TRES W  DIS CAZ7
 BAR2 SZ EP   1    545 26.68                             170     0.2 7   24 178 
 BAR2 SZ ES   1    545 41.01                             170     0.0 7   24 178 
 BAR2 SZ I         545 42.98        35.6 0.24                            24 178 
 BRR  HZ EP   1    545 28.53                             152     0.7 7   67 300 
 BRR  HZ I         545 49.56        28.4 0.15                            67 300 
 PAM  SZ EP   1    545 29.60                             148     0.2 7   80  42 
 PAM  SE ES   1    545 46.28                             148     0.2 7   80  42 
 RUS  HZ EP   1    545 30.70                             142    -0.2 7  102 173 
 RUS  HN ES   1    545 48.59                             142    -0.2 7  102 173 
 RUS  HZ I         545 50.81         9.5 0.31                           102 173 
 PTB  HZ EP   1    545 33.68                             131    -0.1 7  143 258 
 PTB  HN ES   1    545 53.62                             131    -0.3 7  143 258 
 PTB  HZ I         545 59.70         6.9 0.19                           143 258 
 OCA  HZ EP   1    545 35.00                             128    -0.4 7  159 355 
 OCA  HN ES   1    545 56.44                             128    -0.5 7  159 355 
 ZAR  HN ES   1    546  4.11                             121     0.3 6  199 292 
 ZAR  HZ I         546 10.76         9.0 0.33                           199 292 
                                                                                
