 2012 1014 0549  8.2 L   6.830 -73.151142.3  RSN 17 0.5 2.9LRSN 3.4WRSN        1
 SPEC AVERAGE  MO 14.2 ST 20.0 OM  2.5 f0 3.47 R0.4951 AL 2.20 WI 24.3 MW  3.4 3
 SPEC SD       MO  0.2 ST 22.7 OM  0.8 f0 1.13 R0.1900 AL      WI      MW  0.1 3
 GAP= 55        1.02       3.8     4.0  5.7 -0.8788E+00  0.6095E+01  0.2853E+01E
 Epicentro: LOS SANTOS - SANTANDER                                             3
 SPEC ZAR HH E MO 14.5 ST 64.6 OM  2.7 f0 5.45 R0.2697 AL 2.59 WI 23.2 MW  3.6 3
 SPEC ZAR HH E T 550 6 K 0.000 GD  247 VS 4.20 DE 3.00 Q0230.0 QA 0.60 VS 4.20 3
 SPEC TAM HH Z MO 14.0 ST  1.7 OM  1.5 f0 2.35 R0.6255 AL 1.51 WI  7.6 MW  3.3 3
 SPEC TAM HH Z T 54935 K 0.000 GD  211 VP 7.60 DE 3.00 Q0230.0 QA 0.60 VS 4.20 3
 SPEC PRA HH N MO 14.0 ST  4.8 OM  2.0 f0 3.29 R0.4468 AL 1.72 WI 28.3 MW  3.3 3
 SPEC PRA HH N T 55042 K 0.000 GD  419 VS 4.20 DE 3.00 Q0230.0 QA 0.60 VS 4.20 3
 SPEC RREFHH Z MO 14.1 ST  8.0 OM  1.4 f0 3.62 R0.4061 AL 2.39 WI 34.2 MW  3.3 3
 SPEC RREFHH Z T 54955 K 0.000 GD  353 VP 7.60 DE 3.00 Q0230.0 QA 0.60 VS 4.20 3
 SPEC ROSCBH Z MO 14.1 ST  6.0 OM  1.5 f0 3.24 R0.4537 AL 2.59 WI 26.5 MW  3.3 3
 SPEC ROSCBH Z T 54947 K 0.000 GD  292 VP 7.60 DE 3.00 Q0230.0 QA 0.60 VS 4.20 3
 SPEC HEL HH N MO 14.2 ST0.809 OM  2.3 f0 1.60 R0.9187 AL 1.64 WI 35.2 MW  3.4 3
 SPEC HEL HH N T 55019 K 0.000 GD  306 VS 4.20 DE 3.00 Q0230.0 QA 0.60 VS 4.20 3
 SPEC CHI HH N MO 14.1 ST  5.8 OM  2.3 f0 3.14 R0.4682 AL 2.24 WI 25.0 MW  3.4 3
 SPEC CHI HH N T 55014 K 0.000 GD  289 VS 4.20 DE 3.00 Q0230.0 QA 0.60 VS 4.20 3
 SPEC BRR HH N MO 14.5 ST 56.6 OM  2.9 f0 5.19 R0.2832 AL 3.08 WI 24.2 MW  3.6 3
 SPEC BRR HH N T 54945 K 0.000 GD  158 VS 4.20 DE 3.00 Q0230.0 QA 0.60 VS 4.20 3
 ACTION:UPD 12-11-22 17:03 OP:ep   STATUS:               ID:20121014054908 L   I
 2012-10-14-0548-18M.COL___201                                                 6
 STAT SP IPHASW D HRMM SECON CODA AMPLIT PERI AZIMU VELO AIN AR TRES W  DIS CAZ7
 BAR2 SZ IP        549 27.51                             169   -0.0210 26.5 187 
 BAR2 SZ I         549 28.02       170.2 0.14                          26.5 187 
 BAR2 SZ ES   1    549 42.13                             169   -0.44 7 26.5 187 
 GIR2 SZ IP        549 27.52                             168    0.1010 27.9 350 
 BRR  HZ IP     C  549 29.32                             153    0.4210 69.1 296 
 BRR  HZ I         549 29.56       148.2 0.28                          69.1 296 
 BRR  HN ES   1    549 45.45                             153    0.44 7 69.1 296 
 PAM  SZ IP        549 30.32                             151    0.3610 75.3  42 
 PAM  SZ I         549 30.66       158.9 0.20                          75.3  42 
 PAM  SN ES   1    549 46.96                             151    0.05 7 75.3  42 
 RUS  HZ EP        549 31.52                             142   -0.3910  104 176 
 RUS  HN ES   1    549 49.48                             142   -0.88 7  104 176 
 RUS  HN I         549 51.70        94.3 0.60                           104 176 
 TAM  HZ EP        549 35.96                             129    0.17 9  157 106 
 TAM  HE ES   2    549 57.33                             129    0.06 5  157 106 
 TAM  HN I         550  1.67        94.9 0.38                           157 106 
 YOP  SZ EP        549 38.36                             125    0.00 9  182 154 
 YOP  SN ES   2    550  2.71                             125    0.85 4  182 154 
 ZAR  HZ EP        549 40.34                             122    0.06 9  202 291 
 ZAR  HN I         550 10.23       115.2 0.36                           202 291 
 NOR  SZ EP        549 44.17                             118    0.24 8  236 234 
 NOR  SN ES   2    550 11.55                             118   -0.22 4  236 234 
 NOR  SN I         550 18.34       103.4 0.14                           236 234 
 CHI  HZ EP        549 45.96                             116   -0.13 8  252 195 
 CHI  HN ES   1    550 14.87                             116   -0.73 6  252 195 
 CHI  HN I         550 21.50        53.5 0.26                           252 195 
 ROSC BZ EP        549 47.67                             116    1.21 8  255 211 
 ROSC BN ES   1    550 17.05                             116    0.79 6  255 211 
 ROSC BZ I         550 22.42        36.9 0.30                           255 211 
 HEL  HZ EP        549 48.33                             114    0.02 8  272 255 
 HEL  HN I         550 27.08        28.3 0.40                           272 255 
 URE  HZ EP        549 47.79                             113   -1.15 7  282 291 
 URE  HN I         550 28.42        54.7 0.24                           282 291 
 GUY  SN ES   2    550 26.37                             111    0.03 4  305 234 
 DBB  SZ EP        549 55.18                             109   -0.30 7  339 274 
 DBB  SZ I         550 38.88        23.0 0.32                           339 274 
 SDV  BZ EP        549 57.25                             108   -0.71 6  359  51 
 PRA  HZ EP        550  1.56                             106   -0.39 6  395 209 
 PRA  HN ES   3    550 43.05                             106   -0.79 1  395 209 
 PRA  HN I         550 50.25        23.1 0.74                           395 209 
                                                                                
