 2017  114 0811  3.8 L   6.811 -73.155149.4  RSN 12 0.6 1.9LRSN                1
 GAP=118        1.17       4.4     4.9  6.2  0.3669E+01  0.5964E+01  0.5251E+01E
 Epicentro: LOS SANTOS - SANTANDER                                             3
 ACTION:UPD 17-05-22 15:59 OP:jn   STATUS:               ID:20170114081103 L   I
 OLDACT:UP  17-01-14 16:26 OP:dani STATUS:               ID:20170114080742     3
 OLDACT:REG 17-01-14 12:58 OP:dani STATUS:               ID:20170114080742     3
 2017-01-14-0808-00M.COL___323                                                 6
 STAT SP IPHASW D HRMM SECON CODA AMPLIT PERI AZIMU VELO AIN AR TRES W  DIS CAZ7
 BAR2 EZ EP        811 24.08                             171    0.1610 24.4 187 
 BAR2 EZ ES        811 38.97                             171   -0.6110 24.4 187 
 BAR2 EZ I         811 41.05        19.9 0.30            168           24.4 187 
 BRR  HZ EP        811 25.85                             154    0.5610 69.7 298 
 BRR  HN ES        811 42.94                             154    0.9210 69.7 298 
 BRR  HZ I         811 43.87         9.7 0.14            149           69.7 298 
 PAM  EZ EP        811 26.79                             151    0.3710 77.1  41 
 PAM  EN ES        811 44.12                             151    0.0910 77.1  41 
 PAM  EZ I         811 46.15        20.8 0.48            155           77.1  41 
 RUS  HZ EP        811 28.00                             144   -0.0310  102 175 
 RUS  HE ES        811 46.75                             144   -0.1610  102 175 
 RUS  HZ I         811 48.00        12.2 0.33            145            102 175 
 PTB  HZ EP        811 30.72                             133   -0.30 9  147 258 
 PTB  HN ES        811 51.61                             133   -0.62 9  147 258 
 PTB  HZ I         811 58.72         8.3 0.68            130            147 258 
 ZAR  HZ EP   3    811 37.60                             123    1.24 2  203 292 
 ZAR  HN ES        812  1.26                             123   -0.48 9  203 292 
 ZAR  HZ I         812 10.79         6.4 0.22            122            203 292 
 CHI  HZ EP        811 42.20                             118    0.37 8  250 195 
 CHI  HN ES        812 11.73                             118    0.26 8  250 195 
 CHI  HZ I         812 14.94         4.2 0.42            118            250 195 
 URE  HZ EP        811 44.59                             114   -0.32 7  282 292 
 URE  HE ES   3    812 15.72                             114   -1.24 2  282 292 
 URE  HZ I         812 26.66         4.3 0.29            114            282 292 
 GUY2CHZ EP   3    811 49.37                             113    1.78 2  301 234 
 GUY2CHZ I         812 30.09         4.0 0.28                           301 234 
 PTGC HZ EP        811 47.22                             112   -0.81 7  310 159 
 PTGC HN ES   3    812 21.00                             112   -1.50 2  310 159 
 PTGC HZ I         812 22.98         8.6 0.44            113            310 159 
 ORTC HZ EP        811 58.93                             107    1.01 6  396 216 
 ORTC HN ES   3    812 42.14                             107    2.03 1  396 216 
 ORTC HZ I         812 45.17         2.0 0.24            107            396 216 
 SJC  HZ EP        811 58.13                             106   -1.19 6  408 327 
 SJC  HN ES   4    812 39.60                             106   -3.00 0  408 327 
 SJC  HZ I         812 45.59         1.6 0.29            106            408 327 
                                                                                
