 2015  314 0147 40.4 L   6.818 -73.146145.0  RSN  5 0.4 1.3LRSN                1
 GAP=142        1.00       6.0     5.5  8.9 -0.1494E+02  0.2054E+02  0.1598E+01E
 Epicentro: LOS SANTOS - SANTANDER                                             3
 ACTION:UPD 15-04-30 16:25 OP:nd   STATUS:               ID:20150314014740 L   I
 OLDACT:UP  15-03-14 14:21 OP:cam  STATUS:               ID:20150314013748     3
 OLDACT:REG 15-03-14 12:30 OP:cam  STATUS:               ID:20150314013748     3
 2015-03-14-0137-48M.COL___272                                                 6
 STAT SP IPHASW D HRMM SECON CODA AMPLIT PERI AZIMU VELO AIN AR TRES W  DIS CAZ7
 PAM  SZ EP        148  2.52                             151    0.0410 75.9  41 
 PAM  SN ES        148 20.07                             151    0.3910 75.9  41 
 PAM  SZ I         148 20.67         1.9 0.18            156           75.9  41 
 RUS  HZ EP        148  3.79                             143   -0.4610  103 176 
 RUS  HN ES        148 22.81                             143   -0.0210  103 176 
 RUS  HZ I         148 25.28         1.3 0.36            146            103 176 
 PTB  HZ EP        148  6.97                             132   -0.39 9  148 258 
 PTB  HE ES        148 27.86                             132   -0.51 9  148 258 
 PTB  HZ I         148 33.58         3.1 0.14            133            148 258 
 NOR  HZ EP        148 16.38                             118    0.15 8  236 234 
 NOR  HN ES        148 44.17                             118    0.02 8  236 234 
 NOR  HZ I         148 47.41         2.3 0.22            121            236 234 
 GUY2CHZ EP        148 24.44                             112    0.32 7  302 234 
 GUY2CHN ES        148 59.28                             112    1.08 7  302 234 
 GUY2CHZ I         149  6.37         1.4 0.28                           302 234 
                                                                                
