 2016 1214 0611 29.2 L   6.054 -73.873 95.8  RSN  5 0.2 0.6LRSN                1
 GAP=208        0.62       3.7     2.7  5.9  0.5326E+01  0.4599E+01  0.2159E+01E
 Epicentro: EL PENON - SANTANDER                                               3
 ACTION:UPD 17-01-11 20:14 OP:rebc STATUS:               ID:20161214061129 L   I
 OLDACT:REG 16-12-14 12:32 OP:and  STATUS:               ID:20161214060744     3
 2016-12-14-0608-00M.COL___380                                                 6
 STAT SP IPHASW D HRMM SECON CODA AMPLIT PERI AZIMU VELO AIN AR TRES W  DIS CAZ7
 PTB  HZ EP        611 46.17                             136   -0.1410 83.9 310 
 PTB  HN ES        611 59.53                             136   -0.1310 83.9 310 
 PTB  HZ I         612  4.25         1.0 0.20            139           83.9 310 
 RUS  HZ EP        611 47.47                             134    0.0410 89.3 101 
 RUS  HN ES        612  1.77                             134    0.1310 89.3 101 
 RUS  HZ I         612  2.73         1.3 0.24            141           89.3 101 
 BAR2 EZ EP        611 47.64                             131   -0.1310 96.9  52 
 BAR2 EZ ES        612  2.47                             131    0.2110 96.9  52 
 BRR  HZ EP        611 49.13                             125   -0.3610  118   9 
 BRR  HN ES        612  5.11                             125   -0.2010  118   9 
 ZAR  HZ EP        611 57.92                             112    0.26 9  193 326 
 ZAR  HN ES        612 20.33                             112    0.47 9  193 326 
                                                                                
