 2014  614 0804  0.1 L   6.371 -73.690 99.6  RSN  8 0.4 1.5LRSN                1
 GAP=138        1.04       3.0     3.7  6.6 -0.3042E+01  0.5354E+01 -0.4245E+01E
 Epicentro: SANTA HELENA DEL OPON - SANTANDER                                  3
 ACTION:UPD 14-07-01 22:53 OP:nd   STATUS:               ID:20140614080400 L   I
 OLDACT:UP  14-06-16 08:57 OP:STLL STATUS:               ID:20140614080400 L   3
 OLDACT:UP  14-06-14 18:46 OP:mh   STATUS:               ID:20140614075807     3
 OLDACT:REG 14-06-14 15:13 OP:mh   STATUS:               ID:20140614075807     3
 2014-06-14-0758-07M.COL___253                                                 6
 STAT SP IPHASW D HRMM SECON CODA AMPLIT PERI AZIMU VELO AIN AR TRES W  DIS CAZ7
 BAR2 SZ EP        8 4 16.68                             146    0.5210 61.3  66 
 BAR2 SZ ES        8 4 28.59                             146   -0.0710 61.3  66 
 PTB  HZ EP        8 4 17.54                             136   -0.2910 86.8 282 
 PTB  HN ES        8 4 31.19                             136   -0.4410 86.8 282 
 PTB  HZ I         8 4 34.48         6.5 0.14            134           86.8 282 
 SPBC HZ EP        8 4 18.51                             135    0.3010 90.0 208 
 SPBC HN ES        8 4 32.42                             135    0.1110 90.0 208 
 SPBC HZ I         8 4 35.32         7.1 0.14            134           90.0 208 
 ZAR  HZ EP        8 4 27.78                             115    0.56 9  179 314 
 ZAR  HN ES        8 4 48.46                             115    0.11 9  179 314 
 ZAR  HZ I         8 4 55.63         5.5 0.25            114            179 314 
 HEL  HZ EP        8 4 31.18                             112    0.62 9  204 265 
 HEL  HN ES        8 4 54.38                             112    0.09 9  204 265 
 HEL  HZ I         8 4 59.89         1.8 0.13            111            204 265 
 OCA  HZ EP        8 4 30.19                             111   -0.81 8  211  11 
 OCA  HN ES        8 4 55.26                             111    0.18 8  211  11 
 OCA  HZ I         8 5  2.28         7.5 0.21            111            211  11 
 SML  HZ EP        8 4 37.67                             106   -0.33 8  272 351 
 SML  HN ES        8 5  7.27                             106   -0.26 8  272 351 
 PRA  HZ EP        8 4 44.25                             103    0.18 7  322 204 
 PRA  HN ES        8 5 17.28                             103   -1.05 7  322 204 
 PRA  HZ I         8 5 27.01         1.6 1.60            103            322 204 
                                                                                
