 2015  714 0834 29.8 L   6.778 -73.125147.5  RSN  6 0.4 1.4LRSN                1
 GAP=185        0.78       4.0     6.4  8.2  0.7783E+01  0.9985E+01 -0.1051E+02E
 Epicentro: LOS SANTOS - SANTANDER                                             3
 ACTION:UPD 15-09-08 21:48 OP:cam  STATUS:               ID:20150714083429 L   I
 OLDACT:REG 15-07-14 14:20 OP:spq  STATUS:               ID:20150714082747     3
 2015-07-14-0827-47M.COL___337                                                 6
 STAT SP IPHASW D HRMM SECON CODA AMPLIT PERI AZIMU VELO AIN AR TRES W  DIS CAZ7
 BAR2 EZ EP   1    834 49.57                             171   -0.08 8 21.5 197 
 BAR2 EZ ES   1    835  4.65                             171   -0.45 8 21.5 197 
 BAR2 EZ I         835  6.11         5.3 0.16            172           21.5 197 
 RUS  HZ EP   1    834 53.45                             145   -0.14 8 98.0 177 
 RUS  HE ES   1    835 12.41                             145    0.30 8 98.0 177 
 RUS  HZ I         835 13.31         1.4 0.28            150           98.0 177 
 OCA  HZ EP   1    834 58.41                             129   -0.14 7  163 352 
 OCA  HE ES        835 21.37                             129    0.4410  163 352 
 OCA  HZ I         835 25.94         4.3 0.20            130            163 352 
 ZAR  HZ EP   1    835  3.56                             122    0.84 7  207 293 
 ZAR  HN ES        835 28.23                             122   -0.13 9  207 293 
 ZAR  HZ I         835 34.32         2.7 0.28            123            207 293 
 SML  HZ EP   1    835  6.40                             117   -0.51 7  247 335 
 SML  HN ES   1    835 35.41                             117   -0.42 7  247 335 
 SML  HZ I         835 42.04         2.6 0.24            118            247 335 
 GUY2CHZ EP   4    835 15.71                             113    2.12 0  302 235 
 GUY2CHE ES   4    835 50.05                             113    2.33 0  302 235 
 GUY2CHZ I         835 56.23         0.8 0.34                           302 235 
                                                                                
