 2017  914 0207 25.4 L   6.873 -73.280121.7  RSN  8 0.4 1.6LRSN                1
 GAP=113        0.94       4.0     4.2  6.5 -0.5022E+00  0.9311E+01  0.3547E+01E
 Epicentro: BETULIA - SANTANDER                                                3
 ACTION:UPD 17-10-05 19:12 OP:rebc STATUS:               ID:20170914020725 L   I
 OLDACT:UP  17-09-14 14:23 OP:mg   STATUS:               ID:20170914015744     3
 OLDACT:REG 17-09-14 10:55 OP:dhb  STATUS:               ID:20170914015744     3
 2017-09-14-0158-00M.COL___470                                                 6
 STAT SP IPHASW D HRMM SECON CODA AMPLIT PERI AZIMU VELO AIN AR TRES W  DIS CAZ7
 BAR2 EZ IP     C  2 7 42.17                             164   -0.2610 32.9 161 
 BAR2 EZ ES        2 7 55.75                             164    0.0410 32.9 161 
 BAR2 EZ I         2 7 56.36        20.7 0.36            165           32.9 161 
 BRR  HZ EP     C  2 7 42.44                             154   -0.5710 54.3 298 
 BRR  HN ES        2 7 56.71                             154   -0.0310 54.3 298 
 BRR  HZ I         2 7 57.55        14.3 0.12            153           54.3 298 
 PAM  EZ EP        2 7 45.46                             144   -0.0110 82.3  51 
 PAM  EN ES        2 8  1.71                             144    0.5910 82.3  51 
 PAM  EZ I         2 8  3.85         7.6 0.24            146           82.3  51 
 RUS  HZ EP        2 7 47.51                             135   -0.2110  111 169 
 RUS  HN ES        2 8  4.88                             135   -0.2410  111 169 
 RUS  HZ I         2 8  5.89         4.2 0.20            136            111 169 
 ZAR  HZ EP   1    2 7 54.35                             119   -0.25 7  187 292 
 ZAR  HN ES   1    2 8 17.23                             119   -0.14 7  187 292 
 ZAR  HZ I         2 8 19.66         6.8 0.11            119            187 292 
 NOR  HZ EP        2 7 59.83                             114    0.73 8  228 231 
 NOR  HN ES        2 8 25.91                             114    0.54 8  228 231 
 NOR  HZ I         2 8 31.41         2.1 0.24            114            228 231 
 GUY2CHZ EP   4    2 8  4.30                             108   -2.91 0  294 232 
 GUY2CHE ES   4    2 8 43.75                             108    3.95 0  294 232 
 GUY2CHZ I         2 8 46.08         1.3 0.46                           294 232 
 SJC  HZ EP   4    2 8 16.33                             102   -2.19 0  394 328 
 SJC  HN ES   4    2 8 56.26                             102   -3.69 0  394 328 
 SJC  HZ I         2 9  0.98         0.9 0.32            102            394 328 
                                                                                
