 2012  514 0028 25.1 L   6.789 -73.156144.3  RSN  7 0.4 1.5LRSN                1
 GAP=136        0.92       4.9     5.4  8.7  0.8485E+00  0.9384E+01 -0.1045E+01E
 Epicentro: LOS SANTOS - SANTANDER                                             3
 ACTION:UP  12-07-05 12:05 OP:pat  STATUS:               ID:20120514002825 L   I
 2012-05-14-0027-29S.COL___205                                                 6
 STAT SP IPHASW D HRMM SECON CODA AMPLIT PERI AZIMU VELO SNR AR TRES W  DIS CAZ7
 BAR2 SZ EP   1    028 44.52                             171     0.0 7   22 188 
 BAR2 SZ I         028 44.79         7.9 0.09                            22 188 
 BAR2 SZ ES   1    028 59.55                             171    -0.1 7   22 188 
 BRR  HZ EP        028 46.38                             152     0.310   71 300 
 BRR  HZ I         028 46.72         5.6 0.12                            71 300 
 BRR  HN ES   1    029  2.96                             152     0.6 7   71 300 
 PAM  SZ EP   1    028 47.41                             150     0.2 7   79  40 
 PAM  SN ES   1    029  4.34                             150    -0.2 7   79  40 
 RUS  HZ EP   1    028 48.44                             144    -0.2 7   99 175 
 RUS  HN ES   1    029  7.03                             144     0.1 7   99 175 
 RUS  HZ I         029  8.89         4.5 0.46                            99 175 
 PTB  HZ EP   1    028 51.62                             132    -0.2 7  146 259 
 PTB  HN ES   1    029 11.82                             132    -0.8 7  146 259 
 PTB  HZ I         029 17.06         3.2 0.17                           146 259 
 OCA  HN ES   1    029 14.82                             129    -0.6 7  161 354 
 OCA  HZ I         029 18.18         8.4 0.25                           161 354 
 ZAR  HN ES   1    029 22.98                             122     0.4 6  203 293 
                                                                                
