 2012 1214 0352 52.4 L   6.730 -73.257153.8  RSN  4 0.3 1.3LRSN                1
 GAP=202        0.63       7.7     6.7  8.6  0.2748E+02 -0.2559E+01  0.6114E+01E
 Epicentro: VILLANUEVA - SANTANDER                                             3
 ACTION:UPD 13-01-04 14:27 OP:ep   STATUS:               ID:20121214035252 L   I
 2012-12-14-0350-00M.COL___242                                                 6
 STAT SP IPHASW D HRMM SECON CODA AMPLIT PERI AZIMU VELO AIN AR TRES W  DIS CAZ7
 BAR2 SZ EP   1    353 12.44                             173   -0.48 7 17.4 151 
 BAR2 SZ I         353 28.86         5.5 0.40                          17.4 151 
 BRR  HE ES   1    353 31.29                             156    0.21 7 65.3 310 
 RUS  HZ EP   1    353 16.66                             147    0.09 7 94.6 168 
 RUS  HE ES   1    353 35.53                             147    0.12 7 94.6 168 
 RUS  HZ I         353 36.10         2.0 0.22                          94.6 168 
 PTB  HZ EP   1    353 19.28                             137    0.38 7  134 261 
 PTB  HN ES   1    353 39.23                             137   -0.32 7  134 261 
 PTB  HZ I         353 42.16         2.2 0.14                           134 261 
                                                                                
