 2013  814 0820 31.1 L   6.763 -73.165148.9  RSN 13 0.6 2.3LRSN                1
 GAP=136        1.39       3.6     5.7  6.5 -0.1282E+01  0.8305E+01  0.1682E+01E
 Epicentro: LOS SANTOS - SANTANDER                                             3
 ACTION:UPD 14-01-14 09:02 OP:ep   STATUS:               ID:20130814081838 L   I
 OLDACT:UP  13-08-14 16:27 OP:cam  STATUS:               ID:20130814081838 L   3
 OLDACT:UPD 13-08-14 12:02 OP:stll STATUS:               ID:20130814081838 L   3
 2013-08-14-0818-38M.COL___230                                                 6
 STAT SP IPHASW D HRMM SECON CODA AMPLIT PERI AZIMU VELO AIN AR TRES W  DIS CAZ7
 BAR2 SZ EP        820 50.82                             172   -0.2610 19.0 186 
 BAR2 SZ ES        821  5.90                             172   -0.7310 19.0 186 
 BAR2 SZ I         821  6.98        46.8 0.21            168           19.0 186 
 GIR2 SZ EP     C  820 51.15                             166   -0.1510 35.0 355 
 GIR2 SZ ES        821  6.99                             166   -0.0310 35.0 355 
 BRR  HZ IP     C  820 52.93                             153    0.2810 71.4 302 
 BRR  HZ I         820 53.06        31.2 0.20            148           71.4 302 
 BRR  HN ES        821 10.17                             153    0.7510 71.4 302 
 PAM  SZ EP        820 53.97                             150    0.0010 81.9  39 
 PAM  SZ I         820 54.03        58.2 0.28            148           81.9  39 
 PAM  SN ES        821 13.00                             150    1.2310 81.9  39 
 RUS  HZ EP        820 54.64                             146   -0.3010 96.7 175 
 RUS  HN ES        821 13.02                             146   -0.4710 96.7 175 
 RUS  HZ I         821 13.97        30.1 0.32            138           96.7 175 
 PTB  HZ EP        820 57.77                             133   -0.35 9  145 260 
 PTB  HN ES        821 18.08                             133   -1.07 9  145 260 
 PTB  HZ I         821 18.79        27.5 0.52            126            145 260 
 SPBC HZ EP        820 59.65                             131    0.18 9  159 219 
 SPBC HE ES        821 22.46                             131    0.90 9  159 219 
 SPBC HZ I         821 27.95        20.9 0.36            123            159 219 
 OCA  HZ EP        820 59.92                             130   -0.14 9  164 354 
 OCA  HN ES        821 21.88                             130   -0.73 9  164 354 
 OCA  HZ I         821 25.99        29.9 0.18            125            164 354 
 ZAR  HZ EP        821  4.20                             123    0.44 9  204 293 
 ZAR  HE ES        821 29.75                             123    0.56 9  204 293 
 ZAR  HZ I         821 34.83        15.2 0.30            117            204 293 
 CHI  HZ EP        821  8.69                             118    0.15 8  244 195 
 CHI  HN ES        821 37.72                             118    0.02 8  244 195 
 CHI  HZ I         821 45.46         5.7 0.60            112            244 195 
 SML  HZ EP        821  7.91                             118   -0.34 8  247 336 
 SML  HN ES        821 36.86                             118   -0.34 8  247 336 
 SML  HZ I         821 43.19        37.5 0.26            113            247 336 
 GUY2CHZ EP   4    821 17.41                             113    2.97 0  297 235 
 CBOC HZ EP   4    821 19.00                             111    1.18 0  330 253 
 COD  HZ EP   4    821 19.81                             109   -0.28 0  352 355 
 PRA  HZ EP        821 24.27                             107    0.03 6  387 210 
 PRA  HZ I         822 10.77         6.1 0.34            103            387 210 
 ORTC HZ EP        821 25.51                             107    0.87 6  391 216 
                                                                                
