 2011  914 0238 10.1 L   6.794 -73.114142.3  RSN  6 0.2 1.5LRSN                1
 GAP=141        0.42       3.7     4.2  5.5  0.2672E+01  0.8973E+00  0.7437E+00E
 Epicentro: LOS SANTOS - SANTANDER                                             3
 ACTION:UPD 12-07-13 15:57 OP:ep   STATUS:               ID:20110914023810 L   I
 2011-09-14-0236-00S.COL___169                                                 6
 STAT SP IPHASW D HRMM SECON CODA AMPLIT PERI AZIMU VELO AIN AR TRES W  DIS CAZ7
 BAR2 SZ EP   1    238 29.05                             170   -0.29 7 23.6 199 
 BAR2 SZ ES   2    238 43.89                             170   -0.44 5 23.6 199 
 BAR2 SZ I         238 46.35         7.6 0.45                          23.6 199 
 GIR2 SZ EP   3    238 29.13                             166   -0.29 2 32.6 344 
 GIR2 SZ ES   3    238 44.41                             166   -0.07 2 32.6 344 
 BRR  HZ EP   1    238 30.97                             151   -0.12 7 74.6 298 
 BRR  HZ I         238 32.90        12.0 0.09                          74.6 298 
 BRR  HE ES   2    238 47.62                             151    0.17 5 74.6 298 
 PAM  SZ EP   1    238 31.91                             151    0.04 7 75.7  37 
 PAM  SN ES   2    238 49.13                             151    0.30 5 75.7  37 
 RUS  HZ EP   1    238 33.66                             143    0.19 7 99.8 178 
 RUS  HN ES   2    238 51.99                             143    0.30 5 99.8 178 
 RUS  HZ I         238 52.63         2.6 0.27                          99.8 178 
 ZAR  HN ES   2    239  8.38                             121    0.26 4  208 292 
 ZAR  HZ I         239 13.73         3.9 0.48                           208 292 
                                                                                
