 2011  614 0629  2.1 L   6.456 -73.048178.8  RSN 12 0.4 3.1LRSN                1
 GAP=172        0.82       3.9     6.9  6.8 -0.1500E+02  0.7692E+00  0.5328E+01E
 Epicentro: MOGOTES - SANTANDER                                                3
 ACTION:UP  11-07-14 19:05 OP:ep   STATUS:               ID:20110614062902 L   I
 2011-06-14-0627-05S.COL___135                                                 6
 STAT SP IPHASW D HRMM SECON CODA AMPLIT PERI AZIMU VELO SNR AR TRES W  DIS CAZ7
 BAR2 SZ IP        629 25.59                             173    -0.110   21 315 
 BAR2 SZ ES   2    629 43.72                             173    -0.4 5   21 315 
 BAR2 SZ I         629 45.31       267.5 0.35                            21 315 
 BTL  SZ IP        629 26.72                             162     0.110   57 335 
 RUS  HZ IP     C  629 27.66                             160     0.410   62 184 
 RUS  HN ES   2    629 46.68                             160    -0.2 5   62 184 
 RUS  HZ I         629 48.48       160.2 0.27                            62 184 
 GIR2 SZ EP   1    629 27.28                             157     0.2 7   71 347 
 BRR  HZ IP     C  629 28.85                             149     0.210  103 314 
 BRR  HZ I         629 29.22       611.4 0.11                           103 314 
 BRR  HN ES   1    629 50.14                             149     0.8 7  103 314 
 BRI  SZ IP        629 31.79                             140     0.1 9  142  11 
 BRI  SZ ES   1    629 54.65                             140    -0.2 7  142  11 
 BRI  SZ I         629 56.39       151.7 0.40                           142  11 
 GRA  SZ IP        629 33.24                             136     0.1 9  160  10 
 GRA  SZ ES   1    629 56.64                             136    -0.8 7  160  10 
 GRA  SZ I         629 58.28       118.9 0.30                           160  10 
 OCA  SZ EP   1    629 36.16                             130    -0.5 6  199 351 
 OCA  SZ ES   2    630  3.03                             130    -0.6 4  199 351 
 CHI  HZ EP   1    629 38.37                             127    -0.2 6  216 201 
 CHI  HE ES   1    630  6.63                             127    -0.4 6  216 201 
 CHI  HZ I         630 12.94        18.9 0.49                           216 201 
 NOR  SZ EP        629 39.23                             126     0.3 8  225 244 
 NOR  SN ES   2    630  7.34                             126    -0.3 4  225 244 
 RREF HZ EP   1    629 48.21                             118    -0.1 5  307 236 
 RREF HN ES   1    630 23.58                             118    -0.8 5  307 236 
 RREF HZ I         630 31.14        34.7 0.56                           307 236 
 PRA  HZ EP   1    629 53.86                             113    -0.1 5  365 214 
                                                                                
