 2017 1214 0523 38.3 L   6.808 -73.182142.0  RSN  7 0.3 1.2LRSN                1
 GAP=138        0.67       2.8     3.3  5.2 -0.4001E+01  0.6973E+01 -0.5608E+01E
 Epicentro: ZAPATOCA - SANTANDER                                               3
 ACTION:UPD 18-01-04 13:20 OP:rebc STATUS:               ID:20171214052338 L   I
 OLDACT:REG 17-12-14 12:59 OP:osc  STATUS:               ID:20171214051742     3
 2017-12-14-0518-00M.COL___459                                                 6
 STAT SP IPHASW D HRMM SECON CODA AMPLIT PERI AZIMU VELO AIN AR TRES W  DIS CAZ7
 BAR2 EZ EP        523 57.24                             170   -0.2110 23.9 180 
 BAR2 EZ ES        524 12.38                             170   -0.0410 23.9 180 
 BAR2 EZ I         524 23.06         2.7 0.36            171           23.9 180 
 PAM  EZ EP        524  0.13                             149   -0.0610 79.3  42 
 PAM  EE ES        524 17.48                             149    0.1810 79.3  42 
 PAM  EZ I         524 19.44         4.5 0.48            157           79.3  42 
 PTB  HZ EP        524  4.21                             132   -0.38 9  144 258 
 PTB  HE ES        524 25.54                             132    0.42 9  144 258 
 PTB  HZ I         524 32.30         1.1 0.22            136            144 258 
 OCA  HN ES        524 27.62                             129   -0.29 9  159 355 
 SPBC HE ES        524 28.33                             128    0.15 9  161 218 
 ZAR  HZ EP        524 10.06                             122    0.01 9  200 292 
 ZAR  HE ES        524 34.56                             122   -0.28 9  200 292 
 ZAR  HZ I         524 40.88         2.4 0.36            127            200 292 
 DRL03HZ EP        524 20.02                             112    0.48 7  288 354 
 DRL03HN ES        524 52.03                             112    0.30 7  288 354 
                                                                                
