 2012  214 0715 22.9 L   6.759 -73.137146.0  RSN  7 0.3 1.4LRSN                1
 GAP=139        0.44       3.9     3.5  5.6  0.2038E+00  0.2608E+01  0.2904E+01E
 ACTION:UP  12-03-07 16:30 OP:epov STATUS:               ID:20120214071522 L   I
 2012-02-14-0710-00M.COL___187                                                 6
 STAT SP IPHASW D HRMM SECON CODA AMPLIT PERI AZIMU VELO AIN AR TRES W  DIS CAZ7
 BAR2 SZ EP   1    715 42.41                             172   -0.04 7 19.2 195 
 BAR2 SZ I         715 42.95         6.8 0.37                          19.2 195 
 BAR2 SZ ES   2    715 57.60                             172   -0.12 5 19.2 195 
 BRR  HZ EP   1    715 44.29                             152    0.08 7 74.3 301 
 BRR  HZ I         715 44.62         5.1 0.11                          74.3 301 
 BRR  HE ES   1    716  1.18                             152    0.31 7 74.3 301 
 PAM  SZ EP   2    715 45.36                             150    0.08 5 80.3  37 
 PAM  SN ES   2    716  2.25                             150   -0.51 5 80.3  37 
 RUS  HZ EP   2    715 46.58                             145    0.26 5 96.0 176 
 RUS  HZ I         715 47.54         1.8 0.15                          96.0 176 
 RUS  HN ES   2    716  4.84                             145    0.23 5 96.0 176 
 PTB  HZ EP   2    715 49.56                             132   -0.31 5  148 261 
 PTB  HN ES   2    716 10.42                             132   -0.51 5  148 261 
 ZAR  HE ES   2    716 21.29                             122    0.16 4  207 293 
 ZAR  HZ I         716 27.08         3.5 0.39                           207 293 
 NOR  SN ES   2    716 25.92                             119   -0.23 4  233 235 
                                                                                
