 2017  914 0950  1.2 L   6.782 -73.115141.9  RSN 11 0.3 1.7LRSN                1
 GAP=141        0.78       2.8     3.2  4.5  0.1828E+00  0.5264E+01  0.3686E+01E
 Epicentro: LOS SANTOS - SANTANDER                                             3
 ACTION:UPD 17-10-05 19:12 OP:rebc STATUS:               ID:20170914095001 L   I
 OLDACT:REG 17-09-14 11:50 OP:dhb  STATUS:               ID:20170914094743     3
 2017-09-14-0948-00M.COL___410                                                 6
 STAT SP IPHASW D HRMM SECON CODA AMPLIT PERI AZIMU VELO AIN AR TRES W  DIS CAZ7
 BAR2 EZ EP        950 20.25                             171   -0.0910 22.3 199 
 BAR2 EZ ES        950 34.90                             171   -0.3710 22.3 199 
 BAR2 EZ I         950 36.33        14.0 0.16            168           22.3 199 
 BRR  HZ EP        950 22.20                             150    0.0510 75.1 299 
 BRR  HN ES        950 39.02                             150    0.5210 75.1 299 
 BRR  HZ I         950 43.53        16.6 0.14            150           75.1 299 
 PAM  EZ EP        950 23.12                             150    0.1510 76.9  37 
 PAM  EN ES        950 39.93                             150   -0.0210 76.9  37 
 PAM  EZ I         950 42.43         5.4 0.36            155           76.9  37 
 RUS  HZ EP        950 24.86                             144    0.4510 98.4 178 
 RUS  HN ES        950 42.06                             144   -0.4610 98.4 178 
 RUS  HZ I         950 43.94         4.5 0.26            144           98.4 178 
 ZAR  HZ EP        950 33.38                             121   -0.41 8  208 292 
 ZAR  HN ES        950 59.28                             121    0.07 8  208 292 
 ZAR  HZ I         951  4.20        10.2 0.18            122            208 292 
 NOR  HZ EP        950 36.76                             117   -0.12 8  236 235 
 NOR  HN ES        951  4.81                             117    0.10 8  236 235 
 NOR  HZ I         951  8.81         3.2 0.16            118            236 235 
 CHI  HZ EP        950 38.87                             116    0.30 8  248 196 
 CHI  HN ES        951  7.87                             116    0.14 8  248 196 
 CHI  HZ I         951 18.01         1.8 0.52            117            248 196 
 URE  HZ EP   9    950 40.89                             112   -1.62 0  288 292 
 URE  HE ES        951 12.90                                   -0.21 7  288 292 
 CBOC HZ EP        950 47.43                             109   -0.82 7  336 253 
 CBOC HN ES        951 24.79                             109   -0.16 7  336 253 
 CBOC HZ I         951 28.21         1.2 0.37            110            336 253 
 PRA  HZ EP        950 54.48                             106   -0.10 6  392 210 
 PRA  HN ES        951 36.82                             106    0.60 6  392 210 
 PRA  HZ I         951 41.55         1.6 0.26            107            392 210 
 SJC  HZ EP   4    950 55.19                             105   -1.85 0  413 327 
 SJC  HN ES   4    951 36.62                             105   -3.98 0  413 327 
 SJC  HZ I         951 40.03         1.9 0.44            106            413 327 
                                                                                
