 2010  714 0635 28.2 L   6.779 -73.104143.2  RSN  8 0.2 1.5LRSN                1
 GAP=161        0.46       3.5     5.9  5.8  0.3453E+01 -0.1786E+02 -0.1024E+02E
 Epicentro: LOS SANTOS - SANTANDER                                             3
 ACTION:UPD 10-12-01 15:17 OP:pat  STATUS:               ID:20100714063528 L   I
 2010-07-14-0631-50S.COL___120                                                 6
 STAT SP IPHASW D HRMM SECON CODA AMPLIT PERI AZIMU VELO AIN AR TRES W  DIS CAZ7
 BAR2 SZ EP   1    635 47.41                             171    -0.1 7   23 203 
 BAR2 SZ ES   1    636  2.38                             171    -0.1 7   23 203 
 BAR2 SZ I         636  3.08         8.2 0.41                            23 203 
 GIR2 SZ EP   2    635 47.47                             166    -0.2 5   35 343 
 BRR  HZ IP     D  635 49.31                             150     0.010   76 298 
 BRR  HZ I         635 49.70         8.9 0.11                            76 298 
 BRR  HE ES   1    636  5.98                             150     0.1 7   76 298 
 RUS  HZ EP   2    635 51.71                             144     0.2 5   98 179 
 RUS  HN ES   2    636  9.69                             144     0.0 5   98 179 
 RUS  HZ I         636 10.80         2.2 0.20                            98 179 
 BRI  SZ IP        635 52.11                             141     0.310  109  18 
 BRI  SZ I         636  3.74         2.9 0.71                           109  18 
 GUE  SZ IP        635 52.56                             138    -0.210  118  10 
 GRA  SZ IP        635 53.31                             136     0.110  127  15 
 GRA  SZ I         635 54.61         4.5 0.30                           127  15 
 OCA  SZ EP   2    635 56.10                             128    -0.4 5  163 352 
 OCA  SZ ES   2    636 18.77                             128     0.1 5  163 352 
 OCA  SZ I         636 22.39         5.2 0.27                           163 352 
                                                                                
