 2011  714 0956 20.5 L   6.764 -73.411148.9  RSN  4 0.1 1.4LRSN                1
 GAP=159        0.38       3.8     6.8  3.8  0.1565E+02  0.5019E+01  0.2437E+01E
 Epicentro: EL CARMEN DE CHUCURI - SANTANDER                                   3
 ACTION:UPD 12-07-25 14:00 OP:epov STATUS:               ID:20110714095620 L   I
 2011-07-14-0940-00M.COL___133                                                 6
 STAT SP IPHASW D HRMM SECON CODA AMPLIT PERI AZIMU VELO AIN AR TRES W  DIS CAZ7
 BAR2 SZ EP   1    956 40.52                             167   -0.20 7 31.6 127 
 BAR2 SZ ES   1    956 56.74                             167    0.26 7 31.6 127 
 BAR2 SZ I         957  4.17         6.0 0.58                          31.6 127 
 GIR2 SZ EP        956 40.96                             163    0.0510 42.3  35 
 GIR2 SZ ES   1    956 56.67                             163   -0.14 7 42.3  35 
 BRR  HZ EP        956 41.04                             160    0.0310 50.4 319 
 BRR  HN ES   1    956 56.94                             160   -0.04 7 50.4 319 
 BRR  HZ I         957 22.99        11.6 0.39                          50.4 319 
 RUS  HZ EP   1    956 44.85                             144    0.10 7  103 159 
 RUS  HN ES   1    957  3.52                             144   -0.13 7  103 159 
 RUS  HZ I         957  3.92         1.3 0.40                           103 159 
                                                                                
