 2014  714 0731 38.7 L   6.824 -73.093142.7  RSN 16 0.5 2.1LRSN                1
 GAP=188        1.08       3.8     5.0  7.3 -0.2905E+01  0.8618E+01 -0.9539E+00E
 Epicentro: LOS SANTOS - SANTANDER                                             3
 ACTION:UPD 15-03-16 20:43 OP:nd   STATUS:               ID:20140714073138 L   I
 OLDACT:DUP 14-07-14 17:26 OP:carl STATUS:               ID:20140714072815d    3
 2014-07-14-0728-14M.COL___244                                                 6
 STAT SP IPHASW D HRMM SECON CODA AMPLIT PERI AZIMU VELO AIN AR TRES W  DIS CAZ7
 BAR2 SZ EP        731 58.60                             169    0.5910 27.4 201 
 BAR2 SZ ES   1    732 13.38                             169    0.28 7 27.4 201 
 BAR2 SZ I         732 14.78        38.3 0.18            165           27.4 201 
 RUS  HZ EP   1    732  1.66                             142   -0.63 7  103 179 
 RUS  HE ES   1    732 20.41                             142   -0.30 7  103 179 
 PTB  HZ EP        732  5.28                             130   -0.67 9  154 258 
 PTB  HN ES        732 26.37                             130   -0.87 9  154 258 
 PTB  HZ I         732 28.99        15.5 0.14            129            154 258 
 OCA  HZ EP   1    732  6.03                             129   -0.53 7  158 351 
 OCA  HN ES        732 28.35                             129    0.02 9  158 351 
 OCA  HZ I         732 32.02        10.4 0.58            131            158 351 
 SPBC HZ EP   1    732  7.75                             127    0.28 7  169 220 
 SPBC HN ES        732 30.54                             127    0.59 9  169 220 
 SPBC HZ I         732 37.31        13.5 0.22            126            169 220 
 ZAR  HZ EP        732 11.89                             121    0.52 8  208 291 
 ZAR  HN ES        732 37.50                             121    0.62 8  208 291 
 ZAR  HZ I         732 43.17         9.4 0.26            121            208 291 
 NOR  HZ EP        732 15.10                             117    0.21 8  241 235 
 NOR  HE ES        732 42.78                             117   -0.36 8  241 235 
 NOR  HZ I         732 50.39         6.7 0.24            117            241 235 
 SML  HZ EP   1    732 14.75                             117   -0.38 6  244 334 
 SML  HE ES   4    732 42.88                             117   -0.69 0  244 334 
 SML  HZ I         732 49.12        11.2 0.10            118            244 334 
 ROSC BZ EP   1    732 16.80                             115   -0.39 6  258 212 
 ROSC BN ES   4    732 50.75                             115    3.51 0  258 212 
 ROSC BZ I         732 55.35         7.7 0.40            116            258 212 
 HEL  HZ EP   1    732 18.62                             114   -0.80 6  278 256 
 HEL  HE ES        732 51.11                             114   -0.10 7  278 256 
 HEL  HZ I         732 56.99         4.9 0.30            113            278 256 
 GUY2CHZ EP        732 23.50                             111    0.66 7  307 235 
 GUY2CHN ES   4    733  0.65                             111    3.36 0  307 235 
 GUY2CHZ I         733  4.01         4.8 0.32                           307 235 
 CBOC HZ EP   4    732 27.43                             109    1.25 0  340 252 
 CBOC HE ES        733  3.42                             109    0.18 7  340 252 
 CBOC HZ I         733  5.93         2.0 0.18            109            340 252 
 TOL  SZ EP   4    732 28.69                             108    1.21 0  349 225 
 TOL  SN ES   4    733  7.09                             108    1.53 0  349 225 
 TOL  SZ I         733 14.35         9.6 0.38            109            349 225 
 PRA  HZ EP   1    732 32.75                             106    0.07 4  397 210 
 PRA  HN ES   4    733 17.29                             106    2.47 0  397 210 
 PRA  HZ I         733 20.32         4.5 0.30            106            397 210 
 ORTC HZ EP   1    732 33.91                             106    0.78 4  401 217 
 ORTC HN ES   4    733 16.96                             106    1.35 0  401 217 
 ORTC HZ I         733 21.88         2.9 0.18            106            401 217 
 SJC  HZ EP   4    732 33.04                             105   -1.20 0  410 326 
 SJC  HN ES   4    733 13.69                             105   -3.91 0  410 326 
 SJC  HZ I         733 18.59         3.0 0.50            106            410 326 
                                                                                
