 2013  314 0445 31.5 L   6.698 -73.231150.0  RSN  5 0.2 1.5LRSN                1
 GAP=205        0.43       5.5     5.8  4.8  0.2673E+02  0.8532E+01  0.7036E+01E
 Epicentro: VILLANUEVA - SANTANDER                                             3
 ACTION:UPD 13-04-09 14:02 OP:ep   STATUS:               ID:20130314044531 L   I
 2013-03-14-0440-00M.COL___243                                                 6
 STAT SP IPHASW D HRMM SECON CODA AMPLIT PERI AZIMU VELO AIN AR TRES W  DIS CAZ7
 BAR2 SZ EP   1    445 51.24                             175   -0.24 7 12.9 155 
 BAR2 SZ ES   2    446  6.71                             175   -0.35 5 12.9 155 
 BAR2 SZ I         446  7.71         9.0 0.26            175           12.9 155 
 BRR  HZ EP   1    445 53.02                             154   -0.01 7 69.8 310 
 BRR  HZ I         446  9.29         3.5 0.46            138           69.8 310 
 BRR  HN ES        446 10.05                             154    0.2310 69.8 310 
 RUS  HZ EP   1    445 55.08                             148    0.09 7 90.6 170 
 RUS  HN ES   1    446 13.38                             148    0.07 7 90.6 170 
 RUS  HZ I         446 14.76         3.4 0.34            135           90.6 170 
 PTB  HZ EP   1    445 57.87                             135    0.03 7  137 263 
 PTB  HZ I         446 16.93         4.2 0.36            119            137 263 
 ZAR  HN ES        446 28.87                             124   -0.15 9  200 296 
 ZAR  HN I         446 36.21         5.0 0.22            110            200 296 
                                                                                
