 2013  914 0448 25.3 L   6.375 -73.656103.6  RSN  9 0.5 1.7LRSN                1
 GAP= 70        1.12       2.9     3.8  7.1  0.5983E+00  0.8513E+01 -0.1917E+01E
 Epicentro: SANTA HELENA DEL OPON - SANTANDER                                  3
 ACTION:UPD 13-10-22 09:22 OP:ep   STATUS:               ID:20130914044825 L   I
 OLDACT:REG 13-09-14 08:28 OP:carl STATUS:               ID:20130914043959     3
 2013-09-14-0439-59M.COL___269                                                 6
 STAT SP IPHASW D HRMM SECON CODA AMPLIT PERI AZIMU VELO AIN AR TRES W  DIS CAZ7
 BAR2 SZ EP        448 41.74                             149    0.2110 57.6  65 
 BAR2 SZ ES        448 54.24                             149    0.0810 57.6  65 
 BAR2 SZ I         448 56.05        34.1 0.44            157           57.6  65 
 BRR  HZ EP        448 42.86                             139   -0.0410 81.2 356 
 BRR  HN ES        448 56.46                             139   -0.1410 81.2 356 
 BRR  HZ I         449  5.77         5.7 0.12            144           81.2 356 
 RUS  HZ EP        448 43.54                             139   -0.1710 82.8 130 
 RUS  HN ES        448 57.98                             139   -0.0710 82.8 130 
 RUS  HZ I         449  1.11         4.1 0.36            146           82.8 130 
 PTB  HZ EP        448 42.92                             135   -0.7610 90.4 282 
 PTB  HN ES        448 57.54                             135   -0.4610 90.4 282 
 PTB  HZ I         449  0.19        12.6 0.26            139           90.4 282 
 SPBC HZ EP        448 43.77                             135   -0.1810 92.2 210 
 SPBC HN ES        448 58.77                             135    0.3010 92.2 210 
 SPBC HZ I         449  3.31        12.3 0.48            140           92.2 210 
 NOR  HZ EP        448 50.19                             118   -0.58 9  162 236 
 NOR  HN ES   1    449 11.09                             118    0.48 7  162 236 
 NOR  HZ I         449 16.42         7.3 0.20            123            162 236 
 ZAR  HZ EP        448 53.33                             114    0.44 9  181 313 
 ZAR  HN ES        449 15.10                             114    0.71 9  181 313 
 ZAR  HZ I         449 18.46        11.3 0.44            120            181 313 
 CHI  HN ES        449 18.33                             113    0.69 9  193 182 
 CHI  HN I         449 21.66         6.1 0.34            119            193 182 
 SML  HZ EP        449  2.70                             104   -0.64 8  272 350 
 SML  HN ES        449 33.75                             104    0.77 8  272 350 
                                                                                
