 2012 1114 0451 35.6 L   6.751 -73.118157.2  RSN  4 0.2 1.0LRSN                1
 GAP=237        0.42       4.7     4.5  4.5  0.1028E+02  0.8819E+00 -0.6002E+00E
 Epicentro: LOS SANTOS - SANTANDER                                             3
 ACTION:UPD 12-12-05 15:33 OP:}ep  STATUS:               ID:20121114045135 L   I
 2012-11-14-0450-00M.COL___230                                                 6
 STAT SP IPHASW D HRMM SECON CODA AMPLIT PERI AZIMU VELO AIN AR TRES W  DIS CAZ7
 BAR2 SZ EP   1    451 56.64                             173    0.06 7 18.9 202 
 BAR2 SZ ES   1    452 13.02                             173    0.12 7 18.9 202 
 BAR2 SZ I         452 13.16         3.1 0.16                          18.9 202 
 BRR  HZ EP   1    451 58.42                             153    0.09 7 76.5 301 
 BRR  HN ES   1    452 15.85                             153   -0.17 7 76.5 301 
 RUS  HZ EP   1    452  0.31                             148    0.15 7 95.0 178 
 RUS  HN ES   1    452 19.10                             148   -0.18 7 95.0 178 
 RUS  HZ I         452 21.18         1.2 0.42                          95.0 178 
 PTB  HZ EP   1    452  3.44                             134   -0.30 7  150 261 
 PTB  HN ES   1    452 25.89                             134    0.23 7  150 261 
 PTB  HZ I         452 28.34         1.3 0.16                           150 261 
                                                                                
