 2016  214 0718 13.4 L   6.791 -73.146145.9  RSN  4 0.4 0.9LRSN                1
 GAP=277        0.81       7.6     5.6  7.5  0.8708E+01  0.1060E+02 -0.5174E+01E
 Epicentro: LOS SANTOS - SANTANDER                                             3
 ACTION:UPD 16-03-04 21:26 OP:rebc STATUS:               ID:20160214071813 L   I
 OLDACT:UP  16-02-14 16:17 OP:ak   STATUS:               ID:20160214070738d    3
 OLDACT:DUP 16-02-14 16:15 OP:ak   STATUS:               ID:20160214070738d    3
 OLDACT:UP  16-02-14 16:14 OP:ak   STATUS:               ID:20160214070737     3
 OLDACT:REG 16-02-14 14:44 OP:ak   STATUS:               ID:20160214070737     3
 2016-02-14-0707-37M.COL___295                                                 6
 STAT SP IPHASW D HRMM SECON CODA AMPLIT PERI AZIMU VELO AIN AR TRES W  DIS CAZ7
 BAR2 EZ EP   2    718 32.09                             171   -0.91 5 22.4 190 
 BAR2 EZ ES        718 48.60                             171    0.2910 22.4 190 
 BAR2 EZ I         718 49.33         2.6 0.18            169           22.4 190 
 RUS  HZ EP        718 37.03                             144   -0.0410 99.6 176 
 RUS  HN ES        718 55.41                             144   -0.1410 99.6 176 
 RUS  HZ I         718 56.23         1.2 0.46            145           99.6 176 
 PTB  HZ EP        718 40.84                             132    0.51 9  148 259 
 PTB  HN ES        719  0.97                             132   -0.39 9  148 259 
 PTB  HZ I         719  3.67         0.8 0.16            132            148 259 
 SPBC HZ EP   2    718 41.43                             129   -0.38 5  162 219 
 SPBC HN ES        719  4.09                             129    0.10 9  162 219 
 SPBC HZ I         719  6.23         1.0 0.18            129            162 219 
                                                                                
