 2017  414 0900 23.5 L   6.858 -73.129139.7  RSN  5 0.4 1.2LRSN                1
 GAP=247        0.90       7.0     7.1  7.1 -0.2015E+00  0.7204E+01 -0.1694E+02E
 Epicentro: LOS SANTOS - SANTANDER                                             3
 ACTION:UPD 17-05-30 21:12 OP:jn   STATUS:               ID:20170414090023 L   I
 OLDACT:UP  17-04-14 17:25 OP:edw  STATUS:               ID:20170414085740     3
 OLDACT:UP  17-04-14 17:23 OP:edw  STATUS:               ID:20170414085740     3
 OLDACT:REG 17-04-14 12:58 OP:edw  STATUS:               ID:20170414085740     3
 2017-04-14-0858-00M.COL___356                                                 6
 STAT SP IPHASW D HRMM SECON CODA AMPLIT PERI AZIMU VELO AIN AR TRES W  DIS CAZ7
 BAR2 EZ EP        9 0 41.99                             167   -0.5210 30.0 191 
 BAR2 EZ ES        9 0 57.34                             167   -0.0410 30.0 191 
 RUS  HZ EP        9 0 46.97                             141   -0.1210  107 177 
 RUS  HN ES        9 1  6.06                             141    0.5410  107 177 
 RUS  HZ I         9 1  6.86         1.5 0.16            148            107 177 
 PTB  HZ EP   9    9 0 49.46                             130   -0.77 0  151 257 
 PTB  HN ES        9 1 10.14                             131   -0.21 9  151 257 
 PTB  HZ I         9 1 17.73         2.9 0.36            129            151 257 
 SPBC HZ EP        9 0 52.02                             126   -0.07 9  169 218 
 SPBC HN ES        9 1 14.18                             126   -0.26 9  169 218 
 SPBC HZ I         9 1 16.27         3.5 0.22            129            169 218 
 ZAR  HZ EP        9 0 56.03                             121    0.58 9  203 290 
 ZAR  HN ES   4    9 1 22.98                             121    2.57 0  203 290 
 ZAR  HZ I         9 1 28.89         1.2 0.22            121            203 290 
                                                                                
