 2014  114 0630 33.0 L   6.764 -73.176143.5  RSN  5 0.3 1.4LRSN                1
 GAP=198        0.74       3.7     5.4  8.7  0.6100E+01 -0.8169E+01 -0.1532E+02E
 Epicentro: LOS SANTOS - SANTANDER                                             3
 ACTION:UPD 14-03-13 09:55 OP:ep   STATUS:               ID:20140114063033 L   I
 OLDACT:UP  14-01-14 11:12 OP:cam  STATUS:               ID:20140114063000     3
 OLDACT:REG 14-01-14 08:41 OP:cam  STATUS:               ID:20140114063000     3
 2014-01-14-0630-00M.COL___285                                                 6
 STAT SP IPHASW D HRMM SECON CODA AMPLIT PERI AZIMU VELO AIN AR TRES W  DIS CAZ7
 RUS  HZ EP        630 55.95                             144   -0.3510 96.9 174 
 RUS  HN ES        631 14.52                             144    0.0710 96.9 174 
 RUS  HZ I         631 16.05         2.5 0.56            150           96.9 174 
 PTB  HZ EP   1    630 59.16                             132   -0.30 7  144 260 
 PTB  HN ES        631 19.68                             132   -0.38 9  144 260 
 PTB  HZ I         631 23.85         3.4 0.18            135            144 260 
 SPBC HZ EP   1    631  1.01                             129    0.14 7  158 219 
 SPBC HN ES        631 23.10                             129    0.52 9  158 219 
 CHI  HZ EP   1    631 10.05                             117   -0.05 6  244 195 
 SML  HZ EP   1    631 10.31                             117    0.52 6  246 336 
 SML  HE ES        631 38.59                             117    0.14 8  246 336 
 SML  HZ I         631 43.33         2.1 0.10            119            246 336 
                                                                                
