 2012 1014 0023 36.0 L   7.383 -73.186130.9  RSN  6 0.2 2.0LRSN                1
 GAP=181        0.40       3.5     2.3  3.1  0.1945E+01  0.1549E+01 -0.7682E+00E
 Epicentro: EL PLAYON - SANTANDER                                              3
 ACTION:UPD 12-11-22 17:03 OP:ep   STATUS:               ID:20121014002336 L   I
 2012-10-14-0020-00M.COL___232                                                 6
 STAT SP IPHASW D HRMM SECON CODA AMPLIT PERI AZIMU VELO AIN AR TRES W  DIS CAZ7
 GIR2 SZ EP        023 54.06                             165    0.0510 33.6 181 
 GIR2 SZ ES   1    024  7.86                             165   -0.17 7 33.6 181 
 PAM  SZ EP        023 55.53                             157    0.1910 53.9  95 
 PAM  SN ES   1    024 10.23                             157   -0.18 7 53.9  95 
 PAM  SN I         024 12.06        26.5 0.24                          53.9  95 
 BRR  HZ EP        023 55.23                             152   -0.0210 65.6 242 
 BRR  HZ I         023 55.49        22.8 0.50                          65.6 242 
 BRR  HN ES   1    024 10.43                             152    0.18 7 65.6 242 
 BAR2 SZ EP        023 57.12                             144    0.1110 87.4 180 
 BAR2 SZ ES   1    024 13.31                             144   -0.07 7 87.4 180 
 BAR2 SZ I         024 14.68        32.3 0.12                          87.4 180 
 RUS  HZ EP        024  4.10                             125   -0.06 9  165 176 
 RUS  HN ES   3    024 26.03                             125   -0.07 2  165 176 
 RUS  HN I         024 33.72         2.9 0.40                           165 176 
 ZAR  HZ EP        024  5.23                             122   -0.30 9  185 274 
 ZAR  HN ES   1    024 28.74                             122    0.19 7  185 274 
 ZAR  HN I         024 31.88        17.9 0.36                           185 274 
                                                                                
