 2013  814 0708 16.4 L   6.708 -73.234145.9  RSN  4 0.2 1.4LRSN                1
 GAP=206        0.66       5.3     5.2  5.5  0.1434E+02  0.6518E+01  0.3671E+01E
 Epicentro: VILLANUEVA - SANTANDER                                             3
 ACTION:UPD 14-01-14 09:02 OP:ep   STATUS:               ID:20130814065850 L   I
 OLDACT:UPD 13-08-14 12:02 OP:stll STATUS:               ID:20130814065850 L   3
 2013-08-14-0658-50M.COL___230                                                 6
 STAT SP IPHASW D HRMM SECON CODA AMPLIT PERI AZIMU VELO AIN AR TRES W  DIS CAZ7
 BAR2 SZ ES        7 8 50.78                             174   -0.3610 14.0 156 
 BAR2 SZ I         7 8 51.89         4.6 0.58            169           14.0 156 
 BRR  HZ EP        7 8 37.38                             153   -0.0910 68.8 310 
 BRR  HN ES        7 8 54.20                             153    0.3310 68.8 310 
 BRR  HN I         7 8 54.87        16.1 0.28            151           68.8 310 
 RUS  HZ EP        7 8 39.85                             146    0.2710 91.7 170 
 RUS  HN ES        7 8 57.72                             146    0.0810 91.7 170 
 RUS  HN I         7 8 59.40         1.7 0.18            144           91.7 170 
 PTB  HZ EP        7 8 42.14                             134   -0.27 9  136 262 
 PTB  HN ES        7 9  2.68                             134    0.01 9  136 262 
 PTB  HN I         7 9  8.68         3.2 0.40            132            136 262 
                                                                                
