 2014  414 0427 11.5 L   6.820 -73.156145.3  RSN  9 0.3 1.8LRSN                1
 GAP=134        0.78       2.2     3.2  5.9 -0.5914E+00  0.5633E+01  0.6544E+00E
 Epicentro: LOS SANTOS - SANTANDER                                             3
 ACTION:UPD 14-05-13 23:08 OP:nd   STATUS:               ID:20140414042711 L   I
 OLDACT:REG 14-04-14 13:05 OP:nd   STATUS:               ID:20140414042036     3
 2014-04-14-0420-36M.COL___263                                                 6
 STAT SP IPHASW D HRMM SECON CODA AMPLIT PERI AZIMU VELO AIN AR TRES W  DIS CAZ7
 PAM  SZ EP        427 34.08                             151    0.4510 76.4  41 
 PAM  SN ES        427 51.03                             151    0.1510 76.4  41 
 PAM  SZ I         427 53.43        15.2 0.46            155           76.4  41 
 RUS  HZ EP        427 35.11                             143   -0.2810  103 176 
 RUS  HN ES        427 54.07                             143    0.0610  103 176 
 RUS  HZ I         427 55.03         8.5 0.26            149            103 176 
 PTB  HZ EP        427 38.00                             132   -0.39 9  147 258 
 PTB  HN ES        427 58.98                             132   -0.37 9  147 258 
 PTB  HZ I         428  6.39         6.2 0.32            133            147 258 
 OCA  HZ EP   4    427 38.55                             130   -1.03 0  158 353 
 OCA  HN ES        428  1.36                             130   -0.11 9  158 353 
 OCA  HZ I         428 11.81         5.7 0.58            132            158 353 
 SPBC HZ EP        427 40.23                             129    0.15 9  164 218 
 SPBC HN ES        428  2.48                             129    0.12 9  164 218 
 SPBC HZ I         428  4.87        10.9 0.32            132            164 218 
 ZAR  HZ EP   4    427 42.74                             122   -1.01 0  202 292 
 ZAR  HN ES        428  9.01                             122    0.13 9  202 292 
 ZAR  HZ I         428 16.76         3.3 0.16            124            202 292 
 SML  HZ EP        427 47.90                             118    0.04 8  241 335 
 SML  HN ES        428 15.73                             118   -0.47 8  241 335 
 SML  HZ I         428 19.66         8.2 0.26            120            241 335 
 CHI  HZ EP        427 49.43                             117    0.03 8  250 195 
 CHI  HN ES        428 18.50                             117   -0.43 8  250 195 
 CHI  HZ I         428 22.26         3.5 0.56            121            250 195 
 HEL  HZ EP   1    427 52.14                             115    0.49 6  272 255 
 HEL  HN ES        428 23.70                             115    0.75 8  272 255 
 HEL  HZ I         428 28.73         2.5 0.38            117            272 255 
                                                                                
