 2013  514 0340 39.3 L   6.799 -73.174148.7  RSN  6 0.4 1.5LRSN                1
 GAP=178        0.94       5.5     7.8  8.4  0.6408E+01  0.6664E+01  0.2840E+01E
 Epicentro: LOS SANTOS - SANTANDER                                             3
 ACTION:UPD 13-06-20 09:50 OP:ep   STATUS:               ID:20130514034039 L   I
 2013-05-14-0340-00M.COL___256                                                 6
 STAT SP IPHASW D HRMM SECON CODA AMPLIT PERI AZIMU VELO AIN AR TRES W  DIS CAZ7
 BAR2 SZ ES   1    341 14.07                             171   -0.80 7 22.9 182 
 BAR2 SZ I         341 15.71         6.9 0.44            171           22.9 182 
 GIR2 SZ EP   1    340 59.28                             168   -0.04 7 31.0 356 
 GIR2 SZ ES   1    341 15.20                             168    0.26 7 31.0 356 
 BRR  HZ EP     C  341  1.03                             154    0.4010 68.5 300 
 BRR  HN ES        341 17.76                             154    0.5010 68.5 300 
 BRR  HZ I         341 21.90         7.4 0.30            154           68.5 300 
 RUS  HZ EP   1    341  3.45                             144    0.09 7  101 174 
 RUS  HE ES   1    341 22.25                             144    0.13 7  101 174 
 RUS  HZ I         341 24.04         4.3 0.30            146            101 174 
 PTB  HZ EP   1    341  5.99                             133   -0.25 7  145 259 
 PTB  HN ES   1    341 26.70                             133   -0.54 7  145 259 
 PTB  HZ I         341 28.56         4.1 0.34            134            145 259 
 OCA  HN ES   1    341 29.41                             130   -0.66 7  160 354 
                                                                                
