 2010  914 0435 48.2 L   6.789 -73.076141.6  RSN  4 0.1 1.5LRSN                1
 GAP=190        0.37       4.6     9.5  6.2  0.2948E+02 -0.3082E+02 -0.1304E+02E
 Epicentro: LOS SANTOS - SANTANDER                                             3
 ACTION:UP  11-02-18 11:02 OP:tino STATUS:               ID:20100914043548 L   I
 2010-09-14-0434-50S.COL___113                                                 6
 STAT SP IPHASW D HRMM SECON CODA AMPLIT PERI AZIMU VELO SNR AR TRES W  DIS CAZ7
 BAR2 SZ EP        436  7.23                             169    -0.110   25 209 
 BAR2 SZ ES   2    436 22.50                             169     0.2 5   25 209 
 BAR2 SZ I         436 24.12         8.7 0.38                            25 209 
 BRR  HZ EP        436  9.42                             149     0.110   79 297 
 BRR  HZ I         436 11.43        10.0 0.18                            79 297 
 BRR  HE ES   2    436 25.78                             149    -0.1 5   79 297 
 RUS  HZ EP        436 11.51                             143     0.110   99 180 
 RUS  HZ I         436 12.89         3.1 0.49                            99 180 
 RUS  HN ES   3    436 29.27                             143    -0.3 2   99 180 
 OCA  SZ EP   1    436 16.40                             128     0.0 7  163 350 
 OCA  SZ I         436 42.67         4.3 0.15                           163 350 
                                                                                
