 2016  414 0648 42.7 L   6.816 -73.177145.4  RSN  6 0.3 1.4LRSN                1
 GAP=144        0.85       4.9     4.9  6.1 -0.9688E+01  0.1045E+02 -0.9182E+00E
 Epicentro: ZAPATOCA - SANTANDER                                               3
 ACTION:UPD 16-05-05 14:21 OP:rebc STATUS:               ID:20160414064842 L   I
 OLDACT:UP  16-04-14 19:02 OP:mh   STATUS:               ID:20160414063746     3
 OLDACT:REG 16-04-14 12:30 OP:mh   STATUS:               ID:20160414063746     3
 2016-04-14-0637-46M.COL___310                                                 6
 STAT SP IPHASW D HRMM SECON CODA AMPLIT PERI AZIMU VELO AIN AR TRES W  DIS CAZ7
 BAR2 EZ EP        649  2.41                             170    0.0610 24.7 181 
 BAR2 EZ ES        649 17.90                             170    0.2610 24.7 181 
 BAR2 EZ I    1    649 20.42         6.4 0.21            170           24.7 181 
 PAM  EZ EP        649  5.37                             150    0.4110 78.3  42 
 PAM  EE ES        649 22.07                             150   -0.2310 78.3  42 
 PAM  EZ I         649 25.41         3.9 0.46            155           78.3  42 
 RUS  HZ EP        649  6.16                             143   -0.4410  103 174 
 RUS  HN ES        649 25.17                             143   -0.0410  103 174 
 RUS  HZ I         649 26.51         3.1 0.40            146            103 174 
 PTB  HZ EP        649  8.77                             133   -0.63 9  145 258 
 PTB  HN ES        649 30.22                             133    0.03 9  145 258 
 PTB  HZ I         649 33.73         2.7 0.20            134            145 258 
 SPBC HZ EP        649 11.37                             129    0.24 9  162 218 
 SPBC HN ES   1    649 33.29                             129    0.01 7  162 218 
 SPBC HZ I         649 39.34         4.9 0.26            131            162 218 
 GUY2CHZ EP        649 26.73                             112    0.60 7  299 234 
 GUY2CHN ES   4    650  4.65                             112    4.68 0  299 234 
 GUY2CHZ I         650  8.65         1.3 0.08                           299 234 
                                                                                
