 2017  914 0148 36.4 L   6.809 -73.114150.6  RSN 21 0.5 2.6LRSN                1
 GAP=101        0.82       2.9     2.6  4.0  0.5887E+00  0.2608E+01  0.2544E+01E
 Epicentro: LOS SANTOS - SANTANDER                                             3
 ACTION:UPD 17-10-05 19:12 OP:rebc STATUS:               ID:20170914014836 L   I
 OLDACT:UP  17-09-14 13:54 OP:mg   STATUS:               ID:20170914013741     3
 OLDACT:REG 17-09-14 10:53 OP:dhb  STATUS:               ID:20170914013741     3
 2017-09-14-0138-00M.COL___470                                                 6
 STAT SP IPHASW D HRMM SECON CODA AMPLIT PERI AZIMU VELO AIN AR TRES W  DIS CAZ7
 BAR2 EZ IP     C  148 56.47                             170   -0.2110 25.1 197 
 BAR2 EZ ES        149 12.45                             170   -0.0310 25.1 197 
 BAR2 EZ I         149 15.04        51.2 0.28            166           25.1 197 
 BRR  HZ IP     C  148 58.26                             152    0.0110 73.8 297 
 BRR  HN ES        149 15.81                             152    0.5410 73.8 297 
 BRR  HZ I         149 18.80        72.3 0.15            152           73.8 297 
 PAM  EZ IP     C  148 59.08                             153    0.0810 74.4  38 
 PAM  EN ES        149 16.30                             153   -0.3010 74.4  38 
 PAM  EZ I         149 17.01        42.5 0.20            159           74.4  38 
 RUS  HZ IP     C  149  0.41                             145   -0.3110  101 178 
 RUS  HN ES        149 19.31                             145   -0.3610  101 178 
 RUS  HZ I         149 20.32        33.7 0.16            144            101 178 
 TAM  HZ IP     D  149  4.48                             132    0.26 9  152 106 
 TAM  HN ES   1    149 26.22                             132    0.33 7  152 106 
 TAM  HZ I         149 26.79        28.2 0.30            136            152 106 
 SPBC HZ EP     C  149  5.42                             130   -0.17 9  166 220 
 SPBC HN ES        149 28.34                             130    0.01 9  166 220 
 SPBC HZ I         149 32.71        35.3 0.12            129            166 220 
 YPLC HZ EP        149  6.78                             128    0.27 9  176 152 
 YPLC HN ES        149 30.51                             128    0.54 9  176 152 
 YPLC HZ I         149 33.04        40.3 0.24            129            176 152 
 ZAR  HZ EP        149  9.32                             123   -0.17 8  207 292 
 ZAR  HN ES   2    149 34.57                             123   -0.70 4  207 292 
 ZAR  HZ I         149 40.54       124.6 0.28            124            207 292 
 TABC EZ EP   9    149 14.30                             120    1.54 0  233 211 
 TABC EZ ES   4    149 42.70                             120    0.07 0  233 211 
 TABC EZ I         149 48.04        29.8 0.36            120            233 211 
 NOR  HZ IP     D  149 12.54                             119   -0.27 8  238 235 
 NOR  HN ES   2    149 41.76                             119    0.57 4  238 235 
 NOR  HZ I         149 45.33        23.8 0.22            119            238 235 
 CHI  HZ EP        149 14.65                             118    0.04 8  251 196 
 CHI  HE ES   1    149 44.63                             118    0.24 6  251 196 
 CHI  HZ I         149 46.57        11.3 0.34            118            251 196 
 ROSC BZ EP   4    149 17.30                             117    2.19 0  255 212 
 ROSC BE ES   4    149 46.57                             117    1.29 0  255 212 
 ROSC BZ I         149 52.07        31.4 0.35            118            255 212 
 HEL  HZ EP   3    149 18.49                             115    1.20 2  276 256 
 HEL  HE ES   1    149 48.68                             115   -0.49 6  276 256 
 HEL  HZ I         149 56.87        25.7 0.56            116            276 256 
 URE  HZ EP   4    149 16.49                             114   -1.57 0  287 291 
 URE  HN ES   4    149 47.72                             114   -2.81 0  287 291 
 URE  HZ I         149 50.80        41.0 0.11            115            287 291 
 GUY2CHZ EP   1    149 21.29                             113    0.64 5  305 235 
 GUY2CHE ES   4    149 58.07                             113    2.92 0  305 235 
 GUY2CHZ I         150  5.58        20.4 0.58                           305 235 
 PTGC HZ IP     D  149 19.48                             112   -1.00 7  308 159 
 PTGC HE ES   3    149 52.47                             112   -2.36 2  308 159 
 PTGC HZ I         149 56.58        19.2 0.28            114            308 159 
 ELA  HZ EP   9    149 27.19                             111    3.32 0  332 230 
 ELA  HE ES   4    150  4.77                             111    0.58 0  332 230 
 ELA  HZ I         150  9.37        14.5 0.30            112            332 230 
 CBOC HZ EP   1    149 25.05                             110    1.08 5  337 252 
 CBOC HE ES        150  0.98                             110   -0.06 7  337 252 
 CBOC HN I         150  4.22        14.0 0.23            111            337 252 
 CBOC HZ I         150 11.75         6.3 0.56                           337 252 
 DBB  EZ EP        149 24.62                             110    0.12 7  343 274 
 DBB  EN ES   3    150  0.33                             110   -1.66 2  343 274 
 DBB  EZ I         150  4.63        15.0 0.20            111            343 274 
 PAL  HZ EP   1    149 32.59                             106    0.42 4  409 239 
 PAL  HN ES   2    150 16.72                             106    1.08 3  409 239 
 SJC  HZ EP   4    149 30.10                             106   -2.18 0  410 326 
 SJC  HN ES   4    150 11.65                             106   -4.19 0  410 326 
 SJC  HZ I         150 14.39         7.3 0.32            108            410 326 
                                                                                
