 2010  914 0006 25.9 L   6.802 -73.026142.9  RSN  7 0.4 2.0LRSN                1
 GAP=195        0.71       3.9     6.6  5.8  0.1791E+01  0.9248E+01  0.4835E+01E
 Epicentro: CEPITA - SANTANDER                                                 3
 ACTION:UP  11-02-18 11:02 OP:tino STATUS:               ID:20100914000625 L   I
 2010-09-14-0004-38S.COL___113                                                 6
 STAT SP IPHASW D HRMM SECON CODA AMPLIT PERI AZIMU VELO SNR AR TRES W  DIS CAZ7
 BAR2 SZ EP        0 6 45.50                             168     0.210   29 217 
 BAR2 SZ ES   1    0 7  0.42                             168    -0.1 7   29 217 
 BAR2 SZ I         0 7  3.15        33.6 0.21                            29 217 
 BRR  HZ EP        0 6 47.41                             148    -0.110   83 294 
 BRR  HN ES   1    0 7  4.40                             148     0.1 7   83 294 
 BRR  HZ I         0 7  6.97        22.6 0.33                            83 294 
 RUS  HZ EP        0 6 49.45                             143     0.010  101 184 
 RUS  HN ES   1    0 7  7.80                             143     0.1 7  101 184 
 RUS  HZ I         0 7  9.75         8.9 0.32                           101 184 
 OCA  SZ EP   2    0 6 54.34                             129     0.1 5  162 349 
 OCA  SZ ES   2    0 7 15.90                             129    -0.3 5  162 349 
 OCA  SZ I         0 7 23.44        12.0 0.16                           162 349 
 CHI  HZ EP   1    0 7  3.68                             116    -0.2 6  253 198 
 CHI  HN ES   2    0 7 33.45                             116    -0.1 4  253 198 
 CHI  HZ I         0 7 38.56         4.4 0.28                           253 198 
 GUY  SZ EP   1    0 7 10.28                             111    -0.4 5  312 236 
 GUY  SE ES   2    0 7 46.88                             111     1.3 3  312 236 
 RREF HZ EP        0 7 13.50                             110     0.4 7  332 231 
 RREF HE ES   1    0 7 48.97                             110    -1.0 5  332 231 
 RREF HZ I         0 7 55.19         6.0 0.47                           332 231 
                                                                                
