 2013 1014 0323 35.7 L   6.779 -73.152145.4  RSN 10 0.4 1.5LRSN                1
 GAP=137        0.84       3.2     4.5  7.9 -0.2923E+01  0.3438E+00  0.8795E+01E
 Epicentro: LOS SANTOS - SANTANDER                                             3
 ACTION:UPD 13-11-25 09:21 OP:ep   STATUS:               ID:20131014032335 L   I
 OLDACT:UP  13-10-14 08:38 OP:mh   STATUS:               ID:20131014031959     3
 OLDACT:UP  13-10-14 08:29 OP:mh   STATUS:               ID:20131014031959     3
 OLDACT:UP  13-10-14 08:28 OP:mh   STATUS:               ID:20131014031959     3
 OLDACT:UP  13-10-14 08:25 OP:mh   STATUS:               ID:20131014031959     3
 OLDACT:REG 13-10-14 07:24 OP:mh   STATUS:               ID:20131014031959     3
 2013-10-14-0319-59M.COL___273                                                 6
 STAT SP IPHASW D HRMM SECON CODA AMPLIT PERI AZIMU VELO AIN AR TRES W  DIS CAZ7
 BAR2 SZ EP   1    323 55.44                             171    0.20 7 20.9 189 
 BAR2 SZ I         324 13.93        11.2 0.50            167           20.9 189 
 BRR  HZ EP        323 57.24                             152    0.4010 71.7 300 
 BRR  HN ES        324 13.79                             152    0.4710 71.7 300 
 BRR  HZ I         324 16.87         5.9 0.20            155           71.7 300 
 PAM  SZ EP        323 58.24                             150    0.2310 79.7  39 
 PAM  SN ES   1    324 15.11                             150   -0.30 7 79.7  39 
 RUS  HZ EP   1    323 58.76                             144   -0.49 7 98.3 176 
 RUS  HN ES   2    324 17.09                             144   -0.53 5 98.3 176 
 RUS  HZ I         324 19.60         3.2 0.30            142           98.3 176 
 SPBC HZ EP        324  4.35                             129    0.39 9  161 219 
 SPBC HN ES   1    324 25.72                             129   -0.27 7  161 219 
 SPBC HZ I         324 32.64         4.6 0.23            128            161 219 
 OCA  HN ES   1    324 25.65                             129   -0.77 7  163 353 
 ZAR  HN ES   1    324 33.05                             122   -0.40 6  204 293 
 NOR  HN ES        324 38.56                             119   -0.33 8  233 235 
 NOR  HZ I         324 47.22         2.2 0.22            118            233 235 
 CHI  HZ EP   1    324 12.68                             117   -0.44 6  246 195 
 CHI  HN ES   1    324 42.57                             117    0.28 6  246 195 
 CHI  HZ I         324 48.35         1.0 0.06            117            246 195 
 SML  HN ES   1    324 41.12                             117   -0.09 6  246 336 
 GUY2CHZ EP   4    324 20.75                             112    1.67 0  299 235 
 GUY2CHN ES   4    324 56.15                             112    3.25 0  299 235 
                                                                                
