 2013  414 0208  8.6 L   6.817 -73.152150.0  RSN 13 0.4 2.3LRSN                1
 GAP= 70        1.09       2.8     4.5  4.8 -0.1195E+01  0.2327E+00 -0.5370E-01E
 Epicentro: LOS SANTOS - SANTANDER                                             3
 ACTION:UPD 13-05-22 14:38 OP:EP   STATUS:               ID:20130414020808 L   I
 2013-04-14-0158-48M.COL___215                                                 6
 STAT SP IPHASW D HRMM SECON CODA AMPLIT PERI AZIMU VELO AIN AR TRES W  DIS CAZ7
 BAR2 SZ EP        2 8 28.60                             170   -0.1310 25.1 188 
 BAR2 SZ I         2 8 28.81        35.5 0.22            170           25.1 188 
 BAR2 SZ ES        2 8 44.05                             170   -0.4210 25.1 188 
 GIR2 SZ EP        2 8 28.77                             168    0.0910 29.3 351 
 GIR2 SZ ES        2 8 44.23                             168   -0.1510 29.3 351 
 BRR  HZ EP        2 8 30.63                             154    0.5510 69.7 297 
 BRR  HN ES        2 8 47.81                             154    0.9410 69.7 297 
 BRR  HN I         2 8 53.06        29.7 0.20            152           69.7 297 
 PAM  SZ EP        2 8 31.59                             152    0.4310 76.4  41 
 PAM  SN ES        2 8 48.66                             152   -0.1410 76.4  41 
 PAM  SN I         2 8 50.14        35.6 0.46            155           76.4  41 
 RUS  HZ EP        2 8 32.84                             144   -0.0210  103 176 
 RUS  HN ES        2 8 51.78                             144   -0.0410  103 176 
 RUS  HN I         2 8 53.00        23.0 0.44            146            103 176 
 PTB  HZ EP        2 8 35.65                             133   -0.20 9  147 258 
 PTB  HN ES        2 8 56.94                             133   -0.19 9  147 258 
 PTB  HN I         2 9  1.92        22.7 0.26            133            147 258 
 TAM  HZ IP     D  2 8 36.85                             131    0.17 9  156 106 
 OCA  HZ EP        2 8 38.05                             131    1.03 9  158 353 
 OCA  HE ES        2 8 58.44                             131   -0.78 9  158 353 
 OCA  HN I         2 9  2.77        63.3 0.22            132            158 353 
 SML  HZ EP        2 8 45.19                             118   -0.02 8  242 335 
 SML  HN ES        2 9 13.20                             118   -0.59 8  242 335 
 CHI  HZ EP        2 8 46.87                             118    0.20 8  250 195 
 CHI  HN ES        2 9 16.07                             118   -0.33 8  250 195 
 CHI  HN I         2 9 18.26         7.3 0.48            119            250 195 
 COD  HZ EP        2 8 56.42                             110   -0.46 6  346 355 
 COD  HN ES        2 9 34.38                             110   -0.19 6  346 355 
 SDV  BZ EP        2 8 58.12                             109   -0.56 6  360  50 
 PRA  HZ EP        2 9  2.49                             107    0.11 6  393 209 
 PRA  HN ES        2 9 43.73                             107   -0.63 6  393 209 
 PRA  HN I         2 9 48.06         3.1 0.30            108            393 209 
                                                                                
