 2013  314 0604 47.7 L   6.800 -73.118142.0  RSN 12 0.4 2.4LRSN                1
 GAP= 73        0.80       2.9     3.7  4.7  0.1040E+01  0.2355E+01 -0.7083E+00E
 Epicentro: LOS SANTOS - SANTANDER                                             3
 ACTION:UPD 13-04-09 14:02 OP:ep   STATUS:               ID:20130314060449dL   I
 2013-03-14-0600-00M.COL___243                                                 6
 STAT SP IPHASW D HRMM SECON CODA AMPLIT PERI AZIMU VELO AIN AR TRES W  DIS CAZ7
 BAR2 SZ EP        6 5  6.89                             170   -0.0210 24.0 197 
 BAR2 SZ ES   1    6 5 21.87                             170   -0.01 7 24.0 197 
 BAR2 SZ I         6 5 24.11        49.4 0.28            168           24.0 197 
 BRR  HZ EP        6 5  8.79                             151    0.1710 73.9 297 
 BRR  HN ES        6 5 25.37                             151    0.4510 73.9 297 
 BRR  HN I         6 5 29.17        92.4 0.16            148           73.9 297 
 PAM  SZ EP        6 5  9.68                             151    0.2610 75.5  38 
 PAM  SN ES   1    6 5 26.55                             151    0.21 7 75.5  38 
 PAM  SN I         6 5 27.71        46.0 0.42            154           75.5  38 
 RUS  HZ EP        6 5 11.02                             143   -0.0610  100 178 
 RUS  HN ES        6 5 29.06                             143   -0.2510  100 178 
 RUS  HN I         6 5 30.35        17.0 0.24            144            100 178 
 PTB  HZ EP   1    6 5 13.89                             131   -0.77 7  151 259 
 PTB  HN ES   2    6 5 35.25                             131   -0.42 5  151 259 
 PTB  HN I         6 5 39.76        31.6 0.52            129            151 259 
 TAM  HZ EP   1    6 5 15.20                             130    0.38 7  152 105 
 TAM  HN ES   2    6 5 35.33                             130   -0.63 5  152 105 
 TAM  HN I         6 5 37.38        30.3 0.62            134            152 105 
 OCA  HZ EP        6 5 15.44                             129   -0.34 9  161 352 
 OCA  HN ES   2    6 5 36.92                             129   -0.74 5  161 352 
 OCA  HN I         6 5 39.92       108.3 0.40            130            161 352 
 ZAR  HZ EP        6 5 20.94                             121    0.72 8  207 292 
 ZAR  HN ES   2    6 5 45.22                             121   -0.35 4  207 292 
 ZAR  HN I         6 5 51.20        38.6 0.26            121            207 292 
 SML  HZ EP        6 5 24.28                             116    0.00 8  245 335 
 SML  HN ES   2    6 5 51.31                             116   -1.49 4  245 335 
 SML  HN I         6 5 58.51        33.3 0.10            117            245 335 
 CHI  HZ EP   1    6 5 25.02                             116   -0.27 6  249 196 
 CHI  HN ES   2    6 5 54.23                             116   -0.37 4  249 196 
 CHI  HN I         6 6  0.51        11.9 0.46            117            249 196 
 HEL  HZ EP   4    6 5 30.56                             114    2.49 0  275 256 
 HEL  HN ES   2    6 5 59.85                             114    0.30 4  275 256 
 HEL  HN I         6 6  5.08        11.1 0.40            114            275 256 
 PRA  HZ EP        6 5 41.54                             106    0.26 6  394 210 
 PRA  HN ES   2    6 6 22.87                             106   -0.20 3  394 210 
 PRA  HN I         6 6 28.63         5.4 0.40            106            394 210 
                                                                                
