 2015  414 0810 55.7 L   6.267 -73.673109.1  RSN  6 0.4 1.4LRSN                1
 GAP=145        0.91       4.1     3.4  7.0  0.1733E+01  0.7118E+01 -0.4670E+01E
 Epicentro: SANTA HELENA DEL OPON - SANTANDER                                  3
 ACTION:UPD 15-06-03 16:54 OP:cam  STATUS:               ID:20150414081055 L   I
 OLDACT:REG 15-04-14 13:09 OP:carl STATUS:               ID:20150414080746     3
 2015-04-14-0807-46M.COL___272                                                 6
 STAT SP IPHASW D HRMM SECON CODA AMPLIT PERI AZIMU VELO AIN AR TRES W  DIS CAZ7
 BAR2 EZ EP        811 13.24                             147    0.2610 65.1  56 
 BAR2 EZ ES        811 26.59                             147    0.1610 65.1  56 
 BAR2 EZ I         811 27.92        12.3 0.34            143           65.1  56 
 RUS  HZ EP        811 14.35                             142    0.1510 77.4 122 
 RUS  HE ES        811 28.28                             142   -0.3310 77.4 122 
 RUS  HZ I         811 30.28         4.0 0.32            142           77.4 122 
 PTB  HZ EP        811 14.33                             137   -0.3510 91.7 289 
 PTB  HN ES        811 28.91                             137   -0.5410 91.7 289 
 PTB  HZ I         811 29.99         3.8 0.18            136           91.7 289 
 BRR  HZ EP        811 14.82                             136    0.0610 93.0 357 
 BRR  HN ES        811 29.97                             136    0.3710 93.0 357 
 HEL  HN ES        811 51.59                             113    0.72 8  206 268 
 SML  HZ EP        811 34.99                             105   -0.26 7  284 351 
 SML  HE ES        812  5.79                             105   -0.29 7  284 351 
 SML  HZ I         812 14.23         2.2 0.10            104            284 351 
                                                                                
