 2017  514 0500 26.4 L   6.721 -73.219139.6  RSN  4 0.2 1.0LRSN                1
 GAP=131        0.59       3.1     2.7  5.9 -0.1945E+00  0.5904E+01 -0.2929E+01E
 Epicentro: VILLANUEVA - SANTANDER                                             3
 ACTION:UPD 17-06-16 13:36 OP:jn   STATUS:               ID:20170514050027dL   I
 OLDACT:REG 17-05-14 13:02 OP:lv   STATUS:               ID:20170514044444     3
 2017-05-14-0457-00M.COL___359                                                 6
 STAT SP IPHASW D HRMM SECON CODA AMPLIT PERI AZIMU VELO AIN AR TRES W  DIS CAZ7
 PAM  EZ EP        5 0 48.39                             146   -0.3610 89.2  40 
 PAM  EN ES        5 1  6.39                             146    0.2210 89.2  40 
 RUS  HZ EP        5 0 49.28                             145    0.2810 92.8 171 
 RUS  HN ES        5 1  6.43                             145   -0.1910 92.8 171 
 PTB  HZ EP        5 0 52.24                             133    0.22 9  138 262 
 PTB  HN ES        5 1 11.95                             133   -0.05 9  138 262 
 PTB  HZ I         5 1 14.89         0.8 0.40            132            138 262 
 ZAR  HZ EP        5 0 57.94                             121   -0.12 9  200 295 
 ZAR  HE ES        5 1 22.73                             121   -0.01 9  200 295 
 ZAR  HZ I         5 1 30.21         1.3 0.31            122            200 295 
                                                                                
