 2014  714 0739  3.4 L   6.812 -73.117148.8  RSN 11 0.5 1.9LRSN                1
 GAP=205        0.98       3.7     6.0  7.5 -0.5317E+01  0.6654E+01  0.3168E+01E
 Epicentro: LOS SANTOS - SANTANDER                                             3
 ACTION:UPD 15-03-16 20:43 OP:nd   STATUS:               ID:20140714073903 L   I
 OLDACT:REG 14-07-14 13:29 OP:fm   STATUS:               ID:20140714073817     3
 2014-07-14-0738-17M.COL___244                                                 6
 STAT SP IPHASW D HRMM SECON CODA AMPLIT PERI AZIMU VELO AIN AR TRES W  DIS CAZ7
 BAR2 SZ EP        739 23.55                             170    0.1510 25.3 197 
 BAR2 SZ ES   1    739 39.24                             170    0.21 7 25.3 197 
 BAR2 SZ I         739 39.94        12.1 0.24            168           25.3 197 
 PTB  HZ EP        739 30.19                             132   -0.69 9  151 259 
 PTB  HN ES        739 51.74                             132   -0.61 9  151 259 
 PTB  HZ I         739 54.85        10.3 0.18            130            151 259 
 OCA  HN ES        739 54.38                             130    0.35 9  159 352 
 OCA  HZ I         739 58.71         7.1 0.38            130            159 352 
 SPBC HZ EP        739 32.40                             129    0.02 9  166 220 
 SPBC HN ES   1    739 54.83                             129   -0.19 7  166 220 
 SPBC HZ I         739 57.19         9.4 0.32            129            166 220 
 ZAR  HZ EP        739 36.14                             123   -0.12 8  207 291 
 ZAR  HN ES        740  2.31                             123    0.39 8  207 291 
 ZAR  HZ I         740  8.50         9.2 0.24            121            207 291 
 NOR  HZ EP   1    739 38.97                             119   -0.66 6  238 235 
 NOR  HN ES        740  7.77                             119   -0.14 8  238 235 
 NOR  HZ I         740 14.06         5.1 0.18            118            238 235 
 SML  HZ EP   1    739 39.92                             118   -0.26 6  244 334 
 SML  HN ES   1    740  8.62                             118   -0.27 6  244 334 
 SML  HZ I         740 11.18         9.7 0.10            118            244 334 
 HEL  HZ EP   1    739 44.47                             115    0.36 6  275 256 
 HEL  HE ES   4    740 20.07                             115    4.18 0  275 256 
 HEL  HZ I         740 22.64         3.3 0.30            115            275 256 
 GUY2CHZ EP        739 48.38                             113    0.89 7  305 235 
 GUY2CHE ES   1    740 23.38                             113    1.47 5  305 235 
 GUY2CHZ I         740 30.33         5.0 0.78                           305 235 
 PRA  HZ EP   1    739 57.45                             107    0.14 4  395 210 
 PRA  HN ES   1    740 39.18                             107   -0.20 4  395 210 
 PRA  HZ I         740 44.00         2.1 0.48            108            395 210 
 SJC  HZ EP   4    739 57.86                             106   -1.24 0  410 326 
 SJC  HN ES   4    740 40.21                             106   -2.37 0  410 326 
 SJC  HZ I         740 48.65         1.1 0.54            106            410 326 
                                                                                
