 2014  614 0738 56.0 L   6.797 -73.174142.0  RSN  5 0.3 1.4LRSN                1
 GAP=188        0.77       3.9     5.9 11.6 -0.7545E+01  0.1368E+01 -0.4032E+01E
 Epicentro: LOS SANTOS - SANTANDER                                             3
 ACTION:UPD 14-07-01 22:53 OP:nd   STATUS:               ID:20140614073856 L   I
 OLDACT:DUP 14-06-14 18:37 OP:mh   STATUS:               ID:20140614072813d    3
 OLDACT:DUP 14-06-14 18:33 OP:mh   STATUS:               ID:20140614072812d    3
 2014-06-14-0728-10M.COL___259                                                 6
 STAT SP IPHASW D HRMM SECON CODA AMPLIT PERI AZIMU VELO AIN AR TRES W  DIS CAZ7
 BAR2 SZ EP        739 14.95                             170   -0.2210 22.7 182 
 BAR2 SZ I         739 32.35         5.7 0.44            166           22.7 182 
 PTB  HZ EP        739 21.98                             132   -0.41 9  145 259 
 PTB  HN ES        739 42.91                             132   -0.05 9  145 259 
 PTB  HZ I         739 45.73         2.7 0.56            139            145 259 
 OCA  HN ES        739 46.04                             129    0.17 9  160 354 
 SPBC HN ES        739 46.20                             129    0.34 9  161 218 
 SPBC HZ I         739 48.91         2.3 0.18            133            161 218 
 ZAR  HZ EP        739 28.41                             122    0.49 9  201 293 
 ZAR  HN ES   1    739 52.42                             122   -0.40 6  201 293 
 ZAR  HZ I         739 59.70         2.4 0.33            128            201 293 
                                                                                
