 2017  914 0444 36.8 L   6.785 -73.095146.1  RSN  7 0.3 1.3LRSN                1
 GAP=144        0.74       3.6     4.3  5.2 -0.6191E+01  0.3426E+01  0.2817E+01E
 Epicentro: LOS SANTOS - SANTANDER                                             3
 ACTION:UPD 17-10-05 19:12 OP:rebc STATUS:               ID:20170914044436 L   I
 OLDACT:UP  17-09-14 16:13 OP:mg   STATUS:               ID:20170914043743     3
 OLDACT:UP  17-09-14 16:13 OP:mg   STATUS:               ID:20170914043743     3
 OLDACT:REG 17-09-14 11:21 OP:dhb  STATUS:               ID:20170914043743     3
 2017-09-14-0438-00M.COL___419                                                 6
 STAT SP IPHASW D HRMM SECON CODA AMPLIT PERI AZIMU VELO AIN AR TRES W  DIS CAZ7
 BAR2 EZ EP        444 56.16                             170   -0.2910 23.4 204 
 BAR2 EZ ES        445 11.18                             170   -0.6110 23.4 204 
 BAR2 EZ I         445 13.91         4.1 0.28            168           23.4 204 
 PAM  EZ IP     C  444 59.09                             151    0.1910 75.3  35 
 PAM  EN ES        445 16.22                             151    0.0610 75.3  35 
 BRR  HZ IP     D  444 58.19                             151   -0.1010 76.9 298 
 BRR  HN ES        445 15.42                             151    0.3510 76.9 298 
 BRR  HZ I         445 16.14         3.6 0.42            149           76.9 298 
 RUS  HZ EP        445  0.49                             144    0.0710 98.7 179 
 RUS  HN ES        445 19.22                             144    0.3510 98.7 179 
 RUS  HZ I         445 19.78         1.9 0.30            144           98.7 179 
 SPBC HZ IP     C  445  5.58                             129    0.06 9  165 221 
 SPBC HN ES        445 28.09                             129    0.15 9  165 221 
 SPBC HZ I         445 29.45         2.2 0.10            128            165 221 
 NOR  HZ EP   2    445 12.30                             118   -0.61 4  238 236 
 NOR  HN ES        445 40.94                             118   -0.15 8  238 236 
 NOR  HZ I         445 47.25         1.2 0.32            118            238 236 
 GUY2CHZ EP   4    445 22.02                             112    1.22 0  305 236 
 GUY2CHN ES   4    445 57.70                             112    2.55 0  305 236 
 GUY2CHZ I         446  3.11         1.4 0.50                           305 236 
                                                                                
