 2013  114 0105 26.0 L   6.721 -73.209149.7  RSN  7 0.4 1.5LRSN                1
 GAP=173        0.74       3.7     5.5  6.8  0.6119E+01  0.5712E+01  0.4107E+01E
 Epicentro: VILLANUEVA - SANTANDER                                             3
 ACTION:UPD 13-02-15 09:14 OP:ep   STATUS:               ID:20130114010526 L   I
 2013-01-14-0100-00M.COL___241                                                 6
 STAT SP IPHASW D HRMM SECON CODA AMPLIT PERI AZIMU VELO AIN AR TRES W  DIS CAZ7
 BAR2 SZ EP   1    1 5 45.25                             174   -0.67 7 14.6 169 
 BAR2 SZ ES   1    1 6  1.26                             174   -0.23 7 14.6 169 
 BAR2 SZ I         1 6  2.16        13.6 0.26            167           14.6 169 
 BRR  HZ EP        1 5 47.29                             154   -0.1910 70.1 308 
 BRR  HN ES   1    1 6  4.77                             154    0.51 7 70.1 308 
 BRR  HZ I         1 6  7.12         5.3 0.18            150           70.1 308 
 RUS  HZ EP   1    1 5 49.54                             147   -0.02 7 92.7 171 
 RUS  HN ES   1    1 6  8.11                             147    0.15 7 92.7 171 
 RUS  HZ I         1 6  9.06         3.2 0.38            143           92.7 171 
 PTB  HZ EP   1    1 5 52.24                             135   -0.28 7  139 262 
 PTB  HN ES   1    1 6 13.01                             135   -0.22 7  139 262 
 PTB  HZ I         1 6 15.43         4.1 0.38            130            139 262 
 OCA  HN ES   1    1 6 18.71                             129    0.48 7  168 356 
 ZAR  HE ES   1    1 6 23.62                             124   -0.03 6  201 295 
 ZAR  HZ I         1 6 29.47         5.2 0.32            122            201 295 
 CHI  HZ EP   1    1 6  3.44                             119    0.65 6  238 194 
 CHI  HN ES   1    1 6 31.91                             119    0.40 6  238 194 
 CHI  HZ I         1 6 42.30         1.4 0.32            117            238 194 
                                                                                
