 2014  114 0018 54.6 L   6.636 -73.613 20.0  RSN  4 0.3 1.7LRSN                1
 GAP=119        0.64       1.7     2.0  4.8  0.9468E+00 -0.4175E+01 -0.1156E+01E
 Epicentro: EL CARMEN DE CHUCURI - SANTANDER                                   3
 ACTION:UPD 14-03-13 09:55 OP:ep   STATUS:               ID:20140114001854 L   I
 OLDACT:REG 14-01-14 07:57 OP:cam  STATUS:               ID:20140114001000     3
 2014-01-14-0010-00M.COL___285                                                 6
 STAT SP IPHASW D HRMM SECON CODA AMPLIT PERI AZIMU VELO AIN AR TRES W  DIS CAZ7
 BRR  HZ IP     D  019  3.41                             107   -0.2610 53.2 348 
 BRR  HN ES        019 10.73                             107    0.0110 53.2 348 
 BRR  HZ I         019 11.11        62.3 0.10             95           53.2 348 
 PTB  HZ EP        019  9.76                              99    0.0910 93.9 264 
 PTB  HN ES        019 21.36                              99   -0.0510 93.9 264 
 PTB  HZ I         019 22.29        39.1 0.14             93           93.9 264 
 RUS  HZ EP        019 11.47                              99    0.2410  101 144 
 RUS  HN ES        019 23.94                              99   -0.2510  101 144 
 RUS  HZ I         019 24.50        11.0 0.28             93            101 144 
 PAM  SZ EP        019 15.41                              56    0.3810  127  52 
 PAM  SE ES   2    019 30.35                              56   -0.59 5  127  52 
 PAM  SZ I         019 33.37         6.5 0.14             92            127  52 
                                                                                
