 2013  214 0243 30.2 L   6.730 -73.141142.2  RSN  6 0.5 1.7LRSN                1
 GAP=140        0.94       7.7     5.4  8.8 -0.5948E+01  0.9837E+01 -0.3928E+01E
 Epicentro: JORDAN - SANTANDER                                                 3
 ACTION:UPD 13-03-12 09:32 OP:ep   STATUS:               ID:20130214024330 L   I
 2013-02-14-0240-00M.COL___241                                                 6
 STAT SP IPHASW D HRMM SECON CODA AMPLIT PERI AZIMU VELO AIN AR TRES W  DIS CAZ7
 BAR2 SZ EP        243 49.10                             174   -0.1410 16.0 197 
 BAR2 SZ ES   1    244  3.50                             174   -0.62 7 16.0 197 
 BAR2 SZ I         244  5.63        13.6 0.34            177           16.0 197 
 BRR  HZ EP        243 51.44                             150    0.2510 75.6 303 
 BRR  HE ES   1    244  8.52                             150    0.93 7 75.6 303 
 BRR  HZ I         244  9.14        13.1 0.28            151           75.6 303 
 PAM  SZ EP        243 52.52                             148    0.1610 83.1  36 
 PAM  SE ES   1    244  9.35                             148   -0.33 7 83.1  36 
 PAM  SZ I         244 14.08         5.5 0.56            149           83.1  36 
 RUS  HN ES   2    244 11.72                             146    0.88 5 92.9 176 
 PTB  HZ EP        243 56.38                             131   -0.40 9  147 262 
 PTB  HN ES   1    244 17.35                             131   -0.18 7  147 262 
 PTB  HZ I         244 19.75         5.7 0.46            135            147 262 
 ZAR  HE ES   1    244 28.06                             121   -0.10 6  208 294 
                                                                                
