 2013  914 0821 38.7 L   6.791 -73.171141.9  RSN  8 0.5 1.6LRSN                1
 GAP=180        1.14       4.3     6.6  8.8  0.7664E+01  0.1293E+02  0.6034E+00E
 Epicentro: LOS SANTOS - SANTANDER                                             3
 ACTION:UPD 13-10-22 09:22 OP:ep   STATUS:               ID:20130914082138 L   I
 OLDACT:REG 13-09-14 08:32 OP:carl STATUS:               ID:20130914081959     3
 2013-09-14-0819-59M.COL___269                                                 6
 STAT SP IPHASW D HRMM SECON CODA AMPLIT PERI AZIMU VELO AIN AR TRES W  DIS CAZ7
 BAR2 SZ EP        821 57.68                             171   -0.1410 22.0 183 
 BAR2 SZ ES   1    822 12.90                             171    0.15 7 22.0 183 
 BAR2 SZ I         822 13.69        10.4 0.18            172           22.0 183 
 BRR  HZ EP        821 59.52                             152    0.2110 69.3 300 
 BRR  HN ES   1    822 16.28                             152    0.89 7 69.3 300 
 BRR  HZ I         822 21.67         5.0 0.12            151           69.3 300 
 RUS  HZ EP        822  1.75                             143   -0.2510 99.8 174 
 RUS  HE ES        822 19.99                             143   -0.1910 99.8 174 
 RUS  HZ I         822 21.71         2.6 0.34            148           99.8 174 
 PTB  HZ EP        822  4.36                             132   -0.72 9  145 259 
 PTB  HN ES   1    822 24.79                             132   -0.87 7  145 259 
 PTB  HZ I         822 28.18         7.2 0.14            133            145 259 
 SPBC HZ EP        822  6.88                             129    0.23 9  161 218 
 SPBC HN ES        822 28.13                             129   -0.33 9  161 218 
 SPBC HZ I         822 31.73         4.0 0.16            132            161 218 
 OCA  HN ES   1    822 28.27                             129   -0.40 7  161 354 
 OCA  HN I         822 32.36        19.5 0.30            131            161 354 
 ZAR  HZ EP        822 11.20                             122    0.54 9  202 293 
 ZAR  HN ES        822 35.76                             122    0.17 9  202 293 
 ZAR  HZ I         822 42.05         3.7 0.56            124            202 293 
 CHI  HN ES        822 46.04                             116    0.96 8  247 195 
                                                                                
