 2014 1114 0354 24.9 L   6.768 -73.160136.1  RSN  7 0.5 1.7LRSN                1
 GAP= 97        1.30       5.8     5.4  8.3 -0.7365E+01 -0.1439E+01  0.7339E+01E
 Epicentro: LOS SANTOS - SANTANDER                                             3
 ACTION:UPD 14-12-19 15:42 OP:nd   STATUS:               ID:20141114035424 L   I
 OLDACT:ARG 14-11-14 12:38 OP:stll STATUS:               ID:20141114034741     3
 2014-11-14-0347-41M.COL___277                                                 6
 STAT SP IPHASW D HRMM SECON CODA AMPLIT PERI AZIMU VELO AIN AR TRES W  DIS CAZ7
 BAR2 SZ EP        354 44.12                             171    0.8310 19.6 187 
 BAR2 SZ ES        354 57.52                             171   -0.1110 19.6 187 
 BAR2 SZ I         354 59.71        14.7 0.20            173           19.6 187 
 BRR  HZ EP        354 45.19                             151    0.1610 71.6 302 
 BRR  HE ES        355  1.58                             151    0.8510 71.6 302 
 BRR  HZ I         355  5.13        10.6 0.42            151           71.6 302 
 PAM  SZ EP        354 46.16                             148   -0.1810 81.2  39 
 PAM  SN ES        355  2.42                             148   -0.6310 81.2  39 
 PAM  SZ I         355  5.30        10.1 0.58            150           81.2  39 
 RUS  HZ EP        354 47.54                             143    0.0910 97.2 175 
 RUS  HN ES        355  5.15                             143    0.1110 97.2 175 
 RUS  HZ I         355  6.83         4.3 0.34            146           97.2 175 
 PTB  HZ EP        354 50.36                             130   -0.52 9  146 260 
 PTB  HN ES        355 10.48                             130   -0.67 9  146 260 
 PTB  HZ I         355 14.16         4.2 0.26            132            146 260 
 TAM  HZ EP        354 51.71                             128   -0.18 9  156 104 
 TAM  HZ I         354 51.91        12.4 0.36            132            156 104 
 SPBC HZ EP        354 52.90                             127    0.60 9  159 219 
 SPBC HE ES        355 13.19                             127   -0.49 9  159 219 
                                                                                
