 2014  814 0643  7.3 L   6.818 -73.189145.8  RSN  5 0.5 1.5LRSN                1
 GAP=202        1.15       5.2     8.6  8.3 -0.4127E+01  0.6798E+01 -0.7810E+01E
 Epicentro: ZAPATOCA - SANTANDER                                               3
 ACTION:UPD 14-09-15 21:49 OP:nd   STATUS:               ID:20140814064307 L   I
 OLDACT:UP  14-08-14 15:55 OP:cam  STATUS:               ID:20140814064000     3
 OLDACT:REG 14-08-14 13:28 OP:cam  STATUS:               ID:20140814064000     3
 2014-08-14-0640-00M.COL___285                                                 6
 STAT SP IPHASW D HRMM SECON CODA AMPLIT PERI AZIMU VELO AIN AR TRES W  DIS CAZ7
 BAR2 SZ EP        643 27.12                             170    0.1510 25.0 178 
 BAR2 SZ ES        643 41.71                             170   -0.6110 25.0 178 
 BAR2 SZ I         643 43.59        10.1 0.44            170           25.0 178 
 BRR  HZ EP        643 28.90                             154    0.7310 66.0 299 
 BRR  HE ES        643 44.86                             154    0.4110 66.0 299 
 BRR  HZ I         643 48.93         3.4 0.46            152           66.0 299 
 PTB  HZ EP        643 33.23                             133   -0.66 9  143 258 
 PTB  HN ES        643 54.34                             133   -0.28 9  143 258 
 PTB  HZ I         643 56.69         2.9 0.44            132            143 258 
 SPBC HZ EP        643 36.00                             129    0.32 9  162 217 
 SPBC HN ES        643 58.05                             129    0.24 9  162 217 
 SPBC HZ I         644  3.99         3.5 0.20            130            162 217 
 SML  HZ EP        643 42.97                             118   -0.55 8  240 336 
 SML  HN ES        644 11.83                             118    0.06 8  240 336 
 SML  HZ I         644 15.99         3.9 0.24            119            240 336 
                                                                                
