 2013  914 0433 55.2 L   6.775 -73.163145.0  RSN  5 0.4 1.5LRSN                1
 GAP=181        0.89       4.2     6.0 10.0  0.8292E+01  0.6563E+01 -0.2064E+01E
 Epicentro: LOS SANTOS - SANTANDER                                             3
 ACTION:UPD 13-10-22 09:22 OP:ep   STATUS:               ID:20130914043355 L   I
 OLDACT:REG 13-09-14 08:28 OP:carl STATUS:               ID:20130914042959     3
 2013-09-14-0429-59M.COL___269                                                 6
 STAT SP IPHASW D HRMM SECON CODA AMPLIT PERI AZIMU VELO AIN AR TRES W  DIS CAZ7
 BRR  HZ EP        434 16.37                             152    0.1410 71.0 301 
 BRR  HN ES   1    434 33.31                             152    0.66 7 71.0 301 
 BRR  HN I         434 33.66        15.0 0.28            148           71.0 301 
 RUS  HZ EP        434 19.10                             144    0.4410 97.9 175 
 RUS  HN ES        434 36.68                             144   -0.3010 97.9 175 
 RUS  HZ I         434 39.13         1.3 0.16            143           97.9 175 
 PTB  HZ EP        434 21.64                             132   -0.23 9  145 260 
 PTB  HN ES   1    434 42.16                             132   -0.52 7  145 260 
 PTB  HZ I         434 47.52         3.0 0.54            129            145 260 
 OCA  HN ES        434 45.50                             129   -0.39 9  163 354 
 ZAR  HN ES        434 52.89                             122    0.17 9  203 293 
 ZAR  HN I         435  1.16         7.9 0.12            121            203 293 
                                                                                
