 2016 1014 0928 22.2 L   6.838 -73.149146.9  RSN 21 0.5 2.4LRSN                1
 GAP= 70        1.20       3.4     3.8  5.6 -0.2849E+01  0.4419E+01  0.4008E+01E
 Epicentro: LOS SANTOS - SANTANDER                                             3
 ACTION:UPD 16-11-09 19:19 OP:rebc STATUS:               ID:20161014092822 L   I
 OLDACT:UP  16-10-14 18:31 OP:ar   STATUS:               ID:20161014091741     3
 OLDACT:REG 16-10-14 13:21 OP:ar   STATUS:               ID:20161014091741     3
 2016-10-14-0918-00M.COL___353                                                 6
 STAT SP IPHASW D HRMM SECON CODA AMPLIT PERI AZIMU VELO AIN AR TRES W  DIS CAZ7
 BAR2 EZ EP        928 41.75                             169   -0.2710 27.5 188 
 BAR2 EZ ES        928 56.98                             169   -0.5310 27.5 188 
 BAR2 EZ I         928 59.54        71.9 0.26            169           27.5 188 
 BRR  HZ EP        928 43.58                             153    0.2710 69.0 296 
 BRR  HN ES        929  0.72                             153    0.9110 69.0 296 
 BRR  HZ I         929  1.73        40.1 0.12            150           69.0 296 
 PAM  EZ EP        928 44.74                             152    0.4210 74.4  42 
 PAM  EN ES        929  1.71                             152    0.1010 74.4  42 
 PAM  EZ I         929  3.99        33.3 0.36            153           74.4  42 
 RUS  HZ EP        928 45.74                             143   -0.5910  105 176 
 RUS  HN ES        929  5.33                             143    0.1410  105 176 
 RUS  HZ I         929  5.85        15.1 0.30            145            105 176 
 PTB  HZ EP        928 48.55                             132   -0.72 9  148 257 
 PTB  HN ES        929  9.51                             132   -0.91 9  148 257 
 PTB  HZ I         929 12.36        23.0 0.10            130            148 257 
 OCA  HZ EP        928 49.82                             131   -0.34 9  156 353 
 OCA  HN ES        929 12.18                             131    0.17 9  156 353 
 OCA  HZ I         929 21.00        43.1 0.20            130            156 353 
 TAM  HZ EP        928 50.20                             131    0.14 9  157 106 
 TAM  HN ES   4    929 10.65                             131   -1.18 0  157 106 
 TAM  HZ I         929 11.31        17.7 0.36            134            157 106 
 SPBC HZ EP        928 50.70                             129   -0.34 9  166 218 
 SPBC HN ES        929 13.66                             129    0.09 9  166 218 
 SPBC HZ I         929 15.96        41.4 0.10            129            166 218 
 ZAR  HZ EP        928 54.39                             123   -0.10 9  202 291 
 ZAR  HN ES        929 19.45                             123   -0.25 9  202 291 
 ZAR  HZ I         929 28.47        30.3 0.24            121            202 291 
 NOR  HZ EP        928 57.94                             118   -0.25 8  237 234 
 NOR  HN ES        929 26.85                             118    0.55 8  237 234 
 NOR  HZ I         929 28.49        18.8 0.20            118            237 234 
 CHI  HZ EP        929  0.09                             117   -0.27 8  253 195 
 CHI  HE ES   4    929 28.95                             117   -1.20 0  253 195 
 CHI  HZ I         929 32.76        18.1 0.58            118            253 195 
 ROSC BZ EP   4    929  2.31                             117    1.59 0  256 210 
 ROSC BN ES        929 31.47                             117    0.67 8  256 210 
 ROSC BZ I         929 35.33        35.5 0.40            117            256 210 
 HEL  HZ EP   4    929  4.04                             115    1.53 0  273 255 
 HEL  HN ES        929 34.21                             115    0.22 8  273 255 
 HEL  HZ I         929 39.80        12.9 0.32            114            273 255 
 SOCV BN ES   4    929 49.91                             112   11.44 0  299  58 
 GUY2CHZ EP        929  6.69                             112    0.62 7  303 234 
 GUY2CHN ES   4    929 43.64                             112    3.32 0  303 234 
 GUY2CHZ I         929 48.01        14.2 0.62                           303 234 
 PTGC HZ EP   4    929  4.96                             111   -1.57 0  313 159 
 PTGC HN ES   4    929 38.29                             111   -2.85 0  313 159 
 PTGC HZ I         929 40.98        11.0 0.42            113            313 159 
 ELA  HZ EP        929 10.51                             110    1.16 7  332 229 
 ELA  HN ES        929 47.08                             110    0.93 7  332 229 
 ELA  HZ I         929 54.44        12.1 0.54            110            332 229 
 CBOC HZ EP        929  9.44                             110    0.20 7  335 251 
 CBOC HE ES        929 45.13                             110   -0.83 7  335 251 
 CBOC HZ I         930  0.27         4.0 0.34            110            335 251 
 ANIL HZ EP        929 13.00                             108    0.67 6  360 224 
 ANIL HN ES   4    929 53.26                             108    1.79 0  360 224 
 PRA  HZ EP        929 15.65                             106   -0.48 6  396 209 
 PRA  HN ES        929 57.73                             106   -0.50 6  396 209 
 PRA  HZ I         930  2.87        14.8 0.30            107            396 209 
 SJC  HZ EP   4    929 15.74                             106   -1.58 0  405 327 
 SJC  HN ES   4    929 57.72                             106   -2.63 0  405 327 
 SJC  HZ I         930  5.74         5.0 0.42            106            405 327 
 CRJC HZ EP   4    929 22.10                             104   -2.09 0  463   4 
 CRJC HN ES   4    930  9.33                             104   -3.25 0  463   4 
 CRJC HZ I         930 16.84         8.3 0.34            104            463   4 
                                                                                
