 2016 1114 0027 30.7 L   6.692 -73.113147.7  RSN  4 0.4 1.3LRSN                1
 GAP=231        1.07      13.8     6.1 10.4 -0.4070E+02 -0.1179E+01  0.5584E+02E
 Epicentro: JORDAN - SANTANDER                                                 3
 ACTION:UPD 17-10-26 21:07 OP:lp   STATUS:               ID:20161114002730 L   I
 OLDACT:DUP 16-11-14 13:53 OP:lv   STATUS:               ID:20161114001745d    3
 2016-11-14-0018-00M.COL___340                                                 6
 STAT SP IPHASW D HRMM SECON CODA AMPLIT PERI AZIMU VELO AIN AR TRES W  DIS CAZ7
 BRR  HZ EP        027 52.94                             150    0.3310 80.6 305 
 BRR  HN ES        028 10.30                             150    0.6010 80.6 305 
 PAM  EZ IP     D  027 53.90                             149    0.3110 84.9  32 
 PAM  EN ES        028 10.86                             149   -0.5710 84.9  32 
 PAM  EZ I         028 13.11         2.0 0.20            150           84.9  32 
 PTB  HZ EP        027 58.16                             132    0.17 9  150 264 
 PTB  HN ES        028 18.80                             132   -0.48 9  150 264 
 PTB  HZ I         028 23.63         2.0 0.14            132            150 264 
 ZAR  HZ EP        028  3.60                             122   -0.51 8  212 295 
 ZAR  HN ES        028 30.13                             122   -0.04 8  212 295 
 ZAR  HZ I         028 35.21         3.5 0.24            122            212 295 
                                                                                
