 2011  114 0534 36.2 L   6.780 -73.099149.2  RSN  7 0.4 1.7LRSN                1
 GAP=188        0.96       4.8    10.1 14.6 -0.1560E+02  0.4893E+02 -0.5079E+01E
 Epicentro: LOS SANTOS - SANTANDER                                             3
 ACTION:UP  11-02-08 08:40 OP:pat  STATUS:               ID:20110114053436 L   I
 2011-01-14-0532-31S.COL___136                                                 6
 STAT SP IPHASW D HRMM SECON CODA AMPLIT PERI AZIMU VELO SNR AR TRES W  DIS CAZ7
 BAR2 SZ EP   1    534 56.23                             171     0.0 7   23 204 
 BAR2 SZ I         535 13.11        11.0 0.13                            23 204 
 BTL  SZ EP   1    534 55.40                             170    -0.9 7   24 309 
 RUS  HZ EP   1    535  0.05                             145    -0.1 7   98 179 
 RUS  HN ES   1    535 19.09                             145     0.3 7   98 179 
 RUS  HZ I         535 20.50         4.9 0.22                            98 179 
 OCA  SZ EP   1    535  5.06                             130     0.0 7  163 351 
 OCA  SZ ES   1    535 28.18                             130     0.6 7  163 351 
 OCA  SZ I         535 34.23         4.0 0.20                           163 351 
 NOR  SN ES   1    535 40.37                             119    -0.4 6  238 236 
 CHI  HZ EP   1    535 14.48                             118     0.4 6  248 196 
 CHI  HE ES   1    535 43.67                             118     0.1 6  248 196 
 CHI  HZ I         535 53.21         2.9 0.44                           248 196 
 RREF HN ES   1    535 59.59                             111     0.4 5  324 230 
 RREF HZ I         536  7.72         4.4 0.45                           324 230 
                                                                                
