 2017  114 0409 37.7 L   6.893 -73.296124.2  RSN 23 0.8 2.7LRSN                1
 GAP= 54        1.74       4.2     4.7  7.9  0.6115E-01  0.1189E+02 -0.1869E+01E
 Epicentro: BETULIA - SANTANDER                                                3
 ACTION:UPD 17-05-22 15:59 OP:jn   STATUS:               ID:20170114040937 L   I
 OLDACT:UP  17-03-28 21:31 OP:nlst STATUS:               ID:20170114040937 L   3
 OLDACT:UP  17-03-28 21:14 OP:nlst STATUS:               ID:20170114040937 L   3
 OLDACT:UP  17-03-28 20:26 OP:nlst STATUS:               ID:20170114040937 L   3
 OLDACT:REG 17-01-14 12:31 OP:dani STATUS:               ID:20170114040744     3
 2017-01-14-0408-00M.COL___326                                                 6
 STAT SP IPHASW D HRMM SECON CODA AMPLIT PERI AZIMU VELO AIN AR TRES W  DIS CAZ7
 BAR2 EZ IP     D  4 9 55.11                             163    0.0110 35.6 159 
 BAR2 HE ES        410  8.59                             163   -0.0810 35.6 159 
 BRR  HZ IP     C  4 9 55.71                             156    0.2710 51.7 297 
 BRR  HN ES   1    410  9.93                             156    0.65 7 51.7 297 
 BRR  HZ I         410 10.97       191.4 0.14            155           51.7 297 
 PAM  EZ EP        4 9 58.29                             144    0.2810 82.3  53 
 PAM  EE ES   1    410 14.82                             144    0.97 7 82.3  53 
 PAM  EZ I         410 17.03       146.1 0.30            147           82.3  53 
 RUS  HZ EP     D  4 9 59.65                             135   -0.7910  113 168 
 RUS  HE ES        410 17.42                             135   -0.7510  113 168 
 PTB  HZ EP     D  410  0.49                             129   -1.2010  134 253 
 PTB  HE ES   1    410 20.78                             129    0.38 7  134 253 
 PTB  HZ I         410 24.26       103.0 0.18            129            134 253 
 TAM  HZ IP     D  410  5.88                             122    0.21 9  174 107 
 TAM  HE ES   1    410 27.50                             122    0.01 7  174 107 
 TAM  HZ I         410 29.38        43.1 0.32            123            174 107 
 ZAR  HZ EP        410  7.10                             120    0.32 9  185 291 
 ZAR  HN ES   1    410 29.43                             120   -0.02 7  185 291 
 ZAR  HZ I         410 34.33       111.1 0.46            120            185 291 
 ROSC BZ EP   1    410 15.86                             112    1.01 6  254 207 
 ROSC BN ES   1    410 44.59                             112    0.76 6  254 207 
 ROSC BZ I         410 52.91        20.6 0.45            112            254 207 
 CHI  HZ EP        410 14.60                             111   -0.41 8  255 191 
 CHI  HE ES        410 44.15                             111    0.04 8  255 191 
 CHI  HZ I         410 48.86        19.7 0.40            112            255 191 
 URE  HZ EP        410 14.70                             110   -0.91 8  265 291 
 URE  HN ES        410 43.43                             110   -1.74 8  265 291 
 URE  HZ I         410 46.07        46.6 0.14            111            265 291 
 GUY2CHZ EP        410 20.22                             108    0.64 7  294 231 
 GUY2CHN ES   1    410 52.47                             108    0.22 5  294 231 
 GUY2CHZ I         411  2.17        25.8 0.46                           294 231 
 LL6C HZ EP   9    410  3.63                             107   -17.7 0  314   1 
 LL6C HN ES        410 35.43                                   -2.24 7  314   1 
 LL6C HZ I         410 54.73        18.4 0.54            107            314   1 
 CBOC HZ EP        410 22.60                             106    0.23 7  321 249 
 CBOC HE ES        410 57.38                             106    0.17 7  321 249 
 CBOC HZ I         411  0.61        11.5 0.21            106            321 249 
 DBB  HZ EP        410 22.27                             106   -0.10 7  322 273 
 DBB  HZ ES   1    410 56.84                             106   -0.37 5  322 273 
 DBB  HZ I         410 59.63        21.4 0.24            106            322 273 
 ELA  HZ EP        410 25.49                             106    2.39 7  324 226 
 ELA  HN ES   4    410 55.87                             106   -2.64 0  324 226 
 ELA  HZ I         411 11.67        17.0 0.69            106            324 226 
 PTGC HZ EP        410 20.83                             106   -1.70 7  325 157 
 PTGC HN ES   4    410 54.35                             106   -3.15 0  325 157 
 PTGC HZ I         410 59.87        31.3 0.40            107            325 157 
 ARGC HZ EP        410 26.55                             105    1.71 7  344 342 
 ARGC HN ES        411  2.77                             105    1.16 7  344 342 
 ARGC HZ I         411 12.01        14.1 0.34            106            344 342 
 SJC  HZ EP        410 29.41                             102   -1.13 6  392 328 
 SJC  HN ES   4    411  8.95                             102   -2.80 0  392 328 
 SJC  HZ I         411 12.40        14.0 0.42            103            392 328 
 ORTC HZ EP        410 31.62                             102    0.77 6  394 213 
 ORTC HN ES        411 13.06                             102    0.76 6  394 213 
 ORTC HZ I         411 19.65        12.3 0.22            103            394 213 
 PAL  HZ EP        410 30.68                             102   -0.52 6  397 237 
 PAL  HE ES        411 13.10                             102    0.16 6  397 237 
 PAL  HZ I         411 16.36         7.3 0.36            103            397 237 
 CRJC HZ EP        410 37.62                             100   -0.98 5  459   6 
 CRJC HN ES        411 26.11                             100    0.01 5  459   6 
 CRJC HZ I         411 31.98        26.5 0.26            101            459   6 
 SMAR HZ EP   1    410 42.55                              99    1.12 3  483 348 
 SMAR HN ES   1    411 30.17                              99   -0.97 3  483 348 
 URI  HZ EP        410 49.28                              97   -0.29 4  551  15 
                                                                                
