 2016 1214 0748 57.0 L   6.754 -73.177147.8  RSN  5 0.3 1.1LRSN                1
 GAP=230        0.81       6.3     5.7  6.5  0.2239E+02  0.5079E+01  0.8672E-01E
 Epicentro: LOS SANTOS - SANTANDER                                             3
 ACTION:UPD 17-01-11 20:15 OP:rebc STATUS:               ID:20161214074857 L   I
 OLDACT:UP  16-12-14 19:33 OP:and  STATUS:               ID:20161214074744     3
 OLDACT:REG 16-12-14 12:43 OP:and  STATUS:               ID:20161214074744     3
 2016-12-14-0748-00M.COL___374                                                 6
 STAT SP IPHASW D HRMM SECON CODA AMPLIT PERI AZIMU VELO AIN AR TRES W  DIS CAZ7
 BAR2 EZ EP        749 16.58                             173   -0.2110 17.9 182 
 BAR2 EZ ES        749 31.67                             173   -0.5510 17.9 182 
 BAR2 EZ I         749 48.74         4.4 0.60            177           17.9 182 
 BRR  HZ EP        749 18.44                             153    0.0810 70.9 303 
 BRR  HN ES        749 35.50                             153    0.4810 70.9 303 
 RUS  HZ EP        749 20.89                             146    0.2710 95.8 174 
 RUS  HN ES        749 39.31                             146    0.2610 95.8 174 
 RUS  HZ I         749 40.78         1.3 0.32            156           95.8 174 
 PTB  HZ EP        749 23.48                             133   -0.28 9  143 261 
 PTB  HN ES        749 44.54                             133   -0.09 9  143 261 
 PTB  HZ I         749 51.98         1.2 0.13            141            143 261 
 ZAR  HZ EP   4    749 31.04                             123    1.58 0  203 294 
 ZAR  HN ES        749 54.75                             123   -0.03 9  203 294 
 ZAR  HZ I         750  1.22         1.5 0.26            131            203 294 
                                                                                
