 2017  514 0429 26.5 L   6.745 -73.109137.6  RSN  5 0.3 1.5LRSN                1
 GAP=144        0.67       5.5     3.3  5.9  0.1584E+01  0.1323E+01  0.1252E+02E
 Epicentro: LOS SANTOS - SANTANDER                                             3
 ACTION:UPD 17-06-16 13:36 OP:jn   STATUS:               ID:20170514042926 L   I
 OLDACT:REG 17-05-14 13:00 OP:lv   STATUS:               ID:20170514042734     3
 2017-05-14-0428-00M.COL___359                                                 6
 STAT SP IPHASW D HRMM SECON CODA AMPLIT PERI AZIMU VELO AIN AR TRES W  DIS CAZ7
 BRR  HZ EP        429 46.66                             149   -0.4810 77.8 301 
 BRR  HN ES        430  3.45                             149    0.1910 77.8 301 
 BRR  HZ I         430  7.49        15.2 0.04            156           77.8 301 
 PAM  EZ EP        429 47.94                             148   -0.0310 79.8  34 
 PAM  EN ES        430  4.82                             148    0.0810 79.8  34 
 PAM  EZ I         430  7.44         4.8 0.57            159           79.8  34 
 RUS  HZ EP        429 48.98                             144    0.0210 94.3 178 
 RUS  HZ I         430  7.72         3.7 0.58            131           94.3 178 
 PTB  HZ EP   9    429 51.30                             129   -1.76 0  151 261 
 PTB  HN ES        430 11.84                                   -0.20 9  151 261 
 PTB  HZ I         430 15.38         2.5 0.16            129            151 261 
 ZAR  HZ EP        429 59.48                             120    0.44 8  210 293 
 ZAR  HN ES        430 24.31                             120   -0.13 8  210 293 
 ZAR  HZ I         430 26.01         4.5 0.07            125            210 293 
 SJC  HZ EP   4    430 19.45                             104   -3.19 0  417 327 
 SJC  HN ES   4    431  0.65                             104   -5.80 0  417 327 
                                                                                
