 2012 1114 0525 57.1 L   6.770 -73.124148.4  RSN  7 0.4 1.5LRSN                1
 GAP=141        0.77       4.9     4.6  7.4 -0.3852E+01  0.1075E+02  0.2161E+01E
 Epicentro: LOS SANTOS - SANTANDER                                             3
 ACTION:UPD 12-12-05 15:33 OP:}ep  STATUS:               ID:20121114052557 L   I
 2012-11-14-0520-00M.COL___230                                                 6
 STAT SP IPHASW D HRMM SECON CODA AMPLIT PERI AZIMU VELO AIN AR TRES W  DIS CAZ7
 BAR2 SZ EP   1    526 17.10                             172    0.10 7 20.7 198 
 BAR2 SZ ES   1    526 32.58                             172    0.06 7 20.7 198 
 BAR2 SZ I         526 33.73         9.4 0.17                          20.7 198 
 GIR2 SZ EP   1    526 17.18                             166   -0.01 7 35.0 347 
 GIR2 SZ ES   1    526 33.20                             166    0.34 7 35.0 347 
 PAM  SZ EP   1    526 19.89                             151    0.22 7 78.5  37 
 PAM  SN ES   1    526 37.20                             151   -0.06 7 78.5  37 
 PAM  SZ I         526 39.28         5.8 0.20                          78.5  37 
 RUS  HZ EP   1    526 20.93                             145    0.06 7 97.1 177 
 RUS  HN ES   1    526 39.00                             145   -0.41 7 97.1 177 
 RUS  HZ I         526 40.90         2.6 0.44                          97.1 177 
 PTB  HZ EP   1    526 23.89                             132   -0.56 7  150 260 
 PTB  HN ES   1    526 45.22                             132   -0.56 7  150 260 
 PTB  HZ I         526 46.69         5.9 0.30                           150 260 
 ZAR  HN ES   1    526 55.73                             122   -0.08 6  208 293 
 ZAR  HZ I         527  1.53         4.3 0.14                           208 293 
 NOR  HE ES   1    527  2.09                             119    1.10 6  235 235 
 MON  HN ES   4    527 23.10                             109   -2.23 0  358 309 
                                                                                
