 2012 1214 0019 34.0 L   7.073 -73.222 13.2  RSN  5 0.4 1.1LRSN                1
 GAP=191        0.78       3.8     4.9  3.9  0.5542E+01  0.1188E+02  0.6986E+01E
 Epicentro: GIRON - SANTANDER                                                  3
 ACTION:UPD 13-01-04 14:27 OP:ep   STATUS:               ID:20121214001934 L   I
 2012-12-14-0017-41M.COL___212                                                 6
 STAT SP IPHASW D HRMM SECON CODA AMPLIT PERI AZIMU VELO AIN AR TRES W  DIS CAZ7
 GIR2 SZ IP     D  019 36.82                             165    0.2610 3.22  77 
 GIR2 SZ ES   1    019 38.04                             165   -0.49 7 3.22  77 
 GIR2 SZ I         019 39.10        53.5 0.16                          3.22  77 
 BAR2 SZ EP   1    019 43.04                             101   -0.05 7 53.3 175 
 BAR2 SZ ES   1    019 49.74                             101   -0.40 7 53.3 175 
 BAR2 SZ I         019 50.73         7.6 0.21                          53.3 175 
 RUS  HZ EP   1    019 55.77                              94    0.67 7  131 173 
 RUS  HN ES   1    020 11.76                              94    0.23 7  131 173 
 PTB  HZ EP   1    019 57.37                              56    0.26 7  149 247 
 PTB  HN ES   1    020 14.68                              56   -0.42 7  149 247 
 PTB  HZ I         020 15.61         3.5 0.18                           149 247 
 TAM  HN ES   2    020 20.08                              56   -0.53 4  173 114 
                                                                                
