 2012  314 0401 36.7 L   6.757 -73.152150.1  RSN  6 0.4 1.5LRSN                1
 GAP=138        1.04       7.2     6.3 11.8  0.3819E+01  0.1056E+02  0.6133E+01E
 ACTION:UP  12-03-31 23:19 OP:EP   STATUS:               ID:20120314040136 L   I
 2012-03-14-0400-00M.COL___202                                                 6
 STAT SP IPHASW D HRMM SECON CODA AMPLIT PERI AZIMU VELO SNR AR TRES W  DIS CAZ7
 BAR2 SZ EP   1    4 1 56.82                             173     0.1 7   18 190 
 BAR2 SZ I         4 1 57.00         6.3 0.14                            18 190 
 BRR  HZ EP        4 1 58.75                             153     0.310   73 302 
 BRR  HN ES   1    4 2 16.15                             153     0.8 7   73 302 
 BRR  HZ I         4 2 18.40        13.7 0.13                            73 302 
 PAM  SZ EP   1    4 1 59.59                             150     0.0 7   82  38 
 PAM  SN ES   1    4 2 16.87                             150    -0.6 7   82  38 
 PAM  SZ I         4 2 19.16         3.9 0.23                            82  38 
 RUS  HZ EP   1    4 2  0.73                             146     0.2 7   96 175 
 RUS  HN ES   1    4 2 19.04                             146    -0.1 7   96 175 
 RUS  HZ I         4 2 20.66         2.5 0.33                            96 175 
 PTB  HZ EP   1    4 2  3.48                             133    -0.4 7  146 261 
 PTB  HN ES   1    4 2 24.60                             133    -0.5 7  146 261 
 PTB  HZ I         4 2 30.66         3.5 0.13                           146 261 
 ZAR  HN ES   1    4 2 34.90                             123    -0.3 6  205 293 
 ZAR  HZ I         4 2 41.01         4.2 0.35                           205 293 
                                                                                
