 2015  714 0228  1.5 L   6.831 -73.099146.1  RSN  9 0.4 1.9LRSN                1
 GAP=205        0.77       2.6     4.5  5.1  0.1899E+01  0.9352E+01 -0.2546E-02E
 Epicentro: LOS SANTOS - SANTANDER                                             3
 ACTION:UPD 15-09-08 21:48 OP:cam  STATUS:               ID:20150714022801 L   I
 OLDACT:REG 15-07-14 14:04 OP:spq  STATUS:               ID:20150714021747     3
 2015-07-14-0217-47M.COL___340                                                 6
 STAT SP IPHASW D HRMM SECON CODA AMPLIT PERI AZIMU VELO AIN AR TRES W  DIS CAZ7
 BAR2 EZ EP        228 21.42                             169    0.1210 27.9 199 
 BAR2 EZ ES        228 36.82                             169    0.1010 27.9 199 
 BAR2 EZ I         228 38.08        13.8 0.18            164           27.9 199 
 RUS  HZ EP        228 25.39                             143   -0.1510  104 179 
 RUS  HN ES        228 44.28                             143    0.0110  104 179 
 RUS  HZ I         228 47.25         4.2 0.36            144            104 179 
 ZAR  HZ EP        228 34.22                             122   -0.14 8  208 291 
 ZAR  HE ES        228 59.67                             122   -0.29 8  208 291 
 ZAR  HZ I         229  5.75         8.4 0.30            122            208 291 
 NOR  HZ EP        228 37.38                             118   -0.56 8  241 235 
 NOR  HE ES        229  5.81                             118   -0.53 8  241 235 
 NOR  HZ I         229 13.93         5.3 0.20            118            241 235 
 SML  HZ EP        228 38.24                             118    0.16 8  243 334 
 SML  HN ES        229  6.59                             118    0.01 8  243 334 
 SML  HZ I         229  9.95        15.1 0.22            119            243 334 
 CHI  HZ EP        228 39.84                             117    0.09 8  253 196 
 CHI  HN ES        229  9.61                             117    0.04 8  253 196 
 CHI  HZ I         229 14.31         2.4 0.30            118            253 196 
 HEL  HZ EP        228 43.03                             114    0.63 7  278 255 
 HEL  HN ES   4    229 15.67                             114    1.39 0  278 255 
 HEL  HZ I         229 20.58         4.0 0.28            115            278 255 
 GUY2CHZ EP        228 45.81                             112   -0.04 7  307 235 
 GUY2CHN ES        229 21.46                             112    1.05 7  307 235 
 GUY2CHZ I         229 28.64         4.2 0.28                           307 235 
 PRA  HZ EP        228 55.65                             106   -0.06 6  398 210 
 PRA  HN ES        229 37.66                             106   -0.30 6  398 210 
 PRA  HZ I         229 42.84         2.5 0.64            107            398 210 
                                                                                
