 2013  714 0431 37.2 L   6.805 -73.105147.8  RSN 15 0.4 1.8LRSN                1
 GAP=141        0.95       3.0     3.9  4.9 -0.2241E+01  0.3678E+01  0.2105E+01E
 Epicentro: LOS SANTOS - SANTANDER                                             3
 ACTION:UPD 13-08-12 10:37 OP:ep   STATUS:               ID:20130714043137 L   I
 OLDACT:REG 13-07-14 07:23 OP:nd   STATUS:               ID:20130714042959     3
 2013-07-14-0429-59M.COL___267                                                 6
 STAT SP IPHASW D HRMM SECON CODA AMPLIT PERI AZIMU VELO AIN AR TRES W  DIS CAZ7
 BAR2 SZ EP        431 57.09                             170   -0.0410 25.0 200 
 BAR2 SZ ES        432 12.25                             170   -0.4010 25.0 200 
 BAR2 SZ I         432 15.11        10.0 0.32            168           25.0 200 
 GIR2 SZ EP        431 57.12                             167   -0.0310 31.8 342 
 GIR2 SZ ES        432 12.73                             167    0.0410 31.8 342 
 GIR2 SZ I         432 13.97        12.2 0.10            166           31.8 342 
 PAM  SZ EP        431 59.77                             152    0.3010 74.2  37 
 PAM  SN ES        432 16.54                             152   -0.2710 74.2  37 
 PAM  SZ I         432 18.12         4.0 0.16            157           74.2  37 
 BRR  HZ IP     C  431 59.05                             152    0.2510 74.9 297 
 BRR  HN ES        432 16.15                             152    0.5310 74.9 297 
 BRR  HZ I         432 20.05         7.7 0.12            149           74.9 297 
 RUS  HZ EP        432  1.02                             144   -0.1810  101 179 
 RUS  HN ES        432 19.89                             144   -0.0010  101 179 
 RUS  HZ I         432 22.59         5.5 0.38            146            101 179 
 PTB  HZ EP        432  4.15                             132   -0.61 9  152 259 
 PTB  HN ES        432 25.32                             132   -0.92 9  152 259 
 PTB  HZ I         432 32.52        14.2 0.46            131            152 259 
 OCA  HZ EP        432  5.43                             130   -0.26 9  160 352 
 OCA  HN ES        432 28.35                             130    0.45 9  160 352 
 OCA  HZ I         432 32.07        10.8 0.32            132            160 352 
 SPBC HZ EP        432  6.22                             129    0.04 9  166 220 
 SPBC HN ES        432 29.56                             129    0.79 9  166 220 
 ZAR  HZ EP   2    432 10.36                             122    0.16 4  208 292 
 ZAR  HE ES        432 35.84                             122   -0.09 8  208 292 
 ZAR  HZ I         432 42.25         7.4 0.28            123            208 292 
 NOR  HZ EP        432 13.38                             118   -0.11 8  239 235 
 NOR  HN ES        432 42.19                             118    0.41 8  239 235 
 NOR  HZ I         432 45.43         6.8 0.20            119            239 235 
 SML  HZ EP   4    432 16.58                             118    2.47 0  245 334 
 SML  HN ES   4    432 42.05                             118   -0.83 0  245 334 
 SML  HZ I         432 44.99        14.1 0.10            119            245 334 
 CHI  HZ EP        432 15.39                             117    0.17 8  250 196 
 CHI  HN ES   2    432 44.97                             117    0.11 4  250 196 
 CHI  HZ I         432 49.74         3.7 0.62            119            250 196 
 HEL  HZ EP   4    432 18.65                             115    0.62 0  277 256 
 HEL  HN ES   4    432 51.88                             115    2.02 0  277 256 
 HEL  HZ I         432 56.34         5.6 0.34            115            277 256 
 GUY2CHZ EP   4    432 22.16                             112    0.79 0  305 235 
 GUY2CHN ES   4    432 57.73                             112    1.92 0  305 235 
 GUY2CHZ I         433  2.14         3.6 0.30                           305 235 
 SJC  HZ EP   4    432 31.31                             106   -1.77 0  411 326 
 SJC  HN ES   4    433  6.34                             106   -10.3 0  411 326 
 SJC  HZ I         433 13.89         1.3 0.48            107            411 326 
                                                                                
