 2012  614 0003 10.8 L   6.787 -73.175151.5  RSN  5 0.4 1.2LRSN                1
 GAP=133        0.81       6.0     5.1  9.0 -0.2496E+00  0.1287E+02 -0.4144E+01E
 Epicentro: LOS SANTOS - SANTANDER                                             3
 ACTION:UPD 12-08-06 17:49 OP:ep   STATUS:               ID:20120614000310 L   I
 2012-06-14-0000-00M.COL___201                                                 6
 STAT SP IPHASW D HRMM SECON CODA AMPLIT PERI AZIMU VELO AIN AR TRES W  DIS CAZ7
 BAR2 SZ EP   1    0 3 30.38                             171   -0.68 7 21.6 182 
 BAR2 SZ ES   1    0 3 47.12                             171    0.23 7 21.6 182 
 BAR2 SZ I         0 3 47.66         6.0 0.36                          21.6 182 
 PAM  SZ EP   1    0 3 34.30                             151    0.51 7 80.6  41 
 PAM  SN ES   1    0 3 51.38                             151   -0.36 7 80.6  41 
 RUS  HZ EP   1    0 3 35.17                             145    0.15 7 99.5 174 
 RUS  HN ES   1    0 3 54.20                             145    0.27 7 99.5 174 
 RUS  HZ I         0 3 57.42         1.6 0.48                          99.5 174 
 PTB  HZ EP   1    0 3 37.71                             134   -0.20 7  144 259 
 PTB  HN ES   1    0 3 58.67                             134   -0.40 7  144 259 
 PTB  HZ I         0 4  5.79         2.2 0.28                           144 259 
 ZAR  HN ES   1    0 4  9.31                             124    0.56 6  202 293 
                                                                                
