 2012  514 0319 52.5 L   6.778 -73.128140.8  RSN  9 0.4 1.9LRSN                1
 GAP=140        0.89       4.2     4.8  7.1 -0.6379E+00  0.1226E+02  0.4047E+01E
 Epicentro: LOS SANTOS - SANTANDER                                             3
 ACTION:UP  12-07-05 12:05 OP:pat  STATUS:               ID:20120514031952 L   I
 2012-05-14-0320-00M.COL___195                                                 6
 STAT SP IPHASW D HRMM SECON CODA AMPLIT PERI AZIMU VELO SNR AR TRES W  DIS CAZ7
 BAR2 SZ EP   1    320 11.47                             171     0.0 7   21 196 
 BAR2 SZ ES   1    320 26.35                             171     0.1 7   21 196 
 BAR2 SZ I         320 27.40        26.6 0.31                            21 196 
 BRR  HZ EP   1    320 13.34                             151     0.1 7   74 299 
 BRR  HE ES   1    320 30.11                             151     0.6 7   74 299 
 BRR  HZ I         320 31.50        20.1 0.20                            74 299 
 PAM  SZ EP   1    320 14.44                             150     0.2 7   78  37 
 PAM  SE ES   1    320 31.08                             150    -0.1 7   78  37 
 RUS  HZ EP   1    320 15.38                             143    -0.2 7   98 177 
 RUS  HN ES   1    320 33.60                             143     0.0 7   98 177 
 RUS  HZ I         320 35.38        11.5 0.41                            98 177 
 PTB  HZ EP   1    320 18.29                             131    -0.9 7  149 260 
 PTB  HN ES   1    320 39.50                             131    -0.5 7  149 260 
 PTB  HZ I         320 42.69         9.2 0.09                           149 260 
 OCA  HN ES   1    320 41.99                             128    -0.7 7  163 353 
 ZAR  HZ EP   1    320 25.60                             121     0.7 6  207 293 
 ZAR  HE ES   1    320 50.13                             121     0.0 6  207 293 
 HEL  HZ EP   1    320 33.13                             114     0.5 6  273 256 
 HEL  HN ES   1    321  4.16                             114     0.3 6  273 256 
 HEL  HZ I         321 11.32         5.3 0.44                           273 256 
 PRA  HZ EP   1    320 46.04                             106     0.3 4  391 210 
 PRA  HN ES   1    321 26.76                             106    -0.4 4  391 210 
                                                                                
