 2017 1014 0658 24.5 L   6.579 -73.643 97.2  RSN  5 0.3 0.7LRSN                1
 GAP=126        0.88       4.9     4.0  7.3  0.1137E+02  0.1190E+02  0.9261E+01E
 Epicentro: EL CARMEN - SANTANDER                                              3
 ACTION:UPD 17-11-07 19:31 OP:rebc STATUS:               ID:20171014065824 L   I
 OLDACT:REG 17-10-14 11:35 OP:osc  STATUS:               ID:20171014065241     3
 2017-10-14-0658-00M.COL___405                                                 6
 STAT SP IPHASW D HRMM SECON CODA AMPLIT PERI AZIMU VELO AIN AR TRES W  DIS CAZ7
 BAR2 EZ EP        658 38.93                             151   -0.6410 51.0  88 
 BAR2 EZ ES        658 51.45                             151    0.1010 51.0  88 
 BRR  HZ EP   4    658 38.68                             147   -1.06 0 58.8 353 
 BRR  HE ES        658 51.62                             147   -0.0310 58.8 353 
 BRR  HZ I         658 59.07         1.0 0.17            148           58.8 353 
 PTB  HZ EP        658 41.93                             134   -0.3110 90.0 267 
 PTB  HN ES        658 55.90                             134   -0.2010 90.0 267 
 PTB  HZ I         658 57.37         1.3 0.24            140           90.0 267 
 RUS  HZ EP        658 43.66                             132    0.0610 98.0 141 
 RUS  HN ES        658 58.95                             132    0.4210 98.0 141 
 RUS  HZ I         659  1.63         2.1 0.16            138           98.0 141 
 ZAR  HZ EP        658 50.49                             116    0.29 9  168 307 
 ZAR  HN ES        659 10.71                             116    0.44 9  168 307 
                                                                                
