 2017 1114 0019 36.9 L   6.862 -73.120143.3  RSN  8 0.4 1.3LRSN                1
 GAP=136        1.07       4.6     5.0  6.5 -0.4647E+01  0.6043E+01  0.1033E+02E
 Epicentro: LOS SANTOS - SANTANDER                                             3
 ACTION:UPD 17-12-12 19:55 OP:rebc STATUS:               ID:20171114001936 L   I
 OLDACT:REG 17-11-14 12:32 OP:y    STATUS:               ID:20171114001743     3
 2017-11-14-0018-00M.COL___453                                                 6
 STAT SP IPHASW D HRMM SECON CODA AMPLIT PERI AZIMU VELO AIN AR TRES W  DIS CAZ7
 BAR2 EZ EP        019 55.96                             167   -0.4310 30.6 193 
 BAR2 EZ ES        020 11.26                             167   -0.3410 30.6 193 
 BAR2 EZ I         020 12.39         4.9 0.56            166           30.6 193 
 PAM  EZ EP        019 58.97                             153    0.5310 70.4  41 
 PAM  EN ES        020 15.42                             153    0.1810 70.4  41 
 PAM  EZ I         020 17.77         3.1 0.44            156           70.4  41 
 BRR  HZ EP        019 57.96                             152    0.2110 70.8 293 
 BRR  HN ES        020 14.32                             152    0.3110 70.8 293 
 RUS  HZ EP        020  0.34                             141   -0.5610  107 178 
 RUS  HN ES        020 19.79                             141    0.1710  107 178 
 RUS  HZ I         020 21.05         2.6 0.32            141            107 178 
 PTB  HZ EP        020  3.39                             130   -0.65 9  152 257 
 PTB  HN ES        020 24.64                             130   -0.58 9  152 257 
 PTB  HZ I         020 29.46         2.9 0.52            131            152 257 
 NOR  HZ EP        020 13.59                             117    0.43 8  241 234 
 NOR  HN ES        020 42.19                             117    0.75 8  241 234 
 NOR  HZ I         020 43.80         2.4 0.40            118            241 234 
 CHI  HZ EP        020 15.02                             116   -0.23 8  256 195 
 CHI  HN ES        020 45.40                             116    0.23 8  256 195 
 CHI  HZ I         020 51.98         1.2 0.40            116            256 195 
 PRA  HN EP        020 31.10                             106   -0.09 6  399 209 
 PRA  HE ES        021 14.30                             106    0.77 6  399 209 
                                                                                
