 2011 1114 0908 10.2 L   6.825 -73.128143.4  RSN  4 0.4 1.3LRSN                1
 GAP=241        0.83      13.2    15.5  8.2  0.1757E+03  0.2363E+02  0.1972E+01E
 Epicentro: LOS SANTOS - SANTANDER                                             3
 ACTION:UPD 12-07-13 16:10 OP:ep   STATUS:               ID:20111114090810 L   I
 2011-11-14-0906-35S.COL___179                                                 6
 STAT SP IPHASW D HRMM SECON CODA AMPLIT PERI AZIMU VELO AIN AR TRES W  DIS CAZ7
 BAR2 SZ ES        9 8 44.34                             168   -0.3910 26.5 193 
 BRR  HZ EP   1    9 8 30.93                             152   -0.16 7 71.6 296 
 BRR  HE ES   1    9 8 48.05                             152    0.64 7 71.6 296 
 BRR  HZ I         9 8 51.89         5.4 0.17                          71.6 296 
 RUS  HZ EP   1    9 8 34.47                             142    0.58 7  103 177 
 RUS  HZ I         9 8 51.83         1.5 0.64                           103 177 
 RUS  HN ES   1    9 8 52.35                             142   -0.04 7  103 177 
 ZAR  HZ EP   1    9 8 42.12                             121   -0.42 6  205 291 
 ZAR  HN ES   1    9 9  7.76                             121   -0.03 6  205 291 
 ZAR  HZ I         9 9 13.31         3.1 0.26                           205 291 
                                                                                
