 2012 1214 0257 37.4 L   6.149 -73.699102.2  RSN  5 0.2 0.9LRSN                1
 GAP=116        0.44       2.8     2.7  7.0  0.2584E+01  0.6465E+01  0.6209E+01E
 Epicentro: LANDAZURI - SANTANDER                                              3
 ACTION:UPD 13-01-04 14:27 OP:ep   STATUS:               ID:20121214025737 L   I
 2012-12-14-0250-00M.COL___242                                                 6
 STAT SP IPHASW D HRMM SECON CODA AMPLIT PERI AZIMU VELO AIN AR TRES W  DIS CAZ7
 RUS  HZ EP   1    257 54.77                             141   -0.14 7 73.8 113 
 RUS  HN ES   1    258  8.60                             141    0.00 7 73.8 113 
 RUS  HZ I         258 10.77         0.9 0.52                          73.8 113 
 BAR2 SZ EP   1    257 54.53                             141   -0.14 7 75.3  49 
 BAR2 SZ ES   1    258  8.11                             141   -0.05 7 75.3  49 
 BAR2 SZ I         258  9.66         7.5 0.18                          75.3  49 
 PTB  HZ EP   1    257 56.03                             133    0.09 7 94.3 297 
 PTB  HN ES   1    258 10.18                             133   -0.24 7 94.3 297 
 PTB  HZ I         258 12.98         1.6 0.07                          94.3 297 
 BRR  HE ES   1    258 12.60                             130    0.33 7  106 359 
 CHI  HN ES   2    258 25.01                             116    0.42 5  168 181 
                                                                                
