 2016  114 0402  5.6 L   6.797 -73.118147.9  RSN 11 0.4 1.8LRSN                1
 GAP=140        0.90       2.7     3.5  5.1 -0.1664E+01  0.4310E+01  0.1807E+01E
 Epicentro: LOS SANTOS - SANTANDER                                             3
 ACTION:UPD 16-03-09 23:25 OP:cam  STATUS:               ID:20160114040205 L   I
 OLDACT:UP  16-01-14 15:04 OP:mh   STATUS:               ID:20160114035751d    3
 OLDACT:UP  16-01-14 15:03 OP:mh   STATUS:               ID:20160114035751d    3
 OLDACT:DUP 16-01-14 14:58 OP:mh   STATUS:               ID:20160114035751d    3
 2016-01-14-0357-49M.COL___334                                                 6
 STAT SP IPHASW D HRMM SECON CODA AMPLIT PERI AZIMU VELO AIN AR TRES W  DIS CAZ7
 BAR2 EZ EP        4 2 25.35                             170   -0.1710 23.7 197 
 BAR2 EZ ES        4 2 40.71                             170   -0.3410 23.7 197 
 BAR2 EZ I         4 2 42.28        18.5 0.15            169           23.7 197 
 BRR  HZ EP        4 2 27.67                             152    0.5010 74.1 298 
 BRR  HN ES        4 2 44.37                             152    0.4010 74.1 298 
 BRR  HZ I         4 2 45.18         7.6 0.12            151           74.1 298 
 PAM  EZ EP        4 2 28.49                             152    0.5110 75.7  38 
 PAM  EN ES        4 2 45.69                             152    0.2810 75.7  38 
 PAM  EZ I         4 2 47.53        10.9 0.46            154           75.7  38 
 RUS  HZ EP        4 2 29.41                             144   -0.1410  100 178 
 RUS  HN ES        4 2 48.39                             144    0.1710  100 178 
 RUS  HZ I         4 2 49.08         8.0 0.22            145            100 178 
 PTB  HZ EP   1    4 2 32.37                             132   -0.66 7  151 259 
 PTB  HE ES   1    4 2 54.42                             132    0.01 7  151 259 
 OCA  HZ EP        4 2 34.06                             130   -0.11 9  161 352 
 OCA  HE ES        4 2 55.54                             130   -0.90 9  161 352 
 SPBC HZ EP        4 2 34.39                             129   -0.06 9  165 220 
 SPBC HN ES        4 2 56.94                             129    0.01 9  165 220 
 SPBC HZ I         4 2 59.33        14.2 0.20            129            165 220 
 ZAR  HN ES        4 3  4.07                             122   -0.10 8  207 292 
 ZAR  HZ I         4 3  9.72         5.9 0.28            123            207 292 
 NOR  HZ EP        4 2 41.89                             119    0.16 8  237 235 
 NOR  HE ES        4 3  9.99                             119    0.10 8  237 235 
 NOR  HZ I         4 3 14.24         5.3 0.20            119            237 235 
 CHI  HZ EP        4 2 43.58                             117    0.08 8  249 196 
 CHI  HN ES        4 3 12.39                             117   -0.65 8  249 196 
 CHI  HZ I         4 3 17.11         2.5 0.74            118            249 196 
 HEL  HZ EP   1    4 2 46.85                             115    0.58 6  275 256 
 HEL  HN ES        4 3 18.07                             115    0.10 8  275 256 
                                                                                
