 2017 1014 0236 57.6 L   6.737 -73.133147.5  RSN  9 0.5 1.5LRSN                1
 GAP=141        0.97       4.9     4.4  6.7  0.2450E+01  0.2670E+01 -0.6004E+01E
 Epicentro: LOS SANTOS - SANTANDER                                             3
 ACTION:UPD 17-11-07 19:31 OP:rebc STATUS:               ID:20171014023657 L   I
 OLDACT:UP  17-10-14 13:18 OP:osc  STATUS:               ID:20171014022738     3
 OLDACT:REG 17-10-14 11:07 OP:osc  STATUS:               ID:20171014022738     3
 2017-10-14-0228-00M.COL___429                                                 6
 STAT SP IPHASW D HRMM SECON CODA AMPLIT PERI AZIMU VELO AIN AR TRES W  DIS CAZ7
 BAR2 EZ EP        237 17.19                             174   -0.1810 16.9 199 
 BAR2 EZ ES        237 33.03                             174    0.2810 16.9 199 
 BAR2 EZ I         237 34.50         3.7 0.04            169           16.9 199 
 BRR  HZ EP        237 19.02                             151   -0.2310 76.0 303 
 BRR  HE ES        237 36.26                             151    0.1510 76.0 303 
 BRR  HZ I         237 39.38         8.9 0.20            149           76.0 303 
 PAM  EZ EP        237 20.17                             149   -0.1610 82.1  36 
 RUS  HZ EP        237 21.32                             147    0.2510 93.5 177 
 RUS  HN ES        237 39.41                             147    0.0710 93.5 177 
 RUS  HZ I         237 41.17         4.1 0.32            146           93.5 177 
 PTB  HZ EP        237 24.57                             133   -0.20 9  148 262 
 PTB  HN ES        237 45.12                             133   -0.81 9  148 262 
 PTB  HZ I         237 50.76         3.3 0.26            131            148 262 
 ZAR  HZ EP        237 30.63                             122    0.01 8  208 294 
 ZAR  HE ES        237 57.22                             122    0.88 8  208 294 
 ZAR  HZ I         238  1.15         5.0 0.34            122            208 294 
 NOR  HZ EP   3    237 34.96                             119    1.78 2  232 236 
 NOR  HE ES        238  0.76                             119   -0.13 8  232 236 
 NOR  HZ I         238  8.49         2.1 0.14            119            232 236 
 CHI  HE ES   3    238  5.62                             118    1.92 2  242 196 
 GUY2CHZ EP   9    237 43.86                             113    2.84 0  298 236 
 GUY2CHN ES        238 17.11                                   -0.58 7  298 236 
 GUY2CHZ I         238 25.59         1.6 0.58                           298 236 
                                                                                
