 2016 1114 0333 31.3 L   6.770 -73.143140.0  RSN 14 0.5 2.0LRSN                1
 GAP=121        1.10       4.3     4.1  6.0 -0.2401E+01  0.4272E+01  0.9954E+01E
 Epicentro: LOS SANTOS - SANTANDER                                             3
 ACTION:UPD 17-10-26 21:07 OP:lp   STATUS:               ID:20161114033331 L   I
 OLDACT:REG 16-11-14 12:53 OP:lv   STATUS:               ID:20161114032744     3
 2016-11-14-0328-00M.COL___338                                                 6
 STAT SP IPHASW D HRMM SECON CODA AMPLIT PERI AZIMU VELO AIN AR TRES W  DIS CAZ7
 BAR2 EZ IP     C  333 50.22                             171    0.0710 20.2 192 
 BAR2 EZ ES        334  4.90                             171    0.0310 20.2 192 
 BAR2 EZ I         334  6.10        22.8 0.36            167           20.2 192 
 BRR  HZ IP     C  333 52.02                             151    0.1110 73.1 301 
 BRR  HE ES        334  8.74                             151    0.7310 73.1 301 
 BRR  HZ I         334 12.70        19.6 0.16            150           73.1 301 
 PAM  EZ EP        333 53.11                             149    0.0810 79.8  38 
 PAM  EN ES        334  9.84                             149   -0.1510 79.8  38 
 PAM  EZ I         334 12.08        25.2 0.46            155           79.8  38 
 PTB  HZ EP        333 57.00                             131   -0.75 9  147 260 
 PTB  HN ES        334 17.99                             131   -0.41 9  147 260 
 PTB  HZ I         334 20.60        14.2 0.14            130            147 260 
 ZAR  HZ EP        334  3.56                             121    0.05 8  206 293 
 ZAR  HE ES        334 28.39                             121   -0.26 8  206 293 
 ZAR  HZ I         334 34.09        11.7 0.13            122            206 293 
 NOR  HZ EP        334  6.63                             118    0.13 8  233 235 
 NOR  HE ES        334 32.99                             118   -0.98 8  233 235 
 NOR  HZ I         334 38.36         7.0 0.12            118            233 235 
 CHI  HZ EP        334  8.89                             116    0.57 8  246 195 
 CHI  HN ES        334 37.22                             116    0.00 8  246 195 
 CHI  HZ I         334 41.30         4.0 0.24            117            246 195 
 ROSC BZ EP   9    334 10.68                             116    1.88 0  250 211 
 ROSC BN ES        334 40.58                                    0.64 8  250 211 
 ROSC BZ I         334 44.89        14.1 0.45            116            250 211 
 PTGC HZ EP        334 13.57                             111   -0.95 7  306 158 
 PTGC HN ES   4    334 45.66                             111   -2.59 0  306 158 
 CBOC HZ EP        334 18.48                             109    0.60 7  333 253 
 CBOC HE ES        334 54.60                             109    0.38 7  333 253 
 CBOC HZ I         335  5.52         2.5 0.33            110            333 253 
 PRA  HN EP   4    334 25.52                             106    1.23 0  389 210 
 PRA  HE ES        335  6.35                             106    0.72 6  389 210 
 PRA  HN I         335 12.19         3.9 0.33            107            389 210 
 ORTC HZ EP        334 25.23                             106    0.52 6  393 216 
 ORTC HE ES   4    335  8.64                             106    2.25 0  393 216 
 ORTC HZ I         335 12.91         3.2 0.22            106            393 216 
 PAL  HZ EP        334 26.47                             105    0.39 6  404 239 
 PAL  HE ES   4    335 13.24                             105    4.41 0  404 239 
 SJC  HZ EP   4    334 24.66                             105   -2.34 0  412 327 
 SJC  HN ES   4    335  5.73                             105   -4.73 0  412 327 
 SJC  HZ I         335  9.10         1.4 0.14            106            412 327 
                                                                                
