 2012 1214 0355 54.9 L   6.761 -73.166140.5  RSN  6 0.4 1.5LRSN                1
 GAP=136        0.82       5.4     4.8  8.0  0.2221E+01  0.7808E+01  0.3725E+00E
 Epicentro: LOS SANTOS - SANTANDER                                             3
 ACTION:UPD 13-01-04 14:27 OP:ep   STATUS:               ID:20121214035554 L   I
 2012-12-14-0350-00M.COL___242                                                 6
 STAT SP IPHASW D HRMM SECON CODA AMPLIT PERI AZIMU VELO AIN AR TRES W  DIS CAZ7
 BAR2 SZ EP   1    356 13.79                             172    0.02 7 18.7 185 
 BAR2 SZ ES   1    356 27.81                             172   -0.71 7 18.7 185 
 BAR2 SZ I         356 29.76        16.5 0.34                          18.7 185 
 BRR  HZ EP   1    356 15.64                             151    0.18 7 71.4 302 
 BRR  HN ES   1    356 32.34                             151    0.82 7 71.4 302 
 PAM  SZ EP   1    356 16.80                             148   -0.02 7 82.2  39 
 PAM  SN ES   1    356 33.73                             148   -0.22 7 82.2  39 
 PAM  SZ I         356 36.11         6.8 0.52                          82.2  39 
 RUS  HZ EP   1    356 18.08                             144    0.28 7 96.5 175 
 RUS  HE ES   1    356 36.06                             144    0.37 7 96.5 175 
 RUS  HZ I         356 38.80         2.3 0.33                          96.5 175 
 PTB  HZ EP   1    356 20.64                             131   -0.49 7  145 260 
 PTB  HN ES   1    356 41.30                             131   -0.31 7  145 260 
 PTB  HZ I         356 44.02         3.2 0.16                           145 260 
 ZAR  HN ES   1    356 51.92                             121   -0.01 6  204 294 
                                                                                
