 2017  214 0213 50.3 L   6.756 -73.150144.1  RSN  9 0.5 1.7LRSN                1
 GAP=121        1.21       4.9     5.2  7.0 -0.1237E+00  0.7038E+01  0.8541E+01E
 Epicentro: LOS SANTOS - SANTANDER                                             3
 ACTION:UPD 17-05-24 15:36 OP:jn   STATUS:               ID:20170214021350 L   I
 OLDACT:UP  17-02-14 14:26 OP:dani STATUS:               ID:20170214020745     3
 OLDACT:REG 17-02-14 12:25 OP:dani STATUS:               ID:20170214020745     3
 2017-02-14-0208-00M.COL___358                                                 6
 STAT SP IPHASW D HRMM SECON CODA AMPLIT PERI AZIMU VELO AIN AR TRES W  DIS CAZ7
 BAR2 EZ EP        214  9.58                             172   -0.0510 18.4 191 
 BAR2 EZ ES        214 24.39                             172   -0.3210 18.4 191 
 BAR2 EZ I         214 25.54        22.9 0.38            170           18.4 191 
 BRR  HZ EP     C  214 11.28                             152   -0.0910 73.2 302 
 BRR  HN ES        214 28.45                             152    0.6310 73.2 302 
 BRR  HZ I         214 29.74        10.7 0.44            151           73.2 302 
 PAM  EZ EP        214 12.48                             149   -0.1010 81.5  38 
 PAM  EN ES        214 29.73                             149   -0.2410 81.5  38 
 PAM  EZ I         214 32.31         9.5 0.40            153           81.5  38 
 RUS  HZ EP        214 13.72                             145    0.1910 95.7 176 
 RUS  HN ES        214 32.20                             145    0.5410 95.7 176 
 RUS  HZ I         214 33.38        10.7 0.48            145           95.7 176 
 PTB  HZ EP        214 16.37                             132   -0.63 9  146 261 
 PTB  HN ES        214 37.11                             132   -0.71 9  146 261 
 PTB  HZ I         214 42.92         8.1 0.66            131            146 261 
 ZAR  HZ EP        214 23.82                             122    1.05 8  205 293 
 CHI  HZ EP        214 27.75                             117    0.38 8  244 195 
 CHI  HE ES        214 56.57                             117    0.28 8  244 195 
 CHI  HZ I         215  1.16         2.4 0.37            118            244 195 
 PTGC HZ EP        214 32.64                             112   -0.94 7  304 158 
 CBOC HZ EP   3    214 38.56                             110    1.65 2  332 253 
 CBOC HN ES        215 12.94                             110   -0.33 7  332 253 
 CBOC HZ I         215 19.75         0.7 0.43            110            332 253 
                                                                                
