 2014 1214 0254 37.7 L   7.195 -74.208 15.0  RSN  8 0.7 1.5LRSN                1
 GAP=106        1.77       4.4     3.4  6.4 -0.3667E+00 -0.5416E+01 -0.4044E+01E
 Epicentro: PUERTO WILCHES - SANTANDER                                         3
 ACTION:UPD 15-02-10 17:03 OP:nd   STATUS:               ID:20141214025437 L   I
 OLDACT:REG 14-12-14 13:47 OP:stll STATUS:               ID:20141214024736     3
 2014-12-14-0247-36M.COL___279                                                 6
 STAT SP IPHASW D HRMM SECON CODA AMPLIT PERI AZIMU VELO AIN AR TRES W  DIS CAZ7
 BRR  HZ EP        254 46.33                             102   -0.5810 55.7 100 
 BRR  HE ES        254 53.00                             102   -1.0910 55.7 100 
 BRR  HZ I         254 57.41        16.6 0.30            102           55.7 100 
 PTB  HZ EP        254 50.17                              98   -0.0110 77.5 201 
 PTB  HN ES        254 59.50                              98   -0.4010 77.5 201 
 PTB  HZ I         254 59.91        26.9 0.22             99           77.5 201 
 ZAR  HZ EP        254 50.98                              98    0.5910 78.9 295 
 ZAR  HN ES        255  0.39                              98    0.1110 78.9 295 
 ZAR  HZ I         255  1.36        17.3 0.44            100           78.9 295 
 BAR2 EZ EP        254 59.84                              95    1.3010  132 120 
 BAR2 EZ I         255 17.50         5.0 0.20             56            132 120 
 OCA  HZ EP        255  1.21                              56    0.06 9  152  40 
 OCA  HN ES        255 18.68                              56   -0.75 9  152  40 
 OCA  HZ I         255 21.73         7.0 0.56             56            152  40 
 PAM  SZ EP        255  4.31                              56    0.78 9  167  84 
 PAM  SZ I         255  4.87         9.7 0.18             56            167  84 
 PAM  SE ES        255 23.55                              56   -0.13 9  167  84 
 HEL  HE ES        255 25.97                              56   -1.02 9  183 233 
 HEL  HZ I         255 31.87         4.3 0.28             56            183 233 
 RUS  HZ EP        255  7.12                              56    0.72 9  190 139 
 RUS  HN ES        255 29.44                              56    0.65 9  190 139 
 RUS  HZ I         255 31.63         7.4 0.38             56            190 139 
                                                                                
