 2017  914 0748 49.1 L   6.942 -72.928  4.0  RSN  6 0.5 1.4LRSN                1
 GAP=159        1.21       2.7     3.8  5.7 -0.4391E+01  0.6604E+01  0.9794E-02E
 Epicentro: SANTA BARBARA - SANTANDER                                          3
 ACTION:UPD 17-10-05 19:12 OP:rebc STATUS:               ID:20170914074849 L   I
 OLDACT:UP  17-09-14 18:04 OP:leo  STATUS:               ID:20170914074743     3
 OLDACT:UP  17-09-14 18:01 OP:leo  STATUS:               ID:20170914074743     3
 OLDACT:UP  17-09-14 18:00 OP:leo  STATUS:               ID:20170914074743     3
 OLDACT:UP  17-09-14 17:59 OP:leo  STATUS:               ID:20170914074743     3
 OLDACT:UP  17-09-14 17:58 OP:leo  STATUS:               ID:20170914074743     3
 OLDACT:UP  17-09-14 17:58 OP:leo  STATUS:               ID:20170914074743     3
 OLDACT:UP  17-09-14 17:52 OP:leo  STATUS:               ID:20170914074743     3
 OLDACT:UP  17-09-14 17:52 OP:leo  STATUS:               ID:20170914074743     3
 OLDACT:REG 17-09-14 11:37 OP:dhb  STATUS:               ID:20170914074743     3
 2017-09-14-0748-00M.COL___410                                                 6
 STAT SP IPHASW D HRMM SECON CODA AMPLIT PERI AZIMU VELO AIN AR TRES W  DIS CAZ7
 BAR2 EZ EP        748 57.09                              47   -0.0810 47.8 216 
 BAR2 EZ ES        749  2.72                              47   -0.7510 47.8 216 
 BAR2 EZ I         749  5.30        28.3 0.58             47           47.8 216 
 PAM  EZ EP        748 57.92                              47    0.0610 50.7  30 
 PAM  EZ IP     D  748 57.94                              47    0.0810 50.7  30 
 PAM  EN ES        749  4.21                              47   -0.5010 50.7  30 
 PAM  EZ I         749  5.06        21.8 0.16             47           50.7  30 
 BRR  HZ EP        749  3.68                              47    0.5810 88.6 282 
 BRR  HN ES        749 13.88                              47   -0.1410 88.6 282 
 RUS  HZ EP        749  8.95                              47    0.9910  117 188 
 RUS  HN ES        749 22.49                              47   -0.1910  117 188 
 RUS  HZ I         749 24.10         4.7 0.26             47            117 188 
 SPBC HZ EP   9    749 19.96                              37    1.67 0  191 222 
 SPBC HN ES        749 42.64                              56   -0.10 9  191 222 
 SPBC HZ I         749 47.75         5.6 0.38             37            191 222 
 ZAR  HZ EP   9    749 23.23                              37    1.17 0  222 286 
 ZAR  HN ES        749 49.24                              37    0.29 8  222 286 
 ZAR  HZ I         749 50.82         2.6 0.32             37            222 286 
                                                                                
