 2010  514 0010  2.2 L   6.784 -73.071151.0  RSN 16 0.5 3.1LRSN                1
 GAP=132        0.93       3.2     5.1  5.9 -0.7989E+01  0.3395E+01  0.2427E+01E
 Epicentro: LOS SANTOS - SANTANDER                                             3
 ACTION:UP  10-08-24 10:04 OP:vdl  STATUS:               ID:20100514001002 L   I
 2010-05-14-0007-47S.COL___105                                                 6
 STAT SP IPHASW D HRMM SECON CODA AMPLIT PERI AZIMU VELO AIN AR TRES W  DIS CAZ7
 BAR2 SZ IP        010 22.36                             170    -0.210   25 211 
 BAR2 SZ ES   2    010 37.98                             170    -0.4 5   25 211 
 BRR  HZ IP     C  010 24.99                             151     0.610   79 297 
 BRR  HZ I         010 25.33       351.8 0.20                            79 297 
 BRR  HN ES   1    010 42.28                             151     0.5 7   79 297 
 RUS  HZ IP     D  010 26.21                             145    -0.210   99 181 
 RUS  HN ES   1    010 45.14                             145     0.0 7   99 181 
 RUS  HZ I         010 46.02        69.4 0.28                            99 181 
 BRI  SZ IP        010 26.95                             143     0.410  107  16 
 GUE  SZ EP        010 27.19                             141    -0.310  117   8 
 GRA  SZ IP        010 28.15                             138     0.210  125  14 
 GRA  SZ ES   1    010 47.65                             138    -0.3 7  125  14 
 OCA  SZ EP        010 30.83                             130    -0.4 9  163 350 
 OCA  SZ ES   2    010 53.76                             130    -0.1 5  163 350 
 OCA  SZ I         010 57.72       157.3 0.39                           163 350 
 CHI  HZ EP        010 40.27                             118     0.0 8  249 197 
 CHI  HE ES   1    011  9.70                             118    -0.3 6  249 197 
 CHI  HZ I         011 17.67        41.7 0.40                           249 197 
 ROSC BZ EP        010 41.05                             117     0.1 8  256 213 
 ROSC BN ES   1    011 11.12                             117     0.0 6  256 213 
 ROSC BZ I         011 20.17        49.5 0.38                           256 213 
 CVER SZ EP   1    010 44.07                             116     1.0 6  274 204 
 CVER SZ ES   3    011 13.26                             116    -1.6 2  274 204 
 HEL  HZ EP        010 43.50                             115    -0.1 7  280 257 
 HEL  HN ES   1    011 14.96                             115    -0.8 6  280 257 
 HEL  HZ I         011 20.82        62.8 0.60                           280 257 
 RREF BZ EP        010 49.39                             111     0.2 7  327 231 
 RREF BN ES   1    011 25.89                             111     0.1 5  327 231 
 RREF BZ I         011 34.61        68.4 0.34                           327 231 
 DBB  SZ EP        010 50.09                             110    -0.8 6  348 274 
 SDV  BZ EP        010 51.65                             109    -0.2 6  355  49 
 ANIL BZ EP        010 53.53                             109     0.7 6  362 226 
 ANIL BE ES   2    011 33.08                             109     0.9 3  362 226 
 ANIL BZ I         011 40.22        81.0 0.42                           362 226 
 PRA  HZ EP        010 55.92                             107    -0.3 6  395 211 
 PRA  HN ES   2    011 37.67                             107    -0.7 3  395 211 
 PRA  HZ I         011 42.30        41.1 0.40                           395 211 
                                                                                
