 2016  414 0707 30.8 L   6.837 -73.158148.3  RSN  6 0.3 1.2LRSN                1
 GAP=145        0.79       4.8     5.6  7.4 -0.1403E+02  0.1596E+02 -0.2522E+01E
 Epicentro: LOS SANTOS - SANTANDER                                             3
 ACTION:UPD 16-05-05 14:21 OP:rebc STATUS:               ID:20160414070730 L   I
 OLDACT:UP  16-04-14 23:50 OP:mh   STATUS:               ID:20160414065750d    3
 OLDACT:DUP 16-04-14 19:05 OP:mh   STATUS:               ID:20160414065750d    3
 2016-04-14-0657-49M.COL___310                                                 6
 STAT SP IPHASW D HRMM SECON CODA AMPLIT PERI AZIMU VELO AIN AR TRES W  DIS CAZ7
 BAR2 EZ EP        7 7 50.33                             169   -0.4710 27.2 186 
 BAR2 EZ I         7 8  7.43         3.2 0.15            170           27.2 186 
 PAM  EZ EP        7 7 53.01                             152   -0.1310 75.2  42 
 PAM  EN ES        7 8 10.81                             152    0.2410 75.2  42 
 PAM  EZ I         7 8 12.67         2.2 0.16            151           75.2  42 
 RUS  HZ EP        7 7 55.59                             143    0.5110  105 175 
 RUS  HN ES        7 8 13.88                             143   -0.1610  105 175 
 RUS  HZ I         7 8 15.34         1.9 0.56            143            105 175 
 PTB  HZ EP   1    7 7 57.34                             133   -0.57 7  147 257 
 PTB  HE ES   1    7 8 19.40                             133    0.33 7  147 257 
 PTB  HZ I         7 8 21.34         2.3 0.71            132            147 257 
 SPBC HZ EP        7 7 59.80                             129    0.10 9  166 218 
 SPBC HN ES        7 8 22.13                             129   -0.12 9  166 218 
 SPBC HZ I         7 8 27.48         3.0 0.54            129            166 218 
 GUY2CHZ EP        7 8 14.94                             113    0.29 7  302 234 
 GUY2CHN ES   4    7 8 50.88                             113    2.01 0  302 234 
 GUY2CHZ I         7 8 57.34         0.9 0.35                           302 234 
                                                                                
