 2017  514 0601  5.4 L   6.820 -73.121151.1  RSN  5 0.3 1.4LRSN                1
 GAP=139        0.69       3.8     3.8  5.7  0.3112E+01  0.7333E+01  0.2383E+01E
 Epicentro: LOS SANTOS - SANTANDER                                             3
 ACTION:UPD 17-06-16 13:36 OP:jn   STATUS:               ID:20170514060105 L   I
 OLDACT:REG 17-05-14 13:06 OP:lv   STATUS:               ID:20170514055726     3
 2017-05-14-0558-00M.COL___353                                                 6
 STAT SP IPHASW D HRMM SECON CODA AMPLIT PERI AZIMU VELO AIN AR TRES W  DIS CAZ7
 BRR  HZ EP        6 1 27.39                             153    0.2310 72.6 296 
 BRR  HN ES        6 1 44.48                             153    0.3110 72.6 296 
 BRR  HZ I         6 1 48.76         3.0 0.07            152           72.6 296 
 PAM  EZ EP        6 1 28.16                             153    0.2110 74.0  39 
 PAM  EE ES        6 1 45.31                             153   -0.2610 74.0  39 
 PAM  EZ I         6 1 47.53         6.2 0.21            155           74.0  39 
 RUS  HZ EP        6 1 29.81                             144    0.0310  103 178 
 RUS  HN ES        6 1 48.64                             144   -0.1910  103 178 
 RUS  HZ I         6 1 50.32         3.7 0.21            148            103 178 
 PTB  HZ EP        6 1 33.28                             133    0.24 9  151 258 
 PTB  HN ES   4    6 1 52.64                             133   -1.99 0  151 258 
 PTB  HZ I         6 1 54.68         3.9 0.32            134            151 258 
 ZAR  HZ EP        6 1 37.85                             123   -0.48 8  206 291 
 ZAR  HE ES        6 2  3.78                             123   -0.26 8  206 291 
 ZAR  HZ I         6 2 10.38         2.8 0.17            125            206 291 
                                                                                
