 2010  514 0226  6.4 L   6.796 -73.111138.7  RSN 15 0.5 2.8LRSN                1
 GAP=128        0.95       3.4     6.1  5.5 -0.9597E+01  0.1932E+01  0.1555E+01E
 Epicentro: LOS SANTOS - SANTANDER                                             3
 ACTION:UP  10-08-24 10:04 OP:vdl  STATUS:               ID:20100514022606 L   I
 2010-05-14-0224-19S.COL___105                                                 6
 STAT SP IPHASW D HRMM SECON CODA AMPLIT PERI AZIMU VELO AIN AR TRES W  DIS CAZ7
 BAR2 SZ EP        226 25.27                             170     0.010   24 199 
 BAR2 SZ ES        226 39.61                             170    -0.310   24 199 
 BRR  HZ EP        226 27.96                             150     0.910   75 297 
 BRR  HN ES   1    226 42.77                             150    -0.3 7   75 297 
 BRR  HZ I         226 49.12       162.4 0.12                            75 297 
 RUS  HZ EP   2    226 29.24                             143    -0.2 5  100 178 
 RUS  HN ES   2    226 47.58                             143     0.2 5  100 178 
 RUS  HZ I         226 49.46        59.1 0.38                           100 178 
 BRI  SZ EP   1    226 29.96                             140     0.4 7  108  19 
 BRI  SZ ES   2    226 48.51                             140     0.9 5  108  19 
 GUE  SZ EP   1    226 30.32                             138    -0.1 7  116  10 
 GUE  SZ ES   2    226 48.98                             138    -0.2 5  116  10 
 GRA  SZ IP        226 31.31                             136     0.310  125  16 
 GRA  SZ ES   2    226 49.69                             136    -0.5 5  125  16 
 OCA  SZ EP        226 33.91                             128    -0.4 9  161 352 
 OCA  SZ ES   1    226 55.59                             128    -0.4 7  161 352 
 OCA  SZ I         227  0.67       147.6 0.30                           161 352 
 CHI  HZ EP   2    226 43.35                             116    -0.5 4  249 196 
 CHI  HE ES   1    227 12.69                             116    -0.3 6  249 196 
 CHI  HZ I         227 19.37        19.3 0.45                           249 196 
 ROSC BZ EP   1    226 45.24                             115     0.9 6  254 212 
 ROSC BN ES   2    227 13.99                             115     0.1 4  254 212 
 ROSC BZ I         227 21.64        25.7 0.35                           254 212 
 CVER SZ EP        226 46.77                             113     0.2 8  273 203 
 CVER SZ ES   2    227 17.09                             113    -0.8 4  273 203 
 HEL  HZ EP   2    226 46.43                             113    -0.3 4  276 256 
 HEL  HE ES   2    227 17.61                             113    -0.5 4  276 256 
 HEL  HZ I         227 24.19        30.1 0.34                           276 256 
 RREF BZ EP   2    226 52.63                             109     0.1 3  324 230 
 RREF BE ES   2    227 28.12                             109    -0.4 3  324 230 
 RREF BZ I         227 38.18        22.0 0.37                           324 230 
 DBB  SZ EP        226 53.85                             108    -0.2 7  343 274 
 SDV  BZ EP        226 55.13                             107    -0.8 6  358  50 
 SDV  BZ I         227 36.77        22.3 0.53                           358  50 
 PRA  HZ EP   2    226 59.15                             105    -0.7 3  394 210 
 PRA  HN ES   2    227 41.15                             105    -0.4 3  394 210 
 PRA  HZ I         227 45.90        29.2 0.28                           394 210 
                                                                                
