 2013  114 0608 15.2 L   6.791 -73.169144.0  RSN  9 0.4 1.9LRSN                1
 GAP=110        0.74       3.7     3.3  6.4  0.1791E+01  0.9734E+00  0.3985E+01E
 Epicentro: LOS SANTOS - SANTANDER                                             3
 ACTION:UPD 13-02-15 09:14 OP:ep   STATUS:               ID:20130114060815 L   I
 2013-01-14-0606-40M.COL___175                                                 6
 STAT SP IPHASW D HRMM SECON CODA AMPLIT PERI AZIMU VELO AIN AR TRES W  DIS CAZ7
 BAR2 SZ EP        6 8 34.61                             171    0.0110 22.1 184 
 BAR2 SZ ES   1    6 8 49.62                             171   -0.11 7 22.1 184 
 BRR  HZ EP   1    6 8 36.36                             153    0.30 7 69.4 300 
 BRR  HN ES   1    6 8 53.14                             153    0.81 7 69.4 300 
 BRR  HZ I         6 8 57.29        23.3 0.26            152           69.4 300 
 RUS  HZ EP   1    6 8 38.87                             144    0.14 7 99.8 175 
 RUS  HN ES   1    6 8 56.87                             144   -0.21 7 99.8 175 
 RUS  HZ I         6 8 59.13        10.6 0.24            146           99.8 175 
 PTB  HZ EP   1    6 8 41.15                             132   -0.63 7  145 259 
 PTB  HN ES   1    6 9  1.80                             132   -0.71 7  145 259 
 PTB  HZ I         6 9  7.28        13.2 0.26            133            145 259 
 TAM  HZ EP   1    6 8 43.04                             130    0.09 7  157 104 
 TAM  HN ES   1    6 9  4.34                             130   -0.26 7  157 104 
 TAM  HZ I         6 9  9.10         5.9 0.52            133            157 104 
 OCA  HN ES   1    6 9  5.28                             129   -0.19 7  161 354 
 OCA  HZ I         6 9  9.17        22.5 0.24            131            161 354 
 ZAR  HN ES   2    6 9 12.19                             122   -0.19 4  202 293 
 CHI  HZ EP   1    6 8 52.99                             117    0.36 6  247 195 
 CHI  HN ES   1    6 9 22.18                             117    0.36 6  247 195 
 CHI  HZ I         6 9 24.84         4.7 0.34            119            247 195 
 HEL  HN ES   1    6 9 26.31                             115    0.23 6  269 256 
 HEL  HZ I         6 9 34.02         4.4 0.52            116            269 256 
                                                                                
