 2013  214 0516 52.1 L   6.765 -73.178148.0  RSN  5 0.4 1.1LRSN                1
 GAP=197        0.71       6.0     6.6  7.8  0.1722E+02  0.1221E+01 -0.4169E+01E
 Epicentro: LOS SANTOS - SANTANDER                                             3
 ACTION:UPD 13-03-12 09:32 OP:ep   STATUS:               ID:20130214051652 L   I
 2013-02-14-0510-00M.COL___241                                                 6
 STAT SP IPHASW D HRMM SECON CODA AMPLIT PERI AZIMU VELO AIN AR TRES W  DIS CAZ7
 BAR2 SZ EP        517 11.73                             172   -0.1510 19.1 182 
 BAR2 SZ ES   2    517 26.79                             172   -0.54 5 19.1 182 
 BRR  HZ EP   1    517 13.53                             153    0.14 7 70.1 303 
 BRR  HN ES   1    517 30.65                             153    0.63 7 70.1 303 
 RUS  HZ EP   1    517 16.07                             145    0.30 7 97.0 174 
 RUS  HE ES   1    517 34.19                             145   -0.08 7 97.0 174 
 RUS  HZ I         517 37.03         1.3 0.32            142           97.0 174 
 PTB  HZ EP        517 18.92                             133    0.09 9  144 260 
 PTB  HN ES   1    517 39.26                             133   -0.45 7  144 260 
 PTB  HZ I         517 45.45         2.3 0.46            130            144 260 
 SML  HN ES   2    517 57.06                             118   -0.82 4  246 336 
                                                                                
