 2012  814 0241  2.4 L   6.604 -73.329118.5  RSN  4 0.2 1.8LRSN                1
 GAP=139        0.47       3.4     4.6  7.2  0.7870E+01  0.1921E+02  0.1564E+00E
 Epicentro: GALAN - SANTANDER                                                  3
 ACTION:UPD 12-09-10 11:56 OP:ep   STATUS:               ID:20120814024102 L   I
 2012-08-14-0237-43M.COL___200                                                 6
 STAT SP IPHASW D HRMM SECON CODA AMPLIT PERI AZIMU VELO AIN AR TRES W  DIS CAZ7
 BAR2 SZ EP   1    241 18.81                             172    0.24 7 16.3  94 
 BAR2 SZ ES   1    241 31.52                             172    0.30 7 16.3  94 
 BAR2 SZ I         241 32.54        20.9 0.32                          16.3  94 
 GIR2 SZ EP   1    241 19.79                             154   -0.05 7 54.6  16 
 GIR2 SZ ES   1    241 33.25                             154   -0.22 7 54.6  16 
 RUS  HE ES        241 37.50                             143   -0.1410 83.2 161 
 RUS  HZ I         241 39.80         3.0 0.25                          83.2 161 
 ZAR  HZ I         241 37.97        27.2 0.09                           195 300 
 ZAR  HN ES        241 55.53                             117   -0.02 9  195 300 
                                                                                
