 2013  614 0315 48.5 L   6.753 -73.196151.5  RSN  5 0.3 1.3LRSN                1
 GAP=196        0.62       4.0     5.5  5.0  0.1035E+02  0.2688E+01 -0.3313E+01E
 Epicentro: VILLANUEVA - SANTANDER                                             3
 ACTION:UPD 14-01-08 09:54 OP:ep   STATUS:               ID:20130614031548 L   I
 OLDACT:UP  13-06-14 09:30 OP:cam  STATUS:               ID:20130614030959     3
 OLDACT:REG 13-06-14 08:00 OP:cam  STATUS:               ID:20130614030959     3
 2013-06-14-0309-59M.COL___261                                                 6
 STAT SP IPHASW D HRMM SECON CODA AMPLIT PERI AZIMU VELO AIN AR TRES W  DIS CAZ7
 BAR2 SZ EP        316  8.49                             173   -0.2210 17.8 175 
 BAR2 SZ ES        316 24.18                             173   -0.3110 17.8 175 
 BAR2 SZ E         316 25.69                                           17.8 175 
 BRR  HZ EP        316 10.27                             154    0.1210 69.1 305 
 BRR  HN ES        316 27.41                             154    0.3710 69.1 305 
 BRR  HZ I         316 31.25         4.7 0.62            153           69.1 305 
 RUS  HZ EP   1    316 12.99                             146    0.50 7 96.0 173 
 RUS  HE ES        316 31.26                             146    0.0510 96.0 173 
 RUS  HZ I         316 31.99         1.3 0.60            150           96.0 173 
 PTB  HZ EP        316 15.22                             135   -0.14 9  141 260 
 PTB  HN ES   1    316 36.11                             135   -0.21 7  141 260 
 PTB  HZ I         316 37.84         2.1 0.28            136            141 260 
 SML  HZ EP   2    316 25.53                             118   -0.18 4  246 337 
 SML  HN ES   1    316 54.63                             118   -0.11 6  246 337 
 SML  HZ I         316 57.58         2.0 0.24            120            246 337 
                                                                                
