 2014  814 0414 25.8 L   6.766 -73.346117.2  RSN  5 0.5 1.3LRSN                1
 GAP=184        1.33       7.4     9.5 11.5  0.1859E+02  0.5647E+02  0.5871E+01E
 Epicentro: ZAPATOCA - SANTANDER                                               3
 ACTION:UPD 14-09-15 21:49 OP:nd   STATUS:               ID:20140814041425 L   I
 OLDACT:UP  14-08-14 14:36 OP:cam  STATUS:               ID:20140814041000     3
 OLDACT:UP  14-08-14 14:36 OP:cam  STATUS:               ID:20140814041000     3
 OLDACT:REG 14-08-14 13:19 OP:cam  STATUS:               ID:20140814041000     3
 2014-08-14-0410-00M.COL___285                                                 6
 STAT SP IPHASW D HRMM SECON CODA AMPLIT PERI AZIMU VELO AIN AR TRES W  DIS CAZ7
 BAR2 SZ EP        414 42.33                             167    0.2810 26.4 137 
 BAR2 SZ ES        414 54.20                             167   -0.5610 26.4 137 
 BAR2 SZ I         414 56.88         6.9 0.24            158           26.4 137 
 BRR  HZ EP     D  414 42.76                             153   -0.1710 55.3 313 
 BRR  HN ES        414 56.98                             153    0.6610 55.3 313 
 BRR  HZ I         414 59.09         4.6 0.46            147           55.3 313 
 PTB  HZ EP        414 47.75                             130   -0.6410  125 259 
 PTB  HZ I         415  9.92         2.5 0.10            120            125 259 
 SPBC HZ EP   4    414 48.82                             125   -1.78 0  147 213 
 SPBC HE ES        415 10.35                             125    0.37 9  147 213 
 SPBC HZ I         415 17.98         1.8 0.30            115            147 213 
 ZAR  HZ EP        414 55.20                             118    0.71 9  185 296 
 ZAR  HE ES        415 16.25                             118   -0.64 9  185 296 
 ZAR  HE I         415 20.25         3.8 0.18            112            185 296 
                                                                                
