 2017  414 0436 58.6 L   6.692 -73.120142.3  RSN  6 0.3 1.0LRSN                1
 GAP=144        0.64       3.8     2.9  4.9  0.5178E-01  0.2416E+01  0.2653E+01E
 Epicentro: JORDAN - SANTANDER                                                 3
 ACTION:UPD 17-05-30 21:11 OP:jn   STATUS:               ID:20170414043658 L   I
 OLDACT:UP  17-04-14 15:47 OP:edw  STATUS:               ID:20170414042741     3
 OLDACT:REG 17-04-14 12:40 OP:edw  STATUS:               ID:20170414042741     3
 2017-04-14-0428-00M.COL___359                                                 6
 STAT SP IPHASW D HRMM SECON CODA AMPLIT PERI AZIMU VELO AIN AR TRES W  DIS CAZ7
 BAR2 EZ EP        437 17.28                             175   -0.3710 13.0 212 
 BAR2 EZ ES        437 32.54                             175    0.0310 13.0 212 
 BRR  HZ EP        437 20.10                             149    0.1910 79.9 305 
 BRR  HN ES        437 36.80                             149    0.2710 79.9 305 
 BRR  HZ I         437 41.24         3.1 0.28            151           79.9 305 
 PAM  EZ EP     D  437 21.15                             148    0.1910 85.4  33 
 PAM  EN ES        437 38.14                             148   -0.2610 85.4  33 
 PAM  EZ I         437 39.98         2.1 0.64            151           85.4  33 
 RUS  HZ EP        437 21.22                             147    0.0510 88.5 177 
 RUS  HE ES   2    437 39.36                             147    0.59 5 88.5 177 
 RUS  HZ I         437 41.41         1.1 0.28            149           88.5 177 
 PTB  HZ EP        437 25.43                             131    0.05 9  149 264 
 PTB  HN ES        437 45.89                             131   -0.38 9  149 264 
 PTB  HZ I         437 48.17         1.6 0.24            134            149 264 
 ZAR  HN ES        437 57.38                             121    0.05 8  211 295 
                                                                                
