 2010  814 0958 47.7 L   6.061 -73.621117.3  RSN  5 0.2 1.3LRSN                1
 GAP=248        0.47       4.8     9.1  7.0  0.2757E+02  0.3885E+02  0.1846E+02E
 Epicentro: CHIPATA - SANTANDER                                                3
 ACTION:UP  10-09-07 10:54 OP:vdl  STATUS:               ID:20100814095847 L   I
 2010-08-14-0955-23S.COL___111                                                 6
 STAT SP IPHASW D HRMM SECON CODA AMPLIT PERI AZIMU VELO SNR AR TRES W  DIS CAZ7
 RUS  HZ IP     D  959  5.97                             150    -0.110   62 107 
 RUS  HZ I         959  6.53         3.7 0.10                            62 107 
 RUS  HE ES   3    959 19.89                             150    -0.4 2   62 107 
 BAR2 SZ EP        959  6.65                             145     0.110   76  39 
 BAR2 SZ ES   1    959 21.24                             145     0.0 7   76  39 
 BAR2 SZ I         959 22.67         7.5 0.52                            76  39 
 BTL  SZ EP        959  8.82                             136     0.210  103  22 
 BTL  SZ ES   1    959 25.10                             136     0.2 7  103  22 
 BRR  HZ EP        959  9.59                             132     0.110  116 355 
 BRR  HE ES   1    959 26.25                             132    -0.2 7  116 355 
 GUE  SZ EP   1    959 19.17                             115    -0.4 6  210  21 
                                                                                
