 2017  414 0232 12.6 L   6.779 -73.153142.8  RSN  7 0.2 1.5LRSN                1
 GAP=137        0.63       2.7     2.7  4.6 -0.4582E+00  0.2916E+01 -0.7220E-01E
 Epicentro: LOS SANTOS - SANTANDER                                             3
 ACTION:UPD 17-05-30 21:11 OP:jn   STATUS:               ID:20170414023212 L   I
 OLDACT:UP  17-04-14 14:36 OP:edw  STATUS:               ID:20170414022740     3
 OLDACT:UP  17-04-14 14:27 OP:edw  STATUS:               ID:20170414022740     3
 OLDACT:REG 17-04-14 12:18 OP:edw  STATUS:               ID:20170414022740     3
 2017-04-14-0228-00M.COL___368                                                 6
 STAT SP IPHASW D HRMM SECON CODA AMPLIT PERI AZIMU VELO AIN AR TRES W  DIS CAZ7
 BAR2 EZ ES        232 46.75                             171   -0.0910 20.9 189 
 BAR2 EZ I         232 48.08         9.0 0.18            173           20.9 189 
 BRR  HZ EP     C  232 33.71                             152    0.2410 71.6 300 
 BRR  HN ES        232 50.10                             152    0.3610 71.6 300 
 BRR  HZ I         232 54.19         4.4 0.20            152           71.6 300 
 PAM  EZ EP        232 34.84                             149    0.1810 79.7  39 
 PAM  EN ES        232 51.56                             149   -0.2910 79.7  39 
 PAM  EZ I         232 53.89         5.9 0.50            151           79.7  39 
 RUS  HZ EP        232 35.88                             144   -0.0410 98.3 175 
 RUS  HN ES        232 54.10                             144    0.0210 98.3 175 
 PTB  HZ EP        232 38.96                             132   -0.28 9  147 260 
 PTB  HN ES        232 59.62                             132   -0.37 9  147 260 
 PTB  HZ I         233  2.39         3.5 0.16            133            147 260 
 SPBC HN ES        233  2.77                             129    0.22 9  161 219 
 ZAR  HN ES        233 10.05                             122   -0.01 9  204 293 
                                                                                
