 2013  914 0330 50.5 L   6.794 -73.141149.8  RSN 10 0.5 1.7LRSN                1
 GAP=183        1.31       4.0     7.0  7.9  0.2914E+01  0.7147E+01 -0.3089E+01E
 Epicentro: LOS SANTOS - SANTANDER                                             3
 ACTION:UPD 13-10-22 09:22 OP:ep   STATUS:               ID:20130914033050 L   I
 OLDACT:REG 13-09-14 08:26 OP:carl STATUS:               ID:20130914032959     3
 2013-09-14-0329-59M.COL___269                                                 6
 STAT SP IPHASW D HRMM SECON CODA AMPLIT PERI AZIMU VELO AIN AR TRES W  DIS CAZ7
 BAR2 SZ EP        331 10.77                             171    0.1210 22.8 192 
 BAR2 SZ ES        331 26.11                             171   -0.2210 22.8 192 
 BAR2 SZ I         331 28.43        10.5 0.28            170           22.8 192 
 BRR  HZ EP        331 12.65                             153    0.4810 71.9 299 
 BRR  HN ES        331 30.09                             153    1.0510 71.9 299 
 BRR  HZ I         331 32.84         7.3 0.38            151           71.9 299 
 RUS  HZ EP        331 15.05                             145    0.4010 99.9 176 
 RUS  HN ES        331 32.44                             145   -1.0110 99.9 176 
 RUS  HZ I         331 36.17         2.9 0.36            148           99.9 176 
 PTB  HZ EP        331 17.56                             133   -0.32 9  148 259 
 PTB  HN ES   1    331 38.70                             133   -0.50 7  148 259 
 PTB  HZ I         331 45.99         9.5 0.46            133            148 259 
 OCA  HZ EP        331 19.07                             130   -0.16 9  161 353 
 OCA  HN ES   1    331 42.30                             130    0.69 7  161 353 
 OCA  HZ I         331 45.64         5.2 0.48            132            161 353 
 SPBC HZ EP        331 19.73                             130    0.39 9  163 219 
 SPBC HN ES   1    331 41.88                             130    0.08 7  163 219 
 SPBC HZ I         331 46.75         5.7 0.42            131            163 219 
 ZAR  HN ES        331 48.19                             123   -0.71 9  205 292 
 NOR  HZ EP        331 26.91                             119    0.39 8  235 235 
 NOR  HN ES   1    331 55.09                             119    0.51 6  235 235 
 NOR  HZ I         331 58.53         3.9 0.26            121            235 235 
 SML  HZ EP        331 26.95                             118   -0.53 8  244 335 
 SML  HN ES        331 55.61                             118   -0.68 8  244 335 
 SML  HZ I         332  4.02         7.9 0.10            120            244 335 
 CHI  HN ES        331 57.98                             118    0.02 8  248 195 
 CHI  HN I         332  0.52         6.9 0.28            120            248 195 
                                                                                
