 2012  414 0015 41.2 L   6.755 -73.215148.3  RSN  5 0.3 1.6LRSN                1
 GAP=223        0.75       7.8     7.1  8.0  0.3116E+02  0.7365E+01  0.1842E+01E
 Epicentro: VILLANUEVA - SANTANDER                                             3
 ACTION:UPD 12-07-05 11:53 OP:tino STATUS:               ID:20120414001541 L   I
 2012-04-14-0010-00M.COL___181                                                 6
 STAT SP IPHASW D HRMM SECON CODA AMPLIT PERI AZIMU VELO AIN AR TRES W  DIS CAZ7
 BAR2 SZ EP   1    016  1.21                             173     0.2 7   18 169 
 BAR2 SZ ES   1    016 15.91                             173    -0.6 7   18 169 
 BAR2 SZ I         016 16.35         7.8 0.26                            18 169 
 BRR  HZ EP   1    016  2.35                             154     0.0 7   67 305 
 BRR  HN ES   1    016 19.43                             154     0.5 7   67 305 
 RUS  HZ EP   1    016  4.89                             145     0.0 7   96 171 
 RUS  HN ES   1    016 23.54                             145     0.2 7   96 171 
 RUS  HZ I         016 25.50         3.9 0.29                            96 171 
 PTB  HZ EP   1    016  7.47                             134    -0.1 7  139 260 
 PTB  HN ES   1    016 28.28                             134     0.1 7  139 260 
 PTB  HZ I         016 30.90         5.6 0.25                           139 260 
 ZAR  HN ES   2    016 37.62                             124    -0.7 4  199 294 
 ZAR  HZ I         016 44.58         4.0 0.22                           199 294 
                                                                                
