 2017  714 0749 45.1 L   6.788 -73.150146.2  RSN  8 0.3 1.6LRSN                1
 GAP=137        0.87       3.9     4.0  6.2  0.6997E+00  0.6963E+01  0.3789E+01E
 Epicentro: LOS SANTOS - SANTANDER                                             3
 ACTION:UPD 17-08-30 15:32 OP:rebc STATUS:               ID:20170714074945 L   I
 OLDACT:UP  17-07-14 16:15 OP:dnl  STATUS:               ID:20170714074737     3
 OLDACT:REG 17-07-14 12:44 OP:dnl  STATUS:               ID:20170714074737     3
 2017-07-14-0748-00M.COL___385                                                 6
 STAT SP IPHASW D HRMM SECON CODA AMPLIT PERI AZIMU VELO AIN AR TRES W  DIS CAZ7
 BAR2 EZ EP        750  4.49                             171   -0.2110 21.9 189 
 BAR2 EZ ES        750 19.75                             171   -0.2810 21.9 189 
 BAR2 EZ I         750 22.95         8.0 0.52            169           21.9 189 
 BRR  HZ IP     D  750  6.49                             152    0.2310 71.4 300 
 BRR  HE ES        750 23.42                             152    0.6210 71.4 300 
 BRR  HZ I         750 27.66         8.1 0.12            151           71.4 300 
 PAM  EZ EP   2    750  7.80                             150    0.41 5 78.7  39 
 PAM  EN ES        750 24.50                             150   -0.3110 78.7  39 
 PAM  EZ I         750 24.94         7.3 0.38            157           78.7  39 
 RUS  HZ EP        750  8.85                             144    0.1010 99.3 176 
 RUS  HN ES        750 27.43                             144    0.2010 99.3 176 
 RUS  HZ I         750 29.79         2.6 0.34            146           99.3 176 
 PTB  HZ EP        750 11.41                             132   -0.58 9  147 259 
 PTB  HN ES        750 32.64                             132   -0.36 9  147 259 
 PTB  HZ I         750 36.12         3.5 0.16            133            147 259 
 SPBC HZ EP        750 13.90                             129    0.44 9  162 219 
 SPBC HN ES        750 35.56                             129   -0.05 9  162 219 
 SPBC HZ I         750 42.08         5.6 0.22            131            162 219 
 ZAR  HZ EP   4    750 18.68                             122    1.15 0  204 293 
 ZAR  HN ES        750 42.92                             122    0.05 9  204 293 
 ZAR  HZ I         750 49.79         5.0 0.46            124            204 293 
 SJC  HZ EP   4    750 39.07                             106   -1.66 0  410 327 
 SJC  HN ES   4    751 20.27                             106   -3.89 0  410 327 
 SJC  HZ I         751 23.78         1.3 0.68            108            410 327 
                                                                                
