 2011  714 0832 44.7 L   6.806 -73.079148.0  RSN  5 0.3 1.4LRSN                1
 GAP=145        0.57       3.3     5.6  5.4 -0.5734E+01 -0.1231E+00  0.4786E+00E
 Epicentro: LOS SANTOS - SANTANDER                                             3
 ACTION:UPD 12-07-25 14:00 OP:epov STATUS:               ID:20110714083244 L   I
 2011-07-14-0831-09S.COL___131                                                 6
 STAT SP IPHASW D HRMM SECON CODA AMPLIT PERI AZIMU VELO AIN AR TRES W  DIS CAZ7
 BAR2 SZ EP   1    833  4.45                             170   -0.17 7 26.2 206 
 BAR2 SZ I         833  5.07         6.5 0.21                          26.2 206 
 BAR2 SZ ES   1    833 20.11                             170   -0.07 7 26.2 206 
 PAM  SZ EP   1    833  7.34                             153    0.52 7 72.4  35 
 PAM  SN ES        833 24.30                             153    0.1910 72.4  35 
 BRR  HZ EP   1    833  6.35                             151   -0.06 7 77.5 296 
 BRR  HZ I         833  6.76         9.8 0.09                          77.5 296 
 BRR  HE ES   1    833 23.56                             151    0.18 7 77.5 296 
 RUS  HZ EP   1    833  8.80                             144    0.15 7  101 180 
 RUS  HE ES   1    833 27.14                             144   -0.23 7  101 180 
 RUS  HZ I         833 28.92         1.7 0.44                           101 180 
 GRA  SZ EP   1    833  9.65                             138   -0.24 7  123  14 
 GRA  SZ ES   1    833 29.11                             138   -0.45 7  123  14 
 GRA  SZ I         833 30.64         2.7 0.38                           123  14 
                                                                                
