 2017 1214 0632 23.7 L   6.831 -73.165143.1  RSN  4 0.3 1.3LRSN                1
 GAP=253        0.73       5.2     5.0  6.4  0.5459E+01  0.8197E+01 -0.5562E+01E
 Epicentro: LOS SANTOS - SANTANDER                                             3
 ACTION:UPD 18-01-04 13:20 OP:rebc STATUS:               ID:20171214063223 L   I
 OLDACT:REG 17-12-14 13:14 OP:osc  STATUS:               ID:20171214062740     3
 2017-12-14-0628-00M.COL___456                                                 6
 STAT SP IPHASW D HRMM SECON CODA AMPLIT PERI AZIMU VELO AIN AR TRES W  DIS CAZ7
 BAR2 EZ EP        632 43.07                             169   -0.0510 26.5 184 
 BAR2 EZ ES        632 58.28                             169    0.0410 26.5 184 
 BAR2 EZ I         633  0.85         3.2 0.28            163           26.5 184 
 PTB  HZ EP        632 49.88                             132   -0.50 9  146 257 
 PTB  HN ES        633 10.86                             132   -0.29 9  146 257 
 PTB  HZ I         633 13.02         1.8 0.10            131            146 257 
 SPBC HZ EP        632 52.14                             128   -0.04 9  165 218 
 SPBC HN ES        633 14.70                             128    0.35 9  165 218 
 SPBC HZ I         633 21.07         3.3 0.34            127            165 218 
 ZAR  HZ EP        632 56.15                             122    0.47 9  201 291 
 ZAR  HE ES        633 20.73                             122    0.13 9  201 291 
                                                                                
