 2017  214 0316 11.2 L   6.696 -73.227153.5  RSN  4 0.1 1.2LRSN                1
 GAP=220        0.34       2.9     2.8  3.4  0.5352E+01 -0.3693E-01 -0.5684E+00E
 Epicentro: VILLANUEVA - SANTANDER                                             3
 ACTION:UPD 17-05-24 15:36 OP:jn   STATUS:               ID:20170214031611 L   I
 OLDACT:REG 17-02-14 12:28 OP:dani STATUS:               ID:20170214030747     3
 2017-02-14-0308-00M.COL___349                                                 6
 STAT SP IPHASW D HRMM SECON CODA AMPLIT PERI AZIMU VELO AIN AR TRES W  DIS CAZ7
 BRR  HZ EP        316 33.13                             154   -0.0210 70.3 310 
 BRR  HN ES        316 50.31                             154    0.0410 70.3 310 
 BRR  HZ I         316 52.56         3.6 0.13            154           70.3 310 
 RUS  HZ EP        316 35.17                             148    0.1310 90.2 170 
 RUS  HN ES        316 53.52                             148   -0.1010 90.2 170 
 RUS  HZ I         316 54.47         1.7 0.30            149           90.2 170 
 PTB  HZ EP        316 37.81                             136   -0.08 9  137 263 
 PTB  HN ES        316 58.80                             136    0.09 9  137 263 
 PTB  HZ I         317  3.00         2.5 0.24            136            137 263 
 ZAR  HN ES        317  9.19                             125   -0.07 9  201 296 
                                                                                
