 2012  814 0607 28.5 L   6.854 -73.261126.2  RSN  5 0.5 2.0LRSN                1
 GAP=166        0.88       5.3     6.9  7.9  0.1243E+01  0.1202E+02 -0.1245E+02E
 Epicentro: ZAPATOCA - SANTANDER                                               3
 ACTION:UPD 12-09-10 11:56 OP:ep   STATUS:               ID:20120814060728 L   I
 2012-08-14-0600-00M.COL___217                                                 6
 STAT SP IPHASW D HRMM SECON CODA AMPLIT PERI AZIMU VELO AIN AR TRES W  DIS CAZ7
 BAR2 SZ EP   1    6 7 46.53                             166    0.58 7 30.2 163 
 BAR2 SZ I         6 7 46.75        36.9 0.10                          30.2 163 
 BAR2 SZ ES        6 7 59.51                             166   -0.0710 30.2 163 
 BRR  HZ EP   1    6 7 46.94                             154    0.21 7 57.2 299 
 BRR  HN ES        6 8  1.00                             154    0.0310 57.2 299 
 BRR  HZ I         6 8  2.31        11.9 0.13                          57.2 299 
 PTB  HZ EP   1    6 7 51.85                             129   -1.02 7  137 255 
 OCA  HZ EP   1    6 7 54.74                             126    0.08 7  153 358 
 OCA  HN ES        6 8 14.81                             126   -0.26 9  153 358 
 OCA  HZ I         6 8 15.78        21.6 0.12                           153 358 
 ZAR  HZ EP   2    6 7 58.93                             120    0.70 4  190 292 
 ZAR  HN ES   1    6 8 21.83                             120    0.39 7  190 292 
                                                                                
