 2015  114 0047 17.2 L   6.792 -73.166149.2  RSN 10 0.5 1.9LRSN                1
 GAP=134        1.17       3.5     4.7  6.5 -0.1043E+01  0.6606E+01  0.1394E+01E
 Epicentro: LOS SANTOS - SANTANDER                                             3
 ACTION:UPD 15-03-02 15:39 OP:nd   STATUS:               ID:20150114004717 L   I
 OLDACT:DUP 15-01-14 14:35 OP:carl STATUS:               ID:20150114003751d    3
 2015-01-14-0037-49M.COL___259                                                 6
 STAT SP IPHASW D HRMM SECON CODA AMPLIT PERI AZIMU VELO AIN AR TRES W  DIS CAZ7
 BAR2 EZ EP        047 37.15                             171   -0.0210 22.2 185 
 BAR2 EZ ES        047 52.30                             171   -0.4810 22.2 185 
 BAR2 EZ I         047 53.72        21.9 0.20            169           22.2 185 
 BRR  HZ EP        047 38.93                             154    0.3510 69.6 300 
 BRR  HN ES        047 56.54                             154    1.2410 69.6 300 
 BRR  HZ I         048  0.02        11.1 0.44            151           69.6 300 
 PAM  SZ EP        047 39.95                             151    0.1010 79.5  40 
 PAM  SN ES        047 57.23                             151   -0.3310 79.5  40 
 PAM  SZ I         047 59.04         6.8 0.52            156           79.5  40 
 RUS  HZ EP        047 40.97                             145   -0.2210 99.9 175 
 RUS  HN ES        047 59.78                             145   -0.1610 99.9 175 
 RUS  HZ I         048  0.87         7.0 0.26            146           99.9 175 
 PTB  HZ EP        047 43.91                             133   -0.27 9  145 259 
 PTB  HN ES        048  5.10                             133   -0.17 9  145 259 
 PTB  HZ I         048  8.04         8.8 0.16            132            145 259 
 SPBC HZ EP        047 46.10                             130    0.38 9  161 219 
 SPBC HN ES        048  8.51                             130    0.51 9  161 219 
 SPBC HZ I         048 15.00        15.9 0.22            130            161 219 
 ZAR  HN ES        048 14.26                             123   -0.71 9  202 293 
 ZAR  HZ I         048 22.66         7.7 0.46            123            202 293 
 NOR  HZ EP        047 53.13                             119    0.30 8  232 234 
 NOR  HN ES        048 19.85                             119   -0.81 8  232 234 
 NOR  HZ I         048 29.12         6.6 0.18            120            232 234 
 SML  HZ EP        047 53.92                             118   -0.03 8  244 336 
 SML  HN ES        048 22.45                             118   -0.20 8  244 336 
 SML  HZ I         048 25.20        11.9 0.10            119            244 336 
 CHI  HZ EP        047 55.20                             118    0.31 8  247 195 
 CHI  HN ES        048 24.26                             118   -0.06 8  247 195 
 CHI  HZ I         048 30.24         3.5 0.32            119            247 195 
                                                                                
