 2012  714 0914 19.4 L   7.311 -73.232126.0  RSN  4 0.2 1.4LRSN                1
 GAP=260        0.56       7.9     6.1  7.3  0.2116E+02  0.6167E+01 -0.2175E+02E
 Epicentro: RIONEGRO - SANTANDER                                               3
 ACTION:UPD 12-08-14 11:44 OP:ep   STATUS:               ID:20120714091420dL   I
 2012-07-14-0910-00M.COL___197                                                 6
 STAT SP IPHASW D HRMM SECON CODA AMPLIT PERI AZIMU VELO AIN AR TRES W  DIS CAZ7
 BRR  HZ EP   1    914 37.35                             154    -0.3 7   58 247 
 BRR  HN ES   1    914 51.98                             154     0.1 7   58 247 
 BRR  HZ I         914 52.77        11.9 0.15            151             58 247 
 BAR2 SZ ES   1    914 55.07                             146     0.1 7   80 176 
 PTB  HZ EP   1    914 45.95                             125    -0.1 7  160 238 
 PTB  HN ES   1    915  6.86                             125     0.0 7  160 238 
 PTB  HZ I         915  8.61         1.5 0.22            124            160 238 
 ZAR  HZ EP   1    914 48.65                             121     0.5 7  181 276 
 ZAR  HE ES   1    915 10.52                             121    -0.1 7  181 276 
 ZAR  HZ I         915 12.03         2.3 0.13            121            181 276 
