 2010  714 0544  8.9 L   6.771 -73.098141.5  RSN 11 0.3 1.9LRSN                1
 GAP=161        0.74       3.5     5.8  5.1 -0.8151E+01 -0.1059E+01 -0.4576E-01E
 Epicentro: LOS SANTOS - SANTANDER                                             3
 ACTION:UPD 10-12-01 15:17 OP:pat  STATUS:               ID:20100714054408 L   I
 2010-07-14-0542-25S.COL___120                                                 6
 STAT SP IPHASW D HRMM SECON CODA AMPLIT PERI AZIMU VELO AIN AR TRES W  DIS CAZ7
 BAR2 SZ EP   1    544 27.99                             171     0.0 7   22 206 
 BAR2 SZ ES   1    544 42.51                             171    -0.4 7   22 206 
 BAR2 SZ I         544 44.13        35.5 0.27                            22 206 
 GIR2 SZ EP   1    544 28.18                             165     0.0 7   36 343 
 GIR2 SZ ES   1    544 43.35                             165     0.1 7   36 343 
 BRR  HZ IP     D  544 30.02                             150     0.010   77 299 
 BRR  HZ I         544 30.45        29.2 0.16                            77 299 
 BRR  HN ES   1    544 46.99                             150     0.6 7   77 299 
 RUS  HZ EP   1    544 31.87                             144    -0.1 7   97 179 
 RUS  HN ES   2    544 49.84                             144    -0.2 5   97 179 
 RUS  HZ I         544 51.20        14.6 0.43                            97 179 
 BRI  SZ IP        544 32.88                             140     0.410  110  18 
 BRI  SZ I         544 56.54         6.6 0.44                           110  18 
 GUE  SZ IP        544 33.32                             138    -0.110  119   9 
 GUE  SZ I         544 33.91         4.6 0.09                           119   9 
 GRA  SZ IP        544 34.13                             136     0.210  127  15 
 GRA  SZ I         544 35.43         8.2 0.21                           127  15 
 GRA  SZ ES   1    544 53.64                             136     0.2 7  127  15 
 OCA  SZ EP        544 36.88                             128    -0.4 9  164 351 
 OCA  SZ ES   1    544 58.75                             128    -0.6 7  164 351 
 OCA  SZ I         545  4.68        14.0 0.07                           164 351 
 HEL  HZ EP   2    544 49.62                             113     0.2 4  276 257 
 HEL  HE ES   2    545 20.45                             113    -0.5 4  276 257 
 HEL  HZ I         545 30.28         3.7 0.53                           276 257 
 RREF HN ES   2    545 31.44                             110     0.3 3  324 230 
 RREF HZ I         545 41.05         3.8 0.50                           324 230 
 PRA  HZ EP   1    545  2.43                             106     0.1 4  392 210 
 PRA  HN ES   2    545 44.04                             106     0.1 3  392 210 
 PRA  HZ I         545 52.61         3.2 0.64                           392 210 
                                                                                
