 2017  314 0601 12.1 L   6.776 -73.149145.3  RSN  6 0.2 1.4LRSN                1
 GAP=235        0.60       3.3     3.5  4.4  0.4807E+01  0.2660E+01  0.1018E+01E
 Epicentro: LOS SANTOS - SANTANDER                                             3
 ACTION:UPD 17-05-25 18:40 OP:jn   STATUS:               ID:20170314060112 L   I
 OLDACT:REG 17-03-14 12:59 OP:cara STATUS:               ID:20170314055746     3
 2017-03-14-0558-00M.COL___394                                                 6
 STAT SP IPHASW D HRMM SECON CODA AMPLIT PERI AZIMU VELO AIN AR TRES W  DIS CAZ7
 BAR2 EZ EP        6 1 31.64                             172    0.0210 20.6 190 
 BAR2 EZ ES        6 1 46.78                             172   -0.0710 20.6 190 
 BAR2 EZ I         6 1 49.01         6.5 0.50            172           20.6 190 
 BRR  HZ EP        6 1 33.32                             152    0.0610 72.2 301 
 BRR  HN ES        6 1 49.94                             152    0.1910 72.2 301 
 BRR  HZ I         6 1 54.76         4.0 0.24            153           72.2 301 
 RUS  HZ EP        6 1 35.47                             144   -0.1510 97.9 176 
 RUS  HN ES        6 1 53.91                             144   -0.0410 97.9 176 
 RUS  HZ I         6 1 55.37         1.6 0.34            148           97.9 176 
 PTB  HZ EP        6 1 38.56                             132   -0.39 9  147 260 
 PTB  HN ES        6 1 59.56                             132   -0.33 9  147 260 
 PTB  HZ I         6 2  1.59         2.4 0.30            134            147 260 
 SPBC HZ EP        6 1 40.76                             129    0.42 9  161 219 
 SPBC HN ES        6 2  2.59                             129    0.22 9  161 219 
 SPBC HZ I         6 2  5.33         5.6 0.26            132            161 219 
 ZAR  HZ EP   4    6 1 45.08                             122    0.49 0  205 293 
 ZAR  HE ES        6 2 10.04                             122    0.12 9  205 293 
 ZAR  HZ I         6 2 12.19         2.1 0.36            124            205 293 
                                                                                
