 2015  214 0848 26.7 L   6.742 -73.200143.3  RSN  6 0.6 1.6LRSN                1
 GAP=195        1.48       6.2     9.0 10.7  0.1069E+02  0.5324E+01 -0.1953E+02E
 Epicentro: VILLANUEVA - SANTANDER                                             3
 ACTION:UPD 15-04-30 21:26 OP:nd   STATUS:               ID:20150214084826 L   I
 OLDACT:REG 15-02-14 13:04 OP:fm   STATUS:               ID:20150214084735     3
 2015-02-14-0847-35M.COL___293                                                 6
 STAT SP IPHASW D HRMM SECON CODA AMPLIT PERI AZIMU VELO AIN AR TRES W  DIS CAZ7
 BAR2 EZ EP        848 45.86                             173   -0.0510 16.7 173 
 BAR2 EZ ES        849  0.75                             173   -0.1510 16.7 173 
 BAR2 EZ I         849  3.01         6.3 0.58            171           16.7 173 
 BRR  HZ EP        848 47.74                             153    0.2610 69.5 306 
 BRR  HN ES        849  4.46                             153    0.7710 69.5 306 
 BRR  HZ I         849  9.17         4.7 0.14            151           69.5 306 
 RUS  HZ EP        848 50.78                             145    0.9910 94.8 172 
 RUS  HE ES        849  7.02                             145   -0.7810 94.8 172 
 RUS  HZ I         849 10.08         4.6 0.34            147           94.8 172 
 PTB  HZ EP        848 53.29                             133    0.47 9  141 261 
 PTB  HN ES        849 13.09                             133   -0.12 9  141 261 
 PTB  HZ I         849 17.15         2.7 0.26            132            141 261 
 SPBC HN ES        849 15.08                             130   -0.53 9  154 219 
 SPBC HZ I         849 23.27        14.3 0.22            130            154 219 
 SML  HZ EP        849  2.84                             116   -0.71 8  247 337 
 SML  HE ES        849 31.58                             116   -0.73 8  247 337 
 SML  HZ I         849 34.58         5.2 0.28            119            247 337 
                                                                                
