 2015  514 0516 28.8 L   6.712 -73.179147.2  RSN  4 0.4 1.5LRSN                1
 GAP=227        0.94      10.8    12.0  9.6  0.1035E+03  0.8799E+01 -0.1758E+02E
 Epicentro: VILLANUEVA - SANTANDER                                             3
 ACTION:UPD 15-09-10 22:03 OP:cam  STATUS:               ID:20150514051628 L   I
 OLDACT:UP  15-05-14 13:13 OP:mh   STATUS:               ID:20150514050749     3
 OLDACT:REG 15-05-14 12:27 OP:mh   STATUS:               ID:20150514050749     3
 2015-05-14-0507-49M.COL___285                                                 6
 STAT SP IPHASW D HRMM SECON CODA AMPLIT PERI AZIMU VELO AIN AR TRES W  DIS CAZ7
 BAR2 EZ EP        516 48.52                             175    0.0810 13.2 182 
 BAR2 EZ ES   1    517  2.85                             175   -0.92 7 13.2 182 
 BAR2 EZ I         517  6.83         5.3 0.18            170           13.2 182 
 BRR  HZ EP        516 50.45                             152    0.2310 73.3 307 
 BRR  HN ES        517  7.33                             152    0.3910 73.3 307 
 BRR  HZ I         517  8.34         5.5 0.18            150           73.3 307 
 RUS  HN ES        517 10.35                             147    0.1810 91.2 173 
 ZAR  HZ EP   1    517  0.77                             123   -0.62 6  205 295 
 ZAR  HN ES        517 26.67                             123   -0.14 9  205 295 
 ZAR  HZ I         517 32.65         3.8 0.16            123            205 295 
                                                                                
