 2012  614 0931  3.2 L   6.783 -73.189146.3  RSN  5 0.3 1.2LRSN                1
 GAP=132        0.53       4.0     3.6  6.0 -0.2162E+01  0.6081E+01 -0.2180E+01E
 Epicentro: LOS SANTOS - SANTANDER                                             3
 ACTION:UPD 12-08-06 17:49 OP:ep   STATUS:               ID:20120614093103 L   I
 2012-06-14-0930-00M.COL___201                                                 6
 STAT SP IPHASW D HRMM SECON CODA AMPLIT PERI AZIMU VELO AIN AR TRES W  DIS CAZ7
 BAR2 SZ EP   1    931 22.92                             171    0.04 7 21.1 178 
 BAR2 SZ ES   1    931 38.37                             171    0.16 7 21.1 178 
 BAR2 SZ I         931 38.80         4.7 0.12                          21.1 178 
 PAM  SZ EP   1    931 25.69                             149   -0.08 7 81.9  41 
 PAM  SN ES   1    931 43.20                             149   -0.16 7 81.9  41 
 RUS  HZ EP   1    931 27.34                             144    0.41 7 99.2 173 
 RUS  HN ES   1    931 45.36                             144   -0.06 7 99.2 173 
 RUS  HZ I         931 47.13         2.1 0.46                          99.2 173 
 PTB  HZ EP   1    931 29.48                             133   -0.30 7  143 259 
 PTB  HN ES   1    931 50.21                             133   -0.28 7  143 259 
 PTB  HZ I         931 52.93         2.1 0.23                           143 259 
 ZAR  HN ES   2    932  1.04                             123    0.68 4  200 293 
                                                                                
