 2010 1114 0926 24.1 L   6.796 -73.115146.0  RSN 12 0.4 2.2LRSN                1
 GAP=162        0.70       3.0     5.2  5.2 -0.6085E+01 -0.2679E+01  0.2644E+01E
 Epicentro: LOS SANTOS - SANTANDER                                             3
 ACTION:UP  10-12-17 16:52 OP:REBC STATUS:               ID:20101114092624 L   I
 2010-11-14-0921-25S.COL___128                                                 6
 STAT SP IPHASW D HRMM SECON CODA AMPLIT PERI AZIMU VELO SNR AR TRES W  DIS CAZ7
 BTL  SZ EP   2    926 44.84                             171     1.2 5   22 309 
 BAR2 SZ EP        926 43.66                             170    -0.110   24 199 
 BAR2 SZ I         926 44.25        54.7 0.02                            24 199 
 BAR2 SZ ES   1    926 59.08                             170     0.0 7   24 199 
 GIR2 SZ EP        926 43.71                             167    -0.110   32 344 
 GIR2 SZ ES   3    926 58.35                             167    -0.8 2   32 344 
 BRR  HZ EP        926 45.45                             152     0.010   74 298 
 BRR  HE ES        927  2.41                             152     0.310   74 298 
 BRR  HZ I         927  3.38        55.6 0.09                            74 298 
 RUS  HZ EP   1    926 47.71                             144    -0.1 7  100 178 
 RUS  HN ES   2    927  5.94                             144    -0.4 5  100 178 
 RUS  HZ I         927  7.72        20.5 0.90                           100 178 
 GRA  SZ EP        926 49.42                             137     0.210  125  16 
 GRA  SZ ES   1    927  8.91                             137     0.0 7  125  16 
 GRA  SZ I         927 10.30        29.4 0.38                           125  16 
 OCA  SZ EP        926 52.40                             130    -0.1 9  161 352 
 OCA  SZ ES   1    927 14.04                             130    -0.6 7  161 352 
 OCA  SZ I         927 18.58        21.3 0.10                           161 352 
 NOR  SZ EP   1    926 59.74                             118    -0.3 6  237 235 
 NOR  SN ES   1    927 27.81                             118    -0.4 6  237 235 
 NOR  SZ I         927 30.30         1.8 0.05                           237 235 
 CHI  HZ EP   1    927  1.89                             117     0.1 6  249 196 
 CHI  HN ES   2    927 31.70                             117     0.4 4  249 196 
 CHI  HZ I         927 35.15         8.7 0.30                           249 196 
 ROSC BE ES   2    927 32.05                             117    -0.2 4  254 212 
 ROSC BZ I         927 37.89        12.5 0.11                           254 212 
 HEL  HN ES   3    927 36.59                             115     0.3 2  275 256 
 HEL  HZ I         927 42.17        13.0 0.24                           275 256 
 RREF HZ EP   3    927 11.54                             111     1.1 2  324 230 
 RREF HN ES   3    927 46.61                             111    -0.1 2  324 230 
 RREF HZ I         927 55.74         7.1 0.26                           324 230 
                                                                                
