 2015  714 0128 49.2 L   6.749 -73.177139.1  RSN  4 0.4 1.5LRSN                1
 GAP=179        1.02       5.2     8.5  9.8  0.1875E+02  0.2984E+02 -0.6129E+01E
 Epicentro: LOS SANTOS - SANTANDER                                             3
 ACTION:UPD 15-09-08 21:48 OP:cam  STATUS:               ID:20150714012849 L   I
 OLDACT:REG 15-07-14 14:02 OP:spq  STATUS:               ID:20150714011748     3
 2015-07-14-0117-48M.COL___340                                                 6
 STAT SP IPHASW D HRMM SECON CODA AMPLIT PERI AZIMU VELO AIN AR TRES W  DIS CAZ7
 BAR2 EZ EP        129  7.45                             173   -0.4410 17.4 182 
 BAR2 EZ ES        129 22.27                             173   -0.2210 17.4 182 
 BAR2 EZ I         129 25.63         6.7 0.18            169           17.4 182 
 RUS  HZ EP        129 11.53                             144   -0.3610 95.3 174 
 RUS  HN ES        129 30.22                             144    0.6210 95.3 174 
 RUS  HZ I         129 32.15         2.7 0.34            146           95.3 174 
 OCA  HN ES        129 39.82                             127    0.27 9  165 355 
 ZAR  HZ EP        129 21.59                             121    0.50 9  203 294 
 ZAR  HN ES        129 45.72                             121   -0.26 9  203 294 
 ZAR  HZ I         129 51.33         8.7 0.28            122            203 294 
                                                                                
