 2012 1214 0852 20.9 L   6.842 -73.168142.5  RSN  7 0.4 1.7LRSN                1
 GAP=132        0.74       3.9     4.5  6.6  0.5789E+00  0.1097E+02  0.4922E+01E
 Epicentro: LOS SANTOS - SANTANDER                                             3
 ACTION:UPD 13-01-04 14:27 OP:ep   STATUS:               ID:20121214085220 L   I
 2012-12-14-0850-00M.COL___242                                                 6
 STAT SP IPHASW D HRMM SECON CODA AMPLIT PERI AZIMU VELO AIN AR TRES W  DIS CAZ7
 BAR2 SZ EP   1    852 40.11                             168   -0.08 7 27.6 183 
 BAR2 SZ ES   1    852 55.09                             168   -0.18 7 27.6 183 
 BAR2 SZ I         852 57.80        12.7 0.21                          27.6 183 
 PAM  SZ EP   1    852 42.94                             151    0.33 7 75.6  43 
 PAM  SE ES   1    852 59.71                             151    0.12 7 75.6  43 
 PAM  SZ I         853  1.46         7.3 0.38                          75.6  43 
 RUS  HZ EP   1    852 44.19                             142   -0.45 7  105 175 
 RUS  HE ES   1    853  3.39                             142    0.19 7  105 175 
 RUS  HZ I         853  5.02         3.8 0.29                           105 175 
 PTB  HZ EP   1    852 46.74                             131   -0.68 7  146 257 
 PTB  HN ES   1    853  7.71                             131   -0.44 7  146 257 
 PTB  HZ I         853 12.82         8.2 0.12                           146 257 
 ZAR  HZ EP   1    852 52.68                             122    0.01 6  200 291 
 ZAR  HN ES   1    853 18.20                             122    0.71 6  200 291 
 ZAR  HZ I         853 24.14         6.0 0.46                           200 291 
 CHI  HZ EP   1    852 58.64                             116   -0.15 6  252 194 
 CHI  HN ES   1    853 28.84                             116    0.45 6  252 194 
 CHI  HZ I         853 31.62         1.6 0.28                           252 194 
 PRA  HZ EP   1    853 14.63                             106    0.04 4  395 209 
 PRA  HN ES   1    853 57.47                             106    0.96 4  395 209 
 PRA  HZ I         854  1.33         2.2 0.42                           395 209 
                                                                                
