 2014  214 0641 32.9 L   6.828 -73.201144.5  RSN  9 0.3 1.7LRSN                1
 GAP=128        0.84       2.3     3.6  5.3 -0.3253E+00  0.6206E+01 -0.4323E+00E
 Epicentro: ZAPATOCA - SANTANDER                                               3
 ACTION:UPD 14-03-10 08:10 OP:ep   STATUS:               ID:20140214064132 L   I
 OLDACT:REG 14-02-14 08:29 OP:carl STATUS:               ID:20140214064000     3
 2014-02-14-0640-00M.COL___291                                                 6
 STAT SP IPHASW D HRMM SECON CODA AMPLIT PERI AZIMU VELO AIN AR TRES W  DIS CAZ7
 BAR2 SZ EP        641 52.56                             169    0.1510 26.2 175 
 BAR2 SZ ES        642  7.73                             169    0.0810 26.2 175 
 BAR2 SZ I         642 10.14        13.8 0.28            169           26.2 175 
 PAM  SZ EP     D  641 55.42                             150    0.3610 79.2  44 
 PAM  SN ES        642 12.39                             150    0.0210 79.2  44 
 PAM  SZ I         642 14.35         9.1 0.48            154           79.2  44 
 RUS  HZ EP        641 56.75                             142   -0.0210  104 173 
 RUS  HN ES        642 15.18                             142   -0.2310  104 173 
 RUS  HZ I         642 17.09         7.7 0.34            144            104 173 
 PTB  HZ EP        641 59.43                             133    0.18 9  142 257 
 PTB  HN ES        642 20.17                             133    0.34 9  142 257 
 PTB  HZ I         642 23.04         5.8 0.16            133            142 257 
 OCA  HN ES        642 22.26                             130   -0.21 9  157 355 
 SPBC HZ EP        642  0.12                             129   -1.03 9  162 217 
 SPBC HN ES        642 23.09                             129   -0.11 9  162 217 
 SPBC HZ I         642 27.34         6.2 0.20            130            162 217 
 ZAR  HZ EP        642  4.76                             123    0.23 9  197 292 
 ZAR  HN ES        642 29.29                             123    0.07 9  197 292 
 ZAR  HZ I         642 36.23         4.2 0.32            124            197 292 
 SML  HZ EP        642  8.97                             118    0.12 8  238 336 
 SML  HN ES        642 36.42                             118   -0.49 8  238 336 
 SML  HZ I         642 40.85         5.7 0.22            119            238 336 
 CHI  HZ EP        642 11.07                             117    0.41 8  250 194 
 CHI  HN ES        642 40.24                             117    0.10 8  250 194 
 CHI  HZ I         642 46.88         1.4 0.40            118            250 194 
                                                                                
