 2010 1014 0936 52.8 L   6.766 -73.177139.6  RSN  6 0.4 1.8LRSN                1
 GAP=164        0.61       7.0     7.5  8.6 -0.2285E+02  0.1243E+02  0.1225E+02E
 Epicentro: LOS SANTOS - SANTANDER                                             3
 ACTION:UP  11-02-18 11:09 OP:tino STATUS:               ID:20101014093652 L   I
 2010-10-14-0935-12S.COL___126                                                 6
 STAT SP IPHASW D HRMM SECON CODA AMPLIT PERI AZIMU VELO SNR AR TRES W  DIS CAZ7
 BAR2 SZ EP        937 11.38                             172    -0.210   19 182 
 BAR2 SZ ES   2    937 26.35                             172     0.1 5   19 182 
 BAR2 SZ I         937 27.93        15.7 0.19                            19 182 
 GRA  SZ EP   2    937 18.42                             134     0.5 5  130  18 
 NOR  SZ EP   2    937 27.62                             118     0.0 4  230 235 
 NOR  SE ES   2    937 55.62                             118     0.8 4  230 235 
 CHI  HZ EP   1    937 29.43                             116    -0.2 6  244 195 
 CHI  HN ES   2    937 58.67                             116     0.3 4  244 195 
 CHI  HZ I         938  1.83         2.7 0.06                           244 195 
 HEL  HE ES   2    938  2.38                             114    -0.6 4  268 256 
 HEL  HZ I         938 11.72         4.3 0.32                           268 256 
 PRA  HZ EP   1    937 45.73                             106     0.2 4  387 209 
                                                                                
