 2011  514 0604  4.7 L   6.799 -73.104145.2  RSN  4 0.2 1.2LRSN                1
 GAP=142        0.40       6.1     4.5  6.6 -0.1054E+01  0.3551E+01  0.2214E+02E
 Epicentro: LOS SANTOS - SANTANDER                                             3
 ACTION:UP  11-06-29 08:53 OP:tino STATUS:               ID:20110514060404 L   I
 2011-05-14-0559-29S.COL___141                                                 6
 STAT SP IPHASW D HRMM SECON CODA AMPLIT PERI AZIMU VELO SNR AR TRES W  DIS CAZ7
 BTL  SZ EP        6 4 24.41                             171     0.210   22 306 
 BTL  SZ ES   3    6 4 39.53                             171     0.0 2   22 306 
 PAM  SN ES   1    6 4 43.77                             152    -0.1 7   75  37 
 BRR  HZ EP        6 4 25.88                             151    -0.210   75 297 
 BRR  HZ I         6 4 26.05         4.5 0.16                            75 297 
 BRR  HN ES   1    6 4 42.74                             151     0.1 7   75 297 
 RUS  HZ EP   2    6 4 28.56                             144     0.2 5  100 179 
 RUS  HN ES   3    6 4 46.51                             144    -0.3 2  100 179 
 RUS  HZ I         6 4 48.57         1.5 0.07                           100 179 
                                                                                
