 2010  114 0324 31.4 L   6.766 -72.855152.2  RSN  4 0.4 1.3LRSN                1
 GAP=242        0.68       8.8    33.8  9.3 -0.1134E+03 -0.1519E+03  0.4711E+02E
 Epicentro: SAN ANDRES - SANTANDER                                             3
 ACTION:UP  10-08-24 09:44 OP:vdl  STATUS:               ID:20100114032431 L   I
 2010-01-14-0324-07S.COL___095                                                 6
 STAT SP IPHASW D HRMM SECON CODA AMPLIT PERI AZIMU VELO SNR AR TRES W  DIS CAZ7
 BAR2 SZ IP        324 52.17                             164    -0.110   41 242 
 BAR2 SZ ES   1    325  8.09                             164    -0.5 7   41 242 
 GIR2 SZ ES   2    325  9.67                             161     0.7 5   51 313 
 RUS  BZ EP   2    324 55.70                             145     0.0 5  100 195 
 RUS  BN ES   2    325 15.12                             145     0.4 5  100 195 
 RUS  BZ I         325 15.75         2.8 0.37                           100 195 
 CHI  HZ IP        325 10.39                             118     0.2 8  255 202 
 CHI  HZ I         325 12.84         1.6 0.36                           255 202 
 CHI  HE ES   2    325 40.35                             118    -0.1 4  255 202 
                                                                                
