 2015  514 0052  7.9 L   6.826 -73.125143.2  RSN 16 0.4 2.4LRSN                1
 GAP= 71        0.89       2.4     2.9  4.6 -0.8687E+00  0.3891E+01  0.1357E+01E
 Epicentro: LOS SANTOS - SANTANDER                                             3
 ACTION:UPD 15-09-10 22:03 OP:cam  STATUS:               ID:20150514005207 L   I
 OLDACT:UP  15-05-14 12:51 OP:mh   STATUS:               ID:20150514004736     3
 OLDACT:UP  15-05-14 12:49 OP:mh   STATUS:               ID:20150514004736     3
 OLDACT:UP  15-05-14 12:48 OP:mh   STATUS:               ID:20150514004736     3
 OLDACT:REG 15-05-14 12:21 OP:mh   STATUS:               ID:20150514004736     3
 2015-05-14-0047-36M.COL___285                                                 6
 STAT SP IPHASW D HRMM SECON CODA AMPLIT PERI AZIMU VELO AIN AR TRES W  DIS CAZ7
 BAR2 EZ EP        052 27.22                             169   -0.1210 26.6 194 
 BAR2 EZ ES        052 42.21                             169   -0.2610 26.6 194 
 BAR2 EZ I         052 43.31        87.6 0.16            169           26.6 194 
 BRR  HZ EP   1    052 28.99                             152    0.13 7 71.9 296 
 BRR  HN ES        052 45.73                             152    0.5510 71.9 296 
 BRR  HZ I         052 49.36        29.8 0.30            150           71.9 296 
 PAM  SZ EP        052 30.04                             151    0.3710 73.7  40 
 PAM  SN ES        052 46.98                             151    0.3610 73.7  40 
 PAM  SZ I         052 51.46        19.8 0.58            154           73.7  40 
 RUS  HZ EP   1    052 31.16                             142   -0.49 7  103 177 
 RUS  HN ES        052 49.48                             142   -0.6510  103 177 
 RUS  HZ I         052 50.29        17.0 0.26            145            103 177 
 TAM  HZ EP        052 35.53                             130    0.24 9  154 106 
 TAM  HN ES   1    052 57.04                             130    0.43 7  154 106 
 TAM  HZ I         052 59.74        14.7 0.42            134            154 106 
 OCA  HZ EP   1    052 35.84                             129    0.02 7  158 352 
 OCA  HN ES        052 57.35                             129   -0.21 9  158 352 
 OCA  HZ I         053  0.23        80.2 0.22            131            158 352 
 SPBC HZ EP   1    052 36.29                             128   -0.31 7  167 219 
 SPBC HN ES   1    052 58.52                             128   -0.43 7  167 219 
 SPBC HZ I         053  3.63        31.5 0.24            129            167 219 
 ZAR  HZ EP   1    052 40.08                             122   -0.26 6  205 291 
 ZAR  HN ES        053  5.35                             122   -0.25 9  205 291 
 ZAR  HZ I         053 13.67        27.5 0.52            122            205 291 
 NOR  HZ EP     D  052 43.75                             117   -0.16 8  238 234 
 NOR  HN ES        053 12.17                             117    0.21 8  238 234 
 NOR  HZ I         053 17.74        23.9 0.16            119            238 234 
 SML  HZ EP   1    052 43.69                             117   -0.56 6  242 335 
 SML  HN ES        053 12.13                             117   -0.45 8  242 335 
 SML  HZ I         053 21.13        25.9 0.10            118            242 335 
 ROSC BZ EP   1    052 47.04                             116    0.72 6  256 211 
 ROSC BN ES        053 16.13                             116   -0.13 8  256 211 
 ROSC BZ I         053 20.49        21.6 0.75            117            256 211 
 HEL  HZ EP   1    052 48.73                             114    0.37 6  275 255 
 HEL  HN ES   1    053 20.56                             114    0.68 6  275 255 
 HEL  HZ I         053 25.16         9.5 0.22            115            275 255 
 GUY2CHZ EP   1    052 51.43                             111   -0.40 5  305 235 
 GUY2CHN ES        053 26.61                             111    0.54 7  305 235 
 GUY2CHZ I         053 33.47        20.6 0.36                           305 235 
 MON  HZ EP   4    052 53.85                             108   -3.00 0  354 308 
 MON  HN ES   4    053 32.43                             108   -2.57 0  354 308 
 MON  HZ I         053 35.16         5.6 0.50            109            354 308 
 SDV  BN ES   4    052 56.81                             108   -39.3 0  357  50 
 ANIL HZ EP   4    052 57.91                             108   -0.16 0  361 224 
 ANIL HN ES   4    053 38.32                             108    1.15 0  361 224 
 ORTC HZ EP        053  1.61                             106   -0.60 6  399 216 
 ORTC HN ES        053 45.51                             106    0.98 6  399 216 
 ORTC HZ I         053 50.25         7.3 0.46            107            399 216 
 SJC  HZ EP   4    053  1.59                             105   -1.70 0  408 326 
 SJC  HN ES   4    053 42.02                             105   -4.44 0  408 326 
 SJC  HZ I         053 45.68         5.0 0.58            106            408 326 
 MACC HZ EP   4    053 13.59                             101   -3.38 0  524 189 
 MACC HN ES   4    054  5.70                             101   -5.11 0  524 189 
                                                                                
