 2013  214 0752 50.6 L   6.808 -73.126155.3  RSN  7 0.4 1.4LRSN                1
 GAP=139        0.88       4.9     5.8  8.5  0.6383E+01  0.9726E+01  0.2597E+00E
 Epicentro: LOS SANTOS - SANTANDER                                             3
 ACTION:UPD 13-03-12 09:32 OP:ep   STATUS:               ID:20130214075250 L   I
 2013-02-14-0750-00M.COL___241                                                 6
 STAT SP IPHASW D HRMM SECON CODA AMPLIT PERI AZIMU VELO AIN AR TRES W  DIS CAZ7
 BAR2 SZ EP   1    753 11.32                             171   -0.06 8 24.6 195 
 BRR  HZ EP   1    753 13.26                             154    0.42 8 72.7 297 
 BRR  HN ES   1    753 30.87                             154    0.66 8 72.7 297 
 PAM  SE ES   1    753 31.41                             153   -0.32 8 75.4  39 
 RUS  HZ EP        753 15.66                             145    0.3410  101 177 
 RUS  HN ES   1    753 34.35                             145   -0.27 7  101 177 
 RUS  HZ I         753 34.88         1.7 0.34            147            101 177 
 PTB  HZ EP        753 18.40                             134   -0.14 9  150 259 
 PTB  HN ES   1    753 39.47                             134   -0.87 7  150 259 
 PTB  HZ I         753 42.44         2.3 0.42            133            150 259 
 ZAR  HE ES   1    753 50.29                             124    0.52 6  206 292 
 SML  HZ EP   1    753 27.47                             119   -0.30 6  244 335 
 SML  HN ES   1    753 56.39                             119   -0.39 6  244 335 
 SML  HZ I         754  0.98         3.4 0.10            119            244 335 
                                                                                
