 2017  614 0238 43.7 L   6.429 -73.371127.9  RSN  9 0.5 2.0LRSN                1
 GAP=116        1.17       3.9     3.9  9.7  0.3550E+01 -0.8863E+01  0.3292E+01E
 Epicentro: SIMACOTA - SANTANDER                                               3
 ACTION:UPD 17-09-14 16:51 OP:jn   STATUS:               ID:20170614023843 L   I
 OLDACT:UP  17-06-14 15:04 OP:ar   STATUS:               ID:20170614022705     3
 OLDACT:UP  17-06-14 15:03 OP:ar   STATUS:               ID:20170614022705     3
 OLDACT:REG 17-06-14 12:44 OP:ar   STATUS:               ID:20170614022705     3
 2017-06-14-0228-00M.COL___360                                                 6
 STAT SP IPHASW D HRMM SECON CODA AMPLIT PERI AZIMU VELO AIN AR TRES W  DIS CAZ7
 BRR  HZ EP     C  239  3.49                             144   -0.3310 83.9 333 
 BRR  HN ES        239 19.80                             144    0.3110 83.9 333 
 BRR  HZ I         239 20.83        13.2 0.14            146           83.9 333 
 SPBC HZ EP        239  6.85                             135    0.3910  116 222 
 SPBC HE ES        239 23.73                             135   -0.4710  116 222 
 SPBC HZ I         239 28.63        20.7 0.36            134            116 222 
 PTB  HZ EP   2    239  5.44                             134   -1.34 5  121 276 
 PTB  HE ES        239 24.06                             134   -0.7110  121 276 
 PTB  HZ I         239 26.35        10.4 0.26            134            121 276 
 YPLC HZ EP        239 10.27                             125   -0.15 9  158 136 
 YPLC HN ES        239 31.63                             125    0.39 9  158 136 
 YPLC HZ I         239 32.59        31.6 0.40            127            158 136 
 TAM  HZ EP        239 11.67                             122   -0.36 9  175  90 
 TAM  HN ES   4    239 32.02                             122   -2.10 0  175  90 
 TAM  HZ I         239 32.40        16.7 0.26            125            175  90 
 NOR  HZ EP   4    239 15.34                             120    1.55 0  191 240 
 NOR  HN ES        239 37.84                             120    0.60 9  191 240 
 NOR  HZ I         239 38.99         7.0 0.30            120            191 240 
 ZAR  HZ EP        239 14.87                             118    0.02 9  202 306 
 ZAR  HE ES        239 40.09                             118    0.96 9  202 306 
 ZAR  HZ I         239 43.29        13.2 0.40            119            202 306 
 CHI  HZ EP        239 15.65                             118    0.17 9  203 191 
 CHI  HN ES        239 40.38                             118    0.13 9  203 191 
 CHI  HZ I         239 45.60         5.7 0.44            119            203 191 
 HEL  HZ EP   4    239 25.10                             114    5.61 0  240 264 
 HEL  HE ES        239 47.02                             114   -0.37 8  240 264 
 HEL  HZ I         239 51.88         3.3 0.40            115            240 264 
                                                                                
