 2016  714 0911 43.3 L   6.798 -73.106134.9  RSN  5 0.5 1.2LRSN                1
 GAP=247        0.87       6.8     7.5  9.7  0.1687E+02  0.3588E+02 -0.6800E+00E
 Epicentro: LOS SANTOS - SANTANDER                                             3
 ACTION:UPD 17-03-29 16:50 OP:lp   STATUS:               ID:20160714091143 L   I
 OLDACT:REG 16-07-14 12:58 OP:dani STATUS:               ID:20160714090759     3
 2016-07-14-0907-59S.COL___316                                                 6
 STAT SP IPHASW D HRMM SECON CODA AMPLIT PERI AZIMU VELO AIN AR TRES W  DIS CAZ7
 BAR2 EZ EP   2    912  2.61                             169    0.93 5 24.3 200 
 BAR2 EZ ES        912 15.78                             169   -0.2110 24.3 200 
 BAR2 EZ I         912 21.87         2.4 0.16            173           24.3 200 
 RUS  HZ EP   3    912  5.77                             142   -0.23 2  100 179 
 RUS  HN ES   2    912 24.03                             142    0.35 5  100 179 
 RUS  HZ I         912 25.92         1.4 0.40            148            100 179 
 PTB  HZ EP        912  9.25                             128   -0.59 9  152 259 
 PTB  HN ES        912 30.22                             128   -0.29 9  152 259 
 PTB  HZ I         912 32.12         2.5 0.26            133            152 259 
 SPBC HZ EP   2    912 11.45                             126    0.17 5  166 220 
 SPBC HN ES        912 33.37                             126    0.30 9  166 220 
 SPBC HZ I         912 36.09         2.9 0.12            131            166 220 
 ZAR  HZ EP   4    912 17.30                             119    1.77 0  208 292 
 ZAR  HN ES        912 41.17                             119    0.53 8  208 292 
 ZAR  HZ I         912 47.11         1.6 0.16            123            208 292 
                                                                                
