 2012 1114 0240 51.1 L   6.845 -73.150147.1  RSN  7 0.3 1.6LRSN                1
 GAP=134        0.57       3.2     3.5  5.0 -0.7332E-01  0.4659E+01  0.4105E+01E
 Epicentro: LOS SANTOS - SANTANDER                                             3
 ACTION:UPD 12-12-05 15:33 OP:}ep  STATUS:               ID:20121114024051 L   I
 2012-11-14-0240-00M.COL___230                                                 6
 STAT SP IPHASW D HRMM SECON CODA AMPLIT PERI AZIMU VELO AIN AR TRES W  DIS CAZ7
 GIR2 SZ EP   1    241 10.72                             169   -0.12 7 26.3 350 
 GIR2 SZ ES   1    241 26.59                             169    0.38 7 26.3 350 
 BAR2 SZ EP   1    241 11.11                             169    0.08 7 28.2 187 
 BAR2 SZ ES   1    241 26.57                             169    0.02 7 28.2 187 
 BAR2 SZ I         241 27.13         7.0 0.20                          28.2 187 
 PAM  SZ EP   1    241 13.45                             152    0.16 7 74.0  42 
 PAM  SE ES   1    241 30.36                             152   -0.21 7 74.0  42 
 PAM  SZ I         241 31.08         5.8 0.22                          74.0  42 
 RUS  HZ EP   1    241 15.28                             143   -0.09 7  106 176 
 RUS  HN ES   1    241 34.01                             143   -0.28 7  106 176 
 PTB  HZ EP   1    241 17.72                             132   -0.53 7  148 257 
 PTB  HN ES   1    241 39.15                             132   -0.26 7  148 257 
 PTB  HZ I         241 41.40         5.8 0.20                           148 257 
 ZAR  HN ES   1    241 48.96                             123    0.34 6  202 291 
 CHI  HZ EP   1    241 29.72                             117    0.31 6  253 195 
 CHI  HN ES   1    241 59.76                             117    0.50 6  253 195 
 CHI  HZ I         242  5.13         2.4 0.36                           253 195 
                                                                                
