 2011  914 0401 26.7 L   6.762 -73.155144.2  RSN  5 0.2 1.4LRSN                1
 GAP=182        0.37       5.9     7.3  6.4  0.2829E+02  0.1506E+02  0.2190E+01E
 Epicentro: LOS SANTOS - SANTANDER                                             3
 ACTION:UPD 12-07-13 15:57 OP:ep   STATUS:               ID:20110914040126 L   I
 2011-09-14-0400-34S.COL___168                                                 6
 STAT SP IPHASW D HRMM SECON CODA AMPLIT PERI AZIMU VELO AIN AR TRES W  DIS CAZ7
 BAR2 SZ EP   2    4 1 45.97                             172   -0.07 5 19.0 189 
 BAR2 SZ ES   2    4 2  0.82                             172   -0.32 5 19.0 189 
 BAR2 SZ I         4 2  1.88         6.2 0.26                          19.0 189 
 GIR2 SZ ES   2    4 2  1.54                             166   -0.03 5 35.3 353 
 BRR  HZ EP   1    4 1 47.78                             152    0.05 7 72.4 302 
 BRR  HE ES   2    4 2  4.47                             152    0.32 5 72.4 302 
 BRR  HZ I         4 2  6.81         6.1 0.31                          72.4 302 
 RUS  HN ES   2    4 2  8.30                             145    0.15 5 96.4 175 
 RUS  HZ I         4 2  9.85         3.0 0.48                          96.4 175 
 ZAR  HZ I         4 2 20.46         2.7 0.25                           205 293 
 ZAR  HN ES   2    4 2 24.15                             122   -0.23 4  205 293 
                                                                                
