 2017 1014 0210 17.4 L   6.773 -73.167150.0  RSN  5 0.4 1.4LRSN                1
 GAP=233        0.88       8.5     8.9  7.9  0.5797E+02  0.1920E+01 -0.3430E+01E
 Epicentro: LOS SANTOS - SANTANDER                                             3
 ACTION:UPD 17-11-07 19:31 OP:rebc STATUS:               ID:20171014021017 L   I
 OLDACT:REG 17-10-14 11:01 OP:osc  STATUS:               ID:20171014020603     3
 2017-10-14-0208-00M.COL___432                                                 6
 STAT SP IPHASW D HRMM SECON CODA AMPLIT PERI AZIMU VELO AIN AR TRES W  DIS CAZ7
 BAR2 EZ EP        210 37.28                             173   -0.1610 20.0 185 
 BAR2 EZ ES        210 52.88                             173   -0.2210 20.0 185 
 BAR2 EZ I         210 53.48         7.2 0.12            172           20.0 185 
 BRR  HZ EP        210 39.25                             154    0.3210 70.6 302 
 BRR  HE ES        210 56.17                             154    0.4110 70.6 302 
 RUS  HZ EP        210 41.47                             146    0.1410 97.8 175 
 RUS  HN ES        210 59.93                             146   -0.1010 97.8 175 
 RUS  HZ I         211  0.86         2.7 0.24            145           97.8 175 
 PTB  HE ES   2    211  6.21                             134    0.69 5  145 260 
 ZAR  HN ES        211 14.68                             124   -0.73 9  203 293 
                                                                                
