 2010  714 0451  3.9 L   7.451 -73.174139.7  RSN  5 0.1 1.6LRSN                1
 GAP=183        0.33       4.0     4.2  3.9 -0.1146E+02 -0.1820E+01  0.8277E+00E
 Epicentro: EL PLAYON - SANTANDER                                              3
 ACTION:UPD 10-12-01 15:17 OP:pat  STATUS:               ID:20100714045103 L   I
 2010-07-14-0448-58S.COL___120                                                 6
 STAT SP IPHASW D HRMM SECON CODA AMPLIT PERI AZIMU VELO AIN AR TRES W  DIS CAZ7
 GUE  SZ EP        451 23.83                             159     0.010   50  33 
 GUE  SZ I         451 24.18        13.1 0.18                            50  33 
 BRI  SZ EP   1    451 23.69                             159     0.0 7   51  55 
 BRI  SZ I         451 24.44         8.9 0.40                            51  55 
 GRA  SZ IP        451 24.30                             154     0.110   63  40 
 GRA  SZ I         451 25.55         7.6 0.35                            63  40 
 GRA  SZ ES   1    451 39.90                             154    -0.1 7   63  40 
 BRR  HZ IP     C  451 24.31                             152    -0.110   71 237 
 BRR  HE ES   1    451 40.43                             152     0.1 7   71 237 
 BRR  HZ I         451 41.94         8.1 0.06                            71 237 
 OCA  SZ EP        451 25.71                             146    -0.110   89 350 
 OCA  SZ I         451 26.31         3.7 0.16                            89 350 
 OCA  SZ ES   2    451 42.85                             146     0.1 5   89 350 
                                                                                
