 2014  314 0827 36.5 L   6.801 -73.121147.5  RSN 10 0.4 1.9LRSN                1
 GAP=140        0.91       2.9     4.0  6.3 -0.1626E+01  0.1142E+02 -0.1936E+01E
 Epicentro: LOS SANTOS - SANTANDER                                             3
 OLDACT:REG 14-03-14 07:48 OP:fm   STATUS:               ID:20140314081814     3
 ACTION:UPD 14-04-09 23:17 OP:nd   STATUS:               ID:20140314082736 L   I
 OLDACT:UP  14-03-14 13:01 OP:fm   STATUS:               ID:20140314081814     3
 2014-03-14-0818-14M.COL___225                                                 6
 STAT SP IPHASW D HRMM SECON CODA AMPLIT PERI AZIMU VELO AIN AR TRES W  DIS CAZ7
 BAR2 SZ EP        827 56.22                             170   -0.1610 24.0 197 
 BAR2 SZ ES   1    828 11.98                             170    0.12 7 24.0 197 
 BAR2 SZ I         828 12.20        18.8 0.34            164           24.0 197 
 PAM  SZ EP        827 59.19                             152    0.3610 75.6  38 
 PAM  SN ES        828 16.43                             152    0.2210 75.6  38 
 PAM  SZ I         828 18.23         9.3 0.30            147           75.6  38 
 RUS  HZ EP        828  0.12                             144   -0.3310  101 178 
 RUS  HE ES        828 18.97                             144   -0.1310  101 178 
 RUS  SZ I         828 21.33         3.9 0.34            135            101 178 
 SPBC HZ EP        828  5.21                             129   -0.13 9  165 220 
 SPBC HE ES        828 27.51                             129   -0.29 9  165 220 
 SPBC SZ I         828 34.21        13.8 0.24            121            165 220 
 ZAR  HZ EP        828  8.85                             122   -0.50 8  207 292 
 ZAR  HE ES        828 34.64                             122   -0.31 8  207 292 
 ZAR  SZ I         828 40.41         8.9 0.28            117            207 292 
 NOR  HN ES        828 40.77                             119    0.02 8  237 235 
 SML  HZ EP        828 12.96                             118   -0.42 8  245 335 
 SML  HN ES        828 42.23                             118    0.12 8  245 335 
 SML  SZ I         828 45.94        12.3 0.08            113            245 335 
 CHI  HZ EP        828 14.30                             117   -0.12 8  249 196 
 CHI  SZ I         828 43.81         5.6 1.94            110            249 196 
 CHI  HN ES   1    828 44.58                             117    0.62 6  249 196 
 ROSC BN ES   4    828 48.86                             117    4.02 0  254 212 
 HEL  HZ EP        828 18.36                             115    1.23 8  275 256 
 HEL  HN ES        828 49.22                             115    0.42 8  275 256 
 HEL  SZ I         828 56.50         2.9 0.96            109            275 256 
 URE  HE ES   4    828 47.46                             114   -2.83 0  286 292 
 SJC  HZ EP   4    828 30.46                             106   -1.87 0  411 327 
 SJC  HN ES   4    829 11.85                             106   -3.99 0  411 327 
 SJC  SZ I         829 13.31         7.8 1.46            101            411 327 
                                                                                
