 2012  114 0108 47.6 L   7.296 -73.226131.3  RSN  8 0.3 1.9LRSN                1
 GAP= 91        0.65       4.9     4.4  6.0 -0.1945E+00  0.4344E+01  0.1518E+01E
 Epicentro: RIONEGRO - SANTANDER                                               3
 ACTION:UP  12-02-03 08:17 OP:REBC STATUS:               ID:20120114010847 L   I
 2012-01-14-0100-00M.COL___187                                                 6
 STAT SP IPHASW D HRMM SECON CODA AMPLIT PERI AZIMU VELO SNR AR TRES W  DIS CAZ7
 GIR2 SZ EP   2    1 9  5.40                             169     0.1 5   24 172 
 GIR2 SZ ES   2    1 9 18.74                             169    -0.4 5   24 172 
 PAM  SZ EP   1    1 9  7.57                             155     0.4 7   58  85 
 PAM  SE ES   2    1 9 22.74                             155     0.3 5   58  85 
 BRR  HZ EP        1 9  6.62                             155     0.210   58 249 
 BRR  HE ES   1    1 9 21.22                             155     0.2 7   58 249 
 BRR  HZ I         1 9 22.32        34.2 0.16                            58 249 
 BAR2 SZ EP   1    1 9  7.98                             148     0.1 7   78 176 
 BAR2 SZ I         1 9  8.43        12.8 0.13                            78 176 
 BAR2 SZ ES   2    1 9 23.43                             148    -0.4 5   78 176 
 OCA  SZ EP   2    1 9  8.97                             139    -0.8 5  105 354 
 OCA  SZ ES   2    1 9 26.60                             139    -0.5 5  105 354 
 OCA  SZ I         1 9 36.08        12.4 0.36                           105 354 
 RUS  HZ EP   1    1 9 14.45                             127    -0.4 7  156 174 
 PTB  HZ EP   1    1 9 14.31                             126    -0.2 7  160 238 
 PTB  HE ES   2    1 9 35.31                             126    -0.3 5  160 238 
 ZAR  HZ EP   1    1 9 16.96                             122     0.2 7  182 277 
 ZAR  HN ES   2    1 9 39.72                             122     0.2 4  182 277 
 ZAR  HZ I         1 9 46.16         7.9 0.11                           182 277 
                                                                                
