 2016  114 0320 32.2 L   6.742 -73.191149.5  RSN  5 0.3 1.5LRSN                1
 GAP=228        0.82       6.6     5.9  6.7  0.2487E+02  0.6948E+01  0.2649E+01E
 Epicentro: VILLANUEVA - SANTANDER                                             3
 ACTION:UPD 16-03-09 23:25 OP:cam  STATUS:               ID:20160114032032 L   I
 OLDACT:UP  16-01-14 19:24 OP:mh   STATUS:               ID:20160114031848     3
 OLDACT:REG 16-01-14 15:17 OP:mh   STATUS:               ID:20160114031848     3
 2016-01-14-0318-48M.COL___334                                                 6
 STAT SP IPHASW D HRMM SECON CODA AMPLIT PERI AZIMU VELO AIN AR TRES W  DIS CAZ7
 BAR2 EZ EP        320 52.09                             173   -0.0610 16.5 177 
 BAR2 EZ ES        321  7.11                             173   -0.6110 16.5 177 
 BAR2 EZ I         321  8.49         5.5 0.16            169           16.5 177 
 BRR  HZ EP   1    320 53.73                             153    0.04 7 70.4 305 
 BRR  HN ES        321 11.00                             153    0.5310 70.4 305 
 BRR  HZ I         321 14.22         8.5 0.38            151           70.4 305 
 RUS  HZ EP        320 55.96                             146    0.0710 94.6 173 
 RUS  HN ES        321 14.73                             146    0.3410 94.6 173 
 RUS  HZ I         321 18.27         2.6 0.46            146           94.6 173 
 PTB  HZ EP        320 58.81                             134   -0.12 9  142 261 
 PTB  HN ES        321 19.65                             134   -0.13 9  142 261 
 PTB  HZ I         321 24.82         3.0 0.20            132            142 261 
 ZAR  HN ES        321 29.92                             123   -0.09 9  202 294 
 ZAR  HZ I         321 36.43         4.3 0.52            124            202 294 
                                                                                
