 2013  814 0555 13.4 L   6.775 -73.142143.0  RSN  8 0.5 2.2LRSN                1
 GAP=138        0.97       4.8     4.7  7.6 -0.3593E+01  0.1651E+02  0.3979E+00E
 Epicentro: LOS SANTOS - SANTANDER                                             3
 ACTION:UPD 14-01-14 09:02 OP:ep   STATUS:               ID:20130814055513 L   I
 OLDACT:REG 13-08-14 08:38 OP:stll STATUS:               ID:20130814054848     3
 2013-08-14-0548-48M.COL___230                                                 6
 STAT SP IPHASW D HRMM SECON CODA AMPLIT PERI AZIMU VELO AIN AR TRES W  DIS CAZ7
 BAR2 SZ EP        555 32.81                             171    0.1510 20.7 193 
 BAR2 SZ ES   1    555 47.66                             171   -0.01 7 20.7 193 
 BAR2 SZ I         555 50.29        19.5 0.28            165           20.7 193 
 BRR  HZ EP        555 34.70                             151    0.3410 72.9 300 
 BRR  HN ES   1    555 51.29                             151    0.58 7 72.9 300 
 BRR  HN I         555 54.40        44.9 0.18            147           72.9 300 
 PAM  SZ EP   1    555 35.68                             150    0.23 7 79.3  38 
 PAM  SN ES        555 52.47                             150   -0.1710 79.3  38 
 PAM  SN I         555 53.79        35.1 0.46            158           79.3  38 
 RUS  HZ EP   1    555 36.78                             144    0.09 7 97.8 176 
 RUS  HN ES        555 54.39                             144   -0.4510 97.8 176 
 RUS  HN I         555 57.06        15.3 0.32            145           97.8 176 
 PTB  HZ EP   1    555 39.48                             131   -0.67 7  148 260 
 PTB  HN ES   1    556  0.56                             131   -0.44 7  148 260 
 PTB  HN I         556  6.34        31.4 0.26            129            148 260 
 ZAR  HZ EP   1    555 44.98                             121   -0.85 6  206 293 
 ZAR  HN ES   1    556 10.90                             121   -0.22 6  206 293 
 ZAR  HN I         556 14.62        18.3 0.10            121            206 293 
 NOR  HZ EP   1    555 48.67                             118   -0.18 6  233 235 
 NOR  HN ES        556 17.34                             118    0.85 8  233 235 
 NOR  HN I         556 22.72        23.2 0.14            118            233 235 
 HEL  HZ EP   1    555 54.32                             114    0.86 6  272 256 
 HEL  HN ES   1    556 24.20                             114   -0.49 6  272 256 
 HEL  HN I         556 47.85         6.0 0.42            114            272 256 
                                                                                
