 2016 1114 0721 21.9 L   6.764 -73.122140.1  RSN  7 0.3 1.6LRSN                1
 GAP=160        0.72       3.2     3.6  4.8 -0.1043E+01  0.2800E+01  0.3256E+01E
 Epicentro: LOS SANTOS - SANTANDER                                             3
 ACTION:UPD 17-10-26 21:08 OP:lp   STATUS:               ID:20161114072121 L   I
 OLDACT:UP  16-11-14 18:16 OP:edw  STATUS:               ID:20161114071744     3
 OLDACT:UP  16-11-14 18:13 OP:edw  STATUS:               ID:20161114071744     3
 OLDACT:REG 16-11-14 13:33 OP:lv   STATUS:               ID:20161114071744     3
 2016-11-14-0718-00M.COL___338                                                 6
 STAT SP IPHASW D HRMM SECON CODA AMPLIT PERI AZIMU VELO AIN AR TRES W  DIS CAZ7
 BAR2 EZ EP        721 40.86                             171    0.0710 20.1 199 
 BAR2 EZ ES        721 55.38                             171   -0.1310 20.1 199 
 BAR2 EZ I         721 56.96         9.5 0.22            170           20.1 199 
 BRR  HZ EP        721 42.52                             150   -0.1710 75.5 300 
 BRR  HN ES        721 59.44                             150    0.5310 75.5 300 
 BRR  HZ I         722  3.53         7.8 0.22            148           75.5 300 
 PAM  EZ EP        721 43.82                             149    0.2110 78.9  36 
 PAM  EE ES        722  0.32                             149   -0.2210 78.9  36 
 PAM  EZ I         722  2.82         7.0 0.46            151           78.9  36 
 PTB  HZ EP   9    721 47.72                             130   -0.87 0  150 261 
 PTB  HN ES        722  8.38                                   -0.15 9  150 261 
 PTB  HZ I         722 11.19         3.4 0.18            130            150 261 
 ZAR  HZ EP        721 54.43                             120    0.03 8  208 293 
 ZAR  HN ES        722 19.34                             120   -0.41 8  208 293 
 ZAR  HZ I         722 24.95         7.3 0.40            120            208 293 
 CHI  HN ES        722 27.51                             116   -0.33 8  245 196 
 PRA  HZ EP   4    722 16.99                             106    2.01 0  390 210 
 PRA  HN ES        722 56.92                             106    0.55 6  390 210 
 PRA  HZ I         723  3.12         1.7 0.32            106            390 210 
                                                                                
