 2013 1214 0604 12.2 L   6.813 -73.147143.5  RSN 14 0.5 2.4LRSN                1
 GAP= 71        1.25       3.5     3.7  6.2 -0.2643E+00  0.5900E+01  0.6761E-01E
 Epicentro: LOS SANTOS - SANTANDER                                             3
 ACTION:UPD 14-01-13 10:18 OP:ep   STATUS:               ID:20131214060412 L   I
 OLDACT:REG 13-12-14 07:31 OP:jn   STATUS:               ID:20131214060000     3
 2013-12-14-0600-00M.COL___285                                                 6
 STAT SP IPHASW D HRMM SECON CODA AMPLIT PERI AZIMU VELO AIN AR TRES W  DIS CAZ7
 BAR2 SZ IP     C  6 4 31.68                             170    0.0510 24.8 189 
 BAR2 SZ ES        6 4 46.72                             170   -0.0310 24.8 189 
 BAR2 SZ I         6 4 47.69        94.7 0.16            168           24.8 189 
 BRR  HZ EP     D  6 4 33.58                             152    0.4810 70.4 298 
 BRR  HN ES        6 4 50.25                             152    0.8810 70.4 298 
 BRR  HZ I         6 4 52.04        64.8 0.14            151           70.4 298 
 PAM  SZ EP        6 4 34.70                             151    0.5510 76.3  40 
 PAM  SN ES        6 4 51.08                             151   -0.1610 76.3  40 
 PAM  SZ I         6 4 55.24        17.3 0.14            155           76.3  40 
 RUS  HZ EP        6 4 35.53                             143   -0.3510  102 176 
 RUS  HN ES        6 4 53.94                             143   -0.3810  102 176 
 RUS  HZ I         6 4 55.16        12.1 0.34            145            102 176 
 PTB  HZ EP        6 4 38.71                             131   -0.33 9  148 258 
 PTB  HN ES        6 4 59.21                             131   -0.73 9  148 258 
 PTB  HZ I         6 5  2.08        45.6 0.14            131            148 258 
 TAM  HZ EP        6 4 39.92                             130    0.14 9  156 105 
 TAM  HN ES        6 5  1.30                             130    0.03 9  156 105 
 OCA  HZ EP        6 4 40.02                             129   -0.21 9  159 353 
 OCA  HN ES        6 5  1.65                             129   -0.42 9  159 353 
 OCA  HZ I         6 5  5.89        45.6 0.56            131            159 353 
 SPBC HZ EP        6 4 40.59                             128   -0.08 9  164 219 
 SPBC HN ES   2    6 5  2.59                             128   -0.25 5  164 219 
 SPBC HZ I         6 5 12.71        22.6 0.18            129            164 219 
 ZAR  HZ EP        6 4 44.61                             122    0.14 9  203 292 
 ZAR  HN ES   1    6 5 10.55                             122    0.94 6  203 292 
 ZAR  HZ I         6 5 19.05        31.7 0.26            123            203 292 
 NOR  HE ES   1    6 5 15.78                             118    0.03 6  235 234 
 NOR  HZ I         6 5 19.87        17.8 0.26            119            235 234 
 SML  HZ EP        6 4 47.79                             117   -0.80 8  242 335 
 SML  HN ES        6 5 16.92                             117   -0.02 8  242 335 
 HEL  HZ EP        6 4 53.89                             114    1.53 8  272 255 
 HEL  HN ES        6 5 23.28                             114   -0.38 8  272 255 
 HEL  HZ I         6 5 32.36        11.8 0.26            115            272 255 
 URE  HZ EP        6 4 52.10                             113   -1.03 7  283 292 
 PRA  HZ EP        6 5  6.65                             106    0.82 6  393 209 
 PRA  HN ES        6 5 47.72                             106    0.10 6  393 209 
 PRA  HZ I         6 5 53.17         7.3 0.26            107            393 209 
 SJC  HZ EP   4    6 5  5.92                             105   -1.65 0  408 327 
                                                                                
