 2017  714 0814 50.3 L   6.789 -73.145146.5  RSN 12 0.4 1.9LRSN                1
 GAP=112        0.94       3.5     3.2  5.9  0.6846E+00  0.4962E+01  0.3894E+01E
 Epicentro: LOS SANTOS - SANTANDER                                             3
 ACTION:UPD 17-08-30 15:32 OP:rebc STATUS:               ID:20170714081450 L   I
 OLDACT:UP  17-07-14 16:42 OP:dnl  STATUS:               ID:20170714080736     3
 OLDACT:REG 17-07-14 12:47 OP:dnl  STATUS:               ID:20170714080736     3
 2017-07-14-0808-00M.COL___385                                                 6
 STAT SP IPHASW D HRMM SECON CODA AMPLIT PERI AZIMU VELO AIN AR TRES W  DIS CAZ7
 BAR2 EZ EP        815  9.78                             171   -0.2410 22.1 191 
 BAR2 EZ ES        815 25.18                             171   -0.2110 22.1 191 
 BAR2 EZ I         815 27.41        23.5 0.26            171           22.1 191 
 BRR  HZ EP        815 11.76                             152    0.1610 71.9 299 
 BRR  HE ES        815 29.03                             152    0.8410 71.9 299 
 BRR  HZ I         815 33.38         8.2 0.12            151           71.9 299 
 PAM  EZ EP        815 12.67                             151   -0.0110 78.3  39 
 PAM  EN ES        815 29.97                             151   -0.1410 78.3  39 
 PAM  EZ I         815 31.82        12.1 0.60            153           78.3  39 
 RUS  HZ EP        815 13.77                             144   -0.2910 99.3 176 
 RUS  HN ES        815 32.35                             144   -0.2210 99.3 176 
 RUS  HZ I         815 33.56         9.8 0.32            146           99.3 176 
 PTB  HZ EP   4    815 16.12                             132   -1.22 0  148 259 
 PTB  HN ES        815 37.68                             132   -0.73 9  148 259 
 PTB  HZ I         815 39.12         5.6 0.62            132            148 259 
 SPBC HZ EP        815 18.63                             129   -0.17 9  162 219 
 SPBC HE ES        815 41.19                             129    0.19 9  162 219 
 SPBC HZ I         815 43.42        22.6 0.24            130            162 219 
 YPLC HZ EP   2    815 19.72                             127   -0.34 4  176 151 
 YPLC HN ES        815 43.83                             127    0.57 9  176 151 
 YPLC HZ I         815 44.88         9.2 0.26            129            176 151 
 ZAR  HZ EP   2    815 22.79                             122   -0.09 4  205 292 
 ZAR  HN ES        815 48.24                             122   -0.03 9  205 292 
 ZAR  HZ I         815 53.92         8.1 0.16            123            205 292 
 NOR  HZ EP        815 26.33                             119    0.30 8  234 235 
 NOR  HE ES        815 54.41                             119    0.53 8  234 235 
 NOR  HZ I         815 55.05         6.8 0.12            119            234 235 
 HEL  HE ES        816  1.49                             115   -0.44 8  272 256 
 HEL  HZ I         816  9.10         4.1 0.24            115            272 256 
 GUY2CHZ EP   4    815 36.06                             113    2.16 0  301 235 
 GUY2CHE ES   4    816  9.34                             113    1.46 0  301 235 
 GUY2CHZ I         816 16.30         4.8 0.30                           301 235 
 CBOC HZ EP   2    815 37.94                             110    0.70 3  333 252 
 CBOC HN ES   4    816 12.23                             110   -1.60 0  333 252 
 CBOC HZ I         816 20.21         1.4 0.52            111            333 252 
                                                                                
