 2010 1214 0624  5.2 L   6.833 -73.073137.5  RSN  7 0.4 1.7LRSN                1
 GAP=166        0.83       4.0     8.3 12.3 -0.1384E+02  0.4172E+02 -0.8858E+01E
 Epicentro: LOS SANTOS - SANTANDER                                             3
 ACTION:UP  11-01-14 15:24 OP:pat  STATUS:               ID:20101214062405 L   I
 2010-12-14-0620-00M.COL___136                                                 6
 STAT SP IPHASW D HRMM SECON CODA AMPLIT PERI AZIMU VELO SNR AR TRES W  DIS CAZ7
 BAR2 SZ EP   1    624 24.03                             167     0.0 8   29 205 
 BAR2 SZ I         624 39.84        13.2 0.23                            29 205 
 RUS  HZ EP   1    624 28.17                             141    -0.3 8  104 181 
 RUS  HN ES   1    624 46.40                             141    -0.1 8  104 181 
 RUS  HZ I         624 47.38         3.9 0.33                           104 181 
 GRA  SZ IP        624 29.73                             136     0.510  120  14 
 GRA  SZ I         624 31.13         8.6 0.27                           120  14 
 GRA  SZ ES   1    624 47.93                             136    -0.1 7  120  14 
 OCA  SZ EP   1    624 31.98                             128    -0.7 7  158 350 
 OCA  SZ ES   2    624 54.15                             128     0.1 5  158 350 
 OCA  SZ I         624 58.64         7.0 0.39                           158 350 
 CHI  HN ES   2    625 13.62                             115     0.9 4  254 197 
 CHI  HZ I         625 18.70         2.4 0.51                           254 197 
 HEL  HN ES   1    625 17.93                             112     0.1 6  281 255 
 HEL  HZ I         625 22.41         3.1 0.71                           281 255 
 PRA  HZ EP   2    624 59.35                             105     0.0 3  399 210 
 PRA  HN ES   2    625 41.05                             105    -0.5 3  399 210 
                                                                                
