 2017  414 0317  1.0 L   6.816 -73.114151.1  RSN  4 0.3 1.2LRSN                1
 GAP=140        0.70       4.0     3.9  6.9 -0.1976E+01 -0.1453E+01  0.4090E+01E
 Epicentro: LOS SANTOS - SANTANDER                                             3
 ACTION:UPD 17-05-30 21:11 OP:jn   STATUS:               ID:20170414031701 L   I
 OLDACT:UP  17-04-14 14:50 OP:edw  STATUS:               ID:20170414030748d    3
 OLDACT:DUP 17-04-14 14:47 OP:edw  STATUS:               ID:20170414030748d    3
 2017-04-14-0308-00M.COL___359                                                 6
 STAT SP IPHASW D HRMM SECON CODA AMPLIT PERI AZIMU VELO AIN AR TRES W  DIS CAZ7
 BRR  HZ EP        317 23.25                             153    0.4210 73.6 296 
 BRR  HN ES        317 40.07                             153    0.2010 73.6 296 
 PAM  EZ EP        317 23.26                             153   -0.2910 73.8  38 
 PAM  EN ES        317 41.08                             153   -0.0810 73.8  38 
 PAM  EZ I         317 43.41         2.1 0.38            153           73.8  38 
 RUS  HZ EP        317 25.39                             144    0.0310  102 178 
 RUS  HN ES        317 44.43                             144    0.0510  102 178 
 RUS  HZ I         317 45.60         2.8 0.42            146            102 178 
 PTB  HE ES        317 49.97                             132   -0.39 9  152 258 
                                                                                
