 2016  514 0908 17.0 L   6.781 -73.155140.0  RSN 13 0.4 1.8LRSN                1
 GAP=136        1.00       3.0     3.6  5.4 -0.2097E+01  0.7000E+01  0.2475E+01E
 Epicentro: LOS SANTOS - SANTANDER                                             3
 ACTION:UPD 16-08-18 17:45 OP:cam  STATUS:               ID:20160514090817 L   I
 OLDACT:REG 16-05-14 14:10 OP:y    STATUS:               ID:20160514085743     3
 2016-05-14-0857-43M.COL___302                                                 6
 STAT SP IPHASW D HRMM SECON CODA AMPLIT PERI AZIMU VELO AIN AR TRES W  DIS CAZ7
 BAR2 EZ EP        9 8 35.94                             171    0.0210 21.1 188 
 BAR2 EZ ES        9 8 50.38                             171   -0.2710 21.1 188 
 BAR2 EZ I         9 8 51.75        20.6 0.14            169           21.1 188 
 BRR  HZ EP        9 8 37.89                             151    0.3310 71.4 300 
 BRR  HN ES        9 8 54.54                             151    0.9610 71.4 300 
 BRR  HZ I         9 8 56.38        11.2 0.14            148           71.4 300 
 PAM  EZ EP        9 8 38.98                             149    0.2110 79.7  39 
 PAM  EN ES        9 8 55.89                             149    0.1610 79.7  39 
 PAM  EZ I         9 8 57.81        16.9 0.56            149           79.7  39 
 RUS  HZ EP        9 8 39.79                             143   -0.2710 98.5 175 
 RUS  HN ES        9 8 58.19                             143    0.1610 98.5 175 
 RUS  HZ I         9 9  0.05        10.4 0.40            141           98.5 175 
 PTB  HZ EP        9 8 42.87                             131   -0.53 9  146 260 
 PTB  HN ES        9 9  3.38                             131   -0.59 9  146 260 
 PTB  HZ I         9 9  6.74         7.9 0.31            127            146 260 
 SPBC HZ EP        9 8 44.89                             128    0.02 9  161 219 
 SPBC HN ES        9 9  6.46                             128   -0.12 9  161 219 
 SPBC HZ I         9 9 12.54         9.8 0.12            125            161 219 
 OCA  HZ EP   2    9 8 44.89                             128   -0.19 5  162 354 
 OCA  HN ES        9 9  5.99                             128   -0.98 9  162 354 
 OCA  HZ I         9 9 10.95         9.6 0.34            126            162 354 
 ZAR  HZ EP        9 8 49.30                             121    0.21 9  204 293 
 ZAR  HN ES        9 9 14.43                             121    0.33 9  204 293 
 ZAR  HZ I         9 9 17.25         6.3 0.33            118            204 293 
 NOR  HZ EP        9 8 51.98                             118   -0.22 8  233 235 
 NOR  HN ES        9 9 20.10                             118    0.46 8  233 235 
 NOR  HZ I         9 9 27.08         4.5 0.32            115            233 235 
 HEL  HZ EP   2    9 8 57.07                             114    0.29 4  271 256 
 HEL  HN ES        9 9 27.74                             114   -0.06 8  271 256 
 HEL  HZ I         9 9 33.20         4.0 0.54            111            271 256 
 CBOC HZ EP        9 9  3.91                             109    0.39 7  332 252 
 CBOC HZ I         9 9 30.67         1.2 0.14            107            332 252 
 CBOC HE ES        9 9 39.49                             109   -0.30 7  332 252 
 PRA  HZ EP   2    9 9 10.16                             106    0.09 3  390 210 
 PRA  HE ES        9 9 51.51                             106    0.06 6  390 210 
 PRA  HZ I         9 9 56.17         2.5 0.22            104            390 210 
 ORTC HZ EP        9 9 11.21                             106    0.73 6  393 216 
 ORTC HN ES        9 9 51.44                             106   -0.74 6  393 216 
 ORTC HZ I         910  0.94         1.5 0.44            104            393 216 
                                                                                
