 2012  414 0534 42.2 L   7.094 -73.363121.3  RSN  4 0.3 1.2LRSN                1
 GAP=157        0.60       7.5     4.7  7.2 -0.5760E+01  0.9163E+01 -0.1025E+01E
 Epicentro: LEBRIJA - SANTANDER                                                3
 ACTION:UPD 12-07-05 11:53 OP:tino STATUS:               ID:20120414053442 L   I
 2012-04-14-0530-00M.COL___181                                                 6
 STAT SP IPHASW D HRMM SECON CODA AMPLIT PERI AZIMU VELO AIN AR TRES W  DIS CAZ7
 BRR  HZ EP        534 59.14                             161     0.110   39 272 
 BRR  HZ I         534 59.28        10.1 0.11                            39 272 
 BRR  HE ES   1    535 12.47                             161     0.3 7   39 272 
 BAR2 SZ EP   1    535  0.77                             153     0.4 7   59 160 
 BAR2 SZ ES   1    535 14.46                             153    -0.1 7   59 160 
 PAM  SE ES   2    535 16.82                             145    -0.5 5   78  70 
 PTB  HZ EP   1    535  5.93                             128    -0.2 7  136 243 
 PTB  HN ES   1    535 24.59                             128    -0.2 7  136 243 
 PTB  HZ I         535 28.44         1.2 0.20                           136 243 
                                                                                
