 2017  814 0042  0.4 L   6.791 -73.179146.0  RSN  5 0.5 1.7LRSN                1
 GAP=233        0.92       5.6     7.3  7.7  0.1938E+02  0.1740E+02 -0.2804E+01E
 Epicentro: LOS SANTOS - SANTANDER                                             3
 ACTION:UPD 17-09-04 20:20 OP:rebc STATUS:               ID:20170814004200 L   I
 OLDACT:REG 17-08-14 13:23 OP:mg   STATUS:               ID:20170814003740     3
 2017-08-14-0038-00M.COL___413                                                 6
 STAT SP IPHASW D HRMM SECON CODA AMPLIT PERI AZIMU VELO AIN AR TRES W  DIS CAZ7
 BAR2 EZ ES        042 34.78                             171   -0.5410 22.0 181 
 BAR2 EZ I         042 35.99        12.4 0.14            171           22.0 181 
 BRR  HZ EP        042 21.65                             153    0.2510 68.5 301 
 BRR  HN ES   2    042 39.30                             153    1.50 5 68.5 301 
 BRR  HZ I         042 46.26        10.1 0.34            150           68.5 301 
 RUS  HZ EP        042 24.19                             144    0.0910 99.9 174 
 RUS  HN ES        042 42.66                             144    0.0510 99.9 174 
 RUS  HZ I         042 43.34         7.9 0.24            151           99.9 174 
 SPBC HZ EP        042 28.56                             129   -0.04 9  160 218 
 SPBC HN ES        042 50.74                             129    0.12 9  160 218 
 SPBC HZ I         042 53.21        12.0 0.38            133            160 218 
 ZAR  HZ EP        042 32.54                             123    0.01 9  201 293 
 ZAR  HE ES        042 57.20                             123   -0.41 9  201 293 
 ZAR  HZ I         043  4.56         3.4 0.28            124            201 293 
                                                                                
