 2016  614 0608  3.7 L   7.410 -73.187132.6  RSN  6 0.3 1.8LRSN                1
 GAP=111        0.74       3.3     4.1  5.7 -0.3626E+01  0.5753E+01 -0.7020E-03E
 Epicentro: EL PLAYON - SANTANDER                                              3
 ACTION:UPD 16-07-21 22:18 OP:rebc STATUS:               ID:20160614060803 L   I
 OLDACT:REG 16-06-14 12:35 OP:dnl  STATUS:               ID:20160614055742     3
 2016-06-14-0557-42M.COL___301                                                 6
 STAT SP IPHASW D HRMM SECON CODA AMPLIT PERI AZIMU VELO AIN AR TRES W  DIS CAZ7
 PAM  EZ EP        6 8 23.31                             157    0.1210 54.4  98 
 PAM  EN ES        6 8 38.90                             157    0.4810 54.4  98 
 PAM  EZ I         6 8 39.58        13.9 0.16                          54.4  98 
 BRR  HZ EP     C  6 8 23.17                             152    0.0210 67.0 240 
 BRR  HE ES        6 8 38.50                             152    0.1510 67.0 240 
 BRR  HZ I         6 8 39.62        19.2 0.12                          67.0 240 
 BAR2 EZ EP        6 8 25.02                             144   -0.0110 90.4 180 
 BAR2 EZ ES        6 8 41.03                             144   -0.6710 90.4 180 
 BAR2 EZ I         6 8 42.73         7.7 0.10                          90.4 180 
 OCA  HZ EP        6 8 25.01                             143   -0.0710 92.8 351 
 OCA  HN ES        6 8 41.55                             143   -0.2410 92.8 351 
 OCA  HZ I         6 8 43.69        11.9 0.14                          92.8 351 
 PTB  HZ EP        6 8 31.71                             125   -0.07 9  170 236 
 PTB  HE ES        6 8 53.91                             125    0.20 9  170 236 
 PTB  HZ I         6 8 54.95         7.3 0.20                           170 236 
 SPBC HZ EP   3    6 8 37.12                             118    0.27 2  218 207 
 SPBC HN ES   2    6 9  3.34                             118    0.60 4  218 207 
 SPBC HZ I         6 9 10.84         4.4 0.22                           218 207 
                                                                                
