 2015  514 0903  0.0 L   6.808 -73.127153.0  RSN 20 0.5 2.6LRSN                1
 GAP= 67        1.00       2.5     2.8  4.7 -0.5389E+00  0.3627E+01  0.1589E+01E
 Epicentro: LOS SANTOS - SANTANDER                                             3
 ACTION:UPD 15-09-10 22:03 OP:cam  STATUS:               ID:20150514090300 L   I
 OLDACT:UP  15-05-14 15:12 OP:ar   STATUS:               ID:20150514085746     3
 OLDACT:UP  15-05-14 14:18 OP:ar   STATUS:               ID:20150514085746     3
 OLDACT:UP  15-05-14 14:14 OP:ar   STATUS:               ID:20150514085746     3
 OLDACT:REG 15-05-14 12:33 OP:mh   STATUS:               ID:20150514085746     3
 2015-05-14-0857-46M.COL___281                                                 6
 STAT SP IPHASW D HRMM SECON CODA AMPLIT PERI AZIMU VELO AIN AR TRES W  DIS CAZ7
 BAR2 EZ IP     D  9 3 20.30                             170   -0.2310 24.7 194 
 BAR2 EZ ES        9 3 36.31                             170   -0.2310 24.7 194 
 BAR2 EZ I         9 3 38.20        61.3 0.24            160           24.7 194 
 BRR  HZ EP     C  9 3 22.30                             153    0.2810 72.6 297 
 BRR  HE ES        9 3 39.59                             153    0.4010 72.6 297 
 BRR  HZ I         9 3 41.80        71.2 0.32            150           72.6 297 
 PAM  SZ EP     C  9 3 23.23                             153    0.3510 75.3  39 
 PAM  SN ES        9 3 40.61                             153   -0.1110 75.3  39 
 PAM  SZ I         9 3 42.48        86.8 0.58            157           75.3  39 
 RUS  HZ EP     D  9 3 24.14                             145   -0.3910  101 177 
 RUS  HE ES        9 3 43.26                             145   -0.4010  101 177 
 RUS  HZ I         9 3 43.85        23.2 0.34            135            101 177 
 TAM  HZ IP     D  9 3 28.46                             132    0.35 9  153 106 
 TAM  HN ES        9 3 50.43                             132    0.41 9  153 106 
 TAM  HZ I         9 3 50.80        18.5 0.48            128            153 106 
 OCA  HZ EP     C  9 3 28.41                             131   -0.42 9  160 352 
 OCA  HN ES        9 3 51.38                             131    0.07 9  160 352 
 OCA  HZ I         9 3 55.82        93.1 0.14            131            160 352 
 SPBC HZ EP        9 3 29.24                             130   -0.02 9  165 219 
 SPBC HE ES        9 3 52.41                             130    0.34 9  165 219 
 SPBC HZ I         9 3 55.33        51.4 0.16            122            165 219 
 ZAR  HZ EP        9 3 32.75                             124   -0.35 8  206 292 
 ZAR  HE ES        9 3 58.72                             124   -0.18 8  206 292 
 ZAR  HZ I         9 4  5.38        66.9 0.30            119            206 292 
 NOR  HZ EP        9 3 36.03                             120   -0.37 8  237 235 
 NOR  HN ES        9 4  4.66                             120   -0.13 8  237 235 
 NOR  HZ I         9 4  9.13        31.5 0.16            114            237 235 
 SML  HZ EP        9 3 36.71                             119   -0.34 8  244 335 
 SML  HN ES        9 4  6.04                             119    0.09 8  244 335 
 SML  HZ I         9 4  8.45        58.5 0.49            117            244 335 
 CHI  HZ EP        9 3 38.33                             118    0.06 8  250 196 
 CHI  HN ES        9 4  8.26                             118    0.14 8  250 196 
 CHI  HZ I         9 4 15.62        19.3 0.26            112            250 196 
 ROSC BZ EP   4    9 3 39.93                             118    1.20 0  255 211 
 ROSC BE ES   4    9 4 13.43                             118    4.49 0  255 211 
 ROSC BZ I         9 4 17.28        32.2 0.50            112            255 211 
 HEL  HZ EP        9 3 41.65                             116    0.80 8  274 256 
 HEL  HE ES        9 4 12.56                             116   -0.14 8  274 256 
 HEL  HZ I         9 4 19.80        21.3 0.24            111            274 256 
 URE  HZ EP   4    9 3 40.24                             115   -1.38 0  285 292 
 URE  HE ES   4    9 4 12.49                             115   -1.58 0  285 292 
 URE  HZ I         9 4 21.22        27.8 0.28            111            285 292 
 GUY2CHZ EP        9 3 45.19                             113    0.98 7  303 235 
 GUY2CHN ES        9 4 19.28                             113    0.59 7  303 235 
 GUY2CHZ I         9 4 25.18        19.4 0.28                           303 235 
 PTGC HZ EP     D  9 3 43.11                             113   -1.10 7  309 159 
 PTGC HN ES   4    9 4 16.46                             113   -2.23 0  309 159 
 PTGC HZ I         9 4 18.90        18.2 0.40            108            309 159 
 CBOC HZ EP        9 3 48.04                             111    0.55 7  336 252 
 CBOC HE ES        9 4 23.31                             111   -1.21 7  336 252 
 ARGC HZ EP   4    9 3 50.54                             109    0.61 0  359 340 
 ARGC HE ES   4    9 4 29.84                             109    0.97 0  359 340 
 ARGC HZ I         9 4 44.44        19.8 0.36            107            359 340 
 ANIL HZ EP   4    9 3 51.93                             110    1.58 0  359 225 
 ANIL HE ES   4    9 4 31.13                             110    1.52 0  359 225 
 ORTC HZ EP        9 3 54.29                             107   -0.12 6  397 216 
 ORTC HE ES        9 4 37.35                             107    0.50 6  397 216 
 ORTC HZ I         9 4 43.74        10.6 0.72            103            397 216 
 SJC  HZ EP   4    9 3 54.27                             107   -1.59 0  410 327 
 SJC  HN ES   4    9 4 36.46                             107   -2.96 0  410 327 
 SJC  HZ I         9 4 40.14         9.2 0.56            104            410 327 
 SMAR HZ EP   4    9 4  5.41                             103   -0.62 0  497 346 
 SMAR HE ES   4    9 4 53.66                             103   -3.86 0  497 346 
                                                                                
