 2010 1014 0209 45.4 L   6.919 -73.490115.7  RSN  6 0.3 1.9LRSN                1
 GAP=220        0.82       6.4    10.8 10.7 -0.2942E+02 -0.5440E+02  0.7538E+01E
 Epicentro: SAN VICENTE DE CHUCURI - SANTANDER                                 3
 ACTION:UP  11-02-18 11:09 OP:tino STATUS:               ID:20101014020945 L   I
 2010-10-14-0206-19S.COL___126                                                 6
 STAT SP IPHASW D HRMM SECON CODA AMPLIT PERI AZIMU VELO SNR AR TRES W  DIS CAZ7
 BTL  SZ EP   1    210  1.05                             167    -0.4 7   25  90 
 BRR  HZ EP        210  1.41                             164     0.010   32 310 
 BRR  HN ES   1    210 14.06                             164     0.3 7   32 310 
 BRR  HZ I         210 15.04        43.7 0.16                            32 310 
 GIR2 SZ EP   1    210  1.29                             161    -0.5 7   37  62 
 URB  SZ EP   1    210  2.15                             160     0.4 7   39  26 
 GRA  SZ EP        210  8.94                             128     0.310  131  35 
 GRA  SZ ES   1    210 27.05                             128     0.3 7  131  35 
 GRA  SZ I         210 30.10         8.3 0.33                           131  35 
 OCA  SZ EP   1    210 10.35                             124     0.1 7  147   7 
 OCA  SZ ES        210 29.21                             124    -0.4 9  147   7 
 OCA  SZ I         210 30.96        10.6 0.26                           147   7 
                                                                                
