 2015  914 0013 46.9 L   6.760 -73.130133.5  RSN  6 0.5 1.4LRSN                1
 GAP=222        1.04       8.0     8.5  8.6  0.5563E+01  0.2643E+02 -0.1712E+02E
 Epicentro: LOS SANTOS - SANTANDER                                             3
 ACTION:UPD 15-10-28 16:26 OP:cam  STATUS:               ID:20150914001346 L   I
 OLDACT:REG 15-09-14 12:46 OP:mh   STATUS:               ID:20150914000750     3
 2015-09-14-0007-50M.COL___329                                                 6
 STAT SP IPHASW D HRMM SECON CODA AMPLIT PERI AZIMU VELO AIN AR TRES W  DIS CAZ7
 BAR2 EZ ES        014 18.80                             171   -0.2410 19.4 197 
 BRR  HZ EP        014  7.26                             149    0.3310 74.9 301 
 BRR  HE ES        014 22.87                             149    0.2910 74.9 301 
 BRR  HZ I         014 27.72         5.1 0.54            167           74.9 301 
 RUS  HZ I         014 52.55         3.4 0.34            125           96.0 177 
 PTB  HZ EP        014 13.04                             129    0.09 9  149 261 
 PTB  HN ES        014 32.63                             129   -0.67 9  149 261 
 PTB  HZ I         014 36.00         2.6 0.12            129            149 261 
 ZAR  HZ EP        014 18.88                             119   -0.01 8  207 293 
 ZAR  HN ES        014 44.51                             119    0.63 8  207 293 
 ZAR  HZ I         014 45.48         3.0 0.12            120            207 293 
 SML  HE ES   1    014 50.91                             114   -0.92 6  248 335 
 SML  HZ I         014 55.97         3.3 0.24            113            248 335 
                                                                                
