 2015  314 0826 50.2 L   6.739 -73.122147.4  RSN  6 0.5 1.1LRSN                1
 GAP=142        1.28       6.0     6.5  8.7 -0.1004E+02  0.7515E+01  0.5046E+01E
 Epicentro: LOS SANTOS - SANTANDER                                             3
 ACTION:UPD 15-04-30 16:25 OP:nd   STATUS:               ID:20150314082650 L   I
 OLDACT:UP  15-03-14 16:37 OP:cam  STATUS:               ID:20150314081749d    3
 OLDACT:DUP 15-03-14 16:36 OP:cam  STATUS:               ID:20150314081749d    3
 OLDACT:DUP 15-03-14 16:33 OP:cam  STATUS:               ID:20150314081748d    3
 2015-03-14-0817-47M.COL___272                                                 6
 STAT SP IPHASW D HRMM SECON CODA AMPLIT PERI AZIMU VELO AIN AR TRES W  DIS CAZ7
 BAR2 EZ EP        827 10.13                             173    0.1810 17.6 202 
 BAR2 EZ ES        827 25.43                             173    0.0910 17.6 202 
 BAR2 EZ I         827 27.47         2.6 0.38            172           17.6 202 
 BRR  HZ EP        827 11.89                             151    0.0110 76.8 302 
 BRR  HN ES        827 29.33                             151    0.5610 76.8 302 
 BRR  HZ I         827 31.24         3.4 0.72            151           76.8 302 
 PAM  SZ EP        827 12.96                             150    0.1210 81.2  35 
 PAM  SN ES        827 30.30                             150   -0.1810 81.2  35 
 PAM  SZ I         827 30.86         2.1 0.32            153           81.2  35 
 RUS  HZ EP        827 14.05                             146    0.3910 93.7 177 
 RUS  HN ES        827 31.17                             146   -0.7710 93.7 177 
 RUS  HZ I         827 34.24         1.0 0.28            148           93.7 177 
 PTB  HZ EP        827 16.86                             132   -0.60 9  149 262 
 PTB  HN ES        827 37.92                             132   -0.78 9  149 262 
 PTB  HZ I         827 43.06         2.7 0.22            133            149 262 
 SPBC HZ EP        827 18.52                             130   -0.01 9  160 221 
 SPBC HN ES        827 41.56                             130    0.96 9  160 221 
                                                                                
