 2016  114 0106  9.9 L   6.794 -73.126148.6  RSN 12 0.4 1.9LRSN                1
 GAP=139        1.04       3.2     5.2  6.0 -0.9319E+00  0.1067E+02  0.4392E+01E
 Epicentro: LOS SANTOS - SANTANDER                                             3
 ACTION:UPD 16-03-09 23:25 OP:cam  STATUS:               ID:20160114010609 L   I
 OLDACT:UP  16-01-14 13:59 OP:mh   STATUS:               ID:20160114005749d    3
 OLDACT:DUP 16-01-14 13:59 OP:mh   STATUS:               ID:20160114005749d    3
 OLDACT:REG 16-01-14 12:28 OP:mh   STATUS:               ID:20160114005748     3
 2016-01-14-0057-48M.COL___337                                                 6
 STAT SP IPHASW D HRMM SECON CODA AMPLIT PERI AZIMU VELO AIN AR TRES W  DIS CAZ7
 BAR2 EZ EP        1 6 29.25                             171   -0.5810 23.2 196 
 BAR2 EZ ES        1 6 44.92                             171   -0.4810 23.2 196 
 BAR2 EZ I         1 6 47.16        12.3 0.42            159           23.2 196 
 BRR  HZ EP        1 6 31.63                             152    0.1810 73.5 298 
 BRR  HN ES        1 6 49.19                             152    0.9110 73.5 298 
 BRR  HZ I         1 6 51.43         8.3 0.36            143           73.5 298 
 PAM  EZ EP        1 6 32.61                             152    0.2810 76.5  38 
 PAM  EN ES        1 6 50.27                             152    0.4210 76.5  38 
 PAM  EZ I         1 6 51.72         9.5 0.20            160           76.5  38 
 RUS  HZ EP   1    1 6 33.65                             145   -0.19 7 99.8 177 
 RUS  HN ES        1 6 52.28                             145   -0.2610 99.8 177 
 RUS  HZ I         1 6 53.67         4.3 0.38            140           99.8 177 
 OCA  HN ES        1 7  0.31                             130   -0.50 9  161 352 
 SPBC HZ EP        1 6 38.69                             129    0.03 9  164 220 
 SPBC HN ES        1 7  1.22                             129    0.09 9  164 220 
 SPBC HZ I         1 7 27.00        22.0 0.20            123            164 220 
 ZAR  HZ EP        1 6 42.75                             123    0.02 8  206 292 
 ZAR  HN ES        1 7  7.61                             123   -0.76 8  206 292 
 ZAR  HZ I         1 7 18.68         7.4 0.38            118            206 292 
 NOR  HZ EP        1 6 46.07                             119    0.16 8  236 235 
 NOR  HZ I         1 7 17.07         6.7 0.34            115            236 235 
 SML  HN ES   4    1 7 14.09                             118   -1.55 0  245 335 
 SML  HZ I         1 7 17.66        15.0 0.10            116            245 335 
 CHI  HZ EP        1 6 47.78                             118    0.07 8  249 196 
 CHI  HN ES        1 7 17.35                             118    0.11 8  249 196 
 CHI  HZ I         1 7 25.78         2.3 0.62            115            249 196 
 GUY2CHZ EP        1 6 54.39                             113    0.63 7  303 235 
 GUY2CHN ES   4    1 7 31.07                             113    3.06 0  303 235 
 GUY2CHZ I         1 7 36.40         6.4 0.76                           303 235 
 PRA  HZ EP   1    1 7  2.85                             107   -0.69 4  393 210 
 PRA  HN ES        1 7 45.63                             107    0.22 6  393 210 
 PRA  HZ I         1 7 49.98         3.2 0.28            105            393 210 
 SJC  HZ EP   4    1 7  3.46                             106   -2.27 0  411 327 
 SJC  HN ES   4    1 7 42.03                             106   -7.27 0  411 327 
                                                                                
