 2013 1014 0653 30.1 L   6.819 -73.159140.4  RSN 12 0.4 2.3LRSN                1
 GAP=134        0.82       2.5     3.9  5.4 -0.2631E+01  0.8900E+01  0.2934E+00E
 Epicentro: LOS SANTOS - SANTANDER                                             3
 ACTION:UPD 13-11-25 09:21 OP:ep   STATUS:               ID:20131014065330 L   I
 OLDACT:UP  13-10-14 11:13 OP:mh   STATUS:               ID:20131014064959     3
 OLDACT:REG 13-10-14 08:08 OP:mh   STATUS:               ID:20131014064959     3
 2013-10-14-0649-59M.COL___273                                                 6
 STAT SP IPHASW D HRMM SECON CODA AMPLIT PERI AZIMU VELO AIN AR TRES W  DIS CAZ7
 BAR2 SZ EP   1    653 49.25                             169    0.16 7 25.2 186 
 BAR2 SZ ES   1    654  3.54                             169   -0.39 7 25.2 186 
 BAR2 SZ I         654 10.18        41.0 0.23            169           25.2 186 
 PAM  SZ EP   1    653 51.92                             150    0.25 7 76.8  41 
 PAM  SN ES        654  8.64                             150    0.1110 76.8  41 
 PAM  SZ I         654 11.19        34.0 0.49            156           76.8  41 
 RUS  HZ EP        653 53.36                             142   -0.0910  103 175 
 RUS  HN ES        654 11.94                             142    0.2410  103 175 
 RUS  HZ I         654 14.42        13.2 0.33            146            103 175 
 PTB  HZ EP        653 55.76                             131   -0.74 9  147 258 
 PTB  HN ES        654 16.68                             131   -0.44 9  147 258 
 PTB  HZ I         654 20.74        29.5 0.29            134            147 258 
 OCA  HZ EP        653 57.90                             129    0.16 9  158 354 
 OCA  HN ES   1    654 19.65                             129    0.31 7  158 354 
 OCA  HZ I         654 23.46        21.8 0.17            134            158 354 
 SPBC HZ EP   1    653 58.13                             128   -0.09 7  164 218 
 SPBC HN ES   4    654 21.86                             128    1.67 0  164 218 
 SPBC HZ I         654 27.83        24.6 0.22            131            164 218 
 NOR  HN ES   1    654 33.75                             117    0.64 6  235 234 
 NOR  HZ I         654 37.31        17.8 0.22            121            235 234 
 SML  HZ EP   1    654  5.32                             116   -0.79 6  241 335 
 SML  HN ES   1    654 34.64                             116    0.41 6  241 335 
 SML  HZ I         654 39.66        27.6 0.10            121            241 335 
 CHI  HZ EP        654  7.71                             116    0.06 8  250 195 
 CHI  HN ES        654 37.12                             116    0.16 8  250 195 
 CHI  HZ I         654 45.44         7.8 0.33            120            250 195 
 ROSC BZ EP   4    654  9.47                             115    1.46 0  254 210 
 ROSC BN ES   4    654 38.84                             115    1.24 0  254 210 
 GUY2CHZ EP   1    654 14.54                             111    1.12 5  301 234 
 GUY2CHE ES        654 47.42                             111    0.17 7  301 234 
 GUY2CHZ I         654 57.67        14.0 0.36                           301 234 
 CBOC HZ EP   1    654 17.07                             109    0.41 5  333 252 
 CBOC HN ES   2    654 53.39                             109    0.37 3  333 252 
 PRA  HZ EP   1    654 23.05                             105   -0.48 4  393 209 
 PRA  HN ES        655  4.73                             105   -0.50 6  393 209 
 PRA  HZ I         655  8.40         8.1 0.22            109            393 209 
 SJC  HZ EP   4    654 23.32                             105   -1.82 0  407 327 
 SJC  HN ES   4    655  3.84                             105   -4.27 0  407 327 
                                                                                
