 2010  814 0242 22.5 L   6.768 -73.080140.0  RSN  7 0.3 1.6LRSN                1
 GAP=166        0.73       4.0     8.5  8.3  0.4854E+01 -0.3792E+02 -0.5665E+01E
 Epicentro: LOS SANTOS - SANTANDER                                             3
 ACTION:UP  10-09-07 10:54 OP:vdl  STATUS:               ID:20100814024222 L   I
 2010-08-14-0240-31S.COL___111                                                 6
 STAT SP IPHASW D HRMM SECON CODA AMPLIT PERI AZIMU VELO SNR AR TRES W  DIS CAZ7
 BAR2 SZ IP        242 41.27                             171    -0.210   23 210 
 BAR2 SZ I         242 41.59         9.6 0.08                            23 210 
 BAR2 SZ ES   2    242 56.00                             171    -0.2 5   23 210 
 BTL  SZ IP        242 41.43                             170    -0.110   27 309 
 BRR  HZ EP   1    242 43.13                             150    -0.4 7   79 298 
 BRR  HZ I         242 47.65        10.4 0.15                            79 298 
 BRR  HN ES        243  0.13                             150     0.210   79 298 
 RUS  HZ EP        242 45.30                             144    -0.110   97 180 
 RUS  HE ES   1    243  3.74                             144     0.4 7   97 180 
 RUS  HZ I         243  5.05         4.2 0.31                            97 180 
 GUE  SZ EP   1    242 47.46                             138     0.6 7  119   8 
 GRA  SZ IP        242 47.39                             136     0.010  127  14 
 GRA  SZ ES   2    243  6.65                             136    -0.1 5  127  14 
 GRA  SZ I         243  7.92         5.0 0.31                           127  14 
 PRA  HZ EP   2    243 16.59                             106     0.7 3  393 211 
 PRA  HZ I         243 47.38         1.3 0.69                           393 211 
                                                                                
