 2016  614 0816 52.5 L   6.794 -73.120149.7  RSN 18 0.5 2.0LRSN                1
 GAP=140        0.94       3.4     3.7  5.1 -0.1694E+01  0.6312E+01  0.1197E+01E
 Epicentro: LOS SANTOS - SANTANDER                                             3
 ACTION:UPD 16-07-21 22:18 OP:rebc STATUS:               ID:20160614081652 L   I
 OLDACT:REG 16-06-14 12:43 OP:dnl  STATUS:               ID:20160614080747     3
 2016-06-14-0807-47M.COL___295                                                 6
 STAT SP IPHASW D HRMM SECON CODA AMPLIT PERI AZIMU VELO AIN AR TRES W  DIS CAZ7
 BAR2 EZ EP        817 12.43                             171   -0.1610 23.3 197 
 BAR2 EZ ES        817 27.95                             171   -0.3210 23.3 197 
 BAR2 EZ I         817 30.00        14.8 0.20                          23.3 197 
 BRR  HZ EP        817 14.41                             152    0.1910 74.1 298 
 BRR  HE ES        817 32.02                             152    0.8510 74.1 298 
 BRR  HZ I         817 34.94        16.0 0.42                          74.1 298 
 PAM  EZ EP        817 15.40                             152    0.3510 76.1  38 
 PAM  EN ES        817 32.66                             152    0.0210 76.1  38 
 PAM  EZ I         817 34.79        18.1 0.54                          76.1  38 
 RUS  HZ EP        817 16.61                             145    0.0510 99.7 178 
 RUS  HE ES        817 35.44                             145    0.1010 99.7 178 
 RUS  HZ I         817 36.78         5.1 0.22                          99.7 178 
 PTB  HZ EP        817 19.41                             132   -0.61 9  150 259 
 PTB  HN ES        817 40.63                             132   -0.86 9  150 259 
 PTB  HZ I         817 47.86        19.0 0.44                           150 259 
 OCA  HZ EP        817 20.93                             130   -0.27 9  161 352 
 OCA  HN ES   2    817 42.99                             130   -0.61 5  161 352 
 OCA  HZ I         817 46.14        17.4 0.70                           161 352 
 SPBC HZ EP   2    817 21.08                             130   -0.33 5  164 220 
 SPBC HN ES   2    817 43.96                             130   -0.01 5  164 220 
 SPBC HZ I         817 47.61        13.3 0.20                           164 220 
 ZAR  HZ EP        817 25.26                             123   -0.23 8  207 292 
 ZAR  HE ES        817 51.14                             123   -0.09 8  207 292 
 ZAR  HZ I         817 56.36        13.2 0.60                           207 292 
 NOR  HZ EP        817 28.33                             119   -0.32 8  237 235 
 NOR  HE ES   2    817 56.99                             119    0.13 4  237 235 
 NOR  HZ I         818  4.94         5.3 0.16                           237 235 
 CHI  HZ EP   2    817 29.80                             118   -0.61 4  249 196 
 CHI  HN ES   2    818  0.38                             118    0.38 4  249 196 
 CHI  HZ I         818  9.46         4.4 0.38                           249 196 
 HEL  HZ EP   2    817 34.14                             115    0.95 4  275 256 
 HEL  HN ES   2    818  4.87                             115   -0.07 4  275 256 
 HEL  HZ I         818 10.86         6.9 0.36                           275 256 
 URE  HZ EP   4    817 36.23                             114    2.16 0  287 292 
 URE  HN ES   4    818  4.89                             114   -1.62 0  287 292 
 URE  HZ I         818 17.60         8.2 0.18                           287 292 
 GUY2CHZ EP   2    817 37.21                             113    0.72 4  303 235 
 GUY2CHN ES   2    818  9.97                             113   -0.85 4  303 235 
 GUY2CHZ I         818 17.54         4.2 0.32                           303 235 
 PTGC HZ EP   4    817 35.20                             112   -1.13 0  307 159 
 PTGC HN ES   4    818  8.14                             112   -2.38 0  307 159 
 PTGC HZ I         818 16.67         5.6 0.34                           307 159 
 CBOC HZ EP        817 40.72                             110    0.87 7  336 252 
 CBOC HN ES        818 17.86                             110    1.06 7  336 252 
 CBOC HZ I         818 21.96         1.4 0.30                           336 252 
 PRA  HZ EP   2    817 46.67                             107    0.43 3  393 210 
 PRA  HN ES   2    818 28.16                             107   -0.00 3  393 210 
 PRA  HZ I         818 32.36         5.9 0.56                           393 210 
 ORTC HZ EP   2    817 46.74                             107    0.07 3  397 217 
 ORTC HN ES   2    818 29.49                             107    0.55 3  397 217 
 ORTC HZ I         818 36.18         2.5 0.72                           397 217 
 SJC  HZ EP   4    817 46.72                             106   -1.71 0  411 327 
 SJC  HN ES   4    818 28.27                             106   -3.80 0  411 327 
 SJC  HZ I         818 32.59         2.5 0.54                           411 327 
                                                                                
