 2011  814 0729  4.3 L   6.826 -72.927128.0  RSN  4 0.3 1.4LRSN                1
 GAP=205        0.64       4.2     9.8  8.3  0.2295E+02 -0.4588E+02 -0.1723E+02E
 Epicentro: CEPITA - SANTANDER                                                 3
 ACTION:UPD 12-07-13 15:51 OP:ep   STATUS:               ID:20110814072904 L   I
 2011-08-14-0724-45S.COL___150                                                 6
 STAT SP IPHASW D HRMM SECON CODA AMPLIT PERI AZIMU VELO AIN AR TRES W  DIS CAZ7
 BAR2 SZ EP   1    729 22.17                             163   -0.07 7 38.3 228 
 BAR2 SZ ES   1    729 36.42                             163    0.19 7 38.3 228 
 BAR2 SZ I         729 39.29         8.3 0.07                          38.3 228 
 BRR  HZ EP        729 24.70                             142   -0.3010 92.1 290 
 BRR  HN ES        729 41.30                             142    0.1510 92.1 290 
 BRR  HZ I         729 45.55         9.9 0.07                          92.1 290 
 RUS  HZ EP   1    729 27.23                             139    0.57 7  105 189 
 RUS  HZ I         729 28.39         1.9 0.25                           105 189 
 RUS  HE ES   1    729 43.69                             139   -0.42 7  105 189 
 OCA  SZ EP   1    729 31.54                             125    0.07 7  162 345 
 OCA  SZ ES   1    729 52.58                             125   -0.09 7  162 345 
 OCA  SZ I         729 56.56         4.1 0.31                           162 345 
                                                                                
