 2013  814 0636 59.3 L   7.191 -73.845 15.8  RSN  9 0.4 2.1LRSN                1
 GAP= 74        0.83       2.1     1.7  3.1  0.1707E+00  0.8507E+00  0.9246E-01E
 Epicentro: BARRANCABERMEJA - SANTANDER                                        3
 ACTION:UPD 14-01-14 09:02 OP:ep   STATUS:               ID:20130814062846 L   I
 OLDACT:UPD 13-08-14 12:02 OP:stll STATUS:               ID:20130814062846 L   3
 2013-08-14-0628-46M.COL___230                                                 6
 STAT SP IPHASW D HRMM SECON CODA AMPLIT PERI AZIMU VELO AIN AR TRES W  DIS CAZ7
 BRR  HZ EP        637  3.33                             129    0.1410 17.4 122 
 BRR  HN ES   1    637  6.87                             129    0.65 7 17.4 122 
 BRR  HZ I         637  7.41       210.0 0.12            117           17.4 122 
 GIR2 SZ EP        637 11.18                             100   -0.0910 73.0 100 
 GIR2 SZ I         637 25.93        12.9 0.38             97           73.0 100 
 PTB  HZ EP   1    637 14.94                              97   -0.06 7 98.8 223 
 PTB  HN ES   1    637 26.44                              97   -0.80 7 98.8 223 
 PTB  HN I         637 27.51        47.9 0.20             95           98.8 223 
 ZAR  HZ EP        637 17.72                              96    0.0310  117 287 
 ZAR  HN ES        637 32.30                              96    0.2810  117 287 
 ZAR  HZ I         637 33.89        24.7 0.28             94            117 287 
 PAM  SZ EP   1    637 19.70                              96   -0.12 7  128  83 
 PAM  SN ES   1    637 35.57                              96   -0.25 7  128  83 
 PAM  SN I         637 37.50        34.1 0.18             94            128  83 
 OCA  HZ EP   1    637 19.28                              95   -0.49 7  130  27 
 OCA  HN ES   1    637 35.13                              95   -0.61 7  130  27 
 OCA  HN I         637 38.76        62.6 0.22             94            130  27 
 RUS  HZ EP   1    637 25.62                              56    0.66 7  167 150 
 RUS  HN ES        637 44.87                              56   -0.10 9  167 150 
 RUS  HN I         637 46.78        52.2 0.38             56            167 150 
 SML  HZ EP   1    637 26.55                              56    0.53 7  180 352 
 SML  HN ES   1    637 47.20                              56    0.35 7  180 352 
 SML  HN I         637 49.96        38.8 0.10             56            180 352 
 HEL  HZ EP   4    637 29.81                              56   -1.26 0  217 239 
 HEL  HN ES   1    637 55.69                              56   -0.16 6  217 239 
 HEL  HN I         638  1.72         9.7 0.38             56            217 239 
                                                                                
