 2014 1114 0210 48.4 L   6.703 -73.174137.1  RSN  6 0.6 1.2LRSN                1
 GAP=137        1.62       8.2     8.5 12.4  0.6407E-02 -0.3785E+00 -0.1201E+02E
 Epicentro: VILLANUEVA - SANTANDER                                             3
 ACTION:UPD 14-12-19 15:42 OP:nd   STATUS:               ID:20141114021048 L   I
 OLDACT:ARG 14-11-14 12:38 OP:stll STATUS:               ID:20141114020742     3
 2014-11-14-0207-42M.COL___289                                                 6
 STAT SP IPHASW D HRMM SECON CODA AMPLIT PERI AZIMU VELO AIN AR TRES W  DIS CAZ7
 BAR2 SZ EP        211  5.72                             175   -1.0810 12.2 184 
 BAR2 SZ ES        211 20.49                             175   -0.6610 12.2 184 
 BRR  HZ EP        211  9.47                             150    0.6710 74.4 307 
 BRR  HN ES        211 25.55                             150    0.8310 74.4 307 
 PAM  SZ EP        211 10.37                             146   -0.0010 87.8  37 
 RUS  HZ EP        211 10.83                             145    0.2910 90.1 174 
 RUS  HZ I         211 11.93         2.8 0.44            144           90.1 174 
 RUS  HN ES        211 28.31                             145    0.4910 90.1 174 
 PTB  HZ EP        211 14.06                             131   -0.16 9  143 263 
 PTB  HN ES        211 33.57                             131   -0.80 9  143 263 
 PTB  HZ I         211 37.77         2.6 0.14            129            143 263 
 SPBC HN ES        211 36.56                             129    0.36 9  153 221 
                                                                                
