 2015  114 0216  0.8 L   6.799 -73.166138.4  RSN  6 0.5 1.4LRSN                1
 GAP=134        1.19       5.5     5.7  8.7 -0.7381E+01  0.6647E+01  0.2474E+01E
 Epicentro: LOS SANTOS - SANTANDER                                             3
 ACTION:UPD 15-03-02 15:39 OP:nd   STATUS:               ID:20150114021600 L   I
 OLDACT:REG 15-01-14 14:03 OP:carl STATUS:               ID:20150114020747     3
 2015-01-14-0207-47M.COL___253                                                 6
 STAT SP IPHASW D HRMM SECON CODA AMPLIT PERI AZIMU VELO AIN AR TRES W  DIS CAZ7
 BAR2 EZ EP        216 19.44                             170   -0.0910 22.9 185 
 BAR2 EZ ES        216 33.74                             170   -0.4010 22.9 185 
 BAR2 EZ I         216 35.18         4.2 0.20            171           22.9 185 
 BRR  HZ EP        216 21.78                             152    0.7410 69.3 299 
 BRR  HN ES        216 37.39                             152    0.5610 69.3 299 
 PAM  SZ EP        216 22.38                             149    0.0510 78.9  41 
 PAM  SN ES        216 38.88                             149   -0.2410 78.9  41 
 PAM  SZ I         216 41.25         8.1 0.50            150           78.9  41 
 RUS  HZ EP        216 23.64                             142   -0.1910  101 175 
 RUS  HN ES        216 42.00                             142    0.2010  101 175 
 RUS  HZ I         216 43.56         3.0 0.38            144            101 175 
 PTB  HZ EP        216 26.50                             131   -0.47 9  146 259 
 PTB  HN ES        216 46.59                             131   -0.79 9  146 259 
 PTB  HZ I         216 50.31         3.2 0.20            132            146 259 
 SPBC HN ES        216 50.84                             128    0.56 9  162 218 
                                                                                
