 2017 1114 0823 20.1 L   6.743 -73.138145.3  RSN  6 0.4 0.9LRSN                1
 GAP=140        1.04       4.9     5.2  7.6 -0.6320E+01  0.4811E+01  0.8802E+00E
 Epicentro: LOS SANTOS - SANTANDER                                             3
 ACTION:UPD 17-12-12 19:55 OP:rebc STATUS:               ID:20171114082320 L   I
 OLDACT:REG 17-11-14 12:59 OP:leo  STATUS:               ID:20171114081741     3
 2017-11-14-0818-00M.COL___432                                                 6
 STAT SP IPHASW D HRMM SECON CODA AMPLIT PERI AZIMU VELO AIN AR TRES W  DIS CAZ7
 BAR2 EZ EP        823 39.53                             173    0.0110 17.4 196 
 BAR2 EZ ES        823 55.00                             173    0.3010 17.4 196 
 BRR  HZ EP        823 41.38                             151    0.0110 75.1 302 
 BRR  HN ES        823 58.37                             151    0.3710 75.1 302 
 PAM  EZ EP        823 42.34                             149   -0.1510 81.9  36 
 PAM  EE ES        823 59.43                             149   -0.5610 81.9  36 
 PAM  EZ I         824  1.29         1.8 0.50            151           81.9  36 
 RUS  HZ EP        823 43.69                             146    0.3810 94.2 176 
 RUS  HE ES        824  1.70                             146    0.2610 94.2 176 
 RUS  HZ I         824  4.06         1.9 0.32            146           94.2 176 
 PTB  HZ EP        823 47.24                             132    0.29 9  147 261 
 PTB  HE ES        824  7.88                             132   -0.05 9  147 261 
 PTB  HZ I         824  9.99         0.7 0.18            133            147 261 
 SPBC HE ES        824  9.01                             130   -0.97 9  159 221 
                                                                                
