 2014  714 0334 55.8 L   6.810 -73.139146.8  RSN 26 0.5 2.6LRSN                1
 GAP= 71        1.08       2.5     2.8  5.0 -0.1040E+01  0.3840E+01  0.2331E+01E
 Epicentro: LOS SANTOS - SANTANDER                                             3
 ACTION:UPD 15-03-16 20:43 OP:nd   STATUS:               ID:20140714033455 L   I
 OLDACT:REG 14-07-14 13:04 OP:fm   STATUS:               ID:20140714032812     3
 2014-07-14-0328-12M.COL___253                                                 6
 STAT SP IPHASW D HRMM SECON CODA AMPLIT PERI AZIMU VELO AIN AR TRES W  DIS CAZ7
 BAR2 SZ EP     C  335 15.36                             170   -0.2010 24.5 191 
 BAR2 SZ ES   1    335 30.89                             170   -0.10 7 24.5 191 
 BAR2 SZ I         335 32.12        49.7 0.14            168           24.5 191 
 BRR  HZ EP        335 17.14                             153    0.0910 71.3 297 
 BRR  HN ES        335 34.32                             153    0.6810 71.3 297 
 BRR  HZ I         335 35.39        59.2 0.12            151           71.3 297 
 PAM  SZ EP        335 18.06                             151    0.0310 76.1  40 
 PAM  SN ES        335 35.24                             151   -0.1510 76.1  40 
 PAM  SZ I         335 37.33        69.0 0.56            156           76.1  40 
 RUS  HZ EP        335 19.59                             144   -0.1210  102 177 
 RUS  HE ES        335 38.21                             144   -0.1610  102 177 
 RUS  HZ I         335 39.74        33.5 0.34            144            102 177 
 PTB  HZ EP        335 21.95                             132   -0.97 9  149 258 
 PTB  HN ES        335 43.65                             132   -0.43 9  149 258 
 PTB  HZ I         335 50.33        50.0 0.32            131            149 258 
 TAM  HZ EP     D  335 23.53                             131    0.03 9  155 105 
 TAM  HN ES        335 45.46                             131    0.33 9  155 105 
 OCA  HZ EP        335 23.26                             130   -0.82 9  159 353 
 OCA  HN ES        335 46.87                             130    0.72 9  159 353 
 OCA  HZ I         335 49.73        30.8 0.16            132            159 353 
 SPBC HZ EP        335 24.32                             129   -0.16 9  164 219 
 SPBC HN ES        335 46.66                             129   -0.21 9  164 219 
 SPBC HZ I         335 52.62        67.1 0.26            129            164 219 
 ZAR  HZ EP        335 27.94                             123   -0.38 9  204 292 
 ZAR  HE ES        335 53.13                             123   -0.57 9  204 292 
 ZAR  HZ I         335 58.96        46.0 0.58            123            204 292 
 NOR  HZ EP        335 31.49                             119   -0.21 8  236 234 
 NOR  HN ES        335 59.44                             119   -0.28 8  236 234 
 NOR  HZ I         336  4.86        30.2 0.24            119            236 234 
 SML  HZ EP   1    335 32.31                             118   -0.08 6  243 335 
 SML  HE ES        336  1.55                             118    0.60 8  243 335 
 SML  HZ I         336  6.94        56.9 0.10            119            243 335 
 CHI  HZ EP        335 33.77                             117    0.10 8  250 195 
 CHI  HE ES        336  2.68                             117   -0.55 8  250 195 
 CHI  HZ I         336  8.56        13.1 0.34            118            250 195 
 ROSC BZ EP   1    335 34.41                             117    0.31 6  254 211 
 ROSC BE ES   4    336  6.32                             117    2.33 0  254 211 
 ROSC BZ I         336 11.36        20.2 0.35            117            254 211 
 HEL  HZ EP   4    335 37.46                             115    1.31 0  273 256 
 HEL  HN ES        336  7.93                             115    0.29 8  273 256 
 HEL  HZ I         336 14.81        18.6 0.32            115            273 256 
 GUY2CHZ EP        335 40.54                             112    0.97 7  302 235 
 GUY2CHN ES        336 13.21                             112   -0.52 7  302 235 
 GUY2CHZ I         336 22.03        15.5 0.26                           302 235 
 VIL  SZ EP   4    335 38.36                             112   -1.02 0  305 192 
 VIL  SN ES   1    336 14.06                             112    0.67 5  305 192 
 VIL  SZ I         336 18.82        16.1 0.50            113            305 192 
 PTGC HZ EP   4    335 38.35                             112   -1.42 0  309 159 
 PTGC HN ES   4    336 11.36                             112   -2.72 0  309 159 
 PTGC HZ I         336 14.22        18.8 0.40            113            309 159 
 RREF HZ EP        335 42.67                             111    0.56 7  323 229 
 RREF HN ES        336 19.28                             111    1.03 7  323 229 
 RREF HZ I         336 27.44        18.7 0.32            111            323 229 
 CBOC HZ EP        335 43.19                             110    0.34 7  335 252 
 CBOC HN ES        336 19.30                             110   -0.27 7  335 252 
 CBOC HZ I         336 25.92         7.3 0.56            110            335 252 
 TOL  SZ EP   4    335 45.55                             109    1.33 0  345 225 
 TOL  SN ES   4    336 23.40                             109    1.39 0  345 225 
 TOL  SZ I         336 29.73        28.3 0.40            110            345 225 
 ARGC HZ EP   1    335 45.31                             108   -0.07 5  358 340 
 ARGC HN ES   4    336 23.67                             108   -0.41 0  358 340 
 ARGC HZ I         336 27.39         8.3 0.32            110            358 340 
 ANIL HN ES   1    336 25.79                             109    1.02 5  359 224 
 PRA  HZ EP        335 49.49                             107    0.00 6  393 210 
 PRA  HN ES        336 31.87                             107    0.49 6  393 210 
 PRA  HZ I         336 36.89        14.8 0.28            107            393 210 
 ORTC HZ EP   1    335 48.55                             106   -1.34 4  397 216 
 ORTC HN ES        336 32.83                             106    0.74 6  397 216 
 ORTC HZ I         336 39.28         9.2 0.76            107            397 216 
 PAL  HZ EP   1    335 50.99                             106   -0.12 4  407 239 
 PAL  HN ES        336 35.26                             106    0.99 6  407 239 
 PAL  HZ I         336 37.89        19.0 0.22            107            407 239 
 SJC  HZ EP   4    335 49.11                             106   -2.20 0  409 327 
 SJC  HN ES   4    336 30.60                             106   -4.03 0  409 327 
 SJC  HZ I         336 34.02         7.1 0.30            107            409 327 
 SMAR HN ES   4    336 48.12                             102   -4.77 0  496 346 
                                                                                
