 2013 1014 0324 48.8 L   6.797 -73.138149.9  RSN 14 0.5 1.9LRSN                1
 GAP=138        0.98       2.8     3.8  5.5 -0.2035E+01  0.5656E+01  0.1102E+01E
 Epicentro: LOS SANTOS - SANTANDER                                             3
 ACTION:UPD 13-11-25 09:21 OP:ep   STATUS:               ID:20131014032448 L   I
 OLDACT:UP  13-10-14 08:28 OP:mh   STATUS:               ID:20131014031959     3
 OLDACT:UP  13-10-14 08:25 OP:mh   STATUS:               ID:20131014031959     3
 OLDACT:REG 13-10-14 07:24 OP:mh   STATUS:               ID:20131014031959     3
 2013-10-14-0319-59M.COL___273                                                 6
 STAT SP IPHASW D HRMM SECON CODA AMPLIT PERI AZIMU VELO AIN AR TRES W  DIS CAZ7
 BAR2 SZ EP   1    325  9.00                             171    0.07 7 23.2 192 
 BAR2 SZ ES   1    325 24.40                             171   -0.23 7 23.2 192 
 BAR2 SZ I         325 25.83        20.7 0.20            170           23.2 192 
 BRR  HZ EP   1    325 10.56                             153    0.10 7 72.1 298 
 BRR  HN ES        325 27.91                             153    0.5710 72.1 298 
 BRR  HZ I         325 34.14         8.3 0.21            153           72.1 298 
 PAM  SZ EP        325 11.82                             152    0.3710 77.1  39 
 PAM  SN ES        325 29.29                             152    0.1910 77.1  39 
 PAM  SZ I         325 31.50        13.4 0.47            155           77.1  39 
 RUS  HZ EP   1    325 13.35                             145    0.41 7  100 177 
 RUS  HN ES        325 31.36                             145   -0.4110  100 177 
 PTB  HZ EP        325 15.51                             133   -0.68 9  149 259 
 PTB  HN ES        325 37.03                             133   -0.52 9  149 259 
 PTB  HZ I         325 39.15        11.0 0.11            133            149 259 
 OCA  HZ EP   1    325 18.25                             130    0.77 7  161 353 
 OCA  HN ES        325 39.21                             130   -0.64 9  161 353 
 SPBC HZ EP        325 17.95                             130    0.29 9  163 219 
 SPBC HN ES        325 40.20                             130    0.04 9  163 219 
 ZAR  HZ EP   1    325 20.85                             123   -0.77 6  205 292 
 ZAR  HN ES        325 47.85                             123    0.63 9  205 292 
 NOR  HZ EP        325 24.89                             119    0.05 8  235 235 
 NOR  HN ES        325 52.90                             119   -0.04 8  235 235 
 NOR  HZ I         325 56.78         8.8 0.12            120            235 235 
 SML  HZ EP   1    325 25.58                             118   -0.16 6  244 335 
 SML  HN ES   1    325 53.58                             118   -0.97 6  244 335 
 SML  HZ I         325 56.91         9.9 0.10            120            244 335 
 CHI  HZ EP   1    325 26.80                             118    0.07 6  249 195 
 CHI  HN ES   1    325 55.98                             118   -0.33 6  249 195 
 CHI  HZ I         326  2.31         2.4 0.28            119            249 195 
 HEL  HN ES        326  1.58                             115    0.66 8  273 256 
 GUY2CHZ EP   4    325 33.99                             113    1.32 0  302 235 
 GUY2CHN ES   4    326  8.75                             113    1.86 0  302 235 
 CBOC HZ EP   1    325 35.57                             111   -0.42 5  334 252 
 CBOC HN ES   2    326 13.25                             111    0.47 3  334 252 
 CBOC HZ I         326 17.22         1.9 0.22            112            334 252 
 ORTC HZ EP   1    325 43.27                             107    0.36 4  396 216 
 ORTC HN ES   2    326 24.75                             107   -0.35 3  396 216 
 ORTC HZ I         326 32.68         2.8 0.38            108            396 216 
 SJC  HN ES   4    326 22.70                             106   -5.41 0  410 327 
                                                                                
