 2017  614 0343 16.0 L   7.463 -73.132120.9  RSN  5 0.4 1.8LRSN                1
 GAP=296        0.97       6.4     8.6  8.7  0.4542E+01 -0.2365E+02  0.2445E+00E
 Epicentro: EL PLAYON - SANTANDER                                              3
 ACTION:UPD 17-09-14 16:52 OP:jn   STATUS:               ID:20170614034316 L   I
 OLDACT:UP  17-06-14 15:45 OP:ar   STATUS:               ID:20170614033739     3
 OLDACT:UP  17-06-14 15:45 OP:ar   STATUS:               ID:20170614033739     3
 OLDACT:REG 17-06-14 12:56 OP:ar   STATUS:               ID:20170614033739     3
 2017-06-14-0338-00M.COL___356                                                 6
 STAT SP IPHASW D HRMM SECON CODA AMPLIT PERI AZIMU VELO AIN AR TRES W  DIS CAZ7
 BRR  HZ EP        343 34.31                             146   -0.4210 75.1 238 
 BRR  HN ES        343 49.55                             146    0.1710 75.1 238 
 BRR  HZ I         343 50.06        23.3 0.12            139           75.1 238 
 PTB  HZ EP   9    343 42.81                             120   -1.35 0  178 235 
 PTB  HN ES        344  4.48                             121   -0.33 9  178 235 
 PTB  HZ I         344  8.22         3.5 0.12            116            178 235 
 ZAR  HZ EP        343 46.09                             118    0.65 9  191 271 
 ZAR  HN ES        344  8.16                             118   -0.27 9  191 271 
 ZAR  HZ I         344 12.10         7.2 0.26            115            191 271 
 SPBC HZ EP        343 48.93                             114   -0.47 8  226 207 
 SPBC HN ES        344 16.03                             114    0.55 8  226 207 
 SPBC HZ I         344 22.45         5.7 0.22            111            226 207 
 NOR  HZ EP        343 56.37                             108    0.29 7  285 223 
 NOR  HN ES        344 26.92                             108   -0.46 7  285 223 
 NOR  HZ I         344 30.00         2.8 0.15            106            285 223 
                                                                                
