 2012  514 0821 14.4 L   6.732 -73.202153.5  RSN  5 0.3 1.0LRSN                1
 GAP=226        0.60       6.6     6.8  8.0  0.2454E+02  0.2110E+02  0.3124E-01E
 Epicentro: VILLANUEVA - SANTANDER                                             3
 ACTION:UP  12-07-05 12:05 OP:pat  STATUS:               ID:20120514082114 L   I
 2012-05-14-0820-00M.COL___195                                                 6
 STAT SP IPHASW D HRMM SECON CODA AMPLIT PERI AZIMU VELO SNR AR TRES W  DIS CAZ7
 BAR2 SZ ES   1    821 50.37                             174    -0.4 7   16 172 
 BRR  HZ EP   1    821 36.14                             154    -0.2 7   70 306 
 BRR  HZ I         821 36.67         2.5 0.36                            70 306 
 BRR  HE ES   1    821 53.78                             154     0.4 7   70 306 
 RUS  HN ES   1    821 57.46                             147     0.3 7   94 172 
 PTB  HZ EP   1    821 41.43                             135     0.1 7  140 261 
 PTB  HN ES   1    822  2.15                             135    -0.2 7  140 261 
 PTB  HZ I         822  4.95         0.9 0.11                           140 261 
 ZAR  HN ES   1    822 12.61                             124     0.0 6  201 295 
                                                                                
