 2013 1114 0951 44.2 L   6.779 -73.199138.8  RSN  6 0.5 1.5LRSN                1
 GAP=196        1.32       6.5     7.8  9.0  0.2347E+02  0.3008E+01 -0.1827E+02E
 Epicentro: ZAPATOCA - SANTANDER                                               3
 ACTION:UPD 14-01-09 16:28 OP:ep   STATUS:               ID:20131114095144 L   I
 OLDACT:REG 13-11-14 10:25 OP:nd   STATUS:               ID:20131114095000     3
 2013-11-14-0950-00M.COL___279                                                 6
 STAT SP IPHASW D HRMM SECON CODA AMPLIT PERI AZIMU VELO AIN AR TRES W  DIS CAZ7
 BAR2 SZ EP        952  3.02                             171    0.0810 20.8 175 
 BAR2 SZ ES        952 16.98                             171   -0.5810 20.8 175 
 BAR2 SZ I         952 18.76        15.7 0.30            171           20.8 175 
 BRR  HZ EP        952  4.62                             153    0.2510 67.3 303 
 BRR  HN ES        952 20.77                             153    0.6710 67.3 303 
 BRR  HZ I         952 25.27         6.8 0.12            150           67.3 303 
 RUS  HZ EP        952  7.27                             143    0.1310 98.9 173 
 RUS  HN ES        952 25.27                             143    0.2310 98.9 173 
 RUS  HZ I         952 27.46         2.8 0.16            146           98.9 173 
 PTB  HZ EP        952  9.69                             132   -0.33 9  141 259 
 PTB  HN ES        952 29.46                             132   -0.71 9  141 259 
 PTB  HZ I         952 34.07         3.9 0.26            132            141 259 
 ZAR  HZ EP        952 16.71                             121    1.00 9  199 293 
 ZAR  HN ES        952 40.45                             121    0.15 9  199 293 
 ZAR  HZ I         952 48.30         3.5 0.30            122            199 293 
 SML  HZ EP        952 19.36                             116   -1.04 8  243 337 
 SML  HN ES        952 48.58                             116   -0.07 8  243 337 
 SML  HZ I         952 50.72         3.4 0.10            118            243 337 
                                                                                
