 2010  314 0334  6.3 L   6.814 -73.032149.9  RSN  6 0.3 1.7LRSN                1
 GAP=195        0.63       3.4    10.1  7.2  0.3217E+01 -0.1754E+02  0.2764E+01E
 Epicentro: CEPITA - SANTANDER                                                 3
 ACTION:UP  10-08-24 09:53 OP:vdl  STATUS:               ID:20100314033406 L   I
 2010-03-14-0329-15S.COL___095                                                 6
 STAT SP IPHASW D HRMM SECON CODA AMPLIT PERI AZIMU VELO SNR AR TRES W  DIS CAZ7
 BAR2 SZ EP   2    334 26.72                             168     0.1 5   30 214 
 BAR2 SZ ES   2    334 42.08                             168    -0.3 5   30 214 
 BRR  HZ IP        334 28.61                             150     0.010   82 293 
 BRR  HZ I         334 28.95        19.7 0.11                            82 293 
 BRR  HE ES   1    334 46.00                             150     0.1 7   82 293 
 RUS  HZ EP   1    334 31.26                             144     0.7 7  102 183 
 RUS  HN ES   2    334 49.29                             144    -0.2 5  102 183 
 RUS  HZ I         334 51.21         4.1 0.31                           102 183 
 OCA  SZ EP   1    334 34.83                             130    -0.2 7  161 349 
 OCA  SZ ES   1    334 57.24                             130    -0.2 7  161 349 
 OCA  SZ I         335  2.25        15.5 0.33                           161 349 
 CHI  HZ EP   2    334 44.29                             117    -0.5 4  254 198 
 CHI  HE ES   2    335 14.29                             117    -0.5 4  254 198 
 CHI  HZ I         335 24.76         1.3 0.31                           254 198 
 PRA  HZ EP   2    335  0.50                             107    -0.4 3  400 211 
 PRA  HN ES   2    335 43.68                             107     0.2 3  400 211 
 PRA  HZ I         335 48.68         1.7 0.81                           400 211 
                                                                                
