 2013  914 0727 32.7 L   5.904 -73.712121.9  RSN  7 0.3 1.5LRSN                1
 GAP= 90        0.85       2.8     4.1  6.3  0.1427E+01  0.1426E+01 -0.3150E+01E
 Epicentro: PUENTE NACIONAL - SANTANDER                                        3
 ACTION:UPD 13-10-22 09:22 OP:ep   STATUS:               ID:20130914072732 L   I
 OLDACT:DUP 13-09-14 12:24 OP:carl STATUS:               ID:20130914071960d    3
 2013-09-14-0719-59M.COL___269                                                 6
 STAT SP IPHASW D HRMM SECON CODA AMPLIT PERI AZIMU VELO AIN AR TRES W  DIS CAZ7
 SPBC HZ EP        727 50.50                             157    0.3310 48.6 235 
 SPBC HN ES        728  3.98                             157    0.1910 48.6 235 
 SPBC HZ I         728  5.13        14.8 0.32            158           48.6 235 
 RUS  HZ EP        727 51.99                             149    0.0610 69.7  91 
 RUS  HN ES   1    728  6.38                             149   -0.54 7 69.7  91 
 RUS  HZ I         728  7.69         4.2 0.26            151           69.7  91 
 BAR2 SZ EP        727 53.76                             139    0.3010 96.0  38 
 BAR2 SZ ES   1    728  9.61                             139   -0.05 7 96.0  38 
 BAR2 SZ I         728 11.43        11.0 0.38            140           96.0  38 
 PTB  HZ EP        727 53.45                             135   -0.7210  108 311 
 PTB  HN ES   1    728 11.18                             135    0.27 7  108 311 
 PTB  HZ I         728 11.99         4.6 0.16            136            108 311 
 BRR  HZ EP        727 56.59                             129    0.2110  133   0 
 BRR  HN ES   1    728 15.06                             129    0.20 7  133   0 
 BRR  HZ I         728 18.59         5.2 0.10            130            133   0 
 CHI  HZ EP        727 58.08                             128    0.38 9  141 181 
 CHI  HN ES        728 16.80                             128   -0.39 9  141 181 
 CHI  HZ I         728 19.91         1.3 0.34            130            141 181 
 ZAR  HZ EP   1    728  4.71                             115   -0.37 6  217 324 
 ZAR  HE ES        728 30.14                             115   -0.20 8  217 324 
 ZAR  HZ I         728 34.75         3.5 0.36            116            217 324 
                                                                                
