 2017  614 0425 24.0 L   6.780 -73.205150.0  RSN  4 0.2 1.3LRSN                1
 GAP=275        0.56       3.5     5.6  5.9  0.1189E+01 -0.7817E+01  0.3876E+01E
 Epicentro: ZAPATOCA - SANTANDER                                               3
 ACTION:UPD 17-09-14 16:52 OP:jn   STATUS:               ID:20170614042524 L   I
 OLDACT:REG 17-06-14 12:59 OP:ar   STATUS:               ID:20170614041744     3
 2017-06-14-0418-00M.COL___356                                                 6
 STAT SP IPHASW D HRMM SECON CODA AMPLIT PERI AZIMU VELO AIN AR TRES W  DIS CAZ7
 BRR  HZ EP        425 45.08                             155   -0.2510 66.6 303 
 BRR  HN ES        426  2.23                             155    0.2410 66.6 303 
 BRR  HZ I         426  5.40         4.6 0.40            156           66.6 303 
 PTB  HZ EP        425 50.46                             135   -0.21 9  141 259 
 PTB  HN ES        426 11.30                             135   -0.20 9  141 259 
 PTB  HZ I         426 16.02         1.5 0.16            137            141 259 
 SPBC HZ EP        425 52.38                             131    0.12 9  157 218 
 SPBC HE ES        426 14.45                             131    0.13 9  157 218 
 SPBC HZ I         426 16.62         3.6 0.09            134            157 218 
 ZAR  HZ EP   2    425 56.76                             124    0.60 4  199 293 
 ZAR  HN ES        426 21.34                             124    0.07 9  199 293 
                                                                                
