 2012  614 0524 11.3 L   6.845 -73.165143.8  RSN  5 0.3 1.6LRSN                1
 GAP=132        0.64       4.5     4.1  6.9 -0.2025E+00  0.1104E+02 -0.4795E+01E
 Epicentro: LOS SANTOS - SANTANDER                                             3
 ACTION:UPD 12-08-06 17:49 OP:ep   STATUS:               ID:20120614052411 L   I
 2012-06-14-0520-00M.COL___201                                                 6
 STAT SP IPHASW D HRMM SECON CODA AMPLIT PERI AZIMU VELO AIN AR TRES W  DIS CAZ7
 BAR2 SZ ES   1    524 46.05                             168    0.08 7 28.1 184 
 PAM  SZ EP   1    524 32.97                             151   -0.16 7 75.0  43 
 PAM  SN ES   1    524 50.15                             151   -0.03 7 75.0  43 
 RUS  HZ EP   1    524 35.37                             142    0.17 7  106 175 
 RUS  HE ES   1    524 53.92                             142    0.05 7  106 175 
 RUS  HZ I         524 54.94         2.2 0.40                           106 175 
 PTB  HZ EP   1    524 37.29                             132   -0.68 7  147 257 
 PTB  HN ES   1    524 58.80                             132    0.00 7  147 257 
 PTB  HZ I         525  0.48         5.3 0.17                           147 257 
 ZAR  HZ EP   1    524 43.89                             122    0.71 6  200 291 
 ZAR  HN ES   1    525  8.03                             122   -0.04 6  200 291 
 ZAR  HZ I         525 14.16         8.6 0.37                           200 291 
                                                                                
