 2015 1114 0218 52.0 L   6.827 -73.103140.1  RSN  8 0.5 1.8LRSN                1
 GAP=205        1.12       5.0     8.0  9.3  0.1166E+02  0.1754E+02 -0.1694E+02E
 Epicentro: LOS SANTOS - SANTANDER                                             3
 ACTION:UPD 15-12-28 16:10 OP:cam  STATUS:               ID:20151114021852 L   I
 OLDACT:REG 15-11-14 14:00 OP:dnl  STATUS:               ID:20151114020735     3
 2015-11-14-0207-35M.COL___316                                                 6
 STAT SP IPHASW D HRMM SECON CODA AMPLIT PERI AZIMU VELO AIN AR TRES W  DIS CAZ7
 BAR2 EZ EP        219 11.18                             169    0.1610 27.4 199 
 BAR2 EZ ES        219 26.58                             169    0.7010 27.4 199 
 BAR2 EZ I         219 27.31        14.4 0.26            149           27.4 199 
 RUS  HZ EP        219 15.19                             142   -0.2010  103 179 
 RUS  HN ES        219 32.86                             142   -0.7810  103 179 
 RUS  HZ I         219 35.04         3.5 0.38            127            103 179 
 SPBC HZ EP   2    219 21.47                             127    0.90 5  168 220 
 SPBC HN ES        219 42.74                             127   -0.12 9  168 220 
 SPBC HZ I         219 43.41         9.1 0.28            112            168 220 
 ZAR  HZ EP        219 25.20                             121    0.79 8  207 291 
 ZAR  HE ES        219 49.45                             121   -0.25 8  207 291 
 ZAR  HZ I         219 59.18         4.5 0.26            109            207 291 
 NOR  HZ EP   2    219 27.92                             117   -0.07 4  240 235 
 NOR  HZ I         220  0.60         5.3 0.34            105            240 235 
 SML  HZ EP        219 28.10                             116   -0.12 8  243 334 
 SML  HN ES        219 55.95                             116   -0.54 8  243 334 
 SML  HZ I         219 58.52         8.9 0.24            108            243 334 
 GUY2CHZ EP   2    219 36.50                             111    0.53 4  307 235 
 GUY2CHE ES   4    220 12.93                             111    2.65 0  307 235 
 GUY2CHZ I         220 17.69         3.1 0.40                           307 235 
 MON  HZ EP   4    219 38.43                             107   -2.56 0  356 308 
 MON  HN ES   4    220 16.14                             107   -3.07 0  356 308 
 SJC  HZ EP   4    219 45.21                             105   -2.16 0  409 326 
 SJC  HN ES   4    220 26.19                             105   -4.39 0  409 326 
 SJC  HZ I         220 30.74         2.3 0.54             97            409 326 
                                                                                
