 2010  714 0506 53.3 L   5.936 -73.769112.0  RSN  4 0.2 1.5LRSN                1
 GAP=185        0.42       7.1     4.2 12.9  0.1324E+01  0.2964E+02  0.5007E+02E
 Epicentro: GUAVATA - SANTANDER                                                3
 ACTION:UPD 10-12-01 15:17 OP:pat  STATUS:               ID:20100714050653 L   I
 2010-07-14-0506-00S.COL___120                                                 6
 STAT SP IPHASW D HRMM SECON CODA AMPLIT PERI AZIMU VELO AIN AR TRES W  DIS CAZ7
 RUS  HZ EP   2    5 7 11.89                             144     0.0 5   76  94 
 RUS  HZ I         5 7 12.14         3.1 0.19                            76  94 
 BAR2 SZ EP   2    5 7 13.08                             136    -0.2 5   97  42 
 BAR2 SZ ES   1    5 7 28.91                             136     0.1 7   97  42 
 BAR2 SZ I         5 7 30.41        15.2 0.48                            97  42 
 BRR  HZ EP   2    5 7 15.69                             127    -0.2 5  130   3 
 BRR  HN ES   2    5 7 33.61                             127     0.1 5  130   3 
 HEL  HZ EP   2    5 7 23.93                             115     0.5 4  197 278 
 HEL  HZ I         5 7 24.72         3.2 0.42                           197 278 
 HEL  HN ES   2    5 7 46.71                             115    -0.2 4  197 278 
                                                                                
