 2017 1114 0103 19.3 L   6.784 -73.138150.0  RSN 10 0.3 1.6LRSN                1
 GAP=113        0.86       3.5     3.5  5.2 -0.2795E+00  0.1836E+01  0.5050E+01E
 Epicentro: LOS SANTOS - SANTANDER                                             3
 ACTION:UPD 17-12-12 19:55 OP:rebc STATUS:               ID:20171114010319 L   I
 OLDACT:UP  17-11-14 14:11 OP:leo  STATUS:               ID:20171114005742     3
 OLDACT:REG 17-11-14 12:33 OP:y    STATUS:               ID:20171114005742     3
 2017-11-14-0058-00M.COL___456                                                 6
 STAT SP IPHASW D HRMM SECON CODA AMPLIT PERI AZIMU VELO AIN AR TRES W  DIS CAZ7
 BAR2 EZ EP        1 3 39.28                             171   -0.1710 21.7 193 
 BAR2 EZ ES        1 3 55.20                             171    0.0710 21.7 193 
 BAR2 EZ I         1 3 56.21        11.2 0.28            171           21.7 193 
 BRR  HZ EP        1 3 41.17                             153    0.1410 72.8 299 
 BRR  HE ES        1 3 58.80                             153    0.8410 72.8 299 
 PAM  EZ EP        1 3 42.09                             151    0.0410 78.3  38 
 PAM  EN ES        1 3 59.53                             151   -0.2410 78.3  38 
 PAM  EZ I         1 4  1.57         7.4 0.56            153           78.3  38 
 RUS  HZ EP        1 3 43.20                             145   -0.1810 98.7 176 
 RUS  HN ES        1 4  2.07                             145   -0.0610 98.7 176 
 RUS  HZ I         1 4  3.58         7.5 0.40            146           98.7 176 
 PTB  HZ EP        1 3 46.30                             133   -0.40 9  148 260 
 PTB  HN ES        1 4  7.43                             133   -0.61 9  148 260 
 PTB  HZ I         1 4  8.51         3.4 0.22            134            148 260 
 SPBC HZ EP        1 3 48.24                             130    0.16 9  162 220 
 SPBC HN ES        1 4 10.42                             130   -0.08 9  162 220 
 SPBC HZ I         1 4 12.83         8.3 0.10            131            162 220 
 YPLC HZ EP        1 3 49.37                             128    0.12 9  175 151 
 ZAR  HE ES        1 4 17.77                             123   -0.08 8  206 293 
 GUY2CHZ EP   4 D  1 4  5.34                             113    2.24 0  301 235 
 GUY2CHN ES   4    1 4 38.92                             113    1.68 0  301 235 
 GUY2CHZ I         1 4 45.55         1.6 0.42                           301 235 
 PRA  HZ EP        1 4 13.04                             107    0.17 6  391 210 
 PRA  HE ES        1 4 55.42                             107    0.79 6  391 210 
                                                                                
