 2015  814 0341  7.4 L   6.762 -73.124143.7  RSN  4 0.1 1.3LRSN                1
 GAP=259        0.30       1.9     2.5  2.4  0.1219E+01  0.1641E+01  0.3187E+00E
 Epicentro: LOS SANTOS - SANTANDER                                             3
 ACTION:UPD 15-09-15 23:02 OP:cam  STATUS:               ID:20150814034107 L   I
 OLDACT:UP  15-08-14 15:01 OP:mh   STATUS:               ID:20150814033747     3
 OLDACT:UP  15-08-14 15:01 OP:mh   STATUS:               ID:20150814033747     3
 OLDACT:REG 15-08-14 12:49 OP:mh   STATUS:               ID:20150814033747     3
 2015-08-14-0337-47M.COL___328                                                 6
 STAT SP IPHASW D HRMM SECON CODA AMPLIT PERI AZIMU VELO AIN AR TRES W  DIS CAZ7
 BAR2 EZ EP        341 26.70                             172   -0.0310 19.8 199 
 BAR2 EZ ES        341 41.74                             172   -0.0610 19.8 199 
 BAR2 EZ I         341 42.80         3.5 0.14            165           19.8 199 
 BRR  HZ EP        341 28.65                             151    0.0610 75.4 301 
 BRR  HN ES        341 45.18                             151    0.0810 75.4 301 
 BRR  HZ I         341 50.01         4.1 0.13            147           75.4 301 
 SPBC HZ EP        341 35.68                             129    0.09 9  161 221 
 SPBC HN ES        341 57.55                             129   -0.02 9  161 221 
 SPBC HZ I         342  3.49         2.4 0.13            128            161 221 
 ZAR  HZ EP        341 40.02                             121   -0.11 8  208 293 
 ZAR  HN ES        342  5.60                             121   -0.04 8  208 293 
 ZAR  HZ I         342 10.37         2.5 0.46            121            208 293 
                                                                                
