 2012  214 0053 45.3 L   6.755 -73.146145.4  RSN  7 0.3 1.6LRSN                1
 GAP=138        0.51       4.3     3.8  6.4 -0.1344E+01  0.4197E+01  0.1257E+01E
 ACTION:UP  12-03-07 16:30 OP:epov STATUS:               ID:20120214005345 L   I
 2012-02-14-0049-59S.COL___187                                                 6
 STAT SP IPHASW D HRMM SECON CODA AMPLIT PERI AZIMU VELO AIN AR TRES W  DIS CAZ7
 BAR2 SZ EP   2    054  4.84                             172    0.07 5 18.5 193 
 BAR2 SZ I         054  4.98        11.5 0.18                          18.5 193 
 BAR2 SZ ES   2    054 19.65                             172   -0.32 5 18.5 193 
 BRR  HZ EP   1    054  6.73                             152    0.21 7 73.6 302 
 BRR  HE ES   2    054 23.66                             152    0.57 5 73.6 302 
 PAM  SZ EP   1    054  7.86                             149    0.18 7 81.3  37 
 PAM  SN ES   2    054 24.76                             149   -0.40 5 81.3  37 
 RUS  HZ EP   1    054  8.72                             145    0.09 7 95.7 176 
 RUS  HZ I         054  9.88         3.1 0.14                          95.7 176 
 RUS  HN ES   2    054 26.95                             145    0.09 5 95.7 176 
 PTB  HZ EP   1    054 11.63                             132   -0.49 7  147 261 
 PTB  HN ES   2    054 32.70                             132   -0.36 5  147 261 
 ZAR  HN ES   2    054 43.23                             122   -0.09 4  206 293 
 ZAR  HZ I         054 48.85         5.0 0.34                           206 293 
 NOR  SN ES   2    054 48.65                             119    0.37 4  232 235 
                                                                                
