 2014  814 0921 23.0 L   6.801 -73.160138.9  RSN 13 0.5 2.3LRSN                1
 GAP=200        1.05       3.2     4.7  5.9  0.2078E+01  0.7447E+01 -0.9505E+00E
 Epicentro: LOS SANTOS - SANTANDER                                             3
 ACTION:UPD 14-09-15 21:49 OP:nd   STATUS:               ID:20140814092123 L   I
 OLDACT:UP  14-08-14 16:51 OP:cam  STATUS:               ID:20140814092000     3
 OLDACT:REG 14-08-14 13:37 OP:cam  STATUS:               ID:20140814092000     3
 2014-08-14-0920-00M.COL___285                                                 6
 STAT SP IPHASW D HRMM SECON CODA AMPLIT PERI AZIMU VELO AIN AR TRES W  DIS CAZ7
 BAR2 SZ EP     D  921 41.99                             170    0.2110 23.2 186 
 BAR2 SZ ES        921 56.92                             170    0.4710 23.2 186 
 BAR2 SZ I         921 57.77        61.2 0.30            169           23.2 186 
 BRR  HZ EP     D  921 43.78                             152    0.4810 69.7 299 
 BRR  HN ES   4    922  0.79                             152    1.63 0 69.7 299 
 BRR  HZ I         922  5.28        26.1 0.14            150           69.7 299 
 RUS  HZ EP        921 46.44                             142    0.3610  101 175 
 RUS  HE ES        922  3.81                             142   -0.2910  101 175 
 RUS  HZ I         922  6.51        14.7 0.18            146            101 175 
 PTB  HZ EP     D  921 48.82                             131   -0.43 9  146 259 
 PTB  HN ES        922  9.57                             131   -0.17 9  146 259 
 PTB  HZ I         922 11.68        23.4 0.12            132            146 259 
 SPBC HZ EP        921 51.00                             128    0.13 9  162 219 
 SPBC HN ES        922 12.31                             128   -0.31 9  162 219 
 SPBC HZ I         922 21.10        22.7 0.34            130            162 219 
 ZAR  HZ EP        921 55.30                             121    0.48 9  203 292 
 ZAR  HN ES        922 20.03                             121    0.36 9  203 292 
 ZAR  HZ I         922 25.37        21.1 0.54            123            203 292 
 NOR  HZ EP     C  921 58.41                             117    0.23 8  233 234 
 NOR  HN ES        922 25.13                             117   -0.51 8  233 234 
 NOR  HZ I         922 27.80        12.7 0.42            119            233 234 
 SML  HZ EP        921 58.55                             116   -0.59 8  243 336 
 SML  HN ES        922 26.18                             116   -1.17 8  243 336 
 SML  HZ I         922 34.77        23.2 0.26            119            243 336 
 CHI  HZ EP        922  0.15                             116   -0.12 8  248 195 
 CHI  HN ES        922 28.59                             116   -0.77 8  248 195 
 CHI  HZ I         922 34.23        10.1 0.24            119            248 195 
 HEL  HZ EP        922  2.89                             114    0.21 8  271 256 
 HEL  HN ES        922 34.19                             114    0.55 8  271 256 
 HEL  HZ I         922 39.93         7.5 0.30            115            271 256 
 GUY2CHZ EP   4    922  7.55                             111    1.42 0  300 235 
 VIL  SZ EP   4    922  5.80                             111   -0.26 0  303 191 
 RREF HN ES   4    922 48.32                             110    3.96 0  321 229 
 CBOC HZ EP        922 10.07                             109    0.63 7  332 252 
 TOL  SZ EP   4    922 11.42                             108    0.58 0  342 224 
 PRA  HZ EP        922 16.03                             105   -0.15 6  391 209 
 PRA  HN ES        922 57.45                             105   -0.24 6  391 209 
 PRA  HZ I         923  2.48        11.4 0.44            108            391 209 
 ORTC HZ EP        922 16.87                             105    0.30 6  395 216 
 SJC  HZ EP   4    922 16.42                             105   -1.79 0  408 327 
                                                                                
