 2011  814 0824 52.1 L   6.761 -73.148146.4  RSN  8 0.3 2.3LRSN                1
 GAP=182        0.52       2.1     3.8  3.7 -0.1173E+01  0.1706E+01  0.1588E+01E
 Epicentro: LOS SANTOS - SANTANDER                                             3
 ACTION:UPD 12-07-13 15:51 OP:ep   STATUS:               ID:20110814082452 L   I
 2011-08-14-0824-39S.COL___149                                                 6
 STAT SP IPHASW D HRMM SECON CODA AMPLIT PERI AZIMU VELO AIN AR TRES W  DIS CAZ7
 BAR2 SZ EP        825 11.72                             172    0.0210 19.0 191 
 BAR2 SZ ES   1    825 26.84                             172   -0.17 7 19.0 191 
 BAR2 SZ I         825 30.25        46.6 0.15                          19.0 191 
 BRR  HZ EP        825 13.60                             152    0.2010 73.1 302 
 BRR  HN ES        825 30.15                             152    0.1210 73.1 302 
 BRR  HZ I         825 34.40        53.4 0.15                          73.1 302 
 RUS  HZ EP        825 15.64                             145    0.0610 96.3 176 
 RUS  HE ES   1    825 33.61                             145   -0.30 7 96.3 176 
 RUS  HZ I         825 36.14        26.4 0.24                          96.3 176 
 OCA  SZ EP        825 20.52                             129   -0.31 9  165 353 
 OCA  SZ ES   1    825 43.31                             129    0.04 7  165 353 
 OCA  SZ I         825 47.98        21.9 0.36                           165 353 
 NOR  SZ EP   1    825 27.40                             119   -0.14 6  232 235 
 NOR  SE ES   1    825 55.23                             119    0.02 6  232 235 
 CHI  HZ EP   1    825 29.73                             118    0.39 6  244 195 
 CHI  HE ES   1    825 58.96                             118    0.55 6  244 195 
 CHI  HZ I         826  5.16        11.3 0.61                           244 195 
 RREF HZ EP   1    825 38.04                             111    0.15 5  319 230 
 RREF HN ES   1    826 13.23                             111   -0.41 5  319 230 
 RREF HZ I         826 23.39        15.2 0.30                           319 230 
 PRA  HZ EP   1    825 45.23                             107    0.07 4  388 210 
 PRA  HN ES   1    826 25.86                             107   -0.70 4  388 210 
                                                                                
