 2017  114 0749 41.8 L   6.813 -73.144150.0  RSN  5 0.4 0.7LRSN                1
 GAP=136        1.08       5.9     6.0  9.0 -0.3691E+01 -0.5037E-01  0.1794E+01E
 Epicentro: LOS SANTOS - SANTANDER                                             3
 ACTION:UPD 17-05-22 15:59 OP:jn   STATUS:               ID:20170114074941 L   I
 OLDACT:UP  17-01-14 16:16 OP:dani STATUS:               ID:20170114074741     3
 OLDACT:REG 17-01-14 12:57 OP:dani STATUS:               ID:20170114074741     3
 2017-01-14-0748-00M.COL___323                                                 6
 STAT SP IPHASW D HRMM SECON CODA AMPLIT PERI AZIMU VELO AIN AR TRES W  DIS CAZ7
 BAR2 EZ ES        750 17.66                             170    0.0110 24.8 190 
 BRR  HZ EP        750  3.24                             153   -0.0910 70.6 297 
 BRR  HN ES        750 20.93                             153    0.7810 70.6 297 
 BRR  HZ I         750 22.30         2.3 0.40            155           70.6 297 
 PAM  EZ EP        750  4.49                             152    0.1410 76.1  40 
 PAM  EN ES        750 21.46                             152   -0.5110 76.1  40 
 PAM  EZ I         750 25.88         0.8 0.51            152           76.1  40 
 RUS  HZ EP        750  6.26                             144    0.2410  102 176 
 RUS  HN ES        750 24.96                             144    0.0010  102 176 
 RUS  HZ I         750 25.97         0.3 0.20            147            102 176 
 PTB  HN ES        750 29.78                             133   -0.66 9  148 258 
                                                                                
