 2012  114 0152 47.3 L   6.718 -73.158147.6  RSN  6 0.3 1.5LRSN                1
 GAP=180        0.50       5.6     5.2  7.2  0.9337E+01  0.5880E+01  0.4548E+01E
 Epicentro: VILLANUEVA - SANTANDER                                             3
 ACTION:UP  12-02-03 08:17 OP:REBC STATUS:               ID:20120114015247 L   I
 2012-01-14-0150-00M.COL___187                                                 6
 STAT SP IPHASW D HRMM SECON CODA AMPLIT PERI AZIMU VELO SNR AR TRES W  DIS CAZ7
 BAR2 SZ EP   1    153  6.99                             174     0.0 7   14 191 
 BAR2 SZ I         153  7.35         4.9 0.14                            14 191 
 GIR2 SZ EP   1    153  7.20                             164    -0.2 7   40 354 
 GIR2 SZ ES   2    153 22.87                             164    -0.3 5   40 354 
 BRR  HZ EP   1    153  9.03                             152     0.2 7   75 305 
 BRR  HZ I         153  9.34         8.8 0.15                            75 305 
 BRR  HE ES   2    153 26.29                             152     0.6 5   75 305 
 RUS  HZ EP   2    153 10.96                             147     0.4 5   92 175 
 RUS  HE ES   2    153 28.63                             147    -0.1 5   92 175 
 PTB  HZ EP   1    153 14.09                             133    -0.1 7  145 262 
 PTB  HN ES   2    153 34.89                             133    -0.2 5  145 262 
 ZAR  HN ES   2    153 45.42                             122    -0.3 4  206 295 
                                                                                
