 2012  514 0331 45.5 L   6.775 -73.097147.9  RSN  6 0.4 1.4LRSN                1
 GAP=144        0.79       4.9     4.9  9.2  0.7692E+00  0.8368E+01  0.3796E+01E
 Epicentro: LOS SANTOS - SANTANDER                                             3
 ACTION:UP  12-07-05 12:05 OP:pat  STATUS:               ID:20120514033145 L   I
 2012-05-14-0330-00M.COL___195                                                 6
 STAT SP IPHASW D HRMM SECON CODA AMPLIT PERI AZIMU VELO SNR AR TRES W  DIS CAZ7
 PAM  SZ EP   1    332  8.20                             151     0.3 7   76  35 
 PAM  SN ES   1    332 25.19                             151    -0.2 7   76  35 
 BRR  HZ EP   1    332  7.41                             151     0.2 7   77 298 
 BRR  HE ES   1    332 24.55                             151     0.4 7   77 298 
 BRR  HZ I         332 28.23         8.4 0.13                            77 298 
 RUS  HZ EP   1    332  9.67                             145     0.4 7   98 179 
 RUS  HN ES   1    332 27.48                             145    -0.3 7   98 179 
 RUS  HZ I         332 29.14         2.2 0.32                            98 179 
 PTB  HZ EP   1    332 12.43                             131    -0.7 7  153 260 
 PTB  HE ES   1    332 34.50                             131    -0.1 7  153 260 
 PTB  HZ I         332 36.61         3.1 0.12                           153 260 
 OCA  HE ES   2    332 36.06                             129    -0.7 5  164 351 
 ZAR  HN ES   1    332 44.82                             122     0.2 6  210 292 
                                                                                
