 2014  114 0124 31.8 L   6.565 -73.544113.6  RSN 10 0.4 1.6LRSN                1
 GAP= 66        0.73       2.8     2.9  7.6 -0.1858E+01  0.7101E+01 -0.8645E+01E
 Epicentro: EL CARMEN DE CHUCURI - SANTANDER                                   3
 ACTION:UPD 14-03-13 09:55 OP:ep   STATUS:               ID:20140114012431 L   I
 OLDACT:UP  14-01-14 09:28 OP:cam  STATUS:               ID:20140114012000     3
 OLDACT:UP  14-01-14 09:17 OP:cam  STATUS:               ID:20140114012000     3
 OLDACT:REG 14-01-14 08:21 OP:cam  STATUS:               ID:20140114012000     3
 2014-01-14-0120-00M.COL___285                                                 6
 STAT SP IPHASW D HRMM SECON CODA AMPLIT PERI AZIMU VELO AIN AR TRES W  DIS CAZ7
 BRR  HZ EP        124 49.27                             149    0.2910 62.7 343 
 RUS  HZ EP   1    124 51.70                             139    0.05 7 90.2 146 
 RUS  HN ES        125  7.18                             139    0.0110 90.2 146 
 RUS  HZ I         125  8.48         5.6 0.42            139           90.2 146 
 PTB  HZ EP        124 51.29                             135   -0.5910  101 268 
 PTB  HE ES   4    125  6.58                             135   -1.00 0  101 268 
 PTB  HZ I         125  9.32        11.1 0.20            134            101 268 
 PAM  SZ EP        124 55.09                             128    0.2310  127  47 
 PAM  SE ES   1    125 12.90                             128    0.02 7  127  47 
 PAM  SZ I         125 13.81         7.6 0.28            130            127  47 
 ZAR  HZ EP   4    125  0.77                             118    1.32 0  178 305 
 ZAR  HN ES   4    125 23.63                             118    2.58 0  178 305 
 NOR  HZ EP   2    125  0.54                             117    0.37 4  184 233 
 NOR  HN ES        125 22.17                             117   -0.16 9  184 233 
 NOR  HZ I         125 26.99         4.5 0.14            116            184 233 
 TAM  HZ EP        125  1.24                             115   -0.08 9  194  94 
 TAM  HE ES   2    125 24.31                             115   -0.06 4  194  94 
 CHI  HZ EP   1    125  4.47                             113    0.39 6  215 186 
 CHI  HE ES   1    125 29.04                             113   -0.26 6  215 186 
 CHI  HZ I         125 36.97         1.9 0.48            113            215 186 
 HEL  HN ES   2    125 32.10                             112    1.23 4  223 259 
 GUY2CHZ EP   4    125 10.09                             109    1.92 0  250 234 
 GUY2CHN ES   4    125 39.76                             109    3.20 0  250 234 
 SML  HZ EP        125  8.22                             109    0.23 8  254 347 
 SML  HE ES   4    125 39.08                             109    2.83 0  254 347 
 SML  HZ I         125 42.30         8.6 0.24            109            254 347 
 SJC  HZ EP   2    125 26.70                              99    0.14 3  410 334 
 SJC  HN ES        126  8.53                              99   -0.78 6  410 334 
                                                                                
