 2011 1114 0033 48.5 L   6.791 -73.149142.9  RSN 17 0.4 2.7LRSN                1
 GAP=114        0.72       2.6     3.8  5.0  0.2645E+00  0.7777E+01  0.1471E+01E
 Epicentro: LOS SANTOS - SANTANDER                                             3
 ACTION:UPD 12-07-13 16:10 OP:ep   STATUS:               ID:20111114003348 L   I
 2011-11-14-0031-10S.COL___179                                                 6
 STAT SP IPHASW D HRMM SECON CODA AMPLIT PERI AZIMU VELO AIN AR TRES W  DIS CAZ7
 BAR2 SZ IP        034  7.78                             171   -0.0110 22.3 190 
 BAR2 SZ ES   1    034 22.46                             171   -0.35 7 22.3 190 
 BAR2 SZ I         034 24.63       116.3 0.35                          22.3 190 
 BRR  HZ IP     C  034  9.68                             152    0.3110 71.4 299 
 BRR  HZ I         034  9.96       202.3 0.16                          71.4 299 
 PAM  SZ EP        034 10.58                             150    0.0910 78.4  39 
 PAM  SZ I         034 10.85        86.2 0.20                          78.4  39 
 PAM  SN ES   1    034 27.62                             150   -0.01 7 78.4  39 
 RUS  HZ EP        034 11.72                             143   -0.2010 99.6 176 
 RUS  HN ES   1    034 30.20                             143    0.03 7 99.6 176 
 RUS  HZ I         034 31.69        57.3 0.33                          99.6 176 
 OCA  SZ EP        034 16.22                             129   -0.48 9  161 353 
 OCA  SZ ES   2    034 39.17                             129    0.49 5  161 353 
 OCA  SZ I         034 44.81        56.9 0.21                           161 353 
 YOP  SZ EP   1    034 18.20                             126   -0.09 7  178 153 
 YOP  SN ES   1    034 42.26                             126    0.76 7  178 153 
 YOP  SZ I         034 46.11        22.5 0.25                           178 153 
 ZAR  HZ EP   1    034 21.25                             122    0.46 6  204 292 
 ZAR  HE ES   1    034 46.07                             122    0.12 6  204 292 
 ZAR  HZ I         034 52.42        58.7 0.50                           204 292 
 NOR  SZ EP   1    034 23.47                             118   -0.52 6  234 235 
 NOR  SN ES   1    034 51.08                             118   -0.58 6  234 235 
 CHI  HZ EP   1    034 25.69                             117   -0.26 6  248 195 
 CHI  HZ I         034 28.47        23.5 0.43                           248 195 
 ROSC BZ EP   1    034 26.86                             116    0.49 6  252 211 
 ROSC BZ I         035  5.47        61.3 0.47                           252 211 
 HEL  HZ EP   2    034 29.29                             114    0.77 4  271 256 
 HEL  HZ I         035  6.47        29.3 0.31                           271 256 
 VIL  SZ EP   1    034 30.91                             112   -0.78 5  302 192 
 VIL  SZ I         035 16.23        16.1 0.61                           302 192 
 GUY  SZ EP   1    034 32.90                             112    0.74 5  303 235 
 GUY  SZ I         035 17.60        35.9 0.42                           303 235 
 RREF HZ EP   1    034 34.80                             110    0.36 5  321 229 
 RREF HZ I         035 15.47        24.5 0.30                           321 229 
 TOL  SZ EP   2    034 36.22                             109   -0.33 3  343 225 
 COD  HZ EP   1    034 36.70                             108   -0.20 5  349 355 
 COD  HZ I         035 24.30        30.9 0.39                           349 355 
 PRA  HZ EP   1    034 41.44                             106   -0.38 4  391 210 
 PRA  HN ES   2    035 23.99                             106    0.59 3  391 210 
                                                                                
