 2014  214 0544 10.8 L   6.804 -73.144149.5  RSN 15 0.4 2.0LRSN                1
 GAP=137        0.83       3.1     4.2  5.0 -0.1455E+01  0.7198E+01  0.3850E+01E
 Epicentro: LOS SANTOS - SANTANDER                                             3
 ACTION:UPD 14-03-10 08:10 OP:ep   STATUS:               ID:20140214054410 L   I
 OLDACT:UP  14-02-14 10:59 OP:fm   STATUS:               ID:20140214054000     3
 OLDACT:REG 14-02-14 08:28 OP:carl STATUS:               ID:20140214054000     3
 2014-02-14-0540-00M.COL___291                                                 6
 STAT SP IPHASW D HRMM SECON CODA AMPLIT PERI AZIMU VELO AIN AR TRES W  DIS CAZ7
 BAR2 SZ EP        544 30.74                             171   -0.1210 23.8 190 
 BAR2 SZ ES        544 45.95                             171   -0.5810 23.8 190 
 BAR2 SZ I         544 47.05        38.2 0.19            168           23.8 190 
 BRR  HZ EP        544 32.59                             153    0.2710 71.2 298 
 BRR  HE ES        544 49.96                             153    0.8310 71.2 298 
 BRR  HZ I         544 52.43         9.1 0.27            152           71.2 298 
 PAM  SN ES        544 51.01                             152    0.0410 76.9  40 
 RUS  HZ EP        544 34.76                             144   -0.1610  101 176 
 RUS  HN ES        544 53.88                             144    0.1210  101 176 
 RUS  HZ I         544 55.22        13.3 0.28            145            101 176 
 PTB  HZ EP        544 37.46                             133   -0.61 9  148 259 
 PTB  HN ES   1    544 58.73                             133   -0.63 7  148 259 
 PTB  HZ I         545  0.49        13.3 0.13            132            148 259 
 OCA  HE ES   2    545  1.25                             130   -0.37 5  160 353 
 SPBC HZ EP        544 39.90                             130    0.30 9  164 219 
 SPBC HN ES        545  2.11                             130    0.02 9  164 219 
 SPBC HZ I         545  4.21        14.1 0.20            129            164 219 
 ZAR  HN ES   2    545  8.88                             123   -0.09 4  204 292 
 NOR  HZ EP   2    544 46.76                             119   -0.00 4  235 234 
 NOR  HN ES   2    545 15.13                             119    0.29 4  235 234 
 SML  HZ EP   2    544 47.16                             118   -0.42 4  243 335 
 SML  HN ES   2    545 15.85                             118   -0.43 4  243 335 
 CHI  HZ EP   1    544 48.85                             118    0.12 6  249 195 
 CHI  HN ES   1    545 18.32                             118   -0.02 6  249 195 
 ROSC BN ES   4    545 21.59                             117    2.51 0  253 211 
 HEL  HZ EP   4 D  544 52.95                             115    1.74 0  272 256 
 HEL  HN ES   2    545 21.99                             115   -0.76 4  272 256 
 GUY2CHN ES   4    545 32.23                             113    3.44 0  302 235 
 GUY2CHZ I         545 36.85         3.8 0.31                           302 235 
 RREF BZ EP        544 57.80                             111    0.67 7  322 229 
 RREF BN ES        545 33.44                             111    0.16 7  322 229 
 RREF BZ I         545 42.73         7.8 0.32            112            322 229 
 PRA  HZ EP   1    545  4.78                             107    0.30 4  392 210 
 PRA  HN ES   1    545 46.30                             107   -0.07 4  392 210 
 SJC  HN EP   4    545  4.98                             106   -1.45 0  409 327 
 SJC  HE ES   4    545 48.17                             106   -1.67 0  409 327 
                                                                                
