 2011  214 0830  7.8 L   6.784 -73.104138.8  RSN  8 0.3 1.8LRSN                1
 GAP=163        0.72       3.4     6.0  6.7 -0.9930E+01  0.2220E+02 -0.5986E+01E
 Epicentro: LOS SANTOS - SANTANDER                                             3
 ACTION:UP  11-03-28 15:08 OP:jfem STATUS:               ID:20110214083007 L   I
 2011-02-14-0828-34S.COL___137                                                 6
 STAT SP IPHASW D HRMM SECON CODA AMPLIT PERI AZIMU VELO SNR AR TRES W  DIS CAZ7
 BAR2 SZ EP   1    830 26.51                             171    -0.1 8   23 202 
 BAR2 SZ ES   1    830 41.11                             171    -0.2 8   23 202 
 BAR2 SZ I         830 42.42        20.6 0.20                            23 202 
 RUS  HZ EP   1    830 30.88                             143     0.1 8   99 179 
 RUS  HN ES   1    830 48.61                             143     0.0 8   99 179 
 RUS  HZ I         830 50.52         6.9 0.29                            99 179 
 GRA  SZ EP        830 32.51                             135     0.010  126  15 
 GRA  SZ ES   1    830 52.30                             135     0.6 7  126  15 
 GRA  SZ I         830 53.02         9.6 0.34                           126  15 
 OCA  SZ EP   1    830 35.69                                    -0.2 7  163 352 
 OCA  SZ ES   1    830 57.31                                    -0.4 7  163 352 
 OCA  SZ I         831  0.35        12.8 0.42                           163 352 
 NOR  SZ EP        830 43.12                             117    -0.4 8  238 236 
 HEL  HZ EP   1    830 48.89                             113     0.7 6  276 256 
 HEL  HE ES   1    831 19.85                             113     0.3 6  276 256 
 HEL  HZ I         831 26.09         3.7 0.33                           276 256 
 RREF HZ EP   2    830 54.29                             109     0.3 4  324 230 
 RREF HN ES   1    831 30.20                             109     0.3 5  324 230 
 RREF HZ I         831 38.55         1.9 0.28                           324 230 
 DBB  SZ EP   1    830 55.03                                    -0.6 5  344 274 
                                                                                
