 2010  914 0306 20.3 L   6.797 -73.045146.1  RSN  6 0.2 1.9LRSN                1
 GAP=193        0.43       2.1     6.0  3.7  0.2776E+01 -0.4044E+01 -0.2544E+00E
 Epicentro: LOS SANTOS - SANTANDER                                             3
 ACTION:UP  11-02-18 11:02 OP:tino STATUS:               ID:20100914030620 L   I
 2010-09-14-0303-40S.COL___113                                                 6
 STAT SP IPHASW D HRMM SECON CODA AMPLIT PERI AZIMU VELO SNR AR TRES W  DIS CAZ7
 BAR2 SZ EP        3 6 40.16                             169     0.110   27 214 
 BAR2 SZ ES   1    3 6 55.19                             169    -0.3 7   27 214 
 BRR  HZ EP        3 6 42.08                             149     0.010   81 295 
 BRR  HZ I         3 6 42.47        22.8 0.11                            81 295 
 BRR  HN ES   1    3 6 59.20                             149     0.1 7   81 295 
 RUS  HZ EP        3 6 44.14                             144     0.110  100 182 
 RUS  HE ES   1    3 7  2.74                             144     0.2 7  100 182 
 RUS  HZ I         3 7  4.17         8.8 0.40                           100 182 
 OCA  SZ EP        3 6 48.74                             129    -0.1 9  162 349 
 OCA  SZ ES   2    3 7 11.05                             129     0.0 5  162 349 
 OCA  SZ I         3 7 17.39         8.8 0.41                           162 349 
 CHI  HZ EP        3 6 58.30                             117     0.0 8  251 198 
 CHI  HE ES   1    3 7 27.59                             117    -0.4 6  251 198 
 CHI  HZ I         3 7 31.17         3.3 0.47                           251 198 
 RREF HN ES   3    3 7 44.58                             110     0.4 2  330 231 
 RREF HZ I         3 7 52.52         4.1 0.15                           330 231 
                                                                                
