 2012  514 0626 12.1 L   6.395 -73.420116.1  RSN  5 0.4 1.3LRSN                1
 GAP=132        0.93       6.5     6.5  8.5  0.2386E+02  0.2577E+02  0.7307E+01E
 Epicentro: CHIMA - SANTANDER                                                  3
 ACTION:DUP 12-07-05 12:05 OP:pat  STATUS:               ID:20120514062613dL   I
 2012-05-14-0620-00M.COL___195                                                 6
 STAT SP IPHASW D HRMM SECON CODA AMPLIT PERI AZIMU VELO SNR AR TRES W  DIS CAZ7
 BAR2 SZ EP        626 28.18                             163    -0.310   34  50 
 BAR2 SZ ES        626 41.03                             163    -0.310   34  50 
 RUS  HZ EP        626 30.69                             148     0.110   67 146 
 RUS  HN ES        626 45.22                             148     0.310   67 146 
 BRR  HZ EP   1    626 30.94                             141    -0.2 7   85 338 
 BRR  HE ES   1    626 46.53                             141     0.6 7   85 338 
 BRR  HZ I         626 47.34         4.6 0.13                            85 338 
 PTB  HZ EP   1    626 33.10                             132    -0.6 7  116 278 
 PTB  HN ES   1    626 50.47                             132    -0.1 7  116 278 
 PTB  HZ I         626 54.30         3.6 0.17                           116 278 
 ZAR  HZ EP   1    626 43.16                             116     0.8 6  200 307 
 ZAR  HN ES   1    627  6.00                             116     0.1 6  200 307 
                                                                                
