 2016  714 0004 50.4 L   6.635 -73.676101.8  RSN  5 0.5 1.2LRSN                1
 GAP= 99        1.15       7.1     5.3 12.5  0.1443E+02  0.1990E+02  0.4384E+02E
 Epicentro: EL CARMEN - SANTANDER                                              3
 ACTION:UPD 17-03-29 16:50 OP:lp   STATUS:               ID:20160714000450 L   I
 OLDACT:UP  16-07-14 13:10 OP:dani STATUS:               ID:20160714000015d    3
 OLDACT:UP  16-07-14 13:10 OP:dani STATUS:               ID:20160714000015d    3
 OLDACT:DUP 16-07-14 13:07 OP:dani STATUS:               ID:20160714000015d    3
 OLDACT:REG 16-07-14 12:15 OP:dani STATUS:               ID:20160714000014     3
 2016-07-14-0000-14S.COL___331                                                 6
 STAT SP IPHASW D HRMM SECON CODA AMPLIT PERI AZIMU VELO AIN AR TRES W  DIS CAZ7
 BRR  HZ EP   2    0 5  6.50                             150    0.79 5 52.4 356 
 BRR  HE ES        0 5 17.31                             150   -0.3710 52.4 356 
 BRR  HZ I         0 5 23.34         8.5 0.28            153           52.4 356 
 BAR2 EZ ES        0 5 19.25                             149    0.7010 54.8  95 
 PTB  HZ EP        0 5  8.24                             136   -0.0310 86.9 263 
 PTB  HE ES        0 5 22.14                             136   -0.1010 86.9 263 
 PTB  HZ I         0 5 26.82         2.6 0.10            140           86.9 263 
 RUS  HZ EP        0 5 10.57                             131    0.0410  105 141 
 RUS  HE ES        0 5 25.56                             131   -0.7010  105 141 
 RUS  HZ I         0 5 27.77         2.4 0.32            138            105 141 
 SPBC HE ES   2    0 5 28.37                             127    1.01 5  117 202 
 ZAR  HN ES   4    0 5 37.78                             117    2.45 0  161 306 
                                                                                
