 2011  514 0005 32.7 L   6.223 -73.712107.0  RSN  4 0.2 1.8LRSN                1
 GAP=305        0.43      13.1    11.5 11.8  0.5231E+02  0.1141E+03  0.7833E+02E
 Epicentro: LANDAZURI - SANTANDER                                              3
 ACTION:UP  11-06-29 08:53 OP:tino STATUS:               ID:20110514000532 L   I
 2011-05-14-0001-41S.COL___141                                                 6
 STAT SP IPHASW D HRMM SECON CODA AMPLIT PERI AZIMU VELO SNR AR TRES W  DIS CAZ7
 BAR2 SZ ES   1    0 6  3.66                             143    -0.1 7   71  55 
 BAR2 SZ I         0 6  4.64        25.5 0.31                            71  55 
 BTL  SZ EP        0 5 51.88                             135     0.210   91  33 
 BTL  SZ ES   1    0 6  6.68                             135     0.1 7   91  33 
 BRR  HZ EP        0 5 51.85                             133    -0.110   98 360 
 BRR  HZ I         0 5 52.19         8.1 0.13                            98 360 
 GIR2 SZ EP        0 5 53.24                             129    -0.110  111  31 
 GIR2 SZ ES   3    0 6  8.87                             129    -0.5 2  111  31 
                                                                                
