 2011  714 0917  8.7 L   6.773 -73.133144.4  RSN 17 0.4 2.8LRSN                1
 GAP=139        0.78       2.5     4.6  4.9 -0.5191E+01  0.5495E+01  0.2407E+01E
 Epicentro: LOS SANTOS - SANTANDER                                             3
 ACTION:UPD 12-07-25 14:00 OP:epov STATUS:               ID:20110714091708 L   I
 2011-07-14-0915-35S.COL___132                                                 6
 STAT SP IPHASW D HRMM SECON CODA AMPLIT PERI AZIMU VELO AIN AR TRES W  DIS CAZ7
 BAR2 SZ IP        917 28.18                             171    0.0510 20.8 195 
 BAR2 SZ ES   1    917 43.51                             171    0.23 7 20.8 195 
 BAR2 SZ I         917 46.64       117.6 0.29                          20.8 195 
 BTL  SZ IP        917 28.34                             171    0.1810 21.9 317 
 GIR2 SZ IP        917 28.35                             166    0.0310 34.4 349 
 BRR  HZ IP     C  917 30.09                             151    0.2210 73.9 300 
 BRR  HN ES   1    917 47.08                             151    0.71 7 73.9 300 
 BRR  HZ I         917 49.92       110.0 0.18                          73.9 300 
 PAM  SZ EP   1    917 30.98                             150    0.11 7 78.8  37 
 PAM  SN ES   1    917 48.14                             150   -0.02 7 78.8  37 
 RUS  HZ EP   1    917 32.01                             144   -0.11 7 97.6 177 
 RUS  HN ES   1    917 50.25                             144   -0.12 7 97.6 177 
 RUS  HZ I         917 53.61        92.9 0.39                          97.6 177 
 BRI  SZ EP        917 32.74                             141    0.0910  111  20 
 BRI  SZ ES   1    917 51.18                             141   -0.14 7  111  20 
 BRI  SZ I         917 54.56        99.6 0.19                           111  20 
 GRA  SZ IP        917 34.00                             136   -0.0410  128  16 
 GRA  SZ ES   1    917 53.38                             136   -0.41 7  128  16 
 GRA  SZ I         917 54.72       155.0 0.33                           128  16 
 OCA  SZ EP   1    917 36.87                             129   -0.34 7  163 353 
 OCA  SZ ES   1    917 58.59                             129   -0.85 7  163 353 
 OCA  SZ I         918  3.60       122.8 0.42                           163 353 
 NOR  SZ EP   1    917 43.84                             118   -0.47 6  234 235 
 NOR  SE ES   1    918 11.59                             118   -0.48 6  234 235 
 CHI  HZ EP        917 46.20                             117    0.13 8  246 196 
 CHI  HN ES   2    918 15.02                             117   -0.19 4  246 196 
 CHI  HZ I         918 23.92        38.3 0.48                           246 196 
 ROSC BZ EP   2    917 47.67                             117    1.10 4  251 212 
 ROSC BN ES   1    918 16.29                             117    0.20 6  251 212 
 ROSC BZ I         918 23.18        59.0 0.52                           251 212 
 HEL  HZ EP   1    917 49.98                             114    1.05 6  273 256 
 HEL  HN ES   2    918 19.23                             114   -1.07 4  273 256 
 HEL  HZ I         918 26.47        63.9 0.31                           273 256 
 VIL  SZ EP   1    917 52.06                             112    0.28 5  301 192 
 VIL  SN ES        918 24.71                             112   -0.66 7  301 192 
 VIL  SZ I         918 28.74        21.6 0.38                           301 192 
 DBB  SZ EP   1    917 56.07                             109   -0.25 5  341 275 
 TOL  SZ EP   1    917 57.68                             109    0.89 5  342 225 
 PRA  HZ EP   1    918  1.76                             106   -0.21 4  390 210 
 PRA  HN ES   1    918 42.91                             106   -0.60 4  390 210 
                                                                                
