 2015 1014 0123 41.6 L   6.799 -73.113140.8  RSN 20 0.4 2.5LRSN 3.3WRSN        1
 SPEC AVERAGE  MO 14.1 ST0.247 OM  2.5 f0 1.46 R2.1667 AL 0.00 WI 30.0 MW  3.3 3
 SPEC SD       MO  0.4 ST  5.7 OM  0.7 f0 2.35 R1.8982 AL      WI      MW  0.3 3
 GAP= 73        0.97       2.5     2.8  4.6 -0.9938E+00  0.4365E+01  0.2258E+01E
 Epicentro: LOS SANTOS - SANTANDER                                             3
      66.0      55.0     -82.0  5.0  4.0  2.0  0.1  0.2           RSN FPFIT    F
 SPEC PAM EH Z MO 14.7 ST0.019 OM  2.8 f00.390 R4.9333 AL-0.00 WI 30.0 MW  3.8 3
 SPEC PAM EH Z T 12418 K 0.000 GD  159 VS 5.20 DE 3.50 Q0750.0 QA 1.50 VS 3.50 3
 SPEC OCA HH Z MO 13.9 ST0.383 OM  1.9 f0 1.92 R1.0021 AL-0.00 WI 30.0 MW  3.2 3
 SPEC OCA HH Z T 12429 K 0.000 GD  213 VS 5.20 DE 3.50 Q0750.0 QA 1.50 VS 3.50 3
 SPEC ZAR HH Z MO 13.7 ST0.545 OM  1.6 f0 2.58 R0.7457 AL-0.00 WI 30.0 MW  3.1 3
 SPEC ZAR HH Z T 12437 K 0.000 GD  250 VS 5.20 DE 3.50 Q0750.0 QA 1.50 VS 3.50 3
 SPECGUY2CHH Z MO 13.9 ST0.058 OM  1.7 f0 1.03 R1.8680 AL-0.00 WI 30.0 MW  3.2 3
 SPECGUY2CHH Z T 12457 K 0.000 GD  335 VS 5.20 DE 3.50 Q0750.0 QA 1.50 Q1 0.00 3
 SPEC ELA HH Z MO 13.9 ST0.042 OM  1.6 f00.969 R1.9856 AL-0.00 WI 30.0 MW  3.2 3
 SPEC ELA HH Z T 125 3 K 0.000 GD  360 VS 5.20 DE 3.50 Q0750.0 QA 1.50 VS 3.50 3
 OLDACT:REG 15-10-14 12:25 OP:stll STATUS:               ID:20151014011749     3
 ACTION:UPD 15-12-22 20:39 OP:cam  STATUS:               ID:20151014012341 L   I
 OLDACT:UP  15-10-14 14:52 OP:stll STATUS:               ID:20151014011749     3
 2015-10-14-0117-49M.COL___337                                                 6
 STAT SP IPHASW D HRMM SECON CODA AMPLIT PERI AZIMU VELO AIN AR TRES W  DIS CAZ7
 BAR2 EZ IP     D  124  0.64                             170   -0.0410 24.1 198 
 BAR2 EZ ES        124 15.23                             170   -0.3010 24.1 198 
 BAR2 EZ I         124 16.76        45.7 0.22            167           24.1 198 
 BRR  HZ IP     D  124  2.56                             151    0.1310 74.4 297 
 BRR  HN ES        124 19.56                             151    0.9010 74.4 297 
 BRR  HZ I         124 21.34        36.7 0.22            146           74.4 297 
 PAM  EZ IP     D  124  3.45                             151    0.2610 75.3  37 
 PAM  EZ I         124  3.61        74.3 0.26            154           75.3  37 
 PAM  EE ES        124 20.20                             151    0.1910 75.3  37 
 RUS  HZ EP        124  4.56                             143   -0.3110  100 178 
 RUS  HE ES        124 22.69                             143   -0.3110  100 178 
 RUS  HZ I         124 23.56        25.2 0.26            144            100 178 
 TAM  HZ IP     D  124  8.85                             130    0.26 9  152 105 
 TAM  HZ I         124  9.04        21.6 0.36            134            152 105 
 TAM  HN ES        124 29.99                             130    0.37 9  152 105 
 OCA  HZ EP        124  8.96                             128   -0.65 9  161 352 
 OCA  HE ES        124 30.83                             128   -0.61 9  161 352 
 OCA  HZ I         124 38.46        61.2 0.44            128            161 352 
 SPBC HZ EP        124  9.47                             127   -0.49 9  165 220 
 SPBC HE ES        124 31.54                             127   -0.52 9  165 220 
 SPBC HZ I         124 36.42        39.4 0.22            127            165 220 
 ZAR  HZ EP        124 13.85                             121   -0.25 8  207 292 
 ZAR  HE ES        124 39.35                             121   -0.09 8  207 292 
 ZAR  HZ I         124 45.43        44.6 0.32            120            207 292 
 CHI  HZ EP     D  124 18.76                             116   -0.39 8  249 196 
 CHI  HE ES        124 48.38                             116   -0.03 8  249 196 
 CHI  HZ I         124 53.81        13.8 0.28            116            249 196 
 ROSC BZ EP        124 20.31                             115    0.64 8  254 212 
 ROSC BN ES        124 49.49                             115    0.14 8  254 212 
 ROSC BZ I         124 55.93        20.2 0.30            115            254 212 
 HEL  HZ EP     D  124 22.13                             113    0.16 7  275 256 
 HEL  HN ES        124 53.48                             113    0.04 7  275 256 
 HEL  HZ I         124 59.98        10.7 0.32            113            275 256 
 URE  HZ EP   4    124 20.95                             112   -1.89 0  287 292 
 URE  HE ES   4    124 53.00                             112   -1.98 0  287 292 
 URE  HZ I         125  6.10        23.0 0.18            112            287 292 
 GUY2CHZ EP        124 25.90                             111    0.57 7  304 235 
 GUY2CHN ES        124 59.46                             111    0.04 7  304 235 
 GUY2CHZ I         125  5.43        16.5 0.38                           304 235 
 PTGC HZ EP   4 C  124 23.65                             111   -1.46 0  307 159 
 PTGC HZ I         124 24.13        33.7 0.18            112            307 159 
 PTGC HN ES   4    124 54.85                             111   -4.17 0  307 159 
 ELA  HZ EP        124 29.47                             109    0.89 7  332 230 
 ELA  HE ES        125  5.10                             109   -0.09 7  332 230 
 ELA  HZ I         125 12.86        10.8 0.36            109            332 230 
 CBOC HZ EP        124 29.03                             109    0.30 7  337 252 
 CBOC HN ES   4    125  1.93                             109   -3.53 0  337 252 
 CBOC HZ I         125 15.56         4.3 0.70            108            337 252 
 DBB  SZ EP        124 29.47                             108    0.15 7  343 274 
 ANIL HZ EP   1    124 31.75                             107    0.22 5  360 225 
 ANIL HE ES        125 11.02                             107    0.57 6  360 225 
 ANIL HZ I         125 19.74        18.6 0.24            107            360 225 
 ORTC HZ EP        124 34.63                             105   -0.99 6  397 217 
 ORTC HN ES        125 17.51                             105   -0.22 6  397 217 
 ORTC HZ I         125 23.38         8.2 0.44            106            397 217 
 SJC  HZ IP   4 D  124 35.29                             105   -1.98 0  411 327 
 SJC  HZ I         124 36.93         5.6 0.28            105            411 327 
 SJC  HN ES   4    125 16.21                             105   -4.47 0  411 327 
                                                                                
