 2017  914 0531 19.2 L   6.779 -73.101144.8  RSN  6 0.3 1.2LRSN                1
 GAP=143        0.67       3.2     3.9  4.5 -0.4978E+01  0.3531E+01  0.2127E+01E
 Epicentro: LOS SANTOS - SANTANDER                                             3
 ACTION:UPD 17-10-05 19:12 OP:rebc STATUS:               ID:20170914053119 L   I
 OLDACT:UP  17-09-14 16:52 OP:and  STATUS:               ID:20170914052741     3
 OLDACT:REG 17-09-14 11:27 OP:dhb  STATUS:               ID:20170914052741     3
 2017-09-14-0528-00M.COL___419                                                 6
 STAT SP IPHASW D HRMM SECON CODA AMPLIT PERI AZIMU VELO AIN AR TRES W  DIS CAZ7
 BAR2 EZ EP        531 38.56                             171   -0.1410 22.6 204 
 BAR2 EZ ES        531 53.47                             171   -0.4410 22.6 204 
 BAR2 EZ I         531 54.79         6.3 0.20            171           22.6 204 
 PAM  EZ IP     D  531 41.50                             151    0.2610 76.2  36 
 PAM  EN ES        531 58.45                             151    0.0210 76.2  36 
 PAM  EZ I         532  0.89         1.8 0.36            152           76.2  36 
 BRR  HZ EP        531 40.56                             150    0.0010 76.7 298 
 BRR  HN ES        531 57.36                             150    0.1410 76.7 298 
 BRR  HZ I         531 58.22         2.3 0.18            151           76.7 298 
 RUS  HZ EP        531 42.84                             144    0.1710 98.1 179 
 RUS  HN ES        532  1.08                             144    0.0910 98.1 179 
 RUS  HZ I         532  2.05         1.1 0.23            145           98.1 179 
 SPBC HZ EP        531 47.31                             128   -0.45 9  165 221 
 SPBC HN ES        532 10.50                             128    0.46 9  165 221 
 SPBC HZ I         532 11.73         3.5 0.10            130            165 221 
 NOR  HZ EP        531 55.06                             118   -0.11 8  237 236 
 NOR  HE ES        532 23.14                             118   -0.08 8  237 236 
 NOR  HZ I         532 24.27         1.6 0.15            119            237 236 
                                                                                
