 2015  514 0503 55.8 L   6.822 -73.091148.7  RSN 10 0.4 1.9LRSN                1
 GAP=189        0.82       2.7     4.5  5.1  0.1195E+01  0.4947E+01  0.4821E+00E
 Epicentro: LOS SANTOS - SANTANDER                                             3
 ACTION:UPD 15-09-10 22:03 OP:cam  STATUS:               ID:20150514050355 L   I
 OLDACT:UP  15-05-14 13:11 OP:mh   STATUS:               ID:20150514045749     3
 OLDACT:REG 15-05-14 12:27 OP:mh   STATUS:               ID:20150514045749     3
 2015-05-14-0457-49M.COL___285                                                 6
 STAT SP IPHASW D HRMM SECON CODA AMPLIT PERI AZIMU VELO AIN AR TRES W  DIS CAZ7
 BAR2 EZ EP   1    5 4 16.15                             169    0.33 7 27.3 202 
 BAR2 EZ ES        5 4 30.99                             169   -0.4810 27.3 202 
 BAR2 EZ I         5 4 32.49        14.4 0.14            151           27.3 202 
 BRR  HZ EP   1    5 4 17.32                             152   -0.14 7 75.5 295 
 BRR  HN ES        5 4 35.14                             152    0.7510 75.5 295 
 BRR  HZ I         5 4 39.77         9.9 0.16            171           75.5 295 
 RUS  HZ EP   1    5 4 20.29                             144    0.35 7  103 180 
 RUS  HN ES        5 4 38.82                             144    0.0110  103 180 
 RUS  HZ I         5 4 39.73         9.3 0.30            131            103 180 
 OCA  HZ EP        5 4 24.47                             131    0.32 9  159 351 
 OCA  HN ES   1    5 4 45.86                             131   -0.44 7  159 351 
 OCA  HZ I         5 4 52.39        14.4 0.40            127            159 351 
 SPBC HZ EP   1    5 4 24.96                             129   -0.05 7  169 220 
 SPBC HN ES   1    5 4 47.47                             129   -0.36 7  169 220 
 SPBC HZ I         5 4 49.48        15.6 0.28            127            169 220 
 ZAR  HZ EP   1    5 4 28.57                             122   -0.30 6  209 291 
 ZAR  HN ES        5 4 54.25                             122   -0.46 8  209 291 
 ZAR  HZ I         5 4 58.98         6.9 0.42            128            209 291 
 SML  HZ EP   2    5 4 32.48                             118   -0.11 4  244 334 
 SML  HN ES   2    5 5  1.06                             118   -0.26 4  244 334 
 SML  HZ I         5 5  4.15        14.9 0.24            117            244 334 
 CHI  HZ EP        5 4 33.73                             117   -0.31 8  253 196 
 CHI  HN ES        5 5  3.80                             117   -0.10 8  253 196 
 CHI  HZ I         5 5  7.01         4.4 0.42            112            253 196 
 HEL  HZ EP   4    5 4 38.36                             115    1.54 0  279 256 
 HEL  HN ES   1    5 5  8.64                             115   -0.22 6  279 256 
 HEL  HZ I         5 5 15.48         3.8 0.22            116            279 256 
 GUY2CHZ EP   1    5 4 40.40                             112    0.19 5  307 235 
 GUY2CHE ES        5 5 15.53                             112    0.65 7  307 235 
 GUY2CHZ I         5 5 22.30         3.5 0.28                           307 235 
                                                                                
