 2017 1014 0558 10.6 L   6.838 -73.158148.1  RSN  8 0.4 1.4LRSN                1
 GAP=209        0.68       3.3     4.3  5.1  0.6626E+01  0.5601E+01  0.1613E+01E
 Epicentro: LOS SANTOS - SANTANDER                                             3
 ACTION:UPD 17-11-07 19:31 OP:rebc STATUS:               ID:20171014055810 L   I
 OLDACT:DUP 17-10-14 15:09 OP:osc  STATUS:               ID:20171014055747d    3
 2017-10-14-0558-00M.COL___405                                                 6
 STAT SP IPHASW D HRMM SECON CODA AMPLIT PERI AZIMU VELO AIN AR TRES W  DIS CAZ7
 BAR2 EZ EP        558 30.08                             169   -0.4710 27.3 186 
 BAR2 EZ ES        558 46.07                             169   -0.0810 27.3 186 
 BAR2 EZ I         558 47.66        11.1 0.16            168           27.3 186 
 BRR  HZ EP   3    558 32.77                             154    0.98 2 68.1 296 
 BRR  HN ES   3    558 49.79                             154    1.44 2 68.1 296 
 BRR  HZ I         558 53.07         5.1 0.34            152           68.1 296 
 RUS  HZ EP        558 35.25                             143    0.4010  105 175 
 RUS  HN ES        558 53.73                             143   -0.0710  105 175 
 RUS  HZ I         558 54.62         1.7 0.24            146            105 175 
 PTB  HZ EP        558 37.93                             132    0.26 9  147 257 
 PTB  HE ES        558 58.94                             132    0.11 9  147 257 
 PTB  HZ I         559  6.23         2.3 0.16            133            147 257 
 ZAR  HE ES        559  7.98                             123   -0.09 9  201 291 
 CHI  HZ EP        558 48.96                             117    0.17 8  252 195 
 CHI  HE ES        559 18.50                             117   -0.11 8  252 195 
 PRA  HE ES        559 46.17                             107   -0.42 6  395 209 
 SJC  HE ES        559 48.44                             106   -0.26 6  405 327 
                                                                                
