 2017  714 0648 22.4 L   6.709 -73.206145.1  RSN  4 0.4 0.9LRSN                1
 GAP=220        0.97       7.6     7.4  8.5  0.2751E+02  0.1383E+01  0.8148E+00E
 Epicentro: VILLANUEVA - SANTANDER                                             3
 ACTION:UPD 17-08-30 15:32 OP:rebc STATUS:               ID:20170714064821 L   I
 OLDACT:REG 17-07-14 12:42 OP:dnl  STATUS:               ID:20170714063742     3
 2017-07-14-0638-00M.COL___377                                                 6
 STAT SP IPHASW D HRMM SECON CODA AMPLIT PERI AZIMU VELO AIN AR TRES W  DIS CAZ7
 BAR2 EZ EP        648 41.51                             175   -0.3210 13.2 168 
 BAR2 EZ ES        648 56.38                             175   -0.5810 13.2 168 
 BRR  HZ EP        648 43.50                             152   -0.0210 71.1 308 
 BRR  HE ES        649  0.57                             152    0.6110 71.1 308 
 BRR  HZ I         649  3.67         2.3 0.40            138           71.1 308 
 RUS  HZ EP        648 45.77                             146    0.2910 91.3 171 
 RUS  HN ES        649  3.76                             146    0.3110 91.3 171 
 RUS  HZ I         649  5.84         0.9 0.40            141           91.3 171 
 PTB  HZ EP   2    648 48.34                             134   -0.28 5  139 262 
 PTB  HN ES        649  8.78                             134   -0.25 9  139 262 
 PTB  HZ I         649 11.23         0.8 0.14            124            139 262 
                                                                                
