 2013  414 0112 58.8 L   6.766 -73.169142.5  RSN  9 0.4 1.9LRSN                1
 GAP=135        0.92       4.1     4.1  5.2 -0.5729E+01  0.7113E+00  0.3525E+01E
 Epicentro: LOS SANTOS - SANTANDER                                             3
 ACTION:UPD 13-05-22 14:38 OP:EP   STATUS:               ID:20130414011258 L   I
 2013-04-14-0108-51M.COL___215                                                 6
 STAT SP IPHASW D HRMM SECON CODA AMPLIT PERI AZIMU VELO AIN AR TRES W  DIS CAZ7
 BAR2 SZ ES        113 33.19                             172    0.2810 19.3 184 
 BAR2 SZ I         113 33.75        21.6 0.20            171           19.3 184 
 GIR2 SZ EP        113 18.15                             166   -0.0410 34.7 356 
 GIR2 SZ ES        113 32.93                             166   -0.3810 34.7 356 
 BRR  HZ EP        113 19.93                             152    0.3410 70.8 302 
 BRR  HN ES        113 36.21                             152    0.4210 70.8 302 
 BRR  HN I         113 41.22        26.6 0.20            150           70.8 302 
 PAM  SZ EP        113 20.92                             149   -0.0410 81.9  39 
 PAM  SZ I         113 21.14        15.1 0.18            152           81.9  39 
 PAM  SN ES        113 38.44                             149    0.2010 81.9  39 
 RUS  HZ EP        113 22.16                             144    0.1710 97.1 174 
 RUS  HN ES        113 39.79                             144   -0.2810 97.1 174 
 RUS  HN I         113 42.16         7.0 0.26            145           97.1 174 
 PTB  HZ EP        113 25.13                             132   -0.09 9  144 260 
 PTB  HN ES        113 44.97                             132   -0.84 9  144 260 
 PTB  HN I         113 49.55         7.9 0.22            131            144 260 
 CAPV BZ EP        113 26.09                             130   -0.28 9  154  38 
 NOR  HN ES        114  1.86                             118    0.61 8  230 235 
 NOR  HN I         114  6.25         8.4 0.14            119            230 235 
 CHI  HZ EP        113 35.84                             117   -0.03 8  244 195 
                                                                                
