 2015  714 0022 18.6 L   6.802 -73.126147.6  RSN 16 0.4 2.2LRSN                1
 GAP=121        0.87       2.2     3.3  4.7 -0.1012E+01  0.6585E+01  0.1118E+01E
 Epicentro: LOS SANTOS - SANTANDER                                             3
 ACTION:UPD 15-09-08 21:48 OP:cam  STATUS:               ID:20150714002218 L   I
 OLDACT:REG 15-07-14 13:57 OP:spq  STATUS:               ID:20150714001748     3
 2015-07-14-0017-48M.COL___340                                                 6
 STAT SP IPHASW D HRMM SECON CODA AMPLIT PERI AZIMU VELO AIN AR TRES W  DIS CAZ7
 BAR2 EZ EP        022 38.54                             170    0.0910 24.0 195 
 BAR2 EZ ES        022 53.30                             170   -0.6510 24.0 195 
 BAR2 EZ I         022 56.42        24.9 0.24            168           24.0 195 
 PAM  EZ EP        022 41.47                             152    0.5610 75.9  38 
 PAM  EN ES        022 58.89                             152    0.5610 75.9  38 
 PAM  EZ I         023  0.77        21.6 0.54            154           75.9  38 
 RUS  HZ EP        022 42.47                             144   -0.0510  101 177 
 RUS  HE ES        023  1.26                             144    0.0610  101 177 
 OCA  HZ EP        022 46.71                             130   -0.34 9  160 352 
 OCA  HN ES        023  9.49                             130    0.24 9  160 352 
 OCA  HZ I         023 14.08        27.1 0.14            129            160 352 
 ZAR  HZ EP        022 51.65                             122    0.30 8  206 292 
 ZAR  HE ES        023 16.68                             122   -0.22 8  206 292 
 ZAR  HZ I         023 22.31        26.3 0.62            120            206 292 
 NOR  HZ EP        022 54.54                             119   -0.08 8  237 235 
 NOR  HE ES        023 22.60                             119   -0.13 8  237 235 
 NOR  HZ I         023 30.91        10.9 0.16            117            237 235 
 SML  HZ EP        022 54.85                             118   -0.54 8  244 335 
 SML  HN ES        023 23.59                             118   -0.51 8  244 335 
 SML  HZ I         023 30.12        28.9 0.10            116            244 335 
 CHI  HZ EP        022 56.55                             117    0.08 8  249 196 
 CHI  HN ES        023 25.95                             117   -0.06 8  249 196 
 CHI  HZ I         023 31.77         7.5 0.28            117            249 196 
 HEL  HZ EP        022 59.02                             115   -0.10 8  274 256 
 HEL  HE ES        023 30.69                             115   -0.06 8  274 256 
 HEL  HZ I         023 36.82        10.0 0.36            113            274 256 
 URE  HZ EP   4    022 58.55                             114   -1.41 0  286 292 
 URE  HN ES   4    023 30.11                             114   -2.12 0  286 292 
 URE  HZ I         023 43.63        13.4 0.18            112            286 292 
 GUY2CHZ EP        023  2.61                             112    0.12 7  303 235 
 GUY2CHN ES        023 36.78                             112    0.05 7  303 235 
 GUY2CHZ I         023 43.49         7.7 0.36                           303 235 
 PTGC HZ EP        023  1.72                             112   -0.74 7  308 159 
 PTGC HE ES   4    023 33.92                             112   -2.76 0  308 159 
 CBOC HZ EP        023  6.84                             110    1.03 7  336 252 
 CBOC HZ I         023 40.24         3.3 0.28            109            336 252 
 CBOC HN ES        023 42.75                             110    0.10 7  336 252 
 TOL  SZ EP        023  7.39                             109    0.29 7  345 225 
 TOL  SN ES        023 45.48                             109    0.53 7  345 225 
 TOL  SZ I         023 50.81         4.8 0.40            109            345 225 
 PRA  HZ EP        023 11.81                             107   -0.50 6  393 210 
 PRA  HE ES        023 54.03                             107   -0.19 6  393 210 
 PRA  HZ I         023 57.88         8.0 0.54            106            393 210 
 SJC  HZ EP   4    023 12.79                             106   -1.54 0  410 327 
 SJC  HN ES   4    023 52.95                             106   -4.85 0  410 327 
 SJC  HZ I         023 58.51         3.3 0.58            105            410 327 
                                                                                
