 2016  414 0431 16.4 L   6.807 -73.196140.0  RSN  5 0.2 1.4LRSN                1
 GAP=145        0.53       3.1     3.7  5.6 -0.5404E+01  0.7110E+01 -0.6304E+00E
 Epicentro: ZAPATOCA - SANTANDER                                               3
 ACTION:UPD 16-05-05 14:21 OP:rebc STATUS:               ID:20160414043116 L   I
 OLDACT:UP  16-04-14 17:30 OP:mh   STATUS:               ID:20160414042745     3
 OLDACT:REG 16-04-14 12:21 OP:mh   STATUS:               ID:20160414042745     3
 2016-04-14-0427-45M.COL___322                                                 6
 STAT SP IPHASW D HRMM SECON CODA AMPLIT PERI AZIMU VELO AIN AR TRES W  DIS CAZ7
 BAR2 EZ EP   1    431 35.53                             170    0.14 7 23.8 176 
 BAR2 EZ I         431 51.63         8.8 0.32            171           23.8 176 
 PAM  EZ EP        431 38.11                             149   -0.1310 80.5  43 
 PAM  EN ES        431 55.31                             149    0.0610 80.5  43 
 PAM  EZ I         431 57.24         6.1 0.56            149           80.5  43 
 RUS  HZ EP        431 39.51                             142   -0.2210  102 173 
 RUS  HN ES        431 58.03                             142    0.1410  102 173 
 RUS  HZ I         431 58.53         1.9 0.26            144            102 173 
 PTB  HZ EP   1    431 43.02                             132    0.56 7  142 258 
 PTB  HN ES   1    432  2.47                             132   -0.28 7  142 258 
 PTB  HZ I         432  8.69         2.0 0.59            129            142 258 
 SPBC HZ EP        431 44.15                             128   -0.08 9  160 217 
 SPBC HN ES   1    432  5.91                             128    0.00 7  160 217 
 SPBC HZ I         432 10.88         3.6 0.50            127            160 217 
                                                                                
