 2017 1014 0357 12.8 L   6.792 -73.130149.4  RSN 14 0.6 1.8LRSN                1
 GAP= 71        1.44       4.7     4.4  7.6  0.2641E+01  0.1029E+02  0.9824E+01E
 Epicentro: LOS SANTOS - SANTANDER                                             3
 ACTION:UPD 17-11-07 19:31 OP:rebc STATUS:               ID:20171014035712 L   I
 OLDACT:REG 17-10-14 11:19 OP:osc  STATUS:               ID:20171014034405     3
 2017-10-14-0348-00M.COL___432                                                 6
 STAT SP IPHASW D HRMM SECON CODA AMPLIT PERI AZIMU VELO AIN AR TRES W  DIS CAZ7
 BAR2 EZ EP        357 32.75                             171   -0.1010 22.8 195 
 BAR2 EZ ES        357 48.50                             171    0.0110 22.8 195 
 BAR2 EZ I         357 49.22        15.1 0.24            167           22.8 195 
 BRR  HZ EP        357 34.40                             152   -0.0510 73.1 299 
 BRR  HN ES        357 51.68                             152    0.3510 73.1 299 
 BRR  HZ I         357 55.54        12.0 0.14            151           73.1 299 
 PAM  EN ES        357 53.14                             151    0.1510 77.0  38 
 RUS  HZ EP        357 36.58                             145   -0.2610 99.6 177 
 RUS  HN ES        357 55.40                             145   -0.1810 99.6 177 
 RUS  HZ I         357 56.53         9.3 0.30            144           99.6 177 
 PTB  HZ EP        357 39.29                             132   -0.91 9  149 259 
 PTB  HN ES   4    358  0.34                             132   -1.23 0  149 259 
 PTB  HZ I         358  7.24         3.7 0.21            131            149 259 
 TAM  HZ EP        357 40.96                             132    0.36 9  153 105 
 TAM  HE ES        358  1.59                             132   -0.68 9  153 105 
 YPLC HZ EP        357 43.00                             128    0.30 9  175 152 
 YPLC HN ES        358  6.42                             128    0.39 9  175 152 
 YPLC HZ I         358  7.94         9.2 0.30            129            175 152 
 ZAR  HZ EP        357 47.91                             123    2.23 8  206 292 
 ZAR  HN ES        358 10.91                             123   -0.42 8  206 292 
 ZAR  HZ I         358 16.48         6.7 0.28            123            206 292 
 NOR  HZ EP        357 48.17                             119   -0.66 8  236 235 
 NOR  HN ES        358 16.78                             119   -0.16 8  236 235 
 NOR  HZ I         358 22.17         4.8 0.16            119            236 235 
 CHI  HZ EP        357 50.89                             118    0.23 8  248 196 
 CHI  HN ES        358 20.16                             118   -0.02 8  248 196 
 CHI  HZ I         358 30.03         4.0 0.38            118            248 196 
 GUY2CHZ EP   4    357 59.05                             113    2.37 0  302 235 
 GUY2CHE ES        358 31.04                             113    0.14 7  302 235 
 GUY2CHZ I         358 37.90         3.6 0.36                           302 235 
 PRA  HZ EP        358  6.37                             107   -0.08 6  392 210 
 PRA  HE ES        358 48.38                             107    0.08 6  392 210 
 PRA  HZ I         358 54.83         4.1 0.42            108            392 210 
 ORTC HE ES        358 49.25                             107    0.19 6  396 216 
 ORTC HZ I         358 56.45         2.3 0.44            107            396 216 
 SJC  HZ EP        358  7.27                             106   -1.41 6  411 327 
 SJC  HE ES   4    358 48.74                             106   -3.53 0  411 327 
                                                                                
