 2011  614 0827 29.6 L   6.755 -73.024151.2  RSN  4 0.4 1.6LRSN                1
 GAP=195        0.80       8.9    17.0 12.7  0.8061E+02 -0.1113E+03 -0.5235E+02E
 Epicentro: CEPITA - SANTANDER                                                 3
 ACTION:UP  11-07-14 19:05 OP:ep   STATUS:               ID:20110614082729 L   I
 2011-06-14-0824-41S.COL___135                                                 6
 STAT SP IPHASW D HRMM SECON CODA AMPLIT PERI AZIMU VELO SNR AR TRES W  DIS CAZ7
 BAR2 SZ EP   2    827 49.72                             170    -0.2 5   25 224 
 BAR2 SZ ES   2    828  6.01                             170     0.2 5   25 224 
 BAR2 SZ I         828  6.16         6.6 0.30                            25 224 
 BRR  HZ EP        827 52.57                             149     0.410   85 297 
 BRR  HE ES        828  9.54                             149    -0.310   85 297 
 BRR  HZ I         828 14.28         8.4 0.18                            85 297 
 RUS  HN ES   2    828 12.09                             146    -0.2 5   96 184 
 RUS  HZ I         828 13.93         5.8 0.57                            96 184 
 OCA  SZ EP   2    827 58.25                             129    -0.8 5  167 349 
 OCA  SZ ES   2    828 22.34                             129     0.4 5  167 349 
 OCA  SZ I         828 24.02         3.9 0.43                           167 349 
                                                                                
