 2013  414 0735 32.2 L   6.530 -73.577109.3  RSN 11 0.4 2.4LRSN                1
 GAP= 76        1.14       3.2     3.6  6.0 -0.2765E+01  0.4365E+01 -0.4695E+00E
 Epicentro: EL CARMEN DE CHUCURI - SANTANDER                                   3
 ACTION:UPD 13-05-22 14:38 OP:EP   STATUS:               ID:20130414073532 L   I
 2013-04-14-0728-49M.COL___212                                                 6
 STAT SP IPHASW D HRMM SECON CODA AMPLIT PERI AZIMU VELO AIN AR TRES W  DIS CAZ7
 BAR2 SZ EP        735 48.45                             156    0.2210 44.2  81 
 BAR2 SZ ES        736  0.61                             156   -0.1510 44.2  81 
 BAR2 SZ I         736  2.09       146.6 0.42            157           44.2  81 
 BRR  HZ EP        735 49.21                             147    0.0810 65.6 347 
 BRR  HN ES        736  3.25                             147    0.8910 65.6 347 
 BRR  HN I         736  3.89        33.5 0.36            144           65.6 347 
 GIR2 SZ EP        735 50.01                             143    0.0810 74.0  35 
 GIR2 SZ ES        736  4.09                             143    0.3110 74.0  35 
 RUS  HZ EP        735 51.71                             138    0.1310 89.2 142 
 RUS  HN ES        736  6.85                             138    0.1210 89.2 142 
 RUS  HN I         736  8.26        21.4 0.16            140           89.2 142 
 PTB  HZ EP        735 51.25                             135   -0.3610 97.3 271 
 PTB  HN ES        736  6.12                             135   -0.6510 97.3 271 
 PTB  HN I         736  7.10        50.3 0.18            134           97.3 271 
 PAM  SZ EP        735 55.16                             126   -0.3110  132  47 
 PAM  SN ES        736 12.85                             126   -0.8010  132  47 
 PAM  SN I         736 13.78        42.0 0.22            125            132  47 
 NOR  HZ EP        736  0.06                             117    0.29 9  179 233 
 NOR  HN ES        736 20.92                             117   -0.38 9  179 233 
 NOR  HN I         736 23.53        41.4 0.18            117            179 233 
 OCA  HN ES        736 23.47                             115   -0.52 9  191   9 
 OCA  HN I         736 32.20        65.6 0.32            114            191   9 
 CAPV BZ EP        736  2.57                             113   -0.14 9  203  43 
 CHI  HZ EP        736  4.43                             112    0.62 8  211 185 
 SML  HZ EP        736  8.55                             107   -0.04 8  257 348 
 SML  HN ES        736 37.83                             107    0.84 8  257 348 
 SML  HN I         736 43.23        43.3 0.10            107            257 348 
                                                                                
