 2012 1214 0110 33.2 L   6.723 -73.121136.6  RSN  9 0.4 1.7LRSN                1
 GAP= 75        0.85       4.1     4.2  6.3  0.1043E+01  0.2888E+01  0.4548E+01E
 Epicentro: JORDAN - SANTANDER                                                 3
 ACTION:UPD 13-01-04 14:27 OP:ep   STATUS:               ID:20121214011033 L   I
 2012-12-14-0110-00M.COL___242                                                 6
 STAT SP IPHASW D HRMM SECON CODA AMPLIT PERI AZIMU VELO AIN AR TRES W  DIS CAZ7
 BAR2 SZ EP   1    110 51.72                             173    0.08 7 16.0 205 
 BAR2 SZ ES   1    111  5.50                             173   -0.49 7 16.0 205 
 BAR2 SZ I         111  7.78        18.0 0.18                          16.0 205 
 GIR2 SZ EP        110 52.03                             163   -0.0910 40.1 349 
 GIR2 SZ ES   2    111  7.64                             163    0.80 5 40.1 349 
 GIR2 SZ I         111  8.90         7.0 0.38                          40.1 349 
 BRR  HZ EP   1    110 53.81                             148   -0.01 7 77.9 303 
 BRR  HN ES   1    111 10.72                             148    0.85 7 77.9 303 
 BRR  HZ I         111 12.73         9.7 0.14                          77.9 303 
 PAM  SZ EP   1    110 54.86                             147    0.03 7 82.6  34 
 PAM  SN ES   1    111 10.91                             147   -0.75 7 82.6  34 
 PAM  SZ I         111 14.36         6.1 0.60                          82.6  34 
 RUS  HZ EP   1    110 55.49                             144    0.02 7 91.9 177 
 RUS  HN ES   1    111 13.37                             144    0.56 7 91.9 177 
 RUS  HZ I         111 14.49         9.0 0.36                          91.9 177 
 PTB  HZ EP   1    110 59.41                             130   -0.19 7  149 262 
 PTB  HN ES   1    111 19.45                             130   -0.71 7  149 262 
 PTB  HZ I         111 22.64         6.0 0.16                           149 262 
 TAM  HZ EP   1    111  0.00                             129    0.23 7  150 102 
 ZAR  HZ EP   1    111  6.17                             119    0.44 6  210 294 
 ZAR  HE ES   1    111 31.00                             119   -0.06 6  210 294 
 ZAR  HZ I         111 39.61         8.9 0.42                           210 294 
 CHI  HZ EP   1    111  9.64                             116    0.01 6  241 196 
 CHI  HN ES   1    111 37.73                             116   -0.28 6  241 196 
 CHI  HZ I         111 41.47         1.8 0.32                           241 196 
                                                                                
