 2012  514 0500 45.3 L   6.791 -73.164146.1  RSN  6 0.4 1.2LRSN                1
 GAP=135        0.88       7.3     6.8  9.3  0.1598E+02  0.1424E+02  0.6902E+01E
 Epicentro: LOS SANTOS - SANTANDER                                             3
 ACTION:UP  12-07-05 12:05 OP:pat  STATUS:               ID:20120514050045 L   I
 2012-05-14-0500-00M.COL___195                                                 6
 STAT SP IPHASW D HRMM SECON CODA AMPLIT PERI AZIMU VELO SNR AR TRES W  DIS CAZ7
 BAR2 SZ EP   1    5 1  4.90                             171     0.0 7   22 185 
 BAR2 SZ ES   1    5 1 19.69                             171    -0.5 7   22 185 
 BRR  HZ EP   1    5 1  6.34                             153     0.0 7   70 300 
 BRR  HZ I         5 1  7.05         4.3 0.11                            70 300 
 BRR  HN ES   1    5 1 23.59                             153     0.7 7   70 300 
 PAM  SE ES   2    5 1 24.67                             150    -0.4 5   79  40 
 RUS  HZ EP   1    5 1  9.27                             144     0.3 7  100 175 
 RUS  HN ES   1    5 1 27.85                             144     0.4 7  100 175 
 RUS  HZ I         5 1 30.21         1.8 0.36                           100 175 
 PTB  HZ EP   1    5 1 11.75                             133    -0.3 7  146 259 
 PTB  HN ES   1    5 1 32.50                             133    -0.5 7  146 259 
 PTB  HZ I         5 1 34.47         2.1 0.25                           146 259 
 ZAR  HE ES   2    5 1 42.99                             123     0.2 4  203 293 
                                                                                
