 2013 1114 0532  9.8 L   6.702 -73.214148.6  RSN  4 0.3 1.2LRSN                1
 GAP=222        0.85       5.1     6.1  7.7  0.9176E+01 -0.1547E+01  0.1334E+01E
 Epicentro: VILLANUEVA - SANTANDER                                             3
 ACTION:UPD 14-01-09 16:27 OP:ep   STATUS:               ID:20131114053209 L   I
 OLDACT:REG 13-11-14 09:38 OP:nd   STATUS:               ID:20131114053000     3
 2013-11-14-0530-00M.COL___279                                                 6
 STAT SP IPHASW D HRMM SECON CODA AMPLIT PERI AZIMU VELO AIN AR TRES W  DIS CAZ7
 BRR  HZ EP        532 31.33                             153    0.0510 71.0 309 
 BRR  HN ES        532 48.28                             153    0.2710 71.0 309 
 BRR  HZ I         532 51.27         3.9 0.58            151           71.0 309 
 RUS  HZ EP        532 32.91                             147   -0.2710 90.6 171 
 RUS  HN ES        532 51.26                             147   -0.1310 90.6 171 
 RUS  HZ I         532 52.86         1.6 0.26            147           90.6 171 
 PTB  HZ EP        532 36.36                             135    0.14 9  139 263 
 PTB  HN ES        532 56.15                             135   -0.65 9  139 263 
 PTB  HZ I         533  3.25         2.4 0.36            133            139 263 
 SPBC HZ EP        532 37.47                             132    0.13 9  150 219 
 SPBC HN ES        532 59.29                             132    0.50 9  150 219 
 SPBC HZ I         533  6.36         2.2 0.44            131            150 219 
                                                                                
