 2015  214 0021 23.0 L   6.781 -73.172138.4  RSN  9 0.5 1.8LRSN                1
 GAP=134        1.16       3.7     5.0  6.7 -0.3587E+01  0.1153E+02  0.3640E+00E
 Epicentro: LOS SANTOS - SANTANDER                                             3
 ACTION:UPD 15-04-30 21:26 OP:nd   STATUS:               ID:20150214002123 L   I
 OLDACT:REG 15-02-14 12:44 OP:fm   STATUS:               ID:20150214001735     3
 2015-02-14-0017-35M.COL___299                                                 6
 STAT SP IPHASW D HRMM SECON CODA AMPLIT PERI AZIMU VELO AIN AR TRES W  DIS CAZ7
 BAR2 EZ EP        021 42.00                             171    0.2810 20.9 183 
 BAR2 EZ ES        021 56.47                             171    0.1710 20.9 183 
 BAR2 EZ I         021 58.54        12.8 0.42            172           20.9 183 
 BRR  HZ EP        021 43.97                             152    0.6710 69.7 301 
 BRR  HE ES        021 59.57                             152    0.4610 69.7 301 
 BRR  HZ I         022  5.97        15.4 0.20            151           69.7 301 
 PAM  SZ EP        021 44.85                             148    0.1710 80.9  40 
 PAM  SE ES        022  1.33                             148   -0.2510 80.9  40 
 PAM  SZ I         022  4.38        13.2 0.60            153           80.9  40 
 RUS  HZ EP        021 45.95                             143    0.0310 98.7 174 
 RUS  HE ES        022  3.46                             143   -0.3110 98.7 174 
 RUS  HZ I         022  5.36         4.9 0.20            147           98.7 174 
 PTB  HZ EP        021 48.67                             131   -0.43 9  144 259 
 PTB  HE ES        022  8.93                             131   -0.51 9  144 259 
 PTB  HZ I         022 12.41         6.8 0.18            132            144 259 
 NOR  HZ EP        021 58.63                             117    0.69 8  231 234 
 NOR  HE ES        022 24.65                             117   -0.53 8  231 234 
 NOR  HZ I         022 32.74         3.6 0.18            120            231 234 
 SML  HZ EP        021 58.41                             116   -0.92 8  244 336 
 SML  HE ES        022 27.37                             116   -0.28 8  244 336 
 SML  HZ I         022 31.08         9.8 0.10            118            244 336 
 CHI  HN ES        022 28.28                             116   -0.59 8  246 195 
 GUY2CHZ EP        022  6.23                             111    0.34 7  298 235 
 GUY2CHN ES        022 40.16                             111    0.84 7  298 235 
 GUY2CHZ I         022 48.74         2.6 0.30                           298 235 
                                                                                
