 2010  114 0831 25.6 L   6.808 -73.080145.2  RSN  7 0.3 2.0LRSN                1
 GAP=147        0.62       3.8     6.6  5.5 -0.1200E+02 -0.2335E+01  0.2242E+01E
 Epicentro: LOS SANTOS - SANTANDER                                             3
 ACTION:UP  10-08-24 09:44 OP:vdl  STATUS:               ID:20100114083125 L   I
 2010-01-14-0820-00S.COL___094                                                 6
 STAT SP IPHASW D HRMM SECON CODA AMPLIT PERI AZIMU VELO SNR AR TRES W  DIS CAZ7
 BAR2 SZ EP   1    831 45.34                             169     0.110   27 206 
 BAR2 SZ ES   1    832  0.29                             169    -0.310   27 206 
 GIR2 SZ EP   2    831 45.49                             167     0.2 6   32 337 
 OCA  SZ EP   1    831 54.16                             129     0.3 9  160 351 
 OCA  SZ ES   2    832 16.11                             129     0.2 6  160 351 
 OCA  SZ I         832 22.11        21.9 0.30                           160 351 
 CHI  HZ IP        832  3.23                             117    -0.410  252 197 
 CHI  HZ I         832  5.69         3.3 0.41                           252 197 
 CHI  HN ES   1    832 33.89                             117     0.7 7  252 197 
 HEL  HZ EP   2    832  6.75                             114     0.1 5  279 256 
 HEL  HE ES   2    832 37.97                             114    -0.6 5  279 256 
 HEL  HZ I         832 44.43         4.0 0.37                           279 256 
 SDV  BZ IP        832 14.74                             108    -0.2 8  354  50 
 SDV  BZ I         832 15.52         2.1 0.08                           354  50 
 PRA  HZ IP        832 19.54                             106    -0.1 7  396 210 
 PRA  HE ES   2    833  2.04                             106     0.3 4  396 210 
 PRA  HZ I         833  6.72         4.6 0.38                           396 210 
                                                                                
