 2017 1114 0845 26.8 L   6.679 -73.162146.9  RSN  6 0.4 1.0LRSN                1
 GAP=139        1.04       5.2     5.0  7.5 -0.5941E+01  0.7869E+01  0.3158E+01E
 Epicentro: VILLANUEVA - SANTANDER                                             3
 ACTION:UPD 17-12-12 19:55 OP:rebc STATUS:               ID:20171114084526 L   I
 OLDACT:REG 17-11-14 13:00 OP:leo  STATUS:               ID:20171114083741     3
 2017-11-14-0838-00M.COL___432                                                 6
 STAT SP IPHASW D HRMM SECON CODA AMPLIT PERI AZIMU VELO AIN AR TRES W  DIS CAZ7
 BAR2 EZ EP        845 46.34                             176    0.0110 9.82 193 
 BAR2 EZ ES        846  1.45                             176   -0.1510 9.82 193 
 BRR  HZ EP        845 48.62                             151    0.2510 77.1 308 
 BRR  HE ES        846  5.88                             151    0.6610 77.1 308 
 RUS  HZ EP        845 50.50                             148    0.7810 87.4 174 
 RUS  HN ES        846  7.45                             148   -0.1710 87.4 174 
 RUS  HZ I         846  9.51         1.5 0.28            149           87.4 174 
 PAM  EZ EP        845 49.51                             147   -0.3210 89.2  35 
 PAM  EN ES        846  7.39                             147   -0.4410 89.2  35 
 PAM  EZ I         846  9.54         2.5 0.48            149           89.2  35 
 PTB  HZ EP        845 53.27                             133   -0.21 9  144 264 
 PTB  HN ES        846 14.09                             133   -0.23 9  144 264 
 PTB  HZ I         846 18.13         0.9 0.20            134            144 264 
 GUY2CHE ES        846 42.23                             113   -0.44 7  292 237 
                                                                                
