 2010  814 0432 56.2 L   6.871 -73.391111.2  RSN  7 0.2 1.9LRSN                1
 GAP=144        0.61       2.6     4.9  5.0  0.1589E-01 -0.7003E+01 -0.2300E+01E
 Epicentro: SAN VICENTE DE CHUCURI - SANTANDER                                 3
 ACTION:UP  10-09-07 10:54 OP:vdl  STATUS:               ID:20100814043256 L   I
 2010-08-14-0428-22S.COL___111                                                 6
 STAT SP IPHASW D HRMM SECON CODA AMPLIT PERI AZIMU VELO SNR AR TRES W  DIS CAZ7
 BTL  SZ EP        433 11.42                             172    -0.110   15  69 
 GIR2 SZ EP   2    433 11.46                             163    -0.3 5   32  44 
 BAR2 SZ IP        433 12.44                             160     0.310   38 143 
 BAR2 SZ I         433 12.56        22.2 0.08                            38 143 
 BAR2 SZ ES        433 24.78                             160     0.110   38 143 
 BRR  HZ IP     D  433 11.79                             157    -0.310   44 306 
 BRR  HZ I         433 11.96        43.2 0.11                            44 306 
 BRR  HN ES        433 24.62                             157     0.110   44 306 
 RUS  HZ EP   1    433 17.91                             131     0.1 7  113 162 
 RUS  HN ES   1    433 34.43                             131    -0.3 7  113 162 
 GUE  SZ EP        433 18.37                             130     0.310  118  26 
 GUE  SZ ES   1    433 34.86                             130    -0.2 7  118  26 
 GUE  SZ I         433 36.00        10.4 0.09                           118  26 
 GRA  SZ EP   1    433 18.82                             127    -0.1 7  130  30 
 GRA  SZ ES   1    433 36.60                             127    -0.1 7  130  30 
 GRA  SZ I         433 39.39         8.9 0.72                           130  30 
                                                                                
