 2017 1014 0311 19.1 L   6.800 -73.162143.5  RSN  9 0.5 1.4LRSN                1
 GAP=212        1.09       5.1     4.6  7.2  0.6355E+01  0.5711E+01  0.1391E+02E
 Epicentro: LOS SANTOS - SANTANDER                                             3
 ACTION:UPD 17-11-07 19:31 OP:rebc STATUS:               ID:20171014031119 L   I
 OLDACT:REG 17-10-14 11:16 OP:osc  STATUS:               ID:20171014030721     3
 2017-10-14-0308-00M.COL___438                                                 6
 STAT SP IPHASW D HRMM SECON CODA AMPLIT PERI AZIMU VELO AIN AR TRES W  DIS CAZ7
 BAR2 EZ EP        311 38.25                             170   -0.1810 23.1 185 
 BAR2 EZ ES        311 53.12                             170   -0.4010 23.1 185 
 BAR2 EZ I         311 54.43        10.4 0.28            167           23.1 185 
 BRR  HZ EP        311 40.01                             153    0.1210 69.6 299 
 BRR  HE ES        311 57.12                             153    1.0010 69.6 299 
 RUS  HZ EP        311 42.32                             143   -0.3010  101 175 
 RUS  HN ES        312  0.65                             143   -0.3310  101 175 
 RUS  HZ I         312  2.78         1.9 0.18            143            101 175 
 PTB  HZ EP        311 45.10                             132   -0.60 9  146 259 
 PTB  HN ES        312  5.94                             132   -0.52 9  146 259 
 PTB  HZ I         312  9.07         2.4 0.03            131            146 259 
 YPLC HZ EP        311 48.75                             126   -0.05 9  178 151 
 YPLC HN ES        312 12.69                             126    0.71 9  178 151 
 NOR  HE ES        312 22.12                             118   -0.04 8  233 234 
 NOR  HZ I         312 27.22         2.0 0.15            118            233 234 
 CHI  HZ EP        311 56.65                             117    0.05 8  248 195 
 CHI  HE ES        312 26.14                             117    0.27 8  248 195 
 CHI  HZ I         312 28.32         1.9 0.42            117            248 195 
 GUY2CHZ EP   3    312  3.60                             112    1.18 2  300 235 
 GUY2CHN ES        312 36.68                             112    0.46 7  300 235 
 GUY2CHZ I         312 46.11         1.4 0.33                           300 235 
 PRA  HE ES        312 54.23                             106    0.21 6  391 209 
                                                                                
