 2010 1214 0459 48.6 L   6.753 -73.129149.9  RSN  6 0.4 1.6LRSN                1
 GAP=184        0.80       4.1    11.7 11.0 -0.1060E+02  0.6006E+02 -0.2212E+01E
 Epicentro: LOS SANTOS - SANTANDER                                             3
 ACTION:UP  11-01-14 15:24 OP:pat  STATUS:               ID:20101214045948 L   I
 2010-12-14-0458-03S.COL___136                                                 6
 STAT SP IPHASW D HRMM SECON CODA AMPLIT PERI AZIMU VELO SNR AR TRES W  DIS CAZ7
 BAR2 SZ EP   1    5 0  8.30                             172    -0.4 7   19 199 
 BAR2 SZ I         5 0 34.23        12.6 0.67                            19 199 
 RUS  HZ EP   1    5 0 12.22                             146    -0.2 7   95 177 
 RUS  HE ES   1    5 0 31.15                             146     0.2 7   95 177 
 RUS  HZ I         5 0 32.37         4.0 0.19                            95 177 
 OCA  SZ EP   1    5 0 17.19                             130    -0.6 7  166 353 
 OCA  SZ ES   1    5 0 41.06                             130     0.6 7  166 353 
 OCA  SZ I         5 0 44.44         6.2 0.27                           166 353 
 NOR  SZ EP   1    5 0 24.41                             120    -0.1 6  233 236 
 NOR  SZ ES   2    5 0 52.26                                    -0.2 4  233 236 
 CHI  HZ EP   1    5 0 26.46                             119     0.4 6  244 196 
 CHI  HN ES   2    5 0 55.27                             119     0.0 4  244 196 
 CHI  HZ I         5 1  1.40         2.8 0.42                           244 196 
 PRA  HZ EP   1    5 0 42.80                             108     0.9 4  388 210 
 PRA  HN ES   2    5 1 22.74                                    -0.7 3  388 210 
                                                                                
