 2013  314 0537  7.7 L   6.800 -73.127144.0  RSN 11 0.5 2.4LRSN                1
 GAP=139        1.19       3.3     6.0  7.0 -0.1986E+00  0.1489E+02  0.1121E+01E
 Epicentro: LOS SANTOS - SANTANDER                                             3
 ACTION:UPD 13-04-09 14:02 OP:ep   STATUS:               ID:20130314053708dL   I
 2013-03-14-0530-00M.COL___243                                                 6
 STAT SP IPHASW D HRMM SECON CODA AMPLIT PERI AZIMU VELO AIN AR TRES W  DIS CAZ7
 BAR2 SZ EP        537 27.09                             170   -0.0110 23.7 195 
 BAR2 SZ ES   1    537 42.15                             170   -0.10 7 23.7 195 
 BAR2 SZ I         537 43.82        32.9 0.32            164           23.7 195 
 BRR  HZ IP     C  537 28.97                             152    0.2410 73.0 298 
 BRR  HN ES        537 46.07                             152    0.9110 73.0 298 
 BRR  HN I         537 46.69        72.6 0.30            142           73.0 298 
 PAM  SZ EP        537 29.87                             151    0.2510 76.1  38 
 PAM  SN ES        537 46.98                             151    0.2310 76.1  38 
 PAM  SN I         537 48.07        20.0 0.20            151           76.1  38 
 RUS  HZ EP        537 31.17                             144   -0.0710  100 177 
 RUS  HN ES        537 49.28                             144   -0.3410  100 177 
 RUS  HN I         537 50.15        24.1 0.32            139            100 177 
 PTB  HZ EP        537 33.95                             131   -0.73 9  150 259 
 PTB  HN ES   2    537 55.10                             131   -0.64 5  150 259 
 PTB  HN I         538  1.18        24.8 0.26            123            150 259 
 OCA  HZ EP        537 36.01                             129    0.14 9  161 352 
 OCA  HN ES        537 57.20                             129   -0.67 9  161 352 
 OCA  HN I         538  1.14       105.2 0.22            124            161 352 
 ZAR  HZ EP   1    537 40.97                             122    0.77 6  206 292 
 ZAR  HN ES   1    538  5.27                             122   -0.30 6  206 292 
 ZAR  HN I         538 10.45        35.5 0.54            115            206 292 
 SML  HZ EP        537 44.01                             117   -0.28 8  245 335 
 SML  HN ES        538 12.13                             117   -0.73 8  245 335 
 SML  HN I         538 16.96        30.0 0.28            112            245 335 
 CHI  HN ES        538 14.51                             117   -0.19 8  249 196 
 CHI  HN I         538 18.59        12.0 0.32            112            249 196 
 HEL  HZ EP        537 49.23                             114    1.22 8  274 256 
 HEL  HN I         538 27.63         5.8 0.22            109            274 256 
 PRA  HZ EP        538  1.66                             106    0.41 6  393 210 
 PRA  HN ES        538 42.38                             106   -0.65 6  393 210 
 PRA  HN I         538 47.95         4.7 0.32            102            393 210 
                                                                                
