 2012  914 0031 55.9 L   6.754 -73.157144.2  RSN  9 0.4 2.2LRSN                1
 GAP=137        0.77       3.8     4.4  6.1  0.7403E+00  0.7359E+01  0.3931E+01E
 Epicentro: LOS SANTOS - SANTANDER                                             3
 ACTION:UPD 12-10-22 14:18 OP:ep   STATUS:               ID:20120914003155 L   I
 2012-09-14-0030-00M.COL___227                                                 6
 STAT SP IPHASW D HRMM SECON CODA AMPLIT PERI AZIMU VELO AIN AR TRES W  DIS CAZ7
 BAR2 SZ EP        032 15.27                             172    0.0510 18.2 189 
 BAR2 SZ ES   1    032 30.14                             172   -0.17 7 18.2 189 
 BAR2 SZ I         032 31.32        86.3 0.20                          18.2 189 
 GIR2 SZ EP   1    032 15.33                             165   -0.17 7 36.1 354 
 GIR2 SZ ES   1    032 30.52                             165   -0.29 7 36.1 354 
 BRR  HZ EP   1    032 17.14                             152    0.20 7 72.7 302 
 BRR  HZ I         032 17.42        46.2 0.26                          72.7 302 
 BRR  HN ES   1    032 34.12                             152    0.76 7 72.7 302 
 PAM  SZ EP   1    032 18.22                             149    0.01 7 82.1  38 
 PAM  SN ES   1    032 35.21                             149   -0.43 7 82.1  38 
 PAM  SZ I         032 36.99        29.3 0.74                          82.1  38 
 RUS  HZ EP   1    032 19.44                             145    0.32 7 95.7 175 
 RUS  HE ES   1    032 37.75                             145    0.50 7 95.7 175 
 RUS  HZ I         032 38.66        16.1 0.22                          95.7 175 
 PTB  HZ EP   1    032 21.88                             132   -0.64 7  146 261 
 PTB  HN ES   1    032 42.72                             132   -0.58 7  146 261 
 PTB  HZ I         032 44.56        14.4 0.28                           146 261 
 ZAR  HZ EP   1    032 28.73                             122    0.43 6  205 294 
 ZAR  HE ES   1    032 53.80                             122    0.21 6  205 294 
 ZAR  HZ I         032 59.94        16.3 0.21                           205 294 
 CHI  HN ES   1    033  1.48                             117   -0.34 6  243 195 
 CHI  HZ I         033  9.82         4.5 0.34                           243 195 
 PRA  HN ES   2    033 30.09                             106    0.09 3  387 210 
 PRA  HZ I         033 36.15         3.9 0.28                           387 210 
                                                                                
