 2010  814 0940 48.3 L   6.789 -73.089142.8  RSN  8 0.2 1.8LRSN                1
 GAP=165        0.53       2.6     5.5  4.5 -0.3747E+01 -0.3220E+01 -0.1199E+01E
 Epicentro: LOS SANTOS - SANTANDER                                             3
 ACTION:UP  10-09-07 10:54 OP:vdl  STATUS:               ID:20100814094048 L   I
 2010-08-14-0938-14S.COL___111                                                 6
 STAT SP IPHASW D HRMM SECON CODA AMPLIT PERI AZIMU VELO SNR AR TRES W  DIS CAZ7
 BAR2 SZ IP        941  7.52                             170     0.010   24 206 
 BAR2 SZ ES   1    941 22.29                             170    -0.3 7   24 206 
 BAR2 SZ I         941 23.79        21.4 0.25                            24 206 
 BRR  HZ IP     D  941  9.38                             150    -0.110   77 297 
 BRR  HN ES   1    941 26.31                                     0.3 7   77 297 
 BRR  HZ I         941 30.45        15.8 0.19                            77 297 
 RUS  HZ EP   1    941 11.89                             142     0.3 7   99 180 
 RUS  HE ES   1    941 29.95                                     0.1 7   99 180 
 RUS  HZ I         941 31.41         7.2 0.34                            99 180 
 GUE  SZ EP        941 12.46                             138    -0.210  117   9 
 GRA  SZ IP        941 13.38                             135     0.210  125  15 
 GRA  SZ I         941 14.62         6.5 0.33                           125  15 
 GRA  SZ ES   1    941 32.62                             135     0.0 7  125  15 
 OCA  SZ EP   2    941 16.56                             128     0.0 5  162 351 
 OCA  SZ I         941 42.37        10.6 0.29                           162 351 
 CHI  HZ EP   3    941 25.92                             115     0.1 2  249 197 
 CHI  HZ I         942  1.08         2.1 0.34                           249 197 
 PRA  HZ EP   1    941 42.00                             105     0.1 4  394 210 
 PRA  HN ES   2    942 23.28                             105    -0.5 3  394 210 
 PRA  HZ I         942 28.67         3.9 0.31                           394 210 
                                                                                
