 2011  614 0638 52.3 L   6.741 -73.068146.7  RSN 11 0.4 2.2LRSN                1
 GAP=166        0.79       3.9     7.4  6.4 -0.1525E+02  0.5837E+01  0.1554E+01E
 Epicentro: JORDAN - SANTANDER                                                 3
 ACTION:UP  11-07-14 19:05 OP:ep   STATUS:               ID:20110614063852 L   I
 2011-06-14-0636-49S.COL___135                                                 6
 STAT SP IPHASW D HRMM SECON CODA AMPLIT PERI AZIMU VELO SNR AR TRES W  DIS CAZ7
 BAR2 SZ EP   1    639 12.10                             171     0.1 7   21 218 
 BAR2 SZ ES   1    639 27.33                             171     0.0 7   21 218 
 BAR2 SZ I         639 30.21        54.6 0.35                            21 218 
 GIR2 SZ IP        639 12.39                             164     0.010   40 340 
 BRR  HZ IP     C  639 14.12                             149    -0.110   82 300 
 BRR  HN ES   2    639 31.49                             149     0.2 5   82 300 
 BRR  HZ I         639 35.27        33.2 0.14                            82 300 
 RUS  HZ EP   1    639 14.82                             146    -0.9 7   94 181 
 RUS  HE ES   2    639 34.53                             146     0.6 5   94 181 
 RUS  HZ I         639 36.18        14.3 0.27                            94 181 
 BRI  SZ IP        639 16.71                             141     0.210  112  15 
 BRI  SZ I         639 17.13        14.3 0.19                           112  15 
 GRA  SZ IP        639 18.02                             136     0.110  130  13 
 GRA  SZ I         639 19.16        26.5 0.32                           130  13 
 GRA  SZ ES   1    639 38.07                             136     0.1 7  130  13 
 OCA  SZ EP   1    639 20.79                             128    -0.6 7  168 350 
 OCA  SZ ES   2    639 44.28                             128     0.2 5  168 350 
 OCA  SZ I         639 48.32        19.5 0.22                           168 350 
 NOR  SZ EP   1    639 28.30                             118    -0.2 6  238 237 
 NOR  SE ES   2    639 56.17                             118    -0.5 4  238 237 
 CHI  HZ EP   1    639 30.01                             118     0.4 6  245 198 
 CHI  HZ I         639 31.54         9.1 0.15                           245 198 
 CHI  HE ES   2    639 58.43                             118    -0.3 4  245 198 
 RREF HZ EP   1    639 39.55                             111     0.8 5  324 231 
 RREF HN ES   2    640 14.99                             111     0.0 3  324 231 
 RREF HZ I         640 25.12         9.7 0.43                           324 231 
 PRA  HZ EP   1    639 46.32                             107     0.6 4  391 211 
                                                                                
