 2014  314 0055 27.7 L   6.793 -73.128155.2  RSN  4 0.3 1.6LRSN                1
 GAP=245        0.58       7.4     4.8  6.5  0.2001E+02 -0.2136E+01 -0.1694E+02E
 Epicentro: LOS SANTOS - SANTANDER                                             3
 OLDACT:REG 14-03-14 07:20 OP:fm   STATUS:               ID:20140314004819     3
 ACTION:UPD 14-04-09 23:17 OP:nd   STATUS:               ID:20140314005527 L   I
 OLDACT:UP  14-03-14 11:16 OP:fm   STATUS:               ID:20140314004819     3
 2014-03-14-0048-19M.COL___238                                                 6
 STAT SP IPHASW D HRMM SECON CODA AMPLIT PERI AZIMU VELO AIN AR TRES W  DIS CAZ7
 BAR2 SZ EP        055 48.53                             171    0.0410 23.0 195 
 BAR2 SZ ES   1    056  4.37                             171   -0.31 7 23.0 195 
 BAR2 SZ I         056  6.27        10.2 0.70            151           23.0 195 
 RUS  HZ EP        055 52.55                             145    0.1910 99.7 177 
 RUS  HN ES        056 11.73                             145    0.1610 99.7 177 
 RUS  SZ I         056 22.77         4.5 2.30            134           99.7 177 
 PTB  HZ EP        055 55.38                             133   -0.26 9  150 259 
 PTB  HN ES        056 17.28                             133   -0.13 9  150 259 
 PTB  SZ I         056 23.31         3.7 1.86            128            150 259 
 ZAR  HE ES   2    056 27.71                             124    0.72 4  206 292 
                                                                                
