 2013  814 0753 52.5 L   6.837 -73.179142.9  RSN 14 0.4 2.6LRSN                1
 GAP= 68        1.02       2.7     2.9  4.6 -0.6119E+00  0.1907E+01 -0.1379E+00E
 Epicentro: ZAPATOCA - SANTANDER                                               3
 ACTION:UPD 14-01-14 09:02 OP:ep   STATUS:               ID:20130814074837 L   I
 OLDACT:UPD 13-08-14 12:02 OP:stll STATUS:               ID:20130814074837 L   3
 2013-08-14-0748-37M.COL___230                                                 6
 STAT SP IPHASW D HRMM SECON CODA AMPLIT PERI AZIMU VELO AIN AR TRES W  DIS CAZ7
 GIR2 SZ EP        754 11.92                             169    0.2310 26.8 356 
 GIR2 SZ ES        754 26.84                             169    0.1610 26.8 356 
 BAR2 SZ EP        754 11.94                             169    0.1010 27.0 181 
 BAR2 SZ ES        754 26.66                             169   -0.2810 27.0 181 
 BAR2 SZ I         754 27.81        38.7 0.32            170           27.0 181 
 BRR  HZ IP     D  754 13.70                             154    0.6810 66.1 297 
 BRR  HN ES        754 29.91                             154    0.8510 66.1 297 
 BRR  HN I         754 31.58        94.2 0.26            151           66.1 297 
 PAM  SZ EP        754 14.69                             151    0.3510 76.8  44 
 PAM  SN ES        754 31.64                             151    0.2410 76.8  44 
 PAM  SN I         754 32.69       154.4 0.46            152           76.8  44 
 RUS  HZ EP        754 15.96                             142   -0.3010  105 174 
 RUS  HN ES        754 34.51                             142   -0.3110  105 174 
 RUS  HN I         754 36.19        25.3 0.22            144            105 174 
 PTB  HZ EP        754 18.52                             132   -0.44 9  145 257 
 PTB  HN ES        754 38.87                             132   -0.75 9  145 257 
 PTB  HN I         754 40.95        43.5 0.22            131            145 257 
 CAPV BZ EP        754 19.54                             131   -0.01 9  148  40 
 OCA  HZ EP        754 20.06                             130   -0.08 9  156 354 
 OCA  HN ES        754 40.95                             130   -0.77 9  156 354 
 OCA  HN I         754 44.64        97.8 0.20            130            156 354 
 TAM  HZ EP        754 20.39                             129    0.04 9  160 106 
 TAM  HE ES        754 41.86                             129   -0.24 9  160 106 
 TAM  HN I         754 42.83        23.3 0.32            131            160 106 
 SPBC HZ EP        754 20.74                             128   -0.10 9  164 217 
 SPBC HN ES        754 43.16                             128    0.19 9  164 217 
 ZAR  HZ EP        754 24.82                             122    0.60 9  199 291 
 ZAR  HN ES        754 49.04                             122    0.05 9  199 291 
 ZAR  HN I         754 57.87        42.3 0.12            122            199 291 
 NOR  HZ EP        754 28.12                             118    0.15 8  234 233 
 NOR  HE ES        754 55.63                             118   -0.04 8  234 233 
 NOR  HN I         755  3.54        42.0 0.16            118            234 233 
 SML  HZ EP        754 28.32                             117   -0.05 8  239 336 
 SML  HN ES        754 55.69                             117   -0.68 8  239 336 
 SML  HN I         755  1.54        76.4 0.10            117            239 336 
 PRA  HZ EP        754 46.30                             106    0.20 6  394 209 
                                                                                
