 2012  614 0655 44.9 L   6.811 -73.164140.4  RSN  4 0.1 1.1LRSN                1
 GAP=143        0.33       3.5     3.2  5.7 -0.1277E+01  0.8926E+01 -0.3875E+01E
 Epicentro: LOS SANTOS - SANTANDER                                             3
 ACTION:UPD 12-08-06 17:49 OP:ep   STATUS:               ID:20120614065544 L   I
 2012-06-14-0650-00M.COL___201                                                 6
 STAT SP IPHASW D HRMM SECON CODA AMPLIT PERI AZIMU VELO AIN AR TRES W  DIS CAZ7
 BAR2 SZ EP   1    656  3.84                             170   -0.09 7 24.3 185 
 BAR2 SZ ES   2    656 18.91                             170    0.16 5 24.3 185 
 BAR2 SZ I         656 20.49         3.5 0.27                          24.3 185 
 PAM  SN ES   2    656 23.47                             150   -0.02 5 77.7  41 
 RUS  HN ES   1    656 26.43                             142   -0.02 7  102 175 
 PTB  HZ EP   1    656 11.44                             131    0.14 7  146 258 
 PTB  HN ES   1    656 31.80                             131   -0.08 7  146 258 
 PTB  HZ I         656 34.89         1.6 0.11                           146 258 
                                                                                
