 2017 1214 0531 21.8 L   6.815 -73.158146.1  RSN 11 0.6 1.5LRSN                1
 GAP=110        1.34       3.7     4.7  7.7 -0.9255E+00  0.6293E+01  0.3592E+01E
 Epicentro: LOS SANTOS - SANTANDER                                             3
 ACTION:UPD 18-01-04 13:20 OP:rebc STATUS:               ID:20171214053121 L   I
 OLDACT:UP  17-12-14 16:27 OP:osc  STATUS:               ID:20171214052739     3
 OLDACT:REG 17-12-14 13:00 OP:osc  STATUS:               ID:20171214052739     3
 2017-12-14-0528-00M.COL___468                                                 6
 STAT SP IPHASW D HRMM SECON CODA AMPLIT PERI AZIMU VELO AIN AR TRES W  DIS CAZ7
 BAR2 EZ EP        531 41.28                             170   -0.2210 24.8 186 
 BAR2 EZ ES        531 56.97                             170    0.1110 24.8 186 
 BAR2 EZ I         531 59.18         5.9 0.34            170           24.8 186 
 PAM  EZ EP        531 44.07                             151    0.0510 77.0  41 
 PAM  EE ES        532  1.54                             151    0.1810 77.0  41 
 PAM  EZ I         532  3.38         8.4 0.56            154           77.0  41 
 PTB  HZ EP        531 48.14                             132   -0.56 9  147 258 
 PTB  HN ES        532  9.35                             132   -0.34 9  147 258 
 PTB  HZ I         532 11.41         1.8 0.32            132            147 258 
 OCA  HE ES        532 11.31                             130   -0.63 9  158 354 
 SPBC HZ EP        531 50.30                             129   -0.06 9  164 218 
 SPBC HE ES        532 12.62                             129   -0.02 9  164 218 
 YPLC HZ EP        531 53.22                             126    1.40 9  179 151 
 YPLC HE ES        532 15.20                             126   -0.03 9  179 151 
 ZAR  HZ EP        531 54.66                             123    0.59 9  202 292 
 ZAR  HN ES        532 19.32                             123    0.07 9  202 292 
 ZAR  HZ I         532 26.37         3.0 0.28            123            202 292 
 DRL03HZ EP        532  2.64                             113   -0.58 7  287 353 
 DRL03HE ES        532 36.39                             113    0.86 7  287 353 
 GUY2CHZ EP   3    532  7.68                             112    2.28 2  301 234 
 GUY2CHE ES        532 39.73                             112    0.31 7  301 234 
 GUY2CHZ I         532 52.09         1.7 0.42                           301 234 
 PTGC HZ EP        532  4.24                             111   -1.65 7  311 159 
 PTGC HE ES   4    532 36.89                             111   -3.40 0  311 159 
 PRA  HZ EP        532 15.38                             106   -0.04 6  393 209 
 PRA  HE ES        532 57.68                             106    0.44 6  393 209 
 PRA  HZ I         533  6.22         1.2 0.32            107            393 209 
 SJC  HZ EP   4    532 15.44                             106   -1.68 0  407 327 
 SJC  HE ES   4    532 57.35                             106   -2.92 0  407 327 
                                                                                
