 2017  414 0609 59.5 L   6.767 -73.142136.9  RSN  6 0.4 1.2LRSN                1
 GAP=139        0.95       4.6     4.1  6.9  0.1513E+01  0.6186E+01  0.3101E+00E
 Epicentro: LOS SANTOS - SANTANDER                                             3
 ACTION:UPD 17-05-30 21:12 OP:jn   STATUS:               ID:20170414060959 L   I
 OLDACT:UP  17-04-14 16:48 OP:edw  STATUS:               ID:20170414060739     3
 OLDACT:REG 17-04-14 12:49 OP:edw  STATUS:               ID:20170414060739     3
 2017-04-14-0608-00M.COL___356                                                 6
 STAT SP IPHASW D HRMM SECON CODA AMPLIT PERI AZIMU VELO AIN AR TRES W  DIS CAZ7
 BAR2 EZ EP        610 17.80                             171   -0.2110 19.8 193 
 BAR2 EZ ES        610 32.32                             171   -0.1210 19.8 193 
 BAR2 EZ I         610 35.80         7.6 0.80            171           19.8 193 
 BRR  HZ EP        610 19.97                             150    0.1310 73.4 301 
 BRR  HN ES        610 35.97                             150    0.2710 73.4 301 
 PAM  EZ EP        610 20.85                             148   -0.1110 80.0  38 
 PAM  EN ES        610 37.51                             148   -0.1810 80.0  38 
 PAM  EZ I         610 39.21         2.5 0.24            151           80.0  38 
 RUS  HZ EP        610 22.23                             143    0.1010 96.9 176 
 RUS  HN ES        610 40.24                             143    0.4710 96.9 176 
 RUS  HZ I         610 41.82         2.1 0.34            144           96.9 176 
 PTB  HZ EP        610 25.63                             130   -0.12 9  147 260 
 PTB  HN ES        610 45.39                             130   -0.82 9  147 260 
 ZAR  HN ES        610 57.27                             120    0.67 8  206 293 
                                                                                
