 2011  514 0608 58.7 L   6.720 -72.704  4.0  RSN  9 0.6 2.5LRSN                1
 GAP=204        1.89       6.1    10.7 20.6 -0.1593E+02  0.1034E+03  0.3884E+02E
 Epicentro: MALAGA - SANTANDER                                                 3
 ACTION:UP  11-06-29 08:53 OP:tino STATUS:               ID:20110514060858 L   I
 2011-05-14-0608-27S.COL___141                                                 6
 STAT SP IPHASW D HRMM SECON CODA AMPLIT PERI AZIMU VELO SNR AR TRES W  DIS CAZ7
 BAR2 SZ IP        6 9  7.69                              47    -0.110   55 255 
 BAR2 SZ I         6 9  7.97       260.9 0.11                            55 255 
 BAR2 SZ ES   1    6 9 14.68                              47    -0.3 7   55 255 
 GIR2 SZ EP        6 9  9.10                              47    -0.510   67 306 
 PAM  SZ IP        6 9  9.33                              47    -0.910   69   0 
 RUS  HZ IP     C  6 9 15.56                              47     0.510  101 205 
 RUS  HN ES   1    6 9 27.19                              47    -0.6 7  101 205 
 RUS  HZ I         6 9 29.86       114.9 0.21                           101 205 
 BRI  SZ IP        6 9 16.16                              47    -0.110  111 355 
 BRR  HZ IP     D  6 9 18.45                              47     1.110  119 291 
 BRR  HN ES   2    6 9 31.41                              47    -0.5 5  119 291 
 BRR  HZ I         6 9 34.21        96.3 0.23                           119 291 
 GRA  SZ IP        6 9 19.03                              47     0.010  129 355 
 GRA  SZ I         6 9 42.79       105.5 0.23                           129 355 
 OCA  SZ EP        6 9 27.75                              37     1.0 9  181 338 
 OCA  SZ I         6 9 53.19        97.7 0.56                           181 338 
 HEL  HZ EP   4    6 9 46.08                              36     2.0 0  318 260 
 HEL  HZ I         610 27.87        10.3 0.24                           318 260 
                                                                                
