 2017  614 0126 29.0 L   6.804 -73.142145.4  RSN 14 0.5 2.2LRSN                1
 GAP=167        1.13       4.7     3.2  7.8  0.3672E+01  0.8091E+00  0.7938E+01E
 Epicentro: LOS SANTOS - SANTANDER                                             3
 ACTION:UPD 17-09-14 16:51 OP:jn   STATUS:               ID:20170614012629 L   I
 OLDACT:UP  17-06-14 14:16 OP:ar   STATUS:               ID:20170614011736d    3
 OLDACT:UP  17-06-14 14:15 OP:ar   STATUS:               ID:20170614011736d    3
 OLDACT:DUP 17-06-14 13:59 OP:ar   STATUS:               ID:20170614011736d    3
 2017-06-14-0118-00M.COL___356                                                 6
 STAT SP IPHASW D HRMM SECON CODA AMPLIT PERI AZIMU VELO AIN AR TRES W  DIS CAZ7
 BRR  HZ EP        126 50.01                             152   -0.0610 71.3 298 
 BRR  HN ES        127  6.86                             152    0.3210 71.3 298 
 BRR  HZ I         127 11.16        28.2 0.48            149           71.3 298 
 PTB  HZ EP        126 55.04                             132   -0.90 9  148 259 
 PTB  HE ES        127 16.64                             132   -0.35 9  148 259 
 PTB  HZ I         127 18.69        16.7 0.16            127            148 259 
 TAM  HZ IP     D  126 56.63                             130    0.05 9  155 105 
 TAM  HE ES        127 18.13                             130    0.01 9  155 105 
 SPBC HZ EP        126 57.34                             129   -0.15 9  164 219 
 SPBC HN ES        127 18.87                             129   -0.87 9  164 219 
 SPBC HZ I         127 22.68        29.3 0.30            123            164 219 
 YPLC HZ EP        126 58.80                             126    0.06 9  177 152 
 YPLC HN ES        127 22.09                             126    0.11 9  177 152 
 YPLC HZ I         127 25.31        36.0 0.26            122            177 152 
 ZAR  HZ EP        127  1.40                             122    0.00 9  204 292 
 ZAR  HN ES        127 27.22                             122    0.52 9  204 292 
 ZAR  HZ I         127 28.72        17.3 0.22            119            204 292 
 TABC EZ EP   4    127  6.59                             119    1.84 0  231 211 
 TABC EZ I         127 41.16        12.3 0.50            115            231 211 
 NOR  HZ EP        127  4.63                             118   -0.10 8  235 234 
 NOR  HN ES        127 32.69                             118    0.05 8  235 234 
 NOR  HZ I         127 36.64        13.6 0.16            114            235 234 
 CHI  HZ EP        127  7.44                             117    0.74 8  249 195 
 CHI  HN ES        127 37.19                             117    1.06 8  249 195 
 CHI  HZ I         127 38.24         5.3 0.36            113            249 195 
 ROSC BZ EP   4    127  8.97                             116    1.85 0  253 211 
 ROSC BN ES   4    127 41.10                             116    4.20 0  253 211 
 ROSC BZ I         127 44.63         9.5 0.30            112            253 211 
 HEL  HZ EP   4    127 10.67                             115    1.46 0  273 256 
 HEL  HN ES        127 40.73                             115    0.13 8  273 256 
 HEL  HZ I         127 47.20        10.9 0.44            111            273 256 
 PTGC HZ EP        127 11.96                             111   -0.87 7  309 159 
 CBOC HZ EP        127 16.64                             110    0.72 7  334 252 
 CBOC HN ES        127 52.67                             110    0.12 7  334 252 
 CBOC HZ I         127 54.78         3.1 0.70            106            334 252 
 SJC  HZ EP   4    127 22.97                             106   -1.51 0  409 327 
 SJC  HE ES   4    128  3.93                             106   -3.86 0  409 327 
 SJC  HZ I         128  7.15         4.2 0.60            103            409 327 
                                                                                
