 2014  114 0514 46.4 L   6.800 -73.134142.3  RSN 11 0.6 1.6LRSN                1
 GAP=138        1.27       3.8     5.2  9.2 -0.2786E+01  0.8516E+01  0.3567E+01E
 Epicentro: LOS SANTOS - SANTANDER                                             3
 ACTION:UPD 14-03-13 09:55 OP:ep   STATUS:               ID:20140114051446 L   I
 OLDACT:UP  14-01-14 11:05 OP:cam  STATUS:               ID:20140114051000     3
 OLDACT:UP  14-01-14 11:04 OP:cam  STATUS:               ID:20140114051000     3
 OLDACT:REG 14-01-14 08:35 OP:cam  STATUS:               ID:20140114051000     3
 2014-01-14-0510-00M.COL___285                                                 6
 STAT SP IPHASW D HRMM SECON CODA AMPLIT PERI AZIMU VELO AIN AR TRES W  DIS CAZ7
 BRR  HZ EP        515  7.48                             151    0.2510 72.3 298 
 BRR  HN ES        515 24.27                             151    0.7910 72.3 298 
 BRR  HZ I         515 28.71         7.5 0.42            152           72.3 298 
 PAM  SZ EP        515  8.46                             150    0.2810 76.6  39 
 PAM  SN ES        515 25.52                             150    0.3410 76.6  39 
 PAM  SZ I         515 27.71         7.1 0.50            153           76.6  39 
 RUS  HZ EP        515  9.54                             143   -0.2510  101 177 
 RUS  HN ES        515 27.49                             143   -0.5510  101 177 
 RUS  HZ I         515 28.71         3.7 0.22            145            101 177 
 PTB  HZ EP   1    515 13.48                             131    0.29 7  149 259 
 PTB  HN ES        515 33.33                             131   -0.76 9  149 259 
 PTB  HZ I         515 36.56         5.3 0.12            132            149 259 
 OCA  HN ES        515 35.83                             129   -0.50 9  160 353 
 OCA  HZ I         515 38.98         6.5 0.42            131            160 353 
 SPBC HN ES        515 35.95                             128   -0.83 9  164 219 
 ZAR  HN ES        515 44.22                             121    0.26 8  205 292 
 NOR  HZ EP   1    515 22.36                             118    0.33 6  236 235 
 NOR  HE ES        515 50.46                             118    0.63 8  236 235 
 NOR  HZ I         515 54.64         2.9 0.24            119            236 235 
 SML  HZ EP   1    515 22.20                             117   -0.68 6  244 335 
 SML  HE ES   1    515 50.91                             117   -0.43 6  244 335 
 SML  HZ I         515 53.72         6.5 0.10            118            244 335 
 CHI  HZ EP   1    515 23.97                             116    0.04 6  249 195 
 CHI  HE ES   1    515 54.47                             116    1.25 6  249 195 
 CHI  HZ I         516  0.44         1.1 0.60            118            249 195 
 GUY2CHZ EP   4    515 31.45                             112    1.49 0  302 235 
 GUY2CHN ES   4    516  5.52                             112    1.58 0  302 235 
 GUY2CHZ I         516 12.88         1.4 0.46                           302 235 
 SJC  HZ EP   4    515 40.59                             105   -1.33 0  410 327 
                                                                                
