 2012 1214 0833  6.0 L   6.803 -73.200135.8  RSN  4 0.3 1.4LRSN                1
 GAP=145        0.62       4.8     4.7  7.0 -0.6996E+01  0.9445E+01 -0.3444E+01E
 Epicentro: ZAPATOCA - SANTANDER                                               3
 ACTION:UPD 13-01-04 14:27 OP:ep   STATUS:               ID:20121214083306 L   I
 2012-12-14-0830-00M.COL___242                                                 6
 STAT SP IPHASW D HRMM SECON CODA AMPLIT PERI AZIMU VELO AIN AR TRES W  DIS CAZ7
 BAR2 SZ EP   1    833 24.53                             170    0.12 7 23.4 175 
 BAR2 SZ ES   1    833 38.24                             170   -0.55 7 23.4 175 
 BAR2 SZ I         833 40.66         9.7 0.26                          23.4 175 
 PAM  SZ EP   1    833 27.40                             148    0.03 7 81.1  43 
 PAM  SN ES   1    833 44.28                             148    0.21 7 81.1  43 
 PAM  SZ I         833 46.49         7.4 0.48                          81.1  43 
 RUS  HZ EP   1    833 28.54                             141   -0.29 7  102 173 
 RUS  HZ I         833 46.70         2.3 0.62                           102 173 
 RUS  HN ES   1    833 47.07                             141    0.41 7  102 173 
 PTB  HZ EP   1    833 31.45                             131   -0.16 7  142 258 
 PTB  HE ES   1    833 51.83                             131    0.23 7  142 258 
 PTB  HZ I         833 54.77         2.7 0.32                           142 258 
                                                                                
