 2017  914 0423 11.9 L   6.556 -73.711107.6  RSN  4 0.2 0.9LRSN                1
 GAP=130        0.56       3.4     3.5  6.8  0.2015E+01  0.1074E+02  0.1243E+02E
 Epicentro: SANTA HELENA DEL OPON - SANTANDER                                  3
 ACTION:UPD 17-10-05 19:12 OP:rebc STATUS:               ID:20170914042311 L   I
 OLDACT:UP  17-09-14 15:56 OP:mg   STATUS:               ID:20170914041739     3
 OLDACT:REG 17-09-14 11:19 OP:dhb  STATUS:               ID:20170914041739     3
 2017-09-14-0418-00M.COL___458                                                 6
 STAT SP IPHASW D HRMM SECON CODA AMPLIT PERI AZIMU VELO AIN AR TRES W  DIS CAZ7
 BAR2 EZ EP   1    423 28.51                             149   -0.02 7 58.6  86 
 BAR2 EZ ES   1    423 41.44                             149   -0.10 7 58.6  86 
 BAR2 EZ I         423 42.72         4.7 0.17            154           58.6  86 
 BRR  HZ EP        423 28.42                             148    0.0910 60.9 360 
 BRR  HN ES        423 41.18                             148   -0.0010 60.9 360 
 BRR  HZ I         423 42.06         1.7 0.13            153           60.9 360 
 RUS  HZ EP        423 32.43                             134    0.3010  101 137 
 RUS  HN ES   1    423 47.72                             134   -0.22 7  101 137 
 RUS  HZ I         423 49.17         0.9 0.16            137            101 137 
 NOR  HZ EP        423 37.90                             118   -0.40 9  169 229 
 NOR  HN ES   1    423 59.23                             118    0.30 7  169 229 
 NOR  HZ I         424  1.57         1.5 0.22            120            169 229 
                                                                                
