 2011  414 0534  9.9 L   6.790 -73.110144.7  RSN  9 0.4 2.4LRSN                1
 GAP=118        0.89       5.4     6.6  8.3 -0.4096E+01  0.1313E+02  0.1054E+02E
 Epicentro: LOS SANTOS - SANTANDER                                             3
 ACTION:UP  11-06-22 15:30 OP:REBC STATUS:               ID:20110414053409 L   I
 2011-04-14-0520-00M.COL___141                                                 6
 STAT SP IPHASW D HRMM SECON CODA AMPLIT PERI AZIMU VELO SNR AR TRES W  DIS CAZ7
 BTL  SZ IP        534 29.37                             171     0.010   23 309 
 BAR2 SZ EP        534 29.33                             170    -0.110   23 200 
 BAR2 SZ ES   1    534 43.99                             170    -0.6 7   23 200 
 BAR2 SZ I         534 45.65        93.2 0.42                            23 200 
 GIR2 SZ EP   2    534 29.52                             166     0.0 5   33 344 
 BRR  HZ EP        534 31.34                             151     0.210   75 298 
 BRR  HN ES   2    534 48.87                             151     1.1 5   75 298 
 BRR  HZ I         534 51.06       100.5 0.16                            75 298 
 PAM  SZ EP   2    534 32.16                             151     0.3 5   76  37 
 PAM  SN ES   2    534 49.59                             151     0.5 5   76  37 
 GRA  SZ EP   1    534 35.27                             136     0.2 7  126  16 
 GRA  SZ ES   1    534 54.01                             136    -0.6 7  126  16 
 GRA  SZ I         534 59.90        34.7 0.30                           126  16 
 YOP  SZ EP   1    534 39.76                             126     0.2 7  176 154 
 YOP  SZ I         534 41.12        21.1 0.14                           176 154 
 YOP  SN ES   2    535  3.28                             126     0.5 4  176 154 
 NOR  SZ EP   1    534 45.18                             118    -0.7 6  237 235 
 NOR  SZ I         535 18.11         5.2 0.29                           237 235 
 HEL  HZ EP   1    534 50.58                             114     0.1 6  276 256 
 HEL  HN ES   2    535 22.07                             114     0.0 4  276 256 
 HEL  HZ I         535 29.96        30.2 0.33                           276 256 
                                                                                
