 2014  914 0802 11.8 L   6.819 -73.140146.8  RSN 12 0.5 2.2LRSN                1
 GAP=136        1.26       3.5     4.7  6.6 -0.4222E+01  0.1031E+02 -0.7588E+00E
 Epicentro: LOS SANTOS - SANTANDER                                             3
 ACTION:UPD 14-10-03 23:04 OP:nd   STATUS:               ID:20140914080211 L   I
 OLDACT:REG 14-09-14 14:09 OP:carl STATUS:               ID:20140914075805     3
 2014-09-14-0758-05M.COL___293                                                 6
 STAT SP IPHASW D HRMM SECON CODA AMPLIT PERI AZIMU VELO AIN AR TRES W  DIS CAZ7
 BAR2 SZ IP     C  8 2 31.57                             170   -0.0110 25.5 191 
 BAR2 SZ ES        8 2 46.17                             170   -0.8510 25.5 191 
 BAR2 SZ I         8 2 47.90        21.5 0.36            169           25.5 191 
 BRR  HZ IP        8 2 33.44                             153    0.4310 70.8 297 
 BRR  HN ES        8 2 50.82                             153    1.2410 70.8 297 
 BRR  HZ I         8 2 53.87        19.8 0.34            152           70.8 297 
 PAM  SZ EP        8 2 34.32                             152    0.3410 75.4  40 
 PAM  SN ES        8 2 51.73                             152    0.4210 75.4  40 
 RUS  HZ EP        8 2 35.60                             144   -0.1810  103 176 
 RUS  HN ES        8 2 54.50                             144   -0.0010  103 176 
 RUS  HZ I         8 2 59.35         6.5 0.32            146            103 176 
 PTB  HZ EP        8 2 38.20                             132   -0.72 9  149 258 
 PTB  HN ES        8 2 59.56                             132   -0.54 9  149 258 
 PTB  HZ I         8 3  1.87        18.8 0.36            133            149 258 
 OCA  HZ EP        8 2 39.85                             130   -0.13 9  158 353 
 OCA  HN ES        8 3  1.82                             130   -0.16 9  158 353 
 OCA  HZ I         8 3  7.19        19.9 0.22            132            158 353 
 SPBC HZ EP        8 2 40.52                             129   -0.03 9  165 219 
 SPBC HN ES        8 3  2.65                             129   -0.34 9  165 219 
 SPBC HZ I         8 3  7.56        27.0 0.20            130            165 219 
 ZAR  HN ES        8 3  9.30                             123   -0.31 9  204 292 
 NOR  HZ EP        8 2 47.76                             119    0.01 8  236 234 
 NOR  HN ES        8 3 15.81                             119   -0.00 8  236 234 
 NOR  HZ I         8 3 22.36        11.5 0.32            120            236 234 
 SML  HZ EP        8 2 47.70                             118   -0.58 8  242 335 
 SML  HN ES        8 3 16.29                             118   -0.46 8  242 335 
 SML  HZ I         8 3 19.74        25.4 0.10            120            242 335 
 GUY2CHZ EP        8 2 55.90                             112    0.27 7  303 235 
 GUY2CHN ES        8 3 30.31                             112    0.48 7  303 235 
 GUY2CHZ I         8 3 38.12        11.0 0.80                           303 235 
 CBOC HZ EP        8 2 59.88                             110    1.00 7  335 252 
 CBOC HN ES        8 3 36.31                             110    0.70 7  335 252 
 CBOC HZ I         8 3 41.69         3.5 0.60            111            335 252 
                                                                                
