 2016  914 0949 26.8 L   7.097 -73.457111.2  RSN 18 0.7 2.4LRSN                1
 GAP= 76        1.33       3.5     3.5  6.3 -0.1949E+01  0.1443E+01  0.5099E+00E
 Epicentro: SAN VICENTE DE CHUCURI - SANTANDER                                 3
 ACTION:UPD 17-08-17 21:11 OP:lp   STATUS:               ID:20160914094926 L   I
 OLDACT:UP  16-09-14 17:54 OP:jn   STATUS:               ID:20160914094800     3
 OLDACT:UP  16-09-14 17:49 OP:jn   STATUS:               ID:20160914094800     3
 OLDACT:UP  16-09-14 17:47 OP:jn   STATUS:               ID:20160914094800     3
 OLDACT:ARG 16-09-14 13:50 OP:ar   STATUS:               ID:20160914094800     3
 2016-09-14-0948-00M.COL___318                                                 6
 STAT SP IPHASW D HRMM SECON CODA AMPLIT PERI AZIMU VELO AIN AR TRES W  DIS CAZ7
 BRR  HZ EP     C  949 42.20                             165    0.1010 28.2 272 
 BRR  HE ES        949 54.52                             165    0.5010 28.2 272 
 BRR  HZ I         949 58.32        60.6 0.24            165           28.2 272 
 BAR2 EZ EP        949 44.34                             148    0.1510 63.6 151 
 BAR2 EZ ES        949 57.78                             148    0.0510 63.6 151 
 BAR2 EZ I         949 58.79        69.3 0.46            144           63.6 151 
 PAM  EZ EP        949 46.33                             139    0.0310 87.9  72 
 PAM  EN ES   1    950  1.42                             139   -0.08 7 87.9  72 
 PAM  EZ I         950  5.07        44.5 0.42            136           87.9  72 
 PTB  HZ EP        949 48.39                             128   -0.7110  126 241 
 PTB  HN ES   1    950  5.41                             128   -1.06 7  126 241 
 PTB  HZ I         950  7.84        51.1 0.38            125            126 241 
 OCA  HZ EP        949 49.08                             128   -0.2710  127   7 
 OCA  HN ES        950  6.67                             128   -0.2510  127   7 
 OCA  HZ I         950  8.21       153.6 0.14            126            127   7 
 RUS  HZ EP        949 50.39                             125   -0.62 9  139 163 
 ZAR  HZ EP        949 52.86                             120    0.29 9  161 286 
 ZAR  HN ES   1    950 13.48                             120    0.84 7  161 286 
 ZAR  HZ I         950 17.59        68.4 0.42            118            161 286 
 SPBC HZ EP   1    949 54.91                             118    0.86 7  174 203 
 SPBC HN ES   2    950 16.58                             118    1.30 4  174 203 
 SPBC HZ I         950 21.44        42.5 0.64            115            174 203 
 TAM  HZ EP     D  949 56.76                             115    0.09 9  198 112 
 TAM  HZ I         950 19.39        16.6 0.54            111            198 112 
 TAM  HN ES        950 20.06                             115    0.11 9  198 112 
 NOR  HZ EP        950  0.69                             111    0.35 8  231 223 
 NOR  HN ES        950 25.43                             111   -1.05 8  231 223 
 NOR  HZ I         950 33.94        23.7 0.20            108            231 223 
 URE  HZ EP        950  0.41                             110   -0.99 8  240 288 
 URE  HN ES   4    950 26.02                             110   -2.35 0  240 288 
 HEL  HZ EP   1    950  3.52                             109    0.55 6  250 246 
 CHI  HZ EP        950  6.96                             107    1.08 8  275 186 
 CHI  HN ES   1    950 36.94                             107    0.60 6  275 186 
 CHI  HZ I         950 45.46         7.1 0.38            104            275 186 
 LL6C HZ EP        950  7.09                             105   -0.38 7  292   4 
 LL6C HN ES   1    950 41.16                             105    1.99 5  292   4 
 LL6C HZ I         950 48.39        10.1 0.32            103            292   4 
 GUY2CHZ EP   1    950  8.62                             105    0.18 5  296 226 
 GUY2CHZ I         950 49.64        15.8 0.38                           296 226 
 SOCV BZ EP        950 10.15                             104   -0.07 7  316  65 
 SOCV BN ES   1    950 43.04                             104   -1.03 5  316  65 
 ELA  HZ EP   9    950 15.62                             103    3.32 0  328 221 
 ELA  HN ES   3    950 49.81                                   -1.28 2  328 221 
 SJC  HZ EP   4    950 14.58                             101   -1.35 0  363 329 
 SJC  HN ES   4    950 51.64                             101   -2.59 0  363 329 
 SJC  HZ I         950 56.12         6.4 0.56             99            363 329 
                                                                                
