 2013 1114 0007 25.1 L   6.807 -73.150137.6  RSN  6 0.5 1.5LRSN                1
 GAP=136        1.28       6.2     6.3  8.8 -0.5813E+01  0.9002E+01  0.7723E+01E
 Epicentro: LOS SANTOS - SANTANDER                                             3
 ACTION:UPD 14-01-09 16:27 OP:ep   STATUS:               ID:20131114000725 L   I
 OLDACT:REG 13-11-14 08:05 OP:nd   STATUS:               ID:20131114000000     3
 2013-11-14-0000-00M.COL___279                                                 6
 STAT SP IPHASW D HRMM SECON CODA AMPLIT PERI AZIMU VELO AIN AR TRES W  DIS CAZ7
 BAR2 SZ EP        0 7 43.79                             170    0.0510 24.0 189 
 BAR2 SZ ES        0 7 58.89                             170    0.5910 24.0 189 
 BAR2 SZ I         0 8  2.75        16.1 0.30            168           24.0 189 
 BRR  HZ EP     C  0 7 46.06                             151    0.7610 70.4 298 
 BRR  HN ES        0 8  1.32                             151    0.2410 70.4 298 
 BRR  HZ I         0 8  7.88         6.0 0.40            151           70.4 298 
 PAM  SZ EP        0 7 46.87                             149    0.4610 77.0  40 
 PAM  SN ES        0 8  2.15                             149   -0.9010 77.0  40 
 PAM  SZ I         0 8  4.58         5.8 0.30            157           77.0  40 
 RUS  HZ EP        0 7 47.89                             142   -0.2010  101 176 
 RUS  HN ES        0 8  5.90                             142   -0.1510  101 176 
 RUS  HZ I         0 8  7.94         1.8 0.26            145            101 176 
 PTB  HZ EP        0 7 51.02                             130   -0.34 9  147 258 
 PTB  HN ES        0 8 11.17                             130   -0.70 9  147 258 
 PTB  HZ I         0 8 16.37         3.1 0.14            132            147 258 
 SPBC HZ EP        0 7 52.89                             127   -0.10 9  164 219 
 SPBC HN ES   2    0 8 15.55                             127    0.78 5  164 219 
 SPBC HZ I         0 8 21.82         5.4 0.26            130            164 219 
                                                                                
