 2012 1014 0306 21.6 L   6.781 -73.132146.0  RSN  4 0.2 1.4LRSN                1
 GAP=139        0.38       3.8     4.2  5.4  0.3237E+00 -0.5693E+01 -0.5097E+00E
 Epicentro: LOS SANTOS - SANTANDER                                             3
 ACTION:UPD 12-11-22 17:03 OP:ep   STATUS:               ID:20121014030621 L   I
 2012-10-14-0300-00M.COL___231                                                 6
 STAT SP IPHASW D HRMM SECON CODA AMPLIT PERI AZIMU VELO AIN AR TRES W  DIS CAZ7
 BAR2 SZ ES   3    3 6 55.76                             171   -0.81 2 21.6 195 
 BAR2 SZ I         3 6 57.08         8.1 0.72                          21.6 195 
 BRR  HZ EP        3 6 42.82                             152   -0.1210 73.6 299 
 BRR  HZ I         3 6 43.25         3.5 0.34                          73.6 299 
 BRR  HN ES   1    3 6 59.73                             152    0.17 7 73.6 299 
 PAM  SZ EP        3 6 43.96                             151    0.0410 78.1  38 
 PAM  SZ I         3 6 44.15         5.5 0.18                          78.1  38 
 PAM  SN ES   2    3 7  1.28                             151   -0.01 5 78.1  38 
 RUS  HZ EP   2    3 6 45.30                             145    0.05 5 98.4 177 
 RUS  HN ES   2    3 7  3.79                             145    0.12 5 98.4 177 
                                                                                
