 2014  214 0140  6.5 L   6.814 -73.157142.1  RSN 12 0.5 1.9LRSN                1
 GAP=134        1.23       3.1     4.8  6.2 -0.1632E+01  0.7891E+01 -0.5337E+00E
 Epicentro: LOS SANTOS - SANTANDER                                             3
 ACTION:UPD 14-03-10 08:10 OP:ep   STATUS:               ID:20140214014006 L   I
 OLDACT:REG 14-02-14 08:18 OP:carl STATUS:               ID:20140214014000     3
 2014-02-14-0140-00M.COL___291                                                 6
 STAT SP IPHASW D HRMM SECON CODA AMPLIT PERI AZIMU VELO AIN AR TRES W  DIS CAZ7
 BAR2 SZ EP        140 25.80                             170    0.1410 24.6 187 
 BAR2 SZ ES        140 40.25                             170   -0.4010 24.6 187 
 BAR2 SZ I         140 41.58        21.1 0.42            171           24.6 187 
 BRR  HZ EP        140 27.84                             152    0.7410 69.4 298 
 BRR  HE ES        140 43.86                             152    0.6610 69.4 298 
 BRR  HZ I         140 48.59        15.8 0.32            151           69.4 298 
 PAM  SZ EP     C  140 28.81                             150    0.5610 77.0  41 
 PAM  SN ES        140 45.62                             150    0.3710 77.0  41 
 PAM  SZ I         140 47.55        20.2 0.52            153           77.0  41 
 RUS  HZ EP        140 29.86                             143   -0.1010  102 175 
 RUS  HN ES        140 48.07                             143   -0.2210  102 175 
 RUS  HZ I         140 49.94         9.2 0.40            146            102 175 
 PTB  HZ EP        140 32.92                             131   -0.12 9  147 258 
 PTB  HN ES        140 53.09                             131   -0.68 9  147 258 
 PTB  HZ I         140 56.64        10.9 0.40            132            147 258 
 OCA  HZ EP        140 33.91                             129   -0.41 9  159 354 
 OCA  HN ES        140 55.55                             129   -0.51 9  159 354 
 OCA  HZ I         140 59.77         9.5 0.18            131            159 354 
 SPBC HZ EP        140 34.61                             128   -0.10 9  164 218 
 SPBC HN ES        140 56.29                             128   -0.46 9  164 218 
 SPBC HZ I         141  0.59        10.2 0.18            130            164 218 
 ZAR  HZ EP        140 39.07                             122    0.59 9  202 292 
 ZAR  HN ES        141  3.79                             122    0.33 9  202 292 
 ZAR  HZ I         141  9.98         6.9 0.26            123            202 292 
 SML  HZ EP        140 42.26                             117   -0.41 8  242 335 
 SML  HN ES        141 10.31                             117   -0.60 8  242 335 
 SML  HZ I         141 16.56        10.9 0.30            118            242 335 
 CHI  HZ EP        140 44.14                             116    0.07 8  250 195 
 CHI  HN ES        141 12.66                             116   -0.75 8  250 195 
 CHI  HZ I         141 16.67         2.1 0.52            119            250 195 
 GUY2CHZ EP        140 50.87                             112    0.99 7  301 234 
 GUY2CHN ES        141 24.46                             112    0.71 7  301 234 
 GUY2CHZ I         141 32.36         2.7 0.34                           301 234 
 SJC  HZ EP        141  0.74                             105   -0.93 6  407 327 
 SJC  HE ES   4    141 41.18                             105   -3.55 0  407 327 
                                                                                
