 2016  614 0632 28.3 L   6.800 -73.162150.0  RSN 10 0.4 1.5LRSN                1
 GAP=134        0.71       3.6     4.4  6.1  0.2366E+01  0.1282E+01  0.4982E+01E
 Epicentro: LOS SANTOS - SANTANDER                                             3
 ACTION:UPD 16-07-21 22:18 OP:rebc STATUS:               ID:20160614063228 L   I
 OLDACT:DUP 16-06-14 15:42 OP:dnl  STATUS:               ID:20160614062746d    3
 OLDACT:REG 16-06-14 12:37 OP:dnl  STATUS:               ID:20160614062745     3
 2016-06-14-0627-45M.COL___295                                                 6
 STAT SP IPHASW D HRMM SECON CODA AMPLIT PERI AZIMU VELO AIN AR TRES W  DIS CAZ7
 BAR2 EZ EP   3    632 48.44                             171   -0.04 2 23.1 185 
 BAR2 EZ ES   2    633  3.47                             171   -0.71 5 23.1 185 
 BAR2 EZ I         633  4.61         5.4 0.20                          23.1 185 
 BRR  HZ EP        632 49.96                             154    0.1010 69.6 299 
 BRR  HE ES        633  7.27                             154    0.6210 69.6 299 
 BRR  HZ I         633 10.74         4.6 0.46                          69.6 299 
 PAM  EZ EP   2    632 51.06                             151   -0.02 5 78.6  41 
 PAM  EE ES   2    633  8.40                             151   -0.41 5 78.6  41 
 PAM  EZ I         633 10.21         5.1 0.62                          78.6  41 
 RUS  HZ EP        632 52.58                             145    0.0610  101 175 
 RUS  HN ES   2    633 10.87                             145   -0.51 5  101 175 
 RUS  HZ I         633 11.99         3.6 0.23                           101 175 
 PTB  HZ EP        632 55.05                             134   -0.45 9  146 259 
 PTB  HE ES   2    633 16.45                             134   -0.23 5  146 259 
 PTB  HZ I         633 18.07         4.3 0.12                           146 259 
 OCA  HE ES   4    633 18.06                             131   -1.23 0  160 354 
 OCA  HZ I         633 22.92         9.6 0.20                           160 354 
 SPBC HZ EP        632 57.45                             130    0.39 9  162 218 
 SPBC HN ES   2    633 19.08                             130   -0.38 5  162 218 
 SPBC HE ES        633 19.58                             130    0.12 9  162 218 
 SPBC HZ I         633 26.21         7.6 0.34                           162 218 
 ZAR  HZ EP   2    633  0.84                             124   -0.05 4  202 292 
 ZAR  HN ES        633 25.92                             124   -0.36 9  202 292 
 ZAR  HZ I         633 31.40         1.9 0.14                           202 292 
 CHI  HZ EP   2    633  5.96                             118   -0.27 4  248 195 
 CHI  HE ES   2    633 36.13                             118    0.35 4  248 195 
 CHI  HZ I         633 42.01         2.6 0.20                           248 195 
 GUY2CHZ EP   4    633 13.45                             113    1.47 0  300 235 
 GUY2CHE ES   4    633 47.40                             113    1.38 0  300 235 
 GUY2CHZ I         633 58.60         2.0 0.44                           300 235 
                                                                                
