 2010  314 0425 51.1 L   6.811 -73.119147.3  RSN  5 0.3 1.7LRSN                1
 GAP=186        0.51       5.8    11.6  6.5  0.4575E+02 -0.3794E+02 -0.9478E+01E
 Epicentro: LOS SANTOS - SANTANDER                                             3
 ACTION:UP  10-08-24 09:53 OP:vdl  STATUS:               ID:20100314042551 L   I
 2010-03-14-0421-13S.COL___095                                                 6
 STAT SP IPHASW D HRMM SECON CODA AMPLIT PERI AZIMU VELO SNR AR TRES W  DIS CAZ7
 BAR2 SZ ES   2    426 25.94                             170    -0.5 5   25 196 
 BRR  HZ IP        426 12.54                             152     0.010   73 297 
 BRR  HZ I         426 12.73        10.7 0.09                            73 297 
 BRR  HN ES        426 29.30                             152     0.010   73 297 
 RUS  HZ EP   1    426 14.99                             144    -0.1 7  102 178 
 RUS  HN ES   2    426 34.37                             144     0.6 5  102 178 
 OCA  SZ EP   2    426 19.65                             130     0.2 5  159 352 
 OCA  SZ ES   3    426 41.81                             130     0.2 2  159 352 
 OCA  SZ I         426 44.23        10.0 0.30                           159 352 
 CHI  HZ EP   2    426 28.97                             117    -0.1 4  251 196 
 CHI  HZ I         426 30.92         1.3 0.39                           251 196 
                                                                                
