 2014  514 0517 48.0 L   6.807 -73.119146.9  RSN  7 0.4 1.7LRSN                1
 GAP=186        0.94       2.8     5.9  8.7  0.1030E+01 -0.8352E+00 -0.5467E+01E
 Epicentro: LOS SANTOS - SANTANDER                                             3
 ACTION:UPD 15-03-16 16:57 OP:nd   STATUS:               ID:20140514051748 L   I
 OLDACT:UP  14-05-14 17:39 OP:cam  STATUS:               ID:20140514050814     3
 OLDACT:REG 14-05-14 13:00 OP:spq  STATUS:               ID:20140514050814     3
 2014-05-14-0508-14M.COL___257                                                 6
 STAT SP IPHASW D HRMM SECON CODA AMPLIT PERI AZIMU VELO AIN AR TRES W  DIS CAZ7
 RUS  HZ EP   1    518 12.41                             144    0.53 7  101 178 
 RUS  HE ES        518 30.29                             144   -0.2310  101 178 
 RUS  HZ I         518 31.81         4.5 0.36            145            101 178 
 PTB  HZ EP   1    518 15.65                             132    0.34 7  151 259 
 PTB  HN ES        518 36.10                             132   -0.54 9  151 259 
 PTB  HZ I         518 39.34         6.8 0.12            132            151 259 
 OCA  HZ EP   1    518 15.46                             130   -0.87 7  160 352 
 OCA  HN ES        518 39.04                             130    0.59 9  160 352 
 OCA  HZ I         518 43.31         7.0 0.16            131            160 352 
 SPBC HZ EP        518 16.99                             129    0.20 9  166 220 
 SPBC HN ES        518 39.57                             129    0.30 9  166 220 
 SPBC HZ I         518 42.36         9.0 0.20            130            166 220 
 ZAR  HZ EP   1    518 21.22                             122    0.47 6  207 292 
 ZAR  HN ES   1    518 46.73                             122    0.42 6  207 292 
 ZAR  HZ I         518 53.47         6.2 0.40            123            207 292 
 SML  HZ EP        518 24.45                             118   -0.27 8  244 335 
 SML  HN ES        518 52.95                             118   -0.44 8  244 335 
 CHI  HZ EP   1    518 25.95                             117    0.05 6  250 196 
 CHI  HN ES        518 55.19                             117   -0.29 8  250 196 
 CHI  HZ I         519  3.58         2.6 0.44            119            250 196 
 SJC  HZ EP   4    518 42.26                             106   -1.43 0  410 327 
 SJC  HN ES   4    519 25.26                             106   -1.88 0  410 327 
                                                                                
