 2017  314 0126 46.6 L   6.706 -73.158145.8  RSN  6 0.3 1.3LRSN                1
 GAP=139        0.76       4.7     4.0  5.4  0.7523E+01  0.4955E+00 -0.6069E+01E
 Epicentro: VILLANUEVA - SANTANDER                                             3
 ACTION:UPD 17-05-25 18:40 OP:jn   STATUS:               ID:20170314012646 L   I
 OLDACT:DUP 17-03-14 14:02 OP:cara STATUS:               ID:20170314011743d    3
 OLDACT:DUP 17-03-14 13:58 OP:cara STATUS:               ID:20170314011742d    3
 OLDACT:REG 17-03-14 12:30 OP:cara STATUS:               ID:20170314011741     3
 2017-03-14-0118-00M.COL___403                                                 6
 STAT SP IPHASW D HRMM SECON CODA AMPLIT PERI AZIMU VELO AIN AR TRES W  DIS CAZ7
 BAR2 EZ IP        127  6.18                             175    0.1110 12.9 192 
 BAR2 EZ ES        127 20.82                             175   -0.4410 12.9 192 
 BAR2 EZ I         127 22.51         2.9 0.32            172           12.9 192 
 BRR  HZ EP        127  8.09                             151    0.0810 75.6 306 
 BRR  HN ES        127 25.17                             151    0.4710 75.6 306 
 BRR  HZ I         127 30.25         5.6 0.36            150           75.6 306 
 PAM  EZ EP        127  9.11                             148   -0.2710 86.4  36 
 RUS  HZ EP        127 10.05                             147    0.4110 90.4 175 
 RUS  HN ES        127 27.71                             147    0.0910 90.4 175 
 RUS  HZ I         127 30.98         1.0 0.24            149           90.4 175 
 PTB  HZ EP        127 13.00                             133   -0.30 9  145 263 
 PTB  HN ES        127 33.86                             133   -0.27 9  145 263 
 PTB  HZ I         127 39.01         2.2 0.14            133            145 263 
 ZAR  HZ EP        127 19.26                             122   -0.09 8  207 295 
 ZAR  HN ES        127 45.04                             122    0.15 8  207 295 
 ZAR  HZ I         127 49.85         4.0 0.46            123            207 295 
                                                                                
