 2017  714 0511 13.1 L   6.773 -73.113144.7  RSN 12 0.3 1.8LRSN                1
 GAP=142        0.63       2.5     2.8  4.1 -0.1330E+01  0.4140E+01  0.8207E+00E
 Epicentro: LOS SANTOS - SANTANDER                                             3
 ACTION:UPD 17-08-30 15:32 OP:rebc STATUS:               ID:20170714051113 L   I
 OLDACT:UP  17-07-14 14:10 OP:dnl  STATUS:               ID:20170714050736     3
 OLDACT:UP  17-07-14 14:10 OP:dnl  STATUS:               ID:20170714050736     3
 OLDACT:UP  17-07-14 14:10 OP:dnl  STATUS:               ID:20170714050736     3
 OLDACT:UP  17-07-14 14:10 OP:dnl  STATUS:               ID:20170714050736     3
 OLDACT:REG 17-07-14 12:39 OP:dnl  STATUS:               ID:20170714050736     3
 2017-07-14-0508-00M.COL___377                                                 6
 STAT SP IPHASW D HRMM SECON CODA AMPLIT PERI AZIMU VELO AIN AR TRES W  DIS CAZ7
 BAR2 EZ IP     C  511 32.45                             171   -0.1210 21.4 201 
 BAR2 EZ ES        511 47.34                             171   -0.4110 21.4 201 
 BAR2 EZ I         511 49.35        15.7 0.38            173           21.4 201 
 BRR  HZ IP     C  511 34.33                             151   -0.0710 75.8 299 
 BRR  HN ES        511 51.26                             151    0.2410 75.8 299 
 BRR  HZ I         511 54.52         9.9 0.20            139           75.8 299 
 PAM  EZ EP        511 35.44                             151    0.2310 77.5  36 
 PAM  EN ES        511 52.43                             151   -0.0310 77.5  36 
 PAM  EZ I         511 54.74         8.9 0.40            139           77.5  36 
 RUS  HZ EP        511 36.49                             144   -0.0310 97.4 178 
 RUS  HN ES        511 54.86                             144    0.0710 97.4 178 
 RUS  HZ I         511 55.84         5.6 0.20            141           97.4 178 
 PTB  HZ EP        511 40.24                             131   -0.02 9  151 260 
 PTB  HN ES   4    511 59.74                             131   -1.70 0  151 260 
 PTB  HZ I         512  2.45         6.0 0.16            122            151 260 
 SPBC HZ EP        511 41.53                             129    0.01 9  163 221 
 SPBC HN ES        512  4.12                             129    0.44 9  163 221 
 SPBC HZ I         512  5.02        11.6 0.10            121            163 221 
 ZAR  HZ EP   2    511 46.50                             121    0.56 4  209 293 
 ZAR  HN ES        512 11.62                             121    0.06 8  209 293 
 ZAR  HZ I         512 16.37        10.6 0.24            112            209 293 
 NOR  HZ EP   2    511 48.45                             118   -0.45 4  236 236 
 NOR  HE ES        512 16.40                             118   -0.43 8  236 236 
 NOR  HZ I         512 18.24         4.6 0.24            110            236 236 
 HEL  HZ EP   4    511 55.19                             114    1.62 0  275 257 
 HEL  HN ES   4    512 28.83                             114    3.70 0  275 257 
 HEL  HZ I         512 31.48         4.0 0.30            107            275 257 
 URE  HZ EP   2    511 53.57                             113   -1.05 4  288 292 
 URE  HZ I         512 37.68         5.8 0.16            105            288 292 
 GUY2CHZ EP   4    511 58.64                             112    1.84 0  302 236 
 GUY2CHE ES        512 31.10                             112    0.21 7  302 236 
 GUY2CHZ I         512 41.18         2.4 0.52                           302 236 
 SJC  HZ EP   4    512  6.59                             105   -2.56 0  414 327 
 SJC  HN ES   4    512 48.75                             105   -4.13 0  414 327 
 SJC  HZ I         512 56.36         1.5 0.56             98            414 327 
                                                                                
