 2012  914 0419 19.2 L   6.759 -73.125152.0  RSN  8 0.4 1.9LRSN                1
 GAP=141        0.76       5.0     4.5  5.9  0.1385E+01  0.8204E+01  0.2084E+01E
 Epicentro: LOS SANTOS - SANTANDER                                             3
 ACTION:UPD 12-10-22 14:18 OP:ep   STATUS:               ID:20120914041919 L   I
 2012-09-14-0417-59S.COL___226                                                 6
 STAT SP IPHASW D HRMM SECON CODA AMPLIT PERI AZIMU VELO AIN AR TRES W  DIS CAZ7
 BAR2 SZ EP   1    419 39.51                             172   -0.02 7 19.5 199 
 BAR2 SZ ES   1    419 55.46                             172    0.08 7 19.5 199 
 BAR2 SZ I         419 57.54        23.2 0.34                          19.5 199 
 GIR2 SZ EP   1    419 39.79                             166    0.02 7 36.2 348 
 GIR2 SZ ES   1    419 56.10                             166    0.30 7 36.2 348 
 BRR  HZ EP   1    419 41.46                             152    0.17 7 75.5 301 
 BRR  HZ I         419 42.97        26.5 0.12                          75.5 301 
 BRR  HN ES   1    419 59.10                             152    0.60 7 75.5 301 
 PAM  SZ EP   1    419 42.34                             151    0.11 7 79.6  36 
 PAM  SE ES   1    419 59.60                             151   -0.58 7 79.6  36 
 PAM  SE I         420  2.20         8.9 0.28                          79.6  36 
 RUS  HZ EP   1    419 43.36                             146    0.09 7 95.9 177 
 RUS  HN ES   1    420  2.00                             146   -0.02 7 95.9 177 
 RUS  HZ I         420  4.38         5.7 0.24                          95.9 177 
 PTB  HZ EP   1    419 46.43                             133   -0.41 7  149 261 
 PTB  HN ES   1    420  7.68                             133   -0.70 7  149 261 
 ZAR  HZ EP   1    419 52.03                             123   -0.45 6  208 293 
 ZAR  HN ES   1    420 18.46                             123    0.04 6  208 293 
 ZAR  HZ I         420 24.00        13.6 0.38                           208 293 
 HEL  HZ EP   1    420  0.79                             116    0.90 6  273 257 
 HEL  HZ I         420 39.23         5.2 0.26                           273 257 
                                                                                
