 2013  214 0858 13.6 L   6.800 -73.130151.0  RSN 13 0.4 2.3LRSN                1
 GAP= 72        0.88       3.1     3.1  5.3  0.5477E+00  0.1422E+01 -0.5278E+00E
 Epicentro: LOS SANTOS - SANTANDER                                             3
 ACTION:UPD 13-03-12 09:32 OP:ep   STATUS:               ID:20130214085813 L   I
 2013-02-14-0850-00M.COL___241                                                 6
 STAT SP IPHASW D HRMM SECON CODA AMPLIT PERI AZIMU VELO AIN AR TRES W  DIS CAZ7
 BAR2 SZ EP        858 33.98                             171    0.0910 23.7 194 
 BAR2 SZ ES   1    858 49.55                             171   -0.15 7 23.7 194 
 BAR2 SZ I         858 51.78        54.8 0.40            166           23.7 194 
 BRR  HZ IP     C  858 35.72                             153    0.3010 72.7 298 
 BRR  HE ES   1    858 53.06                             153    0.64 7 72.7 298 
 BRR  HZ I         858 55.46        32.5 0.12            144           72.7 298 
 PAM  SZ EP        858 36.64                             152    0.3110 76.3  39 
 PAM  SN ES   1    858 53.97                             152   -0.08 7 76.3  39 
 PAM  SZ I         858 56.10        19.5 0.50            151           76.3  39 
 RUS  HZ EP        858 37.95                             145    0.0610  101 177 
 RUS  HN ES   1    858 56.67                             145   -0.15 7  101 177 
 RUS  HZ I         858 59.32        17.4 0.40            141            101 177 
 PTB  HZ EP        858 40.61                             133   -0.56 9  149 259 
 PTB  HN ES   1    859  1.77                             133   -0.89 7  149 259 
 PTB  HZ I         859  3.86        36.1 0.16            125            149 259 
 TAM  HZ IP     C  858 42.05                             132    0.48 9  153 105 
 TAM  HN ES   1    859  2.89                             132   -0.48 7  153 105 
 OCA  HZ EP   1    858 42.09                             131   -0.27 7  160 353 
 OCA  HE ES   1    859  5.38                             131    0.61 7  160 353 
 OCA  HZ I         859  8.91        17.0 0.24            125            160 353 
 ZAR  HZ EP        858 46.60                             123    0.03 8  206 292 
 ZAR  HE ES   1    859 12.01                             123   -0.26 6  206 292 
 ZAR  HZ I         859 17.48        29.4 0.36            117            206 292 
 SML  HZ EP        858 50.19                             118   -0.43 8  244 335 
 SML  HN ES   1    859 18.90                             118   -0.57 6  244 335 
 CHI  HZ EP        858 51.86                             118    0.19 8  249 196 
 CHI  HN ES   1    859 21.10                             118   -0.25 6  249 196 
 CHI  HZ I         859 30.89         8.5 0.36            113            249 196 
 HEL  HZ EP   1    858 54.95                             116    0.66 6  274 256 
 HEL  HN ES   1    859 26.67                             116    0.66 6  274 256 
 HEL  HZ I         859 32.17        14.2 0.32            110            274 256 
 URE  HZ EP   4    858 57.90                             114    2.78 0  285 292 
 URE  HZ I         859 39.41        13.9 0.30            109            285 292 
 SDV  BZ EP        859  3.19                             109   -0.52 6  359  50 
 SDV  BE ES   4    859 39.41                             109   -3.37 0  359  50 
                                                                                
