 2016  114 0415 20.7 L   6.807 -73.117149.4  RSN  7 0.5 1.6LRSN                1
 GAP=186        1.17       4.8     6.8  8.8 -0.1343E+01  0.6609E+01 -0.2702E+01E
 Epicentro: LOS SANTOS - SANTANDER                                             3
 ACTION:UPD 16-03-09 23:25 OP:cam  STATUS:               ID:20160114041520 L   I
 OLDACT:UP  16-01-14 15:17 OP:mh   STATUS:               ID:20160114040750     3
 OLDACT:UP  16-01-14 15:16 OP:mh   STATUS:               ID:20160114040750     3
 OLDACT:REG 16-01-14 12:47 OP:mh   STATUS:               ID:20160114040750     3
 2016-01-14-0407-50M.COL___331                                                 6
 STAT SP IPHASW D HRMM SECON CODA AMPLIT PERI AZIMU VELO AIN AR TRES W  DIS CAZ7
 BAR2 EZ EP        415 41.07                             170    0.3010 24.8 197 
 BAR2 EZ ES        415 56.53                             170    0.0910 24.8 197 
 BAR2 EZ I         415 58.38         8.8 0.26            168           24.8 197 
 BRR  HZ EP     C  415 42.96                             152    0.6110 73.6 297 
 BRR  HN ES        415 59.80                             152    0.5510 73.6 297 
 BRR  HZ I         416  4.10         5.0 0.14            146           73.6 297 
 RUS  HZ EP        415 44.95                             144    0.1210  101 178 
 RUS  HN ES        416  3.14                             144   -0.5210  101 178 
 RUS  HZ I         416  4.11         3.6 0.44            147            101 178 
 PTB  HZ EP        415 47.72                             132   -0.51 9  151 259 
 PTB  HN ES        416  9.00                             132   -0.72 9  151 259 
 PTB  HZ I         416 14.99         3.2 0.20            130            151 259 
 OCA  HZ EP   1    415 49.03                             130   -0.21 7  160 352 
 OCA  HN ES        416 11.10                             130   -0.41 9  160 352 
 OCA  HZ I         416 17.54        11.3 0.30            129            160 352 
 NOR  HN ES        416 25.77                             119    0.55 8  238 235 
 NOR  HZ I         416 33.00         2.3 0.20            118            238 235 
 SJC  HZ EP   4    416 14.62                             106   -1.86 0  410 327 
 SJC  HN ES   4    416 56.91                             106   -3.10 0  410 327 
 SJC  HZ I         417  9.47         1.5 0.76            106            410 327 
                                                                                
