 2017  114 0201 47.3 L   6.798 -73.107130.9  RSN  7 0.6 1.3LRSN                1
 GAP=142        1.12       5.3     5.8  8.0  0.4094E+01  0.1281E+02  0.3969E+01E
 Epicentro: LOS SANTOS - SANTANDER                                             3
 ACTION:UPD 17-05-22 15:59 OP:jn   STATUS:               ID:20170114020147 L   I
 OLDACT:UP  17-01-14 13:30 OP:dani STATUS:               ID:20170114015747     3
 OLDACT:UP  17-01-14 13:29 OP:dani STATUS:               ID:20170114015747     3
 OLDACT:REG 17-01-14 12:23 OP:dani STATUS:               ID:20170114015747     3
 2017-01-14-0158-00M.COL___332                                                 6
 STAT SP IPHASW D HRMM SECON CODA AMPLIT PERI AZIMU VELO AIN AR TRES W  DIS CAZ7
 BAR2 EZ ES        2 2 19.58                             169    0.5010 24.2 200 
 PAM  EZ EP        2 2  7.67                             149   -0.1110 74.9  37 
 PAM  EE ES        2 2 23.74                             149   -0.0310 74.9  37 
 PAM  EZ I         2 2 26.02         3.0 0.38            151           74.9  37 
 BRR  HZ EP        2 2  6.73                             148   -0.3610 75.1 297 
 BRR  HN ES        2 2 22.86                             148    0.3210 75.1 297 
 BRR  HZ I         2 2 24.47         6.2 0.17            150           75.1 297 
 RUS  HZ EP        2 2  9.33                             141   -0.2410  100 178 
 RUS  HN ES        2 2 26.47                             141   -0.4810  100 178 
 RUS  HZ I         2 2 29.30         2.1 0.33            142            100 178 
 PTB  HZ EP   3    2 2 12.12                             127   -1.36 2  152 259 
 PTB  HN ES   3    2 2 32.34                             127   -1.57 2  152 259 
 PTB  HZ I         2 2 35.31         4.1 0.16            129            152 259 
 ZAR  HE ES        2 2 44.00                             118   -0.16 8  208 292 
 GUY2CHZ EP        2 2 31.95                             109    1.32 7  305 235 
                                                                                
