 2013 1014 0030 18.1 L   6.782 -73.115152.5  RSN  4 0.3 1.2LRSN                1
 GAP=239        0.64       6.5     6.0  7.8  0.1974E+02  0.3258E+01  0.9357E+01E
 Epicentro: LOS SANTOS - SANTANDER                                             3
 ACTION:UPD 13-11-25 09:21 OP:ep   STATUS:               ID:20131014003018 L   I
 OLDACT:REG 13-10-14 12:04 OP:mh   STATUS:               ID:20131014002848     3
 2013-10-14-0028-48M.COL___233                                                 6
 STAT SP IPHASW D HRMM SECON CODA AMPLIT PERI AZIMU VELO AIN AR TRES W  DIS CAZ7
 BRR  HN ES   1    030 57.75                             152    0.29 7 75.1 299 
 RUS  HZ EP   1    030 42.20                             146   -0.20 7 98.4 178 
 RUS  HN ES        031  1.23                             146   -0.0910 98.4 178 
 RUS  HZ I         031  2.29         2.1 0.30            146           98.4 178 
 PTB  HN ES        031  7.21                             133   -0.37 9  151 260 
 PTB  HZ I         031  9.88         2.1 0.11            133            151 260 
 SPBC HZ EP        030 47.40                             130    0.19 9  164 220 
 SPBC HN ES   1    031 10.32                             130    0.43 7  164 220 
 ZAR  HN ES   4    031 17.54                             123    0.17 0  208 292 
                                                                                
