 2013  114 0705 55.3 L   6.816 -73.171146.0  RSN  8 0.4 1.7LRSN                1
 GAP=180        0.71       3.6     4.5  6.3  0.4065E+01  0.7078E+01  0.4840E+01E
 Epicentro: LOS SANTOS - SANTANDER                                             3
 ACTION:UPD 13-02-15 09:14 OP:ep   STATUS:               ID:20130114070555 L   I
 2013-01-14-0700-00M.COL___241                                                 6
 STAT SP IPHASW D HRMM SECON CODA AMPLIT PERI AZIMU VELO AIN AR TRES W  DIS CAZ7
 BAR2 SZ EP        7 6 14.79                             170   -0.1710 24.8 183 
 BAR2 SZ ES   1    7 6 29.91                             170   -0.41 7 24.8 183 
 BAR2 SZ I         7 6 31.03        16.8 0.36            165           24.8 183 
 BRR  HZ EP   1    7 6 16.55                             154    0.29 7 67.8 298 
 BRR  HN ES   1    7 6 33.27                             154    0.64 7 67.8 298 
 BRR  HZ I         7 6 37.27        10.8 0.14            148           67.8 298 
 RUS  HZ EP   1    7 6 18.88                             143   -0.32 7  103 175 
 RUS  HN ES   1    7 6 38.16                             143    0.31 7  103 175 
 RUS  HZ I         7 6 39.38         3.7 0.40            144            103 175 
 PTB  HZ EP   1    7 6 21.47                             133   -0.57 7  145 258 
 PTB  HN ES   1    7 6 42.44                             133   -0.48 7  145 258 
 PTB  HZ I         7 6 47.50         7.9 0.12            130            145 258 
 OCA  HN ES   1    7 6 45.41                             130    0.06 7  158 354 
 ZAR  HN ES   1    7 6 52.56                             123    0.11 6  201 292 
 ZAR  HZ I         7 6 59.22         5.0 0.30            122            201 292 
 CHI  HZ EP   1    7 6 33.32                             117    0.22 6  250 194 
 CHI  HN ES   1    7 7  3.14                             117    0.54 6  250 194 
 CHI  HZ I         7 7  5.73         1.3 0.24            118            250 194 
 HEL  HZ EP   1    7 6 35.47                             115    0.23 6  270 255 
 HEL  HN ES   1    7 7  6.38                             115   -0.04 6  270 255 
 HEL  HZ I         7 7 14.11         3.1 0.56            115            270 255 
                                                                                
