 2010  814 0401  5.1 L   6.775 -73.058144.2  RSN  4 0.2 1.3LRSN                1
 GAP=202        0.53       6.3     7.2  6.6 -0.9933E+01 -0.1350E+02 -0.1217E+02E
 Epicentro: LOS SANTOS - SANTANDER                                             3
 ACTION:UP  10-09-07 10:54 OP:vdl  STATUS:               ID:20100814040105 L   I
 2010-08-14-0359-33S.COL___111                                                 6
 STAT SP IPHASW D HRMM SECON CODA AMPLIT PERI AZIMU VELO SNR AR TRES W  DIS CAZ7
 BAR2 SZ EP   2    4 1 24.47                             170    -0.1 5   25 214 
 BAR2 SZ ES   1    4 1 39.68                             170    -0.1 7   25 214 
 BAR2 SZ I         4 1 41.06         5.6 0.25                            25 214 
 BTL  SZ EP        4 1 24.71                             168     0.110   28 304 
 BRR  HZ EP        4 1 26.44                             149    -0.210   81 297 
 BRR  HN ES   1    4 1 43.69                             149     0.2 7   81 297 
 BRR  HZ I         4 1 44.46         4.1 0.32                            81 297 
 GRA  SZ EP        4 1 30.43                             136     0.210  126  13 
 GRA  SZ ES   2    4 1 49.43                             136    -0.4 5  126  13 
 GRA  SZ I         4 1 53.92         2.3 0.32                           126  13 
                                                                                
