 2012 1014 0017 41.2 L   6.770 -73.064153.3  RSN  5 0.2 1.8LRSN                1
 GAP=149        0.38       4.6     8.5  6.5  0.2252E+02 -0.7337E+01 -0.1003E+02E
 Epicentro: LOS SANTOS - SANTANDER                                             3
 ACTION:UPD 12-11-22 17:03 OP:ep   STATUS:               ID:20121014001741 L   I
 2012-10-14-0010-00M.COL___232                                                 6
 STAT SP IPHASW D HRMM SECON CODA AMPLIT PERI AZIMU VELO AIN AR TRES W  DIS CAZ7
 BAR2 SZ EP        018  1.79                             171    0.0410 23.6 214 
 BAR2 SZ I         018 18.22        12.1 0.58                          23.6 214 
 GIR2 SZ EP   2    018  1.95                             166    0.02 5 37.0 337 
 GIR2 SZ ES   3    018 18.09                             166   -0.01 2 37.0 337 
 PAM  SN ES   3    018 21.85                             153   -0.07 2 74.7  33 
 BRR  HZ EP        018  3.57                             151   -0.1410 80.7 298 
 BRR  HE ES   2    018 21.55                             151    0.28 5 80.7 298 
 BRR  HN I         018 25.02        19.9 0.16                          80.7 298 
 RUS  HZ EP   2    018  5.86                             146    0.40 5 97.1 181 
 RUS  HN ES   1    018 24.26                             146   -0.13 7 97.1 181 
 RUS  HN I         018 24.84         7.1 0.32                          97.1 181 
                                                                                
