 2015  414 0055  1.7 L   6.759 -73.149149.4  RSN  9 0.5 1.8LRSN                1
 GAP=138        1.21       5.1     5.0  8.1 -0.3702E+01  0.1152E+02 -0.2335E+01E
 Epicentro: LOS SANTOS - SANTANDER                                             3
 ACTION:UPD 15-06-03 16:54 OP:cam  STATUS:               ID:20150414005501 L   I
 OLDACT:UP  15-04-14 16:09 OP:nlst STATUS:               ID:20150414005501 L   3
 OLDACT:REG 15-04-14 12:34 OP:carl STATUS:               ID:20150414004747     3
 2015-04-14-0047-47M.COL___272                                                 6
 STAT SP IPHASW D HRMM SECON CODA AMPLIT PERI AZIMU VELO AIN AR TRES W  DIS CAZ7
 BAR2 EZ EP        055 21.48                             172   -0.2210 18.8 191 
 BAR2 EZ ES        055 37.38                             172    0.0910 18.8 191 
 BAR2 EZ I         055 39.32        14.5 0.28            173           18.8 191 
 BRR  HZ EP        055 23.43                             152    0.0610 73.2 302 
 BRR  HN ES        055 41.17                             152    0.9210 73.2 302 
 BRR  HZ I         055 46.46         9.0 0.24            151           73.2 302 
 PAM  SZ EP        055 24.38                             150   -0.1610 81.1  38 
 PAM  SN ES        055 42.00                             150   -0.3410 81.1  38 
 PAM  SZ I         055 44.83         5.4 0.46            153           81.1  38 
 RUS  HZ EP        055 25.91                             146    0.4010 96.1 176 
 RUS  HE ES        055 43.81                             146   -0.2610 96.1 176 
 RUS  HZ I         055 45.39         7.2 0.22            151           96.1 176 
 PTB  HZ EP        055 28.42                             133   -0.46 9  147 261 
 PTB  HN ES        055 49.57                             133   -0.49 9  147 261 
 PTB  HZ I         055 55.22        10.6 0.48            135            147 261 
 SPBC HN ES        055 52.57                             131    0.25 9  159 220 
 ZAR  HZ EP        055 35.52                             123    0.97 8  205 293 
 ZAR  HN ES        055 59.39                             123   -0.76 8  205 293 
 ZAR  HZ I         056  6.53        12.0 0.30            125            205 293 
 NOR  HE ES        056  5.11                             120   -0.04 8  232 235 
 GUY2CHZ EP   4    055 47.60                             113    2.43 0  298 235 
 GUY2CHN ES   4    056 22.73                             113    3.66 0  298 235 
 GUY2CHZ I         056 28.84         3.2 0.28                           298 235 
                                                                                
