 2014 1114 0105 36.2 L   6.791 -73.177135.4  RSN  5 0.3 1.2LRSN                1
 GAP=133        0.90       5.5     5.1  7.0  0.6179E+01 -0.2030E+01 -0.5226E+01E
 Epicentro: LOS SANTOS - SANTANDER                                             3
 ACTION:UPD 14-12-19 15:42 OP:nd   STATUS:               ID:20141114010536 L   I
 OLDACT:ARG 14-11-14 12:38 OP:stll STATUS:               ID:20141114005751     3
 2014-11-14-0057-51M.COL___291                                                 6
 STAT SP IPHASW D HRMM SECON CODA AMPLIT PERI AZIMU VELO AIN AR TRES W  DIS CAZ7
 BAR2 SZ EP        1 5 54.66                             170    0.1410 22.0 181 
 BAR2 SZ ES        1 6  8.33                             170   -0.5010 22.0 181 
 BRR  HZ EP        1 5 56.52                             151    0.4810 68.6 301 
 BRR  HN ES        1 6 11.70                             151    0.1510 68.6 301 
 PAM  SZ EP        1 5 57.38                             148   -0.0910 80.4  41 
 RUS  HZ EP        1 5 58.88                             142    0.0210 99.9 174 
 RUS  HZ I         1 5 59.85         2.5 0.16            139           99.9 174 
 RUS  HN ES        1 6 16.85                             142    0.2910 99.9 174 
 PTB  HZ EP        1 6  1.31                             130   -0.65 9  144 259 
 PTB  HN ES        1 6 22.19                             130    0.10 9  144 259 
 PTB  HZ I         1 6 28.03         2.7 0.74            127            144 259 
                                                                                
