 2016 1214 0250 37.0 L   6.815 -73.092148.5  RSN  9 0.4 1.5LRSN                1
 GAP=123        1.09       4.2     4.7  5.9  0.1063E+01  0.4264E+01  0.6352E+01E
 Epicentro: LOS SANTOS - SANTANDER                                             3
 ACTION:UPD 17-01-11 20:14 OP:rebc STATUS:               ID:20161214025037 L   I
 OLDACT:UP  16-12-14 14:51 OP:e    STATUS:               ID:20161214024745     3
 OLDACT:REG 16-12-14 12:07 OP:and  STATUS:               ID:20161214024745     3
 2016-12-14-0248-00M.COL___374                                                 6
 STAT SP IPHASW D HRMM SECON CODA AMPLIT PERI AZIMU VELO AIN AR TRES W  DIS CAZ7
 BAR2 EZ EP     C  250 56.91                             169   -0.1310 26.6 202 
 BAR2 EZ ES        251 11.98                             169   -0.6910 26.6 202 
 BAR2 EZ I         251 13.36         5.5 0.16            170           26.6 202 
 PAM  EZ EP        250 59.97                             153    0.7310 72.4  37 
 PAM  EZ ES        251 16.56                             153   -0.0210 72.4  37 
 PAM  EZ I         251 18.59         4.4 0.14            152           72.4  37 
 BRR  HZ EP        250 58.61                             151   -0.1110 75.8 295 
 BRR  HE ES        251 15.77                             151    0.1210 75.8 295 
 RUS  HZ EP        251  1.06                             144   -0.0810  102 179 
 RUS  HE ES        251 20.25                             144    0.3010  102 179 
 RUS  HZ I         251 20.83         2.6 0.24            145            102 179 
 PTB  HZ EP   9    251  3.55                             131   -1.21 0  154 259 
 PTB  HN ES        251 24.66                                   -0.54 9  154 259 
 PTB  HZ I         251 26.50         3.9 0.30            131            154 259 
 ZAR  HZ EP        251 10.70                             122    0.55 8  209 291 
 ZAR  HN ES        251 35.61                             122   -0.38 8  209 291 
 ZAR  HZ I         251 41.07         4.7 0.17            122            209 291 
 CHI  HZ EP        251 14.60                             117   -0.61 8  252 196 
 CHI  HN ES        251 45.54                             117    0.54 8  252 196 
 GUY2CHZ EP        251 21.17                             112   -0.23 7  307 235 
 GUY2CHN ES        251 56.58                             112    0.55 7  307 235 
 GUY2CHZ I         252  5.89         1.6 0.44                           307 235 
 PTGC HZ EP        251 20.20                             112   -0.73 7  308 160 
                                                                                
