 2014  814 0909  2.4 L   6.816 -73.169146.4  RSN  8 0.4 1.9LRSN                1
 GAP=199        1.01       4.2     5.7  6.7  0.8305E+01  0.6759E+01  0.2406E+00E
 Epicentro: LOS SANTOS - SANTANDER                                             3
 ACTION:UPD 14-09-15 21:49 OP:nd   STATUS:               ID:20140814090902 L   I
 OLDACT:UP  14-08-14 17:17 OP:cam  STATUS:               ID:20140814090746     3
 OLDACT:UP  14-08-14 17:17 OP:cam  STATUS:               ID:20140814090746     3
 OLDACT:REG 14-08-14 17:11 OP:cam  STATUS:               ID:20140814090746     3
 2014-08-14-0907-46M.COL___257                                                 6
 STAT SP IPHASW D HRMM SECON CODA AMPLIT PERI AZIMU VELO AIN AR TRES W  DIS CAZ7
 BAR2 SZ EP        9 9 21.78                             170   -0.3710 24.7 183 
 BAR2 SZ ES        9 9 37.19                             170   -0.3510 24.7 183 
 BAR2 SZ I         9 9 38.46        24.6 0.22            171           24.7 183 
 BRR  HZ EP        9 9 23.93                             154    0.4710 68.1 298 
 BRR  HN ES        9 9 40.25                             154    0.3710 68.1 298 
 BRR  HZ I         9 9 46.45        18.5 0.50            152           68.1 298 
 RUS  HZ EP        9 9 26.92                             143    0.5610  103 175 
 RUS  HN ES        9 9 45.11                             143    0.0610  103 175 
 RUS  HZ I         9 9 45.78         8.4 0.30            147            103 175 
 PTB  HZ EP        9 9 28.60                             133   -0.63 9  146 258 
 PTB  HN ES        9 9 49.81                             133   -0.34 9  146 258 
 PTB  HZ I         9 9 52.75         9.8 0.16            133            146 258 
 SPBC HZ EP        9 9 30.98                             129    0.05 9  163 218 
 SPBC HN ES        9 9 53.12                             129   -0.06 9  163 218 
 SPBC HZ I         9 9 55.83        14.2 0.22            131            163 218 
 ZAR  HN ES        910  0.27                             123    0.59 9  201 292 
 ZAR  HZ I         910  5.66         5.0 0.10            124            201 292 
 NOR  HZ EP        9 9 38.05                             119   -0.01 8  234 234 
 SML  HZ I         9 9 27.06                                            241 336 
 SML  HZ EP   4    9 9 36.75                             118   -2.03 0  241 336 
 SML  HN ES        910  6.68                             118   -0.48 8  241 336 
 SML  HZ I         910 10.15         7.2 0.10            119            241 336 
 HEL  HZ EP   4    9 9 43.96                             115    1.54 0  270 255 
 GUY2CHZ EP   4    9 9 48.37                             112    2.45 0  300 234 
                                                                                
