 2012  314 0217 25.2 L   6.781 -73.158145.6  RSN  6 0.3 1.6LRSN                1
 GAP=136        0.66       4.4     3.9  6.9 -0.4587E+01 -0.1411E+01  0.7379E+01E
 ACTION:UP  12-03-31 23:19 OP:EP   STATUS:               ID:20120314021725 L   I
 2012-03-14-0210-00M.COL___199                                                 6
 STAT SP IPHASW D HRMM SECON CODA AMPLIT PERI AZIMU VELO SNR AR TRES W  DIS CAZ7
 BAR2 SZ EP   1    217 44.77                             171     0.0 7   21 187 
 BAR2 SZ I         218  1.09        13.8 0.15                            21 187 
 BRR  HZ EP   1    217 46.64                             152     0.3 7   71 301 
 BRR  HN ES        218  2.98                             152     0.210   71 301 
 BRR  HZ I         218  7.60         7.9 0.22                            71 301 
 PAM  SZ EP        217 47.74                             150     0.210   80  39 
 PAM  SN ES   1    218  4.56                             150    -0.4 7   80  39 
 RUS  HZ EP   1    217 48.72                             144    -0.1 7   99 175 
 RUS  HN ES   1    218  7.25                             144     0.1 7   99 175 
 RUS  HZ I         218  8.20         3.4 0.16                            99 175 
 PTB  HZ EP   1    217 51.49                             132    -0.5 7  146 260 
 PTB  HN ES   1    218 12.64                             132    -0.3 7  146 260 
 PTB  HZ I         218 16.73         6.3 0.15                           146 260 
 NOR  SN ES   1    218 28.53                             119     0.2 6  232 235 
                                                                                
