 2013  414 0847 28.3 L   6.812 -73.073135.9  RSN  5 0.3 1.5LRSN                1
 GAP=171        0.88      12.3     7.6  7.8 -0.4962E+02 -0.1925E+02  0.4888E+02E
 Epicentro: LOS SANTOS - SANTANDER                                             3
 ACTION:UPD 13-05-22 14:38 OP:EP   STATUS:               ID:20130414084728 L   I
 2013-04-14-0838-48M.COL___212                                                 6
 STAT SP IPHASW D HRMM SECON CODA AMPLIT PERI AZIMU VELO AIN AR TRES W  DIS CAZ7
 BAR2 SZ EP        847 47.14                             168    0.3410 27.1 206 
 BAR2 SZ I         848  2.75         5.0 0.18            133           27.1 206 
 GIR2 SZ EP   1    847 47.09                             166    0.29 7 32.4 336 
 GIR2 SZ ES        848  0.72                             166   -0.5410 32.4 336 
 BRR  HZ EP        847 48.50                             148   -0.2610 77.7 295 
 BRR  HN ES        848  5.27                             148    0.5210 77.7 295 
 BRR  HN I         848  5.82        11.0 0.20            150           77.7 295 
 CAPV BZ EP        847 54.42                             131    0.09 9  143  36 
 PTB  HE EP        847 55.04                             128   -0.18 9  156 259 
 PTB  HZ EP     D  847 55.04                             128   -0.18 9  156 259 
                                                                                
