 2015  914 0500 33.5 L   6.767 -73.195148.5  RSN  7 0.4 1.3LRSN                1
 GAP=196        1.10       4.9     6.6 11.2  0.1174E+02 -0.8355E+01 -0.1286E+02E
 Epicentro: ZAPATOCA - SANTANDER                                               3
 ACTION:UPD 15-10-28 16:26 OP:cam  STATUS:               ID:20150914050033 L   I
 OLDACT:REG 15-09-14 12:53 OP:mh   STATUS:               ID:20150914045749     3
 2015-09-14-0457-49M.COL___329                                                 6
 STAT SP IPHASW D HRMM SECON CODA AMPLIT PERI AZIMU VELO AIN AR TRES W  DIS CAZ7
 BAR2 EZ EP        5 0 53.90                             172    0.5310 19.4 176 
 BAR2 EZ I         5 1  9.79         3.3 0.09            173           19.4 176 
 BRR  HZ EP        5 0 54.97                             154    0.2010 68.4 303 
 BRR  HN ES   1    5 1 11.73                             154    0.35 7 68.4 303 
 BRR  HZ I         5 1 15.51         3.6 0.11            156           68.4 303 
 RUS  HZ EP        5 0 56.44                             145   -0.8510 97.5 173 
 RUS  HN ES        5 1 15.63                             145   -0.2210 97.5 173 
 RUS  HZ I         5 1 16.82         1.4 0.24            147           97.5 173 
 PTB  HZ EP   1    5 0 59.95                             134   -0.19 7  142 260 
 PTB  HN ES        5 1 20.49                             134   -0.43 9  142 260 
 PTB  HZ I         5 1 22.51         2.8 0.16            137            142 260 
 SPBC HZ EP        5 1  2.24                             131    0.63 9  157 218 
 SPBC HN ES        5 1 23.91                             131    0.37 9  157 218 
 SPBC HZ I         5 1 26.55         2.9 0.32            134            157 218 
 ZAR  HN ES        5 1 30.72                             123   -0.17 9  200 294 
 ZAR  HZ I         5 1 35.85         2.9 0.42            125            200 294 
 SML  HE ES        5 1 39.00                             118   -0.17 8  245 337 
                                                                                
