 2017  714 0706 58.5 L   6.768 -73.151144.6  RSN  7 0.4 1.6LRSN                1
 GAP=209        0.99       5.2     5.2  6.5  0.1528E+02  0.3663E+01 -0.9856E-01E
 Epicentro: LOS SANTOS - SANTANDER                                             3
 ACTION:UPD 17-08-30 15:32 OP:rebc STATUS:               ID:20170714070658 L   I
 OLDACT:REG 17-07-14 12:43 OP:dnl  STATUS:               ID:20170714065739     3
 2017-07-14-0658-00M.COL___376                                                 6
 STAT SP IPHASW D HRMM SECON CODA AMPLIT PERI AZIMU VELO AIN AR TRES W  DIS CAZ7
 BAR2 EZ EP        7 7 17.66                             172   -0.2810 19.7 190 
 BAR2 EZ ES        7 7 32.72                             172   -0.3710 19.7 190 
 BAR2 EZ I         7 7 34.90         8.5 0.30            173           19.7 190 
 BRR  HZ EP        7 7 19.73                             152    0.1210 72.4 301 
 BRR  HE ES        7 7 36.62                             152    0.5610 72.4 301 
 BRR  HZ I         7 7 40.60         6.2 0.32            152           72.4 301 
 RUS  HZ EP        7 7 21.61                             145   -0.2910 97.1 176 
 RUS  HN ES        7 7 40.08                             145   -0.0610 97.1 176 
 RUS  HZ I         7 7 41.65         3.4 0.28            147           97.1 176 
 PTB  HZ EP        7 7 25.04                             132   -0.24 9  146 260 
 PTB  HE ES        7 7 45.33                             132   -0.81 9  146 260 
 PTB  HZ I         7 7 48.53         4.1 0.12            133            146 260 
 SPBC HZ EP        7 7 26.88                             129    0.25 9  160 220 
 SPBC HN ES        7 7 49.03                             129    0.48 9  160 220 
 SPBC HZ I    3    7 7 52.45         5.7 0.22            132            160 220 
 YPLC HZ EP   2    7 7 27.89                             127   -0.06 4  174 151 
 YPLC HN ES        7 7 51.38                             127    0.47 9  174 151 
 YPLC HZ I         7 7 54.54         8.0 0.30            130            174 151 
 ZAR  HZ EP        7 7 30.88                             122   -0.09 9  205 293 
 ZAR  HN ES        7 7 56.75                             122    0.47 9  205 293 
 ZAR  HZ I         7 8  3.78         6.3 0.54            123            205 293 
                                                                                
