 2016 1214 0639 56.7 L   6.285 -73.279147.5  RSN 13 0.5 1.9LRSN                1
 GAP= 67        1.10       3.6     3.6  6.0  0.2483E+01  0.7321E+01  0.8099E+01E
 Epicentro: OIBA - SANTANDER                                                   3
 ACTION:UPD 17-01-11 20:14 OP:rebc STATUS:               ID:20161214063956 L   I
 OLDACT:UP  16-12-14 17:58 OP:e    STATUS:               ID:20161214063743     3
 OLDACT:UP  16-12-14 17:58 OP:e    STATUS:               ID:20161214063743     3
 OLDACT:UP  16-12-14 17:56 OP:e    STATUS:               ID:20161214063743     3
 OLDACT:UP  16-12-14 17:53 OP:e    STATUS:               ID:20161214063743     3
 OLDACT:UP  16-12-14 17:51 OP:e    STATUS:               ID:20161214063743     3
 OLDACT:UP  16-12-14 17:50 OP:e    STATUS:               ID:20161214063743     3
 OLDACT:REG 16-12-14 12:36 OP:and  STATUS:               ID:20161214063743     3
 2016-12-14-0638-00M.COL___380                                                 6
 STAT SP IPHASW D HRMM SECON CODA AMPLIT PERI AZIMU VELO AIN AR TRES W  DIS CAZ7
 BAR2 EZ EP        640 16.93                             166    0.1010 35.6  18 
 BAR2 EZ ES        640 32.57                             166    0.0210 35.6  18 
 BAR2 EZ I         640 38.74         9.3 0.31            169           35.6  18 
 RUS  HZ EP        640 18.31                             161    0.6510 48.5 153 
 RUS  HN ES        640 33.93                             161   -0.0910 48.5 153 
 RUS  HZ I         640 34.93         8.4 0.30            162           48.5 153 
 BRR  HZ EP        640 20.26                             143    0.2010  103 332 
 BRR  HN ES        640 38.62                             143    0.3210  103 332 
 BRR  HZ I         640 39.30        14.8 0.16            146            103 332 
 PTB  HZ EP   9    640 21.31                             136   -1.20 0  133 282 
 PTB  HN ES        640 41.19                             135   -0.2710  133 282 
 PTB  HZ I         640 43.11        12.5 0.12            137            133 282 
 TAM  HZ EP   4    640 27.43                             129    1.96 0  165  84 
 TAM  HE ES        640 47.70                             129   -0.22 9  165  84 
 CHI  HZ EP        640 28.39                             125    0.06 9  190 195 
 CHI  HN ES        640 53.35                             125    0.33 9  190 195 
 CHI  HZ I         640 55.97         3.0 0.28            126            190 195 
 NOR  HZ EP        640 27.44                             124   -0.76 9  193 246 
 NOR  HN ES   4    640 50.93                             124   -1.86 0  193 246 
 NOR  HZ I         640 55.56        14.5 0.44            126            193 246 
 ZAR  HZ EP        640 30.78                             121   -0.08 8  220 308 
 ZAR  HN ES        640 56.54                             121   -0.99 8  220 308 
 ZAR  HZ I         641  2.26         9.5 0.20            123            220 308 
 GUY2CHZ EP        640 36.64                             116    0.95 8  259 243 
 GUY2CHN ES        641  6.17                             116    0.05 8  259 243 
 GUY2CHZ I         641 11.38         6.6 0.28                           259 243 
 PTGC HZ EP        640 35.20                             116   -0.35 8  263 151 
 PTGC HN ES        641  4.97                             116   -0.90 8  263 151 
 PTGC HZ I         641  8.32         4.7 0.32            118            263 151 
 CBOC HZ EP        640 40.51                             112   -0.03 7  306 261 
 CBOC HN ES        641 14.54                             112   -0.20 7  306 261 
 PRA  HZ EP        640 44.15                             110    0.43 7  336 212 
 PRA  HN ES        641 19.75                             110   -0.66 7  336 212 
 PRA  HZ I         641 26.81         5.5 0.20            111            336 212 
 ORTC HZ EP        640 45.21                             110    0.81 7  341 220 
 ORTC HN ES   4    641 23.07                             110    1.46 0  341 220 
 ORTC HZ I         641 27.13         3.1 0.26            111            341 220 
 SJC  HZ EP   4    640 56.00                             104   -1.22 0  451 332 
 SJC  HN ES   4    641 41.00                             104   -3.44 0  451 332 
                                                                                
