 2016  514 0830 36.8 L   7.446 -73.139147.2  RSN  5 0.3 1.6LRSN                1
 GAP=196        0.80       3.8     5.0  6.7 -0.2230E+01  0.2462E+01  0.3736E+00E
 Epicentro: EL PLAYON - SANTANDER                                              3
 ACTION:UPD 16-08-18 17:45 OP:cam  STATUS:               ID:20160514083036 L   I
 OLDACT:REG 16-05-14 14:01 OP:ak   STATUS:               ID:20160514082745     3
 2016-05-14-0827-45M.COL___299                                                 6
 STAT SP IPHASW D HRMM SECON CODA AMPLIT PERI AZIMU VELO AIN AR TRES W  DIS CAZ7
 BRR  HZ EP        830 58.63                             152    0.3610 73.5 239 
 BRR  HN ES        831 15.24                             152    0.2510 73.5 239 
 BRR  HZ I         831 16.45         8.1 0.36            152           73.5 239 
 OCA  HZ EP        830 59.17                             147   -0.3410 89.9 347 
 OCA  HN ES        831 17.12                             147   -0.0810 89.9 347 
 OCA  HZ I         831 20.25         7.5 0.12            148           89.9 347 
 BAR2 EZ EP        831  0.27                             146    0.3310 94.5 183 
 BAR2 EZ ES        831 17.76                             146   -0.2010 94.5 183 
 BAR2 EZ I         831 20.59         3.0 0.24            148           94.5 183 
 PTB  HZ EP        831  6.60                             127   -0.04 9  177 236 
 PTB  HN ES        831 29.30                             127   -0.60 9  177 236 
 PTB  HZ I         831 32.76         3.3 0.21            128            177 236 
 ZAR  HZ EP   2    831  7.59                             125   -0.34 4  190 272 
 ZAR  HN ES        831 32.53                             125    0.34 9  190 272 
 ZAR  HZ I         831 35.83         6.3 0.24            126            190 272 
                                                                                
