 2017  814 0947 46.8 L   6.087 -73.670117.2  RSN 11 0.4 1.6LRSN                1
 GAP= 74        0.87       2.8     2.8  5.9 -0.1507E+01  0.7446E+01 -0.2686E+01E
 Epicentro: CHIPATA - SANTANDER                                                3
 ACTION:UPD 17-09-04 20:20 OP:rebc STATUS:               ID:20170814094746 L   I
 OLDACT:UP  17-08-14 18:05 OP:and  STATUS:               ID:20170814093745d    3
 OLDACT:UP  17-08-14 18:04 OP:and  STATUS:               ID:20170814093745d    3
 OLDACT:UP  17-08-14 18:03 OP:and  STATUS:               ID:20170814093745d    3
 OLDACT:UP  17-08-14 18:03 OP:and  STATUS:               ID:20170814093745d    3
 OLDACT:UP  17-08-14 17:52 OP:and  STATUS:               ID:20170814093745d    3
 OLDACT:UP  17-08-14 17:50 OP:and  STATUS:               ID:20170814093745d    3
 OLDACT:UP  17-08-14 17:50 OP:and  STATUS:               ID:20170814093745d    3
 OLDACT:UP  17-08-14 17:50 OP:and  STATUS:               ID:20170814093745d    3
 OLDACT:UP  17-08-14 17:10 OP:and  STATUS:               ID:20170814093745d    3
 OLDACT:DUP 17-08-14 17:08 OP:and  STATUS:               ID:20170814093745d    3
 2017-08-14-0938-00M.COL___401                                                 6
 STAT SP IPHASW D HRMM SECON CODA AMPLIT PERI AZIMU VELO AIN AR TRES W  DIS CAZ7
 SPBC HZ IP     D  948  4.64                             149   -0.0410 65.5 223 
 SPBC HN ES        948 18.27                             149   -0.3710 65.5 223 
 SPBC HZ I         948 20.00        16.1 0.26            147           65.5 223 
 RUS  HZ EP        948  5.43                             148   -0.0110 68.5 108 
 RUS  HN ES        948 20.03                             148    0.0310 68.5 108 
 RUS  HZ I         948 21.37        13.6 0.24            142           68.5 108 
 BAR2 EZ EP        948  5.08                             144   -0.6310 77.7  44 
 BAR2 EZ I         948 20.62         7.3 0.30            139           77.7  44 
 BAR2 EZ ES        948 20.87                             144    0.4010 77.7  44 
 BRR  HZ EP        948  8.29                             133    0.0610  113 358 
 BRR  HN ES   3    948 27.01                             133    2.05 2  113 358 
 BRR  HZ I         948 28.71         8.1 0.18            128            113 358 
 NOR  HZ EP        948 10.99                             125   -0.35 9  145 247 
 NOR  HN ES        948 30.48                             125   -0.02 9  145 247 
 NOR  HZ I         948 32.28         6.5 0.26            122            145 247 
 CHI  HZ EP        948 13.34                             122   -0.14 9  161 182 
 CHI  HN ES        948 34.57                             122    0.25 9  161 182 
 CHI  HZ I         948 36.78         3.2 0.34            118            161 182 
 ZAR  HZ EP        948 17.28                             115   -0.19 9  203 320 
 ZAR  HN ES        948 41.43                             115    0.02 9  203 320 
 ZAR  HZ I         948 43.12        10.4 0.30            112            203 320 
 HEL  HZ EP        948 18.83                             115    0.62 8  206 273 
 HEL  HN ES        948 42.37                             115   -0.37 8  206 273 
 HEL  HZ I         948 47.48         2.7 0.28            112            206 273 
 GUY2CHZ EP        948 19.35                             115    0.50 8  211 243 
 GUY2CHN ES        948 44.23                             115    0.35 8  211 243 
 GUY2CHZ I         948 50.05         3.2 0.37                           211 243 
 URE  HN ES   4    948 53.74                             108   -2.37 0  276 312 
 PRA  HZ EP   4    948 30.47                             106    2.50 0  295 207 
 PRA  HE ES   4    948 57.99                             106   -2.11 0  295 207 
 PRA  HZ I         949  7.18         2.2 0.26            103            295 207 
 ORTC HZ EP   4    948 23.23                             106   -5.03 0  298 216 
 ORTC HN ES   4    949  3.87                             106    3.26 0  298 216 
 ORTC HZ I         949  7.10         2.6 0.12            103            298 216 
                                                                                
