 2013  214 0611 55.8 L   6.755 -73.168146.9  RSN  8 0.4 1.6LRSN                1
 GAP=136        0.85       3.6     5.0  6.5  0.9604E+00  0.4088E+01  0.3142E+00E
 Epicentro: LOS SANTOS - SANTANDER                                             3
 ACTION:UPD 13-03-12 09:32 OP:ep   STATUS:               ID:20130214061155 L   I
 2013-02-14-0610-00M.COL___241                                                 6
 STAT SP IPHASW D HRMM SECON CODA AMPLIT PERI AZIMU VELO AIN AR TRES W  DIS CAZ7
 BAR2 SZ EP   1    612 15.45                             173   -0.03 7 18.1 185 
 BAR2 SZ ES   1    612 30.65                             173   -0.18 7 18.1 185 
 BAR2 SZ I         612 32.38        19.2 0.26            172           18.1 185 
 BRR  HZ IP     C  612 17.56                             153    0.4510 71.7 303 
 BRR  HN ES   1    612 34.61                             153    0.89 7 71.7 303 
 BRR  HZ I         612 38.20         4.4 0.28            149           71.7 303 
 PAM  SZ EP        612 18.62                             149    0.1510 82.8  39 
 PAM  SN ES   1    612 36.01                             149   -0.14 7 82.8  39 
 PAM  SZ I         612 38.74         4.3 0.42            151           82.8  39 
 RUS  HZ EP        612 19.25                             145   -0.0910 95.8 174 
 RUS  HN ES   1    612 37.14                             145   -0.55 7 95.8 174 
 RUS  HZ I         612 38.81         5.5 0.32            147           95.8 174 
 PTB  HZ EP   1    612 22.25                             133   -0.32 7  144 261 
 PTB  HN ES   1    612 42.83                             133   -0.62 7  144 261 
 PTB  HZ I         612 43.90         5.7 0.14            131            144 261 
 ZAR  HE ES   2    612 53.72                             123    0.08 4  204 294 
 ZAR  HZ I         613  2.06         3.7 0.28            121            204 294 
 CHI  HZ EP   1    612 33.28                             118    0.30 6  243 195 
 CHI  HN ES   1    613  2.47                             118    0.49 6  243 195 
 CHI  HZ I         613 10.91         1.1 0.34            118            243 195 
 SML  HZ EP   1    612 32.48                             117   -0.40 6  247 336 
 SML  HN ES   1    613  1.20                             117   -0.60 6  247 336 
 SML  HZ I         613  9.86         5.6 0.26            117            247 336 
                                                                                
