 2017  114 0155 19.5 L   6.786 -73.150148.5  RSN 10 0.5 1.8LRSN                1
 GAP=119        0.99       3.8     4.7  5.4  0.9638E+00  0.3650E+01  0.3252E+01E
 Epicentro: LOS SANTOS - SANTANDER                                             3
 ACTION:UPD 17-05-22 15:59 OP:jn   STATUS:               ID:20170114015519 L   I
 OLDACT:UP  17-01-14 13:22 OP:dani STATUS:               ID:20170114014746     3
 OLDACT:REG 17-01-14 12:22 OP:dani STATUS:               ID:20170114014746     3
 2017-01-14-0148-00M.COL___332                                                 6
 STAT SP IPHASW D HRMM SECON CODA AMPLIT PERI AZIMU VELO AIN AR TRES W  DIS CAZ7
 BAR2 EZ EP        155 39.46                             171    0.0110 21.8 189 
 BAR2 EZ ES        155 54.51                             171   -0.4910 21.8 189 
 BAR2 EZ I         155 55.51        13.6 0.28            169           21.8 189 
 BRR  HZ EP        155 41.30                             153    0.3210 71.5 300 
 BRR  HE ES        155 58.41                             153    0.6910 71.5 300 
 BRR  HZ I         156  1.38        16.3 0.44            150           71.5 300 
 PAM  EZ EP        155 42.39                             151    0.2710 78.9  39 
 PAM  EN ES        155 59.52                             151   -0.2310 78.9  39 
 PAM  EZ I         156  1.79        10.7 0.51            154           78.9  39 
 RUS  HZ EP        155 43.53                             145    0.0910 99.1 176 
 RUS  HN ES        156  2.16                             145    0.0610 99.1 176 
 PTB  HZ EP        155 46.03                             133   -0.61 9  147 259 
 PTB  HN ES        156  7.32                             133   -0.48 9  147 259 
 PTB  HZ I         156 14.28         5.2 0.50            131            147 259 
 ZAR  HZ EP        155 52.21                             123    0.05 9  204 293 
 ZAR  HN ES   3    156 17.31                             123   -0.30 2  204 293 
 ZAR  HZ I         156 23.03         6.6 0.27            123            204 293 
 CHI  HZ EP        155 57.95                             118    0.75 8  247 195 
 CHI  HN ES        156 26.92                             118    0.33 8  247 195 
 CHI  HZ I         156 30.93         2.6 0.25            119            247 195 
 GUY2CHZ EP   4    156  6.51                             113    3.40 0  300 235 
 GUY2CHN ES   4    156 42.82                             113    5.71 0  300 235 
 GUY2CHZ I         156 47.89         2.1 0.37                           300 235 
 PTGC HZ EP        156  2.78                             112   -0.59 7  307 158 
 PTGC HN ES   3    156 35.71                             112   -1.86 2  307 158 
 PTGC HZ I         156 38.78         4.5 0.43            114            307 158 
 SJC  HZ EP        156 14.94                             106   -0.35 6  410 327 
                                                                                
