 2010  814 0253  0.8 L   6.762 -73.059135.1  RSN  6 0.5 1.6LRSN                1
 GAP=169        1.16       7.0    12.6 12.8  0.1996E+02 -0.8144E+02 -0.3357E+02E
 Epicentro: LOS SANTOS - SANTANDER                                             3
 ACTION:UP  10-09-07 10:54 OP:vdl  STATUS:               ID:20100814025300 L   I
 2010-08-14-0249-44S.COL___111                                                 6
 STAT SP IPHASW D HRMM SECON CODA AMPLIT PERI AZIMU VELO SNR AR TRES W  DIS CAZ7
 BAR2 SZ EP   1    253 19.07                             170    -0.1 7   23 216 
 BAR2 SZ ES   1    253 32.53                             170    -0.9 7   23 216 
 BAR2 SZ I         253 35.23        11.1 0.25                            23 216 
 BTL  SZ EP        253 19.22                             167    -0.110   29 307 
 BRR  HZ EP        253 20.97                             147    -0.510   82 298 
 BRR  HN ES        253 38.02                             147     0.410   82 298 
 BRR  HZ I         253 42.04        14.7 0.08                            82 298 
 RUS  HZ EP   1    253 23.47                             143     0.3 7   96 182 
 RUS  HN ES   1    253 41.19                             143     0.5 7   96 182 
 RUS  HZ I         253 42.54         3.2 0.29                            96 182 
 GUE  SZ EP   1    253 25.23                             136     0.5 7  119   7 
 GRA  SZ IP        253 25.08                             134    -0.210  127  13 
 GRA  SZ I         253 26.48         6.4 0.21                           127  13 
 GRA  SZ ES   2    253 44.84                             134     0.5 5  127  13 
                                                                                
