 2011  114 0809 10.9 L   6.788 -73.122144.1  RSN  8 0.4 2.0LRSN                1
 GAP=161        0.80       3.4     5.9  7.5 -0.8360E+01  0.1871E+02 -0.2351E+01E
 Epicentro: LOS SANTOS - SANTANDER                                             3
 ACTION:UP  11-02-08 08:40 OP:pat  STATUS:               ID:20110114080910 L   I
 2011-01-14-0806-21S.COL___136                                                 6
 STAT SP IPHASW D HRMM SECON CODA AMPLIT PERI AZIMU VELO SNR AR TRES W  DIS CAZ7
 BAR2 SZ EP        8 9 30.23                             171     0.010   23 198 
 BAR2 SZ ES   1    8 9 45.22                             171    -0.2 7   23 198 
 BAR2 SZ I         8 9 47.04        19.6 0.23                            23 198 
 RUS  HZ EP   1    8 9 34.42                             144     0.1 7   99 178 
 RUS  HN ES   1    8 9 52.98                             144     0.3 7   99 178 
 RUS  HZ I         8 9 54.15        10.4 0.29                            99 178 
 GRA  SZ EP   1    8 9 36.08                             136     0.1 7  126  16 
 GRA  SZ ES   1    8 9 55.43                             136    -0.2 7  126  16 
 GRA  SZ I         8 9 58.66        11.5 0.34                           126  16 
 OCA  SZ EP   1    8 9 39.10                             129    -0.1 7  162 352 
 OCA  SZ ES   1    810  1.58                             129     0.3 7  162 352 
 OCA  SZ I         810  6.54        19.2 0.22                           162 352 
 NOR  SZ EP   2    8 9 46.15                             118    -0.5 4  236 235 
 NOR  SN ES   1    810 14.42                             118    -0.2 6  236 235 
 CHI  HZ EP   1    8 9 47.68                             117    -0.7 6  248 196 
 CHI  HN ES   1    810 17.77                             117     0.1 6  248 196 
 CHI  HZ I         810 23.52         5.2 0.27                           248 196 
 HEL  HZ EP   1    8 9 52.20                             114     1.0 6  274 256 
 HEL  HN ES   1    810 22.15                             114    -0.6 6  274 256 
 HEL  HZ I         810 30.28         4.0 0.31                           274 256 
 RREF HE ES   1    810 33.61                             110     0.5 5  323 230 
 RREF HZ I         810 39.65         5.4 0.45                           323 230 
                                                                                
