 2010  814 0752 40.9 L   6.802 -73.045150.3  RSN  5 0.2 1.6LRSN                1
 GAP=170        0.46       2.7     5.6  5.5 -0.2038E+01 -0.5080E+01  0.2041E+01E
 Epicentro: LOS SANTOS - SANTANDER                                             3
 ACTION:UP  10-09-07 10:54 OP:vdl  STATUS:               ID:20100814075240 L   I
 2010-08-14-0750-59S.COL___111                                                 6
 STAT SP IPHASW D HRMM SECON CODA AMPLIT PERI AZIMU VELO SNR AR TRES W  DIS CAZ7
 BAR2 SZ EP   1    753  1.15                             169    -0.1 7   28 213 
 BAR2 SZ I         753 17.86        15.7 0.16                            28 213 
 BRR  HZ EP        753  3.13                             150     0.010   81 295 
 BRR  HE ES   1    753 20.47                             150     0.0 7   81 295 
 BRR  HZ I         753 22.89         5.0 0.18                            81 295 
 RUS  HZ EP   2    753  5.24                             145     0.1 5  101 182 
 RUS  HN ES   1    753 23.95                             145    -0.1 7  101 182 
 RUS  HZ I         753 25.62         5.3 0.27                           101 182 
 GRA  SZ EP   1    753  6.06                             139    -0.3 7  123  13 
 GRA  SZ ES   1    753 26.40                             139     0.2 7  123  13 
 GRA  SZ I         753 30.60         3.5 0.42                           123  13 
 CHI  HZ EP   1    753 19.52                             118     0.3 6  252 198 
 CHI  HZ I         753 49.35         3.3 0.81                           252 198 
                                                                                
