 2011  614 0346 35.5 L   6.323 -73.713102.4  RSN  6 0.4 1.7LRSN                1
 GAP=174        0.97      10.0    10.8 12.8 -0.7069E+02  0.1716E+01 -0.1872E+02E
 Epicentro: SANTA HELENA DEL OPON - SANTANDER                                  3
 ACTION:UP  11-07-14 19:05 OP:ep   STATUS:               ID:20110614034635 L   I
 2011-06-14-0340-00M.COL___122                                                 6
 STAT SP IPHASW D HRMM SECON CODA AMPLIT PERI AZIMU VELO SNR AR TRES W  DIS CAZ7
 BAR2 SZ EP   1    346 52.00                             145    -0.1 7   66  63 
 BAR2 SZ ES   2    347  4.56                             145    -0.5 5   66  63 
 BAR2 SZ I         347  8.37        14.1 0.27                            66  63 
 BTL  SZ EP        346 54.01                             138     0.710   82  37 
 BRR  HZ EP   1    346 53.33                             136    -0.1 7   87   0 
 BRR  HZ I         346 53.59        10.4 0.15                            87   0 
 BRR  HN ES   2    347  7.62                             136     0.3 5   87   0 
 NOR  SN ES   2    347 18.35                             119    -0.7 5  153 237 
 BRI  SZ EP        347  3.63                             113     0.1 9  184  33 
 BRI  SZ I         347 28.07         8.8 0.21                           184  33 
 GRA  SZ EP        347  5.04                             111    -0.2 9  200  30 
 GRA  SZ ES        347 27.98                             111    -0.5 9  200  30 
 GRA  SZ I         347 34.90         4.1 0.45                           200  30 
                                                                                
