 2011  714 0209 47.2 L   6.769 -73.097153.3  RSN  5 0.2 1.2LRSN                1
 GAP=164        0.40       2.4     5.2  3.8 -0.9538E+00 -0.5846E+01 -0.8757E+00E
 Epicentro: LOS SANTOS - SANTANDER                                             3
 ACTION:UPD 12-07-25 14:00 OP:epov STATUS:               ID:20110714020947 L   I
 2011-07-14-0205-58S.COL___132                                                 6
 STAT SP IPHASW D HRMM SECON CODA AMPLIT PERI AZIMU VELO AIN AR TRES W  DIS CAZ7
 BAR2 SZ EP   1    210  7.60                             172   -0.08 8 21.7 206 
 BAR2 SZ I         210  7.89         3.7 0.23                          21.7 206 
 BAR2 SZ ES   1    210 23.66                             172   -0.02 8 21.7 206 
 GIR2 SZ EP   1    210  8.06                             166    0.19 8 35.8 343 
 GIR2 SZ ES   1    210 23.75                             166   -0.26 8 35.8 343 
 BRR  HZ EP   1    210  9.62                             152    0.12 8 77.5 299 
 BRR  HZ I         210 10.62         4.4 0.11                          77.5 299 
 BRR  HN ES   1    210 26.92                             152    0.01 8 77.5 299 
 RUS  HZ EP   1    210 11.42                             146   -0.01 8 96.9 179 
 RUS  HZ I         210 12.54         2.4 0.19                          96.9 179 
 RUS  HE ES   1    210 30.44                             146    0.10 8 96.9 179 
 GRA  SZ EP        210 13.05                             138   -0.2010  128  15 
 GRA  SZ ES   1    210 33.88                             138    0.30 7  128  15 
 GRA  SZ I         210 34.74         1.4 0.43                           128  15 
                                                                                
