 2013  714 0820 45.3 L   6.806 -73.170146.6  RSN 10 0.3 1.6LRSN                1
 GAP=133        0.86       3.4     4.2  4.8 -0.3939E+01  0.2034E+01  0.5852E+01E
 Epicentro: LOS SANTOS - SANTANDER                                             3
 ACTION:UPD 13-08-12 10:37 OP:ep   STATUS:               ID:20130714082045 L   I
 OLDACT:REG 13-07-14 07:36 OP:nd   STATUS:               ID:20130714081959     3
 2013-07-14-0819-59M.COL___267                                                 6
 STAT SP IPHASW D HRMM SECON CODA AMPLIT PERI AZIMU VELO AIN AR TRES W  DIS CAZ7
 BAR2 SZ EP        821  4.68                             170   -0.3510 23.6 183 
 BAR2 SZ ES        821 20.00                             170   -0.4210 23.6 183 
 BAR2 SZ I         821 21.18        11.1 0.22            170           23.6 183 
 GIR2 SZ EP        821  4.78                             168   -0.2610 30.3 355 
 GIR2 SZ ES        821 20.71                             168    0.2710 30.3 355 
 GIR2 SZ I         821 22.05         4.5 0.20            168           30.3 355 
 BRR  HZ IP     C  821  6.74                             154    0.3510 68.6 299 
 BRR  HN ES        821 23.36                             154    0.5210 68.6 299 
 BRR  HZ I         821 26.50         6.2 0.40            153           68.6 299 
 PAM  SZ EP        821  7.92                             151    0.2410 78.6  41 
 PAM  SN ES        821 24.87                             151   -0.2610 78.6  41 
 PAM  SZ I         821 27.14         7.9 0.40            153           78.6  41 
 RUS  HZ EP        821  9.25                             144    0.0610  101 175 
 RUS  HN ES        821 27.99                             144    0.1710  101 175 
 RUS  HZ I         821 28.70         6.7 0.26            145            101 175 
 PTB  HZ EP        821 11.57                             133   -0.54 9  145 258 
 PTB  HN ES        821 32.61                             133   -0.41 9  145 258 
 PTB  HZ I         821 34.77         5.7 0.16            133            145 258 
 SPBC HZ EP        821 13.89                             129    0.14 9  162 218 
 SPBC HN ES        821 36.22                             129    0.28 9  162 218 
 CHI  HZ EP        821 23.03                             117   -0.00 8  249 195 
 CHI  HN ES        821 52.61                             117    0.15 8  249 195 
 CHI  HZ I         821 55.78         2.9 0.34            118            249 195 
 PRA  HZ EP        821 39.48                             107    0.72 6  391 209 
 PRA  HN ES        822 19.94                             107   -0.51 6  391 209 
 PRA  HZ I         822 25.47         2.6 0.66            107            391 209 
 SJC  HZ EP   4    821 39.21                             106   -1.45 0  407 327 
 SJC  HN ES   4    822 19.79                             106   -4.05 0  407 327 
 SJC  HZ I         822 24.65         1.3 0.58            107            407 327 
                                                                                
