 2017 1014 0721 27.4 L   6.704 -73.165131.8  RSN  5 0.4 0.9LRSN                1
 GAP=228        0.62       4.8     4.9  5.1  0.1165E+02  0.8574E+01 -0.2787E+00E
 Epicentro: VILLANUEVA - SANTANDER                                             3
 ACTION:UPD 17-11-07 19:31 OP:rebc STATUS:               ID:20171014072127 L   I
 OLDACT:UP  17-10-14 16:09 OP:osc  STATUS:               ID:20171014071634d    3
 OLDACT:UP  17-10-14 15:55 OP:osc  STATUS:               ID:20171014071634d    3
 OLDACT:UP  17-10-14 15:53 OP:osc  STATUS:               ID:20171014071634d    3
 OLDACT:DUP 17-10-14 15:43 OP:osc  STATUS:               ID:20171014071634d    3
 2017-10-14-0718-00M.COL___396                                                 6
 STAT SP IPHASW D HRMM SECON CODA AMPLIT PERI AZIMU VELO AIN AR TRES W  DIS CAZ7
 BAR2 EZ EP        721 45.42                             174    0.2510 12.6 189 
 BAR2 EZ ES        721 59.00                             174   -0.0210 12.6 189 
 BAR2 EZ I         721 59.50         3.7 0.24            170           12.6 189 
 BRR  HZ EP   4    721 32.02                             148   -15.3 0 75.1 306 
 BRR  HE ES        722  2.64                             148   -0.1810 75.1 306 
 RUS  HZ EP   3    721 47.36                             144   -1.67 2 90.2 174 
 RUS  HN ES        722  5.78                             144   -0.1210 90.2 174 
 RUS  HZ I         722  6.80         1.2 0.28            142           90.2 174 
 PTB  HZ EP        721 52.90                             129   -0.01 9  144 263 
 PTB  HE ES        722 12.98                             129    0.18 9  144 263 
 PTB  HZ I         722 15.90         1.0 0.10            128            144 263 
 ZAR  HZ EP        721 59.34                             118    0.12 8  206 295 
 ZAR  HE ES   3    722 22.50                             118   -1.53 2  206 295 
                                                                                
