 2013  714 0353 29.2 L   6.787 -73.132146.4  RSN 17 0.4 2.1LRSN                1
 GAP=139        0.90       2.4     3.5  4.0 -0.1640E+01  0.3653E+01  0.1491E+01E
 Epicentro: LOS SANTOS - SANTANDER                                             3
 ACTION:UPD 13-08-12 10:37 OP:ep   STATUS:               ID:20130714035329 L   I
 OLDACT:REG 13-07-14 07:19 OP:nd   STATUS:               ID:20130714034959     3
 2013-07-14-0349-59M.COL___267                                                 6
 STAT SP IPHASW D HRMM SECON CODA AMPLIT PERI AZIMU VELO AIN AR TRES W  DIS CAZ7
 BAR2 SZ IP     C  353 48.90                             171   -0.0110 22.2 194 
 BAR2 SZ ES        354  3.83                             171   -0.4410 22.2 194 
 BAR2 SZ I         354  6.83        29.5 0.34            169           22.2 194 
 GIR2 SZ EP        353 48.97                             167   -0.0510 33.0 348 
 GIR2 SZ ES        354  4.73                             167    0.2710 33.0 348 
 GIR2 SZ I         354  5.22        14.4 0.10            164           33.0 348 
 BRR  HZ IP     D  353 50.80                             152    0.2410 73.2 299 
 BRR  HN ES        354  7.72                             152    0.5310 73.2 299 
 BRR  HZ I         354 14.51        16.3 0.48            149           73.2 299 
 PAM  SZ EP        353 51.79                             151    0.2710 77.6  38 
 PAM  SN ES        354  8.70                             151   -0.2110 77.6  38 
 PAM  SZ I         354 11.14        12.8 0.50            154           77.6  38 
 RUS  HZ EP     D  353 52.77                             144   -0.1610 99.1 177 
 RUS  HN ES        354 11.63                             144    0.2110 99.1 177 
 RUS  HZ I         354 13.20        16.9 0.38            146           99.1 177 
 PTB  HZ EP        353 55.49                             132   -0.86 9  149 259 
 PTB  HN ES        354 16.96                             132   -0.55 9  149 259 
 PTB  HZ I         354 18.96        24.1 0.42            131            149 259 
 OCA  HZ EP        353 57.99                             129    0.25 9  162 353 
 OCA  HN ES        354 19.94                             129   -0.03 9  162 353 
 OCA  HZ I         354 23.81        10.1 0.30            130            162 353 
 SPBC HZ EP        353 57.75                             129   -0.00 9  163 220 
 SPBC HN ES        354 20.16                             129    0.15 9  163 220 
 ZAR  HZ EP        354  1.53                             122   -0.38 8  206 292 
 ZAR  HE ES        354 27.30                             122   -0.10 8  206 292 
 ZAR  HZ I         354 33.95        20.3 0.32            122            206 292 
 NOR  HZ EP        354  5.24                             119    0.21 8  235 235 
 NOR  HN ES        354 33.35                             119    0.39 8  235 235 
 NOR  HZ I         354 37.16        16.0 0.20            119            235 235 
 SML  HZ EP        354  5.66                             117   -0.43 8  246 335 
 SML  HN ES   4    354 36.19                             117    1.34 0  246 335 
 SML  HZ I         354 43.91        19.9 0.28            118            246 335 
 CHI  HZ EP        354  6.99                             117    0.14 8  248 196 
 CHI  HN ES        354 35.90                             117   -0.30 8  248 196 
 CHI  HZ I         354 45.89         5.7 0.36            118            248 196 
 HEL  HZ EP   2    354 10.22                             115    0.63 4  273 256 
 HEL  HN ES   2    354 41.65                             115    0.58 4  273 256 
 HEL  HZ I         354 48.04         9.1 0.38            115            273 256 
 GUY2CHZ EP        354 13.95                             112    1.05 7  302 235 
 GUY2CHN ES   4    354 48.20                             112    1.23 0  302 235 
 GUY2CHZ I         354 55.73         7.8 0.74                           302 235 
 PRA  HZ EP        354 22.56                             107   -0.14 6  391 210 
 PRA  HN ES        355  3.72                             107   -0.70 6  391 210 
 PRA  HZ I         355  8.95         5.5 0.26            107            391 210 
 ORTC HZ EP        354 23.62                             106    0.49 6  395 216 
 ORTC HN ES   4    355  6.25                             106    1.07 0  395 216 
 ORTC HZ I         355 12.32         5.0 0.70            107            395 216 
 SJC  HZ EP   4    354 23.09                             106   -1.95 0  411 327 
 SJC  HN ES   4    355  4.65                             106   -3.93 0  411 327 
 SJC  HZ I         355 12.25         2.2 0.44            106            411 327 
                                                                                
