 2016  614 0630 41.5 L   6.915 -73.139149.9  RSN 18 0.5 2.1LRSN                1
 GAP=131        0.99       3.0     3.6  5.2 -0.2665E+01  0.4788E+01  0.3342E+01E
 Epicentro: PIEDECUESTA - SANTANDER                                            3
 ACTION:UPD 16-07-21 22:18 OP:rebc STATUS:               ID:20160614063041 L   I
 OLDACT:REG 16-06-14 12:37 OP:dnl  STATUS:               ID:20160614062745     3
 2016-06-14-0627-45M.COL___295                                                 6
 STAT SP IPHASW D HRMM SECON CODA AMPLIT PERI AZIMU VELO AIN AR TRES W  DIS CAZ7
 BAR2 EZ EP        631  1.61                             166   -0.3310 36.0 188 
 BAR2 EZ ES        631 17.39                             166   -0.4910 36.0 188 
 BAR2 EZ I         631 18.06        21.4 0.16                          36.0 188 
 BRR  HZ EP     C  631  3.02                             155    0.1610 66.8 289 
 BRR  HE ES        631 20.36                             155    0.8510 66.8 289 
 BRR  HZ I         631 23.09        26.9 0.10                          66.8 289 
 PAM  EZ EP        631  3.91                             155    0.3010 67.6  46 
 PAM  EE ES        631 21.03                             155    0.1710 67.6  46 
 PAM  EZ I         631 23.04        50.0 0.38                          67.6  46 
 RUS  HZ EP        631  6.71                             141    0.1310  113 177 
 RUS  HN ES   2    631 25.59                             141   -0.56 5  113 177 
 RUS  HZ I         631 27.79         5.3 0.27                           113 177 
 OCA  HZ EP        631  8.72                             133   -0.27 9  148 352 
 OCA  HE ES        631 30.43                             133   -0.01 9  148 352 
 OCA  HZ I         631 34.38        30.7 0.14                           148 352 
 PTB  HZ EP        631  8.28                             132   -0.85 9  151 254 
 PTB  HE ES        631 29.92                             132   -0.77 9  151 254 
 PTB  HZ I         631 31.35        14.2 0.20                           151 254 
 SPBC HZ EP        631 11.44                             128    0.13 9  174 217 
 SPBC HN ES        631 35.00                             128    0.44 9  174 217 
 SPBC HZ I         631 38.65        17.5 0.20                           174 217 
 ZAR  HZ EP        631 13.43                             124   -0.40 9  200 289 
 ZAR  HN ES        631 39.40                             124    0.35 9  200 289 
 ZAR  HZ I         631 45.03        37.3 0.32                           200 289 
 NOR  HZ EP   2    631 17.36                             118   -0.98 4  243 232 
 NOR  HN ES        631 46.91                             118   -0.17 8  243 232 
 NOR  HZ I         631 53.28        10.3 0.16                           243 232 
 CHI  HZ EP   2    631 20.80                             117    0.02 4  261 195 
 CHI  HE ES        631 51.39                             117   -0.02 8  261 195 
 CHI  HZ I         631 57.27         5.8 0.38                           261 195 
 ROSC BZ EP   4    631 23.25                             116    2.18 0  264 210 
 ROSC BE ES   4    631 54.47                             116    2.53 0  264 210 
 ROSC BZ I         631 59.43         6.4 0.70                           264 210 
 HEL  HZ EP   2    631 23.05                             115    0.68 4  276 253 
 HEL  HN ES        631 54.04                             115   -0.21 7  276 253 
 HEL  HZ I         632  1.39         6.3 0.30                           276 253 
 URE  HZ EP   2    631 21.36                             115   -0.99 4  280 289 
 URE  HN ES   4    631 51.63                             115   -2.58 0  280 289 
 URE  HZ I         632  2.78        10.1 0.32                           280 289 
 GUY2CHZ EP   2    631 26.64                             112    0.43 4  309 233 
 GUY2CHE ES        632  1.22                             112    0.14 7  309 233 
 GUY2CHZ I         632 11.08         5.6 0.30                           309 233 
 CBOC HZ EP        631 29.62                             110    0.49 7  338 250 
 CBOC HN ES        632  6.67                             110    0.38 7  338 250 
 CBOC HZ I         632 16.77         1.9 0.34                           338 250 
 SJC  HZ EP   4    631 34.76                             107   -1.25 0  399 326 
 SJC  HN ES   4    632 15.03                             107   -3.50 0  399 326 
 SJC  HZ I         632 19.37         2.1 0.31                           399 326 
 PRA  HZ EP        631 36.56                             107    0.06 6  403 209 
 PRA  HE ES        632 19.98                             107    0.59 6  403 209 
 PRA  HZ I         632 23.95         6.6 0.26                           403 209 
 ORTC HZ EP        631 37.73                             106    0.92 6  406 215 
 ORTC HN ES   4    632 21.05                             106    1.09 0  406 215 
 ORTC HZ I         632 27.97         2.7 0.30                           406 215 
                                                                                
