 2017 1214 0856 55.9 L   6.773 -73.164141.2  RSN  4 0.3 1.4LRSN                1
 GAP=147        0.82       7.2     4.9  8.0 -0.8619E+01  0.2266E+02 -0.1016E+02E
 Epicentro: LOS SANTOS - SANTANDER                                             3
 ACTION:UPD 18-01-04 13:20 OP:rebc STATUS:               ID:20171214085655 L   I
 OLDACT:REG 17-12-14 13:28 OP:osc  STATUS:               ID:20171214084740     3
 2017-12-14-0848-00M.COL___459                                                 6
 STAT SP IPHASW D HRMM SECON CODA AMPLIT PERI AZIMU VELO AIN AR TRES W  DIS CAZ7
 BAR2 EZ EP        857 14.96                             172    0.0010 20.0 186 
 BAR2 EZ ES        857 30.05                             172    0.2510 20.0 186 
 BAR2 EZ I         857 30.95         3.8 0.26            173           20.0 186 
 PAM  EE ES        857 34.85                             149   -0.1810 81.0  39 
 PTB  HZ EP        857 21.82                             131   -0.49 9  145 260 
 PTB  HN ES        857 42.82                             131   -0.06 9  145 260 
 PTB  HZ I         857 45.60         2.5 0.16            132            145 260 
 ZAR  HZ EP        857 28.70                             121    0.67 9  203 293 
 ZAR  HN ES        857 52.96                             121   -0.09 9  203 293 
 ZAR  HZ I         857 59.09         3.4 0.40            122            203 293 
                                                                                
