 2010 1014 0637 23.2 L   6.805 -73.082136.0  RSN  7 0.3 1.6LRSN                1
 GAP=196        0.47       5.8     8.7  8.8 -0.4020E+02 -0.3810E+02  0.2738E+02E
 Epicentro: LOS SANTOS - SANTANDER                                             3
 ACTION:UP  11-02-18 11:09 OP:tino STATUS:               ID:20101014063723 L   I
 2010-10-14-0635-06S.COL___126                                                 6
 STAT SP IPHASW D HRMM SECON CODA AMPLIT PERI AZIMU VELO SNR AR TRES W  DIS CAZ7
 BTL  SZ EP   2    637 41.08                             170    -0.6 5   24 301 
 BRR  HZ EP        637 43.72                             149     0.110   77 296 
 BRR  HZ I         637 44.07        12.6 0.11                            77 296 
 BRR  HE ES   2    638  0.00                             149     0.4 5   77 296 
 GUE  SZ EP   2    637 46.94                             138     0.1 5  115   9 
 GRA  SZ EP   1    637 47.66                             136     0.3 7  123  14 
 GRA  SZ ES   2    638  6.23                             136     0.0 5  123  14 
 GRA  SZ I         638  8.34         4.3 0.32                           123  14 
 OCA  SZ EP        637 50.68                             128    -0.1 9  161 351 
 OCA  SZ ES   2    638 12.00                             128    -0.3 5  161 351 
 OCA  SZ I         638 18.13         3.6 0.19                           161 351 
 NOR  SN ES   2    638 26.95                             116    -0.1 4  241 235 
 PRA  HZ EP   2    638 17.12                             105     0.3 3  396 210 
 PRA  HE ES   2    638 58.52                             105    -0.2 3  396 210 
                                                                                
