 2011  414 0447 13.8 L   6.777 -73.125150.3  RSN  4 0.4 1.6LRSN                1
 GAP=160        0.79      12.1    12.3 11.4 -0.2018E+02 -0.6617E+01 -0.4347E+02E
 Epicentro: LOS SANTOS - SANTANDER                                             3
 ACTION:UP  11-06-22 15:30 OP:REBC STATUS:               ID:20110414044713 L   I
 2011-04-14-0441-18S.COL___134                                                 6
 STAT SP IPHASW D HRMM SECON CODA AMPLIT PERI AZIMU VELO SNR AR TRES W  DIS CAZ7
 BAR2 SZ EP   1    447 34.06                             172     0.1 7   21 197 
 BAR2 SZ ES   2    447 48.94                             172    -0.7 5   21 197 
 BAR2 SZ I         447 50.71        24.9 0.19                            21 197 
 BRR  HZ EP   2    447 35.78                             152     0.1 5   74 299 
 BRR  HZ I         447 37.85         8.5 0.11                            74 299 
 BRR  HN ES   2    447 53.14                             152     0.5 5   74 299 
 PAM  SZ EP   1    447 36.96                             151     0.4 7   78  37 
 PAM  SZ I         447 37.32         2.8 0.20                            78  37 
 PAM  SN ES   2    447 54.39                             151     0.1 5   78  37 
 OCA  SZ EP   1    447 42.23                             130    -0.5 7  163 352 
                                                                                
