 2016 1214 0552 50.0 L   6.737 -73.150159.4  RSN  5 0.1 1.4LRSN                1
 GAP=232        0.38       3.1     2.8  3.0  0.5274E+01  0.7596E+00 -0.2970E+00E
 Epicentro: LOS SANTOS - SANTANDER                                             3
 ACTION:UPD 17-01-11 20:14 OP:rebc STATUS:               ID:20161214055250 L   I
 OLDACT:UP  16-12-14 16:34 OP:e    STATUS:               ID:20161214054743     3
 OLDACT:REG 16-12-14 12:29 OP:and  STATUS:               ID:20161214054743     3
 2016-12-14-0548-00M.COL___380                                                 6
 STAT SP IPHASW D HRMM SECON CODA AMPLIT PERI AZIMU VELO AIN AR TRES W  DIS CAZ7
 BAR2 EZ EP        553 11.05                             174   -0.1110 16.4 193 
 BAR2 EZ ES        553 27.74                             174    0.0710 16.4 193 
 BRR  HZ EP        553 13.01                             154    0.2110 74.3 303 
 BRR  HN ES        553 30.46                             154   -0.1310 74.3 303 
 RUS  HZ EP        553 14.71                             148    0.0510 93.7 175 
 RUS  HN ES        553 33.86                             148   -0.0410 93.7 175 
 RUS  HZ I         553 34.98         4.0 0.34            146           93.7 175 
 PTB  HZ EP        553 17.81                             135   -0.16 9  146 261 
 PTB  HN ES        553 39.87                             135    0.09 9  146 261 
 PTB  HZ I         553 44.33         2.2 0.20            131            146 261 
 ZAR  HZ EP   4    553 25.39                             125    1.80 0  206 294 
 ZAR  HN ES        553 49.80                             125    0.00 8  206 294 
 ZAR  HZ I         553 56.25         3.6 0.30            123            206 294 
                                                                                
