 2015  414 0222  5.8 L   6.411 -73.728 95.6  RSN  6 0.4 1.4LRSN                1
 GAP=105        0.97       3.6     3.2  7.8  0.2086E+01  0.9826E+01  0.5437E+01E
 Epicentro: SANTA HELENA DEL OPON - SANTANDER                                  3
 ACTION:UPD 15-06-03 16:54 OP:cam  STATUS:               ID:20150414022205 L   I
 OLDACT:UP  15-04-14 16:09 OP:nlst STATUS:               ID:20150414022205 L   3
 OLDACT:REG 15-04-14 12:36 OP:carl STATUS:               ID:20150414021750     3
 2015-04-14-0217-50M.COL___269                                                 6
 STAT SP IPHASW D HRMM SECON CODA AMPLIT PERI AZIMU VELO AIN AR TRES W  DIS CAZ7
 BAR2 EZ EP        222 21.98                             144    0.4310 63.6  72 
 BAR2 EZ ES        222 34.38                             144    0.5110 63.6  72 
 BAR2 EZ I         222 35.50        11.6 0.42            149           63.6  72 
 BRR  HZ EP        222 22.05                             138   -0.2110 77.0   1 
 BRR  HN ES        222 35.13                             138    0.0010 77.0   1 
 BRR  HZ I         222 35.35         5.1 0.30            143           77.0   1 
 PTB  HZ EP        222 22.28                             136   -0.4110 81.8 280 
 PTB  HN ES        222 35.46                             136   -0.4210 81.8 280 
 PTB  HZ I         222 38.22         8.5 0.14            138           81.8 280 
 RUS  HZ EP        222 23.64                             133   -0.5410 91.5 129 
 RUS  HN ES        222 38.30                             133   -0.2410 91.5 129 
 RUS  HZ I         222 39.79         4.4 0.36            136           91.5 129 
 NOR  HZ EP        222 30.57                             117    0.28 9  157 234 
 NOR  HE ES        222 49.96                             117    0.54 9  157 234 
 NOR  HZ I         222 53.67         2.7 0.16            118            157 234 
 ZAR  HZ EP        222 32.11                             115    0.14 9  173 314 
 ZAR  HN ES        222 52.52                             115    0.11 9  173 314 
                                                                                
