 2013  914 0906 26.7 L   6.845 -73.161146.9  RSN 12 0.5 2.0LRSN                1
 GAP=132        1.06       2.9     4.5  5.6 -0.1393E+01  0.4553E+01  0.1048E+01E
 Epicentro: LOS SANTOS - SANTANDER                                             3
 ACTION:UPD 13-10-22 09:22 OP:ep   STATUS:               ID:20130914090626 L   I
 OLDACT:REG 13-09-14 08:33 OP:carl STATUS:               ID:20130914085959     3
 2013-09-14-0859-59M.COL___269                                                 6
 STAT SP IPHASW D HRMM SECON CODA AMPLIT PERI AZIMU VELO AIN AR TRES W  DIS CAZ7
 BAR2 SZ EP        9 6 46.52                             169   -0.0910 28.1 185 
 BAR2 SZ ES        9 7  2.05                             169   -0.0610 28.1 185 
 BAR2 SZ I         9 7  2.97        11.6 0.38            169           28.1 185 
 BRR  HZ EP        9 6 48.18                             154    0.3810 67.5 295 
 BRR  HN ES        9 7  5.09                             154    0.8510 67.5 295 
 BRR  HZ I         9 7  8.68        15.0 0.14            152           67.5 295 
 PAM  SZ EP        9 6 49.08                             152    0.1610 74.7  43 
 PAM  SN ES   1    9 7  6.11                             152   -0.11 7 74.7  43 
 PAM  SZ I         9 7  7.99        34.4 0.46            155           74.7  43 
 RUS  HZ EP        9 6 50.76                             143   -0.2110  106 175 
 RUS  HN ES   1    9 7  9.89                             143    0.01 7  106 175 
 RUS  HZ I         9 7 11.37         6.6 0.32            145            106 175 
 PTB  HZ EP        9 6 53.10                             132   -0.65 9  147 257 
 PTB  HN ES   1    9 7 13.85                             132   -0.96 7  147 257 
 PTB  HZ I         9 7 17.42        12.1 0.20            132            147 257 
 OCA  HZ EP        9 6 55.12                             131    0.46 9  155 354 
 OCA  HN ES   1    9 7 15.70                             131   -0.73 7  155 354 
 OCA  HZ I         9 7 22.45        10.7 0.34            132            155 354 
 SPBC HZ EP        9 6 55.82                             129    0.22 9  166 217 
 SPBC HN ES        9 7 17.89                             129   -0.22 9  166 217 
 SPBC HZ I         9 7 23.84        15.4 0.26            130            166 217 
 ZAR  HZ EP        9 6 59.27                             123    0.36 9  201 291 
 ZAR  HN ES        9 7 24.50                             123    0.49 9  201 291 
 ZAR  HZ I         9 7 30.15        11.9 0.32            123            201 291 
 NOR  HZ EP        9 7  3.00                             119    0.30 8  236 233 
 NOR  HN ES        9 7 30.62                             119   -0.14 8  236 233 
 NOR  HZ I         9 7 33.77        10.1 0.20            120            236 233 
 SML  HZ EP        9 7  2.12                             118   -0.74 8  238 335 
 SML  HN ES        9 7 30.40                             118   -0.64 8  238 335 
 SML  HZ I         9 7 38.46        23.0 0.10            119            238 335 
 CHI  HZ EP        9 7  5.16                             117    0.19 8  253 195 
 CHI  HN ES   1    9 7 34.16                             117   -0.64 6  253 195 
 CHI  HZ I         9 7 40.12         6.0 0.34            119            253 195 
 PRA  HZ EP        9 7 21.32                             107    0.61 6  396 209 
 PRA  HN ES        9 8  3.03                             107    0.22 6  396 209 
 PRA  HZ I         9 8  7.13         4.7 0.20            108            396 209 
                                                                                
