 2015 1214 0602  5.0 L   6.843 -73.346127.5  RSN  9 0.3 1.8LRSN                1
 GAP= 94        0.76       2.3     2.7  4.4 -0.1383E+00  0.2730E+01 -0.2183E+01E
 Epicentro: SAN VICENTE DE CHUCURI - SANTANDER                                 3
 ACTION:UPD 16-02-04 15:04 OP:cam  STATUS:               ID:20151214060205 L   I
 OLDACT:REG 15-12-14 13:20 OP:cara STATUS:               ID:20151214055749     3
 2015-12-14-0557-49M.COL___330                                                 6
 STAT SP IPHASW D HRMM SECON CODA AMPLIT PERI AZIMU VELO AIN AR TRES W  DIS CAZ7
 BAR2 EZ EP     C  6 2 22.76                             165    0.0810 33.1 147 
 BAR2 EZ ES        6 2 36.34                             165   -0.1510 33.1 147 
 BAR2 EZ I         6 2 37.11        39.2 0.40            168           33.1 147 
 BRR  HZ EP        6 2 23.21                             157    0.2210 49.9 306 
 BRR  HE ES        6 2 37.58                             157    0.5310 49.9 306 
 BRR  HZ I         6 2 38.09        13.1 0.12            155           49.9 306 
 PAM  EZ EP        6 2 26.40                             143    0.2310 90.1  52 
 PAM  EN ES        6 2 42.45                             143   -0.2510 90.1  52 
 PAM  EZ I         6 2 46.06         5.6 0.40            146           90.1  52 
 RUS  HZ EP        6 2 27.79                             137    0.1410  109 164 
 RUS  HE ES        6 2 45.31                             137   -0.0410  109 164 
 RUS  HZ I         6 2 46.25         5.9 0.24            140            109 164 
 PTB  HZ EP        6 2 28.33                             132   -0.2510  127 255 
 PTB  HE ES        6 2 46.62                             132   -0.3810  127 255 
 PTB  HZ I         6 2 50.99         5.3 0.30            132            127 255 
 OCA  HZ EP        6 2 30.84                             126   -0.51 9  154   1 
 OCA  HN ES   4    6 2 50.76                             126   -1.16 0  154   1 
 OCA  HZ I         6 2 52.12        21.3 0.24            127            154   1 
 SPBC HZ EP        6 2 31.01                             126   -0.23 9  154 211 
 SPBC HN ES        6 2 51.87                             126    0.14 9  154 211 
 SPBC HZ I         6 2 56.99         4.9 0.08            127            154 211 
 ZAR  HZ EP        6 2 34.39                             121    0.46 9  182 293 
 ZAR  HN ES        6 2 56.38                             121   -0.14 9  182 293 
 ZAR  HZ I         6 3  2.07         5.1 0.26            122            182 293 
 SML  HZ EP        6 2 39.59                             115    0.38 8  231 340 
 SML  HE ES        6 3  5.68                             115   -0.23 8  231 340 
 SML  HZ I         6 3 11.44        11.0 0.32            116            231 340 
                                                                                
