 2010  314 0244 45.8 L   6.795 -73.068150.8  RSN  8 0.3 1.9LRSN                1
 GAP=191        0.52       2.5     5.4  5.1  0.8575E+00  0.2700E+01  0.1031E+01E
 Epicentro: LOS SANTOS - SANTANDER                                             3
 ACTION:UP  10-08-24 09:53 OP:vdl  STATUS:               ID:20100314024445 L   I
 2010-03-14-0239-43S.COL___095                                                 6
 STAT SP IPHASW D HRMM SECON CODA AMPLIT PERI AZIMU VELO SNR AR TRES W  DIS CAZ7
 BAR2 SZ IP        245  6.04                             170     0.010   26 210 
 BAR2 SZ ES   2    245 21.20                             170    -0.7 5   26 210 
 BRR  HZ IP        245  8.00                             151     0.110   79 296 
 BRR  HE ES   1    245 25.43                             151     0.2 7   79 296 
 BRR  HZ I         245 29.45        13.8 0.13                            79 296 
 RUS  HZ EP   1    245 10.17                             145     0.2 7  100 181 
 RUS  HN ES   1    245 28.83                             145     0.0 7  100 181 
 RUS  HZ I         245 30.09         7.4 0.44                           100 181 
 OCA  SZ EP   1    245 14.43                             130    -0.2 7  162 350 
 OCA  SZ ES   1    245 37.29                             130     0.1 7  162 350 
 OCA  SZ I         245 41.25        23.4 0.44                           162 350 
 CHI  HZ EP   2    245 24.12                             118     0.2 4  251 197 
 CHI  HN ES   2    245 53.42                             118    -0.3 4  251 197 
 CHI  HZ I         246  1.67         3.7 0.41                           251 197 
 HEL  HE ES   2    245 58.98                             115    -0.4 4  280 256 
 HEL  HZ I         246  5.21         3.7 0.60                           280 256 
 DBB  SZ EP   2    245 34.10                             110    -0.3 3  348 274 
 PRA  HZ EP   2    245 39.60                             107    -0.3 3  396 211 
 PRA  HE ES   1    246 22.65                             107     0.5 4  396 211 
 PRA  HZ I         246 27.06         3.5 0.23                           396 211 
                                                                                
