 2017 1014 0724 16.9 L   6.771 -73.131146.1  RSN  7 0.4 1.5LRSN                1
 GAP=237        0.99       5.2     6.4  6.5  0.1841E+02  0.8847E+01  0.5285E+01E
 Epicentro: LOS SANTOS - SANTANDER                                             3
 ACTION:UPD 17-11-07 19:31 OP:rebc STATUS:               ID:20171014072416 L   I
 OLDACT:DUP 17-10-14 16:39 OP:osc  STATUS:               ID:20171014071636d    3
 OLDACT:UP  17-10-14 16:09 OP:osc  STATUS:               ID:20171014071634d    3
 OLDACT:UP  17-10-14 15:55 OP:osc  STATUS:               ID:20171014071634d    3
 OLDACT:UP  17-10-14 15:53 OP:osc  STATUS:               ID:20171014071634d    3
 OLDACT:DUP 17-10-14 15:43 OP:osc  STATUS:               ID:20171014071634d    3
 2017-10-14-0718-00M.COL___396                                                 6
 STAT SP IPHASW D HRMM SECON CODA AMPLIT PERI AZIMU VELO AIN AR TRES W  DIS CAZ7
 BAR2 EZ EP        724 36.48                             171   -0.0510 20.5 196 
 BAR2 EZ ES        724 51.29                             171   -0.5410 20.5 196 
 BAR2 EZ I         724 52.70        12.0 0.32            166           20.5 196 
 BRR  HZ EP        724 38.21                             152   -0.0610 74.2 300 
 BRR  HN ES        724 55.50                             152    0.5710 74.2 300 
 RUS  HZ EP        724 40.12                             145   -0.3410 97.2 177 
 RUS  HN ES        724 59.28                             145    0.4510 97.2 177 
 RUS  HZ I         725  0.12         4.7 0.46            144           97.2 177 
 PTB  HZ EP        724 43.43                             132   -0.57 9  149 260 
 PTB  HE ES        725  5.21                             132    0.08 9  149 260 
 PTB  HZ I         725  9.83         3.0 0.14            130            149 260 
 ZAR  HZ EP        724 50.24                             122    0.58 8  207 293 
 ZAR  HE ES        725 14.84                             122   -0.37 8  207 293 
 ZAR  HZ I         725 19.58         3.9 0.50            121            207 293 
 CHI  HZ EP        724 54.79                             117    0.46 8  246 196 
 CHI  HN ES        725 23.48                             117   -0.05 8  246 196 
 CHI  HZ I         725 26.34         2.2 0.30            117            246 196 
 GUY2CHE ES   3    725 33.60                             112   -0.86 2  301 235 
                                                                                
