 2016  314 0516 26.4 L   6.807 -73.175141.3  RSN  9 0.3 1.8LRSN                1
 GAP=133        0.47       2.6     2.8  5.5 -0.2337E+01  0.1834E+00  0.2035E+01E
 Epicentro: LOS SANTOS - SANTANDER                                             3
 ACTION:UPD 16-05-13 21:24 OP:cam  STATUS:               ID:20160314051626 L   I
 OLDACT:REG 16-03-14 12:46 OP:dnl  STATUS:               ID:20160314050747     3
 2016-03-14-0507-47M.COL___292                                                 6
 STAT SP IPHASW D HRMM SECON CODA AMPLIT PERI AZIMU VELO AIN AR TRES W  DIS CAZ7
 PAM  EZ EP        516 48.47                             149    0.2810 78.9  42 
 PAM  EN ES   2    517  5.27                             149    0.05 5 78.9  42 
 PAM  EZ I         517  6.05         6.2 0.18            142           78.9  42 
 RUS  HZ EP        516 49.58                             142   -0.1710  102 174 
 RUS  HN ES   2    517  7.64                             142   -0.36 5  102 174 
 RUS  HZ I         517  9.12         4.5 0.22            136            102 174 
 PTB  HZ EP        516 52.33                             132   -0.36 9  145 258 
 PTB  HN ES        517 13.23                             132    0.01 9  145 258 
 PTB  HZ I         517 15.40         5.7 0.18            118            145 258 
 OCA  HZ EP   2    516 54.00                             129   -0.21 5  159 354 
 OCA  HN ES   2    517 15.88                             129   -0.06 5  159 354 
 OCA  HZ I         517 18.54        18.5 0.24            117            159 354 
 SPBC HZ EP        516 54.49                             128    0.11 9  162 218 
 SPBC HE ES   2    517 16.67                             128    0.43 5  162 218 
 SPBC HZ I         517 24.11        12.6 0.20            117            162 218 
 ZAR  HZ EP   2    516 58.17                             122    0.00 4  201 292 
 ZAR  HZ I         517 29.59         6.3 0.22            110            201 292 
 NOR  HZ EP   2    517  1.51                             118   -0.09 4  233 234 
 NOR  HN ES   2    517 29.27                             118    0.19 4  233 234 
 NOR  HZ I         517 35.61         6.1 0.14            108            233 234 
 CHI  HZ EP   2    517  3.89                             116    0.08 4  249 194 
 CHI  HE ES   2    517 33.09                             116    0.07 4  249 194 
 CHI  HZ I         517 40.29         2.8 0.46            108            249 194 
 GUY2CHZ EP   2    517 10.35                             112    0.84 4  299 234 
 GUY2CHE ES   4    517 45.03                             112    1.85 0  299 234 
 GUY2CHZ I         517 52.29         2.8 0.30                           299 234 
                                                                                
