 2013  414 0129  4.2 L   7.187 -73.957 11.1  RSN  5 0.4 1.8LRSN                1
 GAP=173        1.14       3.9     3.4  6.5 -0.6886E+01 -0.1701E+01  0.7156E+01E
 Epicentro: BARRANCABERMEJA - SANTANDER                                        3
 ACTION:UPD 13-05-22 14:38 OP:EP   STATUS:               ID:20130414012904 L   I
 2013-04-14-0118-52M.COL___215                                                 6
 STAT SP IPHASW D HRMM SECON CODA AMPLIT PERI AZIMU VELO AIN AR TRES W  DIS CAZ7
 BRR  HZ IP        129  9.36                             106    0.1210 28.4 108 
 BRR  HN ES        129 13.62                             106    0.4310 28.4 108 
 BRR  HN I         129 13.98       107.0 0.18            108           28.4 108 
 PTB  HZ EP        129 18.73                              95    0.1810 90.4 218 
 PTB  HN ES        129 29.31                              95   -0.4410 90.4 218 
 OCA  HN ES        129 42.32                              93    0.08 9  136  31 
 OCA  HN I         129 44.11        39.8 0.18             93            136  31 
 PAM  SZ EP        129 26.85                              93    0.34 9  140  83 
 PAM  SE ES        129 42.86                              93   -1.05 9  140  83 
 PAM  SN I         129 45.11         7.2 0.14             93            140  83 
 RUS  HZ EP        129 31.40                              56    0.38 9  173 146 
 RUS  HN ES        129 51.89                              56   -0.05 9  173 146 
                                                                                
