 2017  214 0137 41.9 L   6.797 -73.130144.4  RSN 12 0.5 2.1LRSN                1
 GAP=121        1.04       3.8     4.6  6.2  0.2639E+00  0.1272E+02  0.2500E+01E
 Epicentro: LOS SANTOS - SANTANDER                                             3
 ACTION:UPD 17-05-24 15:36 OP:jn   STATUS:               ID:20170214013742dL   I
 OLDACT:UP  17-02-14 14:11 OP:dani STATUS:               ID:20170214012750d    3
 OLDACT:UP  17-02-14 14:10 OP:dani STATUS:               ID:20170214012750d    3
 OLDACT:DUP 17-02-14 14:06 OP:dani STATUS:               ID:20170214012750d    3
 OLDACT:UP  17-02-14 14:05 OP:dani STATUS:               ID:20170214012749     3
 OLDACT:REG 17-02-14 12:22 OP:dani STATUS:               ID:20170214012749     3
 2017-02-14-0128-00M.COL___358                                                 6
 STAT SP IPHASW D HRMM SECON CODA AMPLIT PERI AZIMU VELO AIN AR TRES W  DIS CAZ7
 BAR2 EZ EP        138  0.94                             170   -0.4610 23.4 194 
 BAR2 EZ ES        138 16.33                             170   -0.2510 23.4 194 
 BAR2 EZ I         138 17.13        42.8 0.28            166           23.4 194 
 BRR  HZ EP     C  138  3.22                             152    0.1810 72.9 298 
 BRR  HN ES        138 20.04                             152    0.5510 72.9 298 
 BRR  HZ I         138 24.24        30.5 0.16            149           72.9 298 
 PAM  EZ EP     D  138  4.31                             151    0.3510 76.6  38 
 PAM  EN ES        138 21.14                             151    0.0110 76.6  38 
 PAM  EZ I         138 23.52        28.2 0.68            157           76.6  38 
 RUS  HZ EP        138  5.32                             144   -0.2010  100 177 
 RUS  HE ES        138 23.83                             144   -0.0810  100 177 
 RUS  HZ I         138 24.76        18.8 0.22            144            100 177 
 PTB  HZ EP        138  8.00                             131   -0.95 9  149 259 
 PTB  HN ES   3    138 28.91                             131   -1.10 2  149 259 
 PTB  HZ I         138 34.42        12.6 0.38            130            149 259 
 ZAR  HZ EP        138 14.18                             122   -0.30 8  206 292 
 ZAR  HE ES        138 40.40                             122    0.55 8  206 292 
 ZAR  HZ I         138 45.23        15.7 0.27            122            206 292 
 NOR  HZ EP        138 18.10                             118    0.38 8  236 235 
 NOR  HE ES        138 45.47                             118   -0.16 8  236 235 
 NOR  HZ I         138 50.94         6.7 0.20            118            236 235 
 CHI  HZ EP   4    138 21.77                             117    2.19 0  249 196 
 CHI  HN ES        138 49.72                             117    0.79 8  249 196 
 CHI  HZ I         138 59.31         3.2 0.41            117            249 196 
 URE  HZ EP        138 22.47                             113   -0.67 7  286 292 
 URE  HE ES   3    138 53.57                             113   -1.70 2  286 292 
 URE  HZ I         139  3.22         7.0 0.18            113            286 292 
 PTGC HZ EP   9    138 24.63                             112   -1.00 0  308 159 
 PTGC HN ES        138 58.07                             111   -0.63 7  308 159 
 PTGC HZ I         139  0.19         6.8 0.37            113            308 159 
 CBOC HZ EP   3    138 30.24                             110    1.26 2  335 252 
 CBOC HE ES        139  6.00                             110    0.34 7  335 252 
 CBOC HZ I         139 12.28         1.7 0.39            110            335 252 
 PRA  HN EP        138 36.00                             106    0.52 6  393 210 
 PRA  HE ES   3    139 18.57                             106    1.33 1  393 210 
 PRA  HN I         139 24.06         4.0 0.28            107            393 210 
                                                                                
