 2011  514 0852 20.5 L   6.743 -73.059146.4  RSN  5 0.2 1.5LRSN                1
 GAP=268        0.59       9.6     6.9  7.2 -0.4120E+02 -0.1772E+02  0.3220E+02E
 Epicentro: JORDAN - SANTANDER                                                 3
 ACTION:UP  11-06-29 08:53 OP:tino STATUS:               ID:20110514085220 L   I
 2011-05-14-0840-00M.COL___142                                                 6
 STAT SP IPHASW D HRMM SECON CODA AMPLIT PERI AZIMU VELO SNR AR TRES W  DIS CAZ7
 GIR2 SZ EP        852 40.93                             164     0.410   40 338 
 GIR2 SZ ES   2    852 56.16                             164     0.0 5   40 338 
 PAM  SZ EP        852 42.45                             151    -0.310   77  31 
 PAM  SN ES   1    853  0.20                             151     0.0 7   77  31 
 BRR  HZ EP        852 42.33                             149    -0.110   83 299 
 BRR  HZ I         852 42.81         7.1 0.15                            83 299 
 BRR  HN ES   1    852 59.41                             149    -0.1 7   83 299 
 BRI  SZ ES   3    853  3.02                             141    -0.6 2  112  15 
 GRA  SZ EP        852 46.23                             136     0.110  129  13 
 GRA  SZ ES   1    853  6.21                             136     0.1 7  129  13 
 GRA  SZ I         853  8.01         3.7 0.13                           129  13 
                                                                                
