 2017  814 0519 56.9 L   6.822 -73.117149.8  RSN  6 0.4 1.1LRSN                1
 GAP=242        0.77       5.1     7.7  7.6 -0.4427E+01  0.4588E+01  0.7503E+01E
 Epicentro: LOS SANTOS - SANTANDER                                             3
 ACTION:UPD 17-09-04 20:20 OP:rebc STATUS:               ID:20170814051956 L   I
 OLDACT:UP  17-08-14 14:19 OP:and  STATUS:               ID:20170814051627     3
 OLDACT:UP  17-08-14 14:18 OP:and  STATUS:               ID:20170814051627     3
 OLDACT:UP  17-08-14 14:18 OP:and  STATUS:               ID:20170814051627     3
 OLDACT:REG 17-08-14 13:10 OP:and  STATUS:               ID:20170814051627     3
 2017-08-14-0518-00M.COL___413                                                 6
 STAT SP IPHASW D HRMM SECON CODA AMPLIT PERI AZIMU VELO AIN AR TRES W  DIS CAZ7
 BAR2 EZ EP        520 17.01                             169   -0.0810 26.4 196 
 BAR2 EZ ES        520 32.30                             169   -0.5310 26.4 196 
 BAR2 EZ I         520 33.64         2.3 0.18            169           26.4 196 
 BRR  HZ EP   2    520 18.96                             152    0.37 5 72.9 296 
 BRR  HE ES   2    520 36.00                             152    0.50 5 72.9 296 
 BRR  HZ I         520 39.85         2.3 0.38            147           72.9 296 
 RUS  HZ EP        520 21.41                             144    0.1910  103 178 
 RUS  HN ES        520 40.55                             144    0.3710  103 178 
 RUS  HZ I         520 40.68         1.0 0.22            147            103 178 
 SPBC HN ES        520 49.00                             129    0.16 9  167 219 
 ZAR  HN ES   3    520 54.59                             123   -0.91 2  206 291 
 ZAR  HZ I         521  0.19         1.6 0.28            121            206 291 
 CHI  HN ES        521  4.63                             117   -0.40 8  252 196 
                                                                                
