 2012 1014 0622 39.2 L   6.858 -73.265125.3  RSN  4 0.2 1.4LRSN                1
 GAP=145        0.46       4.3     7.5  4.5  0.2121E+02 -0.2906E+01  0.5668E+00E
 Epicentro: ZAPATOCA - SANTANDER                                               3
 ACTION:UPD 12-11-22 17:03 OP:ep   STATUS:               ID:20121014062239 L   I
 2012-10-14-0620-00M.COL___231                                                 6
 STAT SP IPHASW D HRMM SECON CODA AMPLIT PERI AZIMU VELO AIN AR TRES W  DIS CAZ7
 GIR2 SZ EP        622 56.34                             167    0.0910 25.7  18 
 GIR2 SZ ES   2    623  9.26                             167   -0.32 5 25.7  18 
 BAR2 SZ EP        622 56.81                             166    0.2710 30.7 163 
 BAR2 SZ ES   1    623 10.17                             166    0.08 7 30.7 163 
 BAR2 SZ I         623 10.94        19.9 0.48                          30.7 163 
 BRR  HZ EP        622 57.09                             155   -0.1910 56.6 299 
 BRR  HZ I         622 57.37         5.8 0.44                          56.6 299 
 BRR  HN ES   1    623 11.48                             155    0.07 7 56.6 299 
 RUS  HZ EP        623  1.51                             137   -0.1010  109 169 
 RUS  HN ES   1    623 18.99                             137   -0.14 7  109 169 
 RUS  HN I         623 20.40         1.8 0.36                           109 169 
                                                                                
