 2016  314 0126 39.3 L   6.634 -73.554104.0  RSN 11 0.4 1.8LRSN                1
 GAP= 53        0.77       2.4     2.9  6.3 -0.2397E+00  0.4705E+01 -0.2860E+01E
 Epicentro: EL CARMEN - SANTANDER                                              3
 ACTION:UPD 16-05-13 21:24 OP:cam  STATUS:               ID:20160314012639 L   I
 OLDACT:UP  16-03-28 15:55 OP:Mher STATUS:               ID:20160314012639 L   3
 OLDACT:REG 16-03-14 12:38 OP:dnl  STATUS:               ID:20160314011751     3
 2016-03-14-0117-51M.COL___295                                                 6
 STAT SP IPHASW D HRMM SECON CODA AMPLIT PERI AZIMU VELO AIN AR TRES W  DIS CAZ7
 BAR2 EZ EP        126 55.30                             156    0.6210 41.4  96 
 BAR2 EZ ES   2    127  7.58                             156    0.95 5 41.4  96 
 BAR2 EZ I         127  9.22        15.7 0.16            163           41.4  96 
 RUS  HZ EP        126 58.98                             133    0.0110 97.2 148 
 RUS  HE ES        127 13.83                             133   -0.4510 97.2 148 
 RUS  HZ I         127 16.40        13.8 0.32            139           97.2 148 
 PTB  HZ EP     C  126 58.39                             132   -0.2110  100 264 
 PTB  HN ES   2    127 12.96                             132   -0.67 5  100 264 
 PTB  HZ I         127 18.08        14.2 0.14            134            100 264 
 PAM  EZ EP        127  1.52                             126    0.1910  122  50 
 PAM  EN ES        127 18.30                             126   -0.1810  122  50 
 PAM  EZ I         127 19.97         9.3 0.13            132            122  50 
 ZAR  HZ EP   9    127  7.68                             115    1.74 0  173 303 
 ZAR  HN ES        127 28.09                             116   -0.33 9  173 303 
 ZAR  HZ I         127 30.67        10.6 0.14            119            173 303 
 OCA  HZ EP        127  6.92                             114    0.04 9  179   8 
 OCA  HN ES        127 28.06                             114   -0.30 9  179   8 
 OCA  HZ I         127 34.88        22.7 0.22            119            179   8 
 NOR  HZ EP   2    127  7.69                             113    0.02 4  188 231 
 NOR  HE ES   2    127 30.27                             113    0.50 4  188 231 
 NOR  HZ I         127 35.82         6.0 0.16            116            188 231 
 TAM  HZ EP        127  8.39                             112   -0.23 9  196  96 
 TAM  HE ES   4    127 29.72                             112   -1.74 0  196  96 
 TAM  HZ I         127 33.91         9.3 0.36            117            196  96 
 CHI  HZ EP   2    127 12.48                             109    0.39 4  223 185 
 CHI  HN ES   2    127 37.73                             109    0.10 4  223 185 
 CHI  HZ I         127 42.95         2.7 0.24            113            223 185 
 MON  HZ EP   2    127 23.88                             100   -0.64 3  332 316 
 MON  HE ES        128  0.24                             100    0.48 7  332 316 
 MON  HZ I         128  2.12         2.9 0.18            104            332 316 
 ORTC HZ EP   2    127 27.37                              99    0.08 3  355 212 
 ORTC HE ES   4    128  6.43                              99    1.75 0  355 212 
                                                                                
