 2011 1214 0823 38.0 L   6.779 -73.120149.2  RSN 12 0.4 2.2LRSN                1
 GAP=141        0.50       2.5     3.7  4.6 -0.2640E+01  0.3017E+01  0.5722E+00E
 Epicentro: LOS SANTOS - SANTANDER                                             3
 ACTION:UPD 12-07-13 16:16 OP:ep   STATUS:               ID:20111214082338 L   I
 2011-12-14-0820-00M.COL___185                                                 6
 STAT SP IPHASW D HRMM SECON CODA AMPLIT PERI AZIMU VELO AIN AR TRES W  DIS CAZ7
 BAR2 SZ EP   1    823 57.78                             171   -0.21 7 21.8 198 
 BAR2 SZ ES   2    824 13.80                             171    0.20 5 21.8 198 
 BAR2 SZ I         824 14.06        36.7 0.44                          21.8 198 
 BRR  HZ IP     C  823 59.71                             152    0.0110 74.8 299 
 BRR  HZ I         824  0.02        58.4 0.17                          74.8 299 
 BRR  HN ES   2    824 17.33                             152    0.69 5 74.8 299 
 PAM  SZ EP   1    824  0.87                             151    0.31 7 77.4  37 
 PAM  SN ES   2    824 18.21                             151    0.04 5 77.4  37 
 RUS  HZ EP   1    824  1.69                             145   -0.20 7 98.1 178 
 RUS  HE ES   2    824 20.28                             145   -0.27 5 98.1 178 
 RUS  HZ I         824 22.14         9.5 0.29                          98.1 178 
 PTB  HZ EP   2    824  5.00                             132   -0.43 5  150 260 
 PTB  HN ES   2    824 26.03                             132   -0.82 5  150 260 
 OCA  SZ EP   1    824  6.80                             130    0.00 7  163 352 
 OCA  SZ ES   2    824 29.05                             130   -0.23 5  163 352 
 OCA  SZ I         824 34.47        20.4 0.31                           163 352 
 NOR  SZ EP   2    824 13.58                             119   -0.43 4  236 235 
 NOR  SE ES   2    824 42.31                             119    0.19 4  236 235 
 CHI  HZ EP   1    824 15.75                             118    0.04 6  247 196 
 CHI  HN ES   2    824 45.30                             118    0.16 4  247 196 
 CHI  HZ I         824 52.98         4.2 0.37                           247 196 
 ROSC BZ EP   2    824 17.01                             117    0.78 4  252 212 
 ROSC BN ES   2    824 45.91                             117   -0.16 4  252 212 
 ROSC BZ I         824 55.58         8.3 0.41                           252 212 
 HEL  HZ EP   2    824 19.22                             115    0.62 4  274 256 
 HEL  HN ES   2    824 50.45                             115    0.15 4  274 256 
 HEL  HZ I         824 56.52         7.9 0.29                           274 256 
 RREF HZ EP   2    824 24.78                             111    0.44 3  322 230 
 RREF HZ I         825 10.05         6.8 0.40                           322 230 
 COD  HZ EP   2    824 26.41                             109   -0.37 3  351 354 
 COD  HN ES   2    825  4.58                             109   -0.27 3  351 354 
 COD  HZ I         825  7.80        14.2 0.73                           351 354 
                                                                                
