 2010  514 0633 33.9 L   6.749 -73.019143.4  RSN  7 0.4 1.6LRSN                1
 GAP=171        0.75       6.5    11.2  8.0  0.1380E+02 -0.1299E+01 -0.1442E+02E
 Epicentro: CEPITA - SANTANDER                                                 3
 ACTION:UP  10-08-24 10:04 OP:vdl  STATUS:               ID:20100514063333 L   I
 2010-05-14-0630-19S.COL___105                                                 6
 STAT SP IPHASW D HRMM SECON CODA AMPLIT PERI AZIMU VELO AIN AR TRES W  DIS CAZ7
 BAR2 SZ IP        633 52.98                             169    -0.310   25 226 
 BAR2 SZ ES   1    634  8.63                             169     0.2 7   25 226 
 BRR  HZ EP   1    633 55.69                             147     0.0 7   86 297 
 BRR  HZ I         633 56.14         8.2 0.11                            86 297 
 BRR  HE ES   2    634 12.74                             147     0.0 5   86 297 
 RUS  HZ EP   1    633 56.70                             145    -0.3 7   95 184 
 RUS  HE ES   1    634 15.25                             145     0.2 7   95 184 
 RUS  HZ I         634 16.81         4.3 0.64                            95 184 
 BRI  SZ EP   2    633 58.51                             141     0.8 5  110  13 
 GUE  SZ EP   2    633 58.59                             138    -0.1 5  120   5 
 HEL  HZ EP   2    634 15.04                             113    -0.3 4  284 258 
 HEL  HZ I         634 53.05         2.6 0.26                           284 258 
 RREF BZ EP   2    634 21.87                             110     1.1 3  329 232 
 RREF BZ I         635  3.48         1.8 0.35                           329 232 
                                                                                
