 2010  514 0338 26.8 L   6.759 -72.977143.3  RSN 11 0.3 1.9LRSN                1
 GAP=176        0.59       2.6     5.4  4.7 -0.5754E+01 -0.3219E+01  0.1610E+00E
 Epicentro: CEPITA - SANTANDER                                                 3
 ACTION:UP  10-08-24 10:04 OP:vdl  STATUS:               ID:20100514033826 L   I
 2010-05-14-0333-56S.COL___105                                                 6
 STAT SP IPHASW D HRMM SECON CODA AMPLIT PERI AZIMU VELO AIN AR TRES W  DIS CAZ7
 BAR2 SZ EP        338 46.10                             168    -0.210   29 231 
 BAR2 SZ ES   1    339  1.41                             168    -0.1 7   29 231 
 BRR  HZ EP        338 48.82                             146     0.010   90 295 
 BRR  HZ I         338 51.11        13.2 0.18                            90 295 
 BRR  HN ES   1    339  6.17                             146     0.1 7   90 295 
 RUS  HZ EP        338 50.29                             145     0.310   96 187 
 RUS  HN ES   1    339  7.84                             145    -0.3 7   96 187 
 RUS  HZ I         339  9.62         6.2 0.39                            96 187 
 BRI  SZ EP        338 50.55                             141     0.110  108  11 
 GUE  SZ EP        338 51.50                             138     0.010  119   3 
 GRA  SZ EP        338 51.89                             136     0.010  126   9 
 GRA  SZ ES   1    339 11.34                             136     0.0 7  126   9 
 OCA  SZ EP   2    338 55.09                             128    -0.6 5  168 347 
 OCA  SZ I         339 22.08         8.6 0.29                           168 347 
 CHI  HZ EP   2    339  4.31                             116    -0.2 4  250 200 
 CHI  HE ES   2    339 34.47                             116     0.6 4  250 200 
 CHI  HZ I         339 39.30         2.7 0.46                           250 200 
 ROSC BZ EP   2    339  6.12                             115     0.6 4  259 215 
 RREF BZ EP   2    339 14.04                             110    -0.1 3  333 232 
 RREF BN ES   2    339 51.81                             110     0.7 3  333 232 
 RREF BZ I         339 58.22         5.4 0.16                           333 232 
 PRA  HZ EP   2    339 20.13                             106    -0.8 3  398 212 
 PRA  HE ES   2    340  1.97                             106    -1.1 3  398 212 
 PRA  HZ I         340 10.48         3.5 0.29                           398 212 
                                                                                
