 2010  614 0426  1.6 L   6.780 -73.047142.4  RSN  7 0.3 1.6LRSN                1
 GAP=167        0.70       3.3    15.9  7.4 -0.1200E+02 -0.2630E+02 -0.5813E+01E
 Epicentro: LOS SANTOS - SANTANDER                                             3
 ACTION:UP  10-08-24 10:10 OP:vdl  STATUS:               ID:20100614042601 L   I
 2010-06-14-0422-29S.COL___114                                                 6
 STAT SP IPHASW D HRMM SECON CODA AMPLIT PERI AZIMU VELO SNR AR TRES W  DIS CAZ7
 BAR2 SZ EP        426 20.82                             169    -0.110   26 216 
 BAR2 SZ ES   1    426 35.92                             169     0.0 7   26 216 
 GIR2 SZ EP   1    426 20.93                             165    -0.1 7   37 334 
 RUS  HZ EP        426 24.96                             144     0.110   98 182 
 RUS  HN ES   1    426 43.00                             144     0.0 7   98 182 
 RUS  HZ I         426 44.19         4.1 0.13                            98 182 
 BRI  SZ EP   1    426 25.47                             141     0.4 7  107  15 
 GUE  SZ EP   1    426 25.94                             138    -0.1 7  117   7 
 GRA  SZ IP        426 26.76                             136     0.210  125  12 
 GRA  SZ ES   1    426 45.53                             136    -0.4 7  125  12 
 OCA  SZ EP   1    426 29.34                             128    -0.7 7  164 349 
 OCA  SZ ES   1    426 52.72                             128     0.5 7  164 349 
 OCA  SZ I         426 55.92         7.6 0.30                           164 349 
                                                                                
