 2015  214 0303 59.0 L   6.778 -73.147141.5  RSN  9 0.4 1.6LRSN                1
 GAP=137        1.09       3.3     4.6  6.5 -0.1630E+00  0.7259E+01 -0.1390E+01E
 Epicentro: LOS SANTOS - SANTANDER                                             3
 ACTION:UPD 15-04-30 21:26 OP:nd   STATUS:               ID:20150214030359 L   I
 OLDACT:DUP 15-02-14 14:11 OP:fm   STATUS:               ID:20150214025751d    3
 2015-02-14-0257-50M.COL___296                                                 6
 STAT SP IPHASW D HRMM SECON CODA AMPLIT PERI AZIMU VELO AIN AR TRES W  DIS CAZ7
 BAR2 EZ EP        3 4 18.25                             171    0.2010 20.9 191 
 BAR2 EZ ES        3 4 32.74                             171   -0.1910 20.9 191 
 BAR2 EZ I         3 4 36.16         8.6 0.38            170           20.9 191 
 BRR  HZ EP        3 4 20.23                             151    0.4910 72.3 300 
 BRR  HE ES        3 4 36.82                             151    0.8910 72.3 300 
 BRR  HZ I         3 4 40.63         4.9 0.40            149           72.3 300 
 PAM  SZ EP        3 4 21.20                             149    0.3310 79.3  38 
 PAM  SE ES        3 4 37.63                             149   -0.3110 79.3  38 
 PAM  SZ I         3 4 40.62         6.8 0.24            154           79.3  38 
 RUS  HZ EP        3 4 22.50                             144    0.3610 98.2 176 
 RUS  HE ES        3 4 39.61                             144   -0.6010 98.2 176 
 RUS  HZ I         3 4 43.35         2.3 0.62            148           98.2 176 
 PTB  HZ EP        3 4 25.12                             131   -0.44 9  147 260 
 PTB  HN ES        3 4 45.81                             131   -0.47 9  147 260 
 PTB  HZ I         3 4 52.33         6.5 0.38            132            147 260 
 SPBC HZ EP        3 4 27.35                             128    0.38 9  161 220 
 SPBC HN ES        3 4 48.81                             128    0.01 9  161 220 
 SPBC HZ I         3 4 55.77         7.0 0.22            131            161 220 
 ZAR  HZ EP   1    3 4 31.12                             121   -0.12 6  205 293 
 ZAR  HE ES        3 4 56.57                             121    0.17 9  205 293 
 ZAR  HZ I         3 5  3.98         4.0 0.64            123            205 293 
 CHI  HN ES        3 5  5.03                             116   -0.18 8  246 195 
 SML  HZ EP        3 4 35.18                             116   -0.43 8  246 336 
 SML  HN ES        3 5  3.54                             116   -0.64 8  246 336 
 SML  HZ I         3 5 11.38         6.1 0.10            119            246 336 
                                                                                
