 2014 1114 0130 19.3 L   6.694 -73.188145.5  RSN  5 0.5 1.2LRSN                1
 GAP=135        1.40       9.3     8.3 11.1  0.1634E+02 -0.6039E+01 -0.8849E+01E
 Epicentro: VILLANUEVA - SANTANDER                                             3
 ACTION:UPD 14-12-19 15:42 OP:nd   STATUS:               ID:20141114013019 L   I
 OLDACT:DUP 14-11-14 15:44 OP:stll STATUS:               ID:20141114012743d    3
 2014-11-14-0127-42M.COL___292                                                 6
 STAT SP IPHASW D HRMM SECON CODA AMPLIT PERI AZIMU VELO AIN AR TRES W  DIS CAZ7
 BAR2 SZ EP        130 38.73                             175    0.0210 11.3 177 
 BAR2 SZ ES        130 53.55                             175   -0.3010 11.3 177 
 BAR2 SZ I         130 55.02         4.0 0.20            172           11.3 177 
 BRR  HN ES        130 57.93                             152    0.7810 73.7 308 
 RUS  HZ EP        130 43.21                             147    0.9710 89.4 173 
 RUS  HN ES        130 59.88                             147   -0.2610 89.4 173 
 RUS  HZ I         131  2.45         2.3 0.32            146           89.4 173 
 PAM  SZ EP        130 41.65                             147   -0.6010 89.5  37 
 PTB  HZ EP        130 45.45                             133   -0.21 9  141 263 
 PTB  HN ES        131  5.75                             133   -0.47 9  141 263 
 PTB  HZ I         131 11.00         1.6 0.34            132            141 263 
                                                                                
