 2017  414 0743  1.1 L   6.797 -73.153147.4  RSN 13 0.5 1.7LRSN                1
 GAP=136        1.19       3.9     4.3  6.1 -0.1400E+01  0.8212E+01  0.3684E+01E
 Epicentro: LOS SANTOS - SANTANDER                                             3
 ACTION:UPD 17-05-30 21:12 OP:jn   STATUS:               ID:20170414074301 L   I
 OLDACT:UP  17-04-14 17:16 OP:edw  STATUS:               ID:20170414073740     3
 OLDACT:UP  17-04-14 17:16 OP:edw  STATUS:               ID:20170414073740     3
 OLDACT:UP  17-04-14 17:13 OP:edw  STATUS:               ID:20170414073740     3
 OLDACT:REG 17-04-14 12:54 OP:edw  STATUS:               ID:20170414073740     3
 2017-04-14-0738-00M.COL___356                                                 6
 STAT SP IPHASW D HRMM SECON CODA AMPLIT PERI AZIMU VELO AIN AR TRES W  DIS CAZ7
 BAR2 EZ EP        743 20.30                             171   -0.6710 22.9 188 
 BAR2 EZ ES        743 36.41                             171   -0.0110 22.9 188 
 BRR  HZ EP     C  743 22.76                             153    0.3210 70.6 299 
 BRR  HN ES        743 40.15                             153    1.1010 70.6 299 
 BRR  HZ I         743 42.70         7.9 0.36            150           70.6 299 
 PAM  EZ EP        743 23.77                             151    0.1910 78.1  40 
 PAM  EN ES        743 41.05                             151   -0.0310 78.1  40 
 PAM  EZ I         743 43.43         6.0 0.64            155           78.1  40 
 RUS  HZ EP        743 25.12                             144    0.0810  100 176 
 RUS  HN ES        743 43.28                             144   -0.4010  100 176 
 RUS  HZ I         743 45.00         9.1 0.42            146            100 176 
 PTB  HZ EP        743 28.27                             133    0.10 9  147 259 
 PTB  HN ES        743 48.62                             133   -0.63 9  147 259 
 PTB  HZ I         743 51.81         6.6 0.42            131            147 259 
 SPBC HZ EP        743 29.80                             130    0.10 9  162 219 
 SPBC HN ES        743 51.63                             130   -0.34 9  162 219 
 SPBC HZ I         743 54.06         8.4 0.24            130            162 219 
 ZAR  HZ EP        743 33.61                             123   -0.02 9  203 292 
 ZAR  HN ES        743 58.28                             123   -0.69 9  203 292 
 ZAR  HZ I         744  5.97         6.8 0.26            122            203 292 
 NOR  HZ EP        743 37.29                             119    0.41 8  234 234 
 NOR  HN ES        744  5.18                             119    0.42 8  234 234 
 NOR  HZ I         744 10.23         3.9 0.24            119            234 234 
 CHI  HZ EP        743 39.04                             117    0.16 8  248 195 
 CHI  HN ES        744  8.10                             117   -0.22 8  248 195 
 CHI  HZ I         744 10.61         1.8 0.26            119            248 195 
 HEL  HZ EP        743 42.06                             115    0.71 8  271 256 
 HEL  HN ES        744 13.10                             115    0.40 8  271 256 
 HEL  HZ I         744 20.02         2.9 0.36            115            271 256 
 PTGC HZ EP   4    743 43.86                             112   -1.22 0  309 158 
 CBOC HZ EP   4    743 48.98                             110    0.95 0  333 252 
 CBOC HN ES        744 23.68                             110   -0.92 7  333 252 
 CBOC HZ I         744 35.90         1.1 0.42            111            333 252 
 PRA  HZ EP        743 54.69                             107    0.04 6  391 209 
 PRA  HN ES        744 37.14                             107    0.76 6  391 209 
 PRA  HZ I         744 41.23         2.0 0.34            108            391 209 
 SJC  HZ EP        743 55.45                             106   -1.29 6  409 327 
 SJC  HN ES   4    744 36.31                             106   -3.79 0  409 327 
                                                                                
