 2014  814 0955 44.3 L   6.816 -73.168150.1  RSN  5 0.4 1.6LRSN                1
 GAP=208        0.95       5.2     7.3  7.6 -0.3809E+01  0.6648E+01 -0.3027E+01E
 Epicentro: LOS SANTOS - SANTANDER                                             3
 ACTION:UPD 14-09-15 21:49 OP:nd   STATUS:               ID:20140814095544 L   I
 OLDACT:UP  14-08-14 16:57 OP:cam  STATUS:               ID:20140814095000     3
 OLDACT:REG 14-08-14 13:37 OP:cam  STATUS:               ID:20140814095000     3
 2014-08-14-0950-00M.COL___285                                                 6
 STAT SP IPHASW D HRMM SECON CODA AMPLIT PERI AZIMU VELO AIN AR TRES W  DIS CAZ7
 BAR2 SZ EP        956  4.25                             170   -0.1810 24.8 184 
 BAR2 SZ ES        956 19.77                             170   -0.4010 24.8 184 
 BAR2 SZ I         956 25.05         9.6 0.48            168           24.8 184 
 BRR  HZ EP        956  6.14                             154    0.4310 68.2 298 
 BRR  HN ES        956 23.01                             154    0.5710 68.2 298 
 BRR  HN I         956 23.48        19.1 0.24            156           68.2 298 
 PTB  HZ EP        956 11.03                             133   -0.36 9  146 258 
 PTB  HN ES        956 32.10                             133   -0.46 9  146 258 
 PTB  HZ I         956 34.48         4.0 0.14            135            146 258 
 SPBC HZ EP   1    956 13.58                             130    0.51 7  163 218 
 SPBC HE ES        956 35.79                             130    0.24 9  163 218 
 SPBC HZ I         956 42.08         2.8 0.24            131            163 218 
 SML  HZ EP   2    956 20.89                             119    0.05 4  241 336 
 SML  HN ES   1    956 48.98                             119   -0.41 6  241 336 
 SML  HZ I         956 51.09         3.0 0.22            121            241 336 
                                                                                
