 2015  214 0446 17.4 L   6.745 -73.178138.3  RSN  5 0.3 1.4LRSN                1
 GAP=197        0.78       3.2     5.4  6.5  0.4247E+01 -0.4767E+01 -0.5609E+01E
 Epicentro: VILLANUEVA - SANTANDER                                             3
 ACTION:UPD 15-04-30 21:26 OP:nd   STATUS:               ID:20150214044617 L   I
 OLDACT:DUP 15-02-14 14:35 OP:fm   STATUS:               ID:20150214043742d    3
 2015-02-14-0437-40M.COL___299                                                 6
 STAT SP IPHASW D HRMM SECON CODA AMPLIT PERI AZIMU VELO AIN AR TRES W  DIS CAZ7
 BRR  HZ EP        446 37.81                             151    0.0910 71.3 304 
 BRR  HN ES        446 53.82                             151    0.2310 71.3 304 
 BRR  HZ I         447  3.54         3.0 0.36            151           71.3 304 
 RUS  HZ EP        446 40.19                             144    0.2210 94.9 174 
 RUS  HE ES        446 57.24                             144   -0.3710 94.9 174 
 RUS  HZ I         446 59.91         2.0 0.30            153           94.9 174 
 PTB  HZ EP        446 42.73                             131   -0.58 9  143 261 
 PTB  HE ES        447  3.44                             131   -0.11 9  143 261 
 PTB  HZ I         447  9.81         3.2 0.42            136            143 261 
 SPBC HZ EP        446 44.70                             129    0.07 9  156 219 
 SPBC HN ES        447  6.28                             129    0.38 9  156 219 
 SPBC HZ I         447  9.70         4.3 0.22            135            156 219 
 SML  HZ EP        446 54.42                             115    0.39 8  248 337 
 SML  HN ES        447 22.34                             115   -0.29 8  248 337 
 SML  HZ I         447 28.86         5.1 0.28            120            248 337 
                                                                                
