 2012  914 0306  8.9 L   6.783 -73.172149.9  RSN  6 0.4 1.6LRSN                1
 GAP=178        0.83       7.5     7.5  9.1  0.2514E+02  0.1239E+02  0.1400E+02E
 Epicentro: LOS SANTOS - SANTANDER                                             3
 ACTION:UPD 12-10-22 14:18 OP:ep   STATUS:               ID:20120914030608 L   I
 2012-09-14-0300-00M.COL___227                                                 6
 STAT SP IPHASW D HRMM SECON CODA AMPLIT PERI AZIMU VELO AIN AR TRES W  DIS CAZ7
 BAR2 SZ EP   1    3 6 28.62                             172   -0.37 7 21.2 183 
 BAR2 SZ ES   1    3 6 44.34                             172   -0.32 7 21.2 183 
 BAR2 SZ I         3 6 46.36        10.0 0.40                          21.2 183 
 GIR2 SZ ES   1    3 6 44.64                             167   -0.23 7 32.8 356 
 BRR  HZ EP   1    3 6 30.36                             154   -0.06 7 69.6 301 
 BRR  HZ I         3 6 32.27         4.5 0.11                          69.6 301 
 BRR  HE ES   1    3 6 47.88                             154    0.69 7 69.6 301 
 RUS  HZ EP   1    3 6 33.19                             145    0.23 7 99.0 174 
 RUS  HE ES   1    3 6 52.17                             145    0.46 7 99.0 174 
 PTB  HN ES   1    3 6 56.36                             134   -0.64 7  145 259 
 PTB  HN I         3 6 58.47         5.2 0.18                           145 259 
 ZAR  HE ES   2    3 7  7.31                             124    0.53 4  202 293 
 ZAR  HZ I         3 7 13.66         3.8 0.26                           202 293 
                                                                                
