 2011  614 0548 32.2 L   6.550 -73.171  4.0  RSN  6 0.5 1.7LRSN                1
 GAP=155        1.04       3.3     5.4  8.3  0.1163E+01 -0.1651E+01 -0.9833E+01E
 Epicentro: PINCHOTE - SANTANDER                                               3
 ACTION:UP  11-07-14 19:05 OP:ep   STATUS:               ID:20110614054832 L   I
 2011-06-14-0540-00M.COL___122                                                 6
 STAT SP IPHASW D HRMM SECON CODA AMPLIT PERI AZIMU VELO SNR AR TRES W  DIS CAZ7
 BTL  SZ EP        548 39.99                              47     0.610   42 345 
 BTL  SZ ES   2    548 45.87                              47     0.8 5   42 345 
 RUS  HZ EP   1    548 44.34                              47    -0.1 7   73 172 
 RUS  HZ I         548 44.64        22.2 0.26                            73 172 
 RUS  HN ES   2    548 53.91                              47     0.0 5   73 172 
 BRR  HZ EP   1    548 45.24                              47    -0.5 7   86 316 
 BRR  HZ I         548 45.62        14.8 0.11                            86 316 
 BRR  HE ES   1    548 56.08                              47    -0.3 7   86 316 
 BRI  SZ EP        548 53.55                              47     0.1 9  135  18 
 BRI  SZ ES        549  9.89                              47    -0.2 9  135  18 
 BRI  SZ I         549 12.03        10.5 0.46                           135  18 
 GRA  SZ ES   2    549 13.81                              47    -1.0 5  153  15 
 GRA  SZ I         549 17.29        16.3 0.36                           153  15 
 OCA  SZ ES   2    549 23.75                              37     0.2 4  187 355 
 OCA  SZ I         549 28.51         7.6 0.67                           187 355 
                                                                                
