 2012  614 0234  3.1 L   6.817 -73.164143.5  RSN 10 0.4 2.0LRSN                1
 GAP=133        0.75       3.1     3.9  6.4 -0.3242E+01  0.1056E+02 -0.1374E+01E
 Epicentro: LOS SANTOS - SANTANDER                                             3
 ACTION:UPD 12-08-06 17:49 OP:ep   STATUS:               ID:20120614023403 L   I
 2012-06-14-0230-00M.COL___201                                                 6
 STAT SP IPHASW D HRMM SECON CODA AMPLIT PERI AZIMU VELO AIN AR TRES W  DIS CAZ7
 BAR2 SZ EP   1    234 22.47                             170   -0.01 7 24.9 185 
 BAR2 SZ ES   1    234 37.69                             170    0.09 7 24.9 185 
 BAR2 SZ I         234 38.37        31.1 0.25                          24.9 185 
 PAM  SZ EP        234 25.41                             150    0.3510 77.3  42 
 PAM  SN ES   1    234 42.26                             150    0.07 7 77.3  42 
 RUS  HZ EP   1    234 26.57                             143   -0.19 7  103 175 
 RUS  HN ES   1    234 44.97                             143   -0.26 7  103 175 
 RUS  HZ I         234 47.12         6.2 0.18                           103 175 
 PTB  HZ EP   1    234 29.05                             132   -0.67 7  146 258 
 PTB  HN ES   1    234 49.90                             132   -0.59 7  146 258 
 PTB  HZ I         234 52.20         6.2 0.31                           146 258 
 OCA  HZ EP   1    234 30.24                             129   -0.79 7  158 354 
 OCA  HE ES   1    234 53.20                             129    0.38 7  158 354 
 OCA  HZ I         234 56.05        25.0 0.15                           158 354 
 ZAR  HZ EP   1    234 35.20                             122    0.08 6  201 292 
 ZAR  HN ES   1    235  0.22                             122    0.12 6  201 292 
 ZAR  HZ I         235  6.12        11.6 0.30                           201 292 
 NOR  SZ EP   1    234 38.70                             118    0.08 6  234 234 
 NOR  SN ES   1    235  6.08                             118   -0.26 6  234 234 
 CHI  HN ES   1    235 10.63                             116    0.42 6  250 195 
 HEL  HZ EP   1    234 43.58                             114    0.56 6  271 255 
 HEL  HE ES   2    235 14.77                             114    0.61 4  271 255 
 HEL  HZ I         235 20.90         5.2 0.36                           271 255 
 GUY  SN ES   1    235 21.55                             112    0.68 5  303 235 
                                                                                
