 2015  714 0230 37.8 L   6.766 -73.129137.9  RSN  9 0.3 1.9LRSN                1
 GAP=140        0.81       2.7     3.6  5.2 -0.2652E+01  0.1009E+02 -0.8442E+00E
 Epicentro: LOS SANTOS - SANTANDER                                             3
 ACTION:UPD 15-09-08 21:48 OP:cam  STATUS:               ID:20150714023037 L   I
 OLDACT:REG 15-07-14 14:06 OP:spq  STATUS:               ID:20150714022749     3
 2015-07-14-0227-49M.COL___340                                                 6
 STAT SP IPHASW D HRMM SECON CODA AMPLIT PERI AZIMU VELO AIN AR TRES W  DIS CAZ7
 BAR2 EZ EP        230 56.17                             171   -0.2710 20.1 197 
 BAR2 EZ ES        231 11.11                             171    0.1510 20.1 197 
 BAR2 EZ I         231 12.41        11.4 0.12            171           20.1 197 
 PAM  EZ EP        230 59.21                             149   -0.1210 79.3  37 
 PAM  EN ES        231 15.97                             149   -0.1310 79.3  37 
 PAM  EZ I         231 18.29        10.5 0.42            152           79.3  37 
 RUS  HZ EP        231  0.38                             143   -0.1410 96.7 177 
 RUS  HE ES        231 18.43                             143    0.2110 96.7 177 
 RUS  HZ I         231 20.08         5.1 0.28            145           96.7 177 
 OCA  HZ EP        231  6.66                             127    0.74 9  164 353 
 OCA  HN ES        231 27.86                             127    0.03 9  164 353 
 OCA  HZ I         231 30.40        17.8 0.34            129            164 353 
 ZAR  HZ EP        231  9.96                             120   -0.14 8  207 293 
 ZAR  HN ES        231 34.79                             120   -0.48 8  207 293 
 ZAR  HZ I         231 39.67         9.3 0.44            121            207 293 
 NOR  HZ EP        231 12.49                             117   -0.54 8  234 235 
 NOR  HN ES        231 40.14                             117   -0.35 8  234 235 
 NOR  HZ I         231 42.22         6.2 0.20            118            234 235 
 HEL  HZ EP        231 18.06                             113    0.32 8  273 257 
 HEL  HE ES        231 49.28                             113    0.40 8  273 257 
 HEL  HZ I         231 54.35         3.4 0.38            114            273 257 
 GUY2CHZ EP        231 21.05                             111    0.05 7  300 236 
 GUY2CHN ES        231 55.31                             111    0.63 7  300 236 
 GUY2CHZ I         232  2.43         2.6 0.52                           300 236 
 PRA  HZ EP        231 30.63                             105   -0.17 6  390 210 
 PRA  HN ES   4    232 13.39                             105    1.27 0  390 210 
 PRA  HZ I         232 18.74         4.7 0.26            106            390 210 
                                                                                
