 2010 1014 0940 12.8 L   6.748 -73.150129.6  RSN 11 0.4 1.9LRSN                1
 GAP=135        0.85       5.3     7.1 12.5 -0.1495E+02  0.1617E+02  0.1139E+02E
 Epicentro: LOS SANTOS - SANTANDER                                             3
 ACTION:UP  11-02-18 11:09 OP:tino STATUS:               ID:20101014094012 L   I
 2010-10-14-0937-28S.COL___126                                                 6
 STAT SP IPHASW D HRMM SECON CODA AMPLIT PERI AZIMU VELO SNR AR TRES W  DIS CAZ7
 BAR2 SZ IP        940 30.75                             172     0.310   18 192 
 BAR2 SZ I         940 48.69        12.4 0.31                            18 192 
 BTL  SZ EP        940 29.98                             170    -0.510   23 325 
 GIR2 SZ EP   2    940 31.25                             163     0.5 5   37 353 
 BRR  HZ EP   1    940 32.70                             149     0.3 7   74 303 
 BRR  HZ I         940 52.41        19.5 0.11                            74 303 
 GRA  SZ EP        940 37.54                             132     0.310  131  17 
 GRA  SZ I         940 58.33        11.5 0.23                           131  17 
 OCA  SZ EP        940 40.22                             125    -0.3 9  166 354 
 OCA  SZ I         941 12.62         7.3 0.05                           166 354 
 YOP  SZ EP   1    940 41.24                             123     0.0 7  174 152 
 NOR  SZ EP        940 46.93                             115    -0.4 8  231 236 
 NOR  SN ES   2    941 13.97                             115    -0.2 4  231 236 
 CHI  HZ EP   2    940 48.71                             114    -0.3 4  243 195 
 CHI  HZ I         941 26.90         3.7 0.69                           243 195 
 HEL  HZ EP   2    940 52.68                             112     0.6 4  270 257 
 HEL  HN ES   2    941 22.97                             112     0.3 4  270 257 
 HEL  HZ I         941 27.97         3.8 0.30                           270 257 
 PRA  HZ EP   1    941  5.32                             104     0.1 4  387 210 
 PRA  HE ES   2    941 46.64                             104     0.6 3  387 210 
 PRA  HZ I         941 51.69        12.1 0.10                           387 210 
                                                                                
