 2015  514 0121 32.8 L   6.540 -73.505115.0  RSN  9 0.4 2.0LRSN                1
 GAP= 75        0.88       2.6     4.2  7.0 -0.1342E+01  0.1188E+02 -0.2630E+01E
 Epicentro: EL CARMEN - SANTANDER                                              3
 ACTION:UPD 15-09-10 22:03 OP:cam  STATUS:               ID:20150514012132 L   I
 OLDACT:UP  15-05-14 12:57 OP:mh   STATUS:               ID:20150514011747     3
 OLDACT:REG 15-05-14 12:21 OP:mh   STATUS:               ID:20150514011747     3
 2015-05-14-0117-47M.COL___285                                                 6
 STAT SP IPHASW D HRMM SECON CODA AMPLIT PERI AZIMU VELO AIN AR TRES W  DIS CAZ7
 BAR2 EZ IP     C  121 49.24                             161    0.1310 36.2  81 
 BAR2 EZ I         122  2.77        50.5 0.36            159           36.2  81 
 BRR  HZ EP        121 49.99                             148   -0.3910 66.7 340 
 BRR  HN ES        122  3.98                             148   -0.1410 66.7 340 
 BRR  HZ I         122 11.52         9.7 0.44            148           66.7 340 
 RUS  HZ EP   1    121 52.28                             141   -0.13 7 85.5 147 
 RUS  HN ES        122  8.30                             141    0.5610 85.5 147 
 SPBC HZ EP   1    121 54.83                             131    0.35 7  117 213 
 SPBC HN ES        122 10.96                             131   -0.4710  117 213 
 SPBC HZ I         122 16.16        27.7 0.22            137            117 213 
 ZAR  HZ EP   1    122  1.59                             118    0.51 7  183 305 
 ZAR  HN ES   1    122 23.98                             118    0.81 7  183 305 
 ZAR  HZ I         122 26.99        10.9 0.38            121            183 305 
 NOR  HZ EP   1    122  0.82                             117   -0.62 7  186 235 
 NOR  HN ES        122 23.56                             117   -0.25 9  186 235 
 NOR  HZ I         122 25.95         9.9 0.39            122            186 235 
 OCA  HN ES   2    122 24.08                             117   -0.61 4  189   6 
 GUY2CHZ EP        122  9.89                             109    0.46 8  252 235 
 GUY2CHN ES   1    122 38.04                             109    0.00 6  252 235 
 GUY2CHZ I         122 44.98         3.4 0.28                           252 235 
 SML  HZ EP   1    122  9.10                             109   -0.37 6  258 346 
 SML  HN ES        122 38.16                             109    0.05 8  258 346 
 SML  HZ I         122 49.12        11.3 0.10            111            258 346 
                                                                                
