 2012  814 0404 51.6 L   6.727 -73.287134.3  RSN  5 0.4 1.5LRSN                1
 GAP=127        0.80       8.0     5.3 11.2 -0.7640E+01  0.1333E+02 -0.3774E+02E
 Epicentro: GALAN - SANTANDER                                                  3
 ACTION:UPD 12-09-10 11:56 OP:ep   STATUS:               ID:20120814040451 L   I
 2012-08-14-0400-00M.COL___217                                                 6
 STAT SP IPHASW D HRMM SECON CODA AMPLIT PERI AZIMU VELO AIN AR TRES W  DIS CAZ7
 BAR2 SZ EP   1    4 5 10.43                             171    0.65 8 18.9 142 
 BAR2 SZ ES   1    4 5 23.70                             171   -0.25 8 18.9 142 
 BAR2 SZ I         4 5 24.41        13.2 0.15                          18.9 142 
 GIR2 SZ EP   1    4 5 10.53                             162    0.31 8 40.2  15 
 PTB  HZ EP   1    4 5 15.76                             133   -0.37 7  131 261 
 PTB  HN ES        4 5 35.02                             133   -0.2310  131 261 
 PTB  HZ I         4 5 36.80         3.1 0.20                           131 261 
 OCA  HZ EP   2    4 5 18.93                             125   -0.81 5  167 359 
 OCA  HN ES   2    4 5 41.42                             125   -0.26 5  167 359 
 ZAR  HN ES   1    4 5 46.53                             121    0.50 7  193 296 
                                                                                
