 2017  514 0734  5.0 L   6.809 -73.168142.9  RSN 10 0.4 1.8LRSN                1
 GAP=109        1.01       3.9     3.4  6.7 -0.2840E+00  0.3511E+01  0.7202E+01E
 Epicentro: LOS SANTOS - SANTANDER                                             3
 ACTION:UPD 17-06-16 13:36 OP:jn   STATUS:               ID:20170514073405 L   I
 OLDACT:REG 17-05-14 13:09 OP:lv   STATUS:               ID:20170514072739     3
 2017-05-14-0728-00M.COL___347                                                 6
 STAT SP IPHASW D HRMM SECON CODA AMPLIT PERI AZIMU VELO AIN AR TRES W  DIS CAZ7
 BRR  HZ EP        734 25.87                             153    0.1410 68.6 299 
 BRR  HE ES        734 42.67                             153    0.8010 68.6 299 
 BRR  HZ I         734 43.94        11.6 0.17            154           68.6 299 
 PAM  EZ EP        734 27.06                             150    0.0610 78.2  41 
 PAM  EN ES        734 43.54                             150   -0.5910 78.2  41 
 PAM  EZ I         734 46.38         9.2 0.23            156           78.2  41 
 PTB  HZ EP        734 31.04                             132   -0.54 9  146 258 
 PTB  HN ES        734 52.06                             132   -0.22 9  146 258 
 PTB  HZ I         734 59.19         7.6 0.09            133            146 258 
 SPBC HZ EP        734 33.29                             129    0.03 9  162 218 
 SPBC HN ES        734 54.73                             129   -0.53 9  162 218 
 SPBC HZ I         734 57.92        12.3 0.24            129            162 218 
 YPLC HZ EP        734 34.67                             126   -0.17 9  179 151 
 YPLC HN ES        734 58.58                             126    0.50 9  179 151 
 YPLC HZ I         734 59.41         6.0 0.10            128            179 151 
 ZAR  HZ EP        734 36.90                             122   -0.13 9  201 292 
 ZAR  HN ES        735  1.99                             122    0.01 9  201 292 
 NOR  HZ EP        734 40.80                             118    0.34 8  233 234 
 NOR  HN ES        735  8.12                             118    0.04 8  233 234 
 NOR  HZ I         735 13.21         5.3 0.35            120            233 234 
 ROSC BZ EP   9    734 44.34                             116    1.37 0  252 210 
 ROSC BN ES        735 14.15                                    0.23 8  252 210 
 ROSC BZ I         735 18.82         5.6 0.46            118            252 210 
 HEL  HZ EP        734 45.64                             114    0.76 8  270 255 
 HEL  HN ES   4    735 17.03                             114    1.08 0  270 255 
 CBOC HZ EP   4    734 52.87                             109    1.26 0  332 252 
 CBOC HN ES        735 27.48                             109   -0.45 7  332 252 
 CBOC HZ I         735 34.95         1.7 0.80            111            332 252 
                                                                                
