 2017  814 0722 38.3 L   6.741 -73.144154.7  RSN  5 0.3 1.2LRSN                1
 GAP=233        0.65       4.0     5.0  6.3  0.9319E+01 -0.7339E+00 -0.2781E+01E
 Epicentro: LOS SANTOS - SANTANDER                                             3
 ACTION:UPD 17-09-04 20:20 OP:rebc STATUS:               ID:20170814072238 L   I
 OLDACT:UP  17-08-14 15:43 OP:and  STATUS:               ID:20170814071739     3
 OLDACT:UP  17-08-14 15:42 OP:and  STATUS:               ID:20170814071739     3
 OLDACT:REG 17-08-14 13:18 OP:and  STATUS:               ID:20170814071739     3
 2017-08-14-0718-00M.COL___413                                                 6
 STAT SP IPHASW D HRMM SECON CODA AMPLIT PERI AZIMU VELO AIN AR TRES W  DIS CAZ7
 BAR2 EZ EP        722 58.69                             174   -0.2110 17.0 194 
 BAR2 EZ ES   2    723 14.30                             174   -0.67 5 17.0 194 
 BRR  HZ EP        723  0.56                             153   -0.0510 74.7 303 
 BRR  HN ES        723 18.27                             153    0.2610 74.7 303 
 RUS  HZ EP        723  2.77                             147    0.2710 94.0 176 
 RUS  HN ES        723 21.45                             147    0.0810 94.0 176 
 RUS  HZ I         723 23.09         1.4 0.20            145           94.0 176 
 SPBC HZ EP   2    723  6.13                             132   -0.92 5  158 221 
 SPBC HN ES        723 29.50                             132    0.03 9  158 221 
 SPBC HZ I         723 33.76         3.3 0.10            130            158 221 
 ZAR  HZ EP   2    723 12.12                             124    0.50 4  207 294 
 ZAR  HN ES        723 37.47                             124   -0.13 8  207 294 
                                                                                
