 2012  814 0444  3.3 L   6.801 -73.135144.0  RSN 10 0.5 2.3LRSN                1
 GAP=138        0.94       4.2     4.8  6.5  0.2059E+01  0.9772E+01 -0.1165E+01E
 Epicentro: LOS SANTOS - SANTANDER                                             3
 ACTION:UPD 12-09-10 11:56 OP:ep   STATUS:               ID:20120814044403 L   I
 2012-08-14-0440-00M.COL___217                                                 6
 STAT SP IPHASW D HRMM SECON CODA AMPLIT PERI AZIMU VELO AIN AR TRES W  DIS CAZ7
 BAR2 SZ EP        444 22.77                             170    0.0310 23.6 193 
 BAR2 SZ ES   1    444 37.68                             170   -0.21 7 23.6 193 
 BAR2 SZ I         444 39.12        84.2 0.23                          23.6 193 
 GIR2 SZ EP   1    444 22.83                             167    0.05 7 31.4 348 
 GIR2 SZ ES   1    444 38.06                             167    0.10 7 31.4 348 
 BRR  HZ IP     C  444 24.64                             152    0.3110 72.2 298 
 BRR  HZ I         444 25.09        60.6 0.12                          72.2 298 
 BRR  HN ES   1    444 41.53                             152    0.81 7 72.2 298 
 PAM  SE ES   2    444 42.70                             151    0.26 5 76.6  39 
 RUS  HZ EP   1    444 27.08                             143    0.19 7  101 177 
 RUS  HN ES        444 45.26                             143   -0.0210  101 177 
 RUS  HZ I         444 46.29        12.9 0.20                           101 177 
 PTB  HZ EP   1    444 29.45                             131   -0.80 7  149 259 
 PTB  HN ES        444 50.59                             131   -0.66 9  149 259 
 PTB  HZ I         444 51.92        10.5 0.19                           149 259 
 OCA  HZ EP   1    444 30.95                             129   -0.55 7  160 353 
 OCA  HE ES   1    444 52.73                             129   -0.75 7  160 353 
 OCA  HZ I         444 56.34        42.6 0.24                           160 353 
 ZAR  HZ EP   1    444 36.40                             122    0.64 6  205 292 
 ZAR  HN ES        445  1.38                             122    0.32 9  205 292 
 ZAR  HZ I         445  7.73        21.2 0.28                           205 292 
 HEL  HZ EP   1    444 44.36                             114    0.79 6  273 256 
 HEL  HN ES   2    445 14.48                             114   -0.49 4  273 256 
 HEL  HZ I         445 21.11         5.8 0.31                           273 256 
 GUY  SZ EP   1    444 47.20                             112   -0.02 5  305 235 
                                                                                
