 2015  214 0707 38.7 L   7.399 -73.181146.5  RSN  4 0.5 1.5LRSN                1
 GAP=212        1.16       7.2    12.7 13.6  0.4616E+02 -0.5878E+02 -0.5526E+02E
 Epicentro: EL PLAYON - SANTANDER                                              3
 ACTION:UPD 15-04-30 21:26 OP:nd   STATUS:               ID:20150214070738 L   I
 OLDACT:REG 15-02-14 12:59 OP:fm   STATUS:               ID:20150214065735     3
 2015-02-14-0657-35M.COL___296                                                 6
 STAT SP IPHASW D HRMM SECON CODA AMPLIT PERI AZIMU VELO AIN AR TRES W  DIS CAZ7
 BRR  HZ EP        7 8  0.60                             154    0.8610 66.9 241 
 BRR  HN ES        7 8 15.94                             154   -0.1710 66.9 241 
 BRR  HZ I         7 8 18.22         4.8 0.26            152           66.9 241 
 BAR2 EZ EP        7 8  0.71                             147   -0.7110 89.2 180 
 BAR2 EZ ES        7 8 19.33                             147    0.2210 89.2 180 
 BAR2 EZ I         7 8 21.77         6.7 0.12            148           89.2 180 
 PTB  HE ES   1    7 8 30.32                             128   -0.23 7  170 236 
 PTB  HZ I         7 8 34.15         1.8 0.18            128            170 236 
 SML  HZ EP        7 8  9.21                             126    0.06 9  184 328 
 SML  HN ES        7 8 32.67                             126   -0.19 9  184 328 
 SML  HZ I         7 8 35.59         4.8 0.10            127            184 328 
                                                                                
