 2016  214 0602  1.4 L   6.837 -73.130149.1  RSN 28 0.5 2.8LRSN                1
 GAP= 53        1.09       2.3     2.7  4.6 -0.2058E+01  0.1344E+01  0.1169E+00E
 Epicentro: LOS SANTOS - SANTANDER                                             3
 ACTION:UPD 16-03-04 21:26 OP:rebc STATUS:               ID:20160214060201 L   I
 OLDACT:REG 16-02-14 14:27 OP:ak   STATUS:               ID:20160214055748     3
 2016-02-14-0557-48M.COL___295                                                 6
 STAT SP IPHASW D HRMM SECON CODA AMPLIT PERI AZIMU VELO AIN AR TRES W  DIS CAZ7
 BAR2 EZ EP        6 2 21.81                             169    0.3010 27.6 192 
 BAR2 EZ ES        6 2 37.03                             169   -0.1810 27.6 192 
 BAR2 EZ I         6 2 38.38       190.3 0.30            169           27.6 192 
 PAM  EZ EP        6 2 24.63                             153    0.9110 73.2  41 
 PAM  EN ES        6 2 41.57                             153    0.4310 73.2  41 
 PAM  EZ I         6 2 43.98        80.7 0.50            154           73.2  41 
 PAM  EZ E      C  6 2 45.76                                           73.2  41 
 RUS  HZ EP     D  6 2 25.81                             143    0.0610  105 177 
 RUS  HN ES        6 2 44.63                             143   -0.1210  105 177 
 RUS  HZ I         6 2 45.91        53.0 0.22            145            105 177 
 PTB  HZ EP        6 2 28.50                             132   -0.35 9  150 257 
 PTB  HN ES        6 2 49.51                             132   -0.77 9  150 257 
 PTB  HZ I         6 2 56.44        51.7 0.18            131            150 257 
 TAM  HZ EP        6 2 30.23                             131    0.95 9  155 107 
 TAM  HE ES        6 2 50.17                             131   -0.87 9  155 107 
 TAM  HZ I         6 2 58.36        34.0 0.32            134            155 107 
 OCA  HZ EP        6 2 29.77                             131    0.17 9  156 352 
 OCA  HN ES        6 2 52.00                             131    0.38 9  156 352 
 OCA  HZ I         6 2 58.49       117.6 0.66            131            156 352 
 SPBC HZ EP        6 2 30.66                             129    0.12 9  167 219 
 SPBC HN ES        6 2 52.86                             129   -0.42 9  167 219 
 SPBC HZ I         6 2 57.71       111.9 0.20            129            167 219 
 ZAR  HZ EP        6 2 34.33                             123    0.27 9  204 291 
 ZAR  HN ES        6 2 59.69                             123    0.14 9  204 291 
 ZAR  HZ I         6 3  5.06        82.4 0.28            122            204 291 
 NOR  HZ EP        6 2 38.01                             119    0.30 8  238 234 
 NOR  HN ES        6 3  5.40                             119   -0.64 8  238 234 
 NOR  HZ I         6 3 15.40        41.4 0.44            119            238 234 
 CHI  HZ EP        6 2 39.95                             117    0.21 8  253 195 
 CHI  HN ES        6 3  9.46                             117   -0.20 8  253 195 
 CHI  HZ I         6 3 12.79        45.3 0.66            118            253 195 
 ROSC BZ EP   4    6 2 41.87                             117    1.71 0  257 211 
 ROSC BN ES        6 3 10.97                             117    0.56 8  257 211 
 ROSC BZ I         6 3 16.53       109.9 0.40            117            257 211 
 URE  HZ EP   9    6 2 41.26                             114   -1.37 0  284 291 
 URE  HE ES        6 3 13.04                                   -0.39 7  284 291 
 URE  HZ I         6 3 23.26        36.4 0.16            114            284 291 
 GUY2CHZ EP        6 2 45.83                             113    0.26 7  305 234 
 GUY2CHE ES        6 3 20.52                             113    0.49 7  305 234 
 GUY2CHZ I         6 3 28.09        39.9 0.36                           305 234 
 VIL  SZ EP        6 2 45.61                             112    0.17 7  308 192 
 VIL  SN ES        6 3 19.61                             112   -0.20 7  308 192 
 PTGC HZ IP     D  6 2 44.97                             112   -0.78 7  312 159 
 PTGC HN ES   4    6 3 18.27                             112   -2.08 0  312 159 
 PTGC HZ I         6 3 22.13        19.7 0.48            113            312 159 
 LL6C HZ EP        6 2 46.22                             111   -0.56 7  321 357 
 LL6C HN ES        6 3 21.99                             111   -0.19 7  321 357 
 LL6C HZ I         6 3 27.87        18.3 0.42            111            321 357 
 CRECREZ EP   4    6 2 47.19                             111   -0.39 0  322 230 
 CRECREN ES   1    6 3 23.29                             111   -0.32 5  322 230 
 ELA  HZ EP   9    6 2 50.36                             111    1.53 0  333 229 
 ELA  HN ES        6 3 27.27                                   -0.09 7  333 229 
 ELA  HZ I         6 3 34.52        30.3 0.52            111            333 229 
 CBOC HZ EP        6 2 49.32                             110    0.55 7  336 252 
 CBOC HE ES   4    6 3 24.31                             110   -1.42 0  336 252 
 CBOC HZ I         6 3 31.64        10.5 0.76            110            336 252 
 MON  HZ EP   9    6 2 48.80                             109   -1.58 0  353 308 
 MON  HN ES        6 3 27.20                                    0.18 6  353 308 
 MON  HZ I         6 3 42.47        20.5 0.54            109            353 308 
 SDV  BZ EP        6 2 51.35                             109    0.25 6  356  51 
 SDV  BN ES        6 3 28.91                             109   -0.97 6  356  51 
 ANIL HZ EP        6 2 52.32                             109    0.53 6  361 224 
 ANIL HN ES        6 3 31.34                             109    0.23 6  361 224 
 ORTC HZ EP        6 2 56.15                             107    0.23 6  400 216 
 ORTC HN ES        6 3 38.18                             107   -0.28 6  400 216 
 ORTC HZ I         6 3 43.21        21.4 0.28            107            400 216 
 ELOV BZ EP        6 2 55.54                             106   -0.76 6  403  87 
 ELOV BN ES   4    6 3 37.07                             106   -2.06 0  403  87 
 SJC  HZ EP   4    6 2 55.32                             106   -1.45 0  407 326 
 SJC  HN ES   4    6 3 37.37                             106   -2.60 0  407 326 
 SJC  HZ I         6 3 51.64        11.3 0.60            106            407 326 
 PAL  HZ EP        6 2 57.45                             106    0.38 6  409 239 
 PAL  HE ES        6 3 39.89                             106   -0.62 6  409 239 
 PAL  HZ I         6 3 45.27         6.4 0.40            106            409 239 
 CRJC HZ EP        6 3  2.23                             104   -1.26 5  463   3 
 CRJC HN ES        6 3 50.48                             104   -1.45 5  463   3 
 CRJC HZ I         6 3 56.87        19.1 0.20            104            463   3 
 MACC HZ EP   4    6 3  9.12                             102   -1.56 0  525 189 
 MACC HN ES   4    6 4  0.61                             102   -4.13 0  525 189 
 MACC HZ I         6 4 24.56         7.4 0.50            102            525 189 
                                                                                
