 2017  314 0655 40.1 L   6.776 -73.117148.4  RSN 17 0.4 2.2LRSN                1
 GAP=123        0.96       3.1     3.1  4.8  0.8421E+00  0.3868E+01  0.3412E+01E
 Epicentro: LOS SANTOS - SANTANDER                                             3
 ACTION:UPD 17-05-25 18:40 OP:jn   STATUS:               ID:20170314065540 L   I
 OLDACT:DUP 17-03-14 16:15 OP:cara STATUS:               ID:20170314064743d    3
 OLDACT:DUP 17-03-14 16:05 OP:cara STATUS:               ID:20170314064742d    3
 2017-03-14-0648-00M.COL___391                                                 6
 STAT SP IPHASW D HRMM SECON CODA AMPLIT PERI AZIMU VELO AIN AR TRES W  DIS CAZ7
 BAR2 EZ EP     C  656  0.14                             171    0.0910 21.5 200 
 BAR2 EZ ES        656 15.42                             171   -0.1710 21.5 200 
 BAR2 EZ I         656 16.63        63.0 0.44            167           21.5 200 
 BRR  HZ IP     C  656  2.01                             152    0.2110 75.3 299 
 BRR  HN ES        656 18.73                             152    0.0310 75.3 299 
 BRR  HZ I         656 22.42        20.0 0.48            149           75.3 299 
 PAM  EZ EP        656  3.09                             151    0.4410 77.6  36 
 PAM  EN ES        656 20.22                             151    0.0210 77.6  36 
 PAM  EZ I         656 22.95        14.8 0.58            157           77.6  36 
 RUS  HZ EP        656  4.00                             145    0.0510 97.7 178 
 RUS  HN ES        656 22.89                             145    0.3710 97.7 178 
 RUS  HZ I         656 24.44        23.0 0.26            145           97.7 178 
 PTB  HZ EP        656  7.06                             132   -0.50 9  150 260 
 PTB  HN ES        656 28.46                             132   -0.49 9  150 260 
 PTB  HZ I         656 30.03        21.7 0.36            130            150 260 
 SPBC HZ EP        656  9.07                             130    0.23 9  163 220 
 SPBC HN ES        656 31.12                             130   -0.10 9  163 220 
 SPBC HZ I         656 37.19        40.3 0.24            128            163 220 
 ZAR  HZ EP        656 12.64                             122   -0.52 8  208 293 
 ZAR  HN ES        656 38.65                             122   -0.27 8  208 293 
 ZAR  HZ I         656 44.40        14.9 0.28            122            208 293 
 CHI  HZ EP        656 18.19                             118    0.39 8  247 196 
 CHI  HN ES        656 47.41                             118    0.24 8  247 196 
 CHI  HZ I         656 55.75         6.5 0.38            118            247 196 
 ROSC BZ EP   4    656 20.24                             117    1.91 0  252 212 
 ROSC BN ES   4    656 49.64                             117    1.51 0  252 212 
 ROSC BZ I         656 55.70        18.2 0.45            117            252 212 
 HEL  HZ EP        656 21.42                             115    0.67 8  274 257 
 HEL  HN ES        656 52.86                             115    0.43 8  274 257 
 HEL  HZ I         656 59.60         8.2 0.26            115            274 257 
 URE  HZ EP   4    656 20.79                             114   -0.98 0  288 292 
 URE  HN ES   4    656 49.68                             114   -4.57 0  288 292 
 URE  HZ I         657  1.99         7.8 0.34            114            288 292 
 GUY2CHZ EP   4    656 25.61                             113    1.62 0  302 236 
 GUY2CHN ES        656 58.44                             113    0.25 7  302 236 
 GUY2CHZ  IAML     657  4.88         9.2 0.48                           302 236 
 PTGC HZ EP        656 23.14                             112   -0.56 7  305 159 
 PTGC HN ES        656 56.57                             112   -1.11 7  305 159 
 PTGC HZ I         656 57.44         6.6 0.28            113            305 159 
 CBOC HZ EP        656 28.29                             110    0.88 7  336 253 
 CBOC HN ES        657  3.86                             110   -0.43 7  336 253 
 CBOC HZ I         657 15.25         2.8 0.42            110            336 253 
 DBB  EZ EP        656 27.57                             110   -0.54 7  343 275 
 DBB  EN ES   4    657  2.79                             110   -2.73 0  343 275 
 DBB  EZ I         657 10.51         4.2 0.30            110            343 275 
 ORTC HZ EP   9    656 35.16                             107    1.05 0  395 217 
 ORTC HN ES        657 17.65                                    0.39 6  395 217 
 ORTC HZ I         657 23.50         6.0 0.42            107            395 217 
 SJC  HZ EP   4    656 34.30                             106   -1.95 0  413 327 
 SJC  HE ES   4    657 15.13                             106   -4.89 0  413 327 
 SJC  HZ I         657 20.03        11.5 0.96            107            413 327 
                                                                                
