 2012 1214 0518 35.3 L   6.764 -73.134149.5  RSN  5 0.3 1.2LRSN                1
 GAP=140        0.55       4.1     3.9  5.6 -0.1909E+01  0.1652E+01  0.2325E+01E
 Epicentro: LOS SANTOS - SANTANDER                                             3
 ACTION:UPD 13-01-04 14:27 OP:ep   STATUS:               ID:20121214051835 L   I
 2012-12-14-0516-45M.COL___197                                                 6
 STAT SP IPHASW D HRMM SECON CODA AMPLIT PERI AZIMU VELO AIN AR TRES W  DIS CAZ7
 BAR2 SZ EP   1    518 55.42                             172    0.08 7 19.7 196 
 BAR2 SZ ES   1    519 10.86                             172   -0.09 7 19.7 196 
 BAR2 SZ I         519 13.50         7.0 0.30                          19.7 196 
 BRR  HE ES   1    519 14.51                             152    0.51 7 74.3 301 
 PAM  SZ EP   1    518 58.16                             151    0.08 7 79.7  37 
 PAM  SN ES   1    519 15.50                             151   -0.32 7 79.7  37 
 PAM  SZ I         519 17.71         3.4 0.42                          79.7  37 
 RUS  HZ EP   1    518 59.39                             146    0.23 7 96.5 177 
 RUS  HE ES   1    519 17.75                             146   -0.01 7 96.5 177 
 RUS  HZ I         519 19.52         1.3 0.30                          96.5 177 
 PTB  HZ EP   1    519  2.41                             133   -0.24 7  148 260 
 PTB  HN ES   1    519 23.66                             133   -0.31 7  148 260 
 PTB  HZ I         519 26.88         2.0 0.11                           148 260 
                                                                                
