 2013  614 0210 35.6 L   6.779 -73.212155.2  RSN  4 0.1 1.2LRSN                1
 GAP=195        0.35       3.1     3.5  4.4  0.5128E+01  0.1599E+01 -0.1489E+01E
 Epicentro: ZAPATOCA - SANTANDER                                               3
 ACTION:UPD 14-01-08 09:54 OP:ep   STATUS:               ID:20130614021035 L   I
 OLDACT:UP  13-06-14 09:20 OP:cam  STATUS:               ID:20130614020959     3
 OLDACT:UP  13-06-14 09:20 OP:cam  STATUS:               ID:20130614020959     3
 OLDACT:REG 13-06-14 07:48 OP:cam  STATUS:               ID:20130614020959     3
 2013-06-14-0209-59M.COL___261                                                 6
 STAT SP IPHASW D HRMM SECON CODA AMPLIT PERI AZIMU VELO AIN AR TRES W  DIS CAZ7
 BRR  HZ EP   2    210 57.70                             156    0.16 5 66.1 303 
 BRR  HN ES        211 14.67                             156    0.0410 66.1 303 
 RUS  HN ES        211 19.37                             146   -0.0210 99.0 172 
 RUS  HN I         211 19.57         3.3 0.20            145           99.0 172 
 PTB  HZ EP   1    211  2.86                             136    0.14 7  140 259 
 PTB  HN ES        211 23.75                             136   -0.09 9  140 259 
 PTB  HZ I         211 25.90         1.8 0.52            134            140 259 
 SML  HZ EP   2    211 12.42                             119   -0.30 4  243 337 
                                                                                
