 2011  814 1630 41.0 L   6.770 -73.134140.3  RSN  9 0.4 2.4LRSN                1
 GAP=139        0.72       3.9     5.3  5.2 -0.1257E+01  0.8282E+01  0.3669E+01E
 Epicentro: LOS SANTOS - SANTANDER                                             3
 ACTION:UPD 12-07-13 15:51 OP:ep   STATUS:               ID:20110814163041 L   I
 2011-08-14-1629-00S.COL___149                                                 6
 STAT SP IPHASW D HRMM SECON CODA AMPLIT PERI AZIMU VELO AIN AR TRES W  DIS CAZ7
 BAR2 SZ IP       1630 59.90                             171   -0.0610 20.3 195 
 BAR2 SZ ES   1   1631 13.94                             171   -0.77 7 20.3 195 
 BAR2 SZ I        1631 15.48        68.5 0.30                          20.3 195 
 BRR  HZ IP     C 1631  1.83                             150    0.0710 73.9 300 
 BRR  HN ES   1   1631 18.62                             150    0.70 7 73.9 300 
 BRR  HZ I        1631 20.47        46.1 0.14                          73.9 300 
 PAM  SZ EP       1631  2.81                             149    0.0210 79.2  37 
 PAM  SE ES   2   1631 19.66                             149   -0.10 5 79.2  37 
 RUS  HZ EP       1631  3.84                             144   -0.1710 97.1 177 
 RUS  HE ES   1   1631 22.38                             144    0.46 7 97.1 177 
 OCA  SZ EP   2   1631  9.04                             128   -0.23 5  164 353 
 OCA  SZ I        1631 32.82        22.4 0.40                           164 353 
 NOR  SZ EP       1631 16.49                             117    0.13 8  234 235 
 NOR  SE ES   2   1631 42.88                             117   -1.03 4  234 235 
 CHI  HZ EP       1631 18.23                             116    0.11 8  246 196 
 CHI  HN ES   3   1631 47.45                             116    0.40 2  246 196 
 CHI  HZ I        1631 50.56        14.6 0.42                           246 196 
 DBB  SZ EP       1631 28.25                             108   -0.23 7  341 275 
 PRA  HZ EP       1631 34.38                             106    0.27 6  390 210 
                                                                                
