 2014  314 1042  5.7 L   7.449 -73.414106.0  RSN 11 0.5 1.8LRSN                1
 GAP=158        1.09       2.4     4.4  7.9 -0.1148E+01  0.7670E+01  0.1248E+01E
 Epicentro: SABANA DE TORRES - SANTANDER                                       3
 ACTION:UPD 14-04-09 23:17 OP:nd   STATUS:               ID:20140314104205 L   I
 OLDACT:DUP 14-03-14 17:26 OP:nd   STATUS:               ID:20140314104041d    3
 2014-03-14-1040-39M.COL___232                                                 6
 STAT SP IPHASW D HRMM SECON CODA AMPLIT PERI AZIMU VELO AIN AR TRES W  DIS CAZ7
 OCA  HZ EP       1042 24.57                             137    0.3110 88.0   7 
 OCA  HN ES       1042 39.08                             137    0.3510 88.0   7 
 OCA  HZ I        1042 40.53        21.4 0.12            138           88.0   7 
 BAR2 SZ EP       1042 25.47                             134    0.2310 98.1 165 
 BAR2 SZ ES       1042 40.16                             134   -0.3210 98.1 165 
 BAR2 SZ I        1042 40.90        15.9 0.56            134           98.1 165 
 PTB  HZ EP       1042 29.33                             120   -0.98 9  153 229 
 PTB  HN ES       1042 49.50                             120   -0.01 9  153 229 
 PTB  HZ I        1042 52.89         9.2 0.18            118            153 229 
 ZAR  HZ EP       1042 31.10                             119    0.10 9  159 272 
 ZAR  HN ES       1042 51.12                             119    0.39 9  159 272 
 ZAR  HZ I        1042 54.94        11.4 0.32            117            159 272 
 SML  HZ EP       1042 31.11                             118   -0.59 9  166 334 
 SML  HN ES       1042 51.46                             118   -0.52 9  166 334 
 SML  HZ I        1042 52.96        17.6 0.10            117            166 334 
 RUS  HZ EP       1042 33.58                             116    0.18 9  176 168 
 RUS  HN ES   2   1042 54.43                             116   -0.58 4  176 168 
 RUS  HZ I        1042 59.66         1.7 0.12            116            176 168 
 SPBC HZ EP       1042 36.81                             111   -0.07 8  212 200 
 SPBC HN ES       1043  1.75                             111    0.55 8  212 200 
 SPBC HZ I        1043  7.77         6.1 0.42            110            212 200 
 URE  HZ EP   4   1042 38.53                             108   -1.08 0  236 278 
 URE  HN ES   4   1043  3.98                             108   -2.07 0  236 278 
 URE  HZ I        1043 12.18         5.5 0.20            107            236 278 
 NOR  HZ EP       1042 42.34                             106   -0.48 8  263 218 
 NOR  HN ES       1043 11.55                             106   -0.23 8  263 218 
 NOR  HZ I        1043 17.89         3.8 0.38            105            263 218 
 HEL  HZ EP       1042 45.22                             105    0.99 8  272 239 
 HEL  HN ES   2   1043 14.72                             105    0.44 4  272 239 
 HEL  HZ I        1043 24.58         3.1 0.52            105            272 239 
 COD  HZ EP       1042 44.74                             105    0.63 8  275 359 
 COD  HN ES       1043 13.78                             105   -0.28 8  275 359 
 COD  HZ I        1043 21.51         2.5 0.60            105            275 359 
                                                                                
