 2012  614 1226  9.9 L   6.742 -73.169140.9  RSN  6 0.3 1.6LRSN                1
 GAP=136        0.61       3.6     3.4  5.0 -0.9429E+00  0.5106E+01 -0.4729E+01E
 Epicentro: VILLANUEVA - SANTANDER                                             3
 ACTION:UPD 12-08-06 17:49 OP:ep   STATUS:               ID:20120614122609 L   I
 2012-06-14-1220-00M.COL___200                                                 6
 STAT SP IPHASW D HRMM SECON CODA AMPLIT PERI AZIMU VELO AIN AR TRES W  DIS CAZ7
 BAR2 SZ EP       1226 29.18                             173    0.4010 16.6 185 
 BAR2 SZ ES       1226 43.67                             173    0.1310 16.6 185 
 BAR2 SZ I        1226 46.26        13.1 0.20                          16.6 185 
 PAM  SZ EP       1226 32.00                             148    0.0310 84.0  38 
 PAM  SN ES   1   1226 49.10                             148   -0.12 7 84.0  38 
 RUS  HZ EP       1226 32.70                             145    0.0210 94.4 174 
 RUS  HZ ES   1   1226 50.09                             145   -0.39 7 94.4 174 
 RUS  HZ I        1226 53.69         4.8 0.35                          94.4 174 
 PTB  HZ EP       1226 36.05                             132   -0.04 9  144 261 
 PTB  HN ES   1   1226 56.23                             132   -0.33 7  144 261 
 PTB  HZ I        1226 59.34         5.1 0.10                           144 261 
 OCA  HZ EP   1   1226 37.83                             127   -0.55 7  166 354 
 ZAR  HZ EP   1   1226 42.13                             121    0.13 6  204 294 
 ZAR  HN ES   1   1227  7.34                             121    0.26 6  204 294 
 ZAR  HZ I        1227 13.81         6.0 0.13                           204 294 
                                                                                
