 2016  314 1803 59.6 L   6.808 -73.172140.3  RSN  5 0.1 1.5LRSN                1
 GAP=184        0.39       2.8     4.4  3.2 -0.7865E+01  0.3954E+01  0.1170E+01E
 Epicentro: LOS SANTOS - SANTANDER                                             3
 ACTION:UPD 16-05-13 21:24 OP:cam  STATUS:               ID:20160314180359 L   I
 OLDACT:REG 16-03-14 20:54 OP:cara STATUS:               ID:20160314175748     3
 2016-03-14-1757-48M.COL___307                                                 6
 STAT SP IPHASW D HRMM SECON CODA AMPLIT PERI AZIMU VELO AIN AR TRES W  DIS CAZ7
 BAR2 EZ EP       18 4 18.75                             170    0.1210 23.9 183 
 BAR2 EZ ES       18 4 33.43                             170   -0.0110 23.9 183 
 BAR2 EZ I        18 4 35.07         9.0 0.20            171           23.9 183 
 PAM  EN ES       18 4 38.29                             149    0.0010 78.6  42 
 PAM  EZ I        18 4 40.86         5.4 0.58            152           78.6  42 
 RUS  HZ EP       18 4 22.79                             142   -0.1610  102 174 
 RUS  HN ES       18 4 41.12                             142   -0.0010  102 174 
 RUS  HZ I        18 4 42.57         3.5 0.28            145            102 174 
 SPBC HZ EP       18 4 27.79                             128    0.16 9  162 218 
 SPBC HN ES       18 4 49.31                             128   -0.14 9  162 218 
 SPBC HZ I        18 4 52.37        10.8 0.22            129            162 218 
 CHI  HZ EP       18 4 36.89                             116   -0.17 8  249 194 
 CHI  HZ I        18 4 37.14         1.6 0.20            118            249 194 
 CHI  HN ES       18 5  6.47                             116    0.22 8  249 194 
                                                                                
