 2015  814 1150 54.5 L   7.131 -73.294115.4  RSN 14 0.8 2.5LRSN                1
 GAP=162        1.68       4.6     8.1  9.3 -0.4458E+01  0.1922E+02 -0.6390E+00E
 Epicentro: LEBRIJA - SANTANDER                                                3
 ACTION:UPD 15-09-15 23:02 OP:cam  STATUS:               ID:20150814115054 L   I
 OLDACT:UP  15-08-15 00:46 OP:ar   STATUS:               ID:20150814114749d    3
 OLDACT:UP  15-08-15 00:45 OP:ar   STATUS:               ID:20150814114749d    3
 OLDACT:DUP 15-08-15 00:28 OP:ar   STATUS:               ID:20150814114749d    3
 OLDACT:UP  15-08-15 00:22 OP:ar   STATUS:               ID:20150814114748     3
 OLDACT:REG 15-08-14 20:33 OP:ar   STATUS:               ID:20150814114748     3
 2015-08-14-1147-48M.COL___325                                                 6
 STAT SP IPHASW D HRMM SECON CODA AMPLIT PERI AZIMU VELO AIN AR TRES W  DIS CAZ7
 BRR  HZ IP     D 1151 11.06                             157    0.0410 46.2 267 
 BRR  HN ES       1151 24.65                             157    0.7610 46.2 267 
 BRR  HZ I        1151 25.08        48.8 0.10            146           46.2 267 
 BAR2 EZ IP     D 1151 12.22                             150    0.0610 60.8 168 
 BAR2 EZ ES       1151 25.11                             150   -0.8110 60.8 168 
 BAR2 EZ I        1151 27.31       173.0 0.44            150           60.8 168 
 OCA  HZ EP       1151 17.07                             130    0.1410  123 359 
 OCA  HN ES       1151 34.86                             130    0.4510  123 359 
 ZAR  HZ EP       1151 22.52                             119    0.25 9  177 283 
 ZAR  HN ES       1151 43.73                             119   -0.18 9  177 283 
 ZAR  HZ I        1151 46.57        44.6 0.36            114            177 283 
 SPBC HZ EP       1151 22.13                             118   -1.06 9  185 208 
 SPBC HN ES       1151 45.32                             118   -0.22 9  185 208 
 SPBC HZ I        1151 49.64        35.4 0.10            114            185 208 
 SML  HZ EP       1151 24.68                             115   -0.45 9  204 335 
 SML  HE ES       1151 48.43                             115   -0.57 9  204 335 
 SML  HZ I        1151 59.90        44.3 0.10            112            204 335 
 NOR  HE ES       1151 57.73                             110    0.14 8  246 225 
 NOR  HZ I        1152  2.36        30.5 0.20            107            246 225 
 URE  HZ EP   4   1151 29.57                             109   -1.56 0  256 286 
 URE  HN ES   4   1151 57.37                             109   -2.32 0  256 286 
 URE  HZ I        1151 58.35        24.7 0.14            106            256 286 
 HEL  HZ EP   9   1151 33.46                             108    0.54 0  268 247 
 HEL  HN ES       1152  3.51                             123    0.10 8  268 247 
 HEL  HZ I        1152  6.81        23.3 0.32            105            268 247 
 ROSC BZ EPg      1151 36.90                             108    2.85 7  278 204 
 ROSC BN ES   4   1151 55.92                             108   -8.97 0  278 204 
 GUY2CHZ EP       1151 37.61                             105   -0.50 7  311 227 
 GUY2CHN ES   4   1152 13.97                             105    1.85 0  311 227 
 DBB  SZ EP       1151 38.33                             104   -0.59 7  322 268 
 DBB  SZ ES   4   1152 14.45                             104    0.90 0  322 268 
 DBB  SZ I        1152 30.14        26.5 0.40            102            322 268 
 CBOC HZ EP       1151 40.02                             104   -0.11 7  332 245 
 CBOC HN ES   2   1152 15.52                             104   -0.18 3  332 245 
 CBOC HZ I        1152 34.97         4.5 0.42            101            332 245 
 CRJC HZ EP   2   1151 52.02                              99   -0.08 3  433   6 
 CRJC HN ES   4   1152 38.52                              99    1.51 0  433   6 
 CRJC HZ I        1152 41.88        10.1 0.46             98            433   6 
                                                                                
