 2017  114 1712 59.1 L   6.778 -73.068144.4  RSN  7 0.4 1.3LRSN                1
 GAP=148        0.92       4.5     5.1  6.0 -0.7066E+01  0.7183E+01  0.7200E+01E
 Epicentro: LOS SANTOS - SANTANDER                                             3
 ACTION:UPD 17-05-22 15:59 OP:jn   STATUS:               ID:20170114171259 L   I
 OLDACT:UP  17-01-14 22:18 OP:e    STATUS:               ID:20170114170748     3
 OLDACT:UP  17-01-14 22:16 OP:e    STATUS:               ID:20170114170748     3
 OLDACT:UP  17-01-14 22:16 OP:e    STATUS:               ID:20170114170748     3
 OLDACT:UP  17-01-14 22:15 OP:e    STATUS:               ID:20170114170748     3
 OLDACT:REG 17-01-14 20:15 OP:and  STATUS:               ID:20170114170748     3
 2017-01-14-1708-00M.COL___335                                                 6
 STAT SP IPHASW D HRMM SECON CODA AMPLIT PERI AZIMU VELO AIN AR TRES W  DIS CAZ7
 BAR2 EZ ES       1713 33.36                             170   -0.4210 24.1 212 
 BAR2 EZ I        1713 36.29         7.3 0.38            169           24.1 212 
 PAM  EZ IP     C 1713 20.92                             152   -0.0610 74.3  33 
 PAM  EN ES       1713 38.28                             152    0.2210 74.3  33 
 PAM  EZ I        1713 42.91         2.3 0.34            155           74.3  33 
 BRR  HZ EP       1713 20.17                             149   -0.4410 79.9 297 
 BRR  HN ES       1713 38.05                             149    0.6510 79.9 297 
 RUS  HZ EP       1713 22.46                             145   -0.0610 97.9 181 
 RUS  HN ES       1713 41.04                             145    0.2510 97.9 181 
 RUS  HZ I        1713 43.70         2.2 0.40            146           97.9 181 
 NOR  HZ EP   2   1713 36.35                             118    1.00 4  240 236 
 NOR  HN ES       1714  3.03                             118   -0.60 8  240 236 
 NOR  HZ I        1714 11.03         1.6 0.23            119            240 236 
 CHI  HZ EP       1713 36.48                             117   -0.24 8  249 197 
 CHI  HN ES   3   1714  7.56                             117    1.49 2  249 197 
 GUY2CHZ EP       1713 43.38                             112    0.10 7  307 236 
 GUY2CHN ES       1714 18.01                             112    0.27 7  307 236 
 GUY2CHZ  IAML    1714 28.66         1.3 0.45                           307 236 
                                                                                
