 2016  414 1107 29.5 L   6.801 -73.177145.9  RSN  6 0.3 1.6LRSN                1
 GAP=133        0.67       2.8     3.1  4.9  0.2142E+00  0.4407E+01  0.2096E+01E
 Epicentro: LOS SANTOS - SANTANDER                                             3
 ACTION:UPD 16-05-05 14:21 OP:rebc STATUS:               ID:20160414110729 L   I
 OLDACT:REG 16-04-14 21:38 OP:ar   STATUS:               ID:20160414105747     3
 2016-04-14-1057-47M.COL___306                                                 6
 STAT SP IPHASW D HRMM SECON CODA AMPLIT PERI AZIMU VELO AIN AR TRES W  DIS CAZ7
 BAR2 EZ EP       11 7 49.18                             171    0.0110 23.1 182 
 BAR2 EZ ES       11 8  4.12                             171   -0.3710 23.1 182 
 BAR2 EZ I        11 8  6.58         9.4 0.24            170           23.1 182 
 PAM  EZ EP       11 7 52.01                             150    0.1310 79.5  42 
 PAM  EN ES       11 8  9.36                             150    0.0410 79.5  42 
 PAM  EZ I        11 8 11.32         5.4 0.58            155           79.5  42 
 RUS  HZ EP       11 7 53.30                             144   -0.0210  101 174 
 RUS  HN ES       11 8 12.22                             144    0.3410  101 174 
 RUS  HZ I        11 8 12.83         5.1 0.26            146            101 174 
 PTB  HZ EP       11 7 55.88                             133   -0.32 9  144 259 
 PTB  HN ES       11 8 17.00                             133   -0.01 9  144 259 
 PTB  HZ I        11 8 23.82         5.1 0.24            132            144 259 
 ZAR  HZ EP   2   11 8  2.31                             123    0.66 4  201 292 
 ZAR  HN ES       11 8 26.92                             123    0.22 9  201 292 
 ZAR  HZ I        11 8 34.21         4.4 0.46            123            201 292 
 CHI  HZ EP       11 8  6.66                             117   -0.49 8  248 194 
 CHI  HN ES       11 8 36.81                             117    0.31 8  248 194 
 CHI  HZ I        11 8 40.72         3.6 0.62            119            248 194 
                                                                                
