 2016  314 1313 37.8 L   6.696 -72.799129.2  RSN  4 0.4 1.3LRSN                1
 GAP=191        0.94       4.7     6.7  7.6 -0.2656E+01  0.1646E+02 -0.5196E+01E
 Epicentro: MOLAGAVITA - SANTANDER                                             3
 ACTION:UPD 16-05-13 21:24 OP:cam  STATUS:               ID:20160314131337 L   I
 OLDACT:REG 16-03-14 20:23 OP:cara STATUS:               ID:20160314130750     3
 2016-03-14-1307-50M.COL___312                                                 6
 STAT SP IPHASW D HRMM SECON CODA AMPLIT PERI AZIMU VELO AIN AR TRES W  DIS CAZ7
 BAR2 EZ EP       1313 56.13                             160    0.0710 43.9 255 
 BAR2 EZ ES       1314  9.82                             160   -0.5210 43.9 255 
 BAR2 EZ I        1314 11.20         6.3 0.22            163           43.9 255 
 PAM  EZ IP       1313 57.53                             149   -0.3610 72.0   9 
 PAM  EN ES       1314 13.99                             149    0.4010 72.0   9 
 PAM  EZ I        1314 16.68         6.6 0.54            151           72.0   9 
 RUS  HZ EP       1313 59.11                             142   -0.3210 94.3 199 
 RUS  HN ES       1314 16.83                             142    0.4910 94.3 199 
 RUS  HZ I        1314 18.82         2.6 0.44            144           94.3 199 
 ZAR  HZ EP       1314 13.93                             114    0.39 8  244 291 
 ZAR  HN ES       1314 41.44                             114   -0.01 8  244 291 
                                                                                
