 2014  814 1101 46.9 L   6.808 -73.142149.1  RSN 18 0.4 2.4LRSN                1
 GAP= 71        0.96       3.1     4.1  4.9 -0.2728E+01  0.1687E+01  0.2668E+01E
 Epicentro: LOS SANTOS - SANTANDER                                             3
 ACTION:UPD 14-09-15 21:49 OP:nd   STATUS:               ID:20140814110146 L   I
 OLDACT:DUP 14-08-14 23:05 OP:spq  STATUS:               ID:20140814105820d    3
 2014-08-14-1058-19M.COL___257                                                 6
 STAT SP IPHASW D HRMM SECON CODA AMPLIT PERI AZIMU VELO AIN AR TRES W  DIS CAZ7
 BAR2 SZ IP     D 11 2  6.64                             170   -0.2810 24.3 190 
 BAR2 SZ ES   1   11 2 22.44                             170   -0.12 7 24.3 190 
 BAR2 SZ I        11 2 23.41        79.0 0.45            169           24.3 190 
 BRR  HZ IP     C 11 2  8.49                             153    0.1110 71.1 298 
 BRR  HN ES       11 2 25.89                             153    0.7410 71.1 298 
 BRR  HZ I        11 2 29.66        37.8 0.25            152           71.1 298 
 PAM  SZ EP       11 2  9.52                             152    0.1310 76.5  40 
 PAM  SE ES   1   11 2 26.69                             152   -0.26 7 76.5  40 
 PAM  SZ I        11 2 28.30        16.0 0.18            155           76.5  40 
 RUS  HZ EP       11 2 11.09                             144    0.0810  101 176 
 RUS  HN ES   1   11 2 29.51                             144   -0.33 7  101 176 
 RUS  HZ I        11 2 30.25        27.4 0.24            145            101 176 
 PTB  HZ EP       11 2 13.25                             133   -0.91 9  148 259 
 PTB  HN ES       11 2 34.80                             133   -0.64 9  148 259 
 TAM  HZ IP     D 11 2 14.79                             131   -0.02 9  155 105 
 OCA  HZ EP       11 2 15.35                             131   -0.02 9  159 353 
 OCA  HE ES       11 2 37.85                             131    0.26 9  159 353 
 SPBC HZ EP       11 2 15.51                             130   -0.21 9  164 219 
 SPBC HE ES       11 2 38.86                             130    0.65 9  164 219 
 ZAR  HZ EP       11 2 19.24                             123   -0.30 9  204 292 
 NOR  HZ EP       11 2 22.55                             119   -0.34 8  236 234 
 SML  HZ EP       11 2 23.33                             118   -0.29 8  243 335 
 CHI  HZ EP       11 2 25.21                             118    0.35 8  250 195 
 ROSC BZ EP   4   11 2 26.79                             117    1.51 0  254 211 
 HEL  HZ EP   4   11 2 28.56                             115    1.24 0  273 256 
 GUY2CHZ EP       11 2 31.44                             113    0.71 7  302 235 
 GUY2CHN ES   4   11 3  8.95                             113    4.01 0  302 235 
 GUY2CHZ I        11 3 15.45        15.9 0.50                           302 235 
 PTGC HZ EP   4   11 2 29.52                             112   -1.44 0  309 159 
 RREF HZ EP   1   11 2 33.84                             111    0.58 5  323 229 
 RREF HN ES   4   11 3 12.21                             111    2.77 0  323 229 
 RREF HZ I        11 3 16.24        14.6 0.24            112            323 229 
 DBB  SZ EP   1   11 2 34.75                             110    0.23 5  340 274 
 TOL  SZ EP   1   11 2 36.16                             110    0.79 5  344 225 
 TOL  SN ES   4   11 3 15.39                             110    2.20 0  344 225 
 TOL  SZ I        11 3 17.91        26.1 0.34            111            344 225 
 PRA  HZ EP       11 2 40.46                             107   -0.16 6  393 210 
 PRA  HE ES       11 3 22.53                             107   -0.02 6  393 210 
 PRA  HZ I        11 3 26.07        11.4 0.32            108            393 210 
 ORTC HZ EP   1   11 2 41.68                             107    0.66 4  396 216 
 SJC  HZ EP   4   11 2 40.87                             106   -1.61 0  409 327 
                                                                                
