 2012  114 1711 41.4 L   6.762 -73.156150.7  RSN  5 0.3 1.7LRSN                1
 GAP=137        0.72       5.0     4.4  8.3  0.1514E+01  0.5801E+01  0.3585E+01E
 Epicentro: LOS SANTOS - SANTANDER                                             3
 ACTION:UP  12-02-03 08:17 OP:REBC STATUS:               ID:20120114171141 L   I
 2012-01-14-1710-00M.COL___188                                                 6
 STAT SP IPHASW D HRMM SECON CODA AMPLIT PERI AZIMU VELO SNR AR TRES W  DIS CAZ7
 BRR  HZ EP   1   1712  3.62                             153     0.4 7   72 302 
 BRR  HZ I        1712 16.55        25.4 0.30                            72 302 
 BRR  HN ES   1   1712 20.69                             153     0.5 7   72 302 
 PAM  SZ EP   1   1712  4.43                             150     0.0 7   81  38 
 PAM  SE ES   1   1712 21.97                             150    -0.4 7   81  38 
 RUS  HZ EP   1   1712  5.24                             146    -0.1 7   96 175 
 RUS  HN ES   1   1712 24.02                             146     0.0 7   96 175 
 RUS  HZ I        1712 25.54         2.9 0.33                            96 175 
 PTB  HZ EP   1   1712  8.76                             133     0.1 7  146 260 
 PTB  HN ES   1   1712 29.64                             133    -0.2 7  146 260 
 ZAR  HE ES   1   1712 39.38                             123    -0.5 6  205 293 
                                                                                
