 2012  414 1228 56.4 L   6.058 -73.714117.8  RSN  4 0.0 1.1LRSN                1
 GAP=142        0.30       3.9     2.2  5.4  0.1496E+01  0.3688E+01  0.3323E+01E
 Epicentro: BOLIVAR - SANTANDER                                                3
 ACTION:UPD 12-07-05 11:53 OP:tino STATUS:               ID:20120414122856 L   I
 2012-04-14-1220-00M.COL___180                                                 6
 STAT SP IPHASW D HRMM SECON CODA AMPLIT PERI AZIMU VELO AIN AR TRES W  DIS CAZ7
 RUS  HZ EP   2   1229 15.26                             147    -0.1 5   72 105 
 RUS  HZ I        1229 20.30         1.6 0.14                            72 105 
 RUS  HN ES   2   1229 30.12                             147     0.0 5   72 105 
 BAR2 SZ ES   2   1229 30.96                             142     0.1 5   83  45 
 BAR2 SZ I        1229 37.20         6.4 0.75                            83  45 
 PTB  HZ EP       1229 16.62                             137     0.010   98 303 
 PTB  HE ES   1   1229 32.34                             137     0.0 7   98 303 
 NOR  SN ES   2   1229 39.21                             127     0.1 5  139 247 
                                                                                
