 2013  214 1247 20.9 L   6.786 -73.380125.6  RSN  5 0.5 1.9LRSN                1
 GAP=180        1.27       8.8     7.9 11.7  0.3534E+02  0.3145E+02  0.9312E+01E
 Epicentro: ZAPATOCA - SANTANDER                                               3
 ACTION:UPD 13-03-12 09:33 OP:ep   STATUS:               ID:20130214124720 L   I
 2013-02-14-1240-00M.COL___241                                                 6
 STAT SP IPHASW D HRMM SECON CODA AMPLIT PERI AZIMU VELO AIN AR TRES W  DIS CAZ7
 BAR2 SZ IP     D 1247 38.24                             165   -0.0510 30.6 134 
 BAR2 SZ ES       1247 51.42                             165   -0.4410 30.6 134 
 BAR2 SZ I        1247 52.46        46.1 0.24            170           30.6 134 
 BRR  HZ EP       1247 38.66                             156   -0.0910 51.0 314 
 BRR  HN ES       1247 52.80                             156    0.1110 51.0 314 
 BRR  HN I        1247 53.43        25.8 0.18            152           51.0 314 
 RUS  HN ES       1248  0.96                             138    0.7210  104 162 
 PTB  HZ EP       1247 43.49                             133   -0.3910  122 257 
 PTB  HN ES       1248  1.33                             133   -0.4910  122 257 
 PTB  HN I        1248  5.67         8.4 0.24            130            122 257 
 ZAR  HE ES   1   1248 13.39                             121    1.32 7  181 296 
 ZAR  HN I        1248 19.86         7.7 0.24            119            181 296 
                                                                                
