 2015 1114 1034 32.0 L   6.842 -72.977148.1  RSN  8 0.4 1.8LRSN                1
 GAP=213        0.84       2.7     7.5  5.5 -0.7069E+00  0.6797E+01  0.2607E+01E
 Epicentro: CEPITA - SANTANDER                                                 3
 ACTION:UPD 15-12-28 16:10 OP:cam  STATUS:               ID:20151114103432 L   I
 OLDACT:UP  15-11-14 21:36 OP:cara STATUS:               ID:20151114102750     3
 OLDACT:REG 15-11-14 20:12 OP:cara STATUS:               ID:20151114102750     3
 2015-11-14-1027-50M.COL___316                                                 6
 STAT SP IPHASW D HRMM SECON CODA AMPLIT PERI AZIMU VELO AIN AR TRES W  DIS CAZ7
 BAR2 EZ EP       1034 52.70                             166    0.5110 35.7 220 
 BAR2 EZ ES       1035  7.66                             166   -0.3010 35.7 220 
 BAR2 EZ I        1035  9.11        18.2 0.16            160           35.7 220 
 BRR  HZ EP       1034 54.65                             148    0.3610 86.4 290 
 BRR  HN ES       1035 11.61                             148   -0.0810 86.4 290 
 BRR  HZ I        1035 14.76         7.4 0.46            143           86.4 290 
 OCA  HZ EP   4   1034 59.13                             130   -1.23 0  159 346 
 OCA  HE ES       1035 22.61                             130    0.12 9  159 346 
 OCA  HZ I        1035 25.93        14.5 0.24            130            159 346 
 ZAR  HZ EP       1035  5.89                             121   -0.33 8  220 289 
 ZAR  HE ES   4   1035 31.24                             121   -1.69 0  220 289 
 ZAR  HZ I        1035 39.13         5.1 0.36            119            220 289 
 SML  HZ EP       1035  9.42                             117    0.22 8  248 331 
 SML  HN ES       1035 37.66                             117   -0.58 8  248 331 
 SML  HZ I        1035 41.56         5.1 0.10            117            248 331 
 CHI  HZ EP       1035 10.99                             116    0.11 8  259 199 
 CHI  HE ES       1035 40.79                             116   -0.43 8  259 199 
 CHI  HZ I        1035 48.46         1.6 0.44            116            259 199 
 GUY2CHN ES       1035 53.94                             111    0.53 7  319 236 
 PRA  HZ EP       1035 26.46                             106   -0.69 6  405 212 
 PRA  HN ES       1036 10.29                             106    0.10 6  405 212 
 PRA  HZ I        1036 15.30         3.4 0.26            106            405 212 
                                                                                
