 2015  114 1742 30.6 L   6.802 -73.136149.8  RSN  7 0.4 1.8LRSN                1
 GAP=184        0.80       3.5     4.4  5.4  0.9814E+00  0.3826E+01 -0.2772E+01E
 Epicentro: LOS SANTOS - SANTANDER                                             3
 ACTION:UPD 15-03-02 15:39 OP:nd   STATUS:               ID:20150114174230 L   I
 OLDACT:REG 15-01-14 21:18 OP:mh   STATUS:               ID:20150114173745     3
 2015-01-14-1737-45M.COL___250                                                 6
 STAT SP IPHASW D HRMM SECON CODA AMPLIT PERI AZIMU VELO AIN AR TRES W  DIS CAZ7
 BAR2 EZ EP       1742 50.88                             171    0.1310 23.8 192 
 BAR2 EZ ES       1743  6.33                             171   -0.1110 23.8 192 
 BAR2 EZ I        1743 18.98         6.3 0.50            176           23.8 192 
 BRR  HZ EP       1742 52.87                             153    0.6110 72.0 298 
 BRR  HN ES       1743  9.23                             153    0.1010 72.0 298 
 BRR  HZ I        1743 15.03        12.1 0.44            156           72.0 298 
 RUS  HZ EP   1   1742 54.86                             145    0.07 7  101 177 
 RUS  HN ES       1743 13.60                             145   -0.0310  101 177 
 RUS  HZ I        1743 16.10         3.3 0.48            154            101 177 
 PTB  HZ EP   1   1742 57.75                             133   -0.27 7  149 259 
 PTB  HN ES       1743 18.96                             133   -0.43 9  149 259 
 PTB  HZ I        1743 20.89        10.8 0.16            140            149 259 
 OCA  HZ EP       1742 59.29                             130    0.05 9  160 353 
 OCA  HN ES   1 C 1743 21.20                             130   -0.36 7  160 353 
 OCA  HZ I        1743 30.66         6.9 0.40            135            160 353 
 ZAR  HZ EP   1   1743  2.71                             123   -0.72 6  205 292 
 ZAR  HN ES   1   1743 29.57                             123    0.56 6  205 292 
 ZAR  HZ I        1743 34.79        11.9 0.28            129            205 292 
 NOR  HZ EP       1743  6.37                             119   -0.33 8  236 235 
 NOR  HN ES   1   1743 35.31                             119    0.48 6  236 235 
 NOR  HZ I        1743 38.66         5.5 0.20            127            236 235 
                                                                                
