 2015  414 1451 24.5 L   6.775 -73.117148.0  RSN  5 0.3 1.5LRSN                1
 GAP=239        0.66       5.3     4.7  6.3  0.1229E+01  0.7075E+01  0.4749E+01E
 Epicentro: LOS SANTOS - SANTANDER                                             3
 ACTION:UPD 15-06-03 16:54 OP:cam  STATUS:               ID:20150414145124 L   I
 OLDACT:REG 15-04-14 20:38 OP:spq  STATUS:               ID:20150414144749     3
 2015-04-14-1447-49M.COL___268                                                 6
 STAT SP IPHASW D HRMM SECON CODA AMPLIT PERI AZIMU VELO AIN AR TRES W  DIS CAZ7
 BAR2 EZ EP       1451 44.02                             171   -0.3110 21.4 200 
 BAR2 EZ ES   1   1451 59.54                             171   -0.29 7 21.4 200 
 BAR2 EZ I        1452  1.92         9.0 0.26            166           21.4 200 
 BRR  HZ EP   1   1451 46.35                             152    0.26 7 75.3 299 
 BRR  HN ES   1   1452  3.42                             152    0.46 7 75.3 299 
 BRR  HZ I        1452  5.91         6.2 0.39            149           75.3 299 
 RUS  HZ EP   1   1451 48.48                             145    0.25 7 97.7 178 
 RUS  HE ES   1   1452  7.00                             145    0.23 7 97.7 178 
 RUS  HZ I        1452  8.11         3.6 0.30            146           97.7 178 
 PTB  HZ EP   1   1451 51.38                             132   -0.47 7  150 260 
 PTB  HE ES   1   1452 12.97                             132   -0.24 7  150 260 
 PTB  HZ I        1452 19.59         4.4 0.28            131            150 260 
 NOR  HZ EP   1   1452  0.84                             119    0.41 6  236 235 
 NOR  HN ES       1452 28.48                             119   -0.00 8  236 235 
 NOR  HZ I        1452 33.59         2.5 0.27            120            236 235 
                                                                                
