 2012  414 1535 33.2 L   6.771 -73.059136.6  RSN  4 0.1 1.6LRSN                1
 GAP=149        0.30       2.1     3.1  4.1 -0.8740E+00 -0.2644E+01  0.1197E+01E
 Epicentro: LOS SANTOS - SANTANDER                                             3
 ACTION:UPD 12-07-05 11:53 OP:tino STATUS:               ID:20120414153533 L   I
 2012-04-14-1530-00M.COL___180                                                 6
 STAT SP IPHASW D HRMM SECON CODA AMPLIT PERI AZIMU VELO AIN AR TRES W  DIS CAZ7
 BAR2 SZ EP   1   1535 51.69                             170    -0.1 7   24 215 
 BAR2 SZ I        1536 24.38        10.7 1.04                            24 215 
 PAM  SZ EP       1535 54.30                             150     0.010   74  32 
 PAM  SE ES   1   1536 10.72                             150     0.0 7   74  32 
 BRR  HZ EP   2   1535 54.17                             147     0.2 5   81 297 
 BRR  HZ I        1536  5.48         7.5 0.64                            81 297 
 BRR  HE ES   1   1536 10.19                             147     0.0 7   81 297 
 RUS  HZ EP   1   1535 55.79                             143     0.0 7   97 182 
 RUS  HN ES   1   1536 13.53                             143     0.1 7   97 182 
                                                                                
