 2013  914 1811 15.9 L   6.661 -73.224140.5  RSN  8 0.4 2.1LRSN                1
 GAP=111        0.91       3.5     3.5  5.7 -0.1941E+01  0.5553E+01  0.8227E+00E
 Epicentro: BARICHARA - SANTANDER                                              3
 ACTION:UPD 13-10-22 09:22 OP:ep   STATUS:               ID:20130914181115 L   I
 OLDACT:UP  13-09-14 16:41 OP:cam  STATUS:               ID:20130914180959     3
 OLDACT:REG 13-09-14 14:57 OP:cam  STATUS:               ID:20130914180959     3
 2013-09-14-1809-59M.COL___269                                                 6
 STAT SP IPHASW D HRMM SECON CODA AMPLIT PERI AZIMU VELO AIN AR TRES W  DIS CAZ7
 BAR2 SZ EP       1811 34.68                             176    0.0210 8.83 149 
 BAR2 SZ ES       1811 48.80                             176   -0.5110 8.83 149 
 BAR2 SZ I        1811 52.87        32.0 0.22            176           8.83 149 
 BRR  HZ EP       1811 36.75                             151    0.1810 73.2 312 
 BRR  HN ES       1811 53.35                             151    0.6410 73.2 312 
 BRR  HZ I        1811 55.39        26.7 0.12            150           73.2 312 
 RUS  HZ EP       1811 38.20                             147    0.0910 86.3 170 
 RUS  HE ES       1811 55.66                             147    0.2110 86.3 170 
 RUS  HZ I        1811 57.26        21.6 0.22            150           86.3 170 
 PAM  SZ EP       1811 38.74                             144    0.0510 94.8  38 
 PAM  SN ES       1811 56.34                             144   -0.1410 94.8  38 
 PAM  SZ I        1811 57.24        21.4 0.28            148           94.8  38 
 PTB  HZ EP       1811 40.69                             133   -0.75 9  137 264 
 PTB  HN ES       1812  0.93                             133   -0.45 9  137 264 
 PTB  HZ I        1812  1.94        24.3 0.14            133            137 264 
 SPBC HZ EP       1811 42.80                             131    0.46 9  146 220 
 SPBC HN ES       1812  2.96                             131   -0.02 9  146 220 
 ZAR  HZ EP   1   1811 47.68                             121   -0.15 6  203 297 
 ZAR  HN ES       1812 12.96                             121    0.20 9  203 297 
 ZAR  HZ I        1812 20.72        13.5 0.30            122            203 297 
 NOR  HZ EP   1   1811 49.34                             119   -0.26 6  219 236 
 NOR  HN ES       1812 16.13                             119    0.22 8  219 236 
 NOR  HZ I        1812 24.15         9.9 0.18            120            219 236 
                                                                                
