 2014 1014 1644 18.1 L   6.819 -73.140144.0  RSN 11 0.5 2.0LRSN                1
 GAP=136        1.09       4.0     4.5  7.2 -0.1695E+01  0.9543E+01  0.1084E+00E
 Epicentro: LOS SANTOS - SANTANDER                                             3
 ACTION:UPD 14-11-29 23:49 OP:nd   STATUS:               ID:20141014164418 L   I
 OLDACT:DUP 14-10-15 00:49 OP:fm   STATUS:               ID:20141014163750d    3
 2014-10-14-1637-49M.COL___288                                                 6
 STAT SP IPHASW D HRMM SECON CODA AMPLIT PERI AZIMU VELO AIN AR TRES W  DIS CAZ7
 BAR2 SZ EP       1644 37.74                             170    0.2010 25.5 191 
 BAR2 SZ ES   1   1644 53.09                             170    0.37 7 25.5 191 
 BAR2 SZ I        1644 55.41        16.2 0.12            169           25.5 191 
 BRR  HZ EP       1644 39.27                             152    0.2610 70.8 297 
 BRR  HE ES       1644 55.59                             152    0.2510 70.8 297 
 BRR  HZ I        1645  0.75        16.9 0.16            151           70.8 297 
 PAM  SZ EP       1644 40.49                             151    0.5110 75.3  40 
 PAM  SN ES       1644 57.13                             151    0.0710 75.3  40 
 PAM  SZ I        1644 59.78        11.6 0.48            154           75.3  40 
 RUS  HZ EP       1644 41.87                             143    0.0610  103 177 
 RUS  HE ES       1644 59.74                             143   -0.5710  103 177 
 RUS  HZ I        1645  1.93         6.4 0.24            145            103 177 
 PTB  HZ EP       1644 44.35                             131   -0.65 9  149 258 
 PTB  HN ES       1645  5.67                             131   -0.33 9  149 258 
 PTB  HZ I        1645  7.83        17.2 0.40            132            149 258 
 SPBC HZ EP   1   1644 46.28                             128   -0.36 7  165 219 
 SPBC HN ES   1   1645  8.27                             128   -0.65 7  165 219 
 ZAR  HZ EP   1   1644 51.51                             122    1.12 6  204 292 
 ZAR  HN ES       1645 15.83                             122    0.24 9  204 292 
 ZAR  HZ I        1645 21.97        15.2 0.40            123            204 292 
 SML  HZ EP   1   1644 53.60                             117   -0.82 6  242 335 
 SML  HE ES   1   1645 21.80                             117   -0.97 6  242 335 
 SML  HZ I        1645 25.34        10.1 0.10            119            242 335 
 GUY2CHZ EP   4   1645  3.69                             112    1.89 0  303 235 
 GUY2CHE ES       1645 36.33                             112    0.42 7  303 235 
 GUY2CHZ I        1645 46.27         4.9 0.52                           303 235 
 TOL  SN ES   1   1645 44.79                             109    0.54 5  345 224 
 TOL  SZ I        1645 51.30         7.0 0.38            110            345 224 
 PRA  HZ EP   4   1645  9.28                             106   -2.51 0  394 210 
 PRA  HN ES   4   1645 55.22                             106    1.53 0  394 210 
 PRA  HZ I        1646  0.00         4.1 0.50            108            394 210 
                                                                                
