 2015  614 1056  4.2 L   6.834 -73.119144.1  RSN  5 0.6 1.5LRSN                1
 GAP=220        1.42       7.2    10.3 10.2  0.5454E+01  0.3095E+02 -0.7663E+01E
 Epicentro: LOS SANTOS - SANTANDER                                             3
 ACTION:UPD 15-09-10 22:12 OP:cam  STATUS:               ID:20150614105604 L   I
 OLDACT:UP  15-06-18 07:47 OP:AK   STATUS:               ID:20150614105604 L   3
 OLDACT:REG 15-06-14 20:29 OP:ak   STATUS:               ID:20150614104748     3
 2015-06-14-1047-48M.COL___309                                                 6
 STAT SP IPHASW D HRMM SECON CODA AMPLIT PERI AZIMU VELO AIN AR TRES W  DIS CAZ7
 BAR2 EZ EP       1056 23.34                             169   -0.4010 27.7 195 
 BAR2 EZ ES       1056 38.48                             169   -0.4910 27.7 195 
 BAR2 EZ I        1056 40.09         4.1 0.24            170           27.7 195 
 BRR  HZ EP       1056 25.81                             152    0.5710 72.1 295 
 BRR  HE ES       1056 42.58                             152    0.9410 72.1 295 
 ZAR  HZ EP   1   1056 37.42                             122    0.73 6  205 291 
 ZAR  HN ES       1057  1.34                             122   -0.68 8  205 291 
 ZAR  HZ I        1057  8.73         3.4 0.29            121            205 291 
 SML  HZ EP       1056 40.11                             117   -0.40 8  242 334 
 SML  HN ES       1057  8.39                             117   -0.43 8  242 334 
 SML  HZ I        1057 14.57         3.0 0.10            117            242 334 
 GUY2CHZ EP       1056 49.03                             112    0.77 7  306 235 
 GUY2CHN ES       1057 22.06                             112   -0.57 7  306 235 
 GUY2CHZ I        1057 30.17         1.2 0.44                           306 235 
                                                                                
