 2017 1014 1958 16.0 L   6.805 -73.174145.6  RSN  4 0.3 1.3LRSN                1
 GAP=242        0.68       7.1     5.2  6.6  0.2450E+02  0.3249E+01 -0.7901E+01E
 Epicentro: LOS SANTOS - SANTANDER                                             3
 ACTION:UPD 17-11-07 19:31 OP:rebc STATUS:               ID:20171014195816 L   I
 OLDACT:DUP 17-10-14 23:30 OP:lv   STATUS:               ID:20171014193631d    3
 2017-10-14-1948-00M.COL___435                                                 6
 STAT SP IPHASW D HRMM SECON CODA AMPLIT PERI AZIMU VELO AIN AR TRES W  DIS CAZ7
 BAR2 EZ EP       1958 35.37                             170   -0.2610 23.5 182 
 BAR2 EZ ES       1958 51.18                             170    0.2510 23.5 182 
 BAR2 EZ I        1958 52.26         8.9 0.16            167           23.5 182 
 RUS  HZ EP       1958 39.73                             144   -0.0810  101 174 
 RUS  HE ES       1958 58.25                             144   -0.1210  101 174 
 RUS  HZ I        1958 59.78         2.1 0.38            143            101 174 
 PTB  HZ EP       1958 43.21                             133    0.52 9  145 258 
 PTB  HN ES       1959  3.40                             133   -0.11 9  145 258 
 PTB  HZ I        1959  6.64         1.7 0.12            132            145 258 
 ZAR  HN ES       1959 12.95                             123   -0.22 9  201 292 
                                                                                
