 2011 1014 1117 55.0 L   6.776 -73.123144.2  RSN  4 0.2 1.4LRSN                1
 GAP=141        0.43       4.2     6.9  5.6  0.1475E+02 -0.1804E+02 -0.8549E+01E
 Epicentro: LOS SANTOS - SANTANDER                                             3
 ACTION:UPD 12-07-13 16:03 OP:ep   STATUS:               ID:20111014111755 L   I
 2011-10-14-1114-33S.COL___168                                                 6
 STAT SP IPHASW D HRMM SECON CODA AMPLIT PERI AZIMU VELO AIN AR TRES W  DIS CAZ7
 BAR2 SZ EP   1   1118 14.38                             171   -0.07 7 21.3 198 
 BAR2 SZ ES   1   1118 29.30                             171   -0.28 7 21.3 198 
 BAR2 SZ I        1118 30.61         8.2 0.38                          21.3 198 
 BRR  HZ EP   1   1118 16.07                             151   -0.16 7 74.7 299 
 BRR  HZ I        1118 18.46         8.2 0.12                          74.7 299 
 BRR  HN ES   1   1118 32.94                             151    0.20 7 74.7 299 
 PAM  SZ EP   1   1118 17.28                             150    0.15 7 77.9  37 
 RUS  HZ EP   1   1118 18.39                             144   -0.05 7 97.8 177 
 RUS  HN ES   1   1118 36.90                             144    0.21 7 97.8 177 
 RUS  HZ I        1118 39.86         1.6 0.30                          97.8 177 
                                                                                
