 2013  814 1533  7.2 L   6.820 -73.131150.9  RSN  6 0.5 1.5LRSN                1
 GAP=202        0.98       6.2     7.6  8.7  0.1272E+02  0.1449E+02  0.9733E+00E
 Epicentro: LOS SANTOS - SANTANDER                                             3
 ACTION:UPD 14-01-14 09:02 OP:ep   STATUS:               ID:20130814153307 L   I
 OLDACT:REG 13-08-14 15:34 OP:jn   STATUS:               ID:20130814152959     3
 2013-08-14-1529-59M.COL___271                                                 6
 STAT SP IPHASW D HRMM SECON CODA AMPLIT PERI AZIMU VELO AIN AR TRES W  DIS CAZ7
 BAR2 SZ EP   1   1533 27.78                             170    0.27 7 25.8 193 
 BAR2 SZ ES       1533 43.22                             170   -0.1310 25.8 193 
 BAR2 SZ I        1533 44.25         9.7 0.52            166           25.8 193 
 BRR  HE ES   1   1533 46.60                             153    0.71 7 71.6 296 
 RUS  HZ EP       1533 32.16                             144    0.5410  103 177 
 RUS  HN ES   1   1533 49.88                             144   -0.78 7  103 177 
 RUS  HZ I        1533 52.39         3.1 0.40            144            103 177 
 PTB  HZ EP       1533 34.39                             133   -0.39 9  150 258 
 PTB  HE ES   1   1533 56.16                             133   -0.13 7  150 258 
 PTB  HZ I        1534  2.20         4.8 0.44            131            150 258 
 NOR  HN ES   1   1534 12.01                             119    0.17 6  237 234 
 SML  HE ES   1   1534 12.18                             118   -0.50 6  242 335 
                                                                                
