 2013  414 1042 11.0 L   6.817 -73.168144.4  RSN  4 0.3 1.3LRSN                1
 GAP=199        0.62       5.2     6.0 12.1  0.1232E+02 -0.1289E+02 -0.4018E+02E
 Epicentro: LOS SANTOS - SANTANDER                                             3
 ACTION:UPD 13-05-22 14:38 OP:EP   STATUS:               ID:20130414104211 L   I
 2013-04-14-1038-40M.COL___209                                                 6
 STAT SP IPHASW D HRMM SECON CODA AMPLIT PERI AZIMU VELO AIN AR TRES W  DIS CAZ7
 BAR2 SZ EP       1042 30.73                             170    0.2610 24.9 184 
 RUS  HZ EP   1   1042 35.01                             143    0.28 7  103 175 
 RUS  HN ES   1   1042 52.85                             143   -0.43 7  103 175 
 RUS  HZ I        1042 54.58         2.1 0.30            145            103 175 
 PTB  HZ EP   1   1042 37.22                             132   -0.41 7  146 258 
 PTB  HN ES   1   1042 58.67                             132    0.23 7  146 258 
 PTB  HZ I        1043  0.99         4.1 0.42            133            146 258 
 SML  HZ EP   1   1042 47.07                             117   -0.15 6  241 336 
 SML  HE ES   1   1043 15.40                             117   -0.10 6  241 336 
                                                                                
