 2010 1014 1746 50.6 L   6.837 -73.277123.1  RSN  9 0.3 2.0LRSN                1
 GAP=135        0.73       4.9     6.6  6.8 -0.1316E+02 -0.1450E+01 -0.1058E+02E
 Epicentro: ZAPATOCA - SANTANDER                                               3
 ACTION:UP  11-02-18 11:09 OP:tino STATUS:               ID:20101014174650 L   I
 2010-10-14-1744-52S.COL___128                                                 6
 STAT SP IPHASW D HRMM SECON CODA AMPLIT PERI AZIMU VELO SNR AR TRES W  DIS CAZ7
 BTL  SZ EP       1747  6.85                             176    -0.510    9   7 
 GIR2 SZ EP       1747  7.64                             166     0.110   28  19 
 BAR2 SZ EP       1747  8.08                             166     0.410   29 159 
 BAR2 SZ ES   1   1747 20.84                             166    -0.2 7   29 159 
 BAR2 SZ I        1747 22.57        52.6 0.13                            29 159 
 BRR  HZ EP       1747  8.42                             154    -0.110   57 302 
 BRR  HZ I        1747  8.73        25.5 0.14                            57 302 
 BRR  HE ES   1   1747 22.52                             154     0.1 7   57 302 
 GUE  SZ EP       1747 13.18                             134    -0.210  117  19 
 GRA  SZ EP       1747 14.45                             131     0.410  127  24 
 GRA  SZ ES   1   1747 32.49                             131     0.1 7  127  24 
 GRA  SZ I        1747 35.67        10.1 0.59                           127  24 
 OCA  SZ EP       1747 16.58                             125    -0.2 9  155 358 
 OCA  SZ I        1747 40.93        17.5 0.19                           155 358 
 NOR  SN ES   2   1747 50.64                             114     0.3 4  226 232 
 CHI  HN ES   3   1747 55.32                             112    -0.5 2  249 192 
                                                                                
