 2014  714 1408 17.4 L   6.793 -73.133143.5  RSN  6 0.2 1.7LRSN                1
 GAP=138        0.66       2.8     3.3  4.5  0.4759E-01  0.4041E+01  0.2889E+00E
 Epicentro: LOS SANTOS - SANTANDER                                             3
 ACTION:UPD 15-03-16 20:43 OP:nd   STATUS:               ID:20140714140817 L   I
 OLDACT:REG 14-07-14 20:29 OP:stll STATUS:               ID:20140714140820     3
 2014-07-14-1408-20M.COL___256                                                 6
 STAT SP IPHASW D HRMM SECON CODA AMPLIT PERI AZIMU VELO AIN AR TRES W  DIS CAZ7
 BAR2 SZ EP       14 8 36.55                             170   -0.1710 22.9 194 
 BAR2 SZ ES       14 8 51.96                             170    0.1510 22.9 194 
 BAR2 SZ I        14 8 53.01        10.2 0.24            167           22.9 194 
 BRR  HZ EP       14 8 38.40                             152    0.0410 72.7 299 
 BRR  HN ES       14 8 54.92                             152    0.1910 72.7 299 
 BRR  HZ I        14 8 56.04        13.1 0.18            150           72.7 299 
 PAM  SZ EP       14 8 39.61                             150    0.2810 77.1  38 
 PAM  SN ES       14 8 55.98                             150   -0.4710 77.1  38 
 PAM  SZ I        14 8 58.83         9.8 0.48            156           77.1  38 
 RUS  HZ EP       14 8 40.87                             144    0.0310 99.8 177 
 RUS  HN ES       14 8 59.44                             144    0.3010 99.8 177 
 RUS  HZ I        14 9  1.17         4.7 0.30            144           99.8 177 
 SPBC HZ EP       14 8 45.69                             128   -0.03 9  163 220 
 SPBC HN ES       14 9  7.36                             128   -0.48 9  163 220 
 SPBC HZ I        14 9 17.43         8.7 0.38            128            163 220 
 ZAR  HZ EP       14 8 49.87                             122    0.04 8  206 292 
 ZAR  HN ES       14 9 15.19                             122    0.05 8  206 292 
 ZAR  HZ I        14 9 20.53         7.1 0.42            122            206 292 
                                                                                
