 2011  414 1843 28.7 L   6.736 -73.107145.1  RSN  8 0.3 2.2LRSN                1
 GAP=174        0.61       4.8     5.3  5.4 -0.1539E+02  0.2350E+01  0.6770E+01E
 Epicentro: JORDAN - SANTANDER                                                 3
 ACTION:UP  11-06-22 15:31 OP:REBC STATUS:               ID:20110414184328 L   I
 2011-04-14-1840-52S.COL___139                                                 6
 STAT SP IPHASW D HRMM SECON CODA AMPLIT PERI AZIMU VELO SNR AR TRES W  DIS CAZ7
 BAR2 SZ EP   1   1843 48.22                             173     0.1 7   18 208 
 BAR2 SZ I        1843 48.70        20.5 0.12                            18 208 
 BAR2 SZ ES   1   1844  3.24                             173    -0.1 7   18 208 
 GIR2 SZ EP   2   1843 48.47                             164     0.0 5   39 346 
 BRR  HZ EP   1   1843 50.17                             150     0.0 7   78 302 
 BRR  HZ I        1843 50.55        33.9 0.27                            78 302 
 BRR  HE ES   1   1844  7.31                             150     0.3 7   78 302 
 PAM  SZ EP       1843 51.21                             150     0.210   80  34 
 PAM  SN ES   1   1844  8.13                             150    -0.3 7   80  34 
 OCA  SZ EP   2   1843 57.24                             128    -0.4 5  168 352 
 OCA  SZ ES   2   1844 19.89                             128    -0.4 5  168 352 
 OCA  SZ I        1844 23.56        19.0 0.15                           168 352 
 NOR  SZ EP   1   1844  3.98                             118    -0.3 6  234 236 
 NOR  SE ES   1   1844 32.04                             118    -0.1 6  234 236 
 RREF HZ EP   1   1844 15.48                             111     0.8 5  321 231 
 RREF HN ES   2   1844 49.69                             111    -0.8 3  321 231 
 RREF HZ I        1845  0.08         8.9 0.28                           321 231 
 PRA  HZ EP   2   1844 21.89                             106     0.2 3  388 211 
 PRA  HN ES   2   1845  2.74                             106    -0.3 3  388 211 
                                                                                
