 2016  314 1951 39.0 L   6.788 -73.147144.9  RSN  9 0.2 2.3LRSN                1
 GAP=137        0.58       2.4     2.3  3.6 -0.1243E+01  0.3206E+01  0.6683E-01E
 Epicentro: LOS SANTOS - SANTANDER                                             3
 ACTION:UPD 16-05-13 21:24 OP:cam  STATUS:               ID:20160314195139 L   I
 OLDACT:UP  16-03-28 15:55 OP:Mher STATUS:               ID:20160314195139 L   3
 OLDACT:REG 16-03-14 21:02 OP:cara STATUS:               ID:20160314194752     3
 2016-03-14-1947-52M.COL___289                                                 6
 STAT SP IPHASW D HRMM SECON CODA AMPLIT PERI AZIMU VELO AIN AR TRES W  DIS CAZ7
 BAR2 EZ IP       1951 58.55                             171    0.1010 22.0 190 
 BAR2 EZ ES       1952 13.41                             171   -0.2410 22.0 190 
 BAR2 EZ I        1952 14.68        45.0 0.18            170           22.0 190 
 PAM  EZ EP       1952  1.27                             150    0.1310 78.5  39 
 PAM  EN ES       1952 18.51                             150    0.0710 78.5  39 
 PAM  EZ I        1952 20.94        24.9 0.64            154           78.5  39 
 RUS  HZ EP       1952  2.11                             144   -0.4110 99.3 176 
 RUS  HN ES       1952 21.20                             144    0.3010 99.3 176 
 RUS  HZ I        1952 22.03        23.0 0.26            148           99.3 176 
 PTB  HZ EP       1952  5.45                             132   -0.36 9  147 259 
 PTB  HN ES       1952 26.70                             132   -0.05 9  147 259 
 PTB  HZ I        1952 33.73        28.2 0.42            132            147 259 
 SPBC HZ EP       1952  7.35                             129    0.07 9  162 219 
 SPBC HN ES       1952 29.46                             129    0.09 9  162 219 
 SPBC HZ I        1952 34.95        39.3 0.40            131            162 219 
 ZAR  HZ EP       1952 11.57                             122    0.20 9  204 292 
 ZAR  HE ES       1952 36.80                             122    0.14 9  204 292 
 ZAR  HZ I        1952 43.46        30.1 0.40            123            204 292 
 NOR  HZ EP       1952 14.34                             118   -0.19 8  234 235 
 NOR  HE ES       1952 42.12                             118   -0.17 8  234 235 
 NOR  HZ I        1952 47.71        17.4 0.44            120            234 235 
 URE  HZ EP   9   1952 18.75                             113   -1.27 0  284 292 
 URE  HN ES       1952 50.37                             113   -0.41 7  284 292 
 URE  HZ I        1952 58.13         8.1 0.18            114            284 292 
 GUY2CHZ EP       1952 22.72                             112    0.30 7  300 235 
 GUY2CHN ES       1952 56.54                             112    0.22 7  300 235 
 GUY2CHZ I        1953  4.89        12.5 0.66                           300 235 
                                                                                
