 2014 1114 1531 19.9 L   6.814 -73.164148.6  RSN  4 0.3 1.3LRSN                1
 GAP=143        0.73       4.2     4.3  7.8 -0.7963E+01  0.9025E+01 -0.2878E+01E
 Epicentro: LOS SANTOS - SANTANDER                                             3
 ACTION:UPD 14-12-19 15:43 OP:nd   STATUS:               ID:20141114153119 L   I
 OLDACT:UP  14-11-14 22:59 OP:cam  STATUS:               ID:20141114152816     3
 OLDACT:REG 14-11-14 20:58 OP:cam  STATUS:               ID:20141114152816     3
 2014-11-14-1528-16M.COL___295                                                 6
 STAT SP IPHASW D HRMM SECON CODA AMPLIT PERI AZIMU VELO AIN AR TRES W  DIS CAZ7
 PAM  SZ EP       1531 42.93                             151    0.4910 77.5  41 
 PAM  SE ES       1531 59.80                             151   -0.2110 77.5  41 
 PAM  SZ I        1532  2.21         4.4 0.20            154           77.5  41 
 RUS  HZ EP       1531 43.68                             144   -0.3810  102 175 
 RUS  HN ES       1532  2.99                             144    0.0910  102 175 
 RUS  HZ I        1532  3.88         2.2 0.44            149            102 175 
 PTB  HZ EP       1531 46.81                             133   -0.15 9  146 258 
 PTB  HN ES       1532  8.03                             133   -0.03 9  146 258 
 PTB  HZ I        1532 13.91         3.5 0.18            134            146 258 
 SPBC HE ES       1532 11.22                             130    0.21 9  163 218 
                                                                                
