 2016  414 1704 41.6 L   6.796 -73.159144.0  RSN  9 0.6 1.9LRSN                1
 GAP=135        0.97       6.2     7.0  8.3 -0.1598E+02  0.2591E+02 -0.3431E+01E
 Epicentro: LOS SANTOS - SANTANDER                                             3
 ACTION:UPD 16-05-05 14:21 OP:rebc STATUS:               ID:20160414170441 L   I
 OLDACT:REG 16-04-14 23:28 OP:ar   STATUS:               ID:20160414165744     3
 2016-04-14-1657-44M.COL___319                                                 6
 STAT SP IPHASW D HRMM SECON CODA AMPLIT PERI AZIMU VELO AIN AR TRES W  DIS CAZ7
 BAR2 EZ EP       17 5  0.94                             171   -0.0710 22.7 187 
 BAR2 EZ ES       17 5 16.83                             171    0.6910 22.7 187 
 BAR2 EZ I        17 5 17.58        13.7 0.30            168           22.7 187 
 PAM  EZ EP       17 5  3.58                             151   -0.1310 78.7  40 
 PAM  EE ES       17 5 20.73                             151   -0.2210 78.7  40 
 PAM  EZ I        17 5 21.62         9.9 0.20            154           78.7  40 
 RUS  HZ EP   2   17 5  5.07                             144   -0.08 5  100 175 
 RUS  HN ES   2   17 5 23.64                             144    0.12 5  100 175 
 RUS  HZ I        17 5 24.34         8.0 0.46            145            100 175 
 PTB  HZ EP       17 5  7.58                             132   -0.71 9  146 259 
 PTB  HN ES   2   17 5 28.71                             132   -0.39 5  146 259 
 PTB  HZ I        17 5 32.79         6.6 0.12            129            146 259 
 SPBC HZ EP   2   17 5  9.36                             129   -0.48 5  162 219 
 SPBC HN ES   2   17 5 31.36                             129   -0.51 5  162 219 
 SPBC HZ I        17 5 33.33        19.5 0.24            128            162 219 
 ZAR  HZ EP   2   17 5 15.20                             123    1.39 4  203 292 
 ZAR  HN ES   2   17 5 39.35                             123    0.42 4  203 292 
 ZAR  HZ I        17 5 45.45        10.7 0.40            120            203 292 
 CHI  HZ EP   2   17 5 19.32                             117    0.21 4  248 195 
 CHI  HN ES   2   17 5 48.60                             117    0.23 4  248 195 
 CHI  HZ I        17 5 54.06         2.6 0.28            117            248 195 
 URE  HZ EP   2   17 5 24.06                             114    1.61 4  283 292 
 URE  HN ES   4   17 5 51.47                             114   -2.84 0  283 292 
 URE  HZ I        17 6  4.16         6.5 0.16            112            283 292 
 GUY2CHZ EP   4   17 5 26.30                             113    1.34 0  300 235 
 GUY2CHN ES   4   17 6  0.04                             113    1.26 0  300 235 
 GUY2CHZ I        17 6  8.95         4.3 0.70                           300 235 
                                                                                
