 2016  114 1613 26.6 L   7.474 -73.244125.5  RSN  5 0.2 1.8LRSN                1
 GAP=136        0.57       2.4     3.2  6.0 -0.3954E+00  0.9749E+01 -0.4098E+01E
 Epicentro: EL PLAYON - SANTANDER                                              3
 ACTION:UPD 16-03-09 23:25 OP:cam  STATUS:               ID:20160114161326 L   I
 OLDACT:UP  16-02-23 20:52 OP:AR   STATUS:               ID:20160114161326 L   3
 OLDACT:DUP 16-01-14 23:30 OP:drio STATUS:               ID:20160114160748d    3
 2016-01-14-1607-47M.COL___336                                                 6
 STAT SP IPHASW D HRMM SECON CODA AMPLIT PERI AZIMU VELO AIN AR TRES W  DIS CAZ7
 PAM  EZ EP       1613 45.92                             152    0.2110 61.9 104 
 PAM  EN ES       1614  0.70                             152    0.0510 61.9 104 
 PAM  EZ I        1614  2.51        12.9 0.38            156           61.9 104 
 BAR2 EZ EP       1613 47.51                             140   -0.2910 97.7 176 
 BAR2 EZ ES       1614  4.28                             140   -0.0910 97.7 176 
 BAR2 EZ I        1614  6.48         9.3 0.20            142           97.7 176 
 PTB  HZ EP       1613 53.98                             123   -0.13 9  169 232 
 PTB  HN ES       1614 15.79                             123    0.20 9  169 232 
 PTB  HZ I        1614 18.28         8.2 0.16            125            169 232 
 SML  HZ EP       1613 54.78                             122    0.33 9  173 328 
 SML  HN ES       1614 15.96                             122   -0.25 9  173 328 
 SML  HZ I        1614 16.88        12.1 0.10            125            173 328 
 GUY2CHZ EP   9   1614 16.24                             106    2.16 0  342 223 
 GUY2CHN ES       1614 53.60                             105    0.30 7  342 223 
 GUY2CHZ I        1615  2.03         2.9 0.50                           342 223 
                                                                                
