 2017 1014 1718 48.8 L   6.689 -73.208143.9  RSN  4 0.3 1.0LRSN                1
 GAP=215        0.88       7.6     6.7  7.7  0.2737E+02  0.1164E+02  0.1312E+02E
 Epicentro: VILLANUEVA - SANTANDER                                             3
 ACTION:UPD 17-11-07 19:31 OP:rebc STATUS:               ID:20171014171848 L   I
 OLDACT:REG 17-10-14 21:39 OP:l    STATUS:               ID:20171014171702     3
 2017-10-14-1718-00M.COL___429                                                 6
 STAT SP IPHASW D HRMM SECON CODA AMPLIT PERI AZIMU VELO AIN AR TRES W  DIS CAZ7
 BAR2 EZ EP       1719  7.71                             175   -0.3410 11.1 165 
 BAR2 EZ ES       1719 22.66                             175   -0.3810 11.1 165 
 BRR  HN ES       1719 26.68                             152    0.4410 72.4 310 
 RUS  HZ EP       1719 12.07                             147    0.4810 89.1 171 
 RUS  HN ES       1719 29.45                             147    0.1010 89.1 171 
 RUS  HZ I        1719 31.49         1.8 0.36            145           89.1 171 
 PTB  HZ EP       1719 14.58                             133   -0.28 9  139 263 
 PTB  HN ES       1719 35.10                             133   -0.06 9  139 263 
 PTB  HZ I        1719 37.85         1.3 0.38            132            139 263 
                                                                                
