 2017  414 1011 11.9 L   6.147 -73.731104.1  RSN 11 0.4 1.7LRSN                1
 GAP= 61        1.08       2.6     2.6  6.1  0.7437E+00  0.3527E+01  0.3051E+01E
 Epicentro: LANDAZURI - SANTANDER                                              3
 ACTION:UPD 17-05-30 21:12 OP:jn   STATUS:               ID:20170414101111 L   I
 OLDACT:UP  17-04-14 21:01 OP:cara STATUS:               ID:20170414100743     3
 OLDACT:REG 17-04-14 19:22 OP:cara STATUS:               ID:20170414100743     3
 2017-04-14-1008-00M.COL___356                                                 6
 STAT SP IPHASW D HRMM SECON CODA AMPLIT PERI AZIMU VELO AIN AR TRES W  DIS CAZ7
 SPBC HZ EP       1011 29.00                             145    0.4310 66.5 215 
 SPBC HN ES       1011 41.95                             145    0.4010 66.5 215 
 SPBC HZ I        1011 44.88        14.6 0.20            144           66.5 215 
 RUS  HZ EP       1011 30.16                             141    0.2510 77.1 111 
 RUS  HN ES       1011 43.66                             141   -0.2810 77.1 111 
 RUS  HZ I        1011 45.22         6.8 0.30            144           77.1 111 
 BAR2 EZ IP       1011 30.06                             140    0.4210 78.1  51 
 BAR2 EZ ES       1011 43.97                             140    0.5210 78.1  51 
 BAR2 EZ I        1011 45.12        36.4 0.64            145           78.1  51 
 PTB  HZ EP       1011 30.56                             135    0.1610 91.2 298 
 PTB  HN ES       1011 44.10                             135   -0.7110 91.2 298 
 PTB  HZ I        1011 48.45         9.2 0.14            137           91.2 298 
 BRR  HZ EP       1011 31.71                             130   -0.0110  106   1 
 BRR  HN ES       1011 46.45                             130   -0.7010  106   1 
 NOR  HZ EP       1011 35.79                             122    0.50 9  142 243 
 NOR  HN ES       1011 53.56                             122    0.05 9  142 243 
 NOR  HZ I        1011 56.59        12.5 0.24            123            142 243 
 CHI  HZ EP       1011 38.33                             117   -0.22 9  168 180 
 CHI  HN ES       1011 58.88                             117   -0.43 9  168 180 
 CHI  HZ I        1012  3.96         3.4 0.30            119            168 180 
 YPLC HZ EP       1011 38.75                             116    0.28 9  171 119 
 YPLC HN ES       1011 58.70                             116   -0.47 9  171 119 
 YPLC HZ I        1012  2.42        13.6 0.38            119            171 119 
 ZAR  HZ EP       1011 40.62                             113   -0.31 9  194 320 
 ZAR  HN ES       1012  3.39                             113   -0.15 9  194 320 
 ZAR  HZ I        1012  7.12         7.5 0.28            115            194 320 
 HEL  HZ EP       1011 42.54                             112    0.59 9  199 271 
 HEL  HN ES       1012  5.70                             112    0.34 9  199 271 
 HEL  HZ I        1012 11.22         2.9 0.42            114            199 271 
 PRA  HZ EP       1011 52.40                             103   -0.68 7  298 206 
 PRA  HN ES       1012 24.61                             103   -0.55 7  298 206 
 PRA  HZ I        1012 31.03         3.5 0.28            104            298 206 
                                                                                
