 2010 1114 1802 54.8 L   6.754 -73.160147.2  RSN  5 0.3 1.5LRSN                1
 GAP=163        0.55       8.0    14.2  9.8  0.6738E+02 -0.5758E+02 -0.3755E+02E
 Epicentro: LOS SANTOS - SANTANDER                                             3
 ACTION:UP  10-12-17 16:52 OP:REBC STATUS:               ID:20101114180254 L   I
 2010-11-14-1759-54S.COL___129                                                 6
 STAT SP IPHASW D HRMM SECON CODA AMPLIT PERI AZIMU VELO SNR AR TRES W  DIS CAZ7
 BAR2 SZ EP   2   18 3 14.12                             173    -0.4 5   18 188 
 BAR2 SZ ES   2   18 3 29.49                             173    -0.4 5   18 188 
 BAR2 SZ I        18 3 30.74         9.1 0.17                            18 188 
 BTL  SZ EP   1   18 3 14.95                             171     0.4 7   22 327 
 BRR  HZ EP   1   18 3 16.04                             152    -0.1 7   73 303 
 BRR  HZ I        18 3 23.98         7.7 0.35                            73 303 
 BRR  HN ES   2   18 3 32.98                             152     0.1 5   73 303 
 RUS  HZ EP   2   18 3 18.15                             146    -0.2 5   96 175 
 RUS  HN ES   2   18 3 37.03                             146     0.3 5   96 175 
 RUS  HZ I        18 3 38.11         3.5 0.49                            96 175 
 GUE  SZ EP   2   18 3 20.12                             138     0.0 5  122  12 
                                                                                
