 2014  314 1639 48.2 L   6.254 -73.732 98.1  RSN  6 0.4 1.6LRSN                1
 GAP=120        0.93       3.7     2.6  7.4 -0.1245E+01  0.5037E+01 -0.4370E+01E
 Epicentro: LANDAZURI - SANTANDER                                              3
 ACTION:UPD 14-04-09 23:17 OP:nd   STATUS:               ID:20140314163948 L   I
 OLDACT:REG 14-03-14 17:04 OP:nd   STATUS:               ID:20140314163039     3
 2014-03-14-1630-39M.COL___251                                                 6
 STAT SP IPHASW D HRMM SECON CODA AMPLIT PERI AZIMU VELO AIN AR TRES W  DIS CAZ7
 BAR2 SZ EP       1640  5.24                             141    0.4710 71.4  58 
 BAR2 SZ ES       1640 17.65                             141   -0.0710 71.4  58 
 BAR2 SZ I        1640 19.88        53.1 0.32            143           71.4  58 
 RUS  HZ EP       1640  6.20                             138    0.2110 82.2 119 
 RUS  HN ES       1640 20.19                             138    0.3010 82.2 119 
 RUS  HZ I        1640 21.80         5.5 0.24            139           82.2 119 
 PTB  HZ EP       1640  5.27                             136   -0.3910 86.1 292 
 PTB  HN ES       1640 19.20                             136   -0.1110 86.1 292 
 PTB  HZ I        1640 20.03         7.6 0.16            137           86.1 292 
 NOR  HZ EP       1640 11.73                             120   -0.00 9  147 239 
 NOR  HN ES       1640 29.72                             120   -0.40 9  147 239 
 NOR  HZ I        1640 32.71         6.5 0.30            121            147 239 
 PAM  SZ EP       1640 14.09                             117   -0.21 9  166  44 
 PAM  SN ES       1640 34.01                             117   -0.67 9  166  44 
 PAM  SZ I        1640 37.06         3.3 0.20            117            166  44 
 ZAR  HZ EP       1640 16.06                             114    0.21 9  185 318 
 ZAR  HN ES       1640 38.07                             114    0.62 9  185 318 
 ZAR  HZ I        1640 40.24         6.1 0.44            114            185 318 
                                                                                
