 2013  714 1048 15.8 L   6.738 -73.170140.3  RSN  9 0.4 1.9LRSN                1
 GAP=136        1.13       5.1     4.5  7.3 -0.1874E+01  0.2967E+00 -0.7913E+01E
 Epicentro: VILLANUEVA - SANTANDER                                             3
 ACTION:UPD 13-08-12 10:37 OP:ep   STATUS:               ID:20130714104815 L   I
 OLDACT:REG 13-07-14 15:57 OP:stll STATUS:               ID:20130714103850     3
 2013-07-14-1038-50M.COL___228                                                 6
 STAT SP IPHASW D HRMM SECON CODA AMPLIT PERI AZIMU VELO AIN AR TRES W  DIS CAZ7
 BAR2 SZ EP       1048 34.72                             173    0.0310 16.1 185 
 BAR2 SZ ES       1048 49.15                             173   -0.2410 16.1 185 
 BAR2 SZ I        1048 50.47        12.4 0.14            173           16.1 185 
 GIR2 SZ EP       1048 35.01                             164   -0.0610 37.8 356 
 BRR  HZ EP       1048 36.86                             151    0.3810 72.5 304 
 BRR  HN ES       1048 53.38                             151    0.8010 72.5 304 
 BRR  HN I        1048 53.95        42.4 0.22            151           72.5 304 
 PAM  SZ EP       1048 37.87                             147   -0.0710 84.5  38 
 PAM  SZ I        1048 38.17        13.6 0.28            148           84.5  38 
 PAM  SN ES       1048 54.59                             147   -0.5710 84.5  38 
 RUS  HZ EP       1048 38.90                             145    0.3210 93.9 174 
 RUS  HN ES       1048 56.58                             145    0.2610 93.9 174 
 GRA  SZ EP       1048 41.75                             134    0.5010  133  18 
 PTB  HZ EP       1048 41.48                             131   -0.54 9  144 261 
 PTB  HZ I        1048 42.97         6.2 0.18            132            144 261 
 PTB  HN ES       1049  1.69                             131   -0.74 9  144 261 
 CAPV BZ EP       1048 43.14                             129   -0.33 9  156  37 
 ZAR  HE ES       1049 13.16                             121    0.15 9  204 294 
                                                                                
