 2011  114 1145 38.4 L   6.728 -73.174150.8  RSN  4 0.5 1.6LRSN                1
 GAP=200        1.04      12.8    15.5 14.0 -0.5002E+02  0.7796E+02  0.1539E+02E
 Epicentro: VILLANUEVA - SANTANDER                                             3
 ACTION:UP  11-02-08 08:40 OP:pat  STATUS:               ID:20110114114538 L   I
 2011-01-14-1140-00M.COL___137                                                 6
 STAT SP IPHASW D HRMM SECON CODA AMPLIT PERI AZIMU VELO SNR AR TRES W  DIS CAZ7
 BAR2 SZ EP   1   1145 57.94                             174    -0.6 7   15 184 
 BAR2 SZ ES   2   1146 13.69                             174    -0.5 5   15 184 
 BAR2 SZ I        1146 16.68         9.3 0.61                            15 184 
 BTL  SZ IP       1145 59.31                             170     0.610   23 334 
 BTL  SZ ES   2   1146 14.02                             170    -0.4 5   23 334 
 RUS  HZ EP   1   1146  2.04                             147    -0.1 7   93 174 
 RUS  HE ES   2   1146 21.16                             147     0.5 5   93 174 
 RUS  HZ I        1146 22.98         5.1 0.30                            93 174 
 NOR  SZ EP   1   1146 13.16                             120    -0.6 6  228 236 
 NOR  SN ES   2   1146 41.94                             120     0.7 4  228 236 
                                                                                
