 2012  814 1307  5.5 L   6.736 -73.160148.0  RSN  6 0.3 1.6LRSN                1
 GAP=137        0.61       4.5     3.8  5.4  0.5125E+01 -0.1651E+01 -0.3290E+01E
 Epicentro: VILLANUEVA - SANTANDER                                             3
 ACTION:UPD 12-09-10 11:56 OP:ep   STATUS:               ID:20120814130705 L   I
 2012-08-14-1300-00M.COL___217                                                 6
 STAT SP IPHASW D HRMM SECON CODA AMPLIT PERI AZIMU VELO AIN AR TRES W  DIS CAZ7
 BAR2 SZ EP       13 7 25.21                             173   -0.0210 16.1 189 
 BAR2 SZ ES   1   13 7 40.29                             173   -0.36 7 16.1 189 
 BAR2 SZ I        13 7 42.71        18.5 0.23                          16.1 189 
 BRR  HZ EP       13 7 27.09                             152    0.1210 73.5 304 
 BRR  HZ I        13 7 29.41        14.9 0.39                          73.5 304 
 BRR  HN ES       13 7 44.04                             152    0.2910 73.5 304 
 PAM  SZ EP       13 7 28.07                             149   -0.2310 83.9  37 
 RUS  HZ EP   1   13 7 29.31                             146    0.37 7 93.7 175 
 RUS  HN ES   1   13 7 47.44                             146    0.18 7 93.7 175 
 RUS  HZ I        13 7 49.03         3.3 0.36                          93.7 175 
 PTB  HZ EP       13 7 32.26                             133   -0.09 9  145 261 
 PTB  HZ I        13 7 34.66         1.8 0.24                           145 261 
 PTB  HE ES   1   13 7 52.82                             133   -0.51 7  145 261 
 ZAR  HN ES   1   13 8  3.86                             123    0.16 6  205 294 
 ZAR  HZ I        13 8  9.18         3.7 0.14                           205 294 
                                                                                
