 2013  514 1902 35.0 L   6.862 -73.378116.0  RSN  7 0.5 1.7LRSN                1
 GAP= 94        1.06       6.0     5.9  8.6 -0.1185E+02  0.1964E+02  0.1168E+02E
 Epicentro: SAN VICENTE DE CHUCURI - SANTANDER                                 3
 ACTION:UPD 13-06-20 09:50 OP:ep   STATUS:               ID:20130514190235 L   I
 2013-05-14-1900-00M.COL___256                                                 6
 STAT SP IPHASW D HRMM SECON CODA AMPLIT PERI AZIMU VELO AIN AR TRES W  DIS CAZ7
 GIR2 SZ EP   1   19 2 51.20                             164    0.04 7 31.4  40 
 GIR2 SZ ES   1   19 3  3.76                             164   -0.00 7 31.4  40 
 GIR2 SZ I        19 3  4.17        14.8 0.12            160           31.4  40 
 BAR2 SZ EP   1   19 2 51.89                             161    0.39 7 36.8 144 
 BAR2 SZ ES   1   19 3  4.22                             161   -0.15 7 36.8 144 
 BAR2 SZ I        19 3  5.32        27.7 0.44            164           36.8 144 
 BRR  HZ EP   1   19 2 51.55                             157    0.01 7 45.8 306 
 BRR  HN ES   1   19 3  4.54                             157    0.10 7 45.8 306 
 BRR  HZ I        19 3  5.17        35.7 0.12            145           45.8 306 
 PAM  SZ EP   1   19 2 55.20                             139   -0.02 7 91.6  55 
 PAM  SE ES       19 3 11.23                             139    0.2410 91.6  55 
 PAM  SZ I        19 3 13.98         4.4 0.38            134           91.6  55 
 RUS  HZ EP   1   19 2 57.09                             133    0.14 7  112 163 
 RUS  HN ES   1   19 3 13.48                             133   -0.59 7  112 163 
 RUS  HZ I        19 3 15.10         2.9 0.16            129            112 163 
 PTB  HZ IP     C 19 2 56.35                             129   -1.0910  124 253 
 PTB  HZ I        19 3 17.46        10.0 0.16            121            124 253 
 NOR  HZ EP       19 3  7.79                             113    0.40 8  219 229 
 NOR  HE ES       19 3 33.44                             113    0.78 8  219 229 
 NOR  HZ I        19 3 37.47         5.6 0.20            108            219 229 
                                                                                
