 2011  814 1907 40.4 L   6.813 -73.122145.5  RSN  6 0.2 1.6LRSN                1
 GAP=139        0.57       2.7     4.3  5.8 -0.2074E+01  0.1586E+01  0.9457E-01E
 Epicentro: LOS SANTOS - SANTANDER                                             3
 ACTION:UPD 12-07-13 15:51 OP:ep   STATUS:               ID:20110814190740 L   I
 2011-08-14-1904-05S.COL___149                                                 6
 STAT SP IPHASW D HRMM SECON CODA AMPLIT PERI AZIMU VELO AIN AR TRES W  DIS CAZ7
 BAR2 SZ EP       19 7 59.79                             170   -0.2610 25.3 195 
 BAR2 SZ I        19 8 16.58         8.0 0.34                          25.3 195 
 BRR  HZ EP       19 8  1.58                             152   -0.0410 72.8 297 
 BRR  HZ I        19 8  2.96        15.9 0.12                          72.8 297 
 BRR  HE ES   1   19 8 18.56                             152    0.39 7 72.8 297 
 PAM  SZ EP       19 8  2.65                             152    0.2110 74.6  39 
 PAM  SN ES   1   19 8 19.23                             152   -0.39 7 74.6  39 
 RUS  HZ EP       19 8  4.46                             143    0.2310  102 178 
 RUS  HZ I        19 8  5.08         3.5 0.12                           102 178 
 RUS  HE ES   1   19 8 22.86                             143    0.05 7  102 178 
 OCA  SZ EP       19 8  8.56                             130   -0.04 9  159 352 
 OCA  SZ ES   1   19 8 30.58                             130    0.00 7  159 352 
 NOR  SN ES   1   19 8 44.14                             118   -0.40 6  238 235 
                                                                                
