 2017  714 1606 32.1 L   6.858 -73.536107.1  RSN  4 0.3 1.6LRSN                1
 GAP=191        0.75       6.3     4.0  7.4  0.1569E+02  0.4373E+01 -0.6426E+01E
 Epicentro: SAN VICENTE DE CHUCURI - SANTANDER                                 3
 ACTION:UPD 17-08-30 15:33 OP:rebc STATUS:               ID:20170714160632 L   I
 OLDACT:REG 17-07-15 00:46 OP:lv   STATUS:               ID:20170714155747     3
 2017-07-14-1558-00M.COL___389                                                 6
 STAT SP IPHASW D HRMM SECON CODA AMPLIT PERI AZIMU VELO AIN AR TRES W  DIS CAZ7
 BAR2 EZ EP       16 6 47.99                             154   -0.1810 48.9 127 
 BAR2 EZ ES       16 7  0.63                             154   -0.0710 48.9 127 
 BAR2 EZ I        16 7  1.48        17.9 0.05            151           48.9 127 
 PTB  HZ EP       16 6 52.00                             131   -0.3010  108 251 
 PTB  HN ES       16 7  7.92                             131   -0.1210  108 251 
 PTB  HZ I        16 7  9.19         2.5 0.06            130            108 251 
 RUS  HZ EP       16 6 53.74                             129   -0.1510  118 155 
 RUS  HN ES   1   16 7 11.61                             129    0.73 7  118 155 
 RUS  HZ I        16 7 14.72        19.8 0.04            127            118 155 
 ZAR  HZ EP   1   16 6 58.23                             119    0.48 7  162 296 
 ZAR  HE ES       16 7 17.96                             119    0.22 9  162 296 
                                                                                
