 2012  614 1732  9.1 L   6.748 -73.229137.4  RSN  5 0.2 1.3LRSN                1
 GAP=122        0.40       2.6     2.3  4.4 -0.1303E+00  0.1024E+01 -0.1205E+01E
 Epicentro: VILLANUEVA - SANTANDER                                             3
 ACTION:UPD 12-08-06 17:49 OP:ep   STATUS:               ID:20120614173209 L   I
 2012-06-14-1730-00M.COL___200                                                 6
 STAT SP IPHASW D HRMM SECON CODA AMPLIT PERI AZIMU VELO AIN AR TRES W  DIS CAZ7
 BAR2 SZ EP   1   1732 27.44                             172   -0.20 7 17.9 163 
 BAR2 SZ ES   1   1732 41.93                             172   -0.16 7 17.9 163 
 BAR2 SZ I        1732 44.99         6.8 0.09                          17.9 163 
 PAM  SZ EP       1732 31.11                             146   -0.0210 87.7  42 
 PAM  SN ES   1   1732 48.40                             146    0.10 7 87.7  42 
 RUS  HZ EP       1732 31.70                             143   -0.0110 95.9 170 
 RUS  HN ES   1   1732 49.60                             143    0.26 7 95.9 170 
 RUS  HZ I        1732 51.27         3.2 0.42                          95.9 170 
 PTB  HN ES   1   1732 54.15                             132   -0.13 7  138 260 
 PTB  HZ I        1732 56.46         3.0 0.23                           138 260 
 ZAR  HN ES   1   1733  5.01                             121    0.23 6  198 295 
                                                                                
