 2010 1214 1331 12.0 L   6.776 -73.127139.8  RSN  5 0.2 1.5LRSN                1
 GAP=161        0.40       4.0    13.6  7.3 -0.3806E+02  0.4996E+02 -0.6235E+01E
 Epicentro: LOS SANTOS - SANTANDER                                             3
 ACTION:UP  11-01-14 15:24 OP:pat  STATUS:               ID:20101214133112 L   I
 2010-12-14-1329-14S.COL___137                                                 6
 STAT SP IPHASW D HRMM SECON CODA AMPLIT PERI AZIMU VELO SNR AR TRES W  DIS CAZ7
 BAR2 SZ EP   1   1331 30.79                             171    -0.1 7   21 197 
 BAR2 SZ ES   2   1331 45.70                             171     0.1 5   21 197 
 BAR2 SZ I        1331 48.41         9.1 0.31                            21 197 
 BTL  SZ EP       1331 31.08                             170     0.210   22 315 
 RUS  HZ EP   2   1331 35.20                             143     0.2 5   98 177 
 RUS  HN ES   2   1331 52.72                             143    -0.2 5   98 177 
 RUS  HZ I        1331 54.87         4.1 0.19                            98 177 
 GRA  SZ ES   1   1331 56.13                             135    -0.2 7  128  16 
 GRA  SZ I        1331 57.31         5.3 0.38                           128  16 
 PRA  HZ EP   2   1332  5.28                             105     0.1 3  391 210 
 PRA  HN ES   2   1332 46.40                             105    -0.3 3  391 210 
                                                                                
