 2012  514 1402 17.1 L   6.768 -73.147150.6  RSN  6 0.3 1.4LRSN                1
 GAP=138        0.50       6.7     4.5  8.1  0.6449E+01 -0.4206E+01  0.2693E+02E
 Epicentro: LOS SANTOS - SANTANDER                                             3
 ACTION:UP  12-07-05 12:05 OP:pat  STATUS:               ID:20120514140217 L   I
 2012-05-14-1400-00M.COL___195                                                 6
 STAT SP IPHASW D HRMM SECON CODA AMPLIT PERI AZIMU VELO SNR AR TRES W  DIS CAZ7
 BAR2 SZ EP       14 2 37.22                             172    -0.110   20 191 
 BAR2 SZ I        14 2 37.38         5.4 0.60                            20 191 
 BRR  HZ EP       14 2 39.07                             153     0.210   73 301 
 BRR  HZ I        14 2 42.36        12.1 0.34                            73 301 
 BRR  HE ES   1   14 2 55.95                             153     0.1 7   73 301 
 PAM  SE ES   3   14 2 56.76                             151    -1.1 2   80  38 
 RUS  HZ EP       14 2 41.17                             146     0.110   97 176 
 RUS  HZ I        14 2 42.19         1.3 0.54                            97 176 
 PTB  HZ EP       14 2 44.26                             133    -0.2 9  147 260 
 PTB  HN ES   1   14 3  5.65                             133    -0.1 7  147 260 
 PTB  HZ I        14 3  7.77         2.5 0.28                           147 260 
 ZAR  HE ES   3   14 3 15.57                             123    -0.1 2  205 293 
                                                                                
