 2013 1014 1437  8.6 L   6.746 -73.161150.4  RSN  4 0.4 1.8LRSN                1
 GAP=231        0.93       7.5     7.1  7.5  0.2612E+02  0.4437E+01  0.5270E+00E
 Epicentro: VILLANUEVA - SANTANDER                                             3
 ACTION:UPD 13-11-25 09:21 OP:ep   STATUS:               ID:20131014143708 L   I
 OLDACT:UP  13-10-14 16:38 OP:cam  STATUS:               ID:20131014142959     3
 OLDACT:REG 13-10-14 15:52 OP:cam  STATUS:               ID:20131014142959     3
 2013-10-14-1429-59M.COL___273                                                 6
 STAT SP IPHASW D HRMM SECON CODA AMPLIT PERI AZIMU VELO AIN AR TRES W  DIS CAZ7
 BAR2 SZ EP       1437 28.43                             173   -0.2510 17.2 188 
 BAR2 SZ ES       1437 43.77                             173   -0.5710 17.2 188 
 BAR2 SZ I        1437 45.15        18.0 0.48            174           17.2 188 
 BRR  HZ EP       1437 30.35                             153    0.0110 72.8 303 
 BRR  HN ES       1437 47.84                             153    0.5510 72.8 303 
 BRR  HZ I        1437 50.08         9.9 0.14            153           72.8 303 
 RUS  HZ EP       1437 32.76                             146    0.3510 94.8 175 
 RUS  HN ES       1437 51.23                             146    0.2610 94.8 175 
 RUS  HZ I        1437 51.87         6.8 0.26            148           94.8 175 
 PTB  HZ EP       1437 35.43                             134   -0.27 9  145 261 
 PTB  HN ES       1437 56.71                             134   -0.13 9  145 261 
 PTB  HZ I        1437 58.44         8.5 0.16            134            145 261 
                                                                                
