 2011  614 1611 10.4 L   6.753 -73.113144.8  RSN  6 0.4 2.1LRSN                1
 GAP=160        0.77       5.2     6.9  6.8 -0.3073E+01  0.6336E+01  0.4573E+00E
 Epicentro: LOS SANTOS - SANTANDER                                             3
 ACTION:UP  11-07-14 19:05 OP:ep   STATUS:               ID:20110614161110 L   I
 2011-06-14-1600-00M.COL___122                                                 6
 STAT SP IPHASW D HRMM SECON CODA AMPLIT PERI AZIMU VELO SNR AR TRES W  DIS CAZ7
 BAR2 SZ EP   1   1611 29.82                             172     0.0 7   19 203 
 BAR2 SZ ES   1   1611 44.83                             172    -0.1 7   19 203 
 BAR2 SZ I        1611 45.89        34.4 0.14                            19 203 
 BRR  HZ EP       1611 31.77                             151     0.010   77 301 
 BRR  HE ES   1   1611 48.66                             151     0.2 7   77 301 
 BRR  HZ I        1611 51.63        34.4 0.14                            77 301 
 RUS  HZ EP   1   1611 33.00                             145    -0.6 7   95 178 
 RUS  HN ES   1   1611 52.26                             145     0.5 7   95 178 
 RUS  HZ I        1611 53.29        13.7 0.46                            95 178 
 BRI  SZ EP   1   1611 34.41                             140     0.0 7  112  18 
 NOR  SZ EP   1   1611 46.37                             118     0.3 6  235 236 
 NOR  SN ES   1   1612 13.34                             118    -0.5 6  235 236 
 PRA  HZ EP   1   1612  4.12                             107     0.6 4  389 210 
                                                                                
