 2012 1114 1336 46.5 L   6.816 -73.145143.4  RSN 21 0.5 3.2LRSN 3.4WRSN        1
 SPEC AVERAGE  MO 14.3 ST 25.8 OM  2.4 f0 4.47 R0.3425 AL 2.64 WI 28.0 MW  3.4 3
 SPEC SD       MO  0.1 ST 16.9 OM  0.5 f00.926 R0.0660 AL      WI      MW  0.1 3
 GAP= 71        1.22       3.2     3.5  5.0 -0.4888E+00  0.4488E+01  0.3724E+01E
 Epicentro: LOS SANTOS - SANTANDER                                             3
 SPEC ZAR HH N MO 14.5 ST 63.6 OM  2.7 f0 5.41 R0.2717 AL 3.31 WI 32.1 MW  3.6 3
 SPEC ZAR HH N T133741 K 0.000 GD  248 VS 4.20 DE 3.00 Q0230.0 QA 0.60 VS 4.20 3
 SPEC PRA HH N MO 14.3 ST 20.0 OM  2.3 f0 4.20 R0.3500 AL 2.57 WI 35.0 MW  3.5 3
 SPEC PRA HH N T133820 K 0.000 GD  419 VS 4.20 DE 3.00 Q0230.0 QA 0.60 VS 4.20 3
 SPEC RREFHH Z MO 14.3 ST 20.9 OM  1.6 f0 4.27 R0.3443 AL 3.05 WI 37.4 MW  3.5 3
 SPEC RREFHH Z T133732 K 0.000 GD  353 VP 7.60 DE 3.00 Q0230.0 QA 0.60 VS 4.20 3
 SPEC PTB HH N MO 14.3 ST 14.5 OM  2.6 f0 3.80 R0.3868 AL 1.59 WI 21.5 MW  3.5 3
 SPEC PTB HH N T133732 K 0.000 GD  206 VS 4.20 DE 3.00 Q0230.0 QA 0.60 VS 4.20 3
 SPEC RUS HH Z MO 14.0 ST 31.1 OM  1.6 f0 6.15 R0.2390 AL 1.93 WI 19.2 MW  3.3 3
 SPEC RUS HH Z T1337 9 K 0.000 GD  175 VP 7.60 DE 3.00 Q0230.0 QA 0.60 VS 4.20 3
 SPEC MON HH N MO 14.1 ST  9.4 OM  2.2 f0 3.64 R0.4038 AL 2.48 WI 31.8 MW  3.4 3
 SPEC MON HH N T133810 K 0.000 GD  381 VS 4.20 DE 3.00 Q0230.0 QA 0.60 VS 4.20 3
 SPEC HEL HH Z MO 14.1 ST  7.6 OM  1.5 f0 3.44 R0.4273 AL 2.02 WI 27.4 MW  3.4 3
 SPEC HEL HH Z T133726 K 0.000 GD  308 VP 7.60 DE 3.00 Q0230.0 QA 0.60 VS 4.20 3
 SPEC OCA HH N MO 14.5 ST 43.8 OM  2.8 f0 4.65 R0.3161 AL 3.48 WI 25.7 MW  3.6 3
 SPEC OCA HH N T133735 K 0.000 GD  214 VS 4.20 DE 3.00 Q0230.0 QA 0.60 VS 4.20 3
 SPEC CHI HH N MO 14.3 ST 12.0 OM  2.5 f0 3.44 R0.4273 AL 2.64 WI 32.6 MW  3.5 3
 SPEC CHI HH N T133752 K 0.000 GD  288 VS 4.20 DE 3.00 Q0230.0 QA 0.60 VS 4.20 3
 SPEC BRR HH Z MO 14.1 ST 35.3 OM  1.8 f0 5.68 R0.2588 AL 3.36 WI 17.1 MW  3.4 3
 SPEC BRR HH Z T1337 7 K 0.000 GD  159 VP 7.60 DE 3.00 Q0230.0 QA 0.60 VS 4.20 3
 ACTION:UPD 12-12-05 15:33 OP:}ep  STATUS:               ID:20121114133646 L   I
 2012-11-14-1330-00M.COL___230                                                 6
 STAT SP IPHASW D HRMM SECON CODA AMPLIT PERI AZIMU VELO AIN AR TRES W  DIS CAZ7
 BAR2 SZ IP     D 1337  5.92                             170    0.0710 25.0 189 
 BAR2 SZ I        1337  6.36       247.6 0.14                          25.0 189 
 BAR2 SZ ES       1337 20.77                             170   -0.1910 25.0 189 
 GIR2 SZ IP     C 1337  5.93                             168    0.1210 29.6 350 
 GIR2 SZ ES       1337 20.76                             168   -0.1410 29.6 350 
 BRR  HZ IP     C 1337  7.76                             152    0.4510 70.4 297 
 BRR  HZ I        1337  8.00       158.5 0.26                          70.4 297 
 BRR  HN ES       1337 24.54                             152    0.9710 70.4 297 
 PAM  SZ IP     D 1337  8.70                             151    0.3510 76.0  40 
 PAM  SN ES       1337 25.56                             151    0.1410 76.0  40 
 PAM  SN I        1337 27.76       213.6 0.38                          76.0  40 
 RUS  HZ IP     C 1337  9.90                             143   -0.2110  102 176 
 RUS  HN ES       1337 28.11                             143   -0.4410  102 176 
 RUS  HN I        1337 30.09       156.2 0.32                           102 176 
 PTB  HZ EP       1337 12.50                             131   -0.77 9  148 258 
 PTB  HN ES       1337 33.66                             131   -0.52 9  148 258 
 PTB  HN I        1337 39.08       203.8 0.32                           148 258 
 TAM  HZ IP     C 1337 14.32                             130    0.32 9  156 106 
 TAM  HZ I        1337 14.62        72.5 0.40                           156 106 
 TAM  HN ES       1337 35.65                             130    0.18 9  156 106 
 OCA  HZ EP       1337 14.44                             129    0.01 9  159 353 
 OCA  HN ES       1337 35.57                             129   -0.67 9  159 353 
 OCA  HN I        1337 38.62       295.6 0.26                           159 353 
 ZAR  HZ EP       1337 18.70                             122    0.01 9  203 292 
 ZAR  HN ES       1337 43.82                             122   -0.01 9  203 292 
 ZAR  HN I        1337 49.62       153.4 0.22                           203 292 
 SML  HZ EP   1   1337 22.49                             117   -0.30 6  242 335 
 SML  HN I        1337 53.72       150.3 0.10                           242 335 
 CHI  HZ EP       1337 24.25                             116    0.03 8  250 195 
 CHI  HN ES       1337 52.87                             116   -0.79 8  250 195 
 CHI  HN I        1337 56.46       100.5 0.34                           250 195 
 ROSC BZ EP       1337 25.44                             116    0.82 8  254 211 
 ROSC BZ I        1337 59.73        75.4 0.40                           254 211 
 HEL  HZ EP       1337 26.70                             114    0.09 8  273 255 
 HEL  HN ES       1337 57.17                             114   -0.75 8  273 255 
 HEL  HN I        1338  3.94        54.8 0.26                           273 255 
 GUY  SZ EP       1337 30.61                             112    0.27 7  305 235 
 GUY  SN ES       1338  6.33                             112    1.76 7  305 235 
 GUY  SN I        1338 10.52       375.8 0.44                           305 235 
 VIL  SZ EP       1337 29.21                             111   -0.76 7  305 192 
 VIL  SN I        1338  9.36       142.0 0.60                           305 192 
 RREF HZ EP       1337 32.79                             110    0.15 7  323 229 
 RREF HZ I        1338 19.97        32.4 0.30                           323 229 
 TOL  SZ EP       1337 35.39                             109    0.62 7  345 224 
 COD  HZ EP       1337 33.55                             109   -1.00 6  347 355 
 MON  HZ EP   1   1337 35.92                             108    0.67 5  353 308 
 ANIL HZ EP       1337 36.25                             108   -0.07 6  359 224 
 ANIL HZ I        1338 22.06       114.2 0.40                           359 224 
 PRA  HZ EP       1337 39.59                             106   -0.49 6  394 209 
 PRA  HN ES       1338 22.14                             106    0.24 6  394 209 
 PRA  HN I        1338 26.38        43.1 0.38                           394 209 
                                                                                
