 2012 1014 1007 42.8 L   6.802 -73.121148.3  RSN 13 0.5 2.6LRSN                1
 GAP= 72        0.88       3.8     3.7  5.4 -0.9199E+00  0.2083E+01  0.5892E+01E
 Epicentro: LOS SANTOS - SANTANDER                                             3
 ACTION:UPD 12-11-22 17:03 OP:ep   STATUS:               ID:20121014100742 L   I
 2012-10-14-1000-00M.COL___231                                                 6
 STAT SP IPHASW D HRMM SECON CODA AMPLIT PERI AZIMU VELO AIN AR TRES W  DIS CAZ7
 BAR2 SZ EP       10 8  2.62                             171   -0.1510 24.2 196 
 BAR2 SZ ES   1   10 8 17.95                             171   -0.38 7 24.2 196 
 BAR2 SZ I        10 8 18.86        99.2 0.22                          24.2 196 
 GIR2 SZ EP       10 8  2.67                             167   -0.1310 31.6 345 
 GIR2 SZ ES   1   10 8 18.87                             167    0.49 7 31.6 345 
 BRR  HZ IP     C 10 8  4.49                             152    0.1210 73.5 297 
 BRR  HN ES   1   10 8 21.55                             152    0.38 7 73.5 297 
 BRR  HN I        10 8 22.36       207.2 0.32                          73.5 297 
 PAM  SZ EP       10 8  5.37                             152    0.1810 75.5  38 
 PAM  SN ES   1   10 8 22.73                             152    0.09 7 75.5  38 
 PAM  SN I        10 8 24.20        41.4 0.30                          75.5  38 
 RUS  HZ EP       10 8  6.42                             144   -0.4010  101 178 
 RUS  HN ES   1   10 8 24.93                             144   -0.62 7  101 178 
 RUS  HN I        10 8 25.79        42.7 0.18                           101 178 
 TAM  HZ EP       10 8 10.77                             131    0.31 9  153 105 
 TAM  HZ I        10 8 31.66        14.6 0.16                           153 105 
 TAM  HN ES   1   10 8 32.40                             131    0.38 7  153 105 
 ZAR  HZ EP   1   10 8 15.32                             122   -0.35 6  206 292 
 ZAR  HN ES   1   10 8 40.68                             122   -0.62 6  206 292 
 ZAR  HN I        10 8 45.58        62.6 0.32                           206 292 
 CHI  HZ EP   1   10 8 20.62                             117   -0.14 6  250 196 
 CHI  HN ES   1   10 8 50.21                             117   -0.15 6  250 196 
 CHI  HN I        10 8 56.76        34.3 0.29                           250 196 
 ROSC BZ EP   1   10 8 22.50                             117    1.25 6  254 212 
 ROSC BZ I        10 8 58.99        27.7 0.41                           254 212 
 GUY  SN ES   1   10 9  2.27                             112    0.68 5  306 235 
 RREF HZ EP   1   10 8 30.03                             111    0.71 5  324 230 
 SDV  BZ EP   1   10 8 31.94                             109   -0.75 5  358  50 
 PRA  HZ EP   1   10 8 35.68                             107   -0.93 4  394 210 
 PRA  HN ES   1   10 9 18.50                             107   -0.06 4  394 210 
 PRA  HN I        10 9 23.81        16.4 0.41                           394 210 
                                                                                
