 2012 1114 1921 20.5 L   6.792 -73.159149.1  RSN  6 0.5 1.7LRSN                1
 GAP=135        0.87       4.1     6.4  8.9  0.5203E+01  0.1110E+02  0.1360E+01E
 Epicentro: LOS SANTOS - SANTANDER                                             3
 ACTION:UPD 12-12-05 15:33 OP:}ep  STATUS:               ID:20121114192120 L   I
 2012-11-14-1920-00M.COL___229                                                 6
 STAT SP IPHASW D HRMM SECON CODA AMPLIT PERI AZIMU VELO AIN AR TRES W  DIS CAZ7
 BRR  HZ EP   1   1921 42.15                             153    0.15 7 70.3 300 
 BRR  HN ES   1   1921 59.28                             153    0.54 7 70.3 300 
 PAM  SZ EP   1   1921 43.49                             151    0.29 7 79.0  40 
 PAM  SE ES   1   1922  0.71                             151   -0.17 7 79.0  40 
 PAM  SZ I        1922  2.19         3.6 0.18                          79.0  40 
 RUS  HZ EP   1   1921 45.09                             145    0.53 7 99.8 175 
 RUS  HN ES   1   1922  2.88                             145   -0.43 7 99.8 175 
 RUS  HZ I        1922  4.64         3.3 0.23                          99.8 175 
 ZAR  HN ES   1   1922 18.65                             123    0.16 6  203 293 
 ZAR  HN I        1922 24.78        10.1 0.16                           203 293 
 SML  HZ EP   1   1921 57.20                             118   -0.16 6  244 336 
 SML  HN ES   1   1922 25.10                             118   -0.99 6  244 336 
 SML  HZ I        1922 29.27         7.2 0.10                           244 336 
 CHI  HZ EP   2   1921 58.87                             118    0.58 4  247 195 
 CHI  HN ES   1   1922 27.01                             118   -0.73 6  247 195 
 CHI  HZ I        1922 33.43         2.9 0.80                           247 195 
                                                                                
