 2017  114 1907  7.3 L   6.768 -73.132144.0  RSN 15 0.5 2.1LRSN                1
 GAP=122        0.88       3.2     3.6  4.8  0.3676E+00  0.5346E+01  0.4873E+01E
 Epicentro: LOS SANTOS - SANTANDER                                             3
 ACTION:UPD 17-05-22 15:59 OP:jn   STATUS:               ID:20170114190707 L   I
 OLDACT:UP  17-01-14 23:33 OP:e    STATUS:               ID:20170114185748     3
 OLDACT:UP  17-01-14 23:33 OP:e    STATUS:               ID:20170114185748     3
 OLDACT:UP  17-01-14 23:33 OP:e    STATUS:               ID:20170114185748     3
 OLDACT:UP  17-01-14 23:32 OP:e    STATUS:               ID:20170114185748     3
 OLDACT:UP  17-01-14 23:31 OP:e    STATUS:               ID:20170114185748     3
 OLDACT:UP  17-01-14 23:31 OP:e    STATUS:               ID:20170114185748     3
 OLDACT:UP  17-01-14 23:29 OP:e    STATUS:               ID:20170114185748     3
 OLDACT:UP  17-01-14 23:28 OP:e    STATUS:               ID:20170114185748     3
 OLDACT:REG 17-01-14 20:29 OP:and  STATUS:               ID:20170114185748     3
 2017-01-14-1858-00M.COL___335                                                 6
 STAT SP IPHASW D HRMM SECON CODA AMPLIT PERI AZIMU VELO AIN AR TRES W  DIS CAZ7
 BAR2 EZ EP       19 7 26.74                             172    0.0810 20.2 196 
 BAR2 EZ ES       19 7 41.66                             172   -0.1010 20.2 196 
 BAR2 EZ I        19 7 44.44        58.2 0.26            165           20.2 196 
 BRR  HZ IP     C 19 7 28.39                             151   -0.0510 74.3 300 
 BRR  HN ES       19 7 45.44                             151    0.5110 74.3 300 
 BRR  HZ I        19 7 48.11        24.9 0.21            148           74.3 300 
 PAM  EZ EP       19 7 29.42                             150   -0.0310 79.2  37 
 PAM  EN ES       19 7 46.58                             150   -0.1310 79.2  37 
 PAM  EZ I        19 7 48.88        17.8 0.40            158           79.2  37 
 RUS  HZ EP       19 7 30.52                             145   -0.1010 96.9 177 
 RUS  HN ES       19 7 49.05                             145    0.2510 96.9 177 
 RUS  HZ I        19 7 50.50        17.9 0.40            144           96.9 177 
 PTB  HZ EP       19 7 33.69                             131   -0.52 9  149 260 
 PTB  HN ES   3   19 7 54.35                             131   -0.84 2  149 260 
 PTB  HZ I        19 8  0.04        19.0 0.42            129            149 260 
 ZAR  HZ EP       19 7 40.36                             122    0.43 8  207 293 
 ZAR  HE ES       19 8  4.94                             122   -0.43 8  207 293 
 ZAR  HZ I        19 8 11.55        17.9 0.27            121            207 293 
 NOR  HZ EP       19 7 43.03                             118    0.18 8  234 235 
 NOR  HN ES       19 8 10.09                             118   -0.48 8  234 235 
 NOR  HZ I        19 8 17.49         8.0 0.18            118            234 235 
 CHI  HZ EP       19 7 44.74                             117    0.17 8  246 196 
 CHI  HN ES       19 8 13.94                             117    0.30 8  246 196 
 CHI  HZ I        19 8 17.61         7.3 0.64            118            246 196 
 ROSC BZ EP   3   19 7 46.94                             117    1.86 2  250 212 
 ROSC BN ES   4   19 8 18.39                             117    3.84 0  250 212 
 ROSC BZ I        19 8 21.47        18.6 0.41            117            250 212 
 GUY2CHZ EP       19 7 51.65                             112    0.91 7  300 236 
 GUY2CHN ES       19 8 24.24                             112   -0.38 7  300 236 
 GUY2CHZ  IAML    19 8 36.81         5.6 0.46                           300 236 
 PTGC HZ EP       19 7 49.67                             112   -0.97 7  305 159 
 ELA  HZ I        19 8 45.85         6.1 0.52            110            328 230 
 CBOC HN ES   3   19 8 29.35                             110   -1.41 2  334 253 
 CBOC HZ I        19 8 39.58         2.2 0.20            110            334 253 
 ORTC HZ EP       19 8  1.30                             106    0.37 6  393 217 
 ORTC HN ES   3   19 8 44.31                             106    1.55 1  393 217 
 ORTC HZ I        19 8 50.23         5.4 0.56            107            393 217 
 SJC  HZ EP   9   19 8  0.80                             105   -2.46 0  413 327 
 SJC  HN ES       19 8 44.77                             106    0.32 6  413 327 
 SJC  HZ I        19 8 49.59         3.9 0.48            107            413 327 
                                                                                
