 2015  114 1010  2.6 L   6.709 -73.124136.8  RSN  5 0.4 1.6LRSN                1
 GAP=173        1.00       8.6     5.2  8.2 -0.1163E+02  0.1491E+02 -0.6633E+01E
 Epicentro: JORDAN - SANTANDER                                                 3
 ACTION:UPD 15-03-02 15:39 OP:nd   STATUS:               ID:20150114101002 L   I
 OLDACT:UP  15-01-14 21:31 OP:mh   STATUS:               ID:20150114100745     3
 OLDACT:REG 15-01-14 21:04 OP:mh   STATUS:               ID:20150114100745     3
 2015-01-14-1007-45M.COL___250                                                 6
 STAT SP IPHASW D HRMM SECON CODA AMPLIT PERI AZIMU VELO AIN AR TRES W  DIS CAZ7
 BAR2 EZ EP   1   1010 21.27                             174    0.31 7 14.4 207 
 BAR2 EZ ES       1010 34.85                             174   -0.4610 14.4 207 
 BRR  HZ EP       1010 22.95                             148   -0.2610 78.5 304 
 BRR  HN ES       1010 39.92                             148    0.6210 78.5 304 
 BRR  HZ I        1010 44.81         7.0 0.22            147           78.5 304 
 PAM  SZ EP   1   1010 24.43                             147    0.16 7 84.1  34 
 PAM  SN ES       1010 41.16                             147   -0.0310 84.1  34 
 PAM  SZ I        1010 42.84         7.6 0.48            147           84.1  34 
 PTB  HZ EP   1   1010 28.57                             130   -0.32 7  149 263 
 PTB  HN ES       1010 49.85                             130    0.43 9  149 263 
 ZAR  HZ EP   1   1010 35.51                             120    0.41 6  210 294 
 ZAR  HN ES       1010 59.74                             120   -0.74 8  210 294 
 ZAR  HZ I        1011  1.90         4.0 0.12            121            210 294 
                                                                                
