 2011  314 1207 35.0 L   6.808 -73.154138.0  RSN  5 0.2 1.6LRSN                1
 GAP=301        0.34       4.6     5.7  5.3 -0.6261E+01  0.1172E+02 -0.4034E+01E
 Epicentro: LOS SANTOS - SANTANDER                                             3
 ACTION:UP  11-06-16 14:33 OP:jfem STATUS:               ID:20110314120452 L   I
 2011-03-14-1204-52S.COL___131                                                 6
 STAT SP IPHASW D HRMM SECON CODA AMPLIT PERI AZIMU VELO SNR AR TRES W  DIS CAZ7
 BAR2 SZ EP       12 7 53.73                             170     0.010   24 188 
 BAR2 SZ ES   2   12 8  8.38                             170     0.1 5   24 188 
 BAR2 SZ I        12 8 10.10        15.9 0.16                            24 188 
 RUS  HZ EP   1   12 7 57.90                             142    -0.2 7  102 176 
 RUS  HN ES   1   12 8 16.11                             142     0.1 7  102 176 
 RUS  HZ I        12 8 17.42         4.3 0.23                           102 176 
 NOR  SZ EP   3   12 8 10.15                             117    -0.1 2  235 234 
 NOR  SN ES   2   12 8 37.70                             117    -0.1 4  235 234 
 CHI  HZ EP   3   12 8 12.21                             115    -0.1 2  249 195 
 CHI  HE ES   3   12 8 41.21                             115    -0.3 2  249 195 
 PRA  HZ EP   2   12 8 28.98                             105     0.7 3  392 209 
                                                                                
