 2013  414 1731 46.0 L   6.782 -73.156144.6  RSN 13 0.5 2.2LRSN                1
 GAP= 71        1.12       4.1     4.2  5.5  0.1122E+01  0.3061E+01 -0.4755E+00E
 Epicentro: LOS SANTOS - SANTANDER                                             3
 ACTION:UPD 13-05-22 14:38 OP:EP   STATUS:               ID:20130414173146 L   I
 2013-04-14-1728-50M.COL___212                                                 6
 STAT SP IPHASW D HRMM SECON CODA AMPLIT PERI AZIMU VELO AIN AR TRES W  DIS CAZ7
 BAR2 SZ EP       1732  5.65                             171    0.1810 21.1 188 
 BAR2 SZ ES       1732 20.42                             171   -0.2110 21.1 188 
 BAR2 SZ I        1732 21.52        50.2 0.18            158           21.1 188 
 GIR2 SZ EP       1732  5.84                             166    0.2410 33.1 353 
 GIR2 SZ ES       1732 20.79                             166   -0.0910 33.1 353 
 GIR2 SZ I        1732 22.88        31.1 0.44            167           33.1 353 
 BRR  HZ EP       1732  7.60                             152    0.5610 71.2 300 
 BRR  HN ES       1732 24.56                             152    1.1310 71.2 300 
 BRR  HZ I        1732 29.26        47.2 0.12            143           71.2 300 
 PAM  SZ EP       1732  8.63                             150    0.3810 79.7  39 
 PAM  SN ES       1732 25.58                             150   -0.0110 79.7  39 
 PAM  SZ I        1732 28.09        23.6 0.72            153           79.7  39 
 RUS  HZ EP       1732  9.54                             144    0.0210 98.6 175 
 RUS  HN ES       1732 27.39                             144   -0.4510 98.6 175 
 RUS  HZ I        1732 29.07        22.5 0.34            132           98.6 175 
 PTB  HZ EP       1732 12.42                             132   -0.33 9  146 260 
 PTB  HN ES       1732 33.01                             132   -0.59 9  146 260 
 PTB  HZ I        1732 39.03        19.3 0.16            120            146 260 
 TAM  HZ EP       1732 13.97                             130    0.31 9  156 104 
 TAM  HN ES   1   1732 34.74                             130   -0.48 7  156 104 
 TAM  HZ I        1732 40.32        17.5 0.40            124            156 104 
 OCA  HZ EP   1   1732 13.82                             129   -0.60 7  162 354 
 OCA  HN ES   1   1732 35.42                             129   -1.15 7  162 354 
 OCA  HZ I        1732 37.91        25.5 0.38            124            162 354 
 SML  HZ EP       1732 22.53                             117   -0.20 8  245 336 
 SML  HE ES   1   1732 50.89                             117   -0.47 6  245 336 
 HEL  HZ EP   1   1732 26.19                             115    0.20 6  270 256 
 HEL  HZ I        1733  5.05         6.5 0.58            106            270 256 
 URE  HZ EP   2   1732 26.81                             113   -0.19 4  283 292 
 DBB  SZ EP   1   1732 33.27                             109   -0.06 5  338 275 
 PRA  HZ EP   1   1732 39.86                             106    0.63 4  390 210 
 PRA  HZ I        1733 27.95         7.1 0.58            100            390 210 
                                                                                
