 2016  814 1757 52.6 L   6.781 -73.140138.0  RSN  8 0.6 1.8LRSN                1
 GAP=138        1.31       5.9     5.9  7.9 -0.1214E+02  0.1239E+02  0.7700E+01E
 Epicentro: LOS SANTOS - SANTANDER                                             3
 ACTION:UPD 16-10-29 15:35 OP:rebc STATUS:               ID:20160814175752 L   I
 OLDACT:DUP 16-08-14 21:17 OP:cara STATUS:               ID:20160814174760d    3
 2016-08-14-1747-59S.COL___349                                                 6
 STAT SP IPHASW D HRMM SECON CODA AMPLIT PERI AZIMU VELO AIN AR TRES W  DIS CAZ7
 BAR2 EZ IP       1758 11.27                             171   -0.0310 21.4 193 
 BAR2 HE ES       1758 26.04                             171    0.1910 21.4 193 
 BAR2 EZ I        1758 27.38        30.6 0.18                          21.4 193 
 BRR  HZ EP       1758 13.14                             151    0.0810 72.8 300 
 BRR  HN ES       1758 28.99                             151    0.0210 72.8 300 
 BRR  HZ I        1758 34.02         9.6 0.20                          72.8 300 
 PAM  EZ IP       1758 13.95                             149   -0.1710 78.6  38 
 PAM  HN ES       1758 31.18                             149    0.3110 78.6  38 
 PAM  EZ I        1758 33.33         7.7 0.58                          78.6  38 
 RUS  HZ EP       1758 15.01                             143   -0.4710 98.4 176 
 RUS  HE ES       1758 33.60                             143    0.3110 98.4 176 
 RUS  HZ I        1758 35.12         7.1 0.20                          98.4 176 
 PTB  HZ EP       1758 18.11                             130   -0.90 9  148 260 
 PTB  HE ES       1758 39.51                             130   -0.07 9  148 260 
 PTB  HZ I        1758 40.58         7.0 0.24                           148 260 
 SPBC HZ IP       1758 20.23                             127   -0.21 9  162 220 
 SPBC HN ES       1758 41.45                             127   -0.67 9  162 220 
 SPBC HZ I        1758 47.87        15.2 0.10                           162 220 
 NOR  HZ EP       1758 27.77                             117   -0.09 8  234 235 
 NOR  HE ES       1758 55.30                             117   -0.03 8  234 235 
 NOR  HZ I        1759  2.14         5.8 0.40                           234 235 
 GUY2CHZ EP       1758 37.61                             111    1.78 7  300 235 
 GUY2CHE ES       1759 10.52                             111    1.01 7  300 235 
 GUY2CHZ I        1759 17.55         5.4 0.32                           300 235 
                                                                                
