 2013  414 1807 54.0 L   6.823 -73.165148.0  RSN  7 0.4 1.9LRSN                1
 GAP=181        0.75       3.7     6.4  6.6  0.4268E+01  0.1289E+02  0.2207E+01E
 Epicentro: LOS SANTOS - SANTANDER                                             3
 ACTION:UPD 13-05-22 14:38 OP:EP   STATUS:               ID:20130414180754 L   I
 2013-04-14-1758-51M.COL___209                                                 6
 STAT SP IPHASW D HRMM SECON CODA AMPLIT PERI AZIMU VELO AIN AR TRES W  DIS CAZ7
 BAR2 SZ EP   1   18 8 14.20                             170    0.23 8 25.6 184 
 BAR2 SZ ES   1   18 8 29.54                             170    0.01 8 25.6 184 
 BAR2 SZ I        18 8 32.16        23.5 0.34            158           25.6 184 
 GIR2 SZ EP   1   18 8 14.26                             169    0.37 8 28.5 354 
 GIR2 SZ ES   1   18 8 29.97                             169    0.58 8 28.5 354 
 GIR2 SZ I        18 8 31.69        11.5 0.16            169           28.5 354 
 RUS  HZ EP       18 8 18.13                             144   -0.0610  103 175 
 RUS  HN ES   1   18 8 36.54                             144   -0.50 7  103 175 
 RUS  HZ I        18 8 37.82         6.9 0.30            130            103 175 
 PTB  HZ EP       18 8 21.01                             133   -0.03 9  146 258 
 PTB  HN ES   1   18 8 42.03                             133   -0.08 7  146 258 
 PTB  HZ I        18 8 48.08        14.9 0.26            120            146 258 
 OCA  HN ES   1   18 8 43.43                             131   -0.84 7  157 354 
 SML  HN ES   1   18 8 59.04                             118    0.21 6  241 335 
 PRA  HZ EP   1   18 8 48.06                             107    0.30 4  393 209 
 PRA  HZ I        18 9 34.23         3.9 0.36             99            393 209 
                                                                                
