 2013  114 1458  4.3 L   6.739 -73.190149.5  RSN  5 0.2 1.5LRSN                1
 GAP=228        0.52       6.0     5.2  5.9  0.2081E+02  0.7312E+01  0.5150E+01E
 Epicentro: VILLANUEVA - SANTANDER                                             3
 ACTION:UPD 13-02-15 09:14 OP:ep   STATUS:               ID:20130114145804 L   I
 2013-01-14-1450-00M.COL___241                                                 6
 STAT SP IPHASW D HRMM SECON CODA AMPLIT PERI AZIMU VELO AIN AR TRES W  DIS CAZ7
 BAR2 SZ EP   1   1458 24.10                             174   -0.13 7 16.2 177 
 BAR2 SZ ES   1   1458 39.45                             174   -0.35 7 16.2 177 
 BAR2 SZ I        1458 41.22         7.0 0.30            169           16.2 177 
 BRR  HN ES   1   1458 42.84                             153    0.26 7 70.6 305 
 RUS  HZ EP   1   1458 28.24                             146    0.28 7 94.3 173 
 RUS  HN ES   1   1458 46.61                             146    0.18 7 94.3 173 
 RUS  HZ I        1458 48.35         3.3 0.62            145           94.3 173 
 PTB  HZ EP   1   1458 30.69                             134   -0.33 7  142 261 
 PTB  HN ES   1   1458 51.79                             134   -0.09 7  142 261 
 PTB  HZ I        1458 54.30         5.4 0.46            134            142 261 
 ZAR  HN ES   1   1459  2.30                             123    0.17 6  202 294 
                                                                                
