 2017  814 1014 52.9 L   6.719 -73.143158.4  RSN  5 0.1 1.3LRSN                1
 GAP=231        0.36       2.3     2.8  4.2  0.3128E+01 -0.1895E+01 -0.1839E+01E
 Epicentro: JORDAN - SANTANDER                                                 3
 ACTION:UPD 17-09-04 20:20 OP:rebc STATUS:               ID:20170814101452 L   I
 OLDACT:UP  17-08-14 21:59 OP:lv   STATUS:               ID:20170814100739d    3
 OLDACT:UP  17-08-14 21:58 OP:lv   STATUS:               ID:20170814100739d    3
 OLDACT:DUP 17-08-14 21:53 OP:lv   STATUS:               ID:20170814100739d    3
 2017-08-14-1008-00M.COL___407                                                 6
 STAT SP IPHASW D HRMM SECON CODA AMPLIT PERI AZIMU VELO AIN AR TRES W  DIS CAZ7
 BAR2 HZ EP       1015 13.77                             174   -0.1910 14.7 197 
 BAR2 HZ I        1015 30.44         4.0 0.35            168           14.7 197 
 BRR  HZ EP       1015 15.77                             153    0.0310 76.1 304 
 BRR  HN ES       1015 33.54                             153    0.0310 76.1 304 
 RUS  HZ EP       1015 17.50                             149    0.1310 91.6 176 
 RUS  HN ES       1015 36.44                             149    0.0310 91.6 176 
 SPBC HN ES       1015 44.32                             133   -0.05 9  156 221 
 ZAR  HN ES       1015 52.91                             124    0.02 8  208 294 
                                                                                
