 2014 1214 1926 59.1 L   6.830 -73.155142.1  RSN 24 0.5 2.6LRSN                1
 GAP= 70        1.11       2.3     2.7  4.5 -0.1067E+01  0.2421E+01  0.9865E+00E
 Epicentro: LOS SANTOS - SANTANDER                                             3
 ACTION:UPD 15-02-10 17:03 OP:nd   STATUS:               ID:20141214192659 L   I
 OLDACT:REG 14-12-14 20:56 OP:fm   STATUS:               ID:20141214191744     3
 2014-12-14-1917-44M.COL___288                                                 6
 STAT SP IPHASW D HRMM SECON CODA AMPLIT PERI AZIMU VELO AIN AR TRES W  DIS CAZ7
 BAR2 EZ EP       1927 18.65                             169    0.3210 26.5 187 
 BAR2 EZ ES       1927 33.60                             169    0.2510 26.5 187 
 BAR2 EZ I        1927 36.44        97.2 0.30            169           26.5 187 
 BRR  HZ EP     D 1927 20.61                             153    0.9210 68.8 296 
 BRR  HE ES       1927 36.05                             153    0.2810 68.8 296 
 BRR  HZ I        1927 41.48        74.7 0.26            152           68.8 296 
 PAM  SZ EP       1927 21.41                             151    0.6310 75.5  42 
 PAM  SN ES       1927 38.21                             151    0.4910 75.5  42 
 PAM  SZ I        1927 41.11        69.0 0.68            155           75.5  42 
 RUS  HZ EP     D 1927 22.63                             142   -0.0810  104 176 
 RUS  HN ES       1927 40.66                             142   -0.4910  104 176 
 RUS  HZ I        1927 42.74        49.7 0.28            144            104 176 
 PTB  HZ EP       1927 25.27                             131   -0.44 9  147 258 
 PTB  HE ES       1927 45.64                             131   -0.86 9  147 258 
 PTB  HZ I        1927 49.01        45.1 0.12            132            147 258 
 TAM  HZ IP     C 1927 27.11                             129    0.48 9  157 106 
 TAM  HE ES       1927 47.49                             129   -0.64 9  157 106 
 TAM  HZ I        1927 47.98        18.7 0.36            134            157 106 
 OCA  HZ EP       1927 26.23                             129   -0.55 9  157 353 
 OCA  HE ES       1927 48.57                             129    0.18 9  157 353 
 OCA  HZ I        1927 57.12        43.3 0.26            132            157 353 
 SPBC HE ES       1927 49.58                             128   -0.06 9  165 218 
 SPBC HZ I        1927 55.90        69.5 0.28            129            165 218 
 ZAR  HZ EP       1927 31.18                             122    0.12 9  202 291 
 ZAR  HN ES       1927 55.82                             122   -0.19 9  202 291 
 ZAR  HZ I        1928  1.88        41.6 0.26            123            202 291 
 NOR  HZ EP       1927 34.70                             118   -0.01 8  236 234 
 NOR  HE ES       1928  2.51                             118   -0.00 8  236 234 
 NOR  HZ I        1928  9.46        30.9 0.22            119            236 234 
 SML  HZ EP       1927 34.76                             117   -0.36 8  240 335 
 SML  HE ES       1928  3.02                             117   -0.22 8  240 335 
 SML  HZ I        1928  5.81        66.2 0.10            119            240 335 
 CHI  HZ EP       1927 36.98                             116    0.09 8  252 195 
 CHI  HN ES       1928  5.73                             116   -0.66 8  252 195 
 CHI  HZ I        1928 12.45        23.0 0.34            118            252 195 
 ROSC BZ EP       1927 38.13                             116    0.88 8  255 210 
 ROSC BE ES       1928  7.27                             116    0.24 8  255 210 
 ROSC BZ I        1928 13.36        56.5 0.40            117            255 210 
 HEL  HZ EP       1927 39.04                             114   -0.05 8  272 255 
 HEL  HN ES       1928 10.07                             114   -0.23 8  272 255 
 HEL  HZ I        1928 18.95        21.5 0.38            115            272 255 
 VIL  SZ EP       1927 42.15                             111   -0.52 7  306 191 
 VIL  SE ES       1928 16.04                             111   -0.63 7  306 191 
 VIL  SZ I        1928 21.76        21.4 0.36            113            306 191 
 PTGC HZ EP   4   1927 41.93                             111   -1.23 0  312 159 
 PTGC HE ES   4   1928 13.75                             111   -3.79 0  312 159 
 PTGC HZ I        1928 15.29        19.7 0.36            113            312 159 
 RREF HZ EP       1927 45.88                             110    0.66 7  323 229 
 RREF HE ES       1928 21.23                             110    0.02 7  323 229 
 RREF HZ I        1928 25.84        23.6 0.26            112            323 229 
 DBB  SZ EP       1927 46.62                             109    0.36 7  338 274 
 DBB  SZ ES   4   1928 20.72                             109   -2.35 0  338 274 
 TOL  SZ EP       1927 48.11                             109    0.74 7  345 224 
 TOL  SE ES       1928 24.93                             109   -0.12 7  345 224 
 TOL  SZ I        1928 33.17        47.0 0.42            110            345 224 
 MON  HZ EP   1   1927 47.30                             108   -0.31 5  351 308 
 MON  HE ES       1928 24.54                             108   -0.92 6  351 308 
 MON  HZ I        1928 26.64         9.8 0.52            110            351 308 
 SDV  BZ EP       1927 48.05                             108   -0.77 6  359  51 
 SDV  BE ES       1928 26.81                             108   -0.81 6  359  51 
 ANIL HZ EP       1927 49.29                             108    0.36 6  359 224 
 ANIL HN ES       1928 28.66                             108    0.84 6  359 224 
 ANIL HZ I        1928 35.76         5.5 0.28            109            359 224 
 SDV  BZ I        1928 31.13         4.6 0.65            110            359  51 
 ORTC HZ EP       1927 53.54                             106    0.43 6  398 216 
 ORTC HE ES       1928 34.75                             106   -0.52 6  398 216 
 ORTC HZ I        1928 42.59        11.8 0.38            107            398 216 
 SJC  HZ EP   4   1927 52.44                             105   -1.69 0  406 327 
 SJC  HE ES   4   1928 33.20                             105   -3.87 0  406 327 
 SJC  HZ I        1928 38.01         5.5 0.32            107            406 327 
                                                                                
