 2014  214 1456 53.4 L   6.828 -73.112142.9  RSN 14 0.5 2.5LRSN                1
 GAP=139        1.06       3.7     5.0  6.5 -0.5411E+01  0.9513E+01  0.2239E+00E
 Epicentro: LOS SANTOS - SANTANDER                                             3
 ACTION:UPD 14-03-10 08:10 OP:ep   STATUS:               ID:20140214145653 L   I
 OLDACT:REG 14-02-14 15:05 OP:mh   STATUS:               ID:20140214145000     3
 2014-02-14-1450-00M.COL___291                                                 6
 STAT SP IPHASW D HRMM SECON CODA AMPLIT PERI AZIMU VELO AIN AR TRES W  DIS CAZ7
 BAR2 SZ IP     D 1457 13.02                             169    0.2610 27.2 197 
 BAR2 SZ ES   1   1457 27.81                             169   -0.06 7 27.2 197 
 BAR2 SZ I        1457 29.07       271.4 0.19            172           27.2 197 
 PAM  SZ EP       1457 15.84                             152    0.8310 72.6  39 
 PAM  SZ I        1457 34.29        38.4 0.19            148           72.6  39 
 BRR  HZ EP     C 1457 14.91                             151    0.5810 73.1 295 
 BRR  HN ES   1   1457 31.30                             151    0.62 7 73.1 295 
 BRR  HZ I        1457 32.21        56.8 0.10            150           73.1 295 
 RUS  HZ EP     C 1457 17.01                             142   -0.0610  104 178 
 RUS  HN ES       1457 35.09                             142   -0.4610  104 178 
 PTB  HZ EP   1   1457 19.68                             130   -0.83 7  152 258 
 PTB  HN ES   1   1457 41.60                             130   -0.08 7  152 258 
 PTB  HZ I        1457 44.23        55.2 0.10            130            152 258 
 OCA  HZ EP   1   1457 20.39                             129   -0.84 7  158 352 
 OCA  HN ES       1457 42.24                             129   -0.71 9  158 352 
 OCA  HZ I        1457 46.55        29.6 0.32            126            158 352 
 SPBC HZ EP       1457 22.00                             127   -0.12 9  168 219 
 SPBC HN ES   1   1457 44.49                             127   -0.05 7  168 219 
 SPBC HZ I        1457 48.74        31.8 0.16            127            168 219 
 NOR  HZ EP   1   1457 29.19                             117   -0.28 6  240 234 
 NOR  HN ES       1457 57.29                             117   -0.33 8  240 234 
 NOR  HZ I        1458  2.84        31.2 0.15            117            240 234 
 SML  HZ EP   1   1457 28.98                             117   -0.73 6  242 334 
 SML  HN ES   4   1457 56.21                             117   -1.85 0  242 334 
 SML  HZ I        1458  9.23        16.5 0.13            115            242 334 
 HEL  HZ EP       1457 34.82                             114    0.88 7  276 255 
 HEL  HN ES   1   1458  5.54                             114   -0.03 6  276 255 
 HEL  HZ I        1458 12.06        16.4 0.42            113            276 255 
 GUY2CHZ EP   1   1457 37.95                             111    0.54 5  306 235 
 GUY2CHN ES   1   1458 11.91                             111    0.16 5  306 235 
 GUY2CHZ I        1458 18.55        19.5 0.23                           306 235 
 RREF BZ EP       1457 40.61                             110    0.65 7  327 229 
 RREF BN ES   2   1458 15.70                             110   -0.59 3  327 229 
 RREF BZ I        1458 23.61        13.0 0.20            109            327 229 
 CBOC HZ EP   1   1457 40.31                             109   -0.39 5  338 252 
 CBOC HN ES   1   1458 17.89                             109    0.28 5  338 252 
 PRA  HZ EP       1457 47.03                             106   -0.31 6  397 210 
 PRA  HN ES   1   1458 28.70                             106   -0.72 4  397 210 
 PRA  HZ I        1458 37.84         8.5 0.26            105            397 210 
                                                                                
