 2014 1114 1607 20.1 L   6.819 -73.190139.3  RSN 16 0.4 2.7LRSN                1
 GAP=130        0.89       2.5     3.2  4.5 -0.1967E+01  0.4371E+01  0.2037E+01E
 Epicentro: ZAPATOCA - SANTANDER                                               3
 ACTION:UPD 14-12-19 15:43 OP:nd   STATUS:               ID:20141114160720 L   I
 OLDACT:UP  14-11-14 23:59 OP:cam  STATUS:               ID:20141114160644     3
 OLDACT:UP  14-11-14 23:59 OP:cam  STATUS:               ID:20141114160644     3
 OLDACT:REG 14-11-14 23:50 OP:cam  STATUS:               ID:20141114160644     3
 2014-11-14-1606-44M.COL___298                                                 6
 STAT SP IPHASW D HRMM SECON CODA AMPLIT PERI AZIMU VELO AIN AR TRES W  DIS CAZ7
 BAR2 SZ IP     C 16 7 38.88                             169   -0.0810 25.1 178 
 BAR2 SZ ES       16 7 53.54                             169   -0.1510 25.1 178 
 BAR2 SZ I        16 7 54.78       148.8 0.30            168           25.1 178 
 BRR  HZ IP     C 16 7 40.67                             153    0.4510 65.9 299 
 BRR  HN ES       16 7 56.25                             153    0.3210 65.9 299 
 BRR  HZ I        16 8  0.98       129.3 0.50            152           65.9 299 
 PAM  SZ EP       16 7 41.59                             149   -0.1110 79.1  43 
 PAM  SN ES       16 7 58.77                             149    0.1910 79.1  43 
 PAM  SZ I        16 8  0.72       117.8 0.48            154           79.1  43 
 RUS  HZ EP       16 7 43.07                             142   -0.3110  103 173 
 RUS  HE ES       16 8  1.64                             142    0.0810  103 173 
 RUS  HZ I        16 8  3.45        32.6 0.16            143            103 173 
 PTB  HZ EP       16 7 45.51                             131   -0.60 9  143 258 
 PTB  HN ES       16 8  5.58                             131   -0.84 9  143 258 
 PTB  HZ I        16 8  8.98        66.4 0.42            131            143 258 
 OCA  HZ EP       16 7 48.19                             129    0.56 9  158 355 
 OCA  HN ES       16 8  8.86                             129   -0.27 9  158 355 
 OCA  HZ I        16 8 13.78        73.6 0.20            131            158 355 
 SPBC HZ EP       16 7 47.90                             128   -0.04 9  162 217 
 SPBC HN ES       16 8  9.88                             128    0.19 9  162 217 
 SPBC HZ I        16 8 17.92        76.9 0.22            128            162 217 
 NOR  HZ EP       16 7 54.97                             117   -0.16 8  232 233 
 NOR  HN ES       16 8 22.87                             117    0.39 8  232 233 
 NOR  HZ I        16 8 28.84        35.8 0.20            118            232 233 
 CHI  HZ EP       16 7 57.35                             116   -0.15 8  249 194 
 CHI  HN ES       16 8 26.68                             116   -0.02 8  249 194 
 CHI  HZ I        16 8 30.52        12.8 0.52            117            249 194 
 HEL  HZ EP   4   16 8  1.27                             114    1.79 0  268 255 
 HEL  HN ES       16 8 30.07                             114   -0.16 8  268 255 
 HEL  HZ I        16 8 37.14        38.3 0.36            115            268 255 
 DBB  SZ EP       16 8  6.31                             109   -0.39 7  334 274 
 DBB  SZ ES       16 8 43.60                             109    0.53 7  334 274 
 TOL  SZ EP   4   16 8  8.97                             108    1.13 0  342 224 
 TOL  SN ES       16 8 45.54                             108    0.43 7  342 224 
 TOL  SZ I        16 8 54.76        36.2 0.30            109            342 224 
 PRA  HZ EP       16 8 13.61                             105    0.31 6  391 209 
 PRA  HN ES       16 8 54.51                             105   -0.32 6  391 209 
 PRA  HZ I        16 9  0.88        14.3 0.30            107            391 209 
 ORTC HZ EP       16 8 13.46                             105   -0.17 6  394 215 
 ORTC HN ES       16 8 56.50                             105    1.09 6  394 215 
 ORTC HZ I        16 9  1.20        11.6 0.64            107            394 215 
 SJC  HZ EP   4   16 8 12.91                             105   -1.99 0  405 327 
 SJC  HN ES   4   16 8 53.40                             105   -4.26 0  405 327 
 SJC  HZ I        16 8 58.34        16.1 0.50            106            405 327 
 MAL  SZ E        16 8 38.90                                            554 236 
                                                                                
