 2010  314 1512 20.0 L   7.504 -73.281118.0  RSN  5 0.4 1.7LRSN                1
 GAP=176        0.72       3.7    11.3  9.4 -0.2342E+01 -0.3695E+02  0.1444E+01E
 Epicentro: EL PLAYON - SANTANDER                                              3
 ACTION:UP  10-08-24 09:54 OP:vdl  STATUS:               ID:20100314151220 L   I
 2010-03-14-1510-39S.COL___095                                                 6
 STAT SP IPHASW D HRMM SECON CODA AMPLIT PERI AZIMU VELO SNR AR TRES W  DIS CAZ7
 BRR  HZ EP       1512 37.75                             150     0.010   65 227 
 BRR  HN ES   1   1512 51.68                             150     0.0 7   65 227 
 BRR  HZ I        1512 52.71        14.1 0.54                            65 227 
 OCA  SZ EP       1512 38.78                             144    -0.410   81 357 
 OCA  SZ ES   1   1512 54.50                             144     0.4 7   81 357 
 BAR2 SZ EP       1512 41.10                             137     0.310  101 174 
 BAR2 SZ ES   1   1512 57.03                             137    -0.1 7  101 174 
 RUS  HE ES   3   1513  9.92                             120    -1.3 2  180 173 
 RUS  HZ I        1513 13.52         2.1 0.46                           180 173 
 PRA  HN ES   3   1514  8.51                              99     1.2 1  455 203 
 PRA  HZ I        1514 19.79         2.4 0.24                           455 203 
                                                                                
