 2017  314 1935 51.7 L   6.811 -73.165148.0  RSN 10 0.4 1.9LRSN                1
 GAP=134        0.98       4.2     4.7  6.2 -0.1206E+01  0.5588E+01  0.7404E+01E
 Epicentro: LOS SANTOS - SANTANDER                                             3
 ACTION:UPD 17-05-25 18:40 OP:jn   STATUS:               ID:20170314193551 L   I
 OLDACT:UP  17-03-15 00:44 OP:edw  STATUS:               ID:20170314192744     3
 OLDACT:UP  17-03-15 00:43 OP:edw  STATUS:               ID:20170314192744     3
 OLDACT:REG 17-03-14 21:06 OP:dnl  STATUS:               ID:20170314192744     3
 2017-03-14-1928-00M.COL___366                                                 6
 STAT SP IPHASW D HRMM SECON CODA AMPLIT PERI AZIMU VELO AIN AR TRES W  DIS CAZ7
 BAR2 EZ EP       1936 11.46                             170   -0.2110 24.3 185 
 BAR2 EZ ES       1936 26.69                             170   -0.5110 24.3 185 
 BAR2 EZ I        1936 27.92        20.4 0.48            167           24.3 185 
 BRR  HZ EP       1936 13.17                             154    0.1610 68.8 298 
 BRR  HE ES       1936 30.51                             154    0.9210 68.8 298 
 PAM  EZ EP       1936 14.29                             151    0.0610 77.8  41 
 PAM  EN ES       1936 31.59                             151   -0.1710 77.8  41 
 PAM  EZ I        1936 33.44        14.4 0.58            154           77.8  41 
 RUS  HZ EP       1936 16.02                             144    0.2010  102 175 
 RUS  HN ES       1936 34.79                             144    0.2010  102 175 
 RUS  HZ I        1936 35.28        16.3 0.28            142            102 175 
 PTB  HZ EP       1936 18.09                             133   -0.65 9  146 258 
 PTB  HN ES       1936 39.41                             133   -0.38 9  146 258 
 PTB  HZ I        1936 41.40         9.1 0.14            131            146 258 
 ZAR  HZ EP   4   1936 18.06                             123   -6.03 0  202 292 
 ZAR  HN ES   2   1936 49.14                             123   -0.18 4  202 292 
 NOR  HZ EP       1936 27.53                             119    0.03 8  234 234 
 NOR  HN ES   4   1936 54.30                             119   -1.09 0  234 234 
 NOR  HZ I        1937  2.81         6.3 0.18            118            234 234 
 CHI  HZ EP       1936 29.84                             118    0.20 8  249 195 
 CHI  HN ES       1936 59.26                             118    0.06 8  249 195 
 CHI  HZ I        1937  2.84         3.7 0.74            117            249 195 
 GUY2CHZ EP   4   1936 37.73                             113    2.38 0  300 234 
 GUY2CHN ES   4   1937 11.63                             113    2.27 0  300 234 
 GUY2CHZ  IAML    1937 19.72         4.2 0.62                           300 234 
 PRA  HZ EP   4   1936 43.88                             107   -1.47 0  392 209 
 PRA  HN ES   2   1937 28.26                             107    1.10 3  392 209 
 PRA  HZ I        1937 34.09         4.2 0.42            107            392 209 
                                                                                
