 2010 1214 1427 16.1 L   6.782 -72.973150.3  RSN  7 0.2 1.8LRSN                1
 GAP=252        0.36       3.6     6.8  5.3 -0.8556E+01  0.1555E+02  0.4226E+00E
 Epicentro: CEPITA - SANTANDER                                                 3
 ACTION:UP  11-01-14 15:24 OP:pat  STATUS:               ID:20101214142716 L   I
 2010-12-14-1423-54S.COL___137                                                 6
 STAT SP IPHASW D HRMM SECON CODA AMPLIT PERI AZIMU VELO SNR AR TRES W  DIS CAZ7
 BAR2 SZ EP       1427 36.38                             168    -0.110   31 228 
 BAR2 SZ ES   2   1427 52.41                             168     0.1 5   31 228 
 BAR2 SZ I        1427 53.17        10.0 0.27                            31 228 
 BTL  SZ EP       1427 36.68                             166     0.110   36 295 
 RUS  HZ EP   1   1427 40.33                             145     0.1 7   99 187 
 RUS  HE ES   2   1427 58.90                             145    -0.1 5   99 187 
 RUS  HZ I        1428  2.52         5.3 0.39                            99 187 
 CHI  HZ EP   2   1427 54.31                             118    -0.2 4  252 199 
 CHI  HN ES   2   1428 24.15                             118    -0.2 4  252 199 
 CHI  HZ I        1428 29.75         3.6 0.43                           252 199 
 HEL  HZ EP   2   1427 58.05                             114    -0.5 4  290 257 
 HEL  HZ I        1428 38.27         4.7 0.59                           290 257 
 RREF HZ EP   2   1428  4.38                             111     0.4 3  335 232 
 RREF HE ES   2   1428 41.39                             111     0.1 3  335 232 
 RREF HZ I        1428 45.01         3.4 0.24                           335 232 
 PRA  HZ EP   2   1428 10.69                             107     0.0 3  400 212 
 PRA  HE ES   2   1428 53.72                             107     0.4 3  400 212 
                                                                                
