 2012  314 1650 11.8 L   6.545 -73.557102.6  RSN 10 0.4 2.4LRSN                1
 GAP= 62        0.96       3.7     3.6  7.2 -0.6899E+00  0.8396E+01  0.1039E+02E
 ACTION:UP  12-03-31 23:19 OP:EP   STATUS:               ID:20120314165011 L   I
 2012-03-14-1650-00M.COL___202                                                 6
 STAT SP IPHASW D HRMM SECON CODA AMPLIT PERI AZIMU VELO SNR AR TRES W  DIS CAZ7
 BAR2 SZ EP       1650 27.48                             156     0.510   42  83 
 BAR2 SZ ES   1   1650 39.18                             156     0.3 7   42  83 
 BAR2 SZ I        1650 41.01       434.9 0.41                            42  83 
 BRR  HZ EP   1   1650 28.30                             145     0.3 7   64 345 
 BRR  HE ES       1650 40.89                             145     0.210   64 345 
 BRR  HZ I        1650 49.17        83.1 0.14                            64 345 
 RUS  HZ EP   1   1650 30.49                             136    -0.1 7   89 144 
 RUS  HN ES   1   1650 44.74                             136    -0.5 7   89 144 
 RUS  HZ I        1650 47.58        29.9 0.26                            89 144 
 PTB  HZ EP       1650 30.32                             132    -0.510   99 270 
 PTB  HE ES   1   1650 45.35                             132    -0.4 7   99 270 
 PTB  HZ I        1650 46.61        78.0 0.19                            99 270 
 PAM  SZ EP   1   1650 33.97                             124    -0.4 7  129  47 
 PAM  SN ES   1   1650 51.61                             124    -0.3 7  129  47 
 PAM  SZ I        1650 53.22        21.0 0.17                           129  47 
 ZAR  HZ EP   1   1650 39.13                             115     0.2 7  178 306 
 ZAR  HZ I        1651  4.17        80.0 0.23                           178 306 
 NOR  SZ EP       1650 39.19                             114    -0.2 9  181 233 
 NOR  SN ES   1   1651  0.41                             114    -0.4 7  181 233 
 NOR  SZ I        1651  4.66         4.6 0.16                           181 233 
 CHI  HZ EP   1   1650 43.44                             110     0.1 6  213 185 
 CHI  HN ES   1   1651  8.58                             110     0.6 6  213 185 
 CHI  HZ I        1651 13.93         9.3 0.31                           213 185 
 HEL  HZ EP   1   1650 44.78                             109     0.5 6  222 260 
 HEL  HN ES   1   1651 10.10                             109     0.4 6  222 260 
 HEL  HZ I        1651 14.86        32.8 0.37                           222 260 
 PRA  HZ EP   1   1650 58.75                              99     0.1 5  346 205 
 PRA  HE ES   1   1651 35.30                              99     0.1 5  346 205 
 PRA  HZ I        1651 43.87        48.8 0.25                           346 205 
                                                                                
