 2013  314 1239 59.2 L   6.792 -73.141149.1  RSN  7 0.3 2.2LRSN                1
 GAP=100        0.68       4.6     3.9  6.0 -0.1129E+01 -0.3439E+01  0.6550E+01E
 Epicentro: LOS SANTOS - SANTANDER                                             3
 ACTION:UPD 13-04-09 14:02 OP:ep   STATUS:               ID:20130314123959 L   I
 2013-03-14-1240-00M.COL___243                                                 6
 STAT SP IPHASW D HRMM SECON CODA AMPLIT PERI AZIMU VELO AIN AR TRES W  DIS CAZ7
 BAR2 SZ EP       1240 19.16                             171   -0.0310 22.6 192 
 BAR2 SZ ES   2   1240 34.47                             171   -0.33 5 22.6 192 
 BAR2 SZ I        1240 35.61        33.7 0.42            170           22.6 192 
 BRR  HZ EP     C 1240 21.06                             153    0.3310 72.1 299 
 BRR  HN ES   1   1240 38.14                             153    0.59 7 72.1 299 
 BRR  HN I        1240 39.00        31.1 0.31            151           72.1 299 
 PAM  SZ EP   1   1240 21.51                             151   -0.25 7 77.7  39 
 PAM  SN ES   1   1240 38.98                             151   -0.40 7 77.7  39 
 PAM  SZ I        1240 41.71        30.0 0.56            155           77.7  39 
 RUS  HZ EP   1   1240 23.04                             145   -0.15 7 99.7 176 
 RUS  HN ES   1   1240 42.02                             145    0.10 7 99.7 176 
 RUS  HN I        1240 43.74        32.5 0.48            146           99.7 176 
 PTB  HZ EP   1   1240 25.92                             133   -0.53 7  148 259 
 PTB  HN ES   1   1240 47.42                             133   -0.30 7  148 259 
 PTB  HZ I        1240 54.97        14.3 0.30            132            148 259 
 TAM  HZ EP       1240 27.27                             131    0.23 9  154 105 
 CHI  HZ EP   1   1240 37.12                             118    0.14 6  248 195 
                                                                                
