 2011  114 1505  8.0 L   6.798 -73.132145.7  RSN  5 0.1 1.3LRSN                1
 GAP=225        0.36       3.7     5.6  5.2 -0.5111E+01  0.1127E+02  0.1729E+01E
 Epicentro: LOS SANTOS - SANTANDER                                             3
 ACTION:UP  11-02-08 08:40 OP:pat  STATUS:               ID:20110114150508 L   I
 2011-01-14-1500-00M.COL___136                                                 6
 STAT SP IPHASW D HRMM SECON CODA AMPLIT PERI AZIMU VELO SNR AR TRES W  DIS CAZ7
 BTL  SZ IP       15 5 27.75                             172     0.210   20 312 
 BAR2 SZ EP   1   15 5 27.50                             171    -0.1 7   24 194 
 BAR2 SZ ES   2   15 5 42.80                             171    -0.1 5   24 194 
 BAR2 SZ I        15 5 44.15        12.6 0.26                            24 194 
 RUS  HZ EP   1   15 5 31.58                             144    -0.1 7  100 177 
 RUS  HZ I        15 5 32.27         4.1 0.29                           100 177 
 RUS  HN ES   2   15 5 50.23                             144     0.0 5  100 177 
 NOR  SZ EP   1   15 5 43.80                             118    -0.1 6  236 235 
 NOR  SN ES   2   15 6 11.75                             118    -0.1 4  236 235 
 NOR  SZ I        15 6 15.61         0.5 0.29                           236 235 
 CHI  HZ EP   1   15 5 45.69                             117     0.0 6  249 196 
 CHI  HE ES   2   15 6 15.37                             117     0.2 4  249 196 
                                                                                
