 2016 1014 1023 36.2 L   6.814 -73.154143.0  RSN 22 0.5 2.8LRSN                1
 GAP= 70        1.14       3.0     3.2  5.2 -0.1401E+01  0.4358E+01  0.3642E+01E
 Epicentro: LOS SANTOS - SANTANDER                                             3
 ACTION:UPD 16-11-09 19:19 OP:rebc STATUS:               ID:20161014102336 L   I
 OLDACT:UP  16-10-14 20:47 OP:dnl  STATUS:               ID:20161014101748     3
 OLDACT:REG 16-10-14 20:11 OP:dnl  STATUS:               ID:20161014101748     3
 2016-10-14-1018-00M.COL___359                                                 6
 STAT SP IPHASW D HRMM SECON CODA AMPLIT PERI AZIMU VELO AIN AR TRES W  DIS CAZ7
 BAR2 EZ EP       1023 55.47                             170   -0.0810 24.8 187 
 BAR2 EZ ES       1024 10.07                             170   -0.5510 24.8 187 
 BAR2 EZ I        1024 11.66       205.8 0.26            169           24.8 187 
 BRR  HZ IP     C 1023 57.22                             153    0.2410 69.7 298 
 BRR  HN ES       1024 14.16                             153    0.9910 69.7 298 
 BRR  HZ I        1024 17.61       123.3 0.38            151           69.7 298 
 PAM  EZ EP       1023 58.38                             150    0.2810 76.7  41 
 PAM  EN ES       1024 15.29                             150    0.1310 76.7  41 
 PAM  EZ I        1024 17.64       103.2 0.46            149           76.7  41 
 RUS  HZ EP       1023 59.41                             143   -0.4110  102 176 
 RUS  HN ES       1024 18.20                             143   -0.0310  102 176 
 RUS  HZ I        1024 19.20        88.1 0.32            141            102 176 
 PTB  HZ EP       1024  1.93                             131   -0.98 9  147 258 
 PTB  HN ES       1024 23.10                             131   -0.63 9  147 258 
 PTB  HZ I        1024 25.16        76.2 0.42            130            147 258 
 TAM  HZ EP     D 1024  3.87                             130    0.07 9  156 105 
 TAM  HZ I        1024 24.77        42.2 0.38            128            156 105 
 TAM  HE ES       1024 25.57                             130    0.27 9  156 105 
 OCA  HZ EP       1024  3.76                             129   -0.40 9  159 353 
 OCA  HN ES       1024 25.97                             129    0.03 9  159 353 
 OCA  HZ I        1024 32.47       129.2 0.32            128            159 353 
 SPBC HZ EP       1024  4.19                             128   -0.38 9  164 218 
 SPBC HN ES       1024 27.01                             128    0.32 9  164 218 
 SPBC HZ I        1024 30.87       153.1 0.22            127            164 218 
 ZAR  HZ EP       1024  7.92                             122   -0.42 9  203 292 
 ZAR  HE ES       1024 33.28                             122   -0.11 9  203 292 
 ZAR  HZ I        1024 39.67        70.1 0.24            120            203 292 
 NOR  HZ EP       1024 11.54                             118   -0.27 8  235 234 
 NOR  HN ES       1024 39.28                             118   -0.29 8  235 234 
 NOR  HZ I        1024 44.92        50.7 0.22            116            235 234 
 CHI  HZ EP       1024 13.58                             116   -0.33 8  250 195 
 CHI  HN ES       1024 42.91                             116   -0.39 8  250 195 
 CHI  HZ I        1024 48.10        44.9 0.38            115            250 195 
 ROSC BZ EP       1024 15.35                             116    1.06 8  254 211 
 ROSC BN ES   4   1024 46.33                             116    2.35 0  254 211 
 ROSC BZ I        1024 50.16       120.6 0.40            115            254 211 
 HEL  HZ EP       1024 16.70                             114    0.46 8  272 255 
 HEL  HN ES   4   1024 46.24                             114   -1.22 0  272 255 
 HEL  HZ I        1024 53.54        33.0 0.32            113            272 255 
 SOCV BZ EP   4   1024 18.23                             112   -0.90 0  301  57 
 SOCV BN ES   4   1024 50.69                             112   -1.90 0  301  57 
 GUY2CHZ EP       1024 20.02                             112    0.30 7  301 234 
 GUY2CHN ES   4   1024 56.61                             112    2.95 0  301 234 
 GUY2CHZ I        1025  1.73        34.7 0.34                           301 234 
 PTGC HZ EP   4   1024 18.57                             111   -1.59 0  310 159 
 PTGC HN ES   4   1024 52.35                             111   -2.08 0  310 159 
 PTGC HZ I        1024 54.73        28.0 0.36            110            310 159 
 ELA  HZ EP   4   1024 24.67                             110    1.67 0  329 229 
 ELA  HN ES       1025  0.20                             110    0.72 7  329 229 
 ELA  HZ I        1025  7.28        29.2 0.38            109            329 229 
 CBOC HZ EP       1024 23.22                             109    0.24 7  333 252 
 CBOC HN ES   4   1024 58.14                             109   -1.31 0  333 252 
 CBOC HZ I        1025 10.60        11.0 0.40            108            333 252 
 ANIL HZ EP       1024 26.72                             108    0.74 6  358 224 
 ANIL HN ES       1025  5.77                             108    0.98 6  358 224 
 PRA  HZ EP       1024 29.40                             106   -0.36 6  393 209 
 PRA  HN ES       1025 11.20                             106   -0.32 6  393 209 
 PRA  HZ I        1025 17.91        34.3 0.24            105            393 209 
 SJC  HZ EP   4   1024 29.63                             105   -1.85 0  407 327 
 SJC  HN ES   4   1025 10.06                             105   -4.52 0  407 327 
 SJC  HZ I        1025 14.85        10.2 0.54            104            407 327 
 CRJC HZ EP   4   1024 35.83                             103   -2.63 0  466   4 
 CRJC HN ES   4   1025 22.62                             103   -4.39 0  466   4 
 CRJC HZ I        1025 26.72        12.4 0.64            102            466   4 
 YOT  HZ EP   4   1024 38.04                             103   -1.19 0  472 229 
 YOT  HN ES       1025 29.07                             103    0.69 5  472 229 
                                                                                
