 2014  314 1053 50.1 L   6.791 -73.143143.0  RSN 11 0.4 2.1LRSN                1
 GAP=137        1.05       3.2     4.3  6.2 -0.1653E+01  0.9778E+01 -0.8901E+00E
 Epicentro: LOS SANTOS - SANTANDER                                             3
 ACTION:UPD 14-04-09 23:17 OP:nd   STATUS:               ID:20140314105350 L   I
 OLDACT:REG 14-03-14 16:24 OP:nd   STATUS:               ID:20140314105043     3
 2014-03-14-1050-43M.COL___232                                                 6
 STAT SP IPHASW D HRMM SECON CODA AMPLIT PERI AZIMU VELO AIN AR TRES W  DIS CAZ7
 BAR2 SZ EP       1054  9.43                             171    0.1010 22.4 191 
 BAR2 SZ ES       1054 23.72                             171   -0.6510 22.4 191 
 BAR2 SZ I        1054 25.99        92.4 0.22            167           22.4 191 
 PAM  SZ EP       1054 12.26                             150    0.2410 78.0  39 
 PAM  SN ES       1054 29.21                             150    0.0610 78.0  39 
 PAM  SZ I        1054 30.24        12.6 0.20            155           78.0  39 
 RUS  HZ EP       1054 13.32                             143   -0.1410 99.5 176 
 RUS  HN ES       1054 32.21                             143    0.4910 99.5 176 
 RUS  HZ I        1054 33.71        11.5 0.22            144           99.5 176 
 PTB  HZ EP       1054 16.05                             131   -0.75 9  148 259 
 PTB  HN ES       1054 37.49                             131   -0.18 9  148 259 
 PTB  HZ I        1054 39.61        16.2 0.38            129            148 259 
 SPBC HZ EP       1054 18.33                             128    0.05 9  163 219 
 SPBC HN ES       1054 40.76                             128    0.46 9  163 219 
 SPBC HZ I        1054 46.12        24.3 0.12            128            163 219 
 ZAR  HZ EP   2   1054 22.19                             122   -0.20 4  205 292 
 ZAR  HN ES       1054 47.82                             122    0.21 9  205 292 
 ZAR  HZ I        1054 52.78        16.9 0.30            121            205 292 
 NOR  HZ EP       1054 25.57                             118   -0.01 8  234 235 
 NOR  HN ES       1054 52.93                             118   -0.37 8  234 235 
 NOR  HZ I        1054 59.88        12.4 0.14            118            234 235 
 SML  HZ EP       1054 25.73                             117   -0.91 8  245 335 
 SML  HN ES       1054 55.96                             117    0.78 8  245 335 
 SML  HZ I        1054 57.75        13.9 0.28            118            245 335 
 CHI  HZ EP       1054 27.39                             117   -0.11 8  248 195 
 CHI  HN ES       1054 56.80                             117    0.09 8  248 195 
 CHI  HZ I        1055  5.50         5.3 0.36            117            248 195 
 HEL  HZ EP       1054 30.98                             114    0.85 8  272 256 
 HEL  HN ES   2   1055  1.50                             114    0.11 4  272 256 
 HEL  HZ I        1055  9.90         9.2 0.32            114            272 256 
 URE  HZ EP   4   1054 29.47                             113   -1.59 0  284 292 
 URE  HN ES   4   1055  1.33                             113   -1.72 0  284 292 
 URE  HZ I        1055 13.89         5.5 0.40            113            284 292 
                                                                                
