 2017  714 1253 33.8 L   6.758 -73.119135.3  RSN 14 0.5 2.1LRSN                1
 GAP=211        0.95       3.8     3.7  4.8  0.4349E+01  0.4223E+01  0.3466E+01E
 Epicentro: LOS SANTOS - SANTANDER                                             3
 ACTION:UPD 17-08-30 15:32 OP:rebc STATUS:               ID:20170714125333 L   I
 OLDACT:REG 17-07-14 19:56 OP:lv   STATUS:               ID:20170714124740     3
 2017-07-14-1248-00M.COL___383                                                 6
 STAT SP IPHASW D HRMM SECON CODA AMPLIT PERI AZIMU VELO AIN AR TRES W  DIS CAZ7
 BAR2 EZ EP       1253 51.93                             171   -0.1810 19.6 201 
 BAR2 EZ ES       1254  6.17                             171   -0.2110 19.6 201 
 BAR2 EZ I        1254  9.39        42.3 0.24            167           19.6 201 
 BRR  HZ EP       1253 53.87                             149   -0.2710 76.1 301 
 BRR  HN ES       1254 10.62                             149    0.6310 76.1 301 
 BRR  HZ I        1254 14.27        13.5 0.14            145           76.1 301 
 RUS  HZ EP       1253 55.92                             143   -0.2710 95.8 178 
 RUS  HN ES       1254 14.02                             143    0.3710 95.8 178 
 PTB  HZ EP   9   1253 58.69                             129   -1.45 0  150 261 
 PTB  HN ES       1254 19.30                                    0.07 9  150 261 
 PTB  HZ I        1254 24.30        14.0 0.05            125            150 261 
 SPBC HZ EP       1254  1.03                             127   -0.33 9  162 221 
 SPBC HN ES       1254 22.92                             127    0.06 9  162 221 
 YPLC HZ EP       1254  2.31                             125   -0.00 9  171 151 
 YPLC HN ES       1254 24.35                             125   -0.20 9  171 151 
 ZAR  HZ EP       1254  6.44                             119    0.37 8  209 293 
 ZAR  HN ES       1254 30.50                             119   -0.74 8  209 293 
 ZAR  HZ I        1254 36.51        10.9 0.16            116            209 293 
 TABC EZ EP       1254  9.57                             117    0.88 8  228 212 
 TABC EZ I        1254 43.63        18.2 0.39            114            228 212 
 NOR  HZ EP       1254  8.51                             116   -0.42 8  234 236 
 NOR  HN ES       1254 35.78                             116   -0.54 8  234 236 
 NOR  HZ I        1254 38.80         8.5 0.09            113            234 236 
 HEL  HZ EP       1254 14.26                             112    0.55 8  274 257 
 HEL  HN ES   3   1254 46.30                             112    1.47 2  274 257 
 HEL  HZ I        1254 51.89         6.5 0.57            109            274 257 
 GUY2CHZ EP       1254 17.17                             110    0.24 7  301 236 
 GUY2CHN ES       1254 51.15                             110    0.58 7  301 236 
 GUY2CHZ I        1254 58.80         8.6 0.40                           301 236 
 ORTC HZ EP       1254 27.45                             105    0.29 6  393 217 
 ORTC HN ES       1255  8.38                             105   -0.39 6  393 217 
 ORTC HZ I        1255 16.28         3.5 0.22            102            393 217 
 PAL  HZ EP   2   1254 28.16                             104   -0.50 3  406 240 
 PAL  HN ES   2   1255 10.32                             104   -1.13 3  406 240 
 PAL  HZ I        1255 14.99         2.3 0.17            102            406 240 
 SJC  HZ EP   4   1254 26.64                             104   -3.05 0  415 327 
 SJC  HN ES   4   1255  6.24                             104   -7.05 0  415 327 
 SJC  HZ I        1255 12.75         2.4 0.51            102            415 327 
                                                                                
