 2017  714 1508  2.8 L   6.675 -73.323142.0  RSN  4 0.3 1.2LRSN                1
 GAP=217        0.56       4.8     3.4  6.1  0.2001E+00  0.1621E+01  0.3458E+00E
 Epicentro: GALAN - SANTANDER                                                  3
 ACTION:UPD 17-08-30 15:33 OP:rebc STATUS:               ID:20170714150802 L   I
 OLDACT:UP  17-07-21 19:43 OP:nlst STATUS:               ID:20170714150802 L   3
 OLDACT:REG 17-07-14 20:02 OP:lv   STATUS:               ID:20170714145739     3
 2017-07-14-1458-00M.COL___383                                                 6
 STAT SP IPHASW D HRMM SECON CODA AMPLIT PERI AZIMU VELO AIN AR TRES W  DIS CAZ7
 BAR2 EZ EP       15 8 21.56                             172   -0.2910 18.0 121 
 BAR2 EZ ES       15 8 36.92                             172    0.1910 18.0 121 
 BAR2 EZ I        15 8 38.19         5.1 0.17            171           18.0 121 
 RUS  HZ EP       15 8 25.46                             146    0.0210 90.5 163 
 RUS  HN ES       15 8 43.17                             146    0.0510 90.5 163 
 RUS  HZ I        15 8 44.85         2.1 0.18            146           90.5 163 
 PTB  HZ EP   3   15 8 29.06                             136    1.53 2  126 263 
 PTB  HN ES       15 8 46.84                             136   -0.0010  126 263 
 SPBC HZ EP   4   15 8 30.96                             133    2.10 0  140 216 
 SPBC HN ES       15 8 49.15                             133   -0.05 9  140 216 
                                                                                
