 2013  814 1508 45.1 L   6.798 -73.140144.0  RSN  9 0.5 2.1LRSN                1
 GAP=183        1.12       4.8     6.4  8.1  0.2955E+01  0.1106E+02  0.5010E+01E
 Epicentro: LOS SANTOS - SANTANDER                                             3
 ACTION:UPD 14-01-14 09:02 OP:ep   STATUS:               ID:20130814150845 L   I
 OLDACT:REG 13-08-14 15:58 OP:jn   STATUS:               ID:20130814150750     3
 2013-08-14-1507-50M.COL___233                                                 6
 STAT SP IPHASW D HRMM SECON CODA AMPLIT PERI AZIMU VELO AIN AR TRES W  DIS CAZ7
 BAR2 SZ EP   1   15 9  4.28                             170   -0.22 7 23.2 192 
 BAR2 SZ ES   1   15 9 19.50                             170   -0.14 7 23.2 192 
 BAR2 SZ I        15 9 21.49        13.4 0.16            171           23.2 192 
 BRR  HZ EP       15 9  6.24                             152    0.1610 71.8 298 
 BRR  HN ES       15 9 23.56                             152    1.1110 71.8 298 
 BRR  HZ I        15 9 27.21        32.7 0.40            151           71.8 298 
 RUS  HZ EP       15 9  8.81                             144    0.1710  100 176 
 RUS  HN ES   1   15 9 26.57                             144   -0.45 7  100 176 
 RUS  HZ I        15 9 30.01         6.8 0.28            147            100 176 
 PTB  HZ EP       15 9 11.32                             132   -0.64 9  148 259 
 PTB  HN ES       15 9 32.54                             132   -0.38 9  148 259 
 PTB  HZ I        15 9 34.84        16.0 0.44            133            148 259 
 OCA  HN ES   1   15 9 34.78                             130   -0.50 7  161 353 
 OCA  HZ I        15 9 38.96        29.0 0.20            132            161 353 
 ZAR  HZ EP   1   15 9 17.17                             122   -0.31 6  205 292 
 ZAR  HN ES   1   15 9 42.04                             122   -0.71 6  205 292 
 ZAR  HZ I        15 9 49.27        26.9 0.42            124            205 292 
 NOR  HZ EP       15 9 20.81                             118    0.06 8  235 235 
 NOR  HE ES   1   15 9 48.66                             118    0.09 6  235 235 
 NOR  HZ I        15 9 52.86        12.3 0.16            121            235 235 
 SML  HE ES   1   15 9 50.21                             117    0.03 6  244 335 
 GUY2CHZ EP   1   15 9 29.84                             112    1.19 5  302 235 
 GUY2CHN ES   1   1510  3.03                             112    0.40 5  302 235 
 GUY2CHZ I        1510 11.35         7.0 0.44                           302 235 
                                                                                
