 2016  314 1653 15.6 L   6.682 -73.123144.2  RSN  4 0.2 1.5LRSN                1
 GAP=144        0.47       3.2     3.0  4.4 -0.4203E+01  0.5156E+01 -0.4375E+01E
 Epicentro: VILLANUEVA - SANTANDER                                             3
 ACTION:UPD 16-05-13 21:24 OP:cam  STATUS:               ID:20160314165315 L   I
 OLDACT:REG 16-03-14 20:44 OP:cara STATUS:               ID:20160314164750     3
 2016-03-14-1647-50M.COL___307                                                 6
 STAT SP IPHASW D HRMM SECON CODA AMPLIT PERI AZIMU VELO AIN AR TRES W  DIS CAZ7
 BAR2 EZ EP       1653 35.05                             175    0.1710 11.8 213 
 BAR2 EZ ES       1653 50.16                             175    0.2510 11.8 213 
 BAR2 EZ I        1653 51.68         5.5 0.20            173           11.8 213 
 PAM  EZ EP       1653 38.25                             148    0.0110 86.5  33 
 PAM  EZ I        1653 38.54        10.1 0.24            151           86.5  33 
 PAM  EN ES       1653 55.72                             148   -0.1710 86.5  33 
 RUS  HZ EP   4   1653 39.93                             147    1.63 0 87.4 177 
 RUS  HN ES       1653 55.82                             147   -0.1710 87.4 177 
 RUS  HZ I        1653 59.02         3.5 0.38            147           87.4 177 
 PTB  HZ EP       1653 42.52                             132    0.02 9  148 264 
 PTB  HN ES       1654  3.36                             132   -0.11 9  148 264 
 PTB  HZ I        1654  5.75         4.2 0.14            132            148 264 
                                                                                
