 2016  814 1015 45.6 L   5.847 -74.114 32.1  RSN  5 0.2 1.3LRSN                1
 GAP=196        0.50       2.7     1.5  7.6  0.8683E+00 -0.9295E+00 -0.6830E+01E
 Epicentro: LA BELLEZA - SANTANDER                                             3
 ACTION:UPD 16-10-29 15:35 OP:rebc STATUS:               ID:20160814101545 L   I
 OLDACT:REG 16-08-14 20:02 OP:lv   STATUS:               ID:20160814100759     3
 2016-08-14-1007-59S.COL___346                                                 6
 STAT SP IPHASW D HRMM SECON CODA AMPLIT PERI AZIMU VELO AIN AR TRES W  DIS CAZ7
 RUS  HZ EP       1016  3.61                              61    0.2010  114  87 
 RUS  HE ES       1016 16.99                              61   -0.2810  114  87 
 RUS  HZ I        1016 18.34         7.7 0.32                           114  87 
 BRR  HZ EP       1016  6.87                              61    0.0610  146  18 
 BRR  HE ES       1016 23.46                              61    0.1310  146  18 
 BRR  HZ I        1016 25.66         7.8 0.12                           146  18 
 GUY2CHZ EP   4   1016 11.21                              61    2.76 0  155 244 
 GUY2CHN ES   4   1016 30.06                              61    3.82 0  155 244 
 GUY2CHZ I        1016 31.41         1.7 0.20                           155 244 
 HEL  HZ IP     C 1016  9.33                              61    0.21 9  161 284 
 HEL  HN ES       1016 27.25                              61   -0.18 9  161 284 
 HEL  HZ I        1016 30.44         4.0 0.19                           161 284 
 ZAR  HZ EP       1016 13.52                              61    0.03 9  200 336 
 ZAR  HE ES       1016 35.04                              61   -0.19 9  200 336 
 ZAR  HZ I        1016 35.91         2.0 0.16                           200 336 
 PAM  EZ EP   4   1016 20.46                              61    2.92 0  227  43 
 PAM  EN ES   4   1016 47.04                              61    4.61 0  227  43 
                                                                                
