 2017  214 1301  0.6 L   6.764 -73.161129.6  RSN  5 0.3 1.4LRSN                1
 GAP=136        0.83       4.4     4.6  6.9 -0.5499E+01  0.1075E+02 -0.4881E+01E
 Epicentro: LOS SANTOS - SANTANDER                                             3
 ACTION:UPD 17-05-24 15:36 OP:jn   STATUS:               ID:20170214130100 L   I
 OLDACT:UP  17-02-15 00:10 OP:cara STATUS:               ID:20170214125744     3
 OLDACT:REG 17-02-14 20:11 OP:cara STATUS:               ID:20170214125744     3
 2017-02-14-1258-00M.COL___352                                                 6
 STAT SP IPHASW D HRMM SECON CODA AMPLIT PERI AZIMU VELO AIN AR TRES W  DIS CAZ7
 BAR2 EZ EP       13 1 18.27                             171    0.0910 19.1 187 
 BAR2 EZ ES       13 1 32.35                             171    0.4410 19.1 187 
 BRR  HZ EP       13 1 20.34                             149    0.3010 71.8 302 
 BRR  HN ES   4   13 1 36.91                             149    1.69 0 71.8 302 
 PAM  EZ IP       13 1 21.23                             146   -0.1510 81.6  39 
 PAM  EE ES       13 1 37.35                             146   -0.2610 81.6  39 
 PAM  EZ I        13 1 39.96         6.5 0.44            147           81.6  39 
 RUS  HZ EP       13 1 22.89                             141    0.4110 96.7 175 
 RUS  HE ES       13 1 39.10                             141   -0.4610 96.7 175 
 PTB  HZ EP       13 1 25.80                             128   -0.25 9  145 260 
 PTB  HN ES       13 1 45.76                             128   -0.16 9  145 260 
 PTB  HZ I        13 1 49.06         2.3 0.18            129            145 260 
                                                                                
