 2016  414 1422 37.6 L   6.804 -73.141136.0  RSN 12 0.4 2.3LRSN                1
 GAP=137        0.93       3.6     3.9  6.4 -0.2058E+01  0.1104E+02  0.3936E+01E
 Epicentro: LOS SANTOS - SANTANDER                                             3
 ACTION:UPD 16-05-05 14:21 OP:rebc STATUS:               ID:20160414142237 L   I
 OLDACT:REG 16-04-14 23:21 OP:ar   STATUS:               ID:20160414141745     3
 2016-04-14-1417-45M.COL___316                                                 6
 STAT SP IPHASW D HRMM SECON CODA AMPLIT PERI AZIMU VELO AIN AR TRES W  DIS CAZ7
 BAR2 EZ EP       1422 56.02                             170   -0.0810 23.8 191 
 BAR2 EZ ES       1423 10.27                             170   -0.2410 23.8 191 
 BAR2 EZ I        1423 12.20        51.4 0.18            167           23.8 191 
 PAM  EZ EP       1422 58.90                             149    0.1210 76.7  39 
 PAM  EN ES       1423 15.42                             149    0.1510 76.7  39 
 PAM  EZ I        1423 17.74        73.3 0.46            155           76.7  39 
 RUS  HZ EP       1423  0.09                             142   -0.3810  101 176 
 RUS  HN ES       1423 18.80                             142    0.5310  101 176 
 RUS  HZ I        1423 20.19        14.6 0.26            143            101 176 
 PTB  HZ EP       1423  3.02                             130   -0.86 9  148 259 
 PTB  HE ES       1423 24.25                             130   -0.10 9  148 259 
 PTB  HZ I        1423 28.98        23.8 0.22            129            148 259 
 SPBC HE ES   4   1423 27.76                             127    0.59 0  164 219 
 SPBC HZ I        1423 33.07        22.5 0.12            127            164 219 
 ZAR  HZ EP   2   1423  9.46                             120   -0.04 4  204 292 
 ZAR  HE ES       1423 34.80                             120    0.45 9  204 292 
 ZAR  HZ I        1423 39.58        33.4 0.42            121            204 292 
 NOR  HZ EP   2   1423 12.85                             116   -0.04 4  235 234 
 NOR  HN ES       1423 39.92                             116   -0.46 8  235 234 
 NOR  HZ I        1423 46.36        12.6 0.21            117            235 234 
 CHI  HZ EP   2   1423 14.75                             115   -0.12 4  249 195 
 CHI  HN ES       1423 43.75                             115   -0.16 8  249 195 
 CHI  HZ I        1423 47.62         4.3 0.20            117            249 195 
 URE  HZ EP   4   1423 20.35                             112    2.07 0  284 292 
 URE  HE ES   4   1423 47.75                             112   -2.24 0  284 292 
 URE  HZ I        1423 56.11        13.7 0.20            113            284 292 
 SOCV BZ EP   4   1423 19.02                             110   -1.16 0  301  57 
 SOCV BN ES   4   1423 50.00                             110   -3.36 0  301  57 
 GUY2CHZ EP       1423 21.78                             110    0.90 7  302 235 
 GUY2CHN ES       1423 55.11                             110    0.49 7  302 235 
 GUY2CHZ I        1424  3.51         6.0 0.48                           302 235 
 ORTC HZ EP   2   1423 31.24                             105   -0.07 3  396 216 
 ORTC HN ES       1424 13.59                             105    0.41 6  396 216 
 ORTC HZ I        1424 20.29         4.5 0.18            106            396 216 
 SJC  HZ EP   4   1423 30.59                             104   -2.29 0  409 327 
 SJC  HN ES   4   1424 11.73                             104   -4.25 0  409 327 
 SJC  HZ I        1424 15.38         7.4 0.48            106            409 327 
                                                                                
