 2014 1114 1616  1.9 L   6.127 -74.036  2.8  RSN  7 0.6 2.2LRSN                1
 GAP=107        1.41       3.2     3.4  7.5 -0.4041E+01 -0.2105E-01  0.6466E+00E
 Epicentro: CIMITARRA - SANTANDER                                              3
 ACTION:UPD 14-12-19 15:43 OP:nd   STATUS:               ID:20141114161601 L   I
 OLDACT:UP  14-11-14 23:08 OP:cam  STATUS:               ID:20141114160817d    3
 OLDACT:DUP 14-11-14 23:02 OP:cam  STATUS:               ID:20141114160817d    3
 2014-11-14-1608-16M.COL___295                                                 6
 STAT SP IPHASW D HRMM SECON CODA AMPLIT PERI AZIMU VELO AIN AR TRES W  DIS CAZ7
 PTB  HZ IP     D 1616 13.07                              47    0.5110 65.1 314 
 PTB  HZ I        1616 25.32       255.3 0.10            132           65.1 314 
 BAR2 SZ EP       1616 17.92                              47   -1.3010  108  61 
 BAR2 SZ I        1616 39.15        23.6 0.12            110            108  61 
 RUS  HZ EP   4   1616 17.69                              47   -1.96 0  109 104 
 NOR  HZ EP     D 1616 19.98                              47    0.3810  111 236 
 NOR  HN ES       1616 32.72                              47   -0.6710  111 236 
 NOR  HZ I        1616 34.87        34.9 0.26            112            111 236 
 BRR  HZ EP       1616 19.98                              47    0.0110  114  18 
 BRR  HN ES       1616 34.67                              47    0.6110  114  18 
 BRR  HZ I        1616 37.89        58.5 0.12            110            114  18 
 HEL  HZ EP       1616 28.18                              47    0.07 9  165 273 
 HEL  HN ES       1616 48.30                              47   -0.24 9  165 273 
 HEL  HZ I        1616 50.70        45.5 0.20            104            165 273 
 CHI  HZ EP       1616 28.92                              47    0.21 9  169 168 
 CHI  HN ES       1616 50.22                              47    0.60 9  169 168 
 CHI  HZ I        1616 54.92        11.1 0.48            102            169 168 
 PAM  SZ EP       1616 33.09                              37    0.19 9  200  48 
 PAM  SN ES       1616 56.80                              37   -0.27 9  200  48 
 PAM  SZ I        1616 59.49        45.7 0.20             99            200  48 
                                                                                
