 2015  714 1208 17.2 L   6.791 -73.104154.0  RSN  8 0.5 1.8LRSN                1
 GAP=160        1.10       3.7     5.7  7.5 -0.4003E+01  0.1914E+02  0.3356E+01E
 Epicentro: LOS SANTOS - SANTANDER                                             3
 ACTION:UPD 15-09-08 21:48 OP:cam  STATUS:               ID:20150714120817 L   I
 OLDACT:UP  15-07-15 01:04 OP:ak   STATUS:               ID:20150714115750     3
 OLDACT:REG 15-07-14 20:58 OP:ak   STATUS:               ID:20150714115750     3
 2015-07-14-1157-50M.COL___337                                                 6
 STAT SP IPHASW D HRMM SECON CODA AMPLIT PERI AZIMU VELO AIN AR TRES W  DIS CAZ7
 BAR2 EZ EP       12 8 38.77                             171    0.9710 23.6 201 
 BAR2 EZ ES       12 8 54.14                             171    0.2510 23.6 201 
 BAR2 EZ I        12 8 56.13         5.3 0.21            168           23.6 201 
 PAM  EZ EP       12 8 40.22                             153    0.0510 75.4  36 
 PAM  EN ES       12 8 57.60                             153   -0.4910 75.4  36 
 PAM  EZ I        12 9  0.32        11.8 0.36            158           75.4  36 
 ZAR  HZ EP       12 8 51.31                             123    0.67 8  209 292 
 ZAR  HN ES       12 9 16.91                             123    0.17 8  209 292 
 ZAR  HZ I        12 9 22.03        10.8 0.34            125            209 292 
 NOR  HZ EP       12 8 53.51                             120   -0.22 8  238 235 
 NOR  HE ES       12 9 21.91                             120   -0.33 8  238 235 
 NOR  HZ I        12 9 26.43         3.8 0.32            121            238 235 
 SML  HZ EP       12 8 54.52                             119   -0.07 8  247 334 
 SML  HN ES       12 9 22.90                             119   -0.86 8  247 334 
 CHI  HZ EP       12 8 55.26                             119   -0.11 8  249 196 
 CHI  HN ES       12 9 24.52                             119   -0.64 8  249 196 
 CHI  HZ I        12 9 32.77         2.4 0.26            120            249 196 
 GUY2CHZ EP       12 9  1.81                             114    0.28 7  304 235 
 GUY2CHN ES       12 9 36.36                             114    0.24 7  304 235 
 GUY2CHZ I        12 9 47.02         2.7 0.36                           304 235 
 PRA  HZ EP   1   12 9 10.98                             108   -0.18 4  393 210 
 PRA  HN ES       12 9 52.68                             108   -0.57 6  393 210 
 PRA  HZ I        1210  3.33         3.1 0.38            109            393 210 
                                                                                
