 2010  714 1113 13.0 L   5.709 -73.867125.1  RSN  4 0.4 1.6LRSN                1
 GAP=165        1.01       8.3     8.1 19.4 -0.4181E+02  0.1028E+02  0.3691E+02E
 Epicentro: ALBANIA - SANTANDER                                                3
 ACTION:UPD 10-12-01 15:17 OP:pat  STATUS:               ID:20100714111313 L   I
 2010-07-14-1107-26S.COL___120                                                 6
 STAT SP IPHASW D HRMM SECON CODA AMPLIT PERI AZIMU VELO AIN AR TRES W  DIS CAZ7
 RUS  HZ EP       1113 33.91                             142     0.010   89  77 
 RUS  HZ I        1113 34.14         2.6 0.16                            89  77 
 BAR2 SZ EP       1113 36.69                             132     0.310  123  38 
 BAR2 SZ ES   1   1113 54.17                             132    -0.4 7  123  38 
 BAR2 SZ I        1113 55.75        10.0 0.42                           123  38 
 BRR  HZ EP       1113 39.18                             125     0.1 9  156   6 
 BRR  HZ I        1113 39.44        13.0 0.41                           156   6 
 BRR  HN ES   1   1113 59.39                             125    -0.1 7  156   6 
 RREF HZ EP   1   1113 42.23                             120    -0.9 7  187 242 
 RREF HN ES   1   1114  7.10                             120     0.4 7  187 242 
 RREF HZ I        1114  9.78         3.7 0.44                           187 242 
                                                                                
