 2013 1214 1441 20.9 L   6.848 -73.141145.5  RSN  8 0.4 1.9LRSN                1
 GAP=202        0.98       3.9     5.2  6.3  0.5277E+01  0.4494E+01 -0.2999E+01E
 Epicentro: LOS SANTOS - SANTANDER                                             3
 ACTION:UPD 14-01-13 10:18 OP:ep   STATUS:               ID:20131214144120 L   I
 OLDACT:REG 13-12-14 15:03 OP:cam  STATUS:               ID:20131214144000     3
 2013-12-14-1440-00M.COL___285                                                 6
 STAT SP IPHASW D HRMM SECON CODA AMPLIT PERI AZIMU VELO AIN AR TRES W  DIS CAZ7
 BAR2 SZ EP       1441 40.82                             168    0.1810 28.6 189 
 BAR2 SZ ES       1441 55.68                             168   -0.3510 28.6 189 
 BAR2 SZ I        1441 57.67        17.3 0.20            169           28.6 189 
 BRR  HZ EP       1441 42.45                             153    0.5110 69.3 295 
 BRR  HE ES       1441 58.88                             153    0.5510 69.3 295 
 RUS  HZ EP       1441 45.10                             142    0.0710  106 177 
 RUS  HN ES       1442  3.77                             142   -0.0710  106 177 
 RUS  HZ I        1442  5.17         5.0 0.44            143            106 177 
 PTB  HZ EP       1441 47.43                             132   -0.58 9  149 257 
 PTB  HN ES       1442  8.59                             132   -0.55 9  149 257 
 PTB  HZ I        1442 10.28        10.5 0.20            131            149 257 
 ZAR  HN ES       1442 18.89                             123    0.51 9  203 291 
 NOR  HZ EP       1441 57.22                             118    0.21 8  238 233 
 NOR  HN ES       1442 25.15                             118   -0.01 8  238 233 
 NOR  HZ I        1442 31.65         4.6 0.14            118            238 233 
 SML  HZ EP       1441 57.05                             118    0.01 8  239 335 
 SML  HN ES       1442 24.54                             118   -0.67 8  239 335 
 SML  HZ I        1442 32.55        13.9 0.10            118            239 335 
 CHI  HZ EP   2   1441 59.34                             117    0.17 4  254 195 
                                                                                
