 2011 1014 1022  1.6 L   6.786 -73.162143.3  RSN  6 0.4 1.5LRSN                1
 GAP=135        0.78       4.8     5.4  7.1  0.3578E+01  0.3458E+01  0.3961E+01E
 Epicentro: LOS SANTOS - SANTANDER                                             3
 ACTION:UPD 12-07-13 16:03 OP:ep   STATUS:               ID:20111014102201 L   I
 2011-10-14-1019-02S.COL___168                                                 6
 STAT SP IPHASW D HRMM SECON CODA AMPLIT PERI AZIMU VELO AIN AR TRES W  DIS CAZ7
 BAR2 SZ EP   1   1022 20.92                             171   -0.03 7 21.6 186 
 BAR2 SZ ES   1   1022 35.68                             171   -0.32 7 21.6 186 
 BAR2 SZ I        1022 37.43         7.5 0.13                          21.6 186 
 BRR  HZ EP   1   1022 22.68                             152    0.20 7 70.4 300 
 BRR  HZ I        1022 27.00         7.5 0.12                          70.4 300 
 BRR  HN ES   1   1022 39.57                             152    0.83 7 70.4 300 
 PAM  SZ EP       1022 23.86                             150    0.1210 79.7  40 
 PAM  SE ES   1   1022 40.63                             150   -0.35 7 79.7  40 
 RUS  HZ EP   1   1022 25.09                             144    0.03 7 99.2 175 
 RUS  HN ES   1   1022 43.27                             144   -0.05 7 99.2 175 
 RUS  HZ I        1022 44.67         4.1 0.13                          99.2 175 
 ZAR  HE ES   1   1022 58.14                             122   -0.78 6  203 293 
 CHI  HZ EP   1   1022 39.05                             117    0.05 6  247 195 
 CHI  HZ I        1023 11.96         1.9 0.18                           247 195 
                                                                                
