 2014 1014 1201 53.1 L   6.795 -73.167148.1  RSN  7 0.5 1.5LRSN                1
 GAP=134        1.14       4.7     5.3  8.0  0.2135E+01  0.6470E+01 -0.6601E+01E
 Epicentro: LOS SANTOS - SANTANDER                                             3
 ACTION:UPD 14-11-29 23:49 OP:nd   STATUS:               ID:20141014120153 L   I
 OLDACT:DUP 14-10-14 22:40 OP:fm   STATUS:               ID:20141014115749d    3
 2014-10-14-1157-48M.COL___282                                                 6
 STAT SP IPHASW D HRMM SECON CODA AMPLIT PERI AZIMU VELO AIN AR TRES W  DIS CAZ7
 BAR2 SZ EP       12 2 13.50                             171    0.5510 22.5 184 
 BAR2 SZ ES   1   12 2 28.19                             171   -0.28 7 22.5 184 
 BAR2 SZ I        12 2 29.34        13.2 0.32            172           22.5 184 
 BRR  HZ EP   1   12 2 14.41                             153    0.05 7 69.4 300 
 BRR  HN ES       12 2 31.76                             153    0.7910 69.4 300 
 BRR  HZ I        12 2 34.64         9.5 0.24            153           69.4 300 
 PAM  SZ EP       12 2 16.08                             150    0.4410 79.3  41 
 PAM  SE ES       12 2 32.96                             150   -0.2810 79.3  41 
 PAM  SZ I        12 2 35.36         7.0 0.48            153           79.3  41 
 RUS  HZ EP       12 2 17.15                             144    0.1310  100 175 
 RUS  HE ES       12 2 35.01                             144   -0.6910  100 175 
 RUS  HZ I        12 2 37.44         1.6 0.54            147            100 175 
 PTB  HZ EP       12 2 20.28                             133    0.28 9  145 259 
 PTB  HN ES       12 2 40.73                             133   -0.28 9  145 259 
 PTB  HZ I        12 2 44.56         3.7 0.12            134            145 259 
 ZAR  HE ES   1   12 2 50.52                             123   -0.20 6  202 293 
 SML  HZ EP       12 2 29.18                             118   -0.58 8  243 336 
 SML  HZ E        12 2 29.18                                            243 336 
 SML  HN ES       12 2 57.83                             118   -0.56 8  243 336 
 SML  HZ I        12 3  1.01         3.4 0.24            120            243 336 
                                                                                
