 2011 1214 1500 12.4 L   6.708 -73.189144.0  RSN  4 0.2 1.5LRSN                1
 GAP=225        0.51       5.5     4.9  5.8  0.9697E+01 -0.9428E+00  0.4799E+01E
 Epicentro: VILLANUEVA - SANTANDER                                             3
 ACTION:UPD 12-07-13 16:16 OP:ep   STATUS:               ID:20111214150012 L   I
 2011-12-14-1500-00M.COL___185                                                 6
 STAT SP IPHASW D HRMM SECON CODA AMPLIT PERI AZIMU VELO AIN AR TRES W  DIS CAZ7
 BAR2 SZ EP       15 0 31.45                             175   -0.2010 12.8 176 
 BAR2 SZ I        15 0 32.05         7.2 0.37                          12.8 176 
 BAR2 SZ ES   2   15 0 46.26                             175   -0.41 5 12.8 176 
 BRR  HZ EP       15 0 33.43                             152   -0.0210 72.7 307 
 BRR  HN ES       15 0 50.05                             152    0.1910 72.7 307 
 BRR  HN I        15 0 51.47        20.1 0.25                          72.7 307 
 RUS  HZ EP   2   15 0 35.64                             146    0.34 5 90.9 173 
 RUS  HZ I        15 0 36.21         2.1 0.09                          90.9 173 
 RUS  HE ES   2   15 0 53.54                             146    0.38 5 90.9 173 
 PTB  HZ EP   1   15 0 38.82                             133    0.17 7  141 263 
 PTB  HE ES   1   15 0 58.86                             133   -0.26 7  141 263 
                                                                                
