 2012  614 1614 46.4 L   6.564 -73.566110.5  RSN  9 0.3 2.4LRSN                1
 GAP= 63        0.72       2.6     2.5  5.4 -0.1031E+01  0.4982E+01 -0.9289E+00E
 Epicentro: EL CARMEN DE CHUCURI - SANTANDER                                   3
 ACTION:UPD 12-08-06 17:49 OP:ep   STATUS:               ID:20120614161446 L   I
 2012-06-14-1610-00M.COL___200                                                 6
 STAT SP IPHASW D HRMM SECON CODA AMPLIT PERI AZIMU VELO AIN AR TRES W  DIS CAZ7
 BAR2 SZ EP       1615  2.90                             157    0.4210 42.6  86 
 BAR2 SZ ES       1615 15.23                             157    0.1810 42.6  86 
 BAR2 SZ I        1615 17.20       222.6 0.16                          42.6  86 
 RUS  HZ EP       1615  5.95                             138   -0.1210 91.5 144 
 RUS  HE ES   1   1615 20.98                             138   -0.47 7 91.5 144 
 RUS  HZ I        1615 23.17        27.7 0.28                          91.5 144 
 PTB  HZ EP       1615  5.78                             135   -0.2310 98.5 268 
 PTB  HN ES   1   1615 20.97                             135   -0.36 7 98.5 268 
 PTB  HZ I        1615 23.08        29.6 0.19                          98.5 268 
 PAM  SZ EP       1615  9.37                             127   -0.0410  129  48 
 PAM  SE ES   1   1615 27.23                             127   -0.16 7  129  48 
 ZAR  HZ EP   1   1615 14.01                             117    0.34 7  176 306 
 ZAR  HN ES   1   1615 35.65                             117    0.68 7  176 306 
 ZAR  HZ I        1615 39.64        51.2 0.37                           176 306 
 NOR  SZ EP   1   1615 14.56                             117    0.18 7  182 233 
 NOR  SN ES   1   1615 36.34                             117    0.10 7  182 233 
 OCA  HZ EP   1   1615 14.78                             116   -0.32 7  187   8 
 OCA  HN ES   1   1615 37.41                             116   -0.11 7  187   8 
 OCA  HZ I        1615 43.73        48.0 0.28                           187   8 
 CHI  HZ EP   1   1615 18.94                             112    0.44 6  215 185 
 CHI  HE ES   1   1615 43.95                             112    0.38 6  215 185 
 HEL  HZ EP   1   1615 18.37                             112   -0.78 6  221 259 
 HEL  HN ES   1   1615 44.52                             112   -0.21 6  221 259 
 HEL  HZ I        1615 53.47        16.0 0.28                           221 259 
                                                                                
