 2012 1214 1126  7.5 L   6.797 -73.456114.0  RSN  5 0.4 1.7LRSN                1
 GAP=166        1.07       7.1     6.0  8.0  0.2850E+02  0.1660E+02  0.1086E+02E
 Epicentro: SAN VICENTE DE CHUCURI - SANTANDER                                 3
 ACTION:UPD 13-01-04 14:27 OP:ep   STATUS:               ID:20121214112607 L   I
 2012-12-14-1120-00M.COL___242                                                 6
 STAT SP IPHASW D HRMM SECON CODA AMPLIT PERI AZIMU VELO AIN AR TRES W  DIS CAZ7
 BAR2 SZ EP       1126 23.74                             160   -0.0210 37.8 127 
 BAR2 SZ ES       1126 35.73                             160   -0.7510 37.8 127 
 BAR2 SZ I        1126 38.07        21.8 0.34                          37.8 127 
 BRR  HN ES       1126 36.85                             157    0.4710 44.5 320 
 BRR  HN I        1126 37.09        24.0 0.18                          44.5 320 
 RUS  HZ EP       1126 29.10                             134    0.2010  108 158 
 RUS  HN ES       1126 46.19                             134    0.5710  108 158 
 RUS  HN I        1126 48.89         4.5 0.40                           108 158 
 PTB  HZ EP       1126 28.42                             131   -0.3810  114 256 
 PTB  HN ES       1126 45.24                             131   -0.2010  114 256 
 PTB  HZ I        1126 49.21         6.9 0.16                           114 256 
 ZAR  HZ EP       1126 34.46                             119   -0.20 9  173 296 
 ZAR  HN ES       1126 56.22                             119    0.34 9  173 296 
 ZAR  HN I        1127  0.22        10.1 0.26                           173 296 
                                                                                
