 2013  714 1254 48.1 L   6.850 -73.141146.8  RSN 14 0.5 2.6LRSN                1
 GAP=119        1.17       3.4     4.9  5.9 -0.3492E+01 -0.8384E-01 -0.6546E+00E
 Epicentro: LOS SANTOS - SANTANDER                                             3
 ACTION:UPD 13-08-12 10:37 OP:ep   STATUS:               ID:20130714125448 L   I
 OLDACT:UP  13-07-25 11:36 OP:ep   STATUS:               ID:20130714125448 L   3
 OLDACT:REG 13-07-14 16:00 OP:stll STATUS:               ID:20130714124848     3
 2013-07-14-1248-48M.COL___229                                                 6
 STAT SP IPHASW D HRMM SECON CODA AMPLIT PERI AZIMU VELO AIN AR TRES W  DIS CAZ7
 GIR2 SZ EP       1255  7.84                             169    0.0610 26.0 347 
 BAR2 SZ EP       1255  7.81                             169   -0.1810 28.8 189 
 BAR2 SZ ES       1255 22.67                             169   -0.8210 28.8 189 
 BRR  HE ES       1255 26.74                             153    0.9810 69.2 294 
 PAM  SZ EP       1255 10.54                             152    0.3610 72.9  42 
 PAM  SZ I        1255 10.95       101.5 0.18            154           72.9  42 
 PAM  SN ES       1255 27.53                             152    0.1410 72.9  42 
 RUS  HZ EP       1255 12.63                             143    0.2610  106 177 
 RUS  HE ES       1255 30.90                             143   -0.3810  106 177 
 RUS  HE I        1255 32.38        32.9 0.22            143            106 177 
 GRA  SZ IP       1255 13.71                             138    0.7010  120  18 
 GRA  SZ ES       1255 32.51                             138    0.0810  120  18 
 CAPV BZ EP       1255 15.63                             133    0.45 9  145  39 
 PTB  HZ EP       1255 14.69                             132   -0.63 9  149 257 
 PTB  HE ES       1255 36.46                             132   -0.08 9  149 257 
 PTB  HE I        1255 39.57        39.4 0.24            129            149 257 
 OCA  HZ EP       1255 15.89                             131   -0.12 9  155 353 
 OCA  HN ES       1255 37.48                             131   -0.28 9  155 353 
 OCA  HN I        1255 40.52       118.2 0.18            129            155 353 
 SPBC HZ EP       1255 17.09                             128   -0.04 9  168 218 
 SML  HZ EP       1255 24.18                             118   -0.11 8  239 335 
 SML  HE ES       1255 52.02                             118   -0.48 8  239 335 
 SML  HE I        1255 59.42        61.3 0.10            117            239 335 
 CHI  HZ EP       1255 26.56                             117    0.10 8  254 195 
 SOCV BZ EP       1255 30.17                             112   -0.66 7  298  58 
 RREF HN ES   3   1256 14.48                             111    3.34 2  326 229 
 RREF HZ I        1256 18.61        10.3 0.28            110            326 229 
                                                                                
