 2012  514 1617 18.4 L   6.620 -73.354131.3  RSN  5 0.2 1.4LRSN                1
 GAP=136        0.66       6.8     8.0  7.3  0.3906E+02  0.2966E+02  0.1878E+02E
 Epicentro: GALAN - SANTANDER                                                  3
 ACTION:UP  12-07-05 12:05 OP:pat  STATUS:               ID:20120514161718 L   I
 2012-05-14-1610-00M.COL___195                                                 6
 STAT SP IPHASW D HRMM SECON CODA AMPLIT PERI AZIMU VELO SNR AR TRES W  DIS CAZ7
 BAR2 SZ EP       1617 36.07                             171    -0.110   19  99 
 BAR2 SZ ES   1   1617 49.65                             171    -0.4 7   19  99 
 BRR  HZ EP       1617 37.94                             151     0.210   67 324 
 BRR  HZ I        1617 38.12        16.1 0.38                            67 324 
 BRR  HE ES   1   1617 53.06                             151     0.2 7   67 324 
 RUS  HZ EP       1617 39.79                             145     0.110   86 160 
 RUS  HN ES   1   1617 56.50                             145     0.2 7   86 160 
 RUS  HZ I        1617 57.22         2.2 0.62                            86 160 
 PTB  HZ EP       1617 41.61                             134    -0.310  122 266 
 PTB  HZ I        1618  6.16         3.2 0.22                           122 266 
 ZAR  HN ES   2   1618 12.38                             121     0.1 4  192 300 
                                                                                
