 2010 1114 1229  8.2 L   6.798 -73.048140.5  RSN  5 0.1 1.8LRSN                1
 GAP=193        0.38       4.7    10.2  6.9  0.1187E+02  0.2264E+02 -0.1119E+02E
 Epicentro: LOS SANTOS - SANTANDER                                             3
 ACTION:UP  10-12-17 16:52 OP:REBC STATUS:               ID:20101114122908 L   I
 2010-11-14-1227-36S.COL___128                                                 6
 STAT SP IPHASW D HRMM SECON CODA AMPLIT PERI AZIMU VELO SNR AR TRES W  DIS CAZ7
 BAR2 SZ EP   1   1229 27.50                             169     0.2 7   27 213 
 BAR2 SZ ES   2   1229 42.22                             169     0.1 5   27 213 
 BAR2 SZ I        1229 43.64        13.5 0.34                            27 213 
 BRR  HZ EP       1229 29.30                             148    -0.110   81 295 
 BRR  HZ I        1229 39.55        15.3 0.08                            81 295 
 RUS  HZ EP   2   1229 31.33                             143    -0.1 5  100 182 
 RUS  HE ES   2   1229 49.31                             143    -0.2 5  100 182 
 RUS  HZ I        1229 51.68         4.7 0.24                           100 182 
 OCA  SZ EP   2   1229 36.16                             128    -0.1 5  162 349 
 OCA  SZ I        1230  0.83        10.0 0.19                           162 349 
 NOR  SZ EP   2   1229 44.71                             116     0.1 4  244 236 
                                                                                
