 2012 1014 1723 37.2 L   6.773 -73.092144.7  RSN  5 0.2 1.9LRSN                1
 GAP=145        0.44       2.5     4.3  4.0 -0.2612E+01 -0.1329E+01  0.2716E+01E
 Epicentro: LOS SANTOS - SANTANDER                                             3
 ACTION:UPD 12-11-22 17:03 OP:ep   STATUS:               ID:20121014172337 L   I
 2012-10-14-1720-00M.COL___230                                                 6
 STAT SP IPHASW D HRMM SECON CODA AMPLIT PERI AZIMU VELO AIN AR TRES W  DIS CAZ7
 BAR2 SZ EP       1723 56.61                             171   -0.1010 22.4 207 
 BAR2 SZ ES   1   1724 11.75                             171   -0.16 7 22.4 207 
 BAR2 SZ I        1724 13.18        31.3 0.21                          22.4 207 
 PAM  SZ EP       1723 59.53                             151    0.2710 76.2  35 
 PAM  SN ES   1   1724 16.34                             151   -0.10 7 76.2  35 
 PAM  SN I        1724 18.11         9.3 0.48                          76.2  35 
 BRR  HZ EP   1   1723 58.36                             150   -0.30 7 77.9 298 
 BRR  HN ES   1   1724 15.56                             150    0.19 7 77.9 298 
 BRR  HN I        1724 16.58        28.9 0.20                          77.9 298 
 RUS  HZ EP       1724  0.55                             144   -0.1010 97.4 179 
 RUS  HN ES   1   1724 19.02                             144    0.11 7 97.4 179 
 RUS  HN I        1724 21.28        10.1 0.31                          97.4 179 
 CHI  HZ EP   1   1724 14.79                             117    0.05 6  247 197 
 CHI  HN ES   1   1724 44.14                             117    0.15 6  247 197 
 CHI  HN I        1724 46.73         5.1 0.08                           247 197 
                                                                                
