 2013  314 1022  1.5 L   6.837 -73.161144.6  RSN  9 0.5 1.9LRSN                1
 GAP=133        1.01       4.6     5.3  7.2  0.8932E+00  0.8617E+01 -0.2574E+01E
 Epicentro: LOS SANTOS - SANTANDER                                             3
 ACTION:UPD 13-04-09 14:02 OP:ep   STATUS:               ID:20130314102201 L   I
 2013-03-14-1020-00M.COL___243                                                 6
 STAT SP IPHASW D HRMM SECON CODA AMPLIT PERI AZIMU VELO AIN AR TRES W  DIS CAZ7
 BAR2 SZ EP   1   1022 21.15                             169    0.11 7 27.2 185 
 BAR2 SZ ES   1   1022 36.10                             169   -0.21 7 27.2 185 
 BAR2 SZ I        1022 37.74        13.6 0.23            159           27.2 185 
 BRR  HZ EP       1022 22.80                             153    0.5010 67.8 296 
 BRR  HE ES       1022 39.19                             153    0.6410 67.8 296 
 BRR  HE I        1022 40.88        31.8 0.26            144           67.8 296 
 PAM  SZ EP       1022 23.87                             151    0.4310 75.4  43 
 PAM  SE ES   1   1022 40.58                             151    0.00 7 75.4  43 
 PAM  SE I        1022 42.98        18.7 0.31            148           75.4  43 
 RUS  HZ EP   1   1022 25.47                             143    0.06 7  105 175 
 RUS  HN ES   1   1022 43.29                             143   -0.81 7  105 175 
 RUS  HN I        1022 46.12         7.5 0.48            130            105 175 
 PTB  HZ IP     C 1022 27.89                             132   -0.38 9  147 257 
 PTB  HN ES   1   1022 48.68                             132   -0.49 7  147 257 
 PTB  HZ I        1022 51.16         9.0 0.15            120            147 257 
 OCA  HN ES   1   1022 50.14                             130   -0.84 7  156 354 
 ZAR  HZ EP   1   1022 33.46                             123   -0.06 6  201 291 
 ZAR  HN ES   1   1022 58.83                             123    0.31 6  201 291 
 ZAR  HZ I        1023  4.39         8.0 0.18            112            201 291 
 SML  HZ EP   1   1022 37.04                             118   -0.50 6  239 335 
 SML  HN ES   1   1023  5.06                             118   -0.62 6  239 335 
 HEL  HZ EP   1   1022 42.07                             115    0.52 6  272 255 
 HEL  HZ I        1023 20.04         2.7 0.35            105            272 255 
                                                                                
