 2011 1114 1042 43.5 L   6.764 -73.131148.8  RSN  5 0.3 1.6LRSN                1
 GAP=140        0.66       5.0     5.4  6.5  0.1113E+02  0.1071E+02  0.4297E+01E
 Epicentro: LOS SANTOS - SANTANDER                                             3
 ACTION:UPD 12-07-13 16:10 OP:ep   STATUS:               ID:20111114104243 L   I
 2011-11-14-1040-32S.COL___179                                                 6
 STAT SP IPHASW D HRMM SECON CODA AMPLIT PERI AZIMU VELO AIN AR TRES W  DIS CAZ7
 BAR2 SZ EP   1   1043  3.34                             172   -0.12 7 19.8 197 
 BAR2 SZ ES   1   1043 18.60                             172   -0.40 7 19.8 197 
 BAR2 SZ I        1043 20.42         9.6 0.34                          19.8 197 
 BRR  HZ EP   1   1043  5.51                             152    0.32 7 74.6 301 
 BRR  HN ES       1043 22.50                             152    0.4010 74.6 301 
 BRR  HZ I        1043 24.67         8.5 0.14                          74.6 301 
 PAM  SN ES   1   1043 23.69                             151   -0.18 7 79.5  37 
 RUS  HZ EP   1   1043  7.54                             146    0.25 7 96.5 177 
 RUS  HN ES   1   1043 25.82                             146   -0.01 7 96.5 177 
 RUS  HZ I        1043 27.20         4.8 0.25                          96.5 177 
 ZAR  HZ EP   1   1043 16.17                             123   -0.31 6  207 293 
 ZAR  HN ES   1   1043 41.70                             123   -0.49 6  207 293 
 ZAR  HZ I        1043 48.03         5.1 0.20                           207 293 
                                                                                
