 2017  814 1447 42.6 L   6.794 -73.142143.4  RSN 22 0.5 2.6LRSN                1
 GAP=100        1.07       3.2     2.7  4.9  0.8794E+00  0.3873E+01  0.3619E+01E
 Epicentro: LOS SANTOS - SANTANDER                                             3
 ACTION:UPD 17-09-04 20:20 OP:rebc STATUS:               ID:20170814144743dL   I
 OLDACT:DUP 17-08-15 00:13 OP:lv   STATUS:               ID:20170814143746d    3
 2017-08-14-1438-00M.COL___409                                                 6
 STAT SP IPHASW D HRMM SECON CODA AMPLIT PERI AZIMU VELO AIN AR TRES W  DIS CAZ7
 BAR2 EZ IP     C 1448  1.58                             171   -0.3110 22.8 191 
 BAR2 EZ ES       1448 16.39                             171   -0.5910 22.8 191 
 BAR2 EZ I        1448 18.26        69.8 0.20            166           22.8 191 
 BRR  HZ IP     C 1448  3.35                             152   -0.1410 71.9 299 
 BRR  HN ES       1448 20.38                             152    0.5610 71.9 299 
 PAM  EZ EP       1448  4.49                             150   -0.0410 77.6  39 
 PAM  EN ES       1448 21.94                             150    0.2610 77.6  39 
 RUS  HZ EP       1448  5.98                             143   -0.0510 99.9 176 
 RUS  HN ES       1448 24.45                             143    0.1110 99.9 176 
 TAM  HZ EP       1448 10.00                             130    0.01 9  154 105 
 TAM  HN ES       1448 31.79                             130    0.40 9  154 105 
 TAM  HZ I        1448 32.25        33.2 0.24            133            154 105 
 SPBC HZ EP       1448 10.85                             129   -0.00 9  163 219 
 SPBC HN ES       1448 32.81                             129   -0.12 9  163 219 
 SPBC HZ I        1448 37.87        68.8 0.22            127            163 219 
 YPLC HZ EP       1448 12.13                             126    0.03 9  176 151 
 YPLC HN ES       1448 35.73                             126    0.58 9  176 151 
 YPLC HZ I        1448 38.64        32.8 0.34            126            176 151 
 ZAR  HZ EP       1448 14.43                             122   -0.49 9  205 292 
 ZAR  HN ES       1448 39.72                             122   -0.44 9  205 292 
 ZAR  HZ I        1448 46.84        69.9 0.18            121            205 292 
 TABC EZ EP   9   1448 20.00                             119    1.87 0  230 211 
 TABC EZ ES       1448 47.92                                    0.17 8  230 211 
 TABC EZ I        1448 51.33        63.7 0.50            118            230 211 
 NOR  HZ EP       1448 17.83                             118   -0.32 8  235 235 
 NOR  HN ES   4   1448 44.88                             118   -1.03 0  235 235 
 NOR  HZ I        1448 48.16        50.8 0.19            117            235 235 
 CHI  HZ EP       1448 20.33                             117    0.26 8  248 195 
 CHI  HN ES       1448 49.13                             117   -0.20 8  248 195 
 CHI  HZ I        1448 57.03        17.0 0.36            116            248 195 
 ROSC BN ES   4   1448 52.84                             116    2.72 0  252 211 
 ROSC BZ I        1448 56.93        42.6 0.35            115            252 211 
 HEL  HZ EP       1448 22.89                             114    0.21 8  272 256 
 HEL  HN ES       1448 53.58                             114   -0.40 8  272 256 
 HEL  HZ I        1448 59.83        29.4 0.38            113            272 256 
 URE  HZ EP   9   1448 21.52                             113   -2.06 0  284 292 
 URE  HN ES       1448 53.35                                   -0.17 7  284 292 
 URE  HZ I        1449  4.44        45.9 0.20            113            284 292 
 GUY2CHZ EP       1448 27.03                             112    0.98 7  301 235 
 GUY2CHN ES       1449  0.59                             112    0.61 7  301 235 
 GUY2CHZ I        1449  6.06        16.5 0.48                           301 235 
 PTGC HZ EP   4   1448 25.14                             111   -1.08 0  308 159 
 PTGC HN ES       1448 58.46                             111   -1.82 7  308 159 
 PTGC HN E    4   1448 58.46                                            308 159 
 PTGC HZ I        1449  4.42        17.8 0.38            111            308 159 
 LL6C HZ EP   4   1448 26.13                             110   -2.10 0  326 358 
 LL6C HN ES   4   1449  4.78                             110    0.92 0  326 358 
 ELA  HZ EP   4   1448 31.15                             110    1.85 0  329 230 
 ELA  HN ES       1449  5.87                             110    0.11 7  329 230 
 ELA  HZ I        1449 14.45        15.3 0.32            109            329 230 
 CBOC HZ EP       1448 29.48                             109    0.08 7  334 252 
 CBOC HN ES       1449  6.61                             109    0.67 7  334 252 
 CBOC HZ I        1449 21.15         6.9 0.36            109            334 252 
 DBB  EZ EP       1448 29.39                             109   -0.60 7  340 274 
 DBB  EN ES   4   1449  5.19                             109   -1.81 0  340 274 
 DBB  EZ I        1449  9.33         9.8 0.20            109            340 274 
 PRA  HZ EP       1448 36.32                             106    0.37 6  392 210 
 PRA  HN ES   4   1449 16.71                             106   -0.90 0  392 210 
 PRA  HZ I        1449 21.06        14.2 0.22            106            392 210 
 ORTC HZ EP       1448 37.13                             106    0.77 6  395 216 
 ORTC HN ES   4   1449 19.52                             106    1.18 0  395 216 
 SJC  HZ EP   4   1448 35.84                             105   -2.29 0  410 327 
 SJC  HN ES   4   1449 16.93                             105   -4.55 0  410 327 
 SJC  HZ I        1449 25.45         7.8 0.26            106            410 327 
                                                                                
