 2012  414 1338 12.2 L   6.792 -73.143149.4  RSN  5 0.2 1.5LRSN                1
 GAP=137        0.60       4.3     4.1  6.6 -0.2681E+01  0.7913E+00  0.1920E+01E
 Epicentro: LOS SANTOS - SANTANDER                                             3
 ACTION:UPD 12-07-05 11:53 OP:tino STATUS:               ID:20120414133812 L   I
 2012-04-14-1330-00M.COL___180                                                 6
 STAT SP IPHASW D HRMM SECON CODA AMPLIT PERI AZIMU VELO AIN AR TRES W  DIS CAZ7
 BAR2 SZ EP   1   1338 32.05                             171    -0.2 7   23 191 
 BAR2 SZ I        1338 48.65         8.8 0.20                            23 191 
 BRR  HZ EP       1338 33.88                             153     0.110   72 299 
 BRR  HZ I        1338 50.69         8.6 0.54                            72 299 
 BRR  HE ES   1   1338 50.94                             153     0.4 7   72 299 
 PAM  SZ EP       1338 34.99                             151     0.210   78  39 
 PAM  SN ES   1   1338 52.05                             151    -0.4 7   78  39 
 RUS  HZ EP   1   1338 36.25                             145     0.0 7  100 176 
 RUS  HN ES   1   1338 55.10                             145     0.1 7  100 176 
 RUS  HZ I        1338 55.98         3.2 0.42                           100 176 
 PTB  HZ EP   1   1338 39.26                             133    -0.2 7  148 259 
 PTB  HN ES   1   1339  0.42                             133    -0.3 7  148 259 
                                                                                
