 2012 1114 1144 34.6 L   7.388 -73.221133.4  RSN  4 0.1 1.9LRSN                1
 GAP=215        0.38       4.5     3.8  4.0  0.1964E+01 -0.5054E+01 -0.7987E+01E
 Epicentro: EL PLAYON - SANTANDER                                              3
 ACTION:UPD 12-12-05 15:33 OP:}ep  STATUS:               ID:20121114114434 L   I
 2012-11-14-1140-00M.COL___230                                                 6
 STAT SP IPHASW D HRMM SECON CODA AMPLIT PERI AZIMU VELO AIN AR TRES W  DIS CAZ7
 GIR2 SZ EP       1144 52.76                             165   -0.1110 34.3 175 
 GIR2 SZ ES       1145  7.29                             165    0.1510 34.3 175 
 PAM  SZ EP       1144 54.29                             155   -0.0710 57.8  95 
 BRR  HZ EP       1144 53.95                             153    0.0610 62.5 240 
 BRR  HN ES       1145  8.89                             153   -0.0710 62.5 240 
 BRR  HN I        1145 10.13        19.0 0.18                          62.5 240 
 BAR2 SZ EP       1144 55.99                             145    0.1410 88.1 177 
 BAR2 SZ ES       1145 12.34                             145   -0.1010 88.1 177 
 BAR2 SZ I        1145 13.23        13.9 0.38                          88.1 177 
                                                                                
