 2010 1014 1024  4.0 L   6.789 -73.178147.2  RSN 13 0.4 2.1LRSN                1
 GAP=133        0.92       3.9     5.5  6.5 -0.4924E+01  0.2139E+01  0.4904E+01E
 Epicentro: LOS SANTOS - SANTANDER                                             3
 ACTION:UP  11-02-18 11:09 OP:tino STATUS:               ID:20101014102404 L   I
 2010-10-14-1021-23S.COL___128                                                 6
 STAT SP IPHASW D HRMM SECON CODA AMPLIT PERI AZIMU VELO SNR AR TRES W  DIS CAZ7
 BAR2 SZ EP       1024 23.44                             171    -0.310   22 182 
 BAR2 SZ ES   1   1024 38.64                             171    -0.5 7   22 182 
 BAR2 SZ I        1024 41.26        27.8 0.28                            22 182 
 GIR2 SZ EP   2   1024 23.50                             167    -0.3 5   32 357 
 URB  SZ EP   3   1024 25.09                             159     0.6 2   52 341 
 BRR  HZ IP     C 1024 25.31                             153     0.210   69 301 
 BRR  HZ I        1024 25.49        32.0 0.14                            69 301 
 BRR  HE ES   1   1024 42.25                             153     0.6 7   69 301 
 GUE  SZ EP       1024 28.39                             139    -0.610  118  14 
 GRA  SZ EP       1024 30.29                             137     0.810  128  19 
 GRA  SZ ES   2   1024 49.94                             137     0.5 5  128  19 
 GRA  SZ I        1024 57.16        10.0 0.29                           128  19 
 OCA  SZ EP       1024 31.97                             130    -0.5 9  161 354 
 OCA  SZ I        1024 58.43        14.3 0.28                           161 354 
 YOP  SZ EP       1024 34.21                             126     0.0 9  180 152 
 YOP  SN ES   2   1024 58.02                             126     0.3 4  180 152 
 NOR  SZ EP       1024 39.54                             119     0.1 8  231 234 
 NOR  SE ES   1   1025  6.69                             119    -0.4 6  231 234 
 CHI  HZ EP       1024 41.82                             118     0.3 8  247 194 
 CHI  HE ES   3   1025 10.85                             118     0.0 2  247 194 
 CHI  HZ I        1025 17.27         6.4 0.32                           247 194 
 HEL  HZ EP   3   1024 43.32                             115    -0.5 2  268 256 
 HEL  HN ES   3   1025 15.17                             115     0.2 2  268 256 
 HEL  HZ I        1025 21.02         8.7 0.33                           268 256 
 DBB  SZ EP       1024 50.97                             110    -0.1 7  336 274 
 PRA  HZ EP       1024 57.35                             107     0.1 6  389 209 
 PRA  HN ES   2   1025 38.71                             107     0.0 3  389 209 
                                                                                
