 2012  714 1743 53.3 L   7.462 -73.251117.0  RSN  4 0.4 2.1LRSN                1
 GAP=181        0.89       5.0     7.0 10.5  0.2029E+01  0.1216E+02 -0.4187E+01E
 Epicentro: EL PLAYON - SANTANDER                                              3
 ACTION:UPD 12-08-14 11:44 OP:ep   STATUS:               ID:20120714174353 L   I
 2012-07-14-1740-00M.COL___197                                                 6
 STAT SP IPHASW D HRMM SECON CODA AMPLIT PERI AZIMU VELO AIN AR TRES W  DIS CAZ7
 BRR  HZ EP   1   1744 10.21                             149    -0.7 7   64 232 
 BRR  HN ES   1   1744 24.56                             149    -0.2 7   64 232 
 BRR  HZ I        1744 25.69        44.7 0.13            151             64 232 
 OCA  HZ EP   1   1744 12.42                             141    -0.3 7   86 355 
 OCA  HN ES   1   1744 28.14                             141     0.3 7   86 355 
 OCA  HZ I        1744 30.98        32.8 0.30            142             86 355 
 BAR2 SZ EP   1   1744 13.83                             138     0.2 7   96 175 
 BAR2 SZ ES   1   1744 29.78                             138     0.3 7   96 175 
 BAR2 SZ I        1744 31.04        34.7 0.18            142             96 175 
 ZAR  HZ EP   1   1744 21.61                             119     0.5 7  177 271 
 ZAR  HN ES   1   1744 42.98                             119     0.1 7  177 271 
 ZAR  HZ I        1744 46.36         5.7 0.12            121            177 271 
