 2014  614 1434 53.1 L   6.795 -73.123139.6  RSN 26 0.5 2.9LRSN                1
 GAP= 72        1.11       2.4     2.9  4.9 -0.4890E+00  0.3615E+01  0.1659E+01E
 Epicentro: LOS SANTOS - SANTANDER                                             3
 ACTION:UPD 14-07-01 22:53 OP:nd   STATUS:               ID:20140614143453 L   I
 OLDACT:REG 14-06-14 21:16 OP:fm   STATUS:               ID:20140614142820     3
 2014-06-14-1428-20M.COL___234                                                 6
 STAT SP IPHASW D HRMM SECON CODA AMPLIT PERI AZIMU VELO AIN AR TRES W  DIS CAZ7
 BAR2 SZ IP     D 1435 12.24                             170    0.2710 23.3 196 
 BAR2 SZ ES   1   1435 26.61                             170   -0.09 7 23.3 196 
 BAR2 SZ I        1435 27.98       271.9 0.28            167           23.3 196 
 BRR  HZ EP     D 1435 14.25                             151    0.5410 73.7 298 
 BRR  HE ES       1435 30.62                             151    0.8110 73.7 298 
 BRR  HZ I        1435 34.45       122.8 0.28            148           73.7 298 
 PAM  SZ EP       1435 15.29                             150    0.7210 76.3  38 
 PAM  SN ES   1   1435 31.09                             150   -0.25 7 76.3  38 
 RUS  HZ EP     C 1435 16.03                             143   -0.1510 99.9 177 
 RUS  HE ES       1435 34.28                             143    0.0910 99.9 177 
 RUS  HZ I        1435 35.60        82.5 0.32            144           99.9 177 
 PTB  HZ EP       1435 19.29                             130   -0.48 9  150 259 
 PTB  HN ES       1435 39.92                             130   -0.67 9  150 259 
 PTB  HZ I        1435 42.82        83.7 0.12            129            150 259 
 TAM  HZ EP     D 1435 20.54                             130    0.51 9  153 105 
 TAM  HN ES       1435 40.40                             130   -0.66 9  153 105 
 TAM  HZ I        1435 42.54        55.1 0.20            134            153 105 
 OCA  HZ EP       1435 21.14                             128    0.14 9  161 352 
 OCA  HN ES       1435 42.46                             128   -0.32 9  161 352 
 OCA  HZ I        1435 47.82        86.5 0.26            129            161 352 
 SPBC HZ EP       1435 21.13                             127   -0.09 9  164 220 
 SPBC HN ES       1435 42.59                             127   -0.58 9  164 220 
 SPBC HZ I        1435 48.19        90.3 0.44            127            164 220 
 ZAR  HZ EP       1435 25.27                             121   -0.13 8  207 292 
 ZAR  HN ES       1435 50.60                             121   -0.00 8  207 292 
 ZAR  HZ I        1435 57.27       130.9 0.26            121            207 292 
 NOR  HZ EP       1435 28.21                             117   -0.43 8  236 235 
 NOR  HN ES       1435 56.10                             117   -0.28 8  236 235 
 NOR  HZ I        1436  0.12        65.9 0.18            117            236 235 
 SML  HZ EP       1435 29.00                             116   -0.54 8  245 335 
 SML  HN ES       1435 57.46                             116   -0.52 8  245 335 
 SML  HZ I        1435 59.77       117.4 0.32            117            245 335 
 CHI  HZ EP       1435 30.38                             116   -0.07 8  249 196 
 CHI  HN ES   1   1435 58.84                             116   -0.77 6  249 196 
 CHI  HZ I        1436  3.83        19.6 0.38            117            249 196 
 HEL  HZ EP       1435 33.03                             113   -0.21 8  274 256 
 HEL  HE ES       1436  5.15                             113    0.58 8  274 256 
 HEL  HZ I        1436 12.33        46.2 0.46            113            274 256 
 URE  HZ EP   4   1435 32.81                             112   -1.33 0  286 292 
 URE  HN ES   4   1436  4.70                             112   -1.47 0  286 292 
 URE  HZ I        1436 17.38        57.5 0.20            112            286 292 
 GUY2CHZ EP       1435 36.90                             111    0.30 7  303 235 
 GUY2CHE ES       1436 11.35                             111    0.80 7  303 235 
 GUY2CHZ I        1436 20.92        47.4 0.54                           303 235 
 VIL  SZ EP       1435 35.54                             111   -0.67 7  303 192 
 VIL  SN ES       1436 10.85                             111    0.99 7  303 192 
 VIL  SZ I        1436 14.64        35.3 0.30            112            303 192 
 PTGC HZ EP   4 C 1435 35.15                             110   -1.35 0  307 159 
 PTGC HN ES   4   1436  7.64                             110   -2.73 0  307 159 
 PTGC HZ I        1436  9.93        43.8 0.24            112            307 159 
 RREF HZ EP       1435 40.05                             110    0.91 7  323 230 
 RREF HN ES   4   1436 16.93                             110    1.87 0  323 230 
 RREF HZ I        1436 25.40        34.5 0.34            110            323 230 
 CBOC HZ EP       1435 40.31                             109    0.31 7  336 252 
 CBOC HN ES       1436 16.53                             109   -0.07 7  336 252 
 CBOC HZ I        1436 21.79        17.4 0.28            109            336 252 
 DBB  SZ EP     C 1435 40.34                             108   -0.27 7  342 274 
 DBB  SZ ES   1   1436 17.55                             108   -0.13 5  342 274 
 DBB  SZ I        1436 23.34       107.2 0.24            109            342 274 
 TOL  SZ EP       1435 42.07                             108    0.82 7  345 225 
 TOL  SN ES       1436 18.05                             108   -0.77 7  345 225 
 TOL  SZ I        1436 27.02        74.2 0.42            109            345 225 
 ANIL HZ EP       1435 43.57                             107    0.76 6  359 225 
 ANIL HN ES   4   1436 23.04                             107    1.44 0  359 225 
 ANIL HZ I        1436 28.69        62.8 0.26            108            359 225 
 ARGC HZ EP   1   1435 41.96                             107   -0.71 5  361 340 
 ARGC HN ES   1   1436 21.93                             107    0.58 5  361 340 
 ARGC HZ I        1436 25.89        15.6 0.24            108            361 340 
 PRA  HZ EP       1435 45.80                             105   -0.68 6  393 210 
 PRA  HE ES       1436 28.37                             105    0.24 6  393 210 
 PRA  HZ I        1436 36.65        22.8 0.32            106            393 210 
 ORTC HZ EP       1435 46.36                             105   -0.55 6  396 217 
 ORTC HN ES   4   1436 30.28                             105    1.38 0  396 217 
 ORTC HZ I        1436 36.13        15.7 0.54            106            396 217 
 SJC  HZ EP   4   1435 47.15                             105   -1.51 0  411 327 
 SJC  HE ES   4   1436 28.53                             105   -3.49 0  411 327 
 SJC  HZ I        1436 32.72        20.4 0.48            105            411 327 
 BBAC HZ EP   4   1436 23.59                              97    0.23 0  699 221 
 BBAC HN ES   4   1437 28.64                              97   -5.14 0  699 221 
                                                                                
