 2011  114 1141 57.5 L   6.767 -73.117149.4  RSN  5 0.3 1.6LRSN                1
 GAP=223        0.66       7.2    10.0  8.7 -0.1788E+02  0.2760E+02  0.8995E+01E
 Epicentro: LOS SANTOS - SANTANDER                                             3
 ACTION:UP  11-02-08 08:40 OP:pat  STATUS:               ID:20110114114157 L   I
 2011-01-14-1140-00M.COL___137                                                 6
 STAT SP IPHASW D HRMM SECON CODA AMPLIT PERI AZIMU VELO SNR AR TRES W  DIS CAZ7
 BAR2 SZ IP       1142 17.09                             172    -0.410   21 201 
 BAR2 SZ ES   2   1142 32.56                             172    -0.5 5   21 201 
 BAR2 SZ I        1142 33.84        14.9 0.23                            21 201 
 BTL  SZ EP   1   1142 17.94                             171     0.4 7   24 315 
 BTL  SZ ES   2   1142 33.56                             171     0.4 5   24 315 
 RUS  HZ EP   1   1142 21.42                             146     0.1 7   97 178 
 RUS  HE ES   2   1142 40.33                             146     0.4 5   97 178 
 RUS  HZ I        1142 42.79         3.5 0.43                            97 178 
 NOR  SZ EP   1   1142 33.62                             119     0.2 6  235 236 
 NOR  SN ES   2   1143  1.38                             119    -0.2 4  235 236 
 CHI  HE ES   2   1143  4.35                             118    -0.1 4  246 196 
                                                                                
