 2017  714 1440 28.0 L   6.554 -73.535113.9  RSN 19 0.5 2.4LRSN                1
 GAP= 58        1.14       3.1     2.7  5.3 -0.1289E+01  0.4193E+01 -0.6104E+00E
 Epicentro: EL CARMEN - SANTANDER                                              3
 ACTION:UPD 17-08-30 15:32 OP:rebc STATUS:               ID:20170714144028 L   I
 OLDACT:UP  17-07-14 23:12 OP:lv   STATUS:               ID:20170714143740     3
 OLDACT:REG 17-07-14 23:06 OP:lv   STATUS:               ID:20170714143740     3
 2017-07-14-1438-00M.COL___386                                                 6
 STAT SP IPHASW D HRMM SECON CODA AMPLIT PERI AZIMU VELO AIN AR TRES W  DIS CAZ7
 BAR2 EZ IP     C 1440 44.40                             159    0.0810 39.2  84 
 BAR2 EZ ES       1440 56.98                             159   -0.1010 39.2  84 
 BAR2 EZ I        1440 58.28       384.7 0.12            161           39.2  84 
 BRR  HZ EP       1440 45.15                             148   -0.1610 64.2 342 
 BRR  HN ES       1440 59.50                             148    0.6610 64.2 342 
 BRR  HZ I        1441  5.77        95.7 0.05            149           64.2 342 
 RUS  HZ EP       1440 47.42                             139   -0.3410 88.6 146 
 RUS  HN ES       1441  2.80                             139   -0.4010 88.6 146 
 PTB  HZ IP   9 D 1440 47.26                             134   -0.94 0  102 269 
 PTB  HN ES       1441  2.24                             135   -0.8010  102 269 
 PTB  HZ I        1441  3.70        36.9 0.13            136            102 269 
 SPBC HZ EP       1440 49.61                             130    0.0410  116 211 
 SPBC HN ES       1441  6.29                             130   -0.1410  116 211 
 PAM  EZ EP       1440 51.10                             128   -0.0010  127  47 
 PAM  EN ES       1441  8.87                             128   -0.2710  127  47 
 PAM  EZ I        1441 12.92        21.8 0.16            130            127  47 
 ZAR  HZ EP       1440 56.80                             117    0.96 9  179 305 
 ZAR  HN ES   4   1441 18.70                             117    1.12 0  179 305 
 ZAR  HZ I        1441 21.29        54.1 0.08            119            179 305 
 YPLC HZ EP       1440 56.38                             117    0.27 9  181 135 
 YPLC HN ES       1441 18.66                             117    0.60 9  181 135 
 YPLC HZ I        1441 20.83        40.1 0.29            120            181 135 
 NOR  HZ EP       1440 56.15                             117   -0.25 9  184 234 
 NOR  HN ES       1441 17.60                             117   -0.98 9  184 234 
 NOR  HZ I        1441 20.48        27.9 0.13            119            184 234 
 TABC EZ EP   9   1440 59.11                             117    1.95 0  186 204 
 TABC EZ ES       1441 21.52                                   -0.36 9  186 204 
 TABC EZ I        1441 25.21        16.2 0.20            119            186 204 
 TAM  HZ EP       1440 57.18                             115   -0.24 9  193  94 
 TAM  HN ES   3   1441 20.64                             115    0.25 2  193  94 
 HEL  HZ EP       1441  2.31                             112    1.03 8  224 260 
 HEL  HN ES       1441 26.69                             112   -0.57 8  224 260 
 GUY2CHZ EP       1441  4.86                             109    0.46 8  250 234 
 GUY2CHN ES       1441 32.51                             109   -0.30 8  250 234 
 GUY2CHZ I        1441 39.93        14.3 0.49                           250 234 
 URE  HZ EP       1441  4.30                             108   -0.32 8  257 301 
 URE  HN ES   4   1441 31.22                             108   -1.99 0  257 301 
 URE  HZ I        1441 34.87        28.2 0.29            110            257 301 
 DBB  EZ EP       1441  9.65                             105   -0.04 7  300 280 
 DBB  EN ES       1441 42.44                             105    0.20 7  300 280 
 DBB  EZ I        1441 44.10         7.3 0.24            107            300 280 
 PTGC HZ EP   4   1441  9.05                             105   -0.91 0  303 149 
 PTGC HN ES   4   1441 41.15                             105   -1.56 0  303 149 
 ORTC HZ EP   9   1441 16.77                             102    1.39 0  349 213 
 ORTC HN ES       1441 54.07                             102    0.31 6  349 213 
 PAL  HZ EP   1   1441 16.95                             102    0.79 5  355 239 
 PAL  HN ES   2   1441 54.62                             102    0.87 3  355 239 
 PAL  HZ I        1441 57.74         4.9 0.06            103            355 239 
 SJC  HZ EP   4   1441 21.23                              99   -1.73 0  412 334 
 SJC  HN ES   4   1442  2.27                              99   -3.58 0  412 334 
 SJC  HZ I        1442  7.18         3.1 0.06            101            412 334 
 CRJC HZ EP   1   1441 32.63                              96   -0.93 3  499   8 
 CRJC HE ES   1   1442 23.13                              96   -1.59 3  499   8 
 CRJC HZ I        1442 26.35        10.7 0.16             98            499   8 
                                                                                
