 2017  614 1742 39.3 L   6.798 -73.178148.0  RSN 12 0.5 2.2LRSN                1
 GAP=210        0.91       5.1     4.0  7.2  0.8812E+01  0.2738E+01  0.1267E+02E
 Epicentro: LOS SANTOS - SANTANDER                                             3
 ACTION:UPD 17-09-14 16:52 OP:jn   STATUS:               ID:20170614174239 L   I
 OLDACT:UP  17-06-15 00:14 OP:dani STATUS:               ID:20170614173742d    3
 OLDACT:DUP 17-06-15 00:06 OP:dani STATUS:               ID:20170614173742d    3
 2017-06-14-1738-00M.COL___368                                                 6
 STAT SP IPHASW D HRMM SECON CODA AMPLIT PERI AZIMU VELO AIN AR TRES W  DIS CAZ7
 BRR  HZ EP       1743  0.46                             154   -0.1110 68.1 300 
 BRR  HN ES       1743 17.53                             154    0.4110 68.1 300 
 BRR  HZ I        1743 21.44        35.0 0.34            153           68.1 300 
 PTB  HZ EP       1743  5.72                             133   -0.45 9  144 259 
 PTB  HN ES       1743 26.30                             133   -0.80 9  144 259 
 PTB  HZ I        1743 32.67         9.8 0.20            131            144 259 
 SPBC HZ EP       1743  7.80                             130    0.01 9  161 218 
 SPBC HZ I        1743 34.43        25.7 0.20            127            161 218 
 YPLC HZ EP       1743  9.03                             127   -0.43 9  178 150 
 YPLC HE ES       1743 33.41                             127    0.47 9  178 150 
 YPLC HZ I        1743 34.72        12.1 0.30            126            178 150 
 ZAR  HZ EP       1743 12.02                             124    0.42 9  201 293 
 ZAR  HE ES       1743 36.71                             124   -0.05 9  201 293 
 ZAR  HZ I        1743 41.96        16.7 0.42            123            201 293 
 TABC EZ EP   3   1743 16.48                             120    1.47 2  228 210 
 NOR  HZ EP       1743 14.67                             119   -0.21 8  232 234 
 NOR  HN ES       1743 42.68                             119    0.09 8  232 234 
 NOR  HZ I        1743 49.48        10.9 0.21            117            232 234 
 CHI  HZ EP       1743 16.79                             118   -0.26 8  248 194 
 CHI  HN ES   4   1743 44.78                             118   -1.67 0  248 194 
 CHI  HZ I        1743 50.11         5.7 0.43            116            248 194 
 ROSC BZ EP   3   1743 19.15                             117    1.78 2  251 210 
 ROSC BN ES   4   1743 50.16                             117    3.14 0  251 210 
 ROSC BZ I        1743 53.58        23.1 0.46            116            251 210 
 HEL  HZ EP   3   1743 20.51                             116    1.23 2  269 256 
 HEL  HN ES       1743 50.90                             116    0.47 8  269 256 
 HEL  HZ I        1743 57.57         5.7 0.53            114            269 256 
 CBOC HZ EP       1743 26.02                             111    0.07 7  330 252 
 CBOC HN ES       1744  2.94                             111    0.64 7  330 252 
 DBB  EN ES   3   1744  1.77                             110   -1.51 2  336 274 
                                                                                
