 2013 1214 1606 37.7 L   6.061 -73.733112.9  RSN 12 0.4 2.2LRSN                1
 GAP= 75        0.88       2.9     3.1  5.6 -0.1959E+01  0.2031E+01 -0.3954E-01E
 Epicentro: BOLIVAR - SANTANDER                                                3
 ACTION:UPD 14-01-13 10:18 OP:ep   STATUS:               ID:20131214160637 L   I
 OLDACT:UP  13-12-14 15:59 OP:cam  STATUS:               ID:20131214160000     3
 OLDACT:REG 13-12-14 15:08 OP:cam  STATUS:               ID:20131214160000     3
 2013-12-14-1600-00M.COL___285                                                 6
 STAT SP IPHASW D HRMM SECON CODA AMPLIT PERI AZIMU VELO AIN AR TRES W  DIS CAZ7
 SPBC HZ EP       16 6 54.87                             151    0.1010 58.8 220 
 SPBC HN ES       16 7  8.17                             151    0.1110 58.8 220 
 SPBC HZ I        16 7 10.40        64.4 0.14            151           58.8 220 
 RUS  HZ IP     D 16 6 56.06                             145   -0.3010 74.3 104 
 RUS  HZ I        16 7 11.78        11.1 0.28            140           74.3 104 
 BAR2 SZ EP     C 16 6 56.85                             141    0.0810 84.6  46 
 BAR2 SZ ES       16 7 11.90                             141    0.2810 84.6  46 
 BAR2 SZ I        16 7 12.79       103.6 0.26            137           84.6  46 
 PTB  HZ EP       16 6 56.63                             137   -0.7510 95.9 304 
 PTB  HN ES       16 7 12.05                             137   -0.6510 95.9 304 
 PTB  HZ I        16 7 15.52        21.4 0.22            138           95.9 304 
 BRR  HZ EP       16 6 59.16                             131    0.0610  116   1 
 BRR  HN ES       16 7 16.04                             131    0.2810  116   1 
 BRR  HZ I        16 7 19.27        33.0 0.42            130            116   1 
 NOR  HZ EP       16 7  1.20                             126   -0.05 9  137 246 
 NOR  HN ES       16 7 20.00                             126    0.41 9  137 246 
 NOR  HZ I        16 7 22.32        25.9 0.16            126            137 246 
 CHI  HZ EP   1   16 7  3.47                             122   -0.39 7  158 180 
 HEL  HZ EP   1   16 7  9.09                             115    0.88 6  199 274 
 HEL  HN ES   1   16 7 31.92                             115   -0.06 6  199 274 
 ZAR  HZ EP       16 7  7.86                             114   -0.12 9  201 322 
 ZAR  HE ES       16 7 31.88                             114    0.32 9  201 322 
 ZAR  HZ I        16 7 32.91        27.3 0.54            114            201 322 
 GUY2CHZ EP   1   16 7  9.27                             115    0.50 6  203 243 
 RREF HZ EP   4   16 7 11.54                             112    0.66 0  220 234 
 ORTC HZ EP   2   16 7 18.59                             106    0.26 4  291 215 
 SML  HZ EP   2   16 7 19.32                             105   -0.62 4  305 353 
 SML  HN ES   2   16 7 53.10                             105    0.25 4  305 353 
 SML  HZ I        16 8  0.87        11.5 0.28            104            305 353 
                                                                                
