 2013 1114 1247  5.9 L   6.802 -73.142150.4  RSN  7 0.4 1.8LRSN                1
 GAP=137        1.10       4.0     5.4  6.8 -0.2717E+01  0.7413E+01 -0.3557E+01E
 Epicentro: LOS SANTOS - SANTANDER                                             3
 ACTION:UPD 14-01-09 16:28 OP:ep   STATUS:               ID:20131114124705 L   I
 OLDACT:REG 13-11-14 15:59 OP:stll STATUS:               ID:20131114123815     3
 2013-11-14-1238-15M.COL___225                                                 6
 STAT SP IPHASW D HRMM SECON CODA AMPLIT PERI AZIMU VELO AIN AR TRES W  DIS CAZ7
 BAR2 SZ EP       1247 26.25                             171    0.1110 23.6 191 
 BAR2 SZ I        1247 26.62        22.2 0.32            170           23.6 191 
 BAR2 SZ ES       1247 41.73                             171   -0.1610 23.6 191 
 BRR  HZ EP       1247 27.93                             153    0.3210 71.5 298 
 BRR  HZ I        1247 28.56        10.6 0.50            150           71.5 298 
 BRR  HN ES       1247 44.94                             153    0.4310 71.5 298 
 PAM  SZ EP       1247 29.23                             152    0.6010 76.9  39 
 PAM  SZ I        1247 29.38         9.0 0.24            153           76.9  39 
 PAM  SN ES       1247 46.35                             152    0.0310 76.9  39 
 RUS  HZ EP       1247 30.07                             145   -0.1010  101 176 
 RUS  HZ I        1247 31.29         3.0 0.24            145            101 176 
 RUS  HN ES       1247 48.20                             145   -0.8610  101 176 
 PTB  HZ EP       1247 33.00                             133   -0.33 9  148 259 
 PTB  HN ES       1247 54.61                             133   -0.09 9  148 259 
 PTB  HZ I        1248  1.58         9.4 0.54            131            148 259 
 SPBC HZ EP       1247 34.97                             130    0.13 9  164 219 
 SPBC HZ I        1247 35.84        10.7 0.10            129            164 219 
 SPBC HE ES       1247 57.99                             130    0.60 9  164 219 
 SML  HZ EP       1247 42.67                             118   -0.16 8  244 335 
 SML  HN ES       1248 10.79                             118   -0.81 8  244 335 
 SML  HZ I        1248 15.74         7.2 0.10            118            244 335 
                                                                                
