 2017 1114 1111 48.9 L   6.783 -73.144142.0  RSN  4 0.2 1.0LRSN                1
 GAP=139        0.50       3.0     2.9  3.8 -0.2800E+01  0.2557E+01 -0.1030E+01E
 Epicentro: LOS SANTOS - SANTANDER                                             3
 ACTION:UPD 17-12-12 19:55 OP:rebc STATUS:               ID:20171114111148 L   I
 OLDACT:REG 17-11-14 20:27 OP:lv   STATUS:               ID:20171114110738     3
 2017-11-14-1108-00M.COL___438                                                 6
 STAT SP IPHASW D HRMM SECON CODA AMPLIT PERI AZIMU VELO AIN AR TRES W  DIS CAZ7
 BAR2 EZ EP   9   1112  5.36                             171   -2.70 0 21.6 191 
 BAR2 EZ ES       1112 20.47                                    0.1810 21.6 191 
 BAR2 EZ I        1112 24.25         3.8 0.28            171           21.6 191 
 PAM  EZ EP       1112 10.82                             150    0.0110 78.7  39 
 PAM  EN ES       1112 27.88                             150   -0.0110 78.7  39 
 PAM  EZ I        1112 29.81         2.1 0.44            151           78.7  39 
 RUS  HZ EP       1112 12.43                             144    0.2610 98.7 176 
 RUS  HN ES       1112 30.13                             144   -0.1710 98.7 176 
 RUS  HZ I        1112 32.05         1.3 0.24            145           98.7 176 
 PTB  HZ EP       1112 15.34                             131   -0.23 9  148 260 
 PTB  HN ES       1112 36.48                             131    0.12 9  148 260 
                                                                                
