 2016  714 1849 17.8 L   6.822 -73.180145.9  RSN 11 0.3 2.0LRSN                1
 GAP=131        1.09       4.2     4.2  6.5 -0.3168E+01  0.5479E+01  0.5992E+01E
 Epicentro: ZAPATOCA - SANTANDER                                               3
 ACTION:UPD 17-03-29 16:51 OP:lp   STATUS:               ID:20160714184917 L   I
 OLDACT:REG 16-07-14 21:53 OP:lv   STATUS:               ID:20160714184759     3
 2016-07-14-1847-59S.COL___328                                                 6
 STAT SP IPHASW D HRMM SECON CODA AMPLIT PERI AZIMU VELO AIN AR TRES W  DIS CAZ7
 BAR2 EZ EP       1849 37.29                             170   -0.2010 25.4 181 
 BAR2 EZ ES       1849 53.12                             170    0.2810 25.4 181 
 BAR2 EZ I        1849 53.52        18.8 0.20            169           25.4 181 
 PAM  EZ EP       1849 40.28                             151    0.2110 78.1  43 
 PAM  EN ES       1849 57.53                             151    0.1010 78.1  43 
 PAM  EZ I        1849 58.08        13.7 0.22            153           78.1  43 
 RUS  HZ EP       1849 41.51                             143   -0.2510  103 174 
 RUS  HN ES       1850  0.41                             143   -0.0410  103 174 
 RUS  HZ I        1850  1.53         6.6 0.37            145            103 174 
 PTB  HZ EP       1849 44.00                             133   -0.48 9  145 258 
 PTB  HN ES       1850  4.76                             133   -0.54 9  145 258 
 PTB  HZ I        1850  7.60         8.8 0.16            131            145 258 
 SPBC HZ EP       1849 46.52                             129    0.26 9  163 217 
 SPBC HN ES       1850  8.29                             129   -0.18 9  163 217 
 SPBC HZ I        1850 12.52        16.6 0.11            129            163 217 
 ZAR  HZ EP   4   1849 51.28                             123    1.49 0  200 292 
 ZAR  HN ES       1850 15.24                             123    0.49 9  200 292 
 ZAR  HZ I        1850 20.41         8.2 0.22            122            200 292 
 NOR  HZ EP       1849 53.42                             119    0.06 8  233 233 
 NOR  HN ES       1850 21.11                             119    0.02 8  233 233 
 NOR  HZ I        1850 28.78         6.7 0.26            118            233 233 
 CHI  HZ EP       1849 55.63                             117   -0.03 8  250 194 
 CHI  HE ES       1850 24.98                             117   -0.20 8  250 194 
 URE  HZ EP   9   1849 56.77                             114   -1.61 0  279 292 
 URE  HN ES       1850 27.98                                   -0.44 7  279 292 
 URE  HZ I        1850 36.40         6.5 0.14            113            279 292 
 GUY2CHZ EP   9   1850  2.65                             113    1.43 0  300 234 
 GUY2CHE ES       1850 38.29                                    1.77 7  300 234 
 GUY2CHZ I        1850 43.66         6.5 0.56                           300 234 
 PTGC HZ EP   4   1850  0.49                             111   -1.59 0  312 158 
 PTGC HE ES   4   1850 35.04                             111   -1.57 0  312 158 
 PRA  HZ EP       1850 11.83                             107    0.47 6  392 209 
 PRA  HN ES       1850 53.96                             107    0.83 6  392 209 
 PRA  HZ I        1850 57.51         6.9 0.46            107            392 209 
                                                                                
