 2012  514 1250 47.9 L   6.646 -73.698 92.2  RSN  5 0.4 1.2LRSN                1
 GAP=121        1.06      15.7    14.5 25.8  0.1491E+03  0.1502E+03  0.3205E+03E
 Epicentro: EL CARMEN DE CHUCURI - SANTANDER                                   3
 ACTION:UP  12-07-05 12:05 OP:pat  STATUS:               ID:20120514125047 L   I
 2012-05-14-1250-00M.COL___195                                                 6
 STAT SP IPHASW D HRMM SECON CODA AMPLIT PERI AZIMU VELO SNR AR TRES W  DIS CAZ7
 BRR  HZ EP       1251  2.47                             148     0.410   51 358 
 BRR  HN ES   1   1251 13.35                             148     0.1 7   51 358 
 BAR2 SZ EP       1251  2.22                             146    -0.610   57  96 
 BAR2 SZ I        1251 16.48         5.6 0.40                            57  96 
 PTB  HZ EP   2   1251  4.13                             134    -0.6 5   85 262 
 PTB  HZ I        1251 21.40         2.8 0.10                            85 262 
 RUS  HZ EP       1251  7.88                             127     0.410  108 141 
 RUS  HN ES   3   1251 22.90                             127     0.1 2  108 141 
 ZAR  HN ES   3   1251 30.92                             115    -0.4 2  159 306 
 ZAR  HZ I        1251 36.81         2.8 0.20                           159 306 
                                                                                
