 2010  314 1334 21.0 L   6.794 -72.918139.9  RSN  9 0.4 2.1LRSN                1
 GAP=206        0.81       4.8     6.6  7.3  0.1094E+00 -0.8091E-01  0.1199E+02E
 Epicentro: CEPITA - SANTANDER                                                 3
 ACTION:UP  10-08-24 09:54 OP:vdl  STATUS:               ID:20100314133421 L   I
 2010-03-14-1329-43S.COL___095                                                 6
 STAT SP IPHASW D HRMM SECON CODA AMPLIT PERI AZIMU VELO SNR AR TRES W  DIS CAZ7
 BAR2 SZ EP       1334 40.63                             165     0.310   37 233 
 BAR2 SZ ES   1   1334 55.53                             165     0.2 7   37 233 
 BRR  HZ I        1334 43.11        37.8 0.56                            94 292 
 BRR  HN ES       1334 59.76                             144    -0.510   94 292 
 RUS  HZ EP   1   1334 44.48                             142     0.2 7  101 190 
 RUS  HZ I        1335  2.20         8.2 0.81                           101 190 
 RUS  HN ES   2   1335  2.36                             142     0.0 5  101 190 
 OCA  SZ EP   1   1334 49.37                             127     0.0 7  166 345 
 OCA  SZ I        1335 15.82        24.2 0.52                           166 345 
 CHI  HZ EP   1   1334 58.65                             115    -0.5 6  256 201 
 CHI  HN ES   1   1335 28.88                             115     0.0 6  256 201 
 CHI  HZ I        1335 33.47         4.9 0.33                           256 201 
 HEL  HE ES   1   1335 37.40                             111     0.5 5  296 257 
 HEL  HZ I        1335 38.74         7.2 0.52                           296 257 
 RREF BN ES   1   1335 46.71                             108     0.1 5  341 232 
 RREF BZ I        1335 48.20         5.3 0.22                           341 232 
 TOL  SZ EP   2   1335 11.65                             107     0.6 3  361 228 
 PRA  HN ES   1   1335 57.79                             105    -0.7 4  404 213 
 PRA  HZ I        1336  0.87         4.5 0.80                           404 213 
                                                                                
