 2017 1014 1945  1.8 L   6.815 -73.108141.0  RSN 11 0.5 3.0LRSN 3.5WRSN        1
 SPEC AVERAGE  MO 14.3 ST0.768 OM  2.9 f0 1.69 R1.5925 AL 0.00 WI 30.0 MW  3.5 3
 SPEC SD       MO  0.9 ST407.9 OM  1.0 f0 8.61 R0.8945 AL      WI      MW  0.6 3
 GAP=216        1.02       3.8     6.5  6.2 -0.2311E+01  0.1393E+02  0.2543E+01E
 Epicentro: LOS SANTOS - SANTANDER                                             3
 SPEC BRR HH Z MO 13.9 ST  3.0 OM  2.0 f0 3.88 R0.4959 AL 0.00 WI 30.0 MW  3.2 3
 SPEC BRR HH Z T194538 K 0.000 GD  159 VS 5.20 DE 3.50 Q0750.0 QA 1.50 VS 3.50 3
 SPEC CHI HH Z MO 14.4 ST0.074 OM  2.2 f00.797 R2.4141 AL 0.00 WI 30.0 MW  3.5 3
 SPEC CHI HH Z T1946 8 K 0.000 GD  287 VS 5.20 DE 3.50 Q0750.0 QA 1.50 VS 3.50 3
 SPECGUY2CHH Z MO 15.6 ST0.021 OM  3.4 f00.198 R9.7172 AL 0.00 WI 30.0 MW  4.4 3
 SPECGUY2CHH Z T194618 K 0.000 GD  336 VS 5.20 DE 3.50 Q0750.0 QA 1.50 Q1 0.00 3
 SPEC ELA HH Z MO 14.6 ST0.142 OM  2.3 f00.851 R2.2609 AL 0.00 WI 30.0 MW  3.7 3
 SPEC ELA HH Z T194623 K 0.000 GD  361 VS 5.20 DE 3.50 Q0750.0 QA 1.50 VS 3.50 3
 SPEC DBB EH Z MO 14.6 ST0.215 OM  2.3 f00.969 R1.9856 AL 0.00 WI 30.0 MW  3.7 3
 SPEC DBB EH Z T194624 K 0.000 GD  371 VS 5.20 DE 3.50 Q0750.0 QA 1.50 VS 3.50 3
 SPEC ANILHH Z MO 14.5 ST0.338 OM  2.2 f0 1.20 R1.6033 AL 0.00 WI 30.0 MW  3.6 3
 SPEC ANILHH Z T194629 K 0.000 GD  387 VS 5.20 DE 3.50 Q0750.0 QA 1.50 VS 3.50 3
 SPEC CRJCHH Z MO 14.0 ST0.875 OM  1.6 f0 2.42 R0.7950 AL 0.00 WI 30.0 MW  3.3 3
 SPEC CRJCHH Z T194646 K 0.000 GD  486 VS 5.20 DE 3.50 Q0750.0 QA 1.50 VS 3.50 3
 OLDACT:UP  17-10-14 23:21 OP:lv   STATUS:               ID:20171014193349     3
 OLDACT:UP  17-10-14 23:16 OP:lv   STATUS:               ID:20171014193349     3
 OLDACT:REG 17-10-14 21:46 OP:l    STATUS:               ID:20171014193349     3
 ACTION:UPD 17-11-07 19:31 OP:rebc STATUS:               ID:20171014194501 L   I
 OLDACT:UP  17-10-14 23:23 OP:lv   STATUS:               ID:20171014193349     3
 OLDACT:UP  17-10-14 23:22 OP:lv   STATUS:               ID:20171014193349     3
 OLDACT:UP  17-10-14 23:22 OP:lv   STATUS:               ID:20171014193349     3
 2017-10-14-1938-00M.COL___438                                                 6
 STAT SP IPHASW D HRMM SECON CODA AMPLIT PERI AZIMU VELO AIN AR TRES W  DIS CAZ7
 BAR2 EZ EP       1945 20.78                             169   -0.1110 26.0 199 
 BAR2 EZ ES       1945 35.03                             169   -0.7710 26.0 199 
 BAR2 EZ I        1945 38.18       381.4 0.34            167           26.0 199 
 BRR  HZ IP     C 1945 22.87                             150    0.2810 74.2 296 
 BRR  HN ES       1945 39.55                             150    0.7310 74.2 296 
 BRR  HZ I        1945 43.12       195.1 0.26            148           74.2 296 
 CHI  HZ EP       1945 39.08                             116   -0.43 8  251 196 
 CHI  HN ES       1946  9.57                             116    0.62 8  251 196 
 CHI  HZ I        1946 16.99        32.9 0.32            115            251 196 
 GUY2CHZ EP       1945 45.85                             111    0.18 7  306 235 
 GUY2CHN ES       1946 20.12                             111    0.22 7  306 235 
 ELA  HZ EP   4   1945 50.18                             109    1.26 0  333 230 
 ELA  HE ES       1946 25.45                             109   -0.24 7  333 230 
 ELA  HZ I        1946 41.99        69.9 0.62            108            333 230 
 DBB  EZ EP       1945 49.04                             108   -0.50 7  344 274 
 DBB  EN ES       1946 26.20                             108   -0.58 7  344 274 
 DBB  EZ I        1946 28.45        40.1 0.54            108            344 274 
 ARGC HZ EP       1945 51.91                             107    0.67 6  359 340 
 ARGC HN ES       1946 29.34                             107   -0.49 6  359 340 
 ARGC HZ I        1946 40.55        18.4 0.22            107            359 340 
 ANIL HZ EP       1945 52.42                             107    0.54 6  361 225 
 ANIL HN ES       1946 30.64                             107   -0.32 6  361 225 
 CRJC HZ EP   4   1946  1.83                             103   -2.10 0  466   3 
 CRJC HN ES   4   1946 48.32                             103   -4.08 0  466   3 
 CRJC HZ I        1946 58.56        26.8 0.16            102            466   3 
 MACC HZ EP   4   1946  7.75                             101   -2.90 0  523 189 
 MACC HN ES   4   1946 59.26                             101   -5.10 0  523 189 
 JAMC HZ EP   9   1946 13.82                             100   -1.67 0  561 225 
 JAMC HN ES       1947 10.90                                   -0.41 3  561 225 
 JAMC HZ I        1947 21.95         6.4 0.46             99            561 225 
 MAL  EZ EP       1946 14.93                             100   -0.34 3  562 237 
 MAL  EN ES   4   1947  8.83                             100   -3.76 0  562 237 
 GARC HZ EP   4   1946 15.66                              99   -1.68 0  576 207 
 GARC HN ES   4   1947 10.97                              99   -5.31 0  576 207 
                                                                                
