 2010  514 1339 48.1 L   6.770 -73.000149.5  RSN 10 0.4 2.7LRSN                1
 GAP=175        0.67       3.4     7.0  6.4 -0.1010E+02  0.5578E+01  0.1544E+01E
 Epicentro: CEPITA - SANTANDER                                                 3
 ACTION:UP  10-08-24 10:05 OP:vdl  STATUS:               ID:20100514133948 L   I
 2010-05-14-1337-02S.COL___105                                                 6
 STAT SP IPHASW D HRMM SECON CODA AMPLIT PERI AZIMU VELO AIN AR TRES W  DIS CAZ7
 BAR2 SZ IP     D 1340  8.23                             169    -0.110   28 226 
 BAR2 SZ ES   2   1340 23.53                             169    -0.5 5   28 226 
 BRR  HZ IP     C 1340 10.83                             148     0.210   87 295 
 BRR  HZ I        1340 11.09       209.8 0.13                            87 295 
 BRR  HN ES   2   1340 28.29                             148     0.1 5   87 295 
 RUS  HZ EP   1   1340 12.08                             146     0.1 7   97 185 
 RUS  HN ES   2   1340 30.47                             146    -0.2 5   97 185 
 RUS  HZ I        1340 32.14        44.7 0.28                            97 185 
 GUE  SZ IP       1340 13.21                             140     0.010  118   4 
 GRA  SZ IP       1340 13.97                             138     0.310  125  10 
 GRA  SZ ES   2   1340 33.86                             138     0.3 5  125  10 
 OCA  SZ EP   1   1340 16.70                             129    -0.6 7  166 348 
 OCA  SZ ES   2   1340 39.31                             129    -0.7 5  166 348 
 CHI  HZ EP   1   1340 26.26                             118     0.1 6  250 199 
 CHI  HZ I        1340 27.23        18.6 0.48                           250 199 
 CHI  HN ES   2   1340 56.39                             118     0.5 4  250 199 
 HEL  HZ EP   1   1340 30.29                             114     0.1 5  287 257 
 RREF BZ EP   1   1340 35.40                             111    -0.2 5  332 232 
 RREF BN ES   2   1341 13.48                             111     0.9 3  332 232 
 RREF BZ I        1341 15.38        16.6 0.64                           332 232 
 PRA  HZ EP   1   1340 41.67                             107    -0.7 4  397 212 
 PRA  HN ES   2   1341 23.76                             107    -1.0 3  397 212 
 PRA  HZ I        1341 29.91        18.3 0.72                           397 212 
                                                                                
