 2011  914 1025  2.7 L   6.657 -73.198136.0  RSN  9 0.4 2.0LRSN                1
 GAP=131        0.83       3.2     4.5  5.7 -0.1386E+01  0.7151E+01  0.2465E+01E
 Epicentro: BARICHARA - SANTANDER                                              3
 ACTION:UPD 12-07-13 15:57 OP:ep   STATUS:               ID:20110914102502 L   I
 2011-09-14-1022-56S.COL___169                                                 6
 STAT SP IPHASW D HRMM SECON CODA AMPLIT PERI AZIMU VELO AIN AR TRES W  DIS CAZ7
 BAR2 SZ EP       1025 20.76                             177   -0.1210 7.35 167 
 BAR2 SZ ES   1   1025 34.63                             177   -0.47 7 7.35 167 
 BAR2 SZ I        1025 37.12        21.9 0.28                          7.35 167 
 BRR  HZ EP       1025 23.14                             149    0.1210 75.6 311 
 BRR  HZ I        1025 24.61        19.5 0.10                          75.6 311 
 BRR  HN ES   1   1025 39.12                             149    0.21 7 75.6 311 
 RUS  HZ EP       1025 24.12                             146   -0.2510 85.5 171 
 RUS  HE ES   1   1025 41.93                             146    0.62 7 85.5 171 
 RUS  HZ I        1025 42.98        13.8 0.36                          85.5 171 
 PAM  SZ EP       1025 25.07                             144    0.1410 93.4  36 
 PAM  SE ES   1   1025 42.36                             144    0.06 7 93.4  36 
 OCA  SZ EP       1025 31.77                             125    0.04 9  175 356 
 OCA  SZ I        1025 58.63        14.0 0.37                           175 356 
 ZAR  HZ EP   1   1025 34.19                             120   -0.43 6  205 297 
 ZAR  HN ES   1   1025 59.05                             120   -0.51 6  205 297 
 ZAR  HZ I        1026  4.96         9.2 0.46                           205 297 
 NOR  SZ EP       1025 37.24                             118    0.89 8  221 237 
 NOR  SE ES   1   1026  2.78                             118    0.15 6  221 237 
 CHI  HZ EP       1025 37.54                             117   -0.45 8  232 195 
 CHI  HZ I        1025 38.08         5.0 0.22                           232 195 
 CHI  HE ES   1   1026  5.07                             117   -0.48 6  232 195 
 PRA  HZ EP       1025 54.01                             106    0.11 6  375 210 
                                                                                
