 2012  614 1838 12.0 L   6.794 -73.178145.3  RSN  8 0.2 2.3LRSN                1
 GAP=133        0.59       2.1     2.7  3.9 -0.1023E+01  0.3410E+01 -0.2260E+00E
 Epicentro: LOS SANTOS - SANTANDER                                             3
 ACTION:UPD 12-08-06 17:49 OP:ep   STATUS:               ID:20120614183812 L   I
 2012-06-14-1830-00M.COL___200                                                 6
 STAT SP IPHASW D HRMM SECON CODA AMPLIT PERI AZIMU VELO AIN AR TRES W  DIS CAZ7
 BAR2 SZ EP       1838 31.75                             171    0.2510 22.4 181 
 BAR2 SZ ES       1838 46.92                             171    0.1710 22.4 181 
 BAR2 SZ I        1838 48.32        58.2 0.20                          22.4 181 
 PAM  SZ EP       1838 34.62                             150    0.3410 80.1  41 
 PAM  SE ES       1838 51.68                             150   -0.0110 80.1  41 
 RUS  HZ EP       1838 35.67                             144    0.0410  100 174 
 RUS  HE ES       1838 53.58                             144   -0.5210  100 174 
 RUS  HZ I        1838 57.27        19.5 0.25                           100 174 
 PTB  HZ EP       1838 38.62                             133    0.07 9  144 259 
 PTB  HN ES       1838 59.50                             133    0.20 9  144 259 
 PTB  HZ I        1839  1.27        15.7 0.18                           144 259 
 OCA  HZ EP       1838 39.94                             129   -0.30 9  160 354 
 OCA  HN ES   1   1839  2.09                             129   -0.22 7  160 354 
 OCA  HZ I        1839  6.60        68.4 0.19                           160 354 
 ZAR  HZ EP   1   1838 43.71                             123   -0.34 6  201 293 
 ZAR  HN ES   1   1839  8.92                             123   -0.16 6  201 293 
 ZAR  HZ I        1839 20.56        21.3 0.37                           201 293 
 NOR  SZ EP   1   1838 47.20                             119   -0.10 6  231 234 
 NOR  SE ES   1   1839 15.03                             119    0.15 6  231 234 
 CHI  HZ EP       1838 49.58                             117    0.12 8  247 194 
 CHI  HE ES   1   1839 18.61                             117   -0.10 6  247 194 
                                                                                
