 2012  314 1537 50.6 L   6.769 -73.176134.4  RSN  6 0.3 1.7LRSN                1
 GAP=134        0.81       4.6     4.6  7.8  0.2771E+01  0.8285E+01 -0.2336E+01E
 ACTION:UP  12-03-31 23:19 OP:EP   STATUS:               ID:20120314153750 L   I
 2012-03-14-1530-00M.COL___201                                                 6
 STAT SP IPHASW D HRMM SECON CODA AMPLIT PERI AZIMU VELO SNR AR TRES W  DIS CAZ7
 BAR2 SZ EP   1   1538  8.84                             171     0.0 7   20 182 
 BAR2 SZ ES   1   1538 22.99                             171     0.0 7   20 182 
 BAR2 SZ I        1538 25.43        15.7 0.24                            20 182 
 BRR  HZ EP   1   1538 10.43                             151    -0.1 7   70 302 
 BRR  HZ I        1538 12.32        14.7 0.11                            70 302 
 BRR  HN ES   1   1538 25.93                             151     0.0 7   70 302 
 PAM  SZ EP   1   1538 11.66                             147    -0.3 7   82  40 
 PAM  SZ I        1538 12.03        11.4 0.15                            82  40 
 PAM  SN ES   1   1538 28.64                             147     0.1 7   82  40 
 RUS  HZ EP   1   1538 13.64                             142     0.6 7   97 174 
 RUS  HN ES       1538 30.46                             142     0.010   97 174 
 RUS  HZ I        1538 32.46         4.6 0.20                            97 174 
 PTB  HZ EP   1   1538 15.74                             130    -0.6 7  144 260 
 PTB  HE ES   1   1538 36.13                             130    -0.2 7  144 260 
 PTB  HZ I        1538 42.16         3.9 0.17                           144 260 
 ZAR  HN ES   1   1538 47.42                             120     0.6 6  202 293 
 ZAR  HZ I        1538 52.75         9.2 0.38                           202 293 
                                                                                
