 2013  214 1242 49.1 L   6.827 -73.076147.9  RSN  4 0.1 1.2LRSN                1
 GAP=247        0.31       2.8     5.4  3.5  0.6603E+01 -0.2452E+01  0.2044E+01E
 Epicentro: LOS SANTOS - SANTANDER                                             3
 ACTION:UPD 13-03-12 09:33 OP:ep   STATUS:               ID:20130214124249 L   I
 2013-02-14-1240-00M.COL___241                                                 6
 STAT SP IPHASW D HRMM SECON CODA AMPLIT PERI AZIMU VELO AIN AR TRES W  DIS CAZ7
 BAR2 SZ EP   1   1243  9.02                             169   -0.10 8 28.5 204 
 BAR2 SZ I        1243 10.22         4.9 0.22            170           28.5 204 
 BRR  HN ES   1   1243 27.77                             151    0.02 8 76.8 294 
 RUS  HZ EP       1243 13.29                             143    0.0110  103 180 
 RUS  HN ES       1243 32.14                             143    0.0210  103 180 
 RUS  HZ I        1243 33.88         1.7 0.24            145            103 180 
 CHI  HZ EP       1243 27.54                             117    0.07 8  254 197 
 CHI  HN ES   1   1243 57.30                             117   -0.09 6  254 197 
                                                                                
