 2011  614 1935 35.6 L   6.801 -73.125141.0  RSN 14 0.5 3.1LRSN                1
 GAP=139        0.98       3.4     6.2  6.1 -0.1035E+02  0.8377E+01  0.3027E+01E
 Epicentro: LOS SANTOS - SANTANDER                                             3
 ACTION:UP  11-07-14 19:05 OP:ep   STATUS:               ID:20110614193535 L   I
 2011-06-14-1933-16S.COL___135                                                 6
 STAT SP IPHASW D HRMM SECON CODA AMPLIT PERI AZIMU VELO SNR AR TRES W  DIS CAZ7
 BAR2 SZ IP       1935 54.77                             170     0.110   24 195 
 BAR2 SZ ES   1   1936  9.20                             170    -0.3 7   24 195 
 BAR2 SZ I        1936 13.37       301.3 0.61                            24 195 
 BRR  HZ IP     C 1935 56.52                             151     0.210   73 298 
 BRR  HN ES   1   1936 13.01                             151     0.5 7   73 298 
 BRR  HZ I        1936 15.57       206.2 0.09                            73 298 
 PAM  SZ EP       1935 57.45                             150     0.310   76  38 
 PAM  SN ES   1   1936 14.10                             150     0.0 7   76  38 
 RUS  HZ EP   1   1935 58.62                             143    -0.2 7  101 177 
 RUS  HN ES   1   1936 16.65                             143    -0.4 7  101 177 
 RUS  HZ I        1936 19.20       155.9 0.27                           101 177 
 BRI  SZ EP       1935 59.13                             140     0.210  108  20 
 BRI  SZ ES   1   1936 17.05                             140    -0.1 7  108  20 
 GRA  SZ IP       1936  0.44                             136     0.110  125  16 
 GRA  SZ ES   1   1936 19.96                             136     0.3 7  125  16 
 GRA  SZ I        1936 21.08       308.1 0.21                           125  16 
 OCA  SZ EP       1936  3.18                             128    -0.4 9  160 352 
 OCA  SZ ES   1   1936 24.48                             128    -0.9 7  160 352 
 OCA  SZ I        1936 29.43       171.3 0.16                           160 352 
 NOR  SZ EP   1   1936 11.04                             117    -0.2 6  237 235 
 NOR  SN ES   1   1936 38.28                             117    -0.8 6  237 235 
 ROSC BZ EP   1   1936 14.59                             115     1.0 6  254 211 
 ROSC BN ES   1   1936 44.25                             115     1.0 6  254 211 
 VIL  SZ EP   1   1936 18.82                             111     0.0 5  304 192 
 VIL  SN ES   1   1936 52.12                             111    -0.5 5  304 192 
 VIL  SZ I        1937  2.49        61.3 0.47                           304 192 
 DBB  SZ EP   1   1936 22.94                             108    -0.2 5  342 274 
 TOL  SZ EP   1   1936 24.82                             108     1.0 5  345 225 
 PRA  HZ EP   1   1936 28.32                             106    -0.8 4  393 210 
 PRA  HN ES   1   1937 10.81                             106     0.0 4  393 210 
 SJA  SZ EP   1   1936 28.99                             105    -1.1 4  401 193 
                                                                                
