 2015  614 1204 34.6 L   6.540 -73.470112.7  RSN 20 0.5 2.5LRSN                1
 GAP= 69        1.07       2.1     2.9  5.1 -0.1077E+01  0.5450E+01  0.1019E+01E
 Epicentro: EL CARMEN - SANTANDER                                              3
 ACTION:UPD 15-09-10 22:12 OP:cam  STATUS:               ID:20150614120434 L   I
 OLDACT:REG 15-06-14 20:41 OP:ak   STATUS:               ID:20150614115749     3
 2015-06-14-1157-49M.COL___315                                                 6
 STAT SP IPHASW D HRMM SECON CODA AMPLIT PERI AZIMU VELO AIN AR TRES W  DIS CAZ7
 BAR2 EZ IP     C 12 4 51.18                             163    0.6610 32.3  80 
 BAR2 EZ ES       12 5  2.88                             163   -0.0710 32.3  80 
 BRR  HZ IP     C 12 4 51.87                             146   -0.1810 68.2 337 
 BRR  HN ES       12 5  5.78                             146    0.1010 68.2 337 
 BRR  HZ I        12 5 12.64        93.0 0.14            141           68.2 337 
 RUS  HZ EP       12 4 54.18                             141    0.3410 83.4 149 
 RUS  HE ES       12 5  9.13                             141    0.2610 83.4 149 
 RUS  HZ I        12 5 11.40        38.4 0.28            140           83.4 149 
 SPBC HZ EP       12 4 56.10                             130   -0.2110  119 214 
 SPBC HN ES       12 5 12.68                             130   -0.5910  119 214 
 SPBC HZ I        12 5 14.53        75.0 0.18            128            119 214 
 PAM  SZ EP       12 4 56.98                             129   -0.2510  123  44 
 PAM  SN ES       12 5 14.91                             129    0.0010  123  44 
 PAM  SZ I        12 5 17.00        42.4 0.36            125            123  44 
 ZAR  HZ EP       12 5  3.27                             116    0.16 9  186 305 
 ZAR  HN ES       12 5 26.10                             116    0.72 9  186 305 
 ZAR  HZ I        12 5 27.67       130.9 0.34            113            186 305 
 OCA  HZ EP       12 5  3.03                             116   -0.55 9  189   5 
 OCA  HN ES       12 5 26.20                             116   -0.01 9  189   5 
 OCA  HZ I        12 5 35.04       101.4 0.28            112            189   5 
 NOR  HZ EP       12 5  2.97                             116   -0.50 9  189 235 
 NOR  HN ES       12 5 25.09                             116   -0.93 9  189 235 
 NOR  HZ I        12 5 28.32        47.1 0.18            114            189 235 
 ROSC BZ EP   4   12 5  8.37                             113    2.09 0  210 207 
 ROSC BN ES   4   12 5 33.82                             113    2.81 0  210 207 
 ROSC BZ I        12 5 37.88        18.2 0.45            111            210 207 
 CHI  HZ EP       12 5  6.62                             113   -0.02 8  213 188 
 CHI  HN ES       12 5 31.91                             113    0.25 8  213 188 
 HEL  HZ EP       12 5  8.30                             111   -0.30 8  231 260 
 HEL  HN ES       12 5 34.85                             111   -0.29 8  231 260 
 HEL  HZ I        12 5 40.88        25.3 0.30            108            231 260 
 GUY2CHZ EP       12 5 12.11                             109    0.59 8  255 235 
 GUY2CHE ES       12 5 41.27                             109    0.93 8  255 235 
 GUY2CHZ I        12 5 46.70        20.8 0.38                           255 235 
 SML  HZ EP       12 5 10.97                             108   -0.34 8  259 345 
 SML  HN ES       12 5 40.22                             108    0.25 8  259 345 
 URE  HZ EP   4   12 5 10.48                             108   -1.51 0  264 301 
 URE  HN ES   4   12 5 38.52                             108   -2.65 0  264 301 
 URE  HZ I        12 5 46.67        49.0 0.34            105            264 301 
 CBOC HZ EP       12 5 15.49                             106    0.18 7  291 255 
 CBOC HE ES       12 5 46.18                             106   -0.91 7  291 255 
 CBOC HZ I        12 5 49.46         8.4 0.42            103            291 255 
 PTGC HZ EP       12 5 15.71                             105   -0.23 7  298 150 
 PTGC HN ES   1   12 5 47.59                             105   -0.61 5  298 150 
 ANIL HN ES   1   12 5 52.32                             104    0.63 5  312 223 
 PRA  HZ EP   1   12 5 22.63                             102    0.54 5  350 207 
 PRA  HN ES       12 5 58.79                             102   -0.37 6  350 207 
 PRA  HZ I        12 6  7.40        12.2 0.40            100            350 207 
 ORTC HZ EP       12 5 23.01                             102    0.74 6  351 214 
 ORTC HN ES       12 6  0.28                             102    0.80 6  351 214 
 ORTC HZ I        12 6  3.78         6.7 0.22             99            351 214 
 SJC  HZ EP   4   12 5 27.81                              99   -2.29 0  416 333 
 SJC  HN ES   4   12 6  9.52                              99   -3.89 0  416 333 
 SJC  HZ I        12 6 15.04         6.2 0.49             96            416 333 
                                                                                
