 2015  914 1215 54.9 L   6.807 -73.127152.5  RSN  8 0.4 2.0LRSN                1
 GAP=220        1.06       3.7     6.2  6.7  0.1442E+01  0.1083E+01 -0.1460E+00E
 Epicentro: LOS SANTOS - SANTANDER                                             3
 ACTION:UPD 15-10-28 16:26 OP:cam  STATUS:               ID:20150914121554 L   I
 OLDACT:REG 15-09-14 20:41 OP:drio STATUS:               ID:20150914120749     3
 2015-09-14-1207-49M.COL___329                                                 6
 STAT SP IPHASW D HRMM SECON CODA AMPLIT PERI AZIMU VELO AIN AR TRES W  DIS CAZ7
 BAR2 EZ EP       1216 15.38                             170    0.0610 24.5 195 
 BAR2 EZ ES       1216 30.94                             170   -0.3410 24.5 195 
 BAR2 EZ I        1216 33.37        12.0 0.24            171           24.5 195 
 BRR  HZ EP       1216 17.42                             153    0.6010 72.7 297 
 BRR  HN ES       1216 34.40                             153    0.4510 72.7 297 
 PTB  HZ EP       1216 22.30                             133   -0.27 9  150 259 
 PTB  HN ES       1216 43.51                             133   -0.69 9  150 259 
 PTB  HZ I        1216 45.41        11.9 0.14            133            150 259 
 SPBC HZ EP     C 1216 24.35                             130    0.30 9  165 219 
 SPBC HN ES       1216 46.92                             130    0.09 9  165 219 
 SPBC HZ I        1216 49.81        15.4 0.12            130            165 219 
 ZAR  HZ EP       1216 27.74                             124   -0.18 8  206 292 
 ZAR  HE ES       1216 54.50                             124    0.80 8  206 292 
 ZAR  HZ I        1216 59.17         8.1 0.24            123            206 292 
 NOR  HE ES       1216 59.32                             120   -0.25 8  237 235 
 SML  HZ EP       1216 31.30                             119   -0.59 8  244 335 
 SML  HN ES       1217  0.29                             119   -0.48 8  244 335 
 SML  HZ I        1217  7.04        13.9 0.10            119            244 335 
 CHI  HZ EP       1216 33.51                             118    0.44 8  250 196 
 CHI  HE ES       1217  2.63                             118   -0.25 8  250 196 
 CHI  HZ I        1217  7.89         3.1 0.48            119            250 196 
                                                                                
