 2017  614 1306 49.4 L   6.853 -73.143154.6  RSN 20 0.8 2.7LRSN                1
 GAP=104        1.35       4.2     3.8  7.8  0.4440E+01  0.5541E+00 -0.9186E+00E
 Epicentro: LOS SANTOS - SANTANDER                                             3
 ACTION:UPD 17-09-14 16:52 OP:jn   STATUS:               ID:20170614130649 L   I
 OLDACT:UP  17-07-05 18:52 OP:nlst STATUS:               ID:20170614130649 L   3
 OLDACT:UP  17-06-14 22:57 OP:dani STATUS:               ID:20170614125741d    3
 OLDACT:UP  17-06-14 22:54 OP:dani STATUS:               ID:20170614125741d    3
 OLDACT:UP  17-06-14 22:54 OP:dani STATUS:               ID:20170614125741d    3
 OLDACT:UP  17-06-14 22:54 OP:dani STATUS:               ID:20170614125741d    3
 OLDACT:DUP 17-06-14 22:44 OP:dani STATUS:               ID:20170614125741d    3
 2017-06-14-1258-00M.COL___356                                                 6
 STAT SP IPHASW D HRMM SECON CODA AMPLIT PERI AZIMU VELO AIN AR TRES W  DIS CAZ7
 BRR  HZ EP     C 13 7 12.14                             155    0.7510 68.8 294 
 BRR  HN ES       13 7 29.12                             155    0.5710 68.8 294 
 BRR  HZ I        13 7 30.21       103.5 0.14            151           68.8 294 
 PTB  HZ EP       13 7 16.88                             134   -0.36 9  149 257 
 PTB  HN ES   3   13 7 37.79                             134   -1.17 2  149 257 
 PTB  HZ I        13 7 40.09        59.8 0.16            129            149 257 
 TAM  HZ IP     D 13 7 18.58                             132    0.65 9  156 107 
 TAM  HN ES       13 7 39.89                             132   -0.28 9  156 107 
 TAM  HZ I        13 7 43.87        20.6 0.22            130            156 107 
 SPBC HZ EP       13 7 19.31                             130    0.27 9  168 218 
 SPBC HE ES       13 7 41.31                             130   -0.85 9  168 218 
 SPBC HZ I        13 7 44.29        64.2 0.36            126            168 218 
 YPLC HZ IP     D 13 7 20.62                             128    0.27 9  182 152 
 YPLC HN ES       13 7 44.48                             128    0.00 9  182 152 
 YPLC HZ I        13 7 46.90        29.5 0.50            124            182 152 
 ZAR  HZ EP   9   13 7 23.33                             125    1.08 0  202 291 
 ZAR  HN ES       13 7 49.36                             124    0.41 9  202 291 
 ZAR  HZ I        13 7 55.05        74.3 0.30            121            202 291 
 TABC EZ EP   3   13 7 28.12                             121    1.88 2  235 210 
 TABC EZ I        13 8  2.00        27.3 0.34            117            235 210 
 NOR  HZ EP       13 7 26.39                             120    0.34 8  238 233 
 NOR  HN ES   3   13 7 53.03                             120   -1.61 2  238 233 
 NOR  HZ I        13 7 55.99        37.1 0.30            116            238 233 
 CHI  HZ EP       13 7 29.16                             118    0.93 8  254 195 
 CHI  HN ES       13 7 58.21                             118   -0.30 8  254 195 
 CHI  HZ I        13 8  3.85        11.1 0.26            115            254 195 
 ROSC BZ EP   9   13 7 31.38                             118    2.80 0  258 210 
 ROSC BN ES       13 8  1.58                             116   -0.36 8  258 210 
 ROSC BZ I        13 8  5.94        21.5 0.52            114            258 210 
 HEL  HZ EP   4   13 7 32.70                             116    2.42 0  274 255 
 HEL  HN ES       13 8  1.35                             116   -0.81 8  274 255 
 HEL  HZ I        13 8  9.43        26.1 0.48            113            274 255 
 URE  HZ EP       13 7 30.57                             115   -0.14 7  282 291 
 URE  HE ES       13 8  2.45                             115   -0.48 7  282 291 
 URE  HZ I        13 8 10.62        34.4 0.20            112            282 291 
 VIL  EZ EP       13 7 34.33                             113    0.44 7  309 191 
 VIL  EN ES       13 8  8.81                             113    0.21 7  309 191 
 VIL  EZ I        13 8 12.86        25.5 0.28            110            309 191 
 PTGC HZ EP       13 7 33.46                             113   -0.82 7  314 159 
 PTGC HE ES   1   13 8  6.55                             113   -2.73 5  314 159 
 PTGC HZ I        13 8  9.25        23.4 0.44            110            314 159 
 ELA  HN EP   9   13 7 35.97                             112   -1.13 0  333 229 
 ELA  HE ES       13 8 12.97                             111   -0.20 7  333 229 
 CBOC HN EP       13 7 37.53                             111    0.59 7  336 251 
 CBOC HE ES       13 8 14.75                             111    0.73 7  336 251 
 CBOC HN I        13 8 19.81        25.1 0.35            108            336 251 
 DBB  EZ EP   3   13 7 39.02                             111    1.78 2  339 273 
 DBB  EN ES       13 8 13.97                             111   -0.58 7  339 273 
 DBB  EZ I        13 8 17.29        20.2 0.46            108            339 273 
 ORTC HZ EP       13 7 45.22                             108    1.01 6  400 216 
 ORTC HN ES   3   13 8 29.21                             108    2.25 1  400 216 
 ORTC HZ I        13 8 33.33         9.7 0.54            105            400 216 
 SJC  HZ EP       13 7 44.45                             107   -0.26 6  404 326 
 SJC  HN ES       13 8 26.54                             107   -1.31 6  404 326 
 SJC  HZ I        13 8 30.26        11.7 0.52            105            404 326 
 CRJC HN EP       13 7 50.40                             105   -1.07 5  462   4 
 CRJC HE ES   4   13 8 36.40                             105   -3.48 0  462   4 
 CRJC HN I        13 8 49.05        18.3 0.43            103            462   4 
                                                                                
