 2010 1214 1440 44.2 L   6.804 -72.929139.6  RSN  4 0.2 1.6LRSN                1
 GAP=183        0.52       4.3    19.8  8.7 -0.3368E+02 -0.3487E+02 -0.5224E+01E
 Epicentro: CEPITA - SANTANDER                                                 3
 ACTION:UP  11-01-14 15:24 OP:pat  STATUS:               ID:20101214144044 L   I
 2010-12-14-1436-04S.COL___137                                                 6
 STAT SP IPHASW D HRMM SECON CODA AMPLIT PERI AZIMU VELO SNR AR TRES W  DIS CAZ7
 BAR2 SZ EP   1   1441  3.40                             164    -0.1 7   37 230 
 BAR2 SZ ES   2   1441 18.02                             164    -0.5 5   37 230 
 BAR2 SZ I        1441 21.40        13.6 0.45                            37 230 
 BTL  SZ EP       1441  3.77                             163     0.210   39 289 
 RUS  HZ EP   1   1441  7.40                             142    -0.1 7  102 190 
 RUS  HE ES   1   1441 25.81                             142     0.2 7  102 190 
 RUS  HZ I        1441 26.79         3.9 0.35                           102 190 
 GRA  SZ EP   2   1441  8.15                             137    -0.3 5  120   7 
 GRA  SZ ES   2   1441 27.57                             137     0.2 5  120   7 
 GRA  SZ I        1441 28.89         8.2 0.36                           120   7 
                                                                                
