 2013 1214 1705 47.5 L   6.807 -73.118142.8  RSN  8 0.4 2.1LRSN                1
 GAP=140        0.98       4.0     6.1  9.0 -0.1649E+01  0.3319E+02 -0.7082E+01E
 Epicentro: LOS SANTOS - SANTANDER                                             3
 ACTION:UPD 14-01-13 10:18 OP:ep   STATUS:               ID:20131214170547 L   I
 OLDACT:UP  13-12-14 16:07 OP:cam  STATUS:               ID:20131214170000     3
 OLDACT:REG 13-12-14 15:13 OP:cam  STATUS:               ID:20131214170000     3
 2013-12-14-1700-00M.COL___285                                                 6
 STAT SP IPHASW D HRMM SECON CODA AMPLIT PERI AZIMU VELO AIN AR TRES W  DIS CAZ7
 BAR2 SZ EP       17 6  6.86                             170    0.0810 24.7 197 
 BAR2 SZ ES       17 6 21.45                             170   -0.3910 24.7 197 
 BAR2 SZ I        17 6 22.46        46.7 0.22            167           24.7 197 
 BRR  HZ IP     C 17 6  8.76                             151    0.3210 73.5 297 
 BRR  HE ES   4   17 6 25.77                             151    0.98 0 73.5 297 
 BRR  HZ I        17 6 31.68        17.5 0.12            148           73.5 297 
 PAM  SN ES       17 6 26.59                             151    0.4010 74.9  38 
 RUS  HZ EP   1   17 6 11.38                             143    0.40 7  101 178 
 RUS  HN ES       17 6 29.08                             143   -0.2310  101 178 
 RUS  HZ I        17 6 30.04         5.7 0.24            147            101 178 
 PTB  HZ EP       17 6 13.77                             131   -0.72 9  151 259 
 PTB  HN ES   4   17 6 34.29                             131   -1.27 0  151 259 
 ZAR  HZ EP   4   17 6 21.28                             121    1.29 0  207 292 
 ZAR  HN ES       17 6 45.76                             121    0.41 8  207 292 
 ZAR  HZ I        17 6 49.10        14.8 0.40            123            207 292 
 NOR  HZ EP   4   17 6 24.67                             117    1.32 0  238 235 
 NOR  HN ES       17 6 51.79                             117    0.47 8  238 235 
 NOR  HZ I        17 6 56.59         5.3 0.16            120            238 235 
 SML  HZ EP   1   17 6 23.81                             117   -0.19 6  244 335 
 SML  HN ES       17 6 51.99                             117   -0.50 8  244 335 
 SML  HZ I        17 6 54.10        20.0 0.10            120            244 335 
 HEL  HZ EP   4   17 6 28.20                             114    0.32 0  275 256 
 GUY2CHZ EP   4   17 6 32.95                             111    1.68 0  304 235 
 SJC  HZ EP   4   17 6 41.91                             105   -1.15 0  410 327 
                                                                                
