 2010  514 1734 25.8 L   6.794 -72.945131.8  RSN  5 0.3 2.3LRSN                1
 GAP=181        0.60       4.3     7.5  7.3 -0.9261E+01  0.2033E+01  0.1553E+01E
 Epicentro: CEPITA - SANTANDER                                                 3
 *PRA-ANIL                                                                     3
 ACTION:UP  10-08-24 10:05 OP:vdl  STATUS:               ID:20100514173426 L   I
 2010-05-14-1732-35S.COL___107                                                 6
 STAT SP IPHASW D HRMM SECON CODA AMPLIT PERI AZIMU VELO AIN AR TRES W  DIS CAZ7
 BAR2 SZ EP   1   1734 43.84                             164    -0.3 7   35 230 
 BAR2 SZ ES   2   1734 58.50                             164     0.2 5   35 230 
 BRR  HZ EP   1   1734 46.53                             142    -0.3 7   92 292 
 BRR  HZ I        1734 48.49        63.0 0.19                            92 292 
 BRR  HN ES   2   1735  3.13                             142    -0.2 5   92 292 
 RUS  HZ EP   1   1734 48.01                             140    -0.3 7  101 189 
 RUS  HE ES   2   1735  6.17                             140     0.4 5  101 189 
 GRA  SZ EP   1   1734 49.65                             134     0.1 7  122   7 
 GRA  SZ ES   2   1735  8.47                             134     0.5 5  122   7 
 RREF BZ EP   1   1735 13.93                             107     0.6 5  339 232 
 RREF BN ES   2   1735 50.96                             107     0.5 3  339 232 
 RREF BZ I        1735 56.38         4.3 0.52                           339 232 
                                                                                
