 2017  214 1243 45.0 L   6.797 -73.136141.5  RSN 13 0.4 2.8LRSN                1
 GAP=100        0.90       3.2     2.7  5.0 -0.8209E-01  0.2995E+01  0.4641E+01E
 Epicentro: LOS SANTOS - SANTANDER                                             3
 ACTION:UPD 17-05-24 15:36 OP:jn   STATUS:               ID:20170214124345 L   I
 OLDACT:DUP 17-02-14 23:54 OP:cara STATUS:               ID:20170214123746d    3
 OLDACT:REG 17-02-14 20:11 OP:cara STATUS:               ID:20170214123745     3
 2017-02-14-1238-00M.COL___352                                                 6
 STAT SP IPHASW D HRMM SECON CODA AMPLIT PERI AZIMU VELO AIN AR TRES W  DIS CAZ7
 BAR2 EZ IP     D 1244  4.22                             170    0.1210 23.3 193 
 BAR2 EZ ES       1244 18.91                             170   -0.1110 23.3 193 
 BAR2 EZ I        1244 20.31       168.5 0.38            168           23.3 193 
 BRR  HZ EP       1244  6.09                             151    0.3510 72.3 298 
 BRR  HE ES       1244 21.89                             151   -0.0410 72.3 298 
 BRR  HZ I        1244 26.26        95.7 0.26            151           72.3 298 
 PAM  EZ EP       1244  7.01                             150    0.2910 76.9  39 
 PAM  HN ES       1244 24.01                             150    0.3310 76.9  39 
 PAM  EZ I        1244 26.42       134.0 0.52            154           76.9  39 
 RUS  HZ EP       1244  8.20                             143   -0.1010  100 177 
 RUS  HN ES       1244 26.71                             143    0.2310  100 177 
 RUS  HZ I        1244 28.46        57.3 0.44            143            100 177 
 PTB  HZ EP       1244 11.02                             131   -0.68 9  149 259 
 PTB  HN ES       1244 32.28                             131   -0.26 9  149 259 
 TAM  HZ IP     D 1244 12.70                             130    0.47 9  154 105 
 TAM  HE ES       1244 32.78                             130   -0.69 9  154 105 
 TAM  HZ I        1244 33.54        37.5 0.36            132            154 105 
 ZAR  HZ EP       1244 16.87                             121   -0.40 9  205 292 
 ZAR  HE ES       1244 42.37                             121   -0.08 9  205 292 
 ZAR  HZ I        1244 47.33        39.4 0.18            122            205 292 
 CHI  HZ EP       1244 22.34                             116   -0.11 8  249 195 
 CHI  HE ES       1244 51.25                             116   -0.43 8  249 195 
 CHI  HZ I        1244 55.24        40.4 0.58            117            249 195 
 ROSC BZ EP   4   1244 24.47                             116    1.56 0  253 211 
 ROSC BE ES   4   1244 49.69                             116   -2.80 0  253 211 
 ROSC BZ I        1244 58.69        83.2 0.40            116            253 211 
 PTGC HZ EP   4   1244 27.43                             111   -1.15 0  308 159 
 PTGC HE ES   4   1244 59.71                             111   -2.87 0  308 159 
 PTGC HZ I        1245  5.68        37.2 0.28            112            308 159 
 ELA  HZ EP   4   1244 33.14                             109    1.41 0  330 230 
 ELA  HE ES       1245  8.74                             109    0.55 7  330 230 
 ELA  HZ I        1245 16.95        26.0 0.56            110            330 230 
 ANIL HZ EP   4   1244 35.67                             108    0.98 0  358 225 
 ANIL HE ES       1245 14.17                             108    0.71 6  358 225 
 ORTC HZ EP       1244 38.58                             106   -0.23 6  396 216 
 ORTC HE ES       1245 21.28                             106    0.49 6  396 216 
 ORTC HZ I        1245 25.62        24.6 0.22            106            396 216 
                                                                                
