 2017 1214 1817 58.8 L   6.761 -73.133139.6  RSN  4 0.1 1.5LRSN                1
 GAP=159        0.31       2.8     1.7  3.0 -0.1650E+01  0.1980E+01 -0.1310E+01E
 Epicentro: LOS SANTOS - SANTANDER                                             3
 ACTION:UPD 18-01-04 13:20 OP:rebc STATUS:               ID:20171214181758 L   I
 OLDACT:REG 17-12-14 21:30 OP:edw  STATUS:               ID:20171214181456     3
 2017-12-14-1818-00M.COL___482                                                 6
 STAT SP IPHASW D HRMM SECON CODA AMPLIT PERI AZIMU VELO AIN AR TRES W  DIS CAZ7
 BAR2 EZ EP       1818 17.67                             172    0.0910 19.5 196 
 BAR2 EZ ES       1818 32.28                             172    0.0310 19.5 196 
 BAR2 EZ I        1818 34.34         5.0 0.34            172           19.5 196 
 PAM  EZ EP       1818 20.51                             149    0.0210 79.9  37 
 PAM  EN ES       1818 37.36                             149   -0.0710 79.9  37 
 PAM  EZ I        1818 39.34         8.9 0.52            151           79.9  37 
 PTB  HZ EP       1818 25.20                             130   -0.10 9  148 261 
 PTB  HE ES       1818 45.94                             130   -0.05 9  148 261 
 PTB  HZ I        1818 48.56         3.1 0.14            132            148 261 
 ZAR  HE ES       1818 56.44                             121    0.07 8  207 293 
 SJC  HZ EP   4   1818 52.46                             104   -2.19 0  414 327 
 SJC  HN ES   4   1819 33.91                             104   -4.33 0  414 327 
                                                                                
