 2017 1114 1505 10.3 L   6.773 -73.190133.6  RSN 11 0.4 1.9LRSN                1
 GAP=109        0.92       3.0     3.3  5.1  0.2168E+01  0.3280E+01  0.4423E+01E
 Epicentro: LOS SANTOS - SANTANDER                                             3
 ACTION:UPD 17-12-12 19:55 OP:rebc STATUS:               ID:20171114150510 L   I
 OLDACT:REG 17-11-14 21:16 OP:lv   STATUS:               ID:20171114145737     3
 2017-11-14-1458-00M.COL___453                                                 6
 STAT SP IPHASW D HRMM SECON CODA AMPLIT PERI AZIMU VELO AIN AR TRES W  DIS CAZ7
 BAR2 EZ EP       15 5 28.41                             171    0.0410 20.0 178 
 BAR2 EZ ES       15 5 42.04                             171   -0.4510 20.0 178 
 BAR2 EZ I        15 5 43.88        20.4 0.40            169           20.0 178 
 BRR  HZ EP       15 5 30.36                             151    0.4010 68.5 303 
 BRR  HN ES       15 5 45.30                             151   -0.0110 68.5 303 
 BRR  HZ I        15 5 48.73        19.4 0.22            151           68.5 303 
 PAM  EZ EP       15 5 31.41                             147   -0.1510 82.9  41 
 PAM  EN ES       15 5 48.12                             147   -0.0510 82.9  41 
 PAM  EZ I        15 5 50.10        10.5 0.64            151           82.9  41 
 RUS  HZ EP       15 5 32.43                             142   -0.2210 98.0 173 
 RUS  HN ES       15 5 50.24                             142    0.1310 98.0 173 
 RUS  HZ I        15 5 51.85        11.9 0.42            142           98.0 173 
 PTB  HZ EP       15 5 35.20                             130   -0.57 9  142 260 
 PTB  HN ES       15 5 55.45                             130   -0.21 9  142 260 
 PTB  HZ I        15 6  1.17         8.7 0.16            130            142 260 
 YPLC HZ IP     D 15 5 38.79                             124   -0.40 9  177 149 
 YPLC HN ES       15 6  2.66                             124    0.92 9  177 149 
 YPLC HZ I        15 6  4.82         7.8 0.34            126            177 149 
 ZAR  HZ EP       15 5 41.65                             120    0.05 9  201 293 
 ZAR  HE ES       15 6  6.84                             120    0.80 9  201 293 
 ZAR  HZ I        15 6 12.13        16.3 0.34            121            201 293 
 CHI  HZ EP       15 5 46.82                             115   -0.04 8  244 194 
 CHI  HN ES       15 6 15.55                             115    0.15 8  244 194 
 CHI  HZ I        15 6 19.90         2.4 0.26            116            244 194 
 URE  HZ EP   4   15 5 53.69                             111    3.30 0  280 293 
 URE  HN ES   4   15 6 18.80                             111   -2.89 0  280 293 
 URE  HZ I        15 6 21.99         6.5 0.12            112            280 293 
 GUY2CHZ EP   9   15 5 53.97                             110    1.29 0  295 235 
 GUY2CHN ES       15 6 27.23                                    0.18 7  295 235 
 GUY2CHZ I        15 6 35.58         4.1 0.54                           295 235 
 PRA  HZ EP       15 6  2.79                             105   -0.01 6  387 209 
 PRA  HN ES       15 6 43.43                             105   -0.34 6  387 209 
 PRA  HZ I        15 6 51.96         3.2 0.32            106            387 209 
                                                                                
