 2013  514 1948 31.8 L   6.787 -73.151147.7  RSN  7 0.3 1.7LRSN                1
 GAP=136        0.72       4.4     4.1  5.2 -0.6095E+01  0.3351E+01  0.5676E+01E
 Epicentro: LOS SANTOS - SANTANDER                                             3
 ACTION:UPD 13-06-20 09:50 OP:ep   STATUS:               ID:20130514194831 L   I
 2013-05-14-1940-00M.COL___256                                                 6
 STAT SP IPHASW D HRMM SECON CODA AMPLIT PERI AZIMU VELO AIN AR TRES W  DIS CAZ7
 BAR2 SZ EP   1   1948 51.63                             171    0.03 7 21.8 189 
 BAR2 SZ ES   1   1949  7.28                             171    0.21 7 21.8 189 
 BAR2 SZ I        1949  8.10        12.3 0.26            170           21.8 189 
 GIR2 SZ EP   1   1948 51.67                             167   -0.04 7 32.6 352 
 GIR2 SZ ES       1949  6.85                             167   -0.4110 32.6 352 
 GIR2 SZ I        1949  8.49        13.8 0.56            168           32.6 352 
 BRR  HZ EP   1   1948 53.45                             153    0.31 7 71.3 300 
 BRR  HN ES   1   1949 10.48                             153    0.68 7 71.3 300 
 PAM  SZ EP       1948 54.46                             151    0.1810 78.9  39 
 PAM  SN ES   1   1949 11.80                             151   -0.04 7 78.9  39 
 PAM  SZ I        1949 13.52        11.8 0.42            153           78.9  39 
 RUS  HZ EP       1948 55.58                             144   -0.0310 99.2 176 
 RUS  HN ES   1   1949 14.17                             144   -0.04 7 99.2 176 
 RUS  HZ I        1949 15.46         5.4 0.34            145           99.2 176 
 PTB  HZ EP       1948 58.36                             133   -0.46 9  147 259 
 PTB  HN ES   1   1949 19.39                             133   -0.52 7  147 259 
 NOR  HZ EP   1   1949  7.61                             119    0.14 6  233 235 
 NOR  HN ES       1949 35.68                             119    0.36 8  233 235 
 NOR  HZ I        1949 39.21         3.8 0.12            120            233 235 
                                                                                
