 2016  314 1834  8.7 L   6.785 -73.175136.9  RSN  4 0.2 1.3LRSN                1
 GAP=141        0.62       4.1     3.8  6.0 -0.6713E+01  0.9680E+01 -0.7401E+01E
 Epicentro: LOS SANTOS - SANTANDER                                             3
 ACTION:UPD 16-05-13 21:24 OP:cam  STATUS:               ID:20160314183408 L   I
 OLDACT:REG 16-03-14 20:57 OP:cara STATUS:               ID:20160314182749     3
 2016-03-14-1827-49M.COL___307                                                 6
 STAT SP IPHASW D HRMM SECON CODA AMPLIT PERI AZIMU VELO AIN AR TRES W  DIS CAZ7
 BAR2 EZ IP       1834 26.98                             171   -0.2010 21.3 182 
 BAR2 EZ ES       1834 41.25                             171   -0.3810 21.3 182 
 BAR2 EZ I        1834 43.25         5.8 0.38            172           21.3 182 
 PAM  EZ IP       1834 30.12                             148   -0.0310 80.8  41 
 PAM  EE ES       1834 47.17                             148    0.2510 80.8  41 
 PAM  EZ I        1834 48.96         6.0 0.56            150           80.8  41 
 RUS  HE ES       1834 49.46                             142    0.2510 99.2 174 
 RUS  HZ I        1834 50.36         1.8 0.20            145           99.2 174 
 PTB  HZ EP       1834 34.52                             131   -0.06 9  144 259 
 PTB  HN ES       1834 54.99                             131    0.18 9  144 259 
 PTB  HZ I        1834 57.00         2.8 0.30            132            144 259 
                                                                                
