 2011  214 1551 13.2 L   6.779 -73.006139.5  RSN  5 0.1 1.7LRSN                1
 GAP=175        0.42       2.7    11.0  4.4 -0.1402E+02 -0.1912E+02  0.3149E+00E
 Epicentro: CEPITA - SANTANDER                                                 3
 ACTION:UP  11-03-28 15:08 OP:jfem STATUS:               ID:20110214155113 L   I
 2011-02-14-1549-19S.COL___136                                                 6
 STAT SP IPHASW D HRMM SECON CODA AMPLIT PERI AZIMU VELO SNR AR TRES W  DIS CAZ7
 BAR2 SZ EP       1551 32.11                             168    -0.110   29 224 
 BAR2 SZ I        1551 32.43        11.2 0.10                            29 224 
 BAR2 SZ ES   1   1551 46.87                             168    -0.1 7   29 224 
 BTL  SZ EP       1551 32.38                             167     0.110   33 298 
 BTL  SZ ES   2   1551 47.32                             167     0.1 5   33 298 
 GIR2 SZ EP       1551 32.10                             164    -0.310   39 328 
 GIR2 SZ ES   2   1551 47.55                             164     0.2 5   39 328 
 RUS  HZ EP   1   1551 36.31                             143     0.2 7   98 185 
 RUS  HN ES   1   1551 54.10                             143     0.0 7   98 185 
 RUS  HZ I        1551 56.11         9.7 0.48                            98 185 
 GRA  SZ EP       1551 37.88                             136     0.110  124  10 
 GRA  SZ ES   1   1551 56.87                             136     0.0 7  124  10 
 GRA  SZ I        1551 58.75         7.0 0.26                           124  10 
                                                                                
