 2017 1014 1857 24.1 L   6.781 -73.148126.9  RSN  7 0.4 1.4LRSN                1
 GAP=137        1.12       4.7     4.8  7.3 -0.3802E+00  0.8044E+01 -0.1192E+01E
 Epicentro: LOS SANTOS - SANTANDER                                             3
 ACTION:UPD 17-11-07 19:31 OP:rebc STATUS:               ID:20171014185724 L   I
 OLDACT:DUP 17-10-14 22:33 OP:lv   STATUS:               ID:20171014184113d    3
 2017-10-14-1848-00M.COL___438                                                 6
 STAT SP IPHASW D HRMM SECON CODA AMPLIT PERI AZIMU VELO AIN AR TRES W  DIS CAZ7
 BAR2 EZ ES       1857 54.88                             170   -0.0210 21.2 190 
 BAR2 EZ I        1857 57.13         8.3 0.40            170           21.2 190 
 BRR  HZ EP       1857 42.96                             148   -0.3110 72.0 300 
 BRR  HN ES       1857 58.30                             148    0.0610 72.0 300 
 PAM  EZ EP       1857 44.05                             147   -0.3910 79.2  39 
 PAM  EN ES       1858  0.82                             147    0.5010 79.2  39 
 PAM  EZ I        1858  2.87         7.7 0.48            150           79.2  39 
 RUS  HZ EP       1857 45.74                             140   -0.1110 98.5 176 
 RUS  HN ES       1858  2.63                             140   -0.2110 98.5 176 
 RUS  HZ I        1858  5.36         2.8 0.28            143           98.5 176 
 PTB  HZ EP   9   1857 48.29                             128   -1.22 0  147 260 
 PTB  HN ES       1858  8.62                                    0.49 9  147 260 
 PTB  HZ I        1858 14.01         2.2 0.34            128            147 260 
 ZAR  HZ EP       1857 56.41                             118    0.99 9  205 293 
 ZAR  HN ES       1858 19.18                             118   -0.70 9  205 293 
 ZAR  HZ I        1858 24.94         6.3 0.24            119            205 293 
 NOR  HN ES       1858 25.96                             115    0.40 8  233 235 
                                                                                
