 2015 1014 1631 43.5 L   6.825 -73.192147.6  RSN  8 0.5 1.7LRSN                1
 GAP=134        1.01       3.8     4.7  6.5 -0.2641E+01  0.9518E+01  0.5272E+01E
 Epicentro: ZAPATOCA - SANTANDER                                               3
 ACTION:UPD 15-12-22 20:40 OP:cam  STATUS:               ID:20151014163143 L   I
 OLDACT:UP  15-10-15 00:49 OP:ak   STATUS:               ID:20151014162748     3
 OLDACT:UP  15-10-15 00:48 OP:ak   STATUS:               ID:20151014162748     3
 OLDACT:REG 15-10-14 20:47 OP:ak   STATUS:               ID:20151014162748     3
 2015-10-14-1627-48M.COL___321                                                 6
 STAT SP IPHASW D HRMM SECON CODA AMPLIT PERI AZIMU VELO AIN AR TRES W  DIS CAZ7
 BAR2 EZ EP       1632  3.42                             170   -0.0110 25.8 178 
 BAR2 EZ ES       1632 18.39                             170   -0.5710 25.8 178 
 BAR2 EZ I        1632 20.19         8.9 0.13            167           25.8 178 
 BRR  HZ EP       1632  5.12                             155    0.5610 65.3 299 
 BRR  HN ES       1632 21.58                             155    0.6110 65.3 299 
 PAM  EZ EP       1632  6.45                             151    0.4310 78.7  44 
 PAM  EN ES       1632 23.12                             151   -0.4510 78.7  44 
 PAM  EZ I        1632 25.86         5.4 0.52            154           78.7  44 
 ZAR  HZ EP   1   1632 15.01                             123   -0.49 6  198 292 
 ZAR  HN ES       1632 39.91                             123   -0.53 9  198 292 
 ZAR  HZ I        1632 44.15         4.2 0.11            124            198 292 
 NOR  HZ EP   1   1632 19.11                             119    0.01 6  232 233 
 NOR  HE ES       1632 46.95                             119    0.11 8  232 233 
 NOR  HZ I        1632 54.16         4.6 0.18            119            232 233 
 SML  HZ EP   1   1632 19.31                             118   -0.45 6  239 336 
 SML  HN ES   1   1632 48.46                             118    0.44 6  239 336 
 CHI  HZ EP       1632 21.54                             117    0.06 8  250 194 
 CHI  HN ES       1632 51.37                             117    0.28 8  250 194 
 CHI  HZ I        1632 57.35         2.8 0.56            118            250 194 
 GUY2CHZ EP   1   1632 25.95                             113   -0.99 5  299 234 
 GUY2CHE ES       1633  0.86                             113    0.07 7  299 234 
 GUY2CHZ I        1633 10.16         3.0 0.30                           299 234 
                                                                                
