 2012  814 1006 56.1 L   7.521 -73.055151.8  RSN  8 0.3 1.9LRSN                1
 GAP=137        0.66       4.0     3.6  4.8 -0.5818E+00  0.3697E+01  0.1764E+01E
 Epicentro: EL PLAYON - SANTANDER                                              3
 ACTION:UPD 12-09-10 11:56 OP:ep   STATUS:               ID:20120814100656 L   I
 2012-08-14-1000-00M.COL___217                                                 6
 STAT SP IPHASW D HRMM SECON CODA AMPLIT PERI AZIMU VELO AIN AR TRES W  DIS CAZ7
 PAM  SZ EP       10 7 17.50                             163    0.0610 44.1 117 
 PAM  SZ I        10 7 17.88        13.5 0.20                          44.1 117 
 PAM  SN ES       10 7 33.85                             163   -0.2110 44.1 117 
 GIR2 SZ EP       10 7 17.31                             160    0.1110 51.2 197 
 OCA  HZ EP   1   10 7 18.79                             149   -0.16 7 84.6 340 
 OCA  HN ES   1   10 7 36.55                             149   -0.19 7 84.6 340 
 OCA  HZ I        10 7 38.28        34.1 0.22                          84.6 340 
 BRR  HZ EP       10 7 18.95                             149    0.1510 85.8 238 
 BRR  HZ I        10 7 20.09        14.0 0.12                          85.8 238 
 BRR  HN ES       10 7 37.03                             149    0.5510 85.8 238 
 BAR2 SZ EP       10 7 20.41                             144    0.0610  104 188 
 BAR2 SZ ES   1   10 7 38.94                             144   -0.29 7  104 188 
 BAR2 SZ I        10 7 43.89        16.8 0.36                           104 188 
 RUS  HZ EP   1   10 7 26.90                             128   -0.35 7  180 181 
 PTB  HZ EP       10 7 27.74                             126    0.24 9  189 235 
 PTB  HN ES   1   10 7 51.27                             126   -0.69 7  189 235 
 PTB  HZ I        10 7 54.65         2.7 0.37                           189 235 
 ZAR  HZ EP   1   10 7 28.40                             124   -0.08 6  199 269 
 ZAR  HN ES   1   10 7 53.59                             124   -0.12 6  199 269 
 ZAR  HZ I        10 7 59.02         6.0 0.21                           199 269 
                                                                                
