 2016 1014 1247 37.7 L   6.571 -73.428119.0  RSN  8 0.3 2.0LRSN                1
 GAP=113        0.77       2.8     3.1  5.4  0.9288E+00  0.7012E+01  0.2168E+01E
 Epicentro: HATO - SANTANDER                                                   3
 ACTION:UPD 16-11-09 19:19 OP:rebc STATUS:               ID:20161014124737 L   I
 OLDACT:REG 16-10-14 20:16 OP:dnl  STATUS:               ID:20161014123728     3
 2016-10-14-1238-00M.COL___371                                                 6
 STAT SP IPHASW D HRMM SECON CODA AMPLIT PERI AZIMU VELO AIN AR TRES W  DIS CAZ7
 BAR2 EZ EP       1247 54.13                             166   -0.0810 27.3  85 
 BAR2 EZ ES       1248  6.93                             166   -0.1710 27.3  85 
 BAR2 EZ I        1248  8.67        51.8 0.24            171           27.3  85 
 BRR  HZ EP       1247 55.56                             148   -0.1810 67.1 332 
 BRR  HE ES       1248  9.96                             148    0.1310 67.1 332 
 BRR  HZ I        1248 10.85        19.9 0.38            150           67.1 332 
 RUS  HZ EP       1247 57.76                             143    0.1410 84.2 153 
 RUS  HN ES       1248 13.64                             143    0.4710 84.2 153 
 RUS  HZ I        1248 14.42        15.6 0.24            145           84.2 153 
 PTB  HZ EP   4   1247 57.96                             133   -1.43 0  114 268 
 PTB  HE ES       1248 16.24                             133   -0.0810  114 268 
 PTB  HZ I        1248 18.54        17.0 0.22            134            114 268 
 SPBC HZ EP       1247 59.91                             130   -0.5210  124 215 
 SPBC HN ES       1248 17.82                             130   -0.3610  124 215 
 SPBC HZ I        1248 20.99        14.6 0.18            131            124 215 
 ZAR  HZ EP       1248  7.23                             118    0.44 9  188 303 
 ZAR  HE ES       1248 29.47                             118   -0.02 9  188 303 
 ZAR  HZ I        1248 32.60        11.7 0.36            120            188 303 
 NOR  HZ EP   2   1248  6.68                             117   -0.88 4  195 235 
 NOR  HN ES       1248 31.04                             117    0.17 9  195 235 
 NOR  HZ I        1248 35.28         8.0 0.18            118            195 235 
 GUY2CHZ EP   2   1248 15.79                             110    0.24 4  261 235 
 GUY2CHE ES       1248 45.56                             110    0.47 8  261 235 
 GUY2CHZ I        1248 52.08         4.7 0.30                           261 235 
                                                                                
