 2015  314 1752 41.3 L   6.799 -73.167145.9  RSN  6 0.4 1.6LRSN                1
 GAP=134        0.93       4.8     5.4  7.2 -0.1035E+01  0.5663E+01 -0.4111E+01E
 Epicentro: LOS SANTOS - SANTANDER                                             3
 ACTION:UPD 15-04-30 16:25 OP:nd   STATUS:               ID:20150314175241 L   I
 OLDACT:REG 15-03-14 21:44 OP:spq  STATUS:               ID:20150314174748     3
 2015-03-14-1747-48M.COL___260                                                 6
 STAT SP IPHASW D HRMM SECON CODA AMPLIT PERI AZIMU VELO AIN AR TRES W  DIS CAZ7
 BAR2 EZ EP   1   1753  0.87                             171   -0.05 7 23.0 184 
 BAR2 EZ ES   1   1753 15.70                             171   -0.54 7 23.0 184 
 BAR2 EZ I        1753 16.82         7.4 0.46            172           23.0 184 
 BRR  HZ EP       1753  2.75                             153    0.4210 69.2 299 
 BRR  HN ES       1753 19.49                             153    0.7410 69.2 299 
 BRR  HZ I        1753 22.44        14.6 0.30            151           69.2 299 
 PAM  SZ EP     D 1753  3.75                             150    0.1510 78.9  41 
 PAM  SE ES       1753 20.80                             150   -0.2110 78.9  41 
 PAM  SZ I        1753 22.69         7.9 0.46            152           78.9  41 
 RUS  HZ EP   1   1753  5.25                             144    0.20 7  101 175 
 RUS  HN ES   1   1753 23.41                             144   -0.19 7  101 175 
 RUS  HZ I        1753 25.35         1.6 0.37            147            101 175 
 PTB  HZ EP   1   1753  7.82                             133   -0.23 7  145 259 
 PTB  HN ES   1   1753 28.35                             133   -0.58 7  145 259 
 PTB  HZ I        1753 31.84         3.0 0.14            132            145 259 
 SML  HZ EP   1   1753 17.45                             118   -0.36 6  243 336 
 SML  HN ES   1   1753 45.65                             118   -0.66 6  243 336 
 SML  HZ I        1753 52.98         6.5 0.26            118            243 336 
                                                                                
