 2017  514 1914 20.1 L   6.805 -73.154144.1  RSN 17 0.3 2.7LRSN                1
 GAP=111        0.74       2.3     2.4  4.7  0.2687E+00  0.2008E+01  0.4195E+01E
 Epicentro: LOS SANTOS - SANTANDER                                             3
 ACTION:UPD 17-06-16 13:36 OP:jn   STATUS:               ID:20170514191420 L   I
 OLDACT:REG 17-05-14 20:44 OP:osc  STATUS:               ID:20170514190121     3
 2017-05-14-1908-00M.COL___353                                                 6
 STAT SP IPHASW D HRMM SECON CODA AMPLIT PERI AZIMU VELO AIN AR TRES W  DIS CAZ7
 BRR  HZ IP     C 1914 41.48                             153    0.4510 70.1 299 
 BRR  HN ES       1914 57.23                             153   -0.1010 70.1 299 
 BRR  HZ I        1915  3.40        82.8 0.26            151           70.1 299 
 PAM  EZ IP     C 1914 42.40                             150    0.2310 77.6  40 
 PAM  EN ES       1914 59.61                             150    0.2410 77.6  40 
 PAM  EZ I        1915  1.86        69.4 0.56            158           77.6  40 
 PTB  HZ EP       1914 46.27                             132   -0.61 9  147 259 
 PTB  HN ES       1915  7.64                             132   -0.10 9  147 259 
 PTB  HZ I        1915 15.18        80.3 0.38            132            147 259 
 SPBC HZ EP       1914 48.23                             129   -0.25 9  163 219 
 SPBC HN ES       1915 10.52                             129   -0.07 9  163 219 
 SPBC HZ I        1915 13.49        75.3 0.28            129            163 219 
 YPLC HZ IP       1914 49.76                             126   -0.13 9  178 151 
 YPLC HN ES       1915 12.92                             126   -0.18 9  178 151 
 YPLC HZ I        1915 15.98        43.0 0.20            130            178 151 
 ZAR  HZ IP       1914 52.31                             122   -0.04 9  203 292 
 ZAR  HN ES       1915 17.00                             122   -0.48 9  203 292 
 ZAR  HZ I        1915 24.74       100.8 0.26            123            203 292 
 NOR  HZ EP       1914 55.40                             118   -0.31 8  234 234 
 NOR  HN ES       1915 23.17                             118   -0.29 8  234 234 
 NOR  HZ I        1915 31.51        46.0 0.28            119            234 234 
 CHI  HZ EP       1914 57.53                             117   -0.23 8  249 195 
 CHI  HN ES       1915 27.41                             117    0.30 8  249 195 
 CHI  HZ I        1915 36.74        21.6 0.44            119            249 195 
 ROSC BZ EP   4   1914 58.70                             116    0.55 0  253 211 
 ROSC BE ES       1915 27.99                             116    0.19 8  253 211 
 ROSC BZ I        1915 33.23        53.3 0.45            118            253 211 
 HEL  HZ E        1915  1.80                                            271 256 
 HEL  HZ IP   4   1915  1.80                             114    1.64 0  271 256 
 HEL  HN ES       1915 31.76                             114    0.37 8  271 256 
 HEL  HZ I        1915 38.86        25.7 0.26            116            271 256 
 VIL  EZ EP       1915  3.79                             112    0.29 7  304 191 
 VIL  EN ES       1915 36.97                             112   -0.36 7  304 191 
 VIL  EZ I        1915 43.87        31.6 0.32            114            304 191 
 PTGC HZ EP   4   1915  2.45                             111   -1.55 0  310 159 
 PTGC HE ES   4   1915 35.21                             111   -3.01 0  310 159 
 PTGC HZ I        1915 40.86        31.1 0.26            114            310 159 
 LL6C HN EP   4   1914 41.83                             110   -23.9 0  324 358 
 LL6C HE ES   4   1915 18.28                             110   -22.9 0  324 358 
 ELA  HZ EP   4   1915  8.54                             110    1.68 0  329 229 
 ELA  HN ES   4   1915 45.00                             110    1.69 0  329 229 
 ELA  HZ I        1915 52.11        24.1 0.46            111            329 229 
 CBOC HZ EP       1915  7.06                             110    0.18 7  333 252 
 CBOC HN ES       1915 44.19                             110    0.84 7  333 252 
 CBOC HZ I        1915 55.90         8.0 0.56            111            333 252 
 DBB  EZ EP       1915  7.58                             109    0.16 7  338 274 
 DBB  EN ES   4   1915 43.46                             109   -0.85 0  338 274 
 DBB  EZ I        1915 50.04        13.8 0.36            111            338 274 
 ORTC HZ EP   3   1915 14.52                             106    0.55 1  395 216 
 ORTC HN ES       1915 56.55                             106    0.58 6  395 216 
 ORTC HZ I        1916  3.25        13.0 0.76            108            395 216 
 SJC  HZ EP   4   1915 13.37                             105   -2.15 0  408 327 
 SJC  HN ES   4   1915 54.08                             105   -4.65 0  408 327 
 SJC  HZ I        1916  7.59         8.9 0.34            108            408 327 
                                                                                
