 2012 1014 1747 21.7 L   6.765 -73.097148.9  RSN  4 0.3 1.8LRSN                1
 GAP=172        0.56       7.9     6.3  6.7 -0.1258E+02 -0.2543E+01  0.6583E+00E
 Epicentro: LOS SANTOS - SANTANDER                                             3
 ACTION:UPD 12-11-22 17:03 OP:ep   STATUS:               ID:20121014174721 L   I
 2012-10-14-1740-00M.COL___230                                                 6
 STAT SP IPHASW D HRMM SECON CODA AMPLIT PERI AZIMU VELO AIN AR TRES W  DIS CAZ7
 BAR2 SZ EP   1   1747 41.40                             171   -0.30 7 21.3 206 
 BAR2 SZ ES   1   1747 57.44                             171    0.17 7 21.3 206 
 BAR2 SZ I        1747 58.06         6.5 0.25                          21.3 206 
 GIR2 SZ EP   2   1747 41.82                             166   -0.10 5 36.3 343 
 PAM  SZ EP   1   1747 44.76                             151    0.49 7 77.3  35 
 PAM  SN ES   1   1748  1.59                             151   -0.26 7 77.3  35 
 PAM  SN I        1748  3.15         9.6 0.23                          77.3  35 
 BRR  HZ EP   1   1747 43.46                             151   -0.14 7 77.8 299 
 BRR  HN ES   1   1748  0.74                             151    0.09 7 77.8 299 
 BRR  HN I        1748  1.51        31.1 0.16                          77.8 299 
                                                                                
