 2013  314 1156 51.7 L   6.770 -73.189146.4  RSN  5 0.2 1.7LRSN                1
 GAP=133        0.56       4.7     4.2  4.8  0.4023E+01  0.1252E+01 -0.3782E+01E
 Epicentro: VILLANUEVA - SANTANDER                                             3
 ACTION:UPD 13-04-09 14:02 OP:ep   STATUS:               ID:20130314115651 L   I
 2013-03-14-1150-00M.COL___243                                                 6
 STAT SP IPHASW D HRMM SECON CODA AMPLIT PERI AZIMU VELO AIN AR TRES W  DIS CAZ7
 BAR2 SZ EP       1157 11.10                             172   -0.2410 19.6 178 
 BAR2 SZ ES       1157 26.76                             172    0.1010 19.6 178 
 BAR2 SZ I        1157 27.61        10.8 0.33            171           19.6 178 
 BRR  HZ EP       1157 13.20                             153    0.4110 68.8 303 
 BRR  HN ES   1   1157 29.12                             153   -0.11 7 68.8 303 
 BRR  HN I        1157 32.43        11.5 0.23            153           68.8 303 
 PAM  SZ EP   1   1157 14.11                             149   -0.22 7 83.0  41 
 RUS  HZ EP   1   1157 15.56                             145    0.25 7 97.7 173 
 RUS  HN ES   1   1157 33.65                             145   -0.07 7 97.7 173 
 RUS  HN I        1157 35.79        10.9 0.29            146           97.7 173 
 PTB  HZ EP       1157 18.10                             133   -0.15 9  142 260 
 PTB  HN ES   1   1157 38.84                             133   -0.11 7  142 260 
 PTB  HZ I        1157 41.75         4.2 0.28            134            142 260 
                                                                                
