 2017 1114 1003 50.4 L   6.806 -73.121148.7  RSN  8 0.5 1.2LRSN                1
 GAP=139        1.19       4.7     5.2  7.2  0.1758E+01  0.7055E+01  0.4490E+01E
 Epicentro: LOS SANTOS - SANTANDER                                             3
 ACTION:UPD 17-12-12 19:55 OP:rebc STATUS:               ID:20171114100350 L   I
 OLDACT:REG 17-11-14 20:23 OP:lv   STATUS:               ID:20171114095742     3
 2017-11-14-0958-00M.COL___444                                                 6
 STAT SP IPHASW D HRMM SECON CODA AMPLIT PERI AZIMU VELO AIN AR TRES W  DIS CAZ7
 BAR2 EZ EP       10 4 10.51                             170    0.0510 24.6 196 
 BAR2 EZ ES       10 4 26.24                             170    0.1710 24.6 196 
 BAR2 EZ I        10 4 27.09         2.8 0.17            170           24.6 196 
 BRR  HZ EP       10 4 11.85                             152   -0.1810 73.3 297 
 BRR  HN ES       10 4 29.64                             152    0.7710 73.3 297 
 PAM  EZ EP       10 4 13.21                             152    0.3610 75.2  38 
 PAM  EN ES       10 4 29.59                             152   -0.7310 75.2  38 
 PAM  EZ I        10 4 32.05         2.2 0.38            153           75.2  38 
 RUS  HZ EP       10 4 14.49                             144   -0.0310  101 178 
 RUS  HN ES       10 4 33.47                             144    0.1710  101 178 
 RUS  HZ I        10 4 35.74         1.1 0.42            146            101 178 
 PTB  HZ EP       10 4 17.34                             132   -0.57 9  151 259 
 PTB  HN ES       10 4 38.35                             132   -0.98 9  151 259 
 PTB  HZ I        10 4 40.33         1.9 0.12            132            151 259 
 ZAR  HZ EP       10 4 23.46                             123    0.14 8  206 292 
 ZAR  HN ES       10 4 49.51                             123    0.55 8  206 292 
 ZAR  HZ I        10 4 55.88         2.8 0.58            123            206 292 
 CHI  HZ EP       10 4 28.86                             118    0.41 8  250 196 
 CHI  HN ES       10 4 58.12                             118    0.02 8  250 196 
 GUY2CHZ EP   9   10 4 35.85                             113    1.37 0  304 235 
 GUY2CHN ES       10 5 10.59                                    0.39 7  304 235 
 GUY2CHZ I        10 5 20.70         1.2 0.44                           304 235 
                                                                                
