 2017 1014 1544 33.5 L   6.563 -73.526110.6  RSN  6 0.4 1.3LRSN                1
 GAP=140        0.93       5.1     3.4  7.5  0.8884E+01  0.5885E+01  0.8427E+01E
 Epicentro: EL CARMEN - SANTANDER                                              3
 ACTION:UPD 17-11-07 19:31 OP:rebc STATUS:               ID:20171014154433 L   I
 OLDACT:REG 17-10-14 20:19 OP:l    STATUS:               ID:20171014153744     3
 2017-10-14-1538-00M.COL___429                                                 6
 STAT SP IPHASW D HRMM SECON CODA AMPLIT PERI AZIMU VELO AIN AR TRES W  DIS CAZ7
 BAR2 EZ EP       1544 49.48                             160    0.0710 38.2  85 
 BAR2 EZ ES       1545  1.99                             160    0.1510 38.2  85 
 BAR2 EZ I        1545  3.81         5.7 0.19            162           38.2  85 
 RUS  HZ EP       1544 53.14                             139    0.1610 88.9 147 
 RUS  HN ES       1545  8.25                             139    0.0410 88.9 147 
 RUS  HZ I        1545 10.20         3.7 0.52            141           88.9 147 
 PTB  HZ EP       1544 52.91                             134   -0.6010  103 269 
 PTB  HN ES       1545  8.60                             134   -0.5410  103 269 
 PTB  HZ I        1545 11.43         2.6 0.18            136            103 269 
 ZAR  HN ES       1545 23.31                             117    0.51 9  179 305 
 YPLC HZ EP       1545  1.43                             117   -0.00 9  181 135 
 YPLC HN ES       1545 23.08                             117   -0.17 9  181 135 
 YPLC HZ I        1545 24.59         5.5 0.22            119            181 135 
 NOR  HN ES       1545 24.60                             116    0.57 9  185 233 
                                                                                
