 2012  114 1637 30.5 L   7.541 -73.037157.7  RSN  9 0.4 2.1LRSN                1
 GAP=212        0.82       6.1     4.6  6.7 -0.7655E+00  0.8920E+01 -0.1222E+00E
 Epicentro: SURATA - SANTANDER                                                 3
 ACTION:UP  12-02-03 08:17 OP:REBC STATUS:               ID:20120114163730 L   I
 2012-01-14-1635-00S.MAN___179                                                 6
 STAT SP IPHASW D HRMM SECON CODA AMPLIT PERI AZIMU VELO SNR AR TRES W  DIS CAZ7
 PAM  SZ EP   1   1637 52.70                             164     0.3 7   43 121 
 PAM  SN ES   1   1638  9.38                             164    -0.2 7   43 121 
 BRR  HZ EP       1637 54.08                             149     0.210   89 237 
 BRR  HE ES   1   1638 12.76                             149     0.5 7   89 237 
 BRR  HZ I        1638 13.42        36.9 0.13                            89 237 
 BAR2 SZ EP       1637 55.53                             144     0.110  106 189 
 BAR2 SZ ES   1   1638 14.76                             144    -0.1 7  106 189 
 BAR2 SZ I        1638 16.42        23.6 0.17                           106 189 
 RUS  HZ EP   1   1638  2.10                             129    -0.1 7  182 182 
 RUS  HN ES   1   1638 26.32                             129    -0.7 7  182 182 
 RUS  HZ I        1638 29.74         3.6 0.32                           182 182 
 PTB  HZ EP   1   1638  2.12                             127    -0.4 7  192 235 
 PTB  HN ES   1   1638 27.78                             127     0.2 7  192 235 
 ZAR  HZ EP   1   1638  2.74                             125    -0.7 6  201 269 
 ZAR  HN ES   1   1638 28.82                             125    -0.3 6  201 269 
 ZAR  HZ I        1638 34.31        17.3 0.37                           201 269 
 NOR  SZ EP   2   1638 14.60                             115     0.8 4  298 223 
 NOR  SN ES       1638 47.78                             115     0.2 7  298 223 
 HEL  HZ EP   1   1638 15.92                             114     0.1 5  313 242 
 HEL  HN ES   1   1638 50.81                             114    -0.4 5  313 242 
 HEL  HZ I        1639  1.30         5.6 0.19                           313 242 
 CHI  HZ EP   1   1638 18.59                             112     0.7 5  331 193 
 CHI  HZ I        1639  8.76         6.3 0.62                           331 193 
                                                                                
