 2017  714 1244 13.8 L   6.716 -73.204141.7  RSN  6 0.2 0.1LRSN                1
 GAP=235        0.56       3.1     2.9  4.1  0.1998E+01  0.3808E+01 -0.1491E+01E
 Epicentro: VILLANUEVA - SANTANDER                                             3
 ACTION:UPD 17-08-30 15:32 OP:rebc STATUS:               ID:20170714124413 L   I
 OLDACT:REG 17-07-14 19:54 OP:lv   STATUS:               ID:20170714123739     3
 2017-07-14-1238-00M.COL___380                                                 6
 STAT SP IPHASW D HRMM SECON CODA AMPLIT PERI AZIMU VELO AIN AR TRES W  DIS CAZ7
 BAR2 EZ EP       1244 32.59                             174   -0.2110 13.9 170 
 BAR2 EZ ES       1244 47.61                             174    0.0010 13.9 170 
 RUS  HZ EP       1244 36.85                             145    0.2910 92.1 172 
 RUS  HN ES       1244 54.22                             145   -0.0810 92.1 172 
 RUS  HZ I        1244 58.21         0.2 0.29            145           92.1 172 
 PTB  HZ EP       1244 39.56                             133   -0.18 9  140 262 
 PTB  HN ES       1245  0.27                             133    0.32 9  140 262 
 SPBC HZ EP       1244 40.98                             130    0.04 9  152 219 
 SPBC HN ES       1245  2.08                             130   -0.02 9  152 219 
 ZAR  HZ EP       1244 45.58                             122   -0.19 9  202 295 
 ZAR  HE ES       1245 10.75                             122    0.05 9  202 295 
 NOR  HZ EP       1244 48.49                             119    0.32 8  224 235 
 NOR  HN ES       1245 14.57                             119   -0.40 8  224 235 
                                                                                
