 2013 1114 1200  7.3 L   6.805 -73.168145.3  RSN 10 0.4 2.4LRSN 2.8WRSN        1
 SPEC AVERAGE  MO 13.3 ST  4.9 OM  1.5 f0 6.59 R0.3527 AL 0.00 WI 26.6 MW  2.8 3
 SPEC SD       MO  0.2 ST  4.6 OM  0.3 f0 2.80 R0.1487 AL      WI      MW  0.2 3
 GAP=134        1.08       3.1     4.3  5.8 -0.6001E+00  0.6435E+01  0.5213E+00E
 Epicentro: LOS SANTOS - SANTANDER                                             3
 SPEC SML HH Z MO 13.3 ST  1.3 OM  1.2 f0 4.59 R0.4192 AL 0.00 WI 34.2 MW  2.8 3
 SPEC SML HH Z T12 110 K 0.050 GD  282 VS 5.20 DE 3.20 Q0750.0 QA 1.50 VS 5.20 3
 SPEC RUS HH Z MO 13.0 ST0.534 OM  1.1 f0 4.35 R0.4423 AL 0.00 WI 27.7 MW  2.6 3
 SPEC RUS HH Z T12 047 K 0.050 GD  176 VS 5.20 DE 3.20 Q0750.0 QA 1.50 VS 5.20 3
 SPEC PTB HH Z MO 13.1 ST  7.5 OM  1.1 f0 10.0 R0.1924 AL 0.00 WI 34.9 MW  2.7 3
 SPEC PTB HH Z T12 052 K 0.050 GD  205 VS 5.20 DE 3.20 Q0750.0 QA 1.50 VS 5.20 3
 SPEC PAM SH Z MO 13.3 ST  3.5 OM  1.4 f0 6.64 R0.2898 AL 0.00 WI 16.0 MW  2.8 3
 SPEC PAM SH Z T12 045 K 0.050 GD  165 VS 5.20 DE 3.20 Q0750.0 QA 1.50 VS 5.20 3
 SPEC NOR HH Z MO 13.1 ST  8.0 OM  1.0 f0 10.0 R0.1924 AL 0.00 WI 30.4 MW  2.7 3
 SPEC NOR HH Z T12 1 8 K 0.050 GD  274 VS 5.20 DE 3.20 Q0750.0 QA 1.50 VS 5.20 3
 SPEC CHI HH Z MO 13.4 ST0.522 OM  1.3 f0 3.15 R0.6108 AL 0.00 WI 20.8 MW  2.9 3
 SPEC CHI HH Z T12 113 K 0.050 GD  287 VS 5.20 DE 3.20 Q0750.0 QA 1.50 VS 5.20 3
 SPEC BRR HH Z MO 13.4 ST 14.8 OM  1.5 f0 10.0 R0.1924 AL 0.00 WI 24.9 MW  2.9 3
 SPEC BRR HH Z T12 044 K 0.050 GD  160 VS 5.20 DE 3.20 Q0750.0 QA 1.50 VS 5.20 3
 SPEC BAR2SH Z MO 13.8 ST  2.7 OM  2.0 f0 3.99 R0.4822 AL 0.00 WI 23.6 MW  3.2 3
 SPEC BAR2SH Z T12 040 K 0.050 GD  147 VS 5.20 DE 3.20 Q0750.0 QA 1.50 VS 5.20 3
 OLDACT:REG 13-11-14 15:58 OP:stll STATUS:               ID:20131114115815     3
 ACTION:UPD 14-01-09 16:28 OP:ep   STATUS:               ID:20131114120007 L   I
 OLDACT:UP  13-11-14 17:39 OP:stll STATUS:               ID:20131114115815     3
 OLDACT:UP  13-11-14 17:28 OP:stll STATUS:               ID:20131114115815     3
 2013-11-14-1158-15M.COL___225                                                 6
 STAT SP IPHASW D HRMM SECON CODA AMPLIT PERI AZIMU VELO AIN AR TRES W  DIS CAZ7
 BAR2 SZ EP       12 0 26.85                             170    0.0110 23.5 184 
 BAR2 SZ ES       12 0 41.98                             170   -0.1310 23.5 184 
 BAR2 SZ I        12 0 43.33       114.9 0.34            168           23.5 184 
 BRR  HZ EP       12 0 28.62                             153    0.3910 68.8 299 
 BRR  HN ES       12 0 45.64                             153    1.0610 68.8 299 
 BRR  HZ I        12 0 46.15        37.0 0.12            150           68.8 299 
 PAM  SZ EP       12 0 29.78                             150    0.2810 78.6  41 
 PAM  SZ I        12 0 29.95       105.7 0.20            155           78.6  41 
 PAM  SN ES       12 0 46.77                             150   -0.0710 78.6  41 
 RUS  HZ EP       12 0 30.81                             144   -0.2110  101 175 
 RUS  HN ES       12 0 49.06                             144   -0.4810  101 175 
 RUS  HZ I        12 0 50.41        15.1 0.28            143            101 175 
 PTB  HZ EP       12 0 33.71                             132   -0.27 9  145 258 
 PTB  HN ES       12 0 54.10                             132   -0.72 9  145 258 
 PTB  HZ I        12 0 59.85        20.3 0.40            130            145 258 
 SPBC HZ EP       12 0 35.72                             129    0.10 9  162 218 
 SPBC HN ES       12 0 57.67                             129   -0.06 9  162 218 
 SPBC HZ I        12 1  1.99        29.7 0.42            128            162 218 
 ZAR  HZ EP       12 0 39.73                             123    0.30 9  202 292 
 ZAR  HN ES       12 1  4.63                             123    0.12 9  202 292 
 ZAR  HZ I        12 1 11.52        19.8 0.36            122            202 292 
 NOR  HZ EP       12 0 43.30                             119    0.52 8  233 234 
 NOR  HN ES       12 1 10.33                             119   -0.16 8  233 234 
 NOR  HZ I        12 1 18.65        10.9 0.22            118            233 234 
 SML  HZ EP       12 0 43.13                             117   -0.57 8  242 336 
 SML  HN ES       12 1 11.35                             117   -0.78 8  242 336 
 SML  HZ I        12 1 15.86        31.0 0.10            118            242 336 
 CHI  HZ EP       12 0 45.20                             117    0.28 8  248 195 
 CHI  HN ES       12 1 14.50                             117    0.21 8  248 195 
 CHI  HZ I        12 1 21.25        10.4 0.22            117            248 195 
                                                                                
