 2017 1114 1407  3.4 L   6.791 -73.153146.7  RSN 11 0.4 1.7LRSN                1
 GAP=136        1.68       5.3     7.5  8.6 -0.9596E+01  0.1132E+02  0.5095E+01E
 Epicentro: LOS SANTOS - SANTANDER                                             3
 ACTION:UPD 17-12-12 19:55 OP:rebc STATUS:               ID:20171114140703 L   I
 OLDACT:DUP 17-11-14 23:50 OP:lv   STATUS:               ID:20171114135741d    3
 OLDACT:REG 17-11-14 20:37 OP:lv   STATUS:               ID:20171114135740     3
 2017-11-14-1358-00M.COL___450                                                 6
 STAT SP IPHASW D HRMM SECON CODA AMPLIT PERI AZIMU VELO AIN AR TRES W  DIS CAZ7
 BAR2 EZ EP       14 7 22.96                             171   -0.1710 22.2 189 
 BAR2 EZ ES       14 7 38.18                             171   -0.3310 22.2 189 
 BAR2 EZ I        14 7 39.35        14.5 0.26            169           22.2 189 
 BRR  HZ EP     C 14 7 24.76                             153    0.1110 71.0 300 
 BRR  HN ES       14 7 41.78                             153    0.5710 71.0 300 
 BRR  HZ I        14 7 44.93        15.1 0.26            152           71.0 300 
 PAM  EZ EP       14 7 25.91                             152    0.1110 78.6  39 
 PAM  EN ES       14 7 43.20                             152   -0.0610 78.6  39 
 PAM  EZ I        14 7 45.98         4.4 0.36            154           78.6  39 
 RUS  HZ EP       14 7 27.10                             145   -0.0810 99.6 176 
 RUS  HN ES       14 7 46.48                             145    0.7610 99.6 176 
 RUS  HZ I        14 7 47.52         5.7 0.30            145           99.6 176 
 PTB  HZ EP       14 7 29.61                             133   -0.75 9  147 259 
 PTB  HN ES       14 7 50.83                             133   -0.56 9  147 259 
 PTB  HZ I        14 7 51.63         6.4 0.16            132            147 259 
 NOR  HZ EP       14 7 39.53                             119    0.47 8  233 235 
 NOR  HN ES       14 8  7.30                             119    0.43 8  233 235 
 NOR  HZ I        14 8 11.90         4.2 0.18            119            233 235 
 CHI  HZ EP       14 7 41.36                             118    0.33 8  247 195 
 CHI  HN ES       14 8  9.95                             118   -0.42 8  247 195 
 CHI  HZ I        14 8 16.64         2.5 0.32            118            247 195 
 URE  HZ EP   9   14 7 45.94                             114    1.46 0  284 292 
 URE  HN ES       14 8 20.94                             113    2.96 7  284 292 
 URE  HZ I        14 8 23.17         3.7 0.16            114            284 292 
 DRL03HZ EP       14 7 44.44                             114   -0.72 7  290 353 
 DRL03HN ES       14 8 17.34                             114   -0.39 7  290 353 
 DRL03HZ I        14 8 22.35         3.3 0.53                           290 353 
 GUY2CHZ EP       14 7 47.49                             113    0.57 7  300 235 
 GUY2CHN ES   4   14 8 24.21                             113    3.35 0  300 235 
 GUY2CHZ I        14 8 30.78         3.5 0.64                           300 235 
 PRA  HZ EP       14 7 57.01                             107    0.20 6  391 210 
 PRA  HN ES       14 8 38.26                             107   -0.21 6  391 210 
 PRA  HZ I        14 8 44.63         2.5 0.28            107            391 210 
 SJC  HZ EP   4   14 7 57.25                             106   -1.80 0  410 327 
 SJC  HN ES   4   14 8 37.81                             106   -4.64 0  410 327 
                                                                                
