 2013  214 1316 18.1 L   6.586 -73.422121.3  RSN 15 0.4 3.1LRSN 3.3WRSN        1
 SPEC AVERAGE  MO 14.1 ST 29.0 OM  2.7 f0 4.48 R0.4196 AL 3.07 WI 31.0 MW  3.3 3
 SPEC SD       MO  0.2 ST 31.4 OM  0.4 f0 1.86 R0.2273 AL      WI      MW  0.1 3
 GAP= 59        1.03       2.6     3.3  5.6  0.1032E+00  0.5343E+01  0.3432E+01E
 Epicentro: HATO - SANTANDER                                                   3
 SPEC ZAR HH E MO 14.3 ST 94.6 OM  2.6 f0 6.76 R0.2175 AL 3.99 WI 20.7 MW  3.5 3
 SPEC ZAR HH E T131710 K 0.000 GD  223 VS 4.20 DE 3.20 Q0300.0 QA 0.60 VS 4.20 3
 SPEC RUS HH N MO 14.1 ST  1.3 OM  2.5 f0 2.01 R0.7313 AL 1.53 WI 30.1 MW  3.3 3
 SPEC RUS HH N T131653 K 0.000 GD  148 VS 4.20 DE 3.20 Q0300.0 QA 0.60 VS 4.20 3
 SPEC HEL HH N MO 13.8 ST  4.0 OM  2.0 f0 3.52 R0.4176 AL 1.71 WI 52.1 MW  3.2 3
 SPEC HEL HH N T131717 K 0.000 GD  266 VS 4.20 DE 3.20 Q0300.0 QA 0.60 VS 4.20 3
 SPEC PAM SH N MO 13.9 ST 25.7 OM  2.3 f0 6.07 R0.2422 AL 5.40 WI 29.6 MW  3.2 3
 SPEC PAM SH N T131655 K 0.000 GD  167 VS 4.20 DE 3.20 Q0300.0 QA 0.60 VS 4.20 3
 SPEC CHI HH N MO 14.1 ST  1.1 OM  2.3 f0 1.84 R0.7989 AL 1.77 WI 43.4 MW  3.3 3
 SPEC CHI HH N T131713 K 0.000 GD  250 VS 4.20 DE 3.20 Q0300.0 QA 0.60 VS 4.20 3
 SPEC BRR HH E MO 14.1 ST 26.9 OM  2.6 f0 5.22 R0.2816 AL 3.86 WI 14.9 MW  3.4 3
 SPEC BRR HH E T131650 K 0.000 GD  138 VS 4.20 DE 3.20 Q0300.0 QA 0.60 VS 4.20 3
 SPEC BRR HH N MO 14.2 ST 49.4 OM  2.7 f0 5.92 R0.2483 AL 3.26 WI 26.1 MW  3.4 3
 SPEC BRR HH N T131650 K 0.000 GD  138 VS 4.20 DE 3.20 Q0300.0 QA 0.60 VS 4.20 3
 ACTION:UPD 13-03-12 09:33 OP:ep   STATUS:               ID:20130214131618 L   I
 2013-02-14-1310-00M.COL___241                                                 6
 STAT SP IPHASW D HRMM SECON CODA AMPLIT PERI AZIMU VELO AIN AR TRES W  DIS CAZ7
 BAR2 SZ IP       1316 35.01                             167    0.0910 26.5  89 
 BAR2 SZ ES       1316 47.91                             167   -0.0910 26.5  89 
 BAR2 SZ I        1316 49.56       602.5 0.24            156           26.5  89 
 BRR  HZ EP       1316 36.51                             150    0.1510 65.9 331 
 BRR  HN ES       1316 51.06                             150    0.4810 65.9 331 
 BRR  HN I        1316 51.31       674.9 0.20            138           65.9 331 
 RUS  HZ EP       1316 38.25                             143   -0.1310 85.4 154 
 PTB  HZ IP     C 1316 38.83                             134   -1.2710  114 267 
 PTB  HN I        1316 59.72       283.2 0.22            123            114 267 
 PAM  SZ IP     D 1316 40.91                             134    0.0910  115  44 
 PAM  SN ES       1316 58.12                             134   -0.4010  115  44 
 PAM  SN I        1317  1.67       179.2 0.26            119            115  44 
 TAM  HZ EP       1316 46.38                             120   -0.31 9  181  95 
 TAM  HN I        1317 10.55        78.0 0.42            108            181  95 
 OCA  HZ EP       1316 47.12                             120    0.07 9  183   4 
 OCA  HN ES       1317  9.79                             120    0.19 9  183   4 
 OCA  HN I        1317 15.97       386.7 0.32            109            183   4 
 ZAR  HZ EP       1316 47.22                             119   -0.12 9  188 302 
 ZAR  HN ES       1317  9.97                             119   -0.15 9  188 302 
 ZAR  HN I        1317 16.41       132.5 0.10            109            188 302 
 CHI  HZ EP       1316 51.04                             115   -0.24 8  219 189 
 CHI  HN ES       1317 17.93                             115    0.79 8  219 189 
 CHI  HN I        1317 24.27        81.2 0.52            106            219 189 
 HEL  HZ EP       1316 53.06                             113   -0.18 8  237 259 
 HEL  HN ES       1317 20.44                             113   -0.19 8  237 259 
 HEL  HN I        1317 28.33        49.6 0.44            105            237 259 
 SML  HZ EP   1   1316 54.50                             111   -0.32 6  255 344 
 SML  HE ES       1317 24.19                             111    0.75 8  255 344 
 SML  HN I        1317 30.16       190.7 0.10            103            255 344 
 VIL  SZ EP       1316 57.46                             109    0.17 8  275 186 
 VIL  SN ES   1   1317 28.19                             109    0.36 6  275 186 
 VIL  SN I        1317 34.21       106.9 0.42            102            275 186 
 RREF HZ EP       1316 59.56                             109    0.72 7  283 229 
 DBB  SZ EP   1   1317  1.90                             106    0.42 5  312 279 
 DBB  SZ ES   1   1317 35.11                             106   -0.18 5  312 279 
 DBB  SZ I        1317 37.06        33.6 0.28            101            312 279 
 COD  HZ EP   1   1317  8.88                             103    0.60 5  370 360 
 COD  HE I        1317 54.62        24.8 0.24             98            370 360 
                                                                                
