 2011  614 1105 34.5 L   6.823 -73.008166.6  RSN  4 0.2 1.9LRSN                1
 GAP=174        0.60       4.3     8.4  7.5 -0.4190E+01 -0.1288E+02 -0.7025E+01E
 Epicentro: CEPITA - SANTANDER                                                 3
 ACTION:UP  11-07-14 19:05 OP:ep   STATUS:               ID:20110614110534 L   I
 2011-06-14-1100-15S.COL___132                                                 6
 STAT SP IPHASW D HRMM SECON CODA AMPLIT PERI AZIMU VELO SNR AR TRES W  DIS CAZ7
 BAR2 SZ EP   1   11 5 56.45                             169    -0.4 7   32 217 
 BAR2 SZ ES   1   11 6 14.57                             169     0.3 7   32 217 
 BAR2 SZ I        11 6 16.07        10.2 0.26                            32 217 
 BRR  HZ EP   1   11 5 58.82                             152     0.2 7   84 292 
 BRR  HN ES   1   11 6 17.27                             152    -0.2 7   84 292 
 BRR  HZ I        11 6 20.22        22.2 0.27                            84 292 
 RUS  HZ EP   3   11 6  0.41                             147    -0.1 2  103 185 
 RUS  HN ES   1   11 6 20.74                             147    -0.1 7  103 185 
 RUS  HZ I        11 6 22.23        10.1 0.26                           103 185 
 GRA  SZ EP   1   11 6  1.45                             143     0.3 7  120  11 
 GRA  SZ ES   1   11 6 21.83                             143    -0.2 7  120  11 
 GRA  SZ I        11 6 23.26         8.3 0.34                           120  11 
                                                                                
