 2010 1214 1340 32.9 L   6.787 -73.141140.9  RSN  7 0.3 1.6LRSN                1
 GAP=159        0.42       3.3     8.8  4.7 -0.1771E+02  0.1574E+02 -0.2748E+01E
 Epicentro: LOS SANTOS - SANTANDER                                             3
 ACTION:UP  11-01-14 15:24 OP:pat  STATUS:               ID:20101214134032 L   I
 2010-12-14-1337-34S.COL___137                                                 6
 STAT SP IPHASW D HRMM SECON CODA AMPLIT PERI AZIMU VELO SNR AR TRES W  DIS CAZ7
 BTL  SZ EP   1   1340 51.99                             171     0.1 7   20 316 
 BAR2 SZ EP       1340 51.90                             171     0.010   22 192 
 BAR2 SZ ES   1   1341  6.61                             171    -0.1 7   22 192 
 BAR2 SZ I        1341 15.51         6.9 0.39                            22 192 
 RUS  HZ EP   1   1340 55.99                             143    -0.1 7   99 176 
 RUS  HE ES   2   1341 14.14                             143     0.0 5   99 176 
 RUS  HZ I        1341 16.03         4.0 0.29                            99 176 
 GRA  SZ EP   1   1340 57.65                             136    -0.1 7  127  17 
 GRA  SZ ES   2   1341 17.40                             136     0.2 5  127  17 
 GRA  SZ I        1341 19.41         4.8 0.28                           127  17 
 CHI  HZ EP   2   1341 10.18                             116     0.0 4  247 195 
 CHI  HN ES   2   1341 39.81                             116     0.5 4  247 195 
 CHI  HZ I        1341 47.38         3.3 0.45                           247 195 
 HEL  HZ EP   2   1341 13.16                             114     0.3 4  272 256 
 HEL  HZ I        1341 50.17         4.3 0.22                           272 256 
 PRA  HZ EP   2   1341 26.23                             106     0.1 3  391 210 
 PRA  HN ES   2   1342  6.79                             106    -0.9 3  391 210 
                                                                                
