 2016  414 1558  2.4 L   6.857 -73.154145.4  RSN  9 0.5 1.7LRSN                1
 GAP=133        0.76       4.5     4.2  6.0 -0.1200E+01  0.7866E+01 -0.1637E+01E
 Epicentro: LOS SANTOS - SANTANDER                                             3
 ACTION:UPD 16-05-05 14:21 OP:rebc STATUS:               ID:20160414155802 L   I
 OLDACT:REG 16-04-14 23:25 OP:ar   STATUS:               ID:20160414154743     3
 2016-04-14-1547-43M.COL___325                                                 6
 STAT SP IPHASW D HRMM SECON CODA AMPLIT PERI AZIMU VELO AIN AR TRES W  DIS CAZ7
 BAR2 EZ EP       1558 22.31                             168    0.1910 29.4 186 
 BAR2 EZ ES       1558 37.42                             168   -0.0810 29.4 186 
 BAR2 EZ I        1558 38.91         9.4 0.16            167           29.4 186 
 PAM  EZ EP   2   1558 25.29                             152    0.96 5 73.3  43 
 PAM  EN ES   2   1558 41.22                             152   -0.21 5 73.3  43 
 PAM  EZ I        1558 44.56         6.4 0.50            156           73.3  43 
 RUS  HZ EP       1558 26.48                             142   -0.0910  107 176 
 RUS  HN ES       1558 45.37                             142   -0.0610  107 176 
 RUS  HZ I        1558 46.83         5.3 0.54            143            107 176 
 PTB  HZ EP       1558 28.85                             132   -0.52 9  148 256 
 PTB  HN ES       1558 50.06                             132   -0.36 9  148 256 
 PTB  HZ I        1558 52.22         6.2 0.10            132            148 256 
 SPBC HZ EP   2   1558 31.35                             128    0.07 5  168 217 
 SPBC HN ES       1558 54.29                             128    0.48 9  168 217 
 SPBC HZ I        1558 59.70         6.7 0.19            129            168 217 
 ZAR  HZ EP   2   1558 35.03                             123    0.54 4  201 291 
 ZAR  HE ES   2   1559  0.05                             123    0.52 4  201 291 
 ZAR  HZ I        1559  1.84         3.9 0.10            124            201 291 
 NOR  HZ EP   2   1558 37.88                             118   -0.54 4  238 233 
 NOR  HE ES   2   1559  6.68                             118    0.16 4  238 233 
 NOR  HZ I        1559 13.15         4.7 0.20            119            238 233 
 CHI  HZ EP   2   1558 40.08                             116   -0.63 4  254 195 
 CHI  HN ES   2   1559 10.13                             116   -0.46 4  254 195 
 CHI  HZ I        1559 13.18         3.4 0.38            118            254 195 
 GUY2CHZ EP   2   1558 47.07                             112    0.75 4  304 234 
 GUY2CHE ES   2   1559 21.79                             112    1.21 4  304 234 
 GUY2CHZ I        1559 27.60         2.2 0.24                           304 234 
                                                                                
