 2014  614 1835  1.1 L   6.768 -73.131150.8  RSN  8 0.3 1.9LRSN                1
 GAP=237        0.67       3.5     3.8  4.9  0.3958E+01  0.2731E+01 -0.1419E+01E
 Epicentro: LOS SANTOS - SANTANDER                                             3
 ACTION:UPD 14-07-01 22:54 OP:nd   STATUS:               ID:20140614183501 L   I
 OLDACT:REG 14-06-14 21:27 OP:fm   STATUS:               ID:20140614182812     3
 2014-06-14-1828-12M.COL___238                                                 6
 STAT SP IPHASW D HRMM SECON CODA AMPLIT PERI AZIMU VELO AIN AR TRES W  DIS CAZ7
 BAR2 SZ EP       1835 21.32                             172    0.0310 20.3 196 
 BAR2 SZ ES   1   1835 36.90                             172   -0.13 7 20.3 196 
 BAR2 SZ I        1835 38.96        26.5 0.30            171           20.3 196 
 BRR  HZ EP       1835 23.19                             152    0.2110 74.3 300 
 BRR  HN ES       1835 40.46                             152    0.4210 74.3 300 
 BRR  HZ I        1835 52.22        15.3 0.42            151           74.3 300 
 RUS  HZ EP       1835 25.22                             146    0.1110 97.0 177 
 RUS  HN ES       1835 43.66                             146   -0.1710 97.0 177 
 RUS  HZ I        1835 44.92         7.1 0.26            152           97.0 177 
 PTB  HZ EP       1835 28.42                             133   -0.16 9  149 260 
 PTB  HN ES       1835 49.53                             133   -0.47 9  149 260 
 PTB  HZ I        1835 54.44         7.5 0.32            135            149 260 
 SPBC HN ES       1835 52.21                             131   -0.05 9  161 220 
 SPBC HZ I        1835 57.96         9.5 0.24            135            161 220 
 ZAR  HZ EP       1835 33.89                             123   -0.29 8  207 293 
 ZAR  HN ES       1835 59.86                             123   -0.11 8  207 293 
 ZAR  HZ I        1836  6.24         9.2 0.26            126            207 293 
 NOR  HE ES   1   1836  5.73                             120    0.63 6  234 235 
 NOR  HZ I        1836  8.87         6.2 0.18            123            234 235 
 GUY2CHZ EP   1   1835 45.31                             113    0.43 5  300 235 
 GUY2CHE ES   4   1836 22.13                             113    3.11 0  300 235 
 GUY2CHZ I        1836 31.29         3.0 0.36                           300 235 
                                                                                
