 2017  914 1412 10.6 L   6.781 -73.128146.1  RSN  4 0.1 1.4LRSN                1
 GAP=140        0.45       2.6     3.6  4.0 -0.3074E+00 -0.5604E+00 -0.9926E+00E
 Epicentro: LOS SANTOS - SANTANDER                                             3
 ACTION:UPD 17-10-05 19:12 OP:rebc STATUS:               ID:20170914141210 L   I
 OLDACT:REG 17-09-14 20:34 OP:dnl  STATUS:               ID:20170914140744     3
 2017-09-14-1408-00M.COL___458                                                 6
 STAT SP IPHASW D HRMM SECON CODA AMPLIT PERI AZIMU VELO AIN AR TRES W  DIS CAZ7
 BAR2 EZ EP       1412 30.05                             171   -0.1510 21.7 196 
 BAR2 EZ ES       1412 45.26                             171   -0.2510 21.7 196 
 BAR2 EZ I        1412 47.77        10.3 0.48            167           21.7 196 
 BRR  HZ EP       1412 31.80                             152   -0.1010 73.9 299 
 BRR  HZ I        1412 44.33         5.7 0.18            142           73.9 299 
 BRR  HN ES       1412 48.71                             152    0.1710 73.9 299 
 PAM  EZ EP       1412 32.91                             151    0.0810 77.8  37 
 PAM  EE ES       1412 50.26                             151    0.0510 77.8  37 
 PAM  EZ I        1412 52.15         3.7 0.62            148           77.8  37 
 RUS  HZ EP   2   1412 34.27                             144    0.08 5 98.4 177 
 RUS  HN ES       1412 52.79                             144    0.1810 98.4 177 
 RUS  HZ I        1412 54.01         3.2 0.30            141           98.4 177 
                                                                                
