 2014 1014 1316 57.9 L   7.372 -73.159132.6  RSN  4 0.3 1.8LRSN                1
 GAP=210        0.69       8.3     4.7  6.8 -0.1903E+02  0.4226E+01 -0.1986E+01E
 Epicentro: RIONEGRO - SANTANDER                                               3
 ACTION:UPD 14-11-29 23:49 OP:nd   STATUS:               ID:20141014131657 L   I
 OLDACT:DUP 14-10-14 23:55 OP:fm   STATUS:               ID:20141014130749d    3
 2014-10-14-1307-48M.COL___288                                                 6
 STAT SP IPHASW D HRMM SECON CODA AMPLIT PERI AZIMU VELO AIN AR TRES W  DIS CAZ7
 PAM  SZ EP       1317 17.63                             158    0.3410 50.8  94 
 PAM  SN ES       1317 32.43                             158    0.0410 50.8  94 
 PAM  SZ I        1317 34.44         7.3 0.18            159           50.8  94 
 BRR  HZ EP       1317 17.34                             151   -0.1210 67.7 244 
 BRR  HN ES       1317 32.47                             151   -0.2310 67.7 244 
 BRR  HZ I        1317 34.27        18.8 0.34            153           67.7 244 
 BAR2 SZ EP       1317 18.67                             145   -0.3310 86.3 182 
 BAR2 SZ ES   1   1317 35.48                             145    0.05 7 86.3 182 
 BAR2 SZ I        1317 36.90        21.3 0.12            147           86.3 182 
 PTB  HN ES   1   1317 48.59                             124    0.57 7  170 237 
                                                                                
