 2015  914 1519 12.1 L   5.795 -73.936100.2  RSN 10 0.4 2.0LRSN                1
 GAP=127        1.03       2.6     3.3  5.7 -0.5599E+00  0.1702E+01 -0.6167E+00E
 Epicentro: FLORIAN - SANTANDER                                                3
 ACTION:UPD 15-10-28 16:26 OP:cam  STATUS:               ID:20150914151912 L   I
 OLDACT:UP  15-09-15 10:38 OP:STLL STATUS:               ID:20150914151912 L   3
 OLDACT:REG 15-09-14 20:53 OP:drio STATUS:               ID:20150914151749     3
 2015-09-14-1517-49M.COL___325                                                 6
 STAT SP IPHASW D HRMM SECON CODA AMPLIT PERI AZIMU VELO AIN AR TRES W  DIS CAZ7
 SPBC HZ EP     C 1519 26.01                             167    0.0110 21.8 224 
 SPBC HE ES       1519 37.01                             167    0.1410 21.8 224 
 SPBC HZ I        1519 38.09        58.4 0.12            167           21.8 224 
 PTB  HZ EP   4   1519 29.88                             131   -1.17 0  101 325 
 PTB  HN ES       1519 46.30                             131    0.4510  101 325 
 PTB  HZ I        1519 47.89        21.1 0.20            134            101 325 
 NOR  HZ EP       1519 31.15                             129   -0.5110  107 256 
 NOR  HE ES       1519 46.45                             129   -0.4910  107 256 
 NOR  HZ I        1519 48.51        38.5 0.20            132            107 256 
 BAR2 EZ EP       1519 33.78                             125    0.4310  121  43 
 BAR2 EZ ES       1519 50.19                             125    0.2410  121  43 
 BAR2 EZ I        1519 52.31        24.2 0.54            129            121  43 
 CHI  HZ EP       1519 34.73                             123    0.2010  131 170 
 CHI  HN ES       1519 52.01                             123   -0.0410  131 170 
 CHI  HZ I        1519 56.59         7.4 0.34            126            131 170 
 GUY2CHZ EP       1519 38.78                             115   -0.07 9  170 248 
 GUY2CHE ES       1520  0.14                             115    0.41 9  170 248 
 GUY2CHZ I        1520  4.48         5.7 0.20                           170 248 
 HEL  HZ EP       1519 40.43                             113    0.47 9  182 284 
 HEL  HE ES       1520  2.19                             113    0.47 9  182 284 
 HEL  HZ I        1520  6.86        11.5 0.20            116            182 284 
 ZAR  HZ EP       1519 42.22                             109   -0.92 8  214 332 
 ZAR  HN ES       1520  7.05                             109   -0.32 8  214 332 
 ZAR  HZ I        1520  9.39        13.8 0.30            112            214 332 
 PRA  HZ EP       1519 47.12                             105   -0.66 8  253 205 
 PRA  HE ES       1520 15.40                             105   -0.23 8  253 205 
 PRA  HZ I        1520 19.17         4.4 0.26            107            253 205 
 SJC  HZ EP       1520 13.51                                            474 343 
 SJC  HN ES       1520 58.85                                            474 343 
 SJC  HZ I        1520 59.24         2.4 0.46                           474 343 
                                                                                
