 2012  914 1507 46.3 L   6.647 -74.176 68.2  RSN  5 0.3 2.0LRSN                1
 GAP=156        0.79      11.3     9.6 12.4 -0.9166E+02 -0.9334E+02  0.9039E+02E
 Epicentro: PUERTO PARRA - SANTANDER                                           3
 ACTION:UPD 12-10-22 14:18 OP:ep   STATUS:               ID:20120914150746 L   I
 2012-09-14-1500-00M.COL___227                                                 6
 STAT SP IPHASW D HRMM SECON CODA AMPLIT PERI AZIMU VELO AIN AR TRES W  DIS CAZ7
 PTB  HZ EP       15 7 57.01                             151    0.1310 33.1 249 
 PTB  HE ES   1   15 8  4.89                             151   -0.25 7 33.1 249 
 PTB  HZ I        15 8  6.23        45.2 0.09                          33.1 249 
 BRR  HZ EP       15 8  0.25                             128    0.2210 72.3  45 
 BRR  HN ES       15 8 10.78                             128    0.0310 72.3  45 
 BRR  HZ I        15 8 12.39        48.4 0.11                          72.3  45 
 BAR2 SZ EP       15 8  4.55                             115    0.2210  110  93 
 GIR2 SZ EP   1   15 8  4.34                             113   -0.83 7  119  66 
 RUS  HZ EP   9   15 8  4.50                             108   -4.37 0  147 125 
 RUS  HZ I        15 8  4.71        19.6 0.18                           147 125 
 RUS  HN ES   9   15 8 17.83                                   -4.28 0  147 125 
                                                                                
