 2012  114 1239 58.5 L   6.756 -73.198142.0  RSN  6 0.4 1.6LRSN                1
 GAP=228        0.81       9.0     7.8  8.7  0.3415E+02  0.1442E+02  0.1519E+02E
 Epicentro: VILLANUEVA - SANTANDER                                             3
 ACTION:UP  12-02-03 08:17 OP:REBC STATUS:               ID:20120114123958 L   I
 2012-01-14-1237-00S.MAN___179                                                 6
 STAT SP IPHASW D HRMM SECON CODA AMPLIT PERI AZIMU VELO SNR AR TRES W  DIS CAZ7
 BAR2 SZ EP   1   1240 17.24                             172    -0.3 7   18 174 
 BAR2 SZ ES   1   1240 32.14                             172    -0.3 7   18 174 
 BAR2 SZ I        1240 33.19         9.7 0.14                            18 174 
 BRR  HZ EP   1   1240 19.06                             153     0.0 7   69 304 
 BRR  HN ES   1   1240 35.64                             153     0.5 7   69 304 
 BRR  HZ I        1240 51.01        14.1 0.32                            69 304 
 RUS  HZ EP   2   1240 22.35                             144     0.8 5   96 172 
 RUS  HN ES   2   1240 39.44                             144    -0.1 5   96 172 
 RUS  HZ I        1240 41.66         3.5 0.32                            96 172 
 PTB  HZ EP   1   1240 24.07                             133    -0.4 7  141 260 
 PTB  HN ES   1   1240 44.87                             133     0.0 7  141 260 
 ZAR  HE ES   2   1240 54.88                             122    -0.3 4  201 294 
 ZAR  HZ I        1241  0.57         6.2 0.32                           201 294 
 CHI  HZ EP   2   1240 35.91                             117     0.6 4  242 194 
 CHI  HZ I        1241 10.58         2.1 0.38                           242 194 
                                                                                
