 2013 1014 1912 27.3 L   6.814 -73.138145.7  RSN 11 0.4 2.7LRSN                1
 GAP=137        1.02       3.1     4.5  6.6 -0.1972E+01  0.6850E+01 -0.4554E+01E
 Epicentro: LOS SANTOS - SANTANDER                                             3
 ACTION:UPD 13-11-25 09:21 OP:ep   STATUS:               ID:20131014191227 L   I
 OLDACT:UP  13-10-14 17:33 OP:cam  STATUS:               ID:20131014190959     3
 OLDACT:UP  13-10-14 17:32 OP:cam  STATUS:               ID:20131014190959     3
 OLDACT:UP  13-10-14 17:32 OP:cam  STATUS:               ID:20131014190959     3
 OLDACT:REG 13-10-14 16:06 OP:cam  STATUS:               ID:20131014190959     3
 2013-10-14-1909-59M.COL___273                                                 6
 STAT SP IPHASW D HRMM SECON CODA AMPLIT PERI AZIMU VELO AIN AR TRES W  DIS CAZ7
 BAR2 SZ EP     D 1912 47.03                             170    0.0810 25.0 191 
 BAR2 SZ ES       1913  2.81                             170    0.5310 25.0 191 
 BAR2 SZ I        1913  5.36       134.6 0.28            173           25.0 191 
 BRR  HZ IP     C 1912 48.88                             153    0.4410 71.2 297 
 BRR  HZ I        1913  9.55        79.8 0.12            153           71.2 297 
 PAM  SZ EP       1912 49.76                             151    0.3510 75.7  40 
 PAM  SZ I        1913  8.86        41.9 0.46            146           75.7  40 
 RUS  HZ EP       1912 50.94                             143   -0.2110  102 177 
 RUS  HN ES       1913  9.43                             143   -0.3210  102 177 
 RUS  HZ I        1913 10.44        56.8 0.44            145            102 177 
 PTB  HZ EP       1912 53.53                             132   -0.83 9  149 258 
 PTB  HZ I        1912 56.27        61.8 0.36            133            149 258 
 PTB  HN ES       1913 15.05                             132   -0.42 9  149 258 
 OCA  HZ EP       1912 55.26                             130   -0.21 9  159 353 
 OCA  HN ES       1913 17.13                             130   -0.31 9  159 353 
 OCA  HZ I        1913 21.17        66.9 0.16            127            159 353 
 SPBC HZ EP       1912 55.94                             129   -0.01 9  165 219 
 SPBC HN ES       1913 17.91                             129   -0.39 9  165 219 
 SPBC HZ I        1913 22.49        75.6 0.18            130            165 219 
 ZAR  HZ EP   1   1913  0.19                             122    0.43 6  204 292 
 ZAR  HN ES       1913 25.31                             122    0.24 9  204 292 
 ZAR  HZ I        1913 31.03       108.7 0.30            122            204 292 
 NOR  HZ EP       1913  2.97                             118   -0.22 8  236 234 
 NOR  HN ES       1913 31.78                             118    0.59 8  236 234 
 NOR  HZ I        1913 36.24        42.5 0.32            119            236 234 
 SML  HZ EP       1913  3.74                             118   -0.07 8  243 335 
 SML  HN ES       1913 32.17                             118   -0.11 8  243 335 
 SML  HZ I        1913 39.66        59.5 0.30            116            243 335 
 GUY2CHZ EP       1913 12.08                             112    1.00 7  303 235 
                                                                                
