 2011 1114 1852 48.5 L   6.741 -73.132136.9  RSN  5 0.4 1.7LRSN                1
 GAP=141        0.83       5.5     6.0  8.1  0.6707E+01  0.1279E+02 -0.3446E+01E
 Epicentro: JORDAN - SANTANDER                                                 3
 ACTION:UPD 12-07-13 16:10 OP:ep   STATUS:               ID:20111114185248 L   I
 2011-11-14-1851-14S.COL___179                                                 6
 STAT SP IPHASW D HRMM SECON CODA AMPLIT PERI AZIMU VELO AIN AR TRES W  DIS CAZ7
 BAR2 SZ ES   1   1853 20.82                             172   -0.51 7 17.4 199 
 BRR  HZ EP   1   1853  9.28                             149    0.32 7 75.8 302 
 BRR  HN ES   1   1853 25.75                             149    0.82 7 75.8 302 
 BRR  HZ I        1853 26.74        11.0 0.14                          75.8 302 
 PAM  SZ EP   1   1853 10.19                             148    0.16 7 81.6  36 
 PAM  SN ES   1   1853 26.53                             148   -0.31 7 81.6  36 
 PAM  SZ I        1853 29.15        11.4 0.47                          81.6  36 
 RUS  HZ EP   1   1853 11.11                             144    0.22 7 94.0 177 
 RUS  HN ES   1   1853 28.31                             144   -0.05 7 94.0 177 
 RUS  HZ I        1853 31.17         7.4 0.32                          94.0 177 
 ZAR  HZ EP   1   1853 20.31                             120   -0.47 6  208 294 
 ZAR  HN ES   1   1853 45.52                             120   -0.45 6  208 294 
 ZAR  HZ I        1853 51.94         6.2 0.32                           208 294 
                                                                                
