 2016  314 1615 23.1 L   6.819 -73.188135.6  RSN  5 0.2 1.4LRSN                1
 GAP=145        0.66       3.5     3.6  5.1 -0.5658E+01  0.5760E+01 -0.9850E+00E
 Epicentro: ZAPATOCA - SANTANDER                                               3
 ACTION:UPD 16-05-13 21:24 OP:cam  STATUS:               ID:20160314161523 L   I
 OLDACT:DUP 16-03-14 23:51 OP:cara STATUS:               ID:20160314160751d    3
 OLDACT:REG 16-03-14 20:39 OP:cara STATUS:               ID:20160314160750     3
 2016-03-14-1607-50M.COL___304                                                 6
 STAT SP IPHASW D HRMM SECON CODA AMPLIT PERI AZIMU VELO AIN AR TRES W  DIS CAZ7
 BAR2 EZ IP       1615 41.78                             169    0.2410 25.1 179 
 BAR2 EZ ES       1615 56.25                             169    0.3210 25.1 179 
 BAR2 EZ I        1615 58.01         4.6 0.18            171           25.1 179 
 PAM  EZ EP       1615 44.47                             148    0.1410 78.9  43 
 PAM  EN ES       1616  0.71                             148   -0.1910 78.9  43 
 PAM  EZ I        1616  3.61         3.2 0.52            151           78.9  43 
 RUS  HZ EP       1615 45.86                             141   -0.1910  103 174 
 RUS  HN ES       1616  3.63                             141   -0.3310  103 174 
 RUS  HZ I        1616  4.99         4.6 0.24            145            103 174 
 PTB  HZ EP       1615 48.89                             130    0.03 9  144 258 
 PTB  HN ES       1616  8.64                             130   -0.32 9  144 258 
 PTB  HZ I        1616 12.93         3.8 0.78            132            144 258 
 SPBC HZ EP       1615 50.71                             127   -0.00 9  162 217 
 SPBC HE ES       1616 12.60                             127    0.35 9  162 217 
 SPBC HZ I        1616 14.81         5.2 0.10            129            162 217 
                                                                                
