 2015 1214 1506 56.1 L   6.797 -73.146148.3  RSN 11 0.4 2.1LRSN                1
 GAP=137        0.80       4.0     3.9  5.2 -0.6238E+01  0.4237E+01  0.4334E+01E
 Epicentro: LOS SANTOS - SANTANDER                                             3
 ACTION:UPD 16-02-04 15:04 OP:cam  STATUS:               ID:20151214150656 L   I
 OLDACT:REG 15-12-14 20:52 OP:ar   STATUS:               ID:20151214145747     3
 2015-12-14-1457-47M.COL___331                                                 6
 STAT SP IPHASW D HRMM SECON CODA AMPLIT PERI AZIMU VELO AIN AR TRES W  DIS CAZ7
 BAR2 EZ EP       15 7 15.98                             171   -0.0310 23.0 190 
 BAR2 EZ ES       15 7 31.23                             171   -0.3210 23.0 190 
 BAR2 EZ I        15 7 32.00        26.6 0.26            165           23.0 190 
 BRR  HZ EP       15 7 17.74                             153    0.2310 71.3 299 
 BRR  HN ES       15 7 34.88                             153    0.6510 71.3 299 
 BRR  HZ I        15 8  0.87        18.1 0.38            144           71.3 299 
 PAM  EZ EP       15 7 18.67                             151    0.0910 77.6  39 
 PAM  EN ES       15 7 36.04                             151   -0.0810 77.6  39 
 PAM  EZ I        15 7 37.18        11.5 0.14            153           77.6  39 
 RUS  HZ EP   2   15 7 20.00                             144   -0.06 5  100 176 
 RUS  HN ES   2   15 7 38.80                             144    0.04 5  100 176 
 RUS  HZ I        15 7 39.70        10.7 0.34            154            100 176 
 PTB  HZ EP       15 7 22.81                             132   -0.44 9  148 259 
 PTB  HN ES       15 7 43.67                             132   -0.77 9  148 259 
 PTB  HZ I        15 7 51.25        19.5 0.46            131            148 259 
 SPBC HZ EP       15 7 24.88                             130    0.13 9  163 219 
 SPBC HE ES   2   15 7 47.45                             130    0.33 5  163 219 
 SPBC HZ I        15 7 48.84        21.6 0.22            133            163 219 
 ZAR  HN ES   2   15 7 54.73                             123    0.58 4  204 292 
 NOR  HZ EP       15 7 32.39                             119    0.45 8  235 235 
 NOR  HN ES       15 8  0.07                             119    0.16 8  235 235 
 NOR  HZ I        15 8  5.43         9.6 0.38            122            235 235 
 SML  HZ EP   2   15 7 32.19                             118   -0.68 4  244 335 
 SML  HN ES   2   15 8  1.02                             118   -0.56 4  244 335 
 SML  HZ I        15 8 10.87        17.3 0.10            119            244 335 
 SOCV BZ EP   4   15 7 37.37                             112   -1.89 0  301  57 
 SOCV BN ES   4   15 8  8.06                             112   -4.88 0  301  57 
 GUY2CHZ EP   4   15 7 41.07                             113    1.29 0  301 235 
 GUY2CHN ES       15 8 13.92                             113    0.04 7  301 235 
 PRA  HZ EP   2   15 7 49.36                             107   -0.30 3  392 210 
 PRA  HN ES   2   15 8 31.72                             107    0.27 3  392 210 
 PRA  HZ I        15 8 38.35         5.8 0.24            111            392 210 
                                                                                
