 2017  114 1742 34.9 L   6.032 -73.700120.0  RSN  7 0.3 1.3LRSN                1
 GAP= 79        0.56       2.6     2.4  5.9 -0.1386E+01  0.1271E+01  0.3402E+01E
 Epicentro: VELEZ - SANTANDER                                                  3
 ACTION:UPD 17-05-22 15:59 OP:jn   STATUS:               ID:20170114174234 L   I
 OLDACT:UP  17-01-14 22:47 OP:e    STATUS:               ID:20170114173746d    3
 OLDACT:UP  17-01-14 22:47 OP:e    STATUS:               ID:20170114173746d    3
 OLDACT:UP  17-01-14 22:46 OP:e    STATUS:               ID:20170114173746d    3
 OLDACT:UP  17-01-14 22:43 OP:e    STATUS:               ID:20170114173746d    3
 OLDACT:UP  17-01-14 22:41 OP:e    STATUS:               ID:20170114173746d    3
 OLDACT:DUP 17-01-14 22:39 OP:e    STATUS:               ID:20170114173746d    3
 OLDACT:UP  17-01-14 22:33 OP:e    STATUS:               ID:20170114173745d    3
 OLDACT:DUP 17-01-14 22:31 OP:e    STATUS:               ID:20170114173745d    3
 OLDACT:REG 17-01-14 20:20 OP:and  STATUS:               ID:20170114173744     3
 2017-01-14-1738-00M.COL___335                                                 6
 STAT SP IPHASW D HRMM SECON CODA AMPLIT PERI AZIMU VELO AIN AR TRES W  DIS CAZ7
 RUS  HZ EP       1742 53.90                             148   -0.1010 70.0 103 
 RUS  HN ES   3   1743  8.01                             148   -0.85 2 70.0 103 
 RUS  HZ I        1743 10.06         3.8 0.26             47           70.0 103 
 BAR2 EZ EP       1742 54.58                             143   -0.0610 84.3  43 
 BAR2 EZ ES       1743 10.05                             143    0.0610 84.3  43 
 BRR  HZ EP       1742 57.30                             132    0.1310  119 359 
 BRR  HN ES   2   1743 15.36                             132    0.85 5  119 359 
 NOR  HZ EP       1742 59.34                             127    0.16 9  140 248 
 NOR  HN ES       1743 18.04                             127   -0.05 9  140 248 
 NOR  HZ I        1743 20.98         4.6 0.16             47            140 248 
 CHI  HZ EP       1743  1.20                             125   -0.01 9  155 181 
 CHI  HZ I        1743 23.32         1.2 0.30             47            155 181 
 CHI  HN ES   4   1743 24.00                             125    2.30 0  155 181 
 GUY2CHZ EP   9   1743  7.69                             117    1.14 0  205 244 
 GUY2CHN ES       1743 32.63                                    0.29 9  205 244 
 GUY2CHZ  IAML    1743 37.95         1.6 0.42                           205 244 
 ZAR  HZ EP   4   1743  7.92                             116    1.84 0  206 322 
 ZAR  HN ES       1743 30.00                             116   -0.36 8  206 322 
 ZAR  HZ I        1743 31.53         4.6 0.11             47            206 322 
                                                                                
