 2010  914 1437 43.6 L   6.695 -73.217157.2  RSN  4 0.4 1.6LRSN                1
 GAP=212        0.76      11.3    22.1 10.9  0.1655E+03  0.1763E+02  0.2079E+02E
 Epicentro: VILLANUEVA - SANTANDER                                             3
 ACTION:UP  11-02-18 11:02 OP:tino STATUS:               ID:20100914143743 L   I
 2010-09-14-1432-33S.COL___113                                                 6
 STAT SP IPHASW D HRMM SECON CODA AMPLIT PERI AZIMU VELO SNR AR TRES W  DIS CAZ7
 BAR2 SZ EP   1   1438  4.05                             175    -0.4 7   12 162 
 BAR2 SZ ES   2   1438 19.96                             175    -0.7 5   12 162 
 BAR2 SZ I        1438 21.63         9.9 0.33                            12 162 
 BRR  HZ EP   1   1438  6.00                             154     0.0 7   71 310 
 BRR  HZ I        1438  7.59        15.4 0.43                            71 310 
 BRR  HN ES   2   1438 23.80                             154     0.4 5   71 310 
 RUS  HZ EP   1   1438  8.20                             149     0.4 7   90 171 
 RUS  HE ES   2   1438 27.02                             149     0.4 5   90 171 
 RUS  HZ I        1438 28.42         3.0 0.56                            90 171 
 CHI  HZ EP   2   1438 20.15                             120    -0.4 4  235 194 
 CHI  HN ES   3   1438 48.86                             120    -0.5 2  235 194 
 CHI  HZ I        1438 54.95         2.5 0.34                           235 194 
                                                                                
