 2014  214 1812 42.9 L   6.797 -73.180148.8  RSN  9 0.3 1.8LRSN                1
 GAP=132        0.62       2.5     4.0  6.4  0.2650E+01 -0.5496E+01 -0.2840E+01E
 Epicentro: LOS SANTOS - SANTANDER                                             3
 ACTION:UPD 14-03-10 08:10 OP:ep   STATUS:               ID:20140214181242 L   I
 OLDACT:REG 14-02-14 15:22 OP:mh   STATUS:               ID:20140214181000     3
 2014-02-14-1810-00M.COL___200                                                 6
 STAT SP IPHASW D HRMM SECON CODA AMPLIT PERI AZIMU VELO AIN AR TRES W  DIS CAZ7
 BAR2 SZ EP       1813  3.09                             171    0.2010 22.7 181 
 BRR  HZ EP   1   1813  4.49                             154    0.27 7 68.1 300 
 BRR  HN ES   1   1813 21.14                             154    0.31 7 68.1 300 
 BRR  HZ I        1813 24.77        15.1 0.48            153           68.1 300 
 PAM  SZ EP   1   1813  5.82                             150    0.21 7 80.1  41 
 PAM  SZ I        1813 25.30        14.9 0.31            142           80.1  41 
 RUS  HZ EP       1813  6.92                             144   -0.0410  101 174 
 RUS  HN ES   1   1813 25.13                             144   -0.59 7  101 174 
 RUS  HZ I        1813 26.78         7.1 0.34            147            101 174 
 PTB  HZ EP   1   1813  9.91                             133    0.12 7  144 259 
 PTB  HN ES   1   1813 30.38                             133   -0.38 7  144 259 
 PTB  HZ I        1813 36.61         7.4 0.45            135            144 259 
 SPBC HN ES   1   1813 33.89                             130    0.27 7  161 218 
 ZAR  HZ EP   4   1813 16.85                             123    1.64 0  201 293 
 ZAR  HN ES   1   1813 40.54                             123    0.14 6  201 293 
 ZAR  HZ I        1813 46.49                             123            201 293 
 SML  HZ EP   1   1813 18.97                             118   -0.60 6  242 336 
 SML  HE ES       1813 47.91                             118   -0.25 8  242 336 
 SML  HZ I        1813 57.08         9.4 0.06            115            242 336 
 CHI  HZ EP   1   1813 20.89                             118    0.25 6  247 194 
 CHI  HN ES   1   1813 49.94                             118   -0.13 6  247 194 
 CHI  HZ I        1813 53.94         3.2 0.28            118            247 194 
                                                                                
