 2013  714 1919 12.3 L   6.810 -73.187146.5  RSN  8 0.3 2.2LRSN                1
 GAP=131        0.79       3.5     3.9  5.9 -0.4978E+01 -0.2242E+00  0.1237E+01E
 Epicentro: ZAPATOCA - SANTANDER                                               3
 ACTION:UPD 13-08-12 10:37 OP:ep   STATUS:               ID:20130714191912 L   I
 OLDACT:UP  13-07-14 23:05 OP:Juan STATUS:               ID:20130714191912 L   3
 OLDACT:REG 13-07-14 16:14 OP:stll STATUS:               ID:20130714191851     3
 2013-07-14-1918-51M.COL___225                                                 6
 STAT SP IPHASW D HRMM SECON CODA AMPLIT PERI AZIMU VELO AIN AR TRES W  DIS CAZ7
 BAR2 SZ EP       1919 31.95                             170   -0.0910 24.1 179 
 BAR2 SZ I        1919 48.20        23.4 0.44            169           24.1 179 
 GIR2 SZ EP       1919 32.03                             168    0.0110 29.7 359 
 BRR  HZ EP       1919 33.73                             154    0.4510 66.6 300 
 BRR  HN ES       1919 50.06                             154    0.4110 66.6 300 
 BRR  HN I        1919 51.66        58.6 0.18            154           66.6 300 
 PAM  SZ EP       1919 34.86                             150    0.1310 79.6  43 
 PAM  SN ES       1919 51.77                             150   -0.4510 79.6  43 
 PAM  SN I        1919 53.25        28.9 0.36            151           79.6  43 
 RUS  HZ EP       1919 36.15                             144   -0.0910  102 174 
 RUS  HN ES       1919 54.97                             144    0.0710  102 174 
 RUS  HN I        1919 56.41        30.5 0.36            143            102 174 
 GRA  SZ EP       1919 37.76                             137    0.1110  126  20 
 PTB  HZ EP       1919 38.40                             133   -0.55 9  143 258 
 PTB  HN ES       1919 59.33                             133   -0.40 9  143 258 
 PTB  HN I        1920  5.26        21.9 0.64            132            143 258 
 SPBC HZ EP       1919 40.89                             130    0.22 9  161 217 
 SPBC HE ES       1920  2.94                             130    0.14 9  161 217 
 ROSC BZ EP   4   1919 52.62                             117    2.31 0  251 210 
                                                                                
