 2017 1114 1354 17.3 L   6.766 -73.124147.6  RSN 11 0.5 1.7LRSN                1
 GAP=141        1.12       3.4     4.7  5.9 -0.3146E+01  0.5393E+01  0.1115E+01E
 Epicentro: LOS SANTOS - SANTANDER                                             3
 ACTION:UPD 17-12-12 19:55 OP:rebc STATUS:               ID:20171114135417 L   I
 OLDACT:REG 17-11-14 20:37 OP:lv   STATUS:               ID:20171114134740     3
 2017-11-14-1348-00M.COL___459                                                 6
 STAT SP IPHASW D HRMM SECON CODA AMPLIT PERI AZIMU VELO AIN AR TRES W  DIS CAZ7
 BAR2 EZ IP     D 1354 37.04                             172   -0.0510 20.2 199 
 BAR2 EZ ES       1354 52.32                             172   -0.2110 20.2 199 
 BAR2 EZ I        1354 54.46        10.4 0.24            169           20.2 199 
 BRR  HZ IP     D 1354 39.11                             152    0.2410 75.1 300 
 BRR  HN ES       1354 56.88                             152    1.1810 75.1 300 
 PAM  EZ EP       1354 39.94                             151    0.1410 78.9  36 
 PAM  EN ES       1354 57.21                             151   -0.1410 78.9  36 
 PAM  EZ I        1354 59.21        13.9 0.58            155           78.9  36 
 RUS  HN ES       1354 59.05                             145   -0.3610 96.6 177 
 PTB  HZ EP       1354 43.99                             132   -0.58 9  149 260 
 PTB  HN ES       1355  5.29                             132   -0.55 9  149 260 
 PTB  HZ I        1355 12.26         6.1 0.38            131            149 260 
 ZAR  HZ EP   4   1354 52.11                             122    1.87 0  208 293 
 ZAR  HN ES       1355 15.67                             122   -0.27 8  208 293 
 ZAR  HZ I        1355 20.76         6.0 0.26            122            208 293 
 NOR  HZ EP       1354 53.62                             119    0.51 8  234 236 
 NOR  HN ES       1355 21.14                             119    0.10 8  234 236 
 NOR  HZ I        1355 28.66         3.0 0.46            119            234 236 
 CHI  HZ EP       1354 55.28                             118    0.51 8  246 196 
 CHI  HN ES       1355 24.09                             118    0.09 8  246 196 
 CHI  HZ I        1355 32.16         1.9 0.38            118            246 196 
 DRL03HZ EP       1354 58.93                             113   -0.52 7  293 352 
 DRL03HN ES       1355 32.04                             113   -0.29 7  293 352 
 DRL03HZ I        1355 34.28         3.5 0.56                           293 352 
 GUY2CHZ EP   9   1355  4.65                             113    3.68 0  301 236 
 GUY2CHN ES       1355 38.45                                   -0.26 7  301 236 
 GUY2CHZ I        1355 41.80         1.5 0.24                           301 236 
 PRA  HZ EP       1355 11.40                             107    0.76 6  390 210 
 PRA  HE ES       1355 51.57                             107   -0.67 6  390 210 
                                                                                
