 2014 1214 1144 38.7 L   6.759 -73.151136.9  RSN 12 0.5 1.9LRSN                1
 GAP=138        1.11       3.2     4.0  6.2 -0.9362E+00  0.8487E+01  0.2353E+01E
 Epicentro: LOS SANTOS - SANTANDER                                             3
 ACTION:UPD 15-02-10 17:03 OP:nd   STATUS:               ID:20141214114438 L   I
 OLDACT:REG 14-12-14 20:35 OP:fm   STATUS:               ID:20141214113748     3
 2014-12-14-1137-48M.COL___278                                                 6
 STAT SP IPHASW D HRMM SECON CODA AMPLIT PERI AZIMU VELO AIN AR TRES W  DIS CAZ7
 BAR2 EZ EP       1144 57.46                             172    0.3310 18.8 191 
 BAR2 EZ ES       1145 11.65                             172    0.1110 18.8 191 
 BAR2 EZ I        1145 13.60        16.9 0.18            169           18.8 191 
 BRR  HZ EP       1144 59.27                             150    0.3210 73.0 302 
 BRR  HE ES       1145 15.28                             150    0.4910 73.0 302 
 BRR  HZ I        1145 19.33         8.2 0.24            147           73.0 302 
 PAM  SZ EP       1145  0.43                             148    0.2610 81.2  38 
 PAM  SE ES       1145 16.49                             148   -0.4710 81.2  38 
 PAM  SZ I        1145 17.71         9.8 0.32            152           81.2  38 
 RUS  HZ EP       1145  1.48                             143    0.2710 96.1 176 
 RUS  HE ES       1145 18.00                             143   -0.8010 96.1 176 
 PTB  HN ES       1145 24.74                             130   -0.42 9  146 261 
 PTB  HZ I        1145 27.77         9.9 0.16            128            146 261 
 SPBC HN ES       1145 27.73                             128    0.20 9  159 220 
 SPBC HZ I        1145 34.46        13.4 0.50            127            159 220 
 ZAR  HZ EP       1145 10.65                             120   -0.01 8  205 293 
 ZAR  HN ES       1145 36.34                             120    0.71 8  205 293 
 ZAR  HZ I        1145 41.81         6.8 0.48            119            205 293 
 NOR  HE ES       1145 40.47                             117   -0.30 8  232 235 
 NOR  HZ I        1145 45.50         6.2 0.52            116            232 235 
 CHI  HZ EP       1145 15.14                             116   -0.24 8  244 195 
 CHI  HN ES       1145 44.91                             116    0.88 8  244 195 
 CHI  HZ I        1145 52.74         2.9 0.22            116            244 195 
 SML  HE ES       1145 43.20                             115   -0.54 8  248 336 
 SML  HZ I        1145 50.28         6.2 0.24            116            248 336 
 HEL  HZ EP       1145 17.65                             113   -0.60 8  270 257 
 HEL  HN ES       1145 48.52                             113   -0.61 8  270 257 
 HEL  HZ I        1145 55.89         3.6 0.30            113            270 257 
 TOL  SZ EP       1145 25.92                             108   -0.23 7  340 225 
 TOL  SN ES       1146  3.45                             108    0.25 7  340 225 
 TOL  SZ I        1146 13.02         7.2 0.48            108            340 225 
                                                                                
