 2017  414 1227 14.5 L   6.826 -73.125149.8  RSN 38 0.7 3.7LRSN                1
 GAP=113        1.18       2.7     3.5  4.8  0.4544E+00  0.4078E+01  0.9571E+00E
 Epicentro: LOS SANTOS - SANTANDER                                             3
      68.0      58.0    -144.0 11.0 10.0  7.0  0.0  0.1           RSN FPFIT    F
 ACTION:UPD 17-05-30 21:12 OP:jn   STATUS:               ID:20170414122714 L   I
 OLDACT:REG 17-04-14 19:38 OP:cara STATUS:               ID:20170414122343     3
 2017-04-14-1224-00M.COL___365                                                 6
 STAT SP IPHASW D HRMM SECON CODA AMPLIT PERI AZIMU VELO AIN AR TRES W  DIS CAZ7
 BAR2 EZ IP     D 1227 35.01                             170    0.2910 26.6 194 
 BAR2 EZ ES       1227 50.04                             170   -0.4210 26.6 194 
 BAR2 EZ I        1227 52.17      1274.5 0.28            167           26.6 194 
 BRR  HZ IP     D 1227 36.82                             153    0.6610 71.9 296 
 BRR  HN ES       1227 53.36                             153    0.3310 71.9 296 
 BRR  HZ I        1227 57.99       875.5 0.32            150           71.9 296 
 PAM  EZ IP   4 D 1227 37.87                             152    0.90 0 73.7  40 
 PAM  EN ES       1227 54.96                             152    0.4810 73.7  40 
 PAM  EZ I        1227 57.26      2064.3 0.48            153           73.7  40 
 RUS  HZ EP     D 1227 38.92                             144    0.0410  103 177 
 RUS  HN ES       1227 57.51                             144   -0.3610  103 177 
 RUS  HZ I        1227 58.96      1011.1 0.32            142            103 177 
 PTB  HZ EP       1227 41.65                             132   -0.43 9  151 258 
 PTB  HN ES       1228  2.90                             132   -0.67 9  151 258 
 PTB  HZ I        1228  7.86       469.3 0.20            129            151 258 
 SPBC HZ EP     C 1227 43.73                             129    0.04 9  167 219 
 SPBC HN ES       1228  5.89                             129   -0.54 9  167 219 
 SPBC HZ I        1228  8.62      1262.2 0.30            126            167 219 
 YPLC HZ IP     D 1227 45.49                             127    0.72 9  178 152 
 YPLC HE ES       1228  8.58                             127    0.23 9  178 152 
 YPLC HZ I        1228 10.40       992.3 0.28            126            178 152 
 ZAR  HZ EP       1227 47.51                             123    0.16 9  205 291 
 ZAR  HN ES       1228 13.07                             123    0.12 9  205 291 
 ZAR  HZ I        1228 18.93       538.7 0.28            121            205 291 
 TABC EZ EP   4   1227 52.48                             120    1.57 0  234 211 
 TABC EZ ES       1228 19.71                             120    0.43 8  234 211 
 TABC EZ I        1228 26.60       476.3 0.38            117            234 211 
 NOR  HZ EP       1227 50.83                             119   -0.04 8  238 234 
 NOR  HN ES       1228 18.77                             119   -0.45 8  238 234 
 NOR  HZ I        1228 24.66       415.5 0.20            117            238 234 
 CHI  HZ EP     C 1227 52.86                             118    0.04 8  252 195 
 CHI  HN ES       1228 22.69                             118    0.00 8  252 195 
 CHI  HZ I        1228 26.09       379.2 0.38            116            252 195 
 ROSC BZ EP   4 C 1227 54.58                             117    1.31 0  256 211 
 ROSC BE ES   4   1228 21.15                             117   -2.33 0  256 211 
 ROSC BZ I        1228 28.88       591.1 0.40            115            256 211 
 HEL  HZ EP       1227 55.68                             115    0.41 8  275 255 
 HEL  HN ES       1228 27.52                             115    0.47 8  275 255 
 HEL  HZ I        1228 33.86       187.2 0.40            113            275 255 
 URE  HZ EP   4   1227 54.96                             114   -0.96 0  285 291 
 URE  HN ES   4   1228 26.26                             114   -1.94 0  285 291 
 URE  HZ I        1228 36.91       408.9 0.20            112            285 291 
 LL1C HZ EP   4   1227 59.72                             113    1.69 0  304 351 
 LL1C HN ES   4   1228 35.12                             113    3.16 0  304 351 
 VIL  EZ EP       1227 58.23                             113   -0.28 7  307 192 
 VIL  EE ES       1228 32.61                             113   -0.19 7  307 192 
 VIL  EZ I        1228 35.66       473.6 0.38            111            307 192 
 PTGC HZ IP   4   1227 58.15                             112   -0.64 0  311 159 
 PTGC HN ES   4   1228 31.43                             112   -1.87 0  311 159 
 PTGC HZ I        1228 36.49       496.7 0.30            111            311 159 
 NIZA HZ EP   9   1228  3.89                             111    3.45 0  325 233 
 NIZA HN ES       1228 39.57                                   -0.12 7  325 233 
 CBOC HZ EP   4   1228  2.90                             110    0.94 0  337 252 
 CBOC HN ES       1228 39.19                             110    0.23 7  337 252 
 CBOC HZ I        1228 48.35        75.8 0.34            108            337 252 
 DBB  EZ EP     D 1228  2.41                             110   -0.00 7  342 274 
 DBB  EN ES   4   1228 37.78                             110   -1.98 0  342 274 
 DBB  EZ I        1228 40.29       109.3 0.16            108            342 274 
 ARGC HZ EP       1228  5.09                             109    0.97 6  357 340 
 ARGC HN ES       1228 43.83                             109    1.03 6  357 340 
 ARGC HZ I        1228 55.23        99.3 0.26            108            357 340 
 PRA  HZ EP       1228  8.09                             107   -0.53 6  396 210 
 PRA  HN ES       1228 50.18                             107   -0.62 6  396 210 
 PRA  HZ I        1228 57.28       243.4 0.40            105            396 210 
 ORTC HZ EP       1228  9.25                             107    0.23 6  399 216 
 ORTC HN ES       1228 52.05                             107    0.53 6  399 216 
 ORTC HZ I        1228 58.90       110.9 0.40            105            399 216 
 APAC HZ IP     D 1228  8.88                             107   -0.13 6  400 288 
 APAC HN ES       1228 51.95                             107    0.45 6  400 288 
 APAC HZ I        1228 55.84       129.1 0.38            105            400 288 
 VALLCHZ EP       1228  9.06                             106   -0.93 6  407 358 
 VALLCHN ES       1228 50.05                             106   -3.19 6  407 358 
 SJC  HZ EP   4   1228  9.26                             106   -0.84 0  408 326 
 SJC  HN ES   4   1228 50.18                             106   -3.25 0  408 326 
 SJC  HZ I        1228 54.82       108.0 0.50            105            408 326 
 PAL  HZ EP       1228 10.75                             106    0.52 6  409 239 
 PAL  HN ES       1228 53.06                             106   -0.61 6  409 239 
 PAL  HZ I        1228 56.64       100.3 0.22            105            409 239 
 GUA  EZ IP       1228 17.78                             104   -0.33 5  477 173 
 GUA  EN ES   4   1229  5.63                             104   -2.06 0  477 173 
 GUA  EZ I        1229 12.18       174.0 0.28            102            477 173 
 SMAR HZ EP   4   1228 19.55                             103   -0.70 0  495 346 
 SMAR HN ES   4   1229  6.46                             103   -5.04 0  495 346 
 SMAR HZ I        1229 11.55        94.5 0.26            102            495 346 
 PTA  HZ EP   4   1228 21.88                             102   -1.21 0  519 274 
 PTA  HN ES   4   1229 14.26                             102   -2.30 0  519 274 
 PTA  HZ I        1229 18.15        24.7 0.26            101            519 274 
 BET  EZ EP   4   1228 22.40                             102   -0.94 0  520 209 
 BET  EN ES   4   1229  9.49                             102   -7.52 0  520 209 
 BET  EZ I        1229 21.72        42.9 0.36            101            520 209 
 MACC HZ EP       1228 21.94                             102   -1.78 4  524 189 
 MACC HZ I        1229 18.92        52.3 0.28            101            524 189 
 MARO HZ EP   4   1228 25.49                             102   -0.60 0  541 216 
 MARO HN ES   4   1229 14.50                             102   -7.40 0  541 216 
 MARO HZ I        1229 25.53        22.7 0.60            100            541 216 
 URI  HZ EP   4   1228 25.43                             101   -1.81 0  553  13 
 URI  HN ES   4   1229 19.57                             101   -4.37 0  553  13 
 JAMC HZ EP       1228 28.15                             101   -0.23 3  561 225 
 JAMC HN ES       1229 25.75                             101   -0.22 3  561 225 
 MAL  EZ EP   4   1228 29.80                             101    1.70 0  561 237 
 GARC HZ EP   4   1228 29.13                             101   -1.18 0  576 207 
 GARC HN ES   4   1229 24.80                             101   -4.61 0  576 207 
 GARC HZ I        1229 31.36        83.7 0.24             99            576 207 
 CONO HZ EP       1228 35.71                             100    0.29 3  616 216 
 CONO HZ I        1230  2.67        20.2 0.38             99            616 216 
 POP2 HZ EP       1228 34.62                             100   -0.45 3  616 220 
 FLO2 HZ EP       1228 37.39                              99   -0.77 2  644 206 
 FLO2 HE ES   4   1229 42.17                              99   -1.22 0  644 206 
 FLO2 HZ I        1230 17.97        11.5 0.66             98            644 206 
 SOTO HZ EP       1228 39.73                              99    0.66 2  647 217 
                                                                                
