 2013 1014 1752  0.1 L   6.747 -73.201150.8  RSN  4 0.3 1.6LRSN                1
 GAP=227        0.70       5.6     5.3  5.7  0.1447E+02  0.2849E+01  0.8903E+00E
 Epicentro: VILLANUEVA - SANTANDER                                             3
 ACTION:UPD 13-11-25 09:21 OP:ep   STATUS:               ID:20131014175200 L   I
 OLDACT:UP  13-10-14 17:21 OP:cam  STATUS:               ID:20131014174959     3
 OLDACT:REG 13-10-14 16:04 OP:cam  STATUS:               ID:20131014174959     3
 2013-10-14-1749-59M.COL___273                                                 6
 STAT SP IPHASW D HRMM SECON CODA AMPLIT PERI AZIMU VELO AIN AR TRES W  DIS CAZ7
 BAR2 SZ EP       1752 20.06                             173   -0.1310 17.2 173 
 BAR2 SZ ES       1752 35.44                             173   -0.4610 17.2 173 
 BAR2 SZ I        1752 36.00        14.1 0.24            171           17.2 173 
 BRR  HZ EP       1752 21.70                             154    0.0610 69.1 305 
 BRR  HN ES       1752 38.86                             154    0.3810 69.1 305 
 RUS  HZ EP       1752 24.13                             146    0.1810 95.4 172 
 RUS  HN ES       1752 42.83                             146    0.2410 95.4 172 
 RUS  HZ I        1752 43.59         3.6 0.26            145           95.4 172 
 PTB  HZ EP       1752 26.60                             135   -0.22 9  141 261 
 PTB  HN ES       1752 47.61                             135   -0.08 9  141 261 
 PTB  HZ I        1752 49.76         4.5 0.48            133            141 261 
                                                                                
