 2012  614 1339 50.7 L   6.767 -73.173144.4  RSN  5 0.1 1.6LRSN                1
 GAP=135        0.39       2.1     2.2  3.6 -0.5089E+00  0.2677E+01 -0.5629E+00E
 Epicentro: LOS SANTOS - SANTANDER                                             3
 ACTION:UPD 12-08-06 17:49 OP:ep   STATUS:               ID:20120614133950 L   I
 2012-06-14-1340-00M.COL___200                                                 6
 STAT SP IPHASW D HRMM SECON CODA AMPLIT PERI AZIMU VELO AIN AR TRES W  DIS CAZ7
 BAR2 SZ EP       1340 10.34                             172    0.2810 19.4 183 
 BAR2 SZ ES   1   1340 25.13                             172   -0.06 7 19.4 183 
 BAR2 SZ I        1340 27.04         9.0 0.24                          19.4 183 
 PAM  SZ EP       1340 13.04                             149    0.0110 82.1  40 
 PAM  SN ES       1340 30.41                             149   -0.0610 82.1  40 
 RUS  HZ EP       1340 13.97                             144   -0.0710 97.2 174 
 RUS  HN ES       1340 32.25                             144   -0.0310 97.2 174 
 RUS  HZ I        1340 34.70         5.4 0.38                          97.2 174 
 PTB  HZ EP       1340 17.04                             132   -0.16 9  144 260 
 PTB  HN ES   1   1340 38.02                             132    0.13 7  144 260 
 PTB  HZ I        1340 40.65         4.0 0.09                           144 260 
 ZAR  HN ES   1   1340 47.98                             122   -0.04 6  203 293 
 ZAR  HZ I        1340 55.04         5.1 0.20                           203 293 
                                                                                
