 2016  814 1544 43.8 L   6.816 -73.122144.7  RSN  8 0.2 2.0LRSN                1
 GAP=241        0.57       2.6     3.0  3.7  0.2423E+01  0.2351E+01  0.6193E+00E
 Epicentro: LOS SANTOS - SANTANDER                                             3
 ACTION:UPD 16-10-29 15:35 OP:rebc STATUS:               ID:20160814154443 L   I
 OLDACT:REG 16-08-14 20:18 OP:lv   STATUS:               ID:20160814153759     3
 2016-08-14-1537-59S.COL___349                                                 6
 STAT SP IPHASW D HRMM SECON CODA AMPLIT PERI AZIMU VELO AIN AR TRES W  DIS CAZ7
 BAR2 EZ EP       1545  3.33                             170    0.0110 25.6 195 
 BAR2 HE ES       1545 18.44                             170   -0.1410 25.6 195 
 BAR2 EZ I        1545 20.07        17.9 0.26                          25.6 195 
 BRR  HZ EP       1545  5.05                             152    0.1610 72.7 296 
 BRR  HN ES       1545 21.64                             152    0.2710 72.7 296 
 BRR  HZ I        1545 25.86        17.3 0.30                          72.7 296 
 RUS  HZ EP       1545  7.80                             143    0.2610  102 178 
 RUS  HN ES       1545 25.88                             143   -0.1910  102 178 
 RUS  HZ I        1545 27.87         8.5 0.36                           102 178 
 PTB  HZ EP       1545 10.57                             131   -0.35 9  151 258 
 PTB  HE ES       1545 31.89                             131   -0.21 9  151 258 
 PTB  HZ I        1545 33.76        16.2 0.22                           151 258 
 ZAR  HZ EP       1545 15.93                             122   -0.40 8  206 291 
 ZAR  HN ES       1545 41.93                             122    0.20 8  206 291 
 ZAR  HZ I        1545 44.17        11.9 0.10                           206 291 
 NOR  HZ EP       1545 19.94                             118    0.16 8  238 234 
 NOR  HE ES       1545 47.95                             118    0.09 8  238 234 
 NOR  HZ I        1545 49.32         7.9 0.20                           238 234 
 CHI  HN ES       1545 51.40                             117    0.17 8  251 196 
 CHI  HZ I        1545 58.84         5.5 0.54                           251 196 
 GUY2CHZ EP   9   1545 28.62                             112    0.93 0  304 235 
 GUY2CHE ES       1546  2.79                                   -0.09 7  304 235 
 GUY2CHZ I        1546 11.59         4.8 0.54                           304 235 
                                                                                
