 2010 1214 1108 38.2 L   6.814 -72.964143.6  RSN  4 0.2 1.3LRSN                1
 GAP=258        0.43       4.8    23.4  7.2 -0.2895E+02  0.6847E+01  0.7425E+00E
 Epicentro: CEPITA - SANTANDER                                                 3
 ACTION:UP  11-01-14 15:24 OP:pat  STATUS:               ID:20101214110838 L   I
 2010-12-14-1107-23S.COL___137                                                 6
 STAT SP IPHASW D HRMM SECON CODA AMPLIT PERI AZIMU VELO SNR AR TRES W  DIS CAZ7
 BAR2 SZ EP   2   11 8 57.68                             166    -0.1 5   35 225 
 BAR2 SZ I        11 8 58.99         5.2 0.49                            35 225 
 BAR2 SZ ES   2   11 9 13.02                             166    -0.1 5   35 225 
 BTL  SZ EP       11 8 57.90                             165     0.110   35 289 
 RUS  HZ EP   2   11 9  1.51                             143    -0.3 5  103 187 
 RUS  HE ES   2   11 9 20.59                             143     0.3 5  103 187 
 RUS  HZ I        11 9 21.84         2.2 0.65                           103 187 
 CHI  HZ EP   2   11 9 16.91                             116     0.4 4  256 199 
 CHI  HE ES   2   11 9 46.26                             116    -0.2 4  256 199 
 CHI  HZ I        11 9 50.94         1.6 0.32                           256 199 
                                                                                
