 2010  714 1421 47.6 L   6.154 -73.875  4.0  RSN  4 0.2 1.6LRSN                1
 GAP=140        0.55       2.0     2.6  5.3  0.1590E+01 -0.3623E+01 -0.3918E+01E
 Epicentro: LANDAZURI - SANTANDER                                              3
 ACTION:UPD 10-12-01 15:17 OP:pat  STATUS:               ID:20100714142147 L   I
 2010-07-14-1416-20S.COL___120                                                 6
 STAT SP IPHASW D HRMM SECON CODA AMPLIT PERI AZIMU VELO AIN AR TRES W  DIS CAZ7
 BAR2 SZ EP       1422  2.41                              47     0.210   91  58 
 BAR2 SZ I        1422 15.61        24.2 0.49                            91  58 
 RUS  HZ EP       1422  2.84                              47     0.110   92 108 
 RUS  HZ I        1422  3.26        12.1 0.22                            92 108 
 RUS  HN ES   1   1422 14.25                              47    -0.3 7   92 108 
 BRR  HZ EP       1422  4.26                              47    -0.210  107  10 
 BRR  HN ES       1422 17.58                              47     0.010  107  10 
 BRR  HZ I        1422 18.97        16.0 0.30                           107  10 
 RREF HZ EP       1422 20.41                              37     0.0 8  214 230 
 RREF HZ I        1422 47.32         4.7 0.28                           214 230 
                                                                                
