 2013  214 1314  8.4 L   6.796 -73.045136.8  RSN  4 0.3 2.2LRSN                1
 GAP=247        0.88       5.5    11.4  6.9  0.3243E+02  0.4996E+00  0.9249E+01E
 Epicentro: LOS SANTOS - SANTANDER                                             3
 ACTION:UPD 13-03-12 09:33 OP:ep   STATUS:               ID:20130214131408 L   I
 2013-02-14-1310-00M.COL___241                                                 6
 STAT SP IPHASW D HRMM SECON CODA AMPLIT PERI AZIMU VELO AIN AR TRES W  DIS CAZ7
 BAR2 SZ EP       1314 27.21                             168    0.1910 27.1 214 
 BAR2 SZ ES       1314 40.91                             168   -0.6510 27.1 214 
 BAR2 SZ I        1314 44.65        36.6 0.32            159           27.1 214 
 BRR  HZ EP       1314 29.07                             147   -0.1210 81.3 295 
 BRR  HN ES       1314 45.70                             147    0.2710 81.3 295 
 BRR  HN I        1314 49.43        40.4 0.16            143           81.3 295 
 RUS  HZ EP       1314 31.45                             142    0.2410100.0 182 
 RUS  HN ES       1314 49.39                             142    0.3710100.0 182 
 RUS  HN I        1314 51.51        26.9 0.34            140          100.0 182 
 CHI  HZ EP     D 1314 45.43                             115   -0.46 8  251 198 
 CHI  HN ES       1315 15.12                             115   -0.03 8  251 198 
 CHI  HN I        1315 20.43         8.4 0.46            115            251 198 
                                                                                
