 2015 1014 1227 39.1 L   6.770 -73.151144.1  RSN 13 0.5 2.1LRSN                1
 GAP=137        1.14       2.9     4.8  6.1 -0.2287E+01  0.9325E+01  0.3921E-01E
 Epicentro: LOS SANTOS - SANTANDER                                             3
 ACTION:UPD 15-12-22 20:40 OP:cam  STATUS:               ID:20151014122739 L   I
 OLDACT:UP  15-10-14 22:30 OP:ak   STATUS:               ID:20151014121749     3
 OLDACT:UP  15-10-14 22:29 OP:ak   STATUS:               ID:20151014121749     3
 OLDACT:UP  15-10-14 22:28 OP:ak   STATUS:               ID:20151014121749     3
 OLDACT:REG 15-10-14 20:27 OP:ak   STATUS:               ID:20151014121749     3
 2015-10-14-1217-49M.COL___334                                                 6
 STAT SP IPHASW D HRMM SECON CODA AMPLIT PERI AZIMU VELO AIN AR TRES W  DIS CAZ7
 BAR2 EZ IP     C 1227 58.76                             172    0.3010 20.0 190 
 BAR2 EZ ES       1228 13.48                             172   -0.0910 20.0 190 
 BAR2 EZ I        1228 14.59        13.2 0.18            170           20.0 190 
 BRR  HZ EP       1228  0.66                             152    0.5310 72.3 301 
 BRR  HN ES       1228 16.68                             152    0.1410 72.3 301 
 BRR  HZ I        1228 21.95        28.9 0.12            150           72.3 301 
 PAM  EZ EP       1228  1.80                             150    0.4910 80.3  38 
 PAM  EE ES       1228 18.64                             150   -0.0010 80.3  38 
 PAM  EZ I        1228 20.70        43.0 0.44            154           80.3  38 
 RUS  HZ EP       1228  2.57                             144    0.1210 97.3 176 
 RUS  HE ES       1228 20.26                             144   -0.4110 97.3 176 
 RUS  HZ I        1228 22.00         9.1 0.20            147           97.3 176 
 SPBC HZ EP       1228  7.90                             129    0.71 9  160 220 
 SPBC HN ES       1228 29.44                             129    0.34 9  160 220 
 SPBC HZ I        1228 33.64        11.7 0.18            130            160 220 
 OCA  HZ EP       1228  7.20                             129   -0.38 9  163 353 
 OCA  HE ES       1228 28.94                             129   -0.86 9  163 353 
 OCA  HZ I        1228 32.42        38.7 0.42            131            163 353 
 ZAR  HZ EP       1228 12.08                             122    0.57 9  205 293 
 ZAR  HN ES       1228 37.39                             122    0.60 9  205 293 
 ZAR  HZ I        1228 42.78        21.5 0.42            123            205 293 
 NOR  HZ EP       1228 13.72                             118   -0.75 8  232 235 
 NOR  HN ES       1228 41.41                             118   -0.66 8  232 235 
 NOR  HZ I        1228 48.57         5.8 0.20            120            232 235 
 CHI  HZ EP       1228 16.66                             117    0.32 8  245 195 
 CHI  HN ES       1228 44.84                             117   -0.55 8  245 195 
 CHI  HZ I        1228 50.35         4.7 0.36            119            245 195 
 SML  HZ EP       1228 15.26                             117   -0.67 8  246 336 
 SML  HN ES       1228 44.54                             117   -0.12 8  246 336 
 SML  HZ I        1228 46.89        13.9 0.10            119            246 336 
 URE  HZ EP   4   1228 23.41                             113    3.25 0  285 293 
 URE  HN ES   4   1228 50.13                             113   -2.07 0  285 293 
 URE  HZ I        1228 52.97        11.4 0.12            115            285 293 
 GUY2CHZ EP   1   1228 22.20                             112   -0.16 5  299 235 
 GUY2CHN ES       1228 55.82                             112   -0.29 7  299 235 
 GUY2CHZ I        1229  6.37         4.6 0.60                           299 235 
 SJC  HZ EP   4   1228 33.62                             105   -1.27 0  412 327 
 SJC  HN ES   4   1229 14.36                             105   -4.05 0  412 327 
 SJC  HZ I        1229 18.76         3.6 0.34            107            412 327 
                                                                                
