 2010  314 1951  7.5 L   7.081 -73.264119.6  RSN  4 0.4 1.5LRSN                1
 GAP=173        0.75       4.1    13.2 10.6  0.2013E+02 -0.8299E+02 -0.1242E+02E
 Epicentro: LEBRIJA - SANTANDER                                                3
 ACTION:UP  10-08-24 09:54 OP:vdl  STATUS:               ID:20100314195107 L   I
 2010-03-14-1946-59S.COL___095                                                 6
 STAT SP IPHASW D HRMM SECON CODA AMPLIT PERI AZIMU VELO SNR AR TRES W  DIS CAZ7
 BRR  HZ EP   1   1951 24.53                             156    -0.1 7   50 273 
 BRR  HN ES   1   1951 37.96                             156    -0.1 7   50 273 
 BRR  HZ I        1951 38.47        15.5 0.22                            50 273 
 BAR2 SZ EP       1951 25.75                             154     0.510   55 171 
 BAR2 SZ ES   2   1951 39.32                             154     0.2 5   55 171 
 OCA  SZ EP       1951 30.80                             130     0.010  128 357 
 OCA  SZ ES   1   1951 48.71                             130    -0.2 7  128 357 
 RUS  HZ EP   1   1951 31.48                             129    -0.2 7  133 171 
 RUS  HZ I        1951 32.48         2.3 0.04                           133 171 
 RUS  HN ES   2   1951 49.62                             129    -0.9 5  133 171 
                                                                                
