 2013  214 1552 45.4 L   6.815 -73.153154.3  RSN  7 0.4 2.0LRSN                1
 GAP=135        0.98       4.6     5.3  8.8 -0.1733E+01  0.5451E+01  0.4768E+01E
 Epicentro: LOS SANTOS - SANTANDER                                             3
 ACTION:UPD 13-03-12 09:33 OP:ep   STATUS:               ID:20130214155245 L   I
 2013-02-14-1550-00M.COL___241                                                 6
 STAT SP IPHASW D HRMM SECON CODA AMPLIT PERI AZIMU VELO AIN AR TRES W  DIS CAZ7
 BAR2 SZ EP       1553  5.86                             170   -0.2310 24.9 187 
 BRR  HZ EP       1553  7.82                             154    0.4210 69.7 298 
 BRR  HN ES       1553 25.26                             154    0.7010 69.7 298 
 BRR  HN I        1553 26.96        18.6 0.18            151           69.7 298 
 PAM  SZ IP     D 1553  8.64                             153    0.1510 76.6  41 
 PAM  SN ES       1553 26.07                             153   -0.4310 76.6  41 
 PAM  SN I        1553 27.25        13.0 0.44            154           76.6  41 
 RUS  HZ EP       1553 10.22                             145    0.1010  102 176 
 RUS  HN ES   1   1553 29.35                             145   -0.06 7  102 176 
 RUS  HN I        1553 30.33         8.6 0.22            146            102 176 
 PTB  HZ EP   1   1553 13.01                             134   -0.03 7  147 258 
 PTB  HN ES   1   1553 33.61                             134   -0.98 7  147 258 
 NOR  HN ES   1   1553 49.90                             120   -0.07 6  235 234 
 NOR  HN I        1553 55.36        10.0 0.14            120            235 234 
 SML  HN ES       1553 50.86                             119   -0.26 8  242 335 
 SML  HN I        1553 57.19        16.4 0.10            119            242 335 
                                                                                
