 2014  514 1423  8.1 L   6.788 -73.136150.0  RSN  8 0.5 2.0LRSN                1
 GAP=138        1.19       3.8     6.3 10.1 -0.3264E+00  0.3167E+02  0.1486E+00E
 Epicentro: LOS SANTOS - SANTANDER                                             3
 ACTION:UPD 15-03-16 16:57 OP:nd   STATUS:               ID:20140514142308 L   I
 OLDACT:REG 14-05-14 21:56 OP:carl STATUS:               ID:20140514141811     3
 2014-05-14-1418-11M.COL___260                                                 6
 STAT SP IPHASW D HRMM SECON CODA AMPLIT PERI AZIMU VELO AIN AR TRES W  DIS CAZ7
 PAM  SZ EP       1423 31.50                             151    0.6810 77.7  38 
 PAM  SN ES       1423 48.23                             151   -0.2810 77.7  38 
 PAM  SZ I        1423 50.82        14.2 0.62            152           77.7  38 
 RUS  HZ EP       1423 32.59                             145    0.3910 99.2 177 
 RUS  HN ES       1423 50.98                             145    0.0010 99.2 177 
 RUS  HZ I        1423 52.00        10.8 0.32            146           99.2 177 
 PTB  HZ EP       1423 35.11                             133   -0.40 9  149 259 
 PTB  HZ I        1424  0.46        11.6 0.40            128            149 259 
 ZAR  HZ EP       1423 41.57                             123    0.57 8  206 292 
 ZAR  HN ES       1424  7.22                             123    0.57 8  206 292 
 ZAR  HZ I        1424 15.30        10.8 0.24            119            206 292 
 NOR  HZ EP       1423 44.28                             119    0.16 8  235 235 
 NOR  HN ES       1424 12.20                             119    0.01 8  235 235 
 NOR  HZ I        1424 17.48        11.2 0.20            117            235 235 
 SML  HZ EP       1423 45.19                             118    0.02 8  245 335 
 SML  HN ES       1424 12.98                             118   -1.08 8  245 335 
 SML  HZ I        1424 26.92        10.3 0.28            116            245 335 
 CHI  HZ EP       1423 45.21                             118   -0.75 8  248 195 
 CHI  HN ES       1424 15.07                             118   -0.39 8  248 195 
 CHI  HZ I        1424 20.01         4.5 0.20            117            248 195 
 GUY2CHZ EP   4   1423 53.81                             113    1.86 0  301 235 
 GUY2CHN ES   4   1424 27.52                             113    1.40 0  301 235 
 GUY2CHZ I        1424 35.07         6.3 0.48                           301 235 
                                                                                
