 2016  314 1613 47.0 L   6.788 -73.165149.3  RSN  5 0.2 1.5LRSN                1
 GAP=141        0.54       3.1     3.1  4.1 -0.4265E+01  0.3490E+01 -0.7325E+00E
 Epicentro: LOS SANTOS - SANTANDER                                             3
 ACTION:UPD 16-05-13 21:24 OP:cam  STATUS:               ID:20160314161347 L   I
 OLDACT:REG 16-03-14 20:39 OP:cara STATUS:               ID:20160314160750     3
 2016-03-14-1607-50M.COL___304                                                 6
 STAT SP IPHASW D HRMM SECON CODA AMPLIT PERI AZIMU VELO AIN AR TRES W  DIS CAZ7
 BAR2 EZ IP       1614  7.11                             171    0.0610 21.7 185 
 BAR2 EZ ES       1614 22.54                             171   -0.1210 21.7 185 
 BAR2 EZ I        1614 23.93         6.0 0.30            171           21.7 185 
 PAM  EZ EP       1614  9.92                             151    0.1610 79.8  40 
 PAM  EN ES       1614 27.52                             151    0.0310 79.8  40 
 PAM  EZ I        1614 29.26         5.5 0.58            154           79.8  40 
 RUS  HZ EP       1614 10.58                             145   -0.4610 99.4 175 
 RUS  HE ES       1614 29.94                             145    0.1710 99.4 175 
 RUS  HZ I        1614 30.69         4.1 0.26            146           99.4 175 
 PTB  HZ EP       1614 14.05                             133   -0.02 9  145 259 
 PTB  HN ES       1614 35.08                             133   -0.08 9  145 259 
 PTB  HZ I        1614 37.12         4.8 0.16            134            145 259 
 SPBC HZ EP       1614 15.77                             130    0.20 9  161 219 
 SPBC HN ES       1614 37.96                             130    0.12 9  161 219 
 SPBC HZ I        1614 43.56         5.9 0.40            131            161 219 
                                                                                
