 2010 1214 1258  4.8 L   6.796 -73.170142.6  RSN 13 0.3 2.8LRSN                1
 GAP=134        0.57       2.1     4.0  4.5 -0.2368E+01  0.8000E+01 -0.1319E+01E
 Epicentro: LOS SANTOS - SANTANDER                                             3
 ACTION:UP  11-01-14 15:24 OP:pat  STATUS:               ID:20101214125804 L   I
 2010-12-14-1255-03S.COL___136                                                 6
 STAT SP IPHASW D HRMM SECON CODA AMPLIT PERI AZIMU VELO SNR AR TRES W  DIS CAZ7
 BTL  SZ EP       1258 24.26                             173     0.310   17 321 
 BAR2 SZ IP       1258 24.26                             171     0.210   23 184 
 BAR2 SZ ES   1   1258 39.17                             171     0.1 7   23 184 
 BAR2 SZ I        1258 40.63       316.6 0.21                            23 184 
 GIR2 SZ EP       1258 24.21                             167     0.110   31 355 
 RUS  HZ IP     C 1258 28.10                             143    -0.210  100 175 
 RUS  HN ES       1258 46.25                             143    -0.310  100 175 
 RUS  HZ I        1258 48.24        80.0 0.41                           100 175 
 GRA  SZ IP       1258 29.98                             136     0.110  127  19 
 GRA  SZ ES   1   1258 49.34                             136    -0.1 7  127  19 
 GRA  SZ I        1258 50.72        67.2 0.36                           127  19 
 OCA  SZ EP       1258 32.61                             129    -0.3 9  160 354 
 OCA  SZ ES   2   1258 54.73                             129    -0.1 5  160 354 
 OCA  SZ I        1258 57.82       107.2 0.08                           160 354 
 YOP  SZ EP   1   1258 34.70                             125     0.0 7  180 153 
 YOP  SE ES   2   1258 58.20                             125     0.1 4  180 153 
 YOP  SZ I        1258 59.53        46.1 0.25                           180 153 
 NOR  SZ EP   1   1258 39.84                             118    -0.3 6  232 234 
 NOR  SN ES   2   1259  7.55                             118    -0.1 4  232 234 
 CHI  HZ EP   2   1258 42.09                             117    -0.1 4  248 195 
 CHI  HN ES   2   1259 11.65                             117     0.2 4  248 195 
 CHI  HZ I        1259 18.83        46.9 0.46                           248 195 
 HEL  HZ EP   1   1258 45.11                             114     0.5 6  269 256 
 HEL  HN ES   2   1259 15.62                             114     0.0 4  269 256 
 HEL  HZ I        1259 24.06        31.7 0.17                           269 256 
 RREF HZ EP   1   1258 51.22                             110     0.6 5  319 229 
 RREF HE ES   2   1259 25.46                             110    -0.8 3  319 229 
 RREF HZ I        1259 33.97        46.6 0.33                           319 229 
 DBB  SZ EP   2   1258 51.57                             109    -0.3 3  337 274 
 PRA  HZ EP   1   1258 57.65                             106    -0.4 4  390 209 
 PRA  HN ES   2   1259 39.87                             106     0.3 3  390 209 
                                                                                
