 2010  814 1304  8.8 L   6.801 -73.111142.1  RSN  4 0.1 1.2LRSN                1
 GAP=231        0.36      15.7    13.7  6.5  0.1723E+03  0.1525E+01  0.2076E+02E
 Epicentro: LOS SANTOS - SANTANDER                                             3
 ACTION:UP  10-09-07 10:54 OP:vdl  STATUS:               ID:20100814130408 L   I
 2010-08-14-1303-15S.COL___111                                                 6
 STAT SP IPHASW D HRMM SECON CODA AMPLIT PERI AZIMU VELO SNR AR TRES W  DIS CAZ7
 BTL  SZ EP       13 4 28.06                             171     0.110   22 307 
 BTL  SZ ES   2   13 4 42.70                             171    -0.2 5   22 307 
 BAR2 SZ EP   1   13 4 27.92                             170    -0.1 7   25 199 
 BAR2 SZ I        13 4 48.19         3.2 0.47                            25 199 
 BRR  HZ EP       13 4 29.68                             151    -0.110   75 297 
 BRR  HE ES   2   13 4 46.20                             151     0.1 5   75 297 
 BRR  HZ I        13 4 46.51         4.3 0.18                            75 297 
 RUS  HZ EP   3   13 4 32.31                             143     0.1 2  101 178 
                                                                                
