 2015 1014 1043 36.6 L   6.772 -73.180142.3  RSN  7 0.4 1.4LRSN                1
 GAP=197        0.79       2.7     4.5  5.7  0.1848E+01  0.1053E+02 -0.8554E+00E
 Epicentro: LOS SANTOS - SANTANDER                                             3
 ACTION:UPD 15-12-22 20:40 OP:cam  STATUS:               ID:20151014104336 L   I
 OLDACT:REG 15-10-14 20:20 OP:ak   STATUS:               ID:20151014103746     3
 2015-10-14-1037-46M.COL___334                                                 6
 STAT SP IPHASW D HRMM SECON CODA AMPLIT PERI AZIMU VELO AIN AR TRES W  DIS CAZ7
 BAR2 EZ EP       1043 56.05                             172    0.2710 19.8 181 
 BAR2 EZ ES       1044 10.54                             172   -0.1810 19.8 181 
 BAR2 EZ I        1044 14.49         4.9 0.38            171           19.8 181 
 RUS  HZ EP       1044  0.05                             144    0.2010 97.8 174 
 RUS  HN ES       1044 17.65                             144   -0.3010 97.8 174 
 RUS  HZ I        1044 19.71         3.2 0.18            140           97.8 174 
 ZAR  HZ EP   1   1044  8.03                             122   -0.59 6  202 293 
 ZAR  HN ES       1044 33.44                             122   -0.13 9  202 293 
 ZAR  HZ I        1044 37.02         2.5 0.26            116            202 293 
 NOR  HZ EP       1044 11.35                             118   -0.29 8  230 235 
 NOR  HN ES       1044 39.62                             118    0.68 8  230 235 
 NOR  HZ I        1044 42.71         2.1 0.17            114            230 235 
 SML  HZ EP       1044 12.92                             116   -0.29 8  245 336 
 SML  HE ES       1044 42.24                             116    0.50 8  245 336 
 SML  HZ I        1044 44.05         4.6 0.11            109            245 336 
 CHI  HZ EP       1044 14.05                             117    0.34 8  245 195 
 CHI  HN ES       1044 42.59                             117   -0.03 8  245 195 
 CHI  HZ I        1044 49.48         1.6 0.60            112            245 195 
 GUY2CHZ EP   1   1044 18.89                             112   -0.64 5  296 235 
 GUY2CHN ES       1044 52.90                             112   -0.09 7  296 235 
 GUY2CHZ I        1045  1.96         1.3 0.67                           296 235 
                                                                                
