 2010  814 1215 12.3 L   6.802 -73.069144.6  RSN  7 0.4 2.0LRSN                1
 GAP=167        0.77       5.2    10.1  7.2  0.1415E+02 -0.1486E+02 -0.2197E+01E
 Epicentro: LOS SANTOS - SANTANDER                                             3
 ACTION:UP  10-09-07 10:54 OP:vdl  STATUS:               ID:20100814121512 L   I
 2010-08-14-1211-10S.COL___111                                                 6
 STAT SP IPHASW D HRMM SECON CODA AMPLIT PERI AZIMU VELO SNR AR TRES W  DIS CAZ7
 BAR2 SZ EP       1215 31.83                             169     0.010   26 209 
 BAR2 SZ ES   1   1215 46.32                             169    -0.8 7   26 209 
 BAR2 SZ I        1215 47.93        17.8 0.31                            26 209 
 GIR2 SZ EP   1   1215 31.89                             166     0.0 7   34 336 
 GIR2 SZ ES   2   1215 46.84                             166    -0.3 5   34 336 
 BRR  HZ EP       1215 33.64                             149    -0.110   79 295 
 BRR  HZ I        1215 33.85        25.4 0.14                            79 295 
 BRR  HN ES   1   1215 50.95                             149     0.5 7   79 295 
 RUS  HZ EP       1215 36.03                             143     0.110  101 181 
 RUS  HN ES   1   1215 54.80                             143     0.5 7  101 181 
 RUS  HZ I        1215 55.68         9.8 0.21                           101 181 
 GUE  SZ EP   2   1215 37.01                             139     0.3 5  115   8 
 GRA  SZ EP   2   1215 37.21                             137     0.0 5  123  14 
 PRA  HZ EP   2   1216  6.32                             106     0.0 3  396 211 
 PRA  HE ES   2   1216 47.44                             106    -1.0 3  396 211 
 PRA  HZ I        1216 51.95         5.3 0.73                           396 211 
                                                                                
