 2016 1214 1002 12.6 L   6.729 -73.101157.4  RSN  5 0.4 1.0LRSN                1
 GAP=237        0.97       8.5     7.8  8.8  0.3994E+02  0.1669E+02  0.5498E+00E
 Epicentro: JORDAN - SANTANDER                                                 3
 ACTION:UPD 17-01-11 20:15 OP:rebc STATUS:               ID:20161214100212 L   I
 OLDACT:UP  16-12-14 21:29 OP:ar   STATUS:               ID:20161214095746d    3
 OLDACT:DUP 16-12-14 21:19 OP:ar   STATUS:               ID:20161214095746d    3
 OLDACT:REG 16-12-14 21:16 OP:ar   STATUS:               ID:20161214095745     3
 2016-12-14-0958-00M.COL___363                                                 6
 STAT SP IPHASW D HRMM SECON CODA AMPLIT PERI AZIMU VELO AIN AR TRES W  DIS CAZ7
 BAR2 EZ EP       10 2 33.24                             173   -0.3110 17.6 211 
 BAR2 EZ ES       10 2 50.09                             173    0.2110 17.6 211 
 BAR2 EZ I        10 2 51.16         4.0 0.32            169           17.6 211 
 BRR  HZ EP   2   10 2 34.61                             152   -0.87 5 79.4 302 
 BRR  HN ES       10 2 53.54                             152    0.2210 79.4 302 
 RUS  HZ EP   2   10 2 37.10                             148    0.11 5 92.5 179 
 RUS  HN ES       10 2 55.79                             148   -0.2110 92.5 179 
 RUS  HZ I        10 2 57.93         1.0 0.48            147           92.5 179 
 PTB  HZ EP       10 2 41.71                             134    0.85 9  151 262 
 PTB  HN ES       10 3  2.56                             134   -0.34 9  151 262 
 PTB  HZ I        10 3  5.62         1.1 0.42            133            151 262 
 ZAR  HN ES       10 3 12.90                             124   -0.22 8  212 294 
                                                                                
