 2013  214 1456 22.4 L   6.746 -73.146147.5  RSN  5 0.4 1.7LRSN                1
 GAP=139        0.85       6.2     5.0  9.2  0.6785E+01 -0.7177E+01 -0.1008E+02E
 Epicentro: JORDAN - SANTANDER                                                 3
 ACTION:UPD 13-03-12 09:33 OP:ep   STATUS:               ID:20130214145622 L   I
 2013-02-14-1450-00M.COL___241                                                 6
 STAT SP IPHASW D HRMM SECON CODA AMPLIT PERI AZIMU VELO AIN AR TRES W  DIS CAZ7
 BRR  HZ EP       1456 43.93                             152    0.0310 74.2 303 
 BRR  HN ES       1457  0.55                             152   -0.1310 74.2 303 
 BRR  HN I        1457  1.10        23.2 0.20            153           74.2 303 
 PAM  SZ IP     D 1456 44.92                             150   -0.1510 82.1  37 
 RUS  HZ EP   2   1456 46.65                             146    0.76 5 94.6 176 
 RUS  HN ES   1   1457  4.50                             146    0.27 7 94.6 176 
 RUS  HN I        1457  5.73         4.2 0.22            145           94.6 176 
 PTB  HZ EP       1456 49.10                             133   -0.30 9  147 261 
 PTB  HN ES       1457 10.09                             133   -0.38 9  147 261 
 PTB  HN I        1457 11.80         6.3 0.32            133            147 261 
 ZAR  HN ES       1457 21.47                             122    0.70 8  206 294 
                                                                                
