 2012 1214 1020 39.7 L   6.758 -73.165138.2  RSN  6 0.2 1.8LRSN                1
 GAP=232        0.64       3.5     4.2  5.6  0.7999E+01  0.1578E+01  0.4023E+01E
 Epicentro: LOS SANTOS - SANTANDER                                             3
 ACTION:UPD 13-01-04 14:27 OP:ep   STATUS:               ID:20121214102039 L   I
 2012-12-14-1020-00M.COL___242                                                 6
 STAT SP IPHASW D HRMM SECON CODA AMPLIT PERI AZIMU VELO AIN AR TRES W  DIS CAZ7
 BAR2 SZ EP       1020 58.35                             172    0.0210 18.4 186 
 BRR  HZ EP       1021  0.34                             151    0.2710 71.7 303 
 BRR  HN ES       1021 16.09                             151    0.1410 71.7 303 
 BRR  HN I        1021 20.11        11.9 0.20                          71.7 303 
 RUS  HZ EP       1021  2.36                             143   -0.0210 96.1 175 
 RUS  HN ES       1021 19.82                             143   -0.2610 96.1 175 
 RUS  HN I        1021 22.57         4.9 0.42                          96.1 175 
 PTB  HZ EP       1021  5.24                             131   -0.55 9  145 260 
 PTB  HN ES       1021 26.14                             131    0.00 9  145 260 
 PTB  HN I        1021 31.54        78.5 1.06                           145 260 
 ZAR  HN ES       1021 36.57                             121    0.01 9  204 294 
 ZAR  HN I        1021 43.25         4.3 0.18                           204 294 
 CHI  HZ EP       1021 16.58                             116    0.15 8  244 195 
 CHI  HN ES       1021 45.44                             116    0.35 8  244 195 
 CHI  HN I        1021 49.49         2.6 0.22                           244 195 
                                                                                
