 2014  814 1817 12.0 L   6.791 -73.147150.5  RSN  7 0.4 1.7LRSN                1
 GAP=201        0.92       3.7     5.2  6.2  0.5900E+01  0.1233E+01 -0.5034E+01E
 Epicentro: LOS SANTOS - SANTANDER                                             3
 ACTION:UPD 14-09-15 21:49 OP:nd   STATUS:               ID:20140814181712 L   I
 OLDACT:REG 14-08-14 21:59 OP:spq  STATUS:               ID:20140814180820     3
 2014-08-14-1808-20M.COL___266                                                 6
 STAT SP IPHASW D HRMM SECON CODA AMPLIT PERI AZIMU VELO AIN AR TRES W  DIS CAZ7
 BAR2 SZ EP       1817 32.22                             171    0.0810 22.3 190 
 BAR2 SZ ES       1817 47.52                             171   -0.3510 22.3 190 
 BAR2 SZ I        1817 48.82        13.2 0.26            171           22.3 190 
 BRR  HZ EP       1817 34.28                             153    0.6410 71.6 299 
 BRR  HN ES       1817 51.19                             153    0.6410 71.6 299 
 RUS  HZ EP       1817 36.22                             145    0.1110 99.6 176 
 RUS  HN ES       1817 54.58                             145   -0.3610 99.6 176 
 RUS  HZ I        1817 55.74         4.2 0.34            146           99.6 176 
 PTB  HZ EP       1817 39.15                             133   -0.14 9  147 259 
 PTB  HN ES       1818  0.30                             133   -0.30 9  147 259 
 PTB  HZ I        1818  2.22         5.9 0.16            132            147 259 
 SPBC HZ EP       1817 40.69                             130   -0.05 9  162 219 
 SPBC HN ES       1818  3.45                             130    0.26 9  162 219 
 SPBC HZ I        1818  5.57         8.4 0.22            130            162 219 
 ZAR  HN ES       1818 10.10                             123   -0.21 9  204 292 
 ZAR  HZ I        1818 15.74         4.3 0.30            123            204 292 
 SML  HZ EP       1817 48.87                             118   -0.08 8  245 335 
 SML  HN ES       1818 17.24                             118   -0.56 8  245 335 
 SML  HZ I        1818 21.96         6.7 0.22            118            245 335 
                                                                                
