 2013  314 1731 25.2 L   6.763 -73.138145.1  RSN  7 0.3 2.0LRSN                1
 GAP=139        0.61       3.5     3.2  5.0 -0.1342E+01  0.4424E+01 -0.1237E+00E
 Epicentro: LOS SANTOS - SANTANDER                                             3
 ACTION:UPD 13-04-09 14:02 OP:ep   STATUS:               ID:20130314173125 L   I
 2013-03-14-1730-00M.COL___243                                                 6
 STAT SP IPHASW D HRMM SECON CODA AMPLIT PERI AZIMU VELO AIN AR TRES W  DIS CAZ7
 BAR2 SZ EP   1   1731 44.40                             172   -0.32 7 19.5 194 
 BAR2 SZ ES   1   1731 59.80                             172   -0.11 7 19.5 194 
 BAR2 SZ I        1732  2.71        26.2 0.42            168           19.5 194 
 BRR  HZ EP       1731 46.68                             151    0.2010 74.0 301 
 BRR  HE ES   1   1732  3.48                             151    0.44 7 74.0 301 
 BRR  HE I        1732  7.61        23.6 0.16            149           74.0 301 
 PAM  SZ EP       1731 47.52                             150   -0.0310 80.1  37 
 PAM  SZ I        1731 47.86        17.4 0.16            156           80.1  37 
 PAM  SE ES   1   1732  4.73                             150   -0.22 7 80.1  37 
 RUS  HZ EP   1   1731 48.73                             145    0.10 7 96.4 176 
 RUS  HN ES   1   1732  7.15                             145    0.28 7 96.4 176 
 RUS  HN I        1732  9.30        11.4 0.20            147           96.4 176 
 PTB  HZ EP   1   1731 51.79                             132   -0.37 7  148 260 
 PTB  HE ES   1   1732 12.54                             132   -0.61 7  148 260 
 PTB  HZ I        1732 20.06        11.7 0.28            131            148 260 
 ZAR  HZ EP   1   1731 58.33                             122    0.44 6  206 293 
 ZAR  HN ES   1   1732 23.34                             122   -0.01 6  206 293 
 ZAR  HZ I        1732 29.09         6.8 0.24            123            206 293 
 NOR  HZ EP   1   1732  0.61                             118   -0.14 6  233 235 
 NOR  HN ES   1   1732 28.68                             118    0.24 6  233 235 
 NOR  HZ I        1732 34.98         5.6 0.16            120            233 235 
                                                                                
