 2015 1014 1019 20.5 L   6.799 -73.260159.3  RSN  5 0.3 1.5LRSN                1
 GAP=237        0.72       3.0     6.8  5.9 -0.4360E+01 -0.3352E+01  0.1164E+01E
 Epicentro: ZAPATOCA - SANTANDER                                               3
 ACTION:UPD 15-12-22 20:40 OP:cam  STATUS:               ID:20151014101920 L   I
 OLDACT:UP  15-10-14 23:05 OP:ak   STATUS:               ID:20151014101747     3
 OLDACT:REG 15-10-14 20:17 OP:ak   STATUS:               ID:20151014101747     3
 2015-10-14-1017-47M.COL___334                                                 6
 STAT SP IPHASW D HRMM SECON CODA AMPLIT PERI AZIMU VELO AIN AR TRES W  DIS CAZ7
 BRR  HZ EP       1019 42.45                             158   -0.1410 60.4 304 
 BRR  HN ES       1020  0.15                             158    0.3210 60.4 304 
 BRR  HZ I        1020  5.89         4.4 0.56            155           60.4 304 
 SPBC HZ EP       1019 49.63                             133    0.26 9  155 215 
 SPBC HN ES       1020 11.44                             133   -0.45 9  155 215 
 SPBC HZ I        1020 15.12         3.6 0.12            136            155 215 
 ZAR  HZ EP       1019 52.65                             127   -0.05 9  192 294 
 ZAR  HN ES       1020 17.96                             127    0.13 9  192 294 
 ZAR  HZ I        1020 25.80         2.8 0.39            128            192 294 
 SML  HZ EP       1019 57.17                             121   -0.22 8  239 338 
 SML  HN ES       1020 25.93                             121   -0.24 8  239 338 
 GUY2CHZ EP       1020  4.26                             116    0.64 7  291 233 
 GUY2CHE ES       1020 37.04                             116   -0.22 7  291 233 
                                                                                
