 2011  814 1749 28.2 L   6.752 -73.114145.6  RSN  6 0.3 2.0LRSN                1
 GAP=143        0.71       4.3     6.1  5.9 -0.3529E+01  0.7119E+01  0.1748E+01E
 Epicentro: LOS SANTOS - SANTANDER                                             3
 ACTION:UPD 12-07-13 15:51 OP:ep   STATUS:               ID:20110814174928 L   I
 2011-08-14-1744-22S.COL___150                                                 6
 STAT SP IPHASW D HRMM SECON CODA AMPLIT PERI AZIMU VELO AIN AR TRES W  DIS CAZ7
 BAR2 SZ EP       1749 47.62                             172   -0.1610 19.2 203 
 BAR2 SZ ES   1   1750  2.45                             172   -0.57 7 19.2 203 
 BAR2 SZ I        1750  4.60        23.1 0.34                          19.2 203 
 BRR  HZ EP       1749 49.65                             151   -0.0510 76.8 301 
 BRR  HE ES   1   1750  6.89                             151    0.45 7 76.8 301 
 BRR  HZ I        1750  9.01        28.2 0.20                          76.8 301 
 PAM  SZ EP       1749 50.95                             150    0.3810 79.5  35 
 PAM  SN ES   1   1750  7.68                             150   -0.30 7 79.5  35 
 RUS  HZ EP       1749 51.63                             145    0.0410 95.1 178 
 RUS  HN ES   1   1750 10.20                             145    0.39 7 95.1 178 
 RUS  HZ I        1750 11.22        11.1 0.32                          95.1 178 
 OCA  SZ EP   2   1749 56.91                             128   -0.17 5  166 352 
 NOR  SZ EP       1750  3.71                             118   -0.24 8  235 236 
                                                                                
