 2012  314 1535 59.1 L   6.753 -73.117139.9  RSN  7 0.5 1.7LRSN                1
 GAP=142        1.13       6.8     6.3 10.9 -0.2645E+01  0.1875E+02  0.4044E+01E
 ACTION:UP  12-03-31 23:19 OP:EP   STATUS:               ID:20120314153559 L   I
 2012-03-14-1530-00M.COL___201                                                 6
 STAT SP IPHASW D HRMM SECON CODA AMPLIT PERI AZIMU VELO SNR AR TRES W  DIS CAZ7
 BAR2 SZ EP   1   1536 17.60                             172    -0.3 7   19 202 
 BAR2 SZ ES   1   1536 32.85                             172     0.2 7   19 202 
 BAR2 SZ I        1536 34.51        20.3 0.27                            19 202 
 BRR  HZ EP   1   1536 20.36                             150     0.4 7   77 301 
 BRR  HZ I        1536 31.19        16.0 0.29                            77 301 
 BRR  HE ES   1   1536 36.74                             150     0.6 7   77 301 
 PAM  SZ EP   1   1536 21.16                             149     0.3 7   80  35 
 PAM  SZ I        1536 21.54         8.6 0.17                            80  35 
 PAM  SN ES   1   1536 36.95                             149    -0.8 7   80  35 
 RUS  HZ EP   1   1536 22.34                             144     0.5 7   95 178 
 RUS  HZ I        1536 23.52         3.9 0.13                            95 178 
 RUS  HN ES   1   1536 39.75                             144     0.1 7   95 178 
 PTB  HZ EP   1   1536 25.22                             130    -0.6 7  150 261 
 PTB  HE ES   1   1536 45.93                             130    -0.7 7  150 261 
 PTB  HZ I        1536 48.62         3.2 0.10                           150 261 
 ZAR  HE ES   1   1536 57.49                             120     0.4 6  209 293 
 ZAR  HZ I        1537  2.95         4.7 0.31                           209 293 
 NOR  SN ES   1   1537  1.85                             117    -0.2 6  234 236 
                                                                                
