 2013  114 1007 43.1 L   6.853 -73.272127.8  RSN  5 0.5 1.7LRSN                1
 GAP=163        1.12       7.6     7.9 11.2  0.1456E+01  0.2581E+02 -0.6234E+01E
 Epicentro: ZAPATOCA - SANTANDER                                               3
 ACTION:UPD 13-02-15 09:14 OP:ep   STATUS:               ID:20130114100743 L   I
 2013-01-14-1000-00M.COL___241                                                 6
 STAT SP IPHASW D HRMM SECON CODA AMPLIT PERI AZIMU VELO AIN AR TRES W  DIS CAZ7
 BAR2 SZ EP     C 10 8  1.40                             166    0.6410 30.5 161 
 BAR2 SZ ES   1   10 8 14.13                             166   -0.41 7 30.5 161 
 BAR2 SZ I        10 8 15.72        37.8 0.30            168           30.5 161 
 BRR  HZ EP       10 8  1.81                             155    0.3410 56.1 300 
 BRR  HN ES   1   10 8 15.88                             155    0.08 7 56.1 300 
 PTB  HZ EP       10 8  6.64                             130   -0.85 9  135 255 
 PTB  HN ES   1   10 8 26.45                             130   -0.07 7  135 255 
 PTB  HZ I        10 8 28.45         4.6 0.26            130            135 255 
 OCA  HN ES   1   10 8 29.27                             126   -0.63 7  153 358 
 ZAR  HZ EP   1   10 8 13.03                             120    0.21 7  189 292 
 ZAR  HE ES   1   10 8 36.53                             120    0.52 7  189 292 
 ZAR  HZ I        10 8 39.72         2.4 0.26            121            189 292 
                                                                                
