 2015 1114 1618 38.8 L   6.820 -73.132144.1  RSN 12 0.4 2.3LRSN                1
 GAP=137        1.02       3.1     4.3  5.7 -0.1513E+01  0.8725E+01  0.4377E+01E
 Epicentro: LOS SANTOS - SANTANDER                                             3
 ACTION:UPD 15-12-28 16:10 OP:cam  STATUS:               ID:20151114161838 L   I
 OLDACT:REG 15-11-14 20:44 OP:cara STATUS:               ID:20151114161750     3
 2015-11-14-1617-50M.COL___319                                                 6
 STAT SP IPHASW D HRMM SECON CODA AMPLIT PERI AZIMU VELO AIN AR TRES W  DIS CAZ7
 BAR2 EZ IPg      1618 58.15                             169   -0.1010 25.8 192 
 BAR2 EZ ES       1619 12.74                             169   -0.7110 25.8 192 
 BAR2 EZ I        1619 14.57        43.0 0.56            166           25.8 192 
 BRR  HZ EP       1618 59.87                             152    0.1110 71.5 296 
 BRR  HN ES       1619 16.96                             152    0.8310 71.5 296 
 BRR  HZ I        1619 21.64        25.1 0.20            150           71.5 296 
 PAM  EZ EP       1619  0.89                             151    0.2410 74.7  40 
 PAM  EN ES       1619 17.95                             151    0.2410 74.7  40 
 PAM  EZ I        1619 19.45        28.3 0.36            158           74.7  40 
 RUS  HZ EP       1619  2.59                             143    0.0810  103 177 
 RUS  HN ES       1619 21.11                             143    0.0810  103 177 
 RUS  HZ I        1619 22.58        27.6 0.30            144            103 177 
 SPBC HZ EP       1619  7.21                             128   -0.19 9  166 219 
 SPBC HN ES       1619 29.45                             128   -0.27 9  166 219 
 SPBC HZ I        1619 36.50        41.6 0.26            128            166 219 
 ZAR  HE ES       1619 36.46                             122    0.02 9  205 291 
 ZAR  HZ I        1619 41.45        25.2 0.16            123            205 291 
 NOR  HZ EP     C 1619 14.92                             118    0.25 8  237 234 
 NOR  HE ES       1619 42.52                             118   -0.16 8  237 234 
 NOR  HZ I        1619 48.37        19.6 0.18            119            237 234 
 SML  HE ES       1619 42.60                             117   -0.93 8  242 335 
 CHI  HZ EP       1619 16.63                             116   -0.02 8  251 195 
 CHI  HN ES       1619 45.88                             116   -0.32 8  251 195 
 CHI  HZ I        1619 51.96        10.3 0.26            118            251 195 
 GUY2CHZ EP       1619 22.06                             112   -0.53 7  304 235 
 GUY2CHN ES       1619 56.18                             112   -0.58 7  304 235 
 GUY2CHZ I        1620  4.39        13.8 0.58                           304 235 
 ELA  HZ EP       1619 26.23                             110    0.38 7  332 229 
 ELA  HN ES       1620  3.58                             110    1.01 7  332 229 
 ELA  HZ I        1620 13.69         9.6 0.38            111            332 229 
 ORTC HZ EP       1619 33.27                             106    0.32 6  398 216 
 ORTC HN ES       1620 15.70                             106    0.50 6  398 216 
 ORTC HZ I        1620 22.64         9.5 0.44            107            398 216 
                                                                                
