 2010  614 1851 25.8 L   6.827 -73.131144.5  RSN  4 0.1 1.4LRSN                1
 GAP=165        0.29       2.3    17.1  4.9 -0.1215E+02  0.4693E+01 -0.9952E+00E
 Epicentro: LOS SANTOS - SANTANDER                                             3
 ACTION:UP  10-08-24 10:10 OP:vdl  STATUS:               ID:20100614185125 L   I
 2010-06-14-1849-19S.COL___114                                                 6
 STAT SP IPHASW D HRMM SECON CODA AMPLIT PERI AZIMU VELO SNR AR TRES W  DIS CAZ7
 BAR2 SZ EP       1851 45.36                             169     0.010   27 193 
 GIR2 SZ EP   2   1851 45.32                             168     0.1 5   29 346 
 GIR2 SZ ES   2   1852  0.35                             168    -0.1 5   29 346 
 RUS  HZ EP   2   1851 49.46                             143    -0.2 5  103 177 
 RUS  HN ES   1   1852  8.26                             143     0.0 7  103 177 
 RUS  HZ I        1852  8.91         4.5 0.33                           103 177 
 GUE  SZ EP   2   1851 50.17                             140     0.0 5  113  12 
 GUE  SZ ES   2   1852  9.10                             140     0.0 5  113  12 
                                                                                
