 2010  314 1538 38.4 L   6.819 -73.079139.2  RSN  7 0.4 2.4LRSN                1
 GAP=190        0.70       3.3     6.2  5.6  0.1112E+01  0.8074E+01  0.2428E+01E
 Epicentro: LOS SANTOS - SANTANDER                                             3
 ACTION:UP  10-08-24 09:54 OP:vdl  STATUS:               ID:20100314153640 L   I
 2010-03-14-1536-40S.COL___095                                                 6
 STAT SP IPHASW D HRMM SECON CODA AMPLIT PERI AZIMU VELO SNR AR TRES W  DIS CAZ7
 BAR2 SZ IP       1538 57.38                             168     0.110   28 205 
 BAR2 SZ ES   1   1539 11.83                             168    -0.2 7   28 205 
 BRR  HZ IP       1538 59.19                             149     0.110   77 295 
 BRR  HZ I        1539  1.12        49.8 0.11                            77 295 
 BRR  HE ES   1   1539 15.78                             149     0.4 7   77 295 
 RUS  HZ IP       1539  1.44                             142    -0.210  103 180 
 RUS  HE ES   1   1539 20.02                             142     0.3 7  103 180 
 RUS  HZ I        1539 21.76        29.3 0.30                           103 180 
 OCA  SZ EP   1   1539  5.73                             129    -0.3 7  159 350 
 OCA  SZ ES   1   1539 27.32                             129    -0.3 7  159 350 
 OCA  SZ I        1539 32.45        34.9 0.34                           159 350 
 HEL  HZ EP   1   1539 19.68                             113     0.6 6  280 256 
 HEL  HE ES   2   1539 50.37                             113    -0.5 4  280 256 
 HEL  HZ I        1539 55.19         8.3 0.57                           280 256 
 RREF BZ EP   2   1539 25.69                             109     0.7 3  329 230 
 RREF BN ES   2   1540  0.51                             109    -0.9 3  329 230 
 RREF BZ I        1540  6.33         9.0 0.38                           329 230 
 PRA  HZ EP       1539 32.43                             105     0.1 6  398 210 
 PRA  HE ES   1   1540 14.26                             105    -0.1 4  398 210 
 PRA  HZ I        1540 21.07         9.1 0.47                           398 210 
                                                                                
