 2017  914 1849  0.0 L   6.788 -73.132136.7  RSN  6 0.5 1.6LRSN                1
 GAP=114        0.85       3.4     3.7  7.5  0.3095E+01  0.7119E+01  0.6607E+01E
 Epicentro: LOS SANTOS - SANTANDER                                             3
 ACTION:UPD 17-10-05 19:12 OP:rebc STATUS:               ID:20170914184900 L   I
 OLDACT:REG 17-09-14 21:06 OP:dnl  STATUS:               ID:20170914183742     3
 2017-09-14-1838-00M.COL___465                                                 6
 STAT SP IPHASW D HRMM SECON CODA AMPLIT PERI AZIMU VELO AIN AR TRES W  DIS CAZ7
 BRR  HZ EP       1849 20.14                             150   -0.1710 73.2 299 
 BRR  HN ES       1849 36.08                             150   -0.0610 73.2 299 
 BRR  HZ I        1849 41.21         6.9 0.12            152           73.2 299 
 PAM  EZ IP     C 1849 21.04                             149   -0.2410 77.5  38 
 PAM  EN ES       1849 37.96                             149    0.0910 77.5  38 
 PAM  EZ I        1849 40.15        13.3 0.64            153           77.5  38 
 RUS  HZ EP       1849 22.44                             142   -0.3410 99.1 177 
 RUS  HE ES       1849 40.54                             142    0.0110 99.1 177 
 RUS  HZ I        1849 41.54         4.9 0.38            144           99.1 177 
 YPLC HZ EP   2   1849 28.61                             125   -0.36 4  175 152 
 YPLC HE ES       1849 52.09                             125    0.53 9  175 152 
 YPLC HZ I        1850  0.22         6.3 0.38            127            175 152 
 ZAR  HZ EP   2   1849 33.93                             120    1.84 4  206 292 
 ZAR  HE ES       1849 57.08                             120   -0.03 8  206 292 
 ZAR  HZ I        1850  2.08         5.9 0.30            123            206 292 
 NOR  HZ EP   2   1849 34.73                             117   -0.55 4  235 235 
 NOR  HE ES       1850  3.01                             117    0.22 8  235 235 
 NOR  HZ I        1850  4.65         2.0 0.26            118            235 235 
                                                                                
