 2010  114 1357 42.8 L   6.778 -73.004152.3  RSN 10 0.4 3.1LRSN                1
 GAP=197        0.75       3.9     9.0  7.2 -0.1021E+02  0.2744E+02  0.5151E+01E
 Epicentro: CEPITA - SANTANDER                                                 3
 ACTION:UP  10-08-24 09:44 OP:vdl  STATUS:               ID:20100114135742 L   I
 2010-01-14-1355-56S.COL___094                                                 6
 STAT SP IPHASW D HRMM SECON CODA AMPLIT PERI AZIMU VELO SNR AR TRES W  DIS CAZ7
 BAR2 SZ IP       1358  3.38                             169     0.110   29 224 
 BAR2 SZ ES   1   1358 18.83                             169    -0.5 7   29 224 
 GIR2 SZ EP       1358  3.50                             165     0.110   39 328 
 RUS  BZ EP   1   1358  7.26                             146     0.2 7   98 185 
 RUS  BZ I        1358 27.71        83.0 0.24                            98 185 
 OCA  SZ EP   1   1358 11.95                             130    -0.1 7  165 348 
 OCA  SZ ES   1   1358 35.20                             130     0.3 7  165 348 
 CHI  HZ EP       1358 21.32                             118     0.2 8  251 199 
 CHI  HE ES   1   1358 51.14                             118     0.2 6  251 199 
 CHI  HZ I        1358 59.24        41.4 0.48                           251 199 
 HEL  HZ EP       1358 24.64                             115    -0.3 7  287 257 
 HEL  HZ I        1359  3.04        56.7 0.31                           287 257 
 RREF BN ES   2   1359  8.46                             111     0.9 3  332 231 
 RREF BZ I        1359 14.11        56.1 0.23                           332 231 
 TOL  SZ EP   1   1358 31.48                             110    -0.9 5  353 227 
 ANIL BZ EP       1358 34.26                             109     0.3 6  367 227 
 ANIL BN ES   1   1359 13.75                             109    -0.1 5  367 227 
 ANIL BZ I        1359 20.11       109.8 0.38                           367 227 
 PRA  HZ EP       1358 36.75                             107    -0.5 6  398 212 
 PRA  HZ I        1359 24.91        40.1 0.37                           398 212 
                                                                                
