 2010  614 1846 22.3 L   6.810 -73.140142.6  RSN 18 0.4 3.4LRSN                1
 GAP=126        0.89       2.9     5.0  5.2 -0.6997E+01  0.7870E+01  0.4202E+00E
 Epicentro: LOS SANTOS - SANTANDER                                             3
 ACTION:UP  10-08-24 10:10 OP:vdl  STATUS:               ID:20100614184622 L   I
 2010-06-14-1844-48S.COL___112                                                 6
 STAT SP IPHASW D HRMM SECON CODA AMPLIT PERI AZIMU VELO SNR AR TRES W  DIS CAZ7
 BAR2 SZ IP       1846 41.58                             170     0.010   25 191 
 BAR2 SZ ES   1   1846 56.24                             170    -0.4 7   25 191 
 GIR2 SZ IP       1846 41.69                             167     0.110   30 349 
 GIR2 SZ ES   1   1846 56.79                             167     0.2 7   30 349 
 RUS  HZ IP     C 1846 45.44                             143    -0.410  102 176 
 RUS  HZ I        1846 46.69       242.2 0.19                           102 176 
 RUS  HE ES   1   1847  4.13                             143    -0.1 7  102 176 
 BRI  SZ IP       1846 46.23                             141     0.410  107  21 
 BRI  SZ ES   1   1847  4.59                             141     0.4 7  107  21 
 GUE  SZ EP       1846 46.51                             139    -0.110  115  12 
 GRA  SZ IP       1846 47.53                             137     0.310  125  17 
 GRA  SZ ES   1   1847  6.87                             137     0.3 7  125  17 
 OCA  SZ EP       1846 50.11                             129    -0.2 9  159 353 
 OCA  SZ ES   1   1847 11.46                             129    -0.7 7  159 353 
 OCA  SZ I        1847 16.66       539.1 0.29                           159 353 
 CHI  HZ EP   1   1846 59.56                             116    -0.4 6  250 195 
 CHI  HE ES   1   1847 28.93                             116    -0.4 6  250 195 
 CHI  HZ I        1847 35.10       149.4 0.31                           250 195 
 ROSC BZ EP       1847  1.27                             116     0.9 8  254 211 
 ROSC BN ES   1   1847 30.08                             116     0.0 6  254 211 
 ROSC BZ I        1847 39.09       225.4 0.46                           254 211 
 CVER SZ IP       1847  3.12                             114     0.5 8  273 202 
 HEL  HZ EP       1847  1.86                             114    -0.6 8  273 256 
 HEL  HN ES   1   1847 34.21                             114     0.4 6  273 256 
 HEL  HZ I        1847 40.00       167.5 0.31                           273 256 
 GUY  HZ EP   1   1847  6.36                             112     0.4 5  302 235 
 GUY  HZ ES   2   1847 39.68                             112    -0.3 4  302 235 
 DBB  SZ EP       1847  9.61                             109    -0.1 7  340 274 
 DBB  SZ ES   2   1847 45.94                             109    -0.8 3  340 274 
 TOL  SZ EP   2   1847 11.73                             109     1.1 3  345 225 
 TOL  SZ ES   2   1847 48.43                             109     0.2 3  345 225 
 SDV  BZ EP       1847 11.16                             108    -1.0 6  359  50 
 SDV  BZ I        1847 12.06        94.7 0.23                           359  50 
 HORQ SZ EP   2   1847 33.22                             101     0.4 2  533 227 
 PCON HZ EP   2   1847 42.60                              99    -0.2 1  613 216 
 SOTA HZ EP   1   1847 46.73                              98     0.3 2  644 217 
                                                                                
