 2017  114 1657 31.4 L   6.763 -73.136148.5  RSN  4 0.2 1.3LRSN                1
 GAP=139        0.59       3.2     4.7  4.7 -0.1663E+00 -0.1424E+01  0.4349E+00E
 Epicentro: LOS SANTOS - SANTANDER                                             3
 ACTION:UPD 17-05-22 15:59 OP:jn   STATUS:               ID:20170114165731 L   I
 OLDACT:UP  17-01-14 22:08 OP:e    STATUS:               ID:20170114164029d    3
 OLDACT:DUP 17-01-14 22:06 OP:e    STATUS:               ID:20170114164029d    3
 2017-01-14-1648-00M.COL___333                                                 6
 STAT SP IPHASW D HRMM SECON CODA AMPLIT PERI AZIMU VELO AIN AR TRES W  DIS CAZ7
 BAR2 EZ EP       1657 51.22                             172   -0.1110 19.6 195 
 BAR2 EZ ES       1658  6.44                             172   -0.4010 19.6 195 
 BAR2 EZ I        1658  7.96         5.5 0.50            171           19.6 195 
 BRR  HZ EP       1657 52.88                             152   -0.1710 74.2 301 
 BRR  HN ES       1658 10.15                             152    0.2510 74.2 301 
 PAM  EZ EP       1657 54.04                             150   -0.0510 79.9  37 
 PAM  EN ES       1658 11.91                             150    0.1510 79.9  37 
 RUS  HZ EP       1657 55.32                             146    0.1510 96.4 177 
 RUS  HN ES       1658 13.84                             146    0.1710 96.4 177 
 RUS  HZ I        1658 15.31         2.1 0.27            145           96.4 177 
                                                                                
