 2017  114 1047  7.9 L   6.411 -73.627109.0  RSN  9 0.3 1.7LRSN                1
 GAP= 66        0.79       2.4     2.6  4.9  0.1026E+01  0.4401E+01  0.2265E+01E
 Epicentro: SANTA HELENA DEL OPON - SANTANDER                                  3
 ACTION:UPD 17-05-22 15:59 OP:jn   STATUS:               ID:20170114104707 L   I
 OLDACT:UP  17-01-14 20:50 OP:e    STATUS:               ID:20170114103744d    3
 OLDACT:UP  17-01-14 20:49 OP:e    STATUS:               ID:20170114103744d    3
 OLDACT:UP  17-01-14 20:48 OP:e    STATUS:               ID:20170114103744d    3
 OLDACT:DUP 17-01-14 20:47 OP:e    STATUS:               ID:20170114103744d    3
 2017-01-14-1038-00M.COL___329                                                 6
 STAT SP IPHASW D HRMM SECON CODA AMPLIT PERI AZIMU VELO AIN AR TRES W  DIS CAZ7
 BAR2 EZ EP       1047 24.52                             152    0.1510 53.1  68 
 BAR2 EZ ES       1047 37.50                             152    0.2610 53.1  68 
 BAR2 EZ I        1047 38.48        45.4 0.14            152           53.1  68 
 BRR  HZ EP       1047 25.70                             142    0.0510 77.5 353 
 BRR  HN ES       1047 39.61                             142    0.0810 77.5 353 
 RUS  HZ EP       1047 26.31                             140   -0.4610 83.1 134 
 RUS  HN ES       1047 41.08                             140   -0.4410 83.1 134 
 RUS  HZ I        1047 42.34         4.8 0.26            141           83.1 134 
 PTB  HZ EP       1047 26.70                             136   -0.2010 92.8 279 
 PTB  HN ES       1047 41.68                             136   -0.0610 92.8 279 
 PTB  HZ I        1047 42.28        16.5 0.14            135           92.8 279 
 PAM  EZ EP       1047 32.81                             123    0.34 9  145  45 
 PAM  EN ES       1047 51.65                             123   -0.01 9  145  45 
 PAM  EZ I        1047 55.80         4.0 0.30            122            145  45 
 ZAR  HZ EP       1047 35.89                             116    0.22 9  181 311 
 ZAR  HN ES       1047 57.35                             116   -0.01 9  181 311 
 ZAR  HZ I        1048  1.75        10.8 0.28            115            181 311 
 CHI  HZ EP       1047 37.80                             114   -0.18 9  197 183 
 CHI  HN ES       1048  2.12                             114    0.64 9  197 183 
 CHI  HZ I        1048  4.03         2.2 0.28            114            197 183 
 GUY2CHZ EP       1047 42.38                             110    0.29 8  233 236 
 GUY2CHN ES   4   1048 10.44                             110    1.65 0  233 236 
 GUY2CHZ  IAML    1048 15.22         4.5 0.32                           233 236 
 URE  HZ EP       1047 43.74                             107   -0.61 8  257 305 
 URE  HN ES   4   1048 10.25                             107   -2.55 0  257 305 
 URE  HZ I        1048 19.81         4.5 0.16            106            257 305 
                                                                                
