 2012  214 1822  8.9 L   6.739 -73.162146.4  RSN  6 0.4 1.8LRSN                1
 GAP=137        0.71       4.8     4.3  6.9  0.1788E+01  0.5582E+01  0.1051E+00E
 ACTION:UP  12-03-07 16:30 OP:epov STATUS:               ID:20120214182208 L   I
 2012-02-14-1820-00M.COL___191                                                 6
 STAT SP IPHASW D HRMM SECON CODA AMPLIT PERI AZIMU VELO AIN AR TRES W  DIS CAZ7
 BAR2 SZ EP   1   1822 28.67                             173    0.17 7 16.4 188 
 BAR2 SZ ES   1   1822 44.02                             173    0.24 7 16.4 188 
 BAR2 SZ I        1822 44.65        11.3 0.37                          16.4 188 
 BRR  HZ EP   1   1822 30.49                             152    0.24 7 73.2 304 
 BRR  HN ES   1   1822 47.24                             152    0.36 7 73.2 304 
 BRR  HZ I        1822 48.09        13.5 0.27                          73.2 304 
 PAM  SZ EP   1   1822 31.76                             149    0.17 7 83.8  38 
 PAM  SN ES   1   1822 48.66                             149   -0.62 7 83.8  38 
 RUS  HZ EP   1   1822 32.16                             146   -0.11 7 94.0 175 
 RUS  HN ES   1   1822 50.61                             146    0.13 7 94.0 175 
 PTB  HZ EP   1   1822 35.47                             133   -0.20 7  145 261 
 PTB  HN ES   1   1822 55.80                             133   -0.74 7  145 261 
 ZAR  HE ES   1   1823  7.24                             122    0.32 6  205 294 
 ZAR  HZ I        1823 13.11         6.4 0.52                           205 294 
                                                                                
