 2011 1214 1836 53.2 L   6.560 -72.997  0.1  RSN  4 0.4 1.5LRSN                1
 GAP=240        0.90       3.4     4.7  3.5  0.1031E+02 -0.7707E+01 -0.1531E+01E
 Epicentro: MOGOTES - SANTANDER                                                3
 ACTION:UPD 12-07-13 16:16 OP:ep   STATUS:               ID:20111214183653 L   I
 2011-12-14-1830-00M.COL___185                                                 6
 STAT SP IPHASW D HRMM SECON CODA AMPLIT PERI AZIMU VELO AIN AR TRES W  DIS CAZ7
 BAR2 SZ IP       1836 57.29                              95   -0.2710 20.8 280 
 BAR2 SZ ES       1837  0.78                              95   -0.1810 20.8 280 
 BAR2 SZ I        1837  2.05        91.6 0.19                          20.8 280 
 RUS  HZ EP       1837  6.21                              47    0.0610 74.5 187 
 RUS  HN ES       1837 15.97                              47   -0.2710 74.5 187 
 RUS  HZ I        1837 17.68        10.1 0.25                          74.5 187 
 BRR  HZ EP       1837  9.39                              47   -0.0410 99.5 307 
 BRR  HZ I        1837 16.90        15.8 0.37                          99.5 307 
 BRR  HN ES       1837 21.88                              47   -0.2110 99.5 307 
 PTB  HZ EP       1837 19.54                              47    0.71 9  161 269 
 PTB  HN ES   1   1837 39.54                              47    0.72 7  161 269 
                                                                                
