 2013  714 1854 46.8 L   6.765 -73.191147.2  RSN  6 0.2 1.9LRSN                1
 GAP=132        0.60       3.7     3.5  4.6  0.2257E+01 -0.1645E+01 -0.3277E+01E
 Epicentro: VILLANUEVA - SANTANDER                                             3
 ACTION:UPD 13-08-12 10:37 OP:ep   STATUS:               ID:20130714185446 L   I
 OLDACT:REG 13-07-14 16:12 OP:stll STATUS:               ID:20130714184847     3
 2013-07-14-1848-47M.COL___229                                                 6
 STAT SP IPHASW D HRMM SECON CODA AMPLIT PERI AZIMU VELO AIN AR TRES W  DIS CAZ7
 BAR2 SZ EP       1855  6.52                             172   -0.0210 19.1 177 
 BAR2 SZ ES       1855 21.85                             172   -0.0710 19.1 177 
 BAR2 SZ I        1855 23.01         9.7 0.28            169           19.1 177 
 GIR2 SZ EP       1855  6.60                             166   -0.1510 34.7 360 
 BRR  HZ EP       1855  8.29                             154    0.3010 68.9 303 
 BRR  HN ES       1855 24.73                             154    0.2210 68.9 303 
 BRR  HN I        1855 26.18        28.2 0.22            152           68.9 303 
 PAM  SZ EP       1855  9.33                             149   -0.2310 83.5  40 
 RUS  HZ EP       1855 10.86                             145    0.3910 97.2 173 
 RUS  HN ES       1855 28.82                             145   -0.1010 97.2 173 
 RUS  HN I        1855 31.03         6.8 0.24            144           97.2 173 
 PTB  HZ EP       1855 13.18                             133   -0.22 9  142 260 
 PTB  HN ES       1855 33.97                             133   -0.16 9  142 260 
 PTB  HN I        1855 39.51        18.6 0.40            132            142 260 
                                                                                
