 2017  314 1002  1.1 L   6.772 -73.140149.2  RSN  7 0.3 1.4LRSN                1
 GAP=139        0.62       2.9     2.8  5.0 -0.8698E+00  0.3173E+01 -0.7600E+00E
 Epicentro: LOS SANTOS - SANTANDER                                             3
 ACTION:UPD 17-05-25 18:40 OP:jn   STATUS:               ID:20170314100201 L   I
 OLDACT:REG 17-03-14 20:25 OP:dnl  STATUS:               ID:20170314095746     3
 2017-03-14-0958-00M.COL___391                                                 6
 STAT SP IPHASW D HRMM SECON CODA AMPLIT PERI AZIMU VELO AIN AR TRES W  DIS CAZ7
 BAR2 EZ EP       10 2 21.06                             172   -0.0310 20.4 193 
 BAR2 EZ ES       10 2 36.55                             172   -0.1310 20.4 193 
 BAR2 EZ I        10 2 38.92         5.2 0.40            170           20.4 193 
 BRR  HZ EP   2   10 2 22.90                             152    0.17 5 73.3 300 
 BRR  HE ES       10 2 39.93                             152    0.3210 73.3 300 
 BRR  HZ I        10 2 46.67         7.6 0.30            150           73.3 300 
 PAM  EZ EP       10 2 23.82                             151    0.0210 79.4  38 
 PAM  EE ES       10 2 41.24                             151   -0.2610 79.4  38 
 PAM  EZ I        10 2 43.39         2.0 0.26            155           79.4  38 
 RUS  HZ EP   2   10 2 25.42                             145    0.45 5 97.4 176 
 RUS  HN ES       10 2 43.87                             145    0.2910 97.4 176 
 RUS  HZ I        10 2 46.56         2.6 0.30            149           97.4 176 
 PTB  HZ EP   2   10 2 27.90                             133   -0.45 5  148 260 
 PTB  HE ES       10 2 49.31                             133   -0.30 9  148 260 
 PTB  HZ I        10 2 56.22         2.5 0.60            133            148 260 
 SPBC HZ EP   2   10 2 30.10                             130    0.42 5  161 220 
 SPBC HN ES       10 2 51.70                             130   -0.27 9  161 220 
 SPBC HZ I        10 2 56.11         3.5 0.20            132            161 220 
 ZAR  HZ EP   2   10 2 33.35                             123   -0.60 4  206 293 
 ZAR  HE ES       10 2 59.90                             123    0.32 8  206 293 
 ZAR  HZ I        10 3  6.18         2.1 0.24            124            206 293 
                                                                                
