 2010  714 1851  0.0 L   6.768 -73.197144.0  RSN  7 0.5 2.1LRSN                1
 GAP=150        1.30       6.1    13.3 12.2 -0.1422E+02 -0.2408E+02 -0.1931E+02E
 Epicentro: VILLANUEVA - SANTANDER                                             3
 ACTION:UPD 10-12-01 15:17 OP:pat  STATUS:               ID:20100714185100 L   I
 2010-07-14-1845-34S.COL___120                                                 6
 STAT SP IPHASW D HRMM SECON CODA AMPLIT PERI AZIMU VELO AIN AR TRES W  DIS CAZ7
 BAR2 SZ EP       1851 19.05                             172    -0.310   20 176 
 BAR2 SZ ES   2   1851 33.43                             172    -1.1 5   20 176 
 BAR2 SZ I        1851 34.99        30.5 0.30                            20 176 
 GIR2 SZ EP   2   1851 20.14                             166     0.5 5   34   1 
 BRR  HZ EP       1851 20.85                             153     0.010   68 303 
 BRR  HN ES   1   1851 37.39                             153     0.3 7   68 303 
 BRR  HZ I        1851 37.77        28.8 0.11                            68 303 
 RUS  HZ EP   1   1851 23.52                             145     0.1 7   98 173 
 RUS  HN ES       1851 41.86                             145     0.210   98 173 
 RUS  HZ I        1851 43.49        16.1 0.46                            98 173 
 BRI  SZ EP       1851 24.66                             140     0.510  114  23 
 BRI  SZ ES   1   1851 43.47                             140     0.5 7  114  23 
 BRI  SZ I        1851 45.21        17.8 1.03                           114  23 
 GUE  SZ EP       1851 24.00                             138    -1.010  121  14 
 GUE  SZ I        1851 25.54         7.4 0.15                           121  14 
 GRA  SZ EP       1851 25.84                             136     0.310  131  19 
 GRA  SZ ES   1   1851 45.36                             136    -0.1 7  131  19 
 GRA  SZ I        1851 46.51        25.8 0.10                           131  19 
                                                                                
