 2015  414 1643 22.1 L   6.777 -73.138148.8  RSN  8 0.4 1.7LRSN                1
 GAP=139        0.73       3.7     3.8  5.9 -0.3307E+00  0.3690E+01  0.1100E+01E
 Epicentro: LOS SANTOS - SANTANDER                                             3
 ACTION:UPD 15-06-03 16:54 OP:cam  STATUS:               ID:20150414164322 L   I
 OLDACT:DUP 15-04-15 00:04 OP:spq  STATUS:               ID:20150414163750d    3
 2015-04-14-1637-49M.COL___281                                                 6
 STAT SP IPHASW D HRMM SECON CODA AMPLIT PERI AZIMU VELO AIN AR TRES W  DIS CAZ7
 BAR2 EZ EP       1643 41.95                             172   -0.0610 21.0 194 
 BAR2 EZ ES   1   1643 57.39                             172   -0.18 7 21.0 194 
 BAR2 EZ I        1643 59.50        14.4 0.26            171           21.0 194 
 BRR  HZ EP   1   1643 43.98                             152    0.33 7 73.2 300 
 BRR  HN ES       1644  0.95                             152    0.4610 73.2 300 
 BRR  HZ I        1644  4.80         9.2 0.44            149           73.2 300 
 PAM  SZ EP       1643 44.83                             151    0.1510 78.8  38 
 PAM  SN ES   1   1644  2.17                             151   -0.16 7 78.8  38 
 PAM  SZ I        1644  4.25         5.2 0.58            153           78.8  38 
 RUS  HZ EP   1   1643 45.88                             145   -0.04 7 98.0 176 
 RUS  HE ES   1   1644  4.42                             145   -0.12 7 98.0 176 
 RUS  HZ I        1644  5.71         3.9 0.36            148           98.0 176 
 PTB  HZ EP   1   1643 49.01                             133   -0.30 7  148 260 
 PTB  HN ES   1   1644  9.91                             133   -0.65 7  148 260 
 PTB  HZ I        1644 11.50         4.1 0.27            131            148 260 
 ZAR  HE ES   1   1644 20.80                             123    0.31 6  206 293 
 ZAR  HZ I        1644 28.39         5.2 0.42            122            206 293 
 NOR  HZ EP   1   1643 58.39                             119    0.51 6  234 235 
 NOR  HE ES   1   1644 25.78                             119   -0.04 6  234 235 
 NOR  HZ I        1644 32.07         4.3 0.20            120            234 235 
 SML  HE ES   1   1644 27.23                             118   -0.84 6  246 335 
 SML  HZ I        1644 33.45         5.4 0.10            118            246 335 
                                                                                
