 2010  814 1323 52.3 L   6.817 -72.972130.0  RSN  5 0.4 1.5LRSN                1
 GAP=184        1.07       9.6    16.5 15.6  0.7757E+02 -0.1321E+03 -0.8779E+02E
 Epicentro: CEPITA - SANTANDER                                                 3
 ACTION:UP  10-09-07 10:54 OP:vdl  STATUS:               ID:20100814132352 L   I
 2010-08-14-1322-12S.COL___111                                                 6
 STAT SP IPHASW D HRMM SECON CODA AMPLIT PERI AZIMU VELO SNR AR TRES W  DIS CAZ7
 BAR2 SZ EP   1   1324 10.36                             165     0.0 7   34 223 
 BAR2 SZ ES   1   1324 23.83                             165    -0.6 7   34 223 
 BAR2 SZ I        1324 26.36         7.1 0.25                            34 223 
 GIR2 SZ EP       1324 10.43                             164     0.110   38 320 
 BRR  HZ EP       1324 12.29                             144    -0.610   88 291 
 BRR  HZ I        1324 12.68        14.6 0.09                            88 291 
 BRR  HN ES   1   1324 29.63                             144     0.7 7   88 291 
 RUS  HZ EP   2   1324 15.21                             139     0.5 5  103 187 
 RUS  HN ES   1   1324 32.47                             139     0.3 7  103 187 
 RUS  HZ I        1324 33.56         3.3 0.83                           103 187 
 GUE  SZ EP   1   1324 15.46                             137     0.2 7  112   3 
                                                                                
