 2017 1114 1244 26.5 L   6.814 -73.127146.5  RSN 10 0.3 1.6LRSN                1
 GAP=138        0.89       3.5     3.8  5.6  0.3351E+00  0.2437E+01  0.4216E+01E
 Epicentro: LOS SANTOS - SANTANDER                                             3
 ACTION:UPD 17-12-12 19:55 OP:rebc STATUS:               ID:20171114124426 L   I
 OLDACT:REG 17-11-14 20:34 OP:lv   STATUS:               ID:20171114123739     3
 2017-11-14-1238-00M.COL___453                                                 6
 STAT SP IPHASW D HRMM SECON CODA AMPLIT PERI AZIMU VELO AIN AR TRES W  DIS CAZ7
 BAR2 EZ EP       1244 46.20                             170   -0.0910 25.2 194 
 BAR2 EZ ES       1245  1.66                             170   -0.0510 25.2 194 
 BAR2 EZ I        1245  2.96         5.5 0.38            168           25.2 194 
 BRR  HZ EP       1244 48.03                             152    0.2010 72.4 297 
 BRR  HN ES       1245  5.18                             152    0.7410 72.4 297 
 PAM  EZ EP       1244 48.88                             152    0.2010 74.9  39 
 PAM  EN ES       1245  5.79                             152   -0.1710 74.9  39 
 PAM  EZ I        1245  7.79        12.3 0.48            153           74.9  39 
 RUS  HZ EP       1244 50.38                             144   -0.0710  102 177 
 RUS  HN ES       1245  8.78                             144   -0.3410  102 177 
 RUS  HZ I        1245 10.90         3.0 0.32            143            102 177 
 PTB  HZ EP       1244 53.17                             132   -0.60 9  150 258 
 PTB  HN ES       1245 14.91                             132   -0.11 9  150 258 
 PTB  HZ I        1245 16.13         4.5 0.12            131            150 258 
 ZAR  HE ES       1245 24.37                             122   -0.25 8  205 292 
 ZAR  HZ I        1245 29.57         6.5 0.38            122            205 292 
 CHI  HZ EP       1245  4.93                             117    0.44 8  251 196 
 CHI  HN ES       1245 34.25                             117    0.16 8  251 196 
 CHI  HZ I        1245 37.78         2.3 0.44            117            251 196 
 DRL03HZ EP   9   1245  7.07                             113   -0.97 0  288 352 
 DRL03HN ES       1245 38.61                                   -0.84 7  288 352 
 DRL03HZ I        1245 45.36         2.5 0.39                           288 352 
 GUY2CHZ EP   9   1245 12.18                             112    1.72 0  304 235 
 GUY2CHN ES       1245 46.47                                    0.02 7  304 235 
 GUY2CHZ I        1245 54.57         1.4 0.26                           304 235 
 PRA  HZ EP   9   1245 19.47                             106   -0.88 0  394 210 
 PRA  HE ES       1246  1.67                                    0.22 6  394 210 
 PRA  HZ I        1246  8.37         2.0 0.48            106            394 210 
                                                                                
