 2012  714 1804  0.3 L   6.833 -73.110145.2  RSN 10 0.3 2.0LRSN                1
 GAP=115        0.74       3.4     4.0  7.5  0.3460E+00  0.1989E+00  0.4749E+01E
 Epicentro: LOS SANTOS - SANTANDER                                             3
 ACTION:UPD 12-08-14 11:44 OP:ep   STATUS:               ID:20120714180400 L   I
 2012-07-14-1800-00M.COL___197                                                 6
 STAT SP IPHASW D HRMM SECON CODA AMPLIT PERI AZIMU VELO AIN AR TRES W  DIS CAZ7
 BAR2 SZ EP   1   18 4 19.93                             169     0.0 8   28 197 
 BAR2 SZ I        18 4 36.49        31.9 0.25            168             28 197 
 BRR  HZ EP   1   18 4 21.73                             152     0.3 8   73 295 
 BRR  HN ES   1   18 4 38.52                             152     0.5 8   73 295 
 BRR  HZ I        18 4 42.73        18.6 0.17            147             73 295 
 RUS  HZ EP   1   18 4 23.85                             143    -0.4 8  104 178 
 RUS  HN ES   1   18 4 42.96                             143     0.1 8  104 178 
 RUS  HZ I        18 4 44.42        12.2 0.37            139            104 178 
 TAM  HZ EP   1   18 4 27.86                             131     0.2 8  152 107 
 PTB  HZ EP   1   18 4 27.46                             131    -0.1 8  152 258 
 PTB  HN ES   1   18 4 48.55                             131    -0.4 8  152 258 
 PTB  HZ I        18 4 51.25         8.2 0.11            126            152 258 
 OCA  HN ES       18 4 49.64                             130    -0.410  157 352 
 ZAR  HZ EP   1   18 4 33.72                             122     0.8 7  206 291 
 ZAR  HN ES   1   18 4 58.34                             122     0.0 7  206 291 
 ZAR  HZ I        18 5  4.50        10.2 0.29            117            206 291 
 NOR  SZ EP   1   18 4 36.39                             118    -0.1 7  240 234 
 NOR  SN ES   1   18 5  4.75                             118    -0.1 7  240 234 
 HEL  HE ES   2   18 5 12.69                             114     0.0 4  277 255 
 PRA  HE ES   2   18 5 36.34                             106    -0.2 3  397 210 
