 2013  814 1705 42.3 L   6.786 -73.161150.8  RSN 14 0.5 2.4LRSN                1
 GAP=135        1.19       3.3     5.2  5.7 -0.1085E+01  0.8830E+01  0.3064E+01E
 Epicentro: LOS SANTOS - SANTANDER                                             3
 ACTION:UPD 14-01-14 09:02 OP:ep   STATUS:               ID:20130814170542 L   I
 OLDACT:REG 13-08-14 15:42 OP:jn   STATUS:               ID:20130814165960d    3
 2013-08-14-1659-59M.COL___269                                                 6
 STAT SP IPHASW D HRMM SECON CODA AMPLIT PERI AZIMU VELO AIN AR TRES W  DIS CAZ7
 BAR2 SZ EP       17 6  2.40                             172   -0.0510 21.6 186 
 BAR2 SZ ES       17 6 17.81                             172   -0.4010 21.6 186 
 BAR2 SZ I        17 6 19.33        47.7 0.36            170           21.6 186 
 GIR2 SZ EP       17 6  2.46                             167   -0.1010 32.6 354 
 GIR2 SZ ES       17 6 19.06                             167    0.6710 32.6 354 
 GIR2 SZ I        17 6 20.61        30.1 0.24            166           32.6 354 
 BRR  HZ IP     C 17 6  4.30                             154    0.3910 70.5 300 
 BRR  HN ES       17 6 21.84                             154    1.0410 70.5 300 
 BRR  HZ I        17 6 25.77        34.5 0.12            151           70.5 300 
 PAM  SZ EP   1   17 6  4.82                             151   -0.32 7 79.6  40 
 PAM  SN ES   1   17 6 22.70                             151   -0.28 7 79.6  40 
 PAM  SZ I        17 6 23.61        22.6 0.16            155           79.6  40 
 RUS  HZ EP       17 6  6.59                             145    0.1910 99.2 175 
 RUS  HE ES       17 6 24.87                             145   -0.3710 99.2 175 
 RUS  HZ I        17 6 26.75        25.9 0.38            147           99.2 175 
 PTB  HZ EP       17 6  8.91                             134   -0.55 9  146 259 
 PTB  HN ES       17 6 30.36                             134   -0.33 9  146 259 
 PTB  HZ I        17 6 32.71        31.4 0.44            133            146 259 
 SPBC HZ EP       17 6 11.32                             131    0.39 9  161 219 
 SPBC HE ES   1   17 6 33.55                             131    0.25 7  161 219 
 SPBC HZ I        17 6 36.28        48.4 0.28            131            161 219 
 OCA  HE ES   1   17 6 32.69                             131   -0.88 7  162 354 
 OCA  HZ I        17 6 38.91        24.3 0.46            132            162 354 
 ZAR  HZ EP       17 6 15.75                             124    0.82 9  203 293 
 ZAR  HN ES   1   17 6 39.93                             124   -0.49 6  203 293 
 ZAR  HZ I        17 6 47.37        40.0 0.36            124            203 293 
 NOR  HZ EP       17 6 17.81                             120   -0.23 8  232 235 
 NOR  HN ES       17 6 45.03                             120   -0.92 8  232 235 
 NOR  HZ I        17 6 53.73        20.5 0.18            120            232 235 
 SML  HZ EP       17 6 19.32                             118    0.08 8  244 336 
 SML  HE ES       17 6 47.43                             118   -0.66 8  244 336 
 CHI  HZ EP       17 6 19.68                             118   -0.34 8  247 195 
 CHI  HN ES       17 6 49.54                             118    0.05 8  247 195 
 CHI  HZ I        17 6 55.64         9.2 0.38            120            247 195 
 GUY2CHZ EP       17 6 26.60                             113    0.76 7  299 235 
 GUY2CHZ I        17 7  9.87         9.5 0.38                           299 235 
 PRA  HZ EP       17 6 36.14                             107    0.44 6  390 209 
 PRA  HN ES       17 7 17.57                             107    0.19 6  390 209 
 PRA  HZ I        17 7 21.79         8.7 0.36            109            390 209 
                                                                                
