 2013  614 1420 29.3 L   6.775 -73.162143.7  RSN  8 0.5 2.4LRSN                1
 GAP=199        0.96       4.3     5.7  7.5  0.9102E+01  0.1036E+02  0.3137E+01E
 Epicentro: LOS SANTOS - SANTANDER                                             3
 ACTION:UPD 14-01-08 09:54 OP:ep   STATUS:               ID:20130614142029 L   I
 OLDACT:UP  13-06-14 17:20 OP:mh   STATUS:               ID:20130614141959     3
 OLDACT:REG 13-06-14 16:07 OP:mh   STATUS:               ID:20130614141959     3
 2013-06-14-1419-59M.COL___261                                                 6
 STAT SP IPHASW D HRMM SECON CODA AMPLIT PERI AZIMU VELO AIN AR TRES W  DIS CAZ7
 BAR2 SZ EP       1420 48.50                             172   -0.1610 20.3 186 
 BAR2 SZ ES   1   1421  3.26                             172   -0.47 7 20.3 186 
 BAR2 SZ I        1421  4.99        24.2 0.20            170           20.3 186 
 BRR  HZ EP   1   1420 50.38                             152    0.13 7 71.0 301 
 BRR  HN ES       1421  7.15                             152    0.5910 71.0 301 
 BRR  HN I        1421  7.95        83.9 0.20            149           71.0 301 
 RUS  HZ EP   1   1420 52.48                             144   -0.21 7 97.9 175 
 RUS  HN ES   1   1421 11.17                             144    0.26 7 97.9 175 
 RUS  HN I        1421 12.51        32.8 0.42            144           97.9 175 
 PTB  HN ES   1   1421 16.21                             132   -0.45 7  145 260 
 PTB  HN I        1421 21.01        42.0 0.50            130            145 260 
 ZAR  HZ EP   1   1421  0.69                             122   -0.90 6  203 293 
 ZAR  HN ES       1421 26.05                             122   -0.69 9  203 293 
 ZAR  HN I        1421 28.89        25.9 0.30            121            203 293 
 CHI  HZ EP   1   1421  6.99                             117    0.42 6  245 195 
 CHI  HN ES   1   1421 35.56                             117   -0.06 6  245 195 
 CHI  HN I        1421 38.35        24.4 0.50            117            245 195 
 SML  HN ES       1421 35.00                             117    0.33 8  246 336 
 SML  HN I        1421 41.84        39.3 0.10            116            246 336 
 HEL  HZ EP   1   1421  9.89                             115    0.72 6  270 256 
 HEL  HN ES       1421 40.69                             115    0.45 8  270 256 
 HEL  HN I        1421 46.71        11.0 0.24            114            270 256 
                                                                                
