 2016 1114 1030 51.4 L   6.788 -73.157146.0  RSN  8 0.3 1.7LRSN                1
 GAP=148        0.75       3.6     3.4  5.3 -0.1159E+01  0.2475E+01  0.8049E+01E
 Epicentro: LOS SANTOS - SANTANDER                                             3
 ACTION:UPD 17-10-26 21:08 OP:lp   STATUS:               ID:20161114103051 L   I
 OLDACT:UP  16-11-14 20:50 OP:edw  STATUS:               ID:20161114102741     3
 OLDACT:UP  16-11-14 20:49 OP:edw  STATUS:               ID:20161114102741     3
 OLDACT:REG 16-11-14 18:44 OP:edw  STATUS:               ID:20161114102741     3
 2016-11-14-1028-00M.COL___338                                                 6
 STAT SP IPHASW D HRMM SECON CODA AMPLIT PERI AZIMU VELO AIN AR TRES W  DIS CAZ7
 BAR2 EZ EP       1031 10.88                             171   -0.1810 21.8 187 
 BAR2 EZ ES       1031 26.08                             171   -0.2910 21.8 187 
 BAR2 EZ I        1031 27.40        17.8 0.14            167           21.8 187 
 BRR  HZ EP       1031 12.75                             153    0.1710 70.7 300 
 BRR  HN ES       1031 29.82                             153    0.7410 70.7 300 
 BRR  HZ I        1031 34.41        13.1 0.18            150           70.7 300 
 PAM  EZ EP       1031 13.71                             150   -0.0810 79.3  40 
 PAM  EN ES       1031 31.16                             150   -0.0610 79.3  40 
 PAM  EZ I        1031 33.19         4.8 0.24            157           79.3  40 
 PTB  HZ EP       1031 18.05                             132   -0.23 9  146 259 
 PTB  HN ES       1031 38.92                             132   -0.30 9  146 259 
 PTB  HZ I        1031 45.66         4.7 0.20            131            146 259 
 ZAR  HZ EP   4   1031 26.33                             123    2.51 0  203 293 
 ZAR  HN ES       1031 48.87                             123   -0.22 9  203 293 
 ZAR  HZ I        1031 53.97         5.8 0.26            123            203 293 
 NOR  HZ EP   4   1031 19.15                             119   -7.83 0  233 235 
 NOR  HN ES   2   1031 54.20                             119   -0.50 4  233 235 
 NOR  HZ I        1032  4.12         2.8 0.44            119            233 235 
 CHI  HZ EP       1031 29.23                             117    0.27 8  247 195 
 CHI  HN ES       1031 58.40                             117    0.17 8  247 195 
 CHI  HZ I        1032  2.08         3.1 0.37            118            247 195 
 PRA  HZ EP       1031 44.91                             107    0.16 6  390 209 
 PRA  HN ES   2   1032 27.15                             107    0.82 3  390 209 
 PRA  HZ I        1032 33.05         3.2 0.36            108            390 209 
                                                                                
