 2011 1114 1118 59.9 L   6.825 -73.147144.1  RSN  8 0.4 2.0LRSN                1
 GAP=135        0.86       4.3     5.6  7.4  0.1960E+01  0.1947E+02  0.1277E+02E
 Epicentro: LOS SANTOS - SANTANDER                                             3
 ACTION:UPD 12-07-13 16:10 OP:ep   STATUS:               ID:20111114111859 L   I
 2011-11-14-1117-31S.COL___179                                                 6
 STAT SP IPHASW D HRMM SECON CODA AMPLIT PERI AZIMU VELO AIN AR TRES W  DIS CAZ7
 BAR2 SZ EP   1   1119 19.86                             169    0.44 7 26.0 189 
 BAR2 SZ ES   1   1119 34.52                             169   -0.10 7 26.0 189 
 BAR2 SZ I        1119 36.25        26.7 0.20                          26.0 189 
 BRR  HZ EP   1   1119 21.71                             153    0.88 7 69.8 297 
 BRR  HZ I        1119 28.57        12.6 0.11                          69.8 297 
 BRR  HN ES   1   1119 37.72                             153    0.60 7 69.8 297 
 PAM  SZ ES       1119 38.38                             151   -0.5710 75.4  41 
 RUS  HZ EP   1   1119 23.96                             143    0.24 7  103 176 
 RUS  HN ES   1   1119 42.35                             143    0.07 7  103 176 
 RUS  HZ I        1119 43.98        13.1 0.23                           103 176 
 ZAR  HZ EP   1   1119 31.95                             122   -0.21 6  203 291 
 ZAR  HN ES   1   1119 56.88                             122   -0.41 6  203 291 
 ZAR  HZ I        1120  3.52        10.7 0.27                           203 291 
 NOR  SZ EP   1   1119 35.08                             118   -0.65 6  236 234 
 NOR  SN ES   1   1120  3.26                             118   -0.39 6  236 234 
 CHI  HZ EP   1   1119 37.52                             116   -0.31 6  251 195 
 CHI  HN ES   1   1120  7.42                             116    0.04 6  251 195 
 CHI  HZ I        1120 14.70         5.1 0.38                           251 195 
 PRA  HZ EP   1   1119 54.14                             106    0.47 4  394 209 
 PRA  HN ES   1   1120 35.65                             106    0.07 4  394 209 
                                                                                
