 2010 1014 1938 30.7 L   7.375 -73.217132.9  RSN  9 0.4 2.3LRSN                1
 GAP=137        1.01       6.4    10.1  9.8 -0.3387E+02  0.1457E+02 -0.8696E+01E
 Epicentro: EL PLAYON - SANTANDER                                              3
 ACTION:UP  11-02-18 11:09 OP:tino STATUS:               ID:20101014193830 L   I
 2010-10-14-1936-50S.COL___128                                                 6
 STAT SP IPHASW D HRMM SECON CODA AMPLIT PERI AZIMU VELO SNR AR TRES W  DIS CAZ7
 URB  SZ EP       1938 48.93                             171     0.410   20 220 
 GIR2 SZ EP       1938 48.64                             165    -0.310   33 176 
 BTL  SZ EP       1938 49.72                             158     0.010   51 186 
 GUE  SZ EP       1938 49.81                             155    -0.510   60  33 
 BRR  HZ IP     C 1938 49.91                             153    -0.110   62 242 
 BRR  HZ I        1938 50.24        51.4 0.30                            62 242 
 BRR  HN ES   1   1939  5.15                             153     0.2 7   62 242 
 GRA  SZ EP       1938 51.51                             150     0.710   73  39 
 GRA  SZ ES   1   1939  6.67                             150     0.2 7   73  39 
 GRA  SZ I        1939  9.25        76.4 0.40                            73  39 
 BAR2 SZ EP       1938 51.69                             145    -0.110   87 178 
 BAR2 SZ ES   1   1939  8.13                             145    -0.2 7   87 178 
 BAR2 SZ I        1939 10.16        25.3 0.36                            87 178 
 OCA  SZ EP       1938 51.97                             142    -0.410   96 353 
 OCA  SZ I        1939 10.52        24.5 0.36                            96 353 
 NOR  SZ EP   1   1939 10.22                             112     0.4 6  271 223 
 NOR  SN ES   3   1939 41.03                             112     0.7 2  271 223 
                                                                                
