 2014 1214 1502 23.6 L   6.812 -73.142145.0  RSN 23 0.5 2.6LRSN                1
 GAP=126        1.17       2.6     3.4  4.8 -0.2195E+01  0.3413E+01  0.4416E+00E
 Epicentro: LOS SANTOS - SANTANDER                                             3
 ACTION:UPD 15-02-10 17:03 OP:nd   STATUS:               ID:20141214150223 L   I
 OLDACT:REG 14-12-14 20:44 OP:fm   STATUS:               ID:20141214145749     3
 2014-12-14-1457-49M.COL___287                                                 6
 STAT SP IPHASW D HRMM SECON CODA AMPLIT PERI AZIMU VELO AIN AR TRES W  DIS CAZ7
 BAR2 EZ EP       15 2 43.45                             170    0.3010 24.7 190 
 BAR2 EZ ES       15 2 57.98                             170   -0.4310 24.7 190 
 BAR2 EZ I        15 2 59.66        93.2 0.20            168           24.7 190 
 BRR  HZ EP       15 2 45.36                             152    0.7310 70.9 297 
 BRR  HE ES       15 3  1.96                             152    0.9210 70.9 297 
 BRR  HZ I        15 3  5.34        68.5 0.16            150           70.9 297 
 PAM  SZ IP     D 15 2 46.25                             151    0.6110 76.1  40 
 PAM  SN ES       15 3  3.15                             151    0.3110 76.1  40 
 PAM  SZ I        15 3  5.46        64.0 0.54            155           76.1  40 
 RUS  HZ EP     C 15 2 47.29                             143   -0.0610  102 176 
 RUS  HE ES       15 3  5.30                             143   -0.5910  102 176 
 RUS  HZ I        15 3  6.55        42.0 0.46            144            102 176 
 PTB  HZ EP       15 2 50.07                             132   -0.48 9  148 258 
 PTB  HN ES       15 3 10.96                             132   -0.61 9  148 258 
 PTB  HZ I        15 3 18.03        43.6 0.50            131            148 258 
 OCA  HZ EP       15 2 51.75                             130    0.04 9  159 353 
 OCA  HE ES       15 3 13.53                             130   -0.12 9  159 353 
 OCA  HZ I        15 3 18.25        69.5 0.28            131            159 353 
 SPBC HZ EP       15 2 52.42                             129    0.27 9  164 219 
 SPBC HE ES       15 3 13.77                             129   -0.65 9  164 219 
 SPBC HZ I        15 3 21.21        73.8 0.40            128            164 219 
 ZAR  HZ EP       15 2 56.32                             122    0.36 9  204 292 
 ZAR  HN ES       15 3 21.45                             122    0.23 9  204 292 
 ZAR  HZ I        15 3 28.23        37.8 0.14            122            204 292 
 NOR  HZ EP       15 2 59.88                             118    0.49 8  236 234 
 NOR  HE ES       15 3 27.39                             118    0.08 8  236 234 
 NOR  HZ I        15 3 30.36        35.5 0.38            118            236 234 
 SML  HZ EP       15 2 59.53                             117   -0.52 8  243 335 
 SML  HE ES       15 3 28.35                             117   -0.14 8  243 335 
 SML  HZ I        15 3 32.08        64.6 0.30            118            243 335 
 CHI  HZ EP       15 3  1.38                             117   -0.01 8  250 195 
 CHI  HN ES       15 3 30.06                             117   -0.82 8  250 195 
 CHI  HZ I        15 3 36.78        20.9 0.26            118            250 195 
 ROSC BZ EP       15 3  2.35                             116    0.54 8  254 211 
 ROSC BE ES   4   15 3 34.06                             116    2.44 0  254 211 
 ROSC BZ I        15 3 41.24        32.2 0.45            117            254 211 
 HEL  HZ EP   1   15 3  4.52                             114    0.68 6  273 256 
 HEL  HN ES       15 3 34.79                             114   -0.44 8  273 256 
 HEL  HZ I        15 3 43.20        18.7 0.22            115            273 256 
 URE  HZ EP   4   15 3  2.00                             113   -2.60 0  284 292 
 VIL  SZ EP   1   15 3  7.58                             112    0.45 5  305 192 
 PTGC HZ EP   4   15 3  4.78                             111   -2.75 0  310 159 
 PTGC HN ES   4   15 3 38.94                             111   -2.87 0  310 159 
 PTGC HZ I        15 3 45.27        19.2 0.36            113            310 159 
 RREF HZ EP       15 3  9.89                             111    0.06 7  323 229 
 RREF HN ES       15 3 46.45                             111    0.56 7  323 229 
 RREF HZ I        15 3 55.87        25.8 0.28            111            323 229 
 CBOC HZ EP       15 3 10.45                             110   -0.11 7  334 252 
 CBOC HN ES       15 3 46.75                             110   -0.44 7  334 252 
 CBOC HZ I        15 3 50.55         7.5 0.20            110            334 252 
 TOL  SZ EP       15 3 12.72                             109    0.77 7  345 225 
 TOL  SN ES       15 3 49.79                             109    0.11 7  345 225 
 TOL  SZ I        15 3 56.91        49.6 0.34            110            345 225 
 MON  HZ EP       15 3 11.00                             108   -1.49 6  353 308 
 MON  HE ES       15 3 50.00                             108   -0.64 6  353 308 
 MON  HZ I        15 4  4.82        14.2 0.58            109            353 308 
 SDV  BZ EP       15 3 13.01                             108   -0.45 6  359  50 
 SDV  BN ES       15 3 51.66                             108   -0.70 6  359  50 
 SDV  BZ I        15 3 54.70         5.7 0.30            110            359  50 
 ORTC HZ EP       15 3 17.88                             106    0.25 6  397 216 
 ORTC HN ES       15 4  0.25                             106    0.46 6  397 216 
 ORTC HZ I        15 4  7.58        15.5 0.48            107            397 216 
 PAL  HZ EP       15 3 19.45                             106    0.61 6  407 239 
 SJC  HZ EP     D 15 3 18.11                             106   -0.90 6  408 327 
 SJC  HE ES   4   15 3 58.93                             106   -3.31 0  408 327 
 SJC  HZ I        15 4  3.54        17.4 0.50            106            408 327 
                                                                                
