 2012 1214 1036 17.5 L   6.705 -73.228147.7  RSN  4 0.4 1.6LRSN                1
 GAP=208        1.16       9.0     8.4  9.3  0.3676E+02  0.1034E+02  0.4651E+01E
 Epicentro: VILLANUEVA - SANTANDER                                             3
 ACTION:UPD 13-01-04 14:27 OP:ep   STATUS:               ID:20121214103617 L   I
 2012-12-14-1030-00M.COL___242                                                 6
 STAT SP IPHASW D HRMM SECON CODA AMPLIT PERI AZIMU VELO AIN AR TRES W  DIS CAZ7
 BAR2 SZ EP       1036 36.76                             175   -0.4910 13.4 158 
 BAR2 SZ ES       1036 51.94                             175   -0.6810 13.4 158 
 BAR2 SZ I        1036 53.11         7.3 0.26                          13.4 158 
 BRR  HZ EP       1036 38.93                             153    0.1210 69.6 310 
 BRR  HE ES       1036 56.07                             153    0.6710 69.6 310 
 BRR  HE I        1036 56.53        19.1 0.24                          69.6 310 
 RUS  HZ EP       1036 41.17                             147    0.3310 91.2 170 
 RUS  HN ES       1036 59.42                             147    0.4210 91.2 170 
 RUS  HN I        1037  1.00         3.6 0.38                          91.2 170 
 PTB  HZ EP       1036 43.57                             135   -0.15 9  137 262 
 PTB  HN ES       1037  3.86                             135   -0.28 9  137 262 
 PTB  HN I        1037 10.02         6.0 0.50                           137 262 
                                                                                
