 2012 1114 1053 37.0 L   6.809 -73.141141.3  RSN 12 0.5 2.2LRSN 2.8WRSN        1
 SPEC AVERAGE  MO 13.3 ST  8.8 OM  2.0 f0 5.59 R0.2894 AL 2.51 WI 22.1 MW  2.8 3
 SPEC SD       MO  0.3 ST  9.8 OM  0.5 f0 1.62 R0.0952 AL      WI      MW  0.2 3
 GAP= 71        1.28       4.3     3.8  6.7  0.9986E+00  0.4923E+01  0.3693E+01E
 Epicentro: LOS SANTOS - SANTANDER                                             3
 SPEC ZAR HH N MO 13.6 ST 27.4 OM  1.8 f0 8.16 R0.1801 AL 3.10 WI 26.1 MW  3.0 3
 SPEC ZAR HH N T105433 K 0.000 GD  248 VS 4.20 DE 3.00 Q0230.0 QA 0.60 VS 4.20 3
 SPEC PTB HH N MO 13.4 ST  5.1 OM  1.7 f0 5.37 R0.2737 AL 1.61 WI 21.6 MW  2.9 3
 SPEC PTB HH N T105422 K 0.000 GD  204 VS 4.20 DE 3.00 Q0230.0 QA 0.60 VS 4.20 3
 SPEC RUS HH N MO 12.7 ST0.900 OM  1.1 f0 5.03 R0.2922 AL 2.27 WI 19.0 MW  2.4 3
 SPEC RUS HH N T105417 K 0.000 GD  174 VS 4.20 DE 3.00 Q0230.0 QA 0.60 VS 4.20 3
 SPEC HEL HH N MO 13.4 ST0.998 OM  1.5 f0 3.17 R0.4637 AL 1.58 WI 25.2 MW  2.8 3
 SPEC HEL HH N T105448 K 0.000 GD  307 VS 4.20 DE 3.00 Q0230.0 QA 0.60 VS 4.20 3
 SPEC BRR HH N MO 13.5 ST  9.7 OM  1.9 f0 6.20 R0.2371 AL 4.00 WI 18.6 MW  2.9 3
 SPEC BRR HH N T105414 K 0.000 GD  158 VS 4.20 DE 3.00 Q0230.0 QA 0.60 VS 4.20 3
 ACTION:UPD 12-12-05 15:33 OP:}ep  STATUS:               ID:20121114105336 L   I
 2012-11-14-1050-00M.COL___230                                                 6
 STAT SP IPHASW D HRMM SECON CODA AMPLIT PERI AZIMU VELO AIN AR TRES W  DIS CAZ7
 BAR2 SZ EP       1053 56.13                             170   -0.0210 24.4 191 
 BAR2 SZ I        1054 15.94        21.0 0.18                          24.4 191 
 GIR2 SZ EP       1053 56.17                             167    0.0210 30.4 349 
 GIR2 SZ ES       1054 11.21                             167    0.1410 30.4 349 
 BRR  HZ EP       1053 57.92                             152    0.2210 71.2 298 
 BRR  HN ES       1054 14.60                             152    0.7810 71.2 298 
 BRR  HN I        1054 19.20        69.3 0.50                          71.2 298 
 PAM  SZ EP       1053 58.80                             150    0.0910 76.3  40 
 PAM  SN ES       1054 15.71                             150    0.0910 76.3  40 
 RUS  HZ EP       1054  0.50                             143    0.0910  102 176 
 RUS  HN ES       1054 18.04                             143   -0.6110  102 176 
 PTB  HZ EP       1054  3.16                             131   -0.54 9  148 259 
 PTB  HN ES       1054 23.25                             131   -1.25 9  148 259 
 PTB  HZ I        1054 26.50        18.1 0.12                           148 259 
 TAM  HZ EP       1054  4.53                             130    0.19 9  155 105 
 TAM  HE ES       1054 25.74                             130    0.10 9  155 105 
 TAM  HE I        1054 26.06        13.1 0.16                           155 105 
 OCA  HZ EP       1054  4.39                             129   -0.52 9  159 353 
 ZAR  HZ EP       1054  9.40                             121    0.20 9  204 292 
 ZAR  HN ES       1054 34.49                             121    0.20 9  204 292 
 SML  HZ EP       1054 12.41                             116   -0.92 8  243 335 
 CHI  HZ EP       1054 15.09                             116    0.49 8  250 195 
 CHI  HN ES       1054 43.78                             116   -0.12 8  250 195 
 CHI  HN I        1054 47.32         8.5 0.34                           250 195 
 HEL  HZ EP       1054 18.04                             114    0.95 8  273 256 
 HEL  HN ES       1054 49.14                             114    0.79 8  273 256 
 HEL  HN I        1054 53.48        10.2 0.28                           273 256 
                                                                                
