 2010  914 1727 45.4 L   6.817 -73.013138.6  RSN  8 0.4 2.4LRSN                1
 GAP=197        0.73       4.1     8.9  7.5 -0.2641E+01  0.1596E+02  0.4722E+01E
 Epicentro: CEPITA - SANTANDER                                                 3
 ACTION:UP  11-02-18 11:02 OP:tino STATUS:               ID:20100914172745 L   I
 2010-09-14-1725-21S.COL___113                                                 6
 STAT SP IPHASW D HRMM SECON CODA AMPLIT PERI AZIMU VELO SNR AR TRES W  DIS CAZ7
 BAR2 SZ IP     D 1728  4.56                             167     0.210   31 217 
 BAR2 SZ ES   2   1728 19.41                             167     0.3 5   31 217 
 BAR2 SZ I        1728 20.71        68.2 0.20                            31 217 
 BRR  HZ EP   1   1728  6.37                             147    -0.2 7   84 293 
 BRR  HE ES   2   1728 23.17                             147     0.1 5   84 293 
 BRR  HZ I        1728 27.48        53.8 0.28                            84 293 
 RUS  HZ EP   1   1728  8.58                             142     0.0 7  103 184 
 RUS  HN ES   2   1728 25.77                             142    -0.9 5  103 184 
 RUS  HZ I        1728 28.45        27.7 0.28                           103 184 
 OCA  SZ EP   1   1728 13.06                             128    -0.1 7  161 348 
 OCA  SZ ES   2   1728 34.87                             128     0.0 5  161 348 
 OCA  SZ I        1728 39.26        40.3 0.51                           161 348 
 CHI  HZ EP   1   1728 22.82                             115    -0.5 6  255 198 
 CHI  HE ES   2   1728 53.51                             115     0.5 4  255 198 
 CHI  HZ I        1728 59.63        13.1 0.44                           255 198 
 ROSC BZ EP   1   1728 24.86                             114     0.7 6  262 214 
 ROSC BN ES   2   1728 54.42                             114     0.0 4  262 214 
 ROSC BZ I        1728 59.47        13.6 0.28                           262 214 
 HEL  HZ EP   1   1728 26.44                             112    -0.4 6  287 256 
 HEL  HZ I        1729  2.89        13.1 0.26                           287 256 
 RREF HZ EP   1   1728 32.85                             109     0.2 5  334 231 
 RREF HE ES   2   1729  9.17                             109    -0.4 3  334 231 
 RREF HZ I        1729 15.94        19.0 0.22                           334 231 
                                                                                
