 2016  814 1028 48.1 L   6.760 -73.169143.6  RSN  7 0.3 1.5LRSN                1
 GAP=135        0.85       4.3     4.0  5.6  0.3938E+01  0.3476E+01 -0.1297E+01E
 Epicentro: LOS SANTOS - SANTANDER                                             3
 ACTION:UPD 16-10-29 15:35 OP:rebc STATUS:               ID:20160814102848 L   I
 OLDACT:REG 16-08-14 20:03 OP:lv   STATUS:               ID:20160814102759     3
 2016-08-14-1027-59S.COL___346                                                 6
 STAT SP IPHASW D HRMM SECON CODA AMPLIT PERI AZIMU VELO AIN AR TRES W  DIS CAZ7
 BAR2 EZ EP       1029  7.47                             172    0.0310 18.7 185 
 BAR2 EZ ES       1029 22.01                             172   -0.4710 18.7 185 
 BAR2 EZ I        1029 23.94        10.0 0.21                          18.7 185 
 BRR  HZ IP     C 1029  9.00                             152   -0.0710 71.2 303 
 BRR  HE ES       1029 26.16                             152    0.7710 71.2 303 
 BRR  HZ I        1029 29.40         8.9 0.32                          71.2 303 
 PAM  EZ EP       1029 10.35                             149   -0.1010 82.4  39 
 PAM  EN ES   2   1029 27.55                             149   -0.29 5 82.4  39 
 PAM  EZ I        1029 29.66         5.6 0.37                          82.4  39 
 RUS  HZ EP       1029 11.80                             145    0.4110 96.4 174 
 RUS  HN ES       1029 29.50                             145   -0.0210 96.4 174 
 RUS  HZ I        1029 32.32         1.4 0.17                          96.4 174 
 PTB  HZ EP       1029 14.14                             132   -0.50 9  144 260 
 PTB  HN ES       1029 35.15                             132   -0.16 9  144 260 
 PTB  HZ I        1029 42.45         3.7 0.22                           144 260 
 SPBC HZ EP       1029 16.21                             129    0.20 9  158 219 
 SPBC HN ES   2   1029 37.76                             129    0.02 5  158 219 
 SPBC HZ I        1029 39.84         4.1 0.10                           158 219 
 ZAR  HZ EP       1029 20.51                             122    0.12 9  203 294 
 ZAR  HE ES       1029 45.31                             122   -0.22 9  203 294 
 ZAR  HZ I        1029 51.70         2.9 0.15                           203 294 
                                                                                
