 2012  914 1958  0.4 L   6.756 -73.145142.0  RSN 10 0.4 2.3LRSN                1
 GAP=139        0.94       4.8     4.6  6.6 -0.3054E+01  0.5464E+01  0.7594E+01E
 Epicentro: LOS SANTOS - SANTANDER                                             3
 ACTION:UPD 12-10-22 14:18 OP:ep   STATUS:               ID:20120914195800 L   I
 2012-09-14-1950-00M.COL___227                                                 6
 STAT SP IPHASW D HRMM SECON CODA AMPLIT PERI AZIMU VELO AIN AR TRES W  DIS CAZ7
 BAR2 SZ EP   1   1958 19.44                             172   -0.01 7 18.6 193 
 BAR2 SZ I        1958 20.11        48.4 0.11                          18.6 193 
 BAR2 SZ ES   1   1958 33.74                             172   -0.60 7 18.6 193 
 GIR2 SZ EP       1958 20.19                             165    0.4610 36.0 351 
 BRR  HZ IP     D 1958 21.43                             151    0.1810 73.7 302 
 BRR  HN ES       1958 38.18                             151    0.6410 73.7 302 
 BRR  HZ I        1958 41.43        64.8 0.13                          73.7 302 
 PAM  SZ EP       1958 22.51                             149    0.1010 81.1  37 
 PAM  SZ I        1958 22.79        55.5 0.17                          81.1  37 
 PAM  SE ES       1958 39.15                             149   -0.4610 81.1  37 
 RUS  HZ EP       1958 23.75                             144    0.3510 95.8 176 
 RUS  HZ I        1958 25.12        19.3 0.15                          95.8 176 
 RUS  HN ES   1   1958 41.39                             144    0.03 7 95.8 176 
 PTB  HZ EP       1958 26.37                             131   -0.58 9  147 261 
 PTB  HN ES   1   1958 47.40                             131   -0.29 7  147 261 
 PTB  HZ I        1958 53.17        23.7 0.19                           147 261 
 ZAR  HZ EP   1   1958 32.20                             121   -0.56 6  206 293 
 ZAR  HE ES   2   1958 57.61                             121   -0.42 4  206 293 
 ZAR  HZ I        1959  4.00        37.5 0.29                           206 293 
 NOR  SN ES   1   1959  3.23                             118    0.18 6  232 235 
 CHI  HZ EP   1   1958 36.83                             117   -0.52 6  244 195 
 CHI  HZ I        1959 11.39         9.0 0.41                           244 195 
 PRA  HZ EP   1   1958 53.82                             106    0.55 4  388 210 
                                                                                
