 2016  814 1441 55.4 L   6.710 -73.320121.6  RSN  9 0.3 1.8LRSN                1
 GAP=175        0.76       3.0     3.1  4.6  0.1713E+01  0.6402E+01  0.2669E+01E
 Epicentro: GALAN - SANTANDER                                                  3
 ACTION:UPD 16-10-29 15:35 OP:rebc STATUS:               ID:20160814144155 L   I
 OLDACT:REG 16-08-14 20:15 OP:lv   STATUS:               ID:20160814143759     3
 2016-08-14-1437-59S.COL___349                                                 6
 STAT SP IPHASW D HRMM SECON CODA AMPLIT PERI AZIMU VELO AIN AR TRES W  DIS CAZ7
 BAR2 EZ IP       1442 12.06                             170    0.0010 20.0 131 
 BAR2 HE ES       1442 25.57                             170    0.5210 20.0 131 
 BAR2 EZ I        1442 26.20        33.6 0.24                          20.0 131 
 BRR  HZ EP       1442 13.24                             151   -0.1610 61.7 315 
 BRR  HN ES       1442 27.58                             151    0.1310 61.7 315 
 BRR  HZ I        1442 30.70        11.8 0.34                          61.7 315 
 RUS  HZ EP       1442 15.84                             140   -0.5010 94.1 164 
 RUS  HN ES       1442 32.44                             140   -0.2410 94.1 164 
 RUS  HZ I        1442 33.57         5.2 0.22                          94.1 164 
 PTB  HZ EP   4   1442 17.01                             130   -1.52 0  127 262 
 PTB  HE ES       1442 36.16                             130   -0.4110  127 262 
 PTB  HZ I        1442 38.64         8.3 0.42                           127 262 
 SPBC HZ EP       1442 20.55                             127    0.35 9  144 215 
 SPBC HN ES       1442 39.55                             127   -0.00 9  144 215 
 SPBC HZ I        1442 44.57        13.8 0.22                           144 215 
 ZAR  HZ EP       1442 25.14                             118    0.19 9  191 297 
 ZAR  HN ES       1442 47.58                             118   -0.42 9  191 297 
 ZAR  HZ I        1442 51.18        10.5 0.18                           191 297 
 NOR  HZ EP       1442 27.32                             115   -0.14 8  213 234 
 NOR  HE ES       1442 52.34                             115   -0.13 8  213 234 
 NOR  HZ I        1442 56.97         5.5 0.12                           213 234 
 HEL  HZ EP       1442 32.43                             111    0.34 8  251 257 
 HEL  HN ES       1443  0.98                             111    0.26 8  251 257 
 HEL  HZ I        1443  4.51         4.6 0.60                           251 257 
 GUY2CHZ EP       1442 35.86                             109    0.34 7  280 234 
 GUY2CHE ES       1443  7.03                             109    0.21 7  280 234 
 GUY2CHZ I        1443 12.39         3.0 0.28                           280 234 
                                                                                
