 2011  214 1224 33.4 L   6.787 -73.157142.2  RSN  4 0.2 1.3LRSN                1
 GAP=157        0.63       5.0    21.2  7.9 -0.4783E+02 -0.1739E+02 -0.1300E+02E
 Epicentro: LOS SANTOS - SANTANDER                                             3
 ACTION:UP  11-03-28 15:08 OP:jfem STATUS:               ID:20110214122433 L   I
 2011-02-14-1221-57S.COL___137                                                 6
 STAT SP IPHASW D HRMM SECON CODA AMPLIT PERI AZIMU VELO SNR AR TRES W  DIS CAZ7
 BTL  SZ EP       1224 52.76                             171     0.210   19 320 
 BAR2 SZ EP       1224 52.62                             171     0.010   22 188 
 BAR2 SZ ES   1   1225  7.27                             171    -0.3 7   22 188 
 BAR2 SZ I        1225  9.17         5.4 0.23                            22 188 
 RUS  HZ EP   1   1224 56.80                             143     0.1 7   99 175 
 RUS  HN ES   1   1225 14.86                             143     0.0 7   99 175 
 RUS  HZ I        1225 16.25         2.2 0.37                            99 175 
 GRA  SZ EP       1224 58.18                             136    -0.310  128  18 
 GRA  SZ I        1224 59.31         2.7 0.31                           128  18 
 GRA  SZ ES   2   1225 18.55                             136     0.5 5  128  18 
                                                                                
