 2010 1014 1907 48.9 L   6.770 -73.126147.2  RSN 12 0.4 2.6LRSN                1
 GAP=137        1.02       4.2     6.4  8.2 -0.6659E+01  0.4181E+01  0.1297E+02E
 Epicentro: LOS SANTOS - SANTANDER                                             3
 ACTION:UP  11-02-18 11:09 OP:tino STATUS:               ID:20101014190748 L   I
 2010-10-14-1906-11S.COL___128                                                 6
 STAT SP IPHASW D HRMM SECON CODA AMPLIT PERI AZIMU VELO SNR AR TRES W  DIS CAZ7
 BAR2 SZ EP       19 8  8.29                             172    -0.310   21 198 
 BAR2 SZ ES   2   19 8 23.16                             172    -0.9 5   21 198 
 BAR2 SZ I        19 8 26.36        59.1 0.46                            21 198 
 GIR2 SZ EP       19 8  8.42                             166    -0.410   35 348 
 BRR  HZ EP       19 8 10.25                             152    -0.110   75 300 
 BRR  HZ I        19 8 11.79        67.3 0.05                            75 300 
 BRR  HN ES   1   19 8 28.03                             152     0.9 7   75 300 
 GUE  SZ EP       19 8 14.54                             139     0.610  119  11 
 GRA  SZ EP       19 8 14.39                             137    -0.110  128  16 
 GRA  SZ ES   1   19 8 34.72                             137     0.3 7  128  16 
 GRA  SZ I        19 8 37.67        33.1 0.28                           128  16 
 OCA  SZ EP       19 8 17.01                             129    -0.6 9  164 353 
 OCA  SZ ES   2   19 8 40.01                             129    -0.1 5  164 353 
 OCA  SZ I        19 8 43.64        44.4 0.25                           164 353 
 YOP  SZ EP       19 8 18.92                             127     0.3 9  175 153 
 YOP  SN ES   2   19 8 42.41                             127     0.5 4  175 153 
 NOR  SZ EP       19 8 24.19                             119    -0.5 8  235 236 
 NOR  SN ES   2   19 8 52.41                             119    -0.2 4  235 236 
 CHI  HZ EP       19 8 26.48                             118     0.1 8  246 196 
 CHI  HZ I        19 8 29.04        16.7 0.38                           246 196 
 CHI  HE ES   2   19 8 55.49                             118    -0.1 4  246 196 
 HEL  HZ EP       19 8 29.54                             115     0.2 8  273 257 
 HEL  HN ES   3   19 9  1.28                             115     0.4 2  273 257 
 HEL  HZ I        19 9  7.56        21.6 0.27                           273 257 
 TOL  SZ EP       19 8 37.81                             110     0.7 7  343 225 
 PRA  HZ EP       19 8 42.13                             107    -0.1 6  390 210 
 PRA  HZ I        19 8 44.02        77.1 0.18                           390 210 
 PRA  HN ES   2   19 9 23.77                             107    -0.1 3  390 210 
                                                                                
