 2011  514 1651  1.9 L   6.853 -73.121145.4  RSN 12 0.3 1.9LRSN                1
 GAP=137        0.61       3.3     5.0  4.4 -0.7468E+01  0.3231E+01  0.5155E+00E
 Epicentro: LOS SANTOS - SANTANDER                                             3
 ACTION:UP  11-06-29 08:53 OP:tino STATUS:               ID:20110514165101 L   I
 2011-05-14-1640-00M.COL___140                                                 6
 STAT SP IPHASW D HRMM SECON CODA AMPLIT PERI AZIMU VELO SNR AR TRES W  DIS CAZ7
 BTL  SZ EP   1   1651 21.62                             173     0.2 8   18 294 
 BTL  SZ ES   2   1651 36.57                             173     0.0 5   18 294 
 BAR2 SZ EP   1   1651 21.49                             168    -0.1 8   30 193 
 BAR2 SZ ES   1   1651 36.98                             168     0.0 8   30 193 
 BAR2 SZ I        1651 37.33        14.9 0.21                            30 193 
 BRR  HZ EP   1   1651 22.58                             152    -0.4 8   71 293 
 BRR  HZ I        1651 24.41        27.6 0.39                            71 293 
 BRR  HE ES   1   1651 39.85                             152     0.4 8   71 293 
 PAM  SZ EP   2   1651 23.66                             153    -0.1 5   71  41 
 PAM  SE ES   2   1651 40.60                             153    -0.1 5   71  41 
 BRI  SZ EP   1   1651 25.25                             143     0.0 8  102  21 
 BRI  SZ ES   2   1651 43.72                             143     0.2 5  102  21 
 BRI  SZ I        1651 45.17        12.4 0.69                           102  21 
 RUS  HZ EP   1   1651 26.21                             142     0.2 8  106 178 
 RUS  HE ES   2   1651 44.86                             142     0.0 5  106 178 
 RUS  HZ I        1651 48.07         4.6 0.41                           106 178 
 GRA  SZ IP       1651 26.56                             138     0.010  119  17 
 GRA  SZ ES   1   1651 45.54                             138    -0.3 7  119  17 
 GRA  SZ I        1651 46.78        26.4 0.38                           119  17 
 OCA  SZ EP   1   1651 30.37                             131     0.7 7  155 352 
 OCA  SZ ES   2   1651 50.82                             131    -0.5 5  155 352 
 OCA  SZ I        1651 53.95         9.7 0.28                           155 352 
 NOR  SZ EP   2   1651 37.58                             118    -0.6 4  240 234 
 NOR  SN ES   2   1652  6.30                             118    -0.2 4  240 234 
 HEL  HZ EP   1   1651 42.32                             114    -0.2 6  276 255 
 HEL  HZ I        1652 19.42         4.3 0.44                           276 255 
 RREF HZ EP   1   1651 48.89                             110     0.2 5  328 229 
 RREF HZ I        1652 33.96         5.9 0.37                           328 229 
 PRA  HZ EP   2   1651 56.47                             106     0.3 3  398 209 
                                                                                
