 2013  114 1028 43.2 L   6.755 -73.171148.4  RSN  5 0.2 1.4LRSN                1
 GAP=231        0.39       4.7     6.7  3.8  0.2431E+02  0.6965E+01  0.6966E+01E
 Epicentro: VILLANUEVA - SANTANDER                                             3
 ACTION:UPD 13-02-15 09:14 OP:ep   STATUS:               ID:20130114102843 L   I
 2013-01-14-1020-00M.COL___241                                                 6
 STAT SP IPHASW D HRMM SECON CODA AMPLIT PERI AZIMU VELO AIN AR TRES W  DIS CAZ7
 BAR2 SZ EP   1   1029  2.85                             173   -0.20 7 18.1 184 
 BAR2 SZ ES   1   1029 18.35                             173   -0.18 7 18.1 184 
 BAR2 SZ I        1029 19.13         8.5 0.22            170           18.1 184 
 BRR  HZ EP   1   1029  4.64                             153    0.00 7 71.4 303 
 BRR  HN ES   1   1029 21.59                             153    0.23 7 71.4 303 
 BRR  HZ I        1029 22.45         4.7 0.48            153           71.4 303 
 RUS  HZ EP       1029  7.02                             146    0.1410 95.9 174 
 RUS  HN ES   1   1029 25.36                             146    0.01 7 95.9 174 
 RUS  HZ I        1029 26.84         3.3 0.26            145           95.9 174 
 ZAR  HN ES   2   1029 40.87                             123   -0.27 4  203 294 
 CHI  HZ EP       1029 20.44                             118   -0.01 8  243 195 
                                                                                
