 2016  614 1803 19.0 L   6.814 -73.090156.2  RSN  8 0.5 2.0LRSN                1
 GAP=143        1.25       5.5     6.8  9.2  0.3681E+00  0.2432E+02  0.8818E+01E
 Epicentro: LOS SANTOS - SANTANDER                                             3
 ACTION:UPD 16-07-21 22:18 OP:rebc STATUS:               ID:20160614180319 L   I
 OLDACT:UP  16-06-15 01:17 OP:dani STATUS:               ID:20160614175744     3
 OLDACT:UP  16-06-15 01:16 OP:dani STATUS:               ID:20160614175744     3
 OLDACT:UP  16-06-15 01:16 OP:dani STATUS:               ID:20160614175744     3
 OLDACT:REG 16-06-14 20:48 OP:dani STATUS:               ID:20160614175744     3
 2016-06-14-1757-44M.COL___319                                                 6
 STAT SP IPHASW D HRMM SECON CODA AMPLIT PERI AZIMU VELO AIN AR TRES W  DIS CAZ7
 PAM  EN ES       18 4  0.09                             154    0.0210 72.4  37 
 BRR  HZ EP       18 3 41.90                             153    0.3310 76.0 295 
 BRR  HE ES       18 3 59.24                             153    0.0810 76.0 295 
 BRR  HZ I        18 4  0.07        12.0 0.24                          76.0 295 
 RUS  HZ EP       18 3 44.08                             146    0.1910  102 180 
 RUS  HE ES       18 4  2.72                             146   -0.5810  102 180 
 RUS  HZ I        18 4  4.06         4.0 0.26                           102 180 
 PTB  HZ EP       18 3 46.71                             133   -0.70 9  154 259 
 PTB  HN ES   4   18 4  8.34                             133   -1.23 0  154 259 
 PTB  HZ I        18 4 12.51         8.3 0.14                           154 259 
 SPBC HZ EP       18 3 49.13                             130    0.32 9  168 220 
 SPBC HE ES       18 4 12.72                             130    0.68 9  168 220 
 SPBC HZ I        18 4 17.76        15.9 0.26                           168 220 
 ZAR  HZ EP       18 3 51.94                             124   -0.75 8  209 291 
 ZAR  HN ES       18 4 19.20                             124    0.25 8  209 291 
 ZAR  HZ I        18 4 24.65        12.9 0.24                           209 291 
 NOR  HZ EP       18 3 56.70                             120    0.71 8  241 235 
 NOR  HN ES       18 4 24.27                             120   -0.57 8  241 235 
 NOR  HZ I        18 4 30.49         7.8 0.20                           241 235 
 HEL  HE ES   4   18 4 35.49                             116    2.68 0  278 256 
 GUY2CHZ EP   9   18 4  5.41                             114    1.62 0  307 235 
 GUY2CHE ES   2   18 4 42.23                             113    1.90 4  307 235 
 GUY2CHZ I        18 4 46.80         6.8 0.38                           307 235 
                                                                                
