 2013  814 1632 25.2 L   6.794 -73.151143.5  RSN  9 0.5 2.0LRSN                1
 GAP=200        0.95       4.5     6.1  7.0  0.6156E+01  0.1500E+02 -0.1714E+01E
 Epicentro: LOS SANTOS - SANTANDER                                             3
 ACTION:UPD 14-01-14 09:02 OP:ep   STATUS:               ID:20130814163225 L   I
 OLDACT:REG 13-08-14 15:38 OP:jn   STATUS:               ID:20130814162959     3
 2013-08-14-1629-59M.COL___270                                                 6
 STAT SP IPHASW D HRMM SECON CODA AMPLIT PERI AZIMU VELO AIN AR TRES W  DIS CAZ7
 BAR2 SZ EP       1632 44.49                             171   -0.0610 22.6 189 
 BAR2 SZ ES       1632 59.25                             171   -0.3910 22.6 189 
 BAR2 SZ I        1633  1.40        17.8 0.46            165           22.6 189 
 BRR  HZ EP       1632 46.48                             152    0.3910 71.0 299 
 BRR  HN ES   1   1633  3.51                             152    1.12 7 71.0 299 
 BRR  HZ I        1633  7.88        13.4 0.48            148           71.0 299 
 RUS  HZ EP   1   1632 48.92                             144    0.23 7  100 176 
 RUS  HN ES       1633  6.87                             144   -0.1410  100 176 
 RUS  HZ I        1633  9.84         9.5 0.48            145            100 176 
 PTB  HZ EP   1   1632 51.24                             132   -0.68 7  147 259 
 PTB  HN ES   1   1633 12.44                             132   -0.33 7  147 259 
 PTB  HZ I        1633 20.07        15.4 0.46            130            147 259 
 SPBC HE ES   1   1633 15.79                             129    0.31 7  162 219 
 ZAR  HZ EP   1   1632 57.27                             122   -0.20 6  204 292 
 ZAR  HE ES   1   1633 22.13                             122   -0.51 6  204 292 
 ZAR  HZ I        1633 28.14        14.1 0.44            123            204 292 
 NOR  HZ EP       1633  0.55                             118   -0.16 8  234 235 
 NOR  HE ES   1   1633 28.31                             118   -0.10 6  234 235 
 NOR  HZ I        1633 35.69         8.0 0.38            119            234 235 
 SML  HN ES   1   1633 30.05                             117   -0.18 6  244 335 
 GUY2CHZ EP   1   1633  9.57                             112    0.96 5  300 235 
                                                                                
