 2014  914 1410 47.6 L   6.796 -73.291115.3  RSN  5 0.2 1.8LRSN                1
 GAP=104        0.63       3.1     3.0  5.8  0.4465E+00  0.2076E+01  0.3955E+01E
 Epicentro: ZAPATOCA - SANTANDER                                               3
 ACTION:UPD 14-10-03 23:04 OP:nd   STATUS:               ID:20140914141047 L   I
 OLDACT:REG 14-09-14 20:50 OP:mh   STATUS:               ID:20140914140816     3
 2014-09-14-1408-16M.COL___290                                                 6
 STAT SP IPHASW D HRMM SECON CODA AMPLIT PERI AZIMU VELO AIN AR TRES W  DIS CAZ7
 BAR2 SZ EP       1411  3.74                             167    0.0810 25.5 152 
 BAR2 SZ ES       1411 15.99                             167   -0.1710 25.5 152 
 BAR2 SZ I        1411 18.44        57.4 0.49            151           25.5 152 
 BRR  HZ I        1411  4.22        15.4 0.44            154           57.9 307 
 BRR  HZ EP     C 1411  4.23                             151   -0.4910 57.9 307 
 BRR  HN ES       1411 18.17                             151    0.1110 57.9 307 
 PAM  SN ES       1411 23.28                             140    0.1810 88.8  47 
 RUS  HZ EP       1411  8.86                             136    0.1810  102 167 
 RUS  HN ES       1411 25.03                             136   -0.0710  102 167 
 RUS  HZ I        1411 27.27         4.3 0.18            123            102 167 
 PTB  HZ EP   4   1411  9.03                             127   -1.69 0  132 258 
 PTB  HN ES       1411 28.94                             127    0.2010  132 258 
 PTB  HZ I        1411 30.74         9.6 0.30            121            132 258 
                                                                                
