 2015 1214 1132 44.8 L   6.810 -73.146146.8  RSN  9 0.5 2.0LRSN                1
 GAP=136        1.12       4.0     5.1  6.7 -0.2348E+01  0.1017E+02 -0.2466E+01E
 Epicentro: LOS SANTOS - SANTANDER                                             3
 ACTION:UPD 16-02-04 15:04 OP:cam  STATUS:               ID:20151214113244 L   I
 OLDACT:UP  15-12-14 22:15 OP:ar   STATUS:               ID:20151214112748     3
 OLDACT:REG 15-12-14 20:31 OP:ar   STATUS:               ID:20151214112748     3
 2015-12-14-1127-48M.COL___324                                                 6
 STAT SP IPHASW D HRMM SECON CODA AMPLIT PERI AZIMU VELO AIN AR TRES W  DIS CAZ7
 BAR2 EZ EP       1133  4.48                             170   -0.1510 24.4 189 
 BAR2 EZ ES       1133 20.23                             170    0.1810 24.4 189 
 BAR2 EZ I        1133 21.12        30.6 0.32            171           24.4 189 
 BRR  HZ EP       1133  6.18                             153    0.1010 70.6 298 
 BRR  HN ES       1133 23.18                             153    0.5410 70.6 298 
 BRR  HZ I        1133 23.77        17.1 0.36            151           70.6 298 
 PAM  EZ EP       1133  7.44                             151    0.3110 76.6  40 
 PAM  EN ES       1133 24.39                             151   -0.1210 76.6  40 
 PAM  EZ I        1133 26.60        19.0 0.54            153           76.6  40 
 RUS  HZ EP       1133  8.29                             144   -0.4910  102 176 
 RUS  HN ES       1133 27.21                             144   -0.2410  102 176 
 RUS  HZ I        1133 27.99         6.5 0.32            147            102 176 
 PTB  HZ EP       1133 12.55                             132    0.64 9  148 258 
 PTB  HN ES       1133 32.18                             132   -0.84 9  148 258 
 PTB  HZ I        1133 37.89         9.4 0.16            132            148 258 
 OCA  HZ EP   2   1133 12.49                             130   -0.65 5  159 353 
 OCA  HN ES   2   1133 36.13                             130    0.93 5  159 353 
 OCA  HZ I        1133 37.54        20.7 0.33            131            159 353 
 ZAR  HZ EP   4   1133 18.72                             123    1.41 0  204 292 
 ZAR  HN ES   2   1133 42.15                             123   -0.48 4  204 292 
 ZAR  HZ I        1133 49.06        11.7 0.26            123            204 292 
 SML  HZ EP       1133 20.82                             118   -0.60 8  243 335 
 SML  HN ES       1133 49.67                             118   -0.28 8  243 335 
 SML  HZ I        1133 51.64        13.0 0.28            118            243 335 
 GUY2CHZ EP       1133 29.57                             112    1.00 7  302 235 
 GUY2CHE ES       1134  2.87                             112    0.20 7  302 235 
 GUY2CHZ I        1134  8.50         2.3 0.30                           302 235 
                                                                                
