 2012 1114 1232 41.7 L   6.805 -73.134142.9  RSN  7 0.3 1.8LRSN                1
 GAP=138        0.90       4.4     6.1  6.0 -0.2448E+00  0.7960E+01 -0.3497E+01E
 Epicentro: LOS SANTOS - SANTANDER                                             3
 ACTION:UPD 12-12-05 15:33 OP:}ep  STATUS:               ID:20121114123241 L   I
 2012-11-14-1230-00M.COL___230                                                 6
 STAT SP IPHASW D HRMM SECON CODA AMPLIT PERI AZIMU VELO AIN AR TRES W  DIS CAZ7
 BAR2 SZ EP       1233  0.93                             170   -0.0710 24.1 193 
 BAR2 SZ ES       1233 15.45                             170   -0.6010 24.1 193 
 BAR2 SZ I        1233 17.15        18.8 0.18                          24.1 193 
 GIR2 SZ EP       1233  1.01                             167   -0.0110 31.0 348 
 BRR  HZ EP       1233  2.87                             152    0.2810 72.1 298 
 BRR  HN ES       1233 19.30                             152    0.4110 72.1 298 
 BRR  HN I        1233 23.49        29.3 0.18                          72.1 298 
 PAM  SZ EP       1233  3.92                             151    0.3910 76.1  39 
 PAM  SN ES       1233 20.54                             151   -0.0210 76.1  39 
 PAM  SN I        1233 21.84        20.2 0.42                          76.1  39 
 RUS  HZ EP       1233  5.35                             143    0.1510  101 177 
 RUS  HN ES       1233 23.54                             143    0.0110  101 177 
 RUS  HN I        1233 25.71         2.8 0.68                           101 177 
 PTB  HZ EP       1233  8.53                             131   -0.03 9  149 259 
 SML  HZ EP       1233 17.37                             117   -0.80 8  244 335 
                                                                                
