 2015 1214 1350 37.3 L   6.758 -73.147146.7  RSN  9 0.4 2.0LRSN                1
 GAP=138        0.80       4.0     4.2  5.7 -0.3352E+01  0.6529E+01 -0.2791E+01E
 Epicentro: LOS SANTOS - SANTANDER                                             3
 ACTION:UPD 16-02-04 15:04 OP:cam  STATUS:               ID:20151214135037 L   I
 OLDACT:DUP 15-12-15 00:21 OP:ar   STATUS:               ID:20151214134748d    3
 OLDACT:REG 15-12-14 20:43 OP:ar   STATUS:               ID:20151214134747     3
 2015-12-14-1347-47M.COL___327                                                 6
 STAT SP IPHASW D HRMM SECON CODA AMPLIT PERI AZIMU VELO AIN AR TRES W  DIS CAZ7
 BAR2 EZ ES       1351 12.17                             173   -0.0910 18.7 192 
 BAR2 EZ I        1351 13.38        43.1 0.16            172           18.7 192 
 BRR  HZ EP       1350 58.64                             152   -0.0010 73.4 302 
 BRR  HN ES       1351 15.88                             152    0.5710 73.4 302 
 BRR  HZ I        1351 16.69        15.9 0.26            151           73.4 302 
 PAM  EZ EP       1350 59.63                             150   -0.1710 81.1  38 
 PAM  EN ES       1351 17.13                             150   -0.2510 81.1  38 
 RUS  HZ EP   2   1351  0.94                             146    0.16 5 95.9 176 
 RUS  HN ES   2   1351 19.39                             146    0.27 5 95.9 176 
 RUS  HZ I        1351 20.71        10.7 0.22            146           95.9 176 
 PTB  HZ EP       1351  3.85                             132   -0.37 9  147 261 
 PTB  HN ES       1351 24.82                             132   -0.43 9  147 261 
 PTB  HZ I        1351 27.67         7.4 0.30            132            147 261 
 SPBC HZ EP   2   1351  5.52                             130    0.03 5  160 220 
 SPBC HE ES   2   1351 28.24                             130    0.74 5  160 220 
 SPBC HZ I        1351 29.21        12.0 0.10            130            160 220 
 ZAR  HZ EP   2   1351 10.64                             122    0.70 4  206 293 
 ZAR  HN ES   2   1351 35.15                             122   -0.28 4  206 293 
 SML  HZ EP   2   1351 13.53                             117   -0.87 4  248 336 
 SML  HN ES       1351 43.84                             117    0.48 8  248 336 
 SML  HZ I        1351 47.05        12.2 0.00            118            248 336 
 GUY2CHZ EP   2   1351 21.62                             113    1.01 4  298 235 
 GUY2CHE ES   4   1351 57.22                             113    2.81 0  298 235 
 GUY2CHZ I        1352  8.99         3.4 0.54                           298 235 
                                                                                
