 2017  914 1655 42.1 L   7.204 -73.984  4.0  RSN  9 0.8 2.1LRSN                1
 GAP=180        1.59       6.2     3.7  8.7  0.1395E+02  0.1613E+02  0.2608E+02E
 Epicentro: PUERTO WILCHES - SANTANDER                                         3
 ACTION:UPD 17-10-05 19:12 OP:rebc STATUS:               ID:20170914165542 L   I
 OLDACT:UP  17-09-14 22:47 OP:dnl  STATUS:               ID:20170914164746     3
 OLDACT:REG 17-09-14 20:41 OP:dnl  STATUS:               ID:20170914164746     3
 2017-09-14-1648-00M.COL___465                                                 6
 STAT SP IPHASW D HRMM SECON CODA AMPLIT PERI AZIMU VELO AIN AR TRES W  DIS CAZ7
 BRR  HZ IP     C 1655 47.57                              47    0.0610 31.9 110 
 BRR  HE ES       1655 52.43                              47    0.6910 31.9 110 
 BRR  HZ I        1655 53.29       268.6 0.14             47           31.9 110 
 ZAR  HZ EP       1655 58.30                              47    0.2210  102 288 
 ZAR  HN ES       1656 10.54                              47   -0.0210  102 288 
 ZAR  HZ I        1656 11.68        70.9 0.24             47            102 288 
 BAR2 EZ EP       1655 59.59                              47   -0.2210  111 127 
 BAR2 EZ ES       1656 12.94                              47   -0.7010  111 127 
 BAR2 EZ I        1656 16.28        36.2 0.24             47            111 127 
 RUS  HZ EP       1656  9.64                              47   -0.21 9  176 145 
 RUS  HN ES       1656 31.42                              47   -0.08 9  176 145 
 RUS  HZ I        1656 31.85        38.5 0.26             47            176 145 
 URE  HZ EP   2   1656 10.55                              37    0.52 4  181 290 
 URE  HN ES       1656 31.24                              37   -0.58 9  181 290 
 URE  HZ I        1656 35.59        17.0 0.22             37            181 290 
 HEL  HZ EP   4   1656 15.79                              37    2.47 0  204 237 
 HEL  HN ES       1656 37.53                              37   -0.16 9  204 237 
 HEL  HZ I        1656 38.53        14.0 0.42             37            204 237 
 NOR  HZ EP   2   1656 12.88                              37   -0.30 4  206 208 
 NOR  HE ES       1656 36.29                              37   -1.14 8  206 208 
 NOR  HZ I        1656 40.08        10.5 0.20             37            206 208 
 GUY2CHZ EP   2   1656 23.05                              37    1.76 4  267 215 
 GUY2CHN ES       1656 51.83                              37   -0.04 8  267 215 
 GUY2CHZ I        1657  2.30         4.8 0.26                           267 215 
 ELA  HZ EP   2   1656 26.25                              36    0.42 4  303 211 
 ELA  HN ES       1657  2.38                              36    2.43 7  303 211 
 ELA  HZ I        1657 15.08         6.7 0.44             36            303 211 
                                                                                
