 2015  214 1152 29.0 L   6.824 -73.123145.3  RSN  7 0.7 2.0LRSN                1
 GAP=203        1.71       6.4     9.8 10.6  0.3501E+01  0.1975E+02 -0.7454E+01E
 Epicentro: LOS SANTOS - SANTANDER                                             3
 ACTION:UPD 15-04-30 21:26 OP:nd   STATUS:               ID:20150214115229 L   I
 OLDACT:REG 15-02-14 22:20 OP:stll STATUS:               ID:20150214114750     3
 2015-02-14-1147-50M.COL___293                                                 6
 STAT SP IPHASW D HRMM SECON CODA AMPLIT PERI AZIMU VELO AIN AR TRES W  DIS CAZ7
 BAR2 EZ EP       1152 49.22                             169    0.6110 26.5 194 
 BAR2 EZ ES       1153  3.85                             169   -0.0810 26.5 194 
 BAR2 EZ I        1153  6.09        17.7 0.24            172           26.5 194 
 BRR  HZ EP       1152 50.69                             152    0.5610 72.2 296 
 BRR  HZ I        1152 51.10        32.1 0.36            152           72.2 296 
 BRR  HN ES       1153  7.89                             152    1.2710 72.2 296 
 RUS  HZ EP       1152 52.40                             143   -0.4610  103 178 
 RUS  HE ES       1153 11.10                             143   -0.3910  103 178 
 RUS  HZ I        1153 13.28        10.4 0.28            146            103 178 
 PTB  HZ EP       1152 55.94                             132   -0.23 9  151 258 
 PTB  HN ES       1153 16.96                             132   -0.42 9  151 258 
 PTB  HZ I        1153 18.86         9.0 0.42            133            151 258 
 SPBC HZ EP       1152 58.00                             129    0.22 9  167 219 
 SPBC HN ES       1153 19.36                             129   -0.89 9  167 219 
 SPBC HZ I        1153 21.65        11.3 0.10            130            167 219 
 SML  HZ EP       1153  5.20                             118   -0.22 8  242 335 
 SML  HN ES       1153 32.42                             118   -1.43 8  242 335 
 SML  HZ I        1153 40.39        15.7 0.10            118            242 335 
 GUY2CHZ EP       1153 14.21                             112    1.25 7  305 235 
 GUY2CHN ES       1153 47.33                             112    0.06 7  305 235 
                                                                                
