 2012  214 1303 23.8 L   6.774 -73.157146.4  RSN  7 0.4 2.0LRSN                1
 GAP=136        0.83       5.1     4.6  7.4 -0.1467E+01  0.9315E+01  0.4682E+01E
 ACTION:UP  12-03-07 16:30 OP:epov STATUS:               ID:20120214130323 L   I
 2012-02-14-1300-00M.COL___187                                                 6
 STAT SP IPHASW D HRMM SECON CODA AMPLIT PERI AZIMU VELO AIN AR TRES W  DIS CAZ7
 BAR2 SZ EP   1   13 3 43.37                             172   -0.07 7 20.3 188 
 BAR2 SZ ES   1   13 3 58.67                             172   -0.09 7 20.3 188 
 BAR2 SZ I        13 4  1.34        26.7 0.20                          20.3 188 
 BRR  HZ EP   1   13 3 45.32                             153    0.30 7 71.5 301 
 BRR  HE ES   1   13 4  2.40                             153    0.82 7 71.5 301 
 BRR  HZ I        13 4  6.05        19.2 0.25                          71.5 301 
 PAM  SZ EP   1   13 3 46.28                             150    0.03 7 80.4  39 
 PAM  SE ES   1   13 4  3.23                             150   -0.55 7 80.4  39 
 RUS  HZ EP   1   13 3 47.47                             145    0.07 7 97.8 175 
 RUS  HE ES   1   13 4  6.06                             145    0.24 7 97.8 175 
 RUS  HZ I        13 4  7.44        12.0 0.17                          97.8 175 
 PTB  HZ EP   1   13 3 50.01                             133   -0.63 7  146 260 
 PTB  HN ES   1   13 4 11.01                             133   -0.58 7  146 260 
 ZAR  HE ES   1   13 4 21.68                             123    0.08 6  204 293 
 NOR  SZ EP   1   13 3 59.90                             119    0.64 6  232 235 
 NOR  SN ES   1   13 4 26.68                             119   -0.25 6  232 235 
                                                                                
