 2014  514 1102  6.1 L   6.818 -73.123147.9  RSN  5 0.2 1.8LRSN                1
 GAP=203        0.52       3.5     4.1  8.2  0.8139E+01 -0.6168E+01 -0.1436E+02E
 Epicentro: LOS SANTOS - SANTANDER                                             3
 ACTION:UPD 15-03-16 16:57 OP:nd   STATUS:               ID:20140514110206 L   I
 OLDACT:REG 14-05-14 21:52 OP:carl STATUS:               ID:20140514105811     3
 2014-05-14-1058-11M.COL___260                                                 6
 STAT SP IPHASW D HRMM SECON CODA AMPLIT PERI AZIMU VELO AIN AR TRES W  DIS CAZ7
 RUS  HZ EP       11 2 30.20                             144   -0.0010  102 178 
 RUS  HN ES       11 2 49.07                             144    0.0810  102 178 
 RUS  HZ I        11 2 51.95         6.0 0.38            150            102 178 
 PTB  HZ EP       11 2 33.48                             132   -0.03 9  151 258 
 PTB  HN ES       11 2 54.61                             132   -0.27 9  151 258 
 PTB  HZ I        11 2 56.73         7.5 0.14            135            151 258 
 ZAR  HN ES       11 3  4.77                             123    0.37 9  206 291 
 ZAR  HZ I        11 3 12.96         5.4 0.36            126            206 291 
 SML  HE ES       11 3 11.23                             118   -0.13 8  243 335 
 SML  HZ I        11 3 14.66        10.4 0.32            121            243 335 
 GUY2CHZ EP   4   11 2 48.75                             112   -1.43 0  304 235 
 GUY2CHN ES   4   11 3 26.11                             112    1.55 0  304 235 
 GUY2CHZ I        11 3 31.76         3.0 0.30                           304 235 
                                                                                
