 2016 1114 1619 22.1 L   6.750 -73.149147.5  RSN  4 0.1 1.4LRSN                1
 GAP=155        0.39       4.0     2.4  3.1 -0.4753E+01  0.5934E+00  0.1189E+01E
 Epicentro: LOS SANTOS - SANTANDER                                             3
 ACTION:UPD 17-10-26 21:08 OP:lp   STATUS:               ID:20161114161922 L   I
 OLDACT:UP  16-11-14 23:09 OP:edw  STATUS:               ID:20161114161732     3
 OLDACT:REG 16-11-14 19:24 OP:edw  STATUS:               ID:20161114161732     3
 2016-11-14-1618-00M.COL___338                                                 6
 STAT SP IPHASW D HRMM SECON CODA AMPLIT PERI AZIMU VELO AIN AR TRES W  DIS CAZ7
 BAR2 EZ EP       1619 41.89                             173    0.0610 17.9 192 
 BAR2 EZ ES       1619 57.28                             173    0.0510 17.9 192 
 BAR2 EZ I        1619 58.42        11.8 0.14            175           17.9 192 
 BRR  HZ IP     C 1619 43.68                             152    0.1110 73.7 302 
 BRR  HN ES       1620  0.46                             152    0.1410 73.7 302 
 BRR  HZ I        1620  1.06         7.3 0.33            153           73.7 302 
 PAM  EZ EP       1619 44.70                             150   -0.0610 81.9  37 
 PAM  EN ES       1620  2.33                             150   -0.1210 81.9  37 
 PAM  EZ I        1620  5.06         1.6 0.56            149           81.9  37 
 PTB  HZ EP       1619 49.10                             133    0.02 9  146 261 
 PTB  HN ES       1620  9.91                             133   -0.22 9  146 261 
                                                                                
