 2017  114 1407 53.5 L   6.785 -73.102142.8  RSN  4 0.2 1.1LRSN                1
 GAP=143        0.51       3.7     6.1  5.1  0.1128E+02 -0.1457E+02 -0.6863E+01E
 Epicentro: LOS SANTOS - SANTANDER                                             3
 ACTION:UPD 17-05-22 15:59 OP:jn   STATUS:               ID:20170114140753 L   I
 OLDACT:DUP 17-01-14 21:39 OP:e    STATUS:               ID:20170114135746d    3
 OLDACT:UP  17-01-14 21:39 OP:e    STATUS:               ID:20170114135745     3
 OLDACT:REG 17-01-14 19:47 OP:and  STATUS:               ID:20170114135745     3
 2017-01-14-1358-00M.COL___332                                                 6
 STAT SP IPHASW D HRMM SECON CODA AMPLIT PERI AZIMU VELO AIN AR TRES W  DIS CAZ7
 BAR2 EZ EP       14 8 12.39                             170   -0.4010 23.0 203 
 BAR2 EZ ES       14 8 27.83                             170    0.0210 23.0 203 
 BAR2 EZ I        14 8 29.17         4.1 0.28            170           23.0 203 
 PAM  EZ IP     D 14 8 15.42                             151    0.1010 75.8  36 
 BRR  HZ EP       14 8 14.81                             150    0.1710 76.2 298 
 BRR  HN ES       14 8 31.09                             150   -0.0310 76.2 298 
 RUS  HZ EP       14 8 16.89                             144    0.0510 98.7 179 
 RUS  HN ES       14 8 35.12                             144    0.0910 98.7 179 
 RUS  HZ I        14 8 37.17         1.4 0.34            144           98.7 179 
                                                                                
