 2016 1114 1659 51.6 L   6.829 -73.192146.0  RSN  7 0.4 1.9LRSN                1
 GAP=134        0.87       4.3     4.8  6.3 -0.5330E+01  0.9344E+01  0.1572E+01E
 Epicentro: ZAPATOCA - SANTANDER                                               3
 ACTION:UPD 17-10-26 21:08 OP:lp   STATUS:               ID:20161114165951 L   I
 OLDACT:UP  16-11-14 23:20 OP:edw  STATUS:               ID:20161114165745     3
 OLDACT:REG 16-11-14 19:26 OP:edw  STATUS:               ID:20161114165745     3
 2016-11-14-1658-00M.COL___338                                                 6
 STAT SP IPHASW D HRMM SECON CODA AMPLIT PERI AZIMU VELO AIN AR TRES W  DIS CAZ7
 BAR2 EZ EP       17 0 11.32                             169    0.0410 26.2 178 
 BAR2 EZ ES       17 0 26.45                             169   -0.2210 26.2 178 
 BAR2 EZ I        17 0 27.59        23.5 0.72            171           26.2 178 
 BRR  HZ IP     C 17 0 13.01                             155    0.6010 65.1 298 
 BRR  HN ES   4   17 0 30.30                             155    1.64 0 65.1 298 
 BRR  HZ I        17 0 34.31        13.0 0.12            152           65.1 298 
 PAM  EZ EP       17 0 14.16                             150    0.2910 78.4  44 
 PAM  EN ES       17 0 31.02                             150   -0.2410 78.4  44 
 PAM  EZ I        17 0 33.42         8.6 0.31            153           78.4  44 
 PTB  HZ EP       17 0 17.94                             133   -0.22 9  143 257 
 PTB  HN ES       17 0 38.80                             133   -0.10 9  143 257 
 PTB  HZ I        17 0 40.92        11.1 0.42            133            143 257 
 ZAR  HZ EP   2   17 0 23.85                             123    0.44 4  198 292 
 ZAR  HE ES   2   17 0 48.72                             123    0.47 4  198 292 
 ZAR  HZ I        17 0 54.39         9.8 0.32            124            198 292 
 CHI  HZ EP       17 0 29.68                             117    0.20 8  250 194 
 CHI  HN ES       17 0 58.88                             117   -0.17 8  250 194 
 CHI  HZ I        17 1  0.92         5.7 0.34            120            250 194 
 SJC  HZ EP       17 0 45.26                             106   -1.22 6  404 327 
 SJC  HN ES   4   17 1 26.28                             106   -3.04 0  404 327 
                                                                                
