 2017  414 1359 35.5 L   6.772 -73.137139.0  RSN 12 0.4 2.1LRSN                1
 GAP=114        0.95       3.3     3.0  5.2  0.1152E+01  0.4443E+01  0.2771E+01E
 Epicentro: LOS SANTOS - SANTANDER                                             3
 ACTION:UPD 17-05-30 21:12 OP:jn   STATUS:               ID:20170414135935 L   I
 OLDACT:REG 17-04-14 19:41 OP:cara STATUS:               ID:20170414135740     3
 2017-04-14-1358-00M.COL___365                                                 6
 STAT SP IPHASW D HRMM SECON CODA AMPLIT PERI AZIMU VELO AIN AR TRES W  DIS CAZ7
 BAR2 EZ IP       1359 54.42                             171    0.1710 20.5 194 
 BAR2 EZ ES       14 0  8.45                             171   -0.4410 20.5 194 
 BAR2 EZ I        14 0 10.86        39.4 0.18            168           20.5 194 
 BRR  HZ EP       1359 56.27                             150    0.2210 73.5 300 
 BRR  HN ES       14 0 12.57                             150    0.4810 73.5 300 
 BRR  HZ I        14 0 16.59        18.8 0.12            150           73.5 300 
 PAM  EZ EP       1359 57.30                             149    0.1910 79.2  38 
 PAM  EN ES       14 0 14.07                             149    0.1010 79.2  38 
 PAM  EZ I        14 0 15.02        13.6 0.18            155           79.2  38 
 RUS  HZ EP       1359 58.45                             143    0.1010 97.4 176 
 RUS  HN ES       14 0 16.45                             143    0.2710 97.4 176 
 RUS  HZ I        14 0 18.31         8.0 0.52            144           97.4 176 
 PTB  HZ IP       14 0  1.36                             130   -0.59 9  148 260 
 PTB  HN ES       14 0 22.17                             130   -0.42 9  148 260 
 PTB  HZ I        14 0 25.50        17.6 0.38            131            148 260 
 SPBC HZ EP       14 0  3.52                             128    0.21 9  161 220 
 SPBC HN ES       14 0 25.26                             128    0.26 9  161 220 
 SPBC HZ I        14 0 30.27        24.5 0.38            128            161 220 
 YPLC HZ IP       14 0  4.88                             126    0.39 9  174 151 
 YPLC HN ES       14 0 26.21                             126   -0.89 9  174 151 
 YPLC HZ I        14 0 29.65        10.2 0.28            128            174 151 
 ZAR  HZ EP       14 0  7.18                             121   -0.54 8  206 293 
 ZAR  HN ES       14 0 32.48                             121   -0.38 8  206 293 
 ZAR  HZ I        14 0 38.63        15.9 0.40            122            206 293 
 NOR  HZ IP       14 0 10.87                             117    0.14 8  234 235 
 NOR  HN ES       14 0 38.58                             117    0.37 8  234 235 
 NOR  HZ I        14 0 43.78        14.1 0.18            118            234 235 
 ROSC BZ EP   4   14 0 14.58                             115    1.57 0  251 212 
 ROSC BN ES   4   14 0 40.51                             115   -1.77 0  251 212 
 ROSC BZ I        14 0 47.60        10.0 0.40            117            251 212 
 HEL  HZ EP       14 0 15.45                             113    0.06 8  272 256 
 HEL  HN ES       14 0 46.63                             113    0.13 8  272 256 
 HEL  HZ I        14 0 53.41         6.7 0.40            115            272 256 
 URE  HZ EP   4   14 0 15.11                             112   -1.36 0  286 292 
 URE  HN ES   4   14 0 45.48                             112   -2.95 0  286 292 
 URE  HZ I        14 0 47.92         9.7 0.10            114            286 292 
                                                                                
