 2011 1114 1330 40.0 L   6.791 -73.142140.0  RSN 15 0.4 3.2LRSN                1
 GAP=114        0.74       2.5     3.7  4.9  0.8152E+00  0.6989E+01  0.4263E+01E
 Epicentro: LOS SANTOS - SANTANDER                                             3
 ACTION:UPD 12-07-13 16:10 OP:ep   STATUS:               ID:20111114133040 L   I
 2011-11-14-1329-40S.COL___179                                                 6
 STAT SP IPHASW D HRMM SECON CODA AMPLIT PERI AZIMU VELO AIN AR TRES W  DIS CAZ7
 BAR2 SZ IP       1330 58.95                             170    0.0810 22.4 191 
 BAR2 SZ ES   1   1331 13.52                             170   -0.11 7 22.4 191 
 BAR2 SZ I        1331 14.88       242.0 0.28                          22.4 191 
 BRR  HZ IP     C 1331  0.64                             151    0.1110 72.0 299 
 BRR  HZ I        1331  0.91       326.0 0.11                          72.0 299 
 BRR  HN ES   1   1331 17.13                             151    0.55 7 72.0 299 
 PAM  SZ EP   1   1331  1.56                             150   -0.03 7 77.9  39 
 PAM  SN ES       1331 18.52                             150    0.0510 77.9  39 
 PAM  SZ I        1331 20.59       235.8 0.41                          77.9  39 
 RUS  HZ EP   1   1331  2.93                             143   -0.14 7 99.6 176 
 RUS  HN ES   1   1331 20.95                             143   -0.15 7 99.6 176 
 OCA  SZ EP   1   1331  7.04                             128   -0.88 7  161 353 
 OCA  SZ ES   1   1331 30.14                             128    0.41 7  161 353 
 OCA  SZ I        1331 33.42       188.7 0.22                           161 353 
 YOP  SZ EP   1   1331  9.61                             125    0.13 7  178 153 
 YOP  SN ES   1   1331 32.17                             125   -0.35 7  178 153 
 ZAR  HZ EP   1   1331 11.69                             121   -0.41 6  205 292 
 ZAR  HN ES   1   1331 36.59                             121   -0.59 6  205 292 
 ZAR  HZ I        1331 43.03       187.6 0.38                           205 292 
 NOR  SZ EP   1   1331 14.95                             117   -0.38 6  234 235 
 NOR  SN ES   1   1331 42.36                             117   -0.55 6  234 235 
 CHI  HZ EP   1   1331 17.22                             116   -0.03 6  248 195 
 CHI  HN ES   1   1331 46.13                             116   -0.20 6  248 195 
 CHI  HZ I        1331 53.04        47.6 0.36                           248 195 
 ROSC BZ EP   1   1331 18.58                             115    0.89 6  252 211 
 HEL  HZ EP   1   1331 20.27                             114    0.38 6  272 256 
 HEL  HZ I        1331 57.15        55.1 0.52                           272 256 
 VIL  SZ EP   1   1331 22.72                             111   -0.29 5  302 192 
 VIL  SN ES   1   1331 57.08                             111    0.48 5  302 192 
 VIL  SZ I        1332  1.74        39.9 0.67                           302 192 
 RREF HZ EP   1   1331 26.67                             110    0.86 5  321 230 
 TOL  SZ EP   1   1331 28.65                             108    0.72 5  343 225 
 PRA  HZ EP   1   1331 33.14                             106   -0.06 4  391 210 
 PRA  HN ES   1   1332 14.59                             106   -0.14 4  391 210 
 PRA  HZ I        1332 22.75       199.6 0.23                           391 210 
                                                                                
