 2010  914 1615 59.3 L   6.844 -72.953149.1  RSN  4 0.2 1.9LRSN                1
 GAP=259        0.40       5.9     8.9  5.7  0.2941E+02 -0.3454E+01 -0.5821E+00E
 Epicentro: CEPITA - SANTANDER                                                 3
 ACTION:UP  11-02-18 11:02 OP:tino STATUS:               ID:20100914161559 L   I
 2010-09-14-1613-15S.COL___113                                                 6
 STAT SP IPHASW D HRMM SECON CODA AMPLIT PERI AZIMU VELO SNR AR TRES W  DIS CAZ7
 BAR2 SZ EP   1   1616 19.91                             166     0.2 7   38 222 
 BAR2 SZ ES   2   1616 35.83                             166     0.2 5   38 222 
 BAR2 SZ I        1616 36.66        12.8 0.35                            38 222 
 BRR  HZ EP   1   1616 21.84                             148     0.0 7   89 289 
 BRR  HZ I        1616 23.66        15.8 0.58                            89 289 
 BRR  HN ES   2   1616 39.24                             148    -0.2 5   89 289 
 RUS  HZ EP   1   1616 23.77                             143     0.0 7  106 188 
 RUS  HE ES   2   1616 42.56                             143    -0.3 5  106 188 
 RREF HZ EP   2   1616 47.76                             110    -0.1 3  341 231 
 RREF HE ES   3   1617 25.90                             110     0.3 2  341 231 
 RREF HZ I        1617 32.35         2.9 0.26                           341 231 
                                                                                
