 2011  414 1057 21.4 L   6.771 -73.073140.0  RSN  7 0.2 1.9LRSN                1
 GAP=197        0.44       4.4     5.6  6.0 -0.1477E+02 -0.1065E+02  0.9013E+01E
 Epicentro: LOS SANTOS - SANTANDER                                             3
 ACTION:UP  11-06-22 15:30 OP:REBC STATUS:               ID:20110414105721 L   I
 2011-04-14-1040-00M.COL___141                                                 6
 STAT SP IPHASW D HRMM SECON CODA AMPLIT PERI AZIMU VELO SNR AR TRES W  DIS CAZ7
 BAR2 SZ EP   1   1057 40.51                             170     0.2 7   23 211 
 BAR2 SZ ES   2   1057 54.79                             170    -0.3 5   23 211 
 BAR2 SZ I        1057 56.68        23.1 0.26                            23 211 
 BTL  SZ EP       1057 40.51                             169     0.110   27 307 
 GIR2 SZ EP   1   1057 40.60                             165     0.1 7   37 339 
 BRR  HZ EP   1   1057 42.10                             149    -0.4 7   80 298 
 BRR  HN ES   1   1057 59.09                             149     0.2 7   80 298 
 BRR  HZ I        1058  0.43        13.7 0.18                            80 298 
 GRA  SZ EP   1   1057 46.23                             136     0.0 7  127  14 
 GRA  SZ ES   1   1058  5.48                             136    -0.1 7  127  14 
 GRA  SZ I        1058  6.93         8.2 0.47                           127  14 
 NOR  SE ES   2   1058 25.15                             117    -0.2 4  239 236 
 PRA  HZ EP   2   1058 14.93                             105     0.1 3  393 211 
                                                                                
