 2010  514 1455 28.4 L   6.779 -73.029151.5  RSN 10 0.4 2.2LRSN                1
 GAP=170        0.75       3.9     8.6  7.1 -0.1458E+02  0.9027E+01  0.3280E+01E
 Epicentro: CEPITA - SANTANDER                                                 3
 ACTION:UP  10-08-24 10:05 OP:vdl  STATUS:               ID:20100514145528 L   I
 2010-05-14-1452-36S.COL___105                                                 6
 STAT SP IPHASW D HRMM SECON CODA AMPLIT PERI AZIMU VELO AIN AR TRES W  DIS CAZ7
 BAR2 SZ IP     C 1455 48.46                             170    -0.410   27 219 
 BAR2 SZ ES   2   1456  3.86                             170    -0.9 5   27 219 
 BRR  HZ IP     D 1455 51.20                             150     0.310   84 296 
 BRR  HZ I        1455 51.40        51.4 0.16                            84 296 
 BRR  HN ES   2   1456  8.64                             150     0.1 5   84 296 
 RUS  HZ EP   1   1455 52.39                             146    -0.2 7   98 183 
 RUS  HZ I        1455 54.05        10.2 0.31                            98 183 
 RUS  HN ES   2   1456 12.24                             146     0.8 5   98 183 
 BRI  SZ EP   1   1455 53.17                             143     0.4 7  107  14 
 BRI  SZ ES   2   1456 11.40                             143    -0.3 5  107  14 
 GUE  SZ EP   1   1455 53.82                             141     0.1 7  117   6 
 GUE  SZ ES   2   1456 13.66                             141     0.2 5  117   6 
 GRA  SZ EP   1   1455 54.22                             139     0.1 7  125  12 
 GRA  SZ ES   2   1456 14.14                             139     0.0 5  125  12 
 OCA  SZ EP   1   1455 57.42                             130    -0.2 7  165 349 
 CHI  HZ EP   1   1456  6.46                             118    -0.2 6  250 198 
 CHI  HE ES   2   1456 37.61                             118     1.2 4  250 198 
 CHI  HZ I        1456 44.62         5.4 0.35                           250 198 
 HEL  HZ EP   1   1456 10.03                             115    -0.2 6  284 257 
 HEL  HZ I        1456 47.72         9.5 0.20                           284 257 
 PRA  HZ EP   1   1456 22.34                             107    -0.3 4  397 211 
 PRA  HE ES   2   1457  4.92                             107    -0.1 3  397 211 
 PRA  HZ I        1457 10.34         6.4 0.70                           397 211 
                                                                                
