 2017  914 1041 22.3 L   6.775 -73.131146.0  RSN  5 0.3 1.6LRSN                1
 GAP=158        0.87       5.2     4.8  7.8 -0.6174E+01  0.7085E+01 -0.1427E+01E
 Epicentro: LOS SANTOS - SANTANDER                                             3
 ACTION:UPD 17-10-05 19:12 OP:rebc STATUS:               ID:20170914104122 L   I
 OLDACT:DUP 17-09-14 21:31 OP:dnl  STATUS:               ID:20170914103740d    3
 OLDACT:UP  17-09-14 21:29 OP:dnl  STATUS:               ID:20170914103739     3
 OLDACT:UP  17-09-14 21:28 OP:dnl  STATUS:               ID:20170914103739     3
 OLDACT:UP  17-09-14 21:28 OP:dnl  STATUS:               ID:20170914103739     3
 OLDACT:REG 17-09-14 20:29 OP:dnl  STATUS:               ID:20170914103739     3
 2017-09-14-1038-00M.COL___428                                                 6
 STAT SP IPHASW D HRMM SECON CODA AMPLIT PERI AZIMU VELO AIN AR TRES W  DIS CAZ7
 BAR2 EZ EP       1041 41.92                             171    0.0110 21.0 196 
 BAR2 EZ ES       1041 57.13                             171   -0.0810 21.0 196 
 BAR2 EZ I        1041 57.98         9.6 0.28            171           21.0 196 
 BRR  HZ IP     C 1041 43.73                             152    0.1010 73.9 300 
 BRR  HN ES       1042  0.86                             152    0.6010 73.9 300 
 BRR  HZ I        1042  5.77         6.8 0.20            149           73.9 300 
 PAM  EZ EP       1041 44.89                             150    0.2810 78.6  37 
 PAM  EN ES       1042  1.58                             150   -0.4310 78.6  37 
 PAM  EZ I        1042  4.38         3.5 0.46            153           78.6  37 
 SPBC HN ES       1042 12.74                             129   -0.13 9  162 220 
 SPBC HZ I        1042 15.76         5.2 0.28            131            162 220 
 ZAR  HE ES       1042 20.02                             122   -0.51 8  207 293 
 ZAR  HZ I        1042 25.44         3.9 0.48            122            207 293 
                                                                                
