 2013 1214 1411 50.0 L   6.796 -73.171141.7  RSN  6 0.5 1.9LRSN                1
 GAP=207        1.23       6.4     8.6  9.6 -0.7749E+01  0.2325E+02  0.3706E+00E
 Epicentro: LOS SANTOS - SANTANDER                                             3
 ACTION:UPD 14-01-13 10:18 OP:ep   STATUS:               ID:20131214141150 L   I
 OLDACT:UP  13-12-14 15:48 OP:cam  STATUS:               ID:20131214141000     3
 OLDACT:REG 13-12-14 15:02 OP:cam  STATUS:               ID:20131214141000     3
 2013-12-14-1410-00M.COL___285                                                 6
 STAT SP IPHASW D HRMM SECON CODA AMPLIT PERI AZIMU VELO AIN AR TRES W  DIS CAZ7
 BAR2 SZ EP       1412  8.98                             171   -0.1810 22.6 183 
 BAR2 SZ ES       1412 23.77                             171   -0.3110 22.6 183 
 BAR2 SZ I        1412 25.19        24.8 0.18            168           22.6 183 
 BRR  HZ EP       1412 10.85                             153    0.2410 68.9 300 
 BRR  HN ES       1412 27.60                             153    0.9310 68.9 300 
 PTB  HZ EP   1   1412 16.26                             132   -0.15 7  145 259 
 PTB  HN ES       1412 36.11                             132   -0.88 9  145 259 
 PTB  HZ I        1412 42.40         5.3 0.20            130            145 259 
 ZAR  HN ES   3   1412 47.73                             122    0.86 2  202 293 
 NOR  HZ EP       1412 25.74                             118    0.48 8  232 234 
 NOR  HN ES       1412 52.94                             118    0.21 8  232 234 
 NOR  HZ I        1412 55.90         6.1 0.26            118            232 234 
 SML  HE ES       1412 54.15                             117   -0.52 8  243 336 
                                                                                
