 2013  314 1435 24.5 L   6.785 -73.145142.3  RSN 12 0.4 2.4LRSN                1
 GAP=137        0.93       3.3     4.3  5.6 -0.1322E+01  0.6106E+01  0.9365E+00E
 Epicentro: LOS SANTOS - SANTANDER                                             3
 ACTION:UPD 13-04-09 14:02 OP:ep   STATUS:               ID:20130314143524 L   I
 2013-03-14-1430-00M.COL___243                                                 6
 STAT SP IPHASW D HRMM SECON CODA AMPLIT PERI AZIMU VELO AIN AR TRES W  DIS CAZ7
 BAR2 SZ EP       1435 43.98                             171    0.2610 21.7 191 
 BAR2 SZ ES   1   1435 58.43                             171   -0.25 7 21.7 191 
 BAR2 SZ I        1436  0.12       120.1 0.31            169           21.7 191 
 BRR  HZ IP     C 1435 45.87                             152    0.5110 72.1 300 
 BRR  HN ES       1436  2.37                             152    0.7610 72.1 300 
 BRR  HN I        1436  7.01        91.3 0.23            148           72.1 300 
 PAM  SZ EP     C 1435 46.82                             150    0.3610 78.7  39 
 PAM  SZ I        1435 47.22        44.8 0.25            154           78.7  39 
 PAM  SN ES       1436  3.47                             150   -0.1010 78.7  39 
 RUS  HZ EP       1435 47.96                             144    0.1310 98.9 176 
 RUS  HN ES       1436  5.46                             144   -0.5310 98.9 176 
 RUS  HN I        1436  7.43        31.4 0.34            145           98.9 176 
 PTB  HZ EP   1   1435 50.56                             131   -0.64 7  147 259 
 PTB  HE ES   1   1436 11.34                             131   -0.66 7  147 259 
 PTB  HZ I        1436 14.90        29.5 0.24            130            147 259 
 OCA  HZ EP   1   1435 52.46                             128   -0.28 7  162 353 
 OCA  HE ES   1   1436 13.97                             128   -0.77 7  162 353 
 ZAR  HZ EP   1   1435 56.82                             121   -0.01 6  205 293 
 ZAR  HN ES   1   1436 21.83                             121   -0.19 6  205 293 
 ZAR  HZ I        1436 30.56        20.3 0.35            121            205 293 
 NOR  HZ EP   1   1436  0.33                             118    0.36 6  234 235 
 NOR  HN ES   1   1436 27.81                             118    0.21 6  234 235 
 NOR  HZ I        1436 29.86        12.6 0.18            118            234 235 
 SML  HZ EP   1   1436  0.46                             117   -0.68 6  245 335 
 CHI  HZ EP   1   1436  1.89                             117    0.02 6  247 195 
 PRA  HZ EP   1   1436 18.00                             106    0.23 4  391 210 
 PRA  HN ES   1   1436 59.32                             106    0.03 4  391 210 
 PRA  HZ I        1437  6.24         5.2 0.50            107            391 210 
 SJC  HN EP   1   1436 19.79                             105   -0.37 4  411 327 
                                                                                
