 2017  714 1326 60.0 L   6.326 -73.604113.7  RSN  8 0.4 1.5LRSN                1
 GAP= 85        1.03       3.8     4.0  7.0 -0.3190E+01  0.7910E+01 -0.1241E+01E
 Epicentro: SANTA HELENA DEL OPON - SANTANDER                                  3
 ACTION:UPD 17-08-30 15:32 OP:rebc STATUS:               ID:20170714132660 L   I
 OLDACT:REG 17-07-14 19:57 OP:lv   STATUS:               ID:20170714131749     3
 2017-07-14-1318-00M.COL___383                                                 6
 STAT SP IPHASW D HRMM SECON CODA AMPLIT PERI AZIMU VELO AIN AR TRES W  DIS CAZ7
 BAR2 EZ EP       1327 17.13                             152    0.0310 55.1  58 
 BAR2 EZ I        1327 31.34         8.4 0.08            149           55.1  58 
 RUS  HZ EP       1327 18.42                             144   -0.3010 75.0 130 
 RUS  HN ES       1327 33.21                             144   -0.1410 75.0 130 
 RUS  HZ I        1327 34.43         4.5 0.15            144           75.0 130 
 BRR  HZ EP       1327 18.78                             139   -0.1710 87.2 352 
 BRR  HN ES       1327 34.02                             139    0.2710 87.2 352 
 SPBC HZ EP       1327 19.37                             138    0.0110 90.8 215 
 SPBC HN ES       1327 34.54                             138    0.0610 90.8 215 
 SPBC HZ I        1327 38.69        12.0 0.15            141           90.8 215 
 PTB  HZ EP   9   1327 18.90                             136   -0.89 0 97.2 284 
 PTB  HN ES       1327 33.73                                   -0.6210 97.2 284 
 PTB  HZ I        1327 36.48         8.5 0.09            137           97.2 284 
 NOR  HZ EP       1327 25.77                             120   -0.45 9  164 239 
 NOR  HN ES       1327 47.24                             120    0.55 9  164 239 
 NOR  HZ I        1327 48.96         6.3 0.22            122            164 239 
 ZAR  HZ EP     D 1327 29.23                             116    0.30 9  189 313 
 ZAR  HE ES   2   1327 50.47                             116   -1.05 4  189 313 
 ZAR  HZ I        1327 56.28         3.4 0.17            116            189 313 
 GUY2CHZ EP       1327 34.88                             111    0.82 8  230 238 
 GUY2CHN ES       1328  0.03                             111   -0.62 8  230 238 
 GUY2CHZ I        1328  9.90         2.6 0.33                           230 238 
                                                                                
