 2015 1014 1316 48.3 L   6.806 -73.100151.3  RSN 11 0.4 2.2LRSN                1
 GAP=142        0.86       2.5     3.6  4.7 -0.7070E+00  0.6483E+01  0.1760E+01E
 Epicentro: LOS SANTOS - SANTANDER                                             3
 ACTION:UPD 15-12-22 20:40 OP:cam  STATUS:               ID:20151014131648 L   I
 OLDACT:REG 15-10-14 20:30 OP:ak   STATUS:               ID:20151014130750     3
 2015-10-14-1307-50M.COL___334                                                 6
 STAT SP IPHASW D HRMM SECON CODA AMPLIT PERI AZIMU VELO AIN AR TRES W  DIS CAZ7
 BAR2 EZ EP       1317  8.30                             170   -0.3110 25.4 201 
 BAR2 EZ ES       1317 24.23                             170   -0.2410 25.4 201 
 BAR2 EZ I        1317 26.24        23.4 0.24            169           25.4 201 
 PAM  EZ EP       1317 11.33                             153    0.4610 73.7  37 
 PAM  EN ES       1317 28.55                             153    0.0510 73.7  37 
 PAM  EZ I        1317 30.50        21.8 0.56            155           73.7  37 
 BRR  HZ EP       1317 10.26                             152    0.0010 75.4 296 
 BRR  HE ES       1317 27.83                             152    0.4310 75.4 296 
 RUS  HZ EP       1317 12.24                             145   -0.3610  101 179 
 RUS  HN ES       1317 31.55                             145   -0.0310  101 179 
 RUS  HN IS       1317 31.55                             145            101 179 
 ZAR  HZ EP       1317 21.07                             123   -0.47 8  209 291 
 ZAR  HN ES       1317 47.27                             123   -0.22 8  209 291 
 ZAR  HZ I        1317 52.02        19.5 0.26            123            209 291 
 NOR  HZ EP       1317 24.68                             119   -0.13 8  239 235 
 NOR  HN ES       1317 52.63                             119   -0.68 8  239 235 
 NOR  HZ I        1317 55.95        10.2 0.18            119            239 235 
 SML  HZ EP       1317 24.83                             118   -0.55 8  245 334 
 SML  HN ES       1317 54.80                             118    0.48 8  245 334 
 SML  HZ I        1317 59.95        28.6 0.10            119            245 334 
 CHI  HZ EP       1317 26.54                             118    0.04 8  251 196 
 CHI  HN ES       1317 56.61                             118    0.29 8  251 196 
 CHI  HZ I        1318  3.38         6.9 0.56            118            251 196 
 HEL  HN ES       1318  1.62                             115    0.26 7  277 256 
 GUY2CHZ EP       1317 33.12                             113    0.47 7  306 235 
 GUY2CHN ES       1318  7.07                             113   -0.20 7  306 235 
 GUY2CHZ I        1318 13.23         8.2 0.34                           306 235 
 ORTC HZ EP       1317 43.13                             107    0.33 6  399 217 
 ORTC HN ISg      1318 26.07                             107    0.73 6  399 217 
 ORTC HN ES       1318 26.07                             107    0.73 6  399 217 
 ORTC HZ I        1318 31.89         4.2 0.66            107            399 217 
                                                                                
