 2015  414 1414 38.9 L   6.048 -73.712114.0  RSN 10 0.4 1.7LRSN                1
 GAP=112        0.85       3.3     3.5  6.1  0.4316E+00  0.7741E+01  0.2252E+01E
 Epicentro: VELEZ - SANTANDER                                                  3
 ACTION:UPD 15-06-03 16:54 OP:cam  STATUS:               ID:20150414141438 L   I
 OLDACT:REG 15-04-14 20:22 OP:spq  STATUS:               ID:20150414140748     3
 2015-04-14-1407-48M.COL___271                                                 6
 STAT SP IPHASW D HRMM SECON CODA AMPLIT PERI AZIMU VELO AIN AR TRES W  DIS CAZ7
 SPBC HZ EP   1   1414 56.21                             151    0.17 7 59.2 222 
 SPBC HE ES   1   1415  9.09                             151   -0.35 7 59.2 222 
 SPBC HZ I        1415 11.47        25.8 0.40            153           59.2 222 
 RUS  HZ EP       1414 57.11                             146   -0.3110 71.7 104 
 RUS  HN ES       1415 12.10                             146    0.2110 71.7 104 
 RUS  HZ I        1415 12.95         5.0 0.24            150           71.7 104 
 BAR2 EZ EP       1414 58.01                             141    0.0510 84.0  44 
 BAR2 EZ ES   1   1415 12.97                             141    0.13 7 84.0  44 
 BAR2 EZ I        1415 13.57        35.0 0.12            143           84.0  44 
 PTB  HZ EP       1414 57.99                             136   -0.8510 98.7 303 
 PTB  HN ES       1415 14.77                             136    0.3610 98.7 303 
 PTB  HZ I        1415 16.06         7.7 0.10            137           98.7 303 
 BRR  HZ EP   1   1415  0.31                             131   -0.14 7  117 360 
 BRR  HN ES   1   1415 17.49                             131    0.21 7  117 360 
 BRR  HZ I        1415 21.47         6.4 0.52            132            117 360 
 NOR  HZ EP       1415  2.54                             126   -0.07 9  139 247 
 ZAR  HE ES   1   1415 33.15                             115   -0.15 6  204 322 
 ZAR  HZ I        1415 35.09         5.7 0.26            116            204 322 
 GUY2CHZ EP       1415 10.62                             115    0.51 9  205 244 
 GUY2CHE ES   4   1415 36.24                             115    1.76 0  205 244 
 GUY2CHZ I        1415 39.56         3.7 0.48                           205 244 
 ORTC HZ EP       1415 19.87                             106    0.36 7  291 216 
 SML  HN ES   1   1415 54.77                             105    0.36 5  307 353 
                                                                                
