 2017  814 1347 13.3 L   6.777 -73.139142.1  RSN  9 0.2 2.2LRSN                1
 GAP=138        0.84       3.2     3.7  5.1 -0.2116E+01  0.5457E+01  0.2972E+00E
 Epicentro: LOS SANTOS - SANTANDER                                             3
 ACTION:UPD 17-09-04 20:20 OP:rebc STATUS:               ID:20170814134713 L   I
 OLDACT:DUP 17-08-14 23:42 OP:lv   STATUS:               ID:20170814133744d    3
 2017-08-14-1338-00M.COL___412                                                 6
 STAT SP IPHASW D HRMM SECON CODA AMPLIT PERI AZIMU VELO AIN AR TRES W  DIS CAZ7
 BAR2 EZ EP       1347 32.30                             171   -0.1510 21.0 193 
 BAR2 EZ ES       1347 47.12                             171   -0.2610 21.0 193 
 BAR2 EZ I        1347 48.25        62.1 0.18            170           21.0 193 
 BRR  HZ EP       1347 34.14                             151   -0.0210 73.1 300 
 BRR  HN ES       1347 51.02                             151    0.5810 73.1 300 
 BRR  HZ I        1347 53.42        23.6 0.28            149           73.1 300 
 PAM  EZ EP       1347 35.31                             150    0.0910 78.9  38 
 PAM  EN ES       1347 52.12                             150   -0.2010 78.9  38 
 PAM  EZ I        1347 54.74        27.3 0.31            152           78.9  38 
 RUS  HZ EP       1347 36.47                             144   -0.0410 98.0 176 
 RUS  HN ES       1347 54.81                             144    0.2010 98.0 176 
 RUS  HZ I        1347 55.63        16.6 0.28            145           98.0 176 
 SPBC HZ EP       1347 41.34                             129   -0.04 9  162 220 
 SPBC HN ES       1348  3.51                             129    0.23 9  162 220 
 SPBC HZ I        1348  5.54        20.4 0.26            128            162 220 
 ZAR  HZ EP       1347 45.51                             121   -0.17 8  206 293 
 ZAR  HN ES       1348 10.68                             121   -0.26 8  206 293 
 ZAR  HZ I        1348 16.34        13.9 0.20            121            206 293 
 NOR  HZ EP       1347 48.93                             118    0.20 8  234 235 
 NOR  HN ES       1348 16.07                             118   -0.29 8  234 235 
 NOR  HZ I        1348 21.51         9.9 0.20            118            234 235 
 URE  HN ES   4   1348 24.74                             113   -1.68 0  285 292 
 GUY2CHZ EP   9   1347 58.89                             112    2.24 0  300 235 
 GUY2CHN ES       1348 32.44                                   -0.26 7  300 235 
 GUY2CHZ I        1348 36.99         6.8 0.15                           300 235 
 PRA  HZ EP   9   1348  6.80                             106    0.32 0  390 210 
 PRA  HN ES       1348 46.82                                   -1.46 6  390 210 
 PRA  HZ I        1348 54.06         9.3 0.26            106            390 210 
 SJC  HZ EP   4   1348  7.04                             105   -2.00 0  412 327 
                                                                                
