 2015  414 1546 20.5 L   6.796 -73.186141.2  RSN  4 0.2 1.4LRSN                1
 GAP=275        0.46       6.0     3.5  7.6 -0.1761E+00  0.6443E+01 -0.1489E+02E
 Epicentro: ZAPATOCA - SANTANDER                                               3
 ACTION:UPD 15-06-03 16:54 OP:cam  STATUS:               ID:20150414154620 L   I
 OLDACT:REG 15-04-14 20:41 OP:spq  STATUS:               ID:20150414153747     3
 2015-04-14-1537-47M.COL___277                                                 6
 STAT SP IPHASW D HRMM SECON CODA AMPLIT PERI AZIMU VELO AIN AR TRES W  DIS CAZ7
 BAR2 EZ EP   1   1546 39.45                             171   -0.11 9 22.6 179 
 RUS  HZ EP   1   1546 43.90                             143    0.11 9  101 174 
 RUS  HE ES   1   1547  1.97                             143   -0.00 9  101 174 
 RUS  HZ I        1547  4.00         4.5 0.32            145            101 174 
 PTB  HZ EP   1   1546 46.41                             132   -0.27 9  143 259 
 PTB  HN ES   1   1547  7.35                             132    0.24 9  143 259 
 PTB  HZ I        1547 10.01         3.8 0.18            134            143 259 
 NOR  HZ EP   1   1546 55.92                             118    0.38 7  231 234 
 NOR  HN ES       1547 22.70                             118   -0.1810  231 234 
 NOR  HZ I        1547 25.67         1.5 0.22            120            231 234 
                                                                                
