 2013  914 1412 34.7 L   6.793 -73.134153.5  RSN 12 0.5 2.3LRSN                1
 GAP=138        1.00       3.0     4.5  5.4 -0.1509E+01  0.5349E+01 -0.5338E+00E
 Epicentro: LOS SANTOS - SANTANDER                                             3
 ACTION:UPD 13-10-22 09:22 OP:ep   STATUS:               ID:20130914141234 L   I
 OLDACT:UP  13-09-14 15:42 OP:cam  STATUS:               ID:20130914140959     3
 OLDACT:REG 13-09-14 14:42 OP:cam  STATUS:               ID:20130914140959     3
 2013-09-14-1409-59M.COL___269                                                 6
 STAT SP IPHASW D HRMM SECON CODA AMPLIT PERI AZIMU VELO AIN AR TRES W  DIS CAZ7
 BAR2 SZ EP       1412 55.18                             171   -0.0610 22.8 193 
 BAR2 SZ ES       1413 11.01                             171   -0.2610 22.8 193 
 BAR2 SZ I        1413 13.12        37.4 0.34            172           22.8 193 
 BRR  HZ EP       1412 57.16                             153    0.4010 72.6 299 
 BRR  HN ES       1413 14.62                             153    0.6510 72.6 299 
 BRR  HZ I        1413 16.84        31.2 0.30            148           72.6 299 
 PAM  SZ EP       1412 58.00                             152    0.2710 77.2  38 
 PAM  SN ES       1413 15.56                             152   -0.1310 77.2  38 
 PAM  SZ I        1413 17.63        31.1 0.68            148           77.2  38 
 RUS  HZ EP   1   1412 59.25                             145    0.09 7 99.8 177 
 RUS  HE ES       1413 18.02                             145   -0.2110 99.8 177 
 RUS  HZ I        1413 20.35        16.9 0.38            144           99.8 177 
 PTB  HZ EP       1413  2.00                             133   -0.40 9  149 259 
 PTB  HN ES       1413 23.32                             133   -0.68 9  149 259 
 PTB  HZ I        1413 26.08        27.7 0.12            129            149 259 
 SPBC HZ EP       1413  4.11                             131    0.29 9  163 219 
 SPBC HN ES       1413 26.70                             131    0.17 9  163 219 
 SPBC HZ I        1413 33.23        44.8 0.24            127            163 219 
 ZAR  HN ES   1   1413 33.97                             124    0.35 6  205 292 
 NOR  HZ EP       1413 11.33                             120    0.38 8  235 235 
 NOR  HE ES   1   1413 39.70                             120    0.48 6  235 235 
 NOR  HZ I        1413 43.15        26.4 0.20            116            235 235 
 SML  HZ EP       1413 12.08                             119    0.19 8  245 335 
 SML  HN ES       1413 40.45                             119   -0.46 8  245 335 
 SML  HZ I        1413 47.69        32.0 0.10            114            245 335 
 CHI  HZ EP       1413 13.28                             119    0.49 8  248 195 
 CHI  HN ES       1413 41.83                             119   -0.67 8  248 195 
 CHI  HZ I        1413 48.01         8.3 0.64            116            248 195 
 COD  HZ EP   2   1413 23.23                             110   -0.26 3  349 354 
 SJC  HZ EP       1413 29.34                             107   -1.33 6  411 327 
 SJC  HZ I        1414 15.75         4.9 0.34            104            411 327 
                                                                                
