 2014  514 1054 24.5 L   6.816 -73.198147.6  RSN  7 0.3 1.6LRSN                1
 GAP=241        0.74       4.1     5.1  6.1  0.1151E+02 -0.2078E+01 -0.3222E+01E
 Epicentro: ZAPATOCA - SANTANDER                                               3
 ACTION:UPD 15-03-16 16:57 OP:nd   STATUS:               ID:20140514105424 L   I
 OLDACT:REG 14-05-14 21:52 OP:carl STATUS:               ID:20140514104811     3
 2014-05-14-1048-11M.COL___260                                                 6
 STAT SP IPHASW D HRMM SECON CODA AMPLIT PERI AZIMU VELO AIN AR TRES W  DIS CAZ7
 RUS  HZ EP       1054 48.86                             143    0.2210  103 173 
 RUS  HN ES       1055  7.12                             143   -0.3110  103 173 
 RUS  HZ I        1055  8.73         5.3 0.26            140            103 173 
 PTB  HZ EP       1054 50.98                             133   -0.20 9  142 258 
 PTB  HN ES       1055 12.39                             133    0.43 9  142 258 
 PTB  HZ I        1055 15.41         5.3 0.10            129            142 258 
 SPBC HZ EP       1054 53.31                             130    0.33 9  161 217 
 SPBC HN ES       1055 15.33                             130    0.18 9  161 217 
 SPBC HZ I        1055 22.74         7.8 0.22            126            161 217 
 ZAR  HZ EP       1054 56.69                             124    0.20 9  198 292 
 ZAR  HN ES       1055 20.99                             124   -0.41 9  198 292 
 ZAR  HZ I        1055 28.71         4.1 0.26            122            198 292 
 CHI  HZ EP       1055  2.48                             117    0.11 8  249 194 
 CHI  HN ES       1055 31.65                             117   -0.23 8  249 194 
 CHI  HZ I        1055 40.11         2.2 0.36            116            249 194 
 GUY2CHZ EP       1055  7.15                             113   -0.67 7  298 234 
 GUY2CHN ES   4   1055 43.85                             113    2.27 0  298 234 
 GUY2CHZ I        1055 54.50         2.1 0.36                           298 234 
 PRA  HZ EP       1055 18.26                             107    0.28 6  391 209 
 PRA  HN ES       1055 59.50                             107   -0.16 6  391 209 
 PRA  HZ I        1056  8.81         1.6 0.32            106            391 209 
                                                                                
