 2017  114 1401 43.7 L   6.808 -72.972146.0  RSN  5 0.4 1.1LRSN                1
 GAP=160        0.77       9.3     9.7  8.1  0.5967E+02 -0.1502E+02 -0.2125E+02E
 Epicentro: CEPITA - SANTANDER                                                 3
 ACTION:UPD 17-05-22 15:59 OP:jn   STATUS:               ID:20170114140143 L   I
 OLDACT:UP  17-04-20 15:15 OP:nlst STATUS:               ID:20170114140143 L   3
 OLDACT:UP  17-01-14 21:39 OP:e    STATUS:               ID:20170114135745     3
 OLDACT:REG 17-01-14 19:47 OP:and  STATUS:               ID:20170114135745     3
 2017-01-14-1358-00M.COL___332                                                 6
 STAT SP IPHASW D HRMM SECON CODA AMPLIT PERI AZIMU VELO AIN AR TRES W  DIS CAZ7
 BAR2 EZ EP       14 2  3.34                             166   -0.2410 33.4 224 
 BAR2 EZ ES       14 2 19.04                             166   -0.0610 33.4 224 
 BAR2 EZ I        14 2 25.03         4.4 0.48            171           33.4 224 
 PAM  EZ EP   2   14 2  6.21                             155    0.94 5 66.0  27 
 BRR  HZ EP       14 2  5.52                             147   -0.3710 88.2 292 
 BRR  HN ES   2   14 2 23.02                             147   -0.20 5 88.2 292 
 RUS  HZ EP       14 2  7.69                             143    0.1410  102 187 
 RUS  HN ES   2   14 2 26.60                             143    0.43 5  102 187 
 RUS  HZ I        14 2 27.24         1.2 0.34            150            102 187 
 ZAR  HN ES   1   14 2 45.35                             120    0.63 6  222 290 
                                                                                
