 2012  114 1615 40.8 L   6.794 -73.163132.1  RSN  5 0.3 1.4LRSN                1
 GAP=135        0.73       6.8     5.8 12.1 -0.1456E+02  0.2367E+02  0.3132E+01E
 Epicentro: LOS SANTOS - SANTANDER                                             3
 ACTION:UP  12-02-03 08:17 OP:REBC STATUS:               ID:20120114161540 L   I
 2012-01-14-1610-00M.COL___187                                                 6
 STAT SP IPHASW D HRMM SECON CODA AMPLIT PERI AZIMU VELO SNR AR TRES W  DIS CAZ7
 BAR2 SZ EP       1615 58.95                             170     0.210   22 185 
 BAR2 SZ I        1616 15.33         3.2 0.10                            22 185 
 BRR  HZ EP   1   1616  0.82                             150     0.5 7   70 300 
 BRR  HZ I        1616  7.19        11.7 0.17                            70 300 
 PAM  SZ EP   1   1616  1.76                             147     0.1 7   79  40 
 PAM  SN ES   1   1616 17.60                             147    -0.3 7   79  40 
 RUS  HZ EP   2   1616  2.74                             141    -0.4 5  100 175 
 RUS  HN ES   2   1616 20.71                             141     0.1 5  100 175 
 RUS  HZ I        1616 23.54         3.2 0.39                           100 175 
 PTB  HZ EP   1   1616  5.95                             129    -0.5 7  146 259 
 PTB  HN ES   1   1616 26.44                             129    -0.1 7  146 259 
                                                                                
