 2013  914 1702 58.3 L   6.478 -73.709112.1  RSN  5 0.4 1.9LRSN                1
 GAP= 85        0.93       4.5     4.5  9.1  0.3416E+01  0.8899E+01  0.3893E+01E
 Epicentro: SANTA HELENA DEL OPON - SANTANDER                                  3
 ACTION:UPD 13-10-22 09:22 OP:ep   STATUS:               ID:20130914170258 L   I
 OLDACT:UP  13-09-14 16:17 OP:cam  STATUS:               ID:20130914165959     3
 OLDACT:UP  13-09-14 16:17 OP:cam  STATUS:               ID:20130914165959     3
 OLDACT:UP  13-09-14 16:17 OP:cam  STATUS:               ID:20130914165959     3
 OLDACT:UP  13-09-14 16:16 OP:cam  STATUS:               ID:20130914165959     3
 OLDACT:REG 13-09-14 14:53 OP:cam  STATUS:               ID:20130914165959     3
 2013-09-14-1659-59M.COL___269                                                 6
 STAT SP IPHASW D HRMM SECON CODA AMPLIT PERI AZIMU VELO AIN AR TRES W  DIS CAZ7
 BAR2 SZ EP       17 3 15.56                             150    0.0610 59.5  78 
 BAR2 SZ ES       17 3 28.65                             150   -0.2710 59.5  78 
 BAR2 SZ I        17 3 29.53        52.8 0.36            155           59.5  78 
 BRR  HZ EP       17 3 15.77                             146   -0.0310 69.5 360 
 BRR  HN ES       17 3 29.95                             146    0.4910 69.5 360 
 BRR  HZ I        17 3 33.22        19.8 0.50            149           69.5 360 
 PTB  HZ EP       17 3 16.59                             141   -0.2210 83.0 275 
 PTB  HE ES   1   17 3 30.59                             141   -0.66 7 83.0 275 
 PTB  HZ I        17 3 32.97        14.8 0.18            143           83.0 275 
 RUS  HZ EP   1   17 3 18.69                             137    0.27 7 94.8 133 
 RUS  HE ES       17 3 33.86                             137   -0.2610 94.8 133 
 RUS  HZ I        17 3 34.88        15.1 0.28            142           94.8 133 
 SPBC HE ES   1   17 3 34.68                             135    0.79 7 99.8 204 
 SPBC HZ I        17 3 36.98        14.0 0.30            138           99.8 204 
                                                                                
