 2014  214 1848 12.3 L   6.764 -73.147150.3  RSN  7 0.4 1.9LRSN                1
 GAP=138        0.87       5.6     4.7  7.1 -0.7170E+01  0.6940E+01  0.6442E+01E
 Epicentro: LOS SANTOS - SANTANDER                                             3
 ACTION:UPD 14-03-10 08:10 OP:ep   STATUS:               ID:20140214184812 L   I
 OLDACT:REG 14-02-14 20:30 OP:mh   STATUS:               ID:20140214184649     3
 2014-02-14-1846-49M.COL___224                                                 6
 STAT SP IPHASW D HRMM SECON CODA AMPLIT PERI AZIMU VELO AIN AR TRES W  DIS CAZ7
 BAR2 SZ EP   1   1848 32.46                             172    0.09 7 19.4 192 
 BAR2 SZ ES   1   1848 47.63                             172   -0.41 7 19.4 192 
 BAR2 SZ I        1848 50.71        20.9 0.17            163           19.4 192 
 BRR  HZ EP     C 1848 34.32                             153    0.3110 73.1 301 
 BRR  HN ES   1   1848 51.71                             153    0.74 7 73.1 301 
 BRR  HZ I        1848 58.28        10.4 0.10            158           73.1 301 
 PAM  SZ EP       1848 35.21                             151    0.0610 80.6  38 
 PAM  SN ES       1848 52.72                             151   -0.2810 80.6  38 
 PAM  SZ I        1848 55.03        18.3 0.55            152           80.6  38 
 RUS  HZ EP   1   1848 36.79                             146    0.60 7 96.6 176 
 RUS  HZ I        1848 57.73         7.2 0.48            138           96.6 176 
 PTB  HZ EP       1848 38.93                             133   -0.60 9  147 260 
 PTB  HN ES   1   1849  0.34                             133   -0.45 7  147 260 
 PTB  HZ I        1849  2.11         8.7 0.22            132            147 260 
 SPBC HZ EP   1   1848 40.83                             131    0.01 7  160 220 
 SPBC HN ES   1   1849  3.27                             131    0.18 7  160 220 
 SPBC HZ I        1849  7.64        16.1 0.21            127            160 220 
 ZAR  HZ EP   1   1848 44.84                             123   -0.32 6  205 293 
 ZAR  HN ES   1   1849 11.11                             123    0.30 6  205 293 
 ZAR  HZ I        1849 13.53         8.4 0.19            124            205 293 
                                                                                
