 2017 1114 1300 39.7 L   6.837 -73.195124.0  RSN  8 0.3 1.4LRSN                1
 GAP=129        1.10       3.9     4.3  6.3 -0.3024E+01  0.8027E+01 -0.4148E+01E
 Epicentro: ZAPATOCA - SANTANDER                                               3
 ACTION:UPD 17-12-12 19:55 OP:rebc STATUS:               ID:20171114130039 L   I
 OLDACT:REG 17-11-14 20:34 OP:lv   STATUS:               ID:20171114125627     3
 2017-11-14-1258-00M.COL___453                                                 6
 STAT SP IPHASW D HRMM SECON CODA AMPLIT PERI AZIMU VELO AIN AR TRES W  DIS CAZ7
 BAR2 EZ EP       13 0 57.30                             167    0.4510 27.1 177 
 BAR2 EZ ES       13 1 10.50                             167    0.3010 27.1 177 
 BAR2 EZ I        13 1 13.73         3.7 0.11            170           27.1 177 
 BRR  HZ EP   9   13 0 59.15                             151    0.99 0 64.4 298 
 BRR  HN ES       13 1 14.63                                    1.1110 64.4 298 
 PAM  EZ EP       13 1  0.26                             147    0.5310 78.0  45 
 PAM  HN ES       13 1 14.74                             147   -0.5810 78.0  45 
 PAM  EZ I        13 1 19.34         6.1 0.56            150           78.0  45 
 RUS  HZ EP       13 1  1.73                             138   -0.0610  105 173 
 RUS  HN ES       13 1 18.90                             138   -0.0910  105 173 
 RUS  HZ I        13 1 21.06         2.7 0.22            143            105 173 
 PTB  HZ EP       13 1  4.31                             128   -0.27 9  143 257 
 PTB  HN ES       13 1 23.87                             128   -0.09 9  143 257 
 PTB  HZ I        13 1 26.08         1.5 0.16            130            143 257 
 ZAR  HZ EP   4   13 1  6.96                             119   -3.19 0  197 292 
 ZAR  HN ES       13 1 33.77                             119   -0.10 9  197 292 
 ZAR  HZ I        13 1 40.83         5.2 0.40            121            197 292 
 DRL03HZ EP       13 1 19.83                             110   -0.03 7  284 354 
 DRL03HN ES       13 1 51.12                             110   -0.03 7  284 354 
 DRL03HZ I        13 1 56.07         4.1 0.61                           284 354 
 GUY2CHZ EP       13 1 21.92                             109   -0.27 7  299 234 
 GUY2CHN ES       13 1 55.32                             109    0.01 7  299 234 
                                                                                
