 2013  414 1053 24.2 L   6.864 -73.211131.3  RSN  5 0.4 1.3LRSN                1
 GAP=168        0.93       5.3     6.6  9.0  0.2120E+01  0.1904E+02  0.1208E+01E
 Epicentro: ZAPATOCA - SANTANDER                                               3
 ACTION:UPD 13-05-22 14:38 OP:EP   STATUS:               ID:20130414105324 L   I
 2013-04-14-1048-50M.COL___209                                                 6
 STAT SP IPHASW D HRMM SECON CODA AMPLIT PERI AZIMU VELO AIN AR TRES W  DIS CAZ7
 GIR2 SZ EP       1053 42.00                             169    0.0810 23.8   5 
 GIR2 SZ ES       1053 55.72                             169   -0.0510 23.8   5 
 GIR2 SZ I        1053 59.10         4.1 0.44            167           23.8   5 
 BRR  HZ EP       1053 43.89                             153    0.6910 61.6 296 
 BRR  HN ES   4   1054  0.64                             153    2.59 0 61.6 296 
 BRR  HZ I        1054  6.38         7.7 0.62            152           61.6 296 
 RUS  HZ EP   1   1053 47.24                             138    0.11 7  108 173 
 RUS  HE ES   1   1054  4.65                             138   -0.40 7  108 173 
 RUS  HZ I        1054  5.30         3.9 0.32            147            108 173 
 PTB  HZ EP       1053 48.97                             130   -0.50 9  142 255 
 PTB  HN ES       1054  9.35                             130    0.13 9  142 255 
 PTB  HZ I        1054 13.55         2.8 0.16            133            142 255 
 SML  HN ES   1   1054 25.49                             115   -0.64 6  234 336 
                                                                                
