 2017 1014 1724 29.1 L   6.752 -73.296141.2  RSN  4 0.3 1.1LRSN                1
 GAP=245        0.81       9.7     9.6  6.8  0.6844E+02  0.1454E+02  0.8990E+01E
 Epicentro: ZAPATOCA - SANTANDER                                               3
 ACTION:UPD 17-11-07 19:31 OP:rebc STATUS:               ID:20171014172429 L   I
 OLDACT:DUP 17-10-14 21:48 OP:l    STATUS:               ID:20171014171703d    3
 2017-10-14-1718-00M.COL___429                                                 6
 STAT SP IPHASW D HRMM SECON CODA AMPLIT PERI AZIMU VELO AIN AR TRES W  DIS CAZ7
 BAR2 HZ EP       1724 47.96                             171   -0.1710 21.7 144 
 BAR2 HZ ES       1725  3.17                             171    0.1810 21.7 144 
 BAR2 HZ I        1725  4.50         2.3 0.17             47           21.7 144 
 RUS  HZ EP       1724 52.01                             144   -0.1810 97.9 166 
 RUS  HN ES       1725  9.81                             144   -0.4010 97.9 166 
 PTB  HZ EP       1724 54.44                             135    0.3110  130 260 
 PTB  HZ I        1725 21.97         2.2 0.09             37            130 260 
 YPLC HN EP       1724 58.77                             125   -0.19 9  181 146 
 YPLC HE ES       1725 22.84                             125    0.57 9  181 146 
                                                                                
