 2010  814 1350 41.4 L   6.769 -73.053142.0  RSN  6 0.1 1.4LRSN                1
 GAP=169        0.37       3.2     5.3  4.3  0.7639E+00 -0.1276E+02 -0.2996E+01E
 Epicentro: LOS SANTOS - SANTANDER                                             3
 ACTION:UP  10-09-07 10:54 OP:vdl  STATUS:               ID:20100814135041 L   I
 2010-08-14-1348-24S.COL___111                                                 6
 STAT SP IPHASW D HRMM SECON CODA AMPLIT PERI AZIMU VELO SNR AR TRES W  DIS CAZ7
 BAR2 SZ EP   1   1351  0.51                             170    -0.1 7   24 216 
 BAR2 SZ ES   2   1351 15.27                             170    -0.3 5   24 216 
 BAR2 SZ I        1351 19.19         6.4 0.28                            24 216 
 BTL  SZ EP   2   1351  0.80                             168     0.1 5   29 305 
 BTL  SZ ES   1   1351 15.99                             168     0.2 7   29 305 
 BRR  HZ EP       1351  2.78                             148     0.010   82 297 
 BRR  HZ I        1351  6.10         6.9 0.38                            82 297 
 BRR  HE ES   1   1351 19.46                             148     0.0 7   82 297 
 RUS  HZ EP   1   1351  4.61                             144     0.1 7   97 182 
 RUS  HN ES   3   1351 22.51                             144     0.0 2   97 182 
 RUS  HZ I        1351 23.68         3.1 0.24                            97 182 
 GUE  SZ EP       1351  5.77                             138    -0.110  118   7 
 GRA  SZ EP       1351  6.47                             136     0.110  126  13 
 GRA  SZ I        1351  7.92         3.8 0.34                           126  13 
                                                                                
