 2016  214 1046 50.2 L   6.807 -73.171139.1  RSN 15 0.3 2.2LRSN                1
 GAP=133        0.65       2.2     2.9  5.0 -0.1748E+01  0.4657E+01  0.6657E+00E
 Epicentro: LOS SANTOS - SANTANDER                                             3
 ACTION:UPD 16-03-04 21:26 OP:rebc STATUS:               ID:20160214104650 L   I
 OLDACT:REG 16-02-14 20:53 OP:dnl  STATUS:               ID:20160214103748     3
 2016-02-14-1037-48M.COL___289                                                 6
 STAT SP IPHASW D HRMM SECON CODA AMPLIT PERI AZIMU VELO AIN AR TRES W  DIS CAZ7
 BAR2 EZ EP       1047  9.29                             170    0.2310 23.8 183 
 BAR2 EZ ES   2   1047 24.10                             170    0.35 5 23.8 183 
 BAR2 EZ I        1047 25.48        38.0 0.22            169           23.8 183 
 PAM  EN ES       1047 28.92                             149    0.2710 78.7  41 
 PAM  EZ I        1047 31.95        12.6 0.32            154           78.7  41 
 RUS  HZ EP       1047 13.26                             142   -0.1410  102 174 
 RUS  HN ES   1   1047 31.17                             142   -0.30 7  102 174 
 RUS  HZ I        1047 33.03        16.8 0.26            145            102 174 
 PTB  HN ES       1047 36.25                             131   -0.58 9  145 258 
 PTB  HZ I        1047 44.03        17.5 0.31            131            145 258 
 OCA  HZ EP       1047 17.84                             128   -0.08 9  159 354 
 OCA  HN ES       1047 39.07                             128   -0.45 9  159 354 
 OCA  HZ I        1047 47.75        32.7 0.26            130            159 354 
 SPBC HZ EP       1047 18.09                             128   -0.01 9  162 218 
 SPBC HE ES       1047 40.20                             128    0.35 9  162 218 
 SPBC HZ I        1047 44.64        18.8 0.22            129            162 218 
 ZAR  HZ EP   2   1047 22.86                             121    0.93 4  201 292 
 ZAR  HE ES       1047 47.10                             121    0.43 9  201 292 
 ZAR  HZ I        1047 51.31        11.9 0.19            122            201 292 
 NOR  HZ EP       1047 25.41                             117    0.04 8  233 234 
 NOR  HE ES       1047 52.47                             117   -0.31 8  233 234 
 NOR  HZ I        1047 59.10         9.1 0.20            118            233 234 
 CHI  HE ES   2   1047 56.55                             116   -0.13 4  249 194 
 CHI  HZ I        1047 59.17        11.6 0.40            118            249 194 
 ROSC BZ EP   4   1047 29.55                             115    1.65 0  252 210 
 ROSC BE ES   4   1048  0.02                             115    2.74 0  252 210 
 ROSC BZ I        1048  3.96        28.8 0.40            117            252 210 
 URE  HZ EP   3   1047 30.29                             112   -0.36 2  281 292 
 URE  HE ES   4   1047 59.19                             112   -2.99 0  281 292 
 URE  HZ I        1048  8.39        11.6 0.16            113            281 292 
 GUY2CHZ EP   2   1047 33.48                             111    0.17 4  299 234 
 GUY2CHE ES   2   1048  7.63                             111    0.70 4  299 234 
 GUY2CHZ I        1048 15.68         6.9 0.56                           299 234 
 LL6C HZ EP   2   1047 35.49                             109   -0.06 3  324 358 
 LL6C HE ES   4   1048  8.78                             109   -2.12 0  324 358 
 ANIL HZ EP   3   1047 39.51                             107   -0.10 2  356 224 
 ANIL HN ES   2   1048 18.35                             107    0.22 3  356 224 
 ANIL HZ I        1048 23.90        19.8 0.28            109            356 224 
 ORTC HZ EP   3   1047 43.58                             105   -0.21 1  394 216 
 ORTC HE ES   2   1048 25.62                             105    0.04 3  394 216 
 ORTC HZ I        1048 30.73         4.1 0.20            107            394 216 
                                                                                
