 2012  814 1854 50.7 L   6.736 -73.195147.8  RSN  5 0.2 1.8LRSN                1
 GAP=227        0.44       4.0     3.7  4.0  0.8757E+01  0.2191E+01  0.1299E+01E
 Epicentro: VILLANUEVA - SANTANDER                                             3
 ACTION:UPD 12-09-10 11:56 OP:ep   STATUS:               ID:20120814185450 L   I
 2012-08-14-1850-00M.COL___217                                                 6
 STAT SP IPHASW D HRMM SECON CODA AMPLIT PERI AZIMU VELO AIN AR TRES W  DIS CAZ7
 BAR2 SZ EP       1855 10.13                             174   -0.2710 16.0 175 
 BAR2 SZ ES   1   1855 25.73                             174   -0.08 7 16.0 175 
 BAR2 SZ I        1855 28.75        14.0 0.23                          16.0 175 
 BRR  HZ EP       1855 12.22                             153    0.2510 70.3 306 
 BRR  HZ I        1855 17.60        24.5 0.29                          70.3 306 
 BRR  HN ES       1855 28.66                             153    0.0610 70.3 306 
 RUS  HZ EP   1   1855 14.15                             146    0.00 7 94.1 172 
 RUS  HN ES   1   1855 32.62                             146    0.14 7 94.1 172 
 PTB  HZ EP       1855 17.24                             134    0.05 9  141 261 
 PTB  HN ES   1   1855 37.83                             134   -0.07 7  141 261 
 PTB  HZ I        1855 44.04         4.2 0.34                           141 261 
 ZAR  HE ES   1   1855 48.04                             123   -0.19 6  202 295 
 ZAR  HZ I        1855 55.54         4.6 0.30                           202 295 
                                                                                
