 2010 1214 1104 10.8 L   6.776 -73.102144.3  RSN 11 0.3 1.8LRSN                1
 GAP=164        0.47       2.9     6.9  6.2 -0.1043E+02  0.2075E+02 -0.9804E+00E
 Epicentro: LOS SANTOS - SANTANDER                                             3
 ACTION:UP  11-01-14 15:24 OP:pat  STATUS:               ID:20101214110410 L   I
 2010-12-14-1101-03S.COL___137                                                 6
 STAT SP IPHASW D HRMM SECON CODA AMPLIT PERI AZIMU VELO SNR AR TRES W  DIS CAZ7
 BAR2 SZ EP   1   11 4 30.32                             171     0.1 7   22 204 
 BAR2 SZ ES   2   11 4 45.03                             171    -0.4 5   22 204 
 BAR2 SZ I        11 4 47.27        14.6 0.49                            22 204 
 BTL  SZ EP   1   11 4 30.52                             170     0.2 7   24 311 
 GIR2 SZ EP   1   11 4 30.35                             166    -0.1 7   35 343 
 RUS  HZ EP   2   11 4 33.62                             144    -0.6 5   98 179 
 RUS  HE ES   2   11 4 52.81                             144     0.4 5   98 179 
 RUS  HZ I        11 4 54.47         8.6 0.42                            98 179 
 GRA  SZ EP   2   11 4 36.16                             136     0.1 5  127  15 
 GRA  SZ ES   1   11 4 55.64                             136     0.0 7  127  15 
 GRA  SZ I        11 4 56.78         6.1 0.27                           127  15 
 OCA  SZ EP   2   11 4 39.16                             129    -0.2 5  164 352 
 OCA  SZ ES   2   11 5  1.68                             129     0.1 5  164 352 
 OCA  SZ I        11 5  5.69         7.2 0.17                           164 352 
 NOR  SZ EP   2   11 4 45.95                             118    -0.8 4  237 236 
 NOR  SN ES   2   11 5 14.72                             118     0.0 4  237 236 
 CHI  HZ EP   2   11 4 48.42                             117     0.1 4  247 196 
 CHI  HN ES   2   11 5 17.71                             117     0.2 4  247 196 
 CHI  HZ I        11 5 23.40         3.8 0.44                           247 196 
 HEL  HZ EP   2   11 4 51.84                             114     0.4 4  276 257 
 HEL  HZ I        11 5 23.63         3.5 0.26                           276 257 
 RREF HZ EP   2   11 4 57.21                             110     0.1 3  324 230 
 RREF HZ I        11 5 41.99         4.2 0.49                           324 230 
 PRA  HZ EP   2   11 5  4.24                             106     0.0 3  392 210 
 PRA  HN ES   2   11 5 46.04                             106     0.0 3  392 210 
                                                                                
