 2010  814 1421 25.5 L   6.748 -73.150144.0  RSN  5 0.2 1.5LRSN                1
 GAP=164        0.54       5.8    10.2  5.1  0.3736E+02 -0.1344E+02 -0.2721E+01E
 Epicentro: LOS SANTOS - SANTANDER                                             3
 ACTION:UP  10-09-07 10:54 OP:vdl  STATUS:               ID:20100814142125 L   I
 2010-08-14-1418-24S.COL___110                                                 6
 STAT SP IPHASW D HRMM SECON CODA AMPLIT PERI AZIMU VELO SNR AR TRES W  DIS CAZ7
 BAR2 SZ EP       1421 44.73                             173    -0.110   18 192 
 BAR2 SZ ES   1   1422  0.12                             173     0.2 7   18 192 
 BTL  SZ EP       1421 44.78                             170    -0.110   23 325 
 BTL  SZ ES   1   1421 59.80                             170    -0.2 7   23 325 
 BRR  HZ EP       1421 46.47                             151    -0.110   74 303 
 BRR  HN ES   1   1422  3.30                             151     0.2 7   74 303 
 BRR  HZ I        1422  5.80         8.5 0.25                            74 303 
 RUS  HZ EP       1421 48.87                             145     0.210   95 176 
 RUS  HZ I        1421 50.02         3.5 0.05                            95 176 
 RUS  HN ES   2   1422  6.31                             145    -0.4 5   95 176 
 GUE  SZ EP   2   1421 50.86                             138     0.4 5  122  12 
                                                                                
