 2012  214 1145 22.6 L   6.786 -73.112146.4  RSN  5 0.4 1.6LRSN                1
 GAP=142        0.85       5.7     7.3 11.6  0.1522E+02  0.2578E+02  0.8215E+01E
 ACTION:UP  12-03-07 16:30 OP:epov STATUS:               ID:20120214114522 L   I
 2012-02-14-1140-00M.COL___187                                                 6
 STAT SP IPHASW D HRMM SECON CODA AMPLIT PERI AZIMU VELO AIN AR TRES W  DIS CAZ7
 BAR2 SZ EP   1   1145 42.45                             171    0.11 7 22.8 200 
 BAR2 SZ I        1145 59.11         8.5 0.27                          22.8 200 
 BRR  HZ EP   1   1145 44.19                             151    0.10 7 75.2 298 
 BRR  HZ I        1145 51.41        16.3 0.59                          75.2 298 
 BRR  HE ES   1   1146  1.54                             151    0.72 7 75.2 298 
 PAM  SE ES   1   1146  1.86                             151   -0.32 7 76.3  37 
 RUS  HZ EP   1   1145 46.67                             144    0.34 7 98.9 178 
 RUS  HN ES       1146  4.58                             144   -0.2310 98.9 178 
 RUS  HZ I        1146  6.26         3.4 0.41                          98.9 178 
 ZAR  HE ES   1   1146 20.46                             122   -0.75 6  208 292 
 ZAR  HZ I        1146 23.14         2.8 0.10                           208 292 
                                                                                
