 2010  814 1413 11.2 L   6.813 -73.063144.0  RSN  4 0.2 1.3LRSN                1
 GAP=244        0.55      12.4    22.6 13.7  0.2467E+03 -0.2311E+03 -0.1056E+03E
 Epicentro: LOS SANTOS - SANTANDER                                             3
 ACTION:UP  10-09-07 10:54 OP:vdl  STATUS:               ID:20100814141311 L   I
 2010-08-14-1410-24S.COL___110                                                 6
 STAT SP IPHASW D HRMM SECON CODA AMPLIT PERI AZIMU VELO SNR AR TRES W  DIS CAZ7
 BTL  SZ EP   1   1413 30.78                             168     0.1 7   25 297 
 BAR2 SZ EP   2   1413 30.50                             168    -0.2 5   28 208 
 BAR2 SZ I        1413 47.29         5.5 0.33                            28 208 
 BRR  HZ EP       1413 32.44                             148    -0.210   79 294 
 BRR  HN ES   1   1413 49.48                             148     0.2 7   79 294 
 BRR  HZ I        1413 50.98         5.8 0.35                            79 294 
 RUS  HZ EP   1   1413 35.17                             142     0.3 7  102 181 
 RUS  HN ES   2   1413 53.03                             142    -0.3 5  102 181 
 RUS  HZ I        1413 54.96         2.3 0.69                           102 181 
                                                                                
