 2017  714 1106 28.9 L   6.845 -73.190147.6  RSN  4 0.3 1.3LRSN                1
 GAP=242        0.75       7.9     5.9  8.2  0.2867E+02  0.7981E+01 -0.1461E+02E
 Epicentro: ZAPATOCA - SANTANDER                                               3
 ACTION:UPD 17-08-30 15:32 OP:rebc STATUS:               ID:20170714110628 L   I
 OLDACT:DUP 17-07-14 21:49 OP:lv   STATUS:               ID:20170714105743d    3
 2017-07-14-1058-00M.COL___374                                                 6
 STAT SP IPHASW D HRMM SECON CODA AMPLIT PERI AZIMU VELO AIN AR TRES W  DIS CAZ7
 BAR2 EZ EP       11 6 49.25                             169    0.3810 27.9 178 
 BAR2 EZ ES       11 7  4.41                             169   -0.0310 27.9 178 
 RUS  HZ EP   2   11 6 53.38                             143    0.14 5  106 174 
 RUS  HN ES       11 7 11.92                             143   -0.3010  106 174 
 RUS  HZ I        11 7 13.36         2.9 0.55            141            106 174 
 PTB  HZ EP       11 6 55.47                             133   -0.23 9  144 257 
 PTB  HN ES       11 7 17.02                             133    0.42 9  144 257 
 PTB  HZ I        11 7 18.54         2.4 0.29            132            144 257 
 ZAR  HE ES       11 7 25.38                             124   -0.35 9  198 291 
                                                                                
