 2015  814 1732  4.7 L   6.787 -73.116147.9  RSN  8 0.3 2.1LRSN                1
 GAP=141        0.80       2.7     3.8  4.9 -0.8212E+00  0.5933E+01 -0.5292E+00E
 Epicentro: LOS SANTOS - SANTANDER                                             3
 ACTION:UPD 15-09-15 23:02 OP:cam  STATUS:               ID:20150814173204 L   I
 OLDACT:UP  15-08-15 02:14 OP:ar   STATUS:               ID:20150814172748     3
 OLDACT:UP  15-08-15 02:12 OP:ar   STATUS:               ID:20150814172748     3
 OLDACT:REG 15-08-14 21:23 OP:ar   STATUS:               ID:20150814172748     3
 2015-08-14-1727-48M.COL___337                                                 6
 STAT SP IPHASW D HRMM SECON CODA AMPLIT PERI AZIMU VELO AIN AR TRES W  DIS CAZ7
 BAR2 EZ EP       1732 24.48                             171   -0.1010 22.8 199 
 BAR2 EZ ES       1732 39.74                             171   -0.3410 22.8 199 
 BAR2 EZ I        1732 40.89        38.7 0.18            172           22.8 199 
 BRR  HZ EP       1732 26.51                             152    0.2210 74.8 298 
 BRR  HN ES       1732 43.58                             152    0.4610 74.8 298 
 BRR  HZ I        1732 47.38        15.1 0.24            150           74.8 298 
 PAM  EZ EP       1732 27.38                             151    0.2910 76.4  37 
 PAM  EN ES       1732 44.50                             151   -0.0510 76.4  37 
 PAM  EZ I        1732 46.44        14.8 0.52            153           76.4  37 
 RUS  HZ EP       1732 28.57                             145    0.0110 99.0 178 
 RUS  HN ES       1732 47.19                             145    0.0310 99.0 178 
 RUS  HZ I        1732 48.20        17.7 0.24            148           99.0 178 
 SPBC HZ EP       1732 33.40                             129   -0.07 9  164 220 
 SPBC HN ES       1732 55.71                             129   -0.19 9  164 220 
 SPBC HZ I        1732 56.54        22.8 0.26            131            164 220 
 ZAR  HN ES       1733  2.87                             122   -0.49 8  208 292 
 ZAR  HZ I        1733  7.54        11.2 0.28            123            208 292 
 SML  HZ EP       1732 41.82                             118    0.08 8  246 335 
 SML  HN ES       1733 10.45                             118   -0.18 8  246 335 
 SML  HZ I        1733 14.51        12.3 0.10            118            246 335 
 GUY2CHZ EP       1732 48.00                             113   -0.63 7  303 235 
 GUY2CHN ES       1733 23.72                             113    0.83 7  303 235 
 GUY2CHZ I        1733 31.91         3.9 0.72                           303 235 
                                                                                
