 2017  914 1803 46.5 L   6.831 -73.139147.6  RSN 18 0.4 2.4LRSN                1
 GAP= 65        0.89       3.1     2.7  4.7 -0.2345E+00  0.1698E+01  0.2148E+01E
 Epicentro: LOS SANTOS - SANTANDER                                             3
 ACTION:UPD 17-10-05 19:12 OP:rebc STATUS:               ID:20170914180346 L   I
 OLDACT:UP  17-09-14 23:13 OP:dnl  STATUS:               ID:20170914175739     3
 OLDACT:UP  17-09-14 23:13 OP:dnl  STATUS:               ID:20170914175739     3
 OLDACT:REG 17-09-14 21:05 OP:dnl  STATUS:               ID:20170914175739     3
 2017-09-14-1758-00M.COL___465                                                 6
 STAT SP IPHASW D HRMM SECON CODA AMPLIT PERI AZIMU VELO AIN AR TRES W  DIS CAZ7
 BAR2 EZ IP     C 18 4  6.07                             169   -0.3010 26.9 190 
 BAR2 EZ ES       18 4 21.72                             169   -0.1910 26.9 190 
 BAR2 EZ I        18 4 23.26        42.3 0.20            170           26.9 190 
 BRR  HZ EP       18 4  7.85                             153    0.1110 70.3 296 
 BRR  HE ES       18 4 24.85                             153    0.5010 70.3 296 
 BRR  HZ I        18 4 28.72        41.8 0.14            148           70.3 296 
 PAM  EZ EP     C 18 4  8.75                             152    0.0710 74.2  41 
 PAM  EN ES       18 4 25.91                             152   -0.1010 74.2  41 
 PAM  EZ I        18 4 27.87        62.3 0.50            149           74.2  41 
 RUS  HZ EP       18 4 10.13                             143   -0.5010  104 177 
 RUS  HE ES       18 4 29.50                             143    0.0210  104 177 
 RUS  HZ I        18 4 30.65        29.7 0.32            142            104 177 
 TAM  HZ IP     C 18 4 14.44                             131    0.15 9  155 106 
 TAM  HE ES       18 4 35.76                             131   -0.25 9  155 106 
 TAM  HZ I        18 4 42.84        23.6 0.30            129            155 106 
 SPBC HZ EP       18 4 15.14                             129   -0.25 9  166 218 
 SPBC HE ES       18 4 38.42                             129    0.46 9  166 218 
 SPBC HZ I        18 4 40.88        38.6 0.22            126            166 218 
 YPLC HZ EP   2   18 4 16.61                             126   -0.03 4  180 152 
 YPLC HN ES       18 4 40.71                             126    0.52 9  180 152 
 YPLC HZ I        18 4 42.49        14.6 0.30            125            180 152 
 ZAR  HZ EP   2   18 4 19.07                             123    0.12 4  203 291 
 ZAR  HE ES       18 4 44.53                             123    0.22 9  203 291 
 ZAR  HZ I        18 4 49.89        49.1 0.30            119            203 291 
 NOR  HZ EP       18 4 22.48                             118   -0.09 8  237 234 
 NOR  HN ES       18 4 49.86                             118   -0.88 8  237 234 
 NOR  HZ I        18 4 54.94        14.8 0.16            115            237 234 
 CHI  HZ EP   2   18 4 24.41                             117   -0.23 4  252 195 
 CHI  HN ES   4   18 4 52.21                             117   -2.21 0  252 195 
 CHI  HZ I        18 5  3.05         6.9 0.26            115            252 195 
 ROSC BZ EP   9   18 4 26.79                             117    1.75 0  256 211 
 ROSC BN ES       18 4 56.22                             117   -0.67 8  256 211 
 ROSC BZ I        18 5  1.36        19.6 0.45            114            256 211 
 HEL  HZ EP   9   18 4 28.55                             115    1.62 0  274 255 
 HEL  HE ES       18 4 59.50                             115   -0.62 8  274 255 
 HEL  HZ I        18 5  6.01        14.9 0.38            112            274 255 
 URE  HZ EP   2   18 4 26.75                             114   -0.79 4  283 291 
 URE  HN ES   4   18 4 57.00                             114   -2.59 0  283 291 
 URE  HZ I        18 5 11.75        22.7 0.24            111            283 291 
 GUY2CHZ EP   4   18 4 32.45                             112    2.01 0  304 234 
 GUY2CHE ES   4   18 5  6.26                             112    1.51 0  304 234 
 GUY2CHZ I        18 5 12.64        11.5 0.30                           304 234 
 LL6C HZ EP   2   18 4 31.52                             111   -0.32 3  321 357 
 LL6C HN ES   4   18 5  9.20                             111    1.96 0  321 357 
 LL6C HZ I        18 5 25.21         5.6 0.62            108            321 357 
 PRA  HZ EP   2   18 4 40.63                             107    0.20 3  395 209 
 PRA  HN ES   4   18 5 20.96                             107   -1.57 0  395 209 
 PRA  HZ I        18 5 28.94         6.0 0.32            104            395 209 
 ORTC HZ EP       18 4 41.70                             106    0.89 6  399 216 
 ORTC HN ES       18 5 23.90                             106    0.69 6  399 216 
 ORTC HZ I        18 5 28.62         4.9 0.42            104            399 216 
 SJC  HZ EP   4   18 4 40.30                             106   -1.48 0  407 327 
 SJC  HN ES   4   18 5 22.44                             106   -2.49 0  407 327 
 SJC  HZ I        18 5 25.11         5.0 0.56            103            407 327 
                                                                                
