 2017 1014 1451  2.3 L   6.808 -73.179136.9  RSN  4 0.2 1.4LRSN                1
 GAP=132        0.67       3.5     4.1  6.3  0.8535E+00  0.7239E+01 -0.1715E+01E
 Epicentro: ZAPATOCA - SANTANDER                                               3
 ACTION:UPD 17-11-07 19:31 OP:rebc STATUS:               ID:20171014145102 L   I
 OLDACT:REG 17-10-14 20:17 OP:l    STATUS:               ID:20171014144741     3
 2017-10-14-1448-00M.COL___423                                                 6
 STAT SP IPHASW D HRMM SECON CODA AMPLIT PERI AZIMU VELO AIN AR TRES W  DIS CAZ7
 BAR2 EZ EP       1451 20.59                             170   -0.2610 23.8 181 
 BAR2 EZ ES       1451 34.97                             170   -0.3610 23.8 181 
 BAR2 EZ I        1451 36.41         8.8 0.28            171           23.8 181 
 PAM  EZ EP       1451 23.54                             148   -0.1210 79.2  42 
 PAM  EN ES       1451 40.62                             148    0.2710 79.2  42 
 PAM  EZ I        1451 42.87         5.9 0.56            149           79.2  42 
 RUS  HZ EP       1451 25.28                             142    0.0310  102 174 
 RUS  HN ES       1451 43.49                             142    0.3210  102 174 
 RUS  HZ I        1451 44.04         2.2 0.11            144            102 174 
 ZAR  HE ES       1451 58.48                             121    0.16 9  200 292 
                                                                                
