 2015  514 1013 57.3 L   6.856 -73.064149.0  RSN  6 0.3 1.5LRSN                1
 GAP=215        0.81       4.0     6.3  7.9 -0.6661E+01  0.9081E+00  0.9091E+00E
 Epicentro: LOS SANTOS - SANTANDER                                             3
 ACTION:UPD 15-09-10 22:03 OP:cam  STATUS:               ID:20150514101357 L   I
 OLDACT:UP  15-05-14 21:27 OP:drio STATUS:               ID:20150514100748     3
 OLDACT:REG 15-05-14 20:05 OP:drio STATUS:               ID:20150514100748     3
 2015-05-14-1007-48M.COL___279                                                 6
 STAT SP IPHASW D HRMM SECON CODA AMPLIT PERI AZIMU VELO AIN AR TRES W  DIS CAZ7
 BAR2 EZ EP       1014 17.51                             167   -0.0310 32.0 204 
 BAR2 EZ I        1014 33.16         6.0 0.20            163           32.0 204 
 BRR  HN ES       1014 36.56                             151    0.4010 76.8 291 
 OCA  HN ES       1014 46.82                             131   -0.56 9  156 350 
 ZAR  HZ EP       1014 30.88                             122    0.26 8  210 290 
 ZAR  HN ES       1014 56.24                             122   -0.35 8  210 290 
 ZAR  HZ I        1015  1.70         3.8 0.46            124            210 290 
 SML  HZ EP       1014 34.11                             118    0.15 8  242 333 
 SML  HN ES       1015  2.90                             118    0.37 8  242 333 
 SML  HZ I        1015  9.84         2.7 0.10            119            242 333 
 NOR  HN ES       1015  3.08                             118   -0.26 8  246 235 
 NOR  HZ I        1015  7.35         1.7 0.18            117            246 235 
                                                                                
