 2014  714 1408 16.9 L   6.802 -73.148147.4  RSN  7 0.4 1.9LRSN                1
 GAP=136        1.01       4.4     4.4  6.8 -0.9522E+00  0.5867E+01  0.2688E+01E
 Epicentro: LOS SANTOS - SANTANDER                                             3
 ACTION:UPD 15-03-16 20:43 OP:nd   STATUS:               ID:20140714140816 L   I
 OLDACT:DUP 14-07-14 22:30 OP:stll STATUS:               ID:20140714135822d    3
 2014-07-14-1358-21M.COL___256                                                 6
 STAT SP IPHASW D HRMM SECON CODA AMPLIT PERI AZIMU VELO AIN AR TRES W  DIS CAZ7
 BAR2 SZ EP       14 8 36.61                             170   -0.0710 23.6 189 
 BAR2 SZ ES       14 8 52.34                             170    0.1910 23.6 189 
 BAR2 SZ I        14 8 52.92        12.7 0.24            166           23.6 189 
 BRR  HZ EP       14 8 38.39                             153    0.2310 70.9 298 
 BRR  HN ES       14 8 55.20                             153    0.4210 70.9 298 
 BRR  HZ I        14 8 56.01        15.1 0.18            150           70.9 298 
 PAM  SZ EP       14 8 39.50                             151    0.2610 77.3  40 
 PAM  SZ I        14 8 39.77        23.8 0.18            156           77.3  40 
 PAM  SN ES       14 8 56.07                             151   -0.6210 77.3  40 
 RUS  HZ EP       14 8 40.93                             144    0.1510  101 176 
 RUS  HZ I        14 8 41.90         6.0 0.20            142            101 176 
 RUS  HN ES       14 8 59.55                             144    0.1010  101 176 
 PTB  HZ EP       14 8 43.33                             132   -0.61 9  148 259 
 PTB  HN ES       14 9  4.30                             132   -0.77 9  148 259 
 PTB  HZ I        14 9  9.98         7.7 0.22            130            148 259 
 SPBC HZ EP       14 8 45.64                             129    0.16 9  163 219 
 SPBC HN ES       14 9  7.87                             129    0.06 9  163 219 
 SPBC HZ I        14 9 17.39         8.7 0.38            127            163 219 
 ZAR  HN ES       14 9 15.23                             123    0.49 9  204 292 
 ZAR  HZ I        14 9 20.59         7.1 0.42            121            204 292 
                                                                                
