 2017 1014 1123 30.0 L   6.679 -73.525102.7  RSN  5 0.1 1.3LRSN                1
 GAP=128        0.34       2.1     1.7  3.0  0.1661E+01  0.1626E+01  0.2156E+01E
 Epicentro: EL CARMEN - SANTANDER                                              3
 ACTION:UPD 17-11-07 19:31 OP:rebc STATUS:               ID:20171014112330 L   I
 OLDACT:REG 17-10-14 19:30 OP:l    STATUS:               ID:20171014111550     3
 2017-10-14-1118-00M.COL___405                                                 6
 STAT SP IPHASW D HRMM SECON CODA AMPLIT PERI AZIMU VELO AIN AR TRES W  DIS CAZ7
 BAR2 EZ EP       1123 45.12                             158    0.0210 39.1 104 
 BAR2 EZ ES       1123 56.92                             158    0.0510 39.1 104 
 BRR  HZ IP     D 1123 45.55                             151    0.1410 51.6 336 
 BRR  HN ES       1123 57.30                             151   -0.1210 51.6 336 
 RUS  HZ EP       1123 49.76                             133   -0.0210 99.8 151 
 RUS  HN ES       1124  5.15                             133   -0.0410 99.8 151 
 RUS  HZ I        1124  7.20         2.4 0.22            133           99.8 151 
 PTB  HZ EP       1123 49.41                             131   -0.1210  104 262 
 PTB  HN ES       1124  4.83                             131    0.0910  104 262 
 PTB  HZ I        1124  5.97         5.7 0.38            129            104 262 
 ZAR  HE ES   4   1124 20.25                             115    3.00 0  173 301 
 ZAR  HZ I        1124 22.00         2.9 0.09            115            173 301 
                                                                                
