 2016 1014 1043 28.9 L   6.709 -73.127139.3  RSN  4 0.3 1.2LRSN                1
 GAP=242        0.64       7.0     5.3  6.4  0.1212E+02  0.8903E+01 -0.1825E+02E
 Epicentro: JORDAN - SANTANDER                                                 3
 ACTION:UPD 16-11-09 19:19 OP:rebc STATUS:               ID:20161014104328 L   I
 OLDACT:REG 16-10-14 20:11 OP:dnl  STATUS:               ID:20161014103733     3
 2016-10-14-1038-00M.COL___359                                                 6
 STAT SP IPHASW D HRMM SECON CODA AMPLIT PERI AZIMU VELO AIN AR TRES W  DIS CAZ7
 BAR2 EZ EP       1043 47.52                             174   -0.1310 14.3 205 
 BAR2 EZ ES       1044  2.21                             174   -0.0210 14.3 205 
 BAR2 EZ I        1044  4.56         3.7 0.22            174           14.3 205 
 RUS  HZ EP   2   1043 51.75                             145    0.41 5 90.4 177 
 RUS  HE ES       1044  8.88                             145    0.0810 90.4 177 
 RUS  HZ I        1044 11.44         1.4 0.24            150           90.4 177 
 PTB  HZ EP       1043 54.98                             130   -0.45 9  148 263 
 PTB  HE ES       1044 16.16                             130    0.07 9  148 263 
 PTB  HZ I        1044 18.12         2.5 0.44            132            148 263 
 ZAR  HZ EP       1044  2.01                             120    0.42 8  210 294 
 ZAR  HN ES   4   1044 24.38                             120   -2.68 0  210 294 
 ZAR  HZ I        1044 31.99         2.3 0.58            122            210 294 
                                                                                
