 2012  214 1538 52.6 L   6.707 -73.188152.5  RSN  4 0.2 1.1LRSN                1
 GAP=225        0.37       5.2     4.5  6.1  0.1249E+02 -0.1550E+01 -0.8780E+01E
 ACTION:UP  12-03-07 16:30 OP:epov STATUS:               ID:20120214153852 L   I
 2012-02-14-1536-35S.COL___163                                                 6
 STAT SP IPHASW D HRMM SECON CODA AMPLIT PERI AZIMU VELO AIN AR TRES W  DIS CAZ7
 BAR2 SZ EP   2   1539 12.66                             175   -0.25 5 12.7 177 
 BAR2 SZ I        1539 13.03         2.9 0.06                          12.7 177 
 BRR  HZ EP   2   1539 14.61                             153    0.01 5 72.9 307 
 BRR  HE ES   2   1539 31.88                             153    0.14 5 72.9 307 
 RUS  HZ EP   2   1539 16.79                             148    0.40 5 90.8 173 
 RUS  HN ES   1   1539 34.86                             148   -0.06 7 90.8 173 
 RUS  HZ I        1539 36.35         1.5 0.36                          90.8 173 
 PTB  HZ EP   1   1539 19.50                             135   -0.10 7  141 263 
 PTB  HE ES   1   1539 40.67                             135    0.03 7  141 263 
                                                                                
