 2014  214 1308 15.4 L   6.803 -73.160137.5  RSN 11 0.5 2.2LRSN                1
 GAP=135        0.97       3.4     4.5  8.5 -0.1500E+01  0.5111E+01 -0.3752E+01E
 Epicentro: LOS SANTOS - SANTANDER                                             3
 ACTION:UPD 14-03-10 08:10 OP:ep   STATUS:               ID:20140214130815 L   I
 OLDACT:REG 14-02-14 15:41 OP:mh   STATUS:               ID:20140214130649     3
 2014-02-14-1306-49M.COL___218                                                 6
 STAT SP IPHASW D HRMM SECON CODA AMPLIT PERI AZIMU VELO AIN AR TRES W  DIS CAZ7
 BAR2 SZ EP   1   13 8 34.28                             170    0.23 7 23.4 186 
 BAR2 SZ ES   1   13 8 48.07                             170   -0.51 7 23.4 186 
 BAR2 SZ  AMP     13 8 50.42       142.6 0.16                          23.4 186 
 PAM  SZ IP     C 13 8 37.34                             149    0.5410 78.2  41 
 PAM  SZ I        13 8 54.68        34.1 0.19            144           78.2  41 
 RUS  HZ EP       13 8 38.55                             142    0.1610  101 175 
 RUS  HZ I        13 8 58.02        10.9 0.41            141            101 175 
 PTB  HZ EP   1   13 8 41.04                             130   -0.53 7  146 259 
 PTB  HN ES   1   13 9  1.66                             130   -0.32 7  146 259 
 PTB  HZ I        13 9  4.28        20.7 0.15            137            146 259 
 SPBC HZ EP   1   13 8 42.75                             127   -0.46 7  162 218 
 SPBC HN ES   1   13 9  5.02                             127    0.13 7  162 218 
 SPBC HZ I        13 9 10.75        11.1 0.22            131            162 218 
 ZAR  HZ EP   1   13 8 47.84                             121    0.68 6  202 292 
 ZAR  HN ES   1   13 9 12.58                             121    0.66 6  202 292 
 ZAR  HZ I        13 9 18.59        20.5 0.14            125            202 292 
 NOR  HZ EP   1   13 8 50.90                             117    0.35 6  234 234 
 NOR  HE ES       13 9 18.72                             117    0.77 8  234 234 
 NOR  HZ I        13 9 23.69        10.7 0.17            120            234 234 
 SML  HZ EP       13 8 50.74                             116   -0.74 8  243 336 
 SML  HN ES       13 9 19.54                             116   -0.07 8  243 336 
 SML  HZ I        13 9 25.82        17.6 0.07            118            243 336 
 CHI  HZ EP   1   13 8 52.44                             115   -0.21 6  249 195 
 CHI  HN ES       13 9 21.45                             115   -0.25 8  249 195 
 CHI  HZ I        13 9 28.60         4.2 0.37            117            249 195 
 HEL  HE ES       13 9 25.42                             113   -0.54 8  271 256 
 URE  HZ EP   2   13 8 55.15                             112   -0.76 4  282 292 
 URE  HN ES   4   13 9 25.93                             112   -1.56 0  282 292 
 GUY2CHZ EP   4   13 8 59.99                             111    1.47 0  300 235 
 GUY2CHE ES   4   13 9 34.15                             111    2.01 0  300 235 
 SJC  HZ EP   4   13 9  8.75                             104   -1.83 0  408 327 
 SJC  HN ES   4   13 9 49.37                             104   -4.24 0  408 327 
                                                                                
