 2016 1114 1627 24.7 L   6.755 -73.216144.5  RSN  4 0.2 1.7LRSN                1
 GAP=127        0.66       6.6     3.9  5.3 -0.1301E+02  0.1789E+01  0.2643E+01E
 Epicentro: ZAPATOCA - SANTANDER                                               3
 ACTION:UPD 17-10-26 21:08 OP:lp   STATUS:               ID:20161114162724 L   I
 OLDACT:DUP 16-11-14 23:11 OP:edw  STATUS:               ID:20161114161733d    3
 OLDACT:UP  16-11-14 23:09 OP:edw  STATUS:               ID:20161114161732     3
 OLDACT:REG 16-11-14 19:24 OP:edw  STATUS:               ID:20161114161732     3
 2016-11-14-1618-00M.COL___338                                                 6
 STAT SP IPHASW D HRMM SECON CODA AMPLIT PERI AZIMU VELO AIN AR TRES W  DIS CAZ7
 BAR2 EZ EP       1627 44.14                             172    0.0110 18.4 168 
 BAR2 EZ ES       1627 59.40                             172    0.1510 18.4 168 
 BAR2 EZ I        1627 59.72        11.6 0.18            175           18.4 168 
 BRR  HZ IP     C 1627 45.89                             154    0.3610 67.2 305 
 BRR  HN ES       1628  1.96                             154    0.2210 67.2 305 
 BRR  HZ I        1628  3.01         9.1 0.30            153           67.2 305 
 PAM  EZ EP       1627 47.41                             148    0.0410 86.2  41 
 PAM  EN ES       1628  4.66                             148   -0.3710 86.2  41 
 PAM  EZ I        1628  6.76        10.1 0.42            148           86.2  41 
 PTB  HZ EP       1627 50.69                             133   -0.14 9  139 260 
 PTB  HN ES       1628 10.86                             133   -0.32 9  139 260 
 PTB  HZ I        1628 12.61         4.4 0.09            134            139 260 
                                                                                
