 2014  514 1444 38.7 L   6.824 -73.167147.1  RSN  9 0.4 2.2LRSN                1
 GAP=133        1.03       3.3     4.7  6.9 -0.4622E+01  0.7971E+01 -0.8327E+00E
 Epicentro: LOS SANTOS - SANTANDER                                             3
 ACTION:UPD 15-03-16 16:57 OP:nd   STATUS:               ID:20140514144438 L   I
 OLDACT:REG 14-05-14 21:57 OP:carl STATUS:               ID:20140514143811     3
 2014-05-14-1438-11M.COL___260                                                 6
 STAT SP IPHASW D HRMM SECON CODA AMPLIT PERI AZIMU VELO AIN AR TRES W  DIS CAZ7
 BRR  HZ EP       1445  0.38                             154    0.5210 67.9 298 
 BRR  HN ES       1445 17.02                             154    0.7010 67.9 298 
 BRR  HZ I        1445 18.60        16.8 0.32            151           67.9 298 
 PAM  SZ EP       1445  1.44                             151    0.3710 76.9  42 
 PAM  SE ES       1445 18.42                             151   -0.0710 76.9  42 
 PAM  SZ I        1445 20.37        36.6 0.52            153           76.9  42 
 RUS  HZ EP       1445  2.79                             143   -0.0410  103 175 
 RUS  HE ES       1445 21.06                             143   -0.5510  103 175 
 PTB  HZ EP       1445  5.38                             133   -0.28 9  146 258 
 PTB  HN ES       1445 26.25                             133   -0.41 9  146 258 
 PTB  HZ I        1445 29.16        19.7 0.16            132            146 258 
 OCA  HZ EP       1445  6.70                             130   -0.19 9  157 354 
 OCA  HN ES       1445 29.04                             130    0.20 9  157 354 
 OCA  HZ I        1445 33.32        16.0 0.20            131            157 354 
 NOR  HZ EP   3   1445 15.02                             119    0.51 2  234 234 
 NOR  HE ES       1445 42.24                             119   -0.17 8  234 234 
 NOR  HZ I        1445 47.50         8.0 0.16            120            234 234 
 SML  HZ EP       1445 15.09                             118    0.01 8  240 336 
 SML  HN ES       1445 42.43                             118   -0.99 8  240 336 
 SML  HZ I        1445 47.69        18.0 0.10            118            240 336 
 URE  HZ EP   4   1445 22.27                             114    2.74 0  281 292 
 URE  HN ES   4   1445 50.76                             114   -0.58 0  281 292 
 URE  HZ I        1445 56.06         9.3 0.14            114            281 292 
 GUY2CHZ EP       1445 22.74                             113    0.37 7  301 234 
 GUY2CHN ES       1445 56.79                             113    0.39 7  301 234 
 GUY2CHZ I        1446  7.02         6.7 0.58                           301 234 
                                                                                
