 2013  514 1427 18.1 L   6.571 -73.431118.6  RSN  9 0.3 1.9LRSN                1
 GAP= 68        0.66       2.6     2.8  5.0  0.9276E+00  0.4592E+01  0.3346E+01E
 Epicentro: HATO - SANTANDER                                                   3
 ACTION:UPD 13-06-20 09:50 OP:ep   STATUS:               ID:20130514142718 L   I
 2013-05-14-1420-00M.COL___256                                                 6
 STAT SP IPHASW D HRMM SECON CODA AMPLIT PERI AZIMU VELO AIN AR TRES W  DIS CAZ7
 BAR2 SZ EP       1427 34.72                             166    0.1210 27.5  85 
 BAR2 SZ ES   1   1427 47.57                             166    0.11 7 27.5  85 
 BAR2 SZ I        1427 48.83        43.0 0.58            168           27.5  85 
 GIR2 SZ EP       1427 35.97                             151   -0.0410 61.9  25 
 GIR2 SZ ES   1   1427 49.64                             151   -0.34 7 61.9  25 
 GIR2 SZ I        1427 50.91        21.7 0.10            155           61.9  25 
 BRR  HZ EP       1427 36.07                             148   -0.0510 66.9 332 
 BRR  HN ES   1   1427 50.26                             148    0.10 7 66.9 332 
 RUS  HZ EP       1427 37.83                             142   -0.2010 84.3 153 
 RUS  HE ES   1   1427 54.02                             142    0.47 7 84.3 153 
 RUS  HZ I        1427 54.77         9.6 0.24            141           84.3 153 
 PTB  HE ES       1427 56.26                             133   -0.3910  114 268 
 ZAR  HN ES       1428 10.45                             118    0.62 9  188 303 
 NOR  HZ EP       1427 47.70                             117   -0.25 9  194 235 
 NOR  HN ES   1   1428 11.18                             117   -0.04 6  194 235 
 NOR  HZ I        1428 15.73         8.0 0.20            117            194 235 
 SML  HN ES   1   1428 23.31                             110   -0.16 6  256 344 
 PRA  HZ EP   1   1428  6.97                             103    0.57 5  355 207 
 PRA  HN ES   1   1428 44.11                             103    0.05 5  355 207 
 PRA  HZ I        1428 52.84         2.2 0.52            103            355 207 
                                                                                
