 2016  614 1044 47.8 L   6.848 -73.092150.0  RSN  8 0.2 1.8LRSN                1
 GAP=189        0.78       3.0     5.3  6.1 -0.1777E+01 -0.7167E+01  0.4809E+01E
 Epicentro: LOS SANTOS - SANTANDER                                             3
 ACTION:UPD 16-07-21 22:18 OP:rebc STATUS:               ID:20160614104447 L   I
 OLDACT:UP  16-06-14 21:48 OP:dani STATUS:               ID:20160614103745     3
 OLDACT:REG 16-06-14 19:10 OP:dani STATUS:               ID:20160614103745     3
 2016-06-14-1037-45M.COL___292                                                 6
 STAT SP IPHASW D HRMM SECON CODA AMPLIT PERI AZIMU VELO AIN AR TRES W  DIS CAZ7
 BAR2 EZ EP       1045  8.18                             168    0.0610 30.0 200 
 BAR2 EZ I        1045 24.53         8.9 0.48                          30.0 200 
 BRR  HZ EP       1045  9.91                             152    0.3010 74.3 293 
 BRR  HN ES       1045 26.80                             152    0.2010 74.3 293 
 BRR  HZ I        1045 30.10        12.0 0.60                          74.3 293 
 RUS  HZ EP       1045 12.10                             143   -0.2710  106 179 
 RUS  HE ES       1045 31.56                             143    0.0610  106 179 
 RUS  HZ I        1045 32.66         6.4 0.32                           106 179 
 PTB  HZ EP   9   1045 14.92                             131   -0.86 0  155 257 
 PTB  HN ES       1045 36.15                             129   -0.56 9  155 257 
 PTB  HZ I        1045 42.98         8.1 0.20                           155 257 
 OCA  HE ES       1045 37.82                             131   -0.27 9  156 351 
 NOR  HZ EP       1045 24.56                             118   -0.10 8  243 234 
 NOR  HN ES       1045 53.24                             118   -0.14 8  243 234 
 NOR  HZ I        1045 59.62         4.9 0.16                           243 234 
 CHI  HZ EP       1045 26.85                             117    0.35 8  255 196 
 CHI  HN ES       1045 56.37                             117   -0.28 8  255 196 
 CHI  HZ I        1045 59.02         3.1 0.34                           255 196 
 HEL  HN ES   4   1046  4.45                             115    3.25 0  279 255 
 GUY2CHZ EP   9   1045 34.31                             112    1.78 0  309 235 
 GUY2CHE ES       1046  9.95                             111    0.77 7  309 235 
 GUY2CHZ I        1046 14.17         3.4 0.58                           309 235 
                                                                                
