 2013 1214 1005 16.3 L   6.788 -73.143150.8  RSN  6 0.3 1.6LRSN                1
 GAP=237        0.63       6.1     5.6  6.7  0.1811E+02  0.5330E+01 -0.4865E+01E
 Epicentro: LOS SANTOS - SANTANDER                                             3
 ACTION:UPD 14-01-13 10:18 OP:ep   STATUS:               ID:20131214100516 L   I
 OLDACT:UP  13-12-14 15:22 OP:cam  STATUS:               ID:20131214100000     3
 OLDACT:REG 13-12-14 14:44 OP:cam  STATUS:               ID:20131214100000     3
 2013-12-14-1000-00M.COL___285                                                 6
 STAT SP IPHASW D HRMM SECON CODA AMPLIT PERI AZIMU VELO AIN AR TRES W  DIS CAZ7
 BAR2 SZ EP       10 5 36.41                             172   -0.1010 22.1 191 
 BAR2 SZ ES       10 5 52.07                             172   -0.2010 22.1 191 
 BAR2 SZ I        10 5 52.24         6.0 0.34            167           22.1 191 
 BRR  HZ EP       10 5 38.17                             153    0.1310 72.1 299 
 BRR  HN ES       10 5 55.24                             153    0.2410 72.1 299 
 RUS  HN ES   2   10 5 59.50                             145    0.21 5 99.3 176 
 RUS  HN I        10 6  0.90         4.1 0.36            143           99.3 176 
 PTB  HN ES   2   10 6  4.08                             133   -0.97 5  148 259 
 SPBC HN ES   2   10 6  8.13                             130    0.54 5  162 219 
 SPBC HN I        10 6  9.47         5.4 0.30            127            162 219 
 ZAR  HE ES       10 6 14.75                             123   -0.03 9  205 292 
 ZAR  HE I        10 6 20.14         7.9 0.18            121            205 292 
                                                                                
