 2013  914 1748 54.3 L   6.786 -73.137146.9  RSN 10 0.5 2.4LRSN                1
 GAP=138        1.08       3.9     4.4  6.3 -0.1330E+01  0.6062E+01  0.5517E+01E
 Epicentro: LOS SANTOS - SANTANDER                                             3
 ACTION:UPD 13-10-22 09:22 OP:ep   STATUS:               ID:20130914174854 L   I
 OLDACT:UP  13-09-14 17:34 OP:cam  STATUS:               ID:20130914174738     3
 OLDACT:REG 13-09-14 17:32 OP:cam  STATUS:               ID:20130914174738     3
 2013-09-14-1747-38M.COL___243                                                 6
 STAT SP IPHASW D HRMM SECON CODA AMPLIT PERI AZIMU VELO AIN AR TRES W  DIS CAZ7
 BAR2 SZ EP       1749 13.95                             171   -0.1310 22.0 193 
 BAR2 SZ ES       1749 29.70                             171    0.2210 22.0 193 
 BAR2 SZ I        1749 30.14        88.9 0.16            168           22.0 193 
 BRR  HZ EP       1749 15.87                             152    0.1710 72.8 299 
 BRR  HN ES       1749 32.78                             152    0.4210 72.8 299 
 BRR  HZ I        1749 34.00        59.8 0.42            149           72.8 299 
 PAM  SZ EP     C 1749 17.00                             151    0.2910 78.0  38 
 PAM  SN ES       1749 33.71                             151   -0.4510 78.0  38 
 PAM  SZ I        1749 35.51        21.5 0.34            156           78.0  38 
 RUS  HZ EP       1749 17.89                             144   -0.2010 99.0 177 
 RUS  HN ES       1749 36.59                             144   -0.0210 99.0 177 
 RUS  HZ I        1749 37.89        61.6 1.00            145           99.0 177 
 PTB  HZ EP   1   1749 20.47                             132   -0.99 7  148 260 
 PTB  HN ES       1749 41.63                             132   -0.98 9  148 260 
 PTB  HZ I        1749 48.94        31.1 0.30            130            148 260 
 SPBC HZ EP       1749 22.85                             129   -0.02 9  163 220 
 SPBC HN ES       1749 45.16                             129    0.04 9  163 220 
 SPBC HZ I        1749 51.71        35.7 0.22            129            163 220 
 ZAR  HZ EP   1   1749 27.05                             122    0.04 6  206 292 
 ZAR  HN ES       1749 53.35                             122    0.86 8  206 292 
 ZAR  HZ I        1750  2.24        21.0 0.46            122            206 292 
 NOR  HZ EP       1749 29.91                             119   -0.21 8  235 235 
 NOR  HN ES       1749 57.85                             119   -0.18 8  235 235 
 NOR  HZ I        1750  2.84        22.5 0.20            118            235 235 
 CHI  HZ EP       1749 32.04                             117    0.08 8  247 195 
 CHI  HN ES       1750  2.13                             117    0.82 8  247 195 
 CHI  HZ I        1750  7.03        11.6 0.22            118            247 195 
 PRA  HZ EP   2   1749 48.71                             107    0.92 3  391 210 
                                                                                
