 2010 1214 1436 56.2 L   6.790 -72.920148.0  RSN  5 0.3 1.3LRSN                1
 GAP=184        0.48       5.4    22.4 11.0 -0.6788E+02  0.2509E+02 -0.1156E+02E
 Epicentro: CEPITA - SANTANDER                                                 3
 ACTION:UP  11-01-14 15:24 OP:pat  STATUS:               ID:20101214143656 L   I
 2010-12-14-1436-04S.COL___137                                                 6
 STAT SP IPHASW D HRMM SECON CODA AMPLIT PERI AZIMU VELO SNR AR TRES W  DIS CAZ7
 BAR2 SZ EP   2   1437 16.51                             166     0.1 5   37 233 
 BAR2 SZ I        1437 26.08         7.0 0.73                            37 233 
 BAR2 SZ ES   3   1437 31.57                             166    -0.6 2   37 233 
 BTL  SZ EP       1437 16.55                             164     0.010   41 290 
 GIR2 SZ EP   2   1437 16.59                             163     0.1 5   44 317 
 RUS  HZ EP   2   1437 20.38                             144     0.2 5  101 190 
 RUS  HE ES   2   1437 38.81                             144    -0.1 5  101 190 
 RUS  HZ I        1437 40.29         1.9 0.41                           101 190 
 GRA  SZ EP   2   1437 20.71                             139    -0.6 5  122   6 
 GRA  SZ I        1437 21.53         2.9 0.34                           122   6 
 GRA  SZ ES   2   1437 41.20                             139     0.3 5  122   6 
                                                                                
