 2013  514 1846 27.6 L   6.816 -73.171151.6  RSN  7 0.5 1.4LRSN                1
 GAP=133        1.15       5.9     6.7  9.9  0.1158E+01  0.2198E+01 -0.1008E+02E
 Epicentro: LOS SANTOS - SANTANDER                                             3
 ACTION:UPD 13-06-20 09:50 OP:ep   STATUS:               ID:20130514184627 L   I
 2013-05-14-1840-00M.COL___256                                                 6
 STAT SP IPHASW D HRMM SECON CODA AMPLIT PERI AZIMU VELO AIN AR TRES W  DIS CAZ7
 BAR2 SZ EP   1   1846 47.95                             170   -0.02 7 24.8 183 
 BAR2 SZ ES   1   1847  3.88                             170    0.03 7 24.8 183 
 BAR2 SZ I        1847  6.31         9.0 0.26            171           24.8 183 
 GIR2 SZ EP   1   1846 47.90                             169   -0.02 7 29.1 355 
 GIR2 SZ ES   1   1847  3.49                             169   -0.28 7 29.1 355 
 GIR2 SZ I        1847  6.10         4.5 0.32            169           29.1 355 
 BRR  HZ EP       1846 49.67                             155    0.4610 67.8 298 
 BRR  HN ES   1   1847  7.45                             155    1.39 7 67.8 298 
 PAM  SZ EP       1846 50.73                             151    0.2610 77.9  42 
 PAM  SN ES   1   1847  7.87                             151   -0.44 7 77.9  42 
 PAM  SZ I        1847  9.53         3.0 0.22            153           77.9  42 
 RUS  HZ EP   1   1846 52.25                             144    0.17 7  103 175 
 RUS  HN ES   1   1847 10.68                             144   -0.49 7  103 175 
 RUS  HZ I        1847 11.51         4.9 0.38            147            103 175 
 PTB  HN ES       1847 15.51                             134   -0.58 9  145 258 
 SML  HN ES       1847 32.24                             119   -0.62 8  241 336 
                                                                                
