 2017 1114 1020 33.9 L   6.808 -73.149138.0  RSN  9 0.6 1.5LRSN                1
 GAP=136        1.32       5.6     6.0  7.4 -0.9988E+01  0.3252E+01  0.1394E+02E
 Epicentro: LOS SANTOS - SANTANDER                                             3
 ACTION:UPD 17-12-12 19:55 OP:rebc STATUS:               ID:20171114102033 L   I
 OLDACT:REG 17-11-14 20:24 OP:lv   STATUS:               ID:20171114101740     3
 2017-11-14-1018-00M.COL___429                                                 6
 STAT SP IPHASW D HRMM SECON CODA AMPLIT PERI AZIMU VELO AIN AR TRES W  DIS CAZ7
 BAR2 EZ EP       1020 52.30                             170   -0.2810 24.2 189 
 BAR2 EZ ES       1021  6.91                             170   -0.2610 24.2 189 
 BAR2 EZ I        1021  8.02         8.8 0.25            169           24.2 189 
 BRR  HZ IP     C 1020 54.11                             151   -0.0210 70.4 298 
 BRR  HN ES       1021 10.51                             151    0.5710 70.4 298 
 BRR  HZ I        1021 14.76         9.7 0.26            148           70.4 298 
 PAM  EZ EP       1020 55.20                             150   -0.0310 76.9  40 
 PAM  EN ES       1021 12.08                             150    0.1910 76.9  40 
 PAM  EZ I        1021 14.27         7.8 0.48            152           76.9  40 
 RUS  HZ EP       1020 56.40                             142   -0.5310  102 176 
 RUS  HN ES       1021 14.57                             142   -0.3510  102 176 
 RUS  HZ I        1021 15.52         2.0 0.26            144            102 176 
 PTB  HZ EP   9   1020 55.61                             130   -4.58 0  148 258 
 PTB  HN ES       1021 16.60                                    0.46 9  148 258 
 PTB  HZ I        1021 25.17         3.5 0.20            129            148 258 
 ZAR  HZ EP   9   1021  6.36                             121    0.62 0  203 292 
 ZAR  HN ES       1021 30.85                                   -0.37 9  203 292 
 ZAR  HZ I        1021 35.95         8.2 0.42            120            203 292 
 NOR  HZ EP       1021  9.12                             117   -0.05 8  235 234 
 NOR  HN ES       1021 36.91                             117    0.19 8  235 234 
 NOR  HZ I        1021 41.73         2.4 0.16            117            235 234 
 CHI  HZ EP       1021 12.13                             115    0.90 8  249 195 
 CHI  HN ES       1021 41.62                             115    1.25 8  249 195 
 CHI  HZ I        1021 46.71         1.2 0.72            116            249 195 
 GUY2CHZ EP       1021 17.19                             111    0.05 7  301 235 
 GUY2CHN ES       1021 49.42                             111   -1.49 7  301 235 
 GUY2CHZ I        1021 57.53         1.7 0.32                           301 235 
                                                                                
