 2016  314 1254 16.6 L   6.827 -73.193144.1  RSN  4 0.1 1.4LRSN                1
 GAP=147        0.31       1.9     1.8  2.6 -0.1054E+01  0.1286E+01 -0.4618E+00E
 Epicentro: ZAPATOCA - SANTANDER                                               3
 ACTION:UPD 16-05-13 21:24 OP:cam  STATUS:               ID:20160314125416 L   I
 OLDACT:REG 16-03-14 20:22 OP:cara STATUS:               ID:20160314124751     3
 2016-03-14-1247-51M.COL___309                                                 6
 STAT SP IPHASW D HRMM SECON CODA AMPLIT PERI AZIMU VELO AIN AR TRES W  DIS CAZ7
 BAR2 EZ IP       1254 36.09                             169   -0.0210 25.9 177 
 BAR2 EZ ES       1254 51.24                             169   -0.0710 25.9 177 
 BAR2 EZ I        1254 52.19         4.7 0.52            169           25.9 177 
 PAM  EZ IP       1254 38.81                             150    0.0710 78.7  44 
 PAM  EZ I        1254 38.99         6.4 0.20            153           78.7  44 
 PAM  EE ES       1254 56.00                             150    0.0010 78.7  44 
 RUS  HZ EP       1254 40.49                             142    0.0310  104 173 
 RUS  HN ES       1254 59.09                             142    0.0310  104 173 
 RUS  HZ I        1255  0.22         2.9 0.32            144            104 173 
 PTB  HZ EP       1254 42.92                             133   -0.13 9  143 257 
 PTB  HN ES       1255  3.75                             133    0.09 9  143 257 
 PTB  HZ I        1255  7.10         2.9 0.14            132            143 257 
                                                                                
