 2013  214 1532 44.6 L   6.798 -73.123142.7  RSN 10 0.4 2.1LRSN                1
 GAP=100        1.06       4.6     3.9  6.3 -0.4784E-01  0.6851E+01  0.4877E+01E
 Epicentro: LOS SANTOS - SANTANDER                                             3
 ACTION:UPD 13-03-12 09:33 OP:ep   STATUS:               ID:20130214153244 L   I
 2013-02-14-1530-00M.COL___241                                                 6
 STAT SP IPHASW D HRMM SECON CODA AMPLIT PERI AZIMU VELO AIN AR TRES W  DIS CAZ7
 BAR2 SZ EP       1533  3.86                             170   -0.0110 23.7 196 
 BAR2 SZ ES       1533 18.59                             170   -0.3010 23.7 196 
 BAR2 SZ I        1533 22.17        20.0 0.52            171           23.7 196 
 BRR  HZ EP       1533  5.37                             151   -0.1810 73.5 298 
 BRR  HN ES       1533 22.52                             151    0.6310 73.5 298 
 BRR  HN I        1533 25.45        50.2 0.14            151           73.5 298 
 PAM  SZ EP       1533  6.33                             151   -0.0810 76.0  38 
 PAM  SN ES       1533 23.50                             151    0.0910 76.0  38 
 PAM  SZ I        1533 25.33         7.8 0.52            153           76.0  38 
 RUS  HZ EP       1533  8.52                             143    0.5010  100 177 
 RUS  HN ES       1533 26.27                             143   -0.0210  100 177 
 RUS  HN I        1533 28.31        15.0 0.56            146            100 177 
 PTB  HZ EP       1533 10.54                             131   -1.00 9  150 259 
 PTB  HN ES       1533 32.65                             131    0.10 9  150 259 
 PTB  HN I        1533 37.17        17.3 0.24            132            150 259 
 TAM  HE ES   1   1533 32.52                             130   -0.51 7  153 105 
 TAM  HE I        1533 34.35        13.7 0.18            134            153 105 
 ZAR  HZ EP       1533 17.65                             121    0.55 8  206 292 
 ZAR  HE ES   1   1533 41.70                             121   -0.74 6  206 292 
 NOR  HZ EP       1533 20.52                             118    0.16 8  237 235 
 NOR  HN ES       1533 48.04                             118   -0.21 8  237 235 
 NOR  HN I        1533 51.26        13.9 0.16            120            237 235 
 SML  HN ES   4   1533 47.05                             117   -2.68 0  245 335 
 SML  HN I        1533 53.64        37.8 0.10            119            245 335 
 CHI  HZ EP       1533 22.69                             116    0.51 8  249 196 
                                                                                
