 2016  614 1136 41.5 L   6.866 -73.136160.0  RSN  6 0.2 1.8LRSN                1
 GAP=147        0.43       3.6     3.1  6.3 -0.4028E+01  0.4430E+01  0.1110E+02E
 Epicentro: LOS SANTOS - SANTANDER                                             3
 ACTION:UPD 16-07-21 22:18 OP:rebc STATUS:               ID:20160614113641 L   I
 OLDACT:UP  16-06-14 22:13 OP:dani STATUS:               ID:20160614112745d    3
 OLDACT:UP  16-06-14 22:13 OP:dani STATUS:               ID:20160614112745d    3
 OLDACT:DUP 16-06-14 22:08 OP:dani STATUS:               ID:20160614112745d    3
 2016-06-14-1127-44M.COL___304                                                 6
 STAT SP IPHASW D HRMM SECON CODA AMPLIT PERI AZIMU VELO AIN AR TRES W  DIS CAZ7
 BAR2 EZ EP     D 1137  2.99                             169    0.0010 30.7 190 
 BAR2 EZ I        1137 21.00         7.3 0.24                          30.7 190 
 PAM  EN ES       1137 23.23                             155    0.0610 71.1  43 
 PAM  EZ I        1137 25.05        12.1 0.40                          71.1  43 
 PTB  HZ EP       1137  9.71                             135   -0.17 9  150 256 
 PTB  HN ES       1137 31.93                             135   -0.10 9  150 256 
 PTB  HZ I        1137 36.93         7.4 0.40                           150 256 
 ZAR  HN ES   4   1137 37.74                             126   -2.93 0  202 290 
 ZAR  HZ I        1137 51.89         7.4 0.26                           202 290 
 NOR  HZ EP   2   1137 18.93                             121    0.30 4  240 233 
 NOR  HE ES       1137 47.89                             121    0.30 8  240 233 
 NOR  HZ I        1137 50.53         4.8 0.16                           240 233 
 CHI  HN ES       1137 51.33                             119   -0.13 8  256 195 
 GUY2CHE ES   4   1138  6.45                             115    5.09 0  306 234 
                                                                                
