 2012  514 1240 31.1 L   6.743 -73.225152.7  RSN  5 0.3 1.5LRSN                1
 GAP=217        0.80       9.0     9.3  9.7  0.6072E+02 -0.1441E+02 -0.1227E+02E
 Epicentro: VILLANUEVA - SANTANDER                                             3
 ACTION:UP  12-07-05 12:05 OP:pat  STATUS:               ID:20120514124032 L   I
 2012-05-14-1240-00M.COL___195                                                 6
 STAT SP IPHASW D HRMM SECON CODA AMPLIT PERI AZIMU VELO SNR AR TRES W  DIS CAZ7
 BAR2 SZ EP       1240 51.04                             173    -0.410   17 164 
 BAR2 SZ ES   2   1241  7.13                             173    -0.2 5   17 164 
 BAR2 SZ I        1241  8.71         6.6 0.38                            17 164 
 BRR  HZ EP       1240 53.00                             155     0.210   67 307 
 BRR  HN ES   1   1241 10.06                             155     0.4 7   67 307 
 BRR  HZ I        1241 12.09         9.6 0.46                            67 307 
 RUS  HZ EP       1240 55.44                             147     0.310   95 170 
 RUS  HN ES   1   1241 13.84                             147    -0.1 7   95 170 
 RUS  HZ I        1241 16.98         2.0 0.40                            95 170 
 PTB  HN ES   2   1241 18.76                             136     0.2 5  138 261 
 ZAR  HN ES   1   1241 28.24                             125    -0.4 6  198 295 
 ZAR  HZ I        1241 34.76         5.5 0.50                           198 295 
                                                                                
