 2011  214 1207 11.3 L   6.788 -73.136143.0  RSN  7 0.4 1.7LRSN                1
 GAP=160        1.02       5.4     9.9  7.0 -0.2650E+02  0.1066E+02  0.5777E+01E
 Epicentro: LOS SANTOS - SANTANDER                                             3
 ACTION:UP  11-03-28 15:08 OP:jfem STATUS:               ID:20110214120711 L   I
 2011-02-14-1204-45S.COL___136                                                 6
 STAT SP IPHASW D HRMM SECON CODA AMPLIT PERI AZIMU VELO SNR AR TRES W  DIS CAZ7
 BTL  SZ EP       12 7 30.99                             171     0.410   20 315 
 BTL  SZ ES   1   12 7 46.31                             171     0.7 7   20 315 
 BAR2 SZ EP       12 7 30.48                             171    -0.110   22 194 
 BAR2 SZ ES   1   12 7 45.09                             171    -0.6 7   22 194 
 BAR2 SZ I        12 7 46.37        18.4 0.23                            22 194 
 GIR2 SZ EP   2   12 7 30.93                             167     0.2 5   33 349 
 GIR2 SZ ES   1   12 7 46.24                             167     0.4 7   33 349 
 RUS  HZ EP       12 7 34.71                             144     0.010   99 177 
 RUS  HZ I        12 7 35.26         5.3 0.29                            99 177 
 RUS  HN ES   1   12 7 52.98                             144     0.0 7   99 177 
 GRA  SZ EP       12 7 36.29                             136    -0.110  127  17 
 GRA  SZ ES   1   12 7 55.06                             136    -0.9 7  127  17 
 GRA  SZ I        12 8  0.29         7.8 0.20                           127  17 
 NOR  SZ EP       12 7 47.21                             118     0.3 8  235 235 
 NOR  SN ES   1   12 8 13.94                             118    -0.8 6  235 235 
 CHI  HZ EP       12 7 49.03                             117     0.3 8  248 195 
 CHI  HN ES   2   12 8 17.49                             117    -0.5 4  248 195 
 CHI  HZ I        12 8 22.05         2.7 0.28                           248 195 
                                                                                
