 2011  614 1657 44.4 L   6.768 -73.111143.5  RSN  5 0.2 2.0LRSN                1
 GAP=166        0.43       3.9     4.6  4.0 -0.9134E+01 -0.2097E+01 -0.3504E+00E
 Epicentro: LOS SANTOS - SANTANDER                                             3
 ACTION:UP  11-07-14 19:05 OP:ep   STATUS:               ID:20110614165744 L   I
 2011-06-14-1640-00M.COL___122                                                 6
 STAT SP IPHASW D HRMM SECON CODA AMPLIT PERI AZIMU VELO SNR AR TRES W  DIS CAZ7
 BAR2 SZ EP   1   1658  3.54                             171    -0.2 8   21 202 
 BAR2 SZ ES   1   1658 18.91                             171     0.1 8   21 202 
 BAR2 SZ I        1658 19.25        11.3 0.22                            21 202 
 BRR  HZ EP   1   1658  5.53                             150    -0.1 8   76 299 
 BRR  HE ES   1   1658 22.21                             150     0.1 8   76 299 
 BRR  HZ I        1658 23.63        24.6 0.17                            76 299 
 PAM  SZ EP   1   1658  6.56                             150     0.1 8   78  36 
 PAM  SN ES   1   1658 23.56                             150     0.0 8   78  36 
 BRI  SZ EP   1   1658  8.34                             140     0.1 8  110  18 
 BRI  SZ ES   1   1658 26.50                             140    -0.3 8  110  18 
 BRI  SZ I        1658 31.66        19.8 0.46                           110  18 
 GRA  SZ EP       1658  9.68                             136     0.010  128  15 
 GRA  SZ ES   1   1658 29.54                             136     0.2 7  128  15 
 GRA  SZ I        1658 30.18        20.3 0.43                           128  15 
                                                                                
