 2017  414 1152 19.4 L   6.295 -74.192  4.9  RSN 13 0.4 2.0LRSN                1
 GAP= 60        1.11       1.7     1.8  4.5  0.1548E+00  0.9118E+00  0.3429E+00E
 Epicentro: CIMITARRA - SANTANDER                                              3
 ACTION:UPD 17-05-30 21:12 OP:jn   STATUS:               ID:20170414115219 L   I
 OLDACT:REG 17-04-14 19:33 OP:cara STATUS:               ID:20170414114743     3
 2017-04-14-1148-00M.COL___358                                                 6
 STAT SP IPHASW D HRMM SECON CODA AMPLIT PERI AZIMU VELO AIN AR TRES W  DIS CAZ7
 PTB  HZ IP     D 1152 26.48                              91    0.4610 39.8 313 
 PTB  HN ES       1152 31.78                              91    0.5810 39.8 313 
 PTB  HZ I        1152 32.14       325.2 0.14             47           39.8 313 
 SPBC HZ IP       1152 31.67                              91    0.6610 72.3 169 
 SPBC HN ES       1152 40.38                              91    0.2910 72.3 169 
 SPBC HZ I        1152 41.66        62.6 0.20             47           72.3 169 
 BRR  HZ IP     C 1152 36.15                              90    0.3710  104  31 
 BRR  HN ES       1152 48.92                              91    0.3410  104  31 
 BRR  HZ I        1152 49.89        46.7 0.10             47            104  31 
 NOR  HZ IP       1152 36.62                              90   -0.1010  110 223 
 NOR  HN ES       1152 49.74                              90   -0.5210  110 223 
 NOR  HZ I        1152 50.80        17.7 0.12             47            110 223 
 BAR2 EZ EP       1152 38.00                              90    0.1410  116  74 
 BAR2 EZ ES       1152 51.84                              90   -0.4410  116  74 
 BAR2 EZ I        1152 52.33        40.4 0.20             47            116  74 
 RUS  HZ EP       1152 40.53                              90    0.2710  131 110 
 RUS  HN ES       1152 55.86                              90   -0.6910  131 110 
 RUS  HZ I        1152 58.77        14.6 0.10             47            131 110 
 HEL  HZ IP       1152 42.72                              90   -0.10 9  148 266 
 HEL  HN ES   4   1152 59.62                              90   -1.49 0  148 266 
 HEL  HZ I        1153  2.54        53.0 0.22             47            148 266 
 ZAR  HZ EP       1152 42.35                              90   -0.58 9  152 331 
 ZAR  HN ES       1153  0.45                              90   -0.85 9  152 331 
 ZAR  HZ I        1153  4.16        25.1 0.26             47            152 331 
 CHI  HZ EP   4   1152 50.33                              56    1.40 0  191 164 
 CHI  HN ES       1153 12.04                              56    0.05 9  191 164 
 CHI  HZ I        1153 20.63         7.2 0.74             37            191 164 
 PAM  EZ IP   4   1152 51.30                              56    0.98 0  201  55 
 PAM  EN ES       1153 14.51                              56    0.05 9  201  55 
 PAM  EZ I        1153 17.14        20.6 0.28             37            201  55 
 CBOC HZ EP   4   1152 52.08                              56    1.45 0  207 257 
 CBOC HN ES       1153 14.88                              56   -0.14 8  207 257 
 CBOC HZ I        1153 19.99         8.8 0.54             37            207 257 
 URE  HZ EP       1152 51.45                              56   -0.47 8  219 317 
 URE  HN ES       1153 17.63                              56    0.31 8  219 317 
 URE  HZ I        1153 21.74         8.5 0.38             37            219 317 
 PRA  HZ EP       1153  1.59                              55    0.05 7  296 195 
 PRA  HN ES   4   1153 35.24                              55    0.81 0  296 195 
 PRA  HZ I        1153 45.00         5.1 0.34             36            296 195 
                                                                                
