 2012 1214 1002  7.2 L   6.789 -73.166143.4  RSN  8 0.4 1.9LRSN                1
 GAP=134        0.95       3.7     4.1  6.1  0.1044E+01  0.6955E+01  0.2589E+01E
 Epicentro: LOS SANTOS - SANTANDER                                             3
 ACTION:UPD 13-01-04 14:27 OP:ep   STATUS:               ID:20121214100207 L   I
 2012-12-14-1000-00M.COL___242                                                 6
 STAT SP IPHASW D HRMM SECON CODA AMPLIT PERI AZIMU VELO AIN AR TRES W  DIS CAZ7
 BAR2 SZ EP       10 2 26.35                             171   -0.1210 21.8 185 
 BAR2 SZ ES       10 2 40.91                             171   -0.6310 21.8 185 
 BAR2 SZ I        10 2 43.18        16.5 0.40                          21.8 185 
 GIR2 SZ EP       10 2 26.54                             167   -0.0310 32.2 355 
 BRR  HZ EP       10 2 28.27                             153    0.3010 69.8 300 
 BRR  HN ES   1   10 2 44.99                             153    0.78 7 69.8 300 
 BRR  HN I        10 2 46.39        24.6 0.22                          69.8 300 
 PAM  SZ EP       10 2 29.15                             149   -0.1210 79.8  40 
 PAM  SN ES       10 2 46.78                             149    0.2710 79.8  40 
 PAM  SN I        10 2 47.33        10.3 0.48                          79.8  40 
 RUS  HZ EP       10 2 30.50                             144   -0.1010 99.5 175 
 RUS  HN ES       10 2 49.02                             144    0.1310 99.5 175 
 PTB  HZ EP       10 2 33.24                             132   -0.47 9  145 259 
 PTB  HN ES       10 2 54.14                             132   -0.28 9  145 259 
 PTB  HN I        10 2 59.29        12.5 0.20                           145 259 
 ZAR  HZ EP       10 2 39.71                             122    0.43 9  202 293 
 ZAR  HN ES       10 3  4.21                             122   -0.13 9  202 293 
 ZAR  HN I        10 3 10.39         8.5 0.16                           202 293 
 CHI  HZ EP       10 2 44.22                             117   -0.31 8  247 195 
 CHI  HN ES       10 3 14.48                             117    0.79 8  247 195 
 CHI  HN I        10 3 17.75         2.6 0.22                           247 195 
                                                                                
