 2011  614 1755 15.3 L   6.788 -73.109148.0  RSN 17 0.5 4.8LRSN                1
 GAP=129        1.06       3.6     6.0  5.5 -0.1052E+02  0.5313E+01  0.3767E+01E
 Epicentro: LOS SANTOS - SANTANDER                                             3
 Epicentro: LOS SANTOS-SANTANDER                                               3
 Evento Sentido                                                                2
 Reportado como sentido:                                                       3
 BUCARAMANGA, FLORIDABLANCA(SANTANDER), ENVIGADO, MEDELLIN(ANTIOQUIA)          3
 DUITAMA, PAIPA, CHIQUINQUIRA(BOYACA), IBAGUE(TOLIMA)                          3
 ACTION:UP  11-07-14 19:05 OP:ep   STATUS:               ID:20110614175515 L   I
 2011-06-14-1752-40S.COL___135                                                 6
 STAT SP IPHASW D HRMM SECON CODA AMPLIT PERI AZIMU VELO SNR AR TRES W  DIS CAZ7
 BAR2 SZ IP       1755 35.21                             171     0.010   23 201 
 BAR2 SZ ES   1   1755 50.28                             171    -0.4 7   23 201 
 BAR2 SZ I        1755 51.59     15621.7 0.31                            23 201 
 GIR2 SZ IP       1755 35.30                             166     0.010   33 344 
 GIR2 SZ ES   1   1755 50.29                             166    -0.6 7   33 344 
 BRR  HZ IP     C 1755 36.99                             151     0.110   75 298 
 BRR  HN ES   1   1755 53.83                             151     0.1 7   75 298 
 BRR  HZ I        1755 56.32      4848.3 0.15                            75 298 
 PAM  SZ IP       1755 38.05                             151     0.410   76  37 
 PAM  SN ES   1   1755 55.01                             151    -0.1 7   76  37 
 RUS  HZ IP     D 1755 39.11                             145     0.010   99 178 
 RUS  HN ES   1   1755 57.55                             145    -0.2 7   99 178 
 RUS  HZ I        1755 59.74      7387.4 0.50                            99 178 
 BRI  SZ IP       1755 39.74                             142     0.410  108  19 
 BRI  SZ ES   1   1755 58.46                             142     0.3 7  108  19 
 BRI  SZ I        1756  3.82      7743.5 0.55                           108  19 
 GRA  SZ IP       1755 41.04                             137     0.310  126  16 
 GRA  SZ ES   1   1755 59.89                             137    -0.7 7  126  16 
 GRA  SZ I        1756  3.50      5635.5 0.41                           126  16 
 OCA  SZ EP       1755 43.70                             130    -0.2 9  162 352 
 OCA  SZ ES   1   1756  6.60                             130     0.3 7  162 352 
 OCA  SZ I        1756 11.51      6589.8 0.33                           162 352 
 NOR  SZ EP       1755 50.80                             118    -0.6 8  237 235 
 NOR  SN ES   1   1756 19.65                             118     0.1 6  237 235 
 ROSC BZ IP     D 1755 54.91                             117     1.3 8  254 212 
 ROSC BN ES   1   1756 24.38                             117     0.8 6  254 212 
 ROSC BZ I        1756 29.87     13019.8 0.31                           254 212 
 VIL  SZ IP       1755 58.39                             112    -0.4 7  303 192 
 VIL  SN ES   1   1756 32.38                             112    -0.3 5  303 192 
 VIL  SZ I        1756 43.12      2903.3 0.46                           303 192 
 GUY  SZ EP   1   1755 59.49                             112    -0.1 5  306 236 
 GUY  SZ I        1756 43.05      8239.8 0.34                           306 236 
 DBB  SZ IP       1756  3.04                             109    -0.3 7  344 274 
 TOL  SZ EP   1   1756  3.37                             109    -0.5 5  345 225 
 SDV  BZ EP       1756  4.52                             109    -0.6 6  358  50 
 SDV  BZ I        1756  5.90      1273.7 0.37                           358  50 
 PRA  HZ EP       1756  8.15                             107    -0.8 6  393 210 
 PRA  HN ES   1   1756 51.17                             107     0.3 4  393 210 
 SOL  SZ EP   1   1756 18.73                             103    -0.4 3  480 263 
                                                                                
