 2017  214 1032 52.5 L   6.340 -73.574125.5  RSN  5 0.2 1.5LRSN                1
 GAP=118        0.59       2.7     2.8  4.5  0.3959E+00  0.1869E+01  0.1904E+01E
 Epicentro: SANTA HELENA DEL OPON - SANTANDER                                  3
 ACTION:UPD 17-05-24 15:36 OP:jn   STATUS:               ID:20170214103252 L   I
 OLDACT:DUP 17-02-14 22:20 OP:cara STATUS:               ID:20170214102749d    3
 2017-02-14-1028-00M.COL___346                                                 6
 STAT SP IPHASW D HRMM SECON CODA AMPLIT PERI AZIMU VELO AIN AR TRES W  DIS CAZ7
 BAR2 EZ EP       1033 10.82                             156    0.1210 51.5  57 
 BAR2 EZ ES       1033 24.93                             156    0.0010 51.5  57 
 BAR2 EZ I        1033 27.06        16.9 0.30            159           51.5  57 
 RUS  HZ EP       1033 12.23                             148   -0.0910 73.5 132 
 RUS  HN ES       1033 27.65                             148   -0.1610 73.5 132 
 RUS  HZ I        1033 30.64         3.5 0.20            148           73.5 132 
 PTB  HZ EP       1033 13.13                             139   -0.4610  100 283 
 PTB  HE ES       1033 30.29                             139    0.2310  100 283 
 PTB  HZ I        1033 31.20         6.6 0.12            142            100 283 
 PAM  EZ EP       1033 18.63                             127    0.22 9  147  41 
 CHI  HZ EP       1033 22.73                             120    0.03 9  190 185 
 CHI  HN ES       1033 46.47                             120    0.20 9  190 185 
 CHI  HZ I        1033 50.56         2.2 0.44            121            190 185 
                                                                                
