 2011  514 1106 50.9 L   6.730 -73.034132.4  RSN  7 0.3 1.7LRSN                1
 GAP=198        0.73       6.2     8.1  7.9 -0.2780E+02  0.8555E+00 -0.6568E+01E
 Epicentro: ARATOCA - SANTANDER                                                3
 ACTION:UP  11-06-29 08:53 OP:tino STATUS:               ID:20110514110650 L   I
 2011-05-14-1102-44S.COL___139                                                 6
 STAT SP IPHASW D HRMM SECON CODA AMPLIT PERI AZIMU VELO SNR AR TRES W  DIS CAZ7
 BAR2 SZ EP   1   11 7  9.28                             170     0.3 7   22 227 
 BAR2 SZ ES   1   11 7 23.01                             170     0.0 7   22 227 
 BAR2 SZ I        11 7 26.17        22.7 0.26                            22 227 
 PAM  SZ EP   1   11 7 12.15                             149     0.4 7   77  29 
 PAM  SN ES   2   11 7 27.60                             149    -0.3 5   77  29 
 BRR  HZ EP   1   11 7 11.28                             145    -0.3 7   86 299 
 BRR  HN ES   2   11 7 28.27                             145     0.5 5   86 299 
 BRR  HZ I        11 7 30.95         8.8 0.35                            86 299 
 BRI  SZ EP   1   11 7 13.92                             138     0.0 7  112  13 
 BRI  SZ I        11 7 38.49         4.6 0.48                           112  13 
 GRA  SZ EP   1   11 7 15.23                             133    -0.2 7  130  11 
 GRA  SZ I        11 7 16.36         4.6 0.37                           130  11 
 GRA  SZ ES   1   11 7 34.07                             133    -0.4 7  130  11 
 OCA  SZ ES   2   11 7 41.67                             125     0.4 5  170 349 
 OCA  SZ I        11 7 48.33         8.2 0.29                           170 349 
 NOR  SN ES   2   11 7 53.90                             115    -0.5 4  241 238 
                                                                                
