 2012 1114 1730 11.4 L   6.810 -73.150147.6  RSN 11 0.5 2.5LRSN 2.9WRSN        1
 SPEC AVERAGE  MO 13.4 ST  1.7 OM  2.0 f0 3.67 R0.4465 AL 1.79 WI 18.1 MW  2.9 3
 SPEC SD       MO  0.3 ST0.796 OM  0.9 f0 1.21 R0.1417 AL      WI      MW  0.2 3
 GAP= 70        1.17       3.4     4.5  6.2  0.1378E+01  0.2292E+01 -0.4941E+00E
 Epicentro: LOS SANTOS - SANTANDER                                             3
 SPEC PTB HH N MO 13.5 ST0.550 OM  1.8 f0 2.35 R0.6255 AL 1.30 WI 22.3 MW  2.9 3
 SPEC PTB HH N T173058 K 0.000 GD  208 VS 4.20 DE 3.00 Q0230.0 QA 0.60 VS 4.20 3
 SPEC RUS HH Z MO 13.0 ST  2.0 OM  0.6 f0 5.27 R0.2789 AL 1.91 WI 16.2 MW  2.6 3
 SPEC RUS HH Z T173035 K 0.000 GD  179 VP 7.60 DE 3.00 Q0230.0 QA 0.60 VS 4.20 3
 SPEC BRR HH Z MO 13.7 ST  2.4 OM  1.3 f0 3.38 R0.4349 AL 2.17 WI 15.9 MW  3.0 3
 SPEC BRR HH Z T173032 K 0.000 GD  163 VP 7.60 DE 3.00 Q0230.0 QA 0.60 VS 4.20 3
 ACTION:UPD 12-12-05 15:33 OP:}ep  STATUS:               ID:20121114173011 L   I
 2012-11-14-1730-00M.COL___229                                                 6
 STAT SP IPHASW D HRMM SECON CODA AMPLIT PERI AZIMU VELO AIN AR TRES W  DIS CAZ7
 BAR2 SZ EP       1730 31.33                             170    0.0410 24.4 188 
 BAR2 SZ ES       1730 46.53                             170   -0.2610 24.4 188 
 BAR2 SZ I        1730 47.51        90.9 0.26                          24.4 188 
 GIR2 SZ EP       1730 31.40                             168    0.1210 30.1 351 
 BRR  HZ EP       1730 33.14                             153    0.4310 70.2 298 
 BRR  HZ I        1730 33.35        58.6 0.14                          70.2 298 
 BRR  HE ES       1730 50.55                             153    1.2310 70.2 298 
 PAM  SZ EP       1730 34.08                             151    0.2910 76.8  40 
 PAM  SE ES       1730 51.47                             151    0.2210 76.8  40 
 PAM  SN I        1730 52.65        37.9 0.60                          76.8  40 
 RUS  HZ EP       1730 35.25                             144   -0.1810  102 176 
 RUS  HN ES       1730 53.42                             144   -0.7510  102 176 
 RUS  HN I        1730 54.78        18.8 0.20                           102 176 
 PTB  HZ EP       1730 38.34                             132   -0.17 9  147 258 
 PTB  HN ES       1730 59.33                             132   -0.31 9  147 258 
 PTB  HN I        1731  4.74        49.4 0.38                           147 258 
 TAM  HZ EP       1730 39.58                             131    0.27 9  156 105 
 OCA  HZ EP       1730 39.68                             130   -0.08 9  159 353 
 OCA  HE ES       1731  0.92                             130   -0.94 9  159 353 
 OCA  HN I        1731  5.90        84.3 0.20                           159 353 
 ZAR  HZ EP       1730 44.11                             123    0.22 9  203 292 
 ZAR  HE ES       1731  9.12                             123   -0.10 9  203 292 
 ZAR  HN I        1731 15.62        24.8 0.30                           203 292 
 SML  HZ EP       1730 47.99                             118   -0.02 8  242 335 
 SML  HN ES       1731 16.02                             118   -0.53 8  242 335 
 SML  HN I        1731 19.51        38.8 0.12                           242 335 
 CHI  HZ EP       1730 49.43                             117    0.11 8  250 195 
 CHI  HN ES       1731 19.05                             117    0.16 8  250 195 
 CHI  HN I        1731 21.12        14.4 0.42                           250 195 
                                                                                
