 2011  614 1047 54.2 L   6.556 -73.116164.1  RSN  7 0.3 2.0LRSN                1
 GAP=162        0.75       3.9     6.4  6.3 -0.9411E+01  0.1700E+01 -0.3737E+01E
 Epicentro: SAN GIL - SANTANDER                                                3
 ACTION:UP  11-07-14 19:05 OP:ep   STATUS:               ID:20110614104754 L   I
 2011-06-14-1045-34S.COL___132                                                 6
 STAT SP IPHASW D HRMM SECON CODA AMPLIT PERI AZIMU VELO SNR AR TRES W  DIS CAZ7
 BAR2 SZ EP       1048 15.71                             177    -0.110    8 298 
 BAR2 SZ ES   1   1048 32.18                             177    -0.5 7    8 298 
 BAR2 SZ I        1048 33.11        22.2 0.21                             8 298 
 RUS  HZ EP   1   1048 18.44                             155     0.3 7   73 177 
 RUS  HN ES   1   1048 37.24                             155     0.4 7   73 177 
 RUS  HZ I        1048 39.14        29.0 0.26                            73 177 
 BRR  HZ EP   1   1048 18.45                             150     0.1 7   90 313 
 BRR  HN ES   1   1048 37.64                             150     0.4 7   90 313 
 BRR  HZ I        1048 38.25        16.4 0.18                            90 313 
 BRI  SZ EP   1   1048 21.93                             139     0.2 7  133  15 
 GRA  SZ EP       1048 23.00                             135    -0.1 9  151  13 
 GRA  SZ ES   1   1048 45.31                             135    -0.4 7  151  13 
 GRA  SZ I        1048 49.37         7.8 0.30                           151  13 
 OCA  SZ EP   1   1048 26.34                             129    -0.1 7  187 353 
 OCA  SZ ES   1   1048 52.09                             129     0.5 7  187 353 
 OCA  SZ I        1048 54.60         9.2 0.13                           187 353 
 NOR  SZ EP   1   1048 29.80                             124     0.0 6  223 241 
 NOR  SN ES   1   1048 57.22                             124    -0.4 6  223 241 
                                                                                
