 2013  714 1122  7.0 L   6.781 -73.162158.0  RSN  5 0.5 1.7LRSN                1
 GAP=181        1.25      11.2    12.6 14.9  0.6392E+02 -0.4638E+02 -0.6526E+02E
 Epicentro: LOS SANTOS - SANTANDER                                             3
 ACTION:UPD 13-08-12 10:37 OP:ep   STATUS:               ID:20130714112206 L   I
 OLDACT:UP  13-07-29 10:32 OP:ep   STATUS:               ID:20130714112206 L   3
 OLDACT:UP  13-07-25 11:36 OP:ep   STATUS:               ID:20130714112206 L   3
 OLDACT:REG 13-07-14 15:58 OP:stll STATUS:               ID:20130714111843     3
 2013-07-14-1118-43M.COL___228                                                 6
 STAT SP IPHASW D HRMM SECON CODA AMPLIT PERI AZIMU VELO AIN AR TRES W  DIS CAZ7
 BAR2 SZ EP   1   1122 28.69                             172    0.62 7 21.0 186 
 BAR2 SZ ES   1   1122 43.97                             172   -0.53 7 21.0 186 
 BAR2 SZ I        1122 45.69         5.4 0.18            174           21.0 186 
 GIR2 SZ EP       1122 28.59                             168    0.4110 33.1 354 
 BRR  HZ EP       1122 28.50                             155   -0.9610 70.7 301 
 BRR  HN ES       1122 47.36                             155    0.3810 70.7 301 
 BRR  HN I        1122 48.59        16.2 0.26            156           70.7 301 
 RUS  HN ES       1122 51.26                             147    0.0310 98.7 175 
 RUS  HN I        1122 51.92         6.2 0.34            149           98.7 175 
 PTB  HN ES   1   1122 56.66                             136    0.16 7  146 259 
                                                                                
