 2011  314 1349 29.2 L   6.803 -73.146147.3  RSN 13 0.4 3.3LRSN                1
 GAP=103        0.84       3.2     4.5  6.1 -0.1039E+00  0.8200E+01  0.8797E+00E
 Epicentro: LOS SANTOS - SANTANDER                                             3
 ACTION:UP  11-06-16 14:33 OP:jfem STATUS:               ID:20110314134929 L   I
 2011-03-14-1347-21S.COL___131                                                 6
 STAT SP IPHASW D HRMM SECON CODA AMPLIT PERI AZIMU VELO SNR AR TRES W  DIS CAZ7
 BAR2 SZ EP       1349 49.19                             170     0.210   24 190 
 BAR2 SZ ES   1   1350  4.77                             170     0.3 7   24 190 
 BAR2 SZ I        1350  5.86       711.0 0.12                            24 190 
 RUS  HZ IP     D 1349 53.05                             144    -0.110  101 176 
 RUS  HN ES   1   1350 11.70                             144    -0.1 7  101 176 
 RUS  HZ I        1350 13.69       267.4 0.50                           101 176 
 OCA  SZ EP   1   1349 57.21                             130    -0.4 7  160 353 
 OCA  SZ ES   1   1350 19.66                             130    -0.1 7  160 353 
 OCA  SZ I        1350 24.53       446.2 0.46                           160 353 
 YOP  SZ EP       1349 59.68                             126     0.3 9  179 153 
 YOP  SE ES   1   1350 22.83                             126    -0.1 7  179 153 
 YOP  SZ I        1350 30.29       128.4 0.32                           179 153 
 NOR  SZ EP   1   1350  5.17                             119     0.1 6  235 235 
 NOR  SN ES   1   1350 32.40                             119    -0.6 6  235 235 
 NOR  SZ I        1350 37.75        33.7 0.35                           235 235 
 CHI  HZ EP       1350  7.27                             117     0.3 8  249 195 
 CHI  HE ES   1   1350 36.15                             117    -0.4 6  249 195 
 CHI  HZ I        1350 40.26       247.3 0.62                           249 195 
 HEL  HZ EP   1   1350 10.38                             115     0.9 6  272 256 
 HEL  HN ES   1   1350 40.61                             115    -0.3 6  272 256 
 HEL  HZ I        1350 47.68       166.6 0.50                           272 256 
 GUY  SZ EP   1   1350 13.69                             112     0.8 5  302 235 
 GUY  SZ I        1350 56.71       423.9 0.24                           302 235 
 VIL  SZ EP   1   1350 12.71                             112     0.0 5  304 192 
 VIL  SN ES   1   1350 45.80                             112    -0.9 5  304 192 
 VIL  SZ I        1350 52.37       223.8 0.46                           304 192 
 DBB  SZ EP       1350 16.57                             110    -0.2 7  339 274 
 DBB  SZ I        1351  1.51        32.8 0.56                           339 274 
 TOL  SZ EP   1   1350 17.64                             109     0.1 5  344 225 
 SDV  BZ EP   1   1350 18.43                             108    -0.8 5  360  50 
 SDV  BZ I        1351  0.83        46.9 0.49                           360  50 
 PRA  HZ EP   1   1350 22.52                             107    -0.3 4  392 210 
 PRA  HE ES   1   1351  5.06                             107     0.4 4  392 210 
                                                                                
