 2013  314 1148 18.6 L   6.717 -73.161143.8  RSN  6 0.2 2.2LRSN                1
 GAP= 91        0.60       4.2     3.3  5.1  0.2346E+01 -0.4378E+01 -0.1264E+01E
 Epicentro: VILLANUEVA - SANTANDER                                             3
 ACTION:UPD 13-04-09 14:02 OP:ep   STATUS:               ID:20130314114818 L   I
 2013-03-14-1140-00M.COL___243                                                 6
 STAT SP IPHASW D HRMM SECON CODA AMPLIT PERI AZIMU VELO AIN AR TRES W  DIS CAZ7
 BAR2 SZ EP       1148 37.93                             174    0.0710 14.0 190 
 BAR2 SZ ES   1   1148 52.47                             174   -0.40 7 14.0 190 
 BAR2 SZ I        1148 54.08        45.6 0.26            172           14.0 190 
 BRR  HZ IP     C 1148 39.93                             151    0.1710 74.6 305 
 BRR  HE ES       1148 56.52                             151    0.2710 74.6 305 
 BRR  HE I        1148 57.32        64.5 0.15            152           74.6 305 
 PAM  SZ EP       1148 40.87                             148   -0.2810 85.6  36 
 PAM  SZ I        1148 41.21        37.2 0.21            151           85.6  36 
 RUS  HZ EP       1148 41.78                             146    0.2310 91.6 175 
 RUS  HN ES   1   1148 59.41                             146   -0.02 7 91.6 175 
 RUS  HN I        1149  2.12        21.4 0.35            145           91.6 175 
 PTB  HZ EP       1148 44.82                             132   -0.33 9  145 262 
 PTB  HN ES       1149  5.79                             132   -0.05 9  145 262 
 PTB  HZ I        1149  8.79        11.1 0.11            133            145 262 
 TAM  HZ EP   1   1148 46.31                             130    0.21 7  155 102 
                                                                                
