 2012 1114 1117 34.9 L   6.798 -73.137139.4  RSN 15 0.5 2.6LRSN 3.1WRSN        1
 SPEC AVERAGE  MO 13.7 ST 21.9 OM  2.4 f0 5.68 R0.2805 AL 2.91 WI 28.0 MW  3.1 3
 SPEC SD       MO  0.2 ST 26.7 OM  0.5 f0 1.80 R0.0697 AL      WI      MW  0.2 3
 GAP=138        1.16       3.6     5.7  6.3  0.1458E+00  0.1424E+02  0.4474E+01E
 Epicentro: LOS SANTOS - SANTANDER                                             3
 SPEC ZAR HH N MO 13.9 ST 74.1 OM  2.1 f0 9.03 R0.1628 AL 4.12 WI 35.0 MW  3.2 3
 SPEC ZAR HH N T111831 K 0.000 GD  247 VS 4.20 DE 3.00 Q0230.0 QA 0.60 VS 4.20 3
 SPEC RUS HH N MO 13.4 ST  2.6 OM  1.8 f0 4.23 R0.3475 AL 2.51 WI 11.7 MW  2.9 3
 SPEC RUS HH N T111815 K 0.000 GD  171 VS 4.20 DE 3.00 Q0230.0 QA 0.60 VS 4.20 3
 SPEC HEL HH N MO 13.5 ST  3.0 OM  1.6 f0 4.26 R0.3451 AL 2.02 WI 44.0 MW  2.9 3
 SPEC HEL HH N T111835 K 0.000 GD  306 VS 4.20 DE 3.00 Q0230.0 QA 0.60 VS 4.20 3
 SPEC OCA HH N MO 14.0 ST 15.7 OM  2.3 f0 4.86 R0.3025 AL 2.25 WI 23.6 MW  3.3 3
 SPEC OCA HH N T111822 K 0.000 GD  212 VS 4.20 DE 3.00 Q0230.0 QA 0.60 VS 4.20 3
 SPEC BRR HH N MO 13.7 ST 13.8 OM  2.1 f0 6.01 R0.2446 AL 3.65 WI 25.6 MW  3.1 3
 SPEC BRR HH N T111812 K 0.000 GD  156 VS 4.20 DE 3.00 Q0230.0 QA 0.60 VS 4.20 3
 ACTION:UPD 12-12-05 15:33 OP:}ep  STATUS:               ID:20121114111735 L   I
 2012-11-14-1110-00M.COL___230                                                 6
 STAT SP IPHASW D HRMM SECON CODA AMPLIT PERI AZIMU VELO AIN AR TRES W  DIS CAZ7
 BAR2 SZ IP     C 1117 53.89                             170    0.1010 23.4 192 
 BAR2 SZ ES       1118  8.79                             170    0.2810 23.4 192 
 BAR2 SZ I        1118 10.52        65.7 0.18                          23.4 192 
 GIR2 SZ IP     D 1117 54.07                             167    0.2210 31.6 349 
 GIR2 SZ ES       1118  8.95                             167    0.3410 31.6 349 
 BRR  HZ IP     D 1117 55.88                             151    0.4310 72.1 298 
 BRR  HN I        1118 17.09        87.2 0.16                          72.1 298 
 PAM  SZ EP       1117 56.82                             150    0.3810 76.9  39 
 PAM  SZ I        1117 56.99        38.6 0.28                          76.9  39 
 PAM  SN ES       1118 13.20                             150   -0.0210 76.9  39 
 RUS  HZ EP       1117 57.80                             142   -0.2410  100 177 
 RUS  HN ES       1118 15.79                             142   -0.2810  100 177 
 PTB  HZ EP   1   1118  0.64                             130   -0.83 7  149 259 
 PTB  HN ES   1   1118 21.50                             130   -0.67 7  149 259 
 OCA  HN ES       1118 23.63                             128   -0.87 9  161 353 
 OCA  HN I        1118 28.96       123.0 0.40                           161 353 
 ZAR  HE ES       1118 32.47                             121    0.33 9  205 292 
 SML  HZ EP       1118 10.54                             116   -0.73 8  244 335 
 CHI  HZ EP       1118 11.81                             116   -0.48 8  249 195 
 CHI  HN ES       1118 40.70                             116   -0.74 8  249 195 
 CHI  HN I        1118 43.03        14.4 0.28                           249 195 
 ROSC BZ EP   1   1118 13.25                             115    0.50 6  253 211 
 HEL  HZ EP       1118 15.80                             113    0.87 8  273 256 
 HEL  HN I        1118 52.28        12.7 0.32                           273 256 
 GUY  SZ EP   1   1118 19.55                             111    0.95 5  304 235 
 GUY  SN I        1118 59.12       101.6 0.50                           304 235 
 RREF HZ EP   1   1118 21.11                             110    0.23 5  322 230 
 SJA  SZ EP       1118 29.98                             105    0.70 6  400 193 
                                                                                
