 2014  214 1255 14.1 L   6.731 -73.202150.0  RSN  6 0.4 1.7LRSN                1
 GAP=132        0.81       4.3     4.5  7.6 -0.4534E+01  0.9962E+01 -0.1397E+02E
 Epicentro: VILLANUEVA - SANTANDER                                             3
 ACTION:UPD 14-03-10 08:10 OP:ep   STATUS:               ID:20140214125514 L   I
 OLDACT:UP  14-02-14 17:58 OP:mh   STATUS:               ID:20140214125000     3
 OLDACT:REG 14-02-14 14:41 OP:mh   STATUS:               ID:20140214125000     3
 2014-02-14-1250-00M.COL___291                                                 6
 STAT SP IPHASW D HRMM SECON CODA AMPLIT PERI AZIMU VELO AIN AR TRES W  DIS CAZ7
 BAR2 SZ EP       1255 34.12                             174   -0.0310 15.5 172 
 BAR2 SZ ES   1   1255 50.23                             174    0.47 7 15.5 172 
 BAR2 SZ I        1255 51.17        15.1 0.15            174           15.5 172 
 PAM  SZ EP       1255 37.30                             149   -0.1010 87.2  39 
 PAM  SN ES   1   1255 55.07                             149   -0.48 7 87.2  39 
 RUS  HZ EP   1   1255 38.44                             147    0.62 7 93.6 172 
 RUS  HN ES       1255 56.17                             147   -0.1310 93.6 172 
 RUS  HZ I        1255 59.65         2.5 0.09            149           93.6 172 
 PTB  HZ EP   1   1255 41.10                             134    0.31 7  140 261 
 PTB  HN ES       1256  1.75                             134    0.16 9  140 261 
 PTB  HZ I        1256  4.76         4.1 0.15            136            140 261 
 ZAR  HN ES   4   1256 14.53                             124    2.62 0  201 295 
 NOR  HN ES   1   1256 15.39                             120   -1.00 6  225 235 
 SML  HZ EP       1255 51.39                             118   -0.09 8  248 337 
 SML  HN ES   1   1256 20.81                             118    0.19 6  248 337 
 SML  HZ I        1256 22.90         9.8 0.06            120            248 337 
                                                                                
