 2016  314 1318  5.7 L   6.810 -73.180146.0  RSN  6 0.2 1.5LRSN                1
 GAP=144        0.50       2.4     2.8  3.6 -0.2261E+01  0.1579E+01  0.1144E+01E
 Epicentro: ZAPATOCA - SANTANDER                                               3
 ACTION:UPD 16-05-13 21:24 OP:cam  STATUS:               ID:20160314131805 L   I
 OLDACT:DUP 16-03-14 22:47 OP:cara STATUS:               ID:20160314130751d    3
 OLDACT:REG 16-03-14 20:23 OP:cara STATUS:               ID:20160314130750     3
 2016-03-14-1307-50M.COL___312                                                 6
 STAT SP IPHASW D HRMM SECON CODA AMPLIT PERI AZIMU VELO AIN AR TRES W  DIS CAZ7
 BAR2 EZ IP       1318 25.37                             170   -0.0410 24.0 181 
 BAR2 EZ ES       1318 40.61                             170   -0.1510 24.0 181 
 BAR2 EZ I        1318 41.51         8.3 0.24            169           24.0 181 
 PAM  EZ IP       1318 28.39                             150    0.3110 79.0  42 
 PAM  EN ES       1318 45.45                             150   -0.0510 79.0  42 
 PAM  EZ I        1318 46.87         4.6 0.16            154           79.0  42 
 RUS  HZ EP       1318 29.64                             144    0.0210  102 174 
 RUS  HN ES       1318 48.29                             144    0.0510  102 174 
 RUS  HZ I        1318 49.56         4.1 0.42            144            102 174 
 PTB  HZ EP       1318 32.24                             133   -0.17 9  144 258 
 PTB  HN ES       1318 53.34                             133    0.12 9  144 258 
 PTB  HZ I        1319  0.06         4.3 0.18            131            144 258 
 CHI  HZ EP       1318 43.15                             117   -0.31 8  249 194 
 CHI  HN ES       1319 13.04                             117    0.16 8  249 194 
 CHI  HZ I        1319 18.12         2.6 0.32            118            249 194 
 GUY2CHZ EP   9   1318 50.05                             113    0.97 0  299 234 
 GUY2CHN ES       1319 24.24                                    0.38 7  299 234 
 GUY2CHZ I        1319 31.66         1.9 0.44                           299 234 
                                                                                
