 2015 1214 1520 30.5 L   6.816 -73.147150.0  RSN 16 0.5 2.3LRSN                1
 GAP=119        0.97       3.2     4.1  5.2 -0.2540E+01  0.5717E+01  0.8757E+00E
 Epicentro: LOS SANTOS - SANTANDER                                             3
 ACTION:UPD 16-02-04 15:04 OP:cam  STATUS:               ID:20151214152030 L   I
 OLDACT:UP  15-12-15 00:49 OP:ar   STATUS:               ID:20151214151747     3
 OLDACT:REG 15-12-14 20:52 OP:ar   STATUS:               ID:20151214151747     3
 2015-12-14-1517-47M.COL___334                                                 6
 STAT SP IPHASW D HRMM SECON CODA AMPLIT PERI AZIMU VELO AIN AR TRES W  DIS CAZ7
 BAR2 EZ EP       1520 50.49                             170   -0.1610 25.1 189 
 BAR2 EZ ES       1521  5.96                             170   -0.4210 25.1 189 
 BAR2 EZ I        1521  8.03        36.1 0.32            169           25.1 189 
 BRR  HZ EP     C 1520 52.32                             154    0.2910 70.2 297 
 BRR  HN ES       1521  9.26                             154    0.4210 70.2 297 
 BRR  HZ I        1521 12.66        44.5 0.46            150           70.2 297 
 PAM  EZ EP       1520 53.60                             152    0.5410 76.1  40 
 PAM  EN ES       1521 10.92                             152    0.2310 76.1  40 
 PAM  EZ I        1521 13.37        13.6 0.16            155           76.1  40 
 RUS  HZ EP       1520 54.74                             144   -0.0310  102 176 
 RUS  HN ES       1521 13.51                             144   -0.2110  102 176 
 RUS  HZ I        1521 14.24        23.5 0.24            146            102 176 
 PTB  HZ EP       1520 57.40                             133   -0.41 9  148 258 
 PTB  HN ES       1521 18.86                             133   -0.27 9  148 258 
 PTB  HZ I        1521 20.41        24.9 0.15            131            148 258 
 OCA  HN ES   2   1521 20.01                             131   -1.15 5  158 353 
 OCA  HZ I        1521 29.00        38.2 0.20            131            158 353 
 SPBC HZ EP       1520 59.74                             130    0.32 9  164 219 
 SPBC HN ES       1521 22.43                             130    0.43 9  164 219 
 SPBC HZ I        1521 28.52        31.8 0.26            130            164 219 
 ZAR  HZ EP   2   1521  3.87                             124    0.76 4  203 292 
 ZAR  HN ES   2   1521 28.11                             124   -0.46 4  203 292 
 ZAR  HZ I        1521 34.91        18.6 0.12            123            203 292 
 NOR  HZ EP       1521  6.68                             119    0.13 8  236 234 
 NOR  HN ES   2   1521 35.02                             119    0.33 4  236 234 
 NOR  HZ I        1521 39.23        16.1 0.24            119            236 234 
 SML  HZ EP   2   1521  7.45                             119    0.30 4  242 335 
 SML  HN ES       1521 35.66                             119   -0.11 8  242 335 
 SML  HZ I        1521 39.38        22.1 0.10            119            242 335 
 ROSC BZ EP   4   1521 11.17                             117    2.19 0  254 211 
 ROSC BN ES   4   1521 42.46                             117    3.44 0  254 211 
 ROSC BZ I        1521 45.19        28.5 0.35            118            254 211 
 HEL  HZ EP       1521  9.89                             116   -1.04 8  272 255 
 HEL  HN ES   2   1521 43.19                             116    0.69 4  272 255 
 HEL  HZ I        1521 49.93        11.8 0.22            115            272 255 
 SOCV BZ EP   2   1521 12.44                             113   -1.18 4  300  57 
 SOCV BN ES   4   1521 45.10                             113   -2.17 0  300  57 
 GUY2CHZ EP       1521 14.57                             113    0.19 7  302 234 
 GUY2CHN ES   4   1521 51.72                             113    3.09 0  302 234 
 GUY2CHZ I        1521 58.29         8.5 0.22                           302 234 
 ELA  HZ EP   9   1521 19.39                             111    1.77 0  330 229 
 ELA  HN ES       1521 57.10                             110    0.93 7  330 229 
 ELA  HZ I        1522  2.22         7.2 0.40            111            330 229 
 PRA  HZ EP   2   1521 25.31                             107    1.00 3  394 209 
 PRA  HN ES       1522  5.80                             107   -0.51 6  394 209 
 PRA  HZ I        1522 11.07        10.6 0.54            108            394 209 
                                                                                
