 2012 1014 1820 38.3 L   6.829 -73.108142.0  RSN 14 0.5 2.7LRSN                1
 GAP=140        0.98       4.4     4.9  6.0  0.1326E+01  0.1224E+02  0.1046E+02E
 Epicentro: LOS SANTOS - SANTANDER                                             3
 ACTION:UPD 12-11-22 17:03 OP:ep   STATUS:               ID:20121014182038 L   I
 2012-10-14-1820-00M.COL___230                                                 6
 STAT SP IPHASW D HRMM SECON CODA AMPLIT PERI AZIMU VELO AIN AR TRES W  DIS CAZ7
 BAR2 SZ EP       1820 57.39                             169   -0.2110 27.4 198 
 BAR2 SZ ES   1   1821 12.55                             169   -0.08 7 27.4 198 
 BAR2 SZ I        1821 13.38        89.0 0.28                          27.4 198 
 GIR2 SZ EP   1   1820 57.30                             168   -0.20 7 29.2 341 
 GIR2 SZ ES   1   1821 12.53                             168    0.08 7 29.2 341 
 PAM  SZ EP       1821  0.00                             152    0.1510 72.3  39 
 PAM  SE ES       1821 16.82                             152    0.2010 72.3  39 
 PAM  SN I        1821 18.10       130.4 0.45                          72.3  39 
 BRR  HZ EP       1820 59.11                             151   -0.1010 73.5 295 
 BRR  HN ES       1821 15.99                             151    0.5010 73.5 295 
 BRR  HN I        1821 16.83       266.2 0.34                          73.5 295 
 RUS  HZ EP       1821  1.47                             142   -0.4710  104 178 
 RUS  HE ES   1   1821 19.95                             142   -0.39 7  104 178 
 RUS  HN I        1821 21.89        48.0 0.29                           104 178 
 ZAR  HZ EP   1   1821  9.95                             121   -0.87 6  207 291 
 ZAR  HE ES   1   1821 35.40                             121   -0.76 6  207 291 
 ZAR  HN I        1821 42.75        64.1 0.18                           207 291 
 NOR  SZ EP   1   1821 14.72                             117    0.30 6  240 234 
 NOR  SN I        1821 42.51        43.5 0.17                           240 234 
 CHI  HZ EP   1   1821 16.23                             116   -0.06 6  253 196 
 CHI  HN ES   1   1821 45.69                             116   -0.19 6  253 196 
 CHI  HN I        1821 47.53        28.5 0.38                           253 196 
 ROSC BZ EP   1   1821 17.54                             115    0.75 6  258 211 
 HEL  HZ EP       1821 19.71                             114    0.81 7  277 255 
 HEL  HN I        1821 56.40        17.3 0.20                           277 255 
 GUY  SZ EP   1   1821 23.66                             111    1.03 5  309 235 
 GUY  SN ES   1   1821 57.62                             111    0.43 5  309 235 
 RREF HZ EP   1   1821 26.01                             110    1.09 5  327 229 
 RREF HZ I        1822  9.91        15.1 0.30                           327 229 
 DBB  SZ EP   1   1821 25.67                             108   -0.45 5  343 274 
 DBB  SZ ES   1   1822  2.23                             108   -1.16 5  343 274 
 DBB  SZ I        1822  5.54        22.4 0.59                           343 274 
 PRA  HZ EP   1   1821 31.75                             106   -0.55 4  397 210 
 PRA  HN I        1822 19.59        11.2 0.37                           397 210 
                                                                                
