 2013  514 1754 37.8 L   6.784 -73.122149.8  RSN  9 0.4 2.0LRSN                1
 GAP=140        0.81       4.2     5.0  6.1 -0.7209E+01  0.5324E+01  0.7441E+01E
 Epicentro: LOS SANTOS - SANTANDER                                             3
 ACTION:UPD 13-06-20 09:50 OP:ep   STATUS:               ID:20130514175437 L   I
 2013-05-14-1750-00M.COL___256                                                 6
 STAT SP IPHASW D HRMM SECON CODA AMPLIT PERI AZIMU VELO AIN AR TRES W  DIS CAZ7
 BAR2 SZ EP   1   1754 57.85                             171   -0.05 7 22.2 197 
 BAR2 SZ ES   1   1755 13.50                             171   -0.08 7 22.2 197 
 BAR2 SZ I        1755 15.51        22.7 0.28            168           22.2 197 
 GIR2 SZ EP   1   1754 57.96                             167   -0.06 7 33.5 346 
 GIR2 SZ ES   1   1755 14.16                             167    0.37 7 33.5 346 
 GIR2 SZ I        1755 14.25         9.6 0.12            167           33.5 346 
 BRR  HZ EP   1   1754 59.96                             152    0.39 7 74.3 299 
 BRR  HN ES   1   1755 17.11                             152    0.56 7 74.3 299 
 BRR  HN I        1755 17.48        53.1 0.28            150           74.3 299 
 PAM  SZ EP       1755  0.55                             151    0.1110 77.1  37 
 PAM  SN ES   1   1755 17.96                             151   -0.14 7 77.1  37 
 PAM  SZ I        1755 19.98        14.8 0.18            156           77.1  37 
 RUS  HZ EP   1   1755  1.66                             145   -0.17 7 98.7 177 
 RUS  HN ES   1   1755 20.08                             145   -0.48 7 98.7 177 
 RUS  HZ I        1755 21.61         8.8 0.46            145           98.7 177 
 PTB  HZ EP   1   1755  4.60                             132   -0.71 7  150 260 
 PTB  HN ES   1   1755 25.96                             132   -0.80 7  150 260 
 PTB  HZ I        1755 31.66        16.1 0.20            131            150 260 
 NOR  HZ EP       1755 13.87                             119   -0.02 8  236 235 
 NOR  HN ES   1   1755 42.11                             119    0.07 6  236 235 
 NOR  HZ I        1755 50.05         9.1 0.16            119            236 235 
 CHI  HN ES   1   1755 45.43                             118    0.31 6  248 196 
 PRA  HE ES       1756 14.19                             107    0.91 6  392 210 
 PRA  HZ I        1756 19.56         5.8 0.34            107            392 210 
                                                                                
