 2010  414 1157 38.4 L   6.989 -72.918158.8  RSN  4 0.3 2.0LRSN                1
 GAP=270        0.49      17.0    14.6 10.7  0.1625E+03 -0.5004E+02 -0.1076E+03E
 Epicentro: SANTA BARBARA - SANTANDER                                          3
 ACTION:UPD 10-08-24 09:59 OP:vdl  STATUS:               ID:20100414115738 L   I
 2010-04-14-1153-39S.COL___097                                                 6
 STAT SP IPHASW D HRMM SECON CODA AMPLIT PERI AZIMU VELO AIN AR TRES W  DIS CAZ7
 BAR2 SZ EP   2   1158  0.84                             161     0.4 5   53 214 
 BAR2 SZ ES   2   1158 17.19                             161    -0.5 5   53 214 
 BRR  HZ EP   2   1158  1.99                             149     0.0 5   89 279 
 BRR  HZ I        1158  3.66        18.5 0.11                            89 279 
 BRR  HE ES   2   1158 20.59                             149     0.2 5   89 279 
 HEL  HN ES   3   1158 57.04                             115     0.0 2  302 253 
 HEL  HZ I        1159  0.59         4.5 0.46                           302 253 
 MON  HZ EP   2   1158 28.45                             110    -0.4 3  361 303 
 MON  HZ I        1158 40.56         2.4 0.39                           361 303 
 MON  HE ES   3   1159  7.93                             110    -0.2 2  361 303 
                                                                                
