 2015  514 1107  5.9 L   6.335 -73.675102.0  RSN  6 0.3 1.5LRSN                1
 GAP=104        0.77       2.5     3.6  6.1  0.8079E+00  0.9197E+01 -0.4413E+01E
 Epicentro: SANTA HELENA DEL OPON - SANTANDER                                  3
 ACTION:UPD 15-09-10 22:03 OP:cam  STATUS:               ID:20150514110705 L   I
 OLDACT:REG 15-05-14 20:13 OP:drio STATUS:               ID:20150514105749     3
 2015-05-14-1057-49M.COL___279                                                 6
 STAT SP IPHASW D HRMM SECON CODA AMPLIT PERI AZIMU VELO AIN AR TRES W  DIS CAZ7
 BAR2 EZ EP       11 7 22.28                             146    0.1510 61.5  62 
 BAR2 EZ ES       11 7 34.62                             146   -0.2110 61.5  62 
 BAR2 EZ I        11 7 36.54        11.2 0.20            146           61.5  62 
 RUS  HZ EP       11 7 24.25                             138    0.2510 81.8 127 
 RUS  HN ES       11 7 38.04                             138   -0.1210 81.8 127 
 RUS  HZ I        11 7 41.77         3.8 0.48            139           81.8 127 
 BRR  HZ EP       11 7 23.47                             136   -0.1510 85.4 357 
 BRR  HN ES       11 7 37.83                             136    0.3610 85.4 357 
 SPBC HZ EP       11 7 24.42                             136    0.5110 87.4 210 
 SPBC HN ES       11 7 37.55                             136   -0.4410 87.4 210 
 SPBC HZ I        11 7 40.76         7.1 0.18            137           87.4 210 
 ZAR  HZ EP       11 7 33.34                             113   -0.15 9  183 314 
 ZAR  HN ES       11 7 55.27                             113    0.22 9  183 314 
 SML  HZ EP       11 7 43.84                             104   -0.43 7  276 351 
 SML  HN ES       11 8 13.97                             104   -0.27 7  276 351 
 SML  HZ I        11 8 23.97         3.5 0.10            104            276 351 
                                                                                
