 2017  814 1014  8.4 L   6.773 -73.141145.4  RSN  5 0.1 1.2LRSN                1
 GAP=236        0.41       2.6     3.1  3.5  0.4048E+01  0.2629E+01  0.2124E+01E
 Epicentro: LOS SANTOS - SANTANDER                                             3
 ACTION:UPD 17-09-04 20:20 OP:rebc STATUS:               ID:20170814101408 L   I
 OLDACT:DUP 17-08-14 21:49 OP:lv   STATUS:               ID:20170814100738d    3
 2017-08-14-1008-00M.COL___407                                                 6
 STAT SP IPHASW D HRMM SECON CODA AMPLIT PERI AZIMU VELO AIN AR TRES W  DIS CAZ7
 BAR2 EZ EP       1014 27.89                             172   -0.0510 20.6 193 
 BAR2 EZ ES       1014 43.27                             172    0.0910 20.6 193 
 BAR2 EZ I        1014 45.75         3.2 0.23            171           20.6 193 
 BRR  HN ES       1014 46.16                             152   -0.0210 73.1 300 
 RUS  HZ EP       1014 31.75                             145   -0.1610 97.6 176 
 RUS  HN ES       1014 50.27                             145    0.0310 97.6 176 
 RUS  HZ I        1014 51.75         1.5 0.21            147           97.6 176 
 SPBC HZ EP       1014 36.99                             129    0.29 9  161 220 
 SPBC HN ES       1014 58.64                             129   -0.12 9  161 220 
 SPBC HZ I        1015  0.38         3.4 0.17            129            161 220 
 ZAR  HN ES       1015  6.39                             122   -0.03 8  206 293 
 ZAR  HZ I        1015 15.16         2.1 0.07            121            206 293 
                                                                                
