 2011  814 1326  4.6 L   6.813 -73.044138.8  RSN  4 0.2 1.6LRSN                1
 GAP=193        0.56       5.2    11.2  7.2  0.4139E+02 -0.4917E+02 -0.2371E+02E
 Epicentro: LOS SANTOS - SANTANDER                                             3
 ACTION:UPD 12-07-13 15:51 OP:ep   STATUS:               ID:20110814132604 L   I
 2011-08-14-1324-31S.COL___150                                                 6
 STAT SP IPHASW D HRMM SECON CODA AMPLIT PERI AZIMU VELO AIN AR TRES W  DIS CAZ7
 BAR2 SZ EP       1326 23.68                             168    0.1110 28.8 212 
 BAR2 SZ ES   1   1326 37.98                             168   -0.35 7 28.8 212 
 BAR2 SZ I        1326 43.34         6.3 0.32                          28.8 212 
 BRR  HZ EP       1326 25.39                             148   -0.2410 80.6 294 
 BRR  HZ I        1326 26.87        15.6 0.12                          80.6 294 
 BRR  HN ES   1   1326 42.23                             148    0.23 7 80.6 294 
 RUS  HZ EP       1326 27.71                             142   -0.1110  102 182 
 RUS  HZ I        1326 28.91         4.0 0.14                           102 182 
 RUS  HN ES   1   1326 46.21                             142    0.32 7  102 182 
 OCA  SZ EP       1326 32.61                             128    0.16 9  161 349 
                                                                                
