 2011  114 1001 33.0 L   6.736 -72.933145.4  RSN  5 0.3 1.7LRSN                1
 GAP=227        0.65       6.4    29.9  9.6 -0.6544E+02 -0.3099E+02  0.1015E+02E
 Epicentro: CEPITA - SANTANDER                                                 3
 ACTION:UP  11-02-08 08:40 OP:pat  STATUS:               ID:20110114100133 L   I
 2011-01-14-1000-00M.COL___137                                                 6
 STAT SP IPHASW D HRMM SECON CODA AMPLIT PERI AZIMU VELO SNR AR TRES W  DIS CAZ7
 BAR2 SZ IP     D 10 1 52.48                             167    -0.310   32 240 
 BAR2 SZ ES   2   10 2  7.89                             167    -0.4 5   32 240 
 BAR2 SZ I        10 2  9.29        17.2 0.45                            32 240 
 BTL  SZ EP   1   10 1 53.39                             162     0.3 7   42 299 
 GIR2 SZ EP   1   10 1 53.58                             160     0.4 7   48 323 
 RUS  HZ EP   1   10 1 56.33                             145     0.0 7   95 190 
 RUS  HN ES   2   10 2 14.74                             145     0.3 5   95 190 
 RUS  HZ I        10 2 16.33         8.5 0.34                            95 190 
 CHI  HZ EP   1   10 2 10.52                             117    -0.2 6  249 201 
 CHI  HZ I        10 2 13.14         2.4 0.41                           249 201 
 CHI  HE ES   2   10 2 40.47                             117     0.3 4  249 201 
                                                                                
