 2016 1214 1636  6.1 L   5.963 -74.199  4.0  RSN  4 0.4 1.7LRSN                1
 GAP=242        1.08       7.7     5.6 10.1  0.3466E+02 -0.3694E+02 -0.5359E+02E
 Epicentro: LA BELLEZA - SANTANDER                                             3
 ACTION:UPD 17-01-11 20:15 OP:rebc STATUS:               ID:20161214163613 L   I
 OLDACT:UP  16-12-15 19:23 OP:rebc STATUS:               ID:20161214163613 L   3
 OLDACT:UPD 16-12-15 17:58 OP:nlst STATUS:               ID:20161214163613 L   3
 2016-12-14-1627-00M.COL___361                                                 6
 STAT SP IPHASW D HRMM SECON CODA AMPLIT PERI AZIMU VELO AIN AR TRES W  DIS CAZ7
 PTB  HZ EP       1636 17.08                              47   -0.2310 69.8 336 
 PTB  HN ES       1636 25.70                              47   -0.3310 69.8 336 
 PTB  HZ I        1636 25.90        60.2 0.10             47           69.8 336 
 RUS  HZ EP       1636 26.10                              47    0.1210  124  94 
 RUS  HN ES       1636 40.87                              47   -0.6010  124  94 
 BAR2 EZ EP       1636 27.39                              47    0.3910  132  58 
 BAR2 EZ ES       1636 43.31                              47    0.0310  132  58 
 BAR2 EZ I        1636 44.79         7.6 0.64             47            132  58 
 BRR  HZ EP       1636 28.40                              47    0.85 9  137  23 
 BRR  HE ES       1636 44.11                              47   -0.14 9  137  23 
                                                                                
