 2010  814 1447 57.8 L   5.842 -73.826114.7  RSN  7 0.3 1.8LRSN                1
 GAP=121        0.68       3.6     4.6  9.6 -0.4534E+01  0.2032E+02  0.4954E+01E
 Epicentro: JESUS MARIA - SANTANDER                                            3
 ACTION:UP  10-09-07 10:54 OP:vdl  STATUS:               ID:20100814144757 L   I
 2010-08-14-1446-24S.COL___110                                                 6
 STAT SP IPHASW D HRMM SECON CODA AMPLIT PERI AZIMU VELO SNR AR TRES W  DIS CAZ7
 RUS  HZ EP       1448 17.39                             143     0.210   82  86 
 RUS  HZ I        1448 17.59         5.9 0.32                            82  86 
 RUS  HN ES   2   1448 31.62                             143    -0.7 5   82  86 
 BAR2 SZ EP       1448 19.39                             134     0.310  109  41 
 BAR2 SZ ES   1   1448 35.62                             134     0.0 7  109  41 
 BAR2 SZ I        1448 37.19        30.1 0.53                           109  41 
 BTL  SZ EP       1448 21.47                             127     0.110  134  27 
 BRR  HZ EP       1448 21.40                             126    -0.3 9  140   5 
 BRR  HZ I        1448 22.15        19.0 0.12                           140   5 
 BRR  HN ES   1   1448 40.33                             126     0.0 7  140   5 
 HEL  HZ EP   1   1448 27.31                             117    -0.3 7  192 282 
 HEL  HN ES   2   1448 51.48                             117     0.6 4  192 282 
 HEL  HZ I        1448 53.52         7.8 0.38                           192 282 
 GUE  SZ EP   1   1448 32.94                             111    -0.1 6  241  24 
 GUE  SZ I        1449  3.60         2.8 0.20                           241  24 
 PRA  HZ EP   1   1448 35.04                             109    -0.2 6  263 207 
 PRA  HN ES   1   1449  4.44                             109     0.1 6  263 207 
 PRA  HZ I        1449  9.75         5.1 0.23                           263 207 
                                                                                
