 2013 1014 1920 33.5 L   6.808 -73.132144.8  RSN 14 0.6 2.8LRSN                1
 GAP= 71        1.37       3.7     3.8  6.6 -0.1134E+01  0.6351E+01 -0.1429E+01E
 Epicentro: LOS SANTOS - SANTANDER                                             3
 ACTION:UPD 13-11-25 09:21 OP:ep   STATUS:               ID:20131014192033 L   I
 OLDACT:UP  13-10-14 17:43 OP:cam  STATUS:               ID:20131014191959     3
 OLDACT:REG 13-10-14 16:06 OP:cam  STATUS:               ID:20131014191959     3
 2013-10-14-1919-59M.COL___273                                                 6
 STAT SP IPHASW D HRMM SECON CODA AMPLIT PERI AZIMU VELO AIN AR TRES W  DIS CAZ7
 BAR2 SZ EP       1920 53.06                             170    0.0210 24.5 193 
 BAR2 SZ ES       1921  7.84                             170   -0.4410 24.5 193 
 BAR2 SZ I        1921  9.04       248.1 0.22            172           24.5 193 
 BRR  HZ IP       1920 55.01                             152    0.4110 72.1 297 
 BRR  HN ES       1921 11.89                             152    0.8410 72.1 297 
 BRR  HZ I        1921 15.09        86.4 0.20            150           72.1 297 
 PAM  SZ IP     C 1920 55.97                             151    0.4510 75.7  39 
 PAM  SN ES       1921 12.83                             151    0.1410 75.7  39 
 PAM  SZ I        1921 15.31       132.0 0.42            152           75.7  39 
 RUS  HZ EP       1920 56.98                             143   -0.2410  101 177 
 RUS  HN ES       1921 15.07                             143   -0.6410  101 177 
 RUS  HZ I        1921 16.37        67.2 0.24            147            101 177 
 PTB  HZ EP       1920 59.77                             131   -0.77 9  149 259 
 PTB  HN ES       1921 20.89                             131   -0.74 9  149 259 
 PTB  HZ I        1921 26.10        60.9 0.14            132            149 259 
 TAM  HZ EP       1921  1.48                             130    0.48 9  154 105 
 TAM  HN ES       1921 23.03                             130    0.60 9  154 105 
 TAM  HZ I        1921 23.46        64.0 0.24            135            154 105 
 OCA  HZ EP       1921  1.33                             129   -0.35 9  160 353 
 OCA  HN ES       1921 23.12                             129   -0.53 9  160 353 
 OCA  HZ I        1921 29.18        94.8 0.30            130            160 353 
 SPBC HZ EP       1921  2.11                             128    0.02 9  165 219 
 SPBC HE ES       1921 23.94                             128   -0.44 9  165 219 
 SPBC HZ I        1921 26.51        89.2 0.20            130            165 219 
 ZAR  HZ EP       1921  6.19                             122    0.19 9  205 292 
 ZAR  HN ES       1921 32.19                             122    0.85 9  205 292 
 ZAR  HZ I        1921 37.04       115.1 0.60            122            205 292 
 NOR  HZ EP       1921  9.53                             118    0.16 8  236 234 
 NOR  HN ES       1921 37.12                             118   -0.21 8  236 234 
 NOR  HZ I        1921 41.00        46.6 0.50            120            236 234 
 SML  HZ EP       1921  9.19                             117   -0.87 8  244 335 
 SML  HN ES       1921 38.37                             117   -0.20 8  244 335 
 SML  HZ I        1921 46.78        64.7 0.26            118            244 335 
 CHI  HZ EP   4   1921 11.46                             117    0.17 0  250 195 
 HEL  HZ EP       1921 14.71                             114    0.85 8  274 256 
 HEL  HN ES       1921 46.44                             114    1.12 8  274 256 
 HEL  HZ I        1921 52.20        33.3 0.38            115            274 256 
 URE  HZ EP   4   1921 13.27                             113   -1.38 0  285 292 
 GUY2CHZ EP       1921 17.56                             112    0.29 7  303 235 
 CBOC HZ EP   4   1921 21.21                             109    0.63 0  335 252 
 SJC  HZ EP       1921 27.83                             105   -1.22 6  409 327 
                                                                                
