 2017  314 1024 44.7 L   6.798 -73.133140.1  RSN 10 0.4 1.8LRSN                1
 GAP=100        0.85       3.7     3.2  5.5 -0.8624E+00  0.1182E+01  0.4537E+00E
 Epicentro: LOS SANTOS - SANTANDER                                             3
 ACTION:UPD 17-05-25 18:40 OP:jn   STATUS:               ID:20170314102444 L   I
 OLDACT:UP  17-03-14 22:40 OP:dnl  STATUS:               ID:20170314101741     3
 OLDACT:REG 17-03-14 20:26 OP:dnl  STATUS:               ID:20170314101741     3
 2017-03-14-1018-00M.COL___379                                                 6
 STAT SP IPHASW D HRMM SECON CODA AMPLIT PERI AZIMU VELO AIN AR TRES W  DIS CAZ7
 BAR2 EZ EP       1025  3.50                             170   -0.1610 23.4 193 
 BAR2 EZ ES       1025 17.91                             170   -0.5310 23.4 193 
 BAR2 EZ I        1025 19.63        21.1 0.18            169           23.4 193 
 BRR  HZ IP     C 1025  5.25                             151   -0.0810 72.5 298 
 BRR  HN ES       1025 21.92                             151    0.5110 72.5 298 
 BRR  HZ I        1025 25.74        10.2 0.18            150           72.5 298 
 PAM  EZ EP       1025  6.37                             150    0.0810 76.7  39 
 PAM  EE ES       1025 23.37                             150    0.2610 76.7  39 
 PAM  EZ I        1025 25.16        18.7 0.50            154           76.7  39 
 RUS  HZ EP   2   1025  7.65                             143   -0.23 5  100 177 
 RUS  HE ES       1025 26.09                             143    0.1310  100 177 
 PTB  HZ EP       1025 10.87                             131   -0.47 9  149 259 
 PTB  HE ES       1025 31.81                             131   -0.31 9  149 259 
 PTB  HZ I        1025 38.34         6.7 0.32            130            149 259 
 TAM  HZ EP       1025 11.87                             130    0.06 9  154 105 
 SPBC HZ EP   2   1025 12.58                             128   -0.27 5  164 219 
 SPBC HN ES       1025 35.34                             128    0.55 9  164 219 
 SPBC HZ I        1025 41.12         6.2 0.26            128            164 219 
 ZAR  HZ EP   4   1025 18.00                             121    1.06 0  205 292 
 ZAR  HE ES       1025 41.97                             121   -0.10 8  205 292 
 ZAR  HZ I        1025 46.95         9.3 0.38            122            205 292 
 URE  HZ EP   4   1025 27.57                             112    1.90 0  285 292 
 URE  HN ES   4   1025 53.78                             112   -3.83 0  285 292 
 URE  HZ I        1025 58.52         5.0 0.14            113            285 292 
 GUY2CHZ EP   2   1025 29.42                             111    1.25 4  302 235 
 GUY2CHE ES   4   1026  5.26                             111    3.18 0  302 235 
 GUY2CHZ  IAML    1026 11.82         1.4 0.22                           302 235 
                                                                                
