 2010 1214 1739 38.4 L   7.476 -73.289133.1  RSN  5 0.3 1.7LRSN                1
 GAP=180        0.67       4.5    14.7 11.2 -0.2068E+02  0.8605E+02 -0.4349E+01E
 Epicentro: EL PLAYON - SANTANDER                                              3
 ACTION:UP  11-01-14 15:24 OP:pat  STATUS:               ID:20101214173938 L   I
 2010-12-14-1736-39S.COL___137                                                 6
 STAT SP IPHASW D HRMM SECON CODA AMPLIT PERI AZIMU VELO SNR AR TRES W  DIS CAZ7
 GIR2 SZ EP       1739 56.85                             160    -0.210   45 166 
 BTL  SZ EP   1   1739 57.65                             154    -0.3 7   62 178 
 GRA  SZ EP   1   1739 58.65                             151     0.3 7   70  50 
 GRA  SZ ES   1   1740 13.69                             151    -0.2 7   70  50 
 GRA  SZ I        1740 15.82        15.5 0.17                            70  50 
 OCA  SZ EP   1   1739 59.56                             146     0.3 7   84 358 
 OCA  SZ ES   2   1740 15.40                             146    -0.1 5   84 358 
 OCA  SZ I        1740 18.62        13.2 0.46                            84 358 
 BAR2 SZ EP   2   1740  0.10                             141    -0.3 5   98 173 
 BAR2 SZ ES   1   1740 17.94                             141     0.4 7   98 173 
 BAR2 SZ I        1740 20.81         5.4 0.14                            98 173 
                                                                                
