 2016  514 1753 13.3 L   6.808 -73.152147.3  RSN 10 0.5 2.1LRSN                1
 GAP=135        1.17       3.7     4.8  6.6 -0.3953E+01  0.6613E+01  0.2910E+01E
 Epicentro: LOS SANTOS - SANTANDER                                             3
 ACTION:UPD 16-08-18 17:45 OP:cam  STATUS:               ID:20160514175313 L   I
 OLDACT:REG 16-05-14 19:58 OP:drio STATUS:               ID:20160514174746     3
 2016-05-14-1747-46M.COL___299                                                 6
 STAT SP IPHASW D HRMM SECON CODA AMPLIT PERI AZIMU VELO AIN AR TRES W  DIS CAZ7
 BAR2 EZ EP       1753 33.02                             170   -0.0610 24.1 188 
 BAR2 EZ ES       1753 47.95                             170   -0.6010 24.1 188 
 BAR2 EZ I        1753 49.76        37.4 0.36            169           24.1 188 
 BRR  HZ EP       1753 35.07                             153    0.5610 70.1 298 
 BRR  HN ES       1753 52.02                             153    0.9410 70.1 298 
 BRR  HZ I        1753 53.50        29.0 0.36            149           70.1 298 
 PAM  EZ EP       1753 36.00                             151    0.3910 77.1  40 
 PAM  EE ES       1753 53.37                             151    0.3110 77.1  40 
 PAM  EZ I        1753 55.17        19.2 0.60            154           77.1  40 
 RUS  HZ EP       1753 37.14                             144   -0.0810  102 176 
 RUS  HN ES       1753 55.71                             144   -0.2110  102 176 
 RUS  HZ I        1753 56.60         6.3 0.40            146            102 176 
 PTB  HZ EP       1753 39.46                             132   -0.84 9  147 258 
 PTB  HN ES       1754  0.76                             132   -0.63 9  147 258 
 PTB  HZ I        1754  8.24         9.5 0.20            131            147 258 
 OCA  HZ EP       1753 41.30                             130   -0.29 9  159 353 
 OCA  HE ES       1754  3.02                             130   -0.67 9  159 353 
 OCA  HZ I        1754 12.87        18.2 0.18            130            159 353 
 SPBC HZ EP       1753 41.87                             129   -0.02 9  163 219 
 SPBC HN ES       1754  4.50                             129    0.27 9  163 219 
 SPBC HZ I        1754  8.89        24.8 0.20            129            163 219 
 ZAR  HZ EP   4   1753 47.49                             123    1.80 0  203 292 
 ZAR  HN ES       1754 11.19                             123    0.20 9  203 292 
 ZAR  HZ I        1754 16.25        11.7 0.24            122            203 292 
 NOR  HZ EP       1753 49.22                             119    0.15 8  235 234 
 NOR  HE ES       1754 17.14                             119    0.14 8  235 234 
 NOR  HZ I        1754 26.50         8.1 0.40            119            235 234 
 PRA  HZ EP       1754  7.49                             107    0.61 6  392 209 
 PRA  HN ES       1754 48.94                             107    0.23 6  392 209 
 PRA  HZ I        1754 55.25         7.7 0.34            107            392 209 
                                                                                
