 2016  314 1151 12.5 L   6.567 -73.567105.5  RSN  6 0.3 1.3LRSN                1
 GAP=103        0.79       3.3     2.5  6.1 -0.7840E+00  0.5577E+01 -0.1560E+00E
 Epicentro: EL CARMEN - SANTANDER                                              3
 ACTION:UPD 16-05-13 21:24 OP:cam  STATUS:               ID:20160314115112 L   I
 OLDACT:REG 16-03-14 20:16 OP:cara STATUS:               ID:20160314114747     3
 2016-03-14-1147-47M.COL___294                                                 6
 STAT SP IPHASW D HRMM SECON CODA AMPLIT PERI AZIMU VELO AIN AR TRES W  DIS CAZ7
 BAR2 EZ EP       1151 28.27                             156    0.2510 42.6  86 
 BAR2 EZ ES       1151 40.33                             156    0.1810 42.6  86 
 RUS  HZ EP       1151 31.69                             136   -0.0610 91.8 144 
 RUS  HN ES       1151 46.63                             136   -0.1710 91.8 144 
 RUS  HZ I        1151 48.39         2.4 0.42            142           91.8 144 
 PTB  HZ EP       1151 31.19                             133   -0.4910 98.4 268 
 PTB  HE ES       1151 46.38                             133   -0.2810 98.4 268 
 PTB  HZ I        1151 50.35         5.2 0.42            134           98.4 268 
 PAM  EZ EP       1151 35.14                             125    0.0110  128  48 
 PAM  EZ I        1151 36.82         3.6 0.24            128            128  48 
 PAM  EN ES       1151 52.90                             125    0.0810  128  48 
 ZAR  HN ES       1152  0.72                             116    0.18 9  176 306 
 ZAR  HZ I        1152  8.65         3.1 0.10            117            176 306 
 GUY2CHZ EP       1151 48.09                             107   -0.24 8  248 233 
 GUY2CHN ES       1152 17.11                             107    0.79 8  248 233 
 GUY2CHZ I        1152 23.05         2.0 0.32                           248 233 
                                                                                
