 2017  314 1753 25.6 L   6.809 -73.149147.1  RSN  5 0.4 1.4LRSN                1
 GAP=136        1.07       5.8     5.4  9.4 -0.1814E+01  0.5761E+01  0.7226E+01E
 Epicentro: LOS SANTOS - SANTANDER                                             3
 ACTION:UPD 17-05-25 18:40 OP:jn   STATUS:               ID:20170314175325 L   I
 OLDACT:UP  17-03-15 00:58 OP:edw  STATUS:               ID:20170314174745d    3
 OLDACT:UP  17-03-15 00:58 OP:edw  STATUS:               ID:20170314174745d    3
 OLDACT:DUP 17-03-15 00:55 OP:edw  STATUS:               ID:20170314174745d    3
 OLDACT:UP  17-03-15 00:54 OP:edw  STATUS:               ID:20170314174744     3
 OLDACT:REG 17-03-14 21:03 OP:dnl  STATUS:               ID:20170314174744     3
 2017-03-14-1748-00M.COL___364                                                 6
 STAT SP IPHASW D HRMM SECON CODA AMPLIT PERI AZIMU VELO AIN AR TRES W  DIS CAZ7
 BRR  HZ EP       1753 47.32                             153    0.4610 70.4 298 
 BRR  HN ES       1754  4.15                             153    0.7210 70.4 298 
 PAM  EZ IP     D 1753 47.90                             151   -0.0410 76.9  40 
 PAM  EN ES       1754  4.86                             151   -0.4910 76.9  40 
 PAM  EZ I        1754  5.36         4.4 0.22            153           76.9  40 
 RUS  HZ EP       1753 49.81                             144    0.2510  102 176 
 RUS  HN ES       1754  8.17                             144   -0.0710  102 176 
 RUS  HZ I        1754  9.55         1.5 0.40            145            102 176 
 PTB  HZ EP       1753 52.41                             132   -0.26 9  148 258 
 PTB  HN ES       1754 13.16                             132   -0.62 9  148 258 
 PTB  HZ I        1754 16.02         3.9 0.30            131            148 258 
 ZAR  HN ES   2   1754 23.12                             123   -0.27 4  203 292 
 ZAR  HZ I        1754 28.47         6.2 0.38            122            203 292 
                                                                                
