 2012  414 1355 51.3 L   6.763 -73.123141.5  RSN 12 0.4 2.3LRSN                1
 GAP=141        0.88       3.7     3.8  5.2 -0.1463E+01  0.6452E+01  0.6250E+01E
 Epicentro: LOS SANTOS - SANTANDER                                             3
 ACTION:UPD 12-07-05 11:53 OP:tino STATUS:               ID:20120414135551 L   I
 2012-04-14-1350-00M.COL___180                                                 6
 STAT SP IPHASW D HRMM SECON CODA AMPLIT PERI AZIMU VELO AIN AR TRES W  DIS CAZ7
 BAR2 SZ EP       1356 10.35                             171     0.010   20 199 
 BAR2 SZ ES       1356 25.37                             171     0.210   20 199 
 BAR2 SZ I        1356 26.89        46.7 0.24                            20 199 
 BRR  HZ IP     C 1356 12.28                             150     0.010   75 300 
 BRR  HN ES       1356 28.98                             150     0.410   75 300 
 BRR  HZ I        1356 31.70        43.2 0.08                            75 300 
 PAM  SZ EP       1356 13.22                             150     0.110   79  36 
 PAM  SN ES       1356 29.92                             150    -0.310   79  36 
 RUS  HZ EP       1356 14.28                             144     0.010   96 177 
 RUS  HN ES   1   1356 32.44                             144     0.2 7   96 177 
 RUS  HZ I        1356 34.75        20.7 0.51                            96 177 
 PTB  HZ EP       1356 17.23                             131    -0.9 9  150 261 
 PTB  HE ES   1   1356 38.47                             131    -0.5 7  150 261 
 ZAR  HZ EP   1   1356 24.27                             121     0.4 6  208 293 
 ZAR  HE ES   1   1356 48.93                             121    -0.4 6  208 293 
 ZAR  HZ I        1356 55.54        34.8 0.40                           208 293 
 NOR  SZ EP       1356 26.82                             118     0.1 8  234 236 
 NOR  SE ES   1   1356 54.09                             118    -0.3 6  234 236 
 CHI  HZ EP   1   1356 28.36                             117     0.0 6  245 196 
 CHI  HN ES   1   1356 57.29                             117    -0.1 6  245 196 
 CHI  HZ I        1357  3.85         9.9 0.21                           245 196 
 HEL  HZ EP   1   1356 31.87                             114     0.4 6  274 257 
 HEL  HN ES   1   1357  3.49                             114     0.7 6  274 257 
 HEL  HZ I        1357  9.57        12.0 0.41                           274 257 
 RREF HZ EP   1   1356 37.55                             110     0.4 5  321 230 
 RREF HN ES   1   1357 12.66                             110    -0.3 5  321 230 
 RREF HZ I        1357 19.16        14.0 0.49                           321 230 
 TOL  SZ EP       1356 40.07                             109     0.8 7  342 225 
 PRA  HZ EP   1   1356 44.36                             106     0.0 4  390 210 
 PRA  HN ES   1   1357 25.64                             106    -0.2 4  390 210 
                                                                                
