 2017  314 1340 56.3 L   6.786 -73.163146.8  RSN  6 0.5 1.6LRSN                1
 GAP=135        1.08       4.8     5.8  8.4 -0.4539E+01  0.3489E+01  0.6781E+01E
 Epicentro: LOS SANTOS - SANTANDER                                             3
 ACTION:UPD 17-05-25 18:40 OP:jn   STATUS:               ID:20170314134056 L   I
 OLDACT:REG 17-03-14 20:54 OP:dnl  STATUS:               ID:20170314133744     3
 2017-03-14-1338-00M.COL___370                                                 6
 STAT SP IPHASW D HRMM SECON CODA AMPLIT PERI AZIMU VELO AIN AR TRES W  DIS CAZ7
 BAR2 EZ EP       1341 15.91                             171   -0.1010 21.6 186 
 BAR2 EZ ES       1341 31.11                             171   -0.2810 21.6 186 
 BAR2 EZ I        1341 33.61        14.2 0.28            172           21.6 186 
 BRR  HZ EP       1341 17.77                             153    0.2810 70.2 300 
 BRR  HE ES       1341 34.90                             153    0.8610 70.2 300 
 BRR  HZ I        1341 38.73        13.2 0.28            154           70.2 300 
 PAM  EZ IP     C 1341 18.82                             150    0.0610 79.8  40 
 PAM  EE ES       1341 36.03                             150   -0.2510 79.8  40 
 PAM  EZ I        1341 38.60         7.3 0.52            152           79.8  40 
 RUS  HZ EP   2   1341 19.91                             144   -0.13 5 99.2 175 
 RUS  HN ES       1341 38.48                             144   -0.0910 99.2 175 
 RUS  HZ I        1341 39.70         7.2 0.34            146           99.2 175 
 PTB  HZ EP   2   1341 22.73                             133   -0.41 5  146 259 
 PTB  HN ES       1341 43.25                             133   -0.84 9  146 259 
 PTB  HZ I        1341 44.62         4.5 0.16            134            146 259 
 CHI  HZ EP   2   1341 33.61                             117   -0.22 4  247 195 
 CHI  HE ES       1342  3.77                             117    0.66 8  247 195 
 CHI  HZ I        1342  6.47         1.8 0.36            119            247 195 
                                                                                
