 2012  614 1014 23.3 L   6.138 -73.680107.4  RSN  5 0.5 1.7LRSN                1
 GAP=159        0.99       8.4     5.2 11.8  0.1531E+02  0.3373E+02  0.1008E+02E
 Epicentro: CHIPATA - SANTANDER                                                3
 ACTION:UPD 12-08-06 17:49 OP:ep   STATUS:               ID:20120614101423 L   I
 2012-06-14-1010-00M.COL___200                                                 6
 STAT SP IPHASW D HRMM SECON CODA AMPLIT PERI AZIMU VELO AIN AR TRES W  DIS CAZ7
 RUS  HZ EP   1   1014 41.33                             144    0.15 7 71.4 112 
 RUS  HN ES   1   1014 54.69                             144   -0.42 7 71.4 112 
 BAR2 SZ EP   1   1014 41.71                             142    0.66 7 74.5  48 
 BAR2 SZ ES   1   1014 55.24                             142    0.35 7 74.5  48 
 BAR2 SZ I        1014 57.27        24.8 0.51                          74.5  48 
 PTB  HZ EP       1014 41.90                             134   -0.6410 96.7 297 
 PTB  HE ES   1   1014 57.48                             134   -0.05 7 96.7 297 
 ZAR  HZ EP   1   1014 52.29                             113   -0.68 6  199 319 
 ZAR  HN ES   1   1015 16.16                             113    0.07 6  199 319 
 HEL  HZ EP   1   1014 54.71                             112    0.59 6  205 272 
 HEL  HN ES   1   1015 18.81                             112    0.65 6  205 272 
 HEL  HZ I        1015 24.63         3.2 0.78                           205 272 
                                                                                
