 2017 1014 1016 39.9 L   6.622 -73.580106.8  RSN  6 0.2 1.1LRSN                1
 GAP=109        0.63       2.9     2.6  5.0  0.1509E+01  0.4749E+01  0.2826E+01E
 Epicentro: EL CARMEN - SANTANDER                                              3
 ACTION:UPD 17-11-07 19:31 OP:rebc STATUS:               ID:20171014101639 L   I
 OLDACT:REG 17-10-14 19:26 OP:lv   STATUS:               ID:20171014100601     3
 2017-10-14-1008-00M.COL___405                                                 6
 STAT SP IPHASW D HRMM SECON CODA AMPLIT PERI AZIMU VELO AIN AR TRES W  DIS CAZ7
 BAR2 EZ EP       1016 55.62                             156   -0.0210 44.1  94 
 BAR2 EZ ES       1017  7.81                             156   -0.1310 44.1  94 
 BRR  HZ EP       1016 56.04                             150    0.1210 55.6 345 
 BRR  HE ES       1017  8.80                             150    0.3510 55.6 345 
 PTB  HZ EP       1016 59.13                             134    0.0510 97.3 265 
 PTB  HN ES       1017 13.64                             134   -0.4410 97.3 265 
 PTB  HZ I        1017 18.94         3.7 0.10            132           97.3 265 
 RUS  HZ EP       1016 59.72                             135   -0.0410 97.6 146 
 RUS  HN ES       1017 15.27                             135   -0.0210 97.6 146 
 RUS  HZ I        1017 17.99         1.4 0.10            137           97.6 146 
 ZAR  HZ EP       1017  6.21                             117   -0.21 9  171 304 
 ZAR  HE ES   4   1017 29.53                             117    2.38 0  171 304 
 ZAR  HZ I        1017 32.90         2.8 0.32            118            171 304 
 NOR  HN ES       1017 30.31                             115    0.39 9  185 231 
 NOR  HZ I        1017 36.37         2.0 0.18            115            185 231 
                                                                                
