 2014  114 1808 26.0 L   6.773 -73.107149.1  RSN  7 0.2 1.7LRSN                1
 GAP=143        0.66       2.5     3.4  4.4 -0.4058E+00  0.2380E+01  0.2817E+01E
 Epicentro: LOS SANTOS - SANTANDER                                             3
 ACTION:UPD 14-03-13 09:55 OP:ep   STATUS:               ID:20140114180826 L   I
 OLDACT:REG 14-01-14 18:35 OP:carl STATUS:               ID:20140114180740     3
 2014-01-14-1807-40M.COL___253                                                 6
 STAT SP IPHASW D HRMM SECON CODA AMPLIT PERI AZIMU VELO AIN AR TRES W  DIS CAZ7
 BAR2 SZ EP       18 8 45.93                             171   -0.1110 21.7 203 
 BAR2 SZ ES       18 9  1.24                             171   -0.4110 21.7 203 
 BAR2 SZ I        18 9  2.76        16.2 0.28            168           21.7 203 
 BRR  HZ EP       18 8 47.87                             151    0.0210 76.4 299 
 BRR  HN ES       18 9  5.38                             151    0.5210 76.4 299 
 BRR  HZ I        18 9  8.93        15.0 0.40            152           76.4 299 
 PAM  SZ EP       18 8 48.71                             152    0.1110 77.1  36 
 PAM  SN ES       18 9  6.01                             152   -0.1810 77.1  36 
 PAM  SZ I        18 9  8.16         8.7 0.20            157           77.1  36 
 RUS  HZ EP       18 8 49.89                             145   -0.0110 97.4 178 
 RUS  HN ES       18 9  8.89                             145    0.3810 97.4 178 
 RUS  HZ I        18 9 11.84         2.2 0.36            146           97.4 178 
 SPBC HZ EP       18 8 54.82                             130   -0.02 9  164 221 
 SPBC HN ES       18 9 17.16                             130   -0.15 9  164 221 
 SPBC HZ I        18 9 26.27         6.5 0.10            131            164 221 
 ZAR  HE ES       18 9 24.87                             122   -0.25 8  209 292 
 CHI  HZ EP       18 9  3.90                             118    0.16 8  247 196 
 CHI  HN ES       18 9 33.00                             118   -0.15 8  247 196 
 CHI  HZ I        18 9 35.52         2.3 0.38            120            247 196 
                                                                                
