 2017  114 1443 36.0 L   6.807 -73.022148.6  RSN  6 0.4 1.4LRSN                1
 GAP=153        1.03       5.9     6.8  8.9  0.1320E+02  0.1748E+02  0.7780E+01E
 Epicentro: CEPITA - SANTANDER                                                 3
 ACTION:UPD 17-05-22 15:59 OP:jn   STATUS:               ID:20170114144336 L   I
 OLDACT:UP  17-04-20 15:15 OP:nlst STATUS:               ID:20170114144336 L   3
 OLDACT:UP  17-01-14 21:47 OP:e    STATUS:               ID:20170114143750     3
 OLDACT:REG 17-01-14 19:52 OP:and  STATUS:               ID:20170114143750     3
 2017-01-14-1438-00M.COL___329                                                 6
 STAT SP IPHASW D HRMM SECON CODA AMPLIT PERI AZIMU VELO AIN AR TRES W  DIS CAZ7
 BAR2 EZ EP       1443 55.97                             168   -0.1210 29.7 217 
 BAR2 EZ ES       1444 12.21                             168    0.4310 29.7 217 
 PAM  EE ES       1444 15.37                             154    0.1610 68.8  31 
 BRR  HZ EP       1443 57.79                             149   -0.3510 83.2 294 
 BRR  HN ES       1444 14.76                             149   -0.6710 83.2 294 
 BRR  HZ I        1444 16.79        10.8 0.38            147           83.2 294 
 RUS  HZ EP       1444  0.27                             144    0.2110  101 184 
 RUS  HN ES       1444 18.71                             144   -0.1410  101 184 
 RUS  HZ I        1444 19.66         2.0 0.24            143            101 184 
 PTB  HZ EP   4   1444  3.04                             130   -1.38 0  161 260 
 PTB  HN ES   4   1444 23.24                             130   -3.37 0  161 260 
 PTB  HZ I        1444 31.04         1.8 0.26            128            161 260 
 ZAR  HE ES       1444 37.05                             121    0.70 8  217 291 
                                                                                
