 2011  714 1514 25.8 L   6.755 -73.084138.4  RSN  7 0.3 1.9LRSN                1
 GAP=147        0.64       4.3     8.3  6.4 -0.1985E+02  0.1871E+02  0.9870E+00E
 Epicentro: LOS SANTOS - SANTANDER                                             3
 ACTION:UPD 12-07-25 14:00 OP:epov STATUS:               ID:20110714151425 L   I
 2011-07-14-1509-33S.COL___132                                                 6
 STAT SP IPHASW D HRMM SECON CODA AMPLIT PERI AZIMU VELO AIN AR TRES W  DIS CAZ7
 BAR2 SZ EP   1   1514 44.15                             171   -0.30 7 21.0 211 
 BAR2 SZ ES   1   1514 58.80                             171   -0.23 7 21.0 211 
 BAR2 SZ I        1515  0.47        15.6 0.16                          21.0 211 
 PAM  SZ EP   2   1514 46.50                             149   -0.69 5 77.4  33 
 PAM  SN ES   1   1515  4.22                             149    0.32 7 77.4  33 
 BRR  HZ EP       1514 46.43                             148   -0.1910 79.6 299 
 BRR  HZ I        1515  8.59        15.9 0.16                          79.6 299 
 RUS  HZ EP       1514 48.53                             144    0.1310 95.3 180 
 RUS  HZ I        1515  8.58        10.7 0.29                          95.3 180 
 BRI  SZ EP   1   1514 49.19                             139    0.04 7  111  17 
 BRI  SZ ES   1   1515  7.73                             139    0.33 7  111  17 
 BRI  SZ I        1515  9.57        17.2 0.44                           111  17 
 GRA  SZ EP   1   1514 50.42                             134   -0.18 7  129  14 
 GRA  SZ ES   1   1515  9.96                             134   -0.03 7  129  14 
 GRA  SZ I        1515 11.33        14.2 0.39                           129  14 
 NOR  SZ EP   1   1515  2.08                             116    0.72 6  237 236 
                                                                                
