 2011  814 1246 15.4 L   6.835 -73.078140.5  RSN  6 0.4 2.0LRSN                1
 GAP=190        0.82       3.8     9.6  6.6  0.6353E+01  0.3155E+01  0.7727E+00E
 Epicentro: LOS SANTOS - SANTANDER                                             3
 ACTION:UPD 12-07-13 15:51 OP:ep   STATUS:               ID:20110814124615 L   I
 2011-08-14-1244-54S.COL___149                                                 6
 STAT SP IPHASW D HRMM SECON CODA AMPLIT PERI AZIMU VELO AIN AR TRES W  DIS CAZ7
 BAR2 SZ EP       1246 34.74                             168    0.1610 29.2 203 
 BAR2 SZ ES   1   1246 49.01                             168   -0.49 7 29.2 203 
 BAR2 SZ I        1246 50.75        15.5 0.18                          29.2 203 
 BRR  HZ EP       1246 36.48                             150    0.1510 76.3 293 
 BRR  HE ES   1   1246 53.25                             150    0.63 7 76.3 293 
 BRR  HZ I        1246 57.26        55.8 0.48                          76.3 293 
 RUS  HZ EP       1246 39.13                             142    0.1810  104 180 
 RUS  HN ES   1   1246 57.19                             142   -0.09 7  104 180 
 RUS  HZ I        1246 58.63         9.1 0.32                           104 180 
 OCA  SZ EP       1246 43.21                             129    0.12 9  158 350 
 OCA  SZ ES   1   1247  4.11                             129   -0.55 7  158 350 
 OCA  SZ I        1247 11.15        17.6 0.33                           158 350 
 NOR  SZ EP       1246 51.02                             116   -0.76 8  243 235 
 CHI  HZ EP   1   1246 53.78                             115    0.30 6  254 197 
 CHI  HN ES   2   1247 23.34                             115    0.18 4  254 197 
 CHI  HZ I        1247 29.27         3.4 0.32                           254 197 
                                                                                
