 2014  714 1753 37.5 L   6.684 -73.189156.3  RSN  5 0.3 1.5LRSN                1
 GAP=223        0.82       9.3     6.0  7.4  0.2468E+02  0.9248E+01  0.9840E+01E
 Epicentro: VILLANUEVA - SANTANDER                                             3
 ACTION:UPD 15-03-16 20:43 OP:nd   STATUS:               ID:20140714175337 L   I
 OLDACT:REG 14-07-14 20:35 OP:stll STATUS:               ID:20140714174817     3
 2014-07-14-1748-17M.COL___262                                                 6
 STAT SP IPHASW D HRMM SECON CODA AMPLIT PERI AZIMU VELO AIN AR TRES W  DIS CAZ7
 BAR2 SZ EP       1753 58.23                             176   -0.0010 10.1 176 
 BAR2 SZ I        1753 58.52         5.7 0.10            170           10.1 176 
 BAR2 SZ ES       1754 14.07                             176   -0.3210 10.1 176 
 BRR  HZ EP       1754  0.25                             153    0.2710 74.4 309 
 BRR  HN ES       1754 17.83                             153    0.3210 74.4 309 
 RUS  HZ EP   2   1754  1.00                             149   -0.51 5 88.2 172 
 PTB  HZ EP       1754  4.92                             136    0.14 9  141 264 
 PTB  HN ES       1754 26.30                             136    0.25 9  141 264 
 PTB  HZ I        1754 32.18         3.8 0.52            131            141 264 
 ZAR  HN ES       1754 36.01                             124   -0.68 9  205 296 
 ZAR  HZ I        1754 42.60         2.5 0.18            122            205 296 
                                                                                
