 2014  214 1403 39.7 L   6.821 -73.183144.6  RSN 12 0.5 2.4LRSN                1
 GAP=131        0.97       2.8     4.5  6.4 -0.1785E+01  0.1159E+02  0.1817E+01E
 Epicentro: ZAPATOCA - SANTANDER                                               3
 ACTION:UPD 14-03-10 08:10 OP:ep   STATUS:               ID:20140214140339 L   I
 OLDACT:UP  14-02-14 18:55 OP:mh   STATUS:               ID:20140214140000     3
 OLDACT:UP  14-02-14 18:55 OP:mh   STATUS:               ID:20140214140000     3
 OLDACT:REG 14-02-14 15:03 OP:mh   STATUS:               ID:20140214140000     3
 2014-02-14-1400-00M.COL___291                                                 6
 STAT SP IPHASW D HRMM SECON CODA AMPLIT PERI AZIMU VELO AIN AR TRES W  DIS CAZ7
 BAR2 SZ EP   1   14 3 59.17                             170   -0.03 7 25.3 180 
 BAR2 SZ ES       14 4 14.58                             170    0.1510 25.3 180 
 BAR2 SZ I        14 4 16.01       126.1 0.33            167           25.3 180 
 PAM  SZ EP     D 14 4  2.07                             150    0.2610 78.3  43 
 PAM  SN ES       14 4 19.26                             150    0.1710 78.3  43 
 PAM  SZ I        14 4 21.72        15.9 0.14            148           78.3  43 
 RUS  HZ EP       14 4  3.24                             143   -0.2610  103 174 
 RUS  HN ES       14 4 21.63                             143   -0.4610  103 174 
 RUS  HZ I        14 4 23.32        26.7 0.34            138            103 174 
 PTB  HZ EP   1   14 4  5.79                             132   -0.43 7  144 258 
 PTB  HN ES       14 4 26.59                             132   -0.34 9  144 258 
 PTB  HZ I        14 4 31.54        15.9 0.21            127            144 258 
 OCA  HN ES       14 4 29.55                             130    0.12 9  157 355 
 SPBC HZ EP   1   14 4  7.92                             129   -0.09 7  162 217 
 SPBC HZ I        14 4 36.60        30.7 0.20            123            162 217 
 ZAR  HZ EP   1   14 4 11.50                             123   -0.05 6  199 292 
 ZAR  HN ES   1   14 4 37.10                             123    0.68 6  199 292 
 ZAR  HZ I        14 4 42.52        20.1 0.07            118            199 292 
 SML  HZ EP   1   14 4 15.45                             118   -0.36 6  240 336 
 SML  HN ES   1   14 4 43.40                             118   -0.61 6  240 336 
 SML  HZ I        14 4 47.61        25.1 0.09            113            240 336 
 CHI  HZ EP   1   14 4 17.51                             117    0.07 6  250 194 
 CHI  HN ES       14 4 46.79                             117   -0.10 8  250 194 
 CHI  HZ I        14 4 50.64        10.6 0.31            112            250 194 
 ROSC BN ES   1   14 4 49.26                             116    1.87 6  253 210 
 HEL  HN ES   4   14 4 49.82                             115   -0.65 0  269 255 
 URE  HZ EP   4   14 4 19.66                             114   -0.50 0  279 292 
 URE  HN ES   4   14 4 50.00                             114   -1.74 0  279 292 
 GUY2CHZ EP   1   14 4 24.08                             112    1.08 5  299 234 
 GUY2CHN ES       14 4 56.35                             112   -0.45 7  299 234 
 GUY2CHZ I        14 5  5.75        10.2 0.55                           299 234 
 PRA  HZ EP   1   14 4 32.86                             106   -0.29 4  392 209 
 PRA  HN ES       14 5 15.02                             106    0.15 6  392 209 
 PRA  HZ I        14 5 21.64        14.1 0.33            103            392 209 
                                                                                
