 2012  814 1037 21.3 L   5.919 -73.800110.5  RSN 12 0.3 2.4LRSN                1
 GAP= 85        0.81       2.2     2.5  5.7 -0.5272E+00  0.4721E+01 -0.3122E+00E
 Epicentro: JESUS MARIA - SANTANDER                                            3
 ACTION:UPD 12-09-10 11:56 OP:ep   STATUS:               ID:20120814103721 L   I
 2012-08-14-1030-00M.COL___217                                                 6
 STAT SP IPHASW D HRMM SECON CODA AMPLIT PERI AZIMU VELO AIN AR TRES W  DIS CAZ7
 RUS  HZ EP       1037 40.03                             142   -0.0110 79.4  92 
 RUS  HE ES       1037 54.50                             142   -0.1810 79.4  92 
 PTB  HZ EP       1037 40.23                             134   -0.8210 99.9 313 
 PTB  HN ES   1   1037 56.67                             134    0.20 7 99.9 313 
 PTB  HZ I        1038  0.05        20.7 0.12                          99.9 313 
 BAR2 SZ EP       1037 41.66                             134    0.2110  101  43 
 BAR2 SZ ES       1037 57.38                             134    0.2010  101  43 
 NOR  SZ EP       1037 43.33                             128   -0.0610  125 252 
 NOR  SN ES   1   1038  0.51                             128   -0.13 7  125 252 
 NOR  SZ I        1038  4.74        78.3 0.24                           125 252 
 BRR  HZ EP       1037 43.97                             126   -0.0210  132   4 
 BRR  HN ES   1   1038  1.98                             126    0.27 7  132   4 
 BRR  HZ I        1038  6.81        49.6 0.18                           132   4 
 CHI  HZ EP       1037 45.60                             124   -0.05 9  143 177 
 CHI  HZ I        1037 46.44        19.1 0.33                           143 177 
 CHI  HN ES       1038  4.55                             124   -0.11 9  143 177 
 GIR2 SZ EP       1037 45.97                             123    0.49 9  145  28 
 HEL  HZ EP       1037 51.62                             115    0.61 9  194 279 
 HEL  HN ES       1038 14.30                             115    0.09 9  194 279 
 HEL  HZ I        1038 19.95        23.2 0.14                           194 279 
 VIL  SZ EP   1   1037 51.52                             114    0.09 6  200 177 
 ZAR  HZ EP       1037 51.77                             113   -0.56 8  210 326 
 ZAR  HE ES   1   1038 16.66                             113    0.11 6  210 326 
 ZAR  HZ I        1038 20.26        27.1 0.17                           210 326 
 TOL  SZ EP       1037 54.78                             111    0.42 8  224 229 
 OCA  HZ EP       1037 58.22                             107   -0.29 8  262  12 
 OCA  HE ES   1   1038 27.24                             107   -0.31 6  262  12 
 OCA  HZ I        1038 35.10        43.6 0.44                           262  12 
                                                                                
