 2017  914 1315 50.2 L   6.793 -73.144140.1  RSN  8 0.4 1.9LRSN                1
 GAP=137        0.87       3.2     3.9  6.2 -0.1392E+01  0.5996E+01  0.4330E+01E
 Epicentro: LOS SANTOS - SANTANDER                                             3
 ACTION:UPD 17-10-05 19:12 OP:rebc STATUS:               ID:20170914131550 L   I
 OLDACT:REG 17-09-14 20:33 OP:dnl  STATUS:               ID:20170914130743     3
 2017-09-14-1308-00M.COL___458                                                 6
 STAT SP IPHASW D HRMM SECON CODA AMPLIT PERI AZIMU VELO AIN AR TRES W  DIS CAZ7
 BAR2 EZ EP       1316  8.85                             170   -0.2510 22.6 191 
 BAR2 EZ ES       1316 23.66                             170   -0.2110 22.6 191 
 BAR2 EZ I        1316 24.75        22.9 0.30            168           22.6 191 
 BRR  HZ EP   2   1316 10.90                             151    0.16 5 71.7 299 
 BRR  HN ES       1316 27.06                             151    0.2810 71.7 299 
 BRR  HZ I        1316 30.90        17.3 0.14            149           71.7 299 
 PAM  EZ EP       1316 11.79                             150   -0.0310 77.9  39 
 PAM  EN ES       1316 28.75                             150    0.0510 77.9  39 
 PAM  EZ I        1316 31.15        12.9 0.54            153           77.9  39 
 RUS  HZ EP       1316 13.11                             143   -0.2010 99.8 176 
 RUS  HN ES       1316 31.49                             143    0.1310 99.8 176 
 RUS  HZ I        1316 32.37         9.1 0.34            143           99.8 176 
 SPBC HZ EP   2   1316 17.75                             128   -0.43 5  163 219 
 SPBC HN ES       1316 39.68                             128   -0.36 9  163 219 
 SPBC HZ I        1316 46.73        15.4 0.22            127            163 219 
 ZAR  HZ EP   2   1316 22.86                             121    0.57 4  204 292 
 ZAR  HN ES       1316 47.61                             121    0.26 9  204 292 
 ZAR  HZ I        1316 53.46        10.7 0.36            121            204 292 
 NOR  HZ EP   2   1316 25.03                             117   -0.50 4  234 235 
 NOR  HE ES       1316 52.58                             117   -0.54 8  234 235 
 NOR  HZ I        1316 56.88         7.1 0.32            117            234 235 
 CHI  HZ EP   2   1316 27.45                             116   -0.03 4  248 195 
 CHI  HN ES       1316 57.75                             116    1.17 8  248 195 
 CHI  HZ I        1317  3.20         2.7 0.38            116            248 195 
                                                                                
