 2014 1014 1317 50.4 L   6.761 -73.125145.6  RSN 18 0.5 2.4LRSN                1
 GAP=141        1.06       2.7     4.0  5.8 -0.5938E+00  0.6313E+01  0.2259E+01E
 Epicentro: LOS SANTOS - SANTANDER                                             3
 ACTION:UPD 14-11-29 23:49 OP:nd   STATUS:               ID:20141014131750 L   I
 OLDACT:DUP 14-10-15 00:22 OP:fm   STATUS:               ID:20141014130750d    3
 2014-10-14-1307-48M.COL___288                                                 6
 STAT SP IPHASW D HRMM SECON CODA AMPLIT PERI AZIMU VELO AIN AR TRES W  DIS CAZ7
 BAR2 SZ EP       1318 10.12                             172    0.2110 19.7 199 
 BAR2 SZ ES   1   1318 25.34                             172    0.18 7 19.7 199 
 BAR2 SZ I        1318 25.88        93.5 0.28            169           19.7 199 
 BRR  HZ EP       1318 12.05                             151    0.3110 75.3 301 
 BRR  HN ES       1318 28.93                             151    0.5310 75.3 301 
 BRR  HZ I        1318 32.39        44.8 0.28            148           75.3 301 
 PAM  SZ EP       1318 13.09                             150    0.4110 79.3  36 
 PAM  SN ES       1318 29.82                             150   -0.2710 79.3  36 
 PAM  SZ I        1318 32.33        44.2 0.46            155           79.3  36 
 RUS  HZ EP       1318 14.06                             145    0.2710 96.2 177 
 RUS  HN ES       1318 31.55                             145   -0.5110 96.2 177 
 RUS  HZ I        1318 33.25        19.8 0.28            146           96.2 177 
 PTB  HZ EP       1318 16.97                             132   -0.49 9  149 261 
 PTB  HE ES       1318 38.28                             132   -0.31 9  149 261 
 PTB  HZ I        1318 43.73        18.4 0.40            130            149 261 
 SPBC HZ EP       1318 18.85                             129    0.17 9  161 221 
 SPBC HN ES       1318 40.45                             129   -0.32 9  161 221 
 SPBC HZ I        1318 48.04        19.3 0.34            129            161 221 
 OCA  HZ EP       1318 18.58                             129   -0.51 9  165 353 
 OCA  HN ES       1318 41.78                             129    0.28 9  165 353 
 OCA  HZ I        1318 47.93        29.0 0.30            130            165 353 
 ZAR  HZ EP       1318 23.77                             122    0.58 8  208 293 
 ZAR  HE ES       1318 49.13                             122    0.34 8  208 293 
 ZAR  HZ I        1318 55.14        26.6 0.24            122            208 293 
 CHI  HZ EP       1318 27.93                             117    0.25 8  245 196 
 CHI  HN ES       1318 56.32                             117   -0.46 8  245 196 
 CHI  HZ I        1319  0.38         6.5 0.38            119            245 196 
 SML  HZ EP   4   1318 26.17                             117   -1.34 0  249 335 
 SML  HN ES       1318 55.64                             117   -0.84 8  249 335 
 SML  HZ I        1319  0.15        34.2 0.10            118            249 335 
 ROSC BN ES   4   1319  0.52                             117    2.79 0  250 212 
 ROSC BZ I        1319  5.67        15.0 0.40            118            250 212 
 URE  HZ EP   4   1318 34.25                             113    2.40 0  288 293 
 URE  HN ES   1   1319  3.36                             113   -0.84 5  288 293 
 URE  HZ I        1319 12.74        12.4 0.42            114            288 293 
 GUY2CHZ EP   4   1318 35.86                             112    1.96 0  301 236 
 GUY2CHN ES   4   1319  9.40                             112    1.54 0  301 236 
 GUY2CHZ I        1319 17.46         8.3 0.60                           301 236 
 DBB  SZ ES   1   1319 15.13                             109   -0.27 5  342 275 
 DBB  SZ I        1319 17.04        17.6 0.50            110            342 275 
 TOL  SZ EP   1   1318 37.65                             109   -0.80 5  342 225 
 TOL  SN ES       1319 16.65                             109    0.69 7  342 225 
 TOL  SZ I        1319 23.32        18.5 0.30            110            342 225 
 PRA  HZ EP       1318 42.73                             107   -0.85 6  389 210 
 PRA  HN ES       1319 25.98                             107    0.89 6  389 210 
 PRA  HZ I        1319 30.44         7.4 0.62            108            389 210 
 PAL  HZ EP   1   1318 46.37                             106    0.87 4  405 240 
 PAL  HE ES   4   1319 25.37                             106   -3.13 0  405 240 
 PAL  HZ I        1319 32.12         5.6 0.24            107            405 240 
 SJC  HZ EP   4   1318 45.11                             105   -1.38 0  414 327 
 SJC  HN ES   4   1319 26.03                             105   -4.24 0  414 327 
 SJC  HZ I        1319 30.73         9.6 0.50            106            414 327 
                                                                                
