 2014  214 1344 28.2 L   6.822 -73.161140.3  RSN 11 0.5 2.3LRSN                1
 GAP=134        0.94       3.8     5.4  8.7 -0.9117E+01  0.1954E+02  0.2285E+01E
 Epicentro: LOS SANTOS - SANTANDER                                             3
 ACTION:UPD 14-03-10 08:10 OP:ep   STATUS:               ID:20140214134428 L   I
 OLDACT:REG 14-02-14 15:02 OP:mh   STATUS:               ID:20140214134000     3
 2014-02-14-1340-00M.COL___291                                                 6
 STAT SP IPHASW D HRMM SECON CODA AMPLIT PERI AZIMU VELO AIN AR TRES W  DIS CAZ7
 BAR2 SZ EP       1344 47.27                             169    0.0210 25.5 185 
 BAR2 SZ I        1345  4.52        41.6 0.29            142           25.5 185 
 PAM  SZ EP       1344 50.17                             150    0.3510 76.7  42 
 PAM  SN ES       1345  6.94                             150    0.2810 76.7  42 
 PAM  SZ I        1345  9.49        36.7 0.37            117           76.7  42 
 RUS  HZ EP   1   1344 51.56                             142   -0.08 7  103 175 
 RUS  HZ I        1345 11.16        13.8 0.27            108            103 175 
 PTB  HZ EP   1   1344 54.05                             131   -0.60 7  147 258 
 PTB  HZ I        1345 17.73        25.6 0.23            105            147 258 
 OCA  HZ EP       1344 55.62                             129   -0.25 9  158 354 
 OCA  HN ES       1345 16.90                             129   -0.53 9  158 354 
 OCA  HZ I        1345 20.72        23.3 0.17            103            158 354 
 SPBC HZ EP   1   1344 56.49                             127    0.10 7  164 218 
 SPBC HN ES       1345 17.96                             127   -0.40 9  164 218 
 ZAR  HZ EP   1   1345  0.88                             121    0.82 6  202 292 
 ZAR  HN ES   1   1345 25.66                             121    0.77 6  202 292 
 ZAR  HZ I        1345 31.02        25.7 0.22            100            202 292 
 NOR  HZ EP   1   1345  4.01                             117    0.36 6  235 234 
 NOR  HN ES   1   1345 30.50                             117   -0.78 6  235 234 
 NOR  HZ I        1345 35.43        13.9 0.23             97            235 234 
 SML  HZ EP   1   1345  3.49                             116   -0.75 6  241 335 
 SML  HZ I        1345 40.01        28.7 0.07             97            241 335 
 GUY2CHZ EP       1345 12.13                             111    0.54 7  301 234 
 GUY2CHN ES       1345 45.77                             111    0.36 7  301 234 
 GUY2CHZ I        1345 54.93         5.9 0.33                           301 234 
 PRA  HZ EP   1   1345 21.45                             105   -0.26 4  393 209 
 PRA  HZ I        1346  6.44        10.1 0.06             93            393 209 
 SJC  HZ EP   4   1345 21.43                             105   -1.84 0  406 327 
 SJC  HN ES   4   1346  3.26                             105   -2.94 0  406 327 
                                                                                
