 2016  714 1045 10.1 L   6.802 -73.143148.9  RSN 17 0.4 2.4LRSN                1
 GAP=119        1.01       3.4     3.7  4.9 -0.1176E+01  0.4019E+01  0.5273E+01E
 Epicentro: LOS SANTOS - SANTANDER                                             3
 ACTION:UPD 17-03-29 16:50 OP:lp   STATUS:               ID:20160714104510 L   I
 OLDACT:REG 16-07-14 19:51 OP:lv   STATUS:               ID:20160714103759     3
 2016-07-14-1037-59S.COL___316                                                 6
 STAT SP IPHASW D HRMM SECON CODA AMPLIT PERI AZIMU VELO AIN AR TRES W  DIS CAZ7
 BAR2 EZ EP       1045 30.00                             171   -0.0810 23.6 191 
 BAR2 EZ ES       1045 45.23                             171   -0.4610 23.6 191 
 BAR2 EZ I        1045 46.23        55.4 0.24            168           23.6 191 
 BRR  HZ EP       1045 31.84                             153    0.2710 71.4 298 
 BRR  HE ES       1045 49.16                             153    0.8210 71.4 298 
 BRR  HZ I        1045 53.20        32.3 0.20            151           71.4 298 
 PAM  EZ EP       1045 32.98                             151    0.3810 77.0  39 
 PAM  EE ES       1045 50.16                             151   -0.0110 77.0  39 
 PAM  EZ I        1045 52.14        45.1 0.48            156           77.0  39 
 RUS  HZ EP       1045 34.01                             144   -0.1310  101 176 
 RUS  HN ES       1045 53.31                             144    0.3910  101 176 
 RUS  HZ I        1045 53.90        29.0 0.27            145            101 176 
 PTB  HZ EP       1045 36.71                             133   -0.62 9  148 259 
 PTB  HN ES       1045 57.66                             133   -0.92 9  148 259 
 PTB  HZ I        1046  0.77        23.8 0.13            132            148 259 
 SPBC HZ EP       1045 38.96                             130    0.12 9  164 219 
 SPBC HE ES       1046  0.77                             130   -0.51 9  164 219 
 SPBC HZ I        1046  3.48        39.6 0.07            129            164 219 
 ZAR  HZ EP       1045 42.65                             123   -0.10 9  204 292 
 ZAR  HN ES       1046  8.00                             123   -0.23 9  204 292 
 ZAR  HZ I        1046 13.29        23.4 0.25            123            204 292 
 NOR  HZ EP       1045 46.01                             119   -0.01 8  235 234 
 NOR  HE ES       1046 14.33                             119    0.27 8  235 234 
 NOR  HZ I        1046 19.40        15.6 0.22            119            235 234 
 CHI  HZ EP       1045 47.85                             118   -0.12 8  249 195 
 CHI  HN ES       1046 17.68                             118    0.15 8  249 195 
 CHI  HZ I        1046 20.98        15.9 0.58            118            249 195 
 ROSC BZ EP   9   1045 50.66                             117    2.26 0  253 211 
 ROSC BN ES   9   1046 21.17                                    0.62 0  253 211 
 ROSC BZ I        1046 24.68        27.3 0.41            118            253 211 
 HEL  HZ EP   4   1045 51.56                             115    1.08 0  272 256 
 HEL  HE ES   4   1046 20.71                             115   -1.29 0  272 256 
 HEL  HZ I        1046 28.08        14.4 0.28            115            272 256 
 GUY2CHZ EP       1045 54.10                             113    0.23 7  302 235 
 GUY2CHE ES       1046 28.32                             113    0.29 7  302 235 
 PTGC HZ EP       1045 53.20                             112   -0.88 7  309 159 
 PTGC HN ES   4   1046 26.95                             112   -1.45 0  309 159 
 PTGC HZ I        1046 29.25        13.6 0.42            113            309 159 
 ANIL HZ EP       1046  0.63                             109    0.59 6  358 225 
 ANIL HE ES   4   1046 40.14                             109    1.13 0  358 225 
 ANIL HZ I        1046 45.69        31.3 0.28            109            358 225 
 PRA  HZ EP       1046  3.79                             107    0.05 6  392 210 
 PRA  HE ES       1046 46.51                             107    0.91 6  392 210 
 PRA  HZ I        1046 52.08        10.6 0.24            108            392 210 
 ORTC HZ EP       1046  4.38                             107    0.24 6  396 216 
 ORTC HN ES       1046 46.47                             107    0.16 6  396 216 
 ORTC HZ I        1046 51.50         7.2 0.29            107            396 216 
 PAL  HZ EP       1046  5.43                             106    0.05 6  406 239 
 PAL  HN ES   4   1046 46.48                             106   -2.04 0  406 239 
 PAL  HZ I        1046 53.95         3.8 0.21            107            406 239 
                                                                                
