 2013  414 1800 36.3 L   6.783 -73.206144.6  RSN  5 0.3 1.6LRSN                1
 GAP=170        0.61       4.8     5.2  5.6  0.4502E+01  0.8029E+01  0.6308E+01E
 Epicentro: ZAPATOCA - SANTANDER                                               3
 ACTION:UPD 13-05-22 14:38 OP:EP   STATUS:               ID:20130414180036 L   I
 2013-04-14-1758-51M.COL___209                                                 6
 STAT SP IPHASW D HRMM SECON CODA AMPLIT PERI AZIMU VELO AIN AR TRES W  DIS CAZ7
 BAR2 SZ EP   1   18 0 55.58                             171   -0.18 7 21.2 173 
 BAR2 SZ ES   1   18 1 10.46                             171   -0.47 7 21.2 173 
 BAR2 SZ I        18 1 12.02        14.6 0.23            171           21.2 173 
 GIR2 SZ EP   1   18 0 55.55                             167   -0.34 7 32.8   2 
 GIR2 SZ ES       18 1 11.35                             167    0.1910 32.8   2 
 GIR2 SZ I        18 1 13.14         5.9 0.36            168           32.8   2 
 BRR  HZ EP   1   18 0 57.50                             154    0.43 7 66.4 303 
 RUS  HZ EP       18 0 59.93                             144    0.0710 99.4 172 
 RUS  HN ES   1   18 1 18.49                             144    0.26 7 99.4 172 
 RUS  HZ I        18 1 19.43         4.6 0.26            146           99.4 172 
 PTB  HZ EP   1   18 1  2.37                             133   -0.19 7  141 259 
 PTB  HN ES   1   18 1 23.03                             133   -0.01 7  141 259 
 PTB  HZ I        18 1 25.23         4.4 0.12            134            141 259 
                                                                                
