 2010 1014 1055 20.2 L   6.749 -73.070150.1  RSN  5 0.3 1.9LRSN                1
 GAP=203        0.93       8.7    12.3 10.5 -0.3596E+02 -0.3389E+02 -0.5046E+01E
 Epicentro: LOS SANTOS - SANTANDER                                             3
 ACTION:UP  11-02-18 11:09 OP:tino STATUS:               ID:20101014105520 L   I
 2010-10-14-1053-19S.COL___128                                                 6
 STAT SP IPHASW D HRMM SECON CODA AMPLIT PERI AZIMU VELO SNR AR TRES W  DIS CAZ7
 BAR2 SZ EP       1055 40.58                             172     0.310   21 216 
 BAR2 SZ ES   1   1055 56.14                             172     0.1 7   21 216 
 BAR2 SZ I        1055 56.86        11.5 0.41                            21 216 
 BTL  SZ EP       1055 39.77                             169    -0.710   29 311 
 BRR  HZ IP     C 1055 42.53                             150     0.110   81 299 
 BRR  HZ I        1055 42.81        29.0 0.16                            81 299 
 BRR  HE ES   1   1055 59.81                             150     0.1 7   81 299 
 GUE  SZ EP   3   1055 45.52                             139    -0.1 2  121   8 
 GRA  SZ IP       1055 46.44                             137     0.310  129  13 
 GRA  SZ ES   1   1056  6.18                             137    -0.1 7  129  13 
 GRA  SZ I        1056  7.08         7.3 0.24                           129  13 
                                                                                
