 2012 1114 1621 16.8 L   6.803 -73.179146.8  RSN  5 0.2 1.4LRSN                1
 GAP=132        0.53       4.7     3.4  4.2 -0.7467E+01  0.5178E+00  0.6232E+01E
 Epicentro: LOS SANTOS - SANTANDER                                             3
 ACTION:UPD 12-12-05 15:33 OP:}ep  STATUS:               ID:20121114162116 L   I
 2012-11-14-1620-00M.COL___230                                                 6
 STAT SP IPHASW D HRMM SECON CODA AMPLIT PERI AZIMU VELO AIN AR TRES W  DIS CAZ7
 BAR2 SZ EP       1621 36.46                             171   -0.0610 23.3 181 
 BAR2 SZ ES       1621 51.96                             171    0.0310 23.3 181 
 GIR2 SZ ES       1621 52.25                             168    0.2810 30.6 357 
 PAM  SZ EP       1621 39.43                             150    0.2110 79.6  42 
 PAM  SZ I        1621 39.65         4.8 0.46                          79.6  42 
 PAM  SN ES       1621 56.40                             150   -0.3410 79.6  42 
 RUS  HZ EP       1621 40.64                             144   -0.0210  101 174 
 PTB  HZ EP       1621 43.49                             133    0.00 9  144 258 
 PTB  HN ES       1622  4.22                             133   -0.12 9  144 258 
                                                                                
