 2015 1214 1351 31.8 L   6.818 -73.133153.9  RSN 10 0.5 2.0LRSN                1
 GAP=120        1.15       5.9     4.8  7.3 -0.8212E+01  0.1730E+01  0.4699E+01E
 Epicentro: LOS SANTOS - SANTANDER                                             3
 ACTION:UPD 16-02-04 15:04 OP:cam  STATUS:               ID:20151214135131 L   I
 OLDACT:REG 15-12-14 20:43 OP:ar   STATUS:               ID:20151214134747     3
 2015-12-14-1347-47M.COL___327                                                 6
 STAT SP IPHASW D HRMM SECON CODA AMPLIT PERI AZIMU VELO AIN AR TRES W  DIS CAZ7
 BAR2 EZ EP       1351 52.42                             170   -0.0010 25.6 192 
 BAR2 EZ ES       1352  8.05                             170   -0.4810 25.6 192 
 BAR2 EZ I        1352  9.50        18.2 0.18            171           25.6 192 
 BRR  HZ EP       1351 54.25                             154    0.4310 71.5 297 
 BRR  HN ES       1352 11.86                             154    0.8410 71.5 297 
 BRR  HZ I        1352 17.48        13.5 0.46            154           71.5 297 
 PAM  EZ EP       1351 55.26                             153    0.5410 75.0  40 
 PAM  EN ES       1352 12.46                             153   -0.1610 75.0  40 
 PAM  EZ I        1352 14.66        23.5 0.56            156           75.0  40 
 RUS  HZ EP   2   1351 56.73                             145    0.27 5  103 177 
 RUS  HN ES   2   1352 15.57                             145   -0.15 5  103 177 
 RUS  HZ I        1352 16.65        13.5 0.46            148            103 177 
 PTB  HZ EP       1351 59.33                             133   -0.23 9  150 258 
 PTB  HN ES       1352 20.35                             133   -0.90 9  150 258 
 PTB  HZ I        1352 22.53        17.8 0.12            135            150 258 
 SPBC HZ EP       1352  1.52                             130    0.39 9  166 219 
 SPBC HN ES   2   1352 24.04                             130    0.01 5  166 219 
 SPBC HZ I        1352 28.51        22.6 0.25            132            166 219 
 ZAR  HN ES       1352 30.38                             124   -0.20 9  205 291 
 ZAR  HZ I        1352 33.40         9.3 0.16            126            205 291 
 SML  HN ES   2   1352 36.94                             119   -0.62 4  242 335 
 SOCV BZ EP       1352 14.07                             114   -0.88 7  299  57 
 SOCV BN ES   4   1352 45.76                             114   -2.87 0  299  57 
 GUY2CHZ EP   4   1352 18.13                             114    2.11 0  303 235 
 GUY2CHN ES       1352 50.83                             114    0.30 7  303 235 
 GUY2CHZ I        1352 51.30         1.9 0.28                           303 235 
                                                                                
