 2015  414 1128 37.9 L   6.778 -73.130147.3  RSN  9 0.4 1.9LRSN                1
 GAP=202        0.83       3.5     4.9  5.8  0.1714E+01  0.2376E+01 -0.7392E+00E
 Epicentro: LOS SANTOS - SANTANDER                                             3
 ACTION:UPD 15-06-03 16:54 OP:cam  STATUS:               ID:20150414112837 L   I
 OLDACT:REG 15-04-14 20:08 OP:spq  STATUS:               ID:20150414111749     3
 2015-04-14-1117-49M.COL___271                                                 6
 STAT SP IPHASW D HRMM SECON CODA AMPLIT PERI AZIMU VELO AIN AR TRES W  DIS CAZ7
 BAR2 EZ EP       1128 57.63                             171   -0.0910 21.3 196 
 BAR2 EZ ES   1   1129 12.61                             171   -0.53 7 21.3 196 
 BAR2 EZ I        1129 14.08        17.9 0.14            168           21.3 196 
 BRR  HZ EP       1128 59.48                             152    0.0710 73.9 300 
 BRR  HN ES       1129 16.56                             152    0.4010 73.9 300 
 BRR  HZ I        1129 19.67        17.2 0.26            149           73.9 300 
 RUS  HZ EP       1129  1.50                             145   -0.1610 98.0 177 
 RUS  HN ES   1   1129 20.70                             145    0.54 7 98.0 177 
 RUS  HZ I        1129 23.53         5.1 0.26            146           98.0 177 
 PTB  HZ EP   1   1129  4.48                             132   -0.67 7  149 260 
 PTB  HE ES   1   1129 26.00                             132   -0.37 7  149 260 
 PTB  HZ I        1129 31.45        11.8 0.54            131            149 260 
 SPBC HZ EP       1129  6.54                             129    0.06 9  162 220 
 SPBC HE ES   1   1129 28.40                             129   -0.35 7  162 220 
 SPBC HZ I        1129 30.69        15.8 0.16            129            162 220 
 ZAR  HE ES   1   1129 36.32                             122   -0.02 6  207 293 
 ZAR  HZ I        1129 41.75         9.6 0.30            122            207 293 
 NOR  HZ EP       1129 13.77                             119    0.01 8  235 235 
 NOR  HN ES       1129 42.08                             119    0.38 8  235 235 
 NOR  HZ I        1129 49.42         6.2 0.14            119            235 235 
 SML  HZ EP       1129 15.60                             117    0.62 8  247 335 
 SML  HE ES   1   1129 43.18                             117   -0.68 6  247 335 
 SML  HZ I        1129 47.23         8.8 0.28            119            247 335 
 MON  HN ES   4   1130  3.87                             109   -1.99 0  357 309 
 MON  HZ I        1130  6.28         1.8 0.28            110            357 309 
                                                                                
