 2014  414 1132 31.5 L   6.830 -73.217138.3  RSN  7 0.3 1.7LRSN                1
 GAP=127        0.61       2.0     3.1  5.4 -0.2537E+01  0.7777E+01 -0.2387E+01E
 Epicentro: ZAPATOCA - SANTANDER                                               3
 OLDACT:DUP 14-04-14 21:26 OP:stll STATUS:               ID:20140414112819d    3
 ACTION:UPD 14-05-13 23:08 OP:nd   STATUS:               ID:20140414113231 L   I
 OLDACT:UP  14-04-14 21:32 OP:stll STATUS:               ID:20140414112819d    3
 2014-04-14-1128-18M.COL___266                                                 6
 STAT SP IPHASW D HRMM SECON CODA AMPLIT PERI AZIMU VELO AIN AR TRES W  DIS CAZ7
 PAM  SZ IP     C 1132 53.29                             148    0.1510 80.3  45 
 PAM  SE ES       1133  9.86                             148   -0.1410 80.3  45 
 PAM  SZ I        1133 11.84         7.1 0.18            155           80.3  45 
 RUS  HZ EP   2   1132 54.63                             141   -0.24 5  105 172 
 RUS  HN ES       1133 13.10                             141    0.0310  105 172 
 RUS  SZ I        1133 20.43         6.5 0.08            145            105 172 
 PTB  HZ EP       1132 57.25                             132   -0.01 9  141 257 
 PTB  HN ES       1133 17.40                             132    0.08 9  141 257 
 PTB  SZ I        1133 20.36         8.6 0.14            134            141 257 
 OCA  HN ES       1133 20.66                             129    0.43 9  156 356 
 SPBC HZ EP   1   1132 59.54                             128    0.28 7  161 216 
 SPBC HN ES       1133 20.52                             128   -0.36 9  161 216 
 SPBC SZ I        1133 29.60         5.5 0.22            131            161 216 
 NOR  HZ EP       1133  6.63                             117    0.27 8  230 233 
 NOR  HN ES       1133 33.66                             117    0.13 8  230 233 
 NOR  SZ I        1133 40.70         5.1 2.14            120            230 233 
 SML  HZ EP       1133  6.63                             116   -0.44 8  238 337 
 SML  HN ES       1133 34.49                             116   -0.31 8  238 337 
 SML  SZ I        1133 45.13         8.4 0.08            120            238 337 
                                                                                
