 2013 1014 1456 15.9 L   6.496 -73.572112.7  RSN  5 0.4 1.8LRSN                1
 GAP=197        1.00       8.3     4.6  8.1 -0.1506E+02  0.3288E+01 -0.2844E+01E
 Epicentro: SANTA HELENA DEL OPON - SANTANDER                                  3
 ACTION:UPD 13-11-25 09:21 OP:ep   STATUS:               ID:20131014145615 L   I
 OLDACT:UP  13-10-14 16:46 OP:cam  STATUS:               ID:20131014144959     3
 OLDACT:REG 13-10-14 15:55 OP:cam  STATUS:               ID:20131014144959     3
 2013-10-14-1449-59M.COL___273                                                 6
 STAT SP IPHASW D HRMM SECON CODA AMPLIT PERI AZIMU VELO AIN AR TRES W  DIS CAZ7
 BAR2 SZ EP     C 1456 32.87                             157    0.4910 44.4  76 
 BAR2 SZ ES       1456 45.20                             157   -0.0210 44.4  76 
 BAR2 SZ I        1456 47.05        48.4 0.34            157           44.4  76 
 BRR  HZ EP       1456 33.73                             146    0.2410 69.4 347 
 BRR  HZ I        1456 33.74         5.6 0.12            149           69.4 347 
 BRR  HN ES       1456 47.70                             146    0.5110 69.4 347 
 PTB  HZ EP       1456 35.65                             136   -0.0710 97.9 273 
 PTB  HN ES       1456 50.65                             136   -0.5010 97.9 273 
 PAM  SZ EP   1   1456 39.60                             126   -0.09 7  134  46 
 PAM  SN ES       1456 57.53                             126   -0.7010  134  46 
 PAM  SE I        1456 58.15        12.5 0.16            128            134  46 
 SML  HZ EP   1   1456 52.99                             108    0.08 6  261 348 
                                                                                
