 2015  514 1553 57.3 L   6.799 -73.135151.3  RSN 10 0.3 2.1LRSN                1
 GAP=138        0.73       2.1     3.2  4.0 -0.6494E+00  0.4340E+01  0.4600E+00E
 Epicentro: LOS SANTOS - SANTANDER                                             3
 ACTION:UPD 15-09-10 22:04 OP:cam  STATUS:               ID:20150514155357 L   I
 OLDACT:REG 15-05-14 20:38 OP:drio STATUS:               ID:20150514154749     3
 2015-05-14-1547-49M.COL___283                                                 6
 STAT SP IPHASW D HRMM SECON CODA AMPLIT PERI AZIMU VELO AIN AR TRES W  DIS CAZ7
 BAR2 EZ EP       1554 17.56                             171   -0.0610 23.4 193 
 BAR2 EZ ES       1554 33.10                             171   -0.3510 23.4 193 
 BAR2 EZ I        1554 35.98        27.5 0.26            169           23.4 193 
 BRR  HZ EP       1554 19.42                             153    0.2810 72.3 298 
 BRR  HN ES       1554 36.93                             153    0.7810 72.3 298 
 PAM  SZ EP       1554 20.27                             152    0.1710 76.7  39 
 PAM  SE ES       1554 37.77                             152   -0.0910 76.7  39 
 PAM  SZ I        1554 39.71        16.9 0.44            155           76.7  39 
 RUS  HZ EP       1554 21.68                             145    0.0710  100 177 
 RUS  HE ES       1554 40.41                             145   -0.1410  100 177 
 RUS  HZ I        1554 42.82        12.4 0.34            146            100 177 
 SPBC HZ EP       1554 26.49                             130    0.17 9  164 219 
 SPBC HN ES       1554 48.81                             130   -0.12 9  164 219 
 SPBC HZ I        1554 51.39        24.0 0.32            131            164 219 
 ZAR  HZ EP       1554 30.40                             123    0.14 8  205 292 
 ZAR  HN ES       1554 55.76                             123   -0.19 8  205 292 
 ZAR  HZ I        1555  1.60        13.6 0.42            124            205 292 
 NOR  HZ EP       1554 33.17                             120   -0.31 8  236 235 
 NOR  HN ES       1555  1.48                             120   -0.20 8  236 235 
 NOR  HZ I        1555  5.40         9.8 0.20            120            236 235 
 SML  HZ EP       1554 34.06                             118   -0.28 8  244 335 
 SML  HE ES       1555  2.66                             118   -0.55 8  244 335 
 SML  HZ I        1555  5.71        13.9 0.10            120            244 335 
 CHI  HZ EP       1554 35.73                             118    0.37 8  249 195 
 CHI  HN ES       1555  4.82                             118   -0.20 8  249 195 
 CHI  HZ I        1555 14.62         5.1 0.32            119            249 195 
 GUY2CHZ EP       1554 41.39                             113    0.09 7  302 235 
 GUY2CHN ES       1555 15.62                             113    0.03 7  302 235 
 GUY2CHZ I        1555 26.00         6.7 0.50                           302 235 
                                                                                
