 2014  214 1209 54.1 L   6.802 -73.127142.6  RSN 20 0.5 2.6LRSN                1
 GAP= 55        0.95       2.7     3.4  4.9 -0.1974E+01  0.7114E+01 -0.5101E+00E
 Epicentro: LOS SANTOS - SANTANDER                                             3
 ACTION:UPD 14-03-10 08:10 OP:ep   STATUS:               ID:20140214120954 L   I
 OLDACT:UP  14-02-14 17:52 OP:mh   STATUS:               ID:20140214120848     3
 OLDACT:REG 14-02-14 15:41 OP:mh   STATUS:               ID:20140214120848     3
 2014-02-14-1208-48M.COL___208                                                 6
 STAT SP IPHASW D HRMM SECON CODA AMPLIT PERI AZIMU VELO AIN AR TRES W  DIS CAZ7
 BAR2 SZ IP     D 1210 13.48                             170    0.1710 24.0 195 
 BAR2 SZ ES       1210 28.56                             170    0.2310 24.0 195 
 BAR2 SZ I        1210 29.59       231.9 0.10            163           24.0 195 
 PAM  SZ IP     D 1210 16.36                             150    0.5210 75.9  38 
 PAM  SN ES       1210 33.08                             150    0.2510 75.9  38 
 PAM  SZ I        1210 34.87        54.4 0.12            147           75.9  38 
 RUS  HZ EP       1210 17.44                             143   -0.0610  101 177 
 RUS  HN ES       1210 35.46                             143   -0.3210  101 177 
 RUS  HZ I        1210 42.10        31.9 0.08            138            101 177 
 PTB  HZ EP       1210 20.06                             131   -0.89 9  150 259 
 PTB  HZ I        1210 43.72        71.3 0.19            120            150 259 
 TAM  HZ EP   1   1210 21.77                             130    0.47 7  153 105 
 TAM  HN ES   1   1210 42.70                             130    0.15 7  153 105 
 OCA  HZ EP       1210 22.17                             129    0.05 9  160 352 
 OCA  HN ES   1   1210 43.49                             129   -0.52 7  160 352 
 OCA  HZ I        1210 47.30        36.4 0.25            120            160 352 
 SPBC HZ EP       1210 22.41                             128   -0.04 9  165 219 
 SPBC HN ES       1210 44.21                             128   -0.39 9  165 219 
 SPBC HZ I        1210 53.20        50.3 0.23            119            165 219 
 ZAR  HZ EP       1210 26.46                             121   -0.02 8  206 292 
 ZAR  HN ES   1   1210 51.77                             121   -0.01 6  206 292 
 NOR  HZ EP       1210 29.43                             118   -0.36 8  236 235 
 NOR  HZ I        1211  3.32        36.5 0.24            110            236 235 
 SML  HZ EP       1210 30.07                             117   -0.50 8  244 335 
 SML  HZ I        1211  0.98        32.8 0.10            109            244 335 
 CHI  HZ EP       1210 31.62                             116   -0.04 8  249 196 
 CHI  HN ES       1211  0.97                             116   -0.02 8  249 196 
 CHI  HZ I        1211  7.61        11.7 0.31            110            249 196 
 ROSC BZ EP   1   1210 33.20                             116    1.06 6  254 211 
 ROSC BN ES   4   1211  4.83                             116    2.99 0  254 211 
 ROSC BZ I        1211 10.39        40.9 0.43            109            254 211 
 HEL  HZ EP   1   1210 35.45                             114    1.12 6  274 256 
 HEL  HZ I        1211 12.52        33.0 0.27            106            274 256 
 URE  HZ EP   4   1210 33.82                             113   -1.36 0  286 292 
 URE  HN ES   4   1211  5.89                             113   -1.36 0  286 292 
 GUY2CHZ EP   1   1210 38.52                             112    0.80 5  303 235 
 GUY2CHN ES   1   1211 12.72                             112    0.94 5  303 235 
 GUY2CHZ I        1211 20.76        26.1 0.43                           303 235 
 PTGC HZ EP   1   1210 36.54                             111   -1.17 5  308 159 
 PTGC HN ES   4   1211  9.14                             111   -2.61 0  308 159 
 PTGC HZ I        1211 10.16        20.7 0.37            106            308 159 
 CBOC HZ EP       1210 41.62                             109    0.55 7  336 252 
 CBOC HN ES       1211 17.43                             109   -0.31 7  336 252 
 CBOC HZ I        1211 21.52        10.1 0.48            103            336 252 
 DBB  SZ EP       1210 41.71                             109    0.07 7  342 274 
 SDV  BZ EP   1   1210 43.21                             108   -0.56 5  359  50 
 PRA  HZ EP   1   1210 47.39                             106   -0.22 4  393 210 
 PRA  HN ES   1   1211 28.91                             106   -0.47 4  393 210 
 PRA  HZ I        1211 36.93        18.4 0.26            101            393 210 
 ORTC HZ EP   1   1210 48.39                             106    0.36 4  397 216 
 ORTC HN ES   2   1211 30.44                             106    0.31 3  397 216 
 ORTC HZ I        1211 36.77        20.1 0.17            100            397 216 
 SJC  HZ EP   4   1210 47.86                             105   -1.76 0  410 327 
                                                                                
