 2014 1214 1057 16.2 L   6.770 -73.178139.0  RSN  4 0.4 1.1LRSN                1
 GAP=140        1.10       6.5     6.3 10.1 -0.1246E+02  0.1813E+02 -0.5717E+01E
 Epicentro: LOS SANTOS - SANTANDER                                             3
 ACTION:UPD 15-02-10 17:03 OP:nd   STATUS:               ID:20141214105716 L   I
 OLDACT:REG 14-12-14 20:33 OP:fm   STATUS:               ID:20141214104740     3
 2014-12-14-1047-40M.COL___278                                                 6
 STAT SP IPHASW D HRMM SECON CODA AMPLIT PERI AZIMU VELO AIN AR TRES W  DIS CAZ7
 BAR2 EZ EP       1057 34.85                             172   -0.1210 19.6 181 
 BAR2 EZ ES   1   1057 50.35                             172    0.76 7 19.6 181 
 BAR2 EZ I        1057 52.19         3.7 0.18            171           19.6 181 
 PAM  SZ EP       1057 38.28                             148    0.2510 82.2  40 
 PAM  SE ES       1057 54.71                             148   -0.3310 82.2  40 
 PAM  SZ I        1057 56.12         2.1 0.22            152           82.2  40 
 RUS  HZ EP       1057 39.69                             143    0.6010 97.6 174 
 RUS  HN ES       1057 56.35                             143   -0.5810 97.6 174 
 RUS  HZ I        1057 59.32         1.3 0.22            146           97.6 174 
 PTB  HZ EP       1057 41.85                             131   -0.42 9  144 260 
 PTB  HN ES       1058  2.71                             131    0.13 9  144 260 
 PTB  HZ I        1058  6.38         2.9 0.40            133            144 260 
                                                                                
