 2014  314 1852  9.8 L   6.800 -73.149142.3  RSN 16 0.4 2.3LRSN                1
 GAP=136        0.98       3.0     4.0  6.5 -0.3370E+00  0.9463E+01  0.2737E+00E
 Epicentro: LOS SANTOS - SANTANDER                                             3
 ACTION:UPD 14-04-09 23:17 OP:nd   STATUS:               ID:20140314185209 L   I
 OLDACT:REG 14-03-14 17:10 OP:nd   STATUS:               ID:20140314185039     3
 2014-03-14-1850-39M.COL___254                                                 6
 STAT SP IPHASW D HRMM SECON CODA AMPLIT PERI AZIMU VELO AIN AR TRES W  DIS CAZ7
 BAR2 SZ EP       1852 29.38                             170    0.3310 23.2 189 
 BAR2 SZ ES   2   1852 43.73                             170   -0.30 5 23.2 189 
 BAR2 SZ I        1852 53.13        48.0 0.50            170           23.2 189 
 BRR  HZ IP     C 1852 30.90                             152    0.3010 70.9 299 
 BRR  HN ES   2   1852 46.70                             152   -0.08 5 70.9 299 
 BRR  HZ I        1852 51.92        31.2 0.24            150           70.9 299 
 PAM  SZ EP       1852 32.00                             150    0.3010 77.6  40 
 PAM  SN ES       1852 48.90                             150    0.1510 77.6  40 
 PAM  SZ I        1852 51.37        35.7 0.46            155           77.6  40 
 RUS  HZ EP       1852 33.15                             143   -0.1010  101 176 
 RUS  HN ES       1852 51.14                             143   -0.3710  101 176 
 RUS  HZ I        1852 53.32        18.1 0.24            149            101 176 
 PTB  HZ EP       1852 35.56                             131   -0.93 9  147 259 
 PTB  HN ES       1852 57.08                             131   -0.20 9  147 259 
 PTB  HZ I        1853  2.00        26.0 0.36            133            147 259 
 ZAR  HZ EP       1852 41.91                             122   -0.12 9  204 292 
 ZAR  HN ES       1853  7.12                             122   -0.01 9  204 292 
 ZAR  HZ I        1853 13.48        21.5 0.28            123            204 292 
 NOR  HZ EP       1852 45.20                             118   -0.14 8  234 234 
 NOR  HN ES       1853 13.24                             118    0.22 8  234 234 
 NOR  HZ I        1853 18.23        21.0 0.18            121            234 234 
 SML  HZ EP       1852 45.38                             117   -0.88 8  244 335 
 SML  HN ES       1853 14.96                             117    0.29 8  244 335 
 SML  HZ I        1853 17.56        39.3 0.30            119            244 335 
 CHI  HZ EP       1852 47.52                             116    0.18 8  249 195 
 CHI  HN ES       1853 16.78                             116    0.20 8  249 195 
 CHI  HZ I        1853 23.04        12.7 0.30            121            249 195 
 HEL  HZ EP       1852 50.78                             114    0.94 8  272 256 
 HEL  HN ES   2   1853 21.92                             114    0.88 4  272 256 
 HEL  HZ I        1853 28.00        15.9 0.42            117            272 256 
 URE  HZ EP   4   1852 48.98                             113   -1.73 0  284 292 
 URE  HN ES   4   1853 24.84                             113    2.26 0  284 292 
 URE  HZ I        1853 31.45        20.4 0.18            115            284 292 
 GUY2CHZ EP   4   1852 53.89                             112    0.63 0  301 235 
 GUY2CHN ES   4   1853 29.91                             112    2.79 0  301 235 
 GUY2CHZ I        1853 35.17        12.0 0.56                           301 235 
 RREF HZ EP   4   1852 56.11                             110    0.31 0  321 229 
 RREF HN ES   4   1853 33.81                             110    2.16 0  321 229 
 RREF HZ I        1853 36.24        11.4 0.60            113            321 229 
 CBOC HZ EP   4   1852 57.01                             109    0.44 0  333 252 
 CBOC HN ES   4   1853 31.67                             109   -1.35 0  333 252 
 CBOC HZ I        1853 38.38         2.8 0.16            112            333 252 
 COD  HZ EP   4   1852 57.60                             108   -0.49 0  348 355 
 COD  HN ES   4   1853 34.45                             108   -1.26 0  348 355 
 COD  HZ I        1853 52.70         3.6 0.64            111            348 355 
 SJC  HZ EP   4   1853  3.86                             105   -1.41 0  409 327 
 SJC  HN ES   4   1853 42.34                             105   -6.17 0  409 327 
 SJC  HZ I        1853 51.28         4.0 0.36            108            409 327 
                                                                                
