 2015  714 1936 35.8 L   6.775 -73.124138.2  RSN  5 0.6 1.8LRSN                1
 GAP=140        1.38       6.0     8.4 11.1  0.7351E+01  0.3431E+02 -0.1875E+02E
 Epicentro: LOS SANTOS - SANTANDER                                             3
 ACTION:UPD 15-09-08 21:48 OP:cam  STATUS:               ID:20150714193635 L   I
 OLDACT:UP  15-07-15 01:39 OP:ak   STATUS:               ID:20150714192747     3
 OLDACT:REG 15-07-14 22:23 OP:ak   STATUS:               ID:20150714192747     3
 2015-07-14-1927-47M.COL___322                                                 6
 STAT SP IPHASW D HRMM SECON CODA AMPLIT PERI AZIMU VELO AIN AR TRES W  DIS CAZ7
 BAR2 EZ EP       1936 53.65                             171   -0.8010 21.2 198 
 BAR2 EZ ES       1937  8.71                             171   -0.3010 21.2 198 
 BAR2 EZ I        1937 11.22        14.3 0.20            169           21.2 198 
 PAM  EZ EP       1936 57.77                             149    0.5410 78.1  37 
 PAM  EN ES       1937 14.41                             149    0.4510 78.1  37 
 PAM  EZ I        1937 17.18        10.3 0.56            154           78.1  37 
 RUS  HZ EP       1936 59.06                             143    0.4910 97.7 177 
 RUS  HN ES       1937 16.16                             143   -0.1910 97.7 177 
 RUS  HZ I        1937 22.31         8.4 0.36            147           97.7 177 
 ZAR  HZ EP   1   1937  8.79                             120    0.71 6  207 293 
 ZAR  HE ES       1937 33.90                             120    0.62 8  207 293 
 ZAR  HZ I        1937 39.93         6.2 0.42            122            207 293 
 SML  HZ EP       1937 11.47                             115   -0.90 8  247 335 
 SML  HE ES       1937 40.35                             115   -0.57 8  247 335 
 SML  HZ I        1937 46.68         6.4 0.10            118            247 335 
                                                                                
