 2012 1214 1245 30.1 L   6.811 -73.161148.1  RSN  5 0.3 2.0LRSN                1
 GAP=134        0.82       4.5     4.6  7.9  0.4724E+01  0.4230E+01  0.4311E+01E
 Epicentro: LOS SANTOS - SANTANDER                                             3
 ACTION:UPD 13-01-04 14:27 OP:ep   STATUS:               ID:20121214124530 L   I
 2012-12-14-1240-00M.COL___242                                                 6
 STAT SP IPHASW D HRMM SECON CODA AMPLIT PERI AZIMU VELO AIN AR TRES W  DIS CAZ7
 BAR2 SZ EP       1245 49.62                             170   -0.4010 24.3 186 
 BRR  HZ EP       1245 51.83                             154    0.4510 69.2 298 
 BRR  HN ES       1246  8.29                             154    0.3010 69.2 298 
 BRR  HN I        1246  9.09        40.7 0.22                          69.2 298 
 PAM  SZ EP     C 1245 52.83                             151    0.2710 77.5  41 
 PAM  SN ES       1246  9.82                             151   -0.2710 77.5  41 
 PAM  SN I        1246 10.65        16.1 0.38                          77.5  41 
 RUS  HZ EP       1245 54.07                             144   -0.1010  102 175 
 RUS  HN ES       1246 12.99                             144    0.0410  102 175 
 RUS  HN I        1246 14.33        10.2 0.54                           102 175 
 ZAR  HN ES       1246 27.34                             123   -0.41 9  202 292 
 ZAR  HN I        1246 34.10         8.8 0.28                           202 292 
                                                                                
