 2013 1014 1230 35.4 L   6.063 -73.752103.2  RSN  4 0.1 1.5LRSN                1
 GAP=114        0.39       2.2     1.6  4.1 -0.2986E+00 -0.8636E+00 -0.1009E+01E
 Epicentro: BOLIVAR - SANTANDER                                                3
 ACTION:UPD 13-11-25 09:21 OP:ep   STATUS:               ID:20131014123035 L   I
 OLDACT:UP  13-10-14 16:34 OP:cam  STATUS:               ID:20131014122959     3
 OLDACT:REG 13-10-14 15:41 OP:cam  STATUS:               ID:20131014122959     3
 2013-10-14-1229-59M.COL___273                                                 6
 STAT SP IPHASW D HRMM SECON CODA AMPLIT PERI AZIMU VELO AIN AR TRES W  DIS CAZ7
 SPBC HZ EP       1230 51.33                             149   -0.0310 57.6 218 
 SPBC HN ES       1231  3.67                             149   -0.1210 57.6 218 
 SPBC HZ I        1231  6.20         5.0 0.16            150           57.6 218 
 RUS  HZ EP       1230 53.32                             141    0.0710 76.4 104 
 RUS  HZ I        1230 53.72        12.9 0.10            147           76.4 104 
 RUS  HE ES       1231  7.32                             141    0.1610 76.4 104 
 BAR2 SZ EP       1230 53.58                             137   -0.0810 86.0  47 
 BAR2 SZ ES       1231  7.78                             137   -0.1210 86.0  47 
 BAR2 SZ I        1231  8.83        21.9 0.12            140           86.0  47 
 PTB  HN ES       1231  8.72                             134    0.1310 94.1 304 
 PTB  HZ I        1231 13.80         3.7 0.20            133           94.1 304 
                                                                                
