 2015 1114 1342  7.2 L   6.824 -73.111153.6  RSN 20 0.4 2.7LRSN                1
 GAP=121        1.00       2.3     3.3  4.7 -0.5018E+00  0.5207E+01  0.1526E+01E
 Epicentro: LOS SANTOS - SANTANDER                                             3
 ACTION:UPD 15-12-28 16:10 OP:cam  STATUS:               ID:20151114134207 L   I
 OLDACT:REG 15-11-14 20:32 OP:cara STATUS:               ID:20151114133750     3
 2015-11-14-1337-50M.COL___319                                                 6
 STAT SP IPHASW D HRMM SECON CODA AMPLIT PERI AZIMU VELO AIN AR TRES W  DIS CAZ7
 BAR2 EZ IP     D 1342 28.06                             170    0.1810 26.8 197 
 BAR2 EZ ES       1342 43.37                             170   -0.6110 26.8 197 
 BAR2 EZ I        1342 45.75        89.0 0.26            168           26.8 197 
 PAM  EZ EP       1342 29.77                             154   -0.2710 72.9  39 
 PAM  EN ES       1342 48.19                             154    0.3710 72.9  39 
 PAM  EZ I        1342 50.22        93.2 0.50            157           72.9  39 
 BRR  HZ EP       1342 30.09                             153    0.7310 73.4 295 
 BRR  HN ES       1342 47.27                             153    0.6610 73.4 295 
 BRR  HZ I        1342 51.21        46.5 0.16            152           73.4 295 
 RUS  HZ EP       1342 31.92                             145   -0.0210  103 178 
 RUS  HN ES       1342 51.00                             145   -0.2010  103 178 
 RUS  HZ I        1342 53.90        32.1 0.22            146            103 178 
 OCA  HZ EP       1342 35.38                             132   -0.59 9  158 352 
 OCA  HE ES       1342 58.03                             132   -0.35 9  158 352 
 OCA  HZ I        1343  6.52        98.3 0.22            134            158 352 
 SPBC HZ EP       1342 37.01                             130    0.24 9  168 219 
 SPBC HE ES       1342 59.99                             130    0.19 9  168 219 
 SPBC HZ I        1343  4.11        95.6 0.18            131            168 219 
 ZAR  HZ EP       1342 41.13                             124    0.66 8  207 291 
 ZAR  HE ES       1343  6.47                             124    0.09 8  207 291 
 ZAR  HZ I        1343 12.46        60.0 0.14            124            207 291 
 NOR  HZ EP       1342 44.18                             120    0.25 8  239 234 
 NOR  HN ES       1343 11.95                             120   -0.59 8  239 234 
 NOR  HZ I        1343 19.21        42.9 0.22            120            239 234 
 SML  HZ EP       1342 43.88                             119   -0.35 8  243 334 
 SML  HE ES       1343 13.22                             119    0.14 8  243 334 
 SML  HZ I        1343 19.45        73.1 0.10            121            243 334 
 CHI  HZ EP       1342 45.92                             118    0.15 8  252 196 
 CHI  HN ES       1343 15.63                             118   -0.19 8  252 196 
 CHI  HZ I        1343 19.50        22.7 0.42            120            252 196 
 ROSC BZ EP   4   1342 48.22                             118    1.96 0  257 211 
 ROSC BE ES   4   1343 18.23                             118    1.54 0  257 211 
 ROSC BZ I        1343 22.37        55.6 0.40            119            257 211 
 HEL  HZ EP   4   1342 50.20                             116    1.86 0  276 255 
 HEL  HN ES       1343 20.42                             116    0.02 7  276 255 
 HEL  HZ I        1343 26.74        25.2 0.36            117            276 255 
 GUY2CHZ EP       1342 52.16                             113    0.42 7  306 235 
 GUY2CHE ES       1343 25.69                             113   -0.76 7  306 235 
 GUY2CHZ I        1343 34.69        34.8 0.38                           306 235 
 PTGC HZ EP       1342 50.95                             113   -0.63 7  310 159 
 PTGC HN ES   4   1343 24.88                             113   -1.29 0  310 159 
 PTGC HZ I        1343 32.95        27.7 0.42            115            310 159 
 CBOC HZ EP       1342 55.83                             111    0.83 7  338 252 
 CBOC HN ES       1343 32.13                             111   -0.12 7  338 252 
 CBOC HZ I        1343 41.12         9.0 0.40            112            338 252 
 DBB  SZ EP       1342 55.26                             111   -0.20 7  343 274 
 DBB  SZ ES       1343 32.39                             111   -0.68 7  343 274 
 MON  HZ EP   4   1342 55.30                             110   -1.41 0  355 308 
 MON  HE ES       1343 34.46                             110   -0.84 6  355 308 
 MON  HZ I        1343 36.43        11.4 0.40            111            355 308 
 PRA  HZ EP       1343  1.50                             108   -0.03 6  396 210 
 PRA  HE ES       1343 44.25                             108    0.37 6  396 210 
 PRA  HZ I        1343 49.51        26.8 0.58            109            396 210 
 ORTC HZ EP       1343  2.21                             107    0.26 6  400 216 
 ORTC HN ES       1343 44.94                             107    0.32 6  400 216 
 ORTC HZ I        1343 52.68        17.1 0.26            109            400 216 
 PAL  HZ EP   4   1343  3.50                             107    0.29 0  410 239 
 PAL  HE ES   4   1343 40.89                             107   -5.98 0  410 239 
 PAL  HZ I        1343 52.60         9.7 0.20            108            410 239 
                                                                                
