 2014  914 1953 48.5 L   6.854 -73.220132.2  RSN  8 0.4 1.8LRSN                1
 GAP=195        0.80       2.9     4.3  6.4  0.1934E+01  0.4809E+01  0.7380E+00E
 Epicentro: ZAPATOCA - SANTANDER                                               3
 ACTION:UPD 14-10-03 23:04 OP:nd   STATUS:               ID:20140914195348 L   I
 OLDACT:REG 14-09-14 20:58 OP:mh   STATUS:               ID:20140914194818     3
 2014-09-14-1948-18M.COL___293                                                 6
 STAT SP IPHASW D HRMM SECON CODA AMPLIT PERI AZIMU VELO AIN AR TRES W  DIS CAZ7
 BRR  HZ EP       1954  7.26                             154   -0.3510 61.2 297 
 BRR  HN ES       1954 22.75                             154    0.2210 61.2 297 
 BRR  HZ I        1954 25.81        11.0 0.48            152           61.2 297 
 RUS  HZ EP       1954 11.81                             139    0.3410  107 172 
 RUS  HN ES       1954 29.36                             139   -0.0310  107 172 
 RUS  HZ I        1954 31.67         5.9 0.04            142            107 172 
 PTB  HZ EP   1   1954 12.79                             130   -0.97 7  141 256 
 PTB  HN ES       1954 33.13                             130   -0.33 9  141 256 
 PTB  HZ I        1954 37.62         8.6 0.79            131            141 256 
 SPBC HN ES   1   1954 37.46                             126    0.07 7  163 215 
 SPBC HZ I        1954 43.58         7.8 0.42            127            163 215 
 ZAR  HZ EP   1   1954 19.48                             121    0.42 6  194 291 
 ZAR  HN ES   1   1954 43.37                             121    0.48 6  194 291 
 ZAR  HZ I        1954 48.97        15.7 0.29            123            194 291 
 NOR  HN ES       1954 50.17                             116    0.00 8  232 232 
 NOR  HZ I        1954 53.61         5.0 0.12            118            232 232 
 SML  HZ EP   4   1954 21.22                             115   -2.21 0  235 336 
 SML  HN ES       1954 50.63                             115   -0.04 8  235 336 
 GUY2CHZ EP       1954 31.41                             110    0.25 7  298 233 
 GUY2CHN ES       1955  4.61                             110    0.18 7  298 233 
 GUY2CHZ I        1955 12.06         2.9 0.49                           298 233 
                                                                                
