 2015 1014 1621 14.4 L   6.573 -73.495106.0  RSN  5 0.2 2.0LRSN                1
 GAP=148        0.51       2.3     2.4  4.4 -0.1744E+01  0.6664E+01 -0.2480E+01E
 Epicentro: EL CARMEN - SANTANDER                                              3
 ACTION:UPD 15-12-22 20:40 OP:cam  STATUS:               ID:20151014162114 L   I
 OLDACT:UP  15-10-15 00:43 OP:ak   STATUS:               ID:20151014161750     3
 OLDACT:REG 15-10-14 20:47 OP:ak   STATUS:               ID:20151014161750     3
 2015-10-14-1617-50M.COL___313                                                 6
 STAT SP IPHASW D HRMM SECON CODA AMPLIT PERI AZIMU VELO AIN AR TRES W  DIS CAZ7
 BAR2 EZ EP       1621 29.96                             161    0.2510 34.7  86 
 BAR2 EZ ES       1621 41.53                             161   -0.0810 34.7  86 
 BAR2 EZ I        1621 44.13        81.7 0.40            164           34.7  86 
 PAM  EZ EP       1621 36.45                             127   -0.1010  122  46 
 PAM  EN ES       1621 53.74                             127   -0.0410  122  46 
 PAM  EZ I        1621 55.56         9.4 0.40            131            122  46 
 ZAR  HZ EP       1621 42.52                             115    0.36 9  182 304 
 ZAR  HN ES       1622  3.68                             115   -0.09 9  182 304 
 ZAR  HZ I        1622  6.47        11.8 0.30            118            182 304 
 SML  HZ EP       1621 50.08                             107   -0.37 8  254 346 
 SML  HE ES       1622 18.63                             107    0.10 8  254 346 
 GUY2CHZ EP       1621 51.15                             107    0.02 8  255 234 
 GUY2CHN ES       1622 19.57                             107   -0.17 8  255 234 
 GUY2CHZ I        1622 24.78         4.5 0.26                           255 234 
                                                                                
