 2010  914 1932 24.0 L   6.801 -73.074144.5  RSN  8 0.3 2.3LRSN                1
 GAP=245        0.74       4.5     7.0  6.2  0.8343E+01  0.1394E+02  0.6768E+01E
 Epicentro: LOS SANTOS - SANTANDER                                             3
 ACTION:UP  11-02-18 11:02 OP:tino STATUS:               ID:20100914193224 L   I
 2010-09-14-1928-56S.COL___113                                                 6
 STAT SP IPHASW D HRMM SECON CODA AMPLIT PERI AZIMU VELO SNR AR TRES W  DIS CAZ7
 BAR2 SZ EP       1932 43.67                             169     0.110   26 208 
 BAR2 SZ ES   1   1932 58.21                             169    -0.6 7   26 208 
 BAR2 SZ I        1933  0.31        60.9 0.23                            26 208 
 BRR  HZ EP       1932 45.51                             150     0.010   78 296 
 BRR  HN ES   1   1933  2.61                             150     0.4 7   78 296 
 BRR  HZ I        1933  4.64        34.0 0.22                            78 296 
 RUS  HZ EP       1932 47.63                             144     0.010  100 181 
 RUS  HE ES   1   1933  6.40                             144     0.3 7  100 181 
 RUS  HZ I        1933  7.64        17.0 0.25                           100 181 
 CHI  HZ EP   1   1933  1.94                             117     0.0 6  251 197 
 CHI  HE ES   1   1933 31.07                             117    -0.4 6  251 197 
 CHI  HZ I        1933 34.91        10.7 0.60                           251 197 
 ROSC BZ EP   2   1933  2.57                             116     0.0 4  257 213 
 ROSC BN ES   1   1933 33.14                             116     0.5 6  257 213 
 ROSC BZ I        1933 38.25        21.9 0.44                           257 213 
 HEL  HZ EP   1   1933  4.94                             114    -0.1 6  280 256 
 HEL  HN ES   2   1933 36.23                             114    -0.8 4  280 256 
 HEL  HZ I        1933 42.68        11.7 0.43                           280 256 
 RREF HZ EP   2   1933 11.25                             110     0.4 3  328 230 
 RREF HZ I        1933 52.51        13.7 0.35                           328 230 
 DBB  SZ EP   1   1933 12.09                             109    -0.3 5  347 274 
                                                                                
