 2013  714 1940 43.8 L   6.792 -73.174147.7  RSN  8 0.4 1.9LRSN                1
 GAP=133        1.11       4.7     5.7  7.1 -0.3700E+01  0.5127E+01  0.8902E+01E
 Epicentro: LOS SANTOS - SANTANDER                                             3
 ACTION:UPD 13-08-12 10:37 OP:ep   STATUS:               ID:20130714194043 L   I
 OLDACT:REG 13-07-14 16:14 OP:stll STATUS:               ID:20130714193850     3
 2013-07-14-1938-50M.COL___225                                                 6
 STAT SP IPHASW D HRMM SECON CODA AMPLIT PERI AZIMU VELO AIN AR TRES W  DIS CAZ7
 BAR2 SZ ES       1941 18.87                             171   -0.2510 22.1 182 
 BAR2 SZ I        1941 19.80        11.6 0.24            171           22.1 182 
 GIR2 SZ EP       1941  3.77                             167    0.0410 31.8 356 
 BRR  HZ EP       1941  5.58                             154    0.5310 68.9 300 
 BRR  HN ES       1941 22.45                             154    0.8410 68.9 300 
 BRR  HN I        1941 25.52        22.0 0.26            152           68.9 300 
 PAM  SZ EP       1941  6.49                             150    0.1010 80.0  41 
 PAM  SE ES       1941 23.36                             150   -0.6410 80.0  41 
 PAM  SE I        1941 25.48        12.8 0.62            154           80.0  41 
 RUS  HZ EP       1941  7.82                             144    0.1110100.0 174 
 RUS  HN ES       1941 26.62                             144    0.2710100.0 174 
 RUS  HN I        1941 28.06        11.1 0.36            147          100.0 174 
 PTB  HZ EP       1941 10.25                             133   -0.40 9  145 259 
 PTB  HN ES       1941 30.94                             133   -0.64 9  145 259 
 PTB  HN I        1941 36.97         8.4 0.50            133            145 259 
 SPBC HZ EP       1941 11.92                             130   -0.30 9  161 218 
 CHI  HZ EP       1941 21.68                             118    0.24 8  247 195 
 CHI  HN ES       1941 50.83                             118    0.04 8  247 195 
 CHI  HN I        1941 52.11         5.6 0.46            119            247 195 
                                                                                
