 2015  414 1639 42.5 L   7.469 -73.397119.4  RSN 10 0.3 2.1LRSN                1
 GAP= 95        0.77       2.4     3.3  5.0  0.5995E-01  0.7191E+01 -0.2990E+00E
 Epicentro: SABANA DE TORRES - SANTANDER                                       3
 ACTION:UPD 15-06-03 16:54 OP:cam  STATUS:               ID:20150414163942 L   I
 OLDACT:REG 15-04-14 20:48 OP:spq  STATUS:               ID:20150414163749     3
 2015-04-14-1637-49M.COL___281                                                 6
 STAT SP IPHASW D HRMM SECON CODA AMPLIT PERI AZIMU VELO AIN AR TRES W  DIS CAZ7
 BRR  HZ EP       1639 59.75                             154   -0.0110 53.0 221 
 BRR  HN ES       1640 13.09                             154   -0.1410 53.0 221 
 BRR  HZ I        1640 14.43        15.9 0.14            155           53.0 221 
 PAM  SZ EP       1640  2.28                             145    0.2510 78.3 100 
 PAM  SE ES       1640 17.42                             145    0.1410 78.3 100 
 PAM  SZ I        1640 18.80        40.3 0.26            153           78.3 100 
 OCA  HZ EP     D 1640  2.22                             142    0.1310 85.6   6 
 OCA  HE ES       1640 17.50                             142    0.1210 85.6   6 
 OCA  HZ I        1640 24.53        49.5 0.32            145           85.6   6 
 BAR2 EZ EP     D 1640  3.30                             137   -0.0210 99.8 166 
 BAR2 EZ ES   1   1640 19.04                             137   -0.54 7 99.8 166 
 BAR2 EZ I        1640 19.52        48.3 0.14            143           99.8 166 
 PTB  HZ EP       1640  7.97                             124   -0.27 9  156 229 
 PTB  HN ES   1   1640 28.17                             124   -0.16 7  156 229 
 PTB  HZ I        1640 34.31         9.6 0.12            126            156 229 
 ZAR  HZ EP       1640  9.47                             122    0.67 9  161 271 
 ZAR  HE ES   4   1640 30.95                             122    1.63 0  161 271 
 ZAR  HZ I        1640 34.67        13.9 0.07            125            161 271 
 SML  HZ EP       1640  8.84                             122   -0.33 9  165 333 
 SML  HE ES   1   1640 29.72                             122   -0.26 7  165 333 
 SML  HZ I        1640 34.36        23.5 0.30            125            165 333 
 RUS  HZ EP   1   1640 11.19                             120    0.05 7  178 169 
 NOR  HZ EP   1   1640 20.30                             109   -0.13 6  266 218 
 NOR  HE ES   1   1640 50.79                             109    0.77 6  266 218 
 NOR  HZ I        1640 56.54         7.0 0.16            113            266 218 
 MON  HZ EP       1640 22.27                             107   -0.70 7  289 300 
 MON  HN ES   1   1640 54.92                             107    0.37 5  289 300 
 MON  HZ I        1640 55.44         3.6 0.14            110            289 300 
                                                                                
