 2016  114 1515 36.5 L   6.761 -73.168153.0  RSN  4 0.4 1.4LRSN                1
 GAP=139        1.09       6.9     6.6  9.1 -0.1384E+02  0.1481E+02 -0.6155E+01E
 Epicentro: LOS SANTOS - SANTANDER                                             3
 ACTION:UPD 16-03-09 23:25 OP:cam  STATUS:               ID:20160114151536 L   I
 OLDACT:REG 16-01-14 21:20 OP:drio STATUS:               ID:20160114150747     3
 2016-01-14-1507-47M.COL___337                                                 6
 STAT SP IPHASW D HRMM SECON CODA AMPLIT PERI AZIMU VELO AIN AR TRES W  DIS CAZ7
 BAR2 EZ EP       1515 57.28                             173    0.3310 18.7 185 
 BAR2 EZ ES       1516 13.67                             173    0.7810 18.7 185 
 BAR2 EZ I        1516 19.40         4.3 0.24            173           18.7 185 
 PAM  EZ EP       1515 59.96                             151    0.1510 82.3  39 
 PAM  EZ ES       1516 17.44                             151   -0.5310 82.3  39 
 PAM  EZ I        1516 19.19         4.9 0.40            155           82.3  39 
 RUS  HZ EP       1516  0.56                             146   -0.1610 96.5 174 
 RUS  HE ES       1516 19.20                             146   -0.3910 96.5 174 
 RUS  HZ I        1516 21.02         3.2 0.36            150           96.5 174 
 PTB  HZ EP       1516  3.99                             134    0.17 9  145 260 
 PTB  HN ES       1516 24.73                             134   -0.37 9  145 260 
 PTB  HZ I        1516 28.32         4.2 0.18            137            145 260 
                                                                                
