 2011  214 1417 48.9 L   6.820 -72.836137.4  RSN  5 0.3 1.2LRSN                1
 GAP=193        0.65       4.8    21.1 10.4 -0.1181E+02 -0.1464E+03  0.7888E+01E
 Epicentro: SAN ANDRES - SANTANDER                                             3
 ACTION:UP  11-03-28 15:08 OP:jfem STATUS:               ID:20110214141748 L   I
 2011-02-14-1414-37S.COL___136                                                 6
 STAT SP IPHASW D HRMM SECON CODA AMPLIT PERI AZIMU VELO SNR AR TRES W  DIS CAZ7
 BAR2 SZ EP       1418  8.21                             161    -0.110   46 237 
 BAR2 SZ ES   2   1418 23.13                             161    -0.2 5   46 237 
 BAR2 SZ I        1418 25.45         5.5 0.25                            46 237 
 GIR2 SZ EP   3   1418  7.89                             159    -0.4 2   49 306 
 BTL  SZ EP       1418  8.11                             159    -0.310   49 283 
 BTL  SZ ES   1   1418 23.99                             159     0.4 7   49 283 
 RUS  HZ EP       1418 12.63                             140     0.310  106 195 
 RUS  HN ES   1   1418 30.28                             140    -0.3 7  106 195 
 RUS  HZ I        1418 32.40         2.2 0.29                           106 195 
 GRA  SZ EP   3   1418 13.39                             137     0.6 2  118   2 
 GRA  SZ ES   2   1418 31.31                             137    -0.1 5  118   2 
 GRA  SZ I        1418 35.85         2.8 0.36                           118   2 
                                                                                
