 2011  414 1824 42.0 L   6.776 -73.122147.1  RSN 12 0.4 2.8LRSN                1
 GAP=117        0.80       3.7     4.3  6.0 -0.5218E+01  0.6311E+01  0.5954E+01E
 Epicentro: LOS SANTOS - SANTANDER                                             3
 ACTION:UP  11-06-22 15:31 OP:REBC STATUS:               ID:20110414182442 L   I
 2011-04-14-1822-15S.COL___139                                                 6
 STAT SP IPHASW D HRMM SECON CODA AMPLIT PERI AZIMU VELO SNR AR TRES W  DIS CAZ7
 BAR2 SZ EP       1825  1.74                             171     0.010   21 198 
 BAR2 SZ ES   1   1825 17.03                             171    -0.1 7   21 198 
 BAR2 SZ I        1825 19.68       163.9 0.15                            21 198 
 GIR2 SZ EP   1   1825  1.85                             166     0.0 7   34 347 
 BRR  HZ EP       1825  3.71                             151     0.210   75 299 
 BRR  HN ES   1   1825 20.67                             151     0.4 7   75 299 
 BRR  HZ I        1825 23.45       134.3 0.09                            75 299 
 PAM  SZ EP       1825  4.57                             151     0.210   78  37 
 PAM  SE ES   1   1825 21.41                             151    -0.4 7   78  37 
 GRA  SZ EP   2   1825  7.07                             137    -0.4 5  128  16 
 GRA  SZ ES   1   1825 26.94                             137    -0.4 7  128  16 
 GRA  SZ I        1825 30.16        68.8 0.18                           128  16 
 OCA  SZ EP   1   1825 10.09                             129    -0.6 7  163 352 
 OCA  SZ ES   1   1825 33.69                             129     0.6 7  163 352 
 OCA  SZ I        1825 36.67        86.3 0.36                           163 352 
 YOP  SZ EP   1   1825 12.17                             127     0.4 7  175 154 
 YOP  SN ES   2   1825 34.85                             127    -0.1 4  175 154 
 YOP  SZ I        1825 38.96        34.0 0.26                           175 154 
 NOR  SZ EP   1   1825 17.44                             119    -0.4 6  235 235 
 NOR  SE ES   1   1825 45.94                             119     0.1 6  235 235 
 HEL  HZ EP   1   1825 22.19                             115    -0.3 6  274 256 
 HEL  HN ES   1   1825 53.69                             115    -0.4 6  274 256 
 HEL  HZ I        1825 59.91        41.6 0.63                           274 256 
 RREF HZ EP   1   1825 28.57                             111     0.4 5  322 230 
 RREF HN ES   1   1826  3.57                             111    -0.7 5  322 230 
 RREF HZ I        1826 14.21        47.5 0.41                           322 230 
 DBB  SZ EP   1   1825 29.71                             109    -0.1 5  342 275 
 TOL  SZ EP   1   1825 31.05                             109     0.8 5  343 225 
                                                                                
