 2014 1214 1043 12.5 L   6.900 -73.186147.5  RSN 15 0.5 2.2LRSN                1
 GAP=126        1.21       3.2     4.2  6.7 -0.6783E+00  0.1106E+02 -0.2511E+01E
 Epicentro: BETULIA - SANTANDER                                                3
 ACTION:UPD 15-02-10 17:03 OP:nd   STATUS:               ID:20141214104312 L   I
 OLDACT:DUP 14-12-14 21:10 OP:fm   STATUS:               ID:20141214103743d    3
 2014-12-14-1037-42M.COL___278                                                 6
 STAT SP IPHASW D HRMM SECON CODA AMPLIT PERI AZIMU VELO AIN AR TRES W  DIS CAZ7
 BAR2 EZ EP       1043 32.91                             166    0.2710 34.0 179 
 BAR2 EZ ES       1043 47.54                             166   -0.7710 34.0 179 
 BAR2 EZ I        1043 50.17        20.6 0.24            167           34.0 179 
 BRR  HZ EP       1043 34.13                             156    0.7210 62.5 292 
 BRR  HN ES       1043 50.62                             156    0.9310 62.5 292 
 BRR  HZ I        1043 52.64        26.1 0.12            151           62.5 292 
 PAM  SZ EP     C 1043 35.08                             153    0.4310 72.4  48 
 PAM  SE ES       1043 52.04                             153    0.1410 72.4  48 
 PAM  SZ I        1043 54.08        35.1 0.48            156           72.4  48 
 RUS  HZ EP       1043 37.41                             141    0.1110  112 174 
 RUS  HE ES       1043 56.07                             141   -0.5510  112 174 
 RUS  HZ I        1043 58.32         9.4 0.36            143            112 174 
 PTB  HZ EP       1043 39.68                             133    0.19 9  146 254 
 PTB  HN ES       1043 59.75                             133   -0.76 9  146 254 
 PTB  HZ I        1044  2.58        20.4 0.56            130            146 254 
 OCA  HZ EP   1   1043 39.35                             132   -0.58 7  149 354 
 OCA  HN ES       1044  0.90                             132   -0.39 9  149 354 
 OCA  HZ I        1044  6.80        16.0 0.18            132            149 354 
 SPBC HE ES       1044  4.45                             128   -0.09 9  169 215 
 SPBC HZ I        1044  7.93        20.0 0.26            128            169 215 
 ZAR  HZ EP       1043 44.82                             124    0.55 9  196 290 
 ZAR  HE ES       1044  9.57                             124    0.54 9  196 290 
 ZAR  HZ I        1044 15.49        45.8 0.50            122            196 290 
 SML  HZ EP   1   1043 47.14                             119   -0.85 6  232 335 
 SML  HN ES       1044 15.49                             119   -0.15 8  232 335 
 SML  HZ I        1044 20.62        23.9 0.28            119            232 335 
 NOR  HE ES       1044 16.92                             118    0.01 8  238 232 
 NOR  HZ I        1044 22.04         8.4 0.44            118            238 232 
 CHI  HE ES       1044 21.44                             116   -0.23 8  258 194 
 CHI  HZ I        1044 25.59         4.3 0.46            117            258 194 
 HEL  HZ EP       1043 53.16                             115    0.46 8  271 253 
 HEL  HN ES       1044 24.44                             115    0.42 8  271 253 
 HEL  HZ I        1044 31.82         6.4 0.34            114            271 253 
 URE  HZ EP   1   1043 52.26                             114   -0.53 6  276 290 
 URE  HE ES       1044 23.85                             114   -0.34 7  276 290 
 URE  HZ I        1044 35.34        13.1 0.18            114            276 290 
 MON  HZ EP       1044  0.05                             109   -0.37 7  343 307 
 MON  HE ES       1044 36.96                             109   -0.81 7  343 307 
 MON  HZ I        1044 53.70         4.1 0.50            109            343 307 
 TOL  SE ES   4   1044 42.27                             109    2.70 0  348 223 
 TOL  SZ I        1044 50.54         7.9 0.48            109            348 223 
                                                                                
