 2011  814 1712  5.4 L   6.791 -73.090145.4  RSN  5 0.2 1.9LRSN                1
 GAP=189        0.47       3.2     7.7  4.7  0.1179E+02 -0.1251E+02 -0.4923E+01E
 Epicentro: LOS SANTOS - SANTANDER                                             3
 ACTION:UPD 12-07-13 15:51 OP:ep   STATUS:               ID:20110814171205 L   I
 2011-08-14-1708-33S.COL___149                                                 6
 STAT SP IPHASW D HRMM SECON CODA AMPLIT PERI AZIMU VELO AIN AR TRES W  DIS CAZ7
 BAR2 SZ EP       1712 25.06                             170    0.0110 24.2 205 
 BAR2 SZ ES   1   1712 39.95                             170   -0.39 7 24.2 205 
 BAR2 SZ I        1712 42.83        24.1 0.26                          24.2 205 
 BRR  HZ EP       1712 26.90                             150    0.0010 77.1 297 
 BRR  HN ES   1   1712 43.76                             150    0.12 7 77.1 297 
 BRR  HZ I        1712 47.62        16.7 0.22                          77.1 297 
 RUS  HZ EP       1712 29.00                             144   -0.0710 99.3 180 
 RUS  HE ES   1   1712 47.90                             144    0.41 7 99.3 180 
 RUS  HZ I        1712 48.87        10.0 0.26                          99.3 180 
 OCA  SZ EP       1712 33.94                             129    0.03 9  162 351 
 CHI  HZ EP   2   1712 43.31                             117    0.11 4  249 197 
 CHI  HZ I        1712 43.80         7.0 0.38                           249 197 
 CHI  HE ES   2   1713 12.25                             117   -0.39 4  249 197 
                                                                                
