 2012 1214 1423 41.7 L   6.757 -73.130147.5  RSN  7 0.4 2.0LRSN                1
 GAP=140        1.07       4.3     4.8  7.1  0.1738E+01  0.6360E+01  0.7208E+01E
 Epicentro: LOS SANTOS - SANTANDER                                             3
 ACTION:UPD 13-01-04 14:27 OP:ep   STATUS:               ID:20121214142341 L   I
 2012-12-14-1420-00M.COL___242                                                 6
 STAT SP IPHASW D HRMM SECON CODA AMPLIT PERI AZIMU VELO AIN AR TRES W  DIS CAZ7
 BAR2 SZ EP       1424  0.80                             172   -0.6410 19.2 198 
 BAR2 SZ ES       1424 17.03                             172    0.1810 19.2 198 
 BAR2 SZ I        1424 19.20        15.7 0.28                          19.2 198 
 BRR  HZ IP     D 1424  3.47                             152    0.2410 75.0 301 
 BRR  HN ES       1424 20.67                             152    0.6310 75.0 301 
 BRR  HN I        1424 21.75        23.6 0.22                          75.0 301 
 PAM  SZ EP       1424  4.43                             150    0.1910 80.0  36 
 PAM  SN ES       1424 21.44                             150   -0.3910 80.0  36 
 PAM  SN I        1424 22.74        12.7 0.42                          80.0  36 
 RUS  HZ EP       1424  5.34                             145    0.0810 95.8 177 
 RUS  HN ES       1424 23.71                             145    0.0510 95.8 177 
 RUS  HN I        1424 25.50         6.9 0.16                          95.8 177 
 PTB  HZ EP       1424  8.43                             132   -0.43 9  149 261 
 PTB  HN ES       1424 29.37                             132   -0.70 9  149 261 
 PTB  HN I        1424 34.75        33.4 0.48                           149 261 
 ZAR  HN ES       1424 40.54                             122    0.29 8  207 293 
 ZAR  HN I        1424 45.72        14.7 0.58                           207 293 
 CHI  HZ EP       1424 19.72                             118    0.69 8  245 196 
 CHI  HN ES       1424 48.18                             118    0.01 8  245 196 
 CHI  HN I        1424 51.23         5.8 0.28                           245 196 
                                                                                
