 2017  214 1338  9.7 L   6.812 -73.187140.6  RSN  4 0.2 1.5LRSN                1
 GAP=145        0.54       3.3     3.1  4.6 -0.3193E+01  0.4067E+01 -0.1439E+01E
 Epicentro: ZAPATOCA - SANTANDER                                               3
 ACTION:UPD 17-05-24 15:36 OP:jn   STATUS:               ID:20170214133809 L   I
 OLDACT:REG 17-02-14 20:46 OP:cara STATUS:               ID:20170214133747     3
 2017-02-14-1338-00M.COL___352                                                 6
 STAT SP IPHASW D HRMM SECON CODA AMPLIT PERI AZIMU VELO AIN AR TRES W  DIS CAZ7
 BAR2 EZ IP       1338 28.84                             170    0.1510 24.3 179 
 BAR2 EZ ES       1338 43.47                             170   -0.0610 24.3 179 
 BAR2 EZ I        1338 44.83        11.4 0.36            172           24.3 179 
 PAM  EZ EP       1338 31.75                             149    0.3010 79.4  43 
 PAM  EE ES       1338 48.26                             149   -0.1810 79.4  43 
 PAM  EZ I        1338 51.02         5.1 0.38            151           79.4  43 
 RUS  HZ EP       1338 32.77                             142   -0.2710  102 174 
 RUS  HN ES       1338 51.40                             142    0.1310  102 174 
 RUS  HZ I        1338 52.41         3.5 0.18            145            102 174 
 PTB  HZ EP       1338 35.64                             132   -0.19 9  144 258 
 PTB  HN ES       1338 56.33                             132    0.10 9  144 258 
 PTB  HZ I        1338 58.47         4.6 0.42            133            144 258 
                                                                                
