 2014  414 1808 56.9 L   6.815 -73.122145.1  RSN  9 0.5 1.8LRSN                1
 GAP=121        1.17       3.8     4.9  7.2 -0.4613E+01  0.4792E+01  0.1882E+01E
 Epicentro: LOS SANTOS - SANTANDER                                             3
 ACTION:UPD 14-05-13 23:08 OP:nd   STATUS:               ID:20140414180857 L   I
 OLDACT:UP  14-04-15 04:26 OP:CAM  STATUS:               ID:20140414180857 L   3
 OLDACT:REG 14-04-15 00:42 OP:stll STATUS:               ID:20140414180812     3
 2014-04-14-1808-12M.COL___269                                                 6
 STAT SP IPHASW D HRMM SECON CODA AMPLIT PERI AZIMU VELO AIN AR TRES W  DIS CAZ7
 BRR  HZ EP       18 9 18.46                             152    0.4110 72.8 296 
 BRR  HN ES       18 9 35.29                             152    0.7310 72.8 296 
 BRR  HZ I        18 9 37.40        18.6 0.44            152           72.8 296 
 PAM  SZ EP       18 9 19.44                             152    0.5810 74.4  39 
 PAM  SN ES       18 9 36.04                             152    0.0510 74.4  39 
 PAM  SZ I        18 9 38.92        13.5 0.66            155           74.4  39 
 RUS  HZ EP       18 9 20.76                             143    0.0810  102 178 
 RUS  HN ES       18 9 38.49                             143   -0.7510  102 178 
 RUS  HZ I        18 9 40.41         5.1 0.34            144            102 178 
 PTB  HZ EP       18 9 23.98                             131   -0.08 9  151 258 
 PTB  HN ES       18 9 44.84                             131   -0.42 9  151 258 
 PTB  HZ I        18 9 49.09         8.4 0.40            132            151 258 
 SML  HZ EP       18 9 32.99                             117   -0.44 8  243 335 
 SML  HN ES       1810  1.21                             117   -0.73 8  243 335 
 CHI  HZ EP   2   18 9 34.28                             117   -0.52 4  251 196 
 CHI  HN ES       1810  4.64                             117    0.27 8  251 196 
 CHI  HZ I        1810  9.93         2.6 0.30            118            251 196 
 SOCV BZ EP       18 9 39.02                             112   -0.53 7  298  57 
 GUY2CHZ EP       18 9 41.39                             112    0.57 7  304 235 
 GUY2CHN ES       1810 14.50                             112   -0.58 7  304 235 
 GUY2CHZ I        1810 23.33         3.0 0.46                           304 235 
 RREF HZ EP   1   18 9 44.53                             111    1.18 5  325 229 
 RREF HN ES       1810 19.49                             111   -0.10 7  325 229 
 RREF HZ I        1810 28.20         4.2 0.30            111            325 229 
                                                                                
