 2016  614 1519 43.9 L   6.794 -73.165149.4  RSN  4 0.4 1.3LRSN                1
 GAP=134        0.86       8.5     5.4  9.4 -0.2194E+02 -0.5761E+01  0.3122E+02E
 Epicentro: LOS SANTOS - SANTANDER                                             3
 ACTION:UPD 16-07-21 22:18 OP:rebc STATUS:               ID:20160614151943 L   I
 OLDACT:REG 16-06-14 20:05 OP:dani STATUS:               ID:20160614151745     3
 2016-06-14-1517-45M.COL___325                                                 6
 STAT SP IPHASW D HRMM SECON CODA AMPLIT PERI AZIMU VELO AIN AR TRES W  DIS CAZ7
 BRR  HE ES       1520 22.64                             153    0.5710 69.7 300 
 PAM  EZ EP       1520  6.72                             151    0.1410 79.2  40 
 PAM  EN ES       1520 23.92                             151   -0.3810 79.2  40 
 PAM  EZ I        1520 25.88         5.0 0.54                          79.2  40 
 RUS  HZ EP   2   1520  8.36                             145    0.42 5  100 175 
 RUS  HN ES   2   1520 26.75                             145    0.03 5  100 175 
 RUS  HZ I        1520 29.12         2.4 0.44                           100 175 
 PTB  HZ EP       1520 10.90                             133   -0.04 9  146 259 
 PTB  HN ES       1520 31.58                             133   -0.48 9  146 259 
 PTB  HZ I        1520 39.31         2.9 0.32                           146 259 
 GUY2CHE ES   4   1521  5.51                             113    4.14 0  299 235 
                                                                                
