 2015  414 1221 27.0 L   6.751 -73.149144.0  RSN  4 0.3 1.5LRSN                1
 GAP=233        0.68       6.3     6.5  6.6  0.2096E+02  0.3289E+00  0.1188E+01E
 Epicentro: LOS SANTOS - SANTANDER                                             3
 ACTION:UPD 15-06-03 16:54 OP:cam  STATUS:               ID:20150414122127 L   I
 OLDACT:REG 15-04-14 20:10 OP:spq  STATUS:               ID:20150414121750     3
 2015-04-14-1217-50M.COL___271                                                 6
 STAT SP IPHASW D HRMM SECON CODA AMPLIT PERI AZIMU VELO AIN AR TRES W  DIS CAZ7
 BAR2 EZ EP       1221 46.33                             173   -0.0410 18.0 192 
 BAR2 EZ ES   1   1222  1.15                             173   -0.29 7 18.0 192 
 BAR2 EZ I        1222  2.45         5.1 0.48            173           18.0 192 
 BRR  HZ EP       1221 48.23                             151    0.0810 73.6 302 
 BRR  HN ES       1222  4.71                             151    0.1110 73.6 302 
 BRR  HZ I        1222  9.55         8.8 0.12            151           73.6 302 
 RUS  HZ EP   1   1221 50.73                             145    0.49 7 95.2 176 
 RUS  HE ES   1   1222  8.23                             145   -0.10 7 95.2 176 
 RUS  HZ I        1222  9.59         4.1 0.24            149           95.2 176 
 PTB  HZ EP   1   1221 53.06                             132   -0.69 7  146 261 
 PTB  HE ES   1   1222 14.85                             132    0.27 7  146 261 
 PTB  HZ I        1222 16.60         3.5 0.25            133            146 261 
                                                                                
