 2013  314 1620 20.6 L   6.801 -73.139144.1  RSN  7 0.3 1.9LRSN                1
 GAP=137        0.77       4.7     4.4  7.2 -0.5760E+01  0.5718E+01  0.1038E+02E
 Epicentro: LOS SANTOS - SANTANDER                                             3
 ACTION:UPD 13-04-09 14:02 OP:ep   STATUS:               ID:20130314162020 L   I
 2013-03-14-1620-00M.COL___243                                                 6
 STAT SP IPHASW D HRMM SECON CODA AMPLIT PERI AZIMU VELO AIN AR TRES W  DIS CAZ7
 BAR2 SZ EP       1620 40.06                             170    0.0010 23.5 192 
 BAR2 SZ I        1620 40.56        18.8 0.24            168           23.5 192 
 BRR  HZ EP       1620 41.91                             152    0.2910 71.8 298 
 BRR  HN ES   1   1620 58.27                             152    0.26 7 71.8 298 
 BRR  HZ I        1621  2.06        13.7 0.20            151           71.8 298 
 PAM  SZ EP       1620 42.91                             151    0.2810 76.9  39 
 PAM  SN ES       1620 59.60                             151   -0.2010 76.9  39 
 PAM  SZ I        1621  0.41        10.4 0.20            156           76.9  39 
 RUS  HZ EP       1620 44.12                             143   -0.0910  101 176 
 RUS  HZ I        1620 45.35         7.5 0.13            145            101 176 
 RUS  HN ES   1   1621  2.55                             143   -0.06 7  101 176 
 PTB  HZ EP       1620 46.77                             131   -0.75 9  148 259 
 PTB  HE ES   1   1621  8.28                             131   -0.22 7  148 259 
 PTB  HZ I        1621 11.59        13.2 0.18            132            148 259 
 NOR  HZ EP   1   1620 56.52                             118    0.20 6  235 235 
 NOR  HN ES   1   1621 24.79                             118    0.62 6  235 235 
 NOR  HZ I        1621 30.55         8.9 0.15            119            235 235 
 CHI  HZ EP   2   1620 58.62                             117    0.37 4  249 195 
                                                                                
