 2015  814 1705 59.2 L   6.822 -73.123145.5  RSN 15 0.5 2.4LRSN                1
 GAP=138        1.04       2.6     4.2  5.7 -0.2056E+01  0.8891E+01  0.3922E+00E
 Epicentro: LOS SANTOS - SANTANDER                                             3
 ACTION:UPD 15-09-15 23:02 OP:cam  STATUS:               ID:20150814170559 L   I
 OLDACT:UP  15-08-15 01:49 OP:ar   STATUS:               ID:20150814165747     3
 OLDACT:REG 15-08-14 21:22 OP:ar   STATUS:               ID:20150814165747     3
 2015-08-14-1657-47M.COL___334                                                 6
 STAT SP IPHASW D HRMM SECON CODA AMPLIT PERI AZIMU VELO AIN AR TRES W  DIS CAZ7
 BAR2 EZ EP       17 6 18.85                             169   -0.0210 26.2 194 
 BAR2 EZ ES       17 6 33.60                             169   -0.6010 26.2 194 
 BAR2 EZ I        17 6 37.59        27.7 0.24            168           26.2 194 
 BRR  HZ EP     C 17 6 20.63                             152    0.2410 72.3 296 
 BRR  HN ES       17 6 37.69                             152    0.7810 72.3 296 
 BRR  HZ I        17 6 38.82        33.1 0.32            151           72.3 296 
 PAM  EZ EP       17 6 21.62                             152    0.4310 73.9  39 
 PAM  EN ES       17 6 38.71                             152    0.3710 73.9  39 
 PAM  EZ I        17 6 41.20        33.2 0.30            156           73.9  39 
 RUS  HZ EP       17 6 22.84                             143   -0.2610  103 178 
 RUS  HN ES       17 6 41.75                             143    0.0210  103 178 
 RUS  HZ I        17 6 42.95        14.6 0.48            145            103 178 
 OCA  HZ EP       17 6 26.87                             130   -0.43 9  158 352 
 OCA  HN ES       17 6 48.85                             130   -0.36 9  158 352 
 OCA  HZ I        17 6 52.15        45.7 0.42            132            158 352 
 SPBC HZ EP       17 6 27.77                             128   -0.24 9  167 219 
 SPBC HN ES       17 6 50.05                             128   -0.43 9  167 219 
 SPBC HZ I        17 6 53.93        35.7 0.46            129            167 219 
 ZAR  HZ EP   4   17 6 34.06                             122    2.28 0  205 291 
 ZAR  HN ES       17 6 56.77                             122   -0.42 8  205 291 
 ZAR  HZ I        17 7  1.82        24.2 0.30            123            205 291 
 NOR  HZ EP       17 6 34.99                             118   -0.30 8  238 234 
 NOR  HN ES       17 7  3.44                             118    0.00 8  238 234 
 NOR  HZ I        17 7  8.21        13.1 0.20            119            238 234 
 SML  HZ EP       17 6 35.18                             118   -0.51 8  243 335 
 SML  HN ES       17 7  4.54                             118    0.39 8  243 335 
 SML  HZ I        17 7  5.84        27.4 0.26            119            243 335 
 CHI  HN ES       17 7  6.40                             117   -0.46 8  252 196 
 CHI  HZ I        17 7  9.73        16.0 0.44            118            252 196 
 ROSC BN ES       17 7  8.65                             116    0.96 8  256 211 
 ROSC BZ ES       17 7  9.31                             116            256 211 
 ROSC BZ I        17 7 13.19        31.3 0.40            118            256 211 
 HEL  HZ EP   2   17 6 40.37                             114    0.63 4  275 255 
 HEL  HN ES   2   17 7 10.42                             114   -0.94 4  275 255 
 HEL  HZ I        17 7 16.80         9.3 0.28            115            275 255 
 URE  HZ EP   4   17 6 39.42                             113   -1.00 0  285 291 
 URE  HN ES   4   17 7  5.93                             113   -6.64 0  285 291 
 GUY2CHZ EP   2   17 6 43.58                             112    0.39 4  305 235 
 GUY2CHN ES   2   17 7 18.40                             112    0.90 4  305 235 
 GUY2CHZ I        17 7 25.09         9.5 0.58                           305 235 
 DBB  SZ ES       17 7 23.85                             109   -0.32 7  342 274 
 DBB  SZ I        17 7 26.58        24.4 0.28            110            342 274 
 TOL  SZ EP       17 6 48.50                             109    0.65 6  347 225 
 TOL  SN ES       17 7 26.47                             109    0.67 6  347 225 
 TOL  SZ I        17 7 32.41         9.3 0.30            110            347 225 
                                                                                
