 2015  314 1053 43.9 L   6.801 -73.176150.7  RSN  6 0.3 1.4LRSN                1
 GAP=133        0.75       4.5     5.5  6.9  0.7528E+01 -0.8553E+01 -0.5931E+01E
 Epicentro: LOS SANTOS - SANTANDER                                             3
 ACTION:UPD 15-04-30 16:25 OP:nd   STATUS:               ID:20150314105343 L   I
 OLDACT:DUP 15-03-14 22:29 OP:spq  STATUS:               ID:20150314104751d    3
 2015-03-14-1047-50M.COL___275                                                 6
 STAT SP IPHASW D HRMM SECON CODA AMPLIT PERI AZIMU VELO AIN AR TRES W  DIS CAZ7
 BAR2 EZ EP   1   1054  4.01                             171   -0.12 7 23.1 182 
 BAR2 EZ ES   1   1054 19.35                             171   -0.55 7 23.1 182 
 BAR2 EZ I        1054 20.57         4.0 0.44            171           23.1 182 
 BRR  HZ EP       1054  5.79                             154    0.3510 68.2 300 
 BRR  HN ES       1054 22.64                             154    0.4110 68.2 300 
 BRR  HZ I        1054 24.72         5.4 0.32            153           68.2 300 
 PAM  SZ EP       1054  6.89                             151    0.1110 79.5  41 
 RUS  HZ EP       1054  8.20                             145    0.0210  101 174 
 RUS  HN ES   1   1054 27.07                             145   -0.04 7  101 174 
 RUS  HZ I        1054 28.66         2.6 0.30            146            101 174 
 PTB  HZ EP   1   1054 10.84                             134   -0.16 7  144 259 
 PTB  HN ES   1   1054 31.84                             134   -0.29 7  144 259 
 PTB  HZ I        1054 34.41         2.6 0.13            134            144 259 
 SML  HN ES   1   1054 48.58                             119   -0.75 6  242 336 
 SML  HZ I        1054 51.82         5.7 0.05            119            242 336 
                                                                                
