 2010  514 1748  3.8 L   6.777 -72.983152.1  RSN 10 0.4 2.3LRSN                1
 GAP=177        0.69       3.6     7.6  6.6 -0.9858E+01  0.8047E+01  0.3787E+01E
 Epicentro: CEPITA - SANTANDER                                                 3
 ACTION:UP  10-08-24 10:05 OP:vdl  STATUS:               ID:20100514174803 L   I
 2010-05-14-1744-28S.COL___108                                                 6
 STAT SP IPHASW D HRMM SECON CODA AMPLIT PERI AZIMU VELO AIN AR TRES W  DIS CAZ7
 BAR2 SZ EP   1   1748 24.10                             168    -0.3 7   30 227 
 BAR2 SZ ES   2   1748 40.07                             168    -0.3 5   30 227 
 BRR  HZ IP     C 1748 26.73                             148     0.010   89 294 
 BRR  HZ I        1748 27.02        77.7 0.13                            89 294 
 BRR  HN ES   2   1748 44.42                             148    -0.1 5   89 294 
 RUS  HZ EP   1   1748 27.96                             146    -0.1 7   98 186 
 RUS  HN ES   2   1748 46.81                             146    -0.1 5   98 186 
 RUS  HZ I        1748 47.91        12.2 0.19                            98 186 
 GUE  SZ EP   1   1748 29.15                             141     0.0 7  117   3 
 GUE  SZ ES   2   1748 49.84                             141     1.0 5  117   3 
 GRA  SZ EP   1   1748 29.86                             139     0.4 7  124   9 
 GRA  SZ ES   2   1748 49.77                             139     0.2 5  124   9 
 OCA  SZ EP   1   1748 32.59                             130    -0.6 7  166 347 
 OCA  SZ ES   2   1748 55.48                             130    -0.5 5  166 347 
 OCA  SZ I        1749  0.36        38.2 0.31                           166 347 
 CHI  HZ EP   1   1748 42.10                             118    -0.1 6  252 199 
 CHI  HZ I        1748 44.77         7.2 0.52                           252 199 
 CHI  HN ES   2   1749 12.76                             118     0.6 4  252 199 
 HEL  HZ EP   1   1748 46.17                             114    -0.1 5  289 257 
 HEL  HZ I        1749 23.73         9.5 0.19                           289 257 
 RREF BZ EP   1   1748 52.22                             111     0.6 5  334 232 
 RREF BN ES   2   1749 29.43                             111     0.5 3  334 232 
 RREF BZ I        1749 33.11         8.9 0.24                           334 232 
 PRA  HZ EP   1   1748 58.00                             107    -0.4 4  399 212 
 PRA  HZ I        1749 45.84         8.5 0.66                           399 212 
                                                                                
