 2010  614 1746 34.5 L   5.934 -73.657116.9  RSN 11 0.5 2.1LRSN                1
 GAP= 89        0.96       4.2     6.0  8.9 -0.1605E+02  0.3736E+02 -0.1479E+02E
 Epicentro: BARBOSA - SANTANDER                                                3
 ACTION:UP  10-08-24 10:10 OP:vdl  STATUS:               ID:20100614174634 L   I
 2010-06-14-1744-32S.COL___114                                                 6
 STAT SP IPHASW D HRMM SECON CODA AMPLIT PERI AZIMU VELO SNR AR TRES W  DIS CAZ7
 RUS  HZ IP     D 1746 52.33                             150    -0.510   64  94 
 RUS  HZ I        1746 53.33        21.2 0.13                            64  94 
 RUS  HE ES       1747  7.32                             150     0.210   64  94 
 BAR2 SZ EP       1746 54.06                             140    -0.210   90  36 
 BAR2 SZ ES       1747  9.79                             140     0.110   90  36 
 GIR2 SZ EP   1   1746 58.13                             127    -0.2 7  137  22 
 GIR2 SZ ES   2   1747 17.46                             127     0.5 5  137  22 
 ROSC BZ EP       1746 59.57                             126     0.4 9  142 211 
 ROSC BE ES   2   1747 18.61                             126     0.2 5  142 211 
 ROSC BZ I        1747 25.65        13.3 0.19                           142 211 
 CHI  HZ EP   1   1746 58.89                             126    -0.6 7  145 183 
 CHI  HZ I        1746 59.53        12.6 0.11                           145 183 
 CHI  HE ES   2   1747 19.22                             126     0.3 5  145 183 
 GUY  HZ EP       1747  6.15                             115     0.2 9  205 248 
 HEL  HZ EP   1   1747  6.30                             115     0.1 6  209 278 
 HEL  HE ES   2   1747 30.43                             115    -0.6 4  209 278 
 HEL  HZ I        1747 36.35        15.9 0.35                           209 278 
 GUE  SZ EP   1   1747  7.33                             113    -0.6 6  225  21 
 GUE  SZ ES   2   1747 33.33                             113    -0.7 4  225  21 
 TOL  SZ EP   1   1747 10.21                             112     0.9 6  237 231 
 TOL  SZ ES       1747 36.16                             112    -0.4 8  237 231 
 OCA  SZ EP       1747 12.29                             110     0.8 8  258   8 
 OCA  SZ ES   2   1747 40.67                             110     0.4 4  258   8 
 OCA  SZ I        1747 45.17        26.4 0.43                           258   8 
 DBB  SZ EP   1   1747 16.62                             106    -0.5 5  307 293 
                                                                                
