 2016 1214 1002 51.8 L   6.763 -73.193145.7  RSN  6 0.4 1.2LRSN                1
 GAP=229        1.00       6.0     6.6  8.3  0.2226E+02  0.1609E+02  0.1336E+02E
 Epicentro: LOS SANTOS - SANTANDER                                             3
 ACTION:UPD 17-01-11 20:15 OP:rebc STATUS:               ID:20161214100251 L   I
 OLDACT:UP  16-12-14 21:19 OP:ar   STATUS:               ID:20161214095745     3
 OLDACT:REG 16-12-14 21:16 OP:ar   STATUS:               ID:20161214095745     3
 2016-12-14-0958-00M.COL___363                                                 6
 STAT SP IPHASW D HRMM SECON CODA AMPLIT PERI AZIMU VELO AIN AR TRES W  DIS CAZ7
 BAR2 EZ EP       10 3 10.98                             172   -0.3210 18.9 176 
 BAR2 EZ ES       10 3 26.16                             172   -0.3810 18.9 176 
 BAR2 EZ I        10 3 27.14         4.0 0.22            166           18.9 176 
 BRR  HZ EP   2   10 3 12.62                             153   -0.14 5 68.8 304 
 BRR  HN ES       10 3 29.76                             153    0.6110 68.8 304 
 RUS  HZ EP       10 3 15.63                             145    0.3910 97.0 173 
 RUS  HN ES       10 3 33.60                             145    0.0310 97.0 173 
 RUS  HZ I        10 3 35.13         2.3 0.22            142           97.0 173 
 PTB  HZ EP       10 3 17.75                             133   -0.43 9  142 260 
 PTB  HN ES       10 3 38.28                             133   -0.52 9  142 260 
 PTB  HZ I        10 3 44.24         2.0 0.42            131            142 260 
 ZAR  HN ES       10 3 49.28                             123    0.38 9  201 294 
 CHI  HN ES       10 3 58.25                             118    0.43 8  243 194 
 CHI  HZ I        10 4  2.25         1.1 0.50            117            243 194 
                                                                                
