 2012  414 1711 14.5 L   6.799 -73.145143.5  RSN  5 0.2 1.5LRSN                1
 GAP=137        0.48       3.3     3.5  4.9  0.2574E+01  0.2510E+01 -0.3967E+00E
 Epicentro: LOS SANTOS - SANTANDER                                             3
 ACTION:UPD 12-07-05 11:53 OP:tino STATUS:               ID:20120414171114 L   I
 2012-04-14-1710-00M.COL___180                                                 6
 STAT SP IPHASW D HRMM SECON CODA AMPLIT PERI AZIMU VELO AIN AR TRES W  DIS CAZ7
 BAR2 SZ EP   1   1711 33.55                             170    -0.4 7   23 190 
 BAR2 SZ ES   1   1711 49.16                             170     0.2 7   23 190 
 BAR2 SZ I        1711 51.47        10.4 0.74                            23 190 
 BRR  HZ EP       1711 35.71                             152     0.210   71 299 
 BRR  HE ES   1   1711 51.72                             152    -0.1 7   71 299 
 PAM  SZ EP   1   1711 36.45                             150    -0.1 7   77  39 
 PAM  SN ES   1   1711 53.63                             150     0.0 7   77  39 
 RUS  HZ EP   1   1711 38.16                             143     0.1 7  100 176 
 RUS  HE ES   1   1711 56.34                             143    -0.1 7  100 176 
 RUS  HZ I        1711 58.37         3.6 0.36                           100 176 
 ZAR  HN ES   1   1712 11.93                             122    -0.1 6  204 292 
 ZAR  HZ I        1712 17.68         2.6 0.30                           204 292 
                                                                                
