 2014  614 1221 46.5 L   6.384 -73.622101.3  RSN 22 0.5 2.5LRSN                1
 GAP= 68        1.16       2.2     2.9  5.3 -0.1440E+01  0.4690E+01  0.9277E+00E
 Epicentro: SANTA HELENA DEL OPON - SANTANDER                                  3
 ACTION:UPD 14-07-01 22:53 OP:nd   STATUS:               ID:20140614122146 L   I
 OLDACT:REG 14-06-14 21:04 OP:fm   STATUS:               ID:20140614121819     3
 2014-06-14-1218-19M.COL___238                                                 6
 STAT SP IPHASW D HRMM SECON CODA AMPLIT PERI AZIMU VELO AIN AR TRES W  DIS CAZ7
 BAR2 SZ IP     D 1222  2.84                             150    0.5910 53.8  65 
 BAR2 SZ ES       1222 15.20                             150    0.6910 53.8  65 
 BRR  HZ EP       1222  3.80                             138   -0.0410 80.5 353 
 BRR  HN ES       1222 17.69                             138    0.3610 80.5 353 
 BRR  HZ I        1222 26.33        38.2 0.14            126           80.5 353 
 RUS  HZ EP       1222  4.72                             139    0.1910 80.7 132 
 RUS  HE ES       1222 18.43                             139   -0.1410 80.7 132 
 RUS  HZ I        1222 20.71        37.2 0.48            132           80.7 132 
 PTB  HZ IP     D 1222  3.84                             133   -1.1510 93.8 281 
 PTB  HN ES       1222 18.49                             133   -0.9010 93.8 281 
 PTB  HZ I        1222 21.10        74.0 0.26            121           93.8 281 
 SPBC HZ EP       1222  4.96                             133   -0.2410 95.1 212 
 SPBC HE ES       1222 19.79                             133    0.0310 95.1 212 
 SPBC HZ I        1222 21.51        83.6 0.26            123           95.1 212 
 PAM  SZ EP       1222 11.05                             120    0.23 9  147  44 
 PAM  SN ES       1222 29.07                             120   -0.70 9  147  44 
 PAM  SZ I        1222 31.50        24.2 0.16            111            147  44 
 NOR  HZ EP       1222 12.10                             116   -0.14 9  165 237 
 NOR  HN ES       1222 32.87                             116    0.57 9  165 237 
 NOR  HZ I        1222 34.37        68.7 0.44            108            165 237 
 ZAR  HZ EP       1222 13.94                             113   -0.27 9  183 312 
 ZAR  HN ES       1222 36.24                             113    0.44 9  183 312 
 ZAR  HZ I        1222 39.93        34.8 0.10            105            183 312 
 CHI  HZ EP       1222 15.55                             112   -0.40 9  194 184 
 CHI  HN ES       1222 38.19                             112   -0.71 9  194 184 
 CHI  HZ I        1222 42.57        18.5 0.24            105            194 184 
 OCA  HZ EP       1222 17.44                             110    0.29 8  208   9 
 OCA  HN ES       1222 41.25                             110    0.22 8  208   9 
 OCA  HZ I        1222 47.76        42.9 0.18            103            208   9 
 HEL  HZ EP       1222 17.72                             110   -0.19 8  212 264 
 HEL  HN ES       1222 42.60                             110    0.22 8  212 264 
 HEL  HZ I        1222 44.72        29.9 0.32            103            212 264 
 GUY2CHZ EP       1222 20.62                             108    0.30 8  232 236 
 GUY2CHN ES   4   1222 49.17                             108    2.50 0  232 236 
 GUY2CHZ I        1222 51.00        20.6 0.40                           232 236 
 VIL  SZ EP   1   1222 22.25                             106    0.07 6  251 182 
 VIL  SE ES   1   1222 49.51                             106   -0.48 6  251 182 
 VIL  SZ I        1223  0.11        23.7 0.30            101            251 182 
 RREF HZ EP       1222 22.73                             106   -0.13 8  252 229 
 RREF HN ES       1222 51.49                             106    0.29 8  252 229 
 RREF HZ I        1222 57.15        20.9 0.42            101            252 229 
 URE  HZ EP   4   1222 21.62                             105   -1.39 0  260 306 
 URE  HZ I        1222 58.59        23.4 0.32            100            260 306 
 CBOC HZ EP   2   1222 24.25                             104   -0.26 4  271 258 
 CBOC HZ I        1223  2.40        10.7 0.40            100            271 258 
 SML  HZ EP       1222 24.12                             104   -0.30 8  272 350 
 SML  HN ES       1222 53.87                             104   -0.11 8  272 350 
 SML  HZ I        1222 59.10        41.2 0.28            100            272 350 
 TOL  SZ EP       1222 25.12                             104    0.04 8  274 223 
 TOL  SN ES   4   1222 56.33                             104    1.18 0  274 223 
 TOL  SZ I        1223  1.98        39.6 0.26            100            274 223 
 ANIL HZ EP       1222 27.63                             103    0.95 7  288 223 
 ANIL HN ES   4   1223  0.54                             103    2.55 0  288 223 
 ANIL HZ I        1223  3.66        46.9 0.28             99            288 223 
 PRA  HZ EP   4   1222 30.24                             100   -0.81 0  327 205 
 PRA  HN ES       1223  5.72                             100   -0.05 7  327 205 
 PRA  HZ I        1223 13.74        13.9 0.20             98            327 205 
 ORTC HZ EP       1222 31.32                             100    0.18 7  328 213 
 ORTC HN ES       1223  7.04                             100    1.11 7  328 213 
 ORTC HZ I        1223 12.27        14.7 0.70             98            328 213 
 SJC  HZ EP   4   1222 41.27                              95   -1.63 0  425 336 
 SJC  HN ES   4   1223 21.29                              95   -5.57 0  425 336 
 SJC  HZ I        1223 44.37         3.5 0.50             96            425 336 
                                                                                
