 2016  714 1758 46.6 L   6.806 -73.189141.1  RSN  7 0.4 1.7LRSN                1
 GAP=144        0.89       5.9     5.4  6.6 -0.1725E+02  0.8344E+01  0.2807E+01E
 Epicentro: ZAPATOCA - SANTANDER                                               3
 ACTION:UPD 17-03-29 16:51 OP:lp   STATUS:               ID:20160714175846 L   I
 OLDACT:REG 16-07-14 21:50 OP:lv   STATUS:               ID:20160714175759     3
 2016-07-14-1757-59S.COL___328                                                 6
 STAT SP IPHASW D HRMM SECON CODA AMPLIT PERI AZIMU VELO AIN AR TRES W  DIS CAZ7
 BAR2 EZ EP       1759  5.48                             170   -0.2210 23.6 178 
 BAR2 EZ ES       1759 20.91                             170    0.3310 23.6 178 
 BAR2 EZ I        1759 23.62         9.8 0.26            167           23.6 178 
 PAM  EZ EP       1759  8.55                             149    0.0410 80.1  42 
 PAM  EN ES       1759 25.49                             149   -0.1010 80.1  42 
 PAM  EZ I        1759 28.13         4.2 0.22            158           80.1  42 
 RUS  HZ EP       1759  9.91                             142   -0.0910  102 173 
 RUS  HN ES   2   1759 28.66                             142    0.43 5  102 173 
 RUS  HZ I        1759 31.20         5.7 0.40            147            102 173 
 PTB  HZ EP       1759 12.37                             132   -0.43 9  143 258 
 PTB  HN ES       1759 33.38                             132    0.17 9  143 258 
 PTB  HZ I        1759 41.20         6.7 0.33            132            143 258 
 SPBC HZ EP       1759 14.66                             128    0.13 9  161 218 
 SPBC HN ES       1759 35.75                             128   -0.55 9  161 218 
 SPBC HZ I        1759 48.66        15.2 0.08            130            161 218 
 ZAR  HE ES   4   1759 45.49                             122    2.51 0  199 292 
 ZAR  HZ I        1759 50.35         4.6 0.13            124            199 292 
 GUY2CHZ EP       1759 30.61                             112    0.99 7  298 234 
 GUY2CHN ES   4   18 0  6.24                             112    3.09 0  298 234 
 GUY2CHZ I        18 0 10.09         2.6 0.30                           298 234 
                                                                                
