 2014  114 1327 23.9 L   6.799 -73.150146.1  RSN 11 0.4 2.2LRSN                1
 GAP=136        0.95       2.6     3.7  5.7 -0.1241E+01  0.5892E+01  0.2819E+01E
 Epicentro: LOS SANTOS - SANTANDER                                             3
 ACTION:UPD 14-03-13 09:55 OP:ep   STATUS:               ID:20140114132723 L   I
 OLDACT:REG 14-01-14 14:38 OP:carl STATUS:               ID:20140114132000     3
 2014-01-14-1320-00M.COL___285                                                 6
 STAT SP IPHASW D HRMM SECON CODA AMPLIT PERI AZIMU VELO AIN AR TRES W  DIS CAZ7
 BRR  HZ EP       1327 45.37                             153    0.3010 70.8 299 
 BRR  HN ES       1328  2.39                             153    0.8110 70.8 299 
 BRR  HZ I        1328  5.25        30.3 0.28            150           70.8 299 
 PAM  SZ IP     C 1327 46.28                             151    0.1010 77.8  40 
 PAM  SN ES       1328  3.35                             151   -0.2010 77.8  40 
 PAM  SZ I        1328  5.42        32.3 0.56            153           77.8  40 
 RUS  HZ EP       1327 47.46                             144   -0.2210  101 176 
 RUS  HN ES       1328  6.12                             144   -0.1110  101 176 
 RUS  HZ I        1328  6.90         7.6 0.36            147            101 176 
 PTB  HZ EP       1327 50.39                             132   -0.46 9  147 259 
 PTB  HN ES       1328 11.08                             132   -0.80 9  147 259 
 PTB  HZ I        1328 15.74        15.3 0.14            132            147 259 
 OCA  HZ EP   4   1327 50.66                             130   -1.58 0  160 353 
 OCA  HN ES       1328 14.29                             130   -0.06 9  160 353 
 OCA  HZ I        1328 20.75        24.1 0.44            131            160 353 
 ZAR  HZ EP       1327 56.36                             122    0.03 9  204 292 
 ZAR  HN ES       1328 21.90                             122    0.28 9  204 292 
 ZAR  HZ I        1328 27.35        21.7 0.36            123            204 292 
 NOR  HZ EP       1327 59.76                             119    0.16 8  234 234 
 NOR  HN ES       1328 27.12                             119   -0.33 8  234 234 
 NOR  HZ I        1328 31.46        11.5 0.20            120            234 234 
 SML  HZ EP       1328  0.10                             117   -0.44 8  244 335 
 SML  HN ES       1328 28.92                             117   -0.19 8  244 335 
 SML  HZ I        1328 35.26        24.3 0.10            118            244 335 
 CHI  HZ EP       1328  1.82                             117    0.22 8  248 195 
 CHI  HN ES       1328 31.05                             117    0.06 8  248 195 
 CHI  HZ I        1328 34.44         4.6 0.74            119            248 195 
 GUY2CHZ EP       1328  8.53                             112    1.05 7  301 235 
 GUY2CHN ES       1328 41.62                             112    0.16 7  301 235 
 RREF HZ EP       1328 10.02                             111    0.01 7  321 229 
 RREF HN ES       1328 45.85                             111   -0.12 7  321 229 
 RREF HZ I        1328 55.20         7.1 0.28            112            321 229 
                                                                                
