 2010  514 1237 27.3 L   6.774 -73.068144.7  RSN 10 0.5 2.4LRSN                1
 GAP=165        0.84       4.0     7.8  7.8 -0.1326E+02  0.7274E+01  0.4276E+01E
 Epicentro: LOS SANTOS - SANTANDER                                             3
 ACTION:UP  10-08-24 10:05 OP:vdl  STATUS:               ID:20100514123727 L   I
 2010-05-14-1237-06S.COL___105                                                 6
 STAT SP IPHASW D HRMM SECON CODA AMPLIT PERI AZIMU VELO AIN AR TRES W  DIS CAZ7
 BAR2 SZ EP   1   1237 46.64                             170    -0.2 8   24 212 
 BAR2 SZ ES   2   1238  1.23                             170    -0.8 5   24 212 
 BRR  HZ EP   1   1237 49.20                             150     0.3 8   80 297 
 BRR  HE ES   2   1238  6.18                             150     0.5 5   80 297 
 BRR  HZ I        1238 10.29        66.2 0.19                            80 297 
 RUS  HZ EP   1   1237 50.67                             144    -0.1 8   97 181 
 RUS  HZ I        1237 51.34        21.3 0.33                            97 181 
 RUS  HN ES   2   1238  9.24                             144     0.2 5   97 181 
 BRI  SZ EP   1   1237 51.70                             141     0.6 8  109  16 
 BRI  SZ ES   2   1238 10.57                             141     0.9 5  109  16 
 GUE  SZ EP   1   1237 51.59                             139    -0.5 8  118   8 
 GUE  SZ ES   2   1238 10.79                             139    -0.5 5  118   8 
 GRA  SZ IP       1237 52.41                             137    -0.110  126  13 
 GRA  SZ ES   2   1238 12.04                             137    -0.1 5  126  13 
 OCA  SZ EP   1   1237 55.28                             129    -0.7 7  164 350 
 OCA  SZ ES   2   1238 19.09                             129     0.8 5  164 350 
 OCA  SZ I        1238 20.04        41.4 0.25                           164 350 
 CHI  HZ EP   1   1238  5.02                             117     0.1 6  248 197 
 CHI  HN ES   2   1238 34.58                             117     0.3 4  248 197 
 CHI  HZ I        1238 41.48        12.7 0.53                           248 197 
 HEL  HZ EP   1   1238  8.50                             114     0.2 6  280 257 
 HEL  HN ES   2   1238 39.37                             114    -0.9 4  280 257 
 HEL  HZ I        1238 45.76        13.9 0.53                           280 257 
 PRA  HZ EP   1   1238 21.18                             106     0.2 5  394 211 
 PRA  HE ES   2   1239  3.38                             106     0.5 3  394 211 
 PRA  HZ I        1239  7.29        16.9 0.31                           394 211 
                                                                                
