 2013  814 1052  2.1 L   6.776 -73.169147.5  RSN  9 0.4 2.0LRSN                1
 GAP=135        0.98       4.3     4.1  6.3 -0.2306E+01  0.6327E+01  0.2749E+01E
 Epicentro: LOS SANTOS - SANTANDER                                             3
 ACTION:UPD 14-01-14 09:02 OP:ep   STATUS:               ID:20130814105202 L   I
 OLDACT:REG 13-08-14 14:56 OP:jn   STATUS:               ID:20130814104959     3
 2013-08-14-1049-59M.COL___270                                                 6
 STAT SP IPHASW D HRMM SECON CODA AMPLIT PERI AZIMU VELO AIN AR TRES W  DIS CAZ7
 BAR2 SZ EP       1052 21.98                             172    0.0910 20.3 184 
 BAR2 SZ ES       1052 36.99                             172   -0.3410 20.3 184 
 BAR2 SZ I        1052 39.74        31.9 0.28            171           20.3 184 
 GIR2 SZ EP       1052 21.81                             167   -0.2410 33.6 355 
 GIR2 SZ ES       1052 37.23                             167   -0.3810 33.6 355 
 BRR  HZ EP       1052 23.73                             153    0.3310 70.3 301 
 BRR  HN ES       1052 40.94                             153    0.9410 70.3 301 
 BRR  HZ I        1052 44.82        17.6 0.14            152           70.3 301 
 PAM  SZ EP       1052 24.89                             150    0.1610 81.1  40 
 PAM  SN ES       1052 41.99                             150   -0.3910 81.1  40 
 PAM  SZ I        1052 44.35        10.4 0.54            154           81.1  40 
 RUS  HZ EP   1   1052 25.85                             145   -0.01 7 98.1 174 
 RUS  HZ ES       1052 44.88                             145    0.5010 98.1 174 
 RUS  HZ I        1052 45.84        15.5 0.34            147           98.1 174 
 PTB  HZ EP       1052 28.73                             133   -0.22 9  145 260 
 PTB  HN ES       1052 49.51                             133   -0.37 9  145 260 
 PTB  HZ I        1052 52.31         9.8 0.14            134            145 260 
 SPBC HZ EP   1   1052 30.67                             130    0.28 7  159 219 
 SPBC HN ES   1   1052 52.24                             130   -0.22 7  159 219 
 SPBC HZ I        1052 57.69        16.7 0.26            132            159 219 
 ZAR  HE ES       1052 59.86                             123    0.04 9  203 293 
 ZAR  HZ I        1053  5.15        10.4 0.28            124            203 293 
 NOR  HN ES   1   1053  4.67                             119   -0.52 6  231 235 
                                                                                
