 2017  214 1308 38.1 L   6.753 -73.155132.4  RSN  7 0.3 1.9LRSN                1
 GAP=137        0.86       3.7     3.6  5.3  0.1857E+01  0.5113E+01  0.2049E+01E
 Epicentro: LOS SANTOS - SANTANDER                                             3
 ACTION:UPD 17-05-24 15:36 OP:jn   STATUS:               ID:20170214130838 L   I
 OLDACT:REG 17-02-14 20:12 OP:cara STATUS:               ID:20170214130749     3
 2017-02-14-1308-00M.COL___352                                                 6
 STAT SP IPHASW D HRMM SECON CODA AMPLIT PERI AZIMU VELO AIN AR TRES W  DIS CAZ7
 BAR2 EZ IP     D 13 8 56.16                             172    0.1610 18.0 190 
 BAR2 EZ ES       13 9  9.50                             172   -0.4710 18.0 190 
 BAR2 EZ I        13 9 12.09        17.9 0.68            159           18.0 190 
 BRR  HZ EP       13 8 58.26                             149    0.3510 72.9 303 
 BRR  HN ES       13 9 14.04                             149    0.6710 72.9 303 
 PAM  EZ EP       13 8 59.06                             147   -0.1410 82.1  38 
 PAM  EN ES       13 9 15.46                             147   -0.2210 82.1  38 
 PAM  EZ I        13 9 18.12        22.7 0.54            140           82.1  38 
 RUS  HZ EP       13 9  0.09                             142   -0.0610 95.4 175 
 RUS  HN ES       13 9 17.66                             142    0.3010 95.4 175 
 RUS  HZ I        13 9 19.84         8.6 0.34            127           95.4 175 
 PTB  HZ EP       13 9  3.49                             129   -0.31 9  146 261 
 PTB  HN ES       13 9 23.41                             129   -0.45 9  146 261 
 PTB  HZ I        13 9 29.57         7.7 0.18            119            146 261 
 ZAR  HZ EP       13 9  9.77                             119   -0.03 9  205 294 
 ZAR  HE ES       13 9 34.50                             119   -0.04 9  205 294 
 ZAR  HZ I        13 9 40.78        14.7 0.54            111            205 294 
 CHI  HZ EP       13 9 14.67                             115    0.19 8  243 195 
 CHI  HZ I        13 9 51.12         4.1 0.40            106            243 195 
                                                                                
