 2016  514 1053 53.0 L   6.742 -73.108148.3  RSN  6 0.3 1.7LRSN                1
 GAP=144        0.71       3.0     3.6  4.8 -0.1736E+00  0.4560E+01  0.6520E-01E
 Epicentro: JORDAN - SANTANDER                                                 3
 ACTION:UPD 16-08-18 17:45 OP:cam  STATUS:               ID:20160514105353 L   I
 OLDACT:REG 16-05-14 19:30 OP:drio STATUS:               ID:20160514104744     3
 2016-05-14-1047-44M.COL___303                                                 6
 STAT SP IPHASW D HRMM SECON CODA AMPLIT PERI AZIMU VELO AIN AR TRES W  DIS CAZ7
 BAR2 EZ EP       1054 12.68                             173   -0.2110 18.5 206 
 BAR2 EZ ES       1054 28.28                             173   -0.0910 18.5 206 
 BAR2 EZ I        1054 28.88        10.7 0.18            171           18.5 206 
 BRR  HZ EP       1054 14.95                             151    0.1010 77.9 301 
 BRR  HE ES       1054 32.18                             151    0.3210 77.9 301 
 BRR  HZ I        1054 32.41        12.3 0.42            148           77.9 301 
 PAM  EZ EP       1054 15.81                             150    0.1310 80.0  34 
 PAM  EN ES       1054 33.17                             150   -0.1710 80.0  34 
 PAM  EZ I        1054 35.30         9.1 0.40            152           80.0  34 
 RUS  HZ EP       1054 16.47                             146   -0.1110 94.0 178 
 RUS  HE ES       1054 35.10                             146    0.1510 94.0 178 
 RUS  HZ I        1054 36.44         4.0 0.34            148           94.0 178 
 SPBC HZ EP       1054 21.27                             130   -0.26 9  161 222 
 SPBC HE ES       1054 43.84                             130    0.09 9  161 222 
 SPBC HZ I        1054 45.81         6.9 0.22            130            161 222 
 ZAR  HZ EP       1054 26.89                             122    0.60 8  210 293 
 ZAR  HE ES       1054 51.67                             122   -0.56 8  210 293 
 ZAR  HZ I        1055  0.45         4.8 0.44            121            210 293 
                                                                                
