 2017  614 1055 37.4 L   6.784 -73.178153.6  RSN  9 0.5 2.0LRSN                1
 GAP=209        0.99       4.2     4.5  7.2  0.7477E+01 -0.3023E+01  0.1954E+01E
 Epicentro: LOS SANTOS - SANTANDER                                             3
 ACTION:UPD 17-09-14 16:52 OP:jn   STATUS:               ID:20170614105537 L   I
 OLDACT:UP  17-06-14 22:22 OP:dani STATUS:               ID:20170614104729d    3
 OLDACT:UP  17-06-14 22:22 OP:dani STATUS:               ID:20170614104729d    3
 OLDACT:UP  17-06-14 22:22 OP:dani STATUS:               ID:20170614104729d    3
 OLDACT:DUP 17-06-14 22:18 OP:dani STATUS:               ID:20170614104729d    3
 2017-06-14-1048-00M.COL___350                                                 6
 STAT SP IPHASW D HRMM SECON CODA AMPLIT PERI AZIMU VELO AIN AR TRES W  DIS CAZ7
 BRR  HZ EP       1055 59.20                             155   -0.0910 69.0 301 
 BRR  HN ES       1056 16.60                             155    0.2510 69.0 301 
 BRR  HZ I        1056 20.42        22.0 0.16            142           69.0 301 
 PTB  HZ EP       1056  4.21                             135   -0.47 9  144 259 
 PTB  HN ES       1056 25.33                             135   -0.63 9  144 259 
 PTB  HZ I        1056 28.24         9.8 0.18            124            144 259 
 SPBC HZ EP       1056  6.22                             131    0.04 9  160 218 
 SPBC HE ES       1056 28.84                             131    0.22 9  160 218 
 SPBC HZ I        1056 34.15        31.1 0.48            123            160 218 
 YPLC HZ EP       1056  7.56                             128   -0.23 9  177 150 
 YPLC HE ES       1056 31.62                             128    0.12 9  177 150 
 YPLC HZ I        1056 38.66         6.3 0.36            119            177 150 
 ZAR  HZ EP       1056 11.09                             124    0.98 9  201 293 
 ZAR  HE ES       1056 35.56                             124   -0.06 9  201 293 
 ZAR  HZ I        1056 41.48        10.2 0.16            113            201 293 
 NOR  HZ EP       1056 13.35                             121    0.17 8  231 234 
 NOR  HN ES       1056 40.94                             121   -0.15 8  231 234 
 NOR  HZ I        1056 45.73         9.8 0.38            111            231 234 
 CHI  HZ EP       1056 15.43                             119    0.17 8  246 194 
 CHI  HE ES       1056 44.67                             119   -0.12 8  246 194 
 CHI  HZ I        1056 53.38         5.4 0.33            110            246 194 
 HEL  HZ EP   3   1056 19.68                             117    2.08 2  268 256 
 HEL  HN ES       1056 49.54                             117    0.59 8  268 256 
 HEL  HZ I        1056 56.39         4.6 0.36            107            268 256 
 URE  HZ EP       1056 17.74                             115   -0.83 7  281 293 
 URE  HZ I        1056 59.85         7.8 0.17            105            281 293 
                                                                                
