 2014  714 1852 55.0 L   6.811 -73.138139.4  RSN 11 0.5 2.2LRSN                1
 GAP=120        1.27       4.0     4.5  6.5 -0.2837E+01  0.6610E+01 -0.4034E+00E
 Epicentro: LOS SANTOS - SANTANDER                                             3
 ACTION:UPD 15-03-16 20:43 OP:nd   STATUS:               ID:20140714185255 L   I
 OLDACT:REG 14-07-14 20:40 OP:stll STATUS:               ID:20140714184819     3
 2014-07-14-1848-19M.COL___262                                                 6
 STAT SP IPHASW D HRMM SECON CODA AMPLIT PERI AZIMU VELO AIN AR TRES W  DIS CAZ7
 BAR2 SZ EP       1853 13.77                             170   -0.0810 24.7 191 
 BAR2 SZ ES       1853 28.69                             170    0.1010 24.7 191 
 BAR2 SZ I        1853 30.18        36.7 0.20            168           24.7 191 
 BRR  HZ EP       1853 15.96                             151    0.5310 71.3 297 
 BRR  HN ES       1853 31.96                             151    0.5610 71.3 297 
 BRR  HZ I        1853 36.03        33.9 0.46            152           71.3 297 
 PAM  SZ IP     C 1853 16.99                             150    0.5810 75.9  40 
 PAM  SZ I        1853 17.14        73.6 0.22            153           75.9  40 
 PAM  SN ES       1853 33.44                             150    0.3010 75.9  40 
 RUS  HZ EP       1853 18.04                             142   -0.1410  102 177 
 RUS  HN ES       1853 35.70                             142   -0.5910  102 177 
 RUS  HZ I        1853 37.74        11.7 0.30            143            102 177 
 PTB  HZ EP       1853 20.75                             130   -0.76 9  149 258 
 PTB  HN ES       1853 41.77                             130   -0.45 9  149 258 
 PTB  HZ I        1853 43.72        17.8 0.62            131            149 258 
 ZAR  HZ EP       1853 27.09                             121    0.06 9  204 292 
 ZAR  HN ES       1853 51.93                             121   -0.11 9  204 292 
 NOR  HN ES       1853 57.65                             117   -0.53 8  236 234 
 NOR  HZ I        1854  2.18        10.3 0.20            118            236 234 
 SML  HZ EP       1853 30.61                             116   -0.54 8  243 335 
 SML  HN ES       1853 58.84                             116   -0.53 8  243 335 
 SOCV BZ EP       1853 36.96                             111   -0.60 7  300  57 
 GUY2CHZ EP       1853 40.07                             111    1.63 7  303 235 
 GUY2CHN ES       1854 12.44                             111    0.09 7  303 235 
 GUY2CHZ I        1854 19.28         7.8 0.30                           303 235 
 PRA  HZ EP       1853 48.64                             105    0.20 6  393 210 
 PRA  HN ES       1854 30.74                             105    0.59 6  393 210 
 PRA  HZ I        1854 37.24         7.3 0.30            106            393 210 
                                                                                
