 2013  614 1204 13.0 L   6.634 -73.242145.7  RSN  5 0.2 1.8LRSN                1
 GAP=170        0.48       5.4     4.6  6.1  0.9732E+01  0.7645E+01 -0.6359E+01E
 Epicentro: BARICHARA - SANTANDER                                              3
 ACTION:UPD 14-01-08 09:54 OP:ep   STATUS:               ID:20130614120413 L   I
 OLDACT:UP  13-06-14 16:40 OP:mh   STATUS:               ID:20130614115959     3
 OLDACT:REG 13-06-14 16:03 OP:mh   STATUS:               ID:20130614115959     3
 2013-06-14-1159-59M.COL___261                                                 6
 STAT SP IPHASW D HRMM SECON CODA AMPLIT PERI AZIMU VELO AIN AR TRES W  DIS CAZ7
 BAR2 SZ EP   1   12 4 32.84                             177    0.41 7 8.04 125 
 BAR2 SZ ES   1   12 4 47.35                             177   -0.22 7 8.04 125 
 BAR2 SZ I        12 4 48.13         7.9 0.22            174           8.04 125 
 BRR  HZ EP   1   12 4 34.03                             152   -0.27 7 73.7 315 
 BRR  HN ES   2   12 4 51.17                             152    0.27 5 73.7 315 
 BRR  HN I        12 4 51.31        16.7 0.20            149           73.7 315 
 RUS  HN ES   1   12 4 53.26                             149    0.00 7 83.8 168 
 RUS  HN I        12 4 56.06         7.9 0.28            148           83.8 168 
 PTB  HZ EP   1   12 4 38.69                             135   -0.13 7  135 266 
 PTB  HN ES   1   12 4 58.99                             135    0.04 7  135 266 
 PTB  HN I        12 5  1.91         7.4 0.24            132            135 266 
 ZAR  HN ES   2   12 5 10.52                             123    0.10 4  202 298 
 ZAR  HN I        12 5 17.02         6.9 0.16            121            202 298 
                                                                                
