 2012 1114 1334 48.1 L   6.793 -73.153142.0  RSN  7 0.4 2.1LRSN 2.9WRSN        1
 SPEC AVERAGE  MO 13.4 ST  1.8 OM  2.2 f0 3.77 R0.4054 AL 1.85 WI 17.5 MW  2.9 3
 SPEC SD       MO  0.2 ST0.147 OM  0.8 f00.687 R0.0847 AL      WI      MW  0.2 3
 GAP=136        1.02       4.7     5.1  6.2 -0.4250E+01  0.4868E+01  0.8343E+01E
 Epicentro: LOS SANTOS - SANTANDER                                             3
 SPEC PRA HH N MO 13.3 ST  2.0 OM  1.3 f0 4.20 R0.3500 AL 2.17 WI 17.8 MW  2.8 3
 SPEC PRA HH N T133621 K 0.000 GD  415 VS 4.20 DE 3.00 Q0230.0 QA 0.60 VS 4.20 3
 SPEC PTB HH N MO 13.2 ST  1.7 OM  1.5 f0 4.31 R0.3411 AL 1.25 WI 18.6 MW  2.7 3
 SPEC PTB HH N T133533 K 0.000 GD  204 VS 4.20 DE 3.00 Q0230.0 QA 0.60 VS 4.20 3
 SPEC BRR HH Z MO 13.7 ST  1.7 OM  1.4 f0 2.80 R0.5250 AL 2.14 WI 16.0 MW  3.1 3
 SPEC BRR HH Z T1335 8 K 0.000 GD  158 VP 7.60 DE 3.00 Q0230.0 QA 0.60 VS 4.20 3
 ACTION:UPD 12-12-05 15:33 OP:}ep  STATUS:               ID:20121114133448 L   I
 2012-11-14-1330-00M.COL___230                                                 6
 STAT SP IPHASW D HRMM SECON CODA AMPLIT PERI AZIMU VELO AIN AR TRES W  DIS CAZ7
 BAR2 SZ IP     D 1335  7.30                             171    0.0110 22.4 188 
 BAR2 SZ ES       1335 21.98                             171   -0.2510 22.4 188 
 BAR2 SZ I        1335 23.46        41.3 0.18                          22.4 188 
 GIR2 SZ EP       1335  7.38                             167    0.0110 31.9 352 
 GIR2 SZ ES       1335 22.09                             167   -0.2910 31.9 352 
 BRR  HZ IP       1335  9.16                             152    0.3110 70.9 299 
 BRR  HN ES       1335 25.84                             152    0.8210 70.9 299 
 BRR  HN I        1335 26.49        45.3 0.28                          70.9 299 
 PAM  SZ IP     D 1335 10.25                             150    0.2410 78.5  40 
 PAM  SZ I        1335 10.46        20.6 0.20                          78.5  40 
 PAM  SN ES       1335 26.79                             150   -0.2910 78.5  40 
 RUS  HZ EP       1335 11.26                             143   -0.2010 99.9 176 
 RUS  HZ I        1335 12.05         8.8 0.10                          99.9 176 
 RUS  HN ES       1335 30.01                             143    0.3610 99.9 176 
 PTB  HZ EP       1335 13.97                             131   -0.73 9  147 259 
 PTB  HN ES       1335 35.09                             131   -0.34 9  147 259 
 PTB  HN I        1335 37.21        23.5 0.24                           147 259 
 PRA  HZ EP       1335 42.11                             106    0.72 6  391 210 
 PRA  HN ES       1336 22.85                             106   -0.09 6  391 210 
 PRA  HN I        1336 29.21         4.6 0.24                           391 210 
                                                                                
