 2015  514 1632  3.4 L   6.502 -73.483115.8  RSN  7 0.4 2.0LRSN                1
 GAP= 91        1.06       4.0     4.5  7.8 -0.1105E+01  0.1189E+02 -0.1310E+02E
 Epicentro: SIMACOTA - SANTANDER                                               3
 ACTION:UPD 15-09-10 22:04 OP:cam  STATUS:               ID:20150514163203 L   I
 OLDACT:REG 15-05-14 20:43 OP:drio STATUS:               ID:20150514162749     3
 2015-05-14-1627-49M.COL___282                                                 6
 STAT SP IPHASW D HRMM SECON CODA AMPLIT PERI AZIMU VELO AIN AR TRES W  DIS CAZ7
 BAR2 EZ EP     D 1632 20.20                             162    0.3810 34.7  73 
 BAR2 EZ ES       1632 32.53                             162   -0.0810 34.7  73 
 BAR2 EZ I        1632 33.82        53.6 0.42            166           34.7  73 
 BRR  HZ EP       1632 21.13                             146   -0.3210 71.6 339 
 BRR  HE ES       1632 35.19                             146   -0.3210 71.6 339 
 RUS  HE ES       1632 38.61                             143    0.7210 80.6 147 
 SPBC HN ES       1632 41.23                             132   -0.6310  114 215 
 SPBC HZ I        1632 48.62        18.8 0.10            131            114 215 
 PAM  SZ EP       1632 26.38                             129   -0.3310  127  43 
 PAM  SE ES       1632 44.80                             129   -0.0710  127  43 
 PAM  SZ I        1632 46.22         8.6 0.20            131            127  43 
 ZAR  HZ EP       1632 32.46                             117    0.18 9  187 306 
 ZAR  HN ES       1632 55.47                             117    0.69 9  187 306 
 ZAR  HZ I        1632 57.03        10.3 0.58            117            187 306 
 SML  HZ EP       1632 40.41                             109   -0.30 8  262 346 
 SML  HN ES       1633 10.01                             109    0.21 8  262 346 
 SML  HZ I        1633 14.74         9.6 0.24            109            262 346 
                                                                                
