 2014  214 1417 25.3 L   6.784 -73.221132.7  RSN  5 0.2 1.7LRSN                1
 GAP=128        0.54       2.8     3.4  6.3 -0.3484E+01  0.6358E+01  0.6435E+00E
 Epicentro: ZAPATOCA - SANTANDER                                               3
 ACTION:UPD 14-03-10 08:10 OP:ep   STATUS:               ID:20140214141725 L   I
 OLDACT:REG 14-02-14 15:03 OP:mh   STATUS:               ID:20140214141000     3
 2014-02-14-1410-00M.COL___291                                                 6
 STAT SP IPHASW D HRMM SECON CODA AMPLIT PERI AZIMU VELO AIN AR TRES W  DIS CAZ7
 PAM  SZ EP       1417 46.84                             146    0.2610 84.2  43 
 PAM  SN ES       1418  3.13                             146   -0.0610 84.2  43 
 PAM  SZ I        1418  6.90         5.3 0.48            135           84.2  43 
 RUS  HZ EP       1417 47.58                             141   -0.1310 99.8 171 
 RUS  HZ I        1418  7.16         6.4 0.25            128           99.8 171 
 PTB  HZ EP   1   1417 50.37                             131   -0.06 7  139 259 
 PTB  HN ES   1   1418 10.44                             131    0.40 7  139 259 
 PTB  HZ I        1418 11.96         3.5 0.09            123            139 259 
 SPBC HZ EP   1   1417 52.34                             127    0.16 7  157 217 
 SPBC HN ES   1   1418 12.81                             127   -0.35 7  157 217 
 SPBC HZ I        1418 18.58         3.9 0.21            117            157 217 
 SML  HZ EP   1   1418  1.01                             115   -0.01 6  242 337 
 SML  HN ES   1   1418 28.46                             115   -0.44 6  242 337 
 SML  HZ I        1418 38.67        53.4 0.04            109            242 337 
                                                                                
