 2016 1014 1022  6.4 L   6.798 -73.172144.4  RSN  5 0.5 1.5LRSN                1
 GAP=133        1.33       7.1     6.8  9.9 -0.4880E+01  0.9890E+01  0.2434E+01E
 Epicentro: LOS SANTOS - SANTANDER                                             3
 ACTION:UPD 16-11-09 19:19 OP:rebc STATUS:               ID:20161014102206 L   I
 OLDACT:DUP 16-10-14 20:58 OP:dnl  STATUS:               ID:20161014101750d    3
 OLDACT:UP  16-10-14 20:57 OP:dnl  STATUS:               ID:20161014101749d    3
 OLDACT:DUP 16-10-14 20:48 OP:dnl  STATUS:               ID:20161014101749d    3
 OLDACT:UP  16-10-14 20:47 OP:dnl  STATUS:               ID:20161014101748     3
 OLDACT:REG 16-10-14 20:11 OP:dnl  STATUS:               ID:20161014101748     3
 2016-10-14-1018-00M.COL___359                                                 6
 STAT SP IPHASW D HRMM SECON CODA AMPLIT PERI AZIMU VELO AIN AR TRES W  DIS CAZ7
 BAR2 EZ ES       1022 41.01                             171   -0.0110 22.8 183 
 BAR2 EZ I        1022 42.07        15.9 0.24            170           22.8 183 
 BRR  HZ EP       1022 27.71                             153    0.4510 68.8 300 
 BRR  HN ES       1022 44.40                             153    0.8710 68.8 300 
 PAM  EZ EP       1022 28.71                             150    0.1210 79.4  41 
 PAM  EN ES       1022 45.14                             150   -0.7510 79.4  41 
 PAM  EZ I        1022 47.63         3.7 0.36            153           79.4  41 
 RUS  HZ EP       1022 30.29                             143    0.2810  101 174 
 RUS  HE ES       1022 48.47                             143    0.0410  101 174 
 RUS  HZ I        1022 49.53         3.9 0.22            145            101 174 
 PTB  HZ EP       1022 32.63                             132   -0.36 9  145 259 
 PTB  HN ES       1022 52.95                             132   -0.78 9  145 259 
 PTB  HZ I        1022 59.39         3.6 0.28            132            145 259 
                                                                                
