 2015 1014 1207 54.1 L   6.832 -73.127145.9  RSN 20 0.5 2.5LRSN                1
 GAP=120        1.12       2.6     3.7  5.1 -0.2098E+01  0.5935E+01  0.4798E+00E
 Epicentro: LOS SANTOS - SANTANDER                                             3
 ACTION:UPD 15-12-22 20:40 OP:cam  STATUS:               ID:20151014120754 L   I
 OLDACT:REG 15-10-14 20:26 OP:ak   STATUS:               ID:20151014115747     3
 2015-10-14-1157-47M.COL___334                                                 6
 STAT SP IPHASW D HRMM SECON CODA AMPLIT PERI AZIMU VELO AIN AR TRES W  DIS CAZ7
 BAR2 EZ IP     D 12 8 14.00                             169    0.1310 27.3 193 
 BAR2 EZ ES       12 8 28.97                             169   -0.2910 27.3 193 
 BAR2 EZ I        12 8 30.21        54.3 0.22            169           27.3 193 
 BRR  HZ EP     C 12 8 15.89                             152    0.5810 71.5 295 
 BRR  HN ES       12 8 32.32                             152    0.4910 71.5 295 
 BRR  HZ I        12 8 37.19        33.0 0.17            149           71.5 295 
 PAM  EZ IP     D 12 8 16.99                             152    0.8610 73.3  40 
 PAM  EE ES       12 8 33.75                             152    0.4710 73.3  40 
 PAM  EZ I        12 8 36.19        34.9 0.46            155           73.3  40 
 RUS  HZ EP       12 8 17.89                             143   -0.2610  104 177 
 RUS  HN ES       12 8 36.23                             143   -0.6610  104 177 
 RUS  HZ I        12 8 37.90        20.0 0.29            146            104 177 
 OCA  HZ EP       12 8 22.27                             130    0.12 9  157 352 
 OCA  HN ES       12 8 43.70                             130   -0.30 9  157 352 
 OCA  HZ I        12 8 52.27        63.6 0.50            131            157 352 
 SPBC HZ EP       12 8 23.04                             128    0.00 9  167 219 
 SPBC HE ES       12 8 45.20                             128   -0.38 9  167 219 
 SPBC HZ I        12 8 49.59        39.9 0.12            130            167 219 
 ZAR  HZ EP       12 8 27.06                             122    0.41 9  205 291 
 ZAR  HN ES       12 8 51.73                             122   -0.29 9  205 291 
 ZAR  HZ I        12 8 57.34        30.7 0.40            122            205 291 
 NOR  HZ EP       12 8 30.12                             118   -0.16 8  239 234 
 NOR  HN ES       12 8 58.60                             118    0.12 8  239 234 
 NOR  HZ I        12 9  6.02        16.6 0.14            119            239 234 
 SML  HZ EP       12 8 30.23                             118   -0.28 8  241 334 
 SML  HN ES       12 8 58.31                             118   -0.58 8  241 334 
 SML  HZ I        12 9  7.62        35.0 0.16            119            241 334 
 CHI  HZ EP       12 8 32.23                             117   -0.05 8  253 195 
 CHI  HN ES       12 9  1.14                             117   -0.89 8  253 195 
 CHI  HZ I        12 9  6.84        16.1 0.32            119            253 195 
 ROSC BZ EP   1   12 8 33.34                             116    0.62 6  257 211 
 ROSC BN ES       12 9  3.62                             116    0.81 8  257 211 
 ROSC BZ I        12 9  8.35        43.1 0.40            118            257 211 
 HEL  HZ EP       12 8 35.36                             115    0.68 8  275 255 
 HEL  HN ES       12 9  5.82                             115   -0.49 8  275 255 
 HEL  HZ I        12 9 12.08        15.6 0.28            115            275 255 
 URE  HZ EP       12 8 34.71                             114   -0.57 7  284 291 
 URE  HN ES   4   12 9  4.70                             114   -2.68 0  284 291 
 URE  HZ I        12 9 15.75        13.9 0.26            114            284 291 
 SOCV BZ EP       12 8 35.83                             112   -0.94 7  298  57 
 SOCV BN ES   4   12 9  7.00                             112   -3.02 0  298  57 
 GUY2CHZ EP   1   12 8 38.29                             112    0.11 5  305 234 
 GUY2CHN ES       12 9 12.99                             112    0.46 7  305 234 
 ELA  HZ EP   1   12 8 41.80                             110    0.36 5  333 229 
 ELA  HN ES       12 9 19.21                             110    0.87 7  333 229 
 ELA  HZ I        12 9 26.72         9.5 0.56            111            333 229 
 CBOC HZ EP   1   12 8 41.45                             110    0.04 5  337 252 
 DBB  SZ EP       12 8 41.53                             109   -0.30 7  341 274 
 DBB  SZ ES       12 9 18.11                             109   -0.92 7  341 274 
 DBB  SZ I        12 9 19.58        34.2 0.28            110            341 274 
 ORTC HZ EP       12 8 48.62                             106    0.08 6  400 216 
 ORTC HE ES       12 9 30.77                             106   -0.21 6  400 216 
 ORTC HZ I        12 9 35.45         8.9 0.22            108            400 216 
 SJC  HZ EP   4   12 8 48.14                             106   -1.34 0  407 326 
 SJC  HN ES   4   12 9 29.12                             106   -3.54 0  407 326 
 SJC  HZ I        12 9 41.42         5.4 0.51            107            407 326 
                                                                                
