 2013  914 1508 24.6 L   6.763 -73.162149.3  RSN  6 0.3 1.8LRSN                1
 GAP=233        0.79       5.1     5.5  6.0  0.7882E+01  0.4591E+01  0.4229E+01E
 Epicentro: LOS SANTOS - SANTANDER                                             3
 ACTION:UPD 13-10-22 09:22 OP:ep   STATUS:               ID:20130914150824 L   I
 OLDACT:UP  13-09-14 15:50 OP:cam  STATUS:               ID:20130914145959     3
 OLDACT:REG 13-09-14 14:46 OP:cam  STATUS:               ID:20130914145959     3
 2013-09-14-1459-59M.COL___269                                                 6
 STAT SP IPHASW D HRMM SECON CODA AMPLIT PERI AZIMU VELO AIN AR TRES W  DIS CAZ7
 BAR2 SZ EP       15 8 44.13                             172   -0.4010 19.0 187 
 BAR2 SZ ES       15 8 59.96                             172   -0.1510 19.0 187 
 BAR2 SZ I        15 9  1.98        12.9 0.36            170           19.0 187 
 BRR  HZ EP       15 8 45.99                             153   -0.1310 71.7 302 
 BRR  HE ES       15 9  3.47                             153    0.5410 71.7 302 
 RUS  HZ EP   1   15 8 48.89                             146    0.51 7 96.7 175 
 RUS  HE ES       15 9  6.90                             146   -0.0610 96.7 175 
 RUS  HZ I        15 9  7.96         7.8 0.24            146           96.7 175 
 PTB  HZ EP   1   15 8 51.28                             133   -0.31 7  145 260 
 PTB  HN ES       15 9 12.33                             133   -0.35 9  145 260 
 PTB  HZ I        15 9 18.00         7.8 0.38            132            145 260 
 SPBC HZ EP       15 8 53.18                             131    0.25 9  159 219 
 SPBC HN ES   1   15 9 15.22                             131    0.16 7  159 219 
 CHI  HZ EP   2   15 9  2.54                             118    0.56 4  244 195 
                                                                                
