 2016  814 1110 15.2 L   6.918 -73.223121.5  RSN  4 0.2 1.6LRSN                1
 GAP=242        0.46       4.4     3.1  3.7  0.5731E+01  0.2827E+01 -0.2517E+01E
 Epicentro: BETULIA - SANTANDER                                                3
 ACTION:UPD 16-10-29 15:35 OP:rebc STATUS:               ID:20160814111015 L   I
 OLDACT:REG 16-08-14 20:06 OP:lv   STATUS:               ID:20160814110759     3
 2016-08-14-1107-59S.COL___346                                                 6
 STAT SP IPHASW D HRMM SECON CODA AMPLIT PERI AZIMU VELO AIN AR TRES W  DIS CAZ7
 BAR2 EZ EP       1110 32.56                             162    0.2010 36.4 173 
 BAR2 EZ ES       1110 45.48                             162   -0.2410 36.4 173 
 BRR  HZ EP       1110 33.00                             153   -0.0210 57.9 291 
 BRR  HE ES       1110 47.05                             153    0.1710 57.9 291 
 BRR  HZ I        1110 47.98         9.7 0.10                          57.9 291 
 PTB  HZ EP       1110 39.95                             127    0.10 9  143 253 
 PTB  HE ES       1110 59.07                             127    0.03 9  143 253 
 PTB  HZ I        1111  0.96         7.0 0.09                           143 253 
 ZAR  HZ EP       1110 44.65                             118   -0.22 9  191 289 
 ZAR  HN ES       1111  7.89                             118   -0.08 9  191 289 
 ZAR  HZ I        1111 10.12         3.3 0.10                           191 289 
                                                                                
