 2011  214 1156 57.4 L   6.795 -73.137145.3  RSN 17 0.4 2.6LRSN                1
 GAP=103        0.89       3.2     4.6  5.2 -0.5150E+01  0.5149E+01  0.2709E+01E
 Epicentro: LOS SANTOS - SANTANDER                                             3
 ACTION:UP  11-03-28 15:08 OP:jfem STATUS:               ID:20110214115657 L   I
 2011-02-14-1154-45S.COL___137                                                 6
 STAT SP IPHASW D HRMM SECON CODA AMPLIT PERI AZIMU VELO SNR AR TRES W  DIS CAZ7
 BTL  SZ IP       1157 17.11                             172     0.210   20 313 
 BTL  SZ ES   2   1157 32.37                             172     0.3 5   20 313 
 BAR2 SZ IP       1157 16.88                             171    -0.110   23 193 
 BAR2 SZ ES   2   1157 32.17                             171     0.0 5   23 193 
 BAR2 SZ I        1157 33.57       154.3 0.27                            23 193 
 GIR2 SZ EP       1157 17.00                             167     0.010   32 349 
 GIR2 SZ ES   1   1157 32.73                             167     0.4 7   32 349 
 URB  SZ EP       1157 17.82                             159     0.110   54 336 
 URB  SZ ES   3   1157 34.47                             159     0.9 2   54 336 
 RUS  HZ EP       1157 20.84                             144    -0.210  100 177 
 RUS  HZ I        1157 21.69        34.1 0.25                           100 177 
 RUS  HN ES   1   1157 39.11                             144    -0.4 7  100 177 
 GRA  SZ EP       1157 22.71                             137     0.110  126  17 
 GRA  SZ ES   1   1157 42.33                             137     0.0 7  126  17 
 GRA  SZ I        1157 46.66        46.0 0.30                           126  17 
 OCA  SZ EP       1157 25.92                             129     0.2 9  161 353 
 OCA  SZ ES   1   1157 47.22                             129    -0.6 7  161 353 
 OCA  SZ I        1157 50.57        55.3 0.35                           161 353 
 YOP  SZ EP       1157 27.48                             126     0.2 9  178 154 
 YOP  SZ I        1157 28.15        27.6 0.21                           178 154 
 YOP  SN ES   3   1157 50.98                             126     0.3 2  178 154 
 NOR  SZ EP       1157 32.96                             118    -0.2 8  235 235 
 NOR  SE ES       1158  0.26                             118    -0.8 8  235 235 
 CHI  HZ EP       1157 34.96                             117    -0.1 8  248 195 
 CHI  HZ I        1158  8.05        25.6 0.68                           248 195 
 ROSC BZ EP   2   1157 36.95                             116     1.5 4  253 211 
 HEL  HZ EP       1157 38.07                             114     0.4 8  273 256 
 HEL  HZ I        1158 15.91        30.5 0.46                           273 256 
 VIL  SZ EP   2   1157 40.46                             112    -0.1 4  301 190 
 VIL  SZ I        1158 19.62        20.0 0.52                           301 190 
 RREF HZ EP       1157 44.17                             111     0.6 7  322 230 
 RREF HN ES   1   1158 19.18                             111    -0.4 5  322 230 
 RREF HZ I        1158 25.67        28.9 0.27                           322 230 
 DBB  SZ EP       1157 44.85                             109    -0.1 7  340 274 
 TOL  SZ EP       1157 46.18                             109     0.5 7  344 225 
 SDV  BZ EP       1157 46.50                             108    -0.9 6  360  50 
                                                                                
