 2012 1114 1244  7.8 L   6.847 -73.149146.4  RSN  5 0.4 1.6LRSN                1
 GAP=187        0.94       8.0    15.9  8.9  0.7001E+02  0.8456E+02  0.2498E+02E
 Epicentro: LOS SANTOS - SANTANDER                                             3
 ACTION:UPD 12-12-05 15:33 OP:}ep  STATUS:               ID:20121114124407 L   I
 2012-11-14-1240-00M.COL___230                                                 6
 STAT SP IPHASW D HRMM SECON CODA AMPLIT PERI AZIMU VELO AIN AR TRES W  DIS CAZ7
 GIR2 SZ ES       1244 42.73                             169    0.0210 26.1 349 
 BAR2 SZ EP       1244 27.07                             168   -0.5310 28.4 187 
 BAR2 SZ ES       1244 42.85                             168   -0.2110 28.4 187 
 BAR2 SZ I        1244 45.29         6.2 0.26                          28.4 187 
 BRR  HZ EP       1244 29.48                             153    0.6210 68.6 295 
 RUS  HZ EP       1244 32.07                             142    0.0910  106 176 
 RUS  HN ES       1244 51.12                             142    0.2810  106 176 
 PTB  HZ EP       1244 34.56                             132   -0.31 9  149 257 
 PTB  HN I        1245  0.65         5.8 0.32                           149 257 
                                                                                
