 2017  614 1737 32.5 L   6.788 -73.149143.4  RSN  8 0.5 1.8LRSN                1
 GAP=184        0.99       5.1     6.3  9.7  0.6476E+01 -0.1630E+02  0.1520E+02E
 Epicentro: LOS SANTOS - SANTANDER                                             3
 ACTION:UPD 17-09-14 16:52 OP:jn   STATUS:               ID:20170614173732 L   I
 OLDACT:UP  17-07-05 18:52 OP:nlst STATUS:               ID:20170614173732 L   3
 OLDACT:UP  17-06-15 00:31 OP:dani STATUS:               ID:20170614172728d    3
 OLDACT:UP  17-06-15 00:29 OP:dani STATUS:               ID:20170614172728d    3
 OLDACT:UP  17-06-15 00:29 OP:dani STATUS:               ID:20170614172728d    3
 OLDACT:UP  17-06-15 00:29 OP:dani STATUS:               ID:20170614172728d    3
 OLDACT:UP  17-06-15 00:29 OP:dani STATUS:               ID:20170614172728d    3
 OLDACT:UP  17-06-15 00:28 OP:dani STATUS:               ID:20170614172728d    3
 OLDACT:UP  17-06-15 00:28 OP:dani STATUS:               ID:20170614172728d    3
 OLDACT:UP  17-06-15 00:28 OP:dani STATUS:               ID:20170614172728d    3
 OLDACT:UP  17-06-15 00:27 OP:dani STATUS:               ID:20170614172728d    3
 OLDACT:DUP 17-06-15 00:25 OP:dani STATUS:               ID:20170614172728d    3
 2017-06-14-1728-00M.COL___368                                                 6
 STAT SP IPHASW D HRMM SECON CODA AMPLIT PERI AZIMU VELO AIN AR TRES W  DIS CAZ7
 BRR  HZ EP       1737 53.34                             152   -0.1210 71.5 300 
 BRR  HN ES       1738 10.33                             152    0.5610 71.5 300 
 BRR  HZ I        1738 10.98        15.4 0.08             47           71.5 300 
 PTB  HZ EP       1737 59.25                             132   -0.01 9  147 259 
 PTB  HN ES       1738 19.20                             132   -0.90 9  147 259 
 PTB  HZ I        1738 26.36         4.0 0.32             47            147 259 
 SPBC HZ EP       1738  0.72                             129   -0.02 9  162 219 
 YPLC HZ EP       1738  1.86                             126   -0.21 9  176 151 
 ZAR  HZ EP       1738  5.35                             122    0.50 9  204 293 
 ZAR  HN ES       1738 29.79                             122   -0.26 9  204 293 
 ZAR  HZ I        1738 36.20                              37            204 293 
 NOR  HZ EP   1   1738  8.17                             118    0.15 6  234 235 
 NOR  HN ES       1738 36.32                             118    0.63 8  234 235 
 NOR  HZ I        1738 41.41         3.0 0.13             37            234 235 
 CHI  HZ EP   3   1738 11.16                             117    1.20 2  247 195 
 CHI  HE ES       1738 38.93                             117   -0.21 8  247 195 
 CHI  HZ I        1738 42.48         5.5 0.43             37            247 195 
 SJC  HZ EP   3   1738 26.10                             105   -2.03 1  410 327 
 SJC  HZ I        1739 11.47         2.2 0.54             36            410 327 
                                                                                
