 2017  314 1528 46.3 L   6.878 -73.163140.8  RSN  5 0.1 1.5LRSN                1
 GAP=243        0.39       3.7     3.7  4.8  0.1001E+02  0.8507E+01  0.4867E+01E
 Epicentro: BETULIA - SANTANDER                                                3
 ACTION:UPD 17-05-25 18:40 OP:jn   STATUS:               ID:20170314152846 L   I
 OLDACT:REG 17-03-14 20:59 OP:dnl  STATUS:               ID:20170314152747     3
 2017-03-14-1528-00M.COL___367                                                 6
 STAT SP IPHASW D HRMM SECON CODA AMPLIT PERI AZIMU VELO AIN AR TRES W  DIS CAZ7
 BAR2 EZ EP   2   1529  5.45                             167   -0.14 5 31.7 184 
 BAR2 EZ ES       1529 20.61                             167    0.0210 31.7 184 
 BAR2 EZ I        1529 22.29         6.9 0.26            169           31.7 184 
 BRR  HN ES       1529 22.40                             154   -0.0910 65.7 293 
 BRR  HZ I        1529 25.28        12.9 0.30            151           65.7 293 
 RUS  HZ EP   2   1529 10.31                             140    0.03 5  109 175 
 RUS  HE ES       1529 29.05                             140    0.1010  109 175 
 RUS  HZ I        1529 30.24         3.6 0.32            142            109 175 
 PTB  HZ EP   2   1529 12.66                             131   -0.25 5  148 255 
 PTB  HN ES       1529 33.49                             131   -0.15 9  148 255 
 PTB  HZ I        1529 35.61         3.1 0.20            130            148 255 
 ZAR  HE ES       1529 42.87                             122    0.25 9  199 290 
 ZAR  HZ I        1529 49.48         3.7 0.28            120            199 290 
                                                                                
