 2013  414 1129 36.8 L   6.684 -73.170150.5  RSN  4 0.3 1.0LRSN                1
 GAP=226        0.72       7.7     6.6  7.5  0.2940E+02  0.1374E+02  0.6788E+01E
 Epicentro: VILLANUEVA - SANTANDER                                             3
 ACTION:UPD 13-05-22 14:38 OP:EP   STATUS:               ID:20130414112936 L   I
 2013-04-14-1128-44M.COL___188                                                 6
 STAT SP IPHASW D HRMM SECON CODA AMPLIT PERI AZIMU VELO AIN AR TRES W  DIS CAZ7
 BAR2 SZ EP   2   1129 56.56                             176   -0.31 5 10.2 188 
 BAR2 SZ ES   1   1130 11.98                             176   -0.50 7 10.2 188 
 BRR  HE ES   1   1130 16.38                             152    0.48 7 76.0 308 
 RUS  HZ EP   1   1130  0.67                             148    0.44 7 88.0 174 
 RUS  HN ES       1130 18.53                             148    0.0710 88.0 174 
 RUS  HZ I        1130 19.82         1.3 0.26            147           88.0 174 
 PTB  HZ EP       1130  3.53                             134   -0.27 9  143 264 
 PTB  HN ES       1130 24.83                             134    0.01 9  143 264 
 PTB  HZ I        1130 27.27         1.4 0.37            133            143 264 
                                                                                
