 2013  814 1716  6.9 L   6.807 -73.148150.6  RSN 16 0.5 2.7LRSN                1
 GAP=136        1.16       3.3     4.9  5.6 -0.2156E+01  0.6634E+01  0.2135E+01E
 Epicentro: LOS SANTOS - SANTANDER                                             3
 ACTION:UPD 14-01-14 09:02 OP:ep   STATUS:               ID:20130814171606 L   I
 OLDACT:REG 13-08-14 15:42 OP:jn   STATUS:               ID:20130814170959     3
 2013-08-14-1709-59M.COL___270                                                 6
 STAT SP IPHASW D HRMM SECON CODA AMPLIT PERI AZIMU VELO AIN AR TRES W  DIS CAZ7
 BAR2 SZ EP       1716 27.11                             171   -0.0010 24.1 189 
 BAR2 SZ ES       1716 42.35                             171   -0.5410 24.1 189 
 BAR2 SZ I        1716 43.27        81.2 0.28            168           24.1 189 
 GIR2 SZ EP       1716 27.17                             168    0.0610 30.5 351 
 GIR2 SZ ES   1   1716 44.02                             168    1.13 7 30.5 351 
 BRR  HZ EP       1716 28.97                             154    0.4410 70.6 298 
 BRR  HN ES       1716 46.40                             154    0.9910 70.6 298 
 BRR  HZ I        1716 48.99        65.1 0.36            151           70.6 298 
 PAM  SZ EP       1716 30.00                             152    0.4110 76.9  40 
 PAM  SN ES       1716 47.19                             152   -0.1210 76.9  40 
 PAM  SZ I        1716 51.45        43.1 0.36            156           76.9  40 
 RUS  HZ EP       1716 31.01                             145   -0.1610  101 176 
 RUS  HN ES   1   1716 49.29                             145   -0.83 7  101 176 
 RUS  HZ I        1716 50.94        66.8 0.26            146            101 176 
 PTB  HZ EP       1716 33.89                             133   -0.35 9  148 259 
 PTB  HN ES       1716 55.15                             133   -0.43 9  148 259 
 PTB  HZ I        1717  1.01        57.6 0.18            132            148 259 
 OCA  HZ EP       1716 35.31                             131   -0.19 9  159 353 
 OCA  HN ES   1   1716 56.89                             131   -0.93 7  159 353 
 OCA  HZ I        1717  3.01        85.5 0.26            132            159 353 
 SPBC HZ EP       1716 36.10                             130    0.30 9  164 219 
 SPBC HN ES   1   1716 58.32                             130   -0.04 7  164 219 
 SPBC HZ I        1717  2.15        97.3 0.24            130            164 219 
 ZAR  HZ EP       1716 39.91                             124    0.31 9  204 292 
 ZAR  HN ES   1   1717  4.91                             124   -0.20 6  204 292 
 ZAR  HZ I        1717 11.18        80.5 0.42            123            204 292 
 NOR  HZ EP       1716 42.64                             119   -0.29 8  235 234 
 NOR  HN ES   1   1717 10.55                             119   -0.49 6  235 234 
 NOR  HZ I        1717 16.33        43.1 0.20            120            235 234 
 SML  HZ EP       1716 43.19                             119   -0.51 8  243 335 
 SML  HE ES       1717 11.86                             119   -0.55 8  243 335 
 CHI  HZ EP       1716 45.09                             118    0.16 8  249 195 
 CHI  HN ES   1   1717 14.74                             118    0.13 6  249 195 
 CHI  HZ I        1717 20.64        17.7 0.72            119            249 195 
 ROSC BZ EP   1   1716 46.37                             118    1.04 6  253 211 
 HEL  HZ EP   4   1716 49.32                             116    1.98 0  272 256 
 HEL  HN ES   4   1717 21.35                             116    2.45 0  272 256 
 HEL  HZ I        1717 27.30        23.8 0.28            116            272 256 
 DBB  SZ EP   1   1716 55.76                             110    1.23 5  339 274 
 PRA  HZ EP       1717  0.41                             107   -0.23 6  393 209 
 PRA  HN ES   1   1717 42.45                             107   -0.12 4  393 209 
 PRA  HZ I        1717 47.83        18.9 0.50            108            393 209 
                                                                                
