 2013  814 1304 46.8 L   6.737 -73.204148.8  RSN  4 0.3 1.7LRSN                1
 GAP=225        0.69       6.9     6.4  7.7  0.1173E+02  0.1395E+02 -0.6844E+01E
 Epicentro: VILLANUEVA - SANTANDER                                             3
 ACTION:UPD 14-01-14 09:02 OP:ep   STATUS:               ID:20130814130446 L   I
 OLDACT:UP  13-08-14 17:18 OP:jn   STATUS:               ID:20130814125960d    3
 OLDACT:UP  13-08-14 17:15 OP:jn   STATUS:               ID:20130814125960d    3
 OLDACT:UP  13-08-14 17:13 OP:jn   STATUS:               ID:20130814125960d    3
 OLDACT:DUP 13-08-14 17:07 OP:jn   STATUS:               ID:20130814125960d    3
 2013-08-14-1259-59M.COL___271                                                 6
 STAT SP IPHASW D HRMM SECON CODA AMPLIT PERI AZIMU VELO AIN AR TRES W  DIS CAZ7
 BAR2 SZ ES   1   13 5 21.57                             174   -0.58 7 16.2 171 
 BRR  HZ EP       13 5  8.26                             154    0.1110 69.5 306 
 BRR  HN ES   1   13 5 25.20                             154    0.37 7 69.5 306 
 BRR  HZ I        13 5 29.81         9.3 0.26            151           69.5 306 
 RUS  HN ES   1   13 5 29.17                             146    0.37 7 94.3 172 
 PTB  HZ EP       13 5 13.13                             134   -0.19 9  140 261 
 PTB  HN ES       13 5 33.99                             134   -0.03 9  140 261 
 PTB  HZ I        13 5 36.51         5.9 0.48            137            140 261 
                                                                                
