 2016  514 1612 34.4 L   6.408 -73.395 13.8  RSN  6 0.3 1.7LRSN                1
 GAP=100        0.74       1.5     1.9  5.1  0.7654E-01  0.5151E+01 -0.2504E+00E
 Epicentro: SIMACOTA - SANTANDER                                               3
 ACTION:UPD 16-08-18 17:45 OP:cam  STATUS:               ID:20160514161234 L   I
 OLDACT:REG 16-05-14 19:46 OP:drio STATUS:               ID:20160514160745     3
 2016-05-14-1607-45M.COL___306                                                 6
 STAT SP IPHASW D HRMM SECON CODA AMPLIT PERI AZIMU VELO AIN AR TRES W  DIS CAZ7
 BAR2 EZ EP       1612 40.37                             111    0.1010 31.1  49 
 BAR2 EZ ES       1612 44.84                             111    0.0210 31.1  49 
 BAR2 EZ I        1612 45.70        48.1 0.34            115           31.1  49 
 RUS  HZ EP       1612 45.80                              99    0.0510 66.6 149 
 RUS  HE ES       1612 54.20                              99   -0.3810 66.6 149 
 RUS  HZ I        1612 54.68        22.1 0.16            102           66.6 149 
 BRR  HZ EP       1612 48.35                              97    0.3510 84.9 336 
 BRR  HN ES       1612 58.46                              97   -0.1110 84.9 336 
 SPBC HZ EP       1612 52.14                              95   -0.0710  112 222 
 SPBC HN ES       1613  6.58                              95    0.5110  112 222 
 PTB  HZ EP       1612 53.09                              95    0.0410  118 277 
 PTB  HE ES       1613  7.07                              95   -0.4910  118 277 
 PTB  HZ I        1613  8.44        39.3 0.14             96            118 277 
 ZAR  HN ES       1613 27.09                              56   -0.04 9  201 307 
                                                                                
