 2012  514 1414 14.1 L   6.771 -73.110147.8  RSN  5 0.4 1.6LRSN                1
 GAP=239        1.03      10.1     9.7  9.8  0.5046E+02  0.3695E+01 -0.3599E+01E
 Epicentro: LOS SANTOS - SANTANDER                                             3
 ACTION:UP  12-07-05 12:05 OP:pat  STATUS:               ID:20120514141414 L   I
 2012-05-14-1410-00M.COL___195                                                 6
 STAT SP IPHASW D HRMM SECON CODA AMPLIT PERI AZIMU VELO SNR AR TRES W  DIS CAZ7
 BAR2 SZ EP       1414 34.01                             172     0.110   21 202 
 BAR2 SZ ES   1   1414 49.06                             172    -0.3 7   21 202 
 BAR2 SZ I        1414 51.65         7.7 0.20                            21 202 
 BRR  HZ EP       1414 35.93                             151     0.210   76 299 
 BRR  HZ I        1414 36.12        12.8 0.48                            76 299 
 BRR  HN ES   1   1414 52.78                             151     0.1 7   76 299 
 RUS  HZ EP       1414 38.18                             145     0.410   97 178 
 RUS  HN ES   1   1414 56.06                             145    -0.2 7   97 178 
 RUS  HZ I        1414 57.72         3.6 0.24                            97 178 
 PTB  HZ EP       1414 40.86                             132    -0.7 9  151 260 
 PTB  HE ES   1   1415  3.49                             132     0.6 7  151 260 
 PTB  HZ I        1415  9.28         3.2 0.54                           151 260 
 ZAR  HN ES   3   1415 12.05                             122    -0.9 2  209 293 
 ZAR  HZ I        1415 19.07         4.9 0.44                           209 293 
                                                                                
