 2011  514 1614  6.8 L   7.536 -73.048152.8  RSN  7 0.3 1.6LRSN                1
 GAP=158        0.73       8.7    11.0  7.9 -0.5402E+02  0.1662E+02  0.1128E+02E
 Epicentro: EL PLAYON - SANTANDER                                              3
 ACTION:UP  11-06-29 08:53 OP:tino STATUS:               ID:20110514161406 L   I
 2011-05-14-1613-15S.COL___141                                                 6
 STAT SP IPHASW D HRMM SECON CODA AMPLIT PERI AZIMU VELO SNR AR TRES W  DIS CAZ7
 BRI  SZ EP   1   1614 27.91                             167     0.5 7   34  54 
 BRI  SZ ES   1   1614 43.92                             167     0.4 7   34  54 
 BRI  SZ I        1614 47.69         6.3 0.44                            34  54 
 PAM  SZ EP   1   1614 28.42                             163     0.2 7   44 119 
 PAM  SE ES   2   1614 44.76                             163    -0.2 5   44 119 
 GRA  SZ EP   1   1614 27.69                             162    -0.1 7   47  35 
 GRA  SZ ES   1   1614 43.67                             162    -0.6 7   47  35 
 GRA  SZ I        1614 46.84         9.2 0.38                            47  35 
 BTL  SZ EP   1   1614 28.92                             153    -0.2 7   72 200 
 BRR  HZ EP   1   1614 29.42                             149    -0.2 7   87 237 
 BRR  HE ES   2   1614 47.85                             149     0.4 5   87 237 
 BRR  HZ I        1614 53.39        11.5 0.49                            87 237 
 BAR2 SZ ES   2   1614 50.08                             144    -0.2 5  105 188 
 BAR2 SZ I        1614 51.87        11.6 0.65                           105 188 
 RUS  HZ EP   2   1614 38.01                             127    -0.1 4  182 181 
 RUS  HZ I        1614 38.19         1.5 0.16                           182 181 
                                                                                
