 2016 1114 1212 41.9 L   6.775 -73.103145.3  RSN  8 0.2 1.9LRSN                1
 GAP=161        0.49       2.1     2.5  3.1 -0.1023E+01 -0.1739E+00  0.2551E+01E
 Epicentro: LOS SANTOS - SANTANDER                                             3
 ACTION:UPD 17-10-26 21:08 OP:lp   STATUS:               ID:20161114121241 L   I
 OLDACT:UP  16-11-14 21:26 OP:edw  STATUS:               ID:20161114120744     3
 OLDACT:UP  16-11-14 21:25 OP:edw  STATUS:               ID:20161114120744     3
 OLDACT:UP  16-11-14 21:25 OP:edw  STATUS:               ID:20161114120744     3
 OLDACT:UP  16-11-14 21:24 OP:edw  STATUS:               ID:20161114120744     3
 OLDACT:REG 16-11-14 18:58 OP:edw  STATUS:               ID:20161114120744     3
 2016-11-14-1208-00M.COL___338                                                 6
 STAT SP IPHASW D HRMM SECON CODA AMPLIT PERI AZIMU VELO AIN AR TRES W  DIS CAZ7
 BAR2 EZ EP     C 1213  1.25                             171   -0.2410 22.0 204 
 BAR2 EZ ES       1213 16.83                             171    0.0910 22.0 204 
 BAR2 EZ I        1213 19.04        24.2 0.32            167           22.0 204 
 PAM  EZ EP       1213  4.19                             151    0.1210 76.7  35 
 PAM  EN ES       1213 21.35                             151    0.0310 76.7  35 
 PAM  EZ I        1213 23.66         9.0 0.22            156           76.7  35 
 PAM  EZ E        1213 24.62                                           76.7  35 
 BRR  HZ IP     D 1213  3.07                             151   -0.2910 76.7 299 
 BRR  HN ES       1213 20.08                             151    0.0210 76.7 299 
 BRR  HZ I        1213 20.67        15.5 0.10            149           76.7 299 
 PTB  HZ EP   9   1213  7.91                             131   -1.34 0  152 260 
 PTB  HN ES       1213 28.86                             131   -0.35 9  152 260 
 PTB  HZ I        1213 36.22         6.3 0.19            130            152 260 
 ZAR  HZ EP   4   1213 16.70                             121    1.78 0  209 292 
 ZAR  HN ES       1213 40.87                             121    0.23 8  209 292 
 ZAR  HZ I        1213 44.53         5.9 0.16            121            209 292 
 CHI  HZ EP       1213 19.62                             117    0.15 8  247 196 
 CHI  HN ES       1213 48.89                             117    0.15 8  247 196 
 CHI  HZ I        1213 52.35         3.6 0.44            117            247 196 
 ROSC BZ EP   9   1213 21.85                             116    1.80 0  253 212 
 ROSC BN ES       1213 51.68                             116    0.11 8  253 212 
 ROSC BZ I        1213 57.52         8.4 0.35            116            253 212 
 URE  HN ES   4   1213 57.29                             113    1.20 0  289 292 
 PRA  HZ EP       1213 35.41                             106   -0.04 6  392 210 
 PRA  HN ES       1214 16.99                             106   -0.19 6  392 210 
 PRA  HZ I        1214 23.05         3.4 0.28            106            392 210 
                                                                                
