 2013  714 1307 26.2 L   6.789 -73.181143.5  RSN 10 0.4 2.1LRSN                1
 GAP= 70        1.14       4.9     3.7  6.9  0.1360E+01  0.3824E+00  0.1887E+00E
 Epicentro: LOS SANTOS - SANTANDER                                             3
 ACTION:UPD 13-08-12 10:37 OP:ep   STATUS:               ID:20130714130726 L   I
 OLDACT:REG 13-07-14 16:00 OP:stll STATUS:               ID:20130714125837     3
 2013-07-14-1258-37M.COL___228                                                 6
 STAT SP IPHASW D HRMM SECON CODA AMPLIT PERI AZIMU VELO AIN AR TRES W  DIS CAZ7
 BAR2 SZ EP       13 7 45.52                             171    0.0210 21.8 180 
 BAR2 SZ ES       13 8  0.31                             171   -0.2610 21.8 180 
 BAR2 SZ I        13 8  1.79        23.4 0.18            171           21.8 180 
 GIR2 SZ EP       13 7 45.56                             167   -0.0410 32.0 358 
 BRR  HZ EP       13 7 47.32                             153    0.4010 68.4 301 
 BRR  HN ES       13 8  4.15                             153    1.0510 68.4 301 
 BRR  HN I        13 8  6.88        29.8 0.16            154           68.4 301 
 PAM  SZ EP       13 7 48.47                             149    0.1110 80.8  41 
 PAM  SN ES       13 8  5.24                             149   -0.4210 80.8  41 
 PAM  SN I        13 8  6.22        28.9 0.50            152           80.8  41 
 RUS  HZ EP       13 7 49.56                             144   -0.0810 99.7 174 
 RUS  HE ES       13 8  8.08                             144    0.1310 99.7 174 
 RUS  HE I        13 8  9.17         8.7 0.50            145           99.7 174 
 GRA  SZ EP       13 7 51.77                             136    0.3510  128  19 
 PTB  HZ EP       13 7 52.47                             132   -0.12 9  144 259 
 PTB  HN ES       13 8 12.88                             132   -0.31 9  144 259 
 PTB  HN I        13 8 16.85        22.2 0.20            134            144 259 
 TAM  HZ EP       13 7 53.91                             129   -0.09 9  159 104 
 TAM  HE ES       13 8 15.40                             129   -0.30 9  159 104 
 TAM  HN I        13 8 16.98        13.5 0.46            132            159 104 
 SPBC HZ EP       13 7 54.52                             129    0.34 9  160 218 
 ZAR  HE ES       13 8 22.01                             122   -1.08 9  201 293 
                                                                                
