 2010  314 1321  0.2 L   6.808 -73.027140.6  RSN 11 0.3 2.7LRSN                1
 GAP=135        0.65       2.4     4.0  4.0 -0.2061E+01 -0.2478E+01  0.4856E+00E
 Epicentro: CEPITA - SANTANDER                                                 3
 ACTION:UP  10-08-24 09:53 OP:vdl  STATUS:               ID:20100314132100 L   I
 2010-03-14-1319-27S.COL___095                                                 6
 STAT SP IPHASW D HRMM SECON CODA AMPLIT PERI AZIMU VELO SNR AR TRES W  DIS CAZ7
 BAR2 SZ EP       1321 19.52                             168     0.210   30 216 
 BAR2 SZ ES   1   1321 33.98                             168    -0.3 7   30 216 
 BRR  HZ EP       1321 21.48                             148     0.010   83 294 
 BRR  HN ES       1321 38.29                             148     0.210   83 294 
 BRR  HZ I        1321 42.84        87.0 0.12                            83 294 
 RUS  HZ EP       1321 23.52                             142     0.010  101 184 
 RUS  HN ES       1321 41.90                             142     0.210  101 184 
 RUS  HZ I        1321 43.83        34.1 0.31                           101 184 
 OCA  SZ EP       1321 28.15                             128    -0.1 9  161 348 
 OCA  SZ ES   1   1321 49.72                             128    -0.4 7  161 348 
 OCA  SZ I        1321 55.38        86.1 0.21                           161 348 
 CHI  HZ EP       1321 37.97                             116    -0.2 8  253 198 
 CHI  HN ES   2   1322  6.99                             116    -0.7 4  253 198 
 CHI  HZ I        1322 10.27        15.7 0.72                           253 198 
 HEL  HZ EP   1   1321 41.70                             113     0.1 6  285 256 
 HEL  HZ I        1322 17.93        13.2 0.40                           285 256 
 RREF BN ES   2   1322 24.87                             109     0.7 3  332 231 
 RREF BZ I        1322 27.78        17.6 0.87                           332 231 
 SDV  BZ EP       1321 49.32                             108     0.5 6  350  49 
 SDV  BZ I        1321 50.08        41.5 0.07                           350  49 
 SDV  B1 ES   1   1322 26.49                             108    -0.3 5  350  49 
 TOL  SZ EP       1321 49.57                             108     0.2 6  353 226 
 ANIL BN ES   2   1322 30.64                             107     0.1 3  367 226 
 ANIL BZ I        1322 33.65        22.4 0.24                           367 226 
 PRA  HZ EP   1   1321 54.16                             105    -0.3 4  399 211 
 PRA  HN ES   1   1322 35.90                             105    -0.8 4  399 211 
 PRA  HZ I        1322 41.57        16.3 0.43                           399 211 
                                                                                
