 2012  914 1630 58.6 L   6.718 -73.165143.2  RSN  5 0.2 2.0LRSN                1
 GAP=229        0.43       4.6     4.6  4.7  0.8842E+01  0.3670E+01  0.4054E+01E
 Epicentro: VILLANUEVA - SANTANDER                                             3
 ACTION:UPD 12-10-22 14:18 OP:ep   STATUS:               ID:20120914163058 L   I
 2012-09-14-1630-00M.COL___227                                                 6
 STAT SP IPHASW D HRMM SECON CODA AMPLIT PERI AZIMU VELO AIN AR TRES W  DIS CAZ7
 BAR2 SZ ES   2   1631 32.09                             174   -0.60 5 14.1 188 
 BAR2 SZ I        1631 33.93        20.6 0.23                          14.1 188 
 BRR  HZ EP       1631 19.69                             151    0.0810 74.2 305 
 BRR  HZ I        1631 21.93        38.5 0.05                          74.2 305 
 BRR  HN ES       1631 36.16                             151    0.1310 74.2 305 
 RUS  HZ EP   2   1631 21.48                             146    0.04 5 91.8 174 
 RUS  HN ES   2   1631 39.48                             146    0.19 5 91.8 174 
 PTB  HZ EP       1631 24.93                             132   -0.07 9  144 262 
 PTB  HN ES   1   1631 45.64                             132    0.02 7  144 262 
 PTB  HZ I        1631 48.66         7.5 0.15                           144 262 
 ZAR  HN ES   2   1631 56.00                             122   -0.33 4  206 295 
                                                                                
