 2013  314 1644 50.6 L   6.783 -73.133145.9  RSN  6 0.4 1.7LRSN                1
 GAP=139        0.76       5.0     4.7  8.4 -0.6838E+01  0.3046E+01  0.4820E+01E
 Epicentro: LOS SANTOS - SANTANDER                                             3
 ACTION:UPD 13-04-09 14:02 OP:ep   STATUS:               ID:20130314164450 L   I
 2013-03-14-1640-00M.COL___243                                                 6
 STAT SP IPHASW D HRMM SECON CODA AMPLIT PERI AZIMU VELO AIN AR TRES W  DIS CAZ7
 BAR2 SZ EP       1645 10.26                             171    0.0510 21.8 194 
 BAR2 SZ I        1645 28.68        11.1 0.39            167           21.8 194 
 BRR  HZ EP     C 1645 12.12                             152    0.2410 73.3 299 
 BRR  HE ES   1   1645 28.94                             152    0.46 7 73.3 299 
 BRR  HE I        1645 30.07        15.3 0.27            151           73.3 299 
 PAM  SZ EP       1645 12.99                             151    0.1310 78.0  38 
 PAM  SZ I        1645 13.31         7.5 0.43            152           78.0  38 
 PAM  SE ES   1   1645 29.76                             151   -0.46 7 78.0  38 
 RUS  HZ EP   1   1645 14.39                             144    0.17 7 98.7 177 
 RUS  HN ES   1   1645 32.56                             144   -0.09 7 98.7 177 
 RUS  HN I        1645 34.61         6.2 0.18            141           98.7 177 
 PTB  HZ EP   1   1645 16.93                             132   -0.73 7  149 260 
 PTB  HE ES   1   1645 38.29                             132   -0.49 7  149 260 
 PTB  HZ I        1645 45.51         4.6 0.31            129            149 260 
 NOR  HE ES   1   1645 54.57                             118    0.35 6  235 235 
                                                                                
