 2015  614 1852 24.7 L   6.696 -73.112134.9  RSN  5 0.3 1.1LRSN                1
 GAP=233        0.73       4.2     5.2  5.3  0.1077E+02  0.1176E+02  0.2622E+01E
 Epicentro: JORDAN - SANTANDER                                                 3
 ACTION:UPD 15-09-10 22:12 OP:cam  STATUS:               ID:20150614185224 L   I
 OLDACT:REG 15-06-14 21:49 OP:ak   STATUS:               ID:20150614184750     3
 2015-06-14-1847-50M.COL___315                                                 6
 STAT SP IPHASW D HRMM SECON CODA AMPLIT PERI AZIMU VELO AIN AR TRES W  DIS CAZ7
 BAR2 EZ EP       1852 42.94                             174    0.0910 13.9 214 
 BAR2 EZ ES       1852 57.12                             174    0.1110 13.9 214 
 BAR2 EZ I        1853  0.24         3.6 0.24            173           13.9 214 
 BRR  HZ EP       1852 45.01                             147   -0.2410 80.4 304 
 BRR  HN ES       1853  1.23                             147   -0.0610 80.4 304 
 RUS  HZ EP       1852 46.82                             145    0.2910 88.9 178 
 RUS  HN ES       1853  3.26                             145   -0.3110 88.9 178 
 RUS  HZ I        1853  6.41         1.4 0.30            146           88.9 178 
 ZAR  HZ EP   1   1852 56.99                             119   -0.31 6  212 295 
 ZAR  HZ IP       1852 57.77                             119    0.47 8  212 295 
 ZAR  HN ES       1853 22.69                             119   -0.04 8  212 295 
 GUY2CHZ EP   1   1853  6.54                             110   -0.89 5  298 237 
 GUY2CHN ES       1853 41.17                             110    0.40 7  298 237 
 GUY2CHZ I        1853 46.74         1.2 0.36                           298 237 
                                                                                
