 2012  414 1414 59.5 L   6.784 -73.096138.8  RSN  4 0.1 1.7LRSN                1
 GAP=144        0.41       2.8     2.7  4.7 -0.1327E+01  0.6401E+00  0.1266E+01E
 Epicentro: LOS SANTOS - SANTANDER                                             3
 ACTION:UPD 12-07-05 11:53 OP:tino STATUS:               ID:20120414141459 L   I
 2012-04-14-1410-00M.COL___180                                                 6
 STAT SP IPHASW D HRMM SECON CODA AMPLIT PERI AZIMU VELO AIN AR TRES W  DIS CAZ7
 PAM  SZ EP       1415 21.03                             150     0.210   75  35 
 PAM  SE ES   1   1415 37.35                             150    -0.2 7   75  35 
 BRR  HZ EP   1   1415 20.22                             149     0.0 7   77 298 
 BRR  HN ES   1   1415 36.47                             149     0.0 7   77 298 
 BRR  HZ I        1415 41.00         9.1 0.25                            77 298 
 RUS  HZ EP   1   1415 22.16                             143    -0.3 7   99 179 
 RUS  HN ES   1   1415 40.46                             143     0.2 7   99 179 
 PTB  HZ EP   1   1415 26.46                             129     0.1 7  153 260 
 PTB  HE ES   1   1415 47.27                             129    -0.1 7  153 260 
                                                                                
