 2013  414 1443 52.1 L   6.771 -73.158148.9  RSN  7 0.4 1.6LRSN                1
 GAP=136        0.84       5.2     6.5  7.5  0.6323E+01  0.2141E+01 -0.5282E+01E
 Epicentro: LOS SANTOS - SANTANDER                                             3
 ACTION:UPD 13-05-22 14:38 OP:EP   STATUS:               ID:20130414144352 L   I
 2013-04-14-1438-50M.COL___212                                                 6
 STAT SP IPHASW D HRMM SECON CODA AMPLIT PERI AZIMU VELO AIN AR TRES W  DIS CAZ7
 BAR2 SZ ES   1   1444 27.12                             172   -0.50 7 19.9 188 
 BAR2 SZ I        1444 29.12        12.1 0.20            170           19.9 188 
 GIR2 SZ EP   1   1444 12.33                             166    0.08 7 34.3 353 
 GIR2 SZ ES   1   1444 27.78                             166   -0.17 7 34.3 353 
 GIR2 SZ I        1444 28.95         6.4 0.72            169           34.3 353 
 BRR  HZ EP   1   1444 14.13                             153    0.50 7 71.6 301 
 BRR  HN ES   1   1444 31.33                             153    0.92 7 71.6 301 
 PAM  SZ EP   1   1444 14.87                             150    0.00 7 80.8  39 
 RUS  HZ EP   1   1444 16.13                             145    0.17 7 97.4 175 
 RUS  HN ES   1   1444 34.48                             145   -0.08 7 97.4 175 
 RUS  HZ I        1444 37.32         4.6 0.46            145           97.4 175 
 PTB  HZ EP   1   1444 18.98                             133   -0.19 7  146 260 
 PTB  HN ES   1   1444 39.88                             133   -0.39 7  146 260 
 PTB  HZ I        1444 42.22         6.3 0.16            134            146 260 
 SML  HN ES   1   1444 57.42                             118   -0.67 6  246 336 
                                                                                
