 2014 1114 1120 29.0 L   6.767 -73.185146.0  RSN  6 0.5 2.0LRSN                1
 GAP=133        1.14       5.8     5.4  7.7 -0.7875E+01  0.9181E+01  0.5669E+01E
 Epicentro: LOS SANTOS - SANTANDER                                             3
 ACTION:UPD 14-12-19 15:42 OP:nd   STATUS:               ID:20141114112029 L   I
 OLDACT:UP  14-11-14 22:01 OP:cam  STATUS:               ID:20141114111820d    3
 OLDACT:DUP 14-11-14 21:56 OP:cam  STATUS:               ID:20141114111820d    3
 OLDACT:UP  14-11-14 21:55 OP:cam  STATUS:               ID:20141114111819     3
 OLDACT:UP  14-11-14 21:55 OP:cam  STATUS:               ID:20141114111819     3
 OLDACT:UP  14-11-14 21:53 OP:cam  STATUS:               ID:20141114111819     3
 OLDACT:UP  14-11-14 21:52 OP:cam  STATUS:               ID:20141114111819     3
 OLDACT:REG 14-11-14 19:44 OP:cam  STATUS:               ID:20141114111819     3
 2014-11-14-1118-19M.COL___274                                                 6
 STAT SP IPHASW D HRMM SECON CODA AMPLIT PERI AZIMU VELO AIN AR TRES W  DIS CAZ7
 BAR2 SZ EP       1120 48.60                             172    0.0610 19.3 179 
 BAR2 SZ ES       1121  3.47                             172   -0.3510 19.3 179 
 BAR2 SZ I        1121  4.84        21.0 0.26            172           19.3 179 
 BRR  HZ EP     C 1120 50.45                             153    0.4210 69.3 303 
 BRR  HN ES       1121  7.07                             153    0.6110 69.3 303 
 BRR  HZ I        1121 12.26        17.7 0.20            151           69.3 303 
 PAM  SZ EP       1120 51.33                             149   -0.2110 83.0  40 
 PAM  SN ES       1121  8.75                             149   -0.4010 83.0  40 
 PAM  SZ I        1121 11.03        15.9 0.64            153           83.0  40 
 RUS  HZ EP       1120 52.43                             145   -0.0710 97.3 173 
 RUS  HN ES       1121 11.36                             145    0.5010 97.3 173 
 RUS  HZ I        1121 12.15        10.7 0.20            148           97.3 173 
 PTB  HZ EP       1120 55.04                             133   -0.46 9  143 260 
 PTB  HN ES       1121 16.13                             133   -0.07 9  143 260 
 PTB  HZ I        1121 20.60        14.6 0.24            134            143 260 
 NOR  HZ EP       1121  4.82                             119    0.72 8  229 235 
 NOR  HN ES       1121 30.64                             119   -0.86 8  229 235 
 NOR  HZ I        1121 36.22         9.2 0.30            121            229 235 
                                                                                
