 2010 1014 1706 57.8 L   6.736 -73.054147.7  RSN 11 0.5 2.4LRSN                1
 GAP=186        0.98       6.7     9.9  8.1 -0.3646E+02  0.6245E+00  0.1367E+02E
 Epicentro: ARATOCA - SANTANDER                                                3
 ACTION:UP  11-02-18 11:09 OP:tino STATUS:               ID:20101014170657 L   I
 2010-10-14-1705-14S.COL___128                                                 6
 STAT SP IPHASW D HRMM SECON CODA AMPLIT PERI AZIMU VELO SNR AR TRES W  DIS CAZ7
 BAR2 SZ EP       17 7 17.69                             171     0.010   21 222 
 BAR2 SZ ES   1   17 7 32.97                             171    -0.2 7   21 222 
 BAR2 SZ I        17 7 34.86        56.4 0.38                            21 222 
 GIR2 SZ EP       17 7 18.00                             164     0.010   41 338 
 URB  SZ EP       17 7 19.84                             155     0.910   63 331 
 BRR  HZ EP   1   17 7 19.59                             149    -0.3 7   84 299 
 BRR  HZ I        17 7 19.89        92.5 0.13                            84 299 
 BRR  HN ES   1   17 7 37.22                             149     0.1 7   84 299 
 GUE  SZ EP   1   17 7 22.72                             138    -0.4 7  122   7 
 GRA  SZ EP       17 7 23.52                             136    -0.110  130  12 
 GRA  SZ ES   1   17 7 43.34                             136    -0.4 7  130  12 
 GRA  SZ I        17 7 44.41        25.6 0.24                           130  12 
 NOR  SZ EP       17 7 33.58                             118    -0.6 8  239 237 
 NOR  SE ES   3   17 8  2.06                             118    -0.5 2  239 237 
 CHI  HZ EP   1   17 7 35.51                             118     0.3 6  245 198 
 CHI  HE ES   3   17 8  4.88                             118     0.5 2  245 198 
 CHI  HZ I        17 8 15.03         7.9 0.75                           245 198 
 HEL  HZ EP   1   17 7 39.79                             114     0.7 6  280 258 
 HEL  HZ I        17 8 16.75        12.2 0.55                           280 258 
 DBB  SZ EP   2   17 7 46.13                             109    -0.5 3  350 275 
 PRA  HZ EP   2   17 7 51.83                             107     0.5 3  391 211 
 PRA  HE ES   2   17 8 31.92                             107    -1.1 3  391 211 
                                                                                
