 2014  814 1102 10.5 L   6.801 -73.130148.8  RSN 22 0.4 2.8LRSN                1
 GAP= 72        0.81       2.1     2.4  3.9 -0.2972E+00  0.1542E+01  0.1955E+01E
 Epicentro: LOS SANTOS - SANTANDER                                             3
 ACTION:UPD 14-09-15 21:49 OP:nd   STATUS:               ID:20140814110210 L   I
 OLDACT:DUP 14-08-15 00:54 OP:spq  STATUS:               ID:20140814105821d    3
 OLDACT:DUP 14-08-14 23:05 OP:spq  STATUS:               ID:20140814105820d    3
 2014-08-14-1058-19M.COL___257                                                 6
 STAT SP IPHASW D HRMM SECON CODA AMPLIT PERI AZIMU VELO AIN AR TRES W  DIS CAZ7
 BAR2 SZ EP       11 2 29.95                             170   -0.5110 23.8 194 
 BAR2 SZ ES   1   11 2 46.06                             170   -0.01 7 23.8 194 
 BAR2 SZ I        11 2 46.91       211.2 0.46            167           23.8 194 
 BRR  HZ EP       11 2 31.95                             153   -0.0710 72.7 298 
 BRR  HN ES       11 2 49.40                             153    0.5610 72.7 298 
 BRR  HZ I        11 2 53.16       102.4 0.20            150           72.7 298 
 PAM  SZ IP     D 11 2 32.98                             152    0.0510 76.2  39 
 PAM  SN ES       11 2 50.23                             152   -0.2210 76.2  39 
 PAM  SZ I        11 2 51.87        44.3 0.24            157           76.2  39 
 RUS  HZ EP       11 2 34.50                             144   -0.0110  101 177 
 RUS  HN ES   1   11 2 52.92                             144   -0.34 7  101 177 
 RUS  HZ I        11 2 53.78        72.6 0.26            144            101 177 
 PTB  HZ EP   1   11 2 37.97                             132    0.14 7  150 259 
 PTB  HE ES       11 2 58.97                             132   -0.21 9  150 259 
 PTB  HZ I        11 3  5.20        83.1 0.34            131            150 259 
 TAM  HZ IP     D 11 2 38.28                             132    0.06 9  153 105 
 TAM  HN ES       11 3  0.06                             132    0.18 9  153 105 
 TAM  HZ I        11 3  0.53        36.8 0.24            135            153 105 
 OCA  HZ EP       11 2 38.95                             130   -0.07 9  160 353 
 OCA  HN ES       11 3  2.00                             130    0.71 9  160 353 
 OCA  HZ I        11 3  4.48        81.4 0.16            132            160 353 
 SPBC HZ EP       11 2 38.83                             129   -0.47 9  164 219 
 SPBC HN ES       11 3  1.62                             129   -0.18 9  164 219 
 SPBC HZ I        11 3  4.03       104.1 0.34            128            164 219 
 ZAR  HZ EP       11 2 43.42                             123    0.15 8  206 292 
 ZAR  HE ES       11 3  8.63                             123   -0.23 8  206 292 
 ZAR  HZ I        11 3 14.23        95.8 0.32            123            206 292 
 NOR  HZ EP       11 2 46.13                             119   -0.39 8  236 235 
 NOR  HN ES       11 3 14.79                             119    0.14 8  236 235 
 NOR  HZ I        11 3 19.41        55.7 0.32            118            236 235 
 SML  HZ EP       11 2 46.78                             118   -0.54 8  244 335 
 SML  HE ES   1   11 3 15.52                             118   -0.56 6  244 335 
 SML  HZ I        11 3 19.92        62.5 0.10            119            244 335 
 CHI  HZ EP       11 2 48.21                             118   -0.17 8  249 196 
 CHI  HE ES   1   11 3 18.25                             118    0.28 6  249 196 
 CHI  HZ I        11 3 23.75        24.9 0.29            118            249 196 
 ROSC BZ EP   4   11 2 50.24                             117    1.39 0  254 211 
 ROSC BE ES   4   11 3 21.19                             117    2.39 0  254 211 
 ROSC BZ I        11 3 27.85        61.0 0.65            117            254 211 
 HEL  HZ EP   4   11 2 52.40                             115    1.38 0  274 256 
 HEL  HN ES   4   11 3 26.68                             115    4.03 0  274 256 
 HEL  HZ I        11 3 29.53        33.0 0.26            115            274 256 
 GUY2CHZ EP       11 2 55.16                             113    0.79 7  303 235 
 GUY2CHE ES   4   11 3 33.49                             113    4.86 0  303 235 
 GUY2CHZ I        11 3 38.96        45.5 0.50                           303 235 
 VIL  SZ EP       11 2 54.30                             113    0.24 7  304 192 
 VIL  SE ES   1   11 3 28.66                             113    0.58 5  304 192 
 VIL  SZ I        11 3 35.48        38.7 0.38            113            304 192 
 PTGC HZ EP   4   11 2 53.09                             112   -1.29 0  308 159 
 PTGC HE ES   4   11 3 26.28                             112   -2.37 0  308 159 
 PTGC HZ I        11 3 27.15        39.1 0.30            113            308 159 
 RREF HZ EP   4   11 2 58.71                             111    1.82 0  323 230 
 RREF HE ES   4   11 3 37.05                             111    3.94 0  323 230 
 RREF HZ I        11 3 39.87        42.8 0.26            111            323 230 
 TOL  SZ EP       11 2 59.59                             110    0.61 7  345 225 
 TOL  SN ES   4   11 3 39.67                             110    2.83 0  345 225 
 TOL  SZ I        11 3 41.23        71.7 0.36            110            345 225 
 ANIL HZ EP       11 3  0.69                             109    0.16 6  359 225 
 ANIL HN ES   4   11 3 41.23                             109    1.64 0  359 225 
 ANIL HZ I        11 3 47.25         8.6 0.46            109            359 225 
 PRA  HZ EP       11 3  3.97                             107   -0.22 6  393 210 
 PRA  HE ES   4   11 3 48.28                             107    2.17 0  393 210 
 PRA  HZ I        11 3 50.34        26.6 0.26            107            393 210 
 ORTC HZ EP       11 3  5.04                             107    0.43 6  397 216 
 ORTC HE ES   4   11 3 48.93                             107    2.08 0  397 216 
 ORTC HZ I        11 3 59.89        14.5 0.46            107            397 216 
                                                                                
