 2017  714 1913 11.9 L   6.793 -73.128144.6  RSN  7 0.3 1.3LRSN                1
 GAP=239        0.81       4.7     4.7  5.8  0.6479E+01  0.7708E+01  0.7469E+01E
 Epicentro: LOS SANTOS - SANTANDER                                             3
 ACTION:UPD 17-08-30 15:33 OP:rebc STATUS:               ID:20170714191311 L   I
 OLDACT:REG 17-07-14 21:10 OP:lv   STATUS:               ID:20170714190740     3
 2017-07-14-1908-00M.COL___355                                                 6
 STAT SP IPHASW D HRMM SECON CODA AMPLIT PERI AZIMU VELO AIN AR TRES W  DIS CAZ7
 BAR2 EZ EP       1913 31.26                             171   -0.1010 23.0 195 
 BAR2 EZ ES       1913 46.56                             171   -0.0010 23.0 195 
 BAR2 EZ I        1913 47.90         3.9 0.10            167           23.0 195 
 BRR  HN ES       1913 49.68                             152    0.1610 73.3 298 
 RUS  HZ EP       1913 35.40                             144   -0.0510 99.7 177 
 RUS  HN ES   1   1913 54.15                             144    0.31 7 99.7 177 
 RUS  HZ I        1913 54.88         2.2 0.25            143           99.7 177 
 PTB  HZ EP       1913 38.87                             131   -0.04 9  150 259 
 PTB  HE ES   1   1914  0.04                             131    0.04 7  150 259 
 PTB  HZ I        1914  3.05         1.9 0.02            131            150 259 
 SPBC HZ EP       1913 40.68                             129    0.33 9  164 220 
 SPBC HN ES       1914  1.76                             129   -0.80 9  164 220 
 SPBC HZ I        1914  4.73         6.3 0.13            128            164 220 
 ZAR  HN ES       1914  9.72                             122   -0.17 8  206 292 
 NOR  HZ EP       1913 47.52                             118   -0.14 8  236 235 
 NOR  HN ES       1914 16.24                             118    0.66 8  236 235 
 NOR  HZ I        1914 19.88         1.5 0.24            118            236 235 
                                                                                
