 2014  714 1412  2.6 L   6.779 -73.164137.9  RSN 10 0.5 2.1LRSN                1
 GAP=135        1.16       3.9     4.4  6.5 -0.1633E+01  0.8556E+01  0.5178E+01E
 Epicentro: LOS SANTOS - SANTANDER                                             3
 ACTION:UPD 15-03-16 20:43 OP:nd   STATUS:               ID:20140714141202 L   I
 OLDACT:DUP 14-07-14 22:34 OP:stll STATUS:               ID:20140714140821d    3
 2014-07-14-1408-20M.COL___256                                                 6
 STAT SP IPHASW D HRMM SECON CODA AMPLIT PERI AZIMU VELO AIN AR TRES W  DIS CAZ7
 BAR2 SZ EP       1412 21.24                             171    0.0310 20.8 185 
 BAR2 SZ ES       1412 35.80                             171    0.0610 20.8 185 
 BAR2 SZ I        1412 37.15        36.9 0.28            171           20.8 185 
 BRR  HZ IP     D 1412 23.03                             151    0.1910 70.5 301 
 BRR  HZ I        1412 23.20        41.8 0.28            149           70.5 301 
 BRR  HN ES       1412 39.43                             151    0.7910 70.5 301 
 PAM  SZ EP       1412 24.21                             148    0.0510 80.5  40 
 PAM  SZ I        1412 24.34        23.6 0.18            150           80.5  40 
 PAM  SN ES       1412 40.71                             148   -0.2710 80.5  40 
 RUS  HZ EP       1412 25.38                             143   -0.0310 98.5 175 
 RUS  HZ I        1412 26.43        12.8 0.12            144           98.5 175 
 RUS  HN ES       1412 43.16                             143   -0.0510 98.5 175 
 PTB  HZ EP       1412 27.91                             131   -0.77 9  145 260 
 PTB  HN ES       1412 48.38                             131   -0.67 9  145 260 
 PTB  HZ I        1412 50.41        21.8 0.14            129            145 260 
 SPBC HZ EP       1412 30.24                             128    0.05 9  160 219 
 SPBC HN ES       1412 51.79                             128    0.07 9  160 219 
 SPBC HZ I        1412 53.64        16.5 0.28            127            160 219 
 ZAR  HZ EP       1412 33.88                             121   -0.53 9  203 293 
 ZAR  HE ES       1412 59.23                             121   -0.01 9  203 293 
 ZAR  HZ I        1413  7.44        13.2 0.26            120            203 293 
 NOR  HZ EP       1412 37.67                             117    0.14 8  232 235 
 NOR  HN ES       1413  4.36                             117   -0.44 8  232 235 
 NOR  HZ I        1413 10.31        11.4 0.20            117            232 235 
 CHI  HZ EP       1412 39.59                             116    0.04 8  246 195 
 CHI  HZ I        1412 41.33         7.2 0.38            116            246 195 
 CHI  HN ES       1413  8.07                             116   -0.32 8  246 195 
 GUY2CHZ EP       1412 47.12                             111    1.63 7  298 235 
 GUY2CHE ES       1413 19.56                             111    0.60 7  298 235 
 GUY2CHZ I        1413 29.75         7.8 0.44                           298 235 
                                                                                
