 2017  514 1200 17.3 L   6.848 -73.139150.1  RSN  6 0.3 1.9LRSN                1
 GAP=153        0.77       7.3     6.3  6.3 -0.3482E+02 -0.1391E+02  0.2159E+02E
 Epicentro: LOS SANTOS - SANTANDER                                             3
 ACTION:UPD 17-06-16 13:36 OP:jn   STATUS:               ID:20170514120017 L   I
 OLDACT:UP  17-05-15 01:06 OP:nlst STATUS:               ID:20170514120017 L   3
 OLDACT:UP  17-05-14 22:46 OP:osc  STATUS:               ID:20170514115737     3
 OLDACT:UP  17-05-14 22:46 OP:osc  STATUS:               ID:20170514115737     3
 OLDACT:UP  17-05-14 22:45 OP:osc  STATUS:               ID:20170514115737     3
 OLDACT:UP  17-05-14 22:44 OP:osc  STATUS:               ID:20170514115737     3
 OLDACT:UP  17-05-14 22:43 OP:osc  STATUS:               ID:20170514115737     3
 OLDACT:UP  17-05-14 22:43 OP:osc  STATUS:               ID:20170514115737     3
 OLDACT:UP  17-05-14 22:43 OP:osc  STATUS:               ID:20170514115737     3
 OLDACT:UP  17-05-14 22:42 OP:osc  STATUS:               ID:20170514115737     3
 OLDACT:UP  17-05-14 22:41 OP:osc  STATUS:               ID:20170514115737     3
 OLDACT:REG 17-05-14 19:12 OP:osc  STATUS:               ID:20170514115737     3
 2017-05-14-1158-00M.COL___356                                                 6
 STAT SP IPHASW D HRMM SECON CODA AMPLIT PERI AZIMU VELO AIN AR TRES W  DIS CAZ7
 BRR  HZ EP       12 0 38.93                             153    0.1510 69.5 294 
 BRR  HN ES       12 0 55.90                             153    0.3410 69.5 294 
 BRR  HZ I        12 1  1.19        12.7 0.16            150           69.5 294 
 PAM  EZ EP       12 0 39.77                             153    0.0910 72.9  42 
 PAM  EN ES       12 0 56.80                             153   -0.3610 72.9  42 
 PAM  EZ I        12 0 59.40        11.9 0.72            156           72.9  42 
 PTB  HZ EP   9   12 0 43.93                             132   -0.81 0  150 257 
 PTB  HN ES       12 1  5.08                             133   -0.29 9  150 257 
 PTB  HZ I        12 1 12.36        10.9 0.34            132            150 257 
 SPBC HZ EP   9   12 0 46.00                             129   -0.52 0  168 218 
 SPBC HN ES       12 1  9.12                             128    0.30 9  168 218 
 SPBC HZ I        12 1 12.12        13.7 0.12            130            168 218 
 ZAR  HN ES   4   12 1 15.47                             123    0.19 0  203 291 
 NOR  HZ EP       12 0 53.69                             119    0.06 8  238 234 
 NOR  HE ES       12 1 21.43                             119   -0.57 8  238 234 
 CHI  HN ES   2   12 1 26.48                             117    0.68 4  254 195 
 ROSC BZ EP   4   12 0 57.99                             117    1.85 0  258 211 
 ROSC BN ES   4   12 1 30.97                             117    4.49 0  258 211 
                                                                                
