 2016  414 1539 56.6 L   6.793 -73.136147.1  RSN 12 0.4 2.0LRSN                1
 GAP=120        0.72       3.1     3.1  4.7 -0.2662E+01  0.5292E+01 -0.4674E+00E
 Epicentro: LOS SANTOS - SANTANDER                                             3
 ACTION:UPD 16-05-05 14:21 OP:rebc STATUS:               ID:20160414153956 L   I
 OLDACT:REG 16-04-14 23:25 OP:ar   STATUS:               ID:20160414153749     3
 2016-04-14-1537-49M.COL___325                                                 6
 STAT SP IPHASW D HRMM SECON CODA AMPLIT PERI AZIMU VELO AIN AR TRES W  DIS CAZ7
 BAR2 EZ EP       1540 16.37                             171   -0.0110 22.8 193 
 BAR2 EZ ES       1540 31.85                             171    0.0510 22.8 193 
 BAR2 EZ I        1540 34.57        14.4 0.30            169           22.8 193 
 PAM  EZ EP       1540 19.17                             151    0.2210 77.3  39 
 PAM  EE ES       1540 36.59                             151    0.2110 77.3  39 
 PAM  EZ I        1540 38.87        16.2 0.62            154           77.3  39 
 RUS  HZ EP   2   1540 20.37                             144   -0.05 5 99.8 177 
 RUS  HN ES       1540 38.93                             144   -0.0710 99.8 177 
 RUS  HZ I        1540 40.20         8.3 0.34            144           99.8 177 
 PTB  HZ EP       1540 23.20                             132   -0.56 9  149 259 
 PTB  HN ES       1540 44.35                             132   -0.59 9  149 259 
 PTB  HZ I        1540 47.29        13.0 0.20            132            149 259 
 SPBC HZ EP       1540 25.34                             129    0.13 9  163 219 
 SPBC HN ES       1540 47.27                             129   -0.25 9  163 219 
 SPBC HZ I        1540 49.36        23.6 0.09            129            163 219 
 ZAR  HZ EP   2   1540 28.92                             122   -0.34 4  205 292 
 ZAR  HE ES       1540 55.11                             122    0.37 8  205 292 
 ZAR  HZ I        1541  0.78        14.6 0.28            123            205 292 
 NOR  HZ EP       1540 32.87                             119    0.42 8  235 235 
 NOR  HE ES       1541  0.73                             119    0.31 8  235 235 
 NOR  HZ I        1541  5.69        10.0 0.32            119            235 235 
 CHI  HZ EP   2   1540 34.41                             117    0.09 4  248 195 
 CHI  HN ES   2   1541  3.67                             117   -0.08 4  248 195 
 CHI  HZ I        1541 11.60         4.5 0.30            118            248 195 
 URE  HZ EP   2   1540 36.91                             114   -0.97 4  285 292 
 URE  HN ES   4   1541  6.88                             114   -3.19 0  285 292 
 URE  HZ I        1541 11.86         5.5 0.12            114            285 292 
 SOCV BZ EP   2   1540 39.09                             112   -0.56 4  301  57 
 SOCV BN ES   4   1541  7.94                             112   -5.29 0  301  57 
 GUY2CHZ EP   2   1540 41.22                             112    0.90 4  302 235 
 GUY2CHN ES   2   1541 15.20                             112    0.78 4  302 235 
 GUY2CHZ I        1541 23.23         5.5 0.36                           302 235 
 ORTC HZ EP   2   1540 50.81                             106    0.24 3  395 216 
 ORTC HE ES   4   1541 30.84                             106   -1.82 0  395 216 
 ORTC HZ I        1541 40.20         3.5 0.28            107            395 216 
                                                                                
