 2012  714 1639 22.8 L   6.781 -73.161143.0  RSN  7 0.3 1.7LRSN                1
 GAP=136        0.79       4.8     4.3  7.4 -0.1035E+01  0.7730E+01  0.1507E+01E
 Epicentro: LOS SANTOS - SANTANDER                                             3
 ACTION:UPD 12-08-14 11:44 OP:ep   STATUS:               ID:20120714163922 L   I
 2012-07-14-1637-42M.COL___211                                                 6
 STAT SP IPHASW D HRMM SECON CODA AMPLIT PERI AZIMU VELO AIN AR TRES W  DIS CAZ7
 BAR2 SZ IP       1639 42.10                             171     0.010   21 187 
 BAR2 SZ I        1639 42.52        12.2 0.10            168             21 187 
 BAR2 SZ ES   1   1639 56.63                             171    -0.5 7   21 187 
 BRR  HZ EP       1639 43.93                             152     0.310   71 301 
 BRR  HZ I        1639 44.40        14.5 0.11            151             71 301 
 BRR  HN ES   1   1640  0.45                             152     0.5 7   71 301 
 PAM  SZ EP   1   1639 44.85                             149    -0.1 7   80  39 
 PAM  SN ES   1   1640  1.80                             149    -0.4 7   80  39 
 RUS  HZ EP   1   1639 46.21                             144     0.0 7   99 175 
 RUS  HN ES   1   1640  4.90                             144     0.5 7   99 175 
 RUS  HZ I        1640  6.60         7.7 0.33            144             99 175 
 PTB  HZ EP   1   1639 49.09                             132    -0.3 7  146 260 
 PTB  HN ES   1   1640  9.73                             132    -0.4 7  146 260 
 PTB  HZ I        1640 16.47         4.5 0.09            131            146 260 
 ZAR  HN ES   1   1640 20.32                             122     0.2 6  203 293 
 NOR  SN ES   1   1640 25.39                             118    -0.3 6  232 235 
