 2011 1214 1714 33.2 L   6.319 -73.607105.2  RSN 12 0.4 2.4LRSN                1
 GAP= 72        0.89       3.3     2.9  6.8 -0.1201E+01  0.3368E+01  0.7498E+01E
 Epicentro: SANTA HELENA DEL OPON - SANTANDER                                  3
 ACTION:UPD 12-07-13 16:16 OP:ep   STATUS:               ID:20111214171433 L   I
 2011-12-14-1710-00M.COL___184                                                 6
 STAT SP IPHASW D HRMM SECON CODA AMPLIT PERI AZIMU VELO AIN AR TRES W  DIS CAZ7
 BAR2 SZ IP       1714 49.65                             150    0.2410 55.9  57 
 BAR2 SZ ES   1   1715  2.41                             150    0.32 7 55.9  57 
 BAR2 SZ I        1715  4.00        93.8 0.20                          55.9  57 
 RUS  HZ EP       1714 50.93                             142   -0.1310 74.7 129 
 RUS  HN ES   1   1715  4.92                             142   -0.10 7 74.7 129 
 BRR  HZ EP       1714 51.32                             137   -0.1010 87.9 352 
 BRR  HZ I        1714 54.56        63.7 0.13                          87.9 352 
 BRR  HE ES       1715  6.27                             137    0.6110 87.9 352 
 GIR2 SZ EP       1714 52.31                             134    0.0310 95.7  29 
 PTB  HZ EP       1714 51.48                             134   -0.7410 97.0 285 
 PTB  HN ES       1715  6.46                             134   -0.6310 97.0 285 
 PAM  SZ EP   1   1714 57.63                             120   -0.50 7  151  42 
 PAM  SE ES   1   1715 17.47                             120   -0.14 7  151  42 
 NOR  SZ EP   1   1714 58.87                             118    0.05 7  163 239 
 NOR  SE ES   1   1715 19.25                             118    0.42 7  163 239 
 YOP  SE ES   2   1715 20.18                             117   -0.03 5  169 129 
 CHI  HZ EP   1   1715  1.89                             114   -0.08 7  187 184 
 CHI  HN ES   2   1715 24.29                             114   -0.15 4  187 184 
 HEL  HZ EP   1   1715  5.39                             111    0.57 6  213 266 
 HEL  HE ES   1   1715 30.13                             111    0.62 6  213 266 
 HEL  HZ I        1715 33.50        10.4 0.30                           213 266 
 RREF HZ EP   1   1715 10.06                             107    0.83 6  248 231 
 RREF HN ES   2   1715 36.82                             107   -0.54 4  248 231 
 RREF HZ I        1715 47.33         9.5 0.26                           248 231 
 PRA  HZ EP   2   1715 17.70                             102    0.63 3  321 206 
 PRA  HE ES   2   1715 51.39                             102    0.07 3  321 206 
 PRA  HZ I        1715 57.75        40.7 0.29                           321 206 
                                                                                
