 2013  214 1416 42.3 L   6.774 -73.127152.9  RSN  4 0.4 1.7LRSN                1
 GAP=237        0.99      10.1     9.5  8.8  0.4254E+02  0.1153E+02 -0.5290E+01E
 Epicentro: LOS SANTOS - SANTANDER                                             3
 ACTION:UPD 13-03-12 09:33 OP:ep   STATUS:               ID:20130214141642 L   I
 2013-02-14-1410-00M.COL___241                                                 6
 STAT SP IPHASW D HRMM SECON CODA AMPLIT PERI AZIMU VELO AIN AR TRES W  DIS CAZ7
 BAR2 SZ EP       1417  2.40                             172   -0.3010 21.0 197 
 BAR2 SZ ES       1417 18.12                             172   -0.5310 21.0 197 
 BRR  HZ EP       1417  4.59                             153    0.2310 74.4 300 
 BRR  HE ES   1   1417 22.31                             153    0.71 7 74.4 300 
 BRR  HE I        1417 23.14         9.7 0.20            152           74.4 300 
 RUS  HZ EP   1   1417  7.02                             146    0.51 7 97.6 177 
 RUS  HZ I        1417 23.96         8.2 0.53            132           97.6 177 
 RUS  HN ES   1   1417 25.93                             146    0.51 7 97.6 177 
 PTB  HZ EP       1417  9.62                             133   -0.33 9  149 260 
 PTB  HN ES   1   1417 31.39                             133   -0.16 7  149 260 
 PTB  HN I        1417 35.87         7.0 0.18            126            149 260 
                                                                                
