 2015  214 1426 46.0 L   6.834 -73.170143.0  RSN 19 0.6 2.4LRSN                1
 GAP= 69        1.43       3.9     4.5  6.3 -0.3481E+01  0.7725E+01  0.3169E+01E
 Epicentro: ZAPATOCA - SANTANDER                                               3
 ACTION:UPD 15-04-30 21:26 OP:nd   STATUS:               ID:20150214142646 L   I
 OLDACT:REG 15-02-14 22:22 OP:stll STATUS:               ID:20150214141746     3
 2015-02-14-1417-46M.COL___305                                                 6
 STAT SP IPHASW D HRMM SECON CODA AMPLIT PERI AZIMU VELO AIN AR TRES W  DIS CAZ7
 BAR2 EZ EP       1427  5.40                             169   -0.0110 26.8 183 
 BAR2 EZ ES       1427 20.56                             169    0.0410 26.8 183 
 BAR2 EZ I        1427 22.41        35.8 0.24            168           26.8 183 
 BRR  HZ EP       1427  7.36                             153    0.7110 67.1 297 
 BRR  HN ES       1427 23.71                             153    0.9710 67.1 297 
 PAM  SZ EP       1427  8.08                             151    0.1910 76.3  43 
 PAM  SN ES       1427 25.17                             151    0.2310 76.3  43 
 PAM  SZ I        1427 27.54        35.1 0.56            155           76.3  43 
 RUS  HZ EP       1427  9.27                             142   -0.5410  105 175 
 RUS  HN ES       1427 28.06                             142   -0.2910  105 175 
 RUS  HZ I        1427 29.63        25.5 0.44            144            105 175 
 PTB  HZ EP       1427 12.52                             132   -0.09 9  146 257 
 PTB  HN ES       1427 32.72                             132   -0.62 9  146 257 
 PTB  HZ I        1427 35.48        35.5 0.18            132            146 257 
 TAM  HZ EP       1427 13.36                             129   -0.47 9  159 106 
 SPBC HZ EP       1427 14.38                             128   -0.06 9  164 217 
 SPBC HN ES       1427 35.94                             128   -0.67 9  164 217 
 SPBC HZ I        1427 42.28        33.8 0.40            129            164 217 
 ZAR  HZ EP       1427 17.49                             122   -0.41 9  200 291 
 ZAR  HE ES       1427 42.91                             122    0.15 9  200 291 
 ZAR  HZ I        1427 50.31        25.0 0.40            123            200 291 
 NOR  HZ EP   9   1427 21.00                             118   -0.61 0  235 233 
 NOR  HE ES       1427 48.96                                    0.21 8  235 233 
 NOR  HZ I        1427 53.01        22.9 0.18            119            235 233 
 SML  HZ EP       1427 20.93                             117   -1.08 8  239 335 
 SML  HE ES       1427 49.64                             117   -0.44 8  239 335 
 SML  HZ I        1427 53.42        22.8 0.28            119            239 335 
 ROSC BZ EP       1427 25.05                             116    0.84 8  255 210 
 ROSC BN ES       1427 54.64                             116    0.65 8  255 210 
 ROSC BZ I        1427 59.88        19.9 0.40            117            255 210 
 SOCV BZ EP   9   1427 27.95                             112   -1.02 0  301  58 
 SOCV BN ES       1427 59.59                                   -1.86 7  301  58 
 GUY2CHZ EP       1427 30.46                             112    0.94 7  301 234 
 GUY2CHE ES       1428  3.33                             112   -0.11 7  301 234 
 GUY2CHZ I        1428 11.20        13.7 0.54                           301 234 
 RREF HZ EP       1427 33.04                             110    0.93 7  322 229 
 RREF HN ES       1428  7.28                             110   -0.77 7  322 229 
 RREF HZ I        1428 16.34        14.0 0.26            111            322 229 
 CBOC HZ EP       1427 33.82                             109    1.14 7  332 251 
 CBOC HN ES       1428  8.97                             109   -0.09 7  332 251 
 CBOC HZ I        1428 15.60         5.1 0.66            110            332 251 
 DBB  SZ EP       1427 31.90                             109   -1.16 7  337 274 
 TOL  SZ EP       1427 34.92                             109    0.65 7  344 224 
 TOL  SN ES       1428 12.36                             109    0.46 7  344 224 
 ANIL HZ EP       1427 36.03                             108    0.20 6  358 224 
 ANIL HN ES       1428 13.82                             108   -0.85 6  358 224 
 PRA  HZ EP       1427 39.49                             106   -0.20 6  394 209 
 PRA  HE ES       1428 21.38                             106   -0.16 6  394 209 
 PRA  HZ I        1428 25.39         9.1 0.36            107            394 209 
                                                                                
