 2012  414 1431 25.1 L   6.772 -73.127148.9  RSN  5 0.4 1.6LRSN                1
 GAP=140        0.96       6.3     5.9  8.8 -0.6332E+01  0.1691E+01  0.9780E+01E
 Epicentro: LOS SANTOS - SANTANDER                                             3
 ACTION:UPD 12-07-05 11:53 OP:tino STATUS:               ID:20120414143125 L   I
 2012-04-14-1430-00M.COL___180                                                 6
 STAT SP IPHASW D HRMM SECON CODA AMPLIT PERI AZIMU VELO AIN AR TRES W  DIS CAZ7
 BAR2 SZ EP       1431 44.96                             172    -0.110   21 197 
 BAR2 SZ ES   2   1432  0.84                             172     0.2 5   21 197 
 BAR2 SZ I        1432  4.37         9.2 0.74                            21 197 
 BRR  HZ EP       1431 47.10                             152     0.310   75 300 
 BRR  HZ I        1431 47.40        10.9 0.13                            75 300 
 BRR  HN ES       1432  4.19                             152     0.510   75 300 
 PAM  SZ EP       1431 47.84                             151     0.110   79  37 
 PAM  SE ES       1432  4.96                             151    -0.410   79  37 
 RUS  HZ EP   1   1431 49.10                             145     0.1 7   97 177 
 RUS  HN ES   1   1432  7.69                             145     0.1 7   97 177 
 RUS  HZ I        1432 10.01         3.1 0.51                            97 177 
 PTB  HZ EP   1   1431 52.27                             132    -0.2 7  149 260 
 PTB  HE ES   1   1432 12.92                             132    -0.9 7  149 260 
                                                                                
