 2010  814 1544  1.1 L   6.335 -73.621113.7  RSN  8 0.4 2.0LRSN                1
 GAP= 87        0.80       3.9     4.8  7.7 -0.3201E+01  0.1092E+02  0.4500E+01E
 Epicentro: SANTA HELENA DEL OPON - SANTANDER                                  3
 ACTION:UP  10-09-07 10:54 OP:vdl  STATUS:               ID:20100814154401 L   I
 2010-08-14-1541-26S.COL___111                                                 6
 STAT SP IPHASW D HRMM SECON CODA AMPLIT PERI AZIMU VELO SNR AR TRES W  DIS CAZ7
 BAR2 SZ IP       1544 18.53                             152     0.310   56  60 
 BAR2 SZ ES   1   1544 31.56                             152    -0.1 7   56  60 
 BAR2 SZ I        1544 32.88        76.3 0.15                            56  60 
 RUS  HZ IP     C 1544 19.80                             144    -0.210   77 129 
 RUS  HZ I        1544 20.28        12.6 0.25                            77 129 
 RUS  HN ES   2   1544 34.32                             144    -0.4 5   77 129 
 BRR  HZ EP       1544 20.09                             140     0.110   86 353 
 BRR  HN ES   1   1544 35.22                             140     0.5 7   86 353 
 BRR  HZ I        1544 41.72        19.1 0.10                            86 353 
 GIR2 SZ EP   1   1544 21.19                             137     0.3 7   95  30 
 GIR2 SZ ES   2   1544 35.91                             137    -0.4 5   95  30 
 GUE  SZ EP       1544 29.49                             118    -0.2 9  182  25 
 GUE  SZ ES   1   1544 51.29                             118    -0.7 7  182  25 
 GRA  SZ ES   3   1544 54.45                             116     0.7 2  194  28 
 HEL  HN ES   1   1544 57.22                             114    -0.6 6  212 266 
 HEL  HZ I        1545  2.94         4.6 0.53                           212 266 
 PRA  HZ EP   1   1544 45.70                             104     0.4 5  322 206 
 PRA  HE ES   2   1545 19.94                             104     0.1 3  322 206 
 PRA  HZ I        1545 27.73         7.3 0.31                           322 206 
                                                                                
