 2015  214 1551 53.2 L   7.497 -73.299123.6  RSN  6 0.7 2.3LRSN                1
 GAP=128        1.72       7.9     9.9 15.7 -0.1219E+02  0.5880E+02  0.3583E+02E
 Epicentro: EL PLAYON - SANTANDER                                              3
 ACTION:UPD 15-04-30 21:26 OP:nd   STATUS:               ID:20150214155153 L   I
 OLDACT:DUP 15-02-14 23:55 OP:stll STATUS:               ID:20150214154745d    3
 2015-02-14-1547-44M.COL___305                                                 6
 STAT SP IPHASW D HRMM SECON CODA AMPLIT PERI AZIMU VELO AIN AR TRES W  DIS CAZ7
 BRR  HZ EP       1552 11.86                             151    0.3610 62.8 227 
 BRR  HN ES       1552 25.97                             151    0.2110 62.8 227 
 BRR  HZ I        1552 26.40       126.7 0.16            152           62.8 227 
 PAM  SN ES       1552 27.57                             150   -0.0510 68.4 105 
 PAM  SZ I        1552 29.12        18.0 0.16            151           68.4 105 
 OCA  HN ES       1552 28.65                             144    0.2510 82.1 358 
 OCA  HZ I        1552 30.31        19.6 0.42            145           82.1 358 
 BAR2 EZ EP       1552 14.83                             138    0.3010  101 173 
 BAR2 EZ ES       1552 30.37                             138   -0.7810  101 173 
 BAR2 EZ I        1552 31.63       101.2 0.16            140            101 173 
 PTB  HZ EP       1552 19.16                             123   -1.15 9  166 230 
 PTB  HE ES       1552 40.96                             123   -0.49 9  166 230 
 PTB  HZ I        1552 43.99        17.6 0.10            124            166 230 
 SPBC HN ES       1552 53.67                             115    1.55 8  221 203 
                                                                                
