 2016  414 1811 27.2 L   6.804 -73.168140.7  RSN 10 0.3 2.3LRSN                1
 GAP=134        0.76       2.2     3.0  4.5 -0.1595E+01  0.4897E+01  0.1799E+00E
 Epicentro: LOS SANTOS - SANTANDER                                             3
 ACTION:UPD 16-05-05 14:21 OP:rebc STATUS:               ID:20160414181127 L   I
 OLDACT:UP  16-04-15 01:16 OP:cara STATUS:               ID:20160414180740     3
 OLDACT:REG 16-04-14 23:34 OP:ar   STATUS:               ID:20160414180740     3
 2016-04-14-1807-40M.COL___310                                                 6
 STAT SP IPHASW D HRMM SECON CODA AMPLIT PERI AZIMU VELO AIN AR TRES W  DIS CAZ7
 BAR2 EZ EP       1811 46.36                             170    0.1310 23.4 184 
 BAR2 EZ ES       1812  1.04                             170   -0.0310 23.4 184 
 BAR2 EZ I        1812  2.21        81.6 0.16            170           23.4 184 
 PAM  EZ EP     D 1811 49.14                             149    0.1710 78.6  41 
 PAM  EZ I        1811 49.36        77.5 0.22            152           78.6  41 
 PAM  EN ES       1812  6.25                             149    0.3110 78.6  41 
 RUS  HZ EP     C 1811 50.25                             143   -0.2610  101 175 
 RUS  HN ES       1812  8.65                             143   -0.0410  101 175 
 RUS  HZ I        1812  9.64        23.2 0.38            143            101 175 
 PTB  HZ EP       1811 53.41                             131   -0.15 9  145 258 
 PTB  HN ES       1812 13.88                             131   -0.23 9  145 258 
 PTB  HZ I        1812 17.06        29.2 0.14            131            145 258 
 OCA  HZ EP       1811 54.72                             129   -0.35 9  160 354 
 OCA  HE ES       1812 16.53                             129   -0.26 9  160 354 
 OCA  HZ I        1812 20.30        62.2 0.20            130            160 354 
 SPBC HZ EP       1811 55.23                             128    0.02 9  162 218 
 SPBC HE ES       1812 16.76                             128   -0.29 9  162 218 
 SPBC HZ I        1812 19.52        25.3 0.34            128            162 218 
 ZAR  HZ EP       1811 59.89                             122    0.81 9  202 292 
 ZAR  HN ES       1812 24.02                             122    0.08 9  202 292 
 ZAR  HZ I        1812 30.52        21.8 0.28            122            202 292 
 NOR  HZ EP       1812  1.81                             118   -0.65 8  233 234 
 NOR  HN ES       1812 30.00                             118    0.04 8  233 234 
 NOR  HZ I        1812 31.99         9.3 0.16            118            233 234 
 CHI  HZ EP       1812  4.58                             116   -0.03 8  248 195 
 CHI  HN ES       1812 34.18                             116    0.40 8  248 195 
 CHI  HZ I        1812 44.02         4.8 0.46            117            248 195 
 GUY2CHZ EP       1812 10.48                             111    0.09 7  299 234 
 GUY2CHE ES       1812 44.57                             111    0.50 7  299 234 
 GUY2CHZ I        1812 52.72         6.2 0.40                           299 234 
                                                                                
