 2013  114 1234 29.1 L   6.815 -73.038142.5  RSN 11 0.5 2.7LRSN 2.9WRSN        1
 SPEC AVERAGE  MO 13.5 ST  4.5 OM  2.1 f0 4.76 R0.3317 AL 1.91 WI 28.1 MW  2.9 3
 SPEC SD       MO  0.3 ST  2.1 OM  0.4 f0 1.33 R0.0864 AL      WI      MW  0.2 3
 GAP=194        0.93       3.3     5.4  6.2  0.5026E+00  0.8063E+01  0.3154E+01E
 Epicentro: CEPITA - SANTANDER                                                 3
 SPEC ZAR HH Z MO 13.7 ST  7.1 OM  1.9 f0 4.66 R0.3155 AL 1.40 WI 39.6 MW  3.1 3
 SPEC ZAR HH Z T123520 K 0.000 GD  257 VS 4.20 DE 3.20 Q0300.0 QA 0.60 VS 4.20 3
 SPEC RREFHH Z MO 13.7 ST  6.5 OM  1.7 f0 4.70 R0.3128 AL 2.71 WI 42.1 MW  3.0 3
 SPEC RREFHH Z T123542 K 0.000 GD  361 VS 4.20 DE 3.20 Q0300.0 QA 0.60 VS 4.20 3
 SPEC ROSCBH Z MO 13.8 ST  2.4 OM  1.9 f0 3.09 R0.4757 AL 2.09 WI 27.6 MW  3.1 3
 SPEC ROSCBH Z T123535 K 0.000 GD  297 VS 4.20 DE 3.20 Q0300.0 QA 0.60 VS 4.20 3
 SPEC PTB HH Z MO 13.6 ST  5.0 OM  1.9 f0 4.39 R0.3349 AL 1.09 WI 35.3 MW  3.0 3
 SPEC PTB HH Z T123510 K 0.000 GD  214 VS 4.20 DE 3.20 Q0300.0 QA 0.60 VS 4.20 3
 SPEC RUS HH Z MO 13.0 ST  2.1 OM  1.4 f0 5.18 R0.2838 AL 1.41 WI 12.4 MW  2.6 3
 SPEC RUS HH Z T1235 9 K 0.000 GD  175 VS 4.20 DE 3.20 Q0300.0 QA 0.60 VS 4.20 3
 SPEC HEL HH Z MO 13.6 ST  4.0 OM  1.7 f0 4.18 R0.3517 AL 2.05 WI 23.6 MW  3.0 3
 SPEC HEL HH Z T123542 K 0.000 GD  317 VS 4.20 DE 3.20 Q0300.0 QA 0.60 VS 4.20 3
 SPEC CHI HH Z MO 13.4 ST  1.0 OM  1.5 f0 3.17 R0.4637 AL 2.15 WI 32.9 MW  2.9 3
 SPEC CHI HH Z T123534 K 0.000 GD  291 VS 4.20 DE 3.20 Q0300.0 QA 0.60 VS 4.20 3
 SPEC BRR HH Z MO 13.4 ST  6.6 OM  1.8 f0 5.71 R0.2574 AL 1.47 WI 27.3 MW  2.9 3
 SPEC BRR HH Z T1235 4 K 0.000 GD  164 VS 4.20 DE 3.20 Q0300.0 QA 0.60 VS 4.20 3
 SPEC BAR2SH Z MO 13.0 ST  5.9 OM  1.4 f0 7.76 R0.1894 AL 2.80 WI 12.2 MW  2.6 3
 SPEC BAR2SH Z T1235 2 K 0.000 GD  145 VS 4.20 DE 3.20 Q0300.0 QA 0.60 VS 4.20 3
 ACTION:UPD 13-02-15 09:14 OP:ep   STATUS:               ID:20130114123429 L   I
 2013-01-14-1230-00M.COL___241                                                 6
 STAT SP IPHASW D HRMM SECON CODA AMPLIT PERI AZIMU VELO AIN AR TRES W  DIS CAZ7
 BAR2 SZ IP       1234 48.52                             168    0.0810 29.4 213 
 BAR2 SZ ES   1   1235  3.64                             168    0.08 7 29.4 213 
 BAR2 SZ I        1235  5.23       156.0 0.24            170           29.4 213 
 BRR  HZ IP     C 1234 50.38                             149   -0.0810 81.2 293 
 BRR  HE ES   1   1235  7.13                             149   -0.03 7 81.2 293 
 BRR  HZ I        1235 10.81        69.7 0.28            144           81.2 293 
 RUS  HZ IP     D 1234 52.36                             143   -0.2510  102 183 
 RUS  HN ES   1   1235 11.38                             143    0.40 7  102 183 
 PTB  HZ IPg      1234 57.01                             129    0.12 9  160 259 
 PTB  HE ES   2   1235 17.00                             129   -1.59 5  160 259 
 PTB  HZ I        1235 23.80        75.3 0.30            125            160 259 
 OCA  HZ EP       1234 56.69                             129   -0.45 9  160 349 
 OCA  HN ES   1   1235 19.93                             129    0.89 7  160 349 
 OCA  HZ I        1235 21.66        41.0 0.36            123            160 349 
 ZAR  HZ EPg      1235  2.73        41.4 0.32            120    0.34 8  215 291 
 ZAR  HN ES   1   1235 27.42                             120   -0.97 6  215 291 
 ZAR  HZ I        1235 32.06        41.4 0.32            116            215 291 
 CHI  HZ EP     C 1235  6.52                             116   -0.61 8  254 198 
 CHI  HN ES   1   1235 36.19                             116   -0.63 6  254 198 
 CHI  HZ I        1235 42.18        12.5 0.28            114            254 198 
 ROSC BZ EP       1235  7.94                             115    0.08 8  261 213 
 ROSC BN ES   1   1235 38.79                             115    0.67 6  261 213 
 ROSC BZ I        1235 46.19        35.0 0.35            113            261 213 
 HEL  HZ EP       1235 10.71                             113    0.26 7  284 256 
 HEL  HN ES   1   1235 43.31                             113    0.58 6  284 256 
 HEL  HZ I        1235 47.88        24.2 0.28            110            284 256 
 RREF HZ EP       1235 16.58                             110    0.35 7  332 231 
 RREF HN ES   1   1235 53.29                             110    0.26 5  332 231 
 RREF HZ I        1236  0.53        26.5 0.22            107            332 231 
 ANIL HZ EP   1   1235 19.83                             107   -0.03 5  367 226 
 ANIL HE ES   1   1235 59.97                             107    0.49 5  367 226 
 ANIL HZ I        1236  4.61        13.2 0.26            105            367 226 
 SJC  HN ES   4   1236  3.95                             105   -4.92 0  414 325 
                                                                                
