 2014  814 1752 54.0 L   5.785 -73.962102.0  RSN 11 0.4 1.8LRSN                1
 GAP= 86        1.08       2.6     2.8  6.0 -0.2325E+01  0.2937E+01 -0.6295E+00E
 Epicentro: FLORIAN - SANTANDER                                                3
 ACTION:UPD 14-09-15 21:49 OP:nd   STATUS:               ID:20140814175254 L   I
 OLDACT:REG 14-08-14 21:53 OP:spq  STATUS:               ID:20140814174818     3
 2014-08-14-1748-18M.COL___262                                                 6
 STAT SP IPHASW D HRMM SECON CODA AMPLIT PERI AZIMU VELO AIN AR TRES W  DIS CAZ7
 SPBC HN ES       1753 19.58                             169    0.5010 19.1 220 
 SPBC HZ I        1753 20.12        50.6 0.22            168           19.1 220 
 RUS  HZ EP       1753 13.55                             133   -0.0310 98.0  83 
 RUS  HN ES       1753 28.08                             133   -0.7410 98.0  83 
 PTB  HZ EP       1753 12.17                             132   -0.9210 99.8 327 
 PTB  HN ES       1753 27.63                             132   -0.3210 99.8 327 
 PTB  HZ I        1753 32.28        10.3 0.30            132           99.8 327 
 NOR  HZ EP       1753 13.32                             131   -0.1610  103 256 
 NOR  HN ES       1753 28.38                             131   -0.2610  103 256 
 NOR  HZ I        1753 30.40        19.5 0.28            131            103 256 
 BAR2 SZ EP       1753 15.91                             125    0.1910  124  44 
 BAR2 SZ ES       1753 32.80                             125    0.1710  124  44 
 BAR2 SZ I        1753 34.53        30.6 0.38            127            124  44 
 CHI  HZ EP       1753 16.69                             124    0.1210  130 169 
 CHI  HE ES       1753 34.24                             124    0.1010  130 169 
 CHI  HZ I        1753 37.00         4.0 0.50            126            130 169 
 BRR  HZ EP       1753 18.62                             119    0.66 9  149  11 
 BRR  HN ES       1753 37.22                             119    0.62 9  149  11 
 GUY2CHZ EP       1753 20.88                             116    0.31 9  167 248 
 GUY2CHN ES       1753 41.88                             116    0.62 9  167 248 
 GUY2CHZ I        1753 45.48         6.4 0.58                           167 248 
 RREF HZ EP       1753 22.44                             114    0.05 9  182 238 
 RREF HN ES       1753 44.64                             114    0.14 9  182 238 
 RREF HZ I        1753 49.12         5.7 0.22            115            182 238 
 TOL  SZ EP       1753 23.92                             111   -0.19 9  201 229 
 TOL  SN ES       1753 47.18                             111   -0.38 9  201 229 
 TOL  SZ I        1753 52.18        10.0 0.20            112            201 229 
 ZAR  HZ EP       1753 25.16                             110    0.03 8  213 332 
 ZAR  HN ES       1753 49.10                             110   -0.28 8  213 332 
 ZAR  HZ I        1753 54.50         7.6 0.16            111            213 332 
                                                                                
