 2014 1114 1945 39.8 L   6.812 -73.196141.6  RSN  5 0.5 1.6LRSN                1
 GAP=130        1.22       6.4     6.1  8.9 -0.3615E+01  0.6584E+01  0.3029E+01E
 Epicentro: ZAPATOCA - SANTANDER                                               3
 ACTION:UPD 14-12-19 15:43 OP:nd   STATUS:               ID:20141114194539 L   I
 OLDACT:DUP 14-11-15 00:02 OP:cam  STATUS:               ID:20141114193821d    3
 2014-11-14-1938-20M.COL___295                                                 6
 STAT SP IPHASW D HRMM SECON CODA AMPLIT PERI AZIMU VELO AIN AR TRES W  DIS CAZ7
 BAR2 SZ EP     C 1945 58.99                             170    0.0910 24.3 177 
 BAR2 SZ ES       1946 13.90                             170    0.0610 24.3 177 
 BAR2 SZ I        1946 16.69         9.3 0.28            168           24.3 177 
 BRR  HZ EP       1946  0.91                             154    0.7610 65.8 300 
 BRR  HN ES       1946 15.22                             154   -0.8310 65.8 300 
 PAM  SZ EP       1946  1.54                             149   -0.1510 80.1  43 
 PAM  SN ES       1946 19.08                             149    0.2810 80.1  43 
 PAM  SZ I        1946 19.66         9.0 0.26            155           80.1  43 
 RUS  HZ EP       1946  2.54                             142   -0.6910  102 173 
 RUS  HN ES       1946 21.79                             142    0.2510  102 173 
 RUS  HZ I        1946 24.24         3.4 0.26            144            102 173 
 PTB  HZ EP       1946  5.78                             132   -0.14 9  143 258 
 PTB  HN ES       1946 26.72                             132    0.40 9  143 258 
 PTB  HZ I        1946 34.60         8.4 0.28            132            143 258 
                                                                                
