 2014  114 1047 26.1 L   6.812 -73.149143.9  RSN 14 0.4 2.3LRSN                1
 GAP=136        0.86       2.1     3.1  5.2 -0.1649E+01  0.5601E+01  0.6652E+00E
 Epicentro: LOS SANTOS - SANTANDER                                             3
 ACTION:UPD 14-03-13 09:55 OP:ep   STATUS:               ID:20140114104726 L   I
 OLDACT:REG 14-01-14 14:32 OP:carl STATUS:               ID:20140114104000     3
 2014-01-14-1040-00M.COL___285                                                 6
 STAT SP IPHASW D HRMM SECON CODA AMPLIT PERI AZIMU VELO AIN AR TRES W  DIS CAZ7
 PAM  SZ EP       1047 48.45                             151    0.3410 76.5  40 
 PAM  SN ES       1048  5.71                             151    0.4710 76.5  40 
 PAM  SZ I        1048  7.84        29.5 0.58            157           76.5  40 
 RUS  HZ EP       1047 49.48                             143   -0.3310  102 176 
 RUS  HN ES       1048  8.27                             143    0.0010  102 176 
 RUS  HZ I        1048 10.94        19.6 0.50            147            102 176 
 PTB  HZ EP       1047 52.51                             132   -0.44 9  148 258 
 PTB  HN ES       1048 13.66                             132   -0.20 9  148 258 
 PTB  HZ I        1048 21.20        32.8 0.40            133            148 258 
 OCA  HZ EP       1047 54.39                             129    0.21 9  159 353 
 OCA  HN ES       1048 15.86                             129   -0.18 9  159 353 
 OCA  HZ I        1048 21.63        14.7 0.16            134            159 353 
 SPBC HZ EP       1047 54.58                             128   -0.00 9  164 219 
 SPBC HN ES       1048 16.16                             128   -0.60 9  164 219 
 SPBC HZ I        1048 23.67        34.2 0.28            132            164 219 
 ZAR  HZ EP       1047 58.31                             122   -0.07 9  203 292 
 ZAR  HN ES       1048 23.66                             122    0.13 9  203 292 
 ZAR  HZ I        1048 30.18        27.0 0.34            125            203 292 
 NOR  HZ EP       1048  1.73                             118   -0.09 8  235 234 
 NOR  HE ES       1048 30.25                             118    0.60 8  235 234 
 NOR  HZ I        1048 32.00        17.7 0.24            121            235 234 
 SML  HZ EP       1048  2.20                             117   -0.32 8  242 335 
 SML  HN ES       1048 30.37                             117   -0.51 8  242 335 
 SML  HZ I        1048 33.61        27.4 0.32            121            242 335 
 CHI  HZ EP       1048  3.68                             117   -0.19 8  250 195 
 CHI  HN ES       1048 32.89                             117   -0.41 8  250 195 
 CHI  HZ I        1048 37.09        10.1 0.38            121            250 195 
 HEL  HZ EP       1048  7.24                             114    0.98 8  272 256 
 HEL  HN ES       1048 37.57                             114    0.01 8  272 256 
 HEL  HZ I        1048 44.40        11.9 0.32            117            272 256 
 URE  HZ EP   4   1048  5.93                             113   -1.10 0  283 292 
 URE  HE ES   4   1048 36.49                             113   -2.43 0  283 292 
 GUY2CHZ EP       1048  9.66                             112   -0.07 7  302 235 
 GUY2CHN ES       1048 44.44                             112    0.72 7  302 235 
 GUY2CHZ I        1048 52.31        15.0 0.76                           302 235 
 RREF HZ EP       1048 12.82                             110    0.54 7  322 229 
 RREF HN ES       1048 48.64                             110    0.38 7  322 229 
 RREF HZ I        1048 55.45        12.3 0.28            114            322 229 
 CBOC HZ EP       1048 12.78                             109   -0.22 7  334 252 
 CBOC HN ES       1048 49.22                             109   -0.32 7  334 252 
 CBOC HZ I        1048 56.19         3.9 0.32            113            334 252 
 ORTC HZ EP       1048 20.05                             106   -0.06 6  396 216 
 ORTC HE ES       1049  2.22                             106    0.02 6  396 216 
 ORTC HZ I        1049 10.28         4.8 0.26            109            396 216 
                                                                                
