 2017 1014 1437 21.6 L   6.855 -73.233131.5  RSN  4 0.2 1.0LRSN                1
 GAP=238        0.53       5.2     3.8  5.8  0.1311E+02  0.1678E+01 -0.4570E+01E
 Epicentro: ZAPATOCA - SANTANDER                                               3
 ACTION:UPD 17-11-07 19:31 OP:rebc STATUS:               ID:20171014143721 L   I
 OLDACT:DUP 17-10-14 20:51 OP:l    STATUS:               ID:20171014142119d    3
 2017-10-14-1428-00M.COL___423                                                 6
 STAT SP IPHASW D HRMM SECON CODA AMPLIT PERI AZIMU VELO AIN AR TRES W  DIS CAZ7
 BAR2 HZ EP       1437 39.93                             167    0.2610 29.6 169 
 BAR2 HZ ES       1437 53.74                             167   -0.0310 29.6 169 
 BAR2 HZ I        1437 55.81         3.2 0.26            167           29.6 169 
 RUS  HZ EP       1437 44.44                             139   -0.0910  108 171 
 RUS  HN ES       1438  2.27                             139   -0.1610  108 171 
 RUS  HZ I        1438  4.20         1.4 0.46            140            108 171 
 PTB  HN ES       1438  6.45                             130    0.21 9  140 256 
 ZAR  HE ES       1438 15.40                             121   -0.25 9  193 292 
                                                                                
