 2010  214 1948  4.1 L   6.828 -72.888142.2  RSN  6 0.4 2.2LRSN                1
 GAP=218        0.70       5.3    16.3  9.1 -0.3999E+02  0.4239E+02  0.6623E+01E
 Epicentro: SAN ANDRES - SANTANDER                                             3
 ACTION:UP  10-08-24 09:49 OP:vdl  STATUS:               ID:20100214194804 L   I
 2010-02-14-1945-08S.COL___093                                                 6
 STAT SP IPHASW D HRMM SECON CODA AMPLIT PERI AZIMU VELO SNR AR TRES W  DIS CAZ7
 BAR2 SZ IP       1948 24.19                             163     0.310   42 231 
 BAR2 SZ ES   2   1948 38.63                             163    -0.6 5   42 231 
 OCA  SZ EP   1   1948 32.12                             128    -0.3 7  163 343 
 OCA  SZ ES   2   1948 54.75                             128     0.2 5  163 343 
 OCA  SZ I        1948 59.47        29.7 0.51                           163 343 
 CHI  HZ EP   1   1948 42.53                             115    -0.4 6  260 201 
 CHI  HN ES   2   1949 13.83                             115     0.6 4  260 201 
 CHI  HZ I        1949 17.79         4.3 0.25                           260 201 
 RREF BZ EP   1   1948 53.16                             109     0.3 5  346 232 
 TOL  SZ EP   1   1948 55.33                             107     0.4 5  366 227 
 TOL  SZ ES   2   1949 34.19                             107    -0.3 3  366 227 
 PRA  HZ EP   1   1948 58.82                             105    -0.8 4  409 213 
 PRA  HE ES   2   1949 42.52                             105    -0.3 3  409 213 
 PRA  HZ I        1949 46.92         6.7 0.31                           409 213 
                                                                                
