 2011  414 1355  6.3 L   7.014 -73.208125.3  RSN  6 0.2 1.9LRSN                1
 GAP=119        0.34       3.1     3.7  4.2 -0.6967E+01  0.4151E+01  0.5459E+00E
 Epicentro: GIRON - SANTANDER                                                  3
 ACTION:UP  11-06-22 15:30 OP:REBC STATUS:               ID:20110414135506 L   I
 2011-04-14-1352-25S.COL___139                                                 6
 STAT SP IPHASW D HRMM SECON CODA AMPLIT PERI AZIMU VELO SNR AR TRES W  DIS CAZ7
 GIR2 SZ EP   1   1355 23.18                             176     0.1 7    7  12 
 BAR2 SZ IP       1355 24.30                             158     0.010   47 177 
 BAR2 SZ I        1355 24.46        37.5 0.07                            47 177 
 BAR2 SZ ES   2   1355 38.16                             158    -0.2 5   47 177 
 BRR  HZ EP   1   1355 24.56                             154     0.1 7   57 281 
 BRR  HZ I        1355 25.34        20.2 0.42                            57 281 
 BRR  HZ ES   2   1355 38.46                             154    -0.1 5   57 281 
 PAM  SZ EP   2   1355 25.66                             150    -0.1 5   67  57 
 PAM  SE ES   1   1355 40.99                             150     0.1 7   67  57 
 GRA  SZ EP   1   1355 28.14                             137     0.0 7  106  25 
 GRA  SZ ES   1   1355 45.02                             137    -0.1 7  106  25 
 GRA  SZ I        1355 48.59        10.8 0.26                           106  25 
 NOR  SZ EP   2   1355 41.56                             113    -0.4 4  244 229 
 NOR  SE ES   2   1356 10.15                             113     0.3 4  244 229 
                                                                                
