 2013 1114 1131 34.7 L   6.715 -73.198139.0  RSN  4 0.2 1.3LRSN                1
 GAP=225        0.63       4.8     4.6  5.1  0.1079E+02  0.3473E+01  0.1522E+01E
 Epicentro: VILLANUEVA - SANTANDER                                             3
 ACTION:UPD 14-01-09 16:28 OP:ep   STATUS:               ID:20131114113134 L   I
 OLDACT:REG 13-11-14 15:57 OP:stll STATUS:               ID:20131114112806     3
 2013-11-14-1128-06M.COL___225                                                 6
 STAT SP IPHASW D HRMM SECON CODA AMPLIT PERI AZIMU VELO AIN AR TRES W  DIS CAZ7
 BAR2 SZ EP       1131 53.29                             174   -0.0610 13.7 173 
 BAR2 SZ ES       1132  7.57                             174   -0.3310 13.7 173 
 BAR2 SZ I        1132 11.02         5.1 0.46            173           13.7 173 
 BRR  HZ EP       1131 55.14                             151    0.0010 71.5 307 
 BRR  HN ES       1132 11.36                             151    0.2910 71.5 307 
 BRR  HZ I        1132 14.82         4.6 0.36            153           71.5 307 
 RUS  HZ EP       1131 57.46                             145    0.3010 91.8 172 
 RUS  HE ES       1132 14.74                             145    0.0710 91.8 172 
 RUS  HZ I        1132 17.65         2.4 0.26            147           91.8 172 
 PTB  HZ EP       1132  0.11                             132   -0.35 9  140 262 
 PTB  HN ES       1132 20.59                             132    0.05 9  140 262 
 PTB  HZ I        1132 24.08         2.2 0.18            134            140 262 
                                                                                
