 2012  414 1405 20.8 L   6.785 -73.184139.6  RSN  4 0.2 1.4LRSN                1
 GAP=132        0.48       3.4     3.2  5.8 -0.1237E+01  0.1561E+01  0.2883E+01E
 Epicentro: LOS SANTOS - SANTANDER                                             3
 ACTION:UPD 12-07-05 11:53 OP:tino STATUS:               ID:20120414140520 L   I
 2012-04-14-1400-00M.COL___180                                                 6
 STAT SP IPHASW D HRMM SECON CODA AMPLIT PERI AZIMU VELO AIN AR TRES W  DIS CAZ7
 BRR  HZ EP   1   14 5 41.46                             152     0.3 7   68 301 
 BRR  HN ES   1   14 5 57.23                             152     0.2 7   68 301 
 BRR  HZ I        14 6  0.03         8.3 0.27                            68 301 
 PAM  SZ EP   1   14 5 42.69                             148     0.0 7   81  41 
 PAM  SE ES   1   14 5 59.42                             148    -0.3 7   81  41 
 RUS  HZ EP   1   14 5 43.96                             143     0.1 7   99 174 
 RUS  HN ES   1   14 6  1.92                             143     0.0 7   99 174 
 RUS  HZ I        14 6  3.24         3.3 0.42                            99 174 
 PTB  HZ EP   1   14 5 46.67                             131    -0.2 7  143 259 
 PTB  HN ES   1   14 6  7.02                             131    -0.2 7  143 259 
                                                                                
