 2011  414 1716 32.0 L   6.768 -73.122143.4  RSN  5 0.3 1.7LRSN                1
 GAP=163        0.66       6.2     6.8  6.7 -0.2432E+02 -0.4360E+01  0.3395E+01E
 Epicentro: LOS SANTOS - SANTANDER                                             3
 ACTION:UP  11-06-22 15:30 OP:REBC STATUS:               ID:20110414171632 L   I
 2011-04-14-1713-36S.COL___139                                                 6
 STAT SP IPHASW D HRMM SECON CODA AMPLIT PERI AZIMU VELO SNR AR TRES W  DIS CAZ7
 BAR2 SZ EP   1   1716 51.29                             171     0.0 7   21 199 
 BAR2 SZ ES   1   1717  6.28                             171     0.0 7   21 199 
 BAR2 SZ I        1717  7.57        16.6 0.29                            21 199 
 BRR  HZ EP   1   1716 52.97                             151    -0.1 7   75 300 
 BRR  HE ES   1   1717  9.98                             151     0.4 7   75 300 
 BRR  HZ I        1717 13.82        11.9 0.09                            75 300 
 PAM  SZ EP       1716 54.30                             150     0.310   79  36 
 PAM  SN ES   2   1717 10.77                             150    -0.4 5   79  36 
 GRA  SZ EP   1   1716 57.19                             136     0.0 7  128  16 
 GRA  SZ I        1716 58.47         4.1 0.31                           128  16 
 GRA  SZ ES   1   1717 16.54                             136    -0.4 7  128  16 
 NOR  SZ EP   2   1717  7.65                             118     0.1 4  235 236 
 NOR  SN ES   2   1717 34.48                             118    -0.9 4  235 236 
                                                                                
