 2012  714 1906 46.9 L   6.787 -73.100141.2  RSN  7 0.4 2.1LRSN                1
 GAP=187        0.95       4.2     6.2  8.0 -0.4926E+00  0.1048E+02 -0.2674E+01E
 Epicentro: LOS SANTOS - SANTANDER                                             3
 ACTION:UPD 12-08-14 11:44 OP:ep   STATUS:               ID:20120714190646 L   I
 2012-07-14-1900-00M.COL___197                                                 6
 STAT SP IPHASW D HRMM SECON CODA AMPLIT PERI AZIMU VELO AIN AR TRES W  DIS CAZ7
 BAR2 SZ EP   1   19 7  6.34                             170     0.4 8   23 203 
 BAR2 SZ ES   1   19 7 20.19                             170    -0.7 8   23 203 
 BAR2 SZ I        19 7 22.17        22.1 0.23            168             23 203 
 BRR  HZ EP   1   19 7  8.35                             150     0.5 8   76 298 
 BRR  HN ES   1   19 7 24.73                             150     0.5 8   76 298 
 BRR  HZ I        19 7 30.10        45.7 0.07            148             76 298 
 RUS  HZ EP   1   19 7 10.23                             143     0.2 8   99 179 
 RUS  HN ES   1   19 7 28.40                             143     0.3 8   99 179 
 RUS  HZ I        19 7 29.95         9.4 0.30            147             99 179 
 PTB  HZ EP   1   19 7 13.17                             130    -0.7 8  152 260 
 PTB  HN ES   1   19 7 34.91                             130    -0.1 8  152 260 
 PTB  HZ I        19 7 39.19         6.9 0.11            130            152 260 
 OCA  HZ EP   1   19 7 14.90                             128    -0.1 7  162 351 
 OCA  HE ES       19 7 36.70                             128    -0.310  162 351 
 OCA  HZ I        19 7 38.69        32.9 0.25            131            162 351 
 ZAR  HZ EP   1   19 7 19.66                             121     0.1 7  209 292 
 ZAR  HE ES   1   19 7 45.48                             121     0.4 7  209 292 
 ZAR  HZ I        19 7 51.69        11.4 0.20            122            209 292 
 NOR  SZ EP   1   19 7 22.79                             117     0.1 7  238 235 
 NOR  SN ES   1   19 7 50.20                             117    -0.4 7  238 235 
