 2010  514 1330 17.2 L   6.761 -73.020153.3  RSN  8 0.5 2.2LRSN                1
 GAP=173        0.87       4.4    11.6  8.7 -0.2143E+02 -0.9341E+01  0.5830E+01E
 Epicentro: CEPITA - SANTANDER                                                 3
 ACTION:UP  10-08-24 10:05 OP:vdl  STATUS:               ID:20100514133017 L   I
 2010-05-14-1328-39S.COL___105                                                 6
 STAT SP IPHASW D HRMM SECON CODA AMPLIT PERI AZIMU VELO AIN AR TRES W  DIS CAZ7
 BAR2 SZ EP   1   1330 37.63                             170    -0.1 7   26 224 
 BAR2 SZ ES   2   1330 52.87                             170    -1.0 5   26 224 
 BRR  HZ IP     C 1330 40.26                             150     0.310   86 297 
 BRR  HZ I        1330 40.55        32.2 0.21                            86 297 
 BRR  HE ES   2   1330 57.85                             150     0.1 5   86 297 
 RUS  HZ EP   1   1330 41.27                             147    -0.1 7   96 184 
 RUS  HE ES   2   1331  0.41                             147     0.2 5   96 184 
 RUS  HZ I        1331  1.50        12.8 0.26                            96 184 
 GUE  SZ IP     C 1330 42.63                             141    -0.110  119   5 
 GUE  SZ ES   2   1331  3.44                             141     0.7 5  119   5 
 GRA  SZ IP     C 1330 43.42                             139     0.310  127  11 
 GRA  SZ ES   2   1331  3.63                             139     0.2 5  127  11 
 OCA  SZ EP   1   1330 46.15                             130    -0.5 7  167 349 
 OCA  SZ ES   2   1331  9.16                             130    -0.5 5  167 349 
 OCA  SZ I        1331 14.17        19.2 0.36                           167 349 
 CHI  HZ EP   1   1330 55.64                             119     0.4 6  249 199 
 CHI  HE ES   2   1331 25.24                             119     0.2 4  249 199 
 CHI  HZ I        1331 32.72         6.0 0.23                           249 199 
 PRA  HZ EP   1   1331 10.09                             108    -1.3 4  395 212 
 PRA  HE ES   2   1331 54.90                             108     1.3 3  395 212 
 PRA  HZ I        1331 59.34         9.0 0.67                           395 212 
                                                                                
