 2012  914 1227 35.7 L   6.506 -73.604106.0  RSN  9 0.3 1.9LRSN                1
 GAP= 61        0.51       3.1     2.6  5.1  0.3679E+00  0.3912E+01  0.3745E+00E
 Epicentro: SANTA HELENA DEL OPON - SANTANDER                                  3
 ACTION:UPD 12-10-22 14:18 OP:ep   STATUS:               ID:20120914122735 L   I
 2012-09-14-1220-00M.COL___227                                                 6
 STAT SP IPHASW D HRMM SECON CODA AMPLIT PERI AZIMU VELO AIN AR TRES W  DIS CAZ7
 BAR2 SZ IP       1227 51.72                             154    0.1310 47.6  78 
 BAR2 SZ ES   1   1228  3.96                             154   -0.01 7 47.6  78 
 BRR  HZ EP       1227 52.54                             145    0.0510 67.5 350 
 BRR  HZ I        1227 52.81        26.9 0.11                          67.5 350 
 BRR  HN ES   2   1228  6.36                             145    0.80 5 67.5 350 
 GIR2 SZ EP       1227 53.12                             141   -0.3310 77.9  36 
 RUS  HZ EP   2   1227 54.75                             137   -0.07 5 89.0 140 
 RUS  HN ES   1   1228  9.76                             137    0.04 7 89.0 140 
 RUS  HZ I        1228 12.16        15.8 0.49                          89.0 140 
 PTB  HZ EP       1227 54.55                             135   -0.0710 94.4 272 
 PTB  HN ES   1   1228  9.13                             135   -0.24 7 94.4 272 
 PTB  HZ I        1228 11.06        17.9 0.11                          94.4 272 
 NOR  SN ES   2   1228 23.95                             116    0.19 4  175 233 
 ZAR  HZ EP   2   1228  3.13                             116    0.28 4  176 308 
 ZAR  HZ I        1228 28.29        17.4 0.25                           176 308 
 CHI  HZ EP   2   1228  6.80                             112   -0.09 4  208 184 
 CHI  HZ I        1228  9.20         3.4 0.24                           208 184 
 PRA  HZ EP   2   1228 22.59                             101    0.68 3  340 205 
                                                                                
