 2017 1114 1021 40.7 L   6.799 -73.136143.3  RSN  9 0.3 1.7LRSN                1
 GAP=138        1.29       5.6     6.4  7.5 -0.1104E+02 -0.3982E+01  0.1319E+02E
 Epicentro: LOS SANTOS - SANTANDER                                             3
 ACTION:UPD 17-12-12 19:55 OP:rebc STATUS:               ID:20171114102140 L   I
 OLDACT:DUP 17-11-14 21:58 OP:lv   STATUS:               ID:20171114101741d    3
 OLDACT:REG 17-11-14 20:24 OP:lv   STATUS:               ID:20171114101740     3
 2017-11-14-1018-00M.COL___429                                                 6
 STAT SP IPHASW D HRMM SECON CODA AMPLIT PERI AZIMU VELO AIN AR TRES W  DIS CAZ7
 BAR2 EZ EP       1021 59.76                             170   -0.3110 23.4 193 
 BAR2 EZ ES       1022 15.46                             170    0.3110 23.4 193 
 BAR2 EZ I        1022 16.04        10.9 0.40            170           23.4 193 
 BRR  HZ IP     D 1022  1.40                             152   -0.2810 72.2 298 
 BRR  HN ES       1022 18.62                             152    0.6110 72.2 298 
 BRR  HZ I        1022 23.44        11.4 0.40            148           72.2 298 
 PAM  EZ IP     C 1022  2.61                             150   -0.0410 76.8  39 
 PAM  EN ES       1022 19.53                             150   -0.2210 76.8  39 
 PAM  EZ I        1022 21.45        17.4 0.52            152           76.8  39 
 RUS  HZ EP       1022  3.93                             143   -0.3010  100 177 
 RUS  HN ES       1022 22.70                             143    0.1410  100 177 
 RUS  HZ I        1022 24.07         6.7 0.34            145            100 177 
 PTB  HZ EP   9   1022  6.59                             131   -1.01 0  149 259 
 PTB  HN ES       1022 27.42                                   -0.12 9  149 259 
 PTB  HZ I        1022 30.57         4.2 0.14            130            149 259 
 ZAR  HZ EP   9   1022 14.45                             122    1.32 0  205 292 
 ZAR  HN ES       1022 37.91                                   -1.81 9  205 292 
 ZAR  HZ I        1022 44.32         8.4 0.26            120            205 292 
 NOR  HZ EP       1022 16.82                             118    0.41 8  236 235 
 NOR  HN ES       1022 44.02                             118   -0.22 8  236 235 
 NOR  HZ I        1022 48.36         2.8 0.42            117            236 235 
 CHI  HZ EP       1022 18.56                             116    0.24 8  249 195 
 CHI  HN ES       1022 47.33                             116   -0.30 8  249 195 
 CHI  HZ I        1022 50.84         3.0 0.56            117            249 195 
 GUY2CHZ EP   9   1022 26.49                             112    2.17 0  302 235 
 GUY2CHN ES       1023  0.42                             111   -0.07 7  302 235 
 GUY2CHZ I        1023  6.15         1.4 0.36                           302 235 
                                                                                
