 2014  214 1849 23.7 L   6.753 -73.188142.4  RSN  7 0.3 1.6LRSN                1
 GAP=133        0.62       3.4     3.4  5.3 -0.5899E+00  0.4094E+01  0.8981E+00E
 Epicentro: VILLANUEVA - SANTANDER                                             3
 ACTION:UPD 14-03-10 08:10 OP:ep   STATUS:               ID:20140214184923 L   I
 OLDACT:DUP 14-02-14 20:33 OP:mh   STATUS:               ID:20140214184650d    3
 OLDACT:REG 14-02-14 20:30 OP:mh   STATUS:               ID:20140214184649     3
 2014-02-14-1846-49M.COL___224                                                 6
 STAT SP IPHASW D HRMM SECON CODA AMPLIT PERI AZIMU VELO AIN AR TRES W  DIS CAZ7
 BAR2 SZ EP       1849 42.75                             173   -0.0410 17.8 178 
 BAR2 SZ ES   1   1849 57.36                             173   -0.35 7 17.8 178 
 BAR2 SZ I        1849 59.48        25.7 0.19            172           17.8 178 
 BRR  HZ EP       1849 44.56                             152    0.1810 69.9 304 
 BRR  HZ I        1849 59.73         3.1 0.08            147           69.9 304 
 BRR  HN ES   1   1850  0.97                             152    0.44 7 69.9 304 
 PAM  SZ EP   1   1849 45.55                             148   -0.42 7 84.4  40 
 PAM  SN ES   1   1850  3.50                             148    0.14 7 84.4  40 
 PAM  SZ I        1850  6.14         4.2 0.23            148           84.4  40 
 RUS  HZ EP   1   1849 47.12                             144    0.37 7 95.8 173 
 RUS  HN ES   1   1850  4.70                             144   -0.05 7 95.8 173 
 RUS  HZ I        1850  6.90         6.7 0.22            144           95.8 173 
 PTB  HZ EP       1849 49.51                             132   -0.34 9  142 261 
 PTB  HN ES   1   1850  9.97                             132   -0.31 7  142 261 
 PTB  HZ I        1850 16.12         5.5 0.20            129            142 261 
 SPBC HZ EP   1   1849 51.61                             130    0.37 7  156 219 
 SPBC HN ES   1   1850 12.85                             130    0.10 7  156 219 
 SPBC HZ I        1850 20.12         8.1 0.15            127            156 219 
 ZAR  HN ES   1   1850 20.63                             122    0.02 6  202 294 
                                                                                
