 2010 1114 1056  8.0 L   6.794 -73.103140.3  RSN 13 0.4 2.0LRSN                1
 GAP=163        0.68       3.4     5.7  6.2 -0.5198E+01  0.8310E+01  0.2135E+01E
 Epicentro: LOS SANTOS - SANTANDER                                             3
 ACTION:UP  10-12-17 16:52 OP:REBC STATUS:               ID:20101114105608 L   I
 2010-11-14-1052-45S.COL___128                                                 6
 STAT SP IPHASW D HRMM SECON CODA AMPLIT PERI AZIMU VELO SNR AR TRES W  DIS CAZ7
 BTL  SZ EP       1056 26.53                             170    -0.510   23 307 
 BAR2 SZ EP   1   1056 27.06                             170     0.0 7   24 202 
 BAR2 SZ ES   1   1056 41.90                             170     0.1 7   24 202 
 GIR2 SZ EP   2   1056 27.38                             166     0.3 5   33 342 
 BRR  HZ EP       1056 29.02                             150     0.210   76 297 
 BRR  HZ I        1056 30.93        26.2 0.12                            76 297 
 BRR  HN ES   2   1056 45.71                             150     0.6 5   76 297 
 RUS  HZ EP       1056 31.17                             143     0.010  100 179 
 RUS  HN ES   2   1056 49.33                             143     0.1 5  100 179 
 RUS  HZ I        1056 51.15         7.3 0.22                           100 179 
 GUE  SZ EP   2   1056 33.18                             138     0.9 5  116  10 
 GRA  SZ EP   2   1056 32.97                             136     0.2 5  125  15 
 GRA  SZ ES   2   1056 51.73                             136    -0.3 5  125  15 
 GRA  SZ I        1056 53.70        10.2 0.28                           125  15 
 OCA  SZ EP   2   1056 36.21                             128     0.2 5  162 352 
 OCA  SZ ES   2   1056 57.34                             128    -0.6 5  162 352 
 OCA  SZ I        1057  3.16        11.0 0.23                           162 352 
 NOR  SZ EP   2   1056 43.33                             117    -0.5 4  238 235 
 NOR  SN ES   2   1057 11.29                             117    -0.5 4  238 235 
 CHI  HZ EP   2   1056 44.87                             116    -0.6 4  249 196 
 CHI  HE ES   2   1057 14.94                             116     0.2 4  249 196 
 CHI  HZ I        1057 23.44         5.6 0.62                           249 196 
 HEL  HZ EP   2   1056 48.83                             113     0.4 4  276 256 
 HEL  HN ES   2   1057 19.41                             113    -0.6 4  276 256 
 HEL  HZ I        1057 26.22         6.1 0.51                           276 256 
 RREF HZ EP   2   1056 55.01                             110     0.7 3  325 230 
 RREF HE ES   2   1057 31.17                             110     0.8 3  325 230 
 RREF HZ I        1057 35.98         7.5 0.35                           325 230 
 PRA  HZ EP   2   1057  1.51                             105    -0.1 3  394 210 
 PRA  HN ES   2   1057 43.73                             105     0.4 3  394 210 
                                                                                
