 2013  714 1340 23.7 L   6.799 -73.160145.0  RSN  8 0.3 2.0LRSN                1
 GAP=135        0.81       2.8     4.1  5.3 -0.1357E+01  0.2132E+01  0.3025E+01E
 Epicentro: LOS SANTOS - SANTANDER                                             3
 ACTION:UPD 13-08-12 10:37 OP:ep   STATUS:               ID:20130714134023 L   I
 OLDACT:DUP 13-07-14 18:39 OP:stll STATUS:               ID:20130714133847d    3
 2013-07-14-1338-45M.COL___228                                                 6
 STAT SP IPHASW D HRMM SECON CODA AMPLIT PERI AZIMU VELO AIN AR TRES W  DIS CAZ7
 BAR2 SZ EP       1340 43.20                             171    0.0210 22.9 186 
 BAR2 SZ ES       1340 57.95                             171   -0.4610 22.9 186 
 BAR2 SZ I        1340 59.35        12.4 0.24            172           22.9 186 
 GIR2 SZ EP       1340 43.32                             167    0.0910 31.2 353 
 BRR  HZ EP       1340 44.97                             153    0.3310 69.9 299 
 BRR  HN ES       1341  1.58                             153    0.5710 69.9 299 
 BRR  HN I        1341  2.78        32.3 0.22            150           69.9 299 
 PAM  SZ EP       1340 46.09                             150    0.2410 78.5  40 
 PAM  SN ES       1341  2.84                             150   -0.3310 78.5  40 
 PAM  SN I        1341  4.48         9.2 0.30            151           78.5  40 
 RUS  HZ EP       1340 47.45                             144    0.1310  101 175 
 RUS  HN ES       1341  6.07                             144    0.2910  101 175 
 RUS  HN I        1341  6.65        12.6 0.24            147            101 175 
 PTB  HZ EP       1340 50.08                             132   -0.33 9  146 259 
 PTB  HN ES       1341 11.00                             132   -0.28 9  146 259 
 PTB  HN I        1341 16.29        13.8 0.46            131            146 259 
 OCA  HN ES       1341 13.75                             129   -0.18 9  160 354 
 OCA  HN I        1341 21.82        21.3 0.38            129            160 354 
 CHI  HZ EP       1341  0.84                             117   -0.41 8  248 195 
 CHI  HN ES       1341 30.65                             117    0.08 8  248 195 
                                                                                
