 2015 1014 1606 31.9 L   6.514 -73.676104.5  RSN 15 0.4 2.4LRSN                1
 GAP= 68        0.96       2.3     2.6  5.5 -0.1502E+01  0.7621E+01 -0.7002E+00E
 Epicentro: SANTA HELENA DEL OPON - SANTANDER                                  3
 ACTION:UPD 15-12-22 20:40 OP:cam  STATUS:               ID:20151014160631 L   I
 OLDACT:DUP 15-10-15 00:27 OP:ak   STATUS:               ID:20151014155747d    3
 2015-10-14-1557-46M.COL___334                                                 6
 STAT SP IPHASW D HRMM SECON CODA AMPLIT PERI AZIMU VELO AIN AR TRES W  DIS CAZ7
 BAR2 EZ IP     D 16 6 48.32                             150    0.2410 55.3  81 
 BAR2 EZ ES       16 7  0.45                             150   -0.2310 55.3  81 
 BAR2 EZ I        16 7  1.93       159.0 0.20            157           55.3  81 
 BRR  HZ EP       16 6 48.55                             145    0.1310 65.7 357 
 BRR  HE ES       16 7  1.74                             145    0.4610 65.7 357 
 BRR  HZ I        16 7  2.59       196.9 0.04            148           65.7 357 
 RUS  HZ EP       16 6 51.34                             135   -0.0810 95.0 136 
 RUS  HN ES       16 7  6.12                             135   -0.4910 95.0 136 
 RUS  HZ I        16 7  7.67        29.9 0.30            139           95.0 136 
 SPBC HZ EP       16 6 51.46                             131   -0.2910  105 205 
 SPBC HN ES       16 7  7.02                             131   -0.1910  105 205 
 SPBC HZ I        16 7 11.22        60.1 0.27            132            105 205 
 PAM  EZ EP       16 6 55.80                             122   -0.06 9  141  50 
 PAM  EN ES       16 7 15.04                             122    0.52 9  141  50 
 NOR  HZ EP       16 6 57.96                             117   -0.25 9  169 232 
 NOR  HN ES       16 7 18.72                             117    0.02 9  169 232 
 NOR  HZ I        16 7 23.57        32.6 0.16            118            169 232 
 ZAR  HZ EP       16 6 58.16                             116   -0.08 9  170 310 
 ZAR  HN ES       16 7 19.35                             116    0.59 9  170 310 
 ZAR  HZ I        16 7 22.68        61.1 0.28            118            170 310 
 HEL  HZ EP       16 7  3.10                             111    0.11 8  208 260 
 HEL  HN ES       16 7 26.77                             111   -0.44 8  208 260 
 HEL  HZ I        16 7 30.45        24.4 0.20            112            208 260 
 GUY2CHZ EP       16 7  6.74                             108    0.50 8  235 233 
 GUY2CHN ES       16 7 33.30                             108    0.31 8  235 233 
 GUY2CHZ I        16 7 38.14        20.1 0.30                           235 233 
 URE  HZ EP   4   16 7  4.75                             107   -2.23 0  247 304 
 URE  HN ES   4   16 7 32.47                             107   -1.85 0  247 304 
 URE  HZ I        16 7 41.09        19.4 0.35            109            247 304 
 SML  HZ EP       16 7  7.70                             106   -0.44 8  257 350 
 SML  HN ES       16 7 35.76                             106   -0.62 8  257 350 
 ELA  HZ EP   1   16 7 10.14                             106    0.43 6  264 226 
 ELA  HN ES       16 7 39.89                             106    0.71 8  264 226 
 ELA  HZ I        16 7 52.52        11.3 0.30            107            264 226 
 CBOC HZ EP   1   16 7 10.35                             105    0.62 6  268 255 
 CBOC HN ES       16 7 38.27                             105   -0.94 8  268 255 
 CBOC HZ I        16 7 45.00         6.9 0.26            107            268 255 
 DBB  SZ EP       16 7 11.38                             104   -0.28 7  286 281 
 DBB  SZ ES       16 7 42.19                             104   -0.45 7  286 281 
 DBB  SZ I        16 7 46.76        33.1 0.36            105            286 281 
 ORTC HZ EP       16 7 17.74                             101    0.06 7  337 211 
 ORTC HE ES       16 7 54.10                             101    0.74 7  337 211 
 ORTC HZ I        16 8  3.07         8.6 0.52            102            337 211 
                                                                                
