 2011  414 1018  1.3 L   6.773 -73.129151.2  RSN  4 0.2 1.5LRSN                1
 GAP=180        0.46       6.6     7.8  7.4 -0.1100E+02 -0.2081E+02  0.2177E+01E
 Epicentro: LOS SANTOS - SANTANDER                                             3
 ACTION:UP  11-06-22 15:30 OP:REBC STATUS:               ID:20110414101801 L   I
 2011-04-14-1000-00M.COL___141                                                 6
 STAT SP IPHASW D HRMM SECON CODA AMPLIT PERI AZIMU VELO SNR AR TRES W  DIS CAZ7
 BAR2 SZ EP   2   1018 21.25                             172    -0.3 5   21 196 
 BAR2 SZ I        1018 21.97         8.4 0.67                            21 196 
 BAR2 SZ ES   2   1018 37.44                             172     0.1 5   21 196 
 BTL  SZ EP   1   1018 21.57                             171     0.0 7   22 316 
 BRR  HZ EP   1   1018 23.08                             152    -0.1 7   74 300 
 BRR  HE ES   1   1018 40.33                             152     0.1 7   74 300 
 BRR  HZ I        1018 43.83         7.8 1.06                            74 300 
 GRA  SZ EP   2   1018 27.70                             138     0.5 5  128  16 
 GRA  SZ ES   2   1018 47.13                             138    -0.3 5  128  16 
 GRA  SZ I        1018 48.21         2.4 0.31                           128  16 
                                                                                
