 2017  914 1449 32.9 L   5.988 -73.799109.3  RSN  4 0.1 1.5LRSN                1
 GAP=151        0.32       1.8     1.5  4.6 -0.7306E+00  0.1330E+01 -0.8891E+00E
 Epicentro: BOLIVAR - SANTANDER                                                3
 ACTION:UPD 17-10-05 19:12 OP:rebc STATUS:               ID:20170914144931 L   I
 OLDACT:UP  17-09-15 13:17 OP:nlst STATUS:               ID:20170914144931 L   3
 OLDACT:REG 17-09-14 20:36 OP:dnl  STATUS:               ID:20170914144744     3
 2017-09-14-1448-00M.COL___455                                                 6
 STAT SP IPHASW D HRMM SECON CODA AMPLIT PERI AZIMU VELO AIN AR TRES W  DIS CAZ7
 RUS  HZ EP       1449 51.70                             141    0.0810 80.0  98 
 RUS  HN ES       1450  6.14                             141   -0.0610 80.0  98 
 RUS  HZ I        1450  7.61         4.5 0.20            145           80.0  98 
 BAR2 EZ EP       1449 52.52                             136   -0.0010 95.5  46 
 BAR2 EZ ES   3   1450  7.65                             136   -0.15 2 95.5  46 
 BAR2 EZ I        1450  8.31         4.2 0.14            139           95.5  46 
 BRR  HZ EP   4   1449 54.43                             127   -0.38 0  124   4 
 BRR  HN ES       1450 11.89                             127    0.0110  124   4 
 BRR  HZ I        1450 13.71        14.2 0.32            130            124   4 
 NOR  HZ EP   2   1449 54.95                             126   -0.26 5  127 248 
 NOR  HE ES       1450 12.64                             126    0.0510  127 248 
 NOR  HZ I        1450 14.18         4.5 0.32            129            127 248 
                                                                                
