 2014  714 1234 40.3 L   6.803 -73.153142.3  RSN 40 0.6 4.0LRSN                1
 GAP=102        1.16       2.2     3.1  4.3 -0.1091E+01  0.2763E+01  0.8396E+00E
 Epicentro: LOS SANTOS - SANTANDER                                             3
 ACTION:UPD 15-03-16 20:43 OP:nd   STATUS:               ID:20140714123440 L   I
 OLDACT:REG 14-07-14 20:27 OP:stll STATUS:               ID:20140714122819     3
 2014-07-14-1228-19M.COL___256                                                 6
 STAT SP IPHASW D HRMM SECON CODA AMPLIT PERI AZIMU VELO AIN AR TRES W  DIS CAZ7
 BAR2 SZ IP     C 1234 59.90                             170    0.3810 23.6 188 
 BAR2 SZ ES       1235 14.37                             170   -0.1410 23.6 188 
 BAR2 SZ I        1235 15.67      2127.9 0.24            169           23.6 188 
 BRR  HZ IP     D 1235  1.83                             152    0.8010 70.3 299 
 BRR  HE ES       1235 17.75                             152    0.5610 70.3 299 
 BRR  HZ I        1235 21.70      1324.0 0.22            151           70.3 299 
 PAM  SZ IP     D 1235  2.81                             150    0.6510 77.6  40 
 PAM  SZ I        1235  3.14      2651.3 0.20            153           77.6  40 
 PAM  SN ES       1235 19.37                             150    0.1610 77.6  40 
 RUS  HZ IP     D 1235  3.85                             143    0.1010  101 176 
 RUS  HN ES       1235 21.34                             143   -0.6910  101 176 
 RUS  HZ I        1235 23.97      1370.4 0.42            144            101 176 
 PTB  HZ EP     D 1235  6.32                             131   -0.61 9  147 259 
 PTB  HZ I        1235  9.12      1105.9 0.28            131            147 259 
 PTB  HE ES       1235 27.07                             131   -0.62 9  147 259 
 OCA  HZ IP     D 1235  8.30                             129   -0.00 9  160 353 
 OCA  HN ES       1235 29.47                             129   -0.67 9  160 353 
 OCA  HZ I        1235 38.89       644.3 0.18            130            160 353 
 SPBC HZ EP     D 1235  8.82                             128    0.30 9  163 219 
 SPBC HN ES       1235 30.66                             128    0.13 9  163 219 
 SPBC HZ I        1235 33.21      1360.7 0.26            129            163 219 
 ZAR  HZ EP     C 1235 12.63                             122    0.19 9  203 292 
 ZAR  HN ES       1235 37.89                             122    0.39 9  203 292 
 ZAR  HZ I        1235 46.85      1197.8 0.30            122            203 292 
 NOR  HZ EP     C 1235 15.96                             118    0.17 8  234 234 
 NOR  HE ES       1235 43.47                             118    0.00 8  234 234 
 NOR  HZ I        1235 49.32       837.0 0.44            118            234 234 
 SML  HZ EP       1235 16.27                             117   -0.39 8  243 335 
 SML  HE ES       1235 44.45                             117   -0.57 8  243 335 
 SML  HZ I        1235 54.81       846.3 0.22            118            243 335 
 CHI  HZ EP     D 1235 17.74                             116   -0.09 8  249 195 
 CHI  HN ES       1235 46.76                             116   -0.34 8  249 195 
 CHI  HZ I        1235 50.72       414.2 0.58            117            249 195 
 ROSC BZ IP     D 1235 19.86                             116    1.63 8  253 211 
 ROSC BE ES       1235 47.23                             116   -0.58 8  253 211 
 ROSC BZ I        1235 53.69       869.4 0.40            117            253 211 
 HEL  HZ IP     D 1235 20.41                             114    0.14 8  271 256 
 HEL  HN ES       1235 51.40                             114   -0.04 8  271 256 
 HEL  HZ I        1235 58.94       880.0 0.48            115            271 256 
 URE  HZ EP       1235 20.34                             113   -0.77 7  283 292 
 URE  HN ES       1235 52.58                             113   -0.36 7  283 292 
 GUY2CHZ EP       1235 24.46                             112    0.75 7  301 235 
 GUY2CHN ES       1235 57.26                             112   -0.30 7  301 235 
 GUY2CHZ I        1236  7.19       597.2 0.48                           301 235 
 SOCV BZ IP     C 1235 22.91                             111   -0.33 7  302  57 
 SOCV BN ES   4   1235 54.48                             111   -2.25 0  302  57 
 VIL  SZ EP       1235 23.45                             111   -0.14 7  304 191 
 VIL  SE ES       1235 57.38                             111    0.03 7  304 191 
 VIL  SZ I        1236  8.87       555.3 0.32            112            304 191 
 PTGC HZ IP     D 1235 23.05                             111   -1.03 7  309 159 
 PTGC HE ES   4   1235 55.56                             111   -2.66 0  309 159 
 RREF HZ EP       1235 26.50                             110    0.24 7  321 229 
 RREF HN ES       1236  1.77                             110   -0.33 7  321 229 
 RREF HZ I        1236  8.13       643.5 0.66            111            321 229 
 CBOC HZ IP     C 1235 27.74                             109    0.73 7  333 252 
 CBOC HZ I        1235 29.68       244.5 0.42            110            333 252 
 CBOC HE ES       1236  3.11                             109   -0.32 7  333 252 
 DBB  SZ EP       1235 27.77                             109    0.22 7  339 274 
 DBB  SZ ES       1236  3.58                             109   -0.82 7  339 274 
 TOL  SZ EP       1235 28.58                             109    0.19 7  343 225 
 TOL  SN ES       1236  6.21                             109    0.31 7  343 225 
 ANIL HZ EP     C 1235 30.88                             108    0.93 6  357 224 
 ANIL HN ES       1236  9.01                             108    0.34 6  357 224 
 ANIL HZ I        1236 22.86       850.7 0.48            109            357 224 
 ARGC HZ EP       1235 30.67                             108    0.91 6  359 340 
 ARGC HN ES       1236  9.06                             108    0.73 6  359 340 
 ARGC HZ I        1236  9.86       110.2 0.42            109            359 340 
 PRA  HZ EP     D 1235 33.18                             106   -0.52 6  392 209 
 PRA  HN ES       1236 15.29                             106   -0.06 6  392 209 
 PRA  HZ I        1236 21.65       474.4 0.38            107            392 209 
 ORTC HZ EP     C 1235 34.13                             106    0.04 6  395 216 
 ORTC HN ES       1236 16.10                             106    0.06 6  395 216 
 ORTC HZ I        1236 24.45       402.8 0.44            107            395 216 
 PAL  HZ EP       1235 36.03                             105    0.73 6  405 239 
 PAL  HN ES   4   1236 18.27                             105    0.08 0  405 239 
 SJC  HZ EP       1235 34.43                             105   -1.24 6  408 327 
 SJC  HN ES   4   1236 14.12                             105   -4.73 0  408 327 
 SJC  HZ I        1236 20.07       253.7 0.48            106            408 327 
 YOT  HZ EP     C 1235 42.68                             103   -0.54 5  472 229 
 GUA  SZ EP   4   1235 42.20                             102   -1.22 0  474 173 
 GUA  SE ES   4   1236 30.25                             102   -2.40 0  474 173 
 GUA  SZ I        1236 35.90       375.3 0.26            104            474 173 
 SOL  SZ EP       1235 43.47                             102    0.01 5  475 263 
 SOL  SZ I        1235 47.00       100.6 0.38            103            475 263 
 SMAR HZ EP       1235 45.38                             102   -0.64 4  496 346 
 SMAR HN ES   4   1236 33.74                             102   -3.54 0  496 346 
 SMAR HZ I        1236 37.84        79.9 0.46            103            496 346 
 CAP2 HN ES   4   1236 32.75                             101   -6.77 0  507 294 
 CAP2 HZ I        1236 37.73        79.0 0.36            102            507 294 
 PTA  HZ EP       1235 47.39                             101   -0.94 4  516 275 
 PTA  HZ I        1235 51.48       401.8 0.24            102            516 275 
 MACC HZ EP       1235 47.04                             101   -1.92 4  521 189 
 MACC HN ES   4   1236 38.42                             101   -4.09 0  521 189 
 MACC HZ I        1236 45.52       112.1 0.46            102            521 189 
 DABV BZ EP       1235 49.29                             101   -1.10 4  533  31 
 MAL  SZ EP     C 1235 54.91                             100    1.67 3  557 237 
 MAL  SZ I        1235 57.83       134.8 0.34            101            557 237 
 MAL  SN ES   4   1236 51.63                             100    1.50 0  557 237 
 GARC HZ EP       1235 54.41                             100   -1.07 3  573 207 
 GARC HN ES   4   1236 48.39                             100   -5.73 0  573 207 
 GARC HZ I        1236 59.79       127.5 0.24            101            573 207 
 BBAC HZ EP       1236 11.01                              97    0.57 1  697 221 
 BBAC HZ I        1236 13.63        87.3 0.22             98            697 221 
 BBAC HN ES   4   1237 17.34                              97   -3.40 0  697 221 
 CRU  SZ EP   4   1236 14.51                              97    1.59 0  716 216 
 GCUF HZ EP       1236 20.56                              96    0.63 0  773 217 
 GCUF HZ I        1236 23.06        33.2 0.38             97            773 217 
                                                                                
