 2011  714 1408 44.6 L   6.777 -73.123138.3  RSN  7 0.4 2.0LRSN                1
 GAP=158        0.83       3.6     6.3  6.7 -0.9164E+01  0.4821E+01 -0.1845E+01E
 Epicentro: LOS SANTOS - SANTANDER                                             3
 ACTION:UPD 12-07-25 14:00 OP:epov STATUS:               ID:20110714140844 L   I
 2011-07-14-1405-49S.COL___132                                                 6
 STAT SP IPHASW D HRMM SECON CODA AMPLIT PERI AZIMU VELO AIN AR TRES W  DIS CAZ7
 BAR2 SZ IP     D 14 9  3.46                             171    0.2010 21.5 198 
 BAR2 SZ ES   1   14 9 17.66                             171   -0.18 7 21.5 198 
 BAR2 SZ I        14 9 19.11        30.1 0.23                          21.5 198 
 BRR  HZ IP     C 14 9  5.37                             150    0.2510 74.6 299 
 BRR  HZ I        14 9  5.72        42.9 0.11                          74.6 299 
 BRR  HN ES   1   14 9 21.99                             150    0.85 7 74.6 299 
 RUS  HZ EP   1   14 9  7.28                             143   -0.11 7 97.9 177 
 RUS  HN ES   1   14 9 24.91                             143   -0.29 7 97.9 177 
 RUS  HZ I        14 9 26.58        10.4 0.24                          97.9 177 
 BRI  SZ EP   1   14 9  8.18                             139    0.30 7  110  19 
 BRI  SZ ES   1   14 9 26.13                             139    0.08 7  110  19 
 BRI  SZ I        14 9 28.28        12.0 0.42                           110  19 
 GRA  SZ EP       14 9  9.40                             135    0.1010  127  16 
 GRA  SZ ES   1   14 9 28.13                             135   -0.46 7  127  16 
 GRA  SZ I        14 9 30.07         9.6 0.34                           127  16 
 OCA  SZ EP   1   14 9 12.50                             127   -0.08 7  163 352 
 OCA  SZ ES   1   14 9 33.62                             127   -0.81 7  163 352 
 OCA  SZ I        14 9 36.16        14.1 0.24                           163 352 
 NOR  SZ EP   1   14 9 20.02                             117    0.08 6  235 235 
 NOR  SN ES   1   14 9 46.77                             117   -0.76 6  235 235 
                                                                                
