 2010  814 1026  9.1 L   6.758 -73.164139.1  RSN  4 0.1 1.0LRSN                1
 GAP=208        0.34       6.8    11.3  6.1  0.5146E+02 -0.1693E+02  0.5696E+01E
 Epicentro: LOS SANTOS - SANTANDER                                             3
 ACTION:UP  10-09-07 10:54 OP:vdl  STATUS:               ID:20100814102609 L   I
 2010-08-14-1023-16S.COL___111                                                 6
 STAT SP IPHASW D HRMM SECON CODA AMPLIT PERI AZIMU VELO SNR AR TRES W  DIS CAZ7
 BAR2 SZ EP       1026 27.71                             172    -0.110   18 187 
 BAR2 SZ ES   3   1026 42.19                             172    -0.3 2   18 187 
 BAR2 SZ I        1026 43.85         4.9 0.31                            18 187 
 BTL  SZ EP       1026 28.00                             171     0.110   21 327 
 BTL  SZ ES   2   1026 42.49                             171     0.0 5   21 327 
 BRR  HZ EP   2   1026 29.67                             151     0.1 5   72 303 
 BRR  HE ES   2   1026 45.46                             151    -0.1 5   72 303 
 RUS  HZ EP   1   1026 31.84                             144     0.0 7   96 175 
 RUS  HZ I        1026 32.88         0.9 0.25                            96 175 
 RUS  HN ES   3   1026 50.07                             144     0.4 2   96 175 
                                                                                
