 2014  314 1058  4.2 L   6.767 -73.159139.4  RSN  9 0.4 1.5LRSN                1
 GAP=136        0.93       2.8     4.4  6.1 -0.1621E+01  0.1224E+02 -0.1839E+01E
 Epicentro: LOS SANTOS - SANTANDER                                             3
 ACTION:UPD 14-04-09 23:17 OP:nd   STATUS:               ID:20140314105804 L   I
 OLDACT:DUP 14-03-14 18:02 OP:nd   STATUS:               ID:20140314105044d    3
 2014-03-14-1050-43M.COL___232                                                 6
 STAT SP IPHASW D HRMM SECON CODA AMPLIT PERI AZIMU VELO AIN AR TRES W  DIS CAZ7
 BAR2 SZ EP       1058 22.90                             172   -0.0510 19.5 188 
 BAR2 SZ ES       1058 37.81                             172    0.2010 19.5 188 
 BAR2 SZ I        1058 39.29        15.2 0.14            168           19.5 188 
 PAM  SZ EP       1058 25.86                             148   -0.0710 81.1  39 
 PAM  SN ES       1058 42.97                             148    0.0510 81.1  39 
 PAM  SZ I        1058 45.75         3.5 0.60            151           81.1  39 
 RUS  HZ EP       1058 26.66                             143   -0.3710 97.1 175 
 RUS  HN ES       1058 45.16                             143    0.2910 97.1 175 
 RUS  HZ I        1058 46.55         3.8 0.30            143           97.1 175 
 PTB  HZ EP       1058 30.66                             131    0.24 9  146 260 
 PTB  HZ I        1058 53.38         4.3 0.16            127            146 260 
 SPBC HZ EP       1058 31.81                             128   -0.01 9  159 219 
 SPBC HN ES       1058 52.51                             128   -0.89 9  159 219 
 SPBC HZ I        1059  0.22         4.4 0.52            126            159 219 
 ZAR  HZ EP       1058 37.09                             121    0.89 9  204 293 
 ZAR  HN ES       1059  1.20                             121    0.00 9  204 293 
 ZAR  HZ I        1059  7.69         3.1 0.26            118            204 293 
 NOR  HZ EP   2   1058 40.26                             117    1.09 4  231 235 
 NOR  HN ES       1059  6.55                             117    0.07 8  231 235 
 NOR  HZ I        1059  9.93         2.9 0.16            115            231 235 
 CHI  HZ EP       1058 41.01                             116   -0.08 8  245 195 
 CHI  HN ES       1059 10.13                             116    0.24 8  245 195 
 CHI  HZ I        1059 16.22         1.4 0.24            115            245 195 
 SML  HZ EP       1058 40.37                             116   -0.36 8  246 336 
 SML  HN ES       1059  8.85                             116   -0.40 8  246 336 
 SML  HZ I        1059 10.94         4.2 0.10            115            246 336 
                                                                                
