 2017  114 1411 59.4 L   6.793 -73.173148.6  RSN  4 0.3 1.3LRSN                1
 GAP=133        0.72       4.0     5.8  6.0 -0.1759E+00 -0.2133E+01  0.6226E+00E
 Epicentro: LOS SANTOS - SANTANDER                                             3
 ACTION:UPD 17-05-22 15:59 OP:jn   STATUS:               ID:20170114141159 L   I
 OLDACT:UP  17-01-14 21:43 OP:e    STATUS:               ID:20170114140743     3
 OLDACT:UP  17-01-14 21:43 OP:e    STATUS:               ID:20170114140743     3
 OLDACT:REG 17-01-14 19:48 OP:and  STATUS:               ID:20170114140743     3
 2017-01-14-1408-00M.COL___332                                                 6
 STAT SP IPHASW D HRMM SECON CODA AMPLIT PERI AZIMU VELO AIN AR TRES W  DIS CAZ7
 BAR2 EZ EP   2   1412 18.71                             171   -0.68 5 22.2 183 
 BAR2 EZ ES       1412 34.58                             171   -0.3710 22.2 183 
 BAR2 EZ I        1412 37.07         6.5 0.52            171           22.2 183 
 BRR  HZ EP       1412 20.45                             154   -0.3210 69.0 300 
 BRR  HN ES       1412 37.72                             154    0.3110 69.0 300 
 PAM  EZ EP       1412 22.20                             150    0.1010 79.9  41 
 PAM  EN ES       1412 39.83                             150    0.0510 79.9  41 
 PAM  EZ I        1412 41.44         3.5 0.42            151           79.9  41 
 RUS  HZ EP       1412 23.71                             144    0.2810  100 174 
 RUS  HN ES       1412 42.28                             144    0.1310  100 174 
 RUS  HZ I        1412 43.14         2.8 0.34            146            100 174 
                                                                                
