 2017 1114 1401 47.6 L   6.766 -73.152141.2  RSN 14 0.5 2.1LRSN                1
 GAP= 72        1.14       3.1     3.2  5.6 -0.1298E+00  0.4433E+01  0.9273E+00E
 Epicentro: LOS SANTOS - SANTANDER                                             3
 ACTION:UPD 17-12-12 19:55 OP:rebc STATUS:               ID:20171114140147 L   I
 OLDACT:REG 17-11-14 20:37 OP:lv   STATUS:               ID:20171114135740     3
 2017-11-14-1358-00M.COL___450                                                 6
 STAT SP IPHASW D HRMM SECON CODA AMPLIT PERI AZIMU VELO AIN AR TRES W  DIS CAZ7
 BAR2 EZ EP       14 2  6.60                             172   -0.0510 19.5 190 
 BAR2 EZ ES       14 2 21.11                             172   -0.3610 19.5 190 
 BAR2 EZ I        14 2 22.48        41.2 0.26            170           19.5 190 
 BRR  HZ IP     C 14 2  8.51                             151    0.1410 72.5 301 
 BRR  HN ES       14 2 25.49                             151    0.9510 72.5 301 
 BRR  HZ I        14 2 26.47        39.9 0.22            150           72.5 301 
 PAM  EZ IP     D 14 2  9.47                             149   -0.1110 80.7  38 
 PAM  EN ES       14 2 26.47                             149   -0.2210 80.7  38 
 PAM  EZ I        14 2 29.10        19.1 0.34            152           80.7  38 
 RUS  HZ EP       14 2 10.65                             144   -0.0310 96.9 176 
 RUS  HN ES       14 2 28.82                             144    0.1710 96.9 176 
 RUS  HZ I        14 2 30.10         9.2 0.28            144           96.9 176 
 PTB  HZ EP       14 2 13.22                             131   -0.90 9  146 260 
 PTB  HN ES       14 2 34.19                             131   -0.57 9  146 260 
 PTB  HZ I        14 2 36.63        20.9 0.14            131            146 260 
 TAM  HZ IP     D 14 2 14.95                             130    0.01 9  155 104 
 TAM  HN ES       14 2 36.21                             130   -0.01 9  155 104 
 ZAR  HZ EP       14 2 19.92                             121    0.04 9  205 293 
 ZAR  HN ES       14 2 45.89                             121    0.87 9  205 293 
 ZAR  HZ I        14 2 53.32        21.2 0.32            121            205 293 
 NOR  HZ EP       14 2 22.73                             118   -0.09 8  232 235 
 NOR  HN ES       14 2 50.17                             118   -0.08 8  232 235 
 NOR  HZ I        14 2 55.88        11.5 0.20            118            232 235 
 CHI  HZ EP       14 2 24.76                             117    0.08 8  245 195 
 CHI  HN ES       14 2 53.67                             117    0.10 8  245 195 
 CHI  HZ I        14 3  0.18         4.1 0.64            117            245 195 
 URE  HZ EP       14 2 27.77                             113   -0.81 7  285 293 
 URE  HN ES       14 2 59.62                             113   -0.89 7  285 293 
 URE  HZ I        14 3  6.96        11.3 0.22            113            285 293 
 DRL03HZ EP       14 2 30.38                             112    0.94 7  293 353 
 DRL03HN ES       14 3  1.91                             112   -0.14 7  293 353 
 DRL03HZ I        14 3  6.63         7.4 0.72                           293 353 
 GUY2CHZ EP   4   14 2 32.44                             112    1.70 0  298 235 
 GUY2CHN ES       14 3  4.91                             112    0.56 7  298 235 
 GUY2CHZ I        14 3 11.55         8.5 0.30                           298 235 
 PRA  HZ EP       14 2 41.30                             106    0.71 6  388 210 
 PRA  HN ES       14 3 22.13                             106    0.24 6  388 210 
 PRA  HZ I        14 3 28.44         5.5 0.22            106            388 210 
 SJC  HZ EP   4   14 2 40.83                             105   -2.55 0  412 327 
 SJC  HN ES   4   14 3 22.09                             105   -4.77 0  412 327 
 SJC  HZ I        14 3 25.81         2.9 0.48            105            412 327 
                                                                                
