 2010 1114 1429 28.1 L   6.788 -73.112146.2  RSN  5 0.4 1.6LRSN                1
 GAP=163        0.75       4.5     7.6  8.8 -0.6025E+01  0.2169E+01  0.3474E+01E
 Epicentro: LOS SANTOS - SANTANDER                                             3
 ACTION:UP  10-12-17 16:52 OP:REBC STATUS:               ID:20101114142928 L   I
 2010-11-14-1426-35S.COL___128                                                 6
 STAT SP IPHASW D HRMM SECON CODA AMPLIT PERI AZIMU VELO SNR AR TRES W  DIS CAZ7
 BAR2 SZ EP   2   1429 47.38                             170    -0.4 5   23 200 
 BAR2 SZ ES   2   1430  2.64                             170    -0.4 5   23 200 
 BRR  HZ EP   1   1429 49.51                             151     0.0 7   75 298 
 BRR  HE ES   1   1430  6.59                             151     0.4 7   75 298 
 BRR  HZ I        1430  8.17         9.5 0.16                            75 298 
 RUS  HZ EP   1   1429 51.97                             144     0.2 7   99 178 
 RUS  HN ES   1   1430 10.41                             144     0.2 7   99 178 
 RUS  HZ I        1430 11.75         4.7 0.35                            99 178 
 GRA  SZ EP   2   1429 54.04                             137     0.7 5  126  16 
 GRA  SZ ES   1   1430 12.57                             137    -0.5 7  126  16 
 GRA  SZ I        1430 18.93         4.6 0.27                           126  16 
 NOR  SZ EP   2   1430  3.83                             118    -0.2 4  237 235 
 NOR  SN ES   2   1430 31.42                             118    -0.7 4  237 235 
                                                                                
