 2015  314 1018 49.0 L   6.777 -73.185143.7  RSN  5 0.3 1.2LRSN                1
 GAP=231        0.66       5.3     5.9  6.6  0.9122E+01  0.7874E+01  0.5265E+01E
 Epicentro: LOS SANTOS - SANTANDER                                             3
 ACTION:UPD 15-04-30 16:25 OP:nd   STATUS:               ID:20150314101849 L   I
 OLDACT:REG 15-03-14 20:22 OP:spq  STATUS:               ID:20150314101749     3
 2015-03-14-1017-49M.COL___275                                                 6
 STAT SP IPHASW D HRMM SECON CODA AMPLIT PERI AZIMU VELO AIN AR TRES W  DIS CAZ7
 BAR2 EZ ES   1   1019 23.02                             172   -0.35 7 20.4 179 
 BAR2 EZ I        1019 24.03         3.5 0.16            164           20.4 179 
 BRR  HZ EP   1   1019  9.72                             153   -0.04 7 68.7 302 
 BRR  HN ES   1   1019 26.42                             153    0.45 7 68.7 302 
 BRR  HZ I        1019 27.40         5.8 0.23            150           68.7 302 
 RUS  HZ EP   1   1019 12.26                             144   -0.11 7 98.5 173 
 RUS  HN ES   1   1019 30.76                             144    0.14 7 98.5 173 
 RUS  HZ I        1019 32.12         1.2 0.40            142           98.5 173 
 PTB  HZ EP   1   1019 15.60                             132    0.26 7  143 259 
 PTB  HN ES   1   1019 35.32                             132   -0.59 7  143 259 
 PTB  HZ I        1019 40.73         1.7 0.18            130            143 259 
 SPBC HZ EP   1   1019 16.69                             129   -0.17 7  158 218 
 SPBC HE ES   1   1019 39.03                             129    0.41 7  158 218 
 SPBC HZ I        1019 44.04         2.4 0.26            127            158 218 
                                                                                
