 2013  414 1513 30.6 L   6.753 -73.158144.0  RSN  5 0.5 1.4LRSN                1
 GAP=181        1.07       8.6     8.9  9.4  0.2571E+02  0.1713E+02  0.1911E+02E
 Epicentro: LOS SANTOS - SANTANDER                                             3
 ACTION:UPD 13-05-22 14:38 OP:EP   STATUS:               ID:20130414151330 L   I
 2013-04-14-1508-50M.COL___206                                                 6
 STAT SP IPHASW D HRMM SECON CODA AMPLIT PERI AZIMU VELO AIN AR TRES W  DIS CAZ7
 BAR2 SZ EP   1   1513 49.79                             173   -0.18 7 17.9 189 
 BAR2 SZ ES   1   1514  5.15                             173    0.11 7 17.9 189 
 BAR2 SZ I        1514  6.01         7.3 0.16            167           17.9 189 
 GIR2 SZ EP   1   1513 50.04                             165   -0.22 7 36.3 354 
 GIR2 SZ ES   1   1514  4.65                             165   -0.90 7 36.3 354 
 GIR2 SZ I        1514  5.77         4.8 0.26            172           36.3 354 
 BRR  HZ EP   1   1513 51.90                             152    0.21 7 72.7 303 
 BRR  HN ES       1514  8.83                             152    0.7310 72.7 303 
 BRR  HZ I        1514  9.56         7.3 0.26            154           72.7 303 
 RUS  HZ EP   1   1513 54.62                             145    0.76 7 95.5 175 
 RUS  HE ES   1   1514 11.86                             145   -0.11 7 95.5 175 
 RUS  HZ I        1514 16.90         1.5 0.44            143           95.5 175 
 PTB  HZ EP       1513 56.88                             132   -0.38 9  145 261 
 PTB  HN ES   1   1514 17.60                             132   -0.42 7  145 261 
 PTB  HZ I        1514 20.11         3.5 0.10            133            145 261 
                                                                                
