 2012  214 1151 29.7 L   6.772 -73.158149.6  RSN  6 0.4 1.9LRSN                1
 GAP=136        0.74       5.1     4.9  7.1  0.3549E+01  0.7553E+01  0.1778E+00E
 ACTION:UP  12-03-07 16:30 OP:epov STATUS:               ID:20120214115129 L   I
 2012-02-14-1150-00M.COL___187                                                 6
 STAT SP IPHASW D HRMM SECON CODA AMPLIT PERI AZIMU VELO AIN AR TRES W  DIS CAZ7
 BAR2 SZ EP   1   1151 49.72                             172   -0.05 7 20.0 188 
 BAR2 SZ ES   1   1152  5.33                             172   -0.06 7 20.0 188 
 BAR2 SZ I        1152  6.42        17.1 0.17                          20.0 188 
 BRR  HZ EP       1151 51.63                             153    0.3010 71.6 301 
 BRR  HZ I        1151 51.83        29.0 0.19                          71.6 301 
 BRR  HE ES   1   1152  8.79                             153    0.63 7 71.6 301 
 PAM  SZ EP   1   1151 52.86                             150    0.30 7 80.6  39 
 PAM  SE ES   1   1152  9.72                             150   -0.63 7 80.6  39 
 RUS  HZ EP   1   1151 53.78                             145    0.12 7 97.6 175 
 RUS  HN ES   1   1152 12.26                             145   -0.05 7 97.6 175 
 RUS  HZ I        1152 13.55         5.8 0.27                          97.6 175 
 PTB  HZ EP   1   1151 56.39                             133   -0.47 7  146 260 
 PTB  HE ES   2   1152 17.66                             133   -0.34 5  146 260 
 ZAR  HE ES   1   1152 27.57                             123   -0.36 6  204 293 
 ZAR  HZ I        1152 33.68         5.1 0.27                           204 293 
                                                                                
