 2014  614 1058 49.4 L   6.826 -73.135140.0  RSN 14 0.4 2.0LRSN                1
 GAP=184        0.85       2.7     4.3  5.9  0.4714E+00  0.5882E+01 -0.2202E+01E
 Epicentro: LOS SANTOS - SANTANDER                                             3
 ACTION:UPD 14-07-01 22:53 OP:nd   STATUS:               ID:20140614105849 L   I
 OLDACT:REG 14-06-14 20:58 OP:fm   STATUS:               ID:20140614105817     3
 2014-06-14-1058-17M.COL___256                                                 6
 STAT SP IPHASW D HRMM SECON CODA AMPLIT PERI AZIMU VELO AIN AR TRES W  DIS CAZ7
 BAR2 SZ EP       1059  8.08                             169   -0.2910 26.4 192 
 BAR2 SZ ES   1   1059 23.11                             169   -0.08 7 26.4 192 
 BAR2 SZ I        1059 26.13        15.7 0.24            166           26.4 192 
 RUS  HZ EP       1059 13.25                             142    0.4910  103 177 
 RUS  HN ES       1059 31.18                             142    0.1710  103 177 
 RUS  HZ I        1059 33.14         9.6 0.30            143            103 177 
 PTB  HZ EP       1059 15.67                             130   -0.36 9  150 258 
 PTB  HN ES       1059 36.47                             130   -0.36 9  150 258 
 PTB  HZ I        1059 38.02         9.5 0.16            129            150 258 
 OCA  HE ES   1   1059 38.44                             129   -0.07 7  158 353 
 OCA  HZ I        1059 45.67        13.3 0.44            131            158 353 
 SPBC HZ EP       1059 17.73                             127    0.01 9  166 219 
 SPBC HN ES       1059 39.57                             127   -0.26 9  166 219 
 SPBC HZ I        1059 45.82        13.7 0.26            127            166 219 
 ZAR  HZ EP       1059 21.39                             121   -0.05 9  204 291 
 ZAR  HN ES       1059 46.96                             121    0.49 9  204 291 
 ZAR  HZ I        1059 54.51         7.8 0.26            121            204 291 
 NOR  HZ EP       1059 25.39                             117    0.34 8  237 234 
 NOR  HN ES       1059 53.40                             117    0.51 8  237 234 
 NOR  HZ I        1059 55.84         8.6 0.18            117            237 234 
 SML  HZ EP       1059 25.07                             116   -0.37 8  242 335 
 SML  HN ES       1059 53.78                             116    0.20 8  242 335 
 SML  HZ I        1059 56.36        14.0 0.12            118            242 335 
 HEL  HN ES   4   1059 58.04                             113   -2.77 0  274 255 
 HEL  HZ I        11 0  7.23         5.8 0.40            114            274 255 
 GUY2CHZ EP   4   1059 34.70                             111    1.69 0  304 234 
 GUY2CHE ES   4   11 0  8.14                             111    1.08 0  304 234 
 GUY2CHZ I        11 0 13.12         4.3 0.46                           304 234 
 RREF HN ES   4   11 0 14.03                             109    2.40 0  325 229 
 RREF HZ I        11 0 22.76         4.2 0.30            110            325 229 
 TOL  SZ EP   1   1059 38.66                             108    0.93 5  346 224 
 TOL  SN ES   1   11 0 14.57                             108   -0.88 5  346 224 
 TOL  SZ I        11 0 24.20         7.3 0.64            109            346 224 
 PRA  HZ EP       1059 42.38                             105   -0.67 6  395 210 
 PRA  HN ES   4   11 0 23.37                             105   -1.56 0  395 210 
 PRA  HZ I        11 0 32.65         3.1 0.22            107            395 210 
 SJC  HZ EP   4   1059 42.23                             105   -2.30 0  407 327 
 SJC  HN ES   4   11 0 20.40                             105   -7.17 0  407 327 
 SJC  HZ I        11 0 25.19         2.0 0.38            106            407 327 
                                                                                
