 2014  214 1615  4.9 L   6.768 -73.139143.2  RSN  4 0.4 1.6LRSN                1
 GAP=139        0.78       5.2     5.1  8.6 -0.2922E+01  0.6997E+00  0.5564E+01E
 Epicentro: LOS SANTOS - SANTANDER                                             3
 ACTION:UPD 14-03-10 08:10 OP:ep   STATUS:               ID:20140214161504 L   I
 OLDACT:REG 14-02-14 15:19 OP:mh   STATUS:               ID:20140214161000     3
 2014-02-14-1610-00M.COL___291                                                 6
 STAT SP IPHASW D HRMM SECON CODA AMPLIT PERI AZIMU VELO AIN AR TRES W  DIS CAZ7
 BRR  HZ EP       1615 26.17                             151    0.2310 73.6 301 
 BRR  HN ES   1   1615 42.63                             151    0.30 7 73.6 301 
 BRR  HZ I        1615 45.81         8.8 0.32            154           73.6 301 
 PAM  SZ EP       1615 27.21                             149    0.1910 79.7  38 
 PAM  SN ES   1   1615 43.72                             149   -0.52 7 79.7  38 
 PAM  SZ I        1615 46.76         7.2 0.72            152           79.7  38 
 RUS  HZ EP       1615 28.35                             144    0.1810 97.0 176 
 RUS  HN ES   1   1615 46.21                             144   -0.09 7 97.0 176 
 RUS  HZ I        1615 48.28         6.7 0.16            148           97.0 176 
 PTB  HZ EP   1   1615 30.87                             131   -0.83 7  148 260 
 PTB  HN ES   1   1615 52.55                             131   -0.03 7  148 260 
 PTB  HZ I        1615 53.15         5.5 0.22            136            148 260 
                                                                                
