 2017  114 1153  8.2 L   6.839 -73.143148.6  RSN 27 0.6 2.8LRSN                1
 GAP= 65        1.11       3.4     3.1  5.0 -0.1055E+01  0.4659E+01  0.7887E+00E
 Epicentro: LOS SANTOS - SANTANDER                                             3
 ACTION:UPD 17-05-22 15:59 OP:jn   STATUS:               ID:20170114115308 L   I
 OLDACT:UP  17-01-14 21:24 OP:e    STATUS:               ID:20170114114744d    3
 OLDACT:UP  17-01-14 21:21 OP:e    STATUS:               ID:20170114114744d    3
 OLDACT:UP  17-01-14 21:19 OP:e    STATUS:               ID:20170114114744d    3
 OLDACT:UP  17-01-14 21:19 OP:e    STATUS:               ID:20170114114744d    3
 OLDACT:UP  17-01-14 21:17 OP:e    STATUS:               ID:20170114114744d    3
 OLDACT:DUP 17-01-14 21:13 OP:e    STATUS:               ID:20170114114744d    3
 OLDACT:UP  17-01-14 21:13 OP:e    STATUS:               ID:20170114114743     3
 OLDACT:REG 17-01-14 19:37 OP:and  STATUS:               ID:20170114114743     3
 2017-01-14-1148-00M.COL___329                                                 6
 STAT SP IPHASW D HRMM SECON CODA AMPLIT PERI AZIMU VELO AIN AR TRES W  DIS CAZ7
 BAR2 EZ IP     C 1153 28.19                             169   -0.0310 27.6 189 
 BAR2 EZ ES       1153 43.20                             169   -0.6710 27.6 189 
 BAR2 EZ I        1153 46.10       222.4 0.34            164           27.6 189 
 BRR  HZ IP     C 1153 30.02                             153    0.5010 69.5 295 
 BRR  HE ES       1153 47.22                             153    1.0410 69.5 295 
 BRR  HZ I        1153 51.32       123.4 0.16            150           69.5 295 
 PAM  EZ IP     C 1153 31.01                             152    0.5310 73.9  41 
 PAM  EN ES       1153 47.92                             152    0.0410 73.9  41 
 PAM  EZ I        1153 50.44       249.2 0.50            156           73.9  41 
 RUS  HZ EP       1153 32.21                             143   -0.2910  105 176 
 RUS  HN ES       1153 50.82                             143   -0.6610  105 176 
 RUS  HZ I        1153 52.15       159.5 0.32            140            105 176 
 PTB  HZ EP       1153 34.93                             132   -0.54 9  149 257 
 PTB  HN ES       1153 55.97                             132   -0.79 9  149 257 
 PTB  HZ I        1154  1.05        75.0 0.22            129            149 257 
 TAM  HZ IP     C 1153 36.62                             131    0.47 9  156 107 
 TAM  HN ES       1153 58.25                             131    0.28 9  156 107 
 TAM  HZ I        1153 59.58        24.6 0.36            132            156 107 
 ZAR  HZ EP       1153 40.80                             123    0.14 9  203 291 
 ZAR  HN ES       1154  6.19                             123    0.19 9  203 291 
 ZAR  HZ I        1154 11.93        77.0 0.32            121            203 291 
 CHI  HZ EP       1153 46.09                             117   -0.39 8  253 195 
 CHI  HN ES   2   1154 15.55                             117   -0.81 4  253 195 
 CHI  HZ I        1154 25.66        43.0 0.40            115            253 195 
 ROSC BZ EP   2   1153 47.93                             117    1.07 4  257 211 
 ROSC BN ES       1154 17.12                             117    0.08 8  257 211 
 ROSC BZ I        1154 26.41        62.4 0.50            115            257 211 
 URE  HZ EP       1153 48.59                             114   -0.64 7  283 291 
 URE  HN ES   4   1154 19.08                             114   -2.17 0  283 291 
 URE  HZ I        1154 30.06        54.4 0.28            113            283 291 
 GUY2CHZ EP   9   1153 53.51                             113    1.30 0  304 234 
 GUY2CHN ES       1154 27.43                             112   -0.44 7  304 234 
 GUY2CHZ  IAML    1154 34.22        48.1 0.34                           304 234 
 PTGC HZ EP   3   1153 51.34                             112   -1.25 2  313 159 
 PTGC HN ES   4   1154 24.20                             112   -3.04 0  313 159 
 PTGC HZ I        1154 29.68        65.4 0.34            111            313 159 
 LL6C HZ EP   9   1153 34.84                             111   -18.7 0  321 357 
 LL6C HN ES   3   1154  8.36                                   -1.84 2  321 357 
 LL6C HZ I        1154 17.21        16.1 0.58            111            321 357 
 ELA  HZ EP   3   1153 57.14                             110    1.66 2  332 229 
 ELA  HN ES       1154 32.68                             110    0.29 7  332 229 
 ELA  HZ I        1154 47.70        29.0 0.48            109            332 229 
 CBOC HZ EP       1153 55.96                             110    0.58 7  335 251 
 CBOC HN ES       1154 32.69                             110    0.48 7  335 251 
 DBB  EZ EP       1153 55.55                             110   -0.21 7  339 274 
 DBB  EZ ES   4   1154 29.48                             110   -3.40 0  339 274 
 DBB  EZ I        1154 33.31        18.1 0.24            108            339 274 
 ARGC HZ EP   4   1154  0.52                             109    3.05 0  355 340 
 ARGC HN ES   4   1154 37.65                             109    1.72 0  355 340 
 ARGC HZ I        1154 50.31        16.7 0.30            108            355 340 
 ORTC HZ EP       1154  2.34                             107   -0.27 6  399 216 
 ORTC HN ES       1154 45.90                             107    0.83 6  399 216 
 ORTC HZ I        1154 51.40        27.0 0.36            105            399 216 
 SJC  HZ EP       1154  2.49                             106   -0.92 6  406 327 
 SJC  HN ES   4   1154 43.45                             106   -3.06 0  406 327 
 SJC  HZ I        1154 49.87        12.8 0.28            106            406 327 
 PAL  HZ EP       1154  3.97                             106    0.26 6  408 239 
 PAL  HN ES       1154 47.66                             106    0.63 6  408 239 
 PAL  HZ I        1154 49.82        16.6 0.22            105            408 239 
 CRJC HZ EP   3   1154  8.59                             104   -1.64 1  463   4 
 CRJC HN ES       1154 57.17                             104   -1.47 5  463   4 
 CRJC HZ I        1154 59.42        18.9 0.24            104            463   4 
 YOT  HZ EP   4   1154 13.03                             103    1.38 0  475 228 
 YOT  HZ I        1155  7.77         3.6 0.22            102            475 228 
 SMAR HZ EP       1154 13.69                             103    0.07 4  493 346 
 SMAR HN ES   4   1155  2.01                             103   -2.66 0  493 346 
 SMAR HZ I        1155  4.69        11.4 0.10            102            493 346 
 URI  HZ EP   4   1154 18.64                             101   -2.08 0  552  13 
 URI  HN ES   4   1155 13.97                             101   -3.34 0  552  13 
 URI  HZ I        1155 17.67         2.6 0.30            101            552  13 
 GARC HZ EP   4   1154 22.22                             100   -1.74 0  577 207 
 CONO HZ EP       1154 29.50                             100    0.47 3  616 216 
 FLO2 HZ EP       1154 31.13                              99   -0.69 2  644 206 
 SOTO HZ EP   4   1154 33.72                              99    1.04 0  647 217 
 SOTO HN ES       1155 38.17                              99   -0.43 2  647 217 
                                                                                
