 2014 1214 1357 48.9 L   6.788 -73.189141.6  RSN  9 0.3 2.0LRSN                1
 GAP=132        0.66       2.1     2.8  4.3 -0.4068E+00  0.4067E+01  0.1001E+01E
 Epicentro: ZAPATOCA - SANTANDER                                               3
 ACTION:UPD 15-02-10 17:03 OP:nd   STATUS:               ID:20141214135748 L   I
 OLDACT:REG 14-12-14 20:41 OP:fm   STATUS:               ID:20141214134744     3
 2014-12-14-1347-44M.COL___284                                                 6
 STAT SP IPHASW D HRMM SECON CODA AMPLIT PERI AZIMU VELO AIN AR TRES W  DIS CAZ7
 BAR2 EZ EP       1358  8.30                             171    0.2710 21.7 178 
 BAR2 EZ ES       1358 23.23                             171    0.3110 21.7 178 
 BAR2 EZ I        1358 26.42        14.6 0.24            170           21.7 178 
 PAM  SZ EP     C 1358 11.01                             149    0.0510 81.5  42 
 PAM  SE ES       1358 28.10                             149   -0.0410 81.5  42 
 PAM  SZ I        1358 30.75        17.6 0.62            155           81.5  42 
 RUS  HZ EP       1358 12.17                             143   -0.0410 99.7 173 
 RUS  HE ES       1358 30.01                             143   -0.3610 99.7 173 
 RUS  HZ I        1358 32.02         8.9 0.22            146           99.7 173 
 PTB  HZ EP       1358 15.20                             132    0.09 9  143 259 
 PTB  HN ES       1358 35.27                             132   -0.26 9  143 259 
 PTB  HZ I        1358 40.35        11.0 0.12            132            143 259 
 SPBC HZ EP       1358 16.35                             129   -0.38 9  159 218 
 SPBC HN ES       1358 38.61                             129    0.20 9  159 218 
 SPBC HZ I        1358 43.28        22.5 0.40            130            159 218 
 ZAR  HN ES       1358 45.59                             122    0.11 9  200 293 
 ZAR  HZ I        1358 54.92        10.2 0.32            123            200 293 
 SML  HN ES       1358 53.30                             117   -0.27 8  243 336 
 CHI  HZ EP       1358 25.89                             116   -0.24 8  246 194 
 CHI  HN ES       1358 55.18                             116    0.04 8  246 194 
 CHI  HZ I        1359  1.22         3.2 0.34            119            246 194 
 HEL  HZ EP   4   1358 32.09                             114    3.71 0  267 256 
 TOL  SZ EP       1358 37.32                             109    0.80 7  339 224 
 TOL  SE ES       1359 13.60                             109   -0.05 7  339 224 
 TOL  SZ I        1359 20.64         8.8 0.34            111            339 224 
 SJC  HE ES   4   1359 23.60                             105   -3.68 0  408 328 
                                                                                
