 2016  214 1358 27.2 L   6.830 -73.212130.9  RSN  5 0.5 1.6LRSN                1
 GAP=299        0.67      13.3    12.3  8.8 -0.3410E+02  0.5353E+02  0.3256E+02E
 Epicentro: ZAPATOCA - SANTANDER                                               3
 ACTION:UPD 16-03-04 21:26 OP:rebc STATUS:               ID:20160214135827 L   I
 OLDACT:UP  16-02-15 01:01 OP:dnl  STATUS:               ID:20160214135747     3
 OLDACT:REG 16-02-14 20:57 OP:dnl  STATUS:               ID:20160214135747     3
 2016-02-14-1357-47M.COL___304                                                 6
 STAT SP IPHASW D HRMM SECON CODA AMPLIT PERI AZIMU VELO AIN AR TRES W  DIS CAZ7
 BAR2 EZ EP   3   1358 45.27                             168    0.14 2 26.5 173 
 BAR2 EZ ES       1358 59.09                             168   -0.0210 26.5 173 
 BAR2 EZ I        1359  2.14        20.3 0.22            162           26.5 173 
 RUS  HZ EP   2   1358 49.44                             139   -0.40 5  105 172 
 RUS  HN ES   2   1359  8.26                             139    0.76 5  105 172 
 RUS  HZ I        1359  9.70         4.2 0.26            139            105 172 
 SPBC HZ EP   2   1358 54.30                             126   -0.13 5  161 216 
 SPBC HE ES   2   1359 14.80                             126   -0.86 5  161 216 
 SPBC HZ I        1359 18.31         6.3 0.11            125            161 216 
 NOR  HZ EP   2   1359  2.61                             116    0.92 4  231 233 
 NOR  HN ES   3   1359 29.30                             116    0.72 2  231 233 
 NOR  HZ I        1359 33.31         3.5 0.18            116            231 233 
 CHI  HZ EP   2   1359  3.92                             114   -0.36 4  250 193 
 CHI  HE ES   4   1359 30.10                             114   -3.10 0  250 193 
 CHI  HZ I        1359 36.57         1.6 0.46            115            250 193 
                                                                                
