 2013  914 1352 54.9 L   6.710 -73.203143.0  RSN  5 0.3 1.7LRSN                1
 GAP=222        0.76       5.9     5.6  7.2  0.1993E+02  0.5761E+01 -0.2019E+01E
 Epicentro: VILLANUEVA - SANTANDER                                             3
 ACTION:UPD 13-10-22 09:22 OP:ep   STATUS:               ID:20130914135254 L   I
 OLDACT:UP  13-09-14 15:36 OP:cam  STATUS:               ID:20130914134959     3
 OLDACT:REG 13-09-14 14:40 OP:cam  STATUS:               ID:20130914134959     3
 2013-09-14-1349-59M.COL___269                                                 6
 STAT SP IPHASW D HRMM SECON CODA AMPLIT PERI AZIMU VELO AIN AR TRES W  DIS CAZ7
 BAR2 SZ EP   1   1353 14.02                             174   -0.01 7 13.3 170 
 BAR2 SZ ES   1   1353 28.33                             174   -0.63 7 13.3 170 
 BAR2 SZ I        1353 29.79        22.9 0.20            169           13.3 170 
 BRR  HZ EP       1353 15.46                             152   -0.3010 71.3 308 
 BRR  HN ES       1353 32.43                             152    0.4010 71.3 308 
 RUS  HZ EP   1   1353 18.13                             146    0.40 7 91.4 172 
 RUS  HN ES       1353 35.72                             146    0.1810 91.4 172 
 RUS  HZ I        1353 37.87         5.7 0.40            144           91.4 172 
 PTB  HZ EP   1   1353 20.62                             133   -0.31 7  140 262 
 PTB  HN ES       1353 41.08                             133   -0.15 9  140 262 
 PTB  HZ I        1353 45.13         6.8 0.24            132            140 262 
 ZAR  HN ES       1353 52.17                             122    0.18 9  202 295 
                                                                                
