 2014 1114 1122  6.1 L   6.836 -73.171154.2  RSN 30 0.6 3.7LRSN                1
 GAP= 69        1.20       2.8     3.4  4.9 -0.7075E+00  0.3641E+01  0.1817E+00E
 Epicentro: ZAPATOCA - SANTANDER                                               3
      58.0      20.0      68.0 15.0  4.0 20.0  0.0  0.1           RSN FPFIT    F
 ACTION:UPD 14-12-19 15:42 OP:nd   STATUS:               ID:20141114112206 L   I
 OLDACT:UP  14-11-14 21:55 OP:cam  STATUS:               ID:20141114111819     3
 OLDACT:UP  14-11-14 21:55 OP:cam  STATUS:               ID:20141114111819     3
 OLDACT:UP  14-11-14 21:53 OP:cam  STATUS:               ID:20141114111819     3
 OLDACT:UP  14-11-14 21:52 OP:cam  STATUS:               ID:20141114111819     3
 OLDACT:REG 14-11-14 19:44 OP:cam  STATUS:               ID:20141114111819     3
 2014-11-14-1118-19M.COL___274                                                 6
 STAT SP IPHASW D HRMM SECON CODA AMPLIT PERI AZIMU VELO AIN AR TRES W  DIS CAZ7
 BAR2 SZ IP       1122 27.01                             170    0.1710 27.0 183 
 BAR2 SZ ES       1122 42.28                             170   -0.7210 27.0 183 
 BAR2 SZ I        1122 44.74      1250.0 0.28            167           27.0 183 
 BRR  HZ EP       1122 28.81                             155    0.8510 66.8 297 
 BRR  HN ES       1122 46.14                             155    1.1510 66.8 297 
 BRR  HZ I        1122 48.38       611.4 0.16            151           66.8 297 
 PAM  SZ IP     C 1122 29.77                             153    0.5910 76.2  43 
 PAM  SN ES       1122 47.18                             153    0.0210 76.2  43 
 PAM  SZ I        1122 48.95      1042.7 0.22            150           76.2  43 
 RUS  HZ IP     D 1122 30.81                             144   -0.2010  105 175 
 RUS  HN ES       1122 49.52                             144   -0.9010  105 175 
 RUS  HZ I        1122 50.84       454.9 0.42            140            105 175 
 PTB  HZ EP       1122 33.47                             134   -0.15 9  146 257 
 PTB  HN ES       1122 54.56                             134   -0.51 9  146 257 
 PTB  HZ I        1123  0.76      1040.8 0.22            129            146 257 
 OCA  HZ EP       1122 34.94                             132    0.23 9  156 354 
 OCA  HN ES       1122 56.75                             132   -0.26 9  156 354 
 TAM  HZ IP     D 1122 35.17                             132    0.34 9  159 106 
 TAM  HZ I        1122 55.96       528.5 0.36            128            159 106 
 TAM  HN ES       1122 56.96                             132   -0.25 9  159 106 
 SPBC HZ EP       1122 35.85                             131    0.44 9  165 217 
 SPBC HN ES       1122 58.64                             131    0.38 9  165 217 
 SPBC HZ I        1123  5.04      1310.5 0.36            125            165 217 
 NOR  HZ EP       1122 42.75                             120    0.39 8  235 233 
 NOR  HN ES       1123 11.46                             120    0.83 8  235 233 
 NOR  HZ I        1123 14.70       561.8 0.66            115            235 233 
 CHI  HZ EP     D 1122 44.62                             118   -0.02 8  252 194 
 CHI  HN ES       1123 14.10                             118   -0.58 8  252 194 
 CHI  HZ I        1123 20.18       237.1 0.34            114            252 194 
 CVER SZ EP       1122 47.09                             116   -0.13 8  275 201 
 URE  HZ EP       1122 46.86                             115   -0.30 7  280 291 
 URE  HN ES       1123 17.80                             115   -1.37 7  280 291 
 URE  HZ I        1123 27.77       376.9 0.24            111            280 291 
 PTGC HZ EP   4   1122 49.74                             113   -1.16 0  313 158 
 PTGC HN ES   4   1123 23.26                             113   -2.57 0  313 158 
 CRECREZ EP   4   1122 48.66                             113   -3.49 0  318 229 
 CRECREN ES   4   1123 25.25                             113   -2.81 0  318 229 
 CBOC HZ EP   4   1122 54.26                             111    1.02 0  332 251 
 CBOC HZ I        1123 40.06       109.2 0.40            108            332 251 
 DBB  SZ EP   4 C 1122 54.46                             111    0.86 0  336 274 
 DBB  SZ ES   4   1123 24.32                             111   -6.31 0  336 274 
 TOL  SZ EP       1122 55.44                             111    0.61 7  344 224 
 TOL  SN ES   4   1123 34.11                             111    1.28 0  344 224 
 MON  HZ EP       1122 54.07                             110   -0.86 6  349 308 
 MON  HE ES       1123 33.14                             110    0.15 6  349 308 
 MON  HZ I        1123 35.25       157.3 0.42            107            349 308 
 ARGC HZ EP   4   1122 56.99                             110    1.42 0  354 341 
 ARGC HN ES       1123 34.43                             110    0.29 6  354 341 
 ARGC HZ I        1123 43.88       137.7 0.24            106            354 341 
 ANIL HZ EP   4   1122 57.45                             110    1.08 0  358 224 
 ANIL HN ES   4   1123 37.56                             110    2.00 0  358 224 
 ANIL HZ I        1123 41.09        83.6 0.36            106            358 224 
 SDV  BZ EP     C 1122 56.14                             110   -0.32 6  360  51 
 SDV  BN ES   4   1123 34.04                             110   -1.67 0  360  51 
 PRA  HZ EP       1122 59.94                             108   -0.25 6  394 209 
 PRA  HN ES       1123 42.06                             108   -0.31 6  394 209 
 PRA  HZ I        1123 48.47       330.9 0.60            104            394 209 
 ORTC HZ EP       1123  1.02                             108    0.49 6  397 215 
 ORTC HN ES   4   1123 44.17                             108    1.21 0  397 215 
 ORTC HZ I        1123 51.64       214.5 0.62            104            397 215 
 SJC  HZ EP     D 1123  0.67                             107   -0.73 6  404 327 
 SJC  HN ES   4   1123 41.79                             107   -2.73 0  404 327 
 SJC  HZ I        1123 54.92        92.5 0.34            104            404 327 
 CVALLEZ EP       1123  0.72                             107   -0.86 6  406 359 
 YOT  HZ EP     D 1123  9.57                             104    0.10 5  472 228 
 SOL  SZ EP   4   1123 10.86                             104    1.43 0  473 262 
 SMAR HZ EP       1123 11.45                             104   -0.23 4  492 346 
 CAP2 HZ EP   4   1123 10.93                             103   -2.08 0  503 294 
 PIZC HZ EP   4   1123 15.11                             103    1.62 0  508 246 
 BET  SZ EP       1123 14.82                             103   -0.05 4  519 209 
 MACC HZ EP   4 D 1123 13.47                             103   -2.00 0  524 188 
 MACC HN ES   4   1124  3.92                             103   -5.64 0  524 188 
 MACC HN I        1124 27.20       115.1 0.30            100            524 188 
 MARA HZ EP       1123 17.55                             102    0.00 4  539 215 
 URI  HZ EP   4   1123 17.11                             102   -1.83 0  553  13 
 MAL  SZ EP   4   1123 21.12                             102    1.75 0  557 236 
 GARC HZ EP   4   1123 20.78                             101   -1.06 0  575 207 
 PCON HZ EP       1123 27.68                             100    0.82 3  614 216 
 POP2 HZ EP       1123 26.62                             100    0.15 3  614 219 
 SOTA HN EP   4   1123 32.45                             100    1.95 0  645 216 
 GCUF HZ EP       1123 46.67                              98    0.55 0  774 217 
                                                                                
