 2017 1114 1607  2.2 L   6.810 -73.226135.1  RSN  4 0.2 1.1LRSN                1
 GAP=147        0.53       3.1     2.9  4.6 -0.2822E+01  0.4084E+01 -0.1542E+01E
 Epicentro: ZAPATOCA - SANTANDER                                               3
 ACTION:UPD 17-12-12 19:55 OP:rebc STATUS:               ID:20171114160702 L   I
 OLDACT:DUP 17-11-15 00:45 OP:lv   STATUS:               ID:20171114155741d    3
 2017-11-14-1558-00M.COL___441                                                 6
 STAT SP IPHASW D HRMM SECON CODA AMPLIT PERI AZIMU VELO AIN AR TRES W  DIS CAZ7
 BAR2 EZ ES       16 7 34.92                             169    0.0010 24.5 169 
 BAR2 EZ I        16 7 36.48         6.5 0.26            170           24.5 169 
 PAM  EZ EP       16 7 23.69                             147    0.0510 82.6  45 
 PAM  EN ES       16 7 40.32                             147   -0.0310 82.6  45 
 PAM  EZ I        16 7 42.41         4.1 0.52            151           82.6  45 
 RUS  HZ EP       16 7 25.35                             141    0.2610  103 171 
 RUS  HN ES       16 7 42.78                             141   -0.1510  103 171 
 RUS  HZ I        16 7 46.45         1.4 0.28            143            103 171 
 PTB  HZ EP       16 7 27.21                             131   -0.33 9  139 258 
 PTB  HN ES       16 7 47.48                             131    0.18 9  139 258 
 PTB  HZ I        16 7 52.19         1.1 0.22            132            139 258 
                                                                                
