 2013  614 1100 44.9 L   6.757 -73.136150.4  RSN  6 0.3 1.9LRSN                1
 GAP=201        0.57       4.0     5.1  5.7  0.7692E+01 -0.4185E+01 -0.9508E+01E
 Epicentro: LOS SANTOS - SANTANDER                                             3
 ACTION:UPD 14-01-08 09:54 OP:ep   STATUS:               ID:20130614110044 L   I
 OLDACT:UP  13-06-14 16:28 OP:mh   STATUS:               ID:20130614110000     3
 OLDACT:REG 13-06-14 16:00 OP:mh   STATUS:               ID:20130614110000     3
 2013-06-14-1100-00M.COL___257                                                 6
 STAT SP IPHASW D HRMM SECON CODA AMPLIT PERI AZIMU VELO AIN AR TRES W  DIS CAZ7
 BAR2 SZ EP   1   11 1  5.18                             173    0.19 7 18.9 196 
 BRR  HZ EP   1   11 1  7.00                             152    0.28 7 74.5 301 
 BRR  HE ES       11 1 23.89                             152    0.1410 74.5 301 
 BRR  HE I        11 1 25.12        21.8 0.32            148           74.5 301 
 RUS  HN ES   1   11 1 27.18                             146   -0.20 7 95.8 177 
 RUS  HN I        11 1 28.49         2.8 0.28            148           95.8 177 
 PTB  HZ EP   1   11 1 12.09                             133   -0.16 7  148 261 
 PTB  HN ES   1   11 1 33.18                             133   -0.42 7  148 261 
 PTB  HN I        11 1 38.31        12.6 0.44            131            148 261 
 ZAR  HZ EP   1   11 1 18.22                             123    0.30 6  207 293 
 ZAR  HN ES   1   11 1 44.03                             123    0.33 6  207 293 
 ZAR  HN I        11 1 49.14         8.7 0.28            122            207 293 
 SML  HZ EP       11 1 22.13                             118   -0.15 8  248 336 
 SML  HN ES   1   11 1 50.95                             118   -0.51 6  248 336 
 SML  HN I        11 1 58.65         7.8 0.10            117            248 336 
                                                                                
