 2017 1114 1443 50.8 L   6.791 -73.139141.4  RSN  8 0.5 1.7LRSN                1
 GAP=113        1.20       4.3     5.3  7.7  0.2776E+01  0.1783E+02  0.8754E+01E
 Epicentro: LOS SANTOS - SANTANDER                                             3
 ACTION:UPD 17-12-12 19:55 OP:rebc STATUS:               ID:20171114144350 L   I
 OLDACT:REG 17-11-14 20:38 OP:lv   STATUS:               ID:20171114143746     3
 2017-11-14-1438-00M.COL___459                                                 6
 STAT SP IPHASW D HRMM SECON CODA AMPLIT PERI AZIMU VELO AIN AR TRES W  DIS CAZ7
 BAR2 EZ EP       1444  9.64                             171   -0.2910 22.5 192 
 BAR2 EZ ES       1444 24.50                             171   -0.3210 22.5 192 
 BAR2 EZ I        1444 27.34        15.0 0.28            170           22.5 192 
 PAM  EZ EP       1444 12.59                             150   -0.0210 77.7  39 
 PAM  EN ES       1444 29.88                             150    0.2810 77.7  39 
 PAM  EZ I        1444 31.72         8.1 0.50            153           77.7  39 
 RUS  HZ EP       1444 13.78                             143   -0.3010 99.5 176 
 RUS  HN ES       1444 33.05                             143    0.8310 99.5 176 
 RUS  HZ I        1444 33.43         6.2 0.28            145           99.5 176 
 YPLC HZ EP       1444 20.02                             126   -0.17 9  176 151 
 YPLC HN ES       1444 42.54                             126   -0.55 9  176 151 
 YPLC HZ I        1444 44.88         9.5 0.26            128            176 151 
 ZAR  HZ EP       1444 23.62                             121    0.51 9  205 292 
 ZAR  HN ES       1444 47.85                             121   -0.44 9  205 292 
 ZAR  HZ I        1444 52.40         4.9 0.64            122            205 292 
 CHI  HZ EP       1444 28.03                             116   -0.18 8  248 195 
 CHI  HN ES       1444 57.83                             116    0.47 8  248 195 
 CHI  HZ I        1445  0.12         1.9 0.30            118            248 195 
 GUY2CHZ EP       1444 35.64                             111    1.39 7  301 235 
 GUY2CHN ES       1445  7.43                             111   -0.68 7  301 235 
 GUY2CHZ I        1445 14.34         2.5 0.78                           301 235 
 PRA  HZ EP       1444 43.69                             106   -0.46 6  391 210 
 PRA  HN ES       1445 25.60                             106   -0.13 6  391 210 
 PRA  HZ I        1445 31.25         2.2 0.26            107            391 210 
                                                                                
