 2012  314 1546 57.4 L   6.740 -73.170149.8  RSN  7 0.4 1.6LRSN                1
 GAP=136        1.01       6.3     5.5  9.9 -0.1622E+01  0.7615E+01  0.1705E+02E
 ACTION:UP  12-03-31 23:19 OP:EP   STATUS:               ID:20120314154657 L   I
 2012-03-14-1540-00M.COL___201                                                 6
 STAT SP IPHASW D HRMM SECON CODA AMPLIT PERI AZIMU VELO SNR AR TRES W  DIS CAZ7
 BAR2 SZ EP   1   1547 17.42                             174     0.0 7   16 185 
 BAR2 SZ I        1547 34.11         7.7 0.26                            16 185 
 BRR  HZ EP   1   1547 19.71                             153     0.7 7   72 304 
 BRR  HZ I        1547 23.64        26.9 0.36                            72 304 
 BRR  HN ES       1547 36.31                             153     0.410   72 304 
 PAM  SZ EP   1   1547 20.28                             149    -0.2 7   84  38 
 PAM  SN ES   1   1547 37.72                             149    -0.7 7   84  38 
 PAM  SZ I        1547 39.66         4.3 0.38                            84  38 
 RUS  HZ EP   1   1547 21.66                             146     0.6 7   94 174 
 RUS  HN ES   1   1547 39.54                             146    -0.1 7   94 174 
 RUS  HZ I        1547 41.87         5.4 0.42                            94 174 
 PTB  HZ EP   1   1547 24.28                             134    -0.1 7  144 261 
 PTB  HN ES   1   1547 44.93                             134    -0.4 7  144 261 
 PTB  HZ I        1547 47.47         4.5 0.21                           144 261 
 ZAR  HN ES   1   1547 55.65                             123     0.0 6  204 294 
 NOR  SZ EP   1   1547 32.05                             120    -0.7 6  229 235 
 NOR  SN ES   1   1548  0.08                             120    -0.2 6  229 235 
                                                                                
