 2016 1114 1805 20.0 L   6.763 -73.115139.2  RSN  6 0.1 1.7LRSN                1
 GAP=166        0.35       3.4     3.0  3.4 -0.3146E+01 -0.1915E+01  0.1682E+01E
 Epicentro: LOS SANTOS - SANTANDER                                             3
 ACTION:UPD 17-10-26 21:08 OP:lp   STATUS:               ID:20161114180520 L   I
 OLDACT:UP  16-11-14 23:45 OP:edw  STATUS:               ID:20161114175748     3
 OLDACT:UP  16-11-14 23:44 OP:edw  STATUS:               ID:20161114175748     3
 OLDACT:REG 16-11-14 19:33 OP:edw  STATUS:               ID:20161114175748     3
 2016-11-14-1758-00M.COL___338                                                 6
 STAT SP IPHASW D HRMM SECON CODA AMPLIT PERI AZIMU VELO AIN AR TRES W  DIS CAZ7
 BAR2 EZ EP       18 5 38.55                             171   -0.1810 20.3 202 
 BAR2 EZ ES       18 5 53.43                             171    0.0610 20.3 202 
 BAR2 EZ I        18 5 55.21        22.1 0.68            172           20.3 202 
 BRR  HZ EP   2   18 5 40.64                             150   -0.05 5 76.2 300 
 BRR  HN ES       18 5 56.87                             150    0.0010 76.2 300 
 PAM  EZ EP       18 5 41.63                             149    0.0910 78.6  36 
 PAM  EN ES       18 5 58.39                             149    0.0110 78.6  36 
 PAM  EZ I        18 6  1.13         4.6 0.58            146           78.6  36 
 PTB  HZ EP   9   18 5 45.88                             130   -0.75 0  150 261 
 PTB  HN ES   4   18 6  5.51                             133   -1.18 0  150 261 
 PTB  HZ I        18 6  9.31         4.2 0.21            126            150 261 
 ZAR  HZ EP   4   18 5 43.25                             120   -9.22 0  209 293 
 ZAR  HZ I        18 5 58.67         9.2 0.10            117            209 293 
 ZAR  HN ES   4   18 6 17.65                             120   -0.19 0  209 293 
 CHI  HN ES   4   18 6 29.11                             116    3.29 0  246 196 
 PRA  HZ EP   2   18 6 13.41                             105    0.38 3  390 210 
 PRA  HN ES   4   18 6 57.19                             105    2.76 0  390 210 
                                                                                
