 2014  314 1141 31.7 L   6.812 -73.146145.4  RSN 11 0.5 1.9LRSN                1
 GAP=136        1.16       3.0     4.8  6.8 -0.2377E+01  0.1059E+02 -0.1607E+01E
 Epicentro: LOS SANTOS - SANTANDER                                             3
 ACTION:UPD 14-04-09 23:17 OP:nd   STATUS:               ID:20140314114131 L   I
 OLDACT:REG 14-03-14 16:35 OP:nd   STATUS:               ID:20140314114045     3
 2014-03-14-1140-45M.COL___232                                                 6
 STAT SP IPHASW D HRMM SECON CODA AMPLIT PERI AZIMU VELO AIN AR TRES W  DIS CAZ7
 BAR2 SZ EP       1141 51.37                             170    0.0210 24.6 190 
 BAR2 SZ ES       1142  6.57                             170   -0.0810 24.6 190 
 BAR2 SZ I        1142  7.59        21.1 0.28            170           24.6 190 
 PAM  SZ EP       1141 54.11                             151    0.2610 76.4  40 
 PAM  SN ES       1142 11.40                             151    0.3010 76.4  40 
 PAM  SZ I        1142 13.59        12.9 0.20            154           76.4  40 
 RUS  HZ EP       1141 55.25                             143   -0.2910  102 176 
 RUS  HN ES       1142 14.12                             143    0.0110  102 176 
 RUS  HZ I        1142 15.46         5.3 0.32            147            102 176 
 PTB  HZ EP       1141 58.26                             132   -0.43 9  148 258 
 PTB  HN ES       1142 19.29                             132   -0.44 9  148 258 
 PTB  HZ I        1142 25.27        10.3 0.22            132            148 258 
 OCA  HZ EP       1141 59.90                             130    0.01 9  159 353 
 OCA  HN ES       1142 21.63                             130   -0.23 9  159 353 
 OCA  HZ I        1142 29.90         8.1 0.16            131            159 353 
 SPBC HZ EP       1142  0.36                             129    0.06 9  164 219 
 SPBC HN ES       1142 23.35                             129    0.77 9  164 219 
 SPBC HZ I        1142 27.49        15.5 0.42            130            164 219 
 ZAR  HZ EP       1142  5.64                             122    1.54 9  204 292 
 ZAR  HN ES       1142 29.17                             122   -0.18 9  204 292 
 ZAR  HZ I        1142 35.63         8.7 0.28            123            204 292 
 NOR  HZ EP       1142  7.53                             118    0.01 8  235 234 
 NOR  HN ES       1142 35.69                             118    0.25 8  235 234 
 NOR  HZ I        1142 39.26         6.4 0.24            119            235 234 
 SML  HZ EP       1142  7.71                             117   -0.50 8  243 335 
 SML  HN ES       1142 36.27                             117   -0.39 8  243 335 
 SML  HZ I        1142 40.04        15.0 0.10            118            243 335 
 CHI  HZ EP       1142  9.51                             117   -0.04 8  250 195 
 CHI  HN ES       1142 38.18                             117   -0.86 8  250 195 
 CHI  HZ I        1142 44.79         3.0 0.36            119            250 195 
 SJC  HZ EP   4   1142 25.63                             106   -1.52 0  408 327 
 SJC  HN ES   4   1143  6.00                             106   -4.38 0  408 327 
 SJC  HZ I        1143 19.07         1.8 0.50            107            408 327 
                                                                                
