 2010 1014 1258 21.4 L   7.128 -73.020150.2  RSN  5 0.2 1.9LRSN                1
 GAP=181        0.38       4.5     6.3  6.0 -0.1886E+02 -0.1011E+02  0.9520E+01E
 Epicentro: BUCARAMANGA - SANTANDER                                            3
 ACTION:UP  11-02-18 11:09 OP:tino STATUS:               ID:20101014125821 L   I
 2010-10-14-1256-47S.COL___128                                                 6
 STAT SP IPHASW D HRMM SECON CODA AMPLIT PERI AZIMU VELO SNR AR TRES W  DIS CAZ7
 BTL  SZ EP   2   1258 41.36                                    -0.5 5   36 230 
 BAR2 SZ EP       1258 42.93                             156     0.010   62 197 
 BAR2 SZ ES   3   1258 59.88                             156     0.2 2   62 197 
 BAR2 SZ I        1259  1.82        10.9 0.90                            62 197 
 BRR  HZ EP       1258 43.35                             151     0.010   77 268 
 BRR  HN ES   2   1259  0.47                             151     0.0 5   77 268 
 GUE  SZ EP       1258 43.93                             151     0.010   78   8 
 GRA  SZ EP       1258 44.23                             148     0.010   87  16 
 GRA  SZ ES   1   1259  1.90                             148    -0.1 7   87  16 
 GRA  SZ I        1259  2.98        18.9 0.21                            87  16 
                                                                                
