 2017  214 1121  3.9 L   6.839 -73.199141.7  RSN  4 0.1 1.3LRSN                1
 GAP=148        0.36       3.0     3.1  3.6 -0.9454E+00  0.2629E+01 -0.4349E+01E
 Epicentro: ZAPATOCA - SANTANDER                                               3
 ACTION:UPD 17-05-24 15:36 OP:jn   STATUS:               ID:20170214112103 L   I
 OLDACT:DUP 17-02-14 23:36 OP:cara STATUS:               ID:20170214111458d    3
 OLDACT:DUP 17-02-14 23:27 OP:cara STATUS:               ID:20170214111457d    3
 2017-02-14-1118-00M.COL___346                                                 6
 STAT SP IPHASW D HRMM SECON CODA AMPLIT PERI AZIMU VELO AIN AR TRES W  DIS CAZ7
 BAR2 EZ EP       1121 23.15                             169    0.0110 27.4 176 
 BAR2 EZ ES       1121 38.15                             169    0.0110 27.4 176 
 BAR2 EZ I        1121 41.01         3.4 0.54            169           27.4 176 
 PAM  EZ EP       1121 25.75                             150    0.0110 78.1  45 
 RUS  HZ EP       1121 27.47                             142   -0.1610  105 173 
 RUS  HN ES       1121 46.16                             142    0.0310  105 173 
 RUS  HZ I        1121 48.00         2.5 0.30            145            105 173 
 PTB  HZ EP       1121 30.28                             132    0.17 9  143 257 
 PTB  HN ES   2   1121 50.33                             132   -0.22 5  143 257 
 PTB  HZ I        1121 53.71         3.6 0.34            133            143 257 
                                                                                
