 2012  314 1416 56.0 L   6.330 -73.690106.9  RSN  7 0.3 1.5LRSN                1
 GAP=111        0.69       3.7     3.1  7.6  0.1719E+01  0.1127E+02  0.5778E+01E
 ACTION:UP  12-03-31 23:19 OP:EP   STATUS:               ID:20120314141656 L   I
 2012-03-14-1410-00M.COL___202                                                 6
 STAT SP IPHASW D HRMM SECON CODA AMPLIT PERI AZIMU VELO SNR AR TRES W  DIS CAZ7
 BAR2 SZ EP   1   1417 13.21                             147     0.4 7   63  63 
 BAR2 SZ ES   1   1417 26.10                             147     0.1 7   63  63 
 BAR2 SZ I        1417 28.55        21.9 0.32                            63  63 
 RUS  HZ EP   1   1417 14.62                             140     0.0 7   83 126 
 RUS  HZ I        1417 14.85         3.4 0.17                            83 126 
 RUS  HN ES   1   1417 29.12                             140    -0.1 7   83 126 
 BRR  HN ES   1   1417 28.38                             138    -0.1 7   86 358 
 PTB  HZ EP   1   1417 13.60                             137    -0.8 7   88 285 
 PTB  HN ES   1   1417 28.71                             137    -0.1 7   88 285 
 PTB  HZ I        1417 29.98         5.5 0.16                            88 285 
 NOR  SZ EP   1   1417 21.04                             120     0.1 7  156 237 
 NOR  SN ES   1   1417 40.81                             120     0.3 7  156 237 
 ZAR  HZ EP   1   1417 23.77                             115     0.0 7  182 315 
 ZAR  HN ES   1   1417 45.82                             115     0.4 7  182 315 
 ZAR  HZ I        1417 49.26         5.8 0.21                           182 315 
 HEL  HE ES   1   1417 50.63                             112     0.0 6  204 266 
                                                                                
