 2012  914 1533 49.7 L   6.793 -73.137146.4  RSN 13 0.3 2.7LRSN                1
 GAP=115        0.68       3.1     2.9  4.3 -0.8577E-02  0.3287E+01  0.4247E+01E
 Epicentro: LOS SANTOS - SANTANDER                                             3
 ACTION:UPD 12-10-22 14:18 OP:ep   STATUS:               ID:20120914153349 L   I
 2012-09-14-1530-00M.COL___227                                                 6
 STAT SP IPHASW D HRMM SECON CODA AMPLIT PERI AZIMU VELO AIN AR TRES W  DIS CAZ7
 BAR2 SZ IP       1534  9.47                             171    0.0310 22.8 193 
 BAR2 SZ I        1534 10.01       204.3 0.18                          22.8 193 
 BAR2 SZ ES   1   1534 24.78                             171   -0.02 7 22.8 193 
 GIR2 SZ EP       1534  9.50                             167   -0.0210 32.2 349 
 BRR  HZ IP     C 1534 11.30                             152    0.2710 72.5 299 
 BRR  HZ I        1534 11.57       132.7 0.21                          72.5 299 
 BRR  HE ES       1534 28.26                             152    0.6310 72.5 299 
 PAM  SZ EP       1534 12.24                             151    0.2210 77.4  39 
 PAM  SN ES       1534 28.94                             151   -0.4610 77.4  39 
 PAM  SZ I        1534 31.47        71.0 0.55                          77.4  39 
 RUS  HZ EP       1534 13.48                             144   -0.0210 99.7 177 
 RUS  HZ I        1534 14.63        45.2 0.12                          99.7 177 
 RUS  HE ES   1   1534 31.85                             144   -0.17 7 99.7 177 
 PTB  HZ EP   1   1534 16.26                             132   -0.58 7  149 259 
 PTB  HE ES   1   1534 37.55                             132   -0.42 7  149 259 
 PTB  HZ I        1534 39.71        49.4 0.29                           149 259 
 YOP  SZ EP   1   1534 19.87                             127    0.15 7  178 153 
 YOP  SZ I        1534 48.79        43.0 0.27                           178 153 
 ZAR  HZ EP   1   1534 22.20                             122   -0.16 6  205 292 
 ZAR  HN ES   1   1534 47.39                             122   -0.40 6  205 292 
 ZAR  HZ I        1534 53.71        96.1 0.51                           205 292 
 NOR  SZ EP   1   1534 25.60                             119    0.05 6  235 235 
 NOR  SN ES   2   1534 53.45                             119   -0.02 4  235 235 
 NOR  SZ I        1534 57.69        59.5 0.26                           235 235 
 CHI  HZ EP   1   1534 27.68                             117    0.26 6  248 195 
 CHI  HE ES   2   1534 56.51                             117   -0.30 4  248 195 
 CHI  HZ I        1535  4.12        26.1 0.35                           248 195 
 HEL  HZ EP   1   1534 30.59                             115    0.52 6  273 256 
 HEL  HN ES   1   1535  1.29                             115   -0.24 6  273 256 
 HEL  HZ I        1535  8.59        34.0 0.33                           273 256 
 DBB  SZ EP       1534 37.20                             109   -0.17 7  341 274 
 PRA  HZ EP   1   1534 42.75                             107   -0.51 4  392 210 
 PRA  HN ES   1   1535 25.61                             107    0.60 4  392 210 
                                                                                
