 2010  514 1002  2.8 L   6.767 -73.001144.0  RSN  6 0.3 1.8LRSN                1
 GAP=250        0.50       4.5     6.2  5.9  0.7201E+01  0.1080E+02  0.8959E+01E
 Epicentro: CEPITA - SANTANDER                                                 3
 ACTION:UP  10-08-24 10:05 OP:vdl  STATUS:               ID:20100514100202 L   I
 2010-05-14-1000-00S.COL___100                                                 6
 STAT SP IPHASW D HRMM SECON CODA AMPLIT PERI AZIMU VELO AIN AR TRES W  DIS CAZ7
 BAR2 SZ IP     D 10 2 22.15                             169    -0.110   28 226 
 BAR2 SZ ES   2   10 2 37.24                             169    -0.3 5   28 226 
 BRR  HZ EP   1   10 2 24.79                             147     0.1 7   87 296 
 BRR  HE ES   2   10 2 41.94                             147     0.1 5   87 296 
 BRR  HZ I        10 2 43.13        13.6 0.30                            87 296 
 RUS  HZ EP   1   10 2 25.96                             145    -0.1 7   97 185 
 RUS  HN ES   2   10 2 44.83                             145     0.5 5   97 185 
 RUS  HZ I        10 2 45.61         7.2 0.21                            97 185 
 CHI  HZ EP   1   10 2 40.88                             117     0.4 6  250 199 
 CHI  HE ES   2   10 3  9.91                             117     0.0 4  250 199 
 CHI  HZ I        10 3 12.75         2.5 0.55                           250 199 
 HEL  HZ EP   1   10 2 44.79                             113     0.3 6  287 257 
 HEL  HN ES   2   10 3 16.94                             113    -0.2 4  287 257 
 HEL  HZ I        10 3 21.35         2.7 0.53                           287 257 
 PRA  HZ EP   1   10 2 56.38                             106    -0.4 4  397 212 
 PRA  HN ES   2   10 3 38.56                             106    -0.4 3  397 212 
 PRA  HZ I        10 3 45.29         2.5 0.44                           397 212 
                                                                                
