 2011 1114 1110 55.2 L   6.738 -73.103152.0  RSN  4 0.3 1.5LRSN                1
 GAP=237        0.63       9.5    10.8  6.7  0.8519E+02  0.2488E+01 -0.7116E+01E
 Epicentro: JORDAN - SANTANDER                                                 3
 ACTION:UPD 12-07-13 16:10 OP:ep   STATUS:               ID:20111114111055 L   I
 2011-11-14-1108-56S.COL___179                                                 6
 STAT SP IPHASW D HRMM SECON CODA AMPLIT PERI AZIMU VELO AIN AR TRES W  DIS CAZ7
 BAR2 SZ EP   1   1111 15.80                             173    0.26 7 18.4 209 
 BAR2 SZ ES   1   1111 30.99                             173   -0.38 7 18.4 209 
 BAR2 SZ I        1111 32.76         8.4 0.41                          18.4 209 
 BRR  HZ EP   1   1111 17.91                             151    0.42 7 78.7 301 
 BRR  HZ I        1111 18.22         9.3 0.16                          78.7 301 
 BRR  HN ES   1   1111 34.84                             151   -0.01 7 78.7 301 
 RUS  HZ EP   1   1111 18.76                             147   -0.37 7 93.5 179 
 RUS  HN ES   1   1111 38.06                             147    0.30 7 93.5 179 
 RUS  HZ I        1111 39.59         2.5 0.30                          93.5 179 
 ZAR  HZ EP   1   1111 28.44                             123   -0.38 6  211 293 
 ZAR  HN ES   1   1111 55.08                             123    0.07 6  211 293 
 ZAR  HZ I        1112  0.59         2.0 0.13                           211 293 
                                                                                
