 2015 1214 1116  7.2 L   6.878 -73.070142.8  RSN  4 0.2 1.7LRSN                1
 GAP=229        0.39       5.7     6.4  5.1  0.2252E+02 -0.9262E+01 -0.2064E+02E
 Epicentro: PIEDECUESTA - SANTANDER                                            3
 ACTION:UPD 16-02-04 15:04 OP:cam  STATUS:               ID:20151214111607 L   I
 OLDACT:REG 15-12-14 20:29 OP:ar   STATUS:               ID:20151214110747     3
 2015-12-14-1107-47M.COL___327                                                 6
 STAT SP IPHASW D HRMM SECON CODA AMPLIT PERI AZIMU VELO AIN AR TRES W  DIS CAZ7
 BAR2 EZ EP     C 1116 26.76                             166   -0.0210 33.9 202 
 BAR2 EZ ES       1116 41.99                             166   -0.0310 33.9 202 
 BAR2 EZ I        1116 42.77         7.3 0.36            167           33.9 202 
 BRR  HZ EP   2   1116 28.26                             151   -0.06 5 75.4 290 
 BRR  HN ES   2   1116 45.09                             151    0.34 5 75.4 290 
 BRR  HZ I        1116 53.95        14.9 0.34            145           75.4 290 
 ZAR  HZ EP   2   1116 40.45                             121    0.45 4  209 289 
 ZAR  HN ES   2   1117  5.13                             121   -0.42 4  209 289 
 ZAR  HZ I        1117 11.05         5.4 0.50            123            209 289 
 SML  HZ EP       1116 43.26                             117   -0.01 8  240 333 
 SML  HE ES   2   1117 11.29                             117   -0.08 4  240 333 
 SML  HZ I        1117 18.07         4.3 0.26            119            240 333 
                                                                                
