 2013  314 1805 33.9 L   6.833 -73.340118.2  RSN  4 0.1 1.6LRSN                1
 GAP=200        0.32       4.1     5.3  3.7  0.1721E+02  0.8170E+01  0.5957E+01E
 Epicentro: ZAPATOCA - SANTANDER                                               3
 ACTION:UPD 13-04-09 14:02 OP:ep   STATUS:               ID:20130314180534 L   I
 2013-03-14-1800-00M.COL___243                                                 6
 STAT SP IPHASW D HRMM SECON CODA AMPLIT PERI AZIMU VELO AIN AR TRES W  DIS CAZ7
 BAR2 SZ EP   1   18 5 50.42                             164   -0.02 7 31.8 147 
 BAR2 SZ ES   1   18 6  3.25                             164   -0.11 7 31.8 147 
 BAR2 SZ I        18 6  4.77        27.6 0.18             95           31.8 147 
 BRR  HZ EP   1   18 5 50.86                             155   -0.05 7 51.1 306 
 BRR  HN ES   1   18 6  4.33                             155    0.12 7 51.1 306 
 BRR  HN I        18 6  5.63        15.6 0.28             37           51.1 306 
 RUS  HZ EP   1   18 5 55.75                             135    0.12 7  108 165 
 RUS  HN ES   1   18 6 12.62                             135    0.02 7  108 165 
 RUS  HN I        18 6 14.37         3.9 0.44             37            108 165 
 PTB  HZ EP   1   18 5 56.70                             129   -0.08 7  128 255 
 PTB  HZ I        18 6 17.51         2.5 0.07             37            128 255 
                                                                                
