 2014  814 1500 22.8 L   6.810 -73.126147.2  RSN  7 0.4 1.5LRSN                1
 GAP=203        0.83       4.2     5.0  6.4  0.4679E+01  0.4700E+01 -0.4397E+01E
 Epicentro: LOS SANTOS - SANTANDER                                             3
 ACTION:UPD 14-09-15 21:49 OP:nd   STATUS:               ID:20140814150022 L   I
 OLDACT:REG 14-08-14 21:32 OP:spq  STATUS:               ID:20140814145819     3
 2014-08-14-1458-19M.COL___266                                                 6
 STAT SP IPHASW D HRMM SECON CODA AMPLIT PERI AZIMU VELO AIN AR TRES W  DIS CAZ7
 BAR2 SZ EP       15 0 42.52                             170   -0.1210 24.9 195 
 BAR2 SZ ES   1   15 0 58.11                             170    0.00 7 24.9 195 
 BAR2 SZ I        15 0 59.17         8.2 0.48            165           24.9 195 
 BRR  HZ EP       15 0 44.47                             152    0.2810 72.6 297 
 BRR  HN ES       15 1  0.56                             152   -0.3010 72.6 297 
 BRR  HZ I        15 1  9.70         8.9 0.34            148           72.6 297 
 RUS  HZ EP   1   15 0 47.04                             144    0.28 7  102 177 
 RUS  HE ES   1   15 1  5.75                             144    0.29 7  102 177 
 RUS  HZ I        15 1  6.24         2.1 0.46            147            102 177 
 PTB  HZ EP       15 0 49.38                             132   -0.72 9  150 259 
 PTB  HE ES   1   15 1 11.26                             132   -0.14 7  150 259 
 PTB  HZ I        15 1 17.68         4.6 0.42            131            150 259 
 ZAR  HZ EP       15 0 56.00                             122    0.49 8  206 292 
 ZAR  HE ES       15 1 21.52                             122    0.50 8  206 292 
 ZAR  HZ I        15 1 26.58         2.8 0.24            123            206 292 
 NOR  HN ES       15 1 26.93                             118   -0.09 8  237 235 
 NOR  HZ I        15 1 35.11         2.4 0.24            120            237 235 
 SML  HZ EP   1   15 0 59.02                             118   -0.48 6  244 335 
 SML  HN ES   1   15 1 28.16                             118    0.04 6  244 335 
 SML  HZ I        15 1 30.04         3.5 0.11            120            244 335 
                                                                                
