 2010  814 1143 13.0 L   5.967 -73.821106.0  RSN  5 0.3 1.4LRSN                1
 GAP=160        0.59       4.2     9.6 13.3 -0.6397E+01  0.9335E+02  0.7920E+01E
 Epicentro: SUCRE - SANTANDER                                                  3
 ACTION:UP  10-09-07 10:54 OP:vdl  STATUS:               ID:20100814114312 L   I
 2010-08-14-1141-10S.COL___111                                                 6
 STAT SP IPHASW D HRMM SECON CODA AMPLIT PERI AZIMU VELO SNR AR TRES W  DIS CAZ7
 RUS  HZ EP   1   1143 31.37                             140    -0.1 8   82  96 
 RUS  HN ES   2   1143 45.89                             140    -0.1 5   82  96 
 RUS  HZ I        1143 49.21         2.4 0.63                            82  96 
 BAR2 SZ EP   1   1143 33.07                             134     0.5 8   99  46 
 BAR2 SZ ES   1   1143 47.99                             134     0.2 8   99  46 
 BAR2 SZ I        1143 49.27        18.2 0.24                            99  46 
 BTL  SZ EP       1143 34.47                             128    -0.210  122  30 
 BTL  SZ ES   2   1143 51.00                             128    -0.6 5  122  30 
 BRR  HZ EP   2   1143 34.93                             126     0.1 5  127   5 
 BRR  HN ES   2   1143 52.08                             126     0.2 5  127   5 
 PRA  HZ EP   2   1143 51.45                             105    -0.1 4  276 205 
 PRA  HZ I        1143 55.05         1.5 0.33                           276 205 
 PRA  HE ES   2   1144 21.55                             105     0.0 4  276 205 
                                                                                
