 2017 1014 1803 43.3 L   7.399 -73.149137.0  RSN  5 0.1 1.5LRSN                1
 GAP=184        0.42       3.4     2.0  3.4 -0.6659E+00  0.2503E+01 -0.2895E+01E
 Epicentro: EL PLAYON - SANTANDER                                              3
 ACTION:UPD 17-11-07 19:31 OP:rebc STATUS:               ID:20171014180343 L   I
 OLDACT:REG 17-10-14 21:41 OP:l    STATUS:               ID:20171014175119     3
 2017-10-14-1758-00M.COL___438                                                 6
 STAT SP IPHASW D HRMM SECON CODA AMPLIT PERI AZIMU VELO AIN AR TRES W  DIS CAZ7
 PAM  EZ EP       18 4  3.32                             159    0.2310 50.1  97 
 PAM  EN ES       18 4 18.40                             159   -0.1610 50.1  97 
 PAM  EZ I        18 4 21.84         6.9 0.48            164           50.1  97 
 BRR  HZ EP       18 4  3.32                             151   -0.0810 70.0 243 
 BRR  HE ES       18 4 19.14                             151    0.0310 70.0 243 
 BAR2 EZ EP       18 4  5.11                             145    0.1310 89.2 182 
 BAR2 EZ ES       18 4 21.92                             145   -0.0010 89.2 182 
 BAR2 EZ I        18 4 23.27         7.6 0.46            150           89.2 182 
 PTB  HZ EP       18 4 11.67                             125   -0.29 9  173 237 
 PTB  HN ES       18 4 34.43                             125    0.08 9  173 237 
 PTB  HZ I        18 4 36.86         2.4 0.44            128            173 237 
 ZAR  HZ EP       18 4 13.54                             123   -0.04 9  189 273 
 ZAR  HN ES       18 4 37.29                             123    0.07 9  189 273 
 ZAR  HZ I        18 4 42.91         5.0 0.30            125            189 273 
                                                                                
