 2010 1014 1013 22.1 L   6.717 -73.102137.2  RSN  4 0.3 1.5LRSN                1
 GAP=199        0.97      11.0    15.3 21.3 -0.8412E+02 -0.9646E+02  0.7972E+02E
 Epicentro: JORDAN - SANTANDER                                                 3
 ACTION:UP  11-02-18 11:09 OP:tino STATUS:               ID:20101014101322 L   I
 2010-10-14-1012-15S.COL___128                                                 6
 STAT SP IPHASW D HRMM SECON CODA AMPLIT PERI AZIMU VELO SNR AR TRES W  DIS CAZ7
 BAR2 SZ EP       1013 40.98                             173     0.410   17 213 
 BAR2 SZ I        1013 54.39         5.6 0.89                            17 213 
 BTL  SZ EP       1013 40.25                             168    -0.610   29 320 
 BRR  HZ EP       1013 43.06                             148     0.210   80 303 
 BRR  HN ES   2   1013 59.16                             148     0.0 5   80 303 
 BRR  HZ I        1014  4.46         6.2 0.19                            80 303 
 GRA  SZ EP   1   1013 47.34                             133     0.1 7  133  14 
 GRA  SZ ES   1   1014  6.96                             133     0.1 7  133  14 
 GRA  SZ I        1014  8.21         6.0 0.34                           133  14 
                                                                                
