 2014  814 1111 46.9 L   6.777 -73.131150.4  RSN 15 0.4 1.9LRSN                1
 GAP=139        0.93       3.3     4.4  5.6  0.1228E+00  0.7380E+00  0.7822E+00E
 Epicentro: LOS SANTOS - SANTANDER                                             3
 ACTION:UPD 14-09-15 21:49 OP:nd   STATUS:               ID:20140814111146 L   I
 OLDACT:REG 14-08-14 20:55 OP:spq  STATUS:               ID:20140814110820     3
 2014-08-14-1108-20M.COL___260                                                 6
 STAT SP IPHASW D HRMM SECON CODA AMPLIT PERI AZIMU VELO AIN AR TRES W  DIS CAZ7
 BAR2 SZ EP       1112  6.97                             172   -0.0710 21.2 195 
 BAR2 SZ ES   1   1112 22.27                             172   -0.49 7 21.2 195 
 BAR2 SZ I        1112 23.50        31.3 0.22            167           21.2 195 
 BRR  HZ EP       1112  8.90                             153    0.2010 73.8 300 
 BRR  HE ES       1112 26.29                             153    0.5910 73.8 300 
 BRR  HZ I        1112 27.90         9.6 0.15            148           73.8 300 
 PAM  SZ EP       1112  9.80                             151    0.1310 78.4  37 
 RUS  HZ EP   1   1112 10.43                             145   -0.49 7 97.9 177 
 RUS  HN ES   1   1112 29.90                             145    0.24 7 97.9 177 
 RUS  HZ I        1112 30.78         8.0 0.32            144           97.9 177 
 PTB  HZ EP       1112 13.85                             133   -0.49 9  149 260 
 PTB  HE ES       1112 34.99                             133   -0.76 9  149 260 
 PTB  HZ I        1112 37.89         8.8 0.10            129            149 260 
 SPBC HZ EP       1112 15.82                             130    0.16 9  162 220 
 SPBC HN ES       1112 38.02                             130   -0.08 9  162 220 
 SPBC HZ I        1112 40.66        15.2 0.22            127            162 220 
 ZAR  HZ EP       1112 19.39                             123   -0.51 8  207 293 
 ZAR  HN ES       1112 45.80                             123    0.16 8  207 293 
 ZAR  HZ I        1112 51.20         3.1 0.26            121            207 293 
 NOR  HZ EP       1112 23.48                             120    0.60 8  235 235 
 NOR  HN ES       1112 51.26                             120    0.31 8  235 235 
 NOR  HZ I        1112 54.49         5.7 0.20            117            235 235 
 CHI  HZ EP   1   1112 23.98                             118   -0.66 6  247 196 
 CHI  HE ES   1   1112 54.87                             118    0.80 6  247 196 
 SML  HZ EP   1   1112 24.30                             118    0.19 6  247 335 
 SML  HN ES   1   1112 53.22                             118    0.09 6  247 335 
 SML  HZ I        1112 57.11         9.0 0.26            117            247 335 
 HEL  HN ES   4   1113  1.45                             116    2.36 0  273 256 
 HEL  HZ I        1113  5.76         3.3 0.52            114            273 256 
 GUY2CHZ EP   4   1112 32.43                             113    1.73 0  301 235 
 GUY2CHN ES   4   1113  8.96                             113    4.09 0  301 235 
 GUY2CHZ I        1113 13.67         4.1 0.76                           301 235 
 RREF HZ EP   1   1112 33.36                             112    0.17 5  321 230 
 RREF HN ES   4   1113 12.03                             112    2.73 0  321 230 
 RREF HZ I        1113 15.46         3.3 0.26            110            321 230 
 TOL  SZ EP   4   1112 36.65                             110    1.39 0  343 225 
 TOL  SN ES   4   1113 18.13                             110    5.14 0  343 225 
 TOL  SZ I        1113 21.59         5.8 0.36            109            343 225 
 PRA  HZ EP       1112 40.58                             107    0.17 6  391 210 
 PRA  HE ES   4   1113 25.66                             107    3.50 0  391 210 
 PRA  HZ I        1113 29.08         2.8 0.32            107            391 210 
                                                                                
