 2012  614 1026 38.0 L   6.791 -73.188139.8  RSN  7 0.3 2.4LRSN                1
 GAP=132        0.82       3.3     4.1  6.0 -0.3101E+01  0.1130E+02 -0.4502E+01E
 Epicentro: LOS SANTOS - SANTANDER                                             3
 ACTION:UPD 12-08-06 17:49 OP:ep   STATUS:               ID:20120614102638 L   I
 2012-06-14-1020-00M.COL___200                                                 6
 STAT SP IPHASW D HRMM SECON CODA AMPLIT PERI AZIMU VELO AIN AR TRES W  DIS CAZ7
 BAR2 SZ EP       1026 57.12                             171    0.2610 22.0 178 
 BAR2 SZ ES       1027 12.06                             171    0.4610 22.0 178 
 BAR2 SZ I        1027 13.45        57.2 0.22                          22.0 178 
 PAM  SZ EP       1026 59.98                             148    0.1810 81.2  42 
 PAM  SE ES       1027 16.90                             148    0.0810 81.2  42 
 RUS  HZ EP       1027  1.15                             143    0.0510  100 173 
 RUS  HE ES       1027 18.51                             143   -0.6310  100 173 
 RUS  HZ I        1027 21.06        28.7 0.30                           100 173 
 PTB  HZ EP       1027  3.91                             132   -0.12 9  143 259 
 PTB  HN ES   1   1027 23.96                             132   -0.39 7  143 259 
 PTB  HZ I        1027 27.79        20.6 0.15                           143 259 
 OCA  HZ EP       1027  5.51                             128   -0.37 9  161 355 
 OCA  HN ES   1   1027 27.06                             128   -0.59 7  161 355 
 OCA  HZ I        1027 31.72        69.6 0.19                           161 355 
 ZAR  HZ EP       1027  9.89                             122    0.26 9  200 293 
 ZAR  HN ES   1   1027 34.56                             122    0.23 6  200 293 
 ZAR  HZ I        1027 41.17        33.2 0.38                           200 293 
 NOR  SZ EP   1   1027 13.35                             118    0.45 6  230 234 
 NOR  SN ES   1   1027 40.23                             118    0.10 6  230 234 
                                                                                
