 2014  614 1628 37.3 L   6.789 -73.132140.0  RSN 25 0.5 2.7LRSN                1
 GAP= 72        1.16       2.9     3.0  5.3 -0.1491E+01  0.4606E+01  0.2519E+01E
 Epicentro: LOS SANTOS - SANTANDER                                             3
 ACTION:UPD 14-07-01 22:53 OP:nd   STATUS:               ID:20140614162837 L   I
 OLDACT:REG 14-06-14 21:38 OP:fm   STATUS:               ID:20140614162546     3
 2014-06-14-1625-46M.COL___244                                                 6
 STAT SP IPHASW D HRMM SECON CODA AMPLIT PERI AZIMU VELO AIN AR TRES W  DIS CAZ7
 BAR2 SZ IP     D 1628 56.43                             170    0.1810 22.4 194 
 BAR2 SZ ES   1   1629 10.85                             170   -0.16 7 22.4 194 
 BAR2 SZ I        1629 12.13       121.2 0.34            169           22.4 194 
 BRR  HZ EP     C 1628 58.31                             151    0.3410 73.1 299 
 BRR  HN ES       1629 14.90                             151    0.8310 73.1 299 
 BRR  HZ I        1629 18.29        77.4 0.28            149           73.1 299 
 PAM  SZ EP     D 1628 59.49                             150    0.5510 77.4  38 
 PAM  SN ES       1629 16.12                             150    0.3210 77.4  38 
 PAM  SZ I        1629 19.16        62.1 0.54            152           77.4  38 
 RUS  HZ EP     C 1629  0.31                             143   -0.1210 99.3 177 
 RUS  HN ES       1629 18.70                             143    0.2710 99.3 177 
 RUS  HZ I        1629 20.50        39.2 0.26            144           99.3 177 
 PTB  HZ EP       1629  3.30                             130   -0.65 9  149 259 
 PTB  HN ES       1629 23.90                             130   -0.81 9  149 259 
 PTB  HZ I        1629 26.36        83.2 0.18            129            149 259 
 TAM  HZ EP     C 1629  4.81                             130    0.41 9  153 105 
 TAM  HN ES       1629 24.71                             130   -0.80 9  153 105 
 TAM  HZ I        1629 26.77        59.9 0.22            133            153 105 
 OCA  HZ EP       1629  4.86                             128   -0.48 9  162 353 
 OCA  HN ES       1629 26.35                             128   -0.83 9  162 353 
 OCA  HZ I        1629 34.35        41.3 0.38            129            162 353 
 SPBC HZ EP       1629  5.50                             128    0.11 9  163 220 
 SPBC HN ES       1629 27.00                             128   -0.28 9  163 220 
 SPBC HZ I        1629 29.55        50.9 0.42            128            163 220 
 ZAR  HZ EP       1629  9.50                             121   -0.10 8  206 292 
 ZAR  HN ES       1629 35.08                             121    0.31 8  206 292 
 ZAR  HZ I        1629 40.12        48.7 0.24            120            206 292 
 NOR  HZ EP       1629 12.91                             117    0.12 8  235 235 
 NOR  HN ES       1629 40.80                             117    0.36 8  235 235 
 NOR  HZ I        1629 46.13        40.8 0.34            117            235 235 
 SML  HZ EP       1629 13.75                             116   -0.08 8  245 335 
 SML  HN ES   4   1629 41.45                             116   -0.85 0  245 335 
 SML  HZ I        1629 50.23        60.4 0.28            116            245 335 
 CHI  HZ EP       1629 14.36                             116   -0.27 8  248 196 
 CHI  HE ES       1629 43.40                             116   -0.32 8  248 196 
 CHI  HZ I        1629 48.54        12.0 0.20            117            248 196 
 ROSC BZ EP   4   1629 16.54                             116    1.43 0  252 211 
 ROSC BN ES   4   1629 46.64                             116    2.06 0  252 211 
 ROSC BZ I        1629 51.24        26.2 0.35            116            252 211 
 HEL  HZ EP       1629 17.51                             114    0.13 8  273 256 
 HEL  HN ES       1629 48.26                             114   -0.36 8  273 256 
 HEL  HZ I        1629 55.42        32.7 0.46            114            273 256 
 URE  HZ EP   4   1629 16.92                             112   -1.42 0  286 292 
 URE  HE ES   4   1629 48.19                             112   -2.13 0  286 292 
 URE  HZ I        1630  2.13        32.4 0.22            112            286 292 
 GUY2CHZ EP   4   1629 22.23                             111    1.49 0  302 235 
 GUY2CHN ES       1629 55.69                             111    1.10 7  302 235 
 GUY2CHZ I        1630  3.49        25.0 0.52                           302 235 
 PTGC HZ EP   4   1629 19.61                             111   -1.14 0  307 159 
 PTGC HN ES   4   1629 52.18                             111   -2.43 0  307 159 
 PTGC HZ I        1629 57.82        28.5 0.54            112            307 159 
 RREF HZ EP       1629 24.34                             110    1.07 7  322 230 
 RREF HN ES       1629 58.60                             110   -0.50 7  322 230 
 RREF HZ I        1630  4.94        17.8 0.34            110            322 230 
 CBOC HZ EP       1629 24.37                             109    0.24 7  335 252 
 CBOC HE ES       1629 59.79                             109   -0.84 7  335 252 
 CBOC HZ I        1630  4.83         7.7 0.20            109            335 252 
 DBB  SZ EP     C 1629 24.70                             108   -0.06 7  341 274 
 DBB  SZ ES   4   1629 59.72                             108   -2.03 0  341 274 
 TOL  SZ EP       1629 26.41                             108    1.03 7  344 225 
 TOL  SN ES       1630  3.07                             108    0.21 7  344 225 
 TOL  SZ I        1630 11.39        48.4 0.30            109            344 225 
 ANIL HZ EP       1629 26.91                             107   -0.03 6  357 225 
 ANIL HE ES   4   1630  8.17                             107    2.54 0  357 225 
 ANIL HZ I        1630 19.43        33.8 0.48            108            357 225 
 PRA  HZ EP       1629 29.99                             106   -0.63 6  392 210 
 PRA  HN ES       1630 11.53                             106   -0.65 6  392 210 
 PRA  HZ I        1630 18.17        13.3 0.34            106            392 210 
 ORTC HZ EP   2   1629 31.32                             105    0.27 3  395 216 
 ORTC HN ES   4   1630 15.22                             105    2.28 0  395 216 
 ORTC HZ I        1630 21.04        16.0 0.34            106            395 216 
 SJC  HZ EP   4   1629 30.96                             105   -1.97 0  411 327 
 SJC  HN ES   4   1630 11.93                             105   -4.36 0  411 327 
 SJC  HZ I        1630 16.73         7.9 0.40            105            411 327 
 CAP2 HN ES   4   1630 31.91                             101   -5.12 0  510 294 
                                                                                
