 2012  714 2346 52.5 L   6.808 -73.138144.5  RSN 12 0.4 2.5LRSN                1
 GAP= 71        1.02       4.7     3.8  7.3  0.1307E+01  0.6914E+01  0.7076E+01E
 Epicentro: LOS SANTOS - SANTANDER                                             3
 ACTION:UPD 12-08-14 11:44 OP:ep   STATUS:               ID:20120714234652 L   I
 2012-07-14-2340-00M.COL___197                                                 6
 STAT SP IPHASW D HRMM SECON CODA AMPLIT PERI AZIMU VELO AIN AR TRES W  DIS CAZ7
 BAR2 SZ EP       2347 12.06                             170     0.010   24 192 
 BAR2 SZ I        2347 12.47        77.3 0.12            155             24 192 
 BAR2 SZ ES   1   2347 27.09                             170    -0.2 7   24 192 
 BRR  HZ EP       2347 13.84                             152     0.310   72 298 
 BRR  HZ I        2347 14.10       124.3 0.16            145             72 298 
 BRR  HN ES   1   2347 30.85                             152     0.9 7   72 298 
 PAM  SZ EP   1   2347 15.00                             151     0.5 7   76  39 
 PAM  SZ I        2347 15.33        57.1 0.30            146             76  39 
 PAM  SN ES   1   2347 31.82                             151     0.1 7   76  39 
 RUS  HZ EP   1   2347 16.08                             143    -0.1 7  101 177 
 RUS  HN ES   1   2347 34.97                             143     0.3 7  101 177 
 RUS  HZ I        2347 36.55        49.4 0.32            126            101 177 
 PTB  HZ EP   1   2347 18.73                             132    -0.8 7  149 259 
 PTB  HN ES   1   2347 39.80                             132    -0.7 7  149 259 
 PTB  HZ I        2347 41.33        28.1 0.18            118            149 259 
 TAM  HZ EP   1   2347 20.42                             130     0.4 7  155 105 
 TAM  HZ I        2347 20.77        43.2 0.30            117            155 105 
 TAM  HN ES   1   2347 40.90                             130    -0.6 7  155 105 
 OCA  HN ES   1   2347 41.75                             130    -0.9 7  159 353 
 ZAR  HN ES       2347 50.20                             122     0.0 9  204 292 
 NOR  SZ EP   1   2347 28.50                             118     0.2 6  236 234 
 NOR  SE ES   1   2347 56.11                             118    -0.1 6  236 234 
 CHI  HZ EP   1   2347 30.20                             117    -0.1 6  250 195 
 CHI  HZ I        2348  5.80        14.2 0.41            104            250 195 
 HEL  HZ EP   1   2347 32.94                             114     0.1 6  273 256 
 HEL  HN ES   1   2348  4.27                             114     0.1 6  273 256 
 HEL  HZ I        2348 11.53        30.8 0.53            104            273 256 
 DBB  SZ EP   1   2347 40.68                             109     0.6 5  340 274 
