 2016  414 2217 40.9 L   6.801 -73.181145.6  RSN  7 0.4 1.8LRSN                1
 GAP=132        0.83       3.6     3.8  7.2 -0.1756E+01  0.1037E+02  0.2345E+01E
 Epicentro: ZAPATOCA - SANTANDER                                               3
 ACTION:UPD 16-05-05 14:21 OP:rebc STATUS:               ID:20160414221740 L   I
 OLDACT:DUP 16-04-15 04:46 OP:dnl  STATUS:               ID:20160414220741d    3
 2016-04-14-2207-40M.COL___321                                                 6
 STAT SP IPHASW D HRMM SECON CODA AMPLIT PERI AZIMU VELO AIN AR TRES W  DIS CAZ7
 BAR2 EZ EP   2   2218  0.47                             171   -0.02 5 23.1 180 
 BAR2 EZ ES       2218 16.14                             171    0.3610 23.1 180 
 BAR2 EZ I        2218 17.05        19.8 0.26            171           23.1 180 
 PAM  EZ EP       2218  3.25                             150    0.0210 79.8  42 
 PAM  EN ES       2218 20.34                             150   -0.3210 79.8  42 
 PAM  EZ I        2218 23.23         5.9 0.46            152           79.8  42 
 RUS  HZ EP   2   2218  4.52                             144   -0.13 5  101 174 
 RUS  HN ES       2218 23.17                             144   -0.0210  101 174 
 RUS  HZ I        2218 24.55         7.4 0.24            145            101 174 
 PTB  HZ EP   2   2218  6.90                             133   -0.60 5  144 258 
 PTB  HN ES       2218 27.99                             133   -0.27 9  144 258 
 PTB  HZ I        2218 30.86         7.1 0.14            132            144 258 
 ZAR  HZ EP   3   2218 13.86                             123    0.92 2  200 293 
 ZAR  HE ES       2218 38.57                             123    0.62 9  200 293 
 ZAR  HZ I        2218 43.69         8.7 0.24            122            200 293 
 NOR  HZ EP   2   2218 16.59                             119    0.32 4  232 234 
 NOR  HN ES       2218 43.12                             119   -0.76 8  232 234 
 NOR  HZ I        2218 50.00         4.3 0.24            119            232 234 
 CHI  HZ EP   2   2218 18.31                             117   -0.16 4  248 194 
 CHI  HN ES       2218 48.35                             117    0.55 8  248 194 
 CHI  HZ I        2218 50.01         3.8 0.36            118            248 194 
                                                                                
