 2013  514 2154  9.2 L   6.765 -73.143147.6  RSN  8 0.3 2.0LRSN                1
 GAP=138        0.64       3.0     3.0  4.8 -0.8301E+00  0.2301E+01  0.1835E+01E
 Epicentro: LOS SANTOS - SANTANDER                                             3
 ACTION:UPD 13-06-20 09:50 OP:ep   STATUS:               ID:20130514215409 L   I
 2013-05-14-2150-00M.COL___256                                                 6
 STAT SP IPHASW D HRMM SECON CODA AMPLIT PERI AZIMU VELO AIN AR TRES W  DIS CAZ7
 BAR2 SZ EP   2   2154 29.04                             172    0.10 5 19.6 193 
 BAR2 SZ ES   1   2154 44.07                             172   -0.30 7 19.6 193 
 BAR2 SZ I        2154 45.54        24.5 0.27            168           19.6 193 
 BRR  HZ EP   1   2154 30.45                             152   -0.18 7 73.4 301 
 BRR  HN ES       2154 47.84                             152    0.4710 73.4 301 
 BRR  HZ I        2154 50.17        20.2 0.32            151           73.4 301 
 PAM  SZ EP       2154 31.78                             150    0.0510 80.2  38 
 PAM  SZ I        2154 32.02        36.0 0.20            155           80.2  38 
 PAM  SN ES   1   2154 48.95                             150   -0.39 7 80.2  38 
 RUS  HZ EP       2154 32.83                             145    0.0110 96.7 176 
 RUS  HN ES   1   2154 51.62                             145    0.35 7 96.7 176 
 RUS  HZ I        2154 52.92         8.8 0.22            144           96.7 176 
 PTB  HZ EP   1   2154 35.96                             132   -0.28 7  147 260 
 PTB  HN ES       2154 56.95                             132   -0.41 9  147 260 
 PTB  HZ I        2154 59.16        10.8 0.12            131            147 260 
 ZAR  HN ES   1   2155  7.25                             123   -0.19 6  206 293 
 NOR  HZ EP       2154 44.90                             119    0.12 8  233 235 
 NOR  HN ES       2155 12.72                             119    0.15 8  233 235 
 NOR  HZ I        2155 22.16         5.5 0.14            119            233 235 
 SML  HN ES   1   2155 15.62                             117    0.39 6  247 336 
                                                                                
