 2016  814 2126 21.9 L   6.793 -73.133150.0  RSN  4 0.3 1.0LRSN                1
 GAP=138        0.73       4.1     3.9  6.4 -0.1865E+01  0.2212E+01  0.3528E+01E
 Epicentro: LOS SANTOS - SANTANDER                                             3
 ACTION:UPD 16-10-29 15:35 OP:rebc STATUS:               ID:20160814212621 L   I
 OLDACT:DUP 16-08-15 03:15 OP:edw  STATUS:               ID:20160814211747d    3
 OLDACT:UP  16-08-15 03:12 OP:edw  STATUS:               ID:20160814211746     3
 OLDACT:REG 16-08-15 02:33 OP:edw  STATUS:               ID:20160814211746     3
 2016-08-14-2118-00M.COL___383                                                 6
 STAT SP IPHASW D HRMM SECON CODA AMPLIT PERI AZIMU VELO AIN AR TRES W  DIS CAZ7
 BRR  HZ EP       2126 43.07                             153   -0.5610 72.8 299 
 BRR  HN ES       2127  0.75                             153    0.2010 72.8 299 
 PAM  EZ EP       2126 44.59                             152    0.0110 77.1  38 
 PAM  EE ES       2127  2.32                             152    0.0710 77.1  38 
 PAM  EZ I        2127  5.09         2.0 0.48                          77.1  38 
 RUS  HZ EP       2126 46.11                             145    0.0710 99.7 177 
 RUS  HE ES       2127  4.79                             145   -0.0610 99.7 177 
 RUS  HZ I        2127  5.86         1.4 0.36                          99.7 177 
 PTB  HZ EP       2126 49.82                             133    0.46 9  149 259 
 PTB  HE ES       2127 10.61                             133   -0.15 9  149 259 
 PTB  HZ I        2127 14.30         1.4 0.24                           149 259 
                                                                                
