 2013  214 2114 34.8 L   6.784 -73.136150.0  RSN  8 0.4 2.1LRSN                1
 GAP=139        0.79       3.7     4.2  6.1  0.1497E+01  0.5475E+01  0.5227E+01E
 Epicentro: LOS SANTOS - SANTANDER                                             3
 ACTION:UPD 13-03-12 09:33 OP:ep   STATUS:               ID:20130214211434 L   I
 2013-02-14-2110-00M.COL___241                                                 6
 STAT SP IPHASW D HRMM SECON CODA AMPLIT PERI AZIMU VELO AIN AR TRES W  DIS CAZ7
 BAR2 SZ EP       2114 54.72                             171   -0.1610 21.8 194 
 BAR2 SZ I        2114 55.24        26.2 0.15            169           21.8 194 
 BRR  HZ IP     C 2114 56.68                             153    0.2010 73.0 299 
 BRR  HE ES       2115 13.98                             153    0.5610 73.0 299 
 BRR  HE I        2115 18.26        46.5 0.25            151           73.0 299 
 PAM  SZ EP   1   2114 57.53                             151    0.05 7 78.1  38 
 PAM  SN ES   1   2115 14.88                             151   -0.31 7 78.1  38 
 PAM  SZ I        2115 16.99        13.5 0.33            157           78.1  38 
 RUS  HZ EP   1   2114 58.65                             145   -0.16 7 98.7 177 
 RUS  HN ES       2115 17.52                             145   -0.0410 98.7 177 
 RUS  HN I        2115 19.15        20.0 0.18            148           98.7 177 
 PTB  HZ EP       2115  1.48                             133   -0.68 9  149 260 
 PTB  HE ES   1   2115 23.07                             133   -0.45 7  149 260 
 PTB  HZ I        2115 28.74        14.9 0.24            133            149 260 
 ZAR  HZ EP   1   2115  8.22                             123    0.55 6  206 292 
 ZAR  HN ES   1   2115 33.04                             123   -0.29 6  206 292 
 ZAR  HZ I        2115 39.90        13.2 0.38            125            206 292 
 NOR  HZ EP   1   2115 10.81                             119    0.07 6  235 235 
 NOR  HE ES   1   2115 38.78                             119   -0.01 6  235 235 
 NOR  HZ I        2115 41.30         9.2 0.29            121            235 235 
 CHI  HZ EP       2115 12.86                             118    0.31 8  247 196 
 CHI  HE ES   1   2115 42.47                             118    0.45 6  247 196 
 CHI  HZ I        2115 46.42         3.5 0.25            121            247 196 
                                                                                
