 2015  614 2032  9.6 L   6.841 -73.123142.5  RSN 16 0.4 2.4LRSN                1
 GAP=137        1.06       2.6     4.1  5.7 -0.2490E+01  0.1045E+02 -0.4267E+00E
 Epicentro: LOS SANTOS - SANTANDER                                             3
 ACTION:UPD 15-09-10 22:12 OP:cam  STATUS:               ID:20150614203209 L   I
 OLDACT:UP  15-06-15 05:56 OP:ar   STATUS:               ID:20150614202751d    3
 OLDACT:UP  15-06-15 05:55 OP:ar   STATUS:               ID:20150614202751d    3
 OLDACT:DUP 15-06-15 05:26 OP:ar   STATUS:               ID:20150614202751d    3
 2015-06-14-2027-50M.COL___315                                                 6
 STAT SP IPHASW D HRMM SECON CODA AMPLIT PERI AZIMU VELO AIN AR TRES W  DIS CAZ7
 BAR2 EZ EP       2032 29.12                             168    0.2210 28.3 193 
 BAR2 EZ ES       2032 43.20                             168   -0.8010 28.3 193 
 BAR2 EZ I        2032 49.70        33.0 0.22            165           28.3 193 
 BRR  HZ IP     D 2032 30.74                             152    0.3710 71.5 294 
 BRR  HE ES       2032 47.43                             152    0.8310 71.5 294 
 BRR  HZ I        2032 50.67        44.5 0.12            149           71.5 294 
 PAM  SZ EP       2032 31.76                             152    0.6410 72.3  40 
 PAM  SN ES       2032 48.24                             152    0.2910 72.3  40 
 PAM  SZ I        2032 50.60        32.0 0.54            159           72.3  40 
 RUS  HZ EP       2032 33.30                             142   -0.0110  105 178 
 RUS  HN ES       2032 51.58                             142   -0.2610  105 178 
 OCA  HZ EP       2032 36.80                             130   -0.42 9  156 352 
 OCA  HN ES       2032 58.40                             130   -0.40 9  156 352 
 OCA  HZ I        2033  2.26        81.5 0.36            133            156 352 
 SPBC HZ EP       2032 38.63                             127    0.33 9  168 219 
 SPBC HN ES       2033  0.63                             127   -0.09 9  168 219 
 SPBC HZ I        2033  7.12        24.2 0.10            128            168 219 
 ZAR  HZ EP       2032 41.46                             122   -0.40 9  205 291 
 ZAR  HN ES       2033  7.21                             122    0.15 9  205 291 
 ZAR  HZ I        2033 12.99        53.0 0.54            123            205 291 
 NOR  HZ EP       2032 45.37                             117   -0.23 8  239 234 
 NOR  HN ES       2033 13.66                             117   -0.06 8  239 234 
 NOR  HZ I        2033 22.64        11.7 0.18            119            239 234 
 SML  HZ EP       2032 45.18                             117   -0.49 8  241 334 
 SML  HE ES       2033 13.17                             117   -0.67 8  241 334 
 SML  HZ I        2033 20.13        46.4 0.26            120            241 334 
 ROSC BZ EP   4   2032 49.65                             115    1.58 0  258 211 
 ROSC BN ES       2033 18.03                             115   -0.08 8  258 211 
 ROSC BZ I        2033 26.43        14.8 0.35            117            258 211 
 URE  HZ EP       2032 50.57                             113    0.02 7  285 291 
 URE  HN ES       2033 23.08                             113    0.56 7  285 291 
 URE  HZ I        2033 30.03        20.4 0.38            115            285 291 
 GUY2CHZ EP       2032 54.40                             111    0.86 7  306 234 
 GUY2CHN ES       2033 27.27                             111   -0.59 7  306 234 
 GUY2CHZ I        2033 37.39         9.4 0.46                           306 234 
 RREF HZ EP   4   2032 58.19                             110    2.08 0  327 229 
 RREF HE ES       2033 32.13                             110   -0.30 7  327 229 
 RREF HZ I        2033 39.68         4.0 0.28            112            327 229 
 TOL  SZ EP   4   2032 59.86                             108    1.60 0  349 224 
 TOL  SE ES       2033 36.14                             108   -0.11 6  349 224 
 TOL  SZ I        2033 46.88         5.3 0.30            110            349 224 
 ANIL HN ES       2033 39.28                             108    0.26 6  362 224 
 ANIL HZ I        2033 47.83        22.4 0.36            109            362 224 
 SJC  HZ EP   4   2033  2.88                             105   -1.85 0  407 326 
 SJC  HN ES   4   2033 45.37                             105   -2.40 0  407 326 
 SJC  HZ I        2033 47.65         4.6 0.28            107            407 326 
                                                                                
