 2013  914 2025 54.5 L   6.853 -73.140138.2  RSN  6 0.4 1.6LRSN                1
 GAP=246        0.73       6.9     6.8  9.5  0.2809E+02  0.1106E+01 -0.3535E+01E
 Epicentro: LOS SANTOS - SANTANDER                                             3
 ACTION:UPD 13-10-22 09:22 OP:ep   STATUS:               ID:20130914202554 L   I
 OLDACT:DUP 13-09-14 22:05 OP:mh   STATUS:               ID:20130914201960d    3
 2013-09-14-2019-59M.COL___269                                                 6
 STAT SP IPHASW D HRMM SECON CODA AMPLIT PERI AZIMU VELO AIN AR TRES W  DIS CAZ7
 RUS  HZ EP   1   2026 18.23                             141    0.3111  106 177 
 RUS  HN ES   1   2026 36.37                             141    0.1511  106 177 
 PTB  HZ EP   1   2026 20.78                             130   -0.2110  150 257 
 PTB  HN ES   1   2026 41.23                             130   -0.4610  150 257 
 PTB  HZ I        2026 43.40         6.3 0.28            129            150 257 
 ZAR  HN ES   1   2026 51.13                             121    0.06 9  202 291 
 ZAR  HZ I        2026 57.20         4.8 0.28            120            202 291 
 NOR  HN ES   1   2026 58.57                             116    0.51 9  239 233 
 CHI  HZ EP   1   2026 31.61                             115   -0.78 8  254 195 
 CHI  HN ES   1   2027  1.66                             115   -0.31 8  254 195 
 CHI  HZ I        2027  6.19         2.7 0.52            115            254 195 
 GUY2CHZ EP       2026 38.64                             110    0.4710  305 234 
 GUY2CHN ES   4   2027 14.90                             110    2.63 0  305 234 
 GUY2CHZ I        2027 21.79         1.4 0.62                           305 234 
                                                                                
