 2016 1114 2147 12.0 L   6.821 -73.366126.6  RSN  4 0.3 1.5LRSN                1
 GAP=114        0.80       7.1     4.1  6.5 -0.1394E+02  0.3031E+01  0.2054E+00E
 Epicentro: SAN VICENTE DE CHUCURI - SANTANDER                                 3
 ACTION:UPD 17-10-26 21:08 OP:lp   STATUS:               ID:20161114214712 L   I
 OLDACT:DUP 16-11-15 04:27 OP:and  STATUS:               ID:20161114213746d    3
 2016-11-14-2138-00M.COL___341                                                 6
 STAT SP IPHASW D HRMM SECON CODA AMPLIT PERI AZIMU VELO AIN AR TRES W  DIS CAZ7
 BAR2 EZ IP     C 2147 29.79                             165    0.1710 32.4 141 
 BAR2 EZ ES       2147 43.38                             165    0.0410 32.4 141 
 BAR2 EZ I        2147 43.93        13.5 0.22            167           32.4 141 
 BRR  HZ EP       2147 30.13                             157    0.1710 49.6 310 
 BRR  HN ES       2147 44.17                             157    0.2410 49.6 310 
 BRR  HZ I        2147 45.06        10.2 0.11            156           49.6 310 
 PAM  EZ EP       2147 33.77                             142    0.3810 93.3  52 
 PAM  EE ES       2147 49.53                             142   -0.5210 93.3  52 
 PAM  EZ I        2147 51.43         4.8 0.26            144           93.3  52 
 PTB  HZ EP       2147 34.92                             132   -0.4210  125 256 
 PTB  HE ES       2147 53.41                             132   -0.1010  125 256 
 PTB  HZ I        2147 58.06         3.3 0.18            132            125 256 
                                                                                
