 2010  914 2343 14.0 L   6.807 -73.017140.2  RSN  7 0.3 2.1LRSN                1
 GAP=196        0.69       3.7     5.9  5.8  0.2260E+01  0.3522E+01  0.1845E+01E
 Epicentro: CEPITA - SANTANDER                                                 3
 ACTION:UP  11-02-18 11:02 OP:tino STATUS:               ID:20100914234314 L   I
 2010-09-14-2338-32S.COL___113                                                 6
 STAT SP IPHASW D HRMM SECON CODA AMPLIT PERI AZIMU VELO SNR AR TRES W  DIS CAZ7
 BAR2 SZ EP       2343 33.36                             167     0.210   30 218 
 BAR2 SZ ES   1   2343 47.84                             167    -0.2 7   30 218 
 BAR2 SZ I        2343 50.92        34.8 0.19                            30 218 
 BRR  HZ EP   1   2343 35.10                             147    -0.2 7   84 293 
 BRR  HE ES   1   2343 51.84                             147    -0.1 7   84 293 
 BRR  HZ I        2343 55.88        26.5 0.17                            84 293 
 RUS  HZ EP   1   2343 37.32                             142     0.0 7  101 184 
 RUS  HN ES   1   2343 55.72                             142     0.3 7  101 184 
 RUS  HZ I        2343 57.43        14.7 0.44                           101 184 
 OCA  SZ EP   1   2343 42.33                             128     0.3 7  162 348 
 OCA  SZ ES   2   2344  3.43                             128    -0.5 5  162 348 
 OCA  SZ I        2344  6.67        16.8 0.38                           162 348 
 CHI  HZ EP       2343 51.66                             115    -0.3 8  253 198 
 CHI  HN ES   2   2344 20.93                             115    -0.6 4  253 198 
 CHI  HZ I        2344 27.96         6.0 0.41                           253 198 
 HEL  HZ EP   2   2343 55.33                             112    -0.2 4  286 256 
 HEL  HN ES   1   2344 28.50                             112     0.6 6  286 256 
 HEL  HZ I        2344 33.36         6.5 0.41                           286 256 
 RREF HN ES   2   2344 37.46                             109    -0.6 3  333 231 
 RREF HZ I        2344 45.38         8.1 0.35                           333 231 
                                                                                
