 2010 1014 2204 40.9 L   6.781 -73.118139.2  RSN  8 0.4 2.3LRSN                1
 GAP=162        0.97       4.2     6.3  7.3 -0.7146E+01  0.1345E+01  0.7396E+01E
 Epicentro: LOS SANTOS - SANTANDER                                             3
 ACTION:UP  11-02-18 11:09 OP:tino STATUS:               ID:20101014220440 L   I
 2010-10-14-2201-17S.COL___128                                                 6
 STAT SP IPHASW D HRMM SECON CODA AMPLIT PERI AZIMU VELO SNR AR TRES W  DIS CAZ7
 BAR2 SZ EP       22 4 59.38                             171    -0.310   22 199 
 BAR2 SZ ES   1   22 5 14.14                             171    -0.2 7   22 199 
 BAR2 SZ I        22 5 17.14        36.7 0.50                            22 199 
 BRR  HZ EP       22 5  1.18                             150    -0.410   75 299 
 BRR  HN ES       22 5 17.94                             150     0.310   75 299 
 BRR  HZ I        22 5 22.03        55.5 0.44                            75 299 
 RUS  HZ EP       22 5  3.53                             143    -0.310   98 178 
 RUS  HN ES   1   22 5 21.83                             143     0.1 7   98 178 
 RUS  HZ I        22 5 24.14        17.9 0.27                            98 178 
 GRA  SZ EP       22 5  5.98                             135     0.310  127  16 
 GRA  SZ ES   1   22 5 25.10                             135     0.2 7  127  16 
 GRA  SZ I        22 5 27.92        23.4 1.30                           127  16 
 NOR  SZ EP       22 5 16.24                             117    -0.1 8  236 235 
 NOR  SN ES   1   22 5 43.50                             117    -0.6 6  236 235 
 CHI  HZ EP   1   22 5 18.31                             116     0.2 6  247 196 
 CHI  HN ES   1   22 5 48.18                             116     1.1 6  247 196 
 CHI  HZ I        22 5 50.60         9.2 0.19                           247 196 
 HEL  HN ES   2   22 5 52.99                             113     0.6 4  275 256 
 HEL  HZ I        22 5 58.19         9.0 1.26                           275 256 
 PRA  HN ES   1   22 6 15.99                             105     0.3 4  392 210 
 PRA  HZ I        22 6 22.00        23.7 0.03                           392 210 
                                                                                
