 2016  614 2216 52.3 L   6.788 -73.914 21.0  RSN  5 0.4 1.7LRSN                1
 GAP=108        1.01       2.9     2.1  3.6  0.5800E+00  0.1343E+01  0.2130E+01E
 Epicentro: PUERTO PARRA - SANTANDER                                           3
 ACTION:UPD 16-07-21 22:18 OP:rebc STATUS:               ID:20160614221652 L   I
 OLDACT:UP  16-06-15 05:42 OP:edw  STATUS:               ID:20160614220744     3
 OLDACT:UP  16-06-15 05:37 OP:edw  STATUS:               ID:20160614220744     3
 OLDACT:REG 16-06-15 02:48 OP:edw  STATUS:               ID:20160614220744     3
 2016-06-14-2207-44M.COL___328                                                 6
 STAT SP IPHASW D HRMM SECON CODA AMPLIT PERI AZIMU VELO AIN AR TRES W  DIS CAZ7
 BRR  HZ EP     C 2217  0.00                             114    0.2610 41.7  32 
 BRR  HN ES       2217  5.88                             114    0.3210 41.7  32 
 BRR  HZ I        2217  7.05        58.0 0.12                          41.7  32 
 PTB  HZ EP       2217  3.26                             105    0.0310 66.0 245 
 PTB  HN ES       2217 11.80                             105    0.0210 66.0 245 
 PTB  HZ I        2217 13.13       103.2 0.11                          66.0 245 
 BAR2 EZ EP       2217  6.11                             102    0.0410 83.7 105 
 BAR2 EZ ES       2217 15.98                             102   -0.8610 83.7 105 
 BAR2 EZ I        2217 16.72        15.5 0.16                          83.7 105 
 ZAR  HZ EP       2217 12.22                              56   -0.1310  130 307 
 ZAR  HE ES       2217 27.57                              56   -0.4410  130 307 
 ZAR  HZ I        2217 30.19         7.1 0.16                           130 307 
 RUS  HZ EP       2217 14.09                              56    0.5410  135 137 
 RUS  HE ES       2217 30.38                              56    0.2410  135 137 
 RUS  HZ I        2217 32.92        13.0 0.18                           135 137 
                                                                                
