 2014  614 2106 10.2 L   6.782 -73.155141.8  RSN 17 0.5 2.3LRSN                1
 GAP= 71        1.26       3.2     3.9  5.8 -0.3046E+01  0.5632E+01  0.1865E+01E
 Epicentro: LOS SANTOS - SANTANDER                                             3
 ACTION:UPD 14-07-01 22:54 OP:nd   STATUS:               ID:20140614210610 L   I
 OLDACT:REG 14-06-15 05:21 OP:stll STATUS:               ID:20140614205819     3
 2014-06-14-2058-19M.COL___262                                                 6
 STAT SP IPHASW D HRMM SECON CODA AMPLIT PERI AZIMU VELO AIN AR TRES W  DIS CAZ7
 BAR2 SZ EP       21 6 29.44                             171    0.1710 21.2 188 
 BAR2 SZ ES       21 6 44.02                             171   -0.1510 21.2 188 
 BAR2 SZ I        21 6 45.51        42.5 0.18            170           21.2 188 
 BRR  HZ EP       21 6 31.58                             152    0.7010 71.3 300 
 BRR  HN ES       21 6 48.46                             152    1.4110 71.3 300 
 BRR  HZ I        21 6 51.41        24.2 0.16            150           71.3 300 
 PAM  SZ EP       21 6 32.46                             149    0.3810 79.6  39 
 PAM  SZ I        21 6 32.83        45.8 0.22            153           79.6  39 
 PAM  SN ES       21 6 48.31                             149   -0.8810 79.6  39 
 RUS  HZ EP       21 6 33.47                             144    0.0910 98.7 175 
 RUS  HN ES       21 6 51.58                             144    0.0910 98.7 175 
 RUS  HZ I        21 6 53.42        30.7 0.26            145           98.7 175 
 PTB  HZ EP       21 6 36.20                             131   -0.48 9  146 260 
 PTB  HN ES       21 6 57.12                             131   -0.24 9  146 260 
 PTB  HZ I        21 6 59.69        34.0 0.14            131            146 260 
 TAM  HZ EP       21 6 37.71                             130    0.15 9  156 104 
 TAM  HZ I        21 6 37.95        40.4 0.18            134            156 104 
 SPBC HZ EP       21 6 38.39                             129    0.25 9  161 219 
 SPBC HN ES       21 6 59.76                             129   -0.21 9  161 219 
 SPBC HZ I        21 7  6.54        28.1 0.22            129            161 219 
 OCA  HZ EP       21 6 38.19                             128   -0.15 9  162 354 
 OCA  HE ES       21 6 59.76                             128   -0.56 9  162 354 
 OCA  HZ I        21 7  4.52        27.2 0.22            130            162 354 
 ZAR  HZ EP       21 6 42.81                             122    0.48 9  204 293 
 ZAR  HN ES       21 7  7.77                             122    0.35 9  204 293 
 ZAR  HZ I        21 7 14.75        21.3 0.30            122            204 293 
 NOR  HZ EP       21 6 45.49                             118    0.05 8  233 235 
 NOR  HN ES       21 7 11.93                             118   -1.04 8  233 235 
 NOR  HZ I        21 7 17.87        18.3 0.20            118            233 235 
 SML  HZ EP       21 6 46.26                             116   -0.45 8  245 336 
 SML  HN ES       21 7 14.40                             116   -0.83 8  245 336 
 SML  HZ I        21 7 17.17        17.4 0.24            118            245 336 
 HEL  HZ EP       21 6 50.18                             114    0.18 8  271 256 
 HEL  HE ES       21 7 21.29                             114    0.20 8  271 256 
 HEL  HZ I        21 7 27.73        11.6 0.42            115            271 256 
 GUY2CHZ EP       21 6 53.72                             112    0.36 7  299 235 
 GUY2CHN ES       21 7 26.93                             112   -0.13 7  299 235 
 RREF HN ES       21 7 31.34                             110   -0.22 7  320 230 
 RREF HZ I        21 7 42.59         9.9 0.44            111            320 230 
 TOL  SZ EP       21 6 58.70                             109    0.69 7  341 225 
 TOL  SN ES       21 7 34.85                             109   -0.48 7  341 225 
 PRA  HZ EP       21 7  2.91                             106   -0.37 6  390 210 
 PRA  HZ I        21 7  4.89         6.6 0.20            107            390 210 
 PRA  HN ES       21 7 43.81                             106   -0.90 6  390 210 
 ORTC HZ EP       21 7  4.32                             106    0.64 6  393 216 
 ORTC HZ I        21 7  5.26         6.4 0.20            107            393 216 
                                                                                
