 2011 1014 2302 18.1 L   6.789 -73.113154.3  RSN  6 0.4 1.9LRSN                1
 GAP=141        0.71       3.8     5.9  7.9 -0.4875E+01  0.4612E+01  0.5863E+00E
 Epicentro: LOS SANTOS - SANTANDER                                             3
 ACTION:UPD 12-07-13 16:03 OP:ep   STATUS:               ID:20111014230218 L   I
 2011-10-14-2259-31S.COL___167                                                 6
 STAT SP IPHASW D HRMM SECON CODA AMPLIT PERI AZIMU VELO AIN AR TRES W  DIS CAZ7
 BAR2 SZ EP   1   23 2 38.48                             171   -0.31 7 23.1 199 
 BAR2 SZ I        23 2 55.33        15.8 0.31                          23.1 199 
 BRR  HZ EP   1   23 2 40.93                             153    0.50 7 75.0 298 
 BRR  HZ I        23 2 41.22        30.8 0.15                          75.0 298 
 BRR  HN ES   1   23 2 58.18                             153    0.37 7 75.0 298 
 PAM  SZ EP   1   23 2 41.46                             153    0.26 7 76.1  37 
 PAM  SN ES   1   23 2 59.02                             153   -0.16 7 76.1  37 
 PAM  SZ I        23 3  1.22         7.0 0.31                          76.1  37 
 RUS  HZ EP   1   23 2 42.43                             146   -0.22 7 99.2 178 
 RUS  HN ES   1   23 3  1.87                             146    0.12 7 99.2 178 
 RUS  HZ I        23 3  3.33         5.2 0.20                          99.2 178 
 OCA  SZ EP   1   23 2 47.57                             131    0.29 7  162 352 
 OCA  SZ ES   1   23 3  9.39                             131   -0.62 7  162 352 
 OCA  SZ I        23 3 14.96        12.8 0.49                           162 352 
 NOR  SN ES   1   23 3 22.63                             120   -0.45 6  237 235 
                                                                                
