 2012  414 2021 29.5 L   7.058 -73.340112.4  RSN  8 0.4 2.1LRSN                1
 GAP= 95        0.85       4.0     4.7  7.4  0.1088E+01  0.7952E+01  0.4188E+01E
 Epicentro: LEBRIJA - SANTANDER                                                3
 ACTION:UPD 12-07-05 11:53 OP:tino STATUS:               ID:20120414202129 L   I
 2012-04-14-2020-00M.COL___181                                                 6
 STAT SP IPHASW D HRMM SECON CODA AMPLIT PERI AZIMU VELO AIN AR TRES W  DIS CAZ7
 BRR  HZ IP     C 2021 45.27                             158    -0.210   41 278 
 BRR  HZ I        2021 45.41       104.6 0.12                            41 278 
 BRR  HN ES   1   2021 58.16                             158     0.3 7   41 278 
 BAR2 SZ IP       2021 46.57                             152     0.110   54 161 
 BAR2 SZ I        2021 46.75        42.8 0.34                            54 161 
 BAR2 SZ ES   3   2021 59.62                             152     0.0 2   54 161 
 PAM  SZ EP       2021 48.66                             143     0.410   77  66 
 PAM  SN ES   2   2022  2.92                             143     0.0 5   77  66 
 OCA  SZ EP       2021 52.28                             127    -0.210  131   1 
 OCA  SZ ES   1   2022 10.08                             127    -0.3 7  131   1 
 RUS  HZ EP       2021 52.64                             127    -0.410  132 168 
 RUS  HZ I        2021 53.32         7.6 0.40                           132 168 
 RUS  HN ES   2   2022 10.93                             127    -0.5 5  132 168 
 ZAR  HZ EP       2021 56.64                             118    -0.1 9  174 286 
 ZAR  HN ES   2   2022 17.40                             118    -0.6 4  174 286 
 NOR  SZ EP   2   2022  3.29                             110    -0.5 4  236 226 
 HEL  HZ EP       2022  7.74                             108     0.9 8  260 249 
 HEL  HZ I        2022 40.79        10.2 0.30                           260 249 
                                                                                
