 2016 1114 2313 51.5 L   6.744 -73.143151.2  RSN  5 0.3 1.8LRSN                1
 GAP=158        0.86       7.4     4.2  6.9 -0.6691E+01  0.5624E+01  0.1979E+01E
 Epicentro: LOS SANTOS - SANTANDER                                             3
 ACTION:UPD 17-10-26 21:08 OP:lp   STATUS:               ID:20161114231351 L   I
 OLDACT:REG 16-11-15 03:36 OP:and  STATUS:               ID:20161114230744     3
 2016-11-14-2308-00M.COL___338                                                 6
 STAT SP IPHASW D HRMM SECON CODA AMPLIT PERI AZIMU VELO AIN AR TRES W  DIS CAZ7
 BAR2 EZ IP     C 2314 11.90                             173    0.1810 17.3 194 
 BAR2 EZ ES       2314 27.15                             173   -0.3110 17.3 194 
 BAR2 EZ I        2314 29.28        12.0 0.28            172           17.3 194 
 BRR  HZ IP     C 2314 13.76                             152    0.3010 74.6 303 
 BRR  HE ES       2314 31.18                             152    0.6210 74.6 303 
 BRR  HZ I        2314 36.14         6.9 0.12            152           74.6 303 
 PAM  EZ IP     C 2314 14.63                             150    0.0210 82.1  37 
 PAM  EN ES       2314 32.31                             150   -0.2910 82.1  37 
 PAM  EZ I        2314 34.05        12.5 0.54            155           82.1  37 
 PTB  HZ EP       2314 18.73                             133   -0.15 9  147 261 
 PTB  HE ES       2314 40.17                             133   -0.03 9  147 261 
 PTB  HZ I        2314 47.36         9.2 0.30            134            147 261 
 ZAR  HZ EP   4   2314 26.16                             123    1.55 0  207 294 
 ZAR  HE ES       2314 49.89                             123   -0.51 8  207 294 
 ZAR  HZ I        2314 52.60         6.6 0.32            125            207 294 
                                                                                
