 2010  914 2133 45.3 L   6.760 -73.104142.1  RSN  5 0.2 1.9LRSN                1
 GAP=239        0.54       4.9     7.8  5.4  0.1894E+02  0.4275E+01  0.4483E+01E
 Epicentro: LOS SANTOS - SANTANDER                                             3
 *RUS-BRR-BAR2                                                                 3
 ACTION:UP  11-02-18 11:02 OP:tino STATUS:               ID:20100914213345 L   I
 2010-09-14-2129-20S.COL___113                                                 6
 STAT SP IPHASW D HRMM SECON CODA AMPLIT PERI AZIMU VELO SNR AR TRES W  DIS CAZ7
 BAR2 SZ EP       2134  4.38                             171    -0.110   21 205 
 BAR2 SZ ES   1   2134 19.18                             171    -0.2 7   21 205 
 BAR2 SZ I        2134 20.67        20.6 0.17                            21 205 
 BRR  HZ EP       2134  6.28                             150    -0.210   77 300 
 BRR  HZ I        2134  6.61        41.8 0.08                            77 300 
 BRR  HN ES   1   2134 23.23                             150     0.3 7   77 300 
 RUS  HZ EP   1   2134  8.70                             144     0.3 7   96 179 
 RUS  HN ES   1   2134 26.38                             144     0.0 7   96 179 
 RUS  HZ I        2134 28.32        10.1 0.22                            96 179 
 CHI  HZ EP   1   2134 22.53                             117     0.0 6  246 196 
 CHI  HZ I        2134 23.41         3.2 0.07                           246 196 
 RREF HN ES   2   2135  7.17                             110    -0.1 3  322 231 
 RREF HZ I        2135 12.73         3.9 0.31                           322 231 
                                                                                
