 2011  914 2218 23.1 L   6.742 -73.154143.1  RSN  8 0.4 2.0LRSN                1
 GAP=138        0.77       3.8     4.7  6.7 -0.3002E+00  0.7585E+01  0.7197E+01E
 Epicentro: JORDAN - SANTANDER                                                 3
 ACTION:UPD 12-07-13 15:57 OP:ep   STATUS:               ID:20110914221823 L   I
 2011-09-14-2215-45S.COL___169                                                 6
 STAT SP IPHASW D HRMM SECON CODA AMPLIT PERI AZIMU VELO AIN AR TRES W  DIS CAZ7
 BAR2 SZ ES   1   2218 57.63                             173    0.31 7 16.9 191 
 BAR2 SZ I        2218 59.27        45.7 0.20                          16.9 191 
 GIR2 SZ EP   1   2218 42.65                             165   -0.04 7 37.4 353 
 BRR  HZ EP   1   2218 44.45                             151    0.30 7 73.7 303 
 BRR  HN ES   1   2219  1.08                             151    0.54 7 73.7 303 
 BRR  HZ I        2219  3.64        20.1 0.12                          73.7 303 
 PAM  SZ EP   1   2218 45.40                             148   -0.02 7 82.9  37 
 PAM  SN ES   1   2219  2.33                             148   -0.47 7 82.9  37 
 RUS  HZ EP       2218 46.38                             145    0.1910 94.3 175 
 RUS  HE ES   1   2219  3.77                             145   -0.39 7 94.3 175 
 RUS  HZ I        2219  6.45         7.2 0.15                          94.3 175 
 ZAR  HN ES   1   2219 20.06                             121   -0.83 6  206 294 
 NOR  SZ EP   1   2218 58.33                             118    0.08 6  230 236 
 NOR  SN ES   1   2219 25.77                             118    0.14 6  230 236 
 CHI  HZ EP   1   2219  0.39                             117    0.39 6  242 195 
 CHI  HE ES   1   2219 28.14                             117   -0.61 6  242 195 
 CHI  HZ I        2219 38.58         5.1 0.47                           242 195 
                                                                                
