 2010 1014 2300  4.0 L   6.780 -73.128138.5  RSN 19 0.6 3.1LRSN                1
 GAP=104        1.40       4.1     6.2  7.1 -0.7121E+01  0.1983E+01  0.4171E+01E
 Epicentro: LOS SANTOS - SANTANDER                                             3
 ACTION:UP  11-02-18 11:09 OP:tino STATUS:               ID:20101014230004 L   I
 2010-10-14-2259-57S.COL___128                                                 6
 STAT SP IPHASW D HRMM SECON CODA AMPLIT PERI AZIMU VELO SNR AR TRES W  DIS CAZ7
 BAR2 SZ IP       23 0 22.71                             171     0.010   22 196 
 BAR2 SZ I        23 0 22.93       386.9 0.09                            22 196 
 BAR2 SZ ES   1   23 0 36.10                             171    -1.3 7   22 196 
 BTL  SZ EP       23 0 22.82                             171     0.110   22 315 
 GIR2 SZ EP       23 0 22.74                             166    -0.210   34 348 
 URB  SZ EP       23 0 24.26                             157     0.610   55 336 
 URB  SZ ES   1   23 0 38.96                             157    -0.1 7   55 336 
 BRR  HZ IP     C 23 0 24.56                             150     0.010   74 299 
 BRR  HZ I        23 0 24.97       304.8 0.12                            74 299 
 BRR  HN ES       23 0 41.31                             150     0.710   74 299 
 RUS  HZ EP       23 0 26.73                             143    -0.210   98 177 
 RUS  HN ES       23 0 44.83                             143     0.110   98 177 
 RUS  HZ I        23 0 47.08       221.2 0.31                            98 177 
 GUE  SZ EP       23 0 28.80                             137     0.610  118  11 
 GUE  SZ I        23 0 29.84        55.8 0.16                           118  11 
 GRA  SZ EP       23 0 29.54                             135     0.810  127  16 
 GRA  SZ ES   1   23 0 47.53                             135    -0.5 7  127  16 
 GRA  SZ I        23 0 50.13       216.7 0.30                           127  16 
 OCA  SZ EP       23 0 31.20                             127    -0.8 9  163 353 
 OCA  SZ I        23 0 54.58       131.3 1.11                           163 353 
 YOP  SZ EP       23 0 33.51                             125     0.2 9  176 154 
 YOP  SN ES   2   23 0 56.35                             125     0.2 4  176 154 
 NOR  SZ EP       23 0 39.24                             117    -0.2 8  235 235 
 NOR  SN ES       23 1  6.60                             117    -0.4 8  235 235 
 CHI  HZ EP       23 0 41.18                             116     0.0 8  247 196 
 CHI  HN ES   1   23 1 10.53                             116     0.4 6  247 196 
 CHI  HZ I        23 1 13.67        56.4 0.32                           247 196 
 ROSC BZ EP   1   23 0 43.16                             115     1.5 6  252 212 
 ROSC BN ES       23 1 10.62                             115    -0.4 8  252 212 
 ROSC BZ I        23 1 16.80        83.8 0.19                           252 212 
 HEL  HZ EP   1   23 0 43.86                             113    -0.2 6  273 256 
 HEL  HN ES   2   23 1 13.74                             113    -1.5 4  273 256 
 HEL  HZ I        23 1 20.36        76.5 0.18                           273 256 
 GUY  SZ EP   1   23 0 47.83                             111     0.5 5  302 235 
 DBB  SZ EP       23 0 51.09                             108    -0.4 7  342 275 
 TOL  SZ EP   1   23 0 52.23                             108     0.2 5  343 225 
 SDV  BZ EP       23 0 52.37                             107    -1.4 6  360  50 
 PRA  HZ EP   1   23 0 56.61                             105    -0.6 4  391 210 
 PRA  HN ES   2   23 1 39.19                             105     0.5 3  391 210 
 PRA  HZ I        23 1 43.66       144.5 0.81                           391 210 
                                                                                
