 2014  414 2253 27.8 L   5.910 -73.630126.8  RSN  5 0.3 1.3LRSN                1
 GAP= 96        0.85       3.1     3.8  7.8  0.5478E+00  0.7719E+01  0.8725E+00E
 Epicentro: BARBOSA - SANTANDER                                                3
 ACTION:UPD 14-05-13 23:08 OP:nd   STATUS:               ID:20140414225327 L   I
 OLDACT:UP  14-04-15 03:37 OP:cam  STATUS:               ID:20140414224812     3
 OLDACT:REG 14-04-15 03:02 OP:cam  STATUS:               ID:20140414224812     3
 2014-04-14-2248-12M.COL___251                                                 6
 STAT SP IPHASW D HRMM SECON CODA AMPLIT PERI AZIMU VELO AIN AR TRES W  DIS CAZ7
 RUS  HZ EP       2253 47.10                             153    0.0810 60.5  92 
 RUS  HE ES       2254  1.81                             153   -0.1910 60.5  92 
 RUS  HZ I        2254  2.58         2.8 0.20            156           60.5  92 
 PTB  HZ EP     D 2253 49.49                             135   -0.7910  115 307 
 PTB  HE ES       2254  7.92                             135    0.1210  115 307 
 PTB  HZ I        2254 10.65         3.8 0.14            137            115 307 
 BRR  HZ EP       2253 51.96                             131    0.1210  133 356 
 BRR  HE ES       2254 10.87                             131    0.2810  133 356 
 CHI  HZ EP   1   2253 53.94                             129    0.65 7  142 185 
 CHI  HN ES       2254 13.07                             129   -0.09 9  142 185 
 CHI  HZ I        2254 18.71         2.0 0.38            130            142 185 
 NOR  HZ EP       2253 52.87                             128    0.02 9  143 254 
 NOR  HE ES       2254 12.53                             128    0.15 9  143 254 
 NOR  HZ I        2254 13.85         4.8 0.12            130            143 254 
                                                                                
