 2010  814 2157  7.3 L   6.771 -73.093150.0  RSN  6 0.2 1.8LRSN                1
 GAP=165        0.73       3.5     7.2  6.4 -0.6566E+00 -0.1068E+02 -0.5136E+01E
 Epicentro: LOS SANTOS - SANTANDER                                             3
 ACTION:UP  10-09-07 10:54 OP:vdl  STATUS:               ID:20100814215707 L   I
 2010-08-14-2153-36S.COL___110                                                 6
 STAT SP IPHASW D HRMM SECON CODA AMPLIT PERI AZIMU VELO SNR AR TRES W  DIS CAZ7
 BAR2 SZ EP   1   2157 27.32                             171    -0.1 7   22 207 
 BAR2 SZ ES       2157 42.58                             171    -0.510   22 207 
 BAR2 SZ I        2157 43.94        26.8 0.13                            22 207 
 GIR2 SZ EP   1   2157 27.42                             166    -0.1 7   36 342 
 BRR  HZ IP     D 2157 29.16                             151    -0.110   78 299 
 BRR  HZ I        2157 29.33        26.1 0.12                            78 299 
 BRR  HN ES       2157 46.61                             151     0.210   78 299 
 RUS  HZ EP   1   2157 31.18                             146     0.0 7   97 179 
 RUS  HN ES       2157 50.20                             146     0.310   97 179 
 RUS  HZ I        2157 51.64         7.5 0.55                            97 179 
 GUE  SZ EP   1   2157 32.38                             140    -0.1 7  119   9 
 GUE  SZ I        2157 54.52         2.7 0.16                           119   9 
 GRA  SZ EP   1   2157 33.08                             138     0.1 7  127  15 
 GRA  SZ ES       2157 53.27                             138     0.210  127  15 
 GRA  SZ I        2157 57.26         6.6 0.31                           127  15 
                                                                                
