 2011  814 2359 43.7 L   6.577 -73.402117.8  RSN  4 0.2 1.8LRSN                1
 GAP=116        0.48       4.1     5.4  6.2  0.8931E+01  0.1168E+02  0.7831E+01E
 Epicentro: HATO - SANTANDER                                                   3
 ACTION:UPD 12-07-13 15:51 OP:ep   STATUS:               ID:20110814235943 L   I
 2011-08-14-2354-45S.COL___150                                                 6
 STAT SP IPHASW D HRMM SECON CODA AMPLIT PERI AZIMU VELO AIN AR TRES W  DIS CAZ7
 BAR2 SZ EP   1   24 0  0.19                             168    0.20 7 24.3  86 
 BAR2 SZ ES   1   24 0 12.35                             168   -0.36 7 24.3  86 
 BAR2 SZ I        24 0 14.71        30.5 0.25                          24.3  86 
 BRR  HZ IP     D 24 0  1.62                             148   -0.0510 67.9 330 
 BRR  HN ES   1   24 0 15.88                             148    0.18 7 67.9 330 
 BRR  HZ I        24 0 16.87        15.0 0.14                          67.9 330 
 RUS  HZ EP   1   24 0  3.38                             142   -0.08 7 83.5 155 
 RUS  HN ES   2   24 0 19.34                             142    0.46 5 83.5 155 
 RUS  HZ I        24 0 20.47         8.0 0.26                          83.5 155 
 NOR  SN ES   2   24 0 37.16                             116   -0.14 4  197 235 
                                                                                
