 2011 1014 2230 45.7 L   6.747 -73.144151.2  RSN  5 0.4 2.0LRSN                1
 GAP=157        0.79       6.7     5.8  7.5 -0.1574E+01  0.1016E+02 -0.8087E+01E
 Epicentro: LOS SANTOS - SANTANDER                                             3
 ACTION:UPD 12-07-13 16:03 OP:ep   STATUS:               ID:20111014223045 L   I
 2011-10-14-2229-39S.COL___168                                                 6
 STAT SP IPHASW D HRMM SECON CODA AMPLIT PERI AZIMU VELO AIN AR TRES W  DIS CAZ7
 BAR2 SZ EP   1   2231  6.05                             173    0.20 7 17.7 194 
 BAR2 SZ ES   1   2231 21.09                             173   -0.51 7 17.7 194 
 BAR2 SZ I        2231 22.97        17.4 0.24                          17.7 194 
 BRR  HZ EP       2231  7.98                             152    0.4110 74.3 302 
 BRR  HZ I        2231  8.31        52.8 0.17                          74.3 302 
 BRR  HN ES   1   2231 25.27                             152    0.60 7 74.3 302 
 PAM  SZ EP   1   2231  8.82                             150    0.10 7 81.8  37 
 PAM  SN ES   1   2231 26.36                             150   -0.35 7 81.8  37 
 PAM  SZ I        2231 28.92         4.3 0.24                          81.8  37 
 OCA  SZ EP   1   2231 14.64                             130   -0.30 7  166 353 
 OCA  SZ ES   1   2231 37.89                             130    0.12 7  166 353 
 OCA  SZ I        2231 42.56        20.2 0.26                           166 353 
 ZAR  HZ EP   1   2231 18.40                             123   -0.31 6  207 294 
 ZAR  HN ES   1   2231 43.94                             123   -0.56 6  207 294 
 ZAR  HZ I        2231 49.92         9.3 0.25                           207 294 
                                                                                
