 2017  114 2240  9.4 L   6.784 -73.142143.6  RSN 22 0.5 3.1LRSN 3.7WRSN        1
 SPEC AVERAGE  MO 14.7 ST0.218 OM  3.0 f00.919 R2.7257 AL 0.00 WI 40.0 MW  3.7 3
 SPEC SD       MO  0.4 ST0.403 OM  0.6 f00.666 R1.9443 AL      WI      MW  0.2 3
 GAP= 99        1.03       3.4     2.9  4.9 -0.5096E+00  0.4751E+01  0.3565E+01E
 Epicentro: LOS SANTOS - SANTANDER                                             3
 SPEC PAM EH Z MO 14.4 ST0.502 OM  2.5 f0 1.45 R1.3269 AL-0.00 WI 40.0 MW  3.6 3
 SPEC PAM EH Z T224047 K 0.000 GD  163 VS 5.20 DE 3.50 Q0750.0 QA 1.50 VS 5.20 3
 SPEC RUS HH Z MO 14.9 ST0.213 OM  2.9 f00.785 R2.4510 AL-0.00 WI 40.0 MW  3.8 3
 SPEC RUS HH Z T224049 K 0.000 GD  174 VS 5.20 DE 3.50 Q0750.0 QA 1.50 VS 5.20 3
 SPEC TAM HH Z MO 14.3 ST0.237 OM  2.3 f0 1.21 R1.5901 AL-0.00 WI 40.0 MW  3.5 3
 SPEC TAM HH Z T224056 K 0.000 GD  210 VS 5.20 DE 3.50 Q0750.0 QA 1.50 VS 5.20 3
 SPEC CHI HH Z MO 15.3 ST0.028 OM  3.1 f00.290 R6.6345 AL-0.00 WI 40.0 MW  4.1 3
 SPEC CHI HH Z T224114 K 0.000 GD  285 VS 5.20 DE 3.50 Q0750.0 QA 1.50 VS 5.20 3
 SPEC ROSCBH Z MO 14.6 ST0.206 OM  2.4 f00.962 R2.0000 AL-0.00 WI 40.0 MW  3.7 3
 SPEC ROSCBH Z T224117 K 0.000 GD  289 VS 5.20 DE 3.50 Q0750.0 QA 1.50 VS 5.20 3
 SPECGUY2CHH Z MO 14.7 ST  0.2 OM  2.5 f00.797 R  2.42 AL-0.00 WI 40.0 MW  3.8 3
 SPECGUY2CHH Z T224125 K       GD333.5 VS 5.20 DE 3.50 Q0750.0 QA 1.50 VS 5.20 3
 SPEC ELA HH Z MO 14.6 ST0.124 OM  2.3 f00.818 R2.3521 AL-0.00 WI 40.0 MW  3.7 3
 SPEC ELA HH Z T224131 K 0.000 GD  358 VS 5.20 DE 3.50 Q0750.0 QA 1.50 VS 5.20 3
 OLDACT:UP  17-01-15 07:47 OP:y    STATUS:               ID:20170114223744     3
 OLDACT:UP  17-01-15 07:47 OP:y    STATUS:               ID:20170114223744     3
 OLDACT:UP  17-01-15 07:43 OP:y    STATUS:               ID:20170114223744     3
 OLDACT:REG 17-01-15 05:45 OP:dnl  STATUS:               ID:20170114223744     3
 ACTION:UPD 17-05-22 15:59 OP:jn   STATUS:               ID:20170114224009 L   I
 OLDACT:UP  17-03-28 21:34 OP:nlst STATUS:               ID:20170114224009 L   3
 OLDACT:UP  17-01-15 07:48 OP:y    STATUS:               ID:20170114223744     3
 2017-01-14-2238-00M.COL___338                                                 6
 STAT SP IPHASW D HRMM SECON CODA AMPLIT PERI AZIMU VELO AIN AR TRES W  DIS CAZ7
 BAR2 EZ IP     D 2240 28.64                             171   -0.0810 21.7 192 
 BAR2 EZ ES       2240 43.39                             171   -0.4210 21.7 192 
 BAR2 EZ I        2240 44.51       445.0 0.28            169           21.7 192 
 BRR  HZ IP     C 2240 30.59                             152    0.2210 72.4 300 
 BRR  HN ES       2240 47.57                             152    0.8310 72.4 300 
 BRR  HZ I        2240 50.67       354.7 0.18            152           72.4 300 
 PAM  EZ IP     D 2240 31.49                             150    0.0510 78.5  38 
 PAM  EN ES       2240 48.54                             150   -0.0910 78.5  38 
 PAM  EZ I        2240 50.95       329.9 0.56            154           78.5  38 
 RUS  HZ EP       2240 32.52                             144   -0.2810 98.8 176 
 RUS  HN ES       2240 51.17                             144    0.1110 98.8 176 
 RUS  HZ I        2240 52.67        97.6 0.50            144           98.8 176 
 PTB  HZ EP       2240 35.29                             131   -0.90 9  148 260 
 PTB  HN ES       2240 56.28                             131   -0.81 9  148 260 
 PTB  HZ I        2240 58.32       199.6 0.50            132            148 260 
 TAM  HZ IP     D 2240 36.92                             130    0.10 9  154 104 
 TAM  HN ES       2240 58.44                             130    0.23 9  154 104 
 TAM  HZ I        2240 59.60        53.7 0.36            133            154 104 
 ZAR  HZ EP       2240 41.44                             122   -0.36 9  205 293 
 ZAR  HE ES       2241  7.73                             122    0.65 9  205 293 
 ZAR  HZ I        2241 13.01       151.6 0.34            123            205 293 
 NOR  HZ EP     D 2240 44.64                             118   -0.28 8  234 235 
 NOR  HN ES       2241 12.15                             118   -0.49 8  234 235 
 NOR  HZ I        2241 14.44       120.9 0.28            119            234 235 
 CHI  HZ EP       2240 46.94                             117    0.14 8  247 195 
 CHI  HN ES       2241 16.12                             117    0.14 8  247 195 
 CHI  HZ I        2241 21.98        38.6 0.42            118            247 195 
 ROSC BZ EP   4   2240 48.79                             116    1.54 0  251 211 
 ROSC BN ES   4   2241 19.12                             116    2.34 0  251 211 
 ROSC BZ I        2241 24.29        89.6 0.50            117            251 211 
 URE  HZ EP       2240 49.73                             113   -0.74 7  285 292 
 URE  HE ES   4   2241 20.34                             113   -2.17 0  285 292 
 URE  HZ I        2241 29.07       119.2 0.16            114            285 292 
 GUY2CHZ EP       2240 53.09                             112    0.27 7  301 235 
 GUY2CHN ES       2241 26.99                             112    0.29 7  301 235 
 GUY2CHZ  IAML    2241 35.37        82.3 0.32                           301 235 
 PTGC HZ EP   4   2240 51.70                             111   -1.25 0  307 159 
 PTGC HN ES   4   2241 24.99                             111   -1.93 0  307 159 
 PTGC HZ I        2241 26.94        44.8 0.22            113            307 159 
 ELA  HZ EP   4   2240 57.60                             110    1.54 0  328 230 
 ELA  HN ES       2241 32.67                             110    0.21 7  328 230 
 ELA  HZ I        2241 39.64        46.6 0.60            111            328 230 
 CBOC HZ EP       2240 57.08                             109    0.88 7  333 252 
 CBOC HN ES       2241 33.22                             109    0.51 7  333 252 
 CBOC HZ I        2241 34.57        29.6 0.40            110            333 252 
 DBB  EZ EP       2240 56.92                             109    0.08 7  340 275 
 DBB  EZ ES   4   2241 31.40                             109   -2.45 0  340 275 
 DBB  EZ I        2241 35.75        63.7 0.42            110            340 275 
 ORTC HZ EP       2241  3.24                             106    0.14 6  394 216 
 ORTC HN ES       2241 45.67                             106    0.68 6  394 216 
 ORTC HZ I        2241 51.73        39.6 0.42            107            394 216 
 PAL  HZ EP       2241  4.60                             105    0.18 6  405 239 
 PAL  HN ES   4   2241 45.83                             105   -1.51 0  405 239 
 PAL  HZ I        2241 49.16        28.5 0.70            106            405 239 
 SJC  HZ EP   4   2241  2.83                             105   -2.25 0  411 327 
 SJC  HN ES   4   2241 44.35                             105   -4.16 0  411 327 
 SJC  HZ I        2241 48.33        33.2 0.76            106            411 327 
 SMAR HZ EP   4   2241 14.73                             102   -0.69 0  499 346 
 SMAR HE ES   4   2242  1.91                             102   -5.01 0  499 346 
 SMAR HZ I        2242  3.01        10.1 0.32            103            499 346 
 MACC HZ EP   4   2241 15.69                             101   -2.16 0  519 189 
 MACC HN ES   4   2242  6.53                             101   -4.72 0  519 189 
 MACC HZ I        2242 12.73         9.4 0.26            102            519 189 
 SOTO HZ EP   2   2241 33.85                              98    0.61 1  642 217 
 SOTO HE ES   4   2242 40.68                              98    2.04 0  642 217 
                                                                                
