 2015  514 2038 35.3 L   6.767 -73.107133.7  RSN  6 0.2 1.8LRSN                1
 GAP=143        0.59       2.4     2.9  4.1 -0.6405E-01  0.3320E+01 -0.1368E+00E
 Epicentro: LOS SANTOS - SANTANDER                                             3
 ACTION:UPD 15-09-10 22:04 OP:cam  STATUS:               ID:20150514203835 L   I
 OLDACT:REG 15-05-15 03:14 OP:stll STATUS:               ID:20150514202749     3
 2015-05-14-2027-49M.COL___283                                                 6
 STAT SP IPHASW D HRMM SECON CODA AMPLIT PERI AZIMU VELO AIN AR TRES W  DIS CAZ7
 BAR2 EZ EP       2038 53.62                             171    0.2210 21.1 203 
 BAR2 EZ I        2038 53.72        16.8 0.40            169           21.1 203 
 BAR2 EZ ES       2039  7.70                             171    0.1510 21.1 203 
 BRR  HZ EP       2038 55.48                             148    0.0110 76.7 299 
 BRR  HZ I        2038 55.77        13.8 0.24            146           76.7 299 
 BRR  HE ES       2039 11.43                             148    0.2010 76.7 299 
 PAM  SZ EP       2038 56.58                             148    0.3510 77.6  35 
 PAM  SZ I        2038 57.22         9.3 0.24            150           77.6  35 
 PAM  SN ES       2039 12.11                             148   -0.4710 77.6  35 
 RUS  HZ EP       2038 57.54                             142   -0.0210 96.8 178 
 RUS  HE ES       2039 14.86                             142   -0.1010 96.8 178 
 RUS  HZ I        2039 17.17         5.7 0.48            143           96.8 178 
 SPBC HZ EP   1   2039  2.65                             126   -0.22 7  163 221 
 SPBC HE ES       2039 24.29                             126   -0.11 9  163 221 
 SPBC HZ I        2039 25.83        15.5 0.14            126            163 221 
 ZAR  HZ EP       2039  7.43                             119   -0.09 8  209 293 
 ZAR  HN ES       2039 32.56                             119   -0.12 8  209 293 
 ZAR  HZ I        2039 39.76         8.5 0.60            118            209 293 
                                                                                
