 2010  314 2311 37.8 L   6.764 -73.095148.3  RSN  8 0.4 1.9LRSN                1
 GAP=188        0.74       3.1     6.0  5.3  0.4815E+01  0.7470E+01  0.3304E+01E
 Epicentro: LOS SANTOS - SANTANDER                                             3
 ACTION:UP  10-08-24 09:54 OP:vdl  STATUS:               ID:20100314231138 L   I
 2010-03-14-2309-58S.COL___095                                                 6
 STAT SP IPHASW D HRMM SECON CODA AMPLIT PERI AZIMU VELO SNR AR TRES W  DIS CAZ7
 BAR2 SZ ES   2   2312 12.58                             171    -0.6 5   21 207 
 BRR  HZ EP   1   2311 59.23                             151    -0.4 7   78 299 
 BRR  HE ES       2312 16.96                             151     0.310   78 299 
 BRR  HZ I        2312 18.51        26.5 0.25                            78 299 
 RUS  HZ EP       2312  1.46                             145     0.010   96 179 
 RUS  HE ES       2312 20.14                             145     0.210   96 179 
 RUS  HZ I        2312 21.43         8.1 0.40                            96 179 
 OCA  SZ EP   1   2312  6.73                             130     0.0 7  165 351 
 OCA  SZ ES       2312 29.12                             130    -0.2 9  165 351 
 OCA  SZ I        2312 31.82        17.8 0.17                           165 351 
 CHI  HZ EP       2312 15.49                             118     0.1 8  246 197 
 CHI  HZ I        2312 17.60         2.6 0.14                           246 197 
 HEL  HZ EP   1   2312 19.45                             115     0.8 6  277 257 
 HEL  HN ES   3   2312 50.21                             115    -0.3 2  277 257 
 HEL  HZ I        2312 56.69         3.7 0.32                           277 257 
 DBB  SZ EP   1   2312 25.72                             110    -0.3 5  345 275 
 DBB  SZ ES   1   2313  3.25                             110    -0.4 5  345 275 
 PRA  HZ EP       2312 31.46                             107     0.1 6  391 211 
 PRA  HE ES   2   2313 12.31                             107    -0.8 3  391 211 
 PRA  HZ I        2313 19.15         3.4 0.33                           391 211 
                                                                                
