 2017  314 2246 41.3 L   6.806 -73.128144.0  RSN  5 0.2 1.3LRSN                1
 GAP=196        0.53       8.9     4.3  6.3 -0.2541E+02 -0.1295E+02  0.3349E+02E
 Epicentro: LOS SANTOS - SANTANDER                                             3
 ACTION:UPD 17-05-25 18:40 OP:jn   STATUS:               ID:20170314224641 L   I
 OLDACT:UP  17-03-15 04:37 OP:and  STATUS:               ID:20170314223741d    3
 OLDACT:UP  17-03-15 04:36 OP:and  STATUS:               ID:20170314223741d    3
 OLDACT:UP  17-03-15 04:35 OP:and  STATUS:               ID:20170314223741d    3
 OLDACT:DUP 17-03-15 04:33 OP:and  STATUS:               ID:20170314223741d    3
 OLDACT:UP  17-03-15 04:32 OP:and  STATUS:               ID:20170314223740     3
 OLDACT:UP  17-03-15 04:32 OP:and  STATUS:               ID:20170314223740     3
 OLDACT:UP  17-03-15 04:32 OP:and  STATUS:               ID:20170314223740     3
 OLDACT:UP  17-03-15 04:31 OP:and  STATUS:               ID:20170314223740     3
 OLDACT:UP  17-03-15 04:30 OP:and  STATUS:               ID:20170314223740     3
 OLDACT:UP  17-03-15 04:30 OP:and  STATUS:               ID:20170314223740     3
 OLDACT:REG 17-03-15 02:53 OP:and  STATUS:               ID:20170314223740     3
 2017-03-14-2238-00M.COL___376                                                 6
 STAT SP IPHASW D HRMM SECON CODA AMPLIT PERI AZIMU VELO AIN AR TRES W  DIS CAZ7
 BRR  HZ EP   2   2247  2.90                             151    0.57 5 72.7 297 
 BRR  HN ES       2247 18.83                             151    0.0910 72.7 297 
 PAM  EZ IP     D 2247  3.07                             150   -0.1410 75.6  39 
 PAM  EE ES       2247 20.25                             150   -0.0610 75.6  39 
 PTB  HZ EP   9   2247  6.93                             130   -1.37 0  150 259 
 PTB  HN ES       2247 27.61                             132   -0.39 9  150 259 
 PTB  HZ I        2247 30.96         3.0 0.17            132            150 259 
 ZAR  HN ES   2   2247 39.09                             121   -0.04 4  206 292 
 NOR  HZ EP   2   2247 16.91                             117   -0.22 4  237 235 
 NOR  HN ES   2   2247 45.22                             117    0.13 4  237 235 
 NOR  HZ I        2247 49.80         1.2 0.26            118            237 235 
                                                                                
