 2014  114 2134  3.0 L   6.798 -73.162143.3  RSN  5 0.3 1.4LRSN                1
 GAP=135        0.66       2.8     3.1  6.2  0.2799E+00  0.5361E+01  0.4266E+01E
 Epicentro: LOS SANTOS - SANTANDER                                             3
 ACTION:UPD 14-03-13 09:55 OP:ep   STATUS:               ID:20140114213403 L   I
 OLDACT:REG 14-01-14 21:18 OP:jn   STATUS:               ID:20140114213000     3
 2014-01-14-2130-00M.COL___285                                                 6
 STAT SP IPHASW D HRMM SECON CODA AMPLIT PERI AZIMU VELO AIN AR TRES W  DIS CAZ7
 PAM  SZ EP       2134 25.06                             150    0.0410 78.7  40 
 PAM  SN ES       2134 42.42                             150    0.2110 78.7  40 
 PAM  SZ I        2134 44.58         4.7 0.44            157           78.7  40 
 RUS  HZ EP       2134 26.46                             143   -0.0310  101 175 
 RUS  HN ES       2134 44.43                             143   -0.4010  101 175 
 RUS  HZ I        2134 47.91         2.3 0.34            145            101 175 
 PTB  HZ EP       2134 29.27                             132   -0.32 9  146 259 
 PTB  HN ES       2134 50.62                             132    0.28 9  146 259 
 PTB  HZ I        2134 56.37         4.6 0.64            133            146 259 
 ZAR  HE ES       2134 60.00                             122   -0.16 9  202 292 
 ZAR  HZ I        2135  6.75         4.9 0.28            124            202 292 
 CHI  HZ EP       2134 40.62                             117    0.14 8  248 195 
 CHI  HN ES       2135 10.12                             117    0.40 8  248 195 
 CHI  HZ I        2135 17.58         1.3 0.38            119            248 195 
                                                                                
