 2017 1114 2351 21.6 L   6.809 -73.170149.4  RSN 15 0.4 2.0LRSN                1
 GAP=109        0.88       2.8     2.9  4.8  0.4881E+00  0.3218E+01  0.3259E+01E
 Epicentro: LOS SANTOS - SANTANDER                                             3
 ACTION:UPD 17-12-12 19:55 OP:rebc STATUS:               ID:20171114235121 L   I
 OLDACT:UP  17-11-15 06:31 OP:dnl  STATUS:               ID:20171114234736     3
 OLDACT:UP  17-11-15 06:30 OP:dnl  STATUS:               ID:20171114234736     3
 OLDACT:REG 17-11-15 05:54 OP:dnl  STATUS:               ID:20171114234736     3
 2017-11-14-2348-00M.COL___459                                                 6
 STAT SP IPHASW D HRMM SECON CODA AMPLIT PERI AZIMU VELO AIN AR TRES W  DIS CAZ7
 BAR2 EZ EP       2351 41.41                             170   -0.2310 24.0 183 
 BAR2 EZ ES       2351 56.84                             170   -0.4610 24.0 183 
 BAR2 EZ I        2351 58.99        28.3 0.28            173           24.0 183 
 BRR  HZ IP     D 2351 43.18                             154    0.2310 68.3 299 
 BRR  HN ES       2352  0.27                             154    0.6410 68.3 299 
 BRR  HZ I        2352  3.11        19.9 0.16            144           68.3 299 
 PAM  EZ IP     D 2351 44.45                             151    0.2310 78.4  42 
 PAM  EN ES       2352  1.66                             151   -0.2410 78.4  42 
 PAM  EZ I        2352  4.24        15.3 0.54            141           78.4  42 
 RUS  HZ EP       2351 45.45                             144   -0.3110  102 175 
 RUS  HN ES       2352  4.68                             144    0.0510  102 175 
 RUS  HZ I        2352  5.22        11.8 0.24            140            102 175 
 PTB  HZ EP       2351 47.99                             133   -0.62 9  145 258 
 PTB  HN ES       2352  9.60                             133   -0.10 9  145 258 
 PTB  HZ I        2352 12.79        11.1 0.22            125            145 258 
 SPBC HZ EP   2   2351 50.50                             130    0.24 5  162 218 
 SPBC HE ES       2352 12.91                             130    0.27 9  162 218 
 SPBC HZ I        2352 18.27        26.5 0.42            123            162 218 
 YPLC HZ EP       2351 51.93                             127    0.10 9  179 151 
 YPLC HN ES       2352 16.01                             127    0.56 9  179 151 
 YPLC HZ I        2352 16.72        18.3 0.24            120            179 151 
 ZAR  HZ EP       2351 53.72                             124   -0.23 9  201 292 
 ZAR  HE ES       2352 19.30                             124    0.09 9  201 292 
 ZAR  HZ I        2352 24.86         9.3 0.72            115            201 292 
 NOR  HZ EP       2351 57.93                             119    0.60 8  233 234 
 NOR  HE ES       2352 24.96                             119   -0.27 8  233 234 
 NOR  HZ I        2352 33.27         9.1 0.16            112            233 234 
 CHI  HZ EP       2351 59.74                             118    0.25 8  249 194 
 CHI  HN ES       2352 28.39                             118   -0.69 8  249 194 
 CHI  HZ I        2352 31.96         4.5 0.30            111            249 194 
 URE  HZ EP   2   2352  1.94                             114   -0.55 4  281 292 
 URE  HN ES   4   2352 33.14                             114   -1.27 0  281 292 
 URE  HZ I        2352 36.98         6.3 0.14            107            281 292 
 GUY2CHZ EP   4   2352  6.70                             113    1.54 0  300 234 
 GUY2CHE ES       2352 39.44                             113    0.28 7  300 234 
 GUY2CHZ I        2352 47.48         5.8 0.32                           300 234 
 LL6C HZ EP   4   2352  8.00                             111    0.71 0  324 358 
 LL6C HN ES   4   2352 40.38                             111   -2.58 0  324 358 
 LL6C HZ I        2352 47.40         1.8 0.62            104            324 358 
 PRA  HZ EP   4   2352 13.74                             107   -1.41 0  392 209 
 PRA  HN ES       2352 57.01                             107    0.05 6  392 209 
 PRA  HZ I        2353  3.09         4.8 0.28            101            392 209 
 SJC  HZ EP   4   2352 15.52                             106   -1.45 0  407 327 
 SJC  HZ I        2353  4.10         1.5 0.40            100            407 327 
                                                                                
