 2011  814 2250  9.0 L   6.790 -73.128141.1  RSN  5 0.2 1.7LRSN                1
 GAP=185        0.43       2.9     5.3  4.7  0.3444E+01 -0.1286E+01 -0.4283E+01E
 Epicentro: LOS SANTOS - SANTANDER                                             3
 ACTION:UPD 12-07-13 15:51 OP:ep   STATUS:               ID:20110814225009 L   I
 2011-08-14-2244-51S.COL___150                                                 6
 STAT SP IPHASW D HRMM SECON CODA AMPLIT PERI AZIMU VELO AIN AR TRES W  DIS CAZ7
 BAR2 SZ EP   1   2250 28.16                             170    0.08 7 22.7 195 
 BAR2 SZ ES   1   2250 42.65                             170   -0.30 7 22.7 195 
 BAR2 SZ I        2250 44.25        17.5 0.17                          22.7 195 
 BRR  HZ EP       2250 29.87                             151    0.0710 73.5 299 
 BRR  HN ES   1   2250 46.26                             151    0.25 7 73.5 299 
 BRR  HZ I        2250 51.21        18.5 0.26                          73.5 299 
 RUS  HZ EP   2   2250 32.36                             143    0.13 5 99.4 177 
 RUS  HN ES   1   2250 50.43                             143    0.10 7 99.4 177 
 RUS  HZ I        2250 52.22         3.6 0.25                          99.4 177 
 OCA  SZ EP   1   2250 37.06                             128   -0.04 7  162 352 
 OCA  SZ ES   2   2250 58.64                             128   -0.36 5  162 352 
 OCA  SZ I        2250 59.63         6.3 0.35                           162 352 
 NOR  SN ES   2   2251 11.86                             117   -0.48 4  236 235 
                                                                                
