 2013  514 2034 51.6 L   6.783 -73.123146.2  RSN  7 0.3 1.9LRSN                1
 GAP=140        0.83       4.7     4.1  5.6 -0.6462E+01  0.2046E+01  0.7899E+01E
 Epicentro: LOS SANTOS - SANTANDER                                             3
 ACTION:UPD 13-06-20 09:50 OP:ep   STATUS:               ID:20130514203451 L   I
 2013-05-14-2030-00M.COL___256                                                 6
 STAT SP IPHASW D HRMM SECON CODA AMPLIT PERI AZIMU VELO AIN AR TRES W  DIS CAZ7
 BAR2 SZ EP       2035 11.22                             171   -0.0110 22.0 197 
 BAR2 SZ ES       2035 26.44                             171   -0.1310 22.0 197 
 BAR2 SZ I        2035 27.94        24.0 0.24            170           22.0 197 
 GIR2 SZ EP   1   2035 11.35                             166   -0.02 7 33.7 347 
 GIR2 SZ ES       2035 26.60                             166   -0.2010 33.7 347 
 BRR  HZ EP   1   2035 12.79                             151   -0.16 7 74.3 299 
 BRR  HN ES       2035 30.25                             151    0.6310 74.3 299 
 BRR  HZ I        2035 33.24        16.8 0.28            151           74.3 299 
 PAM  SZ EP       2035 14.11                             151    0.2710 77.4  37 
 PAM  SZ I        2035 14.35        19.2 0.22            153           77.4  37 
 PAM  SN ES       2035 31.10                             151   -0.1010 77.4  37 
 RUS  HZ EP       2035 15.09                             144   -0.1310 98.5 177 
 RUS  HN ES   1   2035 33.83                             144    0.16 7 98.5 177 
 RUS  HZ I        2035 35.03         9.3 0.30            145           98.5 177 
 PTB  HZ EP   1   2035 18.57                             132   -0.19 7  150 260 
 PTB  HN ES       2035 39.26                             132   -0.71 9  150 260 
 PTB  HZ I        2035 40.84         9.3 0.38            131            150 260 
 NOR  HZ EP   1   2035 27.44                             118    0.01 6  236 235 
 NOR  HN ES       2035 55.98                             118    0.59 8  236 235 
 NOR  HZ I        2036  0.26         6.3 0.52            119            236 235 
                                                                                
