 2016 1014 2004 50.4 L   6.802 -73.098152.9  RSN 10 0.3 1.9LRSN                1
 GAP=123        0.81       3.0     3.4  5.0 -0.2303E+01 -0.3611E-02  0.1204E+01E
 Epicentro: LOS SANTOS - SANTANDER                                             3
 ACTION:UPD 16-11-09 19:19 OP:rebc STATUS:               ID:20161014200450 L   I
 OLDACT:UP  16-10-15 08:46 OP:dani STATUS:               ID:20161014195740     3
 OLDACT:UP  16-10-15 08:46 OP:dani STATUS:               ID:20161014195740     3
 OLDACT:UP  16-10-15 08:44 OP:dani STATUS:               ID:20161014195740     3
 OLDACT:REG 16-10-15 07:49 OP:dani STATUS:               ID:20161014195740     3
 2016-10-14-1958-00M.COL___374                                                 6
 STAT SP IPHASW D HRMM SECON CODA AMPLIT PERI AZIMU VELO AIN AR TRES W  DIS CAZ7
 PAM  EZ EP       20 5 13.62                             153    0.3810 74.0  36 
 PAM  EN ES       20 5 30.97                             153   -0.0410 74.0  36 
 PAM  EZ I        20 5 32.91         5.8 0.44            156           74.0  36 
 BRR  HZ EP       20 5 12.68                             152    0.0510 75.8 297 
 BRR  HN ES       20 5 30.17                             152    0.2410 75.8 297 
 BRR  HZ I        20 5 32.29        11.1 0.18            150           75.8 297 
 RUS  HZ EP       20 5 14.56                             145   -0.3410  101 179 
 RUS  HN ES       20 5 33.53                             145   -0.4510  101 179 
 RUS  HZ I        20 5 34.55         4.4 0.38            147            101 179 
 PTB  HZ EP   9   20 5 17.45                             132   -1.02 0  153 259 
 PTB  HE ES       20 5 38.74                             132   -0.57 9  153 259 
 PTB  HZ I        20 5 44.60        10.8 0.26            132            153 259 
 SPBC HZ EP       20 5 19.71                             130   -0.12 9  167 220 
 SPBC HN ES       20 5 43.11                             130    0.36 9  167 220 
 SPBC HZ I        20 5 49.05        16.8 0.36            130            167 220 
 ZAR  HZ EP       20 5 23.42                             123   -0.44 8  209 292 
 ZAR  HN ES       20 5 49.71                             123   -0.22 8  209 292 
 ZAR  HZ I        20 5 55.19        10.3 0.14            123            209 292 
 NOR  HZ EP       20 5 26.89                             119   -0.18 8  239 235 
 NOR  HN ES       20 5 56.00                             119    0.36 8  239 235 
 NOR  HZ I        20 5 58.44         8.6 0.18            120            239 235 
 CHI  HN ES       20 5 58.97                             118    0.39 8  250 196 
 SOCV BZ EP       20 5 33.48                             114    0.16 7  297  56 
 SOCV BN ES   4   20 6  2.31                             114   -4.46 0  297  56 
 GUY2CHZ EP   4   20 5 36.02                             113    1.13 0  306 235 
 GUY2CHE ES   4   20 6 13.94                             113    4.38 0  306 235 
 GUY2CHZ I        20 6 17.94         4.8 0.32                           306 235 
                                                                                
