 2010  514 2016 48.6 L   6.752 -73.056140.4  RSN 11 0.4 2.4LRSN                1
 GAP=133        0.84       3.2     6.1  5.9 -0.6318E+01 -0.3862E+00  0.1662E+01E
 Epicentro: LOS SANTOS - SANTANDER                                             3
 ACTION:UP  10-08-24 10:05 OP:vdl  STATUS:               ID:20100514201648 L   I
 2010-05-14-2015-00S.COL___108                                                 6
 STAT SP IPHASW D HRMM SECON CODA AMPLIT PERI AZIMU VELO AIN AR TRES W  DIS CAZ7
 BAR2 SZ EP       2017  7.35                             170    -0.310   23 219 
 BAR2 SZ ES   1   2017 21.93                             170    -0.5 7   23 219 
 BRR  HZ EP       2017 10.00                             148     0.110   83 298 
 BRR  HN ES   1   2017 26.93                             148     0.4 7   83 298 
 BRR  HZ I        2017 31.24        50.3 0.06                            83 298 
 RUS  HZ EP       2017 11.55                             144     0.110   95 182 
 RUS  HN ES   1   2017 29.60                             144     0.3 7   95 182 
 RUS  HZ I        2017 32.04        17.9 0.28                            95 182 
 BRI  SZ EP   2   2017 12.88                             140     0.7 5  110  15 
 BRI  SZ ES   1   2017 30.03                             140    -0.5 7  110  15 
 GUE  SZ EP   1   2017 12.72                             137    -0.4 7  120   7 
 GRA  SZ EP       2017 14.24                             135     0.610  128  13 
 GRA  SZ ES   1   2017 33.00                             135    -0.1 7  128  13 
 OCA  SZ EP   1   2017 16.96                             127    -0.2 7  167 350 
 OCA  SZ ES   1   2017 39.78                             127     0.3 7  167 350 
 OCA  SZ I        2017 40.94        30.6 0.26                           167 350 
 CHI  HZ EP   1   2017 26.00                             116     0.2 6  246 198 
 CHI  HE ES   2   2017 55.00                             116     0.2 4  246 198 
 HEL  HZ EP   1   2017 29.32                             113    -0.2 6  280 257 
 HEL  HN ES   2   2018  0.49                             113    -0.9 4  280 257 
 HEL  HZ I        2018  6.62        12.4 0.64                           280 257 
 SDV  BZ EP   1   2017 37.18                             108    -0.8 5  356  49 
 PRA  HZ EP   1   2017 42.10                             106     0.1 4  392 211 
 PRA  HE ES   2   2018 23.28                             106    -0.4 3  392 211 
 PRA  HZ I        2018 30.24        11.7 0.30                           392 211 
                                                                                
