 2015 1014 2227 34.0 L   6.767 -73.112148.8  RSN  7 0.3 1.6LRSN                1
 GAP=142        0.57       2.9     2.9  5.0 -0.8599E+00  0.3011E+01  0.1435E+01E
 Epicentro: LOS SANTOS - SANTANDER                                             3
 ACTION:UPD 15-12-22 20:40 OP:cam  STATUS:               ID:20151014222734 L   I
 OLDACT:DUP 15-10-15 07:38 OP:spq  STATUS:               ID:20151014221747d    3
 2015-10-14-2217-46M.COL___337                                                 6
 STAT SP IPHASW D HRMM SECON CODA AMPLIT PERI AZIMU VELO AIN AR TRES W  DIS CAZ7
 BAR2 EZ EP       2227 53.82                             172   -0.1210 20.9 202 
 BAR2 EZ ES   1   2228  9.59                             172    0.10 7 20.9 202 
 BAR2 EZ I        2228  9.92         7.3 0.25            171           20.9 202 
 BRR  HZ EP       2227 55.74                             151   -0.0110 76.2 300 
 BRR  HN ES       2228 12.98                             151    0.2610 76.2 300 
 BRR  HZ I        2228 15.88        11.2 0.32            150           76.2 300 
 PAM  EZ EP       2227 56.68                             151    0.1210 78.0  36 
 PAM  EE ES       2228 13.85                             151   -0.3210 78.0  36 
 PAM  EZ I        2228 15.85         7.6 0.60            153           78.0  36 
 RUS  HZ EP   1   2227 58.24                             145    0.47 7 96.8 178 
 RUS  HE ES   1   2228 16.26                             145   -0.06 7 96.8 178 
 RUS  HZ I        2228 17.46         3.4 0.28            148           96.8 178 
 SPBC HE ES   1   2228 25.06                             130   -0.01 7  163 221 
 SPBC HZ I        2228 27.31         6.4 0.42            131            163 221 
 ZAR  HN ES       2228 32.95                             122   -0.03 8  209 293 
 ZAR  HZ I        2228 38.02         4.3 0.28            122            209 293 
 GUY2CHZ EP   4   2228 20.03                             113    2.18 0  302 236 
 GUY2CHE ES   1   2228 51.43                             113   -0.63 5  302 236 
 GUY2CHZ I        2228 58.86         2.3 0.34                           302 236 
                                                                                
