 2010 1114 2055 16.8 L   6.764 -73.114148.6  RSN  8 0.4 2.1LRSN                1
 GAP=163        1.08       4.8     8.7  8.0 -0.1500E+02  0.5904E+01  0.5022E+00E
 Epicentro: LOS SANTOS - SANTANDER                                             3
 ACTION:UP  10-12-17 16:52 OP:REBC STATUS:               ID:20101114205516 L   I
 2010-11-14-2053-19S.COL___129                                                 6
 STAT SP IPHASW D HRMM SECON CODA AMPLIT PERI AZIMU VELO SNR AR TRES W  DIS CAZ7
 BAR2 SZ ES   2   2055 51.84                             172    -0.4 5   21 202 
 BAR2 SZ I        2055 54.26        26.2 0.28                            21 202 
 BTL  SZ ES   1   2055 52.59                             170     0.2 7   24 315 
 BRR  HZ IP     C 2055 38.48                             151    -0.110   76 300 
 BRR  HZ I        2055 38.74        55.9 0.16                            76 300 
 BRR  HN ES   1   2055 55.94                             151     0.4 7   76 300 
 RUS  HZ EP       2055 40.42                             146    -0.110   96 178 
 RUS  HN ES   1   2055 59.03                             146    -0.1 7   96 178 
 RUS  HZ I        2056  0.43        10.0 0.24                            96 178 
 GRA  SZ IP       2055 43.38                             137     0.810  129  15 
 GRA  SZ I        2055 44.52        15.1 0.33                           129  15 
 GRA  SZ ES   1   2056  2.37                             137    -0.3 7  129  15 
 OCA  SZ EP       2055 44.99                             129    -0.8 9  165 352 
 OCA  SZ ES   1   2056  8.45                             129     0.1 7  165 352 
 OCA  SZ I        2056 13.42        13.7 0.20                           165 352 
 NOR  SZ EP       2055 53.00                             119     0.2 8  235 236 
 NOR  SN ES   1   2056 20.41                             119    -0.5 6  235 236 
 PRA  HE ES   2   2056 52.58                             107     0.7 3  390 210 
                                                                                
