 2011  114 2005 32.5 L   6.782 -73.174134.4  RSN  4 0.1 1.5LRSN                1
 GAP=209        0.30       3.9     7.5  5.5  0.1170E+01  0.2545E+02  0.5972E+00E
 Epicentro: VILLANUEVA - SANTANDER                                             3
 ACTION:UP  11-02-08 08:40 OP:pat  STATUS:               ID:20110114200533 L   I
 2011-01-14-2001-54S.COL___135                                                 6
 STAT SP IPHASW D HRMM SECON CODA AMPLIT PERI AZIMU VELO SNR AR TRES W  DIS CAZ7
 BTL  SZ EP       20 5 50.70                             172     0.010   18 326 
 BAR2 SZ EP   2   20 5 50.61                             171    -0.1 5   21 183 
 BAR2 SZ I        20 5 50.98        10.9 0.17                            21 183 
 BAR2 SZ ES   2   20 6  4.87                             171    -0.1 5   21 183 
 RUS  HZ EP   1   20 5 54.99                             142     0.0 7   99 174 
 RUS  HE ES   2   20 6 12.64                             142     0.1 5   99 174 
 RUS  HZ I        20 6 14.85         3.7 0.20                            99 174 
 NOR  SZ EP   1   20 6  7.20                             116     0.0 6  231 235 
                                                                                
