 2014  814 2136 56.3 L   6.816 -73.142143.7  RSN 11 0.5 2.1LRSN                1
 GAP=201        1.10       3.3     5.1  5.8  0.2340E+01  0.5756E+01  0.1330E+01E
 Epicentro: LOS SANTOS - SANTANDER                                             3
 ACTION:UPD 14-09-15 21:49 OP:nd   STATUS:               ID:20140814213656 L   I
 OLDACT:REG 14-08-15 03:29 OP:carl STATUS:               ID:20140814212818     3
 2014-08-14-2128-18M.COL___275                                                 6
 STAT SP IPHASW D HRMM SECON CODA AMPLIT PERI AZIMU VELO AIN AR TRES W  DIS CAZ7
 BAR2 SZ EP       2137 15.75                             170    0.0710 25.2 190 
 BAR2 SZ ES       2137 30.73                             170   -0.1010 25.2 190 
 BAR2 SZ I        2137 32.02        50.9 0.20            170           25.2 190 
 BRR  HZ EP       2137 17.61                             152    0.4510 70.7 297 
 BRR  HN ES       2137 34.43                             152    0.9710 70.7 297 
 BRR  HZ I        2137 38.48        24.7 0.14            150           70.7 297 
 RUS  HZ EP       2137 19.79                             143   -0.1510  102 176 
 RUS  HN ES       2137 38.13                             143   -0.2810  102 176 
 RUS  HZ I        2137 39.17        15.1 0.24            145            102 176 
 PTB  HZ EP       2137 22.73                             131   -0.40 9  149 258 
 PTB  HN ES       2137 43.11                             131   -0.98 9  149 258 
 PTB  HZ I        2137 45.18        12.1 0.24            130            149 258 
 SPBC HZ EP       2137 24.12                             128   -0.64 9  165 219 
 SPBC HN ES       2137 47.09                             128    0.10 9  165 219 
 SPBC HZ I        2137 47.78        16.2 0.14            128            165 219 
 ZAR  HZ EP       2137 28.51                             122   -0.03 9  204 292 
 ZAR  HN ES       2137 53.96                             122    0.24 9  204 292 
 ZAR  HZ I        2138  0.46        12.4 0.28            121            204 292 
 NOR  HZ EP       2137 32.30                             118    0.28 8  236 234 
 NOR  HN ES       2137 59.51                             118   -0.40 8  236 234 
 NOR  HZ I        2138  5.95         8.4 0.18            118            236 234 
 SML  HZ EP       2137 32.52                             117   -0.09 8  242 335 
 SML  HN ES       2138  0.54                             117   -0.43 8  242 335 
 SML  HZ I        2138  9.45        17.3 0.24            117            242 335 
 CHI  HZ EP       2137 34.49                             116    0.44 8  250 195 
 CHI  HN ES       2138  3.48                             116   -0.04 8  250 195 
 CHI  HZ I        2138 10.33         5.3 0.46            117            250 195 
 GUY2CHZ EP       2137 40.09                             112    0.16 7  303 235 
 GUY2CHN ES       2138 14.31                             112    0.32 7  303 235 
 GUY2CHZ I        2138 24.18         5.2 0.40                           303 235 
 PRA  HZ EP       2137 50.13                             106    0.21 6  394 209 
 PRA  HN ES       2138 32.90                             106    1.13 6  394 209 
 PRA  HZ I        2138 36.82         7.5 0.26            107            394 209 
                                                                                
