 2015  514 2245 29.7 L   6.772 -73.127139.1  RSN  4 0.2 1.4LRSN                1
 GAP=140        0.61       3.3     4.7  5.4 -0.3452E+00 -0.1357E+01 -0.1226E+01E
 Epicentro: LOS SANTOS - SANTANDER                                             3
 ACTION:UPD 15-09-10 22:04 OP:cam  STATUS:               ID:20150514224529 L   I
 OLDACT:REG 15-05-15 03:22 OP:stll STATUS:               ID:20150514223748     3
 2015-05-14-2237-48M.COL___279                                                 6
 STAT SP IPHASW D HRMM SECON CODA AMPLIT PERI AZIMU VELO AIN AR TRES W  DIS CAZ7
 BAR2 EZ ES       2246  2.92                             171   -0.2210 20.7 197 
 BAR2 EZ I        2246  3.69         7.7 0.22            172           20.7 197 
 BRR  HZ EP       2245 49.98                             150   -0.3610 74.5 300 
 BRR  HN ES       2246  6.71                             150    0.2810 74.5 300 
 PAM  SZ EP       2245 51.52                             149    0.2210 78.6  37 
 PAM  SN ES       2246  8.07                             149   -0.0610 78.6  37 
 PAM  SZ I        2246 10.36         8.8 0.38            149           78.6  37 
 RUS  HZ EP   1   2245 52.64                             143    0.07 7 97.3 177 
 RUS  HE ES       2246 10.51                             143    0.1010 97.3 177 
 RUS  HZ I        2246 11.79         2.4 0.22            144           97.3 177 
                                                                                
