 2017  314 2357 32.5 L   6.865 -73.113150.1  RSN 18 0.6 2.1LRSN                1
 GAP= 75        1.06       3.7     3.1  5.2 -0.1588E+00  0.3779E+01  0.5110E+01E
 Epicentro: LOS SANTOS - SANTANDER                                             3
 ACTION:UPD 17-05-25 18:40 OP:jn   STATUS:               ID:20170314235732 L   I
 OLDACT:UP  17-03-15 05:16 OP:and  STATUS:               ID:20170314234351     3
 OLDACT:UP  17-03-15 05:14 OP:and  STATUS:               ID:20170314234351     3
 OLDACT:UP  17-03-15 05:14 OP:and  STATUS:               ID:20170314234351     3
 OLDACT:UP  17-03-15 05:13 OP:and  STATUS:               ID:20170314234351     3
 OLDACT:UP  17-03-15 05:10 OP:and  STATUS:               ID:20170314234351     3
 OLDACT:UP  17-03-15 05:10 OP:and  STATUS:               ID:20170314234351     3
 OLDACT:UP  17-03-15 05:09 OP:and  STATUS:               ID:20170314234351     3
 OLDACT:UP  17-03-15 05:09 OP:and  STATUS:               ID:20170314234351     3
 OLDACT:UP  17-03-15 05:09 OP:and  STATUS:               ID:20170314234351     3
 OLDACT:UP  17-03-15 05:07 OP:and  STATUS:               ID:20170314234351     3
 OLDACT:UP  17-03-15 05:07 OP:and  STATUS:               ID:20170314234351     3
 OLDACT:UP  17-03-15 05:06 OP:and  STATUS:               ID:20170314234351     3
 OLDACT:UP  17-03-15 05:05 OP:and  STATUS:               ID:20170314234351     3
 OLDACT:UP  17-03-15 05:05 OP:and  STATUS:               ID:20170314234351     3
 OLDACT:UP  17-03-15 05:03 OP:and  STATUS:               ID:20170314234351     3
 OLDACT:REG 17-03-15 02:56 OP:and  STATUS:               ID:20170314234351     3
 2017-03-14-2348-00M.COL___376                                                 6
 STAT SP IPHASW D HRMM SECON CODA AMPLIT PERI AZIMU VELO AIN AR TRES W  DIS CAZ7
 BAR2 EZ EP       2357 52.54                             168   -0.3310 31.1 194 
 BAR2 EZ ES       2358  8.27                             168   -0.4510 31.1 194 
 BAR2 EZ I        2358 11.40        27.6 0.14            167           31.1 194 
 PAM  EZ IP     C 2357 55.25                             154    0.4710 69.5  41 
 PAM  EN ES       2358 12.04                             154   -0.0910 69.5  41 
 PAM  EZ I        2358 14.66        13.9 0.24            158           69.5  41 
 BRR  HZ EP       2357 54.32                             153    0.1510 71.4 292 
 BRR  HN ES       2358 11.33                             153    0.2910 71.4 292 
 BRR  HZ I        2358 13.11        25.1 0.20            152           71.4 292 
 RUS  HZ EP       2357 56.72                             143   -0.5010  108 178 
 RUS  HN ES   3   2358 15.20                             143   -1.28 2  108 178 
 RUS  HZ I        2358 17.26         9.6 0.24            144            108 178 
 PTB  HZ EP       2357 59.47                             132   -0.85 9  153 256 
 PTB  HN ES   3   2358 20.39                             132   -1.60 2  153 256 
 PTB  HZ I        2358 22.80        19.9 0.12            132            153 256 
 TAM  HZ IP     C 2358  1.04                             132    0.61 9  154 108 
 TAM  HN ES       2358 22.62                             132    0.43 9  154 108 
 SPBC HZ EP       2358  2.02                             129   -0.10 9  171 218 
 SPBC HN ES       2358 25.55                             129    0.36 9  171 218 
 SPBC HZ I        2358 27.98        18.3 0.20            129            171 218 
 ZAR  HZ EP       2358  5.95                             123    0.60 9  205 290 
 ZAR  HE ES       2358 31.09                             123    0.15 9  205 290 
 ZAR  HZ I        2358 36.62        19.3 0.18            124            205 290 
 NOR  HZ EP       2358  8.98                             119   -0.31 8  242 234 
 NOR  HN ES   3   2358 36.34                             119   -1.61 2  242 234 
 NOR  HZ I        2358 42.75        10.6 0.22            119            242 234 
 CHI  HZ EP       2358 11.05                             117   -0.28 8  257 196 
 CHI  HN ES       2358 41.82                             117    0.22 8  257 196 
 CHI  HZ I        2358 45.88         4.4 0.42            118            257 196 
 HEL  HZ EP   9   2358 15.13                             115    1.57 0  277 255 
 HEL  HN ES       2358 47.09                             114   -0.04 7  277 255 
 HEL  HZ I        2358 50.69         6.8 0.38            116            277 255 
 URE  HZ EP       2358 13.29                             114   -0.62 7  285 290 
 URE  HN ES   3   2358 44.45                             114   -1.72 2  285 290 
 URE  HZ I        2358 54.36        14.2 0.18            115            285 290 
 GUY2CHZ EP   4   2358 19.32                             113    2.17 0  308 234 
 GUY2CHN ES       2358 52.81                             113    0.86 7  308 234 
 GUY2CHZ  IAML    2358 57.01         5.8 0.42                           308 234 
 PTGC HZ EP       2358 16.33                             112   -0.88 7  314 160 
 PTGC HN ES   3   2358 49.74                             112   -2.31 2  314 160 
 CBOC HZ EP       2358 20.52                             110    0.23 7  339 251 
 CBOC HN ES       2358 58.00                             110    0.47 7  339 251 
 CBOC HZ I        2358 59.01         2.4 0.10            111            339 251 
 PRA  HZ EP       2358 27.88                             107    0.73 6  400 210 
 PRA  HN ES       2359  9.71                             107   -0.04 6  400 210 
 PRA  HZ I        2359 12.24         6.5 0.26            108            400 210 
 ORTC HZ EP       2358 28.13                             107    0.59 6  403 216 
 ORTC HN ES   4   2359 12.19                             107    1.76 0  403 216 
 ORTC HZ I        2359 15.90         3.5 0.34            108            403 216 
 SJC  HZ EP       2358 26.87                             107   -0.90 6  405 326 
 SJC  HN ES   4   2359  7.49                             107   -3.37 0  405 326 
 SJC  HZ I        2359 11.11         3.5 0.34            108            405 326 
                                                                                
