 2016 1014 2221 40.3 L   6.756 -73.133141.3  RSN  7 0.4 1.5LRSN                1
 GAP=140        1.14       4.7     4.8  7.2 -0.8930E+00  0.9309E+01  0.1865E+00E
 Epicentro: LOS SANTOS - SANTANDER                                             3
 ACTION:UPD 16-11-09 19:19 OP:rebc STATUS:               ID:20161014222140 L   I
 OLDACT:REG 16-10-15 08:02 OP:dani STATUS:               ID:20161014221735     3
 2016-10-14-2218-00M.COL___374                                                 6
 STAT SP IPHASW D HRMM SECON CODA AMPLIT PERI AZIMU VELO AIN AR TRES W  DIS CAZ7
 BAR2 EZ EP       2221 59.21                             172   -0.0810 18.9 197 
 BAR2 EZ ES       2222 13.92                             172   -0.1910 18.9 197 
 BRR  HZ EP       2222  1.12                             150   -0.0410 74.9 301 
 BRR  HN ES       2222 17.96                             150    0.5110 74.9 301 
 BRR  HZ I        2222 22.22         7.4 0.11            149           74.9 301 
 PAM  EZ EP     D 2222  2.29                             149    0.0910 80.3  37 
 PAM  EN ES       2222 19.02                             149   -0.2810 80.3  37 
 PAM  EZ I        2222 19.61         4.8 0.38            152           80.3  37 
 RUS  HZ EP       2222  3.19                             144   -0.0410 95.6 177 
 RUS  HN ES       2222 21.54                             144    0.4010 95.6 177 
 RUS  HZ I        2222 22.58         3.5 0.23            147           95.6 177 
 PTB  HZ EP       2222  6.05                             131   -0.89 9  148 261 
 PTB  HE ES       2222 27.07                             131   -0.66 9  148 261 
 PTB  HZ I        2222 29.69         5.7 0.10            131            148 261 
 SPBC HZ EP       2222  8.08                             129   -0.09 9  160 220 
 SPBC HE ES       2222 30.21                             129    0.29 9  160 220 
 SPBC HZ I        2222 33.40         5.2 0.12            130            160 220 
 ZAR  HZ EP       2222 13.80                             121    1.03 8  207 293 
 ZAR  HE ES       2222 38.23                             121    0.11 8  207 293 
 ZAR  HZ I        2222 43.95         4.0 0.36            122            207 293 
                                                                                
