 2012 1114 2032 45.5 L   6.783 -73.155147.1  RSN 10 0.3 2.1LRSN                1
 GAP=136        0.68       2.4     3.7  4.6  0.2755E+00  0.4053E+01  0.1079E+01E
 Epicentro: LOS SANTOS - SANTANDER                                             3
 ACTION:UPD 12-12-05 15:33 OP:}ep  STATUS:               ID:20121114203245 L   I
 2012-11-14-2030-00M.COL___229                                                 6
 STAT SP IPHASW D HRMM SECON CODA AMPLIT PERI AZIMU VELO AIN AR TRES W  DIS CAZ7
 BAR2 SZ IP     D 2033  5.25                             171    0.0210 21.3 188 
 BAR2 SZ ES   1   2033 20.36                             171   -0.28 7 21.3 188 
 BAR2 SZ I        2033 21.99        36.0 0.44                          21.3 188 
 BRR  HZ IP     C 2033  7.14                             153    0.3710 71.3 300 
 BRR  HE ES   1   2033 23.93                             153    0.54 7 71.3 300 
 BRR  HZ I        2033 28.56        19.3 0.18                          71.3 300 
 PAM  SZ IP     D 2033  8.03                             150    0.0710 79.4  39 
 PAM  SN ES   1   2033 25.44                             150   -0.05 7 79.4  39 
 PAM  SZ I        2033 27.51        18.1 0.56                          79.4  39 
 RUS  HZ EP   1   2033  9.20                             145   -0.03 7 98.8 175 
 RUS  HN ES   1   2033 27.74                             145   -0.02 7 98.8 175 
 RUS  HZ I        2033 29.13        15.5 0.24                          98.8 175 
 PTB  HZ EP       2033 11.98                             133   -0.45 9  146 259 
 PTB  HN ES   1   2033 33.27                             133   -0.19 7  146 259 
 PTB  HZ I        2033 36.80        13.1 0.12                           146 259 
 OCA  HN ES   1   2033 36.28                             130   -0.06 7  162 354 
 OCA  HZ I        2033 41.22        25.0 0.22                           162 354 
 ZAR  HZ EP   1   2033 18.59                             123    0.60 6  204 293 
 ZAR  HN ES   1   2033 43.44                             123    0.09 6  204 293 
 ZAR  HZ I        2033 50.35        22.7 0.26                           204 293 
 SML  HZ EP       2033 21.92                             118   -0.40 8  245 336 
 SML  HN ES   1   2033 50.57                             118   -0.48 6  245 336 
 CHI  HZ EP       2033 23.46                             118    0.44 8  247 195 
 CHI  HN ES   1   2033 51.71                             118   -0.60 6  247 195 
 CHI  HZ I        2034  2.45         4.8 0.38                           247 195 
 PRA  HZ EP   1   2033 38.85                             107    0.06 4  390 210 
 PRA  HN ES   1   2034 20.56                             107    0.18 4  390 210 
 PRA  HZ I        2034 23.22         6.0 0.60                           390 210 
                                                                                
