 2013  114 2121 34.8 L   6.730 -73.167150.0  RSN  7 0.3 1.9LRSN                1
 GAP=230        0.82       4.0     4.6  7.1  0.6659E+01  0.1810E+01  0.6022E+01E
 Epicentro: VILLANUEVA - SANTANDER                                             3
 ACTION:UPD 13-02-15 09:14 OP:ep   STATUS:               ID:20130114212134 L   I
 2013-01-14-2120-00M.COL___241                                                 6
 STAT SP IPHASW D HRMM SECON CODA AMPLIT PERI AZIMU VELO AIN AR TRES W  DIS CAZ7
 BAR2 SZ EP       2121 54.57                             174   -0.2610 15.3 186 
 BAR2 SZ I        2122 12.09        10.8 0.20            175           15.3 186 
 BRR  HZ EP       2121 56.55                             153    0.0010 73.3 305 
 BRR  HN ES       2122 13.55                             153    0.0610 73.3 305 
 BRR  HN I        2122 14.27        22.1 0.26            151           73.3 305 
 RUS  HZ EP       2121 58.32                             147   -0.1610 93.1 174 
 RUS  HN ES       2122 17.24                             147    0.3210 93.1 174 
 RUS  HN I        2122 18.94        12.4 0.22            147           93.1 174 
 PTB  HZ EP       2122  1.46                             134   -0.36 9  144 262 
 PTB  HN ES       2122 22.70                             134   -0.17 9  144 262 
 PTB  HN I        2122 27.84        10.8 0.44            133            144 262 
 ZAR  HN ES       2122 33.54                             123    0.30 9  205 294 
 ZAR  HN I        2122 40.94        11.6 0.16            121            205 294 
 NOR  HN ES       2122 37.80                             120    0.13 8  228 236 
 CHI  HZ EP       2122 12.69                             119    0.80 8  241 195 
 CHI  HN ES       2122 40.31                             119   -0.50 8  241 195 
 CHI  HN I        2122 46.32         4.4 0.24            118            241 195 
                                                                                
