 2015  614 2317 33.0 L   6.840 -73.130141.5  RSN 11 0.5 2.0LRSN                1
 GAP=136        1.26       3.8     5.1  7.2 -0.3361E+01  0.1557E+02 -0.2539E+01E
 Epicentro: LOS SANTOS - SANTANDER                                             3
 ACTION:UPD 15-09-10 22:12 OP:cam  STATUS:               ID:20150614231733 L   I
 OLDACT:UP  15-06-15 08:21 OP:ar   STATUS:               ID:20150614230751     3
 OLDACT:REG 15-06-15 05:08 OP:ar   STATUS:               ID:20150614230751     3
 2015-06-14-2307-51M.COL___318                                                 6
 STAT SP IPHASW D HRMM SECON CODA AMPLIT PERI AZIMU VELO AIN AR TRES W  DIS CAZ7
 BAR2 EZ EP       2317 52.25                             168    0.0710 28.0 192 
 BAR2 EZ ES       2318  6.61                             168   -0.5610 28.0 192 
 BAR2 EZ I        2318  8.91        15.6 0.56            168           28.0 192 
 BRR  HZ EP       2317 54.04                             152    0.4210 70.8 295 
 BRR  HN ES       2318 10.63                             152    0.9010 70.8 295 
 BRR  HZ I        2318 11.62        15.3 0.12            148           70.8 295 
 PAM  SZ EP       2317 54.60                             152    0.1510 72.9  41 
 PAM  SE ES       2318 11.60                             152    0.3910 72.9  41 
 PAM  SZ I        2318 13.71        19.4 0.54            154           72.9  41 
 RUS  HZ EP       2317 56.37                             142   -0.2410  105 177 
 RUS  HE ES       2318 14.98                             142   -0.0810  105 177 
 RUS  HZ I        2318 16.65         5.6 0.56            145            105 177 
 OCA  HZ EP       2318  0.39                             129   -0.15 9  156 352 
 OCA  HN ES       2318 21.33                             129   -0.73 9  156 352 
 OCA  HZ I        2318 26.13        18.2 0.18            130            156 352 
 ZAR  HZ EP       2318  6.05                             121    0.92 9  204 291 
 ZAR  HN ES       2318 30.24                             121    0.02 9  204 291 
 ZAR  HZ I        2318 36.55        13.0 0.36            121            204 291 
 NOR  HE ES       2318 36.25                             117   -0.64 8  239 234 
 NOR  HZ I        2318 43.40         6.9 0.18            118            239 234 
 SML  HZ EP       2318  8.33                             117   -0.66 8  240 334 
 SML  HN ES       2318 36.52                             117   -0.57 8  240 334 
 SML  HZ I        2318 48.11        15.0 0.10            117            240 334 
 HEL  HZ EP       2318 13.65                             114    0.38 8  275 255 
 HEL  HN ES       2318 44.69                             114   -0.02 8  275 255 
 HEL  HZ I        2318 53.87         3.8 0.42            114            275 255 
 GUY2CHZ EP       2318 17.59                             111    0.77 7  305 234 
 GUY2CHN ES       2318 50.27                             111   -0.77 7  305 234 
 GUY2CHZ I        2319  0.20         4.7 0.34                           305 234 
 MON  HN ES   4   2318 57.12                             108   -2.49 0  352 308 
 MON  HZ I        2319  1.78         2.4 0.20            108            352 308 
                                                                                
