 2011  414 2153 55.4 L   6.777 -73.128154.9  RSN  5 0.2 2.4LRSN                1
 GAP=198        0.47       5.8     6.3  6.8 -0.2499E+02 -0.4811E+01  0.1408E+02E
 Epicentro: LOS SANTOS - SANTANDER                                             3
 ACTION:UP  11-06-22 15:31 OP:REBC STATUS:               ID:20110414215355 L   I
 2011-04-14-2150-07S.COL___138                                                 6
 STAT SP IPHASW D HRMM SECON CODA AMPLIT PERI AZIMU VELO SNR AR TRES W  DIS CAZ7
 BRR  HZ EP   1   2154 17.75                             153     0.0 7   74 300 
 BRR  HZ I        2154 18.26        93.1 0.18                            74 300 
 BRR  HN ES   2   2154 35.41                             153     0.3 5   74 300 
 PAM  SZ EP   1   2154 18.84                             152     0.2 7   78  37 
 PAM  SE ES   2   2154 36.33                             152    -0.4 5   78  37 
 GRA  SZ EP   1   2154 21.85                             139     0.2 7  128  16 
 GRA  SZ I        2154 23.35        25.0 0.33                           128  16 
 GRA  SZ ES   2   2154 42.11                             139     0.0 5  128  16 
 OCA  SZ EP   1   2154 24.36                             131    -0.3 7  163 353 
 OCA  SZ ES   2   2154 47.52                             131     0.0 5  163 353 
 OCA  SZ I        2154 52.48        19.4 0.30                           163 353 
 NOR  SZ EP   1   2154 31.69                             120     0.0 6  235 235 
 NOR  SN ES   2   2154 59.76                             120    -0.2 4  235 235 
                                                                                
