 2017 1014 2322 25.7 L   6.810 -73.169141.0  RSN  9 0.5 1.7LRSN                1
 GAP=109        1.21       4.2     4.3  6.9  0.3732E+01  0.6796E+01  0.7662E+01E
 Epicentro: LOS SANTOS - SANTANDER                                             3
 ACTION:UPD 17-11-07 19:31 OP:rebc STATUS:               ID:20171014232225 L   I
 OLDACT:REG 17-10-15 06:45 OP:leo  STATUS:               ID:20171014231740     3
 2017-10-14-2318-00M.COL___438                                                 6
 STAT SP IPHASW D HRMM SECON CODA AMPLIT PERI AZIMU VELO AIN AR TRES W  DIS CAZ7
 BAR2 HZ EP       2322 44.76                             170   -0.0110 24.1 184 
 BAR2 HZ ES       2322 59.34                             170   -0.3110 24.1 184 
 BAR2 HZ I        2323  0.92        19.2 0.72            168           24.1 184 
 BRR  HZ EP       2322 46.55                             153    0.3710 68.4 299 
 BRR  HN ES       2323  2.93                             153    0.7810 68.4 299 
 BRR  HZ I        2323  6.79        21.6 0.38            152           68.4 299 
 PAM  EZ EP       2322 47.46                             150   -0.0010 78.2  41 
 PAM  EN ES       2323  3.73                             150   -0.7110 78.2  41 
 PAM  EZ I        2323  7.50         8.8 0.62            155           78.2  41 
 RUS  HZ EP       2322 48.78                             142   -0.3010  102 175 
 RUS  HN ES       2323  7.67                             142    0.3510  102 175 
 RUS  HZ I        2323  9.26         3.3 0.20            144            102 175 
 PTB  HZ EP       2322 51.51                             131   -0.56 9  145 258 
 PTB  HN ES       2323 11.97                             131   -0.67 9  145 258 
 PTB  HZ I        2323 18.20         6.0 0.18            132            145 258 
 YPLC HZ EP       2322 55.32                             125   -0.05 9  179 151 
 YPLC HN ES       2323 19.21                             125    0.70 9  179 151 
 YPLC HZ I        2323 22.76         6.5 0.26            128            179 151 
 ZAR  HZ EP       2322 58.33                             122    0.78 9  201 292 
 ZAR  HE ES       2323 22.67                             122    0.28 9  201 292 
 ZAR  HZ I        2323 28.69         6.3 0.46            123            201 292 
 NOR  HZ EP       2323  1.18                             118    0.18 8  233 234 
 NOR  HN ES       2323 28.11                             118   -0.42 8  233 234 
 NOR  HZ I        2323 37.73         4.8 0.62            119            233 234 
 CHI  HZ EP       2323  2.56                             116   -0.62 8  249 195 
 CHI  HE ES       2323 32.69                             116    0.27 8  249 195 
 CHI  HZ I        2323 35.05         3.2 0.28            118            249 195 
                                                                                
