 2012  814 2314 46.1 L   6.716 -73.185153.4  RSN  5 0.3 1.6LRSN                1
 GAP=226        0.56       5.9     5.3  5.9  0.1907E+02  0.4233E+01  0.4205E-01E
 Epicentro: VILLANUEVA - SANTANDER                                             3
 ACTION:UPD 12-09-10 11:56 OP:ep   STATUS:               ID:20120814231446 L   I
 2012-08-14-2310-00M.COL___217                                                 6
 STAT SP IPHASW D HRMM SECON CODA AMPLIT PERI AZIMU VELO AIN AR TRES W  DIS CAZ7
 BAR2 SZ EP   1   2315  6.20                             175   -0.28 7 13.7 179 
 BAR2 SZ ES   1   2315 22.05                             175   -0.34 7 13.7 179 
 BAR2 SZ I        2315 24.52        13.4 0.22                          13.7 179 
 BRR  HZ EP   1   2315  8.28                             153    0.15 7 72.5 307 
 BRR  HZ I        2315  9.75        13.1 0.15                          72.5 307 
 BRR  HN ES   1   2315 25.76                             153    0.43 7 72.5 307 
 RUS  HZ EP   1   2315 10.30                             148    0.31 7 91.8 173 
 RUS  HN ES   1   2315 28.67                             148    0.02 7 91.8 173 
 RUS  HZ I        2315 30.38         3.2 0.45                          91.8 173 
 PTB  HZ EP   1   2315 13.02                             135   -0.15 7  142 262 
 PTB  HN ES   1   2315 34.38                             135    0.08 7  142 262 
 PTB  HZ I        2315 35.87         4.2 0.25                           142 262 
 ZAR  HE ES   1   2315 44.37                             124   -0.31 6  204 295 
                                                                                
