 2010 1014 2003 39.2 L   6.792 -73.120140.0  RSN 10 0.7 3.0LRSN                1
 GAP=162        1.47       5.7     7.4  9.7  0.6053E+01  0.1310E+02  0.1839E+02E
 Epicentro: LOS SANTOS - SANTANDER                                             3
 ACTION:UP  11-02-18 11:09 OP:tino STATUS:               ID:20101014200339 L   I
 2010-10-14-2000-00S.COL___122                                                 6
 STAT SP IPHASW D HRMM SECON CODA AMPLIT PERI AZIMU VELO SNR AR TRES W  DIS CAZ7
 BAR2 SZ EP       20 3 58.10                             170     0.010   23 198 
 BAR2 SZ ES   1   20 4 12.70                             170    -0.2 7   23 198 
 BAR2 SZ I        20 4 14.22       338.6 0.22                            23 198 
 BRR  HZ EP       20 4  0.03                             151     0.210   74 298 
 BRR  HN ES       20 4 17.04                             151     1.010   74 298 
 BRR  HZ I        20 4 18.22       216.1 0.42                            74 298 
 OCA  SZ EP       20 4  7.03                             128    -0.1 9  161 352 
 OCA  SZ ES   1   20 4 27.93                             128    -1.0 7  161 352 
 OCA  SZ I        20 4 32.42        77.4 0.33                           161 352 
 YOP  SZ EP       20 4  8.91                             126     0.3 9  177 154 
 YOP  SN ES   1   20 4 30.69                             126    -0.9 7  177 154 
 NOR  SZ EP       20 4 14.07                             117    -0.7 8  237 235 
 NOR  SN ES   1   20 4 41.59                             117    -1.0 6  237 235 
 CHI  HZ EP       20 4 16.39                             116    -0.1 8  249 196 
 CHI  HN ES   1   20 4 45.86                             116     0.2 6  249 196 
 CHI  HZ I        20 4 49.05        28.1 0.60                           249 196 
 HEL  HZ EP   1   20 4 20.32                             114     1.0 6  275 256 
 HEL  HN ES   1   20 4 50.12                             114    -0.6 6  275 256 
 HEL  HZ I        20 4 57.38        42.5 0.90                           275 256 
 DBB  SZ EP       20 4 26.98                             108     0.2 7  342 274 
 DBB  SZ ES   1   20 5  2.31                             108    -1.5 5  342 274 
 TOL  SZ EP       20 4 28.05                             108     0.7 7  345 225 
 PRA  HZ EP       20 4 32.75                             106     0.2 6  393 210 
 PRA  HN ES   1   20 5 15.37                             106     1.2 4  393 210 
 PRA  HZ I        20 5 20.41        66.7 0.48                           393 210 
                                                                                
