 2016  214 2159 53.5 L   7.073 -73.207131.8  RSN 10 0.3 2.2LRSN                1
 GAP=112        0.73       2.4     3.4  4.8 -0.1913E+01  0.7515E+01  0.1463E+01E
 Epicentro: GIRON - SANTANDER                                                  3
 ACTION:UPD 16-03-04 21:26 OP:rebc STATUS:               ID:20160214215953 L   I
 OLDACT:REG 16-02-15 04:16 OP:cara STATUS:               ID:20160214215750     3
 2016-02-14-2157-50M.COL___302                                                 6
 STAT SP IPHASW D HRMM SECON CODA AMPLIT PERI AZIMU VELO AIN AR TRES W  DIS CAZ7
 BAR2 EZ IP     C 22 0 12.55                             157    0.0610 53.3 177 
 BAR2 EZ ES       22 0 27.45                             157    0.1210 53.3 177 
 BAR2 EZ I        22 0 28.83        43.9 0.44            160           53.3 177 
 PAM  EZ EP       22 0 13.55                             153    0.1810 63.3  62 
 PAM  EN ES       22 0 29.13                             153    0.2310 63.3  62 
 PAM  EZ I        22 0 30.69        17.1 0.14            161           63.3  62 
 OCA  HN ES       22 0 36.61                             133   -0.2210  129 354 
 OCA  HZ I        22 0 40.88        31.2 0.18            135            129 354 
 RUS  HZ EP       22 0 17.94                             133   -0.5110  131 174 
 RUS  HN ES       22 0 37.83                             133   -0.1110  131 174 
 RUS  HZ I        22 0 38.36         5.6 0.18            138            131 174 
 PTB  HZ EP       22 0 19.02                             128   -0.55 9  150 247 
 PTB  HN ES       22 0 39.67                             128   -0.26 9  150 247 
 PTB  HZ I        22 0 43.21        29.8 0.14            129            150 247 
 SPBC HZ EP       22 0 22.94                             122   -0.11 9  184 211 
 SPBC HN ES       22 0 46.21                             122    0.08 9  184 211 
 SPBC HZ I        22 0 54.26        16.3 0.18            125            184 211 
 ZAR  HZ EP       22 0 23.71                             121    0.34 9  188 284 
 ZAR  HN ES   4   22 0 48.10                             121    1.41 0  188 284 
 ZAR  HZ I        22 0 54.49        20.5 0.62            122            188 284 
 NOR  HZ EP       22 0 30.20                             114    0.25 8  248 228 
 NOR  HN ES       22 0 58.94                             114    0.53 8  248 228 
 NOR  HZ I        22 1  6.35        16.1 0.46            116            248 228 
 CHI  HZ EP       22 0 33.60                             111    0.04 7  276 192 
 CHI  HN ES       22 1  4.78                             111   -0.05 7  276 192 
 GUY2CHZ EP       22 0 38.59                             109    0.59 7  314 230 
 GUY2CHE ES       22 1 12.52                             109   -0.21 7  314 230 
 GUY2CHZ I        22 1 23.27         8.3 0.42                           314 230 
                                                                                
