 2017  614 2130 12.4 L   6.363 -73.525114.0  RSN  8 0.4 2.0LRSN                1
 GAP=201        0.96       2.9     5.0  7.3  0.3723E+00 -0.2604E+01  0.5899E+01E
 Epicentro: CONTRATACION - SANTANDER                                           3
 ACTION:UPD 17-09-14 16:52 OP:jn   STATUS:               ID:20170614213012 L   I
 OLDACT:REG 17-06-15 03:14 OP:osc  STATUS:               ID:20170614212149     3
 2017-06-14-2128-00M.COL___365                                                 6
 STAT SP IPHASW D HRMM SECON CODA AMPLIT PERI AZIMU VELO AIN AR TRES W  DIS CAZ7
 BRR  HZ EP       2130 31.26                             141    0.0310 84.8 346 
 BRR  HE ES       2130 46.21                             141    0.3010 84.8 346 
 SPBC HZ EP       2130 32.65                             136    0.1210 99.3 218 
 SPBC HE ES       2130 48.52                             136    0.2910 99.3 218 
 SPBC HZ I        2130 55.20        29.2 0.25            137           99.3 218 
 PTB  HZ EP     D 2130 32.11                             134   -0.8010  105 281 
 PTB  HE ES       2130 48.67                             134   -0.2310  105 281 
 PTB  HZ I        2130 51.02        17.7 0.15            136            105 281 
 NOR  HZ EP       2130 39.44                             119   -0.26 9  173 239 
 NOR  HN ES       2131  0.54                             119   -0.44 9  173 239 
 NOR  HZ I        2131  3.81        15.5 0.14            121            173 239 
 ZAR  HZ EP       2130 41.52                             116   -0.28 9  193 310 
 ZAR  HE ES       2131  5.13                             116    0.40 9  193 310 
 ZAR  HZ I        2131 10.45        16.3 0.24            119            193 310 
 CHI  HZ EP       2130 42.50                             116    0.18 9  193 187 
 CHI  HN ES       2131  5.33                             116   -0.31 9  193 187 
 CHI  HZ I        2131  9.63         3.2 0.09            119            193 187 
 HEL  HN ES       2131 11.83                             112    0.44 8  223 265 
 ORTC HZ EP       2130 58.43                             103    0.60 7  332 215 
 ORTC HE ES       2131 33.89                             103    0.63 7  332 215 
 ORTC HZ I        2131 40.05         3.7 0.46            106            332 215 
                                                                                
