 2012 1114 2312 21.6 L   6.806 -73.139149.1  RSN  9 0.5 1.7LRSN                1
 GAP=137        0.88       3.7     5.2  6.5  0.1875E+01  0.8735E+01  0.2382E+01E
 Epicentro: LOS SANTOS - SANTANDER                                             3
 ACTION:UPD 12-12-05 15:33 OP:}ep  STATUS:               ID:20121114231221 L   I
 2012-11-14-2310-00M.COL___229                                                 6
 STAT SP IPHASW D HRMM SECON CODA AMPLIT PERI AZIMU VELO AIN AR TRES W  DIS CAZ7
 BAR2 SZ EP   1   2312 41.61                             170   -0.04 7 24.1 191 
 BAR2 SZ ES   1   2312 56.97                             170   -0.32 7 24.1 191 
 BAR2 SZ I        2312 58.39        13.5 0.26                          24.1 191 
 BRR  HZ EP   1   2312 43.68                             153    0.54 7 71.5 298 
 BRR  HE ES   1   2313  0.80                             153    0.87 7 71.5 298 
 PAM  SZ EP   1   2312 44.54                             152    0.42 7 76.4  39 
 PAM  SN ES   1   2313  1.85                             152    0.17 7 76.4  39 
 PAM  SZ I        2313  3.86         8.2 0.50                          76.4  39 
 RUS  HZ EP   1   2312 45.49                             144   -0.24 7  101 176 
 RUS  HN ES   1   2313  3.97                             144   -0.58 7  101 176 
 RUS  HZ I        2313  5.49         3.6 0.44                           101 176 
 PTB  HZ EP   1   2312 48.63                             133   -0.30 7  149 259 
 PTB  HN ES   1   2313  9.74                             133   -0.49 7  149 259 
 PTB  HZ I        2313 15.54        10.2 0.26                           149 259 
 ZAR  HZ EP   1   2312 54.46                             123    0.14 6  204 292 
 ZAR  HE ES   1   2313 20.02                             123    0.19 6  204 292 
 ZAR  HZ I        2313 26.12         6.9 0.14                           204 292 
 SML  HZ EP   1   2312 57.40                             118   -0.99 6  243 335 
 SML  HN ES   1   2313 26.44                             118   -0.64 6  243 335 
 CHI  HZ EP   1   2312 59.88                             118    0.30 6  249 195 
 CHI  HN ES   1   2313 29.34                             118    0.14 6  249 195 
 CHI  HZ I        2313 34.96         2.2 0.52                           249 195 
 PRA  HZ EP   1   2313 16.21                             107    0.85 4  393 210 
 PRA  HN ES   1   2313 57.55                             107    0.27 4  393 210 
 PRA  HZ I        2314  3.14         3.2 0.62                           393 210 
                                                                                
