 2015  414 2121 32.8 L   6.779 -73.169138.0  RSN  8 0.4 2.1LRSN                1
 GAP=135        0.93       4.4     4.2  6.2 -0.5501E+01  0.7073E+01  0.4707E+01E
 Epicentro: LOS SANTOS - SANTANDER                                             3
 ACTION:UPD 15-06-03 16:54 OP:cam  STATUS:               ID:20150414212132 L   I
 OLDACT:UP  15-04-15 07:10 OP:nlst STATUS:               ID:20150414212132 L   3
 OLDACT:REG 15-04-15 02:39 OP:ak   STATUS:               ID:20150414211750     3
 2015-04-14-2117-50M.COL___281                                                 6
 STAT SP IPHASW D HRMM SECON CODA AMPLIT PERI AZIMU VELO AIN AR TRES W  DIS CAZ7
 BAR2 EZ IP     C 2121 51.46                             171   -0.0010 20.7 184 
 BAR2 EZ ES       2122  5.72                             171   -0.2810 20.7 184 
 BAR2 EZ I        2122  7.54        25.7 0.20            166           20.7 184 
 BRR  HZ EP     C 2121 53.37                             152    0.3010 70.1 301 
 BRR  HE ES       2122  9.51                             152    0.6510 70.1 301 
 BRR  HZ I        2122 40.52        29.7 0.34            144           70.1 301 
 PAM  SZ EP       2121 54.33                             148   -0.1010 80.8  40 
 PAM  SN ES       2122 11.17                             148   -0.1210 80.8  40 
 PAM  SZ I        2122 11.73        19.6 0.38            151           80.8  40 
 RUS  HZ EP       2121 55.48                             143   -0.1810 98.5 174 
 RUS  HN ES       2122 13.77                             143    0.2910 98.5 174 
 RUS  HZ I        2122 15.09        15.1 0.26            157           98.5 174 
 PTB  HZ EP       2121 58.38                             131   -0.50 9  145 260 
 PTB  HN ES       2122 18.60                             131   -0.62 9  145 260 
 PTB  HZ I        2122 21.37        26.9 0.18            132            145 260 
 NOR  HZ EP       2122  8.17                             117    0.44 8  231 235 
 NOR  HN ES       2122 34.84                             117   -0.12 8  231 235 
 NOR  HZ I        2122 37.28         9.8 0.16            123            231 235 
 GUY2CHZ EP   4   2122 17.53                             111    1.85 0  298 235 
 GUY2CHN ES   4   2122 52.61                             111    3.49 0  298 235 
 GUY2CHZ I        2122 58.81         5.2 0.52                           298 235 
 RREF HN ES       2122 54.10                             110    0.44 7  318 229 
 SJC  HZ EP   4   2122 26.37                             104   -1.83 0  410 327 
 SJC  HN ES   4   2123  9.02                             104   -2.37 0  410 327 
                                                                                
