 2017 1114 2236 39.6 L   6.665 -74.075  2.0  RSN 21 0.3 2.5LRSN                1
 GAP= 83        0.82       1.5     1.4  2.9 -0.1948E+00  0.6549E+00  0.2197E+00E
 Epicentro: PUERTO PARRA - SANTANDER                                           3
 ACTION:UPD 17-12-12 19:55 OP:rebc STATUS:               ID:20171114223639 L   I
 OLDACT:UP  17-11-15 06:15 OP:dnl  STATUS:               ID:20171114222742     3
 OLDACT:UP  17-11-15 06:15 OP:dnl  STATUS:               ID:20171114222742     3
 OLDACT:UP  17-11-15 06:13 OP:dnl  STATUS:               ID:20171114222742     3
 OLDACT:REG 17-11-15 05:52 OP:dnl  STATUS:               ID:20171114222742     3
 2017-11-14-2228-00M.COL___462                                                 6
 STAT SP IPHASW D HRMM SECON CODA AMPLIT PERI AZIMU VELO AIN AR TRES W  DIS CAZ7
 PTB  HZ IP     D 2236 46.99                              47   -0.2210 44.4 252 
 PTB  HE ES       2236 52.85                              47   -0.3110 44.4 252 
 PTB  HZ I        2236 53.12       303.5 0.16             47           44.4 252 
 BRR  HZ IP     D 2236 50.05                              47    0.0110 63.2  39 
 BRR  HE ES       2236 58.26                              47    0.0610 63.2  39 
 BRR  HZ I        2236 59.90       138.6 0.14             47           63.2  39 
 BAR2 EZ IP     D 2236 55.42                              47   -0.2910 99.0  95 
 BAR2 EZ I        2237  9.16       125.6 0.68             47           99.0  95 
 SPBC HZ EP       2236 57.59                              47    0.0710  112 180 
 SPBC HN ES       2237 11.51                              47   -0.0110  112 180 
 SPBC HZ I        2237 13.54        84.4 0.24             47            112 180 
 ZAR  HZ EP       2236 59.57                              47    0.0210  126 317 
 ZAR  HN ES       2237 14.78                              47   -0.3510  126 317 
 ZAR  HZ I        2237 16.58       144.4 0.28             47            126 317 
 RUS  HZ IP     D 2237  1.76                              47   -0.28 9  139 128 
 RUS  HN ES       2237 19.46                              47   -0.09 9  139 128 
 RUS  HZ I        2237 22.13       147.3 0.22             47            139 128 
 NOR  HZ EP       2237  3.28                              47   -0.00 9  150 216 
 NOR  HN ES   4   2237 19.94                              47   -1.83 0  150 216 
 NOR  HZ I        2237 24.11        52.1 0.14             47            150 216 
 PAM  EZ EP       2237  6.59                              47   -0.02 9  169  64 
 PAM  EN ES       2237 27.89                              47    0.20 9  169  64 
 PAM  EZ I        2237 29.34       127.4 0.44             47            169  64 
 URE  HZ EP       2237 11.10                              37    0.79 9  201 307 
 URE  HN ES       2237 34.16                              37   -0.11 9  201 307 
 URE  HZ I        2237 38.20        81.4 0.26             37            201 307 
 ROSC BZ EP   4   2237 16.10                              37    5.00 0  204 188 
 ROSC BN ES   4   2237 37.18                              37    1.50 0  204 188 
 ROSC BZ I        2237 50.55        15.8 0.50             37            204 188 
 GUY2CHZ EP       2237 12.77                              37    0.27 8  214 222 
 GUY2CHE ES       2237 37.59                              37   -0.58 8  214 222 
 GUY2CHZ I        2237 41.14        50.4 0.48                           214 222 
 CHI  HZ EP   9   2237 15.43                              37    1.23 0  228 170 
 CHI  HN ES       2237 43.09                              37    0.66 8  228 170 
 CHI  HZ I        2237 48.69        11.3 0.56             37            228 170 
 CBOC HZ EP   4   2237 15.50                              37    1.12 0  232 248 
 CBOC HN ES       2237 42.32                              37    0.80 8  232 248 
 CBOC HZ I        2237 44.93        34.7 0.58             37            232 248 
 YPLC HZ EP   4   2237 17.35                              37    2.81 0  234 127 
 YPLC HZ I        2237 50.75        41.8 0.30             37            234 127 
 ELA  HZ EP       2237 17.32                              37    0.54 8  248 216 
 ELA  HN ES   4   2237 44.63                              37   -1.16 0  248 216 
 ELA  HZ I        2237 51.47        49.0 0.36             37            248 216 
 ANIL HZ EP   4   2237 27.36                              37    6.60 0  282 212 
 ANIL HN ES   4   2237 54.99                              37    2.11 0  282 212 
 ANIL HZ I        2237 56.83        45.1 0.24             37            282 212 
 DRL03HZ EP   4   2237 26.09                              36    2.36 0  309  12 
 DRL03HE ES   4   2237 55.01                              36   -3.15 0  309  12 
 DRL03HZ I        2238 11.20        10.1 0.70                           309  12 
 PAL  HZ EP   4   2237 29.31                              36    5.01 0  313 232 
 PAL  HE ES   4   2238  5.74                              36    6.57 0  313 232 
 PAL  HZ I        2238 11.14        10.7 0.48             36            313 232 
 ORTC HZ EP   2   2237 26.63                              36    0.06 3  331 203 
 ORTC HE ES   4   2238  8.14                              36    4.93 0  331 203 
 ORTC HZ I        2238 20.22        12.2 0.54             36            331 203 
 PRA  HZ EP   9   2237 28.98                              36    1.51 0  338 195 
 PRA  HN ES       2238  6.35                              36    0.02 7  338 195 
 PRA  HZ I        2238 21.93        11.0 0.72             36            338 195 
 CAP2 HZ EP   2   2237 38.24                              36    0.32 3  423 301 
 CAP2 HZ I        2238 24.62         3.9 0.76             36            423 301 
                                                                                
