 2017  514 2149 50.0 L   6.849 -73.130150.0  RSN  6 0.5 1.7LRSN                1
 GAP=177        1.20       7.3     6.8  9.8 -0.1245E+02  0.1366E+02  0.2337E+02E
 Epicentro: LOS SANTOS - SANTANDER                                             3
 ACTION:UPD 17-06-16 13:36 OP:jn   STATUS:               ID:20170514214950 L   I
 OLDACT:UP  17-05-15 21:47 OP:nlst STATUS:               ID:20170514214950 L   3
 OLDACT:REG 17-05-15 03:21 OP:ar   STATUS:               ID:20170514214736     3
 2017-05-14-2148-00M.COL___353                                                 6
 STAT SP IPHASW D HRMM SECON CODA AMPLIT PERI AZIMU VELO AIN AR TRES W  DIS CAZ7
 BRR  HZ EP       2150 11.55                             154   -0.0310 70.4 294 
 BRR  HN ES       2150 28.72                             154    0.3310 70.4 294 
 PAM  EZ EP       2150 12.60                             153    0.2210 72.1  41 
 PAM  EN ES       2150 29.69                             153   -0.1410 72.1  41 
 PAM  EZ I        2150 31.56        10.4 0.50            159           72.1  41 
 PTB  HZ EP       2150 16.51                             132   -1.07 9  151 257 
 PTB  HN ES   3   2150 37.64                             132   -1.45 2  151 257 
 PTB  HZ I        2150 42.85         4.6 0.32            133            151 257 
 SPBC HZ EP       2150 18.85                             129   -0.49 9  168 218 
 SPBC HN ES       2150 42.48                             129    0.27 9  168 218 
 SPBC HZ I        2150 46.86         7.6 0.18            131            168 218 
 ZAR  HZ EP       2150 23.12                             123    0.42 9  204 291 
 ZAR  HN ES       2150 48.07                             123   -0.13 9  204 291 
 ZAR  HZ I        2150 54.71         4.7 0.30            125            204 291 
 NOR  HZ EP       2150 27.41                             119    0.93 8  239 234 
                                                                                
