 2011  714 2133 13.6 L   6.802 -73.110144.0  RSN  6 0.4 1.8LRSN                1
 GAP=141        0.71       4.9     6.3  7.8 -0.5437E+01  0.6146E+01  0.5506E+01E
 Epicentro: LOS SANTOS - SANTANDER                                             3
 ACTION:UPD 12-07-25 14:00 OP:epov STATUS:               ID:20110714213313 L   I
 2011-07-14-2129-40S.COL___132                                                 6
 STAT SP IPHASW D HRMM SECON CODA AMPLIT PERI AZIMU VELO AIN AR TRES W  DIS CAZ7
 BTL  SZ EP   1   2133 33.58                             171    0.61 7 21.7 306 
 BAR2 SZ ES   2   2133 48.26                             170    0.07 5 24.5 199 
 BAR2 SZ I        2133 50.76        13.4 0.36                          24.5 199 
 BRR  HZ EP   1   2133 34.71                             151   -0.03 7 74.6 297 
 BRR  HN ES   1   2133 51.34                             151    0.10 7 74.6 297 
 BRR  HZ I        2133 55.95        24.8 1.37                          74.6 297 
 PAM  SZ EP   1   2133 35.79                             151    0.33 7 74.7  37 
 PAM  SN ES   1   2133 51.85                             151   -0.66 7 74.7  37 
 RUS  HZ EP   1   2133 36.94                             143   -0.22 7  101 178 
 RUS  HE ES   1   2133 55.70                             143    0.14 7  101 178 
 RUS  HZ I        2133 57.87         6.0 0.42                           101 178 
 NOR  SZ EP   2   2133 49.04                             117   -0.53 4  238 235 
 NOR  SE ES   2   2134 17.11                             117   -0.53 4  238 235 
                                                                                
