 2013  714 2220 38.1 L   6.808 -73.143146.3  RSN  9 0.5 1.8LRSN                1
 GAP=136        1.17       5.0     6.4  8.8 -0.9765E+01  0.1378E+02 -0.2044E+01E
 Epicentro: LOS SANTOS - SANTANDER                                             3
 ACTION:UPD 13-08-12 10:37 OP:ep   STATUS:               ID:20130714222038 L   I
 OLDACT:REG 13-07-14 21:25 OP:jn   STATUS:               ID:20130714221959     3
 2013-07-14-2219-59M.COL___267                                                 6
 STAT SP IPHASW D HRMM SECON CODA AMPLIT PERI AZIMU VELO AIN AR TRES W  DIS CAZ7
 BAR2 SZ EP       2220 57.64                             170   -0.2110 24.2 190 
 BAR2 SZ ES       2221 13.65                             170    0.4310 24.2 190 
 BAR2 SZ I        2221 15.27        15.0 0.76            172           24.2 190 
 GIR2 SZ EP       2220 57.79                             168   -0.0610 30.5 350 
 GIR2 SZ I        2221 14.27        18.1 0.12            164           30.5 350 
 BRR  HZ EP       2220 59.77                             153    0.4410 71.0 298 
 BRR  HN ES   1   2221 16.66                             153    0.80 7 71.0 298 
 BRR  HZ I        2221 19.98        12.5 0.34            149           71.0 298 
 PAM  SZ EP       2221  0.87                             151    0.5110 76.6  40 
 PAM  SN ES       2221 17.35                             151   -0.3410 76.6  40 
 PAM  SZ I        2221 19.96        15.0 0.52            150           76.6  40 
 RUS  HZ EP       2221  2.36                             144    0.3610  101 176 
 RUS  HN ES       2221 20.14                             144   -0.4710  101 176 
 RUS  HZ I        2221 21.97         8.1 0.28            146            101 176 
 PTB  HZ EP       2221  4.66                             132   -0.53 9  148 259 
 PTB  HN ES   1   2221 25.71                             132   -0.57 7  148 259 
 PTB  HZ I        2221 31.88         5.1 0.26            131            148 259 
 OCA  HN ES   1   2221 27.67                             130   -0.79 7  159 353 
 OCA  HZ I        2221 31.06         6.0 0.26            128            159 353 
 SPBC HN ES   1   2221 28.45                             129   -0.62 7  164 219 
 NOR  HE ES   1   2221 42.72                             118    0.80 6  235 234 
                                                                                
