 2016  914 2304 34.8 L   6.747 -73.366120.0  RSN  5 0.5 1.5LRSN                1
 GAP=174        0.96       7.5     5.8  8.2  0.2085E+02  0.1712E+02  0.7579E+01E
 Epicentro: ZAPATOCA - SANTANDER                                               3
 ACTION:UPD 17-08-17 21:12 OP:lp   STATUS:               ID:20160914230434 L   I
 OLDACT:DUP 16-09-15 23:20 OP:dnl  STATUS:               ID:20160914225745d    3
 2016-09-14-2258-00M.COL___330                                                 6
 STAT SP IPHASW D HRMM SECON CODA AMPLIT PERI AZIMU VELO AIN AR TRES W  DIS CAZ7
 BAR2 EZ EP       23 4 51.45                             167    0.0110 26.6 130 
 BAR2 EZ ES       23 5  4.29                             167   -0.1210 26.6 130 
 BAR2 EZ I        23 5  5.79        23.8 0.34            168           26.6 130 
 BRR  HZ EP       23 4 51.89                             154   -0.3810 55.1 316 
 BRR  HN ES       23 5  5.93                             154    0.0410 55.1 316 
 BRR  HZ I        23 5  7.81         7.3 0.56            154           55.1 316 
 RUS  HZ EP   2   23 4 57.05                             138    1.00 5 99.6 162 
 RUS  HE ES   2   23 5 13.23                             138    0.62 5 99.6 162 
 RUS  HZ I        23 5 15.09         1.7 0.26            139           99.6 162 
 PTB  HZ EP       23 4 56.86                             131   -0.5510  123 259 
 PTB  HN ES       23 5 14.96                             131   -0.0710  123 259 
 PTB  HZ I        23 5 18.67         5.2 0.36            130            123 259 
 ZAR  HZ EP   2   23 5  3.70                             119    0.13 4  184 297 
 ZAR  HE ES       23 5 26.78                             119    0.77 9  184 297 
 ZAR  HZ I        23 5 30.96         4.2 0.50            120            184 297 
                                                                                
