 2013 1214 2249 37.9 L   6.859 -73.165141.3  RSN  7 0.5 1.7LRSN                1
 GAP=131        1.10       5.5     5.5  7.7 -0.2444E+01  0.9913E+01  0.1837E+02E
 Epicentro: LOS SANTOS - SANTANDER                                             3
 ACTION:UPD 14-01-13 10:18 OP:ep   STATUS:               ID:20131214224938 L   I
 OLDACT:UP  13-12-16 03:55 OP:stll STATUS:               ID:20131214224938 L   3
 OLDACT:REG 13-12-14 23:49 OP:stll STATUS:               ID:20131214224811     3
 2013-12-14-2248-11M.COL___247                                                 6
 STAT SP IPHASW D HRMM SECON CODA AMPLIT PERI AZIMU VELO AIN AR TRES W  DIS CAZ7
 BAR2 SZ EP       2249 57.00                             168   -0.1310 29.5 184 
 BAR2 SZ I        2249 57.37        12.0 0.28            163           29.5 184 
 BAR2 SZ ES       2250 12.17                             168    0.0410 29.5 184 
 BRR  HZ EP       2249 58.64                             153    0.3610 66.4 294 
 BRR  HZ I        2249 58.92        11.1 0.30            153           66.4 294 
 BRR  HN ES       2250 14.49                             153    0.3010 66.4 294 
 PAM  SE ES       2250 16.11                             151   -0.1210 74.0  44 
 RUS  HZ EP       2250  1.29                             141   -0.4110  107 175 
 RUS  HN ES   1   2250 20.39                             141    0.12 7  107 175 
 PTB  HZ EP       2250  3.67                             131   -0.76 9  147 256 
 PTB  HN ES       2250 25.00                             131   -0.13 9  147 256 
 PTB  HZ I        2250 27.26         8.7 0.26            130            147 256 
 NOR  HZ EP       2250 14.79                             117    1.20 8  237 233 
 NOR  HN ES       2250 40.88                             117   -0.55 8  237 233 
 NOR  HZ I        2250 48.30         3.6 0.18            117            237 233 
 CHI  HZ EP       2250 16.01                             116    0.04 8  254 194 
 CHI  HN ES       2250 46.03                             116    0.36 8  254 194 
 CHI  HZ I        2250 52.01         1.7 0.42            115            254 194 
                                                                                
