 2017  114 2249 26.7 L   6.780 -73.139146.7  RSN  8 0.5 1.6LRSN                1
 GAP=138        1.14       4.6     5.0  8.8 -0.8635E+00  0.9456E+01  0.1099E+02E
 Epicentro: LOS SANTOS - SANTANDER                                             3
 ACTION:UPD 17-05-22 15:59 OP:jn   STATUS:               ID:20170114224926 L   I
 OLDACT:UP  17-01-15 08:02 OP:y    STATUS:               ID:20170114224749d    3
 OLDACT:DUP 17-01-15 07:54 OP:y    STATUS:               ID:20170114224749d    3
 2017-01-14-2248-00M.COL___338                                                 6
 STAT SP IPHASW D HRMM SECON CODA AMPLIT PERI AZIMU VELO AIN AR TRES W  DIS CAZ7
 BRR  HZ EP       2249 48.31                             152    0.2410 72.9 300 
 BRR  HN ES       2250  5.45                             152    0.7310 72.9 300 
 BRR  HZ I        2250  9.81        13.6 0.36            151           72.9 300 
 PAM  EZ EP       2249 49.28                             151    0.1610 78.6  38 
 PAM  EN ES       2250  5.81                             151   -0.7710 78.6  38 
 PAM  EZ I        2250  8.82         4.6 0.28            155           78.6  38 
 RUS  HZ EP   2   2249 50.57                             145    0.16 5 98.3 176 
 RUS  HE ES       2250  9.37                             145    0.4910 98.3 176 
 RUS  HZ I        2250 10.26         5.1 0.48            147           98.3 176 
 PTB  HZ EP       2249 53.56                             132   -0.24 9  148 260 
 PTB  HN ES       2250 14.42                             132   -0.49 9  148 260 
 PTB  HZ I        2250 19.99         4.1 0.30            133            148 260 
 ZAR  HZ EP   2   2249 59.35                             122   -0.04 4  206 293 
 ZAR  HE ES       2250 24.71                             122   -0.15 8  206 293 
 ZAR  HZ I        2250 31.33         5.6 0.30            124            206 293 
 NOR  HZ EP   2   2250  2.90                             119    0.46 4  234 235 
 NOR  HE ES       2250 30.33                             119    0.04 8  234 235 
 NOR  HZ I        2250 35.03         2.4 0.44            120            234 235 
 CHI  HZ EP       2250  4.82                             118    0.55 8  247 195 
 CHI  HN ES       2250 32.64                             118   -0.91 8  247 195 
 CHI  HZ I        2250 37.38         2.3 0.52            120            247 195 
 GUY2CHZ EP   4   2250 11.41                             113    1.11 0  301 235 
 GUY2CHE ES   4   2250 46.67                             113    2.38 0  301 235 
 GUY2CHZ  IAML    2250 49.61         1.5 0.24                           301 235 
                                                                                
