 2016  914 2036 54.4 L   6.829 -73.168144.2  RSN 17 0.6 2.7LRSN                1
 GAP=132        1.14       3.5     4.1  5.7 -0.2569E+01  0.6545E+01  0.2700E+01E
 Epicentro: LOS SANTOS - SANTANDER                                             3
 ACTION:UPD 17-08-17 21:11 OP:lp   STATUS:               ID:20160914203654 L   I
 OLDACT:UP  16-09-15 20:10 OP:dnl  STATUS:               ID:20160914202734     3
 OLDACT:REG 16-09-15 19:28 OP:lv   STATUS:               ID:20160914202734     3
 2016-09-14-2028-00M.COL___330                                                 6
 STAT SP IPHASW D HRMM SECON CODA AMPLIT PERI AZIMU VELO AIN AR TRES W  DIS CAZ7
 BAR2 EZ EP       2037 13.80                             169   -0.1310 26.2 183 
 BAR2 EZ ES       2037 28.70                             169   -0.4410 26.2 183 
 BAR2 EZ I        2037 30.09       135.9 0.22            170           26.2 183 
 BRR  HZ EP       2037 15.54                             153    0.3410 67.5 297 
 BRR  HE ES       2037 32.46                             153    1.0610 67.5 297 
 BRR  HZ I        2037 35.45        58.2 0.28            151           67.5 297 
 PAM  EZ IP       2037 16.79                             151    0.3610 76.6  42 
 PAM  EN ES       2037 33.65                             151    0.0610 76.6  42 
 PAM  EZ I        2037 36.03       109.5 0.50            153           76.6  42 
 RUS  HZ EP       2037 17.86                             143   -0.4110  104 175 
 RUS  HE ES       2037 36.79                             143   -0.0810  104 175 
 RUS  HZ I        2037 37.62        67.3 0.26            144            104 175 
 PTB  HZ EP   2   2037 20.47                             132   -0.64 5  146 257 
 PTB  HN ES       2037 41.41                             132   -0.51 9  146 257 
 PTB  HZ I        2037 43.76        42.6 0.58            131            146 257 
 SPBC HZ EP   2   2037 22.73                             128   -0.17 5  164 218 
 SPBC HN ES       2037 45.05                             128   -0.06 9  164 218 
 SPBC HZ I        2037 47.42        86.7 0.38            129            164 218 
 ZAR  HZ EP       2037 26.32                             122   -0.09 9  201 292 
 ZAR  HN ES       2037 50.85                             122   -0.51 9  201 292 
 ZAR  HZ I        2037 57.41        38.1 0.52            122            201 292 
 NOR  HZ EP       2037 29.94                             118   -0.12 8  235 233 
 NOR  HE ES       2037 57.84                             118   -0.00 8  235 233 
 NOR  HZ I        2038  0.40        31.9 0.16            118            235 233 
 CHI  HZ EP       2037 32.00                             116   -0.31 8  251 194 
 CHI  HE ES       2038  1.14                             116   -0.72 8  251 194 
 CHI  HZ I        2038  5.13        30.6 0.52            117            251 194 
 ROSC BZ EP       2037 33.51                             116    0.88 8  254 210 
 ROSC BE ES       2038  3.07                             116    0.65 8  254 210 
 ROSC BZ I        2038  8.32        48.6 0.40            117            254 210 
 HEL  HZ EP   2   2037 35.50                             115    1.11 4  271 255 
 HEL  HE ES   2   2038  4.54                             115   -1.01 4  271 255 
 HEL  HZ I        2038 11.93        27.4 0.28            114            271 255 
 URE  HZ EP   4   2037 33.64                             114   -1.40 0  280 291 
 URE  HN ES   4   2038  3.95                             114   -2.76 0  280 291 
 URE  HZ I        2038  9.87        18.5 0.32            113            280 291 
 GUY2CHZ EP       2037 38.73                             112    0.78 7  301 234 
 GUY2CHN ES   4   2038 13.70                             112    1.80 0  301 234 
 GUY2CHZ I        2038 20.12        24.9 0.34                           301 234 
 LL6C HZ EP       2037 38.86                             110   -0.83 7  322 358 
 LL6C HE ES   4   2038 12.02                             110   -2.97 0  322 358 
 LL6C HZ I        2038 19.86        19.3 0.46            111            322 358 
 CBOC HZ EP   2   2037 41.19                             110    0.06 3  332 251 
 CBOC HN ES       2038 16.92                             110   -0.63 7  332 251 
 ANIL HZ EP   2   2037 45.19                             108    0.95 3  358 224 
 ANIL HN ES       2038 23.83                             108    0.74 6  358 224 
 ANIL HZ I        2038 29.52        63.6 0.32            108            358 224 
 CRJC HZ EP   4   2037 54.22                             103   -2.31 0  465   4 
 CRJC HE ES   4   2038 41.37                             103   -3.59 0  465   4 
 CRJC HZ I        2038 46.25        12.6 0.18            104            465   4 
                                                                                
