 2016  714 2334 58.5 L   6.795 -73.152141.6  RSN  7 0.3 1.5LRSN                1
 GAP=136        0.77       3.3     3.3  5.5 -0.5031E+00  0.3982E+01 -0.2064E+00E
 Epicentro: LOS SANTOS - SANTANDER                                             3
 ACTION:UPD 17-03-29 16:51 OP:lp   STATUS:               ID:20160714233458 L   I
 OLDACT:DUP 16-07-15 04:52 OP:edw  STATUS:               ID:20160714232760d    3
 OLDACT:REG 16-07-15 03:13 OP:edw  STATUS:               ID:20160714232759     3
 2016-07-14-2327-59S.COL___328                                                 6
 STAT SP IPHASW D HRMM SECON CODA AMPLIT PERI AZIMU VELO AIN AR TRES W  DIS CAZ7
 BAR2 EZ EP       2335 17.63                             170   -0.0310 22.7 188 
 BAR2 EZ ES       2335 32.67                             170    0.1010 22.7 188 
 BAR2 EZ I        2335 33.30         7.7 0.42            169           22.7 188 
 BRR  HZ EP       2335 19.63                             152    0.4110 70.8 299 
 BRR  HE ES       2335 34.73                             152   -0.6110 70.8 299 
 PAM  HZ EP       2335 20.48                             150    0.1110 78.2  40 
 PAM  EN ES       2335 37.54                             150    0.1510 78.2  40 
 PAM  HZ I        2335 39.71         6.0 0.18            152           78.2  40 
 RUS  HZ EP       2335 21.75                             143   -0.1010  100 176 
 RUS  HN ES       2335 39.90                             143   -0.1310  100 176 
 RUS  HZ I        2335 40.99         3.5 0.38            143            100 176 
 PTB  HZ EP       2335 24.62                             131   -0.48 9  147 259 
 PTB  HE ES       2335 46.19                             131    0.38 9  147 259 
 PTB  HZ I        2335 48.54         3.3 0.14            132            147 259 
 SPBC HZ EP   4   2335 30.42                             128    3.78 0  162 219 
 SPBC HN ES       2335 48.75                             128    0.19 9  162 219 
 SPBC HZ I        2335 54.07         4.1 0.26            128            162 219 
 ZAR  HZ EP   2   2335 30.29                             121   -0.38 4  204 292 
 ZAR  HN ES       2335 55.85                             121    0.13 9  204 292 
                                                                                
