 2016 1214 2300  5.1 L   6.780 -73.116148.6  RSN 12 0.5 2.0LRSN                1
 GAP=122        1.15       4.6     5.0  6.1 -0.2003E+01  0.5895E+01  0.8145E+01E
 Epicentro: LOS SANTOS - SANTANDER                                             3
 ACTION:UPD 17-01-11 20:15 OP:rebc STATUS:               ID:20161214230005 L   I
 OLDACT:REG 16-12-15 04:26 OP:dnl  STATUS:               ID:20161214225742     3
 2016-12-14-2258-00M.COL___390                                                 6
 STAT SP IPHASW D HRMM SECON CODA AMPLIT PERI AZIMU VELO AIN AR TRES W  DIS CAZ7
 BAR2 EZ EP       23 0 25.21                             171    0.1210 22.0 200 
 BAR2 EZ ES       23 0 39.88                             171   -0.7710 22.0 200 
 BAR2 EZ I        23 0 44.14        16.5 0.46            168           22.0 200 
 BRR  HZ EP       23 0 26.96                             152    0.1410 75.2 299 
 BRR  HE ES       23 0 44.56                             152    0.8310 75.2 299 
 BRR  HZ I        23 0 49.97        12.1 0.28            152           75.2 299 
 PAM  EZ EP       23 0 27.83                             151    0.1910 77.1  37 
 PAM  EN ES       23 0 45.18                             151   -0.0210 77.1  37 
 RUS  HZ EP       23 0 28.92                             145   -0.0810 98.2 178 
 RUS  HE ES       23 0 47.94                             145    0.3310 98.2 178 
 RUS  HZ I        23 0 50.34         5.8 0.46            145           98.2 178 
 PTB  HZ EP       23 0 32.02                             132   -0.57 9  151 260 
 PTB  HN ES       23 0 53.40                             132   -0.61 9  151 260 
 PTB  HZ I        23 0 56.12        15.4 0.10            132            151 260 
 ZAR  HZ EP       23 0 37.80                             122   -0.37 8  208 292 
 ZAR  HN ES   4   23 1  5.59                             122    1.65 0  208 292 
 ZAR  HZ I        23 1  9.55        14.5 0.30            124            208 292 
 NOR  HZ EP       23 0 41.40                             119    0.22 8  236 235 
 NOR  HE ES       23 1  9.15                             119   -0.15 8  236 235 
 NOR  HZ I        23 1 12.78        13.5 0.18            120            236 235 
 CHI  HZ EP       23 0 43.09                             118    0.23 8  247 196 
 CHI  HE ES       23 1 12.71                             118    0.43 8  247 196 
 CHI  HZ I        23 1 20.23         3.7 0.28            119            247 196 
 GUY2CHZ EP       23 0 50.00                             113    0.96 7  303 235 
 GUY2CHN ES   4   23 1 25.56                             113    2.28 0  303 235 
 GUY2CHZ I        23 1 30.06         8.1 0.30                           303 235 
 PTGC HZ EP       23 0 47.91                             112   -0.84 7  305 159 
 PTGC HN ES   4   23 1 20.99                             112   -1.78 0  305 159 
 PTGC HZ I        23 1 28.27         8.8 0.34            114            305 159 
 PRA  HZ EP       23 0 58.77                             107    0.05 6  392 210 
 PRA  HE ES   4   23 1 39.19                             107   -1.33 0  392 210 
 PRA  HZ I        23 1 45.75         4.6 0.40            108            392 210 
 SJC  HZ EP   4   23 0 58.81                             106   -2.41 0  413 327 
 SJC  HN ES   4   23 1 42.36                             106   -2.61 0  413 327 
 SJC  HZ I        23 1 45.87         2.6 0.48            108            413 327 
                                                                                
