 2011 1214 2136  6.9 L   6.758 -73.153133.9  RSN  4 0.2 1.4LRSN                1
 GAP=163        0.47       5.3    14.0  7.4 -0.4209E+02  0.1496E+02 -0.5060E+01E
 Epicentro: LOS SANTOS - SANTANDER                                             3
 ACTION:UPD 12-07-13 16:16 OP:ep   STATUS:               ID:20111214213606 L   I
 2011-12-14-2130-00M.COL___185                                                 6
 STAT SP IPHASW D HRMM SECON CODA AMPLIT PERI AZIMU VELO AIN AR TRES W  DIS CAZ7
 BAR2 SZ EP   1   2136 24.91                             172   -0.08 7 18.6 190 
 BAR2 SZ ES   2   2136 38.78                             172   -0.34 5 18.6 190 
 BAR2 SZ I        2136 41.50        14.4 0.24                          18.6 190 
 GIR2 SZ EP   1   2136 25.60                             164    0.32 7 35.7 353 
 PAM  SZ EP   1   2136 27.82                             147   -0.29 7 81.5  38 
 PAM  SN ES   2   2136 44.94                             147    0.26 5 81.5  38 
 PAM  SZ I        2136 47.37         3.7 0.26                          81.5  38 
 RUS  HZ EP   1   2136 29.16                             143    0.02 7 96.0 175 
 RUS  HZ I        2136 30.11         3.1 0.15                          96.0 175 
 RUS  HN ES   2   2136 46.65                             143    0.15 5 96.0 175 
                                                                                
