 2010 1014 2125 11.8 L   6.765 -73.126142.0  RSN 13 0.7 2.6LRSN                1
 GAP=161        1.59       6.3     9.9  9.4 -0.2114E+02  0.5772E+01  0.1595E+02E
 Epicentro: LOS SANTOS - SANTANDER                                             3
 ACTION:UP  11-02-18 11:09 OP:tino STATUS:               ID:20101014212511 L   I
 2010-10-14-2121-54S.COL___128                                                 6
 STAT SP IPHASW D HRMM SECON CODA AMPLIT PERI AZIMU VELO SNR AR TRES W  DIS CAZ7
 BAR2 SZ EP       2125 30.56                             171    -0.310   20 198 
 BAR2 SZ ES   1   2125 44.76                             171    -1.0 7   20 198 
 BAR2 SZ I        2125 47.37       111.4 0.06                            20 198 
 BTL  SZ EP       2125 30.93                             170     0.010   23 317 
 BTL  SZ ES   2   2125 46.54                             170     0.6 5   23 317 
 GIR2 SZ EP       2125 30.67                             165    -0.410   35 348 
 GIR2 SZ ES   1   2125 46.64                             165     0.4 7   35 348 
 BRR  HZ EP       2125 32.40                             151    -0.310   75 300 
 BRR  HZ I        2125 32.67       110.5 0.22                            75 300 
 BRR  HN ES       2125 49.71                             151     0.610   75 300 
 RUS  HZ EP       2125 34.41                             144    -0.510   97 177 
 RUS  HN ES   1   2125 53.00                             144     0.1 7   97 177 
 RUS  HZ I        2125 54.41        22.9 0.07                            97 177 
 GUE  SZ EP   1   2125 36.64                             138     0.2 7  120  11 
 GRA  SZ EP       2125 37.35                             135     0.410  129  16 
 GRA  SZ I        2125 38.53        46.7 0.63                           129  16 
 GRA  SZ ES   2   2125 56.81                             135     0.2 5  129  16 
 NOR  SZ EP   1   2125 46.52                             118    -0.7 6  234 236 
 NOR  SN ES       2126 13.89                             118    -1.0 8  234 236 
 CHI  HZ EP       2125 48.58                             117    -0.3 8  246 196 
 CHI  HN ES       2126 19.60                             117     1.7 8  246 196 
 CHI  HZ I        2126 27.53        16.6 0.35                           246 196 
 HEL  HZ EP   1   2125 52.22                             114     0.3 6  273 257 
 HEL  HZ I        2126 29.14        14.5 0.26                           273 257 
 GUY  SZ EP   1   2125 56.32                             112     1.1 5  301 236 
 GUY  SZ I        2126 40.23        16.1 0.65                           301 236 
 TOL  SZ EP   1   2126  0.58                             109     0.8 5  342 225 
 PRA  HZ EP   2   2126  4.01                             106    -0.9 3  390 210 
 PRA  HN ES   1   2126 46.47                             106     0.1 4  390 210 
 PRA  HZ I        2126 49.41        44.8 0.62                           390 210 
                                                                                
