 2015  314 2358 18.6 L   6.814 -73.158141.5  RSN 12 0.5 2.5LRSN                1
 GAP= 70        1.21       3.2     3.8  6.0 -0.2167E+01  0.4421E+01  0.1401E+01E
 Epicentro: LOS SANTOS - SANTANDER                                             3
 ACTION:UPD 15-04-30 16:25 OP:nd   STATUS:               ID:20150314235818 L   I
 OLDACT:REG 15-03-15 05:09 OP:carl STATUS:               ID:20150314234749     3
 2015-03-14-2347-49M.COL___260                                                 6
 STAT SP IPHASW D HRMM SECON CODA AMPLIT PERI AZIMU VELO AIN AR TRES W  DIS CAZ7
 BAR2 EZ EP       2358 37.91                             170    0.1310 24.6 186 
 BAR2 EZ ES       2358 52.87                             170    0.1610 24.6 186 
 BAR2 EZ I        2358 54.21        52.7 0.20            169           24.6 186 
 BRR  HZ IP     C 2358 39.80                             152    0.5810 69.3 298 
 BRR  HN ES       2358 56.44                             152    1.1810 69.3 298 
 BRR  HZ I        2358 59.99        69.3 0.18            153           69.3 298 
 PAM  SZ IP     D 2358 40.72                             150    0.3310 77.1  41 
 PAM  SN ES       2358 57.57                             150    0.2310 77.1  41 
 PAM  SZ I        2359  0.05       101.6 0.64            153           77.1  41 
 RUS  HZ EP       2358 41.91                             143   -0.1810  102 175 
 RUS  HN ES       2358 59.58                             143   -0.8010  102 175 
 RUS  HZ I        2359  1.71        23.7 0.26            144            102 175 
 PTB  HZ EP       2358 44.64                             131   -0.52 9  147 258 
 PTB  HN ES       2359  5.32                             131   -0.53 9  147 258 
 PTB  HZ I        2359  7.58        55.2 0.28            132            147 258 
 TAM  HZ IP     D 2358 46.23                             129    0.09 9  157 105 
 TAM  HE ES       2359  7.56                             129   -0.03 9  157 105 
 TAM  HZ I        2359  9.03        12.2 0.22            132            157 105 
 OCA  HZ EP       2358 46.15                             129   -0.31 9  159 354 
 OCA  HN ES       2359  7.62                             129   -0.55 9  159 354 
 OCA  HZ I        2359 11.26        43.0 0.38            131            159 354 
 SPBC HZ EP       2358 46.92                             128    0.08 9  163 218 
 SPBC HN ES       2359  8.30                             128   -0.54 9  163 218 
 SPBC HZ I        2359 13.82        44.1 0.16            129            163 218 
 NOR  HZ EP       2358 54.51                             118    0.41 8  234 234 
 NOR  HN ES       2359 21.66                             118   -0.09 8  234 234 
 NOR  HZ I        2359 25.88        29.2 0.56            119            234 234 
 SML  HZ EP       2358 54.29                             117   -0.53 8  242 335 
 SML  HE ES       2359 22.63                             117   -0.41 8  242 335 
 TOL  SZ EP       2359  7.64                             109    0.90 7  344 224 
 TOL  SN ES       2359 44.37                             109    0.12 7  344 224 
 TOL  SZ I        2359 50.89        14.5 0.28            110            344 224 
 PRA  HZ EP       2359 12.16                             106    0.07 6  393 209 
 PRA  HN ES       2359 54.59                             106    0.81 6  393 209 
 PRA  HZ I        24 0  0.84        24.5 0.32            107            393 209 
                                                                                
