 2016 1114 2327 28.4 L   7.409 -73.219136.1  RSN  4 0.3 1.1LRSN                1
 GAP=219        0.62       6.5     3.9  5.9 -0.1222E+02  0.5558E+01 -0.6889E+01E
 Epicentro: EL PLAYON - SANTANDER                                              3
 ACTION:UPD 17-10-26 21:08 OP:lp   STATUS:               ID:20161114232728 L   I
 OLDACT:REG 16-11-15 03:37 OP:and  STATUS:               ID:20161114231746     3
 2016-11-14-2318-00M.COL___338                                                 6
 STAT SP IPHASW D HRMM SECON CODA AMPLIT PERI AZIMU VELO AIN AR TRES W  DIS CAZ7
 PAM  EZ EP       2327 48.63                             156    0.1010 57.8  98 
 PAM  EN ES       2328  3.86                             156   -0.3410 57.8  98 
 PAM  EZ I        2328  5.43         1.3 0.24            152           57.8  98 
 BRR  HZ EP       2327 48.35                             153    0.2210 63.9 238 
 BRR  HN ES       2328  3.71                             153    0.2210 63.9 238 
 BRR  HZ I        2328  4.10         4.2 0.32            150           63.9 238 
 BAR2 EZ EP       2327 50.30                             145    0.1510 90.5 177 
 BAR2 EZ ES       2328  7.10                             145    0.0110 90.5 177 
 BAR2 EZ I        2328 12.42         5.1 0.56            139           90.5 177 
 PTB  HZ EP   2   2327 55.88                             126   -0.63 5  167 235 
 PTB  HE ES       2328 18.12                             126   -0.29 9  167 235 
 PTB  HZ I        2328 20.10         1.2 0.18            125            167 235 
                                                                                
