 2012  114 2310  0.1 L   6.773 -73.169146.0  RSN  6 0.4 1.5LRSN                1
 GAP=135        0.93       7.7     7.8 11.0 -0.9319E+00  0.2337E+01  0.1920E+02E
 Epicentro: LOS SANTOS - SANTANDER                                             3
 ACTION:UP  12-02-03 08:17 OP:REBC STATUS:               ID:20120114231000 L   I
 2012-01-14-2310-00M.COL___187                                                 6
 STAT SP IPHASW D HRMM SECON CODA AMPLIT PERI AZIMU VELO SNR AR TRES W  DIS CAZ7
 BAR2 SZ ES   3   2310 34.05                             172    -0.9 2   20 184 
 BAR2 SZ I        2310 36.00        11.5 0.40                            20 184 
 GIR2 SZ EP   3   2310 19.44                             166    -0.4 2   34 355 
 BRR  HZ EP       2310 21.48                             153     0.310   70 302 
 BRR  HN ES   1   2310 38.21                             153     0.5 7   70 302 
 BRR  HZ I        2310 40.13         8.6 0.18                            70 302 
 PAM  SZ EP       2310 22.44                             150    -0.110   81  40 
 PAM  SN ES   2   2310 39.62                             150    -0.5 5   81  40 
 RUS  HZ EP       2310 24.05                             145     0.410   98 174 
 RUS  HZ I        2310 24.98         3.1 0.16                            98 174 
 RUS  HN ES   2   2310 41.69                             145    -0.4 5   98 174 
 PTB  HZ EP       2310 26.20                             133    -0.6 9  145 260 
 PTB  HN ES   3   2310 47.29                             133    -0.3 2  145 260 
 PTB  HZ I        2310 54.44         3.7 0.46                           145 260 
                                                                                
