 2017  314 2249 52.0 L   6.798 -73.087147.4  RSN  8 0.5 1.6LRSN                1
 GAP=124        0.68       3.6     3.7  5.9 -0.2357E+01  0.4754E+00  0.7933E+01E
 Epicentro: LOS SANTOS - SANTANDER                                             3
 ACTION:UPD 17-05-25 18:40 OP:jn   STATUS:               ID:20170314224952 L   I
 OLDACT:UP  17-03-15 04:43 OP:and  STATUS:               ID:20170314224746     3
 OLDACT:UP  17-03-15 04:43 OP:and  STATUS:               ID:20170314224746     3
 OLDACT:UP  17-03-15 04:42 OP:and  STATUS:               ID:20170314224746     3
 OLDACT:UP  17-03-15 04:42 OP:and  STATUS:               ID:20170314224746     3
 OLDACT:UP  17-03-15 04:42 OP:and  STATUS:               ID:20170314224746     3
 OLDACT:REG 17-03-15 02:53 OP:and  STATUS:               ID:20170314224746     3
 2017-03-14-2248-00M.COL___376                                                 6
 STAT SP IPHASW D HRMM SECON CODA AMPLIT PERI AZIMU VELO AIN AR TRES W  DIS CAZ7
 PAM  EZ EP       2250 14.43                             152    0.2710 73.6  36 
 PAM  EN ES       2250 31.34                             152   -0.1110 73.6  36 
 PAM  EZ I        2250 33.85         5.3 0.46            153           73.6  36 
 BRR  HN ES       2250 30.65                             151    0.1010 77.1 296 
 RUS  HZ EP   2   2250 16.05                             144    0.19 5  100 180 
 RUS  HN ES       2250 34.43                             144   -0.0610  100 180 
 RUS  HZ I        2250 35.58         5.5 0.28            144            100 180 
 PTB  HZ EP   2   2250 19.42                             131   -0.24 5  154 259 
 PTB  HN ES   3   2250 39.44                             131   -1.81 2  154 259 
 PTB  HZ I        2250 40.41         3.5 0.11            130            154 259 
 ZAR  HN ES   2   2250 50.09                             122   -0.96 4  210 292 
 ZAR  HZ I        2250 53.15         2.6 0.11            121            210 292 
 NOR  HZ EP   2   2250 28.93                             118    0.57 4  240 235 
 NOR  HN ES       2250 57.02                             118    0.28 8  240 235 
 NOR  HZ I        2251  3.53         3.4 0.18            118            240 235 
 PTGC HZ EP       2250 35.21                             112   -0.42 7  306 160 
 GUY2CHN ES   4   2251 13.83                             112    3.05 0  306 236 
 GUY2CHZ  IAML    2251 17.71         2.7 0.32                           306 236 
                                                                                
