 2014  114 2234 15.6 L   6.796 -73.130147.7  RSN  8 0.5 1.9LRSN                1
 GAP=139        1.18       4.9     5.1  8.8 -0.3139E+01  0.8473E+01  0.1519E+02E
 Epicentro: LOS SANTOS - SANTANDER                                             3
 ACTION:UPD 14-03-13 09:55 OP:ep   STATUS:               ID:20140114223415 L   I
 OLDACT:REG 14-01-14 21:22 OP:jn   STATUS:               ID:20140114223000     3
 2014-01-14-2230-00M.COL___285                                                 6
 STAT SP IPHASW D HRMM SECON CODA AMPLIT PERI AZIMU VELO AIN AR TRES W  DIS CAZ7
 BRR  HZ EP       2234 37.19                             152    0.1410 73.0 298 
 BRR  HN ES       2234 54.47                             152    0.6910 73.0 298 
 PAM  SZ EP       2234 38.10                             151    0.1410 76.6  38 
 PAM  SN ES       2234 55.27                             151   -0.1510 76.6  38 
 PAM  SZ I        2234 57.51        12.8 0.54            157           76.6  38 
 RUS  HZ EP       2234 39.28                             144   -0.2110  100 177 
 RUS  HN ES       2234 58.27                             144    0.1310  100 177 
 RUS  HZ I        2235  0.79         6.5 0.38            145            100 177 
 PTB  HZ EP       2234 42.16                             132   -0.70 9  149 259 
 PTB  HN ES       2235  3.23                             132   -0.91 9  149 259 
 PTB  HZ I        2235 10.70        19.0 0.44            133            149 259 
 ZAR  HN ES   1   2235 13.67                             123   -0.22 6  206 292 
 ZAR  HZ I        2235 19.05        10.3 0.38            124            206 292 
 NOR  HN ES       2235 19.70                             119    0.09 8  236 235 
 NOR  HZ I        2235 23.59         6.1 0.20            120            236 235 
 CHI  HZ EP       2234 53.51                             117    0.11 8  249 196 
 CHI  HN ES       2235 22.44                             117   -0.45 8  249 196 
 CHI  HZ I        2235 32.51         3.8 0.48            119            249 196 
 GUY2CHZ EP       2235  0.26                             113    0.84 7  302 235 
 GUY2CHN ES       2235 34.52                             113    0.91 7  302 235 
 GUY2CHZ I        2235 41.42         4.1 0.28                           302 235 
                                                                                
