 2014  714 2242 32.2 L   6.825 -73.167143.1  RSN  9 0.4 1.9LRSN                1
 GAP=133        1.10       3.9     4.6  6.9 -0.7195E+00  0.8910E+01 -0.5611E+01E
 Epicentro: LOS SANTOS - SANTANDER                                             3
 ACTION:UPD 15-03-16 20:44 OP:nd   STATUS:               ID:20140714224232 L   I
 OLDACT:UP  14-07-15 03:54 OP:cam  STATUS:               ID:20140714224000     3
 OLDACT:REG 14-07-15 03:20 OP:cam  STATUS:               ID:20140714224000     3
 2014-07-14-2240-00M.COL___282                                                 6
 STAT SP IPHASW D HRMM SECON CODA AMPLIT PERI AZIMU VELO AIN AR TRES W  DIS CAZ7
 BAR2 SZ EP     D 2242 51.49                             169   -0.0410 25.8 184 
 BAR2 SZ ES       2243  5.84                             169   -0.7910 25.8 184 
 BAR2 SZ I        2243  7.30        20.2 0.32            171           25.8 184 
 BRR  HZ IP     C 2242 53.22                             153    0.3810 67.8 297 
 BRR  HN ES       2243  9.80                             153    0.8310 67.8 297 
 BRR  HZ I        2243 13.91        14.1 0.12            151           67.8 297 
 PAM  SZ IP     D 2242 54.40                             150    0.3310 76.8  42 
 PAM  SE ES       2243 11.39                             150    0.2410 76.8  42 
 PAM  SZ I        2243 12.97         9.2 0.20            153           76.8  42 
 RUS  HZ EP   1   2242 56.09                             143    0.22 7  103 175 
 RUS  HE ES       2243 14.13                             143   -0.2310  103 175 
 RUS  HZ I        2243 15.53         9.7 0.26            147            103 175 
 PTB  HZ EP       2242 58.30                             132   -0.46 9  146 258 
 PTB  HN ES       2243 19.44                             132   -0.06 9  146 258 
 PTB  HZ I        2243 24.27         5.8 0.20            132            146 258 
 SPBC HZ EP   1   2243  0.90                             128    0.37 7  164 218 
 SPBC HN ES       2243 22.64                             128   -0.01 9  164 218 
 SPBC HZ I        2243 24.36         9.8 0.12            131            164 218 
 ZAR  HZ EP       2243  4.54                             122    0.43 9  201 292 
 ZAR  HN ES       2243 28.87                             122   -0.15 9  201 292 
 ZAR  HZ I        2243 35.63        10.8 0.16            123            201 292 
 SML  HZ EP       2243  7.66                             117   -0.61 8  240 336 
 SML  HN ES       2243 35.83                             117   -0.60 8  240 336 
 SML  HZ I        2243 42.13         9.3 0.28            119            240 336 
 GUY2CHZ EP   4   2243 18.02                             112    2.41 0  301 234 
 GUY2CHE ES   4   2243 51.03                             112    1.53 0  301 234 
 GUY2CHZ I        2243 59.84         2.8 0.60                           301 234 
 SJC  HZ EP   4   2243 25.90                             105   -1.32 0  406 327 
 SJC  HN ES   4   2244  6.79                             105   -3.37 0  406 327 
                                                                                
