 2013  814 2248 54.8 L   6.810 -73.154142.6  RSN 12 0.5 2.3LRSN                1
 GAP=135        1.01       2.9     4.6  6.3 -0.6469E+00  0.6142E+01  0.5261E+00E
 Epicentro: LOS SANTOS - SANTANDER                                             3
 ACTION:UPD 14-01-14 09:02 OP:ep   STATUS:               ID:20130814224854 L   I
 OLDACT:REG 13-08-15 04:10 OP:carl STATUS:               ID:20130814224748     3
 2013-08-14-2247-48M.COL___232                                                 6
 STAT SP IPHASW D HRMM SECON CODA AMPLIT PERI AZIMU VELO AIN AR TRES W  DIS CAZ7
 BAR2 SZ EP       2249 14.20                             170    0.1210 24.3 187 
 BAR2 SZ ES   1   2249 28.74                             170   -0.37 7 24.3 187 
 BAR2 SZ I        2249 30.43        48.7 0.18            170           24.3 187 
 BRR  HZ EP       2249 16.09                             152    0.5410 69.9 298 
 BRR  HN ES   1   2249 32.80                             152    1.08 7 69.9 298 
 BRR  HZ I        2249 37.22        40.6 0.10            151           69.9 298 
 PAM  SZ EP   1   2249 17.16                             150    0.48 7 77.1  41 
 PAM  SN ES   1   2249 34.01                             150    0.28 7 77.1  41 
 PAM  SZ I        2249 36.43        38.4 0.44            154           77.1  41 
 RUS  HZ EP       2249 18.23                             143   -0.1110  102 176 
 RUS  HN ES   1   2249 36.21                             143   -0.48 7  102 176 
 RUS  HZ I        2249 37.52        24.9 0.20            146            102 176 
 PTB  HZ EP       2249 20.86                             131   -0.61 9  147 258 
 PTB  HN ES   1   2249 41.73                             131   -0.52 7  147 258 
 PTB  HZ I        2249 44.23        32.2 0.10            132            147 258 
 OCA  HZ EP   1   2249 22.04                             129   -0.73 7  159 353 
 OCA  HN ES   1   2249 44.09                             129   -0.48 7  159 353 
 OCA  HZ I        2249 46.47        20.6 0.16            131            159 353 
 SPBC HZ EP   1   2249 23.01                             128   -0.09 7  163 219 
 SPBC HN ES       2249 45.09                             128   -0.07 9  163 219 
 SPBC HZ I        2249 49.57        23.8 0.34            130            163 219 
 ZAR  HZ EP       2249 27.37                             122    0.44 9  203 292 
 ZAR  HN ES       2249 52.18                             122    0.20 9  203 292 
 ZAR  HZ I        2249 55.80        24.4 0.10            123            203 292 
 NOR  HZ EP   1   2249 30.83                             118    0.48 6  235 234 
 NOR  HE ES   1   2249 57.99                             118   -0.08 6  235 234 
 NOR  HZ I        2250  0.11        18.8 0.16            120            235 234 
 SML  HZ EP       2249 30.66                             117   -0.46 8  242 335 
 SML  HE ES       2249 59.02                             117   -0.42 8  242 335 
 SML  HZ I        2250  5.79        27.2 0.28            119            242 335 
 CHI  HZ EP       2249 33.18                             116    0.75 8  249 195 
 CHI  HN ES   1   2250  1.04                             116   -0.72 6  249 195 
 CHI  HZ I        2250  4.63         3.4 0.34            119            249 195 
 HEL  HZ EP   4   2249 36.14                             114    1.34 0  271 256 
 HEL  HN ES   4   2250  5.89                             114   -0.10 0  271 256 
 GUY2CHZ EP   4   2249 40.75                             112    2.48 0  301 235 
 GUY2CHN ES   4   2250 16.08                             112    3.92 0  301 235 
 PRA  HZ EP   1   2249 48.63                             106    0.34 4  392 209 
 PRA  HN ES   1   2250 30.06                             106    0.07 4  392 209 
 PRA  HZ I        2250 34.89         4.6 0.32            108            392 209 
                                                                                
