 2014  614 2231 49.9 L   6.809 -73.109138.0  RSN  5 0.4 1.8LRSN                1
 GAP=262        1.03       7.2     7.4  7.7 -0.1085E+02  0.9947E+01  0.1574E+02E
 Epicentro: LOS SANTOS - SANTANDER                                             3
 ACTION:UPD 14-07-01 22:54 OP:nd   STATUS:               ID:20140614223149 L   I
 OLDACT:REG 14-06-15 05:24 OP:stll STATUS:               ID:20140614222806     3
 2014-06-14-2228-06M.COL___262                                                 6
 STAT SP IPHASW D HRMM SECON CODA AMPLIT PERI AZIMU VELO AIN AR TRES W  DIS CAZ7
 BAR2 SZ EP       2232  8.70                             169    0.1010 25.3 199 
 BAR2 SZ ES       2232 23.16                             169   -0.0610 25.3 199 
 BAR2 SZ I        2232 24.80        15.6 0.18            171           25.3 199 
 BRR  HZ EP       2232 10.58                             150    0.2210 74.3 296 
 BRR  HN ES       2232 26.61                             150    0.2610 74.3 296 
 BRR  HZ I        2232 31.25         9.5 0.32            149           74.3 296 
 PTB  HZ EP       2232 15.63                             129   -0.96 9  152 259 
 PTB  HE ES       2232 37.26                             129   -0.19 9  152 259 
 PTB  HZ I        2232 39.37         7.3 0.12            130            152 259 
 SPBC HZ EP       2232 17.91                             127   -0.19 9  166 220 
 SPBC HZ I        2232 18.00         9.5 0.20            129            166 220 
 SPBC HE ES       2232 40.07                             127   -0.05 9  166 220 
 GUY2CHZ EP       2232 34.42                             110    0.86 7  305 235 
 GUY2CHN ES       2233  8.13                             110    0.48 7  305 235 
 GUY2CHZ I        2233 15.98         2.2 0.42                           305 235 
                                                                                
