 2015  414 2301 35.9 L   6.827 -73.158144.5  RSN 19 0.5 2.7LRSN                1
 GAP=134        1.04       2.4     3.6  4.8 -0.1642E+01  0.5212E+01  0.9151E+00E
 Epicentro: LOS SANTOS - SANTANDER                                             3
 ACTION:UPD 15-06-03 16:54 OP:cam  STATUS:               ID:20150414230135 L   I
 OLDACT:UP  15-04-15 07:10 OP:nlst STATUS:               ID:20150414230135 L   3
 OLDACT:REG 15-04-15 03:33 OP:ak   STATUS:               ID:20150414225749     3
 2015-04-14-2257-49M.COL___281                                                 6
 STAT SP IPHASW D HRMM SECON CODA AMPLIT PERI AZIMU VELO AIN AR TRES W  DIS CAZ7
 BAR2 EZ EP     D 23 1 55.50                             169    0.0710 26.1 186 
 BAR2 EZ ES       23 2 10.34                             169   -0.3310 26.1 186 
 BAR2 EZ I        23 2 12.11        91.1 0.14            168           26.1 186 
 BRR  HZ EP     D 23 1 57.27                             153    0.5210 68.6 297 
 BRR  HE ES       23 2 14.02                             153    0.9910 68.6 297 
 BRR  HZ I        23 2 18.40        82.8 0.14            149           68.6 297 
 PAM  SZ EP       23 1 58.35                             151    0.4610 76.0  42 
 PAM  SN ES       23 2 15.28                             151    0.2310 76.0  42 
 PAM  SZ I        23 2 17.57       150.4 0.42            154           76.0  42 
 RUS  HZ EP       23 1 59.51                             143   -0.2310  104 175 
 RUS  HE ES       23 2 17.90                             143   -0.4410  104 175 
 RUS  HZ I        23 2 19.34        87.6 0.34            144            104 175 
 PTB  HZ EP       23 2  2.33                             132   -0.35 9  147 258 
 PTB  HN ES       23 2 23.18                             132   -0.40 9  147 258 
 PTB  HZ I        23 2 25.83        53.9 0.16            130            147 258 
 OCA  HZ EP       23 2  3.76                             130   -0.05 9  157 354 
 OCA  HN ES       23 2 24.97                             130   -0.61 9  157 354 
 SPBC HZ EP       23 2  4.47                             128    0.04 9  165 218 
 SPBC HN ES       23 2 26.11                             128   -0.58 9  165 218 
 SPBC HZ I        23 2 28.24       104.4 0.14            128            165 218 
 ZAR  HZ EP       23 2  8.01                             122    0.01 9  202 292 
 ZAR  HN ES       23 2 33.49                             122    0.44 9  202 292 
 ZAR  HZ I        23 2 39.65        45.6 0.56            122            202 292 
 NOR  HZ EP       23 2 11.77                             118    0.16 8  235 234 
 NOR  HN ES       23 2 38.99                             118   -0.48 8  235 234 
 NOR  HZ I        23 2 47.26        42.3 0.20            118            235 234 
 SML  HZ EP       23 2 11.91                             117   -0.18 8  240 335 
 SML  HN ES       23 2 40.08                             117   -0.24 8  240 335 
 SML  HZ I        23 2 47.60        88.6 0.10            118            240 335 
 ROSC BZ EP       23 2 14.91                             116    0.77 8  255 210 
 ROSC BN ES       23 2 44.09                             116    0.11 8  255 210 
 ROSC BZ I        23 2 53.26        49.5 0.35            117            255 210 
 HEL  HZ EP       23 2 15.82                             115   -0.15 8  271 255 
 HEL  HN ES       23 2 46.61                             115   -0.62 8  271 255 
 HEL  HZ I        23 2 55.70        24.8 0.40            114            271 255 
 GUY2CHZ EP   4   23 2 19.86                             112    0.35 0  302 234 
 GUY2CHN ES   4   23 2 52.96                             112   -0.57 0  302 234 
 GUY2CHZ I        23 3  5.65        27.5 0.44                           302 234 
 VIL  SZ EP       23 2 19.26                             112   -0.29 7  306 191 
 VIL  SE ES       23 2 53.80                             112    0.20 7  306 191 
 VIL  SZ I        23 2 56.12        33.2 0.30            113            306 191 
 RREF HN ES       23 2 58.69                             110    0.59 7  323 229 
 CBOC HZ EP       23 2 22.88                             110    0.18 7  333 252 
 CBOC HN ES       23 2 59.56                             110    0.34 7  333 252 
 CBOC HZ I        23 3 10.71         7.3 0.52            110            333 252 
 MON  HZ EP   4   23 2 22.67                             108   -1.83 0  351 308 
 MON  HN ES   4   23 3  0.90                             108   -1.52 0  351 308 
 ORTC HZ EP       23 2 30.11                             106    0.16 6  397 216 
 ORTC HE ES       23 3 12.92                             106    0.80 6  397 216 
 ORTC HZ I        23 3 19.39        14.4 0.32            107            397 216 
 SJC  HZ EP       23 2 29.96                             106   -1.07 6  406 327 
 SJC  HN ES   4   23 3 10.50                             106   -3.53 0  406 327 
 SJC  HZ I        23 3 14.96         8.7 0.48            106            406 327 
 CRJC HZ EP   4   23 2 35.94                             103   -2.07 0  465   4 
 CRJC HN ES   4   23 3 22.12                             103   -4.34 0  465   4 
 CRJC HZ I        23 3 37.40        11.2 0.14            104            465   4 
 MACC HZ EP   4   23 2 42.64                             101   -2.25 0  523 188 
                                                                                
