 2010  714 2311 46.9 L   6.810 -73.016146.8  RSN  8 0.4 1.9LRSN                1
 GAP=171        0.96       5.5     8.9  8.2 -0.1072E+02 -0.3907E+01 -0.7220E+01E
 Epicentro: CEPITA - SANTANDER                                                 3
 ACTION:UPD 10-12-01 15:17 OP:pat  STATUS:               ID:20100714231146 L   I
 2010-07-14-2309-37S.COL___120                                                 6
 STAT SP IPHASW D HRMM SECON CODA AMPLIT PERI AZIMU VELO AIN AR TRES W  DIS CAZ7
 BAR2 SZ EP       2312  6.52                             168    -0.310   30 217 
 BAR2 SZ ES   1   2312 21.93                             168    -0.4 7   30 217 
 BAR2 SZ I        2312 25.11        25.8 0.48                            30 217 
 BRR  HZ EP       2312  8.64                             149    -0.310   84 293 
 BRR  HN ES   1   2312 26.46                             149     0.4 7   84 293 
 BRR  HZ I        2312 30.09        18.4 0.14                            84 293 
 RUS  HZ EP       2312 11.00                             144     0.210  102 184 
 RUS  HN ES   1   2312 29.80                             144     0.3 7  102 184 
 RUS  HZ I        2312 31.02        10.7 0.24                           102 184 
 BRI  SZ EP   1   2312 11.34                             143     0.8 7  103  14 
 BRI  SZ I        2312 35.35         7.4 0.40                           103  14 
 GUE  SZ EP   1   2312 11.67                             140     0.2 7  113   5 
 GUE  SZ I        2312 45.45         4.6 0.08                           113   5 
 GRA  SZ EP       2312 11.56                             138    -0.310  121  11 
 GRA  SZ I        2312 36.31         9.7 0.25                           121  11 
 GUY  SZ EP   1   2312 31.93                             112    -0.1 5  314 236 
 RREF HZ EP   1   2312 34.28                             110    -0.1 5  333 231 
 RREF HE ES   2   2313 11.87                             110     0.4 3  333 231 
 RREF HZ I        2313 18.48         6.5 0.27                           333 231 
                                                                                
