 2014  614 2033  2.5 L   6.675 -73.203144.2  RSN  4 0.1 1.5LRSN                1
 GAP=215        0.42       4.8     3.6  4.2  0.4158E+01  0.6399E+01  0.6139E+00E
 Epicentro: VILLANUEVA - SANTANDER                                             3
 ACTION:UPD 14-07-01 22:54 OP:nd   STATUS:               ID:20140614203302 L   I
 OLDACT:DUP 14-06-15 07:59 OP:stll STATUS:               ID:20140614202821d    3
 2014-06-14-2028-20M.COL___265                                                 6
 STAT SP IPHASW D HRMM SECON CODA AMPLIT PERI AZIMU VELO AIN AR TRES W  DIS CAZ7
 BAR2 SZ ES       2033 36.57                             176   -0.1310 9.46 166 
 BAR2 SZ I        2033 37.67         5.9 0.16            174           9.46 166 
 BRR  HZ EP       2033 23.58                             151   -0.0010 73.8 310 
 BRR  HN ES       2033 40.24                             151    0.1810 73.8 310 
 PTB  HZ EP       2033 28.62                             133    0.08 9  139 264 
 PTB  HN ES       2033 48.92                             133    0.04 9  139 264 
 PTB  HZ I        2033 51.47         3.0 0.10            133            139 264 
 ZAR  HN ES       2033 59.78                             122   -0.22 9  204 296 
 ZAR  HZ I        2034  2.51         4.8 0.10            122            204 296 
                                                                                
