 2013  214 2116 20.7 L   6.756 -73.128147.2  RSN  6 0.2 1.9LRSN                1
 GAP=141        0.47       2.9     3.5  4.6 -0.3330E+01  0.5406E+01 -0.4965E+00E
 Epicentro: LOS SANTOS - SANTANDER                                             3
 ACTION:UPD 13-03-12 09:33 OP:ep   STATUS:               ID:20130214211620 L   I
 2013-02-14-2110-00M.COL___241                                                 6
 STAT SP IPHASW D HRMM SECON CODA AMPLIT PERI AZIMU VELO AIN AR TRES W  DIS CAZ7
 BRR  HZ EP       2116 42.15                             151   -0.0910 75.3 301 
 BRR  HN ES   1   2116 59.36                             151    0.32 7 75.3 301 
 BRR  HN I        2117  0.82        23.3 0.21             94           75.3 301 
 PAM  SZ EP       2116 43.30                             150    0.0710 80.1  36 
 PAM  SZ I        2116 43.71        14.1 0.27             95           80.1  36 
 PAM  SN ES       2117  0.60                             150   -0.2010 80.1  36 
 RUS  HZ EP   1   2116 44.50                             145    0.26 7 95.6 177 
 RUS  HE ES   1   2117  2.60                             145    0.00 7 95.6 177 
 RUS  HE I        2117  4.16        12.4 0.54             94           95.6 177 
 PTB  HZ EP   1   2116 47.60                             132   -0.28 7  149 261 
 PTB  HZ I        2117 15.75         7.6 0.38             56            149 261 
 NOR  HN ES   1   2117 24.03                             119   -0.18 6  233 236 
 NOR  HZ I        2117 34.07         3.2 0.19             56            233 236 
 SML  HZ EP   1   2116 58.19                             117    0.22 6  249 335 
 SML  HZ I        2117 32.87        11.2 0.07             56            249 335 
                                                                                
