 2017  814 2334 51.9 L   6.844 -73.123147.4  RSN 14 0.5 1.9LRSN                1
 GAP=112        1.02       3.1     3.6  5.4  0.2037E+01  0.5955E+01  0.3109E+01E
 Epicentro: LOS SANTOS - SANTANDER                                             3
 ACTION:UPD 17-09-04 20:20 OP:rebc STATUS:               ID:20170814233451 L   I
 OLDACT:REG 17-08-15 03:06 OP:dhb  STATUS:               ID:20170814232741     3
 2017-08-14-2328-00M.COL___410                                                 6
 STAT SP IPHASW D HRMM SECON CODA AMPLIT PERI AZIMU VELO AIN AR TRES W  DIS CAZ7
 BAR2 EZ EP       2335 11.46                             169   -0.4110 28.6 193 
 BAR2 EZ ES       2335 26.74                             169   -0.6910 28.6 193 
 BAR2 EZ I        2335 29.21        13.1 0.18            166           28.6 193 
 BRR  HZ EP       2335 13.50                             153    0.2410 71.3 294 
 BRR  HN ES       2335 30.53                             153    0.6310 71.3 294 
 BRR  HZ I        2335 34.09        14.5 0.10            151           71.3 294 
 PAM  EZ IP     C 2335 14.39                             153    0.3810 72.0  40 
 PAM  EN ES       2335 31.56                             153    0.3310 72.0  40 
 PAM  EZ I        2335 33.58        11.5 0.27            157           72.0  40 
 RUS  HZ EP       2335 16.09                             143   -0.0910  105 178 
 RUS  HN ES       2335 35.00                             143   -0.1010  105 178 
 RUS  HZ I        2335 36.53         7.7 0.43            143            105 178 
 YPLC HZ EP       2335 22.27                             126    0.13 9  180 153 
 YPLC HE ES       2335 45.40                             126   -0.31 9  180 153 
 YPLC HZ I        2335 49.88         7.0 0.36            128            180 153 
 ZAR  HZ EP   2   2335 26.05                             123    1.51 4  205 291 
 ZAR  HN ES       2335 49.75                             123   -0.23 9  205 291 
 ZAR  HZ I        2335 55.23        16.6 0.36            123            205 291 
 NOR  HZ EP       2335 28.48                             118    0.20 8  240 234 
 NOR  HN ES       2335 56.00                             118   -0.63 8  240 234 
 NOR  HZ I        2336  1.50         4.4 0.11            119            240 234 
 CHI  HZ EP       2335 30.70                             117    0.40 8  254 195 
 CHI  HN ES       2336  0.55                             117    0.33 8  254 195 
 CHI  HZ I        2336  5.05         2.1 0.15            118            254 195 
 HEL  HZ EP   9   2335 34.17                             115    1.54 0  276 255 
 HEL  HN ES       2336  6.23                                    0.31 7  276 255 
 HEL  HZ I        2336 13.03         3.5 0.45            115            276 255 
 URE  HZ EP   2   2335 33.94                             114    0.80 4  284 291 
 URE  HE ES   4   2336  3.24                             114   -2.05 0  284 291 
 URE  HZ I        2336 12.05         8.0 0.17            114            284 291 
 GUY2CHZ EP   1   2335 36.24                             112    0.08 5  306 234 
 GUY2CHN ES   1   2336 11.21                             112    0.54 5  306 234 
 GUY2CHZ I        2336 17.89         3.3 0.23                           306 234 
 DBB  HN ES       2336 16.65                             110   -0.36 7  342 273 
 DBB  EZ I        2336 19.30         3.7 0.08            110            342 273 
 PRA  HZ EP   2   2335 45.92                             106   -0.22 3  397 210 
 PRA  HE ES       2336 28.61                             106    0.18 6  397 210 
 PRA  HZ I        2336 34.10         3.3 0.21            107            397 210 
 SJC  HZ EP       2335 45.66                             106   -1.57 6  407 326 
 SJC  HE ES       2336 30.03                             106   -0.34 6  407 326 
 SJC  HZ I        2336 30.75         2.3 0.48            107            407 326 
                                                                                
