 2015  314 2003  9.3 L   6.776 -73.167142.7  RSN  5 0.4 1.8LRSN                1
 GAP=140        0.97       5.7     5.3  7.4 -0.1298E+02  0.1475E+02 -0.2244E+01E
 Epicentro: LOS SANTOS - SANTANDER                                             3
 ACTION:UPD 15-04-30 16:25 OP:nd   STATUS:               ID:20150314200309 L   I
 OLDACT:REG 15-03-15 05:05 OP:carl STATUS:               ID:20150314195746     3
 2015-03-14-1957-46M.COL___260                                                 6
 STAT SP IPHASW D HRMM SECON CODA AMPLIT PERI AZIMU VELO AIN AR TRES W  DIS CAZ7
 BAR2 EZ EP       20 3 28.78                             171    0.2910 20.4 185 
 BAR2 EZ ES       20 3 43.19                             171   -0.2810 20.4 185 
 BAR2 EZ I        20 3 44.81        11.2 0.18            170           20.4 185 
 PAM  SZ EP       20 3 31.79                             149    0.3910 80.9  40 
 PAM  SN ES       20 3 48.58                             149   -0.0610 80.9  40 
 PAM  SZ I        20 3 50.70        18.1 0.42            153           80.9  40 
 RUS  HZ EP       20 3 31.73                             144   -0.8310 98.1 175 
 RUS  HN ES       20 3 51.14                             144    0.4310 98.1 175 
 RUS  HZ I        20 3 52.32         8.1 0.36            148           98.1 175 
 PTB  HZ EP       20 3 35.66                             132   -0.09 9  145 260 
 PTB  HN ES       20 3 56.25                             132   -0.14 9  145 260 
 PTB  HZ I        20 4  3.76         7.4 0.18            131            145 260 
 NOR  HZ EP       20 3 44.52                             118    0.05 8  231 235 
 NOR  HE ES       20 4 12.25                             118    0.34 8  231 235 
 NOR  HZ I        20 4 18.60         5.4 0.16            119            231 235 
                                                                                
