 2014  414 2238 45.4 L   6.804 -73.150145.6  RSN  8 0.4 1.9LRSN                1
 GAP=136        1.01       3.6     4.2  7.1 -0.1455E+01  0.7709E+01 -0.7310E+00E
 Epicentro: LOS SANTOS - SANTANDER                                             3
 ACTION:UPD 14-05-13 23:08 OP:nd   STATUS:               ID:20140414223845 L   I
 OLDACT:UP  14-04-15 03:33 OP:cam  STATUS:               ID:20140414223812     3
 OLDACT:REG 14-04-15 03:02 OP:cam  STATUS:               ID:20140414223812     3
 2014-04-14-2238-12M.COL___255                                                 6
 STAT SP IPHASW D HRMM SECON CODA AMPLIT PERI AZIMU VELO AIN AR TRES W  DIS CAZ7
 BRR  HZ EP     C 2239  6.63                             153    0.1710 70.5 298 
 BRR  HN ES       2239 23.57                             153    0.6610 70.5 298 
 PAM  SZ EP       2239  7.66                             151    0.1010 77.4  40 
 PAM  SN ES       2239 24.73                             151   -0.1410 77.4  40 
 PAM  SZ I        2239 25.83         6.9 0.16            155           77.4  40 
 RUS  HZ EP       2239  9.36                             144    0.2310  101 176 
 RUS  HE ES       2239 27.47                             144   -0.2010  101 176 
 RUS  HZ I        2239 28.20         6.5 0.46            145            101 176 
 PTB  HZ EP       2239 11.91                             132   -0.37 9  147 259 
 PTB  HN ES       2239 32.63                             132   -0.64 9  147 259 
 PTB  HZ I        2239 36.47         9.3 0.14            131            147 259 
 SPBC HN ES   1   2239 35.89                             129   -0.18 7  163 219 
 SPBC HZ I        2239 42.15         8.7 0.36            129            163 219 
 ZAR  HZ EP   1   2239 18.77                             122    1.04 6  203 292 
 ZAR  HN ES       2239 43.17                             122    0.19 9  203 292 
 ZAR  HZ I        2239 50.53         7.8 0.24            122            203 292 
 NOR  HZ EP       2239 21.43                             118    0.37 8  235 234 
 NOR  HN ES       2239 48.79                             118   -0.12 8  235 234 
 NOR  HZ I        2239 55.07         5.3 0.20            119            235 234 
 SML  HZ EP   1   2239 20.99                             117   -0.92 6  243 335 
 SML  HE ES       2239 50.03                             117   -0.39 8  243 335 
 SML  HZ I        2239 53.10        15.2 0.10            118            243 335 
                                                                                
