 2015  814 2206 58.9 L   6.807 -73.135145.8  RSN 13 0.4 2.6LRSN                1
 GAP=138        1.07       3.1     4.6  6.1 -0.3123E+01  0.1047E+02 -0.2225E+01E
 Epicentro: LOS SANTOS - SANTANDER                                             3
 ACTION:UPD 15-09-15 23:02 OP:cam  STATUS:               ID:20150814220658 L   I
 OLDACT:DUP 15-08-15 04:58 OP:drio STATUS:               ID:20150814215750d    3
 2015-08-14-2157-49M.COL___334                                                 6
 STAT SP IPHASW D HRMM SECON CODA AMPLIT PERI AZIMU VELO AIN AR TRES W  DIS CAZ7
 BAR2 EZ IP     C 22 7 18.50                             170   -0.0310 24.3 192 
 BAR2 EZ ES       22 7 33.50                             170   -0.3510 24.3 192 
 BAR2 EZ I        22 7 34.71       121.4 0.20            166           24.3 192 
 BRR  HZ IP     C 22 7 20.41                             152    0.3510 71.9 298 
 BRR  HE ES       22 7 37.50                             152    0.9110 71.9 298 
 BRR  HZ I        22 7 40.99        41.7 0.12            147           71.9 298 
 PAM  EZ EP       22 7 21.51                             151    0.5010 76.0  39 
 PAM  EE ES       22 7 38.49                             151    0.2210 76.0  39 
 PAM  EZ I        22 7 40.74        88.1 0.46            156           76.0  39 
 RUS  HZ EP       22 7 22.51                             144   -0.1710  101 177 
 RUS  HE ES       22 7 41.05                             144   -0.1910  101 177 
 RUS  HZ I        22 7 41.85        40.3 0.26            145            101 177 
 OCA  HZ EP       22 7 27.03                             130   -0.10 9  160 353 
 OCA  HN ES       22 7 48.27                             130   -0.89 9  160 353 
 OCA  HZ I        22 7 52.02       105.7 0.20            130            160 353 
 SPBC HE ES       22 7 49.56                             129   -0.27 9  165 219 
 SPBC HZ I        22 7 51.59        41.1 0.20            128            165 219 
 ZAR  HZ EP       22 7 31.32                             122   -0.08 9  205 292 
 ZAR  HN ES       22 7 56.96                             122    0.18 9  205 292 
 ZAR  HZ I        22 8  3.29        45.8 0.30            121            205 292 
 NOR  HZ EP       22 7 35.00                             118    0.24 8  236 234 
 NOR  HE ES       22 8  2.37                             118   -0.38 8  236 234 
 NOR  HZ I        22 8  9.29        19.0 0.20            118            236 234 
 SML  HZ EP       22 7 35.13                             117   -0.35 8  243 335 
 SML  HN ES       22 8  3.73                             117   -0.30 8  243 335 
 SML  HZ I        22 8  8.23        37.2 0.10            118            243 335 
 HEL  HZ EP   4   22 7 40.75                             115    1.51 0  273 256 
 HEL  HE ES   4   22 8  9.26                             115   -1.46 0  273 256 
 HEL  HZ I        22 8 26.51        11.2 0.26            114            273 256 
 GUY2CHZ EP       22 7 43.51                             112    0.86 7  303 235 
 GUY2CHN ES       22 8 16.38                             112   -0.41 7  303 235 
 GUY2CHZ I        22 8 27.30        11.2 0.36                           303 235 
 TOL  SN ES   4   22 8 27.19                             109    2.13 0  345 225 
 TOL  SZ I        22 8 35.29         7.8 0.50            110            345 225 
 SJC  HZ EP   4   22 7 52.97                             106   -1.47 0  409 327 
 SJC  HE ES   4   22 8 31.96                             106   -5.81 0  409 327 
 SJC  HZ I        22 8 38.59        11.2 0.46            106            409 327 
                                                                                
