 2014  714 2234 26.4 L   6.745 -73.164144.6  RSN  4 0.3 1.7LRSN                1
 GAP=231        0.69       5.4     5.2  5.5  0.1384E+02  0.2985E+01  0.7629E+00E
 Epicentro: LOS SANTOS - SANTANDER                                             3
 ACTION:UPD 15-03-16 20:44 OP:nd   STATUS:               ID:20140714223426 L   I
 OLDACT:REG 14-07-15 03:20 OP:cam  STATUS:               ID:20140714223000     3
 2014-07-14-2230-00M.COL___282                                                 6
 STAT SP IPHASW D HRMM SECON CODA AMPLIT PERI AZIMU VELO AIN AR TRES W  DIS CAZ7
 BAR2 SZ EP       2234 45.70                             173   -0.0710 17.0 187 
 BAR2 SZ ES       2235  0.48                             173   -0.4010 17.0 187 
 BAR2 SZ I        2235  3.95         5.7 0.46            168           17.0 187 
 BRR  HZ EP       2234 47.57                             152    0.0710 72.6 304 
 BRR  HN ES       2235  4.26                             152    0.3010 72.6 304 
 BRR  HN I        2235  5.92        21.0 0.22            152           72.6 304 
 RUS  HZ EP       2234 49.88                             145    0.2710 94.7 175 
 RUS  HE ES       2235  7.85                             145    0.1410 94.7 175 
 RUS  HZ I        2235 10.88         3.7 0.26            145           94.7 175 
 PTB  HZ EP       2234 52.60                             132   -0.39 9  145 261 
 PTB  HN ES       2235 13.77                             132    0.04 9  145 261 
 PTB  HN I        2235 19.17        16.6 0.34            132            145 261 
                                                                                
