 2012 1014 2221 30.8 L   7.413 -73.184128.6  RSN 10 0.4 2.1LRSN                1
 GAP=186        0.72       5.8     3.6  4.9  0.8700E+01  0.1924E+01  0.4035E+01E
 Epicentro: EL PLAYON - SANTANDER                                              3
 ACTION:UPD 12-11-22 17:03 OP:ep   STATUS:               ID:20121014222130 L   I
 2012-10-14-2220-00M.COL___230                                                 6
 STAT SP IPHASW D HRMM SECON CODA AMPLIT PERI AZIMU VELO AIN AR TRES W  DIS CAZ7
 GIR2 SZ EP   1   2221 48.51                             163   -0.10 7 36.9 182 
 GIR2 SZ ES   1   2222  2.16                             163   -0.36 7 36.9 182 
 PAM  SZ EP   1   2221 50.08                             156    0.22 7 54.1  99 
 PAM  SZ I        2221 50.38        17.1 0.18                          54.1  99 
 PAM  SN ES   1   2222  5.06                             156    0.33 7 54.1  99 
 BRR  HZ EP   1   2221 49.78                             151   -0.10 7 67.4 240 
 BRR  HZ I        2221 50.27        33.1 0.14                          67.4 240 
 BRR  HE ES   1   2222  4.93                             151    0.16 7 67.4 240 
 BAR2 SZ EP       2221 51.67                             143   -0.1210 90.7 180 
 BAR2 SZ ES   1   2222  7.93                             143   -0.24 7 90.7 180 
 RUS  HZ EP   1   2221 58.25                             124   -0.84 7  168 176 
 RUS  HZ I        2221 59.36        10.9 0.16                           168 176 
 RUS  HN I        2222 29.39         9.6 0.38                           168 176 
 ZAR  HZ EP   1   2221 59.72                             121   -0.44 7  185 273 
 ZAR  HZ I        2222  1.79        20.2 0.10                           185 273 
 ZAR  HE ES   1   2222 23.57                             121    0.50 7  185 273 
 TAM  HZ EP   1   2222  0.42                             121   -0.10 7  188 125 
 TAM  HZ I        2222  0.99        21.0 0.19                           188 125 
 TAM  HN ES   1   2222 23.74                             121    0.03 7  188 125 
 YOP  SZ EP   1   2222  6.92                             114    0.37 6  243 160 
 YOP  SE ES   1   2222 35.26                             114    0.81 6  243 160 
 HEL  HZ EP   1   2222 13.05                             109    0.55 5  292 243 
 HEL  HZ I        2222 15.63         3.6 0.22                           292 243 
 PRA  HZ EP   1   2222 30.51                             101   -0.22 4  450 205 
 PRA  HZ I        2223 25.38         5.4 0.34                           450 205 
                                                                                
