 2017  314 2314 47.0 L   6.788 -73.136142.0  RSN 23 0.5 2.7LRSN                1
 GAP= 66        0.92       2.9     2.5  4.0 -0.7207E+00  0.2266E+01  0.1289E+01E
 Epicentro: LOS SANTOS - SANTANDER                                             3
 ACTION:UPD 17-05-25 18:40 OP:jn   STATUS:               ID:20170314231447 L   I
 OLDACT:UP  17-03-15 04:58 OP:and  STATUS:               ID:20170314230743d    3
 OLDACT:UP  17-03-15 04:58 OP:and  STATUS:               ID:20170314230743d    3
 OLDACT:UP  17-03-15 04:57 OP:and  STATUS:               ID:20170314230743d    3
 OLDACT:UP  17-03-15 04:56 OP:and  STATUS:               ID:20170314230743d    3
 OLDACT:UP  17-03-15 04:56 OP:and  STATUS:               ID:20170314230743d    3
 OLDACT:UP  17-03-15 04:55 OP:and  STATUS:               ID:20170314230743d    3
 OLDACT:UP  17-03-15 04:54 OP:and  STATUS:               ID:20170314230743d    3
 OLDACT:UP  17-03-15 04:54 OP:and  STATUS:               ID:20170314230743d    3
 OLDACT:UP  17-03-15 04:53 OP:and  STATUS:               ID:20170314230743d    3
 OLDACT:UP  17-03-15 04:53 OP:and  STATUS:               ID:20170314230743d    3
 OLDACT:UP  17-03-15 04:53 OP:and  STATUS:               ID:20170314230743d    3
 OLDACT:UP  17-03-15 04:51 OP:and  STATUS:               ID:20170314230743d    3
 OLDACT:UP  17-03-15 04:51 OP:and  STATUS:               ID:20170314230743d    3
 OLDACT:DUP 17-03-15 04:48 OP:and  STATUS:               ID:20170314230743d    3
 2017-03-14-2308-00M.COL___376                                                 6
 STAT SP IPHASW D HRMM SECON CODA AMPLIT PERI AZIMU VELO AIN AR TRES W  DIS CAZ7
 BAR2 EZ IP     D 2315  5.95                             171   -0.2110 22.2 193 
 BAR2 EZ ES       2315 20.49                             171   -0.6110 22.2 193 
 BAR2 EZ I        2315 22.04       127.2 0.36            171           22.2 193 
 BRR  HZ IP     C 2315  7.76                             151   -0.0810 72.8 299 
 BRR  HN ES       2315 24.96                             151    0.8710 72.8 299 
 BRR  HZ I        2315 27.98        72.3 0.28            149           72.8 299 
 PAM  EZ EP       2315  8.79                             150   -0.0510 77.7  38 
 PAM  EN ES       2315 25.88                             150    0.0110 77.7  38 
 PAM  EZ I        2315 28.17        95.7 0.50            147           77.7  38 
 RUS  HZ IP     D 2315  9.88                             143   -0.4010 99.2 177 
 RUS  HN ES       2315 28.70                             143    0.2610 99.2 177 
 RUS  HZ I        2315 29.73        55.7 0.28            141           99.2 177 
 PTB  HZ EP   9   2315 12.43                             131   -1.31 0  149 259 
 PTB  HN ES       2315 33.71                             132    0.42 9  149 259 
 PTB  HZ I        2315 35.72        46.8 0.11            128            149 259 
 TAM  HZ IP     D 2315 14.39                             130    0.14 9  154 105 
 TAM  HZ I        2315 35.28        25.2 0.38            127            154 105 
 TAM  HN ES       2315 35.93                             130    0.42 9  154 105 
 SPBC HZ EP       2315 14.86                             128   -0.32 9  163 220 
 SPBC HN ES       2315 37.22                             128    0.06 9  163 220 
 SPBC HZ I        2315 41.46        75.8 0.24            126            163 220 
 ZAR  HZ EP       2315 19.61                             121    0.25 8  206 292 
 ZAR  HN ES       2315 43.89                             121   -0.71 8  206 292 
 ZAR  HZ I        2315 49.14        48.8 0.40            119            206 292 
 NOR  HZ EP       2315 22.03                             118   -0.50 8  235 235 
 NOR  HN ES       2315 50.23                             118   -0.01 8  235 235 
 NOR  HZ I        2315 54.64        25.9 0.26            115            235 235 
 CHI  HZ EP       2315 24.13                             116   -0.25 8  248 195 
 CHI  HN ES       2315 53.32                             116   -0.22 8  248 195 
 CHI  HZ I        2315 56.98        32.5 0.58            114            248 195 
 ROSC BZ EP   9   2315 26.55                             116    1.70 0  252 211 
 ROSC BN ES       2315 56.23                             116    0.16 8  252 211 
 ROSC BZ I        2316  0.45        68.4 0.40            114            252 211 
 HEL  HZ EP       2315 28.01                             114    0.90 8  273 256 
 HEL  HN ES       2315 58.29                             114   -0.10 8  273 256 
 HEL  HZ I        2316  4.04        28.5 0.30            112            273 256 
 URE  HZ EP   9   2315 24.84                             113   -3.22 0  285 292 
 URE  HN ES       2315 56.54                             113   -0.33 7  285 292 
 URE  HZ I        2316  8.68        28.3 0.22            110            285 292 
 GUY2CHZ EP       2315 30.78                             112    0.33 7  301 235 
 GUY2CHN ES   4   2316  8.37                             112    4.03 0  301 235 
 GUY2CHZ  IAML    2316 12.21        24.7 0.36                           301 235 
 PTGC HZ IP   9 D 2315 29.08                             111   -1.42 0  307 159 
 PTGC HN ES       2316  2.77                             111   -0.24 7  307 159 
 PTGC HZ I        2316  5.20        26.6 0.34            109            307 159 
 ELA  HZ EP   9   2315 35.50                             110    1.81 0  329 230 
 ELA  HN ES       2316 12.20                             109    0.28 7  329 230 
 ELA  HZ I        2316 18.69        17.4 0.54            108            329 230 
 CBOC HZ EP       2315 34.28                             109    0.45 7  334 252 
 CBOC HN ES       2316 10.42                             109    0.06 7  334 252 
 CBOC HZ I        2316 15.53         7.5 0.44            107            334 252 
 DBB  EZ EP       2315 33.90                             109   -0.56 7  341 274 
 DBB  EN ES   4   2316  9.16                             109   -2.32 0  341 274 
 DBB  EZ I        2316 11.61        14.0 0.31            107            341 274 
 ANIL HZ EP       2315 37.50                             108    0.86 6  357 225 
 ANIL HE ES   3   2316 17.11                             108    1.75 2  357 225 
 PRA  HZ EP   9   2315 37.71                             106   -2.61 0  391 210 
 PRA  HN ES       2316 19.60                             106    0.30 6  391 210 
 PRA  HZ I        2316 24.98        20.9 0.26            104            391 210 
 ORTC HZ EP       2315 40.33                             106   -0.41 6  395 216 
 ORTC HN ES   3   2316 23.82                             106    1.16 1  395 216 
 ORTC HZ I        2316 27.37        18.2 0.20            104            395 216 
 SJC  HZ EP   4   2315 40.17                             105   -2.47 0  411 327 
 SJC  HN ES   4   2316 21.74                             105   -4.30 0  411 327 
 SJC  HZ I        2316 33.44         8.2 0.30            103            411 327 
 CRJC HZ EP   9   2315 46.27                             103   -3.28 0  469   3 
 CRJC HN ES       2316 34.68                             103   -0.38 5  469   3 
 CRJC HZ I        2316 41.32        11.8 0.23            101            469   3 
 YOT  HZ EP   4   2315 48.53                             103   -1.41 0  472 229 
 YOT  HN ES   4   2316 43.70                             103    4.68 0  472 229 
 SMAR HZ EP   4   2315 51.80                             102   -1.16 0  499 346 
 SMAR HN ES   4   2316 39.27                             102   -5.14 0  499 346 
                                                                                
