 2011  214 2319  3.8 L   6.769 -73.188141.3  RSN  6 0.4 2.0LRSN                1
 GAP=154        0.80       4.6     7.9  7.9 -0.2277E+02  0.2573E+02 -0.6781E+01E
 Epicentro: VILLANUEVA - SANTANDER                                             3
 ACTION:UP  11-03-28 15:08 OP:jfem STATUS:               ID:20110214231903 L   I
 2011-02-14-2315-37S.COL___136                                                 6
 STAT SP IPHASW D HRMM SECON CODA AMPLIT PERI AZIMU VELO SNR AR TRES W  DIS CAZ7
 BAR2 SZ EP   1   2319 22.88                             172     0.1 8   20 179 
 BAR2 SZ ES   1   2319 38.01                             172     0.4 8   20 179 
 BAR2 SZ I        2319 39.79        30.2 0.33                            20 179 
 RUS  HZ EP   1   2319 26.84                             144     0.0 8   98 173 
 RUS  HE ES   1   2319 44.48                             144    -0.4 8   98 173 
 RUS  HZ I        2319 46.86        10.6 0.32                            98 173 
 GRA  SZ IP       2319 28.75                             135    -0.310  130  19 
 GRA  SZ I        2319 29.89        17.6 0.30                           130  19 
 GRA  SZ ES   1   2319 48.84                             135     0.1 7  130  19 
 NOR  SZ EP   1   2319 39.48                             118     0.8 6  229 235 
 NOR  SN ES   1   2320  5.75                             118    -0.1 6  229 235 
 CHI  HZ EP   1   2319 40.97                             117     0.2 6  244 194 
 CHI  HN ES   1   2320  9.65                             117     0.1 6  244 194 
 CHI  HZ I        2320 18.10         3.9 0.32                           244 194 
 RREF HN ES   1   2320 23.76                             110    -0.6 5  316 229 
 RREF HZ I        2320 31.36         5.2 0.27                           316 229 
                                                                                
