 2016 1014 2231 19.1 L   6.785 -73.177152.2  RSN  5 0.4 1.3LRSN                1
 GAP=133        0.94       5.0     4.3  8.2  0.1541E+01  0.5152E+01  0.3878E+01E
 Epicentro: LOS SANTOS - SANTANDER                                             3
 ACTION:UPD 16-11-09 19:19 OP:rebc STATUS:               ID:20161014223119 L   I
 OLDACT:REG 16-10-15 08:03 OP:dani STATUS:               ID:20161014222737     3
 2016-10-14-2228-00M.COL___374                                                 6
 STAT SP IPHASW D HRMM SECON CODA AMPLIT PERI AZIMU VELO AIN AR TRES W  DIS CAZ7
 BRR  HZ EP       2231 41.09                             154    0.2810 69.0 301 
 BRR  HE ES       2231 58.49                             154    0.7310 69.0 301 
 BRR  HZ I        2232  1.45         5.5 0.56            154           69.0 301 
 PAM  EZ EP       2231 42.34                             151    0.1410 80.9  41 
 PAM  EN ES       2231 59.73                             151   -0.4910 80.9  41 
 PAM  EZ I        2232  2.04         2.4 0.39            155           80.9  41 
 RUS  HZ EP       2231 43.45                             146    0.0710 99.2 174 
 RUS  HE ES       2232  2.18                             146   -0.1510 99.2 174 
 RUS  HZ I        2232  3.38         2.0 0.22            148           99.2 174 
 PTB  HE EP       2231 46.20                             134   -0.05 9  144 259 
 PTB  HN ES       2232  7.23                             134   -0.21 9  144 259 
 PTB  HE I        2232 12.99         4.5 0.25            136            144 259 
 ZAR  HN ES       2232 16.66                             124   -0.47 9  201 293 
                                                                                
