 2012  114 2213 12.4 L   6.752 -73.148138.0  RSN  6 0.3 1.3LRSN                1
 GAP=138        0.42       7.4     5.5 10.8 -0.5568E+01 -0.2532E+02 -0.2655E+01E
 Epicentro: LOS SANTOS - SANTANDER                                             3
 ACTION:UP  12-02-03 08:17 OP:REBC STATUS:               ID:20120114221312 L   I
 2012-01-14-2210-00M.COL___187                                                 6
 STAT SP IPHASW D HRMM SECON CODA AMPLIT PERI AZIMU VELO SNR AR TRES W  DIS CAZ7
 BAR2 SZ EP   3   2213 31.39                             172     0.4 2   18 192 
 BAR2 SZ I        2213 31.55         6.5 0.32                            18 192 
 GIR2 SZ EP       2213 31.19                             164    -0.110   37 352 
 BRR  HZ EP       2213 33.05                             150     0.210   74 302 
 BRR  HZ I        2213 33.68         5.5 0.28                            74 302 
 BRR  HN ES   2   2213 48.83                             150     0.0 5   74 302 
 PAM  SZ EP       2213 34.07                             148     0.010   82  37 
 RUS  HZ EP   3   2213 35.41                             143     0.4 2   95 176 
 RUS  HN ES   3   2213 52.61                             143     0.0 2   95 176 
 RUS  HZ I        2213 54.78         1.9 0.58                            95 176 
 PTB  HZ EP   3   2213 38.06                             130    -0.6 2  147 261 
 PTB  HN ES   3   2213 58.45                             130    -0.7 2  147 261 
 PTB  HZ I        2214  1.10         2.7 0.12                           147 261 
                                                                                
