 2014  814 2103 54.5 L   6.804 -73.160142.0  RSN 21 0.5 2.7LRSN                1
 GAP= 70        1.09       2.6     2.9  4.8 -0.8675E+00  0.4249E+01  0.2722E+01E
 Epicentro: LOS SANTOS - SANTANDER                                             3
 ACTION:UPD 14-09-15 21:49 OP:nd   STATUS:               ID:20140814210354 L   I
 OLDACT:REG 14-08-15 03:28 OP:carl STATUS:               ID:20140814205818     3
 2014-08-14-2058-18M.COL___275                                                 6
 STAT SP IPHASW D HRMM SECON CODA AMPLIT PERI AZIMU VELO AIN AR TRES W  DIS CAZ7
 BAR2 SZ IP     D 21 4 13.56                             170   -0.0910 23.6 186 
 BAR2 SZ ES       21 4 28.48                             170   -0.1410 23.6 186 
 BAR2 SZ I        21 4 31.33       240.6 0.38            169           23.6 186 
 BRR  HZ EP       21 4 15.49                             152    0.3710 69.6 299 
 BRR  HN ES       21 4 31.90                             152    0.6710 69.6 299 
 BRR  HZ I        21 4 39.65        58.0 0.14            151           69.6 299 
 PAM  SZ EP       21 4 16.35                             150    0.0210 78.1  41 
 PAM  SN ES       21 4 33.58                             150    0.2010 78.1  41 
 PAM  SZ I        21 4 35.35        59.8 0.76            155           78.1  41 
 RUS  HZ EP       21 4 17.48                             143   -0.4210  101 175 
 RUS  HN ES       21 4 36.30                             143    0.1310  101 175 
 RUS  HZ I        21 4 37.78        48.0 0.44            146            101 175 
 PTB  HZ EP       21 4 20.08                             131   -0.92 9  146 259 
 PTB  HN ES       21 4 41.13                             131   -0.56 9  146 259 
 PTB  HZ I        21 4 48.86        85.5 0.42            132            146 259 
 TAM  HZ IP     D 21 4 21.78                             129   -0.23 9  157 105 
 TAM  HN ES       21 4 43.56                             129    0.07 9  157 105 
 TAM  HZ I        21 4 44.70        29.1 0.44            135            157 105 
 OCA  HN ES       21 4 44.93                             129    0.69 9  160 354 
 OCA  HZ I        21 4 49.22        52.7 0.26            132            160 354 
 SPBC HZ EP       21 4 22.41                             128   -0.21 9  163 218 
 SPBC HN ES       21 4 44.19                             128   -0.39 9  163 218 
 SPBC HZ I        21 4 47.19        95.1 0.34            130            163 218 
 ZAR  HZ EP       21 4 26.22                             122   -0.28 9  202 292 
 ZAR  HN ES       21 4 51.32                             122   -0.16 9  202 292 
 ZAR  HZ I        21 4 58.75        34.3 0.34            123            202 292 
 NOR  HZ EP       21 4 29.48                             118   -0.39 8  234 234 
 NOR  HE ES       21 4 57.13                             118   -0.36 8  234 234 
 NOR  HZ I        21 5  3.01        54.7 0.26            120            234 234 
 SML  HZ EP       21 4 30.03                             117   -0.74 8  243 336 
 SML  HN ES       21 4 58.59                             117   -0.49 8  243 336 
 SML  HZ I        21 5  8.51        47.0 0.10            119            243 336 
 CHI  HZ EP       21 4 31.67                             116   -0.30 8  249 195 
 CHI  HE ES       21 5  1.43                             116    0.22 8  249 195 
 CHI  HZ I        21 5  6.59        20.0 0.28            119            249 195 
 ROSC BZ EP   4   21 4 33.40                             116    1.06 0  252 211 
 ROSC BN ES   4   21 5  3.92                             116    2.04 0  252 211 
 ROSC BZ I        21 5 11.42        55.8 0.35            118            252 211 
 HEL  HZ EP       21 4 34.90                             114    0.56 8  271 256 
 HEL  HN ES       21 5  5.64                             114    0.21 8  271 256 
 HEL  HZ I        21 5 12.38        26.8 0.42            116            271 256 
 GUY2CHZ EP       21 4 38.68                             112    0.89 7  300 235 
 GUY2CHZ I        21 5 20.11        43.0 0.32                           300 235 
 RREF HZ EP       21 4 40.79                             110    0.44 7  321 229 
 RREF HN ES       21 5 15.44                             110   -0.69 7  321 229 
 RREF HZ I        21 5 23.48        26.6 0.32            112            321 229 
 CBOC HZ EP       21 4 41.43                             109    0.36 7  332 252 
 CBOC HN ES       21 5 17.70                             109    0.28 7  332 252 
 TOL  SZ EP       21 4 43.32                             109    0.83 7  343 224 
 TOL  SN ES       21 5 19.93                             109   -0.01 7  343 224 
 ANIL HZ EP       21 4 44.84                             108    0.80 6  357 224 
 ANIL HN ES       21 5 23.93                             108    1.22 6  357 224 
 ANIL HZ I        21 5 31.30         5.7 0.38            110            357 224 
 PRA  HZ EP       21 4 47.25                             106   -0.57 6  392 209 
 PRA  HE ES       21 5 29.51                             106    0.08 6  392 209 
 PRA  HZ I        21 5 36.05        23.5 0.24            108            392 209 
 ORTC HZ EP       21 4 47.84                             106   -0.36 6  395 216 
 ORTC HN ES       21 5 31.04                             106    0.94 6  395 216 
 ORTC HZ I        21 5 37.45        15.3 0.54            108            395 216 
                                                                                
