 2012 1114 2323 38.4 L   6.803 -73.124149.7  RSN 15 0.5 2.6LRSN                1
 GAP= 72        0.93       3.0     3.6  5.2  0.2361E+00  0.4756E+01  0.2454E+01E
 Epicentro: LOS SANTOS - SANTANDER                                             3
 ACTION:UPD 12-12-05 15:33 OP:}ep  STATUS:               ID:20121114232338 L   I
 2012-11-14-2320-00M.COL___229                                                 6
 STAT SP IPHASW D HRMM SECON CODA AMPLIT PERI AZIMU VELO AIN AR TRES W  DIS CAZ7
 BAR2 SZ IP     C 2323 58.49                             170   -0.0610 24.2 195 
 BAR2 SZ ES   1   2324 13.35                             170   -0.89 7 24.2 195 
 BAR2 SZ I        2324 16.39        87.7 0.28                          24.2 195 
 GIR2 SZ EP   1   2323 58.65                             168    0.08 7 31.4 346 
 GIR2 SZ ES   1   2324 14.79                             168    0.51 7 31.4 346 
 BRR  HZ IP     D 2324  0.48                             153    0.3710 73.1 297 
 BRR  HE ES   1   2324 17.88                             153    0.86 7 73.1 297 
 BRR  HZ I        2324 21.68        83.9 0.14                          73.1 297 
 PAM  SZ EP       2324  1.38                             152    0.4210 75.6  38 
 PAM  SN ES   1   2324 18.79                             152    0.26 7 75.6  38 
 PAM  SZ I        2324 20.83       128.6 0.56                          75.6  38 
 RUS  HZ IP     D 2324  2.35                             144   -0.2310  101 177 
 RUS  HN ES   1   2324 21.04                             144   -0.39 7  101 177 
 RUS  HZ I        2324 24.05        28.9 0.38                           101 177 
 PTB  HZ EP       2324  5.48                             132   -0.45 9  150 259 
 PTB  HZ I        2324 32.45        64.4 0.28                           150 259 
 TAM  HZ IP     D 2324  6.66                             132    0.45 9  153 105 
 TAM  HN ES   1   2324 27.67                             132   -0.22 7  153 105 
 OCA  HZ EP   1   2324  6.64                             130   -0.40 7  160 352 
 OCA  HN ES   1   2324 28.53                             130   -0.82 7  160 352 
 ZAR  HZ EP   1   2324 11.27                             123   -0.07 6  206 292 
 ZAR  HN ES   1   2324 36.45                             123   -0.57 6  206 292 
 ZAR  HZ I        2324 47.38        49.1 0.34                           206 292 
 SML  HZ EP   1   2324 15.18                             118   -0.16 6  244 335 
 SML  HE ES   1   2324 44.53                             118    0.39 6  244 335 
 CHI  HZ EP       2324 16.51                             118    0.06 8  250 196 
 CHI  HN ES   1   2324 45.57                             118   -0.54 6  250 196 
 CHI  HZ I        2324 49.26        17.8 0.58                           250 196 
 HEL  HZ EP   1   2324 19.83                             115    0.73 6  274 256 
 HEL  HN ES   1   2324 50.96                             115    0.12 6  274 256 
 HEL  HZ I        2324 59.21        14.7 0.24                           274 256 
 RREF HZ EP   1   2324 25.76                             111    0.79 5  324 230 
 RREF HN ES   1   2325  1.62                             111    0.34 5  324 230 
 RREF HZ I        2325 11.05        31.4 0.44                           324 230 
 COD  HZ EP   1   2324 25.96                             110   -0.98 5  348 354 
 COD  HN ES   2   2325  3.89                             110   -0.89 3  348 354 
 COD  HZ I        2325 11.20         7.2 0.52                           348 354 
 PRA  HZ EP       2324 32.16                             107   -0.10 6  394 210 
 PRA  HE ES   1   2325 14.60                             107    0.35 4  394 210 
 PRA  HZ I        2325 18.11        19.2 0.36                           394 210 
                                                                                
