 2017  414 2304 26.5 L   6.812 -73.160142.7  RSN  8 0.4 1.4LRSN                1
 GAP=117        0.88       3.7     4.0  6.6  0.5192E+00  0.6884E+01  0.2465E+01E
 Epicentro: LOS SANTOS - SANTANDER                                             3
 ACTION:UPD 17-05-30 21:12 OP:jn   STATUS:               ID:20170414230426 L   I
 OLDACT:UP  17-04-15 04:39 OP:and  STATUS:               ID:20170414225526d    3
 OLDACT:UP  17-04-15 04:39 OP:and  STATUS:               ID:20170414225526d    3
 OLDACT:UP  17-04-15 04:38 OP:and  STATUS:               ID:20170414225526d    3
 OLDACT:UP  17-04-15 04:38 OP:and  STATUS:               ID:20170414225526d    3
 OLDACT:UP  17-04-15 04:38 OP:and  STATUS:               ID:20170414225526d    3
 OLDACT:DUP 17-04-15 04:36 OP:and  STATUS:               ID:20170414225526d    3
 2017-04-14-2258-00M.COL___365                                                 6
 STAT SP IPHASW D HRMM SECON CODA AMPLIT PERI AZIMU VELO AIN AR TRES W  DIS CAZ7
 BAR2 EZ EP       23 4 45.52                             170   -0.3010 24.4 186 
 BAR2 EZ ES       23 5  0.45                             170   -0.4010 24.4 186 
 BRR  HZ EP       23 4 47.48                             153    0.2510 69.2 298 
 BRR  HE ES   2   23 5  4.44                             153    1.06 5 69.2 298 
 PAM  EZ IP     C 23 4 48.51                             150    0.0910 77.4  41 
 PAM  EN ES       23 5  5.48                             150   -0.0110 77.4  41 
 PAM  EZ I        23 5  7.48         7.4 0.52            152           77.4  41 
 RUS  HZ EP       23 4 49.75                             143   -0.3410  102 175 
 RUS  HE ES       23 5  9.03                             143    0.5710  102 175 
 RUS  HZ I        23 5 10.11         2.5 0.40            145            102 175 
 PTB  HZ EP       23 4 52.85                             132   -0.28 9  146 258 
 PTB  HN ES       23 5 13.61                             132   -0.27 9  146 258 
 PTB  HZ I        23 5 16.13         3.0 0.18            132            146 258 
 ZAR  HZ EP   4   23 5  1.23                             122    2.65 0  202 292 
 ZAR  HN ES       23 5 23.84                             122    0.27 9  202 292 
 ZAR  HZ I        23 5 30.11         2.6 0.20            122            202 292 
 CHI  HN ES       23 5 33.56                             116    0.06 8  249 195 
 PTGC HZ EP   2   23 5 11.50                             111    1.04 3  310 158 
                                                                                
