 2010  214 2330 13.5 L   6.798 -73.088144.0  RSN 12 0.4 3.2LRSN                1
 GAP=147        0.94       3.6     6.4  6.1 -0.9586E+01  0.8715E+01  0.2793E+01E
 Epicentro: LOS SANTOS - SANTANDER                                             3
 ACTION:UP  10-08-24 09:49 OP:vdl  STATUS:               ID:20100214233013 L   I
 2010-02-14-2327-51S.COL___093                                                 6
 STAT SP IPHASW D HRMM SECON CODA AMPLIT PERI AZIMU VELO SNR AR TRES W  DIS CAZ7
 BAR2 SZ IP       2330 33.13                             170     0.210   25 205 
 BAR2 SZ ES       2330 47.90                             170    -0.310   25 205 
 OCA  SZ IP       2330 41.67                             129    -0.1 9  161 351 
 OCA  SZ ES       2331  4.08                             129     0.2 9  161 351 
 OCA  SZ I        2331  6.61       270.6 0.17                           161 351 
 CHI  HZ IP       2330 51.33                             116     0.0 8  250 197 
 CHI  HN ES       2331 20.71                             116     0.0 8  250 197 
 CHI  HZ I        2331 27.91        46.0 0.66                           250 197 
 ROSC BZ IP       2330 52.83                             116     0.9 8  256 212 
 ROSC BZ I        2331 27.00        63.3 0.54                           256 212 
 HEL  HZ IP       2330 53.98                             114    -0.3 7  278 256 
 HEL  HN ES   1   2331 26.21                             114     0.1 6  278 256 
 GUY  HE ES   2   2331 32.29                             111     0.2 4  306 236 
 RREF BZ IP       2330 59.82                             110    -0.3 7  326 230 
 RREF BE ES   1   2331 36.48                             110     0.0 5  326 230 
 RREF BZ I        2331 41.50        46.6 0.32                           326 230 
 DBB  SZ EP   1   2331  0.96                             109    -0.7 5  346 274 
 TOL  SZ IP       2331  2.46                             109     0.3 6  348 225 
 SDV  BZ IP       2331  2.69                             108    -0.3 6  356  49 
 SDV  BZ I        2331  3.55        95.8 0.11                           356  49 
 ANIL BZ IP       2331  4.59                             108     0.8 6  362 225 
 ANIL BZ I        2331 49.48        88.6 0.41                           362 225 
 PRA  HZ IP       2331  6.69                             106    -0.6 6  395 210 
 PRA  HE ES       2331 48.62                             106    -0.7 6  395 210 
 PRA  HZ I        2331 54.33        57.4 0.36                           395 210 
                                                                                
