 2013  814 2232 34.8 L   6.802 -73.147152.3  RSN 10 0.4 2.1LRSN                1
 GAP=136        0.79       2.9     3.9  5.2 -0.5901E+00  0.6354E+01  0.1498E+01E
 Epicentro: LOS SANTOS - SANTANDER                                             3
 ACTION:UPD 14-01-14 09:02 OP:ep   STATUS:               ID:20130814223234 L   I
 OLDACT:REG 13-08-15 03:47 OP:carl STATUS:               ID:20130814222959     3
 2013-08-14-2229-59M.COL___270                                                 6
 STAT SP IPHASW D HRMM SECON CODA AMPLIT PERI AZIMU VELO AIN AR TRES W  DIS CAZ7
 BAR2 SZ EP   1   2232 54.86                             171   -0.37 7 23.5 190 
 BAR2 SZ ES   1   2233 10.58                             171   -0.58 7 23.5 190 
 BAR2 SZ I        2233 12.05        13.1 0.22            169           23.5 190 
 BRR  HZ EP       2232 57.01                             154    0.3610 71.0 298 
 BRR  HN ES   1   2233 14.50                             154    0.81 7 71.0 298 
 BRR  HN I        2233 18.60        33.2 0.18            152           71.0 298 
 PAM  SZ EP   1   2232 57.95                             152    0.23 7 77.3  40 
 PAM  SN ES       2233 15.74                             152    0.1510 77.3  40 
 PAM  SZ I        2233 17.53        12.8 0.52            157           77.3  40 
 RUS  HZ EP       2232 59.32                             145    0.1010  101 176 
 RUS  HN ES   1   2233 18.03                             145   -0.24 7  101 176 
 RUS  HZ I        2233 20.57        12.3 0.36            146            101 176 
 PTB  HZ EP       2233  2.18                             133   -0.12 9  148 259 
 PTB  HN ES   1   2233 23.23                             133   -0.52 7  148 259 
 PTB  HZ I        2233 25.15        16.6 0.10            133            148 259 
 SPBC HZ EP   1   2233  4.10                             130    0.28 7  163 219 
 SPBC HN ES   1   2233 26.22                             130   -0.23 7  163 219 
 SPBC HZ I        2233 30.24        17.0 0.16            131            163 219 
 ZAR  HZ EP       2233  7.43                             124   -0.23 9  204 292 
 ZAR  HN ES   1   2233 33.54                             124    0.25 6  204 292 
 ZAR  HZ I        2233 41.71         9.9 0.32            125            204 292 
 NOR  HZ EP   1   2233 11.18                             120    0.26 6  235 234 
 NOR  HE ES   1   2233 39.56                             120    0.47 6  235 234 
 NOR  HZ I        2233 42.77         9.3 0.16            121            235 234 
 SML  HZ EP   1   2233 11.17                             119   -0.61 6  243 335 
 SML  HN ES   1   2233 39.96                             119   -0.66 6  243 335 
 SML  HZ I        2233 43.67        15.7 0.10            121            243 335 
 CHI  HZ EP       2233 13.20                             118    0.31 8  249 195 
 CHI  HN ES   1   2233 42.23                             118   -0.37 6  249 195 
 CHI  HZ I        2233 52.21         4.1 0.76            120            249 195 
                                                                                
