 2011  814 2239 24.3 L   6.771 -73.113149.4  RSN  6 0.3 1.8LRSN                1
 GAP=142        0.48       3.2     4.8  5.5 -0.5915E+00 -0.4117E+00 -0.1810E+01E
 Epicentro: LOS SANTOS - SANTANDER                                             3
 ACTION:UPD 12-07-13 15:51 OP:ep   STATUS:               ID:20110814223924 L   I
 2011-08-14-2236-52S.COL___150                                                 6
 STAT SP IPHASW D HRMM SECON CODA AMPLIT PERI AZIMU VELO AIN AR TRES W  DIS CAZ7
 BAR2 SZ EP   1   2239 44.14                             172   -0.15 7 21.2 201 
 BAR2 SZ ES   1   2239 59.86                             172   -0.04 7 21.2 201 
 BAR2 SZ I        2240  2.12         9.0 0.31                          21.2 201 
 BRR  HZ EP   1   2239 46.24                             152    0.17 7 75.9 299 
 BRR  HZ I        2240  3.06        17.1 0.48                          75.9 299 
 BRR  HE ES   1   2240  3.35                             152    0.27 7 75.9 299 
 PAM  SZ EP   1   2239 47.10                             151    0.22 7 77.7  36 
 PAM  SE ES   2   2240  4.48                             151   -0.05 5 77.7  36 
 RUS  HZ EP   2   2239 48.22                             145    0.09 5 97.2 178 
 RUS  HN ES   1   2240  6.68                             145   -0.07 7 97.2 178 
 RUS  HZ I        2240  8.00         4.6 0.37                          97.2 178 
 OCA  SZ ES   2   2240 14.98                             130   -0.79 5  164 352 
 OCA  SZ I        2240 22.51        11.0 0.39                           164 352 
 NOR  SN ES   2   2240 28.04                             119   -0.41 4  236 236 
                                                                                
