 2011 1014 2259 21.8 L   6.614 -73.245153.1  RSN  3 0.3 1.7LRSN                1
 GAP=211        0.58      10.0    12.2  7.6  0.1069E+03  0.1078E+02 -0.3782E+00E
 Epicentro: CABRERA - SANTANDER                                                3
 ACTION:UPD 12-07-13 16:03 OP:ep   STATUS:               ID:20111014225921 L   I
 2011-10-14-2256-51S.COL___167                                                 6
 STAT SP IPHASW D HRMM SECON CODA AMPLIT PERI AZIMU VELO AIN AR TRES W  DIS CAZ7
 BRR  HZ EP   1   2259 43.96                             152    0.03 7 75.0 317 
 BRR  HN ES   1   23 0  1.20                             152   -0.01 7 75.0 317 
 BRR  HZ I        23 0  5.57         9.4 0.17                          75.0 317 
 RUS  HZ EP   1   2259 45.42                             151    0.38 7 81.8 167 
 RUS  HN ES   1   23 0  2.95                             151   -0.23 7 81.8 167 
 RUS  HZ I        23 0  4.64         6.2 0.37                          81.8 167 
 ZAR  HZ EP   1   2259 54.10                             124   -0.50 6  203 299 
 ZAR  HE ES   1   23 0 20.46                             124    0.27 6  203 299 
 ZAR  HZ I        23 0 23.48         4.2 0.13                           203 299 
                                                                                
