 2010  814 2346 14.3 L   6.717 -73.528109.8  RSN  9 0.3 2.4LRSN                1
 GAP=104        0.78       2.5     4.4  4.7 -0.1215E+01  0.4653E+01 -0.2602E+01E
 Epicentro: EL CARMEN DE CHUCURI - SANTANDER                                   3
 ACTION:UP  10-09-07 10:54 OP:vdl  STATUS:               ID:20100814234614 L   I
 2010-08-14-2343-34S.COL___111                                                 6
 STAT SP IPHASW D HRMM SECON CODA AMPLIT PERI AZIMU VELO SNR AR TRES W  DIS CAZ7
 BTL  SZ IP       2346 30.00                             161     0.010   36  52 
 BTL  SZ ES       2346 42.22                             161    -0.110   36  52 
 BAR2 SZ EP   1   2346 30.26                             159     0.1 7   41 110 
 BAR2 SZ ES       2346 42.38                             159    -0.310   41 110 
 BAR2 SZ I        2346 43.48       154.3 0.41                            41 110 
 BRR  HZ EP   1   2346 30.01                             155    -0.2 7   48 335 
 BRR  HZ I        2346 30.85        99.9 0.12                            48 335 
 BRR  HE ES       2346 42.88                             155     0.210   48 335 
 GIR2 SZ IP     D 2346 30.69                             152    -0.110   55  43 
 RUS  HZ EP   1   2346 34.81                             134    -0.1 7  104 152 
 RUS  HZ I        2346 35.59        48.3 0.13                           104 152 
 RUS  HE ES       2346 51.26                             134     0.210  104 152 
 GUE  SZ EP   1   2346 38.57                             124     0.4 7  140  28 
 GUE  SZ ES       2346 56.68                             124    -0.1 9  140  28 
 GUE  SZ I        2346 57.48        31.3 0.32                           140  28 
 GRA  SZ EP   1   2346 38.94                             122    -0.2 7  152  32 
 GRA  SZ ES       2346 59.34                             122     0.7 9  152  32 
 GRA  SZ I        2347  1.02        31.3 0.33                           152  32 
 OCA  SZ IP     D 2346 40.80                             118    -0.3 9  170   8 
 OCA  SZ ES       2347  1.69                             118    -0.3 9  170   8 
 OCA  SZ I        2347  8.79        38.8 0.24                           170   8 
 HEL  HZ EP   1   2346 48.09                             110     0.2 6  229 255 
 HEL  HE ES   2   2347 14.45                             110     0.3 4  229 255 
 HEL  HZ I        2347 20.80         7.3 0.58                           229 255 
                                                                                
