 2011  514 2230 15.9 L   6.778 -73.107147.8  RSN 13 0.3 2.3LRSN                1
 GAP=143        0.76       3.3     4.7  4.9 -0.6971E+01  0.5028E+01  0.1484E+01E
 Epicentro: LOS SANTOS - SANTANDER                                             3
 ACTION:UP  11-06-29 08:53 OP:tino STATUS:               ID:20110514223015 L   I
 2011-05-14-2228-42S.COL___141                                                 6
 STAT SP IPHASW D HRMM SECON CODA AMPLIT PERI AZIMU VELO SNR AR TRES W  DIS CAZ7
 BAR2 SZ EP       2230 35.74                             171     0.010   22 202 
 BAR2 SZ ES   1   2230 50.75                             171    -0.5 7   22 202 
 BAR2 SZ I        2230 53.47        46.9 0.34                            22 202 
 BTL  SZ EP       2230 35.93                             171     0.110   24 311 
 GIR2 SZ EP   1   2230 35.95                             166     0.0 7   35 344 
 GIR2 SZ ES   1   2230 51.90                             166     0.4 7   35 344 
 BRR  HZ EP   1   2230 37.58                             151     0.0 7   76 299 
 BRR  HN ES   1   2230 55.00                             151     0.5 7   76 299 
 BRR  HZ I        2230 57.24        75.6 0.15                            76 299 
 PAM  SZ EP   1   2230 38.21                             151    -0.1 7   77  36 
 PAM  SN ES   1   2230 56.11                             151     0.3 7   77  36 
 PAM  SZ I        2230 57.96        16.9 0.27                            77  36 
 RUS  HZ EP   1   2230 39.47                             145    -0.2 7   98 178 
 RUS  HN ES   1   2230 58.20                             145     0.0 7   98 178 
 RUS  HZ I        2230 59.41        15.5 0.35                            98 178 
 BRI  SZ EP   1   2230 40.24                             142     0.2 7  109  18 
 BRI  SZ ES   1   2230 58.49                             142    -0.4 7  109  18 
 BRI  SZ I        2231  0.66        21.9 0.26                           109  18 
 GRA  SZ EP       2230 41.54                             137     0.110  127  15 
 GRA  SZ ES   1   2231  1.32                             137     0.0 7  127  15 
 GRA  SZ I        2231  2.85        35.1 0.34                           127  15 
 OCA  SZ EP   1   2230 44.36                             130    -0.3 7  163 352 
 OCA  SZ ES   1   2231  6.70                             130    -0.4 7  163 352 
 OCA  SZ I        2231  9.71        25.0 0.25                           163 352 
 NOR  SZ EP   1   2230 51.64                             119    -0.4 6  237 236 
 NOR  SN ES   1   2231 20.12                             119     0.0 6  237 236 
 NOR  SZ I        2231 25.69         2.8 0.24                           237 236 
 ROSC BZ EP   1   2230 54.39                             117     0.2 6  253 212 
 HEL  HZ EP   1   2230 57.47                             115     0.8 6  276 257 
 HEL  HN ES   1   2231 27.66                             115    -0.7 6  276 257 
 HEL  HZ I        2231 34.44        12.2 0.33                           276 257 
 PRA  HZ EP   1   2231  9.90                             107     0.4 4  392 210 
 PRA  HZ I        2231 55.08        38.4 0.38                           392 210 
                                                                                
