 2015  414 2132 25.2 L   6.339 -73.492114.8  RSN  7 0.5 1.7LRSN                1
 GAP=144        1.06       5.5     5.4  8.2  0.1376E+02  0.9205E+01 -0.1021E+02E
 Epicentro: CONTRATACION - SANTANDER                                           3
 ACTION:UPD 15-06-03 16:54 OP:cam  STATUS:               ID:20150414213225 L   I
 OLDACT:UP  15-04-15 07:10 OP:nlst STATUS:               ID:20150414213225 L   3
 OLDACT:REG 15-04-15 02:42 OP:ak   STATUS:               ID:20150414212750     3
 2015-04-14-2127-50M.COL___281                                                 6
 STAT SP IPHASW D HRMM SECON CODA AMPLIT PERI AZIMU VELO AIN AR TRES W  DIS CAZ7
 BAR2 EZ EP     D 2132 41.94                             157    0.0210 44.2  51 
 BAR2 EZ ES       2132 54.60                             157   -0.3310 44.2  51 
 BAR2 EZ I        2132 56.03        14.1 0.46            160           44.2  51 
 RUS  HZ EP       2132 43.58                             148    0.0110 67.0 137 
 RUS  HN ES       2132 58.34                             148    0.4810 67.0 137 
 RUS  HZ I        2133  1.02         6.6 0.36            149           67.0 137 
 BRR  HZ EP       2132 44.37                             139   -0.0410 88.3 344 
 BRR  HE ES       2132 59.17                             139   -0.1910 88.3 344 
 PTB  HN ES       2133  2.02                             133   -0.4710  109 282 
 ZAR  HZ EP   1   2132 54.97                             115   -0.20 6  198 310 
 ZAR  HN ES       2133 19.35                             115    0.84 9  198 310 
 ZAR  HZ I        2133 24.89        11.1 0.40            115            198 310 
 GUY2CHZ EP   4   2133  3.86                             110    3.19 0  241 239 
 GUY2CHN ES   4   2133 33.05                             110    4.75 0  241 239 
 GUY2CHZ I        2133 35.48         2.4 0.70                           241 239 
 SML  HZ EP   1   2133  3.38                             107   -1.11 6  280 347 
 SML  HN ES       2133 35.67                             107    0.56 7  280 347 
 SML  HZ I        2133 38.07         6.5 0.22            107            280 347 
                                                                                
