 2014  914 2054 19.0 L   6.746 -73.186142.2  RSN  5 0.4 1.3LRSN                1
 GAP=134        1.07       6.2     5.8  9.4 -0.9228E+01  0.1049E+02 -0.9205E+01E
 Epicentro: VILLANUEVA - SANTANDER                                             3
 ACTION:UPD 14-10-03 23:04 OP:nd   STATUS:               ID:20140914205419 L   I
 OLDACT:REG 14-09-15 04:33 OP:fm   STATUS:               ID:20140914204820     3
 2014-09-14-2048-20M.COL___293                                                 6
 STAT SP IPHASW D HRMM SECON CODA AMPLIT PERI AZIMU VELO AIN AR TRES W  DIS CAZ7
 BRR  HZ EP       2054 40.43                             152    0.7010 70.6 304 
 BRR  HN ES       2054 56.42                             152    0.5210 70.6 304 
 BRR  HZ I        2054 59.25         4.4 0.22            152           70.6 304 
 PAM  SZ EP       2054 41.30                             148   -0.0010 84.8  39 
 PAM  SN ES       2054 58.24                             148   -0.4610 84.8  39 
 PAM  SZ I        2055  0.27         4.6 0.48            151           84.8  39 
 RUS  HN ES   1   2055  0.09                             145    0.14 7 95.1 173 
 RUS  HZ I        2055  3.02         1.6 0.30            147           95.1 173 
 PTB  HZ EP       2054 44.75                             132   -0.44 9  142 261 
 PTB  HN ES       2055  5.12                             132   -0.50 9  142 261 
 PTB  HZ I        2055  9.76         1.5 0.48            134            142 261 
 SML  HZ EP   1   2054 56.14                             116    0.31 6  247 337 
 SML  HE ES   1   2055 24.21                             116   -0.34 6  247 337 
 SML  HZ I        2055 28.18         3.0 0.26            119            247 337 
                                                                                
