 2016  814 2253  6.0 L   6.837 -73.109146.6  RSN 18 0.4 2.3LRSN                1
 GAP=139        1.03       2.7     3.7  4.6 -0.2203E+01  0.3151E+01  0.1438E+01E
 Epicentro: LOS SANTOS - SANTANDER                                             3
 ACTION:UPD 16-10-29 15:35 OP:rebc STATUS:               ID:20160814225306 L   I
 OLDACT:UP  16-08-15 04:10 OP:edw  STATUS:               ID:20160814224735     3
 OLDACT:REG 16-08-15 02:37 OP:edw  STATUS:               ID:20160814224735     3
 2016-08-14-2248-00M.COL___377                                                 6
 STAT SP IPHASW D HRMM SECON CODA AMPLIT PERI AZIMU VELO AIN AR TRES W  DIS CAZ7
 BAR2 EZ EP       2253 25.77                             169   -0.0210 28.2 197 
 BAR2 EZ ES       2253 41.10                             169   -0.1710 28.2 197 
 BAR2 EZ I        2253 42.07        46.9 0.44                          28.2 197 
 PAM  EZ EP       2253 28.54                             152    0.6110 71.7  39 
 PAM  EN ES       2253 44.96                             152   -0.1110 71.7  39 
 PAM  EZ I        2253 47.87        59.6 0.52                          71.7  39 
 BRR  HZ EP       2253 27.37                             152    0.0810 73.0 294 
 BRR  HN ES       2253 44.00                             152    0.0610 73.0 294 
 BRR  HZ I        2253 48.70        30.7 0.12                          73.0 294 
 RUS  HZ EP       2253 30.00                             143   -0.0710  104 178 
 RUS  HN ES       2253 48.70                             143   -0.1810  104 178 
 RUS  HZ I        2253 49.59        31.4 0.30                           104 178 
 PTB  HZ EP   9   2253 32.83                             131   -0.59 0  153 258 
 PTB  HN ES       2253 53.36                             131   -0.90 9  153 258 
 PTB  HZ I        2253 58.50        18.0 0.22                           153 258 
 SPBC HZ EP       2253 34.87                             128   -0.19 9  169 219 
 SPBC HE ES       2253 57.69                             128   -0.07 9  169 219 
 SPBC HZ I        2253 58.45        30.8 0.16                           169 219 
 ZAR  HZ EP       2253 38.23                             122   -0.46 8  206 291 
 ZAR  HN ES       2254  4.47                             122    0.25 8  206 291 
 ZAR  HZ I        2254 10.69        13.3 0.32                           206 291 
 NOR  HZ EP       2253 42.14                             118   -0.20 8  240 234 
 NOR  HN ES       2254 10.41                             118   -0.31 8  240 234 
 NOR  HZ I        2254 15.34        21.1 0.16                           240 234 
 CHI  HZ EP       2253 43.91                             116   -0.33 8  254 196 
 CHI  HN ES       2254 13.40                             116   -0.71 8  254 196 
 CHI  HZ I        2254 16.68        10.8 0.40                           254 196 
 ROSC BZ EP       2253 45.41                             116    0.68 8  258 211 
 ROSC BN ES       2254 15.08                             116    0.11 8  258 211 
 ROSC BZ I        2254 19.54        17.5 0.35                           258 211 
 HEL  HZ EP       2253 47.53                             114    0.78 7  277 255 
 HEL  HN ES       2254 18.79                             114    0.21 7  277 255 
 HEL  HZ I        2254 24.52        10.1 0.40                           277 255 
 URE  HZ EP   4   2253 46.16                             113   -1.16 0  286 291 
 URE  HN ES   4   2254 18.29                             113   -1.29 0  286 291 
 URE  HZ I        2254 26.63        11.5 0.12                           286 291 
 SOCV BZ EP   4   2253 48.32                             112   -0.09 0  296  57 
 SOCV BN ES   4   2254 19.48                             112   -2.04 0  296  57 
 GUY2CHZ EP       2253 51.36                             112    1.12 7  307 235 
 GUY2CHE ES       2254 24.80                             112    0.02 7  307 235 
 GUY2CHZ I        2254 31.85        11.4 0.32                           307 235 
 VIL  EZ EP       2253 49.88                             111   -0.07 7  308 192 
 VIL  EE ES       2254 25.11                             111    0.84 7  308 192 
 LL6C HZ EP       2253 50.93                             110   -0.32 7  321 357 
 LL6C HE ES       2254 25.94                             110   -0.64 7  321 357 
 ELA  HZ EP   9   2253 55.31                             110    1.82 0  335 229 
 ELA  HN ES       2254 31.79                             110   -0.60 7  335 229 
 ELA  HZ I        2254 38.78         7.1 0.32                           335 229 
 PRA  HZ EP       2253 59.77                             106   -0.38 6  398 210 
 PRA  HN ES       2254 41.56                             106   -0.86 6  398 210 
 PRA  HZ I        2254 50.04         8.3 0.38                           398 210 
 SJC  HZ EP   4   2254  0.40                             105   -1.00 0  408 326 
 SJC  HN ES   4   2254 39.68                             105   -4.97 0  408 326 
 SJC  HZ I        2254 53.19         2.9 0.36                           408 326 
                                                                                
