 2017  414 2149 59.5 L   6.069 -73.878 98.0  RSN  8 0.3 1.4LRSN                1
 GAP=103        0.65       2.5     2.1  4.9 -0.1803E+01  0.3845E+01 -0.4227E+01E
 Epicentro: EL PENON - SANTANDER                                               3
 ACTION:UPD 17-05-30 21:12 OP:jn   STATUS:               ID:20170414214959 L   I
 OLDACT:UP  17-04-15 03:26 OP:and  STATUS:               ID:20170414214744     3
 OLDACT:UP  17-04-15 03:25 OP:and  STATUS:               ID:20170414214744     3
 OLDACT:UP  17-04-15 03:25 OP:and  STATUS:               ID:20170414214744     3
 OLDACT:REG 17-04-15 02:40 OP:and  STATUS:               ID:20170414214744     3
 2017-04-14-2148-00M.COL___371                                                 6
 STAT SP IPHASW D HRMM SECON CODA AMPLIT PERI AZIMU VELO AIN AR TRES W  DIS CAZ7
 SPBC HZ EP       2150 14.52                             151    0.0910 50.8 205 
 SPBC HN ES       2150 26.43                             151    0.3310 50.8 205 
 SPBC HZ I        2150 27.77         6.0 0.22            152           50.8 205 
 PTB  HZ EP       2150 16.51                             137   -0.1310 82.5 309 
 PTB  HN ES   2   2150 29.03                             137   -1.02 5 82.5 309 
 PTB  HZ I        2150 30.04         4.3 0.10            138           82.5 309 
 RUS  HZ EP       2150 17.86                             135   -0.0910 90.1 102 
 RUS  HN ES       2150 32.06                             135   -0.3210 90.1 102 
 RUS  HZ I        2150 34.07         6.9 0.22            137           90.1 102 
 BAR2 EZ IP     D 2150 18.30                             133    0.1410 96.3  53 
 BAR2 EZ ES       2150 32.91                             133    0.1710 96.3  53 
 BAR2 EZ I        2150 35.14        12.7 0.33            134           96.3  53 
 BRR  HZ EP       2150 19.62                             127   -0.1210  116   9 
 BRR  HN ES       2150 35.77                             127    0.2010  116   9 
 NOR  HZ EP       2150 20.49                             125   -0.0210  123 243 
 NOR  HN ES       2150 36.79                             125   -0.1410  123 243 
 NOR  HZ I        2150 39.37         4.8 0.24            126            123 243 
 HEL  HZ EP       2150 27.77                             114    0.38 9  183 274 
 HEL  HE ES   2   2150 48.99                             114   -0.20 4  183 274 
 HEL  HZ I        2150 51.13         1.8 0.17            114            183 274 
 ZAR  HZ EP       2150 27.54                             113   -0.29 9  191 326 
 ZAR  HN ES   2   2150 50.50                             113    0.54 4  191 326 
 ZAR  HZ I        2150 52.49         3.7 0.26            113            191 326 
                                                                                
