 2010  614 2135 51.6 L   6.816 -73.183139.4  RSN  6 0.2 1.8LRSN                1
 GAP=151        0.43       2.7     9.4  5.2 -0.2401E+01  0.1931E+02 -0.2568E+01E
 Epicentro: ZAPATOCA - SANTANDER                                               3
 ACTION:UP  10-08-24 10:10 OP:vdl  STATUS:               ID:20100614213551 L   I
 2010-06-14-2132-59S.COL___114                                                 6
 STAT SP IPHASW D HRMM SECON CODA AMPLIT PERI AZIMU VELO SNR AR TRES W  DIS CAZ7
 BAR2 SZ EP   1   2136 10.57                             169     0.0 7   25 180 
 BAR2 SZ ES   1   2136 25.11                             169    -0.2 7   25 180 
 RUS  HZ EP   1   2136 14.62                             142    -0.3 7  103 174 
 RUS  HN ES   1   2136 33.36                             142     0.3 7  103 174 
 RUS  HZ I        2136 34.47         9.2 0.25                           103 174 
 BRI  SZ EP   2   2136 15.14                             140     0.2 5  108  23 
 OCA  SZ EP   2   2136 19.42                             129     0.2 5  158 355 
 OCA  SZ ES   2   2136 40.79                             129     0.0 5  158 355 
 OCA  SZ I        2136 46.36         8.7 0.40                           158 355 
 CHI  HZ EP   2   2136 28.91                             116    -0.2 4  249 194 
 CHI  HE ES   2   2136 58.50                             116     0.2 4  249 194 
 CHI  HZ I        2137  2.17         3.0 0.32                           249 194 
 HEL  HZ EP   2   2136 31.20                             114     0.1 4  269 255 
 HEL  HZ I        2137 10.12         3.7 0.39                           269 255 
                                                                                
