 2012  214 2357 55.9 L   6.819 -73.157157.5  RSN  7 0.3 2.1LRSN                1
 GAP=145        0.62       5.8     4.0  6.9 -0.1107E+02  0.1367E+01  0.1428E+02E
 ACTION:DUP 12-03-07 16:30 OP:epov STATUS:               ID:20120214235756dL   I
 2012-02-14-2350-00M.COL___188                                                 6
 STAT SP IPHASW D HRMM SECON CODA AMPLIT PERI AZIMU VELO AIN AR TRES W  DIS CAZ7
 BAR2 SZ EP   1   2358 16.85                             171   -0.12 9 25.2 186 
 BRR  HZ EP   1   2358 18.52                             155    0.31 9 69.1 298 
 BRR  HN ES   1   2358 36.12                             155    0.50 9 69.1 298 
 BRR  HZ I        2358 39.30        40.8 0.15                          69.1 298 
 PAM  SZ EP   1   2358 19.66                             153    0.33 9 76.7  41 
 PAM  SN ES   1   2358 37.21                             153   -0.40 9 76.7  41 
 PAM  SZ  AMPN    2358 38.31                                           76.7  41 
 PAM  SZ I        2358 39.34         6.8 0.20                          76.7  41 
 PTB  HZ EP   1   2358 23.65                             135   -0.11 9  147 258 
 PTB  HN ES   1   2358 44.97                             135   -0.54 9  147 258 
 ZAR  HZ EP   1   2358 28.55                             125   -0.38 8  202 292 
 ZAR  HE ES   1   2358 54.66                             125   -0.04 8  202 292 
 ZAR  HZ I        2359  0.76        18.5 0.34                           202 292 
 NOR  SZ EP   1   2358 32.36                             121    0.02 7  235 234 
 NOR  SN ES       2359  0.86                             121    0.0810  235 234 
 HEL  HN ES   1   2359  8.67                             117    0.24 7  271 255 
                                                                                
