 2014  914 2001 58.7 L   6.800 -73.125152.4  RSN 12 0.5 2.0LRSN                1
 GAP=139        1.17       3.7     5.0  6.8 -0.4228E+01  0.5230E+01 -0.2850E+00E
 Epicentro: LOS SANTOS - SANTANDER                                             3
 ACTION:UPD 14-10-03 23:04 OP:nd   STATUS:               ID:20140914200158 L   I
 OLDACT:DUP 14-09-15 05:16 OP:fm   STATUS:               ID:20140914195821d    3
 2014-09-14-1958-20M.COL___293                                                 6
 STAT SP IPHASW D HRMM SECON CODA AMPLIT PERI AZIMU VELO AIN AR TRES W  DIS CAZ7
 BAR2 SZ EP       20 2 19.05                             171   -0.0510 23.8 195 
 BAR2 SZ ES   1   20 2 34.61                             171   -0.43 7 23.8 195 
 BAR2 SZ I        20 2 37.10        12.4 0.24            169           23.8 195 
 BRR  HZ EP       20 2 21.03                             153    0.3910 73.2 298 
 BRR  HN ES       20 2 38.45                             153    0.6710 73.2 298 
 BRR  HZ I        20 2 40.72        12.4 0.22            151           73.2 298 
 PAM  SZ EP       20 2 21.88                             152    0.3810 75.9  38 
 PAM  SE ES   1   20 2 38.43                             152   -0.89 7 75.9  38 
 PAM  SZ I        20 2 41.32        10.1 0.48            157           75.9  38 
 RUS  HZ EP       20 2 23.39                             145    0.3310  100 177 
 RUS  HN ES   1   20 2 41.64                             145   -0.45 7  100 177 
 RUS  HZ I        20 2 43.93         3.7 0.26            148            100 177 
 PTB  HZ EP       20 2 25.89                             133   -0.49 9  150 259 
 PTB  HN ES       20 2 47.27                             133   -0.72 9  150 259 
 PTB  HZ I        20 2 54.55        16.2 0.40            133            150 259 
 OCA  HZ EP       20 2 27.88                             131    0.36 9  161 352 
 OCA  HN ES       20 2 50.21                             131    0.18 9  161 352 
 OCA  HZ I        20 2 54.05        13.6 0.26            133            161 352 
 SPBC HZ EP       20 2 28.00                             130    0.19 9  165 220 
 SPBC HN ES       20 2 51.14                             130    0.59 9  165 220 
 SPBC HZ I        20 2 57.26        19.5 0.30            131            165 220 
 ZAR  HZ EP       20 2 31.14                             123   -0.62 8  206 292 
 ZAR  HE ES       20 2 58.20                             123    0.62 8  206 292 
 ZAR  HZ I        20 3  3.77        11.3 0.32            124            206 292 
 NOR  HZ EP       20 2 35.43                             120    0.45 8  237 235 
 NOR  HN ES       20 3  2.90                             120   -0.41 8  237 235 
 NOR  HZ I        20 3  6.84         9.1 0.16            121            237 235 
 SML  HZ EP       20 2 35.31                             119   -0.46 8  245 335 
 SML  HN ES   1   20 3  3.92                             119   -0.79 6  245 335 
 SML  HZ I        20 3  8.89        15.6 0.10            121            245 335 
 GUY2CHZ EP   1   20 2 41.90                             113   -0.89 5  303 235 
 GUY2CHE ES   4   20 3 18.47                             113    1.25 0  303 235 
 GUY2CHZ I        20 3 24.08         5.6 0.32                           303 235 
 TOL  SN ES   1   20 3 25.48                             110    0.11 5  345 225 
 TOL  SZ I        20 3 32.61         9.4 0.46            112            345 225 
 MON  HN ES   4   20 3 23.76                             110   -2.96 0  355 308 
                                                                                
