 2017  314 2203 50.4 L   6.718 -73.082140.0  RSN  8 0.3 1.4LRSN                1
 GAP=149        0.57       2.9     3.0  4.9 -0.1416E+01  0.7143E+00  0.2982E+01E
 Epicentro: JORDAN - SANTANDER                                                 3
 ACTION:UPD 17-05-25 18:40 OP:jn   STATUS:               ID:20170314220350 L   I
 OLDACT:UP  17-03-15 04:06 OP:and  STATUS:               ID:20170314215745     3
 OLDACT:UP  17-03-15 04:04 OP:and  STATUS:               ID:20170314215745     3
 OLDACT:UP  17-03-15 04:04 OP:and  STATUS:               ID:20170314215745     3
 OLDACT:UP  17-03-15 04:04 OP:and  STATUS:               ID:20170314215745     3
 OLDACT:REG 17-03-15 02:51 OP:and  STATUS:               ID:20170314215745     3
 2017-03-14-2158-00M.COL___370                                                 6
 STAT SP IPHASW D HRMM SECON CODA AMPLIT PERI AZIMU VELO AIN AR TRES W  DIS CAZ7
 BAR2 EZ EP   2   22 4  8.71                             173   -0.57 5 17.8 219 
 PAM  EN ES       22 4 29.38                             148    0.1210 80.7  32 
 PAM  EZ I        22 4 34.08         3.2 0.40            149           80.7  32 
 BRR  HZ EP       22 4 11.51                             148   -0.1210 81.9 302 
 BRR  HN ES       22 4 28.17                             148    0.0110 81.9 302 
 RUS  HZ EP       22 4 13.30                             145    0.3410 91.2 180 
 RUS  HN ES       22 4 30.29                             145   -0.2310 91.2 180 
 RUS  HZ I        22 4 32.40         2.5 0.18            147           91.2 180 
 PTB  HZ EP   9   22 4 16.39                             129   -1.07 0  153 263 
 PTB  HN ES       22 4 37.65                             129    0.19 9  153 263 
 PTB  HZ I        22 4 40.57         3.8 0.19            129            153 263 
 ZAR  HN ES   2   22 4 49.28                             120   -0.15 4  214 294 
 ZAR  HZ I        22 4 54.06         3.8 0.08            119            214 294 
 NOR  HZ EP   2   22 4 25.50                             117   -0.43 4  235 237 
 NOR  HN ES       22 4 53.79                             117    0.19 8  235 237 
 NOR  HZ I        22 4 58.74         2.9 0.16            117            235 237 
 GUY2CHZ EP   9   22 4 35.35                             111    1.47 0  302 237 
 GUY2CHN ES       22 5  8.83                             108   -0.40 7  302 237 
 GUY2CHZ  IAML    22 5 14.63         1.2 0.24                           302 237 
                                                                                
