 2013  914 2102 49.0 L   6.779 -73.140148.1  RSN  7 0.4 1.7LRSN                1
 GAP=138        0.72       4.0     4.0  6.4  0.1124E+00  0.8192E+01 -0.2274E+01E
 Epicentro: LOS SANTOS - SANTANDER                                             3
 ACTION:UPD 13-10-22 09:22 OP:ep   STATUS:               ID:20130914210249 L   I
 OLDACT:UP  13-09-14 22:16 OP:mh   STATUS:               ID:20130914205959     3
 OLDACT:REG 13-09-14 21:12 OP:mh   STATUS:               ID:20130914205959     3
 2013-09-14-2059-59M.COL___269                                                 6
 STAT SP IPHASW D HRMM SECON CODA AMPLIT PERI AZIMU VELO AIN AR TRES W  DIS CAZ7
 BAR2 SZ EP   1   21 3  8.95                             171    0.08 7 21.2 193 
 BAR2 SZ ES   1   21 3 24.32                             171   -0.05 7 21.2 193 
 BAR2 SZ I        21 3 25.67        10.0 0.24            165           21.2 193 
 BRR  HZ EP   1   21 3 11.03                             152    0.53 7 72.9 300 
 BRR  HN ES   1   21 3 27.77                             152    0.50 7 72.9 300 
 BRR  HZ I        21 4  3.58        17.3 0.36            146           72.9 300 
 PAM  SZ EP   1   21 3 11.92                             151    0.37 7 78.7  38 
 PAM  SN ES   1   21 3 28.55                             151   -0.58 7 78.7  38 
 PAM  SZ I        21 3 29.84         7.8 0.18            154           78.7  38 
 RUS  HZ EP   1   21 3 12.83                             145    0.01 7 98.2 176 
 RUS  HN ES       21 3 31.35                             145   -0.0410 98.2 176 
 RUS  HZ I        21 3 32.64         4.9 0.40            160           98.2 176 
 PTB  HZ EP   1   21 3 16.13                             132   -0.05 7  148 260 
 PTB  HN ES   1   21 3 36.97                             132   -0.41 7  148 260 
 PTB  HZ I        21 3 44.34         5.9 0.44            136            148 260 
 ZAR  HZ EP   1   21 3 21.04                             123   -0.71 6  206 293 
 ZAR  HN ES   1   21 3 47.39                             123    0.09 6  206 293 
 ZAR  HZ I        21 3 49.61         6.0 0.10            126            206 293 
 NOR  HN ES   1   21 3 52.80                             119    0.10 6  234 235 
                                                                                
