 2014  914 2247 31.4 L   6.844 -73.088147.0  RSN 20 0.5 2.2LRSN                1
 GAP=189        1.03       2.5     4.8  5.7 -0.1451E+01  0.1912E+01  0.2403E+01E
 Epicentro: LOS SANTOS - SANTANDER                                             3
 ACTION:UPD 14-10-03 23:04 OP:nd   STATUS:               ID:20140914224731 L   I
 OLDACT:REG 14-09-15 04:37 OP:fm   STATUS:               ID:20140914223820     3
 2014-09-14-2238-20M.COL___293                                                 6
 STAT SP IPHASW D HRMM SECON CODA AMPLIT PERI AZIMU VELO AIN AR TRES W  DIS CAZ7
 BAR2 SZ EP       2247 51.87                             168    0.5810 29.8 200 
 BAR2 SZ ES   1   2248  6.82                             168   -0.01 7 29.8 200 
 BAR2 SZ I        2248  7.76        24.0 0.30            165           29.8 200 
 BRR  HZ EP       2247 53.02                             152    0.1610 74.8 293 
 BRR  HN ES       2248 10.44                             152    0.8310 74.8 293 
 BRR  HZ I        2248 13.98        29.2 0.14            149           74.8 293 
 RUS  HN ES   1   2248 14.06                             143   -0.41 7  105 180 
 RUS  HZ I        2248 16.47        14.2 0.18            143            105 180 
 PTB  HZ EP       2247 58.56                             131   -0.54 9  155 258 
 PTB  HE ES       2248 20.06                             131   -0.66 9  155 258 
 PTB  HZ I        2248 21.93        26.7 0.14            129            155 258 
 OCA  HZ EP       2247 58.64                             131   -0.77 9  156 351 
 OCA  HN ES       2248 21.37                             131    0.10 9  156 351 
 OCA  HZ I        2248 27.94        19.6 0.18            132            156 351 
 SPBC HZ EP       2248  0.59                             128   -0.12 9  171 220 
 SPBC HE ES       2248 22.68                             128   -0.91 9  171 220 
 SPBC HZ I        2248 28.03        17.1 0.44            127            171 220 
 ZAR  HZ EP   1   2248  4.08                             122   -0.24 6  208 290 
 ZAR  HN ES       2248 29.87                             122   -0.15 8  208 290 
 ZAR  HZ I        2248 36.17        17.7 0.26            122            208 290 
 SML  HZ EP       2248  8.23                             118    0.35 8  242 333 
 SML  HE ES       2248 36.18                             118   -0.18 8  242 333 
 SML  HZ I        2248 40.82        18.6 0.26            118            242 333 
 NOR  HZ EP       2248  8.19                             118    0.16 8  243 234 
 NOR  HN ES       2248 36.89                             118    0.26 8  243 234 
 NOR  HZ I        2248 39.70         9.6 0.30            118            243 234 
 CHI  HZ EP       2248 10.11                             117    0.27 8  255 196 
 CHI  HN ES       2248 39.85                             117    0.01 8  255 196 
 CHI  HZ I        2248 47.39         8.9 0.36            117            255 196 
 ROSC BN ES   1   2248 40.23                             116   -0.57 6  260 212 
 ROSC BZ I        2248 46.88        11.4 0.35            116            260 212 
 HEL  HZ EP       2248 13.15                             114    0.69 7  279 255 
 HEL  HN ES       2248 44.72                             114    0.20 7  279 255 
 HEL  HZ I        2248 51.32         8.3 0.30            114            279 255 
 URE  HN ES   4   2248 39.86                             113   -5.54 0  288 291 
 URE  HZ I        2248 55.87        14.2 0.20            113            288 291 
 GUY2CHZ EP   4   2248 17.55                             112    1.61 0  309 235 
 GUY2CHN ES   4   2248 53.65                             112    2.94 0  309 235 
 GUY2CHZ I        2248 57.86         5.4 0.28                           309 235 
 VIL  SN ES       2248 50.36                             112    0.37 7  310 193 
 VIL  SZ I        2248 59.47        10.1 0.42            112            310 193 
 TOL  SZ EP       2248 20.40                             109   -0.19 6  351 225 
 TOL  SN ES       2248 59.52                             109    0.54 6  351 225 
 TOL  SZ I        2249  8.92        10.3 0.60            109            351 225 
 MON  HZ EP   4   2248 18.85                             109   -1.80 0  356 307 
 MON  HN ES   4   2248 57.20                             109   -1.89 0  356 307 
 MON  HZ I        2248 58.43         2.1 0.18            109            356 307 
 PRA  HZ EP   1   2248 25.51                             106   -0.29 4  399 210 
 PRA  HN ES       2249  8.67                             106    0.41 6  399 210 
 PRA  HZ I        2249 12.61         8.2 0.42            107            399 210 
 ORTC HZ EP   1   2248 25.60                             106   -0.64 4  403 216 
 ORTC HN ES   1   2249  9.88                             106    0.85 4  403 216 
 ORTC HZ I        2249 14.49         5.4 0.48            106            403 216 
 SJC  HZ EP   4   2248 25.46                             106   -1.44 0  409 326 
 SJC  HN ES   4   2249  6.29                             106   -3.93 0  409 326 
 SJC  HZ I        2249 10.58         2.7 0.34            106            409 326 
                                                                                
