 2015  114 2157 47.0 L   6.382 -73.557102.0  RSN  5 0.2 1.7LRSN                1
 GAP=164        0.45       3.4     3.7  6.5 -0.9901E+01  0.1679E+02 -0.1321E+02E
 Epicentro: SANTA HELENA DEL OPON - SANTANDER                                  3
 ACTION:UPD 15-03-02 15:39 OP:nd   STATUS:               ID:20150114215747 L   I
 OLDACT:DUP 15-01-15 04:38 OP:fm   STATUS:               ID:20150114214749d    3
 2015-01-14-2147-48M.COL___256                                                 6
 STAT SP IPHASW D HRMM SECON CODA AMPLIT PERI AZIMU VELO AIN AR TRES W  DIS CAZ7
 RUS  HZ EP       2158  4.83                             141    0.1410 75.4 136 
 RUS  HN ES       2158 18.32                             141   -0.1310 75.4 136 
 RUS  HZ I        2158 20.31         6.6 0.22            118           75.4 136 
 SPBC HN ES       2158 21.05                             132    0.0710 98.8 215 
 SPBC HZ I        2158 25.17        18.3 0.16            104           98.8 215 
 PAM  SE ES       2158 29.52                             121    0.05 9  142  42 
 PAM  SZ I        2158 35.81         5.3 0.26             98            142  42 
 NOR  HZ EP       2158 13.18                             115   -0.26 9  171 238 
 NOR  HZ I        2158 40.22        14.3 0.58             95            171 238 
 TOL  SN ES       2158 56.88                             104    0.16 7  279 225 
                                                                                
