 2010  514 2204 10.9 L   6.750 -73.054137.8  RSN  8 0.4 2.0LRSN                1
 GAP=167        0.84       4.6     9.1  8.3 -0.3513E+01 -0.2472E+02 -0.1086E+02E
 Epicentro: LOS SANTOS - SANTANDER                                             3
 ACTION:UP  10-08-24 10:05 OP:vdl  STATUS:               ID:20100514220410 L   I
 2010-05-14-2201-29S.COL___108                                                 6
 STAT SP IPHASW D HRMM SECON CODA AMPLIT PERI AZIMU VELO AIN AR TRES W  DIS CAZ7
 BAR2 SZ EP       22 4 29.39                             170    -0.210   23 219 
 BAR2 SZ ES   1   22 4 44.14                             170     0.0 7   23 219 
 BRR  HZ EP       22 4 32.11                             147     0.110   83 299 
 BRR  HE ES   1   22 4 48.29                             147    -0.1 7   83 299 
 BRR  HZ I        22 4 53.13        28.0 0.11                            83 299 
 RUS  HZ EP   1   22 4 33.66                             144     0.2 7   95 182 
 RUS  HN ES   1   22 4 51.13                             144     0.0 7   95 182 
 RUS  HZ I        22 4 53.00         8.9 0.21                            95 182 
 BRI  SZ EP       22 4 34.04                             139    -0.210  111  15 
 GUE  SZ EP   1   22 4 34.39                             137    -0.8 7  120   7 
 GRA  SZ IP       22 4 36.36                             134     0.610  128  12 
 GRA  SZ ES   2   22 4 55.40                             134     0.4 5  128  12 
 CHI  HN ES   3   22 5 17.11                             116     0.3 2  246 198 
 CHI  HZ I        22 5 23.83         5.2 0.38                           246 198 
 PRA  HZ EP   2   22 5  4.12                             105    -0.1 3  392 211 
 PRA  HN ES   3   22 5 46.12                             105     0.3 1  392 211 
 PRA  HZ I        22 5 50.41         4.3 0.43                           392 211 
                                                                                
