 2012 1014 2153 51.3 L   6.772 -73.123147.9  RSN  6 0.2 1.5LRSN                1
 GAP=141        0.49       3.4     3.7  4.7  0.2641E+01  0.2484E+01  0.1423E+01E
 Epicentro: LOS SANTOS - SANTANDER                                             3
 ACTION:UPD 12-11-22 17:03 OP:ep   STATUS:               ID:20121014215351 L   I
 2012-10-14-2150-00M.COL___230                                                 6
 STAT SP IPHASW D HRMM SECON CODA AMPLIT PERI AZIMU VELO AIN AR TRES W  DIS CAZ7
 BAR2 SZ EP   1   2154 11.01                             172   -0.10 7 20.9 198 
 BAR2 SZ I        2154 11.65         6.9 0.15                          20.9 198 
 BAR2 SZ ES   1   2154 26.19                             172   -0.39 7 20.9 198 
 GIR2 SZ ES   1   2154 26.90                             166   -0.01 7 34.9 347 
 BRR  HZ EP   1   2154 12.91                             152    0.05 7 74.9 300 
 BRR  HZ I        2154 16.51         7.8 0.12                          74.9 300 
 BRR  HN ES   1   2154 30.13                             152    0.43 7 74.9 300 
 PAM  SZ EP   1   2154 13.91                             151    0.14 7 78.3  37 
 PAM  SZ I        2154 14.06         9.4 0.22                          78.3  37 
 PAM  SE ES   1   2154 31.24                             151   -0.07 7 78.3  37 
 RUS  HZ EP   1   2154 14.94                             145   -0.06 7 97.3 177 
 RUS  HZ I        2154 15.71         3.1 0.23                          97.3 177 
 RUS  HN ES   1   2154 33.72                             145    0.22 7 97.3 177 
 RUS  HN I        2154 34.18         6.0 0.34                          97.3 177 
 ZAR  HE ES   1   2154 49.63                             122   -0.29 6  208 293 
                                                                                
