 2012  114 2015  5.9 L   6.773 -73.128145.7  RSN  5 0.2 1.4LRSN                1
 GAP=140        0.36       3.1     4.7  6.0  0.2640E+01 -0.1362E+02  0.3192E+00E
 Epicentro: LOS SANTOS - SANTANDER                                             3
 ACTION:UP  12-02-03 08:17 OP:REBC STATUS:               ID:20120114201505 L   I
 2012-01-14-2010-00M.COL___188                                                 6
 STAT SP IPHASW D HRMM SECON CODA AMPLIT PERI AZIMU VELO SNR AR TRES W  DIS CAZ7
 BAR2 SZ EP   3   2015 24.99                             172    -0.5 2   21 197 
 GIR2 SZ EP   2   2015 25.43                             166    -0.2 5   35 348 
 BRR  HZ EP       2015 27.22                             152     0.010   74 300 
 BRR  HZ I        2015 27.70        13.2 0.44                            74 300 
 BRR  HE ES   1   2015 43.86                             152     0.0 7   74 300 
 PAM  SZ EP       2015 28.30                             150     0.110   78  37 
 PAM  SE ES   3   2015 45.21                             150    -0.3 2   78  37 
 RUS  HZ EP       2015 29.39                             145     0.010   97 177 
 RUS  HZ I        2015 30.02         1.3 0.20                            97 177 
 RUS  HN ES   2   2015 47.95                             145     0.2 5   97 177 
                                                                                
