 2016  114 2253 56.2 L   6.768 -73.121151.0  RSN  5 0.3 1.4LRSN                1
 GAP=202        0.82       4.6     6.4  6.9  0.1423E+02 -0.5303E+01 -0.9735E+01E
 Epicentro: LOS SANTOS - SANTANDER                                             3
 ACTION:UPD 16-03-09 23:25 OP:cam  STATUS:               ID:20160114225356 L   I
 OLDACT:UP  16-01-15 05:29 OP:ak   STATUS:               ID:20160114224750     3
 OLDACT:UP  16-01-15 05:29 OP:ak   STATUS:               ID:20160114224750     3
 OLDACT:REG 16-01-15 04:41 OP:ak   STATUS:               ID:20160114224750     3
 2016-01-14-2247-50M.COL___335                                                 6
 STAT SP IPHASW D HRMM SECON CODA AMPLIT PERI AZIMU VELO AIN AR TRES W  DIS CAZ7
 BAR2 EZ EP       2254 16.23                             172   -0.1910 20.6 199 
 BAR2 EZ ES       2254 32.19                             172    0.0010 20.6 199 
 BAR2 EZ I        2254 33.23         9.7 0.26            172           20.6 199 
 BRR  HZ EP       2254 18.88                             152    0.7210 75.3 300 
 BRR  HN ES       2254 35.44                             152    0.1610 75.3 300 
 BRR  HZ I        2254 37.34         4.2 0.08            152           75.3 300 
 RUS  HZ EP       2254 20.05                             146   -0.1710 96.9 178 
 RUS  HN ES       2254 38.88                             146   -0.0810 96.9 178 
 RUS  HZ I        2254 40.57         2.8 0.24            147           96.9 178 
 PTB  HZ EP   2   2254 23.65                             133   -0.14 5  150 260 
 PTB  HN ES       2254 45.15                             133   -0.16 9  150 260 
 PTB  HZ I        2254 47.31         3.3 0.14            133            150 260 
 SML  HZ EP   2   2254 34.09                             118    0.49 4  248 335 
 SML  HE ES       2255  2.18                             118   -0.59 8  248 335 
 SML  HZ I        2255  5.53                             119            248 335 
                                                                                
