 2015  714 2306 13.6 L   6.825 -73.158143.1  RSN 12 0.5 2.6LRSN                1
 GAP=134        1.07       3.0     4.5  6.8 -0.3470E+01  0.1723E+02 -0.2075E+01E
 Epicentro: LOS SANTOS - SANTANDER                                             3
 ACTION:UPD 15-09-08 21:48 OP:cam  STATUS:               ID:20150714230613 L   I
 OLDACT:UP  15-07-15 08:25 OP:ar   STATUS:               ID:20150714225750     3
 OLDACT:REG 15-07-15 02:54 OP:ar   STATUS:               ID:20150714225750     3
 2015-07-14-2257-50M.COL___340                                                 6
 STAT SP IPHASW D HRMM SECON CODA AMPLIT PERI AZIMU VELO AIN AR TRES W  DIS CAZ7
 BAR2 EZ EP       23 6 32.72                             169   -0.1910 25.8 186 
 BAR2 EZ ES       23 6 48.37                             169    0.3510 25.8 186 
 BAR2 EZ I        23 6 49.53        60.8 0.40            169           25.8 186 
 PAM  EZ EP       23 6 35.49                             151    0.0810 76.2  42 
 PAM  EN ES       23 6 52.84                             151    0.3810 76.2  42 
 PAM  EZ I        23 6 53.93        39.7 0.16            155           76.2  42 
 RUS  HZ EP       23 6 36.93                             142   -0.3210  103 175 
 RUS  HE ES       23 6 55.14                             142   -0.5910  103 175 
 RUS  HZ I        23 6 56.47        34.7 0.28            146            103 175 
 OCA  HZ EP       23 6 41.57                             130    0.19 9  157 354 
 OCA  HN ES       23 7  2.82                             130   -0.27 9  157 354 
 OCA  HZ I        23 7  8.67       144.3 0.30            131            157 354 
 ZAR  HZ EP       23 6 45.43                             122   -0.16 9  202 292 
 ZAR  HE ES       23 7 11.10                             122    0.52 9  202 292 
 ZAR  HZ I        23 7 17.80        46.0 0.40            123            202 292 
 NOR  HZ EP       23 6 48.61                             118   -0.57 8  235 234 
 NOR  HN ES       23 7 16.29                             118   -0.68 8  235 234 
 NOR  HZ I        23 7 19.95        33.5 0.18            119            235 234 
 SML  HZ EP       23 6 49.34                             117   -0.36 8  241 335 
 SML  HE ES   2   23 7 17.11                             117   -0.78 4  241 335 
 SML  HZ I        23 7 22.48        70.1 0.10            119            241 335 
 ROSC BN ES       23 7 22.01                             116    0.54 8  254 210 
 ROSC BZ I        23 7 27.69        32.2 0.35            118            254 210 
 HEL  HZ EP       23 6 54.40                             114    0.84 8  271 255 
 HEL  HE ES       23 7 24.57                             114   -0.19 8  271 255 
 HEL  HZ I        23 7 31.17        22.0 0.32            115            271 255 
 GUY2CHZ EP       23 6 58.03                             112    0.94 7  302 234 
 GUY2CHN ES       23 7 30.55                             112   -0.50 7  302 234 
 GUY2CHZ I        23 7 38.97        18.7 0.68                           302 234 
 TOL  SZ EP       23 7  2.06                             109    0.24 7  345 224 
 TOL  SN ES       23 7 40.33                             109    0.87 7  345 224 
 TOL  SZ I        23 7 46.12        15.2 0.34            110            345 224 
 MON  HN ES       23 7 39.69                             108   -0.33 6  351 308 
 MON  HZ I        23 7 41.17        11.8 0.34            110            351 308 
                                                                                
