 2015  914 2234 52.0 L   6.802 -73.164146.1  RSN 12 0.5 2.2LRSN                1
 GAP= 70        1.28       3.6     4.5  6.4 -0.7453E+00  0.5013E+01  0.2594E+01E
 Epicentro: LOS SANTOS - SANTANDER                                             3
 ACTION:UPD 15-10-28 16:26 OP:cam  STATUS:               ID:20150914223452 L   I
 OLDACT:REG 15-09-15 04:00 OP:stll STATUS:               ID:20150914222751     3
 2015-09-14-2227-51M.COL___335                                                 6
 STAT SP IPHASW D HRMM SECON CODA AMPLIT PERI AZIMU VELO AIN AR TRES W  DIS CAZ7
 BAR2 EZ EP     C 2235 11.75                             171    0.0810 23.3 185 
 BAR2 EZ ES       2235 26.98                             171   -0.0310 23.3 185 
 BAR2 EZ I        2235 28.29        48.9 0.18            171           23.3 185 
 BRR  HZ IP     C 2235 13.59                             153    0.5110 69.3 299 
 BRR  HN ES       2235 30.84                             153    1.3210 69.3 299 
 PAM  EZ EP       2235 14.37                             150    0.0510 78.5  41 
 PAM  EZ I        2235 14.79        41.9 0.22            152           78.5  41 
 PAM  EN ES       2235 31.64                             150   -0.0910 78.5  41 
 RUS  HZ EP       2235 15.73                             144   -0.0910  101 175 
 RUS  HE ES       2235 33.73                             144   -0.6610  101 175 
 RUS  HZ I        2235 35.59        24.4 0.32            145            101 175 
 PTB  HZ EP       2235 18.64                             132   -0.18 9  146 259 
 PTB  HN ES       2235 39.12                             132   -0.62 9  146 259 
 PTB  HZ I        2235 45.15        10.6 0.32            131            146 259 
 TAM  HZ IP     C 2235 20.04                             130    0.14 9  157 105 
 TAM  HZ I        2235 20.26        23.0 0.36            133            157 105 
 SPBC HZ EP       2235 20.62                             129    0.19 9  162 218 
 SPBC HN ES       2235 42.49                             129   -0.10 9  162 218 
 SPBC HZ I        2235 45.32        33.1 0.26            129            162 218 
 ZAR  HZ EP       2235 24.47                             123    0.20 9  202 292 
 ZAR  HE ES       2235 49.11                             123   -0.32 9  202 292 
 ZAR  HZ I        2235 55.99        12.1 0.36            122            202 292 
 SML  HZ EP       2235 28.30                             118   -0.24 8  243 336 
 SML  HN ES       2235 55.75                             118   -1.28 8  243 336 
 SML  HZ I        2236  4.65        18.2 0.10            117            243 336 
 CHI  HZ EP       2235 29.83                             117    0.14 8  248 195 
 CHI  HZ I        2235 30.23         7.9 0.20            118            248 195 
 CHI  HN ES       2235 58.87                             117   -0.21 8  248 195 
 GUY2CHZ EP       2235 36.71                             112    1.25 7  300 235 
 GUY2CHE ES       2236  9.63                             112    0.28 7  300 235 
 GUY2CHZ I        2236 19.56         4.4 0.28                           300 235 
 PTGC HZ EP   4   2235 34.75                             112   -1.24 0  310 158 
 PTGC HN ES   4   2235 59.12                             112   -11.2 0  310 158 
 PRA  HZ EP       2235 45.16                             107   -0.28 6  391 209 
 PRA  HE ES       2236 26.63                             107   -0.49 6  391 209 
 PRA  HZ I        2236 33.75         5.5 0.40            107            391 209 
                                                                                
