 2017  314 2140 24.0 L   6.737 -73.164149.6  RSN  5 0.3 1.0LRSN                1
 GAP=137        0.59       3.9     4.5  5.9  0.6693E+01 -0.4410E+01 -0.4472E+01E
 Epicentro: LOS SANTOS - SANTANDER                                             3
 ACTION:UPD 17-05-25 18:40 OP:jn   STATUS:               ID:20170314214024 L   I
 OLDACT:UP  17-03-15 03:56 OP:and  STATUS:               ID:20170314213745     3
 OLDACT:REG 17-03-15 02:50 OP:and  STATUS:               ID:20170314213745     3
 2017-03-14-2138-00M.COL___364                                                 6
 STAT SP IPHASW D HRMM SECON CODA AMPLIT PERI AZIMU VELO AIN AR TRES W  DIS CAZ7
 BRR  HZ EP       2140 45.82                             152    0.1410 73.1 304 
 BRR  HN ES       2141  2.76                             152    0.1810 73.1 304 
 PAM  EZ IP     D 2140 46.74                             149   -0.2910 84.1  38 
 RUS  HZ EP       2140 47.83                             146    0.1710 93.8 175 
 RUS  HN ES       2141  6.01                             146   -0.1110 93.8 175 
 RUS  HZ I        2141  7.96         1.2 0.19            144           93.8 175 
 PTB  HZ EP       2140 51.15                             133    0.14 9  145 261 
 PTB  HN ES   2   2141 11.29                             133   -0.78 5  145 261 
 PTB  HZ I        2141 18.64         2.1 0.24            130            145 261 
 ZAR  HN ES   2   2141 22.19                             123   -0.18 4  205 294 
                                                                                
