 2015  114 2214 53.8 L   6.782 -73.302110.8  RSN  4 0.5 1.5LRSN                1
 GAP=149        1.20       6.1     5.6 13.1 -0.1314E+02  0.3075E+02 -0.4123E+00E
 Epicentro: ZAPATOCA - SANTANDER                                               3
 ACTION:UPD 15-03-02 15:39 OP:nd   STATUS:               ID:20150114221453 L   I
 OLDACT:REG 15-01-15 03:52 OP:fm   STATUS:               ID:20150114220746     3
 2015-01-14-2207-46M.COL___253                                                 6
 STAT SP IPHASW D HRMM SECON CODA AMPLIT PERI AZIMU VELO AIN AR TRES W  DIS CAZ7
 PAM  SZ EP       2215 12.79                             138   -0.6410 90.7  47 
 PAM  SE ES       2215 29.34                             138    0.5610 90.7  47 
 PAM  SZ I        2215 32.20         6.6 0.52            150           90.7  47 
 RUS  HZ EP       2215 13.89                             135   -0.4310  101 166 
 RUS  HN ES       2215 30.44                             135    0.0810  101 166 
 RUS  HZ I        2215 33.99         3.8 0.38            143            101 166 
 PTB  HZ EP       2215 16.80                             126    0.4110  130 258 
 PTB  HN ES       2215 33.46                             126   -0.5910  130 258 
 PTB  HZ I        2215 41.38         4.9 0.50            131            130 258 
 NOR  HZ EP       2215 26.51                             112    0.50 8  220 232 
 NOR  HE ES       2215 51.55                             112    0.38 8  220 232 
 NOR  HZ I        2216  0.95         4.2 0.26            118            220 232 
                                                                                
