 2016  714 2243 36.9 L   6.810 -73.173145.9  RSN  4 0.2 1.3LRSN                1
 GAP=144        0.52       3.2     3.1  4.4 -0.3119E+01  0.3712E+01 -0.1322E+01E
 Epicentro: LOS SANTOS - SANTANDER                                             3
 ACTION:UPD 17-03-29 16:51 OP:lp   STATUS:               ID:20160714224336 L   I
 OLDACT:UP  16-07-15 04:44 OP:edw  STATUS:               ID:20160714223760d    3
 OLDACT:DUP 16-07-15 04:40 OP:edw  STATUS:               ID:20160714223760d    3
 OLDACT:REG 16-07-15 03:08 OP:edw  STATUS:               ID:20160714223759     3
 2016-07-14-2237-59S.COL___328                                                 6
 STAT SP IPHASW D HRMM SECON CODA AMPLIT PERI AZIMU VELO AIN AR TRES W  DIS CAZ7
 BAR2 EZ EP       2243 56.10                             170   -0.4210 24.1 182 
 BAR2 EZ ES       2244 11.86                             170    0.0010 24.1 182 
 PAM  EZ EP       2243 59.30                             150    0.1410 78.5  42 
 PAM  EN ES       2244 16.58                             150    0.0310 78.5  42 
 PAM  EZ I        2244 18.07         3.7 0.16            153           78.5  42 
 RUS  HZ EP       2244  0.93                             143    0.2110  102 174 
 RUS  HE ES       2244 19.34                             143    0.0010  102 174 
 RUS  HZ I        2244 20.80         2.3 0.18            145            102 174 
 PTB  HZ EP       2244  3.54                             133   -0.05 9  145 258 
 PTB  HE ES       2244 24.53                             133    0.10 9  145 258 
 PTB  HZ I        2244 27.60         3.0 0.12            133            145 258 
                                                                                
