 2015  514 2152 38.1 L   6.812 -73.071135.8  RSN  4 0.2 1.6LRSN                1
 GAP=146        0.57       3.2     5.7  5.3 -0.5471E+01 -0.6209E+01  0.2717E+01E
 Epicentro: LOS SANTOS - SANTANDER                                             3
 ACTION:UPD 15-09-10 22:04 OP:cam  STATUS:               ID:20150514215238 L   I
 OLDACT:REG 15-05-15 03:20 OP:stll STATUS:               ID:20150514214749     3
 2015-05-14-2147-49M.COL___279                                                 6
 STAT SP IPHASW D HRMM SECON CODA AMPLIT PERI AZIMU VELO AIN AR TRES W  DIS CAZ7
 BAR2 EZ EP       2152 56.24                             168   -0.4310 27.2 207 
 BAR2 EZ ES       2153 10.99                             168   -0.1210 27.2 207 
 BAR2 EZ I        2153 14.31         7.0 0.30            168           27.2 207 
 PAM  SZ EP       2152 59.09                             151    0.1510 71.4  35 
 PAM  SZ I        2152 59.26        12.8 0.20            153           71.4  35 
 PAM  SE ES       2153 15.17                             151    0.0110 71.4  35 
 BRR  HN ES   1   2153 14.79                             148    0.16 7 78.0 295 
 RUS  HZ EP       2153  1.14                             141    0.1310  102 181 
 RUS  HN ES       2153 19.00                             141    0.1610  102 181 
                                                                                
