 2013  714 2305 23.5 L   6.812 -73.124148.7  RSN  5 0.5 1.3LRSN                1
 GAP=139        1.28       7.7     7.9 12.7  0.5513E+01  0.5343E+01  0.1261E+02E
 Epicentro: LOS SANTOS - SANTANDER                                             3
 ACTION:UPD 13-08-12 10:37 OP:ep   STATUS:               ID:20130714230523 L   I
 OLDACT:REG 13-07-14 21:26 OP:jn   STATUS:               ID:20130714225959     3
 2013-07-14-2259-59M.COL___267                                                 6
 STAT SP IPHASW D HRMM SECON CODA AMPLIT PERI AZIMU VELO AIN AR TRES W  DIS CAZ7
 GIR2 SZ EP       23 5 43.51                             168    0.0610 30.5 345 
 BRR  HZ EP       23 5 45.60                             153    0.6010 72.7 297 
 BRR  HE ES       23 6  2.40                             153    0.6010 72.7 297 
 BRR  HZ I        23 6  2.83         5.7 0.32            153           72.7 297 
 PAM  SE ES   1   23 6  2.34                             152   -0.94 7 74.9  39 
 RUS  HZ EP       23 5 47.63                             144    0.0610  102 177 
 RUS  HN ES       23 6  6.52                             144    0.1310  102 177 
 RUS  HZ I        23 6  7.43         1.8 0.20            144            102 177 
 PTB  HZ EP   1   23 5 50.30                             132   -0.59 7  150 259 
 PTB  HN ES       23 6 11.55                             132   -0.74 9  150 259 
 PTB  HZ I        23 6 13.78         3.1 0.26            132            150 259 
                                                                                
