 2011  114 2123 24.9 L   5.954 -73.742103.5  RSN 11 0.3 2.1LRSN                1
 GAP= 93        0.54       2.3     2.7  5.6 -0.2207E+01  0.6256E+01 -0.2074E+01E
 Epicentro: GUAVATA - SANTANDER                                                3
 ACTION:UP  11-02-08 08:40 OP:pat  STATUS:               ID:20110114212324 L   I
 2011-01-14-2120-35S.COL___135                                                 6
 STAT SP IPHASW D HRMM SECON CODA AMPLIT PERI AZIMU VELO SNR AR TRES W  DIS CAZ7
 RUS  HZ EP       2123 42.78                             142     0.310   73  95 
 RUS  HZ I        2123 43.26        23.3 0.23                            73  95 
 RUS  HE ES   1   2123 56.30                             142     0.1 7   73  95 
 BAR2 SZ EP   2   2123 43.82                             134     0.0 5   94  41 
 BAR2 SZ ES   1   2123 58.25                             134    -0.3 7   94  41 
 BAR2 SZ I        2124  1.74       102.6 0.43                            94  41 
 BTL  SZ EP       2123 46.28                             127     0.210  119  26 
 BTL  SZ ES   2   2124  2.46                             127    -0.2 5  119  26 
 NOR  SZ EP   2   2123 47.03                             123    -0.2 5  132 251 
 NOR  SN ES   2   2124  5.09                             123     0.4 5  132 251 
 GIR2 SZ EP   2   2123 48.22                             122     0.3 5  138  26 
 CHI  HZ EP       2123 49.03                             121    -0.1 9  147 180 
 CHI  HZ I        2123 50.27        12.6 0.18                           147 180 
 CHI  HE ES   2   2124  7.49                             121    -0.6 5  147 180 
 YOP  SZ EP   2   2123 50.87                             118     0.6 5  161 114 
 YOP  SZ I        2123 53.48         9.0 0.26                           161 114 
 YOP  SN ES   2   2124  9.94                             118    -0.2 5  161 114 
 HEL  HZ EP   2   2123 55.06                             112     0.2 4  200 278 
 HEL  HZ I        2123 55.64         9.0 0.44                           200 278 
 HEL  HE ES   2   2124 18.29                             112     0.0 4  200 278 
 RREF HZ EP   2   2123 56.24                             110    -0.5 4  213 237 
 RREF HN ES   2   2124 21.69                             110     0.1 4  213 237 
 RREF HZ I        2124 24.80        11.3 0.45                           213 237 
 GRA  SZ EP   1   2123 58.82                             108    -0.2 6  237  26 
 GRA  SZ ES   1   2124 25.51                             108    -0.1 6  237  26 
 GRA  SZ I        2124 29.82        18.5 0.38                           237  26 
 OCA  SZ EP   1   2124  0.96                             106    -0.3 6  257  10 
 OCA  SZ I        2124 35.85         9.9 0.21                           257  10 
                                                                                
