 2016 1014 2256 24.5 L   6.770 -73.141154.8  RSN  4 0.3 1.6LRSN                1
 GAP=139        0.81       4.9     4.6  7.5 -0.4398E+01  0.5184E+01 -0.3214E-01E
 Epicentro: LOS SANTOS - SANTANDER                                             3
 ACTION:UPD 16-11-09 19:19 OP:rebc STATUS:               ID:20161014225624 L   I
 OLDACT:UP  16-10-15 09:37 OP:dani STATUS:               ID:20161014224736     3
 OLDACT:REG 16-10-15 08:05 OP:dani STATUS:               ID:20161014224736     3
 2016-10-14-2248-00M.COL___374                                                 6
 STAT SP IPHASW D HRMM SECON CODA AMPLIT PERI AZIMU VELO AIN AR TRES W  DIS CAZ7
 BRR  HZ EP       2256 46.73                             153   -0.0610 73.3 301 
 BRR  HN ES       2257  4.63                             153    0.4910 73.3 301 
 BRR  HZ I        2257 11.37         7.8 0.37            150           73.3 301 
 PAM  EZ EP       2256 48.20                             152    0.3410 79.6  38 
 PAM  EE ES       2257  5.56                             152   -0.4810 79.6  38 
 PAM  EZ I        2257  7.92         4.0 0.24            155           79.6  38 
 RUS  HZ EP   2   2256 48.86                             146   -0.10 5 97.2 176 
 RUS  HE ES       2257  8.11                             146    0.1010 97.2 176 
 PTB  HZ EP       2256 52.18                             134   -0.08 9  148 260 
 PTB  HN ES       2257 13.51                             134   -0.36 9  148 260 
 PTB  HZ I        2257 20.58         5.5 0.32            135            148 260 
                                                                                
