 2012  714 2155 38.1 L   6.735 -73.172144.4  RSN  5 0.4 1.7LRSN                1
 GAP=229        0.90      10.1     9.0 10.2  0.6149E+02  0.2342E+02  0.1554E+02E
 Epicentro: VILLANUEVA - SANTANDER                                             3
 ACTION:UPD 12-08-14 11:44 OP:ep   STATUS:               ID:20120714215538 L   I
 2012-07-14-2150-00M.COL___197                                                 6
 STAT SP IPHASW D HRMM SECON CODA AMPLIT PERI AZIMU VELO AIN AR TRES W  DIS CAZ7
 BAR2 SZ EP   1   2155 57.51                             173     0.1 7   16 184 
 BAR2 SZ I        2155 57.66         9.2 0.22            175             16 184 
 BAR2 SZ ES   1   2156 11.77                             173    -0.7 7   16 184 
 BRR  HN ES   1   2156 16.14                             152     0.6 7   73 305 
 BRR  HZ I        2156 20.43        16.9 0.11            153             73 305 
 RUS  HZ EP   1   2156  1.35                             145     0.2 7   94 174 
 RUS  HN ES   1   2156 19.47                             145     0.3 7   94 174 
 RUS  HZ I        2156 21.02         3.6 0.31            150             94 174 
 PTB  HZ EP   1   2156  4.17                             132    -0.4 7  144 261 
 PTB  HN ES   1   2156 25.25                             132     0.1 7  144 261 
 PTB  HZ I        2156 27.90         6.8 0.16            135            144 261 
 ZAR  HN ES   1   2156 35.52                             122    -0.2 6  204 294 
