 2010 1114 2151 57.0 L   6.756 -73.124139.3  RSN  5 0.4 1.8LRSN                1
 GAP=161        1.13       6.5    13.7  9.9  0.1232E+02 -0.3791E+02 -0.8289E+01E
 Epicentro: LOS SANTOS - SANTANDER                                             3
 ACTION:UP  10-12-17 16:52 OP:REBC STATUS:               ID:20101114215157 L   I
 2010-11-14-2149-37S.COL___128                                                 6
 STAT SP IPHASW D HRMM SECON CODA AMPLIT PERI AZIMU VELO SNR AR TRES W  DIS CAZ7
 BAR2 SZ EP       2152 15.68                             172    -0.110   19 200 
 BAR2 SZ ES   1   2152 29.88                             172    -0.6 7   19 200 
 BAR2 SZ I        2152 33.07        18.6 0.52                            19 200 
 GIR2 SZ EP       2152 15.84                             165    -0.210   36 348 
 GIR2 SZ ES   1   2152 30.90                             165     0.0 7   36 348 
 BRR  HZ EP       2152 17.33                             150    -0.410   76 301 
 BRR  HE ES   1   2152 34.48                             150     0.6 7   76 301 
 BRR  HZ I        2152 37.05        16.0 0.26                            76 301 
 RUS  HZ EP       2152 19.63                             144    -0.110   96 177 
 RUS  HE ES   1   2152 38.26                             144     0.7 7   96 177 
 RUS  HZ I        2152 39.10         6.8 0.13                            96 177 
 GRA  SZ EP       2152 22.65                             134     0.610  130  16 
 GRA  SZ ES   2   2152 41.34                             134    -0.2 5  130  16 
 GRA  SZ I        2152 44.39         6.0 0.50                           130  16 
                                                                                
