 2013  114 2014 56.9 L   6.815 -73.127150.9  RSN  7 0.4 2.1LRSN                1
 GAP=241        0.93       4.7     5.2  6.3  0.9610E+01  0.7765E+01  0.8102E+01E
 Epicentro: LOS SANTOS - SANTANDER                                             3
 ACTION:UPD 13-02-15 09:14 OP:ep   STATUS:               ID:20130114201456 L   I
 2013-01-14-2010-00M.COL___241                                                 6
 STAT SP IPHASW D HRMM SECON CODA AMPLIT PERI AZIMU VELO AIN AR TRES W  DIS CAZ7
 BAR2 SZ EP       2015 17.16                             170   -0.0510 25.4 194 
 BAR2 SZ ES       2015 33.15                             170    0.1110 25.4 194 
 BAR2 SZ I        2015 33.70        18.0 0.30            164           25.4 194 
 BRR  HZ EP       2015 19.17                             153    0.4810 72.3 297 
 BRR  HE ES       2015 36.11                             153    0.4410 72.3 297 
 BRR  HE I        2015 37.34        33.5 0.32            149           72.3 297 
 RUS  HZ EP       2015 21.08                             144   -0.2110  102 177 
 RUS  HN ES       2015 39.92                             144   -0.3710  102 177 
 RUS  HN I        2015 42.62         5.9 0.34            143            102 177 
 PTB  HZ EP       2015 24.19                             133   -0.33 9  150 258 
 PTB  HN ES       2015 45.42                             133   -0.63 9  150 258 
 PTB  HN I        2015 50.40        32.3 0.60            130            150 258 
 ZAR  HN ES       2015 55.18                             123   -0.34 8  205 291 
 ZAR  HN I        2016  1.80        16.4 0.30            122            205 291 
 NOR  HZ EP       2015 33.23                             119    0.00 8  237 234 
 NOR  HN ES       2016  2.27                             119    0.71 8  237 234 
 NOR  HN I        2016  8.55        18.1 0.18            118            237 234 
 CHI  HZ EP       2015 35.28                             118    0.14 8  251 196 
 CHI  HN ES       2016  5.15                             118    0.20 8  251 196 
 CHI  HN I        2016  9.43         4.6 0.32            118            251 196 
                                                                                
