 2010  214 2008 17.0 L   6.785 -73.056149.0  RSN 13 0.4 3.7LRSN                1
 GAP=149        0.94       3.6     6.0  6.0 -0.9828E+01  0.7397E+01  0.2542E+01E
 Epicentro: LOS SANTOS - SANTANDER                                             3
 ACTION:UP  10-08-24 09:49 OP:vdl  STATUS:               ID:20100214200817 L   I
 2010-02-14-2006-56S.COL___093                                                 6
 STAT SP IPHASW D HRMM SECON CODA AMPLIT PERI AZIMU VELO SNR AR TRES W  DIS CAZ7
 BAR2 SZ IP       20 8 37.12                             170     0.110   26 213 
 BAR2 SZ ES       20 8 52.44                             170    -0.210   26 213 
 OCA  SZ IP       20 8 45.83                             130     0.0 9  163 350 
 OCA  SZ ES       20 9  8.59                             130     0.3 9  163 350 
 OCA  SZ I        20 9 13.34       839.4 0.20                           163 350 
 CHI  HZ IP       20 8 54.75                             118    -0.2 8  250 197 
 CHI  HE ES       20 9 24.22                             118    -0.4 8  250 197 
 CHI  HZ I        20 9 32.33       118.1 0.32                           250 197 
 ROSC BZ IP       20 8 56.70                             117     1.0 8  257 213 
 ROSC BZ I        20 9 34.91       236.7 0.42                           257 213 
 HEL  HZ IP       20 8 57.70                             114    -0.7 7  281 257 
 HEL  HN ES   1   20 9 30.60                             114     0.0 6  281 257 
 GUY  HE ES   1   20 9 36.65                             112     0.3 5  309 236 
 RREF BZ IP       20 9  4.10                             111     0.1 7  328 231 
 RREF BN ES       20 9 40.64                             111     0.0 7  328 231 
 RREF BZ I        20 9 45.62       176.6 0.27                           328 231 
 DBB  SZ IP       20 9  4.83                             109    -0.9 6  349 274 
 TOL  SZ IP       20 9  6.57                             109     0.6 6  349 226 
 SDV  BZ IP       20 9  6.30                             109    -0.1 6  354  49 
 ANIL BZ EP   1   20 9  7.61                             109     0.1 5  363 226 
 ANIL BE ES   1   20 9 47.56                             109     0.5 5  363 226 
 ANIL BZ I        20 9 51.11       316.1 0.25                           363 226 
 PRA  HZ EP   1   20 9 10.35                             107    -0.6 4  396 211 
 PRA  HE ES       20 9 53.33                             107     0.2 6  396 211 
 PRA  HZ I        20 9 58.91       150.5 0.67                           396 211 
 MARA BZ EP   1   20 9 28.01                             101    -0.6 3  542 217 
                                                                                
