 2014  414 2024 22.8 L   6.800 -73.141150.8  RSN  8 0.4 1.9LRSN                1
 GAP=137        0.93       3.3     4.2  6.3  0.1455E+01  0.4797E+01  0.1057E+01E
 Epicentro: LOS SANTOS - SANTANDER                                             3
 ACTION:UPD 14-05-13 23:08 OP:nd   STATUS:               ID:20140414202422 L   I
 OLDACT:UP  14-04-15 03:14 OP:cam  STATUS:               ID:20140414201812     3
 OLDACT:REG 14-04-15 02:54 OP:cam  STATUS:               ID:20140414201812     3
 2014-04-14-2018-12M.COL___269                                                 6
 STAT SP IPHASW D HRMM SECON CODA AMPLIT PERI AZIMU VELO AIN AR TRES W  DIS CAZ7
 BRR  HZ EP       2024 44.48                             153   -0.0210 71.7 298 
 BRR  HN ES       2025  2.23                             153    0.7910 71.7 298 
 BRR  HZ I        2025  6.31        18.1 0.24            152           71.7 298 
 PAM  SZ EP       2024 45.83                             152    0.3210 77.0  39 
 PAM  SE ES       2025  3.10                             152   -0.1410 77.0  39 
 PAM  SZ I        2025  5.03        15.5 0.64            156           77.0  39 
 RUS  HZ EP       2024 47.13                             145    0.1110  101 176 
 RUS  HE ES       2025  5.43                             145   -0.5010  101 176 
 RUS  HZ I        2025  6.14         3.2 0.34            148            101 176 
 PTB  HZ EP       2024 49.99                             133   -0.22 9  148 259 
 PTB  HN ES       2025 11.12                             133   -0.48 9  148 259 
 PTB  HZ I        2025 16.38        12.5 0.20            133            148 259 
 OCA  HE ES   4   2025 15.61                             131    1.72 0  160 353 
 SPBC HN ES   2   2025 14.45                             130    0.19 5  164 219 
 ZAR  HZ EP       2024 55.63                             123    0.02 9  205 292 
 ZAR  HE ES       2025 21.43                             123    0.21 9  205 292 
 ZAR  HZ I        2025 27.27        10.7 0.30            124            205 292 
 SML  HZ EP   1   2024 59.19                             118   -0.53 6  244 335 
 SML  HN ES       2025 28.07                             118   -0.46 8  244 335 
 SML  HZ I        2025 30.47        19.8 0.34            120            244 335 
 CHI  HZ EP       2025  1.34                             118    0.56 8  249 195 
 CHI  HE ES   1   2025 30.36                             118   -0.05 6  249 195 
 CHI  HZ I        2025 32.79         3.6 0.34            120            249 195 
 GUY2CHZ EP   4   2025  9.27                             113    2.59 0  302 235 
                                                                                
