 2014  914 2022 47.8 L   6.735 -73.303103.2  RSN  5 0.4 1.6LRSN                1
 GAP=204        0.95       6.6     6.5 13.5  0.3216E+01  0.5239E+02 -0.3710E+01E
 Epicentro: ZAPATOCA - SANTANDER                                               3
 ACTION:UPD 14-10-03 23:04 OP:nd   STATUS:               ID:20140914202247 L   I
 OLDACT:DUP 14-09-15 05:53 OP:fm   STATUS:               ID:20140914201822d    3
 OLDACT:DUP 14-09-15 05:44 OP:fm   STATUS:               ID:20140914201821d    3
 2014-09-14-2018-19M.COL___293                                                 6
 STAT SP IPHASW D HRMM SECON CODA AMPLIT PERI AZIMU VELO AIN AR TRES W  DIS CAZ7
 BAR2 SZ EP       2023  2.78                             168    0.5310 20.7 140 
 BAR2 SZ ES   1   2023 13.05                             168   -0.49 7 20.7 140 
 BAR2 SZ I        2023 16.88        13.3 0.24            167           20.7 140 
 PTB  HZ EP   1   2023  8.96                             124   -0.80 7  129 260 
 PTB  HN ES       2023 27.28                             124    0.3710  129 260 
 PTB  HZ I        2023 30.58         7.7 0.48            126            129 260 
 SPBC HN ES   1   2023 30.11                             120   -0.21 7  147 215 
 SPBC HZ I        2023 36.37         6.6 0.20            123            147 215 
 ZAR  HN ES       2023 38.60                             113   -0.12 9  191 296 
 ZAR  HZ I        2023 41.95         5.5 0.28            117            191 296 
 NOR  HN ES   1   2023 43.96                             110    0.02 6  216 233 
 NOR  HZ I        2023 47.54         3.8 0.20            113            216 233 
                                                                                
