 2016  614 2003 16.3 L   6.788 -73.590140.3  RSN  5 0.4 1.7LRSN                1
 GAP=137        1.01       6.9     6.1  9.1  0.6782E+01  0.1498E+01  0.3605E+02E
 Epicentro: EL CARMEN - SANTANDER                                              3
 ACTION:UPD 16-07-21 22:18 OP:rebc STATUS:               ID:20160614200316 L   I
 OLDACT:DUP 16-06-15 05:07 OP:edw  STATUS:               ID:20160614195744d    3
 OLDACT:UP  16-06-15 04:46 OP:edw  STATUS:               ID:20160614195743     3
 OLDACT:UP  16-06-15 04:35 OP:edw  STATUS:               ID:20160614195743     3
 OLDACT:REG 16-06-15 02:35 OP:edw  STATUS:               ID:20160614195743     3
 2016-06-14-1957-43M.COL___322                                                 6
 STAT SP IPHASW D HRMM SECON CODA AMPLIT PERI AZIMU VELO AIN AR TRES W  DIS CAZ7
 BRR  HE ES       20 3 50.60                             164    0.4710 37.8 339 
 BAR2 EZ EP       20 3 36.03                             159   -0.0910 50.0 116 
 BAR2 EZ ES       20 3 51.80                             159    0.2110 50.0 116 
 BAR2 EZ I        20 3 52.51        14.5 0.20                          50.0 116 
 PTB  HN ES       20 3 55.89                             143   -0.4110 99.7 254 
 RUS  HZ EP       20 3 40.25                             139   -0.2710  114 150 
 RUS  HE ES       20 3 58.88                             139   -0.5510  114 150 
 RUS  HZ I        20 3 59.95         5.7 0.34                           114 150 
 CHI  HZ EP       20 3 52.88                             117    0.22 8  239 184 
 CHI  HE ES       20 4 21.74                             117    0.71 8  239 184 
                                                                                
