 2017  314 2233 21.3 L   6.813 -73.102142.7  RSN  7 0.2 1.6LRSN                1
 GAP=141        0.59       2.9     2.9  5.1 -0.1260E+01  0.3858E+01 -0.1358E+00E
 Epicentro: LOS SANTOS - SANTANDER                                             3
 ACTION:UPD 17-05-25 18:40 OP:jn   STATUS:               ID:20170314223321 L   I
 OLDACT:UP  17-03-15 04:24 OP:and  STATUS:               ID:20170314222743     3
 OLDACT:UP  17-03-15 04:24 OP:and  STATUS:               ID:20170314222743     3
 OLDACT:REG 17-03-15 02:53 OP:and  STATUS:               ID:20170314222743     3
 2017-03-14-2228-00M.COL___376                                                 6
 STAT SP IPHASW D HRMM SECON CODA AMPLIT PERI AZIMU VELO AIN AR TRES W  DIS CAZ7
 BAR2 EZ EP       2233 40.34                             169   -0.2610 25.9 200 
 BAR2 EZ ES   2   2233 55.27                             169   -0.39 5 25.9 200 
 BAR2 EZ I        2233 56.36         9.6 0.14            169           25.9 200 
 PAM  EZ EP     D 2233 43.23                             151    0.3010 73.3  37 
 PAM  EN ES       2233 59.84                             151    0.0310 73.3  37 
 PAM  EZ I        2234  2.07        10.4 0.38            154           73.3  37 
 BRR  HZ EP       2233 42.13                             151   -0.1810 74.8 296 
 RUS  HZ EP       2233 44.71                             142   -0.1110  102 179 
 RUS  HN ES       2234  3.28                             142    0.1010  102 179 
 RUS  HZ I        2234  4.75         8.2 0.30            144            102 179 
 PTB  HZ EP   9   2233 47.51                             130   -0.95 0  153 259 
 PTB  HN ES       2234  8.32                             131   -0.39 9  153 259 
 PTB  HZ I        2234 11.79         3.8 0.16            130            153 259 
 ZAR  HN ES       2234 19.46                             121    0.05 8  208 291 
 ZAR  HZ I        2234 24.51         3.3 0.17            121            208 291 
 NOR  HZ EP   2   2233 56.98                             117   -0.37 4  239 235 
 NOR  HN ES       2234 25.82                             117    0.35 8  239 235 
 NOR  HZ I        2234 30.00         2.7 0.16            118            239 235 
                                                                                
