 2017 1114 2252 34.5 L   6.655 -74.083 19.1  RSN  6 0.4 1.2LRSN                1
 GAP= 88        0.84       2.4     2.1  3.4 -0.7316E+00 -0.1948E+01  0.9560E+00E
 Epicentro: PUERTO PARRA - SANTANDER                                           3
 ACTION:UPD 17-12-12 19:55 OP:rebc STATUS:               ID:20171114225234 L   I
 OLDACT:UP  17-11-15 06:20 OP:dnl  STATUS:               ID:20171114224738     3
 OLDACT:UP  17-11-15 06:20 OP:dnl  STATUS:               ID:20171114224738     3
 OLDACT:REG 17-11-15 05:53 OP:dnl  STATUS:               ID:20171114224738     3
 2017-11-14-2248-00M.COL___459                                                 6
 STAT SP IPHASW D HRMM SECON CODA AMPLIT PERI AZIMU VELO AIN AR TRES W  DIS CAZ7
 PTB  HZ IP     D 2252 42.04                             111   -0.0410 43.2 253 
 PTB  HE ES       2252 47.93                             111   -0.0710 43.2 253 
 PTB  HZ I        2252 48.04        11.6 0.24             47           43.2 253 
 BRR  HZ EP       2252 45.12                             104   -0.0510 64.7  39 
 BRR  HN ES       2252 53.42                             104   -0.0710 64.7  39 
 BRR  HZ I        2252 54.08        10.8 0.12             47           64.7  39 
 SPBC HZ EP   3   2252 53.17                              98    1.02 2  111 179 
 SPBC HN ES   2   2253  5.62                              98   -0.29 5  111 179 
 SPBC HZ I        2253  9.93         3.7 0.22             47            111 179 
 ZAR  HZ EP   4   2252 56.32                              56    2.09 0  126 317 
 ZAR  HN ES       2253  9.60                              56   -0.0310  126 317 
 ZAR  HZ I        2253 11.06         5.1 0.14             47            126 317 
 RUS  HZ EP       2252 57.22                              56    0.78 9  139 127 
 RUS  HN ES       2253 13.05                              56   -0.50 9  139 127 
 RUS  HZ I        2253 16.97         3.9 0.20             47            139 127 
 GUY2CHZ EP   4   2253  9.40                              56    3.80 0  213 222 
 GUY2CHN ES   4   2253 31.17                              56    1.31 0  213 222 
 GUY2CHZ I        2253 35.85         1.5 0.64                           213 222 
                                                                                
