 2015 1014 2224 46.2 L   6.783 -73.121150.6  RSN 13 0.3 2.0LRSN                1
 GAP=140        0.58       1.7     2.5  3.7 -0.5560E+00  0.2201E+01  0.6709E+00E
 Epicentro: LOS SANTOS - SANTANDER                                             3
 ACTION:UPD 15-12-22 20:40 OP:cam  STATUS:               ID:20151014222446 L   I
 OLDACT:REG 15-10-15 03:02 OP:spq  STATUS:               ID:20151014221746     3
 2015-10-14-2217-46M.COL___337                                                 6
 STAT SP IPHASW D HRMM SECON CODA AMPLIT PERI AZIMU VELO AIN AR TRES W  DIS CAZ7
 BAR2 EZ EP       2225  6.21                             171   -0.1510 22.2 198 
 BAR2 EZ ES   1   2225 22.07                             171   -0.04 7 22.2 198 
 BAR2 EZ I        2225 23.16        13.8 0.12            169           22.2 198 
 BRR  HZ EP       2225  8.07                             152    0.0410 74.5 299 
 BRR  HN ES       2225 25.47                             152    0.4010 74.5 299 
 BRR  HZ I        2225 28.84        19.2 0.28            150           74.5 299 
 PAM  EZ EP       2225  8.97                             152    0.0810 77.1  37 
 PAM  EE ES       2225 26.51                             152   -0.0910 77.1  37 
 PAM  EZ I        2225 28.79        20.7 0.60            155           77.1  37 
 RUS  HZ EP       2225 10.09                             145   -0.1710 98.6 178 
 RUS  HN ES       2225 29.11                             145    0.0610 98.6 178 
 RUS  HZ I        2225 31.21         8.4 0.48            146           98.6 178 
 OCA  HZ EP   1   2225 15.30                             130    0.24 7  162 352 
 OCA  HE ES       2225 37.49                             130   -0.11 9  162 352 
 OCA  HZ I        2225 38.66        26.3 0.18            131            162 352 
 SPBC HZ EP       2225 15.36                             130    0.29 9  164 220 
 SPBC HE ES   1   2225 37.07                             130   -0.55 7  164 220 
 SPBC HZ I        2225 39.74        12.2 0.09            130            164 220 
 ZAR  HN ES       2225 44.76                             123   -0.32 8  207 292 
 ZAR  HZ I        2225 49.99        11.2 0.40            123            207 292 
 NOR  HN ES       2225 50.24                             119   -0.26 8  236 235 
 NOR  HZ I        2225 53.70         5.6 0.18            120            236 235 
 SML  HZ EP   1   2225 22.81                             118   -0.56 6  247 335 
 SML  HE ES   1   2225 52.59                             118    0.20 6  247 335 
 SML  HZ I        2225 55.50        13.8 0.10            119            247 335 
 CHI  HZ EP       2225 24.32                             118    0.29 8  248 196 
 CHI  HN ES   1   2225 53.51                             118   -0.05 6  248 196 
 CHI  HZ I        2225 59.25         2.3 0.30            119            248 196 
 HEL  HZ EP   4   2225 28.02                             115    1.14 0  274 256 
 HEL  HN ES   1   2225 58.88                             115    0.25 6  274 256 
 HEL  HZ I        2226  5.36         5.3 0.34            116            274 256 
 GUY2CHZ EP   4   2225 31.29                             113    1.15 0  302 235 
 GUY2CHN ES   1   2226  4.87                             113    0.43 5  302 235 
 GUY2CHZ I        2226 12.83         4.2 0.30                           302 235 
 SJC  HZ EP   4   2225 40.53                             106   -1.72 0  412 327 
 SJC  HE ES   4   2226 23.02                             106   -2.97 0  412 327 
 SJC  HZ I        2226 28.76         2.4 0.46            107            412 327 
                                                                                
