 2011  514 2233 59.2 L   6.797 -73.050152.1  RSN  5 0.1 1.6LRSN                1
 GAP=149        0.40       3.0     4.4  5.1 -0.3670E+01 -0.1216E+01  0.4186E+01E
 Epicentro: LOS SANTOS - SANTANDER                                             3
 ACTION:UP  11-06-29 08:53 OP:tino STATUS:               ID:20110514223359 L   I
 2011-05-14-2228-42S.COL___141                                                 6
 STAT SP IPHASW D HRMM SECON CODA AMPLIT PERI AZIMU VELO SNR AR TRES W  DIS CAZ7
 BTL  SZ EP   1   2234 19.40                             169    -0.3 7   28 299 
 PAM  SN ES   1   2234 39.37                             154     0.0 7   71  33 
 BRR  HZ EP   1   2234 21.46                             151    -0.1 7   81 295 
 BRR  HN ES   1   2234 39.14                             151     0.1 7   81 295 
 BRR  HZ I        2234 40.73        11.4 0.39                            81 295 
 RUS  HZ EP   1   2234 23.71                             145     0.2 7  100 182 
 RUS  HN ES   2   2234 42.38                             145    -0.1 5  100 182 
 RUS  HZ I        2234 44.68         3.6 0.48                           100 182 
 GRA  SZ EP   1   2234 24.88                             139     0.1 7  123  13 
 GRA  SZ ES   1   2234 44.72                             139    -0.1 7  123  13 
 GRA  SZ I        2234 47.69         5.1 0.32                           123  13 
                                                                                
