 2011  614 2301 25.7 L   7.206 -74.008 16.6  RSN  8 0.3 2.1LRSN                1
 GAP=186        0.55       2.8     4.1  3.7 -0.4271E+01  0.7953E+01 -0.5886E+01E
 Epicentro: PUERTO WILCHES - SANTANDER                                         3
 ACTION:UP  11-07-14 19:05 OP:ep   STATUS:               ID:20110614230125 L   I
 2011-06-14-2301-02S.COL___138                                                 6
 STAT SP IPHASW D HRMM SECON CODA AMPLIT PERI AZIMU VELO SNR AR TRES W  DIS CAZ7
 BRR  HZ EP   1   23 1 31.66                             112    -0.2 7   34 109 
 BRR  HN ES   1   23 1 36.84                             112     0.1 7   34 109 
 BRR  HZ I        23 1 37.37        92.5 0.11                            34 109 
 BAR2 SZ EP   1   23 1 43.96                              97     0.1 7  114 127 
 BAR2 SZ ES   2   23 1 57.66                              97    -0.4 5  114 127 
 BAR2 SZ I        23 1 58.72        15.0 0.13                           114 127 
 OCA  SZ EP   1   23 1 47.41                              56     0.2 7  137  34 
 OCA  SZ ES   2   23 2  3.96                              56     0.0 5  137  34 
 OCA  SZ I        23 2  8.05        32.4 0.39                           137  34 
 BRI  SZ EP   1   23 1 48.29                              56     0.0 7  145  67 
 BRI  SZ ES   2   23 2  5.53                              56    -0.3 5  145  67 
 PAM  SZ EP   1   23 1 48.51                              56    -0.1 7  145  84 
 BRI  SZ I        23 2  7.45        32.3 0.37                           145  67 
 GRA  SZ EP   1   23 1 49.23                              56     0.1 7  153  60 
 GRA  SZ ES   1   23 2  7.35                              56    -0.1 7  153  60 
 GRA  SZ I        23 2  8.11        94.9 0.39                           153  60 
 RUS  HZ EP   1   23 1 53.23                              56     0.5 7  178 145 
 RUS  HE ES   2   23 2 14.05                              56     0.3 4  178 145 
 RUS  HZ I        23 2 15.27        12.5 0.32                           178 145 
 NOR  SE ES   2   23 2 18.26                              56    -0.7 4  205 208 
                                                                                
