 2016  814 2157 16.3 L   6.821 -73.111144.6  RSN  7 0.3 1.4LRSN                1
 GAP=140        0.79       3.6     3.4  4.9 -0.1870E+00  0.5710E+01  0.1423E+01E
 Epicentro: LOS SANTOS - SANTANDER                                             3
 ACTION:UPD 16-10-29 15:35 OP:rebc STATUS:               ID:20160814215716 L   I
 OLDACT:UP  16-08-15 03:42 OP:edw  STATUS:               ID:20160814214740d    3
 OLDACT:DUP 16-08-15 03:21 OP:edw  STATUS:               ID:20160814214740d    3
 2016-08-14-2148-00M.COL___377                                                 6
 STAT SP IPHASW D HRMM SECON CODA AMPLIT PERI AZIMU VELO AIN AR TRES W  DIS CAZ7
 BAR2 EZ EP       2157 35.57                             169   -0.3010 26.5 197 
 BAR2 EZ ES       2157 51.20                             169    0.0810 26.5 197 
 BAR2 EZ I        2157 51.75         5.3 0.12                          26.5 197 
 PAM  EZ EP       2157 38.39                             152    0.2410 73.1  38 
 PAM  EN ES       2157 55.30                             152    0.1110 73.1  38 
 PAM  EZ I        2157 57.71         4.2 0.36                          73.1  38 
 BRR  HZ EP       2157 37.67                             151    0.2010 73.6 296 
 BRR  HN ES       2157 54.13                             151    0.1610 73.6 296 
 RUS  HZ EP       2157 40.20                             143    0.1010  103 178 
 RUS  HE ES       2157 58.31                             143   -0.3510  103 178 
 RUS  HZ I        2157 59.23         2.3 0.30                           103 178 
 PTB  HZ EP       2157 43.62                             131    0.04 9  152 258 
 PTB  HN ES       2158  4.61                             131   -0.23 9  152 258 
 PTB  HZ I        2158  6.24         3.1 0.11                           152 258 
 ZAR  HZ EP       2157 48.19                             122   -0.78 8  207 291 
 ZAR  HN ES       2158 14.36                             122   -0.07 8  207 291 
 ZAR  HZ I        2158 22.03         3.4 0.30                           207 291 
 GUY2CHZ EP       2158  0.83                             112    0.45 7  306 235 
 GUY2CHN ES       2158 35.37                             112    0.62 7  306 235 
                                                                                
