 2017 1014 2253  4.6 L   7.274 -73.509105.9  RSN  5 0.4 1.6LRSN                1
 GAP=235        1.09       7.9     6.0  8.0  0.3172E+02  0.1692E+01 -0.3084E+01E
 Epicentro: SABANA DE TORRES - SANTANDER                                       3
 ACTION:UPD 17-11-07 19:31 OP:rebc STATUS:               ID:20171014225304 L   I
 OLDACT:UP  17-10-15 08:07 OP:leo  STATUS:               ID:20171014224631     3
 OLDACT:UP  17-10-15 08:01 OP:leo  STATUS:               ID:20171014224631     3
 OLDACT:REG 17-10-15 06:39 OP:leo  STATUS:               ID:20171014224631     3
 2017-10-14-2248-00M.COL___438                                                 6
 STAT SP IPHASW D HRMM SECON CODA AMPLIT PERI AZIMU VELO AIN AR TRES W  DIS CAZ7
 BRR  HZ EP       2253 18.81                             164   -0.4610 29.0 231 
 BRR  HE ES       2253 30.75                             164    0.0310 29.0 231 
 BRR  HZ I        2253 31.66        15.9 0.30            156           29.0 231 
 BAR2 EZ EP       2253 22.74                             139   -0.1410 83.6 154 
 BAR2 EZ ES       2253 37.14                             139   -0.0210 83.6 154 
 BAR2 EZ I        2253 37.87        15.3 0.44            133           83.6 154 
 PTB  HZ EP       2253 26.40                             124   -0.6710  132 232 
 PTB  HN ES       2253 44.30                             124   -0.3110  132 232 
 PTB  HZ I        2253 44.58         6.9 0.18            120            132 232 
 ZAR  HZ EP       2253 29.49                             120    0.54 9  151 279 
 ZAR  HN ES       2253 48.46                             120    0.49 9  151 279 
 ZAR  HZ I        2253 51.29         9.6 0.50            119            151 279 
 RUS  HZ EP       2253 30.47                             119   -0.06 9  160 163 
 RUS  HN ES       2253 51.54                             119    0.76 9  160 163 
 RUS  HZ I        2254  2.17         2.6 0.22            115            160 163 
                                                                                
