 2017  714 2030 36.5 L   6.726 -73.498111.1  RSN  7 0.4 1.6LRSN                1
 GAP= 82        0.94       3.2     3.6  6.5  0.7832E+00  0.8118E+01  0.1178E+01E
 Epicentro: EL CARMEN - SANTANDER                                              3
 ACTION:UPD 17-08-30 15:33 OP:rebc STATUS:               ID:20170714203036 L   I
 OLDACT:UP  17-07-15 08:56 OP:osc  STATUS:               ID:20170714202743     3
 OLDACT:REG 17-07-15 02:53 OP:osc  STATUS:               ID:20170714202743     3
 2017-07-14-2028-00M.COL___355                                                 6
 STAT SP IPHASW D HRMM SECON CODA AMPLIT PERI AZIMU VELO AIN AR TRES W  DIS CAZ7
 BAR2 EZ EP       2030 52.83                             160    0.3910 37.9 113 
 BAR2 EZ ES       2031  5.27                             160    0.3710 37.9 113 
 BAR2 EZ I        2031  6.45        11.7 0.44            161           37.9 113 
 BRR  HZ EP       2030 52.84                             155    0.2610 48.3 331 
 BRR  HE ES       2031  4.96                             155   -0.1910 48.3 331 
 RUS  HZ EP       2030 57.55                             134    0.3610  103 154 
 RUS  HN ES       2031 12.88                             134   -0.4910  103 154 
 RUS  HZ I        2031 15.86         5.6 0.27            135            103 154 
 PTB  HZ EP       2030 56.34                             132   -0.6510  108 259 
 PTB  HE ES   4   2031 11.31                             132   -1.70 0  108 259 
 PTB  HZ I        2031 12.27         7.3 0.10            133            108 259 
 PAM  EZ EP       2030 57.79                             132   -0.1410  111  52 
 PAM  EE ES       2031 14.44                             132   -0.2410  111  52 
 SPBC HZ EP       2030 59.31                             126   -0.3210  135 208 
 SPBC HE ES       2031 17.99                             126    0.2910  135 208 
 ZAR  HZ EP       2031  3.87                             118    0.43 9  173 300 
 ZAR  HE ES       2031 24.46                             118   -0.03 9  173 300 
 ZAR  HZ I        2031 28.12         7.6 0.42            119            173 300 
                                                                                
