 2011  214 2237 13.2 L   6.756 -73.159136.4  RSN  7 0.2 1.7LRSN                1
 GAP=158        0.51       3.2     6.8  5.2 -0.1268E+02  0.1024E+02 -0.3340E+01E
 Epicentro: LOS SANTOS - SANTANDER                                             3
 ACTION:UP  11-03-28 15:08 OP:jfem STATUS:               ID:20110214223713 L   I
 2011-02-14-2233-38S.COL___136                                                 6
 STAT SP IPHASW D HRMM SECON CODA AMPLIT PERI AZIMU VELO SNR AR TRES W  DIS CAZ7
 BAR2 SZ ES   1   2237 45.72                             172    -0.3 8   18 188 
 BAR2 SZ I        2237 47.19        11.6 0.14                            18 188 
 BTL  SZ EP   1   2237 32.02                             171     0.3 8   22 326 
 RUS  HZ EP   1   2237 35.78                             143     0.1 8   96 175 
 RUS  HE ES   1   2237 53.45                             143     0.2 8   96 175 
 RUS  HZ I        2237 55.28         9.7 0.37                            96 175 
 GRA  SZ EP       2237 38.06                             134     0.010  131  17 
 GRA  SZ ES   2   2237 57.28                             134    -0.2 5  131  17 
 GRA  SZ I        2237 58.58         9.9 0.34                           131  17 
 NOR  SE ES   2   2238 14.99                             117    -0.1 4  231 235 
 CHI  HZ EP   1   2237 49.50                             116    -0.3 6  244 195 
 CHI  HN ES   1   2238 18.27                             116    -0.1 6  244 195 
 CHI  HZ I        2238 22.23         3.1 0.37                           244 195 
 RREF HN ES   2   2238 34.02                             109     0.3 4  317 230 
 RREF HZ I        2238 44.08         2.7 0.37                           317 230 
                                                                                
