 2010  814 2349 14.5 L   6.777 -73.021146.8  RSN  8 0.5 2.0LRSN                1
 GAP=173        1.16       5.2     8.5  8.8 -0.1549E+02  0.1127E+02  0.4087E+00E
 Epicentro: CEPITA - SANTANDER                                                 3
 ACTION:UP  10-09-07 10:54 OP:vdl  STATUS:               ID:20100814234914 L   I
 2010-08-14-2347-34S.COL___111                                                 6
 STAT SP IPHASW D HRMM SECON CODA AMPLIT PERI AZIMU VELO SNR AR TRES W  DIS CAZ7
 BAR2 SZ IP       2349 34.04                             169    -0.310   27 221 
 BAR2 SZ ES   1   2349 49.77                             169    -0.1 7   27 221 
 BAR2 SZ I        2349 50.83        19.8 0.69                            27 221 
 GIR2 SZ EP   1   2349 34.34                             165    -0.2 7   38 330 
 BRR  HZ EP   1   2349 35.98                             149    -0.6 7   85 296 
 BRR  HZ I        2349 36.25        48.1 0.19                            85 296 
 BRR  HE ES       2349 53.57                             149    -0.210   85 296 
 RUS  HZ EP   1   2349 37.92                             145    -0.3 7   98 184 
 RUS  HZ I        2349 39.52         8.0 0.47                            98 184 
 RUS  HN ES       2349 56.78                             145     0.110   98 184 
 GUE  SZ EP   1   2349 40.16                             140     0.8 7  117   5 
 GUE  SZ I        2350  3.00         6.8 0.20                           117   5 
 GRA  SZ EP   1   2349 39.77                             138     0.0 7  125  11 
 GRA  SZ ES       2349 59.78                             138     0.310  125  11 
 GRA  SZ I        2350  1.79        16.1 0.26                           125  11 
 HEL  HZ EP   1   2349 55.72                             114    -0.5 6  285 257 
 HEL  HZ I        2350 33.72         8.6 0.34                           285 257 
 RREF HZ EP   1   2350  1.37                             110    -0.4 5  331 231 
 RREF HN ES       2350 39.70                             110     1.1 7  331 231 
 RREF HZ I        2350 46.30         7.0 0.35                           331 231 
                                                                                
