 2016 1014 2238 41.1 L   6.772 -73.115145.0  RSN  7 0.4 1.6LRSN                1
 GAP=142        0.89       3.7     3.8  7.0 -0.2149E+01  0.6972E+01 -0.8704E-02E
 Epicentro: LOS SANTOS - SANTANDER                                             3
 ACTION:UPD 16-11-09 19:19 OP:rebc STATUS:               ID:20161014223841 L   I
 OLDACT:UP  16-10-15 09:19 OP:dani STATUS:               ID:20161014223733     3
 OLDACT:REG 16-10-15 08:04 OP:dani STATUS:               ID:20161014223733     3
 2016-10-14-2238-00M.COL___374                                                 6
 STAT SP IPHASW D HRMM SECON CODA AMPLIT PERI AZIMU VELO AIN AR TRES W  DIS CAZ7
 BRR  HZ EP     C 2239  2.50                             151    0.0710 75.7 299 
 BRR  HN ES       2239 19.30                             151    0.2410 75.7 299 
 BRR  HZ I        2239 23.56         7.3 0.15            149           75.7 299 
 PAM  EZ EP       2239  3.53                             150    0.2710 77.7  36 
 PAM  EN ES       2239 20.40                             150   -0.1410 77.7  36 
 PAM  EZ I        2239 20.96         7.0 0.38            155           77.7  36 
 RUS  HZ EP       2239  4.69                             145    0.1410 97.4 178 
 RUS  HE ES       2239 22.70                             145   -0.1410 97.4 178 
 RUS  HZ I        2239 23.78         4.2 0.26            147           97.4 178 
 PTB  HZ EP       2239  7.46                             131   -0.81 9  151 260 
 PTB  HE ES       2239 28.94                             131   -0.51 9  151 260 
 PTB  HZ I        2239 30.55         8.5 0.18            131            151 260 
 SPBC HE ES       2239 31.80                             129    0.10 9  163 221 
 SPBC HZ I        2239 38.99         5.6 0.09            130            163 221 
 ZAR  HZ EP       2239 14.03                             122    0.08 8  208 293 
 ZAR  HN ES       2239 39.79                             122    0.22 8  208 293 
 ZAR  HZ I        2239 48.06         4.4 0.38            123            208 293 
 NOR  HE ES       2239 45.44                             118    0.61 8  236 236 
                                                                                
