 2014  614 2245 10.1 L   6.534 -73.608 95.1  RSN  5 0.5 1.5LRSN                1
 GAP=126        1.33       5.4     6.0 11.3  0.2733E+01  0.2948E+02  0.7904E+01E
 Epicentro: EL CARMEN DE CHUCURI - SANTANDER                                   3
 ACTION:UPD 14-07-01 22:54 OP:nd   STATUS:               ID:20140614224510 L   I
 OLDACT:DUP 14-06-15 09:40 OP:stll STATUS:               ID:20140614223818d    3
 2014-06-14-2238-17M.COL___262                                                 6
 STAT SP IPHASW D HRMM SECON CODA AMPLIT PERI AZIMU VELO AIN AR TRES W  DIS CAZ7
 BAR2 SZ EP       2245 24.05                             152   -0.6910 47.5  82 
 BAR2 SZ ES       2245 36.30                             152    0.1110 47.5  82 
 BAR2 SZ I        2245 37.99        15.0 0.74            106           47.5  82 
 BRR  HE ES       2245 37.99                             143    0.4110 64.4 350 
 PTB  HZ I        2245 27.14         5.9 0.20            107           93.8 270 
 PTB  HZ EP       2245 27.74                             132   -0.2710 93.8 270 
 PTB  HN ES       2245 41.11                             132   -0.8910 93.8 270 
 SPBC HZ EP       2245 30.17                             127    0.5010  110 208 
 SPBC HZ I        2245 32.31         5.8 0.20            102            110 208 
 SPBC HN ES       2245 45.37                             127    0.4210  110 208 
 ZAR  HZ EP       2245 36.25                             114   -0.13 9  174 308 
 ZAR  HN ES       2245 57.56                             114    0.66 9  174 308 
                                                                                
