 2013  314 2233 45.3 L   6.760 -73.133145.7  RSN  5 0.4 1.9LRSN                1
 GAP=140        0.98       5.2     5.1  7.2 -0.2488E+01  0.4517E+01  0.1408E+01E
 Epicentro: LOS SANTOS - SANTANDER                                             3
 ACTION:UPD 13-04-09 14:02 OP:ep   STATUS:               ID:20130314223345 L   I
 2013-03-14-2228-50M.COL___201                                                 6
 STAT SP IPHASW D HRMM SECON CODA AMPLIT PERI AZIMU VELO AIN AR TRES W  DIS CAZ7
 BAR2 SZ EP       2234  4.84                             172    0.0110 19.4 196 
 BAR2 SZ ES       2234 20.28                             172    0.2110 19.4 196 
 BAR2 SZ I        2234 22.61        20.4 0.22            173           19.4 196 
 BRR  HZ IP       2234  6.70                             151    0.0910 74.6 301 
 BRR  HN ES       2234 23.90                             151    0.6510 74.6 301 
 BRR  HN I        2234 25.76        15.7 0.34            152           74.6 301 
 PAM  SZ IP     D 2234  7.86                             150    0.2210 80.0  37 
 PAM  SN ES       2234 24.45                             150   -0.6310 80.0  37 
 RUS  HZ EP       2234  8.92                             145    0.2210 96.1 177 
 RUS  HN ES       2234 26.88                             145   -0.1010 96.1 177 
 PTB  HZ EP       2234 12.14                             132   -0.15 9  148 261 
 PTB  HN ES       2234 32.75                             132   -0.61 9  148 261 
                                                                                
