 2016  214 2350 49.7 L   6.963 -73.137147.5  RSN  4 0.2 1.3LRSN                1
 GAP=128        0.49       2.8     2.4  5.4  0.1197E+00  0.4537E+01  0.1646E+01E
 Epicentro: PIEDECUESTA - SANTANDER                                            3
 ACTION:UPD 16-03-04 21:26 OP:rebc STATUS:               ID:20160214235049 L   I
 OLDACT:REG 16-02-15 04:55 OP:cara STATUS:               ID:20160214234748     3
 2016-02-14-2347-48M.COL___296                                                 6
 STAT SP IPHASW D HRMM SECON CODA AMPLIT PERI AZIMU VELO AIN AR TRES W  DIS CAZ7
 PAM  EZ EP       2351 11.33                             156   -0.0410 63.8  49 
 PAM  EN ES       2351 28.23                             156   -0.0310 63.8  49 
 PAM  EZ I        2351 30.29         7.8 0.64            158           63.8  49 
 RUS  HZ EP       2351 15.22                             139    0.2310  119 177 
 RUS  HN ES       2351 34.72                             139    0.0110  119 177 
 RUS  HZ I        2351 36.15         1.2 0.26            142            119 177 
 PTB  HZ EP       2351 17.03                             131   -0.29 9  153 252 
 PTB  HN ES       2351 38.73                             131   -0.12 9  153 252 
 PTB  HZ I        2351 40.70         2.8 0.26            133            153 252 
 ZAR  HN ES       2351 46.99                             123    0.26 9  199 287 
                                                                                
