 2014 1114 2155 42.0 L   6.777 -73.174147.7  RSN  8 0.4 2.0LRSN                1
 GAP=134        1.09       4.4     5.4  6.9 -0.6204E+01  0.4980E+01  0.7953E+01E
 Epicentro: LOS SANTOS - SANTANDER                                             3
 ACTION:UPD 14-12-19 15:43 OP:nd   STATUS:               ID:20141114215542 L   I
 OLDACT:REG 14-11-15 06:05 OP:carl STATUS:               ID:20141114214747     3
 2014-11-14-2147-47M.COL___295                                                 6
 STAT SP IPHASW D HRMM SECON CODA AMPLIT PERI AZIMU VELO AIN AR TRES W  DIS CAZ7
 BAR2 SZ EP       2156  2.03                             172    0.1710 20.5 183 
 BAR2 SZ ES       2156 17.35                             172    0.0410 20.5 183 
 BAR2 SZ I        2156 18.54        33.7 0.22            170           20.5 183 
 BRR  HZ EP       2156  3.86                             153    0.5310 69.8 302 
 BRR  HN ES       2156 20.71                             153    0.7810 69.8 302 
 PAM  SZ IP     C 2156  4.69                             150   -0.0110 81.3  40 
 PAM  SN ES       2156 21.80                             150   -0.5810 81.3  40 
 PAM  SZ I        2156 24.15         9.2 0.52            153           81.3  40 
 RUS  HZ EP       2156  5.98                             145    0.1510 98.4 174 
 RUS  HN ES       2156 24.45                             145    0.0710 98.4 174 
 RUS  HZ I        2156 25.80        16.8 0.24            146           98.4 174 
 PTB  HZ EP       2156  8.66                             133   -0.20 9  144 260 
 PTB  HN ES       2156 29.22                             133   -0.55 9  144 260 
 PTB  HZ I        2156 35.36         9.1 0.30            133            144 260 
 SPBC HZ EP       2156  9.67                             130   -0.66 9  159 219 
 SPBC HN ES       2156 31.85                             130   -0.54 9  159 219 
 SPBC HZ I        2156 35.57        24.7 0.26            130            159 219 
 CHI  HN ES       2156 49.16                             118    0.44 8  245 195 
 PRA  HZ EP       2156 35.46                             107    0.26 6  388 209 
 PRA  HN ES       2157 17.08                             107    0.42 6  388 209 
 PRA  HZ I        2157 23.98         4.2 0.40            108            388 209 
                                                                                
