 2012 1114 2159  7.1 L   6.865 -73.319123.1  RSN 11 0.4 2.1LRSN                1
 GAP=101        0.84       2.9     3.7  5.3  0.1350E+00  0.6109E+01  0.2422E+00E
 Epicentro: BETULIA - SANTANDER                                                3
 ACTION:UPD 12-12-05 15:33 OP:}ep  STATUS:               ID:20121114215907 L   I
 2012-11-14-2157-39M.COL___204                                                 6
 STAT SP IPHASW D HRMM SECON CODA AMPLIT PERI AZIMU VELO AIN AR TRES W  DIS CAZ7
 GIR2 SZ IP     C 2159 24.14                             167    0.1310 27.4  30 
 GIR2 SZ ES   1   2159 37.16                             167   -0.01 7 27.4  30 
 BAR2 SZ EP       2159 24.55                             164    0.2010 33.8 153 
 BAR2 SZ ES   1   2159 37.28                             164   -0.50 7 33.8 153 
 BAR2 SZ I        2159 38.84       302.8 0.22                          33.8 153 
 BRR  HZ EP       2159 24.99                             156    0.2710 51.0 302 
 BRR  HN ES   1   2159 38.24                             156   -0.20 7 51.0 302 
 BRR  HZ I        2159 39.37        36.0 0.12                          51.0 302 
 PAM  SZ EP       2159 27.63                             143    0.0110 86.3  53 
 PAM  SN ES   1   2159 44.13                             143    0.53 7 86.3  53 
 PAM  SZ I        2159 46.79        11.6 0.16                          86.3  53 
 RUS  HZ EP   1   2159 29.51                             136   -0.06 7  111 166 
 RUS  HN ES   1   2159 47.08                             136    0.01 7  111 166 
 RUS  HZ I        2159 49.84         9.9 0.22                           111 166 
 PTB  HZ EP       2159 29.88                             130   -0.8510  131 254 
 PTB  HE ES   1   2159 49.40                             130    0.28 7  131 254 
 PTB  HZ I        2159 51.80        23.0 0.34                           131 254 
 OCA  HZ EP   1   2159 32.66                             125   -0.30 7  152   0 
 OCA  HN ES   1   2159 52.46                             125   -0.63 7  152   0 
 ZAR  HZ EP   1   2159 36.52                             120    0.50 7  184 292 
 ZAR  HN ES   1   2159 59.02                             120    0.48 7  184 292 
 ZAR  HZ I        22 0  1.60        13.0 0.38                           184 292 
 SML  HZ EP   1   2159 40.38                             114   -0.64 6  230 339 
 SML  HE ES   1   22 0  7.98                             114    0.54 6  230 339 
 CHI  HZ EP   1   2159 44.47                             112    0.47 6  251 190 
 CHI  HN ES   1   22 0 12.77                             112    0.02 6  251 190 
 CHI  HZ I        22 0 21.71         3.6 0.50                           251 190 
 HEL  HZ EP   1   2159 44.53                             111    0.12 6  255 253 
 HEL  HZ I        22 0 19.64         5.4 0.22                           255 253 
                                                                                
