 2017 1214 2039 49.8 L   6.807 -73.167144.9  RSN 13 0.5 2.1LRSN                1
 GAP= 64        0.89       3.0     3.0  6.3 -0.1452E+01  0.1729E+01  0.6906E+01E
 Epicentro: LOS SANTOS - SANTANDER                                             3
 ACTION:UPD 18-01-04 13:20 OP:rebc STATUS:               ID:20171214203949 L   I
 OLDACT:UP  17-12-15 07:24 OP:mg   STATUS:               ID:20171214203739     3
 OLDACT:UP  17-12-15 07:23 OP:mg   STATUS:               ID:20171214203739     3
 OLDACT:UP  17-12-15 07:22 OP:mg   STATUS:               ID:20171214203739     3
 OLDACT:REG 17-12-15 06:49 OP:mg   STATUS:               ID:20171214203739     3
 2017-12-14-2038-00M.COL___482                                                 6
 STAT SP IPHASW D HRMM SECON CODA AMPLIT PERI AZIMU VELO AIN AR TRES W  DIS CAZ7
 BAR2 EZ EP       2040  9.22                             170   -0.1410 23.8 184 
 BAR2 EZ ES   2   2040 24.46                             170   -0.14 5 23.8 184 
 BAR2 EZ I        2040 25.39        26.7 0.26            169           23.8 184 
 PAM  EZ EP       2040 12.10                             150    0.0910 78.3  41 
 PAM  EN ES       2040 29.30                             150   -0.0110 78.3  41 
 PAM  EZ I        2040 31.34        21.9 0.44            153           78.3  41 
 PTB  HZ EP       2040 15.82                             132   -0.71 9  146 258 
 PTB  HN ES       2040 36.96                             132   -0.39 9  146 258 
 PTB  HZ I        2040 40.55         9.3 0.16            131            146 258 
 TAM  HZ EP       2040 17.59                             130   -0.08 9  158 105 
 OCA  HN ES       2040 40.41                             130    0.48 9  159 354 
 OCA  HZ I        2040 44.30        25.9 0.17            130            159 354 
 SPBC HZ EP       2040 18.15                             129   -0.03 9  162 218 
 SPBC HN ES       2040 40.06                             129   -0.23 9  162 218 
 SPBC HZ I        2040 46.33        16.7 0.22            129            162 218 
 YPLC HZ EP       2040 19.42                             126   -0.32 9  179 151 
 YPLC HN ES   1   2040 43.67                             126    0.60 7  179 151 
 YPLC HZ I        2040 44.54        20.7 0.26            128            179 151 
 ZAR  HN ES       2040 47.23                             122    0.21 9  202 292 
 ZAR  HZ I        2040 56.96        10.0 0.24            122            202 292 
 NOR  HZ EP       2040 25.67                             118    0.32 8  233 234 
 NOR  HN ES       2040 53.34                             118    0.29 8  233 234 
 NOR  HZ I        2041  1.05         9.2 0.16            118            233 234 
 GUY2CHZ EP   2   2040 34.52                             112    1.29 4  300 234 
 GUY2CHN ES   1   2041  7.43                             112    0.35 5  300 234 
 GUY2CHZ I        2041 15.30         5.0 0.26                           300 234 
 PRA  HZ EP       2040 42.41                             106   -0.85 6  391 209 
 PRA  HN ES       2041 25.51                             106    0.58 6  391 209 
 PRA  HZ I        2041 33.40         4.6 0.34            107            391 209 
 ORTC HZ EP       2040 44.25                             106    0.62 6  395 216 
 ORTC HE ES   2   2041 26.85                             106    1.26 3  395 216 
 ORTC HZ I        2041 32.18         2.5 0.32            107            395 216 
 SJC  HZ EP   2   2040 43.33                             106   -1.81 3  407 327 
 SJC  HN ES   1   2041 28.36                             106    0.09 4  407 327 
 SJC  HZ I        2041 36.55         1.6 0.37            106            407 327 
                                                                                
