 2012  714 2050  3.3 L   6.692 -73.219149.0  RSN  5 0.2 1.6LRSN                1
 GAP=210        0.55       5.6     5.1  5.9  0.1744E+02  0.5151E+01  0.1011E+01E
 Epicentro: VILLANUEVA - SANTANDER                                             3
 ACTION:UPD 12-08-14 11:44 OP:ep   STATUS:               ID:20120714205003 L   I
 2012-07-14-2050-00M.COL___197                                                 6
 STAT SP IPHASW D HRMM SECON CODA AMPLIT PERI AZIMU VELO AIN AR TRES W  DIS CAZ7
 BAR2 SZ EP   1   2050 22.87                             175    -0.3 7   12 160 
 BAR2 SZ ES   1   2050 38.55                             175    -0.1 7   12 160 
 BAR2 SZ I        2050 39.15         9.8 0.19            172             12 160 
 BRR  HZ EP   1   2050 25.27                             153     0.5 7   71 310 
 BRR  HN ES   1   2050 41.47                             153    -0.1 7   71 310 
 RUS  HZ EP   1   2050 26.61                             148     0.0 7   90 170 
 RUS  HE ES   1   2050 45.06                             148     0.2 7   90 170 
 RUS  HZ I        2050 46.67         5.8 0.39            146             90 170 
 PTB  HZ EP   1   2050 29.42                             135    -0.3 7  138 263 
 PTB  HN ES   1   2050 50.21                             135     0.0 7  138 263 
 PTB  HZ I        2050 51.79         4.8 0.18            134            138 263 
 ZAR  HN ES   1   2051  1.11                             123     0.1 6  202 296 
