 2016  314 2211 40.2 L   6.777 -73.180148.2  RSN  8 0.3 1.8LRSN                1
 GAP=133        0.73       3.0     3.3  5.1 -0.8635E+00  0.4346E+01  0.2391E+01E
 Epicentro: LOS SANTOS - SANTANDER                                             3
 ACTION:UPD 16-05-13 21:24 OP:cam  STATUS:               ID:20160314221140 L   I
 OLDACT:UP  16-03-15 09:07 OP:ar   STATUS:               ID:20160314220747     3
 OLDACT:REG 16-03-15 04:36 OP:ar   STATUS:               ID:20160314220747     3
 2016-03-14-2207-47M.COL___301                                                 6
 STAT SP IPHASW D HRMM SECON CODA AMPLIT PERI AZIMU VELO AIN AR TRES W  DIS CAZ7
 BAR2 EZ ES       2212 15.75                             172    0.2110 20.4 181 
 BAR2 EZ I        2212 15.95        17.7 0.18            171           20.4 181 
 PAM  EZ EP       2212  3.12                             150    0.2010 81.8  40 
 PAM  EN ES       2212 20.36                             150   -0.2910 81.8  40 
 PAM  EZ I        2212 22.45         8.1 0.54            153           81.8  40 
 RUS  HZ EP       2212  3.79                             145   -0.2210 98.4 174 
 RUS  HN ES       2212 22.74                             145    0.1410 98.4 174 
 RUS  HZ I        2212 23.25        11.2 0.24            146           98.4 174 
 PTB  HZ EP       2212  6.74                             133   -0.23 9  144 260 
 PTB  HN ES       2212 27.78                             133   -0.08 9  144 260 
 PTB  HZ I        2212 29.67         9.1 0.20            132            144 260 
 SPBC HZ EP       2212  8.91                             130    0.45 9  159 218 
 SPBC HN ES       2212 30.73                             130    0.22 9  159 218 
 SPBC HZ I        2212 38.42        11.8 0.24            130            159 218 
 ZAR  HN ES       2212 37.65                             123   -0.10 9  202 293 
 ZAR  HZ I        2212 44.42         7.5 0.46            123            202 293 
 CHI  HZ EP       2212 17.90                             118    0.26 8  245 194 
 CHI  HN ES       2212 46.18                             118   -0.68 8  245 194 
 CHI  HZ I        2212 51.00         2.3 0.36            118            245 194 
 GUY2CHZ EP   4   2212 25.99                             113    2.60 0  297 235 
 GUY2CHN ES   4   2213  1.50                             113    4.42 0  297 235 
 GUY2CHZ I        2213  6.08         4.1 0.38                           297 235 
                                                                                
