 2016 1114 2202 10.6 L   6.654 -73.141146.4  RSN  5 0.3 1.4LRSN                1
 GAP=181        0.67       6.8     3.7  5.6  0.2282E+01  0.4400E+00 -0.4474E+01E
 Epicentro: VILLANUEVA - SANTANDER                                             3
 ACTION:UPD 17-10-26 21:08 OP:lp   STATUS:               ID:20161114220210 L   I
 OLDACT:REG 16-11-15 03:23 OP:and  STATUS:               ID:20161114215746     3
 2016-11-14-2158-00M.COL___341                                                 6
 STAT SP IPHASW D HRMM SECON CODA AMPLIT PERI AZIMU VELO AIN AR TRES W  DIS CAZ7
 BAR2 EZ EP       22 2 30.61                             177    0.4810 8.20 213 
 BAR2 EZ ES       22 2 45.36                             177    0.0210 8.20 213 
 BAR2 EZ I        22 2 46.36         7.4 0.16            176           8.20 213 
 BRR  HZ EP       22 2 32.35                             150   -0.0510 80.5 309 
 BRR  HN ES       22 2 49.27                             150   -0.1110 80.5 309 
 BRR  HZ I        22 2 52.93         6.3 0.30            149           80.5 309 
 PAM  EZ EP       22 2 33.48                             147   -0.2410 90.2  33 
 PAM  EN ES   4   22 2 50.50                             147   -1.23 0 90.2  33 
 PAM  EZ I        22 2 51.90         2.9 0.28            149           90.2  33 
 PTB  HZ EP       22 2 37.29                             133   -0.20 9  146 265 
 PTB  HN ES       22 2 58.22                             133   -0.21 9  146 265 
 PTB  HZ I        22 3  1.05         3.7 0.12            133            146 265 
 ZAR  HZ ES       22 3 10.10                             122    0.35 8  211 296 
                                                                                
