 2012  514 2322 28.2 L   6.825 -73.107144.9  RSN 10 0.4 2.2LRSN                1
 GAP=140        0.70       3.4     4.0  5.3 -0.1137E-01  0.8383E+01  0.5254E+01E
 Epicentro: LOS SANTOS - SANTANDER                                             3
 ACTION:UP  12-07-05 12:05 OP:pat  STATUS:               ID:20120514232228 L   I
 2012-05-14-2320-00M.COL___195                                                 6
 STAT SP IPHASW D HRMM SECON CODA AMPLIT PERI AZIMU VELO SNR AR TRES W  DIS CAZ7
 BAR2 SZ EP   1   2322 47.40                             169    -0.4 7   27 198 
 BAR2 SZ ES   1   2323  2.97                             169    -0.1 7   27 198 
 BAR2 SZ I        2323  3.62        39.4 0.32                            27 198 
 PAM  SZ EP   1   2322 50.16                             152     0.1 7   73  38 
 PAM  SN ES   1   2323  7.26                             152     0.2 7   73  38 
 BRR  HZ EP   1   2322 49.22                             151    -0.2 7   74 295 
 BRR  HE ES   1   2323  6.23                             151     0.3 7   74 295 
 BRR  HZ I        2323  9.24        28.7 0.17                            74 295 
 RUS  HZ EP   1   2322 51.79                             143    -0.3 7  103 179 
 RUS  HN ES   1   2323 11.07                             143     0.4 7  103 179 
 RUS  HZ I        2323 11.88        11.4 0.41                           103 179 
 ZAR  HZ EP   1   2323  1.09                             122     0.2 6  207 291 
 ZAR  HN ES   1   2323 26.04                             122    -0.4 6  207 291 
 ZAR  HZ I        2323 30.63        36.5 0.43                           207 291 
 NOR  SZ EP   1   2323  3.93                             118    -0.5 6  240 235 
 NOR  SN ES   1   2323 32.46                             118    -0.3 6  240 235 
 CHI  HZ EP   1   2323  6.23                             116    -0.1 6  252 196 
 CHI  HN ES   1   2323 35.74                             116    -0.2 6  252 196 
 CHI  HZ I        2323 43.60         5.2 0.37                           252 196 
 HEL  HZ EP   1   2323  9.63                             114     0.7 6  277 255 
 HEL  HN ES   1   2323 40.70                             114     0.0 6  277 255 
 HEL  HZ I        2323 46.16         6.5 0.40                           277 255 
 RREF HZ EP   1   2323 15.60                             110     0.7 5  327 230 
 RREF HN ES   2   2323 52.28                             110     1.0 3  327 230 
 RREF HZ I        2324  0.80         8.6 0.30                           327 230 
 PRA  HZ EP   1   2323 22.44                             106     0.2 4  397 210 
 PRA  HN ES   1   2324  4.45                             106     0.1 4  397 210 
                                                                                
