 2017 1114 2223 24.0 L   6.812 -73.140135.3  RSN  4 0.4 1.2LRSN                1
 GAP=137        0.85       4.6     4.4  8.9 -0.3071E+01 -0.1761E+01  0.9913E+01E
 Epicentro: LOS SANTOS - SANTANDER                                             3
 ACTION:UPD 17-12-12 19:55 OP:rebc STATUS:               ID:20171114222324 L   I
 OLDACT:REG 17-11-15 05:51 OP:dnl  STATUS:               ID:20171114221740     3
 2017-11-14-2218-00M.COL___459                                                 6
 STAT SP IPHASW D HRMM SECON CODA AMPLIT PERI AZIMU VELO AIN AR TRES W  DIS CAZ7
 BRR  HZ EP   2   2223 44.85                             151    0.79 5 71.1 297 
 BRR  HE ES       2224  0.06                             151    0.3910 71.1 297 
 BRR  HZ I        2224  6.71         9.4 0.42            153           71.1 297 
 PAM  EZ EP     C 2223 45.30                             149    0.2410 75.9  40 
 PAM  EN ES       2224  1.01                             149   -0.4510 75.9  40 
 PAM  EZ I        2224  9.84         2.1 0.46            151           75.9  40 
 RUS  HZ EP       2223 46.75                             141   -0.1210  102 176 
 RUS  HN ES       2224  4.88                             141    0.1910  102 176 
 RUS  HZ I        2224  5.89         1.7 0.18            151            102 176 
 PTB  HZ EP   2   2223 49.91                             129   -0.34 5  149 258 
 PTB  HN ES       2224 10.27                             129   -0.43 9  149 258 
 PTB  HZ I        2224 13.46         1.3 0.20            136            149 258 
                                                                                
