 2011 1114 2258 41.7 L   6.766 -73.172128.4  RSN  4 0.2 1.6LRSN                1
 GAP=135        0.42       2.6     3.5  4.2  0.1314E+01 -0.1667E+01  0.6158E+00E
 Epicentro: LOS SANTOS - SANTANDER                                             3
 ACTION:UPD 12-07-13 16:10 OP:ep   STATUS:               ID:20111114225841 L   I
 2011-11-14-2256-17S.COL___179                                                 6
 STAT SP IPHASW D HRMM SECON CODA AMPLIT PERI AZIMU VELO AIN AR TRES W  DIS CAZ7
 BAR2 SZ EP       2258 59.29                             171    0.0810 19.3 183 
 BAR2 SZ ES   1   2259 13.13                             171    0.30 7 19.3 183 
 BAR2 SZ I        2259 15.40         9.7 0.35                          19.3 183 
 BRR  HZ EP       2259  1.12                             149    0.1110 70.6 302 
 BRR  HE ES       2259 15.88                             149   -0.1610 70.6 302 
 BRR  HZ I        2259 17.03        10.0 0.31                          70.6 302 
 PAM  SZ EP   1   2259  2.35                             146   -0.12 7 82.1  39 
 PAM  SE ES   1   2259 18.59                             146   -0.04 7 82.1  39 
 RUS  HZ EP   1   2259  3.61                             141    0.05 7 97.1 174 
 RUS  HE ES   1   2259 20.34                             141   -0.24 7 97.1 174 
                                                                                
