 2010  914 2233 17.1 L   6.772 -73.120144.2  RSN  4 0.2 1.9LRSN                1
 GAP=238        0.50       5.0     7.9  6.3  0.1415E+02  0.1027E+02 -0.4164E+01E
 Epicentro: LOS SANTOS - SANTANDER                                             3
 ACTION:UP  11-02-18 11:02 OP:tino STATUS:               ID:20100914223317 L   I
 2010-09-14-2230-14S.COL___113                                                 6
 STAT SP IPHASW D HRMM SECON CODA AMPLIT PERI AZIMU VELO SNR AR TRES W  DIS CAZ7
 BAR2 SZ EP       2233 36.50                             171     0.010   21 199 
 BAR2 SZ ES   1   2233 51.26                             171    -0.3 7   21 199 
 BAR2 SZ I        2233 52.57        21.0 0.32                            21 199 
 BRR  HZ EP       2233 38.30                             151     0.010   75 300 
 BRR  HZ I        2233 38.45        33.0 0.13                            75 300 
 BRR  HE ES   2   2233 55.11                             151     0.3 5   75 300 
 RUS  HZ EP   2   2233 40.33                             144    -0.1 5   97 178 
 RUS  HN ES   1   2233 58.87                             144     0.2 7   97 178 
 RUS  HZ I        2234  0.12         6.3 0.21                            97 178 
 RREF HN ES   2   2234 38.87                             110    -0.2 3  322 230 
 RREF HZ I        2234 48.59         2.8 0.30                           322 230 
                                                                                
