 2017  514 2001 41.9 L   6.785 -73.143151.4  RSN  7 0.5 2.0LRSN                1
 GAP=157        1.21       5.2     5.6  9.1 -0.7755E+01  0.1442E+01  0.1803E+02E
 Epicentro: LOS SANTOS - SANTANDER                                             3
 ACTION:UPD 17-06-16 13:36 OP:jn   STATUS:               ID:20170514200141 L   I
 OLDACT:UP  17-05-15 21:47 OP:nlst STATUS:               ID:20170514200141 L   3
 OLDACT:UP  17-05-15 03:35 OP:ar   STATUS:               ID:20170514195746     3
 OLDACT:REG 17-05-15 03:17 OP:ar   STATUS:               ID:20170514195746     3
 2017-05-14-1958-00M.COL___359                                                 6
 STAT SP IPHASW D HRMM SECON CODA AMPLIT PERI AZIMU VELO AIN AR TRES W  DIS CAZ7
 BRR  HZ EP       20 2  3.74                             153   -0.0210 72.3 300 
 BRR  HE ES       20 2 21.67                             153    0.8910 72.3 300 
 BRR  HZ I        20 2 25.91        13.9 0.18            155           72.3 300 
 PAM  EZ EP       20 2  4.74                             151   -0.0810 78.4  39 
 PAM  EN ES       20 2 22.30                             151   -0.3710 78.4  39 
 PAM  EZ I        20 2 24.65         6.3 0.58            160           78.4  39 
 PTB  HZ EP       20 2  8.69                             133   -0.68 9  148 259 
 PTB  HN ES       20 2 29.95                             133   -0.83 9  148 259 
 PTB  HZ I        20 2 37.21        11.2 0.44            136            148 259 
 SPBC HZ EP       20 2 10.92                             130    0.14 9  162 219 
 SPBC HN ES       20 2 33.74                             130    0.47 9  162 219 
 SPBC HZ I        20 2 39.72        15.8 0.20            133            162 219 
 ZAR  HZ EP       20 2 15.64                             123    0.79 9  205 293 
 ZAR  HE ES       20 2 40.19                             123   -0.34 9  205 293 
 ZAR  HZ I        20 2 45.44        12.9 0.60            127            205 293 
 NOR  HZ EP       20 2 18.07                             120    0.14 8  234 235 
 NOR  HE ES       20 2 45.99                             120   -0.01 8  234 235 
 NOR  HZ I        20 2 52.73         8.0 0.16            123            234 235 
 CHI  HZ EP       20 2 20.12                             118    0.32 8  247 195 
 CHI  HE ES       20 2 48.98                             118   -0.35 8  247 195 
 CHI  HZ I        20 2 54.80         4.9 0.32            122            247 195 
                                                                                
