 2013  414 2253 35.6 L   6.767 -73.146152.3  RSN  8 0.5 1.8LRSN                1
 GAP=138        0.87       3.9     6.5  7.7 -0.6567E+00  0.1553E+02 -0.1341E+01E
 Epicentro: LOS SANTOS - SANTANDER                                             3
 ACTION:UPD 13-05-22 14:38 OP:EP   STATUS:               ID:20130414225335 L   I
 2013-04-14-2250-00M.COL___244                                                 6
 STAT SP IPHASW D HRMM SECON CODA AMPLIT PERI AZIMU VELO AIN AR TRES W  DIS CAZ7
 BAR2 SZ EP   1   2253 56.05                             172    0.12 7 19.7 192 
 BAR2 SZ ES   1   2254 11.49                             172   -0.31 7 19.7 192 
 BAR2 SZ I        2254 12.86        17.2 0.28            168           19.7 192 
 BRR  HZ EP   1   2253 58.39                             153    0.85 7 73.0 301 
 BRR  HE ES   1   2254 15.50                             153    0.84 7 73.0 301 
 BRR  HZ I        2254 20.36         9.2 0.42            149           73.0 301 
 PAM  SN ES   1   2254 16.54                             151   -0.12 7 80.2  38 
 RUS  HZ EP   1   2253 59.88                             146    0.15 7 96.9 176 
 RUS  HN ES   1   2254 18.41                             146   -0.15 7 96.9 176 
 RUS  HZ I        2254 19.76         7.6 0.34            147           96.9 176 
 PTB  HZ EP   1   2254  2.86                             134   -0.17 7  147 260 
 PTB  HN ES   1   2254 23.80                             134   -0.63 7  147 260 
 PTB  HZ I        2254 27.80         4.8 0.14            131            147 260 
 OCA  HN ES   1   2254 26.94                             130   -0.54 7  164 353 
 SML  HZ EP   1   2254 12.49                             118   -0.45 6  247 336 
 SML  HN ES   1   2254 42.16                             118    0.09 6  247 336 
 SML  HZ I        2254 46.52         8.5 0.10            119            247 336 
 PRA  HN ES   1   2255 10.58                             108   -0.02 4  389 210 
 PRA  HZ I        2255 18.17         1.5 0.28            108            389 210 
                                                                                
