 2013  214 2210 44.1 L   6.774 -73.130147.2  RSN  5 0.2 1.8LRSN                1
 GAP=140        0.54       3.8     3.6  5.7 -0.5031E+00 -0.1128E+00  0.4171E+01E
 Epicentro: LOS SANTOS - SANTANDER                                             3
 ACTION:UPD 13-03-12 09:33 OP:ep   STATUS:               ID:20130214221044 L   I
 2013-02-14-2210-00M.COL___241                                                 6
 STAT SP IPHASW D HRMM SECON CODA AMPLIT PERI AZIMU VELO AIN AR TRES W  DIS CAZ7
 BAR2 SZ EP   1   2211  3.90                             172    0.00 7 20.9 196 
 BAR2 SZ I        2211 20.42        15.6 0.30            170           20.9 196 
 BRR  HZ EP       2211  5.72                             152    0.1110 74.1 300 
 BRR  HE ES       2211 22.61                             152    0.2510 74.1 300 
 BRR  HE I        2211 27.15        20.6 0.37            153           74.1 300 
 PAM  SZ EP   1   2211  6.75                             151    0.17 7 78.6  37 
 PAM  SZ I        2211  7.04         5.5 0.20            150           78.6  37 
 PAM  SN ES   1   2211 23.69                             151   -0.40 7 78.6  37 
 RUS  HZ EP   1   2211  8.03                             145    0.21 7 97.6 177 
 RUS  HN ES   1   2211 26.24                             145   -0.06 7 97.6 177 
 RUS  HN I        2211 28.29         7.4 0.24            143           97.6 177 
 PTB  HZ EP   1   2211 10.93                             132   -0.40 7  149 260 
 PTB  HE ES   1   2211 32.30                             132   -0.24 7  149 260 
                                                                                
