 2016  414 2250 48.1 L   6.761 -73.145146.1  RSN  8 0.4 1.8LRSN                1
 GAP=138        0.86       4.2     4.0  7.2 -0.4557E+01  0.1229E+02 -0.2965E+01E
 Epicentro: LOS SANTOS - SANTANDER                                             3
 ACTION:UPD 16-05-05 14:21 OP:rebc STATUS:               ID:20160414225048 L   I
 OLDACT:REG 16-04-15 03:38 OP:dnl  STATUS:               ID:20160414224746     3
 2016-04-14-2247-46M.COL___322                                                 6
 STAT SP IPHASW D HRMM SECON CODA AMPLIT PERI AZIMU VELO AIN AR TRES W  DIS CAZ7
 BAR2 EZ EP       2251  7.80                             172    0.0710 19.1 193 
 BAR2 EZ ES       2251 23.05                             172    0.0410 19.1 193 
 BAR2 EZ I        2251 26.91         8.6 0.32            172           19.1 193 
 PAM  EZ EP     D 2251 10.77                             150    0.1910 80.7  38 
 PAM  EN ES       2251 27.55                             150   -0.5410 80.7  38 
 PAM  EZ I        2251 30.05         9.2 0.30            153           80.7  38 
 RUS  HZ EP   2   2251 12.02                             145    0.40 5 96.3 176 
 RUS  HN ES       2251 30.26                             145    0.3310 96.3 176 
 RUS  HZ I        2251 31.21         5.1 0.24            149           96.3 176 
 PTB  HZ EP   3   2251 14.96                             132   -0.11 2  147 260 
 PTB  HN ES       2251 36.23                             132    0.15 9  147 260 
 PTB  HZ I        2251 38.41         9.1 0.15            133            147 260 
 SPBC HZ EP   2   2251 15.73                             130   -0.62 5  160 220 
 SPBC HN ES   2   2251 39.06                             130    0.70 5  160 220 
 SPBC HZ I        2251 41.59         7.7 0.08            132            160 220 
 ZAR  HZ EP   2   2251 21.05                             122    0.26 4  206 293 
 ZAR  HN ES       2251 46.69                             122    0.44 8  206 293 
 ZAR  HZ I        2251 51.77         8.4 0.28            124            206 293 
 NOR  HZ EP   2   2251 23.40                             119   -0.23 4  232 235 
 NOR  HE ES       2251 50.34                             119   -0.98 8  232 235 
 NOR  HZ I        2251 54.60        11.6 0.16            121            232 235 
 GUY2CHZ EP   2   2251 32.01                             113    0.52 4  299 235 
 GUY2CHN ES   2   2252  4.74                             113   -0.57 4  299 235 
 GUY2CHZ I        2252 13.34         3.8 0.26                           299 235 
                                                                                
