 2013  714 2044 32.9 L   6.725 -73.189148.7  RSN  5 0.3 1.3LRSN                1
 GAP=174        0.79       7.0     5.5  6.9  0.1080E+02  0.2874E+01  0.1095E+01E
 Epicentro: VILLANUEVA - SANTANDER                                             3
 ACTION:UPD 13-08-12 10:37 OP:ep   STATUS:               ID:20130714204432 L   I
 OLDACT:REG 13-07-14 21:21 OP:jn   STATUS:               ID:20130714203959     3
 2013-07-14-2039-59M.COL___267                                                 6
 STAT SP IPHASW D HRMM SECON CODA AMPLIT PERI AZIMU VELO AIN AR TRES W  DIS CAZ7
 BAR2 SZ EP   1   2044 52.16                             174   -0.54 7 14.7 177 
 BAR2 SZ ES       2045  7.88                             174   -0.3010 14.7 177 
 BAR2 SZ I        2045 10.46         6.7 0.28            171           14.7 177 
 GIR2 SZ EP       2044 53.06                             164   -0.0510 39.2 359 
 BRR  HN ES   1   2045 11.77                             153    0.66 7 71.6 306 
 RUS  HZ EP       2044 56.74                             147    0.3910 92.7 173 
 RUS  HN ES   1   2045 14.81                             147    0.12 7 92.7 173 
 RUS  HZ I        2045 16.44         1.7 0.18            147           92.7 173 
 PTB  HZ EP       2044 59.48                             134   -0.04 9  142 262 
 PTB  HN ES       2045 20.17                             134   -0.15 9  142 262 
 PTB  HZ I        2045 23.69         2.4 0.12            134            142 262 
                                                                                
