 2016  414 2139 30.0 L   6.825 -73.151146.9  RSN 23 0.4 2.8LRSN                1
 GAP= 70        0.80       2.2     2.3  3.9 -0.6864E+00  0.2020E+01  0.3914E+00E
 Epicentro: LOS SANTOS - SANTANDER                                             3
 ACTION:UPD 16-05-05 14:21 OP:rebc STATUS:               ID:20160414213930 L   I
 OLDACT:REG 16-04-15 03:37 OP:dnl  STATUS:               ID:20160414213742     3
 2016-04-14-2137-42M.COL___325                                                 6
 STAT SP IPHASW D HRMM SECON CODA AMPLIT PERI AZIMU VELO AIN AR TRES W  DIS CAZ7
 BAR2 EZ EP       2139 49.87                             170    0.0710 26.0 188 
 BAR2 EZ ES       2140  5.17                             170   -0.0910 26.0 188 
 BAR2 EZ I        2140  6.55       136.7 0.16            167           26.0 188 
 PAM  EZ IP     D 2139 52.76                             151    0.5610 75.6  41 
 PAM  EN ES       2140  9.79                             151    0.2510 75.6  41 
 PAM  EZ I        2140 12.14       146.9 0.48            157           75.6  41 
 RUS  HZ EP     C 2139 53.82                             143   -0.2210  103 176 
 RUS  HE ES       2140 12.74                             143   -0.0710  103 176 
 RUS  HZ I        2140 13.88       101.5 0.28            145            103 176 
 PTB  HZ EP       2139 56.28                             132   -0.76 9  148 258 
 PTB  HN ES       2140 17.69                             132   -0.45 9  148 258 
 PTB  HZ I        2140 23.49        55.1 0.42            130            148 258 
 TAM  HZ EP     D 2139 58.32                             130    0.46 9  156 106 
 TAM  HN ES   2   2140 19.97                             130    0.36 5  156 106 
 OCA  HZ EP   2   2139 59.11                             130    1.01 5  157 353 
 OCA  HN ES       2140 19.73                             130   -0.32 9  157 353 
 OCA  HZ I        2140 24.87       114.8 0.38            132            157 353 
 SPBC HZ EP       2139 58.56                             129   -0.17 9  165 218 
 SPBC HN ES       2140 20.82                             129   -0.35 9  165 218 
 SPBC HZ I        2140 27.97        93.7 0.16            128            165 218 
 ZAR  HZ EP       2140  2.56                             123    0.23 9  202 291 
 ZAR  HN ES       2140 27.79                             123    0.22 9  202 291 
 ZAR  HZ I        2140 32.63        32.7 0.21            122            202 291 
 NOR  HZ EP       2140  5.94                             119    0.04 8  236 234 
 NOR  HE ES       2140 33.92                             119    0.00 8  236 234 
 NOR  HZ I        2140 41.32        61.1 0.22            118            236 234 
 CHI  HZ EP       2140  8.10                             117    0.09 8  251 195 
 CHI  HN ES       2140 37.72                             117    0.04 8  251 195 
 CHI  HZ I        2140 40.75        34.2 0.34            118            251 195 
 ROSC BZ EP   4   2140  9.79                             117    1.40 0  255 211 
 ROSC BN ES   4   2140 40.65                             117    2.30 0  255 211 
 ROSC BZ I        2140 48.19        46.6 0.35            117            255 211 
 HEL  HZ EP   2   2140 10.74                             115    0.48 4  272 255 
 HEL  HE ES       2140 42.62                             115    0.93 8  272 255 
 HEL  HZ I        2140 48.83        35.0 0.34            115            272 255 
 URE  HZ EP       2140 10.52                             114   -0.40 7  282 291 
 URE  HN ES   4   2140 41.23                             114   -1.64 0  282 291 
 URE  HZ I        2140 54.51        29.0 0.28            114            282 291 
 SOCV BZ EP       2140 12.73                             112   -0.22 7  300  57 
 SOCV BN ES   4   2140 44.54                             112   -1.93 0  300  57 
 GUY2CHZ EP   4   2140 14.99                             112    1.22 0  302 234 
 GUY2CHE ES   4   2140 49.52                             112    1.59 0  302 234 
 GUY2CHZ I        2140 56.16        36.5 0.34                           302 234 
 VIL  SZ EP       2140 13.29                             112   -0.45 7  306 191 
 VIL  SE ES       2140 48.10                             112    0.22 7  306 191 
 CBOC HZ EP   2   2140 17.78                             110    0.81 3  334 252 
 CBOC HN ES   2   2140 53.56                             110   -0.07 3  334 252 
 CBOC HZ I        2141  9.76        11.3 0.44            110            334 252 
 DBB  SZ EP       2140 17.40                             110   -0.01 7  339 274 
 DBB  SZ ES       2140 54.38                             110   -0.03 7  339 274 
 DBB  SZ I        2140 58.01        81.7 0.71            110            339 274 
 SDV  BZ EP   2   2140 18.53                             108   -1.37 3  359  51 
 SDV  BE ES   4   2140 56.72                             108   -2.12 0  359  51 
 ANIL HZ EP   4   2140 21.32                             108    1.31 0  359 224 
 ANIL HN ES   2   2140 59.26                             108    0.22 3  359 224 
 ANIL HZ I        2141  4.43        64.8 0.34            109            359 224 
 ORTC HZ EP   2   2140 24.29                             106    0.13 3  397 216 
 ORTC HN ES   2   2141  7.60                             106    1.18 3  397 216 
 ORTC HZ I        2141 13.80        25.1 0.52            107            397 216 
 SJC  HZ EP   2   2140 24.29                             106   -0.97 3  407 327 
 SJC  HN ES   4   2141  5.37                             106   -3.01 0  407 327 
 SJC  HZ I        2141  9.45        10.0 0.56            107            407 327 
 PAL  HZ EP   2   2140 25.64                             106    0.36 3  407 239 
 PAL  HN ES   2   2141  8.13                             106   -0.30 3  407 239 
 PAL  HZ I        2141 12.43        12.7 0.22            106            407 239 
                                                                                
