 2014  914 2238  3.0 L   6.588 -74.128  4.0  RSN 25 0.6 2.7LRSN                1
 GAP= 45        1.38       2.2     2.0  4.7 -0.9542E+00  0.6756E+00  0.1400E+01E
 Epicentro: PUERTO PARRA - SANTANDER                                           3
     127.0      47.0    -122.0  4.0  2.0  2.0  0.0  0.1           RSN FPFIT    F
 ACTION:UPD 14-10-03 23:04 OP:nd   STATUS:               ID:20140914223803 L   I
 OLDACT:UP  14-09-17 10:00 OP:MHER STATUS:               ID:20140914223803 L   3
 OLDACT:REG 14-09-15 04:37 OP:fm   STATUS:               ID:20140914222820     3
 2014-09-14-2228-20M.COL___293                                                 6
 STAT SP IPHASW D HRMM SECON CODA AMPLIT PERI AZIMU VELO AIN AR TRES W  DIS CAZ7
 PTB  HZ IP     D 2238  9.42                              47    0.1910 36.8 262 
 PTB  HN ES       2238 14.37                              47    0.3210 36.8 262 
 BRR  HZ IP     D 2238 15.04                              47    0.2710 73.5  39 
 BRR  HN ES       2238 24.33                              47    0.4110 73.5  39 
 BRR  HZ I        2238 25.24       536.5 0.12             47           73.5  39 
 SPBC HZ EP       2238 19.72                              47    0.2810  104 177 
 SPBC HE ES       2238 32.14                              47   -0.0910  104 177 
 SPBC HZ I        2238 36.86        94.6 0.40             47            104 177 
 BAR2 SZ IP     C 2238 19.65                              47   -0.0710  105  90 
 BAR2 SZ ES   1   2238 31.95                              47   -0.78 7  105  90 
 BAR2 SZ I        2238 37.26       179.0 0.22             47            105  90 
 ZAR  HZ EP       2238 22.92                              47   -0.2010  128 321 
 ZAR  HN ES       2238 38.12                              47   -0.6510  128 321 
 ZAR  HZ I        2238 38.93       272.5 0.22             47            128 321 
 RUS  HZ EP     D 2238 25.25                              47    0.07 9  139 124 
 RUS  HN ES       2238 42.16                              47   -0.29 9  139 124 
 RUS  HZ I        2238 44.89        85.5 0.24             47            139 124 
 NOR  HZ EP       2238 24.15                              47   -0.75 9  140 216 
 NOR  HN ES       2238 41.25                              47   -0.69 9  140 216 
 NOR  HZ I        2238 41.72       190.6 0.16             47            140 216 
 HEL  HZ EP     D 2238 27.94                              47   -0.50 9  161 254 
 HEL  HE ES       2238 47.11                              47   -1.13 9  161 254 
 HEL  HZ I        2238 48.65       183.8 0.18             47            161 254 
 PAM  SZ EP       2238 31.58                              47    0.42 9  178  62 
 PAM  SE ES       2238 52.45                              47   -0.65 9  178  62 
 ROSC BZ EP       2238 33.86                              37    0.77 9  194 186 
 ROSC BN ES   4   2238 57.35                              37    0.83 0  194 186 
 ROSC BZ I        2239  4.90        29.0 0.55             37            194 186 
 URE  HZ EP   1   2238 34.08                              37    0.56 6  202 310 
 URE  HE ES   4   2238 57.00                              37   -0.29 0  202 310 
 URE  HZ I        2239  1.83        85.7 0.56             37            202 310 
 OCA  HZ EP   1   2238 33.35                              37   -0.53 6  203  26 
 OCA  HE ES       2238 57.46                              37   -0.48 9  203  26 
 OCA  HZ I        2239  1.80       115.8 0.18             37            203  26 
 GUY2CHZ EP     D 2238 34.74                              37    0.39 9  204 222 
 GUY2CHN ES       2238 57.98                              37   -0.79 9  204 222 
 GUY2CHZ I        2239  3.10       113.4 0.48                           204 222 
 CHI  HZ EP   4   2238 38.92                              37    2.49 0  221 169 
 CHI  HE ES   1   2239  2.88                              37    0.42 6  221 169 
 CHI  HZ I        2239 12.91        20.7 0.42             37            221 169 
 CBOC HZ EP   4   2238 37.71                              37    1.27 0  223 249 
 CBOC HN ES       2239  3.34                              37    0.86 8  223 249 
 CBOC HZ I        2239  5.47        44.0 0.54             37            223 249 
 DBB  SZ EP       2238 38.92                              37    1.14 8  235 282 
 DBB  SZ ES   4   2239  8.22                              37    3.35 0  235 282 
 DBB  SZ I        2239 11.21       147.5 0.56             37            235 282 
 SML  HZ EP   4   2238 36.46                              37   -2.43 0  245   1 
 SML  HN ES   4   2239 10.29                              37    3.43 0  245   1 
 SML  HZ I        2239 19.26        69.8 0.10             37            245   1 
 TOL  SZ EP   4   2238 42.33                              37    1.38 0  258 211 
 TOL  SE ES   1   2239 11.17                              37    0.66 6  258 211 
 TOL  SZ I        2239 15.17        92.4 0.36             37            258 211 
 TAM  HZ EP   1   2238 41.22                              37    0.50 6  259  94 
 TAM  HN ES   4   2239 14.33                              37    4.22 0  259  94 
 TAM  HZ I        2239 18.18        34.6 0.22             37            259  94 
 ANIL HZ EP   4   2238 44.54                              37    1.94 0  272 211 
 ANIL HN ES   1   2239 13.50                              37    0.04 6  272 211 
 VIL  SZ EP   4   2238 49.19                              37    5.98 0  278 170 
 VIL  SN ES   4   2239 20.02                              37    5.48 0  278 170 
 VIL  SZ I        2239 28.85        27.7 0.36             37            278 170 
 MON  HZ EP   1   2238 46.43                              36    1.18 5  296 325 
 MON  HN ES   4   2239 19.95                              36    1.78 0  296 325 
 MON  HZ I        2239 32.11        13.1 0.36             37            296 325 
 ORTC HZ EP   4   2238 50.05                              36    1.60 0  321 203 
 ORTC HN ES       2239 24.96                              36    1.10 7  321 203 
 ORTC HZ I        2239 39.75        26.9 0.44             36            321 203 
 PRA  HZ EP   4   2238 51.30                              36    1.91 0  329 195 
 PRA  HN ES   4   2239 27.38                              36    1.84 0  329 195 
 PRA  HZ I        2239 40.35        29.9 0.50             36            329 195 
 YOT  HZ EP   4   2238 58.65                              36    3.00 0  379 221 
 SJC  HZ EP   1   2238 57.35                              36    1.14 4  384 342 
 SJC  HN ES   4   2239 39.53                              36    1.85 0  384 342 
 SJC  HZ I        2239 41.10        10.8 0.32             36            384 342 
                                                                                
