 2013  214 2001 46.0 L   6.788 -73.176142.8  RSN  8 0.3 2.0LRSN                1
 GAP=133        0.59       3.2     2.9  4.7 -0.1487E+01  0.3365E+01  0.3222E+01E
 Epicentro: LOS SANTOS - SANTANDER                                             3
 ACTION:UPD 13-03-12 09:33 OP:ep   STATUS:               ID:20130214200146 L   I
 2013-02-14-2000-00M.COL___241                                                 6
 STAT SP IPHASW D HRMM SECON CODA AMPLIT PERI AZIMU VELO AIN AR TRES W  DIS CAZ7
 BAR2 SZ EP   1   20 2  4.97                             171   -0.26 7 21.7 182 
 BAR2 SZ ES   1   20 2 20.69                             171    0.45 7 21.7 182 
 BAR2 SZ I        20 2 21.91        24.9 0.23            156           21.7 182 
 BRR  HZ EP       20 2  7.11                             153    0.4110 69.0 301 
 BRR  HN ES   1   20 2 22.76                             153   -0.08 7 69.0 301 
 BRR  HN I        20 2 25.52        36.7 0.15            144           69.0 301 
 PAM  SZ EP       20 2  8.06                             149   -0.0310 80.5  41 
 PAM  SZ I        20 2  8.28        17.1 0.21            145           80.5  41 
 PAM  SN ES       20 2 25.25                             149   -0.0710 80.5  41 
 RUS  HZ EP   1   20 2  9.28                             143   -0.10 7 99.5 174 
 RUS  HN ES   1   20 2 27.27                             143   -0.35 7 99.5 174 
 RUS  HN I        20 2 29.83        12.2 0.32            126           99.5 174 
 PTB  HZ EP   1   20 2 12.03                             132   -0.37 7  144 259 
 PTB  HN ES   1   20 2 32.84                             132   -0.16 7  144 259 
 PTB  HZ I        20 2 40.55        13.0 0.41            118            144 259 
 ZAR  HE ES   1   20 2 42.75                             122   -0.18 6  202 293 
 ZAR  HE I        20 2 49.09        27.2 0.43            111            202 293 
 NOR  HZ EP   1   20 2 21.06                             118   -0.12 6  231 234 
 NOR  HN ES   1   20 2 48.89                             118    0.27 6  231 234 
 NOR  HZ I        20 2 52.85         5.5 0.41            106            231 234 
 CHI  HZ EP   1   20 2 23.75                             117    0.45 6  247 195 
 CHI  HZ I        20 3  2.47         3.4 0.37            104            247 195 
                                                                                
