 2012 1114 2358 14.0 L   6.350 -73.575112.4  RSN  4 0.4 1.4LRSN                1
 GAP=149        0.83       8.6     5.9 11.5  0.2989E+02  0.2544E+02  0.6080E+01E
 Epicentro: SANTA HELENA DEL OPON - SANTANDER                                  3
 ACTION:UPD 12-12-05 15:33 OP:}ep  STATUS:               ID:20121114235814 L   I
 2012-11-14-2350-00M.COL___230                                                 6
 STAT SP IPHASW D HRMM SECON CODA AMPLIT PERI AZIMU VELO AIN AR TRES W  DIS CAZ7
 BAR2 SZ EP   1   2358 30.96                             154    0.22 7 51.0  58 
 BAR2 SZ ES   1   2358 43.36                             154   -0.45 7 51.0  58 
 RUS  HZ EP   1   2358 32.37                             144   -0.19 7 74.4 133 
 RUS  HN ES   1   2358 47.60                             144    0.55 7 74.4 133 
 RUS  HZ I        2358 49.09         2.9 0.64                          74.4 133 
 PTB  HZ EP   1   2358 33.39                             135   -0.50 7 99.7 282 
 PTB  HN ES   1   2358 49.30                             135   -0.12 7 99.7 282 
 PTB  HZ I        2358 52.80         7.0 0.12                          99.7 282 
 ZAR  HN ES   1   2359  6.16                             116    0.66 7  190 312 
 ZAR  HZ I        2359 10.15         4.2 0.48                           190 312 
                                                                                
