 2010  814 2205 41.0 L   6.536 -73.511113.9  RSN  8 0.3 2.1LRSN                1
 GAP= 80        0.76       3.3     3.8  5.8 -0.3643E+01  0.8636E+01  0.4232E+00E
 Epicentro: EL CARMEN DE CHUCURI - SANTANDER                                   3
 ACTION:UP  10-09-07 10:54 OP:vdl  STATUS:               ID:20100814220541 L   I
 2010-08-14-2203-36S.COL___110                                                 6
 STAT SP IPHASW D HRMM SECON CODA AMPLIT PERI AZIMU VELO SNR AR TRES W  DIS CAZ7
 BAR2 SZ IP     C 22 5 57.41                             161     0.110   37  80 
 BAR2 SZ ES   1   22 6 10.09                             161     0.1 7   37  80 
 BRR  HZ EP   1   22 5 58.25                             147    -0.3 7   67 341 
 BRR  HZ I        22 6 10.36        37.5 0.13                            67 341 
 BRR  HN ES   1   22 6 12.32                             147     0.1 7   67 341 
 GIR2 SZ EP   1   22 5 58.96                             146     0.1 7   70  30 
 GIR2 SZ ES       22 6 13.00                             146     0.110   70  30 
 RUS  HZ EP   1   22 6  0.40                             141    -0.2 7   86 146 
 RUS  HN ES   1   22 6 15.57                             141    -0.2 7   86 146 
 RUS  HZ I        22 6 17.51        19.3 0.07                            86 146 
 GUE  SZ EP   1   22 6  6.49                             122    -0.4 7  157  24 
 GUE  SZ ES       22 6 26.71                             122    -0.5 9  157  24 
 GUE  SZ I        22 6 27.25        16.5 0.16                           157  24 
 GRA  SZ EP   1   22 6  8.72                             120     0.8 7  168  28 
 GRA  SZ ES   2   22 6 29.41                             120     0.5 5  168  28 
 GRA  SZ I        22 6 31.24        17.6 0.33                           168  28 
 HEL  HZ EP   1   22 6 14.60                             112     0.0 6  226 260 
 HEL  HN ES       22 6 40.70                             112    -0.1 8  226 260 
 HEL  HZ I        22 6 45.73        11.1 0.62                           226 260 
 PRA  HZ EP   1   22 6 28.65                             102     0.4 5  347 206 
 PRA  HZ I        22 7 13.21         6.2 0.22                           347 206 
                                                                                
