 2013  814 2334 12.2 L   6.778 -73.197146.0  RSN  7 0.4 2.0LRSN                1
 GAP=230        0.76       4.5     4.8  6.5  0.5009E+01  0.7493E+01  0.7245E+01E
 Epicentro: ZAPATOCA - SANTANDER                                               3
 ACTION:UPD 14-01-14 09:03 OP:ep   STATUS:               ID:20130814233412 L   I
 OLDACT:REG 13-08-15 03:49 OP:carl STATUS:               ID:20130814232959     3
 2013-08-14-2329-59M.COL___269                                                 6
 STAT SP IPHASW D HRMM SECON CODA AMPLIT PERI AZIMU VELO AIN AR TRES W  DIS CAZ7
 BAR2 SZ EP   1   2334 31.67                             172   -0.17 7 20.6 175 
 BAR2 SZ ES   2   2334 46.29                             172   -0.84 5 20.6 175 
 BAR2 SZ I        2334 47.80        19.8 0.22            168           20.6 175 
 BRR  HZ EP   1   2334 33.39                             154    0.19 7 67.5 303 
 BRR  HN ES   1   2334 50.27                             154    0.71 7 67.5 303 
 BRR  HN I        2334 51.18        57.5 0.24            151           67.5 303 
 RUS  HZ EP       2334 35.92                             145    0.0510 98.7 173 
 RUS  HN ES   1   2334 54.48                             145    0.17 7 98.7 173 
 RUS  HZ I        2334 55.29        12.8 0.26            144           98.7 173 
 PTB  HZ EP       2334 38.17                             134   -0.50 9  142 259 
 PTB  HN ES   1   2334 59.37                             134    0.07 7  142 259 
 PTB  HZ I        2335  0.96        11.2 0.30            131            142 259 
 ZAR  HZ EP   1   2334 43.70                             123   -0.55 6  200 293 
 ZAR  HN ES   1   2335  9.19                             123   -0.03 6  200 293 
 ZAR  HZ I        2335 15.11         6.1 0.30            122            200 293 
 NOR  HZ EP       2334 47.77                             119    0.44 8  229 234 
 NOR  HE ES       2335 14.68                             119   -0.02 8  229 234 
 NOR  HZ I        2335 20.31         6.6 0.24            118            229 234 
 PRA  HZ EP   1   2335  5.68                             107    0.50 4  387 209 
 PRA  HN ES       2335 46.27                             107   -0.22 6  387 209 
 PRA  HZ I        2335 53.85         3.2 0.62            107            387 209 
                                                                                
