 2017  214 2232 56.4 L   6.767 -73.157148.3  RSN  6 0.3 1.8LRSN                1
 GAP=137        0.86       4.4     3.9  5.8  0.1789E+01  0.5511E+01 -0.1178E+01E
 Epicentro: LOS SANTOS - SANTANDER                                             3
 ACTION:UPD 17-05-24 15:36 OP:jn   STATUS:               ID:20170214223256 L   I
 OLDACT:UP  17-02-15 07:32 OP:ar   STATUS:               ID:20170214222749     3
 OLDACT:REG 17-02-15 06:20 OP:ar   STATUS:               ID:20170214222749     3
 2017-02-14-2228-00M.COL___361                                                 6
 STAT SP IPHASW D HRMM SECON CODA AMPLIT PERI AZIMU VELO AIN AR TRES W  DIS CAZ7
 BAR2 EZ EP       2233 16.15                             172   -0.0810 19.5 188 
 BAR2 EZ ES       2233 31.62                             172   -0.1010 19.5 188 
 BAR2 EZ I        2233 33.98        17.2 0.30            172           19.5 188 
 BRR  HZ EP       2233 18.14                             153    0.3110 72.0 302 
 BRR  HN ES       2233 35.20                             153    0.6310 72.0 302 
 PAM  EZ EP       2233 19.14                             150    0.0810 81.0  39 
 PAM  EE ES       2233 36.31                             150   -0.4610 81.0  39 
 PAM  EZ I        2233 38.35        12.8 0.48            153           81.0  39 
 RUS  HZ EP       2233 20.08                             145   -0.0310 97.0 175 
 RUS  HN ES       2233 38.88                             145    0.2410 97.0 175 
 RUS  HZ I        2233 40.06         9.5 0.34            148           97.0 175 
 PTB  HZ EP       2233 23.07                             133   -0.30 9  146 260 
 PTB  HN ES       2233 43.93                             133   -0.51 9  146 260 
 PTB  HZ I        2233 47.60         4.9 0.13            134            146 260 
 ZAR  HZ EP       2233 29.34                             123    0.34 9  204 293 
 ZAR  HN ES       2233 54.27                             123   -0.19 9  204 293 
 ZAR  HZ I        2233 59.41         5.5 0.22            124            204 293 
                                                                                
