 2015  314 2245 32.7 L   6.775 -73.143139.6  RSN  5 0.5 1.2LRSN                1
 GAP=138        1.19       6.1     6.0  8.7 -0.3352E+01  0.6935E+01  0.2348E+01E
 Epicentro: LOS SANTOS - SANTANDER                                             3
 ACTION:UPD 15-04-30 16:25 OP:nd   STATUS:               ID:20150314224532 L   I
 OLDACT:REG 15-03-15 05:08 OP:carl STATUS:               ID:20150314223748     3
 2015-03-14-2237-48M.COL___260                                                 6
 STAT SP IPHASW D HRMM SECON CODA AMPLIT PERI AZIMU VELO AIN AR TRES W  DIS CAZ7
 BAR2 EZ EP       2245 51.71                             171    0.1610 20.7 192 
 BAR2 EZ ES       2246  5.86                             171   -0.3910 20.7 192 
 BAR2 EZ I        2246 15.35         3.2 0.18            169           20.7 192 
 BRR  HZ EP       2245 53.75                             151    0.4610 72.8 300 
 BRR  HN ES       2246 10.03                             151    0.6810 72.8 300 
 PAM  SZ EP       2245 54.70                             149    0.3110 79.3  38 
 PAM  SN ES       2246 10.71                             149   -0.6010 79.3  38 
 PAM  SZ I        2246 12.34         3.4 0.32            157           79.3  38 
 RUS  HZ EP       2245 55.66                             143    0.0010 97.8 176 
 RUS  HN ES       2246 13.88                             143    0.3210 97.8 176 
 RUS  HZ I        2246 16.63         1.7 0.28            146           97.8 176 
 PTB  HZ EP       2245 58.43                             131   -0.74 9  148 260 
 PTB  HN ES       2246 19.46                             131   -0.34 9  148 260 
 PTB  HZ I        2246 25.33         3.3 0.16            134            148 260 
                                                                                
