 2014  814 2049  8.5 L   6.810 -73.143145.2  RSN  8 0.3 1.9LRSN                1
 GAP=239        0.81       3.9     4.7  5.5  0.7530E+01  0.4006E+01  0.4652E+01E
 Epicentro: LOS SANTOS - SANTANDER                                             3
 ACTION:UPD 14-09-15 21:49 OP:nd   STATUS:               ID:20140814204908 L   I
 OLDACT:REG 14-08-15 03:28 OP:carl STATUS:               ID:20140814204818     3
 2014-08-14-2048-18M.COL___275                                                 6
 STAT SP IPHASW D HRMM SECON CODA AMPLIT PERI AZIMU VELO AIN AR TRES W  DIS CAZ7
 BAR2 SZ EP       2049 27.99                             170   -0.0710 24.4 190 
 BAR2 SZ ES       2049 43.07                             170   -0.2710 24.4 190 
 BAR2 SZ I        2049 45.87        19.9 0.54            163           24.4 190 
 BRR  HZ EP       2049 29.98                             152    0.4210 71.0 298 
 BRR  HN ES       2049 46.35                             152    0.3610 71.0 298 
 RUS  HZ EP       2049 32.02                             143   -0.2310  102 176 
 RUS  HN ES       2049 50.82                             143    0.0310  102 176 
 RUS  HZ I        2049 51.98         4.5 0.38            142            102 176 
 PTB  HZ EP       2049 35.12                             132   -0.33 9  148 258 
 PTB  HN ES       2049 55.90                             132   -0.58 9  148 258 
 PTB  HZ I        2050  1.78        10.5 0.28            128            148 258 
 SPBC HZ EP       2049 36.91                             129   -0.12 9  164 219 
 SPBC HN ES       2049 59.41                             129    0.11 9  164 219 
 SPBC HZ I        2050  3.99        12.1 0.24            126            164 219 
 ZAR  HN ES       2050  6.39                             122    0.24 9  204 292 
 ZAR  HZ I        2050 16.94         5.8 0.34            121            204 292 
 CHI  HZ EP       2049 46.26                             117   -0.01 8  250 195 
 CHI  HN ES       2050 16.37                             117    0.63 8  250 195 
 CHI  HZ I        2050 23.91         3.0 0.38            116            250 195 
 GUY2CHZ EP   4   2049 51.16                             112   -1.00 0  302 235 
 GUY2CHE ES   4   2050 28.56                             112    2.33 0  302 235 
 GUY2CHZ I        2050 34.85         6.6 0.74                           302 235 
                                                                                
