 2013  314 2217 21.1 L   6.792 -73.138148.4  RSN 11 0.4 2.4LRSN                1
 GAP=138        0.85       2.8     3.8  4.4 -0.3703E+01  0.1580E+01  0.9757E+00E
 Epicentro: LOS SANTOS - SANTANDER                                             3
 ACTION:UPD 13-04-09 14:02 OP:ep   STATUS:               ID:20130314221721 L   I
 2013-03-14-2208-50M.COL___208                                                 6
 STAT SP IPHASW D HRMM SECON CODA AMPLIT PERI AZIMU VELO AIN AR TRES W  DIS CAZ7
 BAR2 SZ IP       2217 41.08                             171    0.0210 22.7 192 
 BAR2 SZ I        2217 41.24        48.3 0.22            170           22.7 192 
 BAR2 SZ ES       2217 56.56                             171   -0.0510 22.7 192 
 GIR2 SZ EP       2217 41.08                             167   -0.0610 32.3 349 
 GIR2 SZ ES       2217 56.94                             167    0.1910 32.3 349 
 GIR2 SZ I        2217 58.56        20.9 0.14            166           32.3 349 
 BRR  HZ IP     C 2217 42.94                             153    0.3110 72.3 299 
 BRR  HE ES       2217 59.81                             153    0.4110 72.3 299 
 BRR  HN I        2218  1.46        79.8 0.22            150           72.3 299 
 PAM  SZ IP     C 2217 43.80                             151    0.1710 77.5  39 
 PAM  SZ I        2217 44.05        33.8 0.20            153           77.5  39 
 PAM  SN ES       2218  1.09                             151   -0.1010 77.5  39 
 RUS  HN EP       2217 44.91                             145   -0.1710 99.7 177 
 RUS  HE ES       2218  3.92                             145    0.1610 99.7 177 
 RUS  HE I        2218  4.51        25.3 0.52            145           99.7 177 
 PTB  HZ EP       2217 47.72                             133   -0.65 9  148 259 
 PTB  HN ES       2218  9.27                             133   -0.35 9  148 259 
 PTB  HE I        2218 14.91        34.7 0.30            131            148 259 
 CAPV BZ EP       2217 48.83                             133    0.08 9  149  37 
 CAPV BZ ES       2218  9.78                             133   -0.52 9  149  37 
 OCA  HN ES       2218 12.19                             130    0.14 9  161 353 
 OCA  HN I        2218 14.90       110.0 0.20            130            161 353 
 SML  HZ EP       2217 57.93                             118   -0.10 8  245 335 
 CHI  HN ES   1   2218 28.42                             118    0.04 6  248 195 
 PRA  HE EP       2218 16.04                             107    1.34 6  392 210 
 PRA  HN ES       2218 56.03                             107   -0.46 6  392 210 
 PRA  HE I        2219  2.01         6.1 0.34            107            392 210 
                                                                                
