 2015  514 2251  2.5 L   6.808 -73.151142.4  RSN 12 0.6 2.0LRSN                1
 GAP=135        1.41       4.0     5.4  7.8 -0.1656E+01  0.1468E+02  0.1524E+01E
 Epicentro: LOS SANTOS - SANTANDER                                             3
 ACTION:UPD 15-09-10 22:04 OP:cam  STATUS:               ID:20150514225102 L   I
 OLDACT:REG 15-05-15 03:22 OP:stll STATUS:               ID:20150514224749     3
 2015-05-14-2247-49M.COL___276                                                 6
 STAT SP IPHASW D HRMM SECON CODA AMPLIT PERI AZIMU VELO AIN AR TRES W  DIS CAZ7
 BAR2 EZ EP       2251 21.88                             170    0.1510 24.1 188 
 BAR2 EZ ES       2251 37.08                             170    0.3410 24.1 188 
 BAR2 EZ I        2251 39.12        19.2 0.18            169           24.1 188 
 BRR  HZ EP     C 2251 23.64                             152    0.4210 70.2 298 
 BRR  HZ I        2251 23.90        34.6 0.22            151           70.2 298 
 BRR  HE ES       2251 40.16                             152    0.7710 70.2 298 
 PAM  SZ EP       2251 24.36                             150    0.0310 77.1  40 
 PAM  SN ES       2251 41.71                             150    0.3510 77.1  40 
 PAM  SZ I        2251 43.96        18.7 0.54            154           77.1  40 
 RUS  HZ EP       2251 25.52                             143   -0.4610  102 176 
 RUS  HN ES       2251 43.61                             143   -0.6910  102 176 
 RUS  HZ I        2251 45.98         8.5 0.40            145            102 176 
 SPBC HZ EP   1   2251 30.14                             128   -0.62 7  163 219 
 SPBC HE ES       2251 52.31                             128   -0.50 9  163 219 
 SPBC HZ I        2251 59.71        18.6 0.18            130            163 219 
 ZAR  HZ EP       2251 34.38                             122   -0.24 9  203 292 
 ZAR  HE ES       2251 58.54                             122   -1.14 9  203 292 
 ZAR  HZ I        2252  5.38        11.0 0.40            123            203 292 
 NOR  HN ES       2252  4.81                             118   -0.93 8  235 234 
 NOR  HZ I        2252  9.00         7.3 0.16            119            235 234 
 SML  HZ EP       2251 38.83                             117    0.02 8  243 335 
 SML  HE ES       2252  6.53                             117   -0.61 8  243 335 
 SML  HZ I        2252 11.48        19.1 0.10            119            243 335 
 CHI  HZ EP       2251 39.89                             116   -0.19 8  249 195 
 CHI  HN ES       2252  9.67                             116    0.27 8  249 195 
 HEL  HZ EP   1   2251 43.47                             114    0.98 6  272 256 
 HEL  HE ES       2252 14.19                             114    0.50 8  272 256 
 HEL  HZ I        2252 21.26         4.9 0.34            115            272 256 
 GUY2CHZ EP       2251 46.91                             112    0.97 7  301 235 
 GUY2CHN ES       2252 21.08                             112    1.24 7  301 235 
 GUY2CHZ I        2252 28.85         3.9 0.52                           301 235 
 MON  HZ EP   9   2251 49.25                             108   -1.99 0  353 308 
 MON  HN ES       2252 26.57                                   -0.71 6  353 308 
 MON  HZ I        2252 29.76         2.9 0.72            109            353 308 
                                                                                
