 2015 1114 2241  5.7 L   7.112 -73.881 98.0  RSN 20 0.5 2.7LRSN                1
 GAP= 50        1.22       2.6     2.8  6.4  0.5214E+00  0.6304E+01  0.1400E+01E
 Epicentro: BARRANCABERMEJA - SANTANDER                                        3
 ACTION:UPD 15-12-28 16:10 OP:cam  STATUS:               ID:20151114224105 L   I
 OLDACT:UP  15-11-15 05:25 OP:ar   STATUS:               ID:20151114223751     3
 OLDACT:REG 15-11-15 04:01 OP:ar   STATUS:               ID:20151114223751     3
 2015-11-14-2237-51M.COL___322                                                 6
 STAT SP IPHASW D HRMM SECON CODA AMPLIT PERI AZIMU VELO AIN AR TRES W  DIS CAZ7
 BRR  HZ IP     D 2241 19.14                             169   -0.0410 18.6  92 
 BRR  HN ES       2241 29.71                             169    0.0510 18.6  92 
 BRR  HZ I        2241 30.53       444.8 0.10            169           18.6  92 
 BAR2 EZ EP       2241 24.50                             133    0.0610 96.2 127 
 BAR2 EZ ES       2241 39.58                             133    0.5610 96.2 127 
 BAR2 EZ I        2241 40.67       242.3 0.36            131           96.2 127 
 ZAR  HZ EP       2241 26.55                             127    0.5510  116 291 
 ZAR  HN ES       2241 42.78                             127    0.9810  116 291 
 ZAR  HZ I        2241 44.43       194.3 0.32            126            116 291 
 PAM  EZ EP       2241 28.28                             123   -0.0810  133  79 
 PAM  EN ES       2241 45.86                             123   -0.1410  133  79 
 PAM  EZ I        2241 47.29       104.6 0.26            123            133  79 
 OCA  HZ EP   2   2241 27.98                             122   -0.60 5  139  26 
 OCA  HN ES       2241 46.01                             122   -0.39 9  139  26 
 OCA  HZ I        2241 51.12       223.5 0.18            122            139  26 
 RUS  HZ EP       2241 31.19                             118   -0.19 9  161 147 
 RUS  HN ES       2241 51.39                             118    0.01 9  161 147 
 RUS  HZ I        2241 56.19        26.3 0.42            116            161 147 
 SPBC HZ EP       2241 30.64                             117   -0.41 9  163 187 
 SPBC HE ES       2241 50.33                             117   -0.46 9  163 187 
 SPBC HZ I        2241 53.18       136.0 0.18            115            163 187 
 SML  HZ EP       2241 33.31                             114   -0.44 9  188 354 
 SML  HE ES       2241 55.71                             114    0.12 9  188 354 
 SML  HZ I        2241 57.82        90.5 0.10            113            188 354 
 URE  HZ EP       2241 33.98                             113   -0.66 9  196 291 
 URE  HE ES       2241 57.34                             113    0.16 9  196 291 
 URE  HZ I        2242  3.79        82.3 0.40            112            196 291 
 NOR  HZ EP       2241 35.51                             112   -0.04 9  203 213 
 NOR  HN ES       2241 57.88                             112   -0.93 9  203 213 
 NOR  HZ I        2242  3.47        40.5 0.20            110            203 213 
 HEL  HZ EP       2241 36.19                             111   -0.40 8  209 241 
 HEL  HE ES       2242  0.27                             111   -0.39 8  209 241 
 HEL  HZ I        2242  5.68        35.5 0.46            110            209 241 
 ROSC BZ EP   4   2241 44.08                             107    1.95 0  256 191 
 ROSC BN ES   4   2242 13.59                             107    3.08 0  256 191 
 ROSC BZ I        2242 15.81        32.1 0.35            106            256 191 
 GUY2CHZ EP   4   2241 46.33                             107    2.95 0  266 218 
 GUY2CHE ES   4   2242  8.03                             107   -4.72 0  266 218 
 GUY2CHZ I        2242 21.68        20.7 0.52                           266 218 
 MON  HZ EP       2241 42.64                             106   -0.62 8  270 313 
 MON  HN ES       2242 12.32                             106   -0.20 8  270 313 
 MON  HZ I        2242 13.61        16.1 0.14            106            270 313 
 CBOC HZ EP       2241 44.49                             106    0.59 8  273 240 
 CHI  HZ EP       2241 46.05                             106    1.63 8  275 177 
 CHI  HE ES   4   2242 16.97                             106    2.38 0  275 177 
 CHI  HZ I        2242 25.03        14.8 0.44            105            275 177 
 PAL  HZ EP       2241 55.09                             102    0.77 6  361 228 
 PAL  HN ES       2242 32.42                             102    0.21 6  361 228 
 PAL  HZ I        2242 39.23        15.3 0.28            101            361 228 
 ORTC HZ EP   4   2242  2.36                             101    5.15 0  385 203 
 ORTC HE ES   4   2242 41.52                             101    4.16 0  385 203 
 ORTC HZ I        2242 44.59        17.3 0.36            100            385 203 
 PRA  HZ EP   4   2242  2.36                             101    4.32 0  392 197 
 PRA  HE ES   4   2242 41.07                             101    2.23 0  392 197 
 PRA  HZ I        2242 50.20        11.1 0.30            100            392 197 
 SDV  BZ EP       2242  0.72                             100    0.49 6  408  61 
 SDV  BN ES   4   2242 41.49                             100   -1.23 0  408  61 
 SDV  BZ I        2242 46.44        11.8 0.45            100            408  61 
                                                                                
