 2012  214 2108 25.5 L   6.747 -73.142148.0  RSN  8 0.4 1.9LRSN                1
 GAP=139        0.84       4.4     4.5  7.6  0.1186E+01  0.5778E+01  0.8919E+01E
 ACTION:DUP 12-03-07 16:30 OP:epov STATUS:               ID:20120214210826dL   I
 2012-02-14-2100-00M.COL___191                                                 6
 STAT SP IPHASW D HRMM SECON CODA AMPLIT PERI AZIMU VELO AIN AR TRES W  DIS CAZ7
 GIR2 SZ EP   1   21 8 45.76                             165    0.12 7 37.2 351 
 BRR  HZ EP   1   21 8 47.32                             152    0.21 7 74.5 302 
 BRR  HN ES       21 9  4.62                             152    0.6810 74.5 302 
 BRR  HZ I        21 9  9.09        28.7 0.09                          74.5 302 
 PAM  SZ EP   1   21 8 48.16                             150   -0.09 7 81.8  37 
 PAM  SN ES   1   21 9  5.50                             150   -0.47 7 81.8  37 
 PAM  SZ I        21 9  7.70         7.6 0.22                          81.8  37 
 RUS  HZ EP   1   21 8 49.18                             146    0.09 7 94.7 176 
 RUS  HN ES   1   21 9  7.19                             146   -0.27 7 94.7 176 
 RUS  HZ I        21 9  9.09        12.2 0.32                          94.7 176 
 PTB  HZ EP   1   21 8 52.05                             133   -0.57 7  147 261 
 PTB  HN ES   1   21 9 13.03                             133   -0.72 7  147 261 
 ZAR  HZ EP   1   21 8 58.05                             123   -0.34 6  207 294 
 ZAR  HN ES   1   21 9 24.08                             123    0.05 6  207 294 
 CHI  HZ EP   1   21 9  3.42                             118    0.67 6  243 196 
 CHI  HN ES   1   21 9 32.05                             118    0.27 6  243 196 
 CHI  HZ I        21 9 36.72         5.7 0.39                           243 196 
 HEL  HE ES   1   21 9 37.00                             115   -0.11 6  271 257 
                                                                                
