 2017  714 2020  8.5 L   6.783 -73.143139.4  RSN 16 0.5 2.4LRSN                1
 GAP=113        1.21       3.7     3.7  6.0  0.5009E+00  0.7266E+01  0.4994E+01E
 Epicentro: LOS SANTOS - SANTANDER                                             3
 ACTION:UPD 17-08-30 15:33 OP:rebc STATUS:               ID:20170714202008 L   I
 OLDACT:UP  17-07-15 08:38 OP:osc  STATUS:               ID:20170714201750     3
 OLDACT:REG 17-07-15 02:52 OP:osc  STATUS:               ID:20170714201750     3
 2017-07-14-2018-00M.COL___355                                                 6
 STAT SP IPHASW D HRMM SECON CODA AMPLIT PERI AZIMU VELO AIN AR TRES W  DIS CAZ7
 BAR2 EZ IP     C 2020 27.16                             171   -0.1410 21.5 192 
 BAR2 EZ ES       2020 41.55                             171   -0.4310 21.5 192 
 BAR2 EZ I        2020 43.99        49.3 0.24            169           21.5 192 
 BRR  HZ IP     C 2020 29.13                             151    0.1310 72.3 300 
 BRR  HE ES       2020 45.50                             151    0.4810 72.3 300 
 BRR  HZ I        2020 48.96        40.4 0.16            149           72.3 300 
 PAM  EZ EP       2020 30.02                             149   -0.0810 78.7  39 
 PAM  EE ES       2020 47.40                             149    0.4410 78.7  39 
 PAM  EZ I        2020 49.63        29.9 0.26            153           78.7  39 
 RUS  HZ EP       2020 31.02                             143   -0.4410 98.6 176 
 RUS  HN ES       2020 49.56                             143    0.1710 98.6 176 
 RUS  HZ I        2020 50.90        22.6 0.38            145           98.6 176 
 PTB  HZ EP       2020 33.98                             131   -0.93 9  148 260 
 PTB  HE ES       2020 55.37                             131   -0.17 9  148 260 
 PTB  HZ I        2020 59.22        15.2 0.14            130            148 260 
 SPBC HZ EP       2020 36.13                             128   -0.23 9  162 219 
 SPBC HE ES       2020 58.25                             128    0.14 9  162 219 
 SPBC HZ I        2021  1.03        60.9 0.26            129            162 219 
 YPLC HZ EP       2020 37.26                             125   -0.37 9  175 151 
 YPLC HE ES       2021  0.65                             125    0.28 9  175 151 
 YPLC HZ I        2021  3.57        18.6 0.28            129            175 151 
 ZAR  HZ EP       2020 40.80                             121    0.19 9  205 293 
 ZAR  HE ES       2021  5.47                             121   -0.21 9  205 293 
 ZAR  HZ I        2021 12.31        47.5 0.32            121            205 293 
 TABC EZ EP       2020 43.86                             118    0.18 8  228 211 
 TABC EZ ES       2021 11.05                             118   -0.10 8  228 211 
 TABC EZ I        2021 17.40        29.5 0.46            119            228 211 
 NOR  HZ EP       2020 43.16                             117   -0.58 8  234 235 
 NOR  HE ES       2021 10.75                             117   -0.50 8  234 235 
 NOR  HZ I        2021 19.08        17.0 0.22            118            234 235 
 HEL  HZ EP       2020 49.15                             113    0.81 8  272 256 
 HEL  HE ES       2021 19.47                             113    0.03 8  272 256 
 HEL  HZ I        2021 24.58        11.5 0.28            114            272 256 
 URE  HZ EP   4   2020 50.66                             112    1.31 0  285 292 
 URE  HE ES   4   2021 18.23                             112   -3.00 0  285 292 
 URE  HZ I        2021 30.62        25.2 0.16            113            285 292 
 GUY2CHZ EP       2020 53.21                             111    1.52 7  300 235 
 GUY2CHN ES       2021 25.58                             111    0.18 7  300 235 
 GUY2CHZ I        2021 35.14        13.5 0.44                           300 235 
 DBB  EZ EP       2020 55.12                             108   -0.62 7  340 275 
 DBB  EN ES   4   2021 29.73                             108   -2.88 0  340 275 
 DBB  EZ I        2021 37.83         7.4 0.15            109            340 275 
 ORTC HZ EP       2021  1.82                             105   -0.19 6  394 216 
 ORTC HE ES       2021 45.62                             105    1.84 6  394 216 
 ORTC HZ I        2021 48.49         4.9 0.28            107            394 216 
 CRJC HZ EP   9   2021  4.86                             102   -6.16 0  470   3 
 CRJC HE ES       2021 54.53                                    0.88 5  470   3 
                                                                                
