 2012  814 2032 27.3 L   6.709 -73.196142.5  RSN  5 0.4 1.6LRSN                1
 GAP=224        0.74       7.7     7.5  8.2  0.3729E+02  0.1687E+02  0.6153E+01E
 Epicentro: VILLANUEVA - SANTANDER                                             3
 ACTION:UPD 12-09-10 11:56 OP:ep   STATUS:               ID:20120814203227 L   I
 2012-08-14-2030-00M.COL___217                                                 6
 STAT SP IPHASW D HRMM SECON CODA AMPLIT PERI AZIMU VELO AIN AR TRES W  DIS CAZ7
 BAR2 SZ ES   1   2033  0.87                             175   -0.34 7 13.0 173 
 BAR2 SZ I        2033  2.27         9.2 0.33                          13.0 173 
 BRR  HZ EP   1   2032 48.13                             152    0.01 7 72.1 308 
 BRR  HZ I        2032 49.74        16.2 0.46                          72.1 308 
 BRR  HN ES   1   2033  4.68                             152    0.31 7 72.1 308 
 RUS  HZ EP   1   2032 50.60                             146    0.57 7 91.1 172 
 RUS  HN ES   1   2033  7.60                             146   -0.17 7 91.1 172 
 RUS  HZ I        2033 10.64         5.3 0.28                          91.1 172 
 PTB  HZ EP   1   2032 52.69                             133   -0.64 7  141 262 
 PTB  HN ES   1   2033 13.98                             133    0.33 7  141 262 
 PTB  HZ I        2033 14.77         4.7 0.51                           141 262 
 ZAR  HN ES   1   2033 24.30                             122   -0.16 6  203 295 
                                                                                
