 2013  614 2100 25.4 L   6.524 -73.736 97.1  RSN  9 0.4 2.0LRSN                1
 GAP= 96        1.11       4.2     3.9  8.7 -0.2146E+01  0.1810E+02  0.4296E+01E
 Epicentro: SANTA HELENA DEL OPON - SANTANDER                                  3
 ACTION:UPD 14-01-08 09:54 OP:ep   STATUS:               ID:20130614210025 L   I
 OLDACT:REG 13-06-15 00:11 OP:nd   STATUS:               ID:20130614205959     3
 2013-06-14-2059-59M.COL___261                                                 6
 STAT SP IPHASW D HRMM SECON CODA AMPLIT PERI AZIMU VELO AIN AR TRES W  DIS CAZ7
 BAR2 SZ EP       21 0 41.39                             145    0.1510 61.7  83 
 BAR2 SZ ES       21 0 53.60                             145    0.0410 61.7  83 
 BAR2 SZ I        21 0 55.12        62.4 0.16             47           61.7  83 
 BRR  HZ EP       21 0 41.12                             144    0.0210 64.5   2 
 BRR  HN ES       21 0 53.39                             144    0.0810 64.5   2 
 BRR  HZ I        21 0 54.51        34.4 0.12             47           64.5   2 
 PTB  HZ IP     C 21 0 41.24                             138   -1.0610 79.7 271 
 PTB  HN ES   4   21 0 53.62                             138   -1.84 0 79.7 271 
 PTB  HZ I        21 0 54.89        34.1 0.14             47           79.7 271 
 GIR2 SZ EP       21 0 43.26                             136    0.2610 85.8  44 
 GIR2 SZ I        21 0 56.29        12.5 0.16             47           85.8  44 
 RUS  HZ EP       21 0 44.53                             131   -0.2610  101 134 
 RUS  HN ES       21 1  0.03                             131    0.1410  101 134 
 RUS  HZ I        21 1  1.54        10.1 0.22             47            101 134 
 NOR  HZ EP       21 0 50.05                             116   -0.77 9  164 230 
 NOR  HN ES       21 1 10.81                             116    0.19 9  164 230 
 NOR  HZ I        21 1 13.04        17.0 0.36             47            164 230 
 HEL  HZ EP       21 0 56.03                             111    0.59 9  202 260 
 HEL  HN ES       21 1 19.19                             111    0.35 9  202 260 
 HEL  HZ I        21 1 22.29        10.9 0.30             37            202 260 
 GUY2CHZ EP       21 0 59.62                             109    0.69 8  231 232 
 GUY2CHN ES   2   21 1 24.96                             109   -0.09 4  231 232 
 GUY2CHZ I        21 1 30.64         7.3 0.40                           231 232 
 SML  HZ EP       21 1  1.11                             107   -0.03 8  254 352 
 SML  HZ I        21 1 31.31        13.3 0.30             37            254 352 
                                                                                
