 2010 1114 2154  1.1 L   6.568 -73.326140.2  RSN  4 0.5 1.7LRSN                1
 GAP=164        1.01      18.1    26.5 12.5  0.3793E+03  0.1591E+02  0.9827E+01E
 Epicentro: HATO - SANTANDER                                                   3
 ACTION:UP  10-12-17 16:52 OP:REBC STATUS:               ID:20101114215401 L   I
 2010-11-14-2149-37S.COL___128                                                 6
 STAT SP IPHASW D HRMM SECON CODA AMPLIT PERI AZIMU VELO SNR AR TRES W  DIS CAZ7
 BAR2 SZ EP       2154 19.55                             173    -0.410   16  80 
 BAR2 SZ ES   2   2154 33.72                             173    -0.9 5   16  80 
 BAR2 SZ I        2154 35.06         9.9 0.35                            16  80 
 BTL  SZ EP       2154 21.10                             163     0.610   39   9 
 BTL  SZ ES   2   2154 36.12                             163     0.4 5   39   9 
 BRR  HZ EP       2154 21.52                             151    -0.310   73 324 
 BRR  HZ I        2154 21.95        10.3 0.11                            73 324 
 BRR  HE ES   1   2154 38.10                             151     0.2 7   73 324 
 RUS  HZ EP   3   2154 23.23                             149     0.4 2   79 160 
 RUS  HN ES   2   2154 40.38                             149     0.5 5   79 160 
                                                                                
