 2015  414 2023 26.3 L   6.769 -73.161142.0  RSN  8 0.5 2.0LRSN                1
 GAP=136        1.25       5.5     5.3  7.8 -0.2364E+01  0.1398E+02  0.2938E+01E
 Epicentro: LOS SANTOS - SANTANDER                                             3
 ACTION:UPD 15-06-03 16:54 OP:cam  STATUS:               ID:20150414202326 L   I
 OLDACT:REG 15-04-15 02:36 OP:ak   STATUS:               ID:20150414201749     3
 2015-04-14-2017-49M.COL___281                                                 6
 STAT SP IPHASW D HRMM SECON CODA AMPLIT PERI AZIMU VELO AIN AR TRES W  DIS CAZ7
 BAR2 EZ EP       2023 45.32                             172   -0.0410 19.7 187 
 BAR2 EZ ES       2024  0.70                             172    0.4410 19.7 187 
 BAR2 EZ I        2024  1.94        14.5 0.14            172           19.7 187 
 BRR  HZ EP     D 2023 47.05                             152    0.0410 71.5 302 
 BRR  HE ES       2024  4.19                             152    0.9810 71.5 302 
 BRR  HZ I        2024  7.36        26.8 0.30            151           71.5 302 
 PAM  SZ EP       2023 48.18                             149   -0.1210 81.1  39 
 PAM  SN ES       2024  5.12                             149   -0.3710 81.1  39 
 PAM  SZ I        2024  7.37        17.9 0.42            152           81.1  39 
 RUS  HZ EP   1   2023 49.62                             144    0.23 7 97.3 175 
 RUS  HN ES       2024  7.05                             144   -0.3910 97.3 175 
 RUS  HZ I        2024  9.08        10.3 0.30            147           97.3 175 
 PTB  HN ES       2024 12.26                             132   -1.09 9  146 260 
 ZAR  HZ EP       2023 58.12                             122   -0.32 9  204 293 
 ZAR  HN ES       2024 23.35                             122   -0.19 9  204 293 
 ZAR  HZ I        2024 29.31        15.8 0.54            123            204 293 
 NOR  HZ EP       2024  1.54                             118    0.13 8  231 235 
 NOR  HN ES       2024 29.11                             118    0.28 8  231 235 
 NOR  HZ I        2024 32.93         7.4 0.20            120            231 235 
 GUY2CHZ EP       2024 10.06                             112    0.75 7  298 235 
 GUY2CHN ES   4   2024 46.28                             112    3.38 0  298 235 
 GUY2CHZ I        2024 55.87         6.3 0.84                           298 235 
 SJC  HZ EP   4   2024 19.55                             105   -2.38 0  411 327 
 SJC  HN ES   4   2025  2.05                             105   -3.31 0  411 327 
                                                                                
