 2013 1014 2358 48.1 L   6.579 -73.563149.4  RSN  4 0.5 1.2LRSN                1
 GAP=123        1.13       8.6     8.0 11.2  0.3022E+02 -0.1402E+02  0.3228E+01E
 Epicentro: EL CARMEN DE CHUCURI - SANTANDER                                   3
 ACTION:UPD 13-11-25 09:21 OP:ep   STATUS:               ID:20131014235848 L   I
 OLDACT:UP  13-10-14 23:55 OP:nd   STATUS:               ID:20131014234960d    3
 OLDACT:DUP 13-10-14 23:53 OP:nd   STATUS:               ID:20131014234960d    3
 2013-10-14-2349-59M.COL___274                                                 6
 STAT SP IPHASW D HRMM SECON CODA AMPLIT PERI AZIMU VELO AIN AR TRES W  DIS CAZ7
 BAR2 SZ EP       2359  7.80                             163   -0.8910 42.1  88 
 BAR2 SZ ES   2   2359 24.04                             163   -0.70 5 42.1  88 
 BAR2 SZ I        2359 24.49         6.0 0.24            172           42.1  88 
 BRR  HZ IP     C 2359  9.60                             157    0.4910 60.7 344 
 BRR  HN ES       2359 25.74                             157    0.2510 60.7 344 
 BRR  HZ I        2359 30.90         4.5 0.28            157           60.7 344 
 RUS  HZ EP       2359 12.03                             147    0.3610 92.6 145 
 RUS  HN ES       2359 30.29                             147    0.2410 92.6 145 
 RUS  HZ I        2359 31.46         1.8 0.26            152           92.6 145 
 PTB  HZ EP   2   2359 11.23                             145   -0.20 5 98.9 268 
 PTB  HN ES       2359 29.40                             145   -0.2210 98.9 268 
 PTB  HZ I        2359 37.24         1.9 0.24            142           98.9 268 
                                                                                
