 2013  114 2009 41.3 L   6.740 -73.189135.2  RSN  6 0.4 1.9LRSN                1
 GAP=228        1.09       5.8     6.8  8.6  0.2157E+02  0.1713E+02  0.1099E+02E
 Epicentro: VILLANUEVA - SANTANDER                                             3
 ACTION:UPD 13-02-15 09:14 OP:ep   STATUS:               ID:20130114200941 L   I
 2013-01-14-2008-50M.COL___193                                                 6
 STAT SP IPHASW D HRMM SECON CODA AMPLIT PERI AZIMU VELO AIN AR TRES W  DIS CAZ7
 BAR2 SZ EP       2010  0.10                             173    0.6110 16.4 177 
 BAR2 SZ ES       2010 13.31                             173   -0.4010 16.4 177 
 BAR2 SZ I        2010 14.94        26.0 0.28            171           16.4 177 
 BRR  HZ EP       2010  1.34                             151    0.1010 70.6 305 
 BRR  HN ES       2010 17.37                             151    0.5510 70.6 305 
 BRR  HN I        2010 22.20        30.3 0.20            151           70.6 305 
 RUS  HZ EP       2010  3.38                             143   -0.1510 94.5 173 
 RUS  HN ES       2010 20.56                             143   -0.3410 94.5 173 
 RUS  HN I        2010 23.29         5.9 0.24            145           94.5 173 
 PTB  HZ EP       2010  6.21                             131   -0.63 9  142 261 
 PTB  HN ES       2010 26.89                             131    0.10 9  142 261 
 PTB  HN I        2010 29.54        19.1 0.22            132            142 261 
 ZAR  HN ES       2010 37.12                             120   -0.37 9  202 294 
 ZAR  HN I        2010 39.74        11.7 0.10            122            202 294 
 CHI  HN ES       2010 46.44                             116    0.57 8  241 194 
 CHI  HN I        2010 48.94         2.7 0.40            118            241 194 
                                                                                
