 2015  514 2115 25.0 L   6.042 -73.712105.7  RSN  6 0.5 1.6LRSN                1
 GAP=119        1.20       5.2     5.5  9.8 -0.1680E+02  0.2164E+02 -0.1461E+02E
 Epicentro: VELEZ - SANTANDER                                                  3
 ACTION:UPD 15-09-10 22:04 OP:cam  STATUS:               ID:20150514211525 L   I
 OLDACT:REG 15-05-15 03:16 OP:stll STATUS:               ID:20150514210749     3
 2015-05-14-2107-49M.COL___282                                                 6
 STAT SP IPHASW D HRMM SECON CODA AMPLIT PERI AZIMU VELO AIN AR TRES W  DIS CAZ7
 SPBC HZ EP       2115 41.03                             149   -0.2610 58.7 223 
 SPBC HN ES       2115 54.42                             149    0.4310 58.7 223 
 SPBC HZ I        2116  0.54        12.4 0.20            152           58.7 223 
 RUS  HZ EP       2115 42.72                             144   -0.0110 71.5 103 
 RUS  HE ES       2115 55.79                             144   -0.7610 71.5 103 
 BAR2 EZ EP       2115 43.63                             138    0.2610 84.5  44 
 BAR2 EZ ES       2115 58.53                             138    0.8510 84.5  44 
 BAR2 EZ I        2116  0.28        14.0 0.48            146           84.5  44 
 BRR  HZ EP       2115 46.07                             128    0.0510  118 360 
 BRR  HN ES       2116  1.64                             128   -0.7610  118 360 
 PAM  SN ES       2116 15.61                             115    0.15 9  182  38 
 GUY2CHZ EP       2115 55.97                             112    0.15 9  204 244 
 GUY2CHE ES       2116 19.76                             112   -0.10 9  204 244 
 GUY2CHZ I        2116 25.69         2.3 0.38                           204 244 
                                                                                
