 2014  114 2220 54.4 L   6.786 -73.173144.8  RSN  4 0.5 1.2LRSN                1
 GAP=198        0.88       8.5     7.9 11.8  0.4030E+02 -0.1422E+02 -0.3419E+02E
 Epicentro: LOS SANTOS - SANTANDER                                             3
 ACTION:UPD 14-03-13 09:55 OP:ep   STATUS:               ID:20140114222054 L   I
 OLDACT:REG 14-01-14 21:20 OP:jn   STATUS:               ID:20140114222000     3
 2014-01-14-2220-00M.COL___285                                                 6
 STAT SP IPHASW D HRMM SECON CODA AMPLIT PERI AZIMU VELO AIN AR TRES W  DIS CAZ7
 BRR  HN ES   2   2221 32.59                             153    0.90 5 69.3 301 
 RUS  HZ EP       2221 18.22                             144    0.2410 99.3 174 
 RUS  HN ES       2221 36.05                             144   -0.3210 99.3 174 
 RUS  HZ I        2221 38.21         2.0 0.24            143           99.3 174 
 PTB  HZ EP       2221 21.32                             132    0.31 9  144 259 
 PTB  HN ES       2221 41.43                             132   -0.32 9  144 259 
 PTB  HZ I        2221 45.49         2.2 0.18            131            144 259 
 SML  HN ES   2   2221 58.62                             117   -0.92 4  244 336 
                                                                                
