 2014  314 2356  0.5 L   6.818 -73.161139.0  RSN 18 0.6 2.5LRSN                1
 GAP= 70        1.22       2.9     3.1  5.7 -0.2128E+01  0.4452E+01  0.6459E+00E
 Epicentro: LOS SANTOS - SANTANDER                                             3
 OLDACT:REG 14-03-15 00:28 OP:stll STATUS:               ID:20140314234815     3
 ACTION:UPD 14-04-09 23:17 OP:nd   STATUS:               ID:20140314235600 L   I
 OLDACT:UP  14-03-15 04:30 OP:stll STATUS:               ID:20140314234815     3
 2014-03-14-2348-15M.COL___251                                                 6
 STAT SP IPHASW D HRMM SECON CODA AMPLIT PERI AZIMU VELO AIN AR TRES W  DIS CAZ7
 BAR2 SZ IP     D 2356 19.80                             169    0.4310 25.1 185 
 BAR2 SZ ES       2356 34.42                             169    0.3410 25.1 185 
 BAR2 SZ I        2356 36.07        87.4 0.12            169           25.1 185 
 PAM  SZ IP     C 2356 22.64                             150    0.6510 76.9  41 
 PAM  SN ES       2356 39.09                             150    0.3610 76.9  41 
 PAM  SZ I        2356 42.03        40.1 0.52            153           76.9  41 
 RUS  HZ IP     C 2356 23.83                             142    0.0610  103 175 
 RUS  HN ES       2356 41.62                             142   -0.2810  103 175 
 RUS  SZ I        2356 43.31        30.6 0.22            143            103 175 
 PTB  HZ EP       2356 26.70                             131   -0.13 9  147 258 
 PTB  HN ES       2356 46.76                             131   -0.59 9  147 258 
 PTB  SZ I        2356 49.84        35.4 0.16            131            147 258 
 TAM  HZ EP       2356 28.16                             128    0.29 9  157 106 
 TAM  HN ES       2356 49.12                             128   -0.08 9  157 106 
 TAM  SZ I        2356 50.17        28.2 0.22            131            157 106 
 OCA  HN ES       2356 49.05                             128   -0.56 9  158 354 
 SPBC HZ EP       2356 28.74                             127    0.18 9  164 218 
 SPBC HN ES       2356 50.31                             127   -0.12 9  164 218 
 SPBC SZ I        2356 53.27        58.3 0.26            128            164 218 
 ZAR  HZ EP       2356 32.36                             121    0.07 9  202 292 
 ZAR  HE ES       2356 57.46                             121    0.39 9  202 292 
 ZAR  SZ I        2357  3.65        51.7 0.18            122            202 292 
 NOR  HZ EP       2356 36.22                             117    0.38 8  235 234 
 NOR  HE ES       2357  2.83                             117   -0.57 8  235 234 
 NOR  SZ I        2357  5.76        20.7 0.18            118            235 234 
 SML  HZ EP       2356 36.04                             116   -0.46 8  241 335 
 SML  HN ES       2357  3.98                             116   -0.58 8  241 335 
 SML  SZ I        2357 10.34        25.5 0.10            117            241 335 
 CHI  HZ EP       2356 38.17                             115    0.15 8  250 195 
 CHI  HN ES       2357  6.29                             115   -0.97 8  250 195 
 CHI  SZ I        2357 14.98        11.8 0.38            116            250 195 
 HEL  HZ EP       2356 41.06                             113    0.79 8  271 255 
 HEL  HN ES       2357 12.18                             113    0.91 8  271 255 
 HEL  SZ I        2357 17.93        23.4 0.36            114            271 255 
 GUY2CHZ EP       2356 44.33                             111    0.53 7  301 234 
 GUY2CHN ES       2357 17.17                             111   -0.39 7  301 234 
 GUY2CSZ I        2357 24.97        12.9 0.30                           301 234 
 SOCV BZ EP       2356 42.27                             111   -1.03 7  302  57 
 RREF HZ EP       2356 46.83                             110    0.45 7  322 229 
 RREF HN ES       2357 21.98                             110   -0.17 7  322 229 
 RREF SZ I        2357 29.88        14.3 1.46            110            322 229 
 ANIL HZ EP       2356 51.07                             107    0.97 6  358 224 
 ANIL HN ES       2357 27.17                             107   -1.61 6  358 224 
 ANIL SZ I        2357 37.18        25.3 0.26            108            358 224 
 SDV  BZ EP       2356 49.48                             107   -0.83 6  360  51 
 SDV  BN ES   4   2357 24.59                             107   -4.55 0  360  51 
 ORTC HZ EP       2356 54.49                             105    0.20 6  396 216 
 ORTC HN ES       2357 36.61                             105    0.38 6  396 216 
 ORTC SZ I        2357 43.70        10.2 0.32            106            396 216 
                                                                                
