 2017 1014 2217 22.9 L   6.757 -73.214159.3  RSN  4 0.3 1.4LRSN                1
 GAP=226        0.71       6.0     5.9  6.3  0.2396E+02 -0.2557E+01 -0.6547E+01E
 Epicentro: ZAPATOCA - SANTANDER                                               3
 ACTION:UPD 17-11-07 19:31 OP:rebc STATUS:               ID:20171014221722 L   I
 OLDACT:REG 17-10-15 06:35 OP:leo  STATUS:               ID:20171014220218     3
 2017-10-14-2208-00M.COL___423                                                 6
 STAT SP IPHASW D HRMM SECON CODA AMPLIT PERI AZIMU VELO AIN AR TRES W  DIS CAZ7
 BRR  HZ EP       2217 45.62                             156    0.2710 67.2 305 
 BRR  HN ES       2218  2.71                             156   -0.1210 67.2 305 
 RUS  HZ EP       2217 47.94                             147    0.1710 96.7 171 
 RUS  HN ES       2218  7.00                             147   -0.1510 96.7 171 
 RUS  HZ I        2218  7.97         4.7 0.50            146           96.7 171 
 PTB  HZ EP       2217 50.45                             137    0.13 9  139 260 
 PTB  HN ES       2218 11.68                             137    0.00 9  139 260 
 PTB  HZ I        2218 13.39         2.4 0.16            136            139 260 
 ZAR  HZ EP       2217 55.12                             126   -0.66 9  199 294 
 ZAR  HN ES       2218 21.66                             126    0.26 9  199 294 
                                                                                
