 2011 1014 2336 16.7 L   6.748 -73.140148.5  RSN  5 0.3 1.8LRSN                1
 GAP=140        0.66       4.7     4.9  6.4  0.5458E+01  0.7321E+01 -0.1495E+01E
 Epicentro: LOS SANTOS - SANTANDER                                             3
 ACTION:UPD 12-07-13 16:03 OP:ep   STATUS:               ID:20111014233616 L   I
 2011-10-14-2333-34S.COL___167                                                 6
 STAT SP IPHASW D HRMM SECON CODA AMPLIT PERI AZIMU VELO AIN AR TRES W  DIS CAZ7
 BAR2 SZ EP   1   2336 37.07                             173    0.54 7 17.9 195 
 BAR2 SZ ES   1   2336 51.74                             173   -0.29 7 17.9 195 
 BAR2 SZ I        2336 53.31        12.3 0.26                          17.9 195 
 BRR  HZ EP   1   2336 38.60                             152    0.29 7 74.7 302 
 BRR  HN ES   1   2336 55.57                             152    0.38 7 74.7 302 
 BRR  HZ I        2336 57.84        19.1 0.36                          74.7 302 
 PAM  SZ EP   1   2336 39.55                             150    0.13 7 81.5  37 
 PAM  SZ I        2336 39.98         7.4 0.22                          81.5  37 
 PAM  SN ES   1   2336 56.86                             150   -0.31 7 81.5  37 
 RUS  HZ EP   1   2336 40.17                             146   -0.12 7 94.8 176 
 RUS  HN ES   1   2336 58.63                             146   -0.08 7 94.8 176 
 RUS  HZ I        2337  4.04         3.5 0.21                          94.8 176 
 ZAR  HZ EP   1   2336 48.98                             122   -0.61 6  207 294 
 ZAR  HE ES   1   2337 15.13                             122   -0.13 6  207 294 
 ZAR  HZ I        2337 20.11        17.8 0.46                           207 294 
                                                                                
