 2012  514 2105 39.5 L   6.819 -73.123153.1  RSN  4 0.1 1.4LRSN                1
 GAP=246        0.37       3.9     3.6  5.4  0.5494E+01  0.6642E+01 -0.1341E+00E
 Epicentro: LOS SANTOS - SANTANDER                                             3
 ACTION:UP  12-07-05 12:05 OP:pat  STATUS:               ID:20120514210539 L   I
 2012-05-14-2100-00M.COL___195                                                 6
 STAT SP IPHASW D HRMM SECON CODA AMPLIT PERI AZIMU VELO SNR AR TRES W  DIS CAZ7
 BAR2 SZ EP   1   21 6  0.08                             170     0.0 7   26 195 
 BAR2 SZ ES   2   21 6 16.35                             170     0.2 5   26 195 
 RUS  HZ EP   1   21 6  4.27                             145     0.1 7  103 178 
 RUS  HN ES   1   21 6 23.12                             145    -0.2 7  103 178 
 RUS  HZ I        21 6 24.78         4.3 0.46                           103 178 
 ZAR  HN ES   1   21 6 38.36                             124    -0.1 6  206 291 
 NOR  SZ EP   1   21 6 15.97                             120    -0.1 6  238 234 
 NOR  SN ES   1   21 6 44.67                             120     0.2 6  238 234 
                                                                                
