 2016 1114 2155 35.3 L   6.826 -73.134148.2  RSN  6 0.1 1.8LRSN                1
 GAP=151        0.37       2.9     2.0  3.1 -0.2401E+01  0.1605E+01 -0.1086E+01E
 Epicentro: LOS SANTOS - SANTANDER                                             3
 ACTION:UPD 17-10-26 21:08 OP:lp   STATUS:               ID:20161114215535 L   I
 OLDACT:REG 16-11-15 03:23 OP:and  STATUS:               ID:20161114214746     3
 2016-11-14-2148-00M.COL___341                                                 6
 STAT SP IPHASW D HRMM SECON CODA AMPLIT PERI AZIMU VELO AIN AR TRES W  DIS CAZ7
 BAR2 EZ ES       2156 10.84                             169   -0.0910 26.4 192 
 BAR2 EZ I        2156 11.25        17.6 0.18            167           26.4 192 
 BRR  HZ EP       2155 56.64                             153   -0.1110 71.0 296 
 BRR  HN ES   2   2156 13.84                             153    0.40 5 71.0 296 
 PAM  EZ IP     C 2155 57.73                             152    0.0810 74.3  40 
 PAM  EN ES       2156 15.05                             152    0.0110 74.3  40 
 PAM  EZ I        2156 17.45         5.9 0.61            155           74.3  40 
 PTB  HZ EP   9   2156  1.68                             132   -1.00 0  150 258 
 PTB  HN ES       2156 22.90                                   -0.10 9  150 258 
 PTB  HZ I        2156 30.06         6.6 0.34            131            150 258 
 ZAR  HN ES       2156 33.32                             123   -0.08 9  204 291 
 NOR  HE ES       2156 39.82                             119    0.10 8  237 234 
 NOR  HZ I        2156 45.00         5.1 0.20            118            237 234 
                                                                                
