 2017  415 0216 51.9 L   6.630 -73.512102.6  RSN  5 0.4 1.0LRSN                1
 GAP=119        1.09       6.2     5.6  9.3  0.1870E+02  0.2062E+02  0.3444E+01E
 Epicentro: EL CARMEN - SANTANDER                                              3
 ACTION:UPD 17-05-30 21:12 OP:jn   STATUS:               ID:20170415021651 L   I
 OLDACT:UP  17-04-15 14:42 OP:edw  STATUS:               ID:20170415020659     3
 OLDACT:UP  17-04-15 14:41 OP:edw  STATUS:               ID:20170415020659     3
 OLDACT:REG 17-04-15 12:37 OP:edw  STATUS:               ID:20170415020659     3
 2017-04-15-0208-00M.COL___368                                                 6
 STAT SP IPHASW D HRMM SECON CODA AMPLIT PERI AZIMU VELO AIN AR TRES W  DIS CAZ7
 BAR2 EZ EP        217  6.83                             159   -0.0410 36.7  97 
 BAR2 EZ ES        217 18.68                             159    0.1410 36.7  97 
 BAR2 EZ I         217 20.41         6.1 0.16            159           36.7  97 
 BRR  HZ IP     D  217  6.82                             149   -0.8110 57.2 337 
 BRR  HN ES        217 19.93                             149    0.0410 57.2 337 
 RUS  HZ EP   2    217 11.41                             134    0.24 5 94.4 150 
 RUS  HN ES        217 26.48                             134    0.2810 94.4 150 
 RUS  HZ I         217 29.41         1.8 0.40            134           94.4 150 
 PTB  HZ EP   2    217 11.48                             130    0.01 5  105 265 
 PTB  HN ES        217 26.30                             130   -0.4310  105 265 
 PTB  HZ I         217 27.29         1.8 0.52            131            105 265 
 ZAR  HZ EP        217 18.90                             115    0.02 9  177 303 
 ZAR  HN ES        217 40.86                             115    0.94 9  177 303 
 ZAR  HZ I         217 42.45         1.6 0.54            116            177 303 
                                                                                
