 2013 1215 0322  7.3 L   6.810 -73.166143.6  RSN 11 0.5 2.0LRSN                1
 GAP= 70        1.15       3.9     4.0  6.8 -0.4044E+01  0.5132E+01  0.5084E+01E
 Epicentro: LOS SANTOS - SANTANDER                                             3
 ACTION:UPD 14-01-13 10:18 OP:ep   STATUS:               ID:20131215032207 L   I
 OLDACT:REG 13-12-15 07:15 OP:jn   STATUS:               ID:20131215032000     3
 2013-12-15-0320-00M.COL___285                                                 6
 STAT SP IPHASW D HRMM SECON CODA AMPLIT PERI AZIMU VELO AIN AR TRES W  DIS CAZ7
 BAR2 SZ EP        322 26.77                             170    0.1210 24.2 184 
 BAR2 SZ ES        322 41.77                             170   -0.0010 24.2 184 
 BAR2 SZ I         322 43.19        48.5 0.22            170           24.2 184 
 BRR  HZ EP        322 28.63                             153    0.5910 68.7 299 
 BRR  HN ES   4    322 45.83                             153    1.59 0 68.7 299 
 BRR  HZ I         322 49.62        11.1 0.14            152           68.7 299 
 PAM  SZ EP        322 29.72                             150    0.4310 78.0  41 
 PAM  SN ES        322 46.77                             150    0.3110 78.0  41 
 PAM  SZ I         322 48.82        19.2 0.40            153           78.0  41 
 RUS  HZ EP        322 30.75                             143   -0.1510  102 175 
 RUS  HN ES        322 49.25                             143   -0.0810  102 175 
 RUS  HZ I         322 51.33        11.8 0.30            145            102 175 
 PTB  HZ EP        322 32.98                             132   -0.89 9  146 258 
 PTB  HN ES        322 54.32                             132   -0.31 9  146 258 
 PTB  HZ I         322 56.53        14.8 0.48            132            146 258 
 TAM  HZ EP        322 35.09                             130    0.09 9  158 105 
 TAM  HN ES        322 56.08                             130   -0.56 9  158 105 
 OCA  HN ES        322 56.73                             129   -0.40 9  159 354 
 OCA  HZ I         323  2.35        11.5 0.28            131            159 354 
 SPBC HZ EP        322 35.83                             129    0.29 9  163 218 
 SPBC HN ES        322 58.23                             129    0.63 9  163 218 
 SPBC HZ I         323  0.53        22.7 0.22            130            163 218 
 NOR  HZ EP        322 42.91                             118    0.17 8  234 234 
 NOR  HN ES        323  9.99                             118   -0.42 8  234 234 
 NOR  HZ I         323 15.95         9.7 0.22            119            234 234 
 CHI  HZ EP        322 44.95                             117    0.05 8  249 195 
 CHI  HN ES   1    323 13.18                             117   -1.07 6  249 195 
 CHI  HZ I         323 18.48         4.8 0.44            118            249 195 
 PRA  HZ EP        323  0.16                             106   -0.53 6  392 209 
 PRA  HN ES        323 43.77                             106    1.40 6  392 209 
 PRA  HZ I         323 49.36         4.5 0.40            108            392 209 
                                                                                
