 2016  815 0445 36.2 L   6.783 -73.170146.0  RSN  6 0.4 1.6LRSN                1
 GAP=233        1.00       5.5     5.8  7.2  0.1314E+02  0.7092E+01  0.1796E+01E
 Epicentro: LOS SANTOS - SANTANDER                                             3
 ACTION:UPD 16-10-29 15:35 OP:rebc STATUS:               ID:20160815044536 L   I
 OLDACT:REG 16-08-15 12:26 OP:ak   STATUS:               ID:20160815043726     3
 2016-08-15-0438-00M.COL___371                                                 6
 STAT SP IPHASW D HRMM SECON CODA AMPLIT PERI AZIMU VELO AIN AR TRES W  DIS CAZ7
 BAR2 EZ EP        445 55.62                             171   -0.2210 21.1 184 
 BAR2 EZ ES        446 10.69                             171   -0.4510 21.1 184 
 BAR2 EZ I         446 11.65         8.9 0.32                          21.1 184 
 BRR  HZ EP        445 57.44                             153    0.1210 69.8 301 
 BRR  HE ES        446 14.39                             153    0.6110 69.8 301 
 BRR  HZ I         446 18.28         6.1 0.36                          69.8 301 
 RUS  HZ EP        445 59.85                             144   -0.0310 98.9 174 
 RUS  HN ES        446 18.53                             144    0.2010 98.9 174 
 RUS  HZ I         446 19.96         3.2 0.64                          98.9 174 
 PTB  HZ EP        446  2.33                             133   -0.61 9  145 259 
 PTB  HE ES        446 23.90                             133    0.12 9  145 259 
 PTB  HZ I         446 25.71         3.4 0.38                           145 259 
 SPBC HZ EP        446  5.02                             130    0.58 9  160 219 
 SPBC HE ES        446 26.30                             130   -0.15 9  160 219 
 SPBC HZ I         446 29.55         5.1 0.10                           160 219 
 ZAR  HZ EP   2    446  9.43                             123    0.93 4  202 293 
 ZAR  HE ES        446 33.23                             123   -0.45 9  202 293 
 ZAR  HZ I         446 38.98         6.1 0.30                           202 293 
                                                                                
