 2013  115 0428 41.7 L   6.697 -73.260138.4  RSN  4 0.4 1.1LRSN                1
 GAP=191        0.83       8.2     7.7  8.9  0.3065E+02  0.1207E+02  0.7092E+01E
 Epicentro: BARICHARA - SANTANDER                                              3
 ACTION:UPD 13-02-15 09:14 OP:ep   STATUS:               ID:20130115042841 L   I
 2013-01-15-0426-45M.COL___181                                                 6
 STAT SP IPHASW D HRMM SECON CODA AMPLIT PERI AZIMU VELO AIN AR TRES W  DIS CAZ7
 BAR2 SZ EP   1    428 59.83                             174   -0.43 7 14.5 143 
 BAR2 SZ ES   1    429 14.12                             174   -0.63 7 14.5 143 
 BAR2 SZ I         429 15.52         5.6 0.26            179           14.5 143 
 BRR  HZ EP   1    429  1.89                             152    0.08 7 67.4 312 
 BRR  HN ES   1    429 18.15                             152    0.64 7 67.4 312 
 BRR  HZ I         429 26.52         2.7 0.42            151           67.4 312 
 RUS  HZ EP   1    429  4.27                             145    0.25 7 91.1 168 
 RUS  HN ES   1    429 21.87                             145    0.43 7 91.1 168 
 RUS  HZ I         429 23.72         1.1 0.50            154           91.1 168 
 PTB  HZ EP   1    429  6.64                             133   -0.10 7  133 263 
 PTB  HN ES   1    429 26.01                             133   -0.28 7  133 263 
                                                                                
