 2012  315 0442 22.2 L   6.749 -73.233160.2  RSN  5 0.2 1.6LRSN                1
 GAP=215        0.47       8.1     5.0  7.9  0.6577E+01 -0.6155E+01  0.1989E+02E
 ACTION:UP  12-03-31 23:19 OP:EP   STATUS:               ID:20120315044222 L   I
 2012-03-15-0440-00M.COL___202                                                 6
 STAT SP IPHASW D HRMM SECON CODA AMPLIT PERI AZIMU VELO SNR AR TRES W  DIS CAZ7
 BOG1 EZ EP        440 37.88                                                    
 BAR2 SZ EP   1    442 43.25                             173    -0.3 7   18 162 
 BRR  HZ EP   1    442 44.84                             156     0.1 7   66 307 
 BRR  HZ I         442 45.03        11.1 0.22                            66 307 
 BRR  HN ES   1    443  2.35                             156     0.1 7   66 307 
 PTB  HZ EP   1    442 49.72                             137     0.2 7  137 260 
 PTB  HE ES   1    443 10.77                             137     0.0 7  137 260 
 PTB  HZ I         443 16.82         3.7 0.28                           137 260 
 ZAR  HN ES   1    443 20.35                             126    -0.2 6  197 295 
                                                                                
