 2014  115 0806 58.2 L   6.809 -73.145144.0  RSN 10 0.5 2.5LRSN                1
 GAP= 71        1.11       3.3     3.7  8.3  0.8048E+00  0.8032E+01  0.4872E+01E
 Epicentro: LOS SANTOS - SANTANDER                                             3
 ACTION:UPD 14-03-13 09:55 OP:ep   STATUS:               ID:20140115080658 L   I
 OLDACT:UP  14-01-15 11:31 OP:cam  STATUS:               ID:20140115080001d    3
 OLDACT:UP  14-01-15 11:31 OP:cam  STATUS:               ID:20140115080001d    3
 OLDACT:UP  14-01-15 11:30 OP:cam  STATUS:               ID:20140115080001d    3
 OLDACT:DUP 14-01-15 11:17 OP:cam  STATUS:               ID:20140115080001d    3
 OLDACT:UP  14-01-15 11:13 OP:cam  STATUS:               ID:20140115080000     3
 OLDACT:REG 14-01-15 07:59 OP:cam  STATUS:               ID:20140115080000     3
 2014-01-15-0800-00M.COL___285                                                 6
 STAT SP IPHASW D HRMM SECON CODA AMPLIT PERI AZIMU VELO AIN AR TRES W  DIS CAZ7
 PAM  SZ ES        8 7 37.72                             151    0.4510 76.6  40 
 PAM  SZ I         8 7 39.64        29.2 0.56            154           76.6  40 
 RUS  HZ EP        8 7 21.33                             143   -0.4710  102 176 
 RUS  HN ES        8 7 40.44                             143    0.1910  102 176 
 PTB  HZ EP        8 7 24.60                             132   -0.40 9  148 258 
 PTB  HN ES        8 7 45.87                             132   -0.08 9  148 258 
 PTB  HN I         8 7 50.67        22.8 0.22            133            148 258 
 TAM  HZ IP     D  8 7 25.64                             130   -0.06 9  155 105 
 TAM  HZ I         8 7 25.74        26.8 0.20            135            155 105 
 TAM  HN ES        8 7 47.34                             130    0.15 9  155 105 
 OCA  HE ES        8 7 47.44                             130   -0.70 9  159 353 
 OCA  HE I         8 7 51.68        54.5 0.24            132            159 353 
 SPBC HZ EP        8 7 26.46                             129   -0.13 9  164 219 
 SPBC HN ES        8 7 48.83                             129    0.05 9  164 219 
 SPBC HN I         8 7 55.04        53.0 0.36            131            164 219 
 ZAR  HE ES        8 7 55.65                             122   -0.00 9  204 292 
 SML  HN ES        8 8  3.33                             117    0.32 8  243 335 
 SML  HN I         8 8  7.29        52.1 0.10            119            243 335 
 CHI  HZ EP        8 7 35.60                             117   -0.26 8  250 195 
 CHI  HN ES        8 8  5.13                             117   -0.14 8  250 195 
 HEL  HZ EP        8 7 39.84                             114    1.53 8  272 256 
                                                                                
