 2014 1015 0637 29.7 L   6.841 -73.151156.6  RSN  5 0.5 1.4LRSN                1
 GAP=145        1.22      13.4     6.2 11.6 -0.2389E+02  0.3056E+01  0.5429E+02E
 Epicentro: LOS SANTOS - SANTANDER                                             3
 ACTION:UPD 14-11-29 23:50 OP:nd   STATUS:               ID:20141015063729 L   I
 OLDACT:REG 14-10-15 13:34 OP:mh   STATUS:               ID:20141015062736     3
 2014-10-15-0627-36M.COL___292                                                 6
 STAT SP IPHASW D HRMM SECON CODA AMPLIT PERI AZIMU VELO AIN AR TRES W  DIS CAZ7
 BAR2 SZ EP        637 50.93                             170    0.1810 27.7 187 
 BAR2 SZ I         638  8.50         6.4 0.31            142           27.7 187 
 BRR  HZ EP        637 52.89                             155    0.9710 68.6 295 
 BRR  HN ES        638  9.51                             155    0.2810 68.6 295 
 BRR  HZ I         638 13.38         3.0 0.22            151           68.6 295 
 PAM  SZ EP        637 52.88                             154   -0.0610 74.4  42 
 PAM  SN ES        638 10.60                             154   -0.4410 74.4  42 
 PAM  SZ I         638 10.95         2.4 0.40            154           74.4  42 
 PTB  HZ EP        637 56.80                             134   -0.83 9  148 257 
 PTB  HZ I         638 17.26         3.3 0.24            123            148 257 
 PTB  HN ES        638 19.32                             134   -0.07 9  148 257 
 ZAR  HZ EP   1    638  2.82                             125    0.14 6  202 291 
 ZAR  HN ES        638 28.10                             125   -0.28 9  202 291 
 ZAR  HZ I         638 31.19         2.6 0.44            121            202 291 
                                                                                
