 2010  515 0730 12.6 L   6.798 -72.968138.0  RSN  5 0.4 1.3LRSN                1
 GAP=185        0.94      10.1    16.1 17.8  0.3805E+02 -0.1187E+03 -0.1265E+03E
 Epicentro: CEPITA - SANTANDER                                                 3
 ACTION:UP  10-08-24 10:05 OP:vdl  STATUS:               ID:20100515073012 L   I
 2010-05-15-0727-19S.COL___108                                                 6
 STAT SP IPHASW D HRMM SECON CODA AMPLIT PERI AZIMU VELO AIN AR TRES W  DIS CAZ7
 BAR2 SZ EP        730 30.88                             166    -0.710   33 226 
 BAR2 SZ ES   2    730 46.39                             166     0.0 5   33 226 
 BRR  HZ EP        730 34.20                             145     0.110   89 293 
 BRR  HN ES   2    730 50.79                             145    -0.1 5   89 293 
 BRR  HZ I         730 52.10         6.5 0.15                            89 293 
 RUS  HZ EP   3    730 36.16                             142     0.5 2  101 187 
 RUS  HN ES   2    730 54.53                             142     0.9 5  101 187 
 RUS  HZ I         730 56.06         1.9 0.54                           101 187 
 GUE  SZ EP        730 36.67                             138     0.210  114   2 
 OCA  SZ EP        730 40.86                             127     0.2 9  164 346 
                                                                                
