 2015  315 0546 43.4 L   6.816 -73.141145.9  RSN 24 0.5 2.4LRSN                1
 GAP= 71        1.04       2.7     2.9  4.7 -0.1051E+01  0.3156E+01  0.2092E+01E
 Epicentro: LOS SANTOS - SANTANDER                                             3
 ACTION:UPD 15-04-30 16:26 OP:nd   STATUS:               ID:20150315054643 L   I
 OLDACT:UP  15-03-15 17:17 OP:spq  STATUS:               ID:20150315053744     3
 OLDACT:REG 15-03-15 12:58 OP:spq  STATUS:               ID:20150315053744     3
 2015-03-15-0537-44M.COL___260                                                 6
 STAT SP IPHASW D HRMM SECON CODA AMPLIT PERI AZIMU VELO AIN AR TRES W  DIS CAZ7
 BAR2 EZ EP     C  547  2.96                             170   -0.1210 25.2 191 
 BAR2 EZ ES   1    547 18.04                             170   -0.39 7 25.2 191 
 BAR2 EZ I         547 19.20        73.9 0.12            169           25.2 191 
 BRR  HZ IP     C  547  4.84                             153    0.3010 70.9 297 
 BRR  HN ES        547 22.06                             153    1.0310 70.9 297 
 BRR  HZ I         547 25.85        36.5 0.14            151           70.9 297 
 PAM  SZ EP     D  547  5.73                             151    0.2110 75.7  40 
 PAM  SN ES        547 22.84                             151    0.0610 75.7  40 
 PAM  SZ I         547 25.40        26.5 0.52            151           75.7  40 
 RUS  HZ EP     C  547  6.87                             143   -0.4110  102 176 
 RUS  HN ES        547 25.82                             143   -0.1010  102 176 
 RUS  HZ I         547 26.48        21.1 0.18            143            102 176 
 PTB  HZ EP        547  9.54                             132   -0.91 9  149 258 
 PTB  HN ES        547 30.99                             132   -0.57 9  149 258 
 PTB  HZ I         547 36.77        40.6 0.64            130            149 258 
 TAM  HZ EP        547 11.18                             131    0.11 9  155 106 
 TAM  HZ I         547 31.93        16.1 0.30            130            155 106 
 TAM  HN ES        547 32.86                             131    0.20 9  155 106 
 OCA  HZ EP   1    547 11.78                             130    0.23 7  159 353 
 OCA  HN ES        547 33.17                             130   -0.35 9  159 353 
 OCA  HZ I         547 36.42        20.7 0.42            129            159 353 
 SPBC HZ EP        547 11.91                             129   -0.15 9  165 219 
 SPBC HN ES        547 34.28                             129   -0.15 9  165 219 
 SPBC HZ I         547 39.67        46.5 0.22            127            165 219 
 ZAR  HZ EP   1    547 15.43                             122   -0.40 6  204 292 
 ZAR  HE ES        547 41.44                             122    0.31 9  204 292 
 ZAR  HZ I         547 49.49        29.4 0.34            121            204 292 
 NOR  HZ EP        547 18.87                             118   -0.41 8  236 234 
 NOR  HE ES        547 46.61                             118   -0.68 8  236 234 
 NOR  HZ I         547 53.20        28.4 0.32            117            236 234 
 SML  HZ EP   1    547 19.87                             118   -0.00 6  242 335 
 SML  HN ES   1    547 47.82                             118   -0.51 6  242 335 
 SML  HZ I         547 58.40        22.0 0.10            117            242 335 
 ROSC BZ EP        547 22.65                             116    0.94 8  255 211 
 ROSC BE ES   1    547 51.29                             116   -0.32 6  255 211 
 ROSC BZ I         548  0.65        33.0 0.35            116            255 211 
 HEL  HZ EP        547 24.27                             115    0.55 8  273 255 
 HEL  HN ES   4    547 56.74                             115    1.57 0  273 255 
 HEL  HZ I         548  1.84        13.5 0.46            114            273 255 
 URE  HZ EP   4    547 22.95                             114   -1.50 0  284 292 
 GUY2CHZ EP        547 28.03                             112    0.86 7  303 235 
 GUY2CHE ES   4    548  4.73                             112    3.41 0  303 235 
 GUY2CHZ I         548  5.93        19.7 0.42                           303 235 
 PTGC HZ EP   4    547 25.94                             111   -1.47 0  310 159 
 PTGC HN ES   4    547 59.21                             111   -2.55 0  310 159 
 PTGC HZ I         547 59.93         8.6 0.30            111            310 159 
 RREF HZ EP        547 30.20                             111    0.48 7  323 229 
 RREF HN ES   4    548  8.26                             111    2.41 0  323 229 
 RREF HZ I         548 13.47        18.1 0.34            110            323 229 
 CBOC HZ EP        547 30.80                             110    0.37 7  335 252 
 DBB  SZ EP        547 30.57                             109   -0.35 7  340 274 
 DBB  SZ ES   1    548  8.34                             109    0.35 5  340 274 
 DBB  SZ I         548 10.83        22.5 0.30            109            340 274 
 TOL  SZ EP        547 31.94                             109    0.10 7  345 225 
 TOL  SE ES   4    548 11.67                             109    2.04 0  345 225 
 TOL  SZ I         548 14.56        28.4 0.88            108            345 225 
 MON  HZ EP   4    547 30.45                             109   -1.87 0  353 308 
 MON  HN ES   4    548  9.07                             109   -1.41 0  353 308 
 MON  HZ I         548 12.06         3.7 0.36            108            353 308 
 ANIL HZ EP   4    547 34.52                             108    1.13 0  359 224 
 ANIL HE ES   4    548 14.34                             108    1.95 0  359 224 
 ANIL HZ I         548 20.84         2.8 0.40            108            359 224 
 SDV  BZ EP        547 32.49                             108   -0.76 6  359  50 
 SDV  BN ES   4    548 10.16                             108   -1.99 0  359  50 
 PRA  HZ EP   1    547 36.63                             106   -0.49 4  394 210 
 PRA  HN ES        548 19.40                             106    0.36 6  394 210 
 PRA  HZ I         548 23.79        10.9 0.26            106            394 210 
 ORTC HZ EP        547 37.56                             106    0.04 6  397 216 
 ORTC HN ES        548 20.36                             106    0.62 6  397 216 
 ORTC HZ I         548 25.99         9.1 0.44            106            397 216 
                                                                                
