 2016  315 0147 54.1 L   6.829 -73.198143.6  RSN  6 0.2 1.5LRSN                1
 GAP=147        0.40       2.4     3.5  4.1 -0.1783E+01  0.7332E+01  0.1646E+01E
 Epicentro: ZAPATOCA - SANTANDER                                               3
 ACTION:UPD 16-05-13 21:24 OP:cam  STATUS:               ID:20160315014754 L   I
 OLDACT:REG 16-03-15 13:13 OP:dnl  STATUS:               ID:20160315013752     3
 2016-03-15-0137-52M.COL___307                                                 6
 STAT SP IPHASW D HRMM SECON CODA AMPLIT PERI AZIMU VELO AIN AR TRES W  DIS CAZ7
 BAR2 EZ EP   3    148 13.65                             169    0.14 2 26.3 176 
 BAR2 EZ ES   2    148 28.46                             169   -0.21 5 26.3 176 
 BAR2 EZ I         148 31.13         9.1 0.24            170           26.3 176 
 PAM  EZ EP   2    148 16.67                             150    0.52 5 78.9  44 
 PAM  EN ES        148 33.25                             150   -0.1210 78.9  44 
 PAM  EZ I         148 35.70         5.8 0.52            154           78.9  44 
 RUS  HZ EP        148 17.79                             142   -0.1110  104 173 
 RUS  HE ES        148 36.63                             142    0.1610  104 173 
 RUS  HZ I         148 37.30         5.1 0.26            145            104 173 
 PTB  HZ EP        148 20.50                             132    0.09 9  143 257 
 PTB  HN ES   2    148 40.96                             132    0.00 5  143 257 
 PTB  HZ I         148 43.76         3.9 0.15            134            143 257 
 CHI  HZ EP        148 31.76                             116   -0.08 8  250 194 
 CHI  HN ES   2    149  1.01                             116   -0.28 4  250 194 
 CHI  HZ I         149  4.31         1.6 0.52            119            250 194 
 GUY2CHZ EP   4    148 39.21                             112    1.94 0  298 234 
 GUY2CHE ES   4    149 13.48                             112    2.53 0  298 234 
 GUY2CHZ I         149 20.64         1.5 0.34                           298 234 
                                                                                
