 2014 1215 0441 42.7 L   5.956 -73.797109.3  RSN 19 0.4 2.0LRSN                1
 GAP= 82        1.05       1.9     2.2  4.8 -0.1318E+01  0.1411E+01 -0.8933E+00E
 Epicentro: SUCRE - SANTANDER                                                  3
 ACTION:UPD 15-02-10 17:03 OP:nd   STATUS:               ID:20141215044142 L   I
 OLDACT:REG 14-12-15 13:02 OP:fm   STATUS:               ID:20141215043741     3
 2014-12-15-0437-41M.COL___288                                                 6
 STAT SP IPHASW D HRMM SECON CODA AMPLIT PERI AZIMU VELO AIN AR TRES W  DIS CAZ7
 SPBC HZ EP        441 58.78                             156    0.2210 45.4 222 
 SPBC HN ES        442 11.01                             156    0.0410 45.4 222 
 SPBC HZ I         442 13.25        31.7 0.50            155           45.4 222 
 RUS  HZ IP     C  442  1.41                             142    0.1110 79.3  95 
 RUS  HE ES        442 15.27                             142   -0.5710 79.3  95 
 RUS  HZ I         442 17.36        13.2 0.32            138           79.3  95 
 PTB  HZ EP        442  1.42                             135   -0.6910 97.4 312 
 PTB  HE ES        442 16.68                             135   -0.6010 97.4 312 
 PTB  HZ I         442 18.61        24.5 0.14            133           97.4 312 
 BAR2 EZ IP     C  442  2.98                             135    0.5310 97.8  44 
 BAR2 EZ ES        442 18.50                             135    0.6110 97.8  44 
 BAR2 EZ I         442 20.74        33.3 0.46            132           97.8  44 
 NOR  HZ EP        442  5.01                             127    0.1710  126 250 
 NOR  HE ES        442 22.74                             127    0.6010  126 250 
 NOR  HZ I         442 24.73        35.9 0.32            125            126 250 
 BRR  HZ IP     C  442  5.15                             126    0.2710  128   4 
 BRR  HE ES        442 22.43                             126    0.2110  128   4 
 BRR  HZ I         442 26.08        24.3 0.14            124            128   4 
 ROSC BZ EP        442  6.48                             125    0.21 9  136 205 
 ROSC BN ES        442 24.82                             125    0.14 9  136 205 
 ROSC BZ I         442 30.23        11.0 0.40            123            136 205 
 CHI  HZ EP        442  6.57                             123   -0.79 9  147 177 
 CHI  HN ES        442 25.96                             123   -0.67 9  147 177 
 CHI  HZ I         442 31.02         5.2 0.32            120            147 177 
 HEL  HZ EP        442 12.49                             115    0.19 9  193 278 
 HEL  HE ES        442 34.69                             115   -0.74 9  193 278 
 HEL  HZ I         442 40.21         7.4 0.48            114            193 278 
 PAM  SZ EP        442 12.85                             114    0.20 9  195  38 
 PAM  SE ES        442 36.77                             114    0.72 9  195  38 
 PAM  SZ I         442 42.00         6.7 0.16            113            195  38 
 VIL  SE ES        442 36.83                             113   -0.20 9  204 177 
 VIL  SZ I         442 40.28        15.1 0.32            112            204 177 
 ZAR  HZ EP        442 13.05                             113   -0.24 8  206 325 
 ZAR  HN ES        442 36.92                             113   -0.27 8  206 325 
 ZAR  HZ I         442 41.64        14.1 0.74            112            206 325 
 RREF HZ EP        442 14.41                             113    0.18 8  208 236 
 RREF HN ES        442 39.27                             113    0.42 8  208 236 
 RREF HZ I         442 44.83        12.6 0.24            112            208 236 
 TOL  SZ EP        442 16.28                             110    0.25 8  227 228 
 TOL  SE ES        442 42.38                             110    0.32 8  227 228 
 TOL  SZ I         442 46.79        13.1 0.22            110            227 228 
 TAM  HZ EP        442 16.03                             110    0.23 8  228  76 
 TAM  HZ I         442 40.51         9.8 0.12            109            228  76 
 TAM  HE ES        442 41.31                             110   -0.35 8  228  76 
 CBOC HZ EP        442 18.59                             108    0.63 8  246 268 
 CBOC HE ES        442 45.61                             108    0.11 8  246 268 
 CBOC HZ I         442 49.27         2.4 0.18            108            246 268 
 OCA  HZ EP        442 19.10                             107   -0.27 8  258  12 
 OCA  HE ES        442 48.02                             107    0.00 8  258  12 
 OCA  HZ I         442 55.65         9.4 0.40            107            258  12 
 ORTC HZ EP        442 21.25                             106   -0.28 7  278 215 
 ORTC HE ES        442 52.00                             106    0.14 7  278 215 
 ORTC HZ I         442 58.46        10.0 0.40            106            278 215 
 SML  HZ EP        442 25.44                             103   -0.58 7  316 355 
 SML  HE ES        442 59.26                             103   -0.59 7  316 355 
 SML  HZ I         443  8.42        13.3 0.10            104            316 355 
                                                                                
