 2017  415 0255 33.6 L   6.778 -73.122140.0  RSN 11 0.4 1.6LRSN                1
 GAP=115        1.04       3.4     3.8  5.8  0.1034E+01  0.2614E+01  0.3763E+01E
 Epicentro: LOS SANTOS - SANTANDER                                             3
 ACTION:UPD 17-05-30 21:12 OP:jn   STATUS:               ID:20170415025533 L   I
 OLDACT:UP  17-04-15 15:24 OP:edw  STATUS:               ID:20170415024328     3
 OLDACT:UP  17-04-15 15:22 OP:edw  STATUS:               ID:20170415024328     3
 OLDACT:REG 17-04-15 12:42 OP:edw  STATUS:               ID:20170415024328     3
 2017-04-15-0248-00M.COL___368                                                 6
 STAT SP IPHASW D HRMM SECON CODA AMPLIT PERI AZIMU VELO AIN AR TRES W  DIS CAZ7
 BAR2 EZ EP        255 52.45                             171   -0.0710 21.6 198 
 BAR2 EZ ES        256  7.32                             171    0.0510 21.6 198 
 BAR2 EZ I         256  8.89         8.5 0.26            168           21.6 198 
 BRR  HZ EP     C  255 54.34                             150   -0.0110 74.7 299 
 BRR  HN ES        256 10.98                             150    0.4510 74.7 299 
 BRR  HZ I         256 11.76         7.6 0.10            151           74.7 299 
 PAM  EZ IP     D  255 55.34                             150    0.1010 77.7  37 
 PAM  EN ES        256 12.26                             150    0.1510 77.7  37 
 PAM  EZ I         256 14.47         5.5 0.28            152           77.7  37 
 RUS  HZ EP        255 56.94                             143    0.3210 98.0 177 
 RUS  HN ES        256 14.33                             143   -0.2310 98.0 177 
 RUS  HZ I         256 16.77         3.7 0.38            142           98.0 177 
 PTB  HZ EP   9    255 59.10                             130   -1.22 0  150 260 
 PTB  HN ES        256 20.22                             131    0.29 9  150 260 
 PTB  HZ I         256 22.15         3.7 0.50            130            150 260 
 SPBC HZ EP        256  1.85                             128    0.19 9  163 220 
 SPBC HN ES        256 23.99                             128    0.45 9  163 220 
 SPBC HZ I         256 26.91         5.9 0.12            127            163 220 
 YPLC HZ EP        256  2.98                             126    0.31 9  173 152 
 YPLC HN ES        256 24.48                             126   -0.84 9  173 152 
 YPLC HZ I         256 30.00         2.6 0.22            126            173 152 
 ZAR  HZ EP        256  6.03                             121   -0.02 8  207 292 
 ZAR  HN ES        256 30.03                             121   -1.31 8  207 292 
 ZAR  HZ I         256 36.26         3.9 0.32            121            207 292 
 NOR  HN ES        256 37.00                             117    0.22 8  235 235 
 CHI  HZ EP   4    256  9.06                             116   -1.77 0  247 196 
 CHI  HE ES        256 39.64                             116   -0.21 8  247 196 
 CHI  HZ I         256 47.36         2.1 0.64            116            247 196 
 PRA  HZ EP        256 27.08                             106    0.23 6  391 210 
 PRA  HE ES   4    257  9.28                             106    0.90 0  391 210 
 PRA  HZ I         257 15.15         2.4 0.30            106            391 210 
                                                                                
