 2013  515 0816 23.5 L   6.768 -73.155141.9  RSN  7 0.3 1.7LRSN                1
 GAP=182        0.55       3.9     4.1  4.6  0.1358E+01  0.4219E+01  0.3076E+01E
 Epicentro: LOS SANTOS - SANTANDER                                             3
 ACTION:UPD 13-06-20 09:50 OP:ep   STATUS:               ID:20130515081623 L   I
 2013-05-15-0810-00M.COL___256                                                 6
 STAT SP IPHASW D HRMM SECON CODA AMPLIT PERI AZIMU VELO AIN AR TRES W  DIS CAZ7
 BAR2 SZ EP        816 42.61                             172   -0.0010 19.7 189 
 BAR2 SZ ES   1    816 57.71                             172    0.20 7 19.7 189 
 BAR2 SZ I         816 58.77         7.5 0.22            171           19.7 189 
 GIR2 SZ EP        816 42.78                             165   -0.0510 34.6 353 
 GIR2 SZ ES   1    816 57.48                             165   -0.41 7 34.6 353 
 GIR2 SZ I         816 58.68         6.2 0.12            163           34.6 353 
 BRR  HZ EP     C  816 44.59                             152    0.2910 72.0 301 
 BRR  HN ES   1    817  0.83                             152    0.33 7 72.0 301 
 BRR  HN I         817  2.17        10.6 0.12            148           72.0 301 
 RUS  HZ EP   1    816 46.61                             144   -0.03 7 97.2 175 
 RUS  HN ES   1    817  4.65                             144   -0.03 7 97.2 175 
 RUS  HN I         817  6.69         6.7 0.28            144           97.2 175 
 PTB  HZ EP   1    816 49.53                             131   -0.49 7  146 260 
 PTB  HN ES   1    817 10.40                             131   -0.29 7  146 260 
 PTB  HN I         817 11.32         7.4 0.24            129            146 260 
 NOR  HZ EP   1    816 58.91                             118    0.20 6  232 235 
 NOR  HN ES   2    817 26.36                             118    0.19 4  232 235 
 NOR  HN I         817 31.81         7.1 0.36            117            232 235 
 SML  HZ EP   4    816 59.93                             116   -0.30 0  246 336 
 SML  HN ES   4    817 26.83                             116   -2.03 0  246 336 
 SML  HN I         817 35.19         7.7 0.32            115            246 336 
                                                                                
