 2017  415 0633 31.1 L   6.799 -73.133140.7  RSN  9 0.5 1.4LRSN                1
 GAP=113        1.22       4.7     4.8  7.2  0.1335E+01  0.5405E+01  0.4239E+01E
 Epicentro: LOS SANTOS - SANTANDER                                             3
 ACTION:UPD 17-05-30 21:12 OP:jn   STATUS:               ID:20170415063331 L   I
 OLDACT:UP  17-04-15 17:23 OP:edw  STATUS:               ID:20170415062738     3
 OLDACT:REG 17-04-15 13:13 OP:edw  STATUS:               ID:20170415062738     3
 2017-04-15-0628-00M.COL___368                                                 6
 STAT SP IPHASW D HRMM SECON CODA AMPLIT PERI AZIMU VELO AIN AR TRES W  DIS CAZ7
 BAR2 EZ IP     D  633 50.12                             170    0.0110 23.5 194 
 BAR2 EZ ES        634  4.91                             170   -0.0310 23.5 194 
 BAR2 EZ I         634  5.91         7.4 0.30            170           23.5 194 
 BRR  HZ EP        633 52.00                             151    0.2410 72.5 298 
 BRR  HN ES        634  8.83                             151    0.9410 72.5 298 
 PAM  EZ EP        633 53.00                             150    0.2910 76.5  39 
 PAM  EN ES        634  8.82                             150   -0.7510 76.5  39 
 PAM  EZ I         634 11.91         4.9 0.44            153           76.5  39 
 RUS  HZ EP        633 54.45                             143    0.1210  100 177 
 RUS  HN ES        634 12.58                             143    0.1310  100 177 
 RUS  HZ I         634 14.52         2.5 0.16            144            100 177 
 PTB  HZ EP        633 57.08                             131   -0.69 9  149 259 
 PTB  HN ES        634 17.83                             131   -0.76 9  149 259 
 PTB  HZ I         634 20.55         2.5 0.10            131            149 259 
 SPBC HZ EP        633 58.82                             128   -0.46 9  164 219 
 SPBC HN ES        634 21.36                             128    0.09 9  164 219 
 SPBC HZ I         634 25.46         4.0 0.24            128            164 219 
 YPLC HZ EP        634  0.54                             126    0.10 9  176 152 
 ZAR  HZ EP        634  4.01                             121    0.66 8  205 292 
 ZAR  HN ES        634 28.36                             121   -0.15 8  205 292 
 ZAR  HZ I         634 33.66         3.1 0.54            122            205 292 
 CHI  HE ES   2    634 38.77                             116    1.02 4  249 195 
                                                                                
