 2012  515 0600 47.2 L   6.822 -73.115145.9  RSN 10 0.4 2.1LRSN                1
 GAP=139        0.91       4.2     6.2  6.9  0.2272E+01  0.1404E+02  0.4500E+01E
 Epicentro: LOS SANTOS - SANTANDER                                             3
 ACTION:UP  12-07-05 12:05 OP:pat  STATUS:               ID:20120515060047 L   I
 2012-05-15-0600-00M.COL___195                                                 6
 STAT SP IPHASW D HRMM SECON CODA AMPLIT PERI AZIMU VELO SNR AR TRES W  DIS CAZ7
 BAR2 SZ EP   1    6 1  6.92                             169     0.1 7   27 196 
 BAR2 SZ ES   1    6 1 21.92                             169    -0.3 7   27 196 
 BAR2 SZ I         6 1 24.41        20.9 0.27                            27 196 
 PAM  SZ EP   1    6 1  9.65                             152     0.5 7   73  39 
 PAM  SE ES   1    6 1 26.60                             152     0.3 7   73  39 
 BRR  HZ EP   1    6 1  8.67                             152     0.3 7   73 296 
 BRR  HZ I         6 1 10.06        26.1 0.09                            73 296 
 BRR  HN ES   1    6 1 25.62                             152     0.6 7   73 296 
 RUS  HZ EP   1    6 1 10.84                             143    -0.2 7  103 178 
 RUS  HN ES   1    6 1 29.38                             143    -0.4 7  103 178 
 RUS  HZ I         6 1 31.39        19.1 0.28                           103 178 
 OCA  HZ EP   1    6 1 15.38                             130     0.1 7  158 352 
 OCA  HN ES   1    6 1 36.32                             130    -0.9 7  158 352 
 ZAR  HZ EP   1    6 1 19.22                             122    -0.6 6  206 291 
 ZAR  HN ES   1    6 1 45.20                             122    -0.1 6  206 291 
 ZAR  HZ I         6 1 51.36        13.0 0.25                           206 291 
 CHI  HZ EP   1    6 1 25.35                             117     0.1 6  252 196 
 HEL  HZ EP   1    6 1 28.43                             114     0.6 6  276 255 
 HEL  HZ I         6 2  5.28         8.6 0.43                           276 255 
 RREF HZ EP   2    6 1 34.23                             110     0.5 3  326 229 
 RREF HZ I         6 2 20.07         7.0 0.34                           326 229 
 PRA  HZ EP   1    6 1 40.53                             106    -0.6 4  396 210 
 PRA  HE ES   2    6 2 23.51                             106     0.3 3  396 210 
                                                                                
