 2010 1115 0138 20.9 L   6.798 -73.085144.2  RSN 11 0.2 1.9LRSN                1
 GAP=165        0.42       2.0     4.0  3.6 -0.1170E+01  0.3532E+01  0.3643E+00E
 Epicentro: LOS SANTOS - SANTANDER                                             3
 ACTION:UP  10-12-17 16:52 OP:REBC STATUS:               ID:20101115013820 L   I
 2010-11-15-0133-48S.COL___127                                                 6
 STAT SP IPHASW D HRMM SECON CODA AMPLIT PERI AZIMU VELO SNR AR TRES W  DIS CAZ7
 BAR2 SZ EP   1    138 40.28                             170    -0.1 7   25 206 
 BAR2 SZ ES   1    138 55.47                             170    -0.1 7   25 206 
 BAR2 SZ I         139  3.89        13.2 0.42                            25 206 
 GIR2 SZ EP   2    138 40.50                             166     0.1 5   33 339 
 BRR  HZ IP     D  138 42.19                             150     0.010   77 296 
 BRR  HE ES   1    138 59.07                             150     0.2 7   77 296 
 BRR  HZ I         139  2.60        24.2 0.16                            77 296 
 RUS  HZ EP   1    138 44.48                             144     0.0 7  100 180 
 RUS  HN ES   1    139  2.91                             144     0.1 7  100 180 
 RUS  HZ I         139  4.93         7.8 0.37                           100 180 
 GRA  SZ ES   2    139  5.24                             137    -0.1 5  124  14 
 GRA  SZ I         139  6.85        10.6 0.26                           124  14 
 OCA  SZ EP   1    138 49.36                             129     0.2 7  161 351 
 OCA  SZ ES   1    139 11.17                             129    -0.1 7  161 351 
 OCA  SZ I         139 13.58        10.5 0.18                           161 351 
 NOR  SZ EP   2    138 56.64                             118    -0.5 4  240 236 
 NOR  SE ES   2    139 24.73                             118    -0.7 4  240 236 
 ROSC BZ EP   2    138 59.22                             116    -0.1 4  256 212 
 ROSC BZ I         139 34.86         6.8 0.50                           256 212 
 HEL  HZ EP   2    139  1.87                             114     0.1 4  279 256 
 HEL  HZ I         139 40.25         5.7 0.29                           279 256 
 RREF HZ EP   2    139  7.27                             110    -0.3 3  327 230 
 RREF HN ES   2    139 44.63                             110     0.7 3  327 230 
 RREF HZ I         139 51.61         4.9 0.35                           327 230 
 PRA  HZ EP   2    139 14.98                             106     0.3 3  395 210 
 PRA  HE ES   2    139 57.02                             106     0.3 3  395 210 
                                                                                
