 2013  615 0311 34.3 L   6.781 -73.150148.0  RSN 11 0.4 2.2LRSN                1
 GAP=182        0.85       3.2     4.6  5.7  0.2295E+00  0.5352E+01  0.1866E+01E
 Epicentro: LOS SANTOS - SANTANDER                                             3
 ACTION:UPD 14-01-08 09:54 OP:ep   STATUS:               ID:20130615031134 L   I
 OLDACT:UP  13-06-15 09:11 OP:mh   STATUS:               ID:20130615030959     3
 OLDACT:UP  13-06-15 09:08 OP:mh   STATUS:               ID:20130615030959     3
 OLDACT:REG 13-06-15 07:24 OP:mh   STATUS:               ID:20130615030959     3
 2013-06-15-0309-59M.COL___261                                                 6
 STAT SP IPHASW D HRMM SECON CODA AMPLIT PERI AZIMU VELO AIN AR TRES W  DIS CAZ7
 BAR2 SZ EP   1    311 53.80                             171   -0.37 7 21.2 190 
 BAR2 SZ ES   1    312  9.03                             171   -0.63 7 21.2 190 
 BAR2 SZ I         312 11.96        12.5 0.22            168           21.2 190 
 BRR  HZ EP   1    311 56.07                             153    0.33 7 71.8 300 
 BRR  HN ES        312 13.18                             153    0.7310 71.8 300 
 BRR  HN I         312 14.03        28.8 0.20            149           71.8 300 
 RUS  HZ EP   1    311 58.42                             145    0.28 7 98.5 176 
 RUS  HN ES   1    312 16.61                             145   -0.11 7 98.5 176 
 RUS  HZ I         312 18.24         8.2 0.36            145           98.5 176 
 PTB  HZ EP   1    312  1.00                             133   -0.39 7  147 260 
 PTB  HN ES        312 22.05                             133   -0.46 9  147 260 
 PTB  HZ I         312 29.27        11.2 0.50            130            147 260 
 OCA  HN ES        312 25.47                             130    0.13 9  162 353 
 OCA  HN I         312 27.92        44.1 0.20            131            162 353 
 ZAR  HZ EP   1    312  6.71                             123   -0.23 6  204 293 
 ZAR  HE ES        312 32.37                             123   -0.02 9  204 293 
 ZAR  HE I         312 38.13        26.4 0.46            122            204 293 
 NOR  HZ EP   1    312 10.33                             119    0.33 6  233 235 
 NOR  HN ES   1    312 38.50                             119    0.65 6  233 235 
 NOR  HN I         312 42.71        23.8 0.16            119            233 235 
 SML  HZ EP   1    312 10.72                             118   -0.52 6  245 336 
 SML  HN ES   1    312 39.99                             118   -0.06 6  245 336 
 SML  HN I         312 43.80        22.8 0.10            118            245 336 
 HEL  HZ EP   1    312 13.93                             115   -0.61 6  271 256 
 HEL  HN ES   1    312 45.64                             115   -0.27 6  271 256 
 HEL  HN I         312 53.91         5.4 0.28            115            271 256 
 GUY2CHZ EP   4    312 19.11                             113    1.26 0  300 235 
 GUY2CHN ES   4    312 53.84                             113    2.03 0  300 235 
 GUY2CHN I         312 59.82         5.7 0.46                           300 235 
 PRA  HZ EP        312 28.18                             107    0.51 6  390 210 
 PRA  HN ES   1    313  9.75                             107    0.45 4  390 210 
 PRA  HN I         313 15.40         2.8 0.76            107            390 210 
                                                                                
