 2012  415 0015 55.0 L   6.734 -73.074146.0  RSN  4 0.1 1.6LRSN                1
 GAP=149        0.48       2.9     4.4  4.0 -0.2059E+01  0.1109E+00  0.7222E+00E
 Epicentro: JORDAN - SANTANDER                                                 3
 ACTION:UPD 12-07-05 11:53 OP:tino STATUS:               ID:20120415001555 L   I
 2012-04-15-0009-39M.COL___169                                                 6
 STAT SP IPHASW D HRMM SECON CODA AMPLIT PERI AZIMU VELO AIN AR TRES W  DIS CAZ7
 BAR2 SZ EP        016 14.58                             172     0.010   20 217 
 BAR2 SZ ES        016 29.67                             172    -0.110   20 217 
 BAR2 SZ I         016 31.31         8.4 0.50                            20 217 
 PAM  SZ EP        016 17.41                             150     0.110   79  32 
 PAM  SE ES        016 34.63                             150     0.010   79  32 
 BRR  HZ EP        016 16.52                             149    -0.210   82 300 
 BRR  HZ I         016 18.04        12.0 0.21                            82 300 
 BRR  HE ES   1    016 34.01                             149     0.3 7   82 300 
 RUS  HZ EP        016 18.20                             146     0.010   93 181 
 RUS  HZ I         016 20.11         3.4 0.53                            93 181 
 RUS  HE ES   1    016 36.44                             146     0.1 7   93 181 
                                                                                
