 2017 1215 0735 45.3 L   6.863 -73.182140.5  RSN 32 0.6 2.5LRSN                1
 GAP= 62        1.43       3.4     3.9  6.6 -0.3732E+01  0.7746E+01 -0.2067E+01E
 Epicentro: ZAPATOCA - SANTANDER                                               3
 ACTION:UPD 18-01-04 13:20 OP:rebc STATUS:               ID:20171215073545 L   I
 OLDACT:UP  17-12-15 15:34 OP:edw  STATUS:               ID:20171215072740     3
 OLDACT:REG 17-12-15 12:50 OP:edw  STATUS:               ID:20171215072740     3
 2017-12-15-0728-00M.COL___473                                                 6
 STAT SP IPHASW D HRMM SECON CODA AMPLIT PERI AZIMU VELO AIN AR TRES W  DIS CAZ7
 BAR2 EZ IP     C  736  4.10                             167   -0.3510 29.9 180 
 BAR2 EZ ES        736 19.51                             167    0.1210 29.9 180 
 BAR2 EZ I         736 20.17       103.9 0.32            167           29.9 180 
 PAM  EZ EP        736  7.06                             151    0.2510 75.0  45 
 PAM  EN ES        736 24.24                             151    0.6510 75.0  45 
 PAM  EZ I         736 26.23        63.9 0.52            148           75.0  45 
 PTB  HZ EP        736 10.77                             131   -0.84 9  145 256 
 PTB  HN ES        736 32.03                             131   -0.11 9  145 256 
 PTB  HZ I         736 33.93        28.9 0.14            129            145 256 
 OCA  HZ EP        736 12.22                             130   -0.28 9  153 354 
 OCA  HN ES        736 34.07                             130    0.34 9  153 354 
 OCA  HZ I         736 38.35       100.7 0.18            127            153 354 
 TAM  HZ IP     C  736 12.54                             128   -0.57 9  161 107 
 TAM  HZ I         736 33.44        18.2 0.36            126            161 107 
 TAM  HN ES        736 34.35                             128   -0.46 9  161 107 
 SPBC HZ EP        736 12.99                             127   -0.69 9  166 216 
 SPBC HN ES        736 34.83                             127   -1.00 9  166 216 
 YPLC HZ IP   9 C  736 14.56                             124   -0.95 0  185 151 
 YPLC HE ES        736 39.09                             122    0.96 9  185 151 
 YPLC HZ I         736 41.27        17.9 0.32            122            185 151 
 ZAR  HZ EP        736 16.60                             122   -0.14 9  198 291 
 ZAR  HN ES        736 42.06                             122    0.78 9  198 291 
 ZAR  HZ I         736 47.44        42.3 0.42            120            198 291 
 NOR  HZ EP        736 20.27                             117   -0.54 8  236 233 
 NOR  HN ES        736 48.34                             117   -0.18 8  236 233 
 NOR  HZ I         736 56.15        19.8 0.34            115            236 233 
 ROSC BZ EP        736 24.42                             115    0.86 8  257 209 
 ROSC BN ES        736 54.47                             115    1.06 8  257 209 
 ROSC BZ I         736 58.96        59.1 0.40            113            257 209 
 CVER HZ EP   9    736 25.34                             113   -0.60 0  277 201 
 CVER HN ES        736 57.23                             112    0.18 7  277 201 
 CVER HZ I         737  2.46        24.0 0.42            111            277 201 
 URE  HZ EP   9    736 24.03                             113   -1.37 0  278 291 
 URE  HN ES        736 54.54                             112   -0.78 7  278 291 
 URE  HZ I         737  3.23        20.6 0.16            111            278 291 
 DRL03HZ EP        736 25.82                             113    0.00 7  282 353 
 DRL03HE ES   4    736 58.89                             113    1.45 0  282 353 
 GUY2CHZ EP        736 28.42                             111   -0.33 7  302 233 
 GUY2CHN ES   4    737  4.61                             111    1.96 0  302 233 
 GUY2CHZ I         737 10.40        19.3 0.32                           302 233 
 VIL  EZ EP   9    736 28.98                             111   -0.18 0  309 191 
 VIL  EE ES        737  2.36                             109   -0.84 7  309 191 
 VIL  EZ I         737  4.88        38.8 0.40            109            309 191 
 PTGC HZ EP   4    736 27.25                             110   -2.57 0  317 158 
 PTGC HN ES   4    737  1.20                             110   -3.36 0  317 158 
 PTGC HZ I         737  3.37        16.4 0.44            108            317 158 
 DRL02HZ EP   4    736 28.71                             110   -1.25 0  318 358 
 DRL02HE ES   2    737  4.52                             110   -0.28 3  318 358 
 RECRCHZ EP        736 31.92                             110    1.10 7  319 229 
 RECRCHN ES   4    737  8.51                             110    2.17 0  319 229 
 DRL01HZ EP        736 30.35                             110    0.25 7  319 350 
 DRL01HN ES   4    737  7.23                             110    2.17 0  319 350 
 ELA  HZ EP        736 32.73                             109    0.63 7  331 228 
 ELA  HN ES        737  9.53                             109    0.92 7  331 228 
 ELA  HZ I         737 16.88        16.0 0.58            108            331 228 
 CBOC HZ EP        736 31.90                             109    0.10 7  332 251 
 CBOC HN ES        737  6.65                             109   -1.43 7  332 251 
 CBOC HZ I         737 13.75         5.3 0.50            107            332 251 
 DBB  EN ES   4    737  6.46                             109   -2.04 0  335 273 
 ARGC HZ EP        736 34.28                             108    0.45 6  351 341 
 ARGC HN ES   4    737 13.29                             108    1.59 0  351 341 
 ARGC HZ I         737 19.82         6.5 0.32            106            351 341 
 ANIL HZ EP        736 36.59                             107    1.44 6  360 223 
 ANIL HN ES        737 14.15                             107    0.11 6  360 223 
 APAC HZ EP   4    736 36.13                             106   -2.47 0  392 287 
 APAC HN ES        737 19.98                             106   -0.21 6  392 287 
 APAC HZ I         737 24.88         7.0 0.36            104            392 287 
 PRA  HZ EP   9    736 38.03                             105   -1.08 0  396 209 
 PRA  HN ES        737 19.93                             104   -0.08 6  396 209 
 PRA  HZ I         737 24.40        18.7 0.44            104            396 209 
 ORTC HZ EP   9    736 38.57                             105   -0.85 0  399 215 
 ORTC HN ES        737 21.85                             104    1.06 6  399 215 
 ORTC HZ I         737 25.54        13.8 0.28            104            399 215 
 SJC  HZ EP   4    736 38.28                             105   -1.46 0  401 327 
 SJC  HE ES        737 21.99                             105   -0.22 6  401 327 
 SJC  HZ I         737 28.05         4.9 0.52            104            401 327 
 PAL  HZ EP   9    736 39.71                             105   -0.59 0  406 238 
 PAL  HN ES        737 21.49                             104   -1.13 6  406 238 
 PAL  HZ I         737 27.76         4.2 0.20            103            406 238 
 CRJC HZ EP   9    736 44.42                             103   -2.44 0  461   4 
 CRJC HE ES        737 32.25                             102   -0.19 5  461   4 
 CRJC HZ I         737 39.21        12.5 0.40            101            461   4 
 SMAR HZ EP   9    736 48.67                             102   -1.44 0  489 347 
 SMAR HN ES        737 37.27                             101   -1.96 4  489 347 
 MACC HZ EP   9    737 33.45                             101   38.83 0  527 188 
 MACC HN ES        738 25.60                             100   -1.93 4  527 188 
 FLO2 HZ EP   9    737  7.20                              98   -1.66 0  645 205 
 FLO2 HE ES        738 12.25                              97   -0.14 2  645 205 
 FLO2 HZ I         738 17.92         1.0 0.56             97            645 205 
                                                                                
