 2010 1015 0906 50.8 L   6.801 -73.050137.4  RSN  8 0.2 1.9LRSN                1
 GAP=169        0.62       4.6     5.8  5.6 -0.5373E+01 -0.2505E+01 -0.4424E+01E
 Epicentro: LOS SANTOS - SANTANDER                                             3
 ACTION:UP  11-02-18 11:09 OP:tino STATUS:               ID:20101015090650 L   I
 2010-10-15-0902-31S.COL___128                                                 6
 STAT SP IPHASW D HRMM SECON CODA AMPLIT PERI AZIMU VELO SNR AR TRES W  DIS CAZ7
 BTL  SZ EP        9 7  9.82                             168     0.310   27 298 
 BAR2 SZ EP        9 7  9.26                             168    -0.210   27 212 
 BAR2 SZ ES   1    9 7 24.05                             168    -0.1 7   27 212 
 BAR2 SZ I         9 7 25.40        12.8 0.19                            27 212 
 BRR  HZ EP        9 7 11.19                             148    -0.410   81 295 
 BRR  HE ES   1    9 7 28.10                             148     0.2 7   81 295 
 BRR  HZ I         9 7 32.21         9.2 0.12                            81 295 
 RUS  HZ EP   1    9 7 13.87                             142     0.2 7  101 182 
 RUS  HE ES   3    9 7 31.77                             142     0.2 2  101 182 
 GUE  SZ EP        9 7 14.69                             138     0.110  115   7 
 GRA  SZ EP        9 7 15.04                             136     0.010  123  13 
 HEL  HZ EP        9 7 31.86                             112     0.1 7  282 256 
 PRA  HZ EP   3    9 7 44.86                             105     0.2 1  397 211 
 PRA  HZ I         9 8 32.20         5.1 0.34                           397 211 
                                                                                
