 2012  715 0038  6.9 L   6.786 -73.152142.4  RSN 19 0.5 3.4LRSN                1
 GAP= 54        1.30       3.6     3.6  6.1 -0.3536E+00  0.3649E+01  0.5184E+01E
 Epicentro: LOS SANTOS - SANTANDER                                             3
 SPEC SD       MO  0.1 ST 12.2 OM  1.4 f0 1.02 R0.1210 AL      WI      MW  0.1 3
 SPEC RUS HH Z MO 14.3 ST 28.4 OM  1.9 f0 4.76 R0.3088 AL 2.58 WI 16.9 MW  3.5 3
 SPEC RUS HH Z T 03830 K 0.000 GD  173 VP 7.60 DE 3.00 Q0230.0 QA 0.60 VS 4.20 3
 SPEC ROSCBH Z MO 14.1 ST  3.2 OM  2.3 f0 2.58 R0.5698 AL 2.22 WI 28.9 MW  3.4 3
 SPEC ROSCBH Z T 03845 K 0.000 GD  288 VS 4.20 DE 3.00 Q0230.0 QA 0.60 VS 4.20 3
 SPEC CHI HH Z MO 13.9 ST  2.1 OM  2.1 f0 2.62 R0.5611 AL 1.95 WI 10.9 MW  3.2 3
 SPEC CHI HH Z T 03913 K 0.000 GD  285 VS 4.20 DE 3.00 Q0230.0 QA 0.60 VS 4.20 3
 ACTION:UPD 12-08-14 11:44 OP:ep   STATUS:               ID:20120715003806 L   I
 2012-07-15-0030-00M.COL___197                                                 6
 STAT SP IPHASW D HRMM SECON CODA AMPLIT PERI AZIMU VELO AIN AR TRES W  DIS CAZ7
 BAR2 SZ IP        038 26.27                             171     0.210   22 189 
 BAR2 SZ ES        038 40.46                             171    -0.610   22 189 
 BAR2 SZ I         038 42.28      1136.8 0.21            168             22 189 
 BRR  HZ IP     D  038 28.21                             152     0.510   71 300 
 BRR  HZ I         038 28.64       924.9 0.13            150             71 300 
 BRR  HN ES        038 44.79                             152     0.910   71 300 
 PAM  SZ EP        038 29.17                             150     0.310   79  39 
 PAM  SE ES        038 46.17                             150     0.210   79  39 
 RUS  HZ IP     C  038 30.15                             143    -0.110   99 176 
 RUS  HE ES   1    038 48.42                             143     0.0 7   99 176 
 RUS  HZ I         038 49.92       538.4 0.42            142             99 176 
 PTB  HZ EP        038 32.94                             131    -0.6 9  147 259 
 PTB  HE ES   1    038 53.40                             131    -0.9 7  147 259 
 PTB  HZ I         038 57.53       176.8 0.25            129            147 259 
 TAM  HZ IP     D  038 34.65                             130     0.3 9  155 104 
 TAM  HN ES   1    038 55.67                             130    -0.1 7  155 104 
 OCA  HZ EP        038 34.74                             129    -0.4 9  162 353 
 OCA  HN ES        038 56.23                             129    -0.9 9  162 353 
 OCA  HZ I         039  0.49      1132.3 0.22            130            162 353 
 YOP  SZ EP        038 36.97                             126     0.4 9  178 153 
 YOP  SE ES   1    038 59.68                             126    -0.1 7  178 153 
 YOP  SZ I         039  3.03       157.1 0.21            126            178 153 
 ZAR  HZ EP        038 39.30                             122     0.2 9  204 293 
 ZAR  HN ES        039  4.88                             122     0.6 9  204 293 
 ZAR  HZ I         039 10.94       315.6 0.48            121            204 293 
 NOR  SZ EP        038 42.41                             118     0.1 8  233 235 
 NOR  SN ES        039  9.34                             118    -0.5 8  233 235 
 CHI  HZ EP        038 44.23                             117     0.0 8  247 195 
 CHI  HZ I         038 47.09       104.9 0.47            116            247 195 
 CHI  HN ES   1    039 13.80                             117     0.4 6  247 195 
 ROSC BN ES   1    039 14.54                             116     0.4 6  251 211 
 ROSC BZ I         039 24.02       192.1 0.35            115            251 211 
 HEL  HZ EP   1    038 47.21                             114     0.4 6  271 256 
 HEL  HN ES   1    039 17.61                             114    -0.4 6  271 256 
 HEL  HZ I         039 26.74       113.2 0.45            113            271 256 
 GUY  SZ EP   1    038 51.18                             112     0.7 5  302 235 
 GUY  SE ES   1    039 23.53                             112    -0.9 5  302 235 
 GUY  SZ I         039 31.42       147.6 0.55            111            302 235 
 VIL  SZ EP        038 49.19                             111    -0.8 7  302 191 
 VIL  SZ I         038 56.96        62.5 0.46            111            302 191 
 DBB  SZ EP        038 54.31                             109     0.1 7  339 275 
 TOL  SZ EP        038 55.79                             109     0.9 7  342 225 
 SDV  BZ EP        038 56.24                             108    -0.8 6  362  50 
 PRA  HZ EP        038 59.76                             106    -0.4 6  390 210 
