 2012 1215 0828  9.9 L   6.297 -73.605106.9  RSN  5 0.2 1.2LRSN                1
 GAP=158        0.52       3.9     3.1  6.2  0.3929E+01  0.5855E+01  0.3666E+01E
 Epicentro: SANTA HELENA DEL OPON - SANTANDER                                  3
 ACTION:UPD 13-01-04 14:28 OP:ep   STATUS:               ID:20121215082809 L   I
 2012-12-15-0819-53M.COL___201                                                 6
 STAT SP IPHASW D HRMM SECON CODA AMPLIT PERI AZIMU VELO AIN AR TRES W  DIS CAZ7
 BAR2 SZ EP   1    828 26.58                             150    0.16 7 57.0  55 
 BAR2 SZ ES   1    828 38.89                             150   -0.40 7 57.0  55 
 RUS  HZ EP   1    828 28.03                             143    0.17 7 73.1 128 
 RUS  HE ES   1    828 41.96                             143    0.11 7 73.1 128 
 RUS  HZ I         828 45.94         1.5 0.26                          73.1 128 
 BRR  HN ES   1    828 43.42                             136    0.38 7 90.3 353 
 GIR2 SZ EP   1    828 29.16                             134   -0.19 7 97.7  28 
 GIR2 SZ I         828 45.11         5.4 0.48                          97.7  28 
 PTB  HZ EP     C  828 29.08                             134   -0.1210 97.9 286 
 PTB  HN ES   1    828 44.21                             134   -0.03 7 97.9 286 
 PTB  HZ I         828 45.88         5.4 0.12                          97.9 286 
                                                                                
