 2012  915 0048 36.2 L   7.536 -73.420122.5  RSN  5 0.2 2.1LRSN                1
 GAP=239        0.47       6.8     3.8  6.6 -0.1499E+02  0.1090E+02 -0.1943E+02E
 Epicentro: SABANA DE TORRES - SANTANDER                                       3
 ACTION:UPD 12-10-22 14:18 OP:ep   STATUS:               ID:20120915004836 L   I
 2012-09-15-0047-49M.COL___215                                                 6
 STAT SP IPHASW D HRMM SECON CODA AMPLIT PERI AZIMU VELO AIN AR TRES W  DIS CAZ7
 GIR2 SZ EP   1    048 54.31                             154    0.06 7 56.4 154 
 BRR  HZ EP   1    048 53.89                             153   -0.21 7 57.4 214 
 BRR  HZ I         048 54.18        48.1 0.12                          57.4 214 
 BRR  HE ES   1    049  7.86                             153   -0.16 7 57.4 214 
 PAM  SZ EP   1    048 56.52                             144    0.12 7 82.5 105 
 PAM  SN ES   1    049 12.26                             144    0.14 7 82.5 105 
 PAM  SZ I         049 12.93        15.2 0.20                          82.5 105 
 BAR2 SZ ES   1    049 14.85                             136   -0.16 7  108 166 
 BAR2 SZ I         049 16.42        35.0 0.14                           108 166 
 PTB  HZ EP   1    049  2.33                             124   -0.21 7  159 226 
 PTB  HN ES   1    049 23.49                             124    0.44 7  159 226 
 PTB  HE I         049 28.88        13.3 0.20                           159 226 
                                                                                
