 2016 1215 0414  3.9 L   6.756 -73.135139.7  RSN  5 0.3 1.3LRSN                1
 GAP=140        0.69       3.5     3.5  5.0 -0.1124E+01  0.2353E+01  0.6833E+00E
 Epicentro: LOS SANTOS - SANTANDER                                             3
 ACTION:UPD 17-01-11 20:15 OP:rebc STATUS:               ID:20161215041403 L   I
 OLDACT:REG 16-12-15 12:32 OP:and  STATUS:               ID:20161215040746     3
 2016-12-15-0408-00M.COL___378                                                 6
 STAT SP IPHASW D HRMM SECON CODA AMPLIT PERI AZIMU VELO AIN AR TRES W  DIS CAZ7
 BAR2 EZ EP        414 22.68                             172   -0.0710 18.8 196 
 BAR2 EZ ES        414 37.68                             172    0.2610 18.8 196 
 BAR2 EZ I         414 38.70         8.4 0.20            172           18.8 196 
 BRR  HZ EP        414 24.73                             150    0.1010 74.6 301 
 BRR  HN ES        414 41.13                             150    0.3610 74.6 301 
 PAM  EZ EP     D  414 25.70                             149   -0.0010 80.5  37 
 PAM  EN ES        414 42.33                             149   -0.3510 80.5  37 
 PAM  EZ I         414 44.83         3.9 0.60            150           80.5  37 
 RUS  HZ EP        414 26.98                             144    0.2510 95.7 177 
 RUS  HN ES        414 44.34                             144   -0.1710 95.7 177 
 RUS  HZ I         414 46.39         4.7 0.24            145           95.7 177 
 PTB  HZ EP        414 30.47                             130    0.03 9  148 261 
 PTB  HN ES        414 50.64                             130   -0.47 9  148 261 
 PTB  HZ I         414 52.64         1.4 0.16            132            148 261 
                                                                                
