 2016  315 0021 20.3 L   6.750 -73.174132.1  RSN  4 0.3 1.1LRSN                1
 GAP=138        0.60       3.5     5.1  6.8 -0.7117E+01  0.1661E+02 -0.4275E+01E
 Epicentro: LOS SANTOS - SANTANDER                                             3
 ACTION:UPD 16-05-13 21:24 OP:cam  STATUS:               ID:20160315002120 L   I
 OLDACT:REG 16-03-15 13:02 OP:dnl  STATUS:               ID:20160315001749     3
 2016-03-15-0017-49M.COL___307                                                 6
 STAT SP IPHASW D HRMM SECON CODA AMPLIT PERI AZIMU VELO AIN AR TRES W  DIS CAZ7
 BAR2 EZ EP   3    021 38.10                             172   -0.12 2 17.5 183 
 BAR2 EZ ES   2    021 52.96                             172    0.80 5 17.5 183 
 BAR2 EZ I         021 55.43         3.5 0.10            172           17.5 183 
 PAM  EZ EP        021 41.56                             146    0.0210 83.6  39 
 PAM  EE ES        021 57.89                             146   -0.1810 83.6  39 
 PAM  EZ I         021 59.97         1.5 0.20            152           83.6  39 
 RUS  HZ EP        021 42.44                             142    0.0610 95.3 174 
 RUS  HN ES        021 59.34                             142   -0.2210 95.3 174 
 RUS  HZ I         022  2.12         2.1 0.36            147           95.3 174 
 PTB  HZ EP        021 46.11                             129    0.26 9  144 261 
 PTB  HN ES   2    022  5.25                             129   -0.50 5  144 261 
 PTB  HZ I         022  9.78         2.1 0.24            132            144 261 
                                                                                
