 2012 1115 0257  7.1 L   6.789 -73.154149.6  RSN  7 0.3 1.5LRSN                1
 GAP=136        0.55       3.1     3.3  5.2  0.6827E+00  0.3383E+01  0.2248E+01E
 Epicentro: LOS SANTOS - SANTANDER                                             3
 ACTION:UPD 12-12-05 15:33 OP:}ep  STATUS:               ID:20121115025707 L   I
 2012-11-15-0250-00M.COL___230                                                 6
 STAT SP IPHASW D HRMM SECON CODA AMPLIT PERI AZIMU VELO AIN AR TRES W  DIS CAZ7
 BAR2 SZ EP   1    257 27.06                             171   -0.08 7 21.9 188 
 BAR2 SZ ES   1    257 42.90                             171    0.12 7 21.9 188 
 BAR2 SZ I         257 44.86         8.8 0.34                          21.9 188 
 BRR  HZ EP   1    257 29.06                             153    0.43 7 71.0 300 
 BRR  HN ES   1    257 45.72                             153    0.28 7 71.0 300 
 BRR  HZ I         257 48.86         7.6 0.26                          71.0 300 
 PAM  SZ EP   1    257 29.89                             151    0.10 7 78.9  39 
 PAM  SN ES   1    257 47.23                             151   -0.27 7 78.9  39 
 PAM  SZ I         257 49.29         7.8 0.54                          78.9  39 
 RUS  HZ EP   1    257 31.05                             145   -0.07 7 99.4 175 
 RUS  HN ES   1    257 49.77                             145   -0.10 7 99.4 175 
 RUS  HZ I         257 50.71         1.9 0.50                          99.4 175 
 PTB  HZ EP   1    257 33.86                             133   -0.40 7  147 259 
 PTB  HN ES   1    257 55.04                             133   -0.42 7  147 259 
 PTB  HZ I         258  0.93         5.0 0.48                           147 259 
 OCA  HZ EP   4    257 34.01                             130   -1.78 0  161 354 
 ZAR  HN ES   1    258  5.32                             123    0.10 6  204 293 
 CHI  HN ES   1    258 14.66                             118    0.38 6  247 195 
                                                                                
