 2014 1215 0915 31.5 L   6.781 -73.192145.1  RSN  8 0.5 1.4LRSN                1
 GAP=132        1.36       4.7     5.6  8.2 -0.1932E+00  0.1146E+02 -0.5908E+01E
 Epicentro: ZAPATOCA - SANTANDER                                               3
 ACTION:UPD 15-02-10 17:04 OP:nd   STATUS:               ID:20141215091531 L   I
 OLDACT:REG 14-12-15 13:12 OP:fm   STATUS:               ID:20141215090737     3
 2014-12-15-0907-37M.COL___288                                                 6
 STAT SP IPHASW D HRMM SECON CODA AMPLIT PERI AZIMU VELO AIN AR TRES W  DIS CAZ7
 BAR2 EZ EP        915 51.66                             171    0.6610 20.9 177 
 BAR2 EZ ES        916  6.17                             171   -0.0410 20.9 177 
 BAR2 EZ I         916  8.10         5.2 0.32            173           20.9 177 
 BRR  HZ EP        915 52.88                             153    0.5010 67.8 302 
 BRR  HN ES        916  9.30                             153    0.6210 67.8 302 
 BRR  HZ I         916 11.79         7.1 0.48            152           67.8 302 
 PAM  SZ EP        915 54.51                             149    0.5710 82.4  41 
 PAM  SN ES        916 10.78                             149   -0.6710 82.4  41 
 PAM  SZ I         916 14.81         2.0 0.48            152           82.4  41 
 RUS  HZ EP        915 55.67                             144    0.6110 98.9 173 
 RUS  HN ES        916 12.64                             144   -0.8010 98.9 173 
 RUS  HZ I         916 15.64         1.9 0.28            148           98.9 173 
 PTB  HZ EP        915 58.34                             133    0.43 9  142 259 
 PTB  HN ES        916 18.44                             133   -0.08 9  142 259 
 PTB  HZ I         916 21.93         2.2 0.14            134            142 259 
 SPBC HZ EP        915 58.80                             130   -0.68 9  158 218 
 SPBC HN ES        916 21.17                             130   -0.14 9  158 218 
 SPBC HZ I         916 27.89         3.8 0.10            132            158 218 
 ZAR  HZ EP        916  2.93                             123   -0.56 9  200 293 
 ZAR  HN ES        916 28.48                             123    0.03 9  200 293 
 ZAR  HZ I         916 34.78         2.6 0.26            124            200 293 
 SML  HZ EP        916  7.44                             117   -0.62 8  244 337 
 SML  HN ES        916 36.16                             117   -0.43 8  244 337 
 SML  HZ I         916 43.80         4.3 0.26            119            244 337 
                                                                                
