 2016  515 0204 35.9 L   6.822 -73.175148.8  RSN 29 0.4 2.7LRSN                1
 GAP= 69        0.97       2.3     2.5  4.0 -0.9661E+00  0.1371E+01  0.1048E+01E
 Epicentro: ZAPATOCA - SANTANDER                                               3
 ACTION:UPD 16-08-18 17:46 OP:cam  STATUS:               ID:20160515020435 L   I
 OLDACT:UP  16-05-17 15:30 OP:cam  STATUS:               ID:20160515020435 L   3
 OLDACT:UP  16-05-17 10:20 OP:ak   STATUS:               ID:20160515020435 L   3
 OLDACT:UP  16-05-15 13:06 OP:drio STATUS:               ID:20160515015742     3
 OLDACT:UP  16-05-15 13:04 OP:drio STATUS:               ID:20160515015742     3
 OLDACT:UP  16-05-15 12:59 OP:drio STATUS:               ID:20160515015742     3
 OLDACT:REG 16-05-15 12:23 OP:drio STATUS:               ID:20160515015742     3
 2016-05-15-0157-42M.COL___300                                                 6
 STAT SP IPHASW D HRMM SECON CODA AMPLIT PERI AZIMU VELO AIN AR TRES W  DIS CAZ7
 BAR2 EZ IP     D  2 4 55.92                             170   -0.0610 25.4 182 
 BAR2 EZ ES        2 5 10.78                             170   -0.8310 25.4 182 
 BAR2 EZ I         2 5 13.72       104.3 0.22            168           25.4 182 
 BRR  HZ IP     D  2 4 57.70                             154    0.5010 67.2 298 
 BRR  HE ES        2 5 14.48                             154    0.6910 67.2 298 
 BRR  HZ I         2 5 17.92        98.3 0.26            148           67.2 298 
 PAM  EZ EP        2 4 58.92                             151    0.4310 77.6  42 
 PAM  EE ES        2 5 16.33                             151    0.2410 77.6  42 
 PAM  EZ I         2 5 18.12        94.9 0.48            154           77.6  42 
 RUS  HZ EP        2 4 59.87                             144   -0.3110  103 174 
 RUS  HE ES        2 5 19.11                             144    0.0210  103 174 
 RUS  HZ I         2 5 19.66        56.1 0.24            145            103 174 
 PTB  HZ EP        2 5  2.36                             133   -0.56 9  145 258 
 PTB  HE ES        2 5 23.62                             133   -0.35 9  145 258 
 PTB  HZ I         2 5 30.54        70.4 0.56            130            145 258 
 OCA  HZ EP        2 5  4.27                             131    0.04 9  157 354 
 OCA  HN ES        2 5 26.17                             131   -0.13 9  157 354 
 OCA  HZ I         2 5 32.37        83.4 0.28            130            157 354 
 TAM  HZ IP     C  2 5  4.37                             130    0.17 9  159 106 
 TAM  HE ES        2 5 26.43                             130    0.18 9  159 106 
 TAM  HZ I         2 5 26.85        25.6 0.34            134            159 106 
 SPBC HZ EP        2 5  4.64                             130   -0.03 9  163 218 
 SPBC HN ES        2 5 26.76                             130   -0.31 9  163 218 
 SPBC HZ I         2 5 32.98       102.2 0.26            128            163 218 
 ZAR  HZ EP        2 5  8.49                             124    0.30 9  200 292 
 ZAR  HE ES        2 5 33.57                             124    0.23 9  200 292 
 ZAR  HZ I         2 5 44.07        61.1 0.46            121            200 292 
 NOR  HZ EP        2 5 11.77                             119    0.05 8  234 234 
 NOR  HN ES        2 5 39.30                             119   -0.34 8  234 234 
 NOR  HZ I         2 5 47.78        49.5 0.16            118            234 234 
 CHI  HZ EP        2 5 14.13                             118    0.16 8  250 194 
 CHI  HE ES        2 5 43.76                             118    0.12 8  250 194 
 CHI  HZ I         2 5 46.69        23.5 0.46            117            250 194 
 ROSC BE EP   9    2 5 16.23                             117    1.95 0  253 210 
 ROSC BZ ES        2 5 46.80                             117    0.67 8  253 210 
 HEL  HZ EP   9    2 5 17.20                             116    1.17 0  270 255 
 HEL  HN ES        2 5 48.61                             116    0.13 8  270 255 
 HEL  HZ I         2 5 55.48        28.5 0.50            114            270 255 
 URE  HZ EP        2 5 15.92                             114   -0.81 7  280 292 
 URE  HE ES   4    2 5 47.25                             114   -1.29 0  280 292 
 URE  HZ I         2 5 58.30        29.8 0.26            113            280 292 
 VIL  SZ EP        2 5 19.63                             112   -0.06 7  305 191 
 VIL  SN ES        2 5 53.53                             112   -0.30 7  305 191 
 PTGC HZ EP   4    2 5 19.18                             112   -1.14 0  312 158 
 PTGC HE ES   4    2 5 52.51                             112   -2.43 0  312 158 
 PTGC HZ I         2 5 53.82        39.4 0.28            113            312 158 
 LL6C HZ EP   9    2 5 20.08                             111   -1.40 0  322 358 
 LL6C HE ES        2 5 55.52                             111   -0.08 7  322 358 
 LL6C HZ I         2 6  3.23        10.3 0.44            111            322 358 
 ELA  HZ EP   9    2 5 25.73                             111    2.90 0  328 229 
 ELA  HN ES        2 6  1.53                             111   -0.77 7  328 229 
 ELA  HZ I         2 6 15.07        24.3 0.40            110            328 229 
 CBOC HZ EP        2 5 23.70                             111    0.98 7  331 252 
 CBOC HE ES        2 5 59.50                             111    0.29 7  331 252 
 CBOC HZ I         2 6 16.64        13.4 0.76            109            331 252 
 ARGC HZ EP   9    2 5 26.91                             109    1.59 0  356 341 
 ARGC HE ES        2 6  5.02                             109   -0.41 6  356 341 
 ANIL HZ EP   9    2 5 27.25                             109    1.45 0  357 224 
 ANIL HE ES        2 6  6.16                             109    0.01 6  357 224 
 ANIL HZ I         2 6 12.78        71.9 0.30            108            357 224 
 SDV  BZ EP        2 5 25.48                             109   -0.72 6  361  51 
 SDV  BE ES   4    2 6  3.06                             109   -2.34 0  361  51 
 SDV  BZ I         2 6  6.57         8.0 0.45            109            361  51 
 PRA  HZ EP        2 5 29.83                             107    0.20 6  393 209 
 PRA  HE ES   4    2 6 11.07                             107   -0.44 0  393 209 
 PRA  HZ I         2 6 18.17        19.7 0.52            107            393 209 
 ORTC HZ EP        2 5 30.10                             107    0.13 6  396 216 
 ORTC HE ES        2 6 13.04                             107    0.92 6  396 216 
 ORTC HZ I         2 6 19.72        14.0 0.24            106            396 216 
 PAL  HZ EP        2 5 31.30                             106    0.27 6  404 239 
 PAL  HN ES        2 6 13.98                             106   -0.02 6  404 239 
 PAL  HZ I         2 6 17.79         9.5 0.38            106            404 239 
 SJC  HZ EP        2 5 30.04                             106   -1.12 6  405 327 
 SJC  HE ES   4    2 6 11.35                             106   -2.88 0  405 327 
 SJC  HZ I         2 6 18.73         8.7 0.32            106            405 327 
 CRJC HZ EP   4    2 5 36.45                             104   -1.81 0  465   4 
 CRJC HE ES   4    2 6 23.84                             104   -3.03 0  465   4 
 CRJC HZ I         2 6 32.92        12.0 0.18            104            465   4 
 YOT  HZ EP   4    2 5 40.68                             104    1.71 0  471 228 
 YOT  HE ES   4    2 6 32.46                             104    4.32 0  471 228 
 YOT  HZ I         2 6 40.49        10.2 0.98            103            471 228 
 MACC HZ EP   4    2 5 42.74                             102   -2.21 0  523 188 
 MACC HN ES   4    2 6 34.07                             102   -4.72 0  523 188 
 MACC HZ I         2 6 41.54         5.8 0.46            102            523 188 
                                                                                
