 2017 1015 0539 13.4 L   6.785 -73.157137.1  RSN 20 1.0 2.7LRSN                1
 GAP=148        1.94       6.5     8.4  9.9 -0.2382E+02  0.1752E+02  0.1809E+02E
 Epicentro: LOS SANTOS - SANTANDER                                             3
 ACTION:UPD 17-11-07 19:31 OP:rebc STATUS:               ID:20171015053641 L   I
 OLDACT:UPD 17-10-15 13:29 OP:leo  STATUS:               ID:20171015053641 L   3
 2017-10-15-0538-00M.COL___414                                                 6
 STAT SP IPHASW D HRMM SECON CODA AMPLIT PERI AZIMU VELO AIN AR TRES W  DIS CAZ7
 BAR2 EZ IP     C  539 31.85                             171   -0.1510 21.5 187 
 BAR2 EZ ES        539 46.54                             171    0.0810 21.5 187 
 BAR2 EZ I         539 47.92       267.1 0.22            169           21.5 187 
 BRR  HZ IP     C  539 33.77                             151    0.1210 70.9 300 
 BRR  HN ES        539 50.37                             151    0.9710 70.9 300 
 BRR  HZ I         539 55.10       218.8 0.14            149           70.9 300 
 PAM  EZ IP     C  539 34.73                             148   -0.1510 79.5  39 
 PAM  EN ES        539 51.70                             148    0.1110 79.5  39 
 PAM  EZ I         539 53.80       137.6 0.50            151           79.5  39 
 PTB  HZ EP        539 38.77                             130   -0.80 9  146 259 
 PTB  HN ES        539 58.84                             130   -1.11 9  146 259 
 PTB  HZ I         540  6.13        44.7 0.52            128            146 259 
 NOR  HZ EP        539 48.49                             117    0.02 8  233 235 
 NOR  HN ES        540 15.27                             117   -0.51 8  233 235 
 NOR  HZ I         540 19.46        36.9 0.24            116            233 235 
 CHI  HZ EP        539 50.12                             115   -0.34 8  247 195 
 CHI  HN ES        540 18.42                             115   -0.91 8  247 195 
 CHI  HZ I         540 26.52        20.5 0.48            115            247 195 
 ROSC BZ EP        539 51.68                             115    0.80 8  251 211 
 ROSC BN ES        540 20.56                             115    0.49 8  251 211 
 ROSC BZ I         540 29.66        33.9 0.30            114            251 211 
 GUY2CHZ EP   4    539 57.28                             111    0.84 0  299 235 
 GUY2CHN ES        540 29.33                             111   -0.64 7  299 235 
 GUY2CHZ I         540 36.88        27.6 0.28                           299 235 
 PTGC HZ EP   4    539 55.11                             110   -1.69 0  308 158 
 PTGC HN ES   4    540 27.46                             110   -3.16 0  308 158 
 PTGC HZ I         540 30.63        26.4 0.42            110            308 158 
 RECRCHN ES        540 33.11                             110   -0.43 7  316 230 
 ELA  HZ EP   4    540  1.22                             109    1.51 0  327 230 
 ELA  HE ES        540 35.18                             109   -0.61 7  327 230 
 ELA  HZ I         540 43.25        21.9 0.46            108            327 230 
 DBB  EZ EP   4    540  1.72                             108    1.27 0  338 275 
 DBB  EN ES   4    540 35.72                             108   -1.40 0  338 275 
 DBB  EZ I         540 38.26        14.0 0.32            107            338 275 
 ANIL HZ EP        540  3.11                             107    0.42 6  355 225 
 ANIL HE ES   4    540 42.66                             107    1.57 0  355 225 
 ANIL HZ I         540 48.66        47.8 0.28            106            355 225 
 ARGC HZ EP        540  2.87                             107   -0.05 6  360 341 
 ARGC HN ES        540 41.43                             107   -0.08 6  360 341 
 ARGC HZ I         540 49.17         9.2 0.26            106            360 341 
 CCALAHZ EP        540  6.50                             106    1.97 6  372 228 
 CCALAHN ES        540 49.00                             106    4.62 6  372 228 
 PRA  HZ EP        540  5.58                             105   -0.85 6  390 210 
 PRA  HN ES        540 47.56                             105   -0.20 6  390 210 
 PRA  HZ I         540 53.10        21.0 0.32            105            390 210 
 ORTC HZ EP        540  6.77                             105   -0.06 6  393 216 
 ORTC HN ES        540 48.56                             105    0.09 6  393 216 
 ORTC HZ I         540 55.05        13.5 0.20            105            393 216 
 PAL  HZ EP        540  7.94                             104   -0.16 6  404 239 
 PAL  HN ES        540 49.77                             104   -0.96 6  404 239 
 PAL  HZ I         540 56.88         9.4 0.36            104            404 239 
 GUA  EZ EP   4    540 13.72                             102   -2.47 0  472 173 
 GUA  EN ES   4    541  3.06                             102   -2.07 0  472 173 
 MACC HZ EP   4    540 18.96                             100   -2.77 0  519 189 
 MACC HN ES   4    541 12.38                             100   -2.61 0  519 189 
 JAMC HZ EP   4    540 24.67                              99   -1.66 0  555 225 
 JAMC HZ I         541 31.16         2.3 0.38             99            555 225 
 POP2 HZ EP        540 32.25                              98   -0.80 3  610 220 
 POP2 HN ES   4    541 33.50                              98   -1.63 0  610 220 
 POP2 HZ I         541 38.74         1.4 0.34             98            610 220 
                                                                                
