 2016  515 0610 54.3 L   6.835 -73.147147.4  RSN 23 0.5 2.6LRSN                1
 GAP= 70        1.11       2.7     3.0  4.9 -0.1752E+01  0.3077E+01  0.1160E+00E
 Epicentro: LOS SANTOS - SANTANDER                                             3
 ACTION:UPD 16-08-18 17:46 OP:cam  STATUS:               ID:20160515061054 L   I
 OLDACT:UP  16-05-17 10:20 OP:ak   STATUS:               ID:20160515061054 L   3
 OLDACT:UP  16-05-15 14:24 OP:drio STATUS:               ID:20160515060744     3
 OLDACT:UP  16-05-15 14:23 OP:drio STATUS:               ID:20160515060744     3
 OLDACT:REG 16-05-15 12:30 OP:drio STATUS:               ID:20160515060744     3
 2016-05-15-0607-44M.COL___292                                                 6
 STAT SP IPHASW D HRMM SECON CODA AMPLIT PERI AZIMU VELO AIN AR TRES W  DIS CAZ7
 BAR2 EZ IP     D  611 14.16                             169   -0.0310 27.1 188 
 BAR2 EZ ES        611 29.10                             169   -0.6210 27.1 188 
 BAR2 EZ I         611 30.31       130.9 0.18            167           27.1 188 
 BRR  HZ IP     D  611 16.03                             153    0.5310 69.3 296 
 BRR  HE ES        611 33.00                             153    0.9510 69.3 296 
 BRR  HZ I         611 33.29        82.7 0.30            150           69.3 296 
 PAM  EZ EP        611 17.13                             152    0.6310 74.5  42 
 PAM  EN ES        611 34.11                             152    0.2710 74.5  42 
 PAM  EZ I         611 36.12        66.2 0.52            150           74.5  42 
 RUS  HZ EP        611 18.10                             143   -0.3710  104 176 
 RUS  HN ES        611 36.86                             143   -0.4910  104 176 
 RUS  HZ I         611 38.12        24.7 0.46            139            104 176 
 PTB  HZ EP        611 20.55                             132   -0.89 9  148 257 
 PTB  HN ES        611 41.94                             132   -0.68 9  148 257 
 PTB  HZ I         611 48.73        37.2 0.18            128            148 257 
 TAM  HZ EP        611 22.53                             131    0.33 9  156 106 
 TAM  HZ I         611 43.18        19.5 0.32            127            156 106 
 TAM  HE ES        611 44.07                             131    0.09 9  156 106 
 OCA  HZ EP        611 22.26                             131   -0.10 9  156 353 
 OCA  HE ES        611 44.26                             131    0.00 9  156 353 
 OCA  HZ I         611 47.53       102.8 0.28            127            156 353 
 SPBC HZ EP        611 23.00                             129   -0.18 9  166 218 
 SPBC HE ES        611 45.57                             129   -0.16 9  166 218 
 SPBC HZ I         611 51.27        76.1 0.22            125            166 218 
 ZAR  HZ EP        611 27.01                             123    0.34 9  202 291 
 ZAR  HE ES        611 52.03                             123    0.10 9  202 291 
 ZAR  HZ I         611 58.48        45.2 0.34            119            202 291 
 NOR  HZ EP        611 30.19                             119   -0.14 8  237 234 
 NOR  HE ES        611 57.96                             119   -0.49 8  237 234 
 NOR  HZ I         612  1.85        36.9 0.38            115            237 234 
 CHI  HZ EP        611 32.85                             117    0.38 8  252 195 
 CHI  HN ES   4    612  1.27                             117   -0.99 0  252 195 
 CHI  HZ I         612  9.25        19.4 0.22            113            252 195 
 ROSC BZ EP   4    611 34.12                             117    1.28 0  256 211 
 ROSC BE ES        612  3.26                             117    0.34 8  256 211 
 ROSC BZ I         612  7.92        31.4 0.35            113            256 211 
 HEL  HZ EP   4    611 36.38                             115    1.71 0  273 255 
 HEL  HE ES        612  6.80                             115    0.63 8  273 255 
 HEL  HZ I         612 13.65        15.8 0.24            111            273 255 
 URE  HZ EP        611 34.63                             114   -0.62 7  282 291 
 URE  HN ES   4    612  4.69                             114   -2.52 0  282 291 
 PTGC HZ EP   4    611 37.30                             112   -1.33 0  312 159 
 PTGC HN ES   4    612 10.74                             112   -2.48 0  312 159 
 PTGC HZ I         612 13.19        12.1 0.44            108            312 159 
 LL6C HZ EP        611 39.57                             111   -0.04 7  321 358 
 LL6C HN ES        612 14.43                             111   -0.53 7  321 358 
 LL6C HZ I         612 27.17         5.5 0.38            108            321 358 
 ELA  HZ EP   9    611 44.26                             110    2.79 0  332 229 
 ELA  HN ES        612 20.69                             110   -0.38 7  332 229 
 ELA  HZ I         612 26.42        18.8 0.28            107            332 229 
 CBOC HZ EP   9    611 42.79                             110    1.41 0  335 251 
 CBOC HN ES        612 19.97                             110    0.44 7  335 251 
 CBOC HZ I         612 30.80         7.6 0.60            107            335 251 
 ANIL HZ EP   4    611 45.77                             109    1.32 0  360 224 
 ANIL HN ES        612 24.03                             109    0.44 6  360 224 
 ANIL HZ I         612 33.44        47.3 0.30            105            360 224 
 PRA  HZ EP   4    611 49.31                             107    1.07 0  395 209 
 PRA  HE ES        612 30.08                             107   -0.25 6  395 209 
 PRA  HZ I         612 36.96        19.3 0.52            104            395 209 
 ORTC HZ EP        611 48.93                             106    0.32 6  398 216 
 ORTC HE ES        612 31.91                             106    0.92 6  398 216 
 ORTC HZ I         612 38.81        12.4 0.66            104            398 216 
 SJC  HZ EP        611 48.62                             106   -0.88 6  406 327 
 SJC  HN ES   4    612 30.08                             106   -2.50 0  406 327 
 SJC  HZ I         612 33.47         8.1 0.42            103            406 327 
 PAL  HZ EP        611 50.23                             106    0.52 6  408 239 
 PAL  HE ES   4    612 31.66                             106   -1.29 0  408 239 
 PAL  HZ I         612 42.75         6.9 0.42            103            408 239 
 SMAR HZ EP   4    611 57.84                             103   -1.90 0  493 346 
 SMAR HE ES   4    612 47.75                             103   -3.05 0  493 346 
 MACC HZ EP   4    612  1.53                             102   -1.96 0  524 189 
 MACC HE ES   4    612 53.44                             102   -4.03 0  524 189 
                                                                                
