 2016  215 0246 57.4 L   6.152 -73.341 87.3  RSN  9 0.6 2.0LRSN                1
 GAP= 95        1.41       5.6     5.0  9.9  0.6239E+01 -0.5080E+00  0.4257E+00E
 Epicentro: SUAITA - SANTANDER                                                 3
 ACTION:UPD 16-03-04 21:26 OP:rebc STATUS:               ID:20160215024657 L   I
 OLDACT:UP  16-02-15 18:24 OP:drio STATUS:               ID:20160215023750d    3
 OLDACT:UP  16-02-15 16:29 OP:drio STATUS:               ID:20160215023750d    3
 OLDACT:UP  16-02-15 16:29 OP:drio STATUS:               ID:20160215023750d    3
 OLDACT:UP  16-02-15 16:29 OP:drio STATUS:               ID:20160215023750d    3
 OLDACT:UP  16-02-15 16:13 OP:drio STATUS:               ID:20160215023750d    3
 OLDACT:UP  16-02-15 16:03 OP:drio STATUS:               ID:20160215023750d    3
 OLDACT:UP  16-02-15 16:02 OP:drio STATUS:               ID:20160215023750d    3
 OLDACT:UP  16-02-15 16:02 OP:drio STATUS:               ID:20160215023750d    3
 OLDACT:UP  16-02-15 16:02 OP:drio STATUS:               ID:20160215023750d    3
 OLDACT:UP  16-02-15 16:00 OP:drio STATUS:               ID:20160215023750d    3
 OLDACT:DUP 16-02-15 15:35 OP:drio STATUS:               ID:20160215023750d    3
 2016-02-15-0237-49M.COL___302                                                 6
 STAT SP IPHASW D HRMM SECON CODA AMPLIT PERI AZIMU VELO AIN AR TRES W  DIS CAZ7
 RUS  HZ EP     C  247 12.12                             154    0.9710 40.5 135 
 RUS  HE ES        247 21.42                             154   -0.4910 40.5 135 
 RUS  HZ I         247 23.56        40.3 0.36            156           40.5 135 
 BRR  HZ EP   4    247 17.86                             123    1.27 0  113 339 
 BRR  HN ES        247 32.03                             123    0.4410  113 339 
 PTB  HZ EP   4    247 19.73                             119    1.29 0  131 289 
 PTB  HE ES        247 34.59                             119   -0.2910  131 289 
 PTB  HZ I         247 35.78        20.0 0.28            119            131 289 
 PAM  EZ EP   4    247 23.64                             116    2.55 0  149  28 
 PAM  EE ES   4    247 41.44                             116    1.84 0  149  28 
 PAM  EZ I         247 43.09        12.5 0.24            115            149  28 
 CHI  HZ EP        247 23.74                             112   -0.03 9  174 194 
 CHI  HN ES   4    247 42.32                             112   -2.06 0  174 194 
 CHI  HZ I         247 43.89        19.7 0.18            113            174 194 
 TAM  HZ EP        247 24.06                             112    0.70 9  174  80 
 TAM  HE ES        247 43.05                             112   -0.60 9  174  80 
 TAM  HZ I         247 46.20        22.3 0.20            112            174  80 
 NOR  HZ EP   4    247 28.38                             111    4.20 0  181 249 
 NOR  HN ES   4    247 50.03                             111    4.94 0  181 249 
 ZAR  HZ EP   4    247 30.24                             106    1.15 0  224 312 
 ZAR  HN ES   4    247 52.48                             106   -1.36 0  224 312 
 ZAR  HZ I         247 59.20         8.4 0.24            106            224 312 
 VIL  SZ EP        247 29.59                             106   -0.27 8  229 190 
 VIL  SN ES   4    247 53.15                             106   -2.06 0  229 190 
 OCA  HZ EP        247 29.33                             106   -0.77 8  231   1 
 OCA  HN ES   4    247 52.22                             106   -3.43 0  231   1 
 GUY2CHZ EP   4    247 37.84                             105    5.46 0  247 246 
 GUY2CHN ES   4    248  7.56                             105    7.87 0  247 246 
                                                                                
