 2017  215 0826 46.9 L   6.752 -73.062138.1  RSN  6 0.4 1.2LRSN                1
 GAP=243        1.07       5.7     9.8  6.8  0.2528E+02 -0.3510E+01  0.2089E+01E
 Epicentro: JORDAN - SANTANDER                                                 3
 ACTION:UPD 17-05-24 15:36 OP:jn   STATUS:               ID:20170215082646 L   I
 OLDACT:UP  17-02-15 17:29 OP:edw  STATUS:               ID:20170215081741d    3
 OLDACT:DUP 17-02-15 17:24 OP:edw  STATUS:               ID:20170215081741d    3
 OLDACT:REG 17-02-15 13:09 OP:dani STATUS:               ID:20170215081740     3
 2017-02-15-0818-00M.COL___355                                                 6
 STAT SP IPHASW D HRMM SECON CODA AMPLIT PERI AZIMU VELO AIN AR TRES W  DIS CAZ7
 BAR2 EZ EP        827  5.74                             171    0.1110 22.1 217 
 BAR2 EZ ES        827 20.51                             171    0.3010 22.1 217 
 BRR  HZ EP        827  7.61                             147   -0.3310 81.9 299 
 BRR  HN ES        827 24.63                             147    0.3210 81.9 299 
 BRR  HZ I         827 27.83         3.2 0.24            147           81.9 299 
 RUS  HZ EP        827  9.88                             144    0.3410 95.0 181 
 RUS  HN ES        827 26.27                             144   -0.9010 95.0 181 
 RUS  HZ I         827 29.79         2.9 0.28            143           95.0 181 
 PTB  HZ EP   9    827 12.54                             128   -1.53 0  156 261 
 PTB  HN ES        827 33.35                             139   -0.35 9  156 261 
 PTB  HZ I         827 36.03         1.6 0.16            128            156 261 
 ZAR  HZ EP        827 19.64                             119   -0.38 8  215 293 
 CHI  HZ EP        827 24.15                             116    0.20 8  246 198 
 CHI  HN ES        827 53.28                             116    0.47 8  246 198 
 CHI  HZ I         827 56.70         1.2 0.64            116            246 198 
                                                                                
