 2013  715 0903 11.6 L   6.771 -73.179150.1  RSN  4 0.2 1.3LRSN                1
 GAP=239        0.66       5.4     6.7  8.2 -0.1318E+02 -0.2398E+02  0.1898E+02E
 Epicentro: LOS SANTOS - SANTANDER                                             3
 ACTION:UPD 13-08-12 10:37 OP:ep   STATUS:               ID:20130715090311 L   I
 OLDACT:REG 13-07-15 10:14 OP:nd   STATUS:               ID:20130715085959     3
 2013-07-15-0859-59M.COL___267                                                 6
 STAT SP IPHASW D HRMM SECON CODA AMPLIT PERI AZIMU VELO AIN AR TRES W  DIS CAZ7
 BAR2 SZ EP        9 3 31.29                             172   -0.3610 19.8 181 
 BAR2 SZ I         9 3 47.59         7.1 0.20            160           19.8 181 
 BRR  HZ EP        9 3 33.21                             154    0.1110 69.6 302 
 BRR  HN ES        9 3 50.12                             154    0.2310 69.6 302 
 PTB  HZ EP        9 3 38.40                             134   -0.12 9  144 260 
 PTB  HN ES        9 3 59.26                             134   -0.28 9  144 260 
 PTB  HZ I         9 4  0.96         1.8 0.12            147            144 260 
 SPBC HZ EP        9 3 40.33                             131    0.38 9  158 219 
 SPBC HN ES        9 4  2.16                             131    0.06 9  158 219 
                                                                                
