 2012 1115 0241 24.3 L   6.789 -73.118145.8  RSN  4 0.2 1.4LRSN                1
 GAP=141        0.39       2.8     2.9  5.1  0.1688E+01  0.2190E+01  0.1253E+01E
 Epicentro: LOS SANTOS - SANTANDER                                             3
 ACTION:UPD 12-12-05 15:33 OP:}ep  STATUS:               ID:20121115024124 L   I
 2012-11-15-0240-00M.COL___230                                                 6
 STAT SP IPHASW D HRMM SECON CODA AMPLIT PERI AZIMU VELO AIN AR TRES W  DIS CAZ7
 BRR  HZ EP   1    241 45.70                             151    0.04 7 74.5 298 
 BRR  HE ES   1    242  2.54                             151    0.24 7 74.5 298 
 BRR  HZ I         242  3.23         6.2 0.18                          74.5 298 
 PAM  SZ EP   1    241 46.61                             151    0.13 7 76.4  37 
 PAM  SN ES   1    242  3.59                             151   -0.17 7 76.4  37 
 PAM  SZ I         242  5.89         6.2 0.66                          76.4  37 
 RUS  HZ EP   1    241 47.97                             144    0.00 7 99.2 178 
 RUS  HZ I         242  3.67         1.9 0.64                          99.2 178 
 RUS  HN ES   1    242  6.35                             144   -0.06 7 99.2 178 
 ZAR  HN ES   1    242 22.45                             122   -0.24 6  207 292 
                                                                                
