 2016 1015 0722 11.2 L   6.759 -73.106142.0  RSN  6 0.4 1.1LRSN                1
 GAP=144        0.89       4.2     4.3  8.9 -0.3193E+01  0.1185E+02 -0.1910E+01E
 Epicentro: LOS SANTOS - SANTANDER                                             3
 ACTION:UPD 16-11-09 19:19 OP:rebc STATUS:               ID:20161015072211 L   I
 OLDACT:UP  16-10-15 18:50 OP:ar   STATUS:               ID:20161015071742d    3
 OLDACT:DUP 16-10-15 18:45 OP:ar   STATUS:               ID:20161015071742d    3
 OLDACT:REG 16-10-15 13:07 OP:ar   STATUS:               ID:20161015071741     3
 2016-10-15-0718-00M.COL___365                                                 6
 STAT SP IPHASW D HRMM SECON CODA AMPLIT PERI AZIMU VELO AIN AR TRES W  DIS CAZ7
 BRR  HZ EP   2    722 32.73                             150    0.43 5 77.3 300 
 BRR  HN ES        722 49.39                             150    0.6410 77.3 300 
 BRR  HZ I         722 55.96         3.0 0.30            150           77.3 300 
 PAM  EZ EP        722 33.22                             150    0.1610 78.3  35 
 PAM  EN ES        722 49.72                             150   -0.4010 78.3  35 
 PAM  EZ I         722 52.73         3.4 0.42            156           78.3  35 
 RUS  HE ES        722 52.15                             144   -0.0510 95.8 179 
 RUS  HZ I         722 54.74         1.1 0.32            149           95.8 179 
 PTB  HZ EP        722 38.18                             130   -0.00 9  151 261 
 PTB  HN ES        722 58.64                             130   -0.59 9  151 261 
 PTB  HZ I         723  5.95         1.2 0.48            133            151 261 
 SPBC HN ES        723  1.49                             128    0.19 9  163 221 
 SPBC HZ I         723  7.32         1.4 0.12            132            163 221 
 ZAR  HN ES        723  9.46                             121   -0.13 8  210 293 
 ZAR  HZ I         723 14.39         2.2 0.44            124            210 293 
                                                                                
