 2017  715 0405 55.2 L   7.443 -73.329120.0  RSN  9 0.4 1.6LRSN                1
 GAP=187        0.89       6.9     5.1  7.2 -0.1650E+02  0.1724E+02 -0.1258E+02E
 Epicentro: EL PLAYON - SANTANDER                                              3
 ACTION:UPD 17-08-30 15:33 OP:rebc STATUS:               ID:20170715040555 L   I
 OLDACT:UP  17-07-15 15:52 OP:dnl  STATUS:               ID:20170715035736     3
 OLDACT:UP  17-07-15 15:52 OP:dnl  STATUS:               ID:20170715035736     3
 OLDACT:REG 17-07-15 12:25 OP:dnl  STATUS:               ID:20170715035736     3
 2017-07-15-0358-00M.COL___377                                                 6
 STAT SP IPHASW D HRMM SECON CODA AMPLIT PERI AZIMU VELO AIN AR TRES W  DIS CAZ7
 BRR  HZ IP     C  4 6 12.82                             153    0.0610 56.3 229 
 BRR  HN ES        4 6 26.90                             153    0.4710 56.3 229 
 BRR  HZ I         4 6 27.45        30.2 0.14            148           56.3 229 
 PAM  EN ES        4 6 29.25                             149    0.0610 70.4  99 
 PAM  EZ I         4 6 30.07         3.5 0.18            151           70.4  99 
 BAR2 EZ IP     C  4 6 15.75                             140   -0.0310 95.5 170 
 BAR2 EZ ES        4 6 31.67                             140   -0.1410 95.5 170 
 BAR2 EZ I         4 6 32.49        21.9 0.32            137           95.5 170 
 PTB  HZ EP        4 6 21.02                             123   -0.42 9  160 231 
 PTB  HN ES        4 6 41.21                             123   -0.67 9  160 231 
 PTB  HZ I         4 6 45.03         3.4 0.22            120            160 231 
 ZAR  HZ EP   2    4 6 22.38                             122   -0.00 5  169 272 
 ZAR  HN ES   4    4 6 45.15                             122    1.60 0  169 272 
 ZAR  HZ I         4 6 48.21         6.8 0.14            118            169 272 
 SPBC HZ EP   9    4 6 29.52                             115    2.13 0  214 203 
 SPBC HE ES        4 6 54.38                             113   -0.22 8  214 203 
 SPBC HZ I         4 6 57.62         4.4 0.36            113            214 203 
 NOR  HZ EP   2    4 6 34.15                             110    0.66 4  269 219 
 NOR  HN ES        4 7  3.89                             110    0.55 8  269 219 
 NOR  HZ I         4 7  9.43         2.7 0.16            107            269 219 
 HEL  HZ EP   2    4 6 35.81                             109    0.64 4  280 240 
 HEL  HN ES   4    4 7  5.10                             109   -1.22 0  280 240 
 HEL  HZ I         4 7 14.07         1.6 0.26            107            280 240 
 GUY2CHZ EP   9    4 6 44.04                             105    2.51 0  333 223 
 GUY2CHE ES        4 7 20.94                             105    0.79 7  333 223 
 GUY2CHZ I         4 7 27.53         1.8 0.40                           333 223 
                                                                                
