 2011  215 0749 49.9 L   6.787 -73.194137.9  RSN  8 0.4 2.0LRSN                1
 GAP=132        1.06       4.3    14.9  9.4 -0.1530E+02  0.5154E+02 -0.3937E+01E
 Epicentro: ZAPATOCA - SANTANDER                                               3
 ACTION:UP  11-03-28 15:08 OP:jfem STATUS:               ID:20110215074949 L   I
 2011-02-15-0748-15S.COL___136                                                 6
 STAT SP IPHASW D HRMM SECON CODA AMPLIT PERI AZIMU VELO SNR AR TRES W  DIS CAZ7
 BAR2 SZ EP        750  8.48                             171    -0.110   22 177 
 BAR2 SZ ES   1    750 22.88                             171    -0.2 7   22 177 
 BAR2 SZ I         750 24.80        31.1 0.40                            22 177 
 RUS  HZ EP        750 12.50                             142    -0.410  100 173 
 RUS  HZ I         750 13.39        10.3 0.10                           100 173 
 RUS  HN ES   1    750 31.32                             142     0.6 7  100 173 
 GRA  SZ EP        750 15.33                             134     0.610  129  20 
 GRA  SZ ES   1    750 34.28                             134     0.2 7  129  20 
 GRA  SZ I         750 35.86        10.1 0.32                           129  20 
 OCA  SZ EP        750 17.55                             127    -0.2 9  161 355 
 OCA  SZ ES   1    750 38.90                             127    -0.5 7  161 355 
 OCA  SZ I         750 43.53        13.8 0.31                           161 355 
 YOP  SZ EP   2    750 18.87                             124    -0.7 4  180 152 
 YOP  SZ I         750 44.02         8.6 0.20                           180 152 
 CHI  HZ EP        750 26.83                             116    -0.1 8  246 194 
 CHI  HZ I         751  3.23         5.7 0.23                           246 194 
 HEL  HZ EP   2    750 29.95                             114     0.8 4  267 256 
 HEL  HZ I         751  6.88         6.6 0.39                           267 256 
 GUY  SZ EP   2    750 33.35                             111     0.7 4  296 234 
 GUY  SZ I         751 17.32        11.5 0.30                           296 234 
                                                                                
