 2010  215 0739 20.7 L   6.838 -73.081142.0  RSN  7 0.3 2.1LRSN                1
 GAP=147        0.49       2.5     5.0  4.1 -0.4152E+01  0.1956E+01  0.6428E+00E
 Epicentro: LOS SANTOS - SANTANDER                                             3
 ACTION:UP  10-08-24 09:49 OP:vdl  STATUS:               ID:20100215073920 L   I
 2010-02-15-0735-25S.COL___093                                                 6
 STAT SP IPHASW D HRMM SECON CODA AMPLIT PERI AZIMU VELO SNR AR TRES W  DIS CAZ7
 BAR2 SZ EP   1    739 40.12                             168     0.1 8   30 203 
 BAR2 SZ ES   1    739 55.11                             168     0.0 8   30 203 
 OCA  SZ EP        739 48.57                             129     0.210  157 350 
 OCA  SZ ES   1    740  9.70                             129    -0.3 7  157 350 
 OCA  SZ I         740 13.80        20.3 0.34                           157 350 
 CHI  HZ EP        739 58.61                             116    -0.2 8  255 196 
 CHI  HN ES   2    740 29.12                             116     0.5 4  255 196 
 HEL  HZ EP   2    740  2.16                             113     0.6 4  280 255 
 DBB  SZ EP        740  8.89                             108     0.1 7  346 273 
 SDV  BZ EP        740  9.67                             108     0.0 7  352  50 
 PRA  HZ EP        740 14.67                             105    -0.3 6  399 210 
 PRA  HN ES   2    740 56.63                             105    -0.6 3  399 210 
 PRA  HZ I         741  0.53         2.1 0.13                           399 210 
                                                                                
