 2017  115 0554 46.3 L   6.791 -73.113146.0  RSN  5 0.2 1.2LRSN                1
 GAP=141        0.61       3.1     2.8  5.7  0.6305E+00  0.2144E+01  0.1412E+01E
 Epicentro: LOS SANTOS - SANTANDER                                             3
 ACTION:UPD 17-05-22 15:59 OP:jn   STATUS:               ID:20170115055446 L   I
 OLDACT:DUP 17-01-15 15:34 OP:e    STATUS:               ID:20170115054743d    3
 OLDACT:UP  17-01-15 15:34 OP:e    STATUS:               ID:20170115054742     3
 OLDACT:UP  17-01-15 15:33 OP:e    STATUS:               ID:20170115054742     3
 OLDACT:UP  17-01-15 15:32 OP:e    STATUS:               ID:20170115054742     3
 OLDACT:REG 17-01-15 12:44 OP:and  STATUS:               ID:20170115054742     3
 2017-01-15-0548-00M.COL___335                                                 6
 STAT SP IPHASW D HRMM SECON CODA AMPLIT PERI AZIMU VELO AIN AR TRES W  DIS CAZ7
 BRR  HZ EP        555  7.37                             151   -0.2910 74.8 298 
 BRR  HN ES        555 24.45                             151    0.1110 74.8 298 
 PAM  EZ IP     C  555  8.48                             151    0.0510 75.9  37 
 PAM  EN ES        555 25.61                             151   -0.1010 75.9  37 
 PAM  EZ I         555 27.34         3.5 0.44            151           75.9  37 
 RUS  HZ EP        555 10.25                             144    0.2810 99.4 178 
 RUS  HN ES        555 28.45                             144    0.0010 99.4 178 
 PTB  HZ EP   2    555 13.12                             131   -0.45 5  151 259 
 PTB  HN ES        555 34.57                             131   -0.28 9  151 259 
 PTB  HZ I         555 36.89         0.9 0.10            130            151 259 
 ZAR  HN ES        555 45.13                             122    0.40 8  208 292 
 ZAR  HZ I         555 50.11         2.1 0.09            121            208 292 
                                                                                
