 2017  615 0357 24.0 L   6.845 -73.133150.6  RSN  6 0.3 1.7LRSN                1
 GAP=218        0.65       3.6     3.4  6.5  0.4911E+01 -0.3416E+01  0.4499E+01E
 Epicentro: LOS SANTOS - SANTANDER                                             3
 ACTION:UPD 17-09-14 16:52 OP:jn   STATUS:               ID:20170615035724 L   I
 OLDACT:UP  17-06-15 15:59 OP:dani STATUS:               ID:20170615034741     3
 OLDACT:UP  17-06-15 15:57 OP:dani STATUS:               ID:20170615034741     3
 OLDACT:REG 17-06-15 12:55 OP:dani STATUS:               ID:20170615034741     3
 2017-06-15-0348-00M.COL___359                                                 6
 STAT SP IPHASW D HRMM SECON CODA AMPLIT PERI AZIMU VELO AIN AR TRES W  DIS CAZ7
 BRR  HZ EP        357 45.70                             154    0.0510 70.2 294 
 BRR  HN ES        358  2.60                             154    0.0810 70.2 294 
 BRR  HZ I         358  5.59         6.4 0.21            157           70.2 294 
 PTB  HZ EP        357 51.32                             133   -0.29 9  150 257 
 PTB  HN ES        358 12.64                             133   -0.49 9  150 257 
 PTB  HZ I         358 16.89         3.4 0.28            136            150 257 
 SPBC HZ EP        357 53.29                             129   -0.06 9  168 218 
 SPBC HN ES        358 16.15                             129   -0.07 9  168 218 
 SPBC HZ I         358 19.84         6.4 0.21            132            168 218 
 YPLC HZ EP        357 54.57                             127    0.03 9  181 152 
 YPLC HN ES        358 18.44                             127    0.10 9  181 152 
 YPLC HZ I         358 21.22         8.8 0.28            130            181 152 
 ZAR  HN ES        358 22.57                             123    0.31 9  204 291 
 NOR  HN ES        358 29.41                             119    0.51 8  239 234 
 NOR  HZ I         358 30.97         3.8 0.38            122            239 234 
                                                                                
