 2017 1115 0725 25.0 L   6.832 -73.138151.1  RSN 22 1.0 2.7LRSN                1
 GAP= 74        2.05       5.5     5.1  8.6  0.4502E+01  0.1135E+02  0.7293E+01E
 Epicentro: LOS SANTOS - SANTANDER                                             3
 ACTION:UPD 17-12-12 19:55 OP:rebc STATUS:               ID:20171115072525 L   I
 OLDACT:REG 17-11-15 14:00 OP:leo  STATUS:               ID:20171115071739     3
 2017-11-15-0718-00M.COL___444                                                 6
 STAT SP IPHASW D HRMM SECON CODA AMPLIT PERI AZIMU VELO AIN AR TRES W  DIS CAZ7
 BAR2 EZ EP        725 45.42                             170    0.0410 27.0 190 
 BAR2 EZ ES        726  0.35                             170   -0.9110 27.0 190 
 BAR2 EZ I         726  3.06       162.4 0.24            167           27.0 190 
 BRR  HZ EP        725 47.31                             154    0.5910 70.3 296 
 BRR  HN ES        726  4.49                             154    0.8610 70.3 296 
 BRR  HZ I         726  8.23        61.9 0.38            146           70.3 296 
 PAM  EZ EP        725 48.19                             153    0.5610 74.1  41 
 PAM  EN ES        726  5.58                             153    0.3210 74.1  41 
 PAM  EZ I         726  7.18        39.3 0.18            149           74.1  41 
 RUS  HZ EP     C  725 49.31                             144   -0.2610  104 177 
 RUS  HN ES        726  8.25                             144   -0.4510  104 177 
 RUS  HZ I         726  9.23        81.6 0.32            138            104 177 
 PTB  HZ EP        725 52.07                             133   -0.52 9  149 258 
 PTB  HN ES        726 13.47                             133   -0.60 9  149 258 
 PTB  HZ I         726 20.69        50.6 0.38            125            149 258 
 TAM  HZ EP        725 53.65                             132    0.50 9  155 106 
 TAM  HN ES        726 15.40                             132    0.32 9  155 106 
 TAM  HZ I         726 21.62        25.6 0.40            127            155 106 
 SPBC HZ EP        725 54.39                             130    0.13 9  167 218 
 SPBC HE ES        726 16.68                             130   -0.38 9  167 218 
 SPBC HZ I         726 22.74        86.2 0.22            122            167 218 
 YPLC HZ EP     C  725 55.74                             127    0.25 9  180 152 
 YPLC HN ES        726 19.66                             127    0.42 9  180 152 
 YPLC HZ I         726 20.52        54.8 0.26            122            180 152 
 ZAR  HZ EP        725 58.10                             124    0.32 9  204 291 
 ZAR  HE ES        726 23.88                             124    0.56 9  204 291 
 ZAR  HZ I         726 31.92        54.4 0.30            116            204 291 
 TABC EZ EP        726  2.78                             120    1.30 8  233 210 
 TABC EZ I         726 36.98        44.3 0.62            114            233 210 
 NOR  HZ EP   9    726  1.47                             119    0.09 0  237 234 
 NOR  HN ES        726 30.47                                    0.65 8  237 234 
 NOR  HZ I         726 34.84        51.5 0.42            113            237 234 
 CHI  HZ EP        726  3.53                             118    0.10 8  252 195 
 CHI  HN ES        726 33.37                             118   -0.01 8  252 195 
 CHI  HZ I         726 39.72        13.9 0.26            112            252 195 
 ROSC BZ EP   4    726  5.21                             117    1.38 0  256 211 
 ROSC BE ES   4    726 34.31                             117    0.21 0  256 211 
 ROSC BZ I         726 43.26        55.8 0.35            111            256 211 
 URE  HZ EP        726  5.37                             115   -0.94 7  283 291 
 URE  HZ I         726 47.06        36.0 0.18            108            283 291 
 GUY2CHZ EP        726  9.78                             113    0.57 7  304 234 
 GUY2CHN ES        726 44.47                             113    0.81 7  304 234 
 GUY2CHZ I         726 51.99        52.3 0.38                           304 234 
 PTGC HZ EP        726  8.41                             112   -1.07 7  312 159 
 PTGC HN ES        726 41.62                             112   -2.52 7  312 159 
 PTGC HZ I         726 43.65        18.5 0.40            107            312 159 
 CBOC HZ EP        726 13.23                             111    0.83 7  336 252 
 CBOC HN ES        726 46.37                             111   -2.97 7  336 252 
 CBOC HZ I         726 55.86        10.0 0.68            105            336 252 
 DBB  EZ EP        726 13.19                             110    0.38 7  340 274 
 DBB  EN ES        726 50.09                             110    0.03 7  340 274 
 DBB  EZ I         726 50.50        52.4 0.98            105            340 274 
 PRA  HZ EP        726 19.00                             107   -0.16 6  396 209 
 PRA  HN ES        727  0.58                             107   -0.79 6  396 209 
 PRA  HZ I         727  7.95        32.3 0.26            102            396 209 
 ORTC HZ EP        726 20.03                             107    0.49 6  399 216 
 ORTC HZ I         727  8.52        18.6 0.38            102            399 216 
 SJC  HZ EP        726 19.73                             107   -0.75 6  407 327 
 SJC  HN ES        727  1.02                             107   -2.71 6  407 327 
 PAL  HZ EP        726 21.12                             107    0.44 6  408 239 
 PAL  HN ES        727  7.57                             107    3.49 6  408 239 
 PAL  HZ I         727 10.07        14.2 0.48            102            408 239 
                                                                                
