 2011  215 0007 46.7 L   6.796 -73.149141.2  RSN  7 0.3 1.9LRSN                1
 GAP=158        0.69       3.6     4.6  6.7 -0.7122E+01  0.1417E+02 -0.8672E+00E
 Epicentro: LOS SANTOS - SANTANDER                                             3
 ACTION:UP  11-03-28 15:08 OP:jfem STATUS:               ID:20110215000746 L   I
 2011-02-15-0003-34S.COL___136                                                 6
 STAT SP IPHASW D HRMM SECON CODA AMPLIT PERI AZIMU VELO SNR AR TRES W  DIS CAZ7
 BAR2 SZ EP   1    0 8  5.78                             170     0.010   23 190 
 BAR2 SZ ES   1    0 8 20.29                             170    -0.310   23 190 
 BAR2 SZ I         0 8 23.65        23.2 0.33                            23 190 
 RUS  HZ EP   1    0 8  9.68                             143    -0.310  100 176 
 RUS  HN ES   1    0 8 28.08                             143     0.010  100 176 
 RUS  HZ I         0 8 29.65        12.4 0.28                           100 176 
 GRA  SZ EP   1    0 8 11.48                             136    -0.110  126  18 
 GRA  SZ ES   1    0 8 31.43                             136     0.510  126  18 
 GRA  SZ I         0 8 32.57         7.6 0.30                           126  18 
 NOR  SZ EP   1    0 8 21.62                             117    -0.5 8  234 235 
 NOR  SN ES   1    0 8 49.72                             117     0.0 8  234 235 
 CHI  HZ IP   1 C  0 8 23.89                             116    -0.2 8  248 195 
 CHI  HZ I         0 8 24.43         4.5 0.18                           248 195 
 CHI  HN ES   1    0 8 54.03                             116     0.8 8  248 195 
 HEL  HZ EP   2    0 8 26.28                             114    -0.3 5  272 256 
 HEL  HN ES        0 8 57.79                             114     0.010  272 256 
 HEL  HZ I         0 9  4.66         3.7 0.22                           272 256 
 RREF HZ EP   2    0 8 33.13                             110     0.6 5  321 229 
 RREF HN ES        0 9  8.48                             110     0.1 9  321 229 
 RREF HZ I         0 9 18.48         4.1 0.24                           321 229 
                                                                                
