 2012  915 0110 18.5 L   6.768 -73.144142.7  RSN  9 0.4 2.6LRSN                1
 GAP=138        0.83       4.7     4.6  5.9  0.1102E+01  0.5930E+01  0.5079E+01E
 Epicentro: LOS SANTOS - SANTANDER                                             3
 ACTION:UPD 12-10-22 14:18 OP:ep   STATUS:               ID:20120915011018 L   I
 2012-09-15-0110-00M.COL___227                                                 6
 STAT SP IPHASW D HRMM SECON CODA AMPLIT PERI AZIMU VELO AIN AR TRES W  DIS CAZ7
 BAR2 SZ EP   1    110 37.85                             172    0.15 7 19.8 192 
 BAR2 SZ ES   1    110 52.34                             172   -0.33 7 19.8 192 
 BAR2 SZ I         110 53.39       109.8 0.24                          19.8 192 
 GIR2 SZ EP   1    110 37.84                             166   -0.08 7 34.8 351 
 GIR2 SZ ES   1    110 52.46                             166   -0.59 7 34.8 351 
 BRR  HZ EP        110 39.65                             151    0.2110 73.1 301 
 BRR  HZ I         110 40.09        81.0 0.10                          73.1 301 
 BRR  HN ES   1    110 56.45                             151    0.69 7 73.1 301 
 PAM  SZ EP        110 40.88                             149    0.3210 80.1  38 
 PAM  SN ES   1    110 57.38                             149   -0.38 7 80.1  38 
 RUS  HZ EP   1    110 41.69                             144   -0.01 7 97.0 176 
 RUS  HN ES   1    111  0.40                             144    0.62 7 97.0 176 
 PTB  HZ EP   1    110 44.60                             131   -0.58 7  147 260 
 PTB  HE ES   1    111  5.67                             131   -0.32 7  147 260 
 PTB  HN I         111  8.47        55.5 0.22                           147 260 
 ZAR  HZ EP   1    110 50.96                             121    0.04 6  206 293 
 ZAR  HN ES   1    111 16.34                             121    0.15 6  206 293 
 ZAR  HZ I         111 21.52        24.2 0.18                           206 293 
 CHI  HZ EP   1    110 54.88                             117   -0.79 6  245 195 
 PRA  HZ EP   1    111 11.96                             106    0.39 4  389 210 
 PRA  HZ I         111 58.44         7.6 0.24                           389 210 
                                                                                
