 2012 1015 0838 53.9 L   7.368 -73.181137.7  RSN  4 0.2 1.4LRSN                1
 GAP=209        0.50       6.8     5.1  5.9 -0.1013E+02  0.2052E+01 -0.4315E+01E
 Epicentro: RIONEGRO - SANTANDER                                               3
 ACTION:UPD 12-11-22 17:04 OP:ep   STATUS:               ID:20121015083854 L   I
 2012-10-15-0830-00M.COL___230                                                 6
 STAT SP IPHASW D HRMM SECON CODA AMPLIT PERI AZIMU VELO AIN AR TRES W  DIS CAZ7
 GIR2 SZ EP   1    839 12.71                             166    0.10 7 32.0 183 
 PAM  SZ EP   1    839 14.22                             158    0.30 7 53.2  93 
 PAM  SZ I         839 14.37         3.5 0.25                          53.2  93 
 PAM  SN ES   1    839 29.38                             158   -0.18 7 53.2  93 
 BRR  HZ EP   1    839 13.93                             153    0.11 7 65.4 244 
 BRR  HN ES   1    839 29.33                             153   -0.05 7 65.4 244 
 BRR  HZ I         839 30.63         5.9 0.14                          65.4 244 
 BAR2 SZ EP        839 15.14                             146   -0.2810 85.8 180 
 BAR2 SZ ES   1    839 32.47                             146    0.24 7 85.8 180 
 BAR2 SZ I         839 33.36         6.8 0.11                          85.8 180 
                                                                                
