 2011 1015 0611 36.9 L   6.778 -73.127140.4  RSN  5 0.3 1.7LRSN                1
 GAP=140        0.68       3.9     6.4  6.0  0.5424E+00 -0.1392E+01 -0.4465E+01E
 Epicentro: LOS SANTOS - SANTANDER                                             3
 ACTION:UPD 12-07-13 16:03 OP:ep   STATUS:               ID:20111015061136 L   I
 2011-10-15-0600-00M.COL___171                                                 6
 STAT SP IPHASW D HRMM SECON CODA AMPLIT PERI AZIMU VELO AIN AR TRES W  DIS CAZ7
 BAR2 SZ EP        611 55.54                             171   -0.2810 21.4 196 
 BAR2 SZ ES   1    612 10.16                             171   -0.44 7 21.4 196 
 BAR2 SZ I         612 11.91        10.7 0.20                          21.4 196 
 BRR  HZ EP        611 57.35                             150   -0.2610 74.1 299 
 BRR  HE ES   1    612 14.21                             150    0.41 7 74.1 299 
 BRR  HZ I         612 17.24        11.2 0.38                          74.1 299 
 PAM  SZ EP        611 58.44                             150   -0.1210 78.0  37 
 PAM  SN ES   1    612 15.70                             150    0.23 7 78.0  37 
 RUS  HZ EP        612  0.27                             143    0.3610 98.0 177 
 RUS  HN ES   1    612 18.00                             143    0.12 7 98.0 177 
 OCA  SZ EP        612  5.16                             128    0.14 9  163 353 
                                                                                
