 2012  615 0743  8.3 L   7.417 -73.196131.9  RSN  4 0.2 1.5LRSN                1
 GAP=186        0.47       5.1     3.2  6.6 -0.2378E+01  0.1110E+02 -0.7207E+01E
 Epicentro: EL PLAYON - SANTANDER                                              3
 ACTION:UPD 12-08-06 17:49 OP:ep   STATUS:               ID:20120615074308 L   I
 2012-06-15-0740-00M.COL___200                                                 6
 STAT SP IPHASW D HRMM SECON CODA AMPLIT PERI AZIMU VELO AIN AR TRES W  DIS CAZ7
 PAM  SZ EP   1    743 27.95                             156    0.17 7 55.5  99 
 PAM  SN ES   1    743 43.06                             156    0.07 7 55.5  99 
 BAR2 SZ EP   1    743 29.49                             143   -0.14 7 91.2 179 
 BAR2 SZ ES   1    743 45.97                             143   -0.31 7 91.2 179 
 BAR2 SZ I         743 47.19         8.4 0.14                          91.2 179 
 PTB  HZ EP   1    743 36.46                             124    0.16 7  170 235 
 PTB  HN ES   1    743 58.51                             124    0.35 7  170 235 
 PTB  HZ I         744  1.86         2.3 0.28                           170 235 
 ZAR  HZ EP   2    743 37.31                             122   -0.40 4  184 273 
 ZAR  HN ES   1    744  0.58                             122   -0.09 7  184 273 
                                                                                
