 2014  915 0149 10.1 L   6.786 -73.171125.8  RSN  5 0.5 1.3LRSN                1
 GAP=243        1.20       6.8     7.6  8.7  0.9982E+01  0.1933E+02  0.3927E+01E
 Epicentro: LOS SANTOS - SANTANDER                                             3
 ACTION:UPD 14-10-03 23:05 OP:nd   STATUS:               ID:20140915014910 L   I
 OLDACT:REG 14-09-15 12:32 OP:carl STATUS:               ID:20140915014819     3
 2014-09-15-0148-19M.COL___293                                                 6
 STAT SP IPHASW D HRMM SECON CODA AMPLIT PERI AZIMU VELO AIN AR TRES W  DIS CAZ7
 BAR2 SZ EP        149 27.38                             170    0.0910 21.5 183 
 BAR2 SZ ES        149 40.22                             170   -0.4810 21.5 183 
 BAR2 SZ I         149 44.36         3.5 0.18            168           21.5 183 
 BRR  HZ EP        149 29.35                             149    0.3410 69.5 301 
 BRR  HN ES        149 44.23                             149    0.4510 69.5 301 
 BRR  HZ I         149 49.79         4.8 0.50            149           69.5 301 
 PTB  HZ EP        149 34.36                             128   -0.85 9  145 259 
 PTB  HN ES        149 54.29                             128   -0.52 9  145 259 
 PTB  HZ I         149 57.98         3.8 0.44            130            145 259 
 SPBC HZ EP        149 36.77                             125   -0.07 9  160 219 
 SPBC HN ES        149 58.49                             125    0.78 9  160 219 
 SPBC HZ I         150  3.55         3.0 0.28            128            160 219 
 ZAR  HZ EP        149 41.42                             118    0.32 9  202 293 
 ZAR  HN ES        150  5.25                             118   -0.04 9  202 293 
 ZAR  HZ I         150 10.62         3.2 0.30            121            202 293 
                                                                                
