 2017  715 0149 21.3 L   6.860 -73.349122.0  RSN  9 0.5 1.7LRSN                1
 GAP=109        1.17       4.5     4.0  7.8 -0.1997E+01  0.3628E+01  0.8914E+01E
 Epicentro: SAN VICENTE DE CHUCURI - SANTANDER                                 3
 ACTION:UPD 17-08-30 15:33 OP:rebc STATUS:               ID:20170715014921 L   I
 OLDACT:UP  17-07-15 14:50 OP:dnl  STATUS:               ID:20170715014737     3
 OLDACT:REG 17-07-15 12:21 OP:dnl  STATUS:               ID:20170715014737     3
 2017-07-15-0148-00M.COL___383                                                 6
 STAT SP IPHASW D HRMM SECON CODA AMPLIT PERI AZIMU VELO AIN AR TRES W  DIS CAZ7
 BAR2 EZ EP        149 38.26                             163   -0.1310 34.9 148 
 BAR2 EZ ES        149 51.48                             163   -0.2610 34.9 148 
 BRR  HZ EP        149 38.75                             157    0.1410 48.5 304 
 BRR  HN ES        149 52.78                             157    0.6510 48.5 304 
 BRR  HZ I         149 53.66        24.7 0.10            159           48.5 304 
 PAM  EZ EP        149 41.76                             142   -0.1010 89.2  53 
 PAM  EN ES        149 58.20                             142    0.2710 89.2  53 
 PAM  EZ I         150  1.62         5.9 0.24            145           89.2  53 
 RUS  HZ EP        149 43.47                             135   -0.1610  111 165 
 RUS  HN ES        150  0.87                             135   -0.2010  111 165 
 RUS  HZ I         150  2.57         6.1 0.40            137            111 165 
 PTB  HZ EP        149 43.56                             131   -0.9010  127 254 
 PTB  HN ES        150  1.74                             131   -0.8110  127 254 
 PTB  HZ I         150  5.32         4.6 0.12            132            127 254 
 SPBC HZ EP   2    149 48.27                             125    0.98 5  156 211 
 SPBC HE ES        150  7.92                             125    0.32 9  156 211 
 SPBC HZ I         150 13.37         7.1 0.20            126            156 211 
 YPLC HZ EP   2    149 50.70                             118   -0.59 4  194 146 
 YPLC HN ES        150 14.89                             118    0.18 9  194 146 
 YPLC HZ I         150 17.15        15.1 0.36            120            194 146 
 NOR  HZ EP   2    149 55.01                             115    0.81 4  221 230 
 NOR  HE ES        150 20.78                             115    0.88 8  221 230 
 NOR  HZ I         150 21.81         3.1 0.26            116            221 230 
 GUY2CHZ EP   2    150  3.07                             109    0.80 4  287 231 
 GUY2CHN ES   4    150 36.59                             109    2.34 0  287 231 
 GUY2CHZ I         150 41.95         2.1 0.36                           287 231 
                                                                                
