 2016 1115 0336 38.3 L   6.756 -73.102147.7  RSN  5 0.2 1.5LRSN                1
 GAP=162        0.63       5.1     4.8  5.3 -0.7528E+01 -0.6844E+01  0.3829E+01E
 Epicentro: LOS SANTOS - SANTANDER                                             3
 ACTION:UPD 17-10-26 21:08 OP:lp   STATUS:               ID:20161115033638 L   I
 OLDACT:UP  16-11-15 15:13 OP:edw  STATUS:               ID:20161115032727d    3
 OLDACT:UP  16-11-15 15:12 OP:edw  STATUS:               ID:20161115032727d    3
 OLDACT:DUP 16-11-15 15:10 OP:edw  STATUS:               ID:20161115032727d    3
 OLDACT:REG 16-11-15 12:48 OP:edw  STATUS:               ID:20161115032726     3
 2016-11-15-0328-00M.COL___338                                                 6
 STAT SP IPHASW D HRMM SECON CODA AMPLIT PERI AZIMU VELO AIN AR TRES W  DIS CAZ7
 BAR2 EZ EP        336 58.00                             172   -0.1010 20.1 206 
 BAR2 EZ ES        337 13.55                             172    0.0110 20.1 206 
 BAR2 EZ I         337 14.36        14.2 0.26            174           20.1 206 
 BRR  HZ IP     C  336 59.91                             150   -0.1310 77.8 300 
 BRR  HE ES        337 17.12                             150    0.1310 77.8 300 
 BRR  HZ I         337 20.27         5.6 0.24            149           77.8 300 
 PAM  EZ IP     D  337  1.13                             150    0.3510 78.4  35 
 PAM  EN ES        337 18.07                             150   -0.2410 78.4  35 
 PAM  EZ I         337 20.75         3.1 0.40            150           78.4  35 
 PTB  HZ EP   9    337  4.87                             131   -0.91 0  152 261 
 PTB  HN ES        337 25.84                             133   -0.46 9  152 261 
 PTB  HZ I         337 27.85         4.4 0.11            132            152 261 
 CHI  HE ES   2    337 44.91                             117   -0.03 4  245 197 
                                                                                
