 2014  515 0522 52.9 L   6.650 -73.241142.5  RSN  4 0.3 0.9LRSN                1
 GAP=214        0.64       6.5     6.9  7.0  0.3494E+02  0.1349E+02  0.1105E+02E
 Epicentro: BARICHARA - SANTANDER                                              3
 ACTION:UPD 15-03-16 16:57 OP:nd   STATUS:               ID:20140515052252 L   I
 OLDACT:UP  14-05-15 18:27 OP:fm   STATUS:               ID:20140515051816     3
 OLDACT:REG 14-05-15 13:51 OP:spq  STATUS:               ID:20140515051816     3
 2014-05-15-0518-16M.COL___251                                                 6
 STAT SP IPHASW D HRMM SECON CODA AMPLIT PERI AZIMU VELO AIN AR TRES W  DIS CAZ7
 BRR  HN ES        523 29.98                             151   -0.1010 72.6 314 
 RUS  HZ EP        523 15.63                             147    0.3210 85.6 168 
 RUS  HE ES        523 32.70                             147   -0.0810 85.6 168 
 RUS  HZ I         523 35.14         0.9 0.50            145           85.6 168 
 PTB  HZ EP        523 18.09                             134   -0.3910  135 265 
 PTB  HN ES   1    523 38.57                             134    0.16 7  135 265 
 PTB  HZ I         523 42.20         1.9 0.18            132            135 265 
 ZAR  HN ES   1    523 50.15                             122    0.32 6  201 298 
                                                                                
