 2016  815 0601 18.8 L   6.887 -73.163149.0  RSN 10 0.3 1.8LRSN                1
 GAP=130        0.84       2.6     3.6  5.2 -0.1014E+01  0.2629E+01  0.1155E+01E
 Epicentro: BETULIA - SANTANDER                                                3
 ACTION:UPD 16-10-29 15:35 OP:rebc STATUS:               ID:20160815060118 L   I
 OLDACT:REG 16-08-15 12:30 OP:ak   STATUS:               ID:20160815055739     3
 2016-08-15-0558-00M.COL___368                                                 6
 STAT SP IPHASW D HRMM SECON CODA AMPLIT PERI AZIMU VELO AIN AR TRES W  DIS CAZ7
 BAR2 EZ EP        6 1 39.05                             167   -0.0010 32.6 184 
 BAR2 EZ ES        6 1 54.80                             167   -0.0410 32.6 184 
 BAR2 EZ I         6 1 56.01        12.5 0.34                          32.6 184 
 BRR  HZ EP        6 1 40.40                             155    0.4010 65.4 292 
 BRR  HE ES        6 1 57.21                             155    0.6810 65.4 292 
 BRR  HZ I         6 2  0.98        11.5 0.48                          65.4 292 
 PAM  EZ EP        6 1 41.36                             153    0.3110 71.6  46 
 PAM  EN ES        6 1 58.23                             153   -0.1610 71.6  46 
 PAM  EZ I         6 2  0.34        13.3 0.44                          71.6  46 
 RUS  HZ EP        6 1 43.64                             142    0.0510  110 175 
 RUS  HE ES        6 2  2.73                             142   -0.1910  110 175 
 RUS  HZ I         6 2  3.83         4.4 0.30                           110 175 
 PTB  HZ EP        6 1 45.69                             133   -0.38 9  148 255 
 PTB  HE ES        6 2  6.83                             133   -0.50 9  148 255 
 PTB  HZ I         6 2  8.74         8.2 0.34                           148 255 
 OCA  HZ EP        6 1 46.42                             132   -0.06 9  151 353 
 OCA  HN ES        6 2  7.48                             132   -0.59 9  151 353 
 OCA  HZ I         6 2 10.94        12.5 0.50                           151 353 
 SPBC HZ EP        6 1 48.24                             129    0.07 9  170 216 
 SPBC HE ES        6 2 11.22                             129    0.16 9  170 216 
 SPBC HZ I         6 2 18.33         6.9 0.12                           170 216 
 ZAR  HZ EP   4    6 1 52.62                             124    1.68 0  199 290 
 ZAR  HE ES        6 2 16.16                             124    0.16 9  199 290 
 ZAR  HZ I         6 2 23.81         8.6 0.32                           199 290 
 CHI  HZ EP   2    6 1 58.30                             117    0.66 4  257 194 
 CHI  HN ES        6 2 27.71                             117   -0.22 8  257 194 
 CHI  HZ I         6 2 31.43         2.7 0.40                           257 194 
 URE  HZ EP   4    6 2  2.68                             115    3.22 0  279 290 
 URE  HE ES   4    6 2 28.22                             115   -2.95 0  279 290 
 URE  HZ I         6 2 39.28         5.3 0.30                           279 290 
                                                                                
