 2016 1215 0908 47.1 L   6.805 -73.139136.7  RSN 18 0.5 2.2LRSN                1
 GAP=102        1.07       3.8     3.0  5.4 -0.1415E+00  0.4448E+01  0.5907E+01E
 Epicentro: LOS SANTOS - SANTANDER                                             3
 ACTION:UPD 17-01-11 20:15 OP:rebc STATUS:               ID:20161215090847 L   I
 OLDACT:UP  16-12-15 19:32 OP:ar   STATUS:               ID:20161215090739     3
 OLDACT:UP  16-12-15 19:28 OP:ar   STATUS:               ID:20161215090739     3
 OLDACT:UP  16-12-15 19:24 OP:ar   STATUS:               ID:20161215090739     3
 OLDACT:REG 16-12-15 12:49 OP:and  STATUS:               ID:20161215090739     3
 2016-12-15-0908-00M.COL___369                                                 6
 STAT SP IPHASW D HRMM SECON CODA AMPLIT PERI AZIMU VELO AIN AR TRES W  DIS CAZ7
 BAR2 EZ IP     C  9 9  5.31                             170   -0.3110 24.1 191 
 BAR2 EZ ES        9 9 19.96                             170   -0.1410 24.1 191 
 BAR2 EZ I         9 9 21.34        36.6 0.18            167           24.1 191 
 BRR  HZ EP        9 9  7.12                             151   -0.1410 71.5 298 
 BRR  HN ES        9 9 23.88                             151    0.8610 71.5 298 
 BRR  HZ I         9 9 27.69        30.2 0.14            151           71.5 298 
 PAM  EZ EP        9 9  8.27                             149    0.0010 76.5  39 
 PAM  EN ES        9 9 24.51                             149   -0.3010 76.5  39 
 PAM  EZ I         9 9 27.40        23.5 0.52            153           76.5  39 
 RUS  HZ EP        9 9  9.48                             142   -0.5010  101 176 
 RUS  HE ES        9 9 27.73                             142   -0.1210  101 176 
 PTB  HZ EP        9 9 13.10                             130   -0.28 9  149 259 
 PTB  HN ES        9 9 33.07                             130   -0.84 9  149 259 
 PTB  HZ I         9 9 36.39        19.7 0.16            130            149 259 
 TAM  HZ EP        9 9 14.49                             128    0.50 9  155 105 
 TAM  HN ES        9 9 35.27                             128    0.28 9  155 105 
 TAM  HZ I         9 9 36.60        12.3 0.54            131            155 105 
 ZAR  HZ EP        9 9 19.65                             120    0.67 9  204 292 
 ZAR  HN ES        9 9 43.84                             120   -0.03 9  204 292 
 ZAR  HZ I         9 9 48.61        25.5 0.44            121            204 292 
 NOR  HE ES        9 9 50.35                             116    0.42 8  236 234 
 NOR  HZ I         9 9 51.28        17.5 0.18            117            236 234 
 CHI  HZ EP        9 9 23.63                             115   -0.73 8  249 195 
 CHI  HN ES        9 9 54.08                             115    0.63 8  249 195 
 CHI  HZ I         9 9 58.24         6.4 0.28            116            249 195 
 ROSC BZ EP        9 9 25.42                             115    0.62 8  254 211 
 ROSC BN ES   4    9 9 56.07                             115    1.83 0  254 211 
 ROSC BZ I         910  0.01        13.4 0.30            115            254 211 
 URE  HZ EP   4    9 9 26.25                             112   -1.50 0  284 292 
 URE  HN ES   4    9 9 56.17                             112   -3.33 0  284 292 
 URE  HZ I         910  0.87         9.8 0.16            113            284 292 
 GUY2CHZ EP        9 9 30.24                             110   -0.13 7  302 235 
 GUY2CHN ES        910  4.53                             110    0.37 7  302 235 
 GUY2CHZ I         910 11.52         7.6 0.44                           302 235 
 PTGC HZ EP   4    9 9 28.55                             110   -2.01 0  309 159 
 PTGC HN ES   4    910  1.56                             110   -2.93 0  309 159 
 ELA  HZ EP        9 9 33.61                             108   -0.04 7  330 229 
 ELA  HE ES   4    910 12.46                             108    2.47 0  330 229 
 ELA  HZ I         910 19.02         7.4 0.42            109            330 229 
 CBOC HZ EP        9 9 33.70                             108   -0.02 7  334 252 
 CBOC HN ES        910  9.89                             108   -0.22 7  334 252 
 CBOC HZ I         910 15.71         2.8 0.24            109            334 252 
 ANIL HZ EP   4    9 9 38.03                             107    1.39 0  358 225 
 ANIL HN ES   2    910 16.32                             107    1.01 3  358 225 
 ANIL HZ I         910 18.38        13.1 0.32            107            358 225 
 ORTC HZ EP        9 9 40.23                             105   -0.56 6  396 216 
 ORTC HN ES   4    910 24.07                             105    1.37 0  396 216 
 ORTC HZ I         910 27.84         5.4 0.36            105            396 216 
 SJC  HZ EP   4    9 9 39.40                             104   -2.93 0  409 327 
 SJC  HN ES   4    910 20.28                             104   -5.15 0  409 327 
 SJC  HZ I         910 24.85         3.1 0.46            105            409 327 
 MACC HZ EP   4    9 9 51.50                             100   -4.15 0  521 189 
 MACC HZ I         910  3.97         2.8 0.42            101            521 189 
                                                                                
