 2011  815 0147 14.0 L   6.797 -73.107139.8  RSN  4 0.4 1.5LRSN                1
 GAP=187        0.62       5.7    13.2  8.8  0.5039E+02 -0.4919E+02 -0.2096E+02E
 Epicentro: LOS SANTOS - SANTANDER                                             3
 ACTION:UPD 12-07-13 15:52 OP:ep   STATUS:               ID:20110815014714 L   I
 2011-08-15-0142-57S.COL___150                                                 6
 STAT SP IPHASW D HRMM SECON CODA AMPLIT PERI AZIMU VELO AIN AR TRES W  DIS CAZ7
 BAR2 SZ ES   2    147 46.95                             170   -0.71 5 24.1 200 
 BRR  HZ EP        147 34.77                             150    0.0610 75.1 297 
 BRR  HZ I         147 36.41        10.2 0.15                          75.1 297 
 BRR  HN ES   1    147 50.83                             150   -0.05 7 75.1 297 
 RUS  HZ EP   1    147 36.81                             143   -0.29 7  100 178 
 RUS  HZ I         147 37.65         2.8 0.29                           100 178 
 RUS  HE ES   1    147 55.57                             143    0.43 7  100 178 
 OCA  SZ EP   2    147 41.72                             128   -0.18 5  161 352 
 OCA  SZ ES   2    148  4.16                             128    0.47 5  161 352 
 OCA  SZ I         148  9.32         5.5 0.29                           161 352 
                                                                                
