 2015  115 0924 19.2 L   6.797 -73.154150.4  RSN  9 0.4 1.7LRSN                1
 GAP=136        1.01       3.1     4.3  5.6  0.4616E+00  0.5151E+01 -0.2078E-01E
 Epicentro: LOS SANTOS - SANTANDER                                             3
 ACTION:UPD 15-03-02 15:39 OP:nd   STATUS:               ID:20150115092419 L   I
 OLDACT:REG 15-01-15 13:12 OP:carl STATUS:               ID:20150115091749     3
 2015-01-15-0917-49M.COL___244                                                 6
 STAT SP IPHASW D HRMM SECON CODA AMPLIT PERI AZIMU VELO AIN AR TRES W  DIS CAZ7
 BAR2 EZ EP        924 39.32                             171   -0.0210 22.9 188 
 BAR2 EZ ES        924 54.89                             171   -0.1810 22.9 188 
 BAR2 EZ I         924 57.18        10.0 0.38            170           22.9 188 
 BRR  HZ EP        924 41.28                             153    0.5010 70.6 299 
 BRR  HN ES        924 58.16                             153    0.5210 70.6 299 
 BRR  HZ I         925  1.14         7.6 0.20            150           70.6 299 
 PAM  SZ IP     C  924 42.08                             151    0.1610 78.2  40 
 PAM  SN ES        924 59.52                             151   -0.1410 78.2  40 
 PAM  SZ I         925  1.57         3.6 0.60            155           78.2  40 
 RUS  HZ EP        924 43.55                             145    0.2010  100 176 
 RUS  HN ES        925  2.10                             145   -0.1210  100 176 
 RUS  HZ I         925  4.49         5.5 0.54            147            100 176 
 PTB  HZ EP        924 45.64                             133   -0.78 9  147 259 
 PTB  HN ES        925  7.32                             133   -0.37 9  147 259 
 PTB  HZ I         925 13.18        10.4 0.42            132            147 259 
 SPBC HZ EP        924 48.32                             130    0.38 9  162 219 
 SPBC HN ES        925 10.23                             130   -0.16 9  162 219 
 SPBC HZ I         925 13.65        10.3 0.12            130            162 219 
 ZAR  HZ EP        924 52.17                             123    0.33 9  203 292 
 ZAR  HN ES        925 17.83                             123    0.50 9  203 292 
 ZAR  HZ I         925 27.50         4.9 0.68            123            203 292 
 SML  HZ EP        924 55.37                             118   -0.67 8  244 336 
 SML  HN ES        925 24.25                             118   -0.56 8  244 336 
 SML  HZ I         925 35.28         8.5 0.10            119            244 336 
 CHI  HZ EP        924 57.54                             118    0.48 8  248 195 
 CHI  HN ES        925 26.23                             118   -0.39 8  248 195 
 CHI  HZ I         925 34.87         2.7 0.48            119            248 195 
                                                                                
