 2015  415 0809 42.3 L   6.822 -73.109148.4  RSN  9 0.5 2.1LRSN                1
 GAP=204        1.30       4.5     6.4  7.5  0.2347E+01  0.1036E+02 -0.3044E+01E
 Epicentro: LOS SANTOS - SANTANDER                                             3
 ACTION:UPD 15-06-03 16:55 OP:cam  STATUS:               ID:20150415080942 L   I
 OLDACT:REG 15-04-15 13:16 OP:carl STATUS:               ID:20150415080742     3
 2015-04-15-0807-42M.COL___272                                                 6
 STAT SP IPHASW D HRMM SECON CODA AMPLIT PERI AZIMU VELO AIN AR TRES W  DIS CAZ7
 BAR2 EZ EP        810  2.40                             170    0.0610 26.6 198 
 BAR2 EZ ES        810 17.65                             170   -0.3010 26.6 198 
 BAR2 EZ I         810 19.02        14.5 0.38            168           26.6 198 
 BRR  HZ EP        810  4.33                             152    0.4310 73.8 295 
 BRR  HN ES        810 21.87                             152    1.1410 73.8 295 
 BRR  HZ I         810 23.99        12.0 0.18            150           73.8 295 
 RUS  HZ EP        810  6.61                             144    0.1210  103 178 
 RUS  HE ES        810 25.16                             144   -0.1810  103 178 
 RUS  HZ I         810 27.94         5.6 0.32            146            103 178 
 PTB  HZ EP        810  9.29                             132   -0.63 9  152 258 
 PTB  HN ES        810 30.61                             132   -0.82 9  152 258 
 PTB  HZ I         810 36.39        15.3 0.38            132            152 258 
 SPBC HZ EP        810 11.31                             129   -0.14 9  168 220 
 SPBC HN ES        810 34.06                             129   -0.10 9  168 220 
 SPBC HZ I         810 40.45        25.5 0.34            130            168 220 
 ZAR  HZ EP        810 15.34                             123    0.10 8  207 291 
 ZAR  HN ES        810 40.50                             123   -0.42 8  207 291 
 ZAR  HZ I         810 46.89        14.1 0.58            123            207 291 
 NOR  HZ EP        810 18.33                             119   -0.38 8  239 235 
 NOR  HN ES        810 46.86                             119   -0.24 8  239 235 
 NOR  HZ I         810 50.13         9.4 0.20            120            239 235 
 SML  HZ EP        810 19.30                             118    0.24 8  243 334 
 SML  HN ES        810 47.24                             118   -0.46 8  243 334 
 SML  HZ I         810 53.34         9.9 0.10            120            243 334 
 GUY2CHZ EP        810 27.13                             112    0.54 7  306 235 
 GUY2CHN ES        811  2.49                             112    1.38 7  306 235 
 GUY2CHZ I         811  9.07         9.2 0.78                           306 235 
                                                                                
