 2017  915 0558 12.8 L   6.777 -73.115151.5  RSN 18 0.4 2.0LRSN                1
 GAP= 68        0.70       2.2     2.3  3.7  0.3841E+00  0.1680E+01  0.1509E+01E
 Epicentro: LOS SANTOS - SANTANDER                                             3
 ACTION:UPD 17-10-05 19:12 OP:rebc STATUS:               ID:20170915055812 L   I
 OLDACT:UP  17-09-15 18:17 OP:mg   STATUS:               ID:20170915055739     3
 OLDACT:UP  17-09-15 18:17 OP:mg   STATUS:               ID:20170915055739     3
 OLDACT:UP  17-09-15 18:17 OP:mg   STATUS:               ID:20170915055739     3
 OLDACT:UP  17-09-15 18:15 OP:mg   STATUS:               ID:20170915055739     3
 OLDACT:REG 17-09-15 13:21 OP:mg   STATUS:               ID:20170915055739     3
 2017-09-15-0558-00M.COL___420                                                 6
 STAT SP IPHASW D HRMM SECON CODA AMPLIT PERI AZIMU VELO AIN AR TRES W  DIS CAZ7
 BAR2 EZ IP     D  558 33.03                             172   -0.0610 21.7 200 
 BAR2 EZ ES   1    558 48.84                             172   -0.07 7 21.7 200 
 BAR2 EZ I         558 50.97        17.5 0.10            168           21.7 200 
 BRR  HZ IP     D  558 34.92                             152    0.1210 75.4 299 
 BRR  HN ES        558 52.43                             152    0.4610 75.4 299 
 BRR  HZ I         558 54.88        22.1 0.14            150           75.4 299 
 PAM  EZ IP     D  558 35.85                             152    0.2210 77.3  36 
 PAM  EN ES        558 53.08                             152   -0.3510 77.3  36 
 PAM  EZ I         558 55.03        12.7 0.52            156           77.3  36 
 RUS  HZ EP        558 36.92                             146   -0.0110 97.8 178 
 RUS  HN ES        558 55.50                             146   -0.2510 97.8 178 
 RUS  HZ I         558 56.83        16.1 0.38            145           97.8 178 
 TAM  HZ EP   1    558 41.01                             133    0.43 7  151 104 
 TAM  HN ES   3    559  3.17                             133    0.91 2  151 104 
 TAM  HZ I         559  3.52         8.6 0.22            136            151 104 
 SPBC HZ EP        558 41.85                             130    0.09 9  163 220 
 SPBC HN ES        559  4.15                             130   -0.20 9  163 220 
 SPBC HZ I         559  9.46        15.5 0.10            129            163 220 
 YPLC HZ EP   1    558 43.09                             129    0.45 7  173 152 
 YPLC HN ES        559  6.49                             129    0.57 9  173 152 
 YPLC HZ I         559  9.35         9.9 0.27            130            173 152 
 ZAR  HZ EP        558 45.66                             123   -0.38 8  208 292 
 ZAR  HN ES        559 11.75                             123   -0.22 8  208 292 
 ZAR  HZ I         559 18.16        26.3 0.28            123            208 292 
 NOR  HZ EP        558 48.85                             120   -0.15 8  236 235 
 NOR  HN ES        559 17.13                             120   -0.11 8  236 235 
 NOR  HZ I         559 24.91        10.0 0.26            119            236 235 
 CHI  HZ EP        558 50.56                             118   -0.09 8  247 196 
 CHI  HN ES   1    559 19.90                             118   -0.28 6  247 196 
 CHI  HZ I         559 28.19         4.7 0.40            119            247 196 
 HEL  HZ EP   3    558 55.09                             116    1.49 2  275 256 
 HEL  HE ES   1    559 25.71                             116    0.29 6  275 256 
 HEL  HZ I         559 32.28         5.3 0.27            116            275 256 
 PTGC HZ EP        558 55.92                             113   -0.59 7  305 159 
 PTGC HN ES   2    559 29.15                             113   -1.45 4  305 159 
 PTGC HZ I         559 30.22         6.0 0.28            114            305 159 
 LL6C HZ EP   1    558 58.85                             111   -0.21 5  328 357 
 LL6C HN ES   3    559 33.65                             111   -1.49 2  328 357 
 LL6C HZ I         559 36.97         3.7 0.65            113            328 357 
 CBOC HZ EP   2    559  1.14                             111    0.91 3  336 253 
 CBOC HN ES        559 37.67                             111    0.44 7  336 253 
 CBOC HZ I         559 42.52         1.7 0.22            111            336 253 
 DBB  EZ EP   1    559  0.83                             110   -0.09 5  343 275 
 DBB  EN ES   3    559 37.43                             110   -1.02 2  343 275 
 DBB  EZ I         559 44.54         4.0 0.18            110            343 275 
 PRA  HZ EP   3    559  7.75                             107    1.29 1  391 210 
 PRA  HN ES   1    559 48.25                             107   -0.06 4  391 210 
 PRA  HZ I         559 52.35         5.1 0.54            108            391 210 
 ORTC HZ EP   4    559  5.17                             107   -1.74 0  395 217 
 ORTC HN ES   4    559 50.47                             107    1.35 0  395 217 
 ORTC HZ I         559 55.87         2.4 0.39            108            395 217 
 SJC  HZ EP   4    559  7.20                             106   -1.82 0  413 327 
 SJC  HN ES   4    559 49.42                             106   -3.45 0  413 327 
 SJC  HZ I         559 55.13         1.5 0.30            107            413 327 
                                                                                
