 2017  315 0641  7.1 L   7.392 -73.184132.4  RSN  6 0.2 1.6LRSN                1
 GAP=183        0.54       3.2     2.3  4.0  0.7464E+00  0.1980E+01  0.9227E+00E
 Epicentro: EL PLAYON - SANTANDER                                              3
 ACTION:UPD 17-05-25 18:40 OP:jn   STATUS:               ID:20170315064107 L   I
 OLDACT:REG 17-03-15 13:05 OP:cog  STATUS:               ID:20170315063741     3
 2017-03-15-0638-00M.COL___381                                                 6
 STAT SP IPHASW D HRMM SECON CODA AMPLIT PERI AZIMU VELO AIN AR TRES W  DIS CAZ7
 PAM  EZ EP        641 26.58                             157    0.0510 53.8  96 
 PAM  EE ES        641 41.81                             157    0.0810 53.8  96 
 PAM  EZ I         641 42.97         8.5 0.36            158           53.8  96 
 BRR  HZ IP     C  641 26.37                             152   -0.1110 66.2 242 
 BRR  HE ES        641 41.70                             152    0.0710 66.2 242 
 BRR  HZ I         641 42.14        18.1 0.10            151           66.2 242 
 BAR2 EZ EP        641 28.25                             144   -0.0110 88.4 180 
 BAR2 EZ ES        641 44.55                             144   -0.2410 88.4 180 
 RUS  HZ EP        641 35.73                             126    0.34 9  166 176 
 RUS  HN ES        641 57.40                             126   -0.09 9  166 176 
 RUS  HZ I         641 59.09         2.6 0.30            126            166 176 
 PTB  HZ EP        641 34.74                             125   -0.33 9  169 236 
 PTB  HN ES        641 57.27                             125    0.35 9  169 236 
 PTB  HZ I         642  0.15         5.6 0.22            125            169 236 
 ZAR  HE ES        641 59.70                             122   -0.08 9  185 274 
                                                                                
