 2016  215 0727 43.9 L   6.811 -73.198135.3  RSN  7 0.4 1.2LRSN                1
 GAP=130        0.93       3.9     4.0  6.8 -0.1939E+01  0.1084E+02 -0.3527E+01E
 Epicentro: ZAPATOCA - SANTANDER                                               3
 ACTION:UPD 16-03-04 21:26 OP:rebc STATUS:               ID:20160215072743 L   I
 OLDACT:REG 16-02-15 12:16 OP:drio STATUS:               ID:20160215071738     3
 2016-02-15-0717-38M.COL___296                                                 6
 STAT SP IPHASW D HRMM SECON CODA AMPLIT PERI AZIMU VELO AIN AR TRES W  DIS CAZ7
 BAR2 EZ EP        728  2.56                             169    0.2910 24.3 176 
 BAR2 EZ ES        728 16.34                             169   -0.2810 24.3 176 
 BAR2 EZ I         728 18.00         4.8 0.32            171           24.3 176 
 BRR  HZ EP        728  3.90                             153    0.3310 65.5 300 
 BRR  HN ES   4    728 20.95                             153    2.01 0 65.5 300 
 BRR  HZ I         728 24.28         2.9 0.50            150           65.5 300 
 PAM  EZ EP        728  4.82                             148   -0.3510 80.3  43 
 PAM  EN ES        728 21.82                             148    0.0310 80.3  43 
 PAM  EZ I         728 24.01         3.0 0.54            153           80.3  43 
 RUS  HZ EP        728  6.91                             141    0.1610  102 173 
 RUS  HE ES        728 24.84                             141    0.2410  102 173 
 RUS  HZ I         728 26.71         1.7 0.16            147            102 173 
 PTB  HZ EP        728  8.68                             131   -0.82 9  142 258 
 PTB  HE ES        728 29.80                             131    0.30 9  142 258 
 PTB  HZ I         728 33.33         2.0 0.20            132            142 258 
 SPBC HZ EP        728 11.20                             127   -0.14 9  161 217 
 SPBC HN ES        728 32.58                             127   -0.18 9  161 217 
 SPBC HZ I         728 36.48         2.1 0.20            130            161 217 
 ZAR  HZ EP        728 15.66                             121    0.61 9  198 292 
 ZAR  HE ES        728 39.18                             121   -0.18 9  198 292 
 ZAR  HZ I         728 48.03         1.7 0.20            123            198 292 
                                                                                
