 2017  215 0927 38.9 L   6.775 -73.161146.7  RSN  8 0.4 1.8LRSN                1
 GAP=119        0.86       3.4     3.7  5.3  0.1561E+01  0.4730E+01  0.3115E+01E
 Epicentro: LOS SANTOS - SANTANDER                                             3
 ACTION:UPD 17-05-24 15:36 OP:jn   STATUS:               ID:20170215092738 L   I
 OLDACT:UP  17-02-15 18:22 OP:dani STATUS:               ID:20170215091744     3
 OLDACT:UP  17-02-15 18:22 OP:dani STATUS:               ID:20170215091744     3
 OLDACT:UP  17-02-15 18:22 OP:dani STATUS:               ID:20170215091744     3
 OLDACT:REG 17-02-15 13:13 OP:dani STATUS:               ID:20170215091744     3
 2017-02-15-0918-00M.COL___349                                                 6
 STAT SP IPHASW D HRMM SECON CODA AMPLIT PERI AZIMU VELO AIN AR TRES W  DIS CAZ7
 BAR2 EZ EP        927 58.51                             172   -0.0510 20.3 187 
 BAR2 EZ ES        928 13.40                             172   -0.5210 20.3 187 
 BAR2 EZ I         928 14.80        19.5 0.27            173           20.3 187 
 BRR  HZ EP        928  0.35                             153    0.2310 71.1 301 
 BRR  HE ES        928 17.22                             153    0.5310 71.1 301 
 BRR  HZ I         928 19.21        11.5 0.27            147           71.1 301 
 PAM  EZ EP        928  1.35                             150   -0.0410 80.6  39 
 PAM  EN ES        928 18.98                             150    0.0410 80.6  39 
 PAM  EZ I         928 20.99        10.4 0.22            146           80.6  39 
 RUS  HZ EP        928  2.33                             145   -0.2110 98.0 175 
 RUS  HN ES        928 21.29                             145    0.3010 98.0 175 
 RUS  HZ I         928 22.34         7.8 0.28            159           98.0 175 
 PTB  HZ EP        928  5.42                             133   -0.31 9  146 260 
 PTB  HN ES        928 26.03                             133   -0.64 9  146 260 
 PTB  HZ I         928 33.89         9.7 0.40            135            146 260 
 ZAR  HZ EP        928 11.58                             123    0.25 9  204 293 
 ZAR  HE ES        928 36.73                             123    0.08 9  204 293 
 ZAR  HZ I         928 43.56         8.9 0.23            123            204 293 
 CHI  HZ EP        928 16.31                             118    0.02 8  246 195 
 CHI  HN ES        928 46.00                             118    0.53 8  246 195 
 CHI  HZ I         928 54.22         1.4 0.26            125            246 195 
 PTGC HZ EP   3    928 21.24                             112   -1.32 2  307 158 
 PRA  HN ES   4    929 16.02                             107    2.49 0  389 210 
                                                                                
