 2014  915 0022 18.2 L   6.813 -73.160146.0  RSN 21 0.5 2.9LRSN                1
 GAP= 70        1.12       2.5     3.0  4.9 -0.9690E+00  0.3832E+01  0.2575E+01E
 Epicentro: LOS SANTOS - SANTANDER                                             3
 ACTION:UPD 14-10-03 23:04 OP:nd   STATUS:               ID:20140915002218 L   I
 OLDACT:REG 14-09-15 12:30 OP:carl STATUS:               ID:20140915001818     3
 2014-09-15-0018-18M.COL___293                                                 6
 STAT SP IPHASW D HRMM SECON CODA AMPLIT PERI AZIMU VELO AIN AR TRES W  DIS CAZ7
 BAR2 SZ IP     D  022 37.72                             170   -0.1110 24.5 186 
 BAR2 SZ ES        022 52.72                             170   -0.4610 24.5 186 
 BAR2 SZ I         022 53.90       169.5 0.24            172           24.5 186 
 BRR  HZ IP     C  022 39.53                             153    0.3210 69.1 298 
 BRR  HN ES        022 56.44                             153    0.8110 69.1 298 
 BRR  HZ I         023  0.45       217.6 0.44            150           69.1 298 
 PAM  SZ EP        022 40.69                             151    0.3010 77.4  41 
 PAM  SN ES        022 57.88                             151    0.1410 77.4  41 
 PAM  SZ I         023  0.17        78.7 0.40            148           77.4  41 
 RUS  HZ IP     C  022 41.75                             143   -0.2810  102 175 
 RUS  HN ES        023  0.60                             143   -0.0610  102 175 
 RUS  HZ I         023  1.50        94.3 0.24            143            102 175 
 PTB  HZ EP        022 44.13                             132   -0.89 9  146 258 
 PTB  HN ES        023  5.27                             132   -0.70 9  146 258 
 PTB  HZ I         023  7.45       145.3 0.48            130            146 258 
 TAM  HZ IP     D  022 46.21                             130    0.18 9  157 105 
 TAM  HZ I         023  6.83        28.7 0.42            128            157 105 
 TAM  HN ES        023  7.69                             130   -0.08 9  157 105 
 OCA  HZ EP        022 46.00                             130   -0.33 9  159 354 
 OCA  HN ES        023  8.71                             130    0.40 9  159 354 
 OCA  HZ I         023 14.32        77.6 0.22            127            159 354 
 SPBC HZ EP        022 46.63                             129   -0.04 9  163 218 
 SPBC HN ES        023  9.52                             129    0.60 9  163 218 
 SPBC HZ I         023 15.61       114.7 0.46            128            163 218 
 ZAR  HZ EP        022 50.08                             123   -0.32 9  202 292 
 ZAR  HN ES        023 15.39                             123   -0.17 9  202 292 
 ZAR  HZ I         023 21.01       114.2 0.44            120            202 292 
 NOR  HZ EP        022 53.60                             119   -0.24 8  234 234 
 NOR  HE ES        023 21.15                             119   -0.53 8  234 234 
 NOR  HZ I         023 28.07        58.5 0.28            117            234 234 
 SML  HZ EP        022 54.06                             118   -0.52 8  242 336 
 SML  HN ES        023 22.97                             118   -0.02 8  242 336 
 SML  HZ I         023 34.42        85.9 0.10            115            242 336 
 CHI  HZ EP        022 55.94                             117   -0.02 8  250 195 
 CHI  HN ES        023 25.49                             117    0.03 8  250 195 
 CHI  HZ I         023 27.66        63.2 0.34            116            250 195 
 ROSC BZ EP   4    022 57.63                             117    1.31 0  253 211 
 ROSC BN ES   4    023 28.52                             117    2.42 0  253 211 
 HEL  HZ EP   4    022 59.73                             115    1.49 0  271 255 
 HEL  HN ES   4    023 28.38                             115   -1.13 0  271 255 
 HEL  HZ I         023 37.09        46.9 0.58            113            271 255 
 URE  HZ EP   4    022 57.18                             114   -1.82 0  282 292 
 URE  HE ES   4    023 27.25                             114   -3.62 0  282 292 
 GUY2CHZ EP        023  1.94                             112    0.23 7  301 234 
 GUY2CHN ES        023 36.10                             112    0.41 7  301 234 
 GUY2CHZ I         023 45.56        50.0 0.26                           301 234 
 VIL  SZ EP        023  0.97                             112   -0.73 7  304 191 
 VIL  SN ES        023 35.30                             112   -0.36 7  304 191 
 VIL  SZ I         023 39.24        51.8 0.30            111            304 191 
 CBOC HZ EP        023  5.94                             110    0.99 7  332 252 
 CBOC HN ES        023 40.76                             110   -0.69 7  332 252 
 CBOC HZ I         023 44.99        12.1 0.48            108            332 252 
 TOL  SZ EP        023  7.44                             109    1.04 7  343 224 
 TOL  SN ES        023 44.90                             109    0.87 7  343 224 
 TOL  SZ I         023 54.19        84.0 0.42            108            343 224 
 MON  HZ EP   4    023  4.87                             109   -2.04 0  352 308 
 MON  HN ES   4    023 43.42                             109   -1.53 0  352 308 
 MON  HZ I         023 58.66        36.3 0.48            107            352 308 
 ANIL HZ EP        023  8.87                             108    0.92 6  357 224 
 ANIL HN ES        023 46.98                             108    0.19 6  357 224 
 ANIL HZ I         023 50.10         8.0 0.36            107            357 224 
 PRA  HZ EP        023 11.46                             107   -0.27 6  392 209 
 PRA  HN ES        023 52.94                             107   -0.58 6  392 209 
 PRA  HZ I         023 58.23        43.8 0.60            105            392 209 
 ORTC HZ EP        023 12.08                             106   -0.02 6  396 216 
 ORTC HN ES        023 55.48                             106    1.30 6  396 216 
 ORTC HZ I         024  0.87        23.1 0.62            105            396 216 
 MACC HZ EP   4    023 24.85                             102   -2.15 0  522 188 
 MACC HN ES   4    024 15.31                             102   -5.40 0  522 188 
                                                                                
