 2016  315 0845 16.7 L   6.799 -73.151140.0  RSN 11 0.4 1.8LRSN                1
 GAP=136        0.91       3.1     3.7  6.9 -0.1899E+01  0.1167E+02 -0.2437E+01E
 Epicentro: LOS SANTOS - SANTANDER                                             3
 ACTION:UPD 16-05-13 21:24 OP:cam  STATUS:               ID:20160315084516 L   I
 OLDACT:UP  16-03-15 17:28 OP:dnl  STATUS:               ID:20160315083750     3
 OLDACT:REG 16-03-15 17:19 OP:dnl  STATUS:               ID:20160315083750     3
 2016-03-15-0837-50M.COL___297                                                 6
 STAT SP IPHASW D HRMM SECON CODA AMPLIT PERI AZIMU VELO AIN AR TRES W  DIS CAZ7
 BAR2 EZ EP        845 35.76                             170    0.1310 23.1 189 
 BAR2 EZ ES        845 50.36                             170   -0.0410 23.1 189 
 BAR2 EZ I         845 51.80        14.5 0.26            168           23.1 189 
 PAM  EZ EP        845 38.55                             150    0.2210 77.9  40 
 PAM  EN ES        845 55.63                             150    0.4210 77.9  40 
 PAM  EZ I         845 58.16        10.3 0.52            154           77.9  40 
 RUS  HZ EP        845 39.73                             143   -0.1510  100 176 
 RUS  HE ES        845 57.84                             143   -0.1210  100 176 
 RUS  HZ I         845 59.13         7.0 0.22            145            100 176 
 PTB  HZ EP        845 42.42                             131   -0.73 9  147 259 
 PTB  HN ES        846  3.43                             131   -0.35 9  147 259 
 PTB  HZ I         846  6.91         8.2 0.09            129            147 259 
 OCA  HZ EP   2    845 44.24                             128   -0.34 5  160 353 
 OCA  HN ES        846  5.85                             128   -0.47 9  160 353 
 OCA  HZ I         846  9.39        19.6 0.26            129            160 353 
 SPBC HN ES        846  6.54                             128   -0.03 9  163 219 
 SPBC HZ I         846 13.37         9.4 0.12            128            163 219 
 ZAR  HZ EP   2    845 48.75                             121    0.02 4  204 292 
 ZAR  HN ES        846 14.40                             121    0.69 9  204 292 
 ZAR  HZ I         846 20.36         7.5 0.20            121            204 292 
 URE  HZ EP   4    845 59.97                             112    2.53 0  283 292 
 URE  HN ES        846 29.13                             112   -0.09 7  283 292 
 URE  HZ I         846 40.56         4.2 0.36            113            283 292 
 GUY2CHZ EP   2    846  1.05                             111    1.06 4  301 235 
 GUY2CHN ES        846 34.54                             111    0.79 7  301 235 
 GUY2CHZ I         846 42.46         5.0 0.34                           301 235 
 CBOC HZ EP   2    846  3.02                             109   -0.29 3  333 252 
 CBOC HN ES   4    846 36.96                             109   -2.71 0  333 252 
 CBOC HZ I         846 52.53         1.5 0.68            109            333 252 
 MON  HZ EP   4    846  3.29                             108   -2.15 0  353 308 
 MON  HN ES   4    846 40.65                             108   -2.81 0  353 308 
 MON  HZ I         846 42.70         1.8 0.22            108            353 308 
                                                                                
