 2015 1115 0708 51.3 L   6.727 -73.174130.1  RSN  5 0.3 1.3LRSN                1
 GAP=228        0.72       3.9     5.1  6.0  0.7696E+01  0.1035E+02 -0.9516E+00E
 Epicentro: VILLANUEVA - SANTANDER                                             3
 ACTION:UPD 15-12-28 16:11 OP:cam  STATUS:               ID:20151115070851 L   I
 OLDACT:UP  15-11-15 16:25 OP:dnl  STATUS:               ID:20151115065739d    3
 OLDACT:UP  15-11-15 16:21 OP:dnl  STATUS:               ID:20151115065739d    3
 OLDACT:DUP 15-11-15 16:10 OP:dnl  STATUS:               ID:20151115065739d    3
 OLDACT:UP  15-11-15 16:08 OP:dnl  STATUS:               ID:20151115065738     3
 OLDACT:UP  15-11-15 15:52 OP:dnl  STATUS:               ID:20151115065738     3
 OLDACT:UP  15-11-15 15:45 OP:dnl  STATUS:               ID:20151115065738     3
 OLDACT:REG 15-11-15 12:01 OP:dnl  STATUS:               ID:20151115065738     3
 2015-11-15-0657-38M.COL___319                                                 6
 STAT SP IPHASW D HRMM SECON CODA AMPLIT PERI AZIMU VELO AIN AR TRES W  DIS CAZ7
 BAR2 EZ EP        7 9  8.56                             173   -0.3710 14.9 184 
 BAR2 EZ ES        7 9 22.89                             173    0.2410 14.9 184 
 BAR2 EZ I         7 9 24.66         6.5 0.14            165           14.9 184 
 BRR  HZ EP        7 9 10.60                             149   -0.3210 72.8 305 
 BRR  HE ES   2    7 9 26.63                             149    0.44 5 72.8 305 
 BRR  HZ I         7 9 28.75         3.5 0.28            145           72.8 305 
 RUS  HZ EP        7 9 13.47                             143    0.4810 92.8 174 
 RUS  HE ES        7 9 29.66                             143   -0.2210 92.8 174 
 RUS  HZ I         7 9 31.98         1.6 0.18            143           92.8 174 
 SPBC HZ EP        7 9 18.01                             127    0.14 9  155 220 
 SPBC HE ES        7 9 38.44                             127   -0.12 9  155 220 
 SPBC HZ I         7 9 45.38         3.3 0.18            126            155 220 
 ZAR  HZ EP   1    7 9 23.07                             119    0.22 6  204 295 
 ZAR  HN ES        7 9 47.39                             119   -0.04 9  204 295 
 ZAR  HZ I         7 9 54.08         2.2 0.19            119            204 295 
                                                                                
