 2011  215 0305 49.9 L   6.775 -72.969142.7  RSN  4 0.4 1.3LRSN                1
 GAP=179        0.97       6.8    28.8 13.9 -0.1084E+03 -0.1429E+03  0.4085E+01E
 Epicentro: CEPITA - SANTANDER                                                 3
 ACTION:UP  11-03-28 15:08 OP:jfem STATUS:               ID:20110215030549 L   I
 2011-02-15-0304-17S.COL___136                                                 6
 STAT SP IPHASW D HRMM SECON CODA AMPLIT PERI AZIMU VELO SNR AR TRES W  DIS CAZ7
 BAR2 SZ EP   1    3 6  8.79                             166    -0.6 7   31 230 
 BAR2 SZ I         3 6  9.39         4.0 0.23                            31 230 
 BAR2 SZ ES   3    3 6 24.18                             166    -0.3 2   31 230 
 BTL  SZ EP        3 6 10.13                             164     0.610   37 296 
 BTL  SZ ES   2    3 6 24.16                             164    -0.7 5   37 296 
 RUS  HZ EP   1    3 6 13.23                             143     0.0 7   98 187 
 RUS  HZ I         3 6 30.19         3.8 0.66                            98 187 
 RUS  HN ES   1    3 6 31.44                             143     0.1 7   98 187 
 GRA  SZ EP        3 6 14.45                             136    -0.310  124   8 
 GRA  SZ ES   1    3 6 34.32                             136     0.2 7  124   8 
 GRA  SZ I         3 6 35.43         3.6 0.24                           124   8 
                                                                                
