 2012 1215 0528 48.5 L   6.806 -73.150139.5  RSN 13 0.5 2.8LRSN                1
 GAP= 71        0.94       3.5     3.5  5.7  0.4298E+00  0.3437E+01  0.5299E+01E
 Epicentro: LOS SANTOS - SANTANDER                                             3
 ACTION:UPD 13-01-04 14:27 OP:ep   STATUS:               ID:20121215052848 L   I
 2012-12-15-0527-43M.COL___204                                                 6
 STAT SP IPHASW D HRMM SECON CODA AMPLIT PERI AZIMU VELO AIN AR TRES W  DIS CAZ7
 BAR2 SZ EP        529  7.45                             170    0.1110 23.9 189 
 BAR2 SZ ES   1    529 21.51                             170   -0.57 7 23.9 189 
 BAR2 SZ I         529 24.86       210.7 0.20                          23.9 189 
 GIR2 SZ EP     C  529  7.48                             167    0.1210 30.5 351 
 GIR2 SZ ES   1    529 22.10                             167    0.00 7 30.5 351 
 GIR2 SZ I         529 24.39       130.2 0.32                          30.5 351 
 BRR  HZ IP     C  529  9.29                             152    0.4110 70.5 298 
 BRR  HN ES   1    529 25.98                             152    1.16 7 70.5 298 
 BRR  HZ I         529 29.37       123.9 0.28                          70.5 298 
 PAM  SZ EP   1    529 10.22                             150    0.23 7 77.1  40 
 PAM  SN ES   1    529 26.76                             150   -0.03 7 77.1  40 
 PAM  SZ I         529 29.31       159.7 0.46                          77.1  40 
 RUS  HZ EP     C  529 11.48                             142   -0.1610  101 176 
 RUS  HN ES   1    529 29.65                             142   -0.09 7  101 176 
 RUS  HZ I         529 31.87       101.5 0.36                           101 176 
 PTB  HZ EP   1    529 14.07                             131   -0.82 7  147 259 
 PTB  HN ES   1    529 34.86                             131   -0.65 7  147 259 
 PTB  HZ I         529 37.33        78.7 0.20                           147 259 
 TAM  HZ IP     C  529 15.89                             129    0.19 9  156 105 
 TAM  HN ES   1    529 36.82                             129   -0.13 7  156 105 
 TAM  HZ I         529 37.98        54.2 0.24                           156 105 
 OCA  HZ EP   1    529 15.59                             128   -0.62 7  160 353 
 OCA  HE ES   1    529 37.29                             128   -0.57 7  160 353 
 OCA  HZ I         529 42.47        45.3 0.36                           160 353 
 ZAR  HZ EP   1    529 20.24                             121   -0.18 6  203 292 
 ZAR  HE ES   1    529 45.23                             121   -0.13 6  203 292 
 ZAR  HZ I         529 51.35        98.5 0.46                           203 292 
 CHI  HZ EP   1    529 25.84                             116   -0.03 6  249 195 
 CHI  HE ES   1    529 54.93                             116   -0.13 6  249 195 
 CHI  HZ I         529 59.79        19.1 0.48                           249 195 
 ROSC BZ EP   1    529 27.55                             115    1.27 6  253 211 
 ROSC BZ I         530  1.54        42.4 0.51                           253 211 
 HEL  HZ EP   1    529 28.86                             113    0.54 6  272 256 
 HEL  HN ES   1    529 59.66                             113    0.24 6  272 256 
 HEL  HZ I         530  5.76        25.3 0.42                           272 256 
 SDV  BZ EP   4    529 37.13                             107   -1.12 0  360  50 
 PRA  HZ EP   1    529 41.26                             105   -0.55 4  392 209 
 PRA  HN ES   1    530 22.92                             105   -0.50 4  392 209 
 PRA  HZ I         530 31.17        27.3 0.34                           392 209 
                                                                                
