 2016  515 0906 14.5 L   6.797 -73.137141.9  RSN 19 0.4 2.3LRSN                1
 GAP= 66        1.03       2.7     3.2  4.8 -0.1501E+01  0.3772E+01  0.1676E+01E
 Epicentro: LOS SANTOS - SANTANDER                                             3
 ACTION:UPD 16-08-18 17:46 OP:cam  STATUS:               ID:20160515090614 L   I
 OLDACT:UP  16-05-17 15:46 OP:cam  STATUS:               ID:20160515090614 L   3
 OLDACT:UP  16-05-17 10:20 OP:ak   STATUS:               ID:20160515090614 L   3
 OLDACT:UP  16-05-15 15:53 OP:drio STATUS:               ID:20160515085744     3
 OLDACT:UP  16-05-15 15:53 OP:drio STATUS:               ID:20160515085744     3
 OLDACT:REG 16-05-15 12:37 OP:drio STATUS:               ID:20160515085744     3
 2016-05-15-0857-44M.COL___291                                                 6
 STAT SP IPHASW D HRMM SECON CODA AMPLIT PERI AZIMU VELO AIN AR TRES W  DIS CAZ7
 BAR2 EZ EP        9 6 33.65                             170    0.0310 23.2 192 
 BAR2 EZ ES        9 6 48.35                             170   -0.2110 23.2 192 
 BAR2 EZ I         9 6 49.77        23.6 0.16            169           23.2 192 
 BRR  HZ EP        9 6 35.54                             151    0.3010 72.2 298 
 BRR  HE ES        9 6 52.13                             151    0.6710 72.2 298 
 BRR  HZ I         9 6 56.39        31.7 0.12            149           72.2 298 
 PAM  EZ EP        9 6 36.57                             150    0.3310 77.1  39 
 PAM  EN ES        9 6 53.63                             150    0.4010 77.1  39 
 PAM  EZ I         9 6 55.77        57.3 0.64            153           77.1  39 
 RUS  HZ EP        9 6 38.02                             143    0.2210  100 177 
 RUS  HE ES        9 6 55.55                             143   -0.4510  100 177 
 RUS  HZ I         9 6 56.89        20.8 0.22            145            100 177 
 PTB  HZ EP        9 6 40.21                             131   -0.97 9  149 259 
 PTB  HN ES        9 7  1.34                             131   -0.69 9  149 259 
 PTB  HZ I         9 7  6.75        24.8 0.26            130            149 259 
 TAM  HZ EP        9 6 41.91                             130    0.17 9  154 105 
 TAM  HN ES   4    9 7  1.61                             130   -1.41 0  154 105 
 TAM  HZ I         9 7  4.06        16.7 0.58            133            154 105 
 OCA  HZ EP        9 6 41.76                             129   -0.75 9  161 353 
 OCA  HN ES        9 7  3.57                             129   -0.82 9  161 353 
 OCA  HZ I         9 7  7.17        47.4 0.28            129            161 353 
 SPBC HZ EP        9 6 42.56                             128   -0.13 9  163 219 
 SPBC HE ES        9 7  5.22                             128    0.51 9  163 219 
 SPBC HZ I         9 7  8.45        22.8 0.16            128            163 219 
 ZAR  HZ EP        9 6 46.77                             121    0.02 9  205 292 
 ZAR  HE ES        9 7 12.56                             121    0.62 9  205 292 
 ZAR  HZ I         9 7 17.75        44.9 0.32            121            205 292 
 NOR  HZ EP        9 6 50.14                             118    0.12 8  235 235 
 NOR  HE ES        9 7 17.68                             118   -0.08 8  235 235 
 NOR  HZ I         9 7 23.44        17.4 0.16            118            235 235 
 ROSC BZ EP        9 6 52.26                             116   -0.12 8  253 211 
 ROSC BN ES   4    9 7 24.06                             116    2.09 0  253 211 
 ROSC BZ I         9 7 31.64        13.7 0.55            116            253 211 
 HEL  HZ EP   4    9 6 55.98                             114    1.42 0  273 256 
 HEL  HN ES        9 7 25.59                             114   -0.25 8  273 256 
 HEL  HZ I         9 7 32.83        12.3 0.48            114            273 256 
 URE  HZ EP   4    9 6 57.88                             113    2.43 0  285 292 
 URE  HE ES   4    9 7 24.90                             113   -2.52 0  285 292 
 PTGC HZ EP   9    9 6 56.86                             111   -1.20 0  308 159 
 PTGC HE ES        9 7 30.43                             111   -0.45 7  308 159 
 PTGC HZ I         9 7 32.41         8.3 0.36            112            308 159 
 LL6C HZ EP   9    9 6 58.32                             110   -1.72 0  325 357 
 LL6C HN ES        9 7 33.70                             110   -0.17 7  325 357 
 CBOC HZ EP        9 7  1.75                             109    0.45 7  334 252 
 CBOC HE ES        9 7 38.04                             109    0.21 7  334 252 
 CBOC HZ I         9 7 42.74         2.7 0.20            109            334 252 
 ARGC HZ EP   4    9 7  5.10                             107    1.06 0  360 340 
 ARGC HN ES        9 7 43.20                             107    0.49 6  360 340 
 ARGC HZ I         9 7 53.60         3.0 0.32            108            360 340 
 PRA  HZ EP        9 7  7.88                             106    0.02 6  392 210 
 PRA  HN ES        9 7 49.72                             106    0.20 6  392 210 
 PRA  HZ I         9 7 51.30         5.7 0.26            107            392 210 
 ORTC HZ EP        9 7  8.51                             106    0.24 6  396 216 
 ORTC HN ES        9 7 50.30                             106    0.05 6  396 216 
 ORTC HZ I         9 7 56.60         5.5 0.48            106            396 216 
 PAL  HZ EP        9 7  9.80                             105    0.24 6  406 239 
 PAL  HN ES   4    9 7 54.44                             105    1.90 0  406 239 
 PAL  HZ I         9 7 55.12         3.5 0.74            106            406 239 
 SJC  HZ EP   4    9 7  8.60                             105   -1.38 0  410 327 
 SJC  HE ES   4    9 7 50.01                             105   -3.29 0  410 327 
                                                                                
