 2015  215 0959 55.0 L   6.823 -73.169142.3  RSN 23 0.5 2.5LRSN                1
 GAP= 69        1.12       2.4     2.8  4.6 -0.1056E+01  0.3357E+01  0.1601E+01E
 Epicentro: LOS SANTOS - SANTANDER                                             3
 ACTION:UPD 15-04-30 21:26 OP:nd   STATUS:               ID:20150215095955 L   I
 OLDACT:REG 15-02-15 21:59 OP:fm   STATUS:               ID:20150215095743     3
 2015-02-15-0957-43M.COL___292                                                 6
 STAT SP IPHASW D HRMM SECON CODA AMPLIT PERI AZIMU VELO AIN AR TRES W  DIS CAZ7
 BAR2 EZ EP       10 0 14.53                             169    0.3110 25.5 183 
 BAR2 EZ ES       10 0 28.84                             169   -0.4110 25.5 183 
 BAR2 EZ I        10 0 30.71        28.0 0.18            171           25.5 183 
 BRR  HZ IP     D 10 0 16.33                             153    0.7910 67.8 298 
 BRR  HE ES       10 0 32.82                             153    1.2210 67.8 298 
 BRR  HZ I        10 0 36.46        37.9 0.36            150           67.8 298 
 PAM  SZ EP       10 0 17.53                             150    0.7310 77.2  42 
 PAM  SE ES       10 0 33.92                             150    0.0910 77.2  42 
 PAM  SZ I        10 0 36.62        66.3 0.46            147           77.2  42 
 RUS  HZ EP       10 0 18.39                             142   -0.1810  103 175 
 RUS  HE ES       10 0 36.82                             142   -0.1710  103 175 
 RUS  HZ I        10 0 38.30        23.2 0.22            141            103 175 
 PTB  HZ EP       10 0 21.31                             132   -0.16 9  146 258 
 PTB  HE ES       10 0 41.76                             132   -0.38 9  146 258 
 PTB  HZ I        10 0 49.04        22.6 0.46            129            146 258 
 OCA  HZ EP       10 0 22.53                             129   -0.21 9  158 354 
 OCA  HE ES       10 0 43.81                             129   -0.60 9  158 354 
 OCA  HZ I        10 0 49.06        25.9 0.28            126            158 354 
 TAM  HZ IP     D 10 0 23.03                             129    0.37 9  158 106 
 TAM  HE ES       10 0 43.82                             129   -0.45 9  158 106 
 TAM  HZ I        10 0 43.99        10.2 0.34            127            158 106 
 SPBC HZ EP       10 0 23.45                             128    0.22 9  164 218 
 SPBC HE ES       10 0 44.35                             128   -0.93 9  164 218 
 SPBC HZ I        10 0 48.14        39.8 0.34            126            164 218 
 ZAR  HZ EP       10 0 27.06                             122    0.22 9  201 292 
 ZAR  HN ES       10 0 52.19                             122    0.48 9  201 292 
 ZAR  HZ I        10 0 59.51        20.4 0.44            119            201 292 
 NOR  HZ EP       10 0 30.36                             118   -0.07 8  234 234 
 NOR  HE ES       10 0 57.62                             118   -0.47 8  234 234 
 NOR  HZ I        10 1  4.51        19.0 0.16            116            234 234 
 SML  HZ EP       10 0 30.71                             117   -0.32 8  240 336 
 SML  HE ES       10 0 58.46                             117   -0.71 8  240 336 
 SML  HZ I        10 1  3.32        21.3 0.10            114            240 336 
 CHI  HZ EP       10 0 32.89                             116    0.23 8  250 194 
 CHI  HN ES       10 1  1.66                             116   -0.41 8  250 194 
 CHI  HZ I        10 1  5.62        20.6 0.52            114            250 194 
 ROSC BZ EP       10 0 33.60                             116    0.61 8  254 210 
 ROSC BN ES       10 1  2.83                             116    0.18 8  254 210 
 ROSC BZ I        10 1  9.04        29.1 0.45            114            254 210 
 URE  HZ EP       10 0 34.55                             113   -0.95 7  281 292 
 URE  HE ES       10 1  7.00                             113   -0.11 7  281 292 
 URE  HZ I        10 1 16.64        15.6 0.20            111            281 292 
 GUY2CHZ EP       10 0 38.52                             112    0.18 7  301 234 
 GUY2CHN ES       10 1 12.28                             112    0.11 7  301 234 
 GUY2CHZ I        10 1 21.06         8.1 0.32                           301 234 
 RREF HZ EP       10 0 41.46                             110    0.54 7  321 229 
 RREF HE ES       10 1 16.02                             110   -0.75 7  321 229 
 RREF HZ I        10 1 23.60        13.8 0.26            108            321 229 
 CBOC HZ EP       10 0 41.11                             109   -0.43 7  332 252 
 CBOC HE ES       10 1 18.00                             109    0.12 7  332 252 
 CBOC HZ I        10 1 27.86      49.7e4 3.48            107            332 252 
 TOL  SZ EP       10 0 43.35                             109    0.27 7  343 224 
 TOL  SN ES       10 1 20.58                             109   -0.03 7  343 224 
 TOL  SZ I        10 1 28.82         7.4 0.38            107            343 224 
 ANIL HZ EP       10 0 44.59                             108   -0.05 6  357 224 
 ANIL HE ES       10 1 23.58                             108    0.20 6  357 224 
 ANIL HZ I        10 1 32.66         3.3 0.32            106            357 224 
 SDV  BZ EP       10 0 44.23                             108   -0.69 6  361  51 
 SDV  BE ES   4   10 1 21.48                             108   -2.40 0  361  51 
 SDV  BZ I        10 1 24.72         5.2 0.40            105            361  51 
 PRA  HZ EP       10 0 48.57                             106    0.10 6  393 209 
 PRA  HE ES       10 1 30.93                             106    0.72 6  393 209 
 PRA  HZ I        10 1 35.95         9.4 0.30            104            393 209 
 ORTC HZ EP       10 0 48.36                             106   -0.47 6  396 216 
 ORTC HE ES       10 1 31.20                             106    0.36 6  396 216 
 ORTC HZ I        10 1 35.51         7.9 0.26            104            396 216 
 PAL  HZ EP       10 0 50.18                             105    0.28 6  405 239 
 PAL  HE ES   4   10 1 28.77                             105   -3.99 0  405 239 
 PAL  HZ I        10 1 38.70         3.3 0.36            104            405 239 
 MACC HE ES   4   10 1 50.35                             101   -7.21 0  523 188 
                                                                                
