 2015 1215 0851 16.3 L   6.450 -73.441124.8  RSN  5 0.3 1.2LRSN                1
 GAP=162        0.69       4.2     5.3  6.0  0.1378E+02  0.5955E+01 -0.3508E+01E
 Epicentro: SIMACOTA - SANTANDER                                               3
 ACTION:UPD 16-02-04 15:05 OP:cam  STATUS:               ID:20151215085116 L   I
 OLDACT:REG 15-12-15 13:31 OP:cara STATUS:               ID:20151215084743     3
 2015-12-15-0847-43M.COL___327                                                 6
 STAT SP IPHASW D HRMM SECON CODA AMPLIT PERI AZIMU VELO AIN AR TRES W  DIS CAZ7
 RUS  HZ EP        851 36.24                             148    0.1610 73.2 147 
 RUS  HN ES        851 51.61                             148    0.1210 73.2 147 
 RUS  HZ I         851 53.01         1.4 0.29            150           73.2 147 
 BRR  HN ES        851 50.57                             146   -0.3110 78.6 338 
 PTB  HZ EP        851 38.12                             135   -0.3110  113 275 
 PTB  HN ES   2    851 55.57                             135   -0.11 5  113 275 
 PTB  HZ I         851 56.69         3.3 0.19            135            113 275 
 ZAR  HZ EP   1    851 46.41                             119   -0.05 6  194 306 
 ZAR  HN ES        852 10.46                             119    0.49 9  194 306 
 ZAR  HZ I         852 14.06         1.3 0.16            119            194 306 
 SML  HZ EP        851 54.47                             110   -0.28 8  269 345 
 SML  HE ES   1    852 25.25                             110    0.52 6  269 345 
 SML  HZ I         852 28.28         2.5 0.08            111            269 345 
                                                                                
