 2015  915 0744 41.7 L   6.819 -73.094141.3  RSN  7 0.4 1.6LRSN                1
 GAP=244        0.90       4.7     4.8  5.9  0.7948E+01  0.7151E+01  0.1543E+00E
 Epicentro: LOS SANTOS - SANTANDER                                             3
 ACTION:UPD 15-10-28 16:26 OP:cam  STATUS:               ID:20150915074441 L   I
 OLDACT:REG 15-09-15 12:46 OP:mh   STATUS:               ID:20150915073747     3
 2015-09-15-0737-47M.COL___353                                                 6
 STAT SP IPHASW D HRMM SECON CODA AMPLIT PERI AZIMU VELO AIN AR TRES W  DIS CAZ7
 BAR2 EZ EP        745  0.96                             169    0.0610 27.0 201 
 BAR2 EZ ES        745 15.83                             169   -0.0310 27.0 201 
 BAR2 EZ I         745 16.81         7.8 0.18            165           27.0 201 
 BRR  HZ EP        745  2.75                             150    0.1110 75.4 295 
 BRR  HN ES        745 19.34                             150    0.3910 75.4 295 
 BRR  HZ I         745 27.29         4.8 0.16            147           75.4 295 
 RUS  HZ EP        745  5.03                             142   -0.1510  102 179 
 RUS  HN ES        745 23.65                             142    0.1710  102 179 
 RUS  HZ I         745 24.76         3.9 0.22            145            102 179 
 PTB  HN ES        745 29.45                             130   -0.64 9  154 258 
 SPBC HZ EP        745 10.02                             127   -0.38 9  168 220 
 SPBC HN ES        745 32.65                             127   -0.12 9  168 220 
 SPBC HZ I         745 39.59         4.9 0.20            128            168 220 
 ZAR  HZ EP        745 14.17                             121   -0.19 8  209 291 
 ZAR  HN ES        745 39.45                             121   -0.37 8  209 291 
 ZAR  HZ I         745 45.49         4.8 0.26            122            209 291 
 HEL  HZ EP        745 23.10                             113    0.70 7  278 256 
 HEL  HN ES        745 54.87                             113    0.75 7  278 256 
 HEL  HZ I         746  0.86         2.8 0.58            115            278 256 
                                                                                
