 2017 1215 0846 21.4 L   6.706 -73.196137.7  RSN  5 0.3 1.3LRSN                1
 GAP=178        0.84       4.2     5.5  8.3 -0.6107E+01  0.1982E+02 -0.1109E+02E
 Epicentro: VILLANUEVA - SANTANDER                                             3
 ACTION:UPD 18-01-04 13:20 OP:rebc STATUS:               ID:20171215084621 L   I
 OLDACT:UP  17-12-15 16:30 OP:edw  STATUS:               ID:20171215083744     3
 OLDACT:REG 17-12-15 12:56 OP:edw  STATUS:               ID:20171215083744     3
 2017-12-15-0838-00M.COL___464                                                 6
 STAT SP IPHASW D HRMM SECON CODA AMPLIT PERI AZIMU VELO AIN AR TRES W  DIS CAZ7
 BAR2 EZ EP        846 40.50                             174    0.5810 12.6 173 
 BAR2 EZ ES        846 54.26                             174   -0.0710 12.6 173 
 BAR2 EZ I         846 55.54         4.3 0.24            172           12.6 173 
 PTB  HZ EP        846 46.73                             132   -0.36 9  141 263 
 PTB  HN ES        847  7.01                             132   -0.10 9  141 263 
 PTB  HZ I         847 10.53         1.7 0.40            131            141 263 
 SPBC HN ES        847  8.95                             129   -0.15 9  152 220 
 OCA  HN ES        847 12.13                             126   -0.31 9  170 355 
 ZAR  HZ EP        846 53.16                             121   -0.12 9  203 295 
 ZAR  HN ES        847 18.62                             121    0.51 9  203 295 
 ZAR  HZ I         847 28.16         3.9 0.34            120            203 295 
                                                                                
