 2013  115 0121 47.6 L   6.775 -73.188151.2  RSN  6 0.3 1.5LRSN                1
 GAP=178        0.54       3.3     4.8  6.3  0.6836E+01  0.6079E+00  0.4290E+01E
 Epicentro: LOS SANTOS - SANTANDER                                             3
 ACTION:UPD 13-02-15 09:14 OP:ep   STATUS:               ID:20130115012147 L   I
 2013-01-15-0120-00M.COL___241                                                 6
 STAT SP IPHASW D HRMM SECON CODA AMPLIT PERI AZIMU VELO AIN AR TRES W  DIS CAZ7
 BRR  HZ EP   1    122  9.16                             154   -0.04 7 68.6 302 
 BRR  HN ES   1    122 26.39                             154    0.35 7 68.6 302 
 RUS  HZ EP   1    122 11.85                             146    0.12 7 98.3 173 
 RUS  HN ES   1    122 30.30                             146   -0.24 7 98.3 173 
 RUS  HZ I         122 32.60         4.3 0.48            143           98.3 173 
 PTB  HZ EP   1    122 14.25                             134   -0.32 7  143 260 
 PTB  HN ES   1    122 35.17                             134   -0.43 7  143 260 
 PTB  HZ I         122 37.47         6.4 0.14            129            143 260 
 OCA  HN ES   2    122 38.91                             130   -0.21 5  163 355 
 ZAR  HE ES   1    122 45.74                             124    0.33 6  201 293 
 ZAR  HZ I         122 53.97         4.1 0.10            121            201 293 
 CHI  HZ EP   1    122 25.41                             119    0.22 6  245 194 
 CHI  HN ES   1    122 54.78                             119    0.27 6  245 194 
 CHI  HZ I         123  0.77         1.6 0.29            116            245 194 
                                                                                
