 2014  715 0321 49.6 L   6.773 -73.133148.0  RSN  9 0.4 1.6LRSN                1
 GAP=184        0.90       3.4     4.5  6.2 -0.9217E+00  0.6038E+01 -0.3932E+00E
 Epicentro: LOS SANTOS - SANTANDER                                             3
 ACTION:UPD 15-03-16 20:44 OP:nd   STATUS:               ID:20140715032149 L   I
 OLDACT:REG 14-07-15 12:52 OP:fm   STATUS:               ID:20140715031820     3
 2014-07-15-0318-20M.COL___259                                                 6
 STAT SP IPHASW D HRMM SECON CODA AMPLIT PERI AZIMU VELO AIN AR TRES W  DIS CAZ7
 BAR2 SZ EP        322  9.01                             172   -0.4110 20.8 195 
 BAR2 SZ ES   1    322 24.87                             172   -0.04 7 20.8 195 
 BAR2 SZ I         322 26.63         7.6 0.34            173           20.8 195 
 BRR  HZ EP        322 11.62                             152    0.5110 73.9 300 
 BRR  HN ES        322 28.54                             152    0.6210 73.9 300 
 BRR  HZ I         322 36.85         6.3 0.48            150           73.9 300 
 RUS  HZ EP   1    322 13.18                             145   -0.15 7 97.5 177 
 RUS  HN ES        322 31.92                             145    0.0610 97.5 177 
 RUS  HZ I         322 33.46         4.5 0.36            152           97.5 177 
 PTB  HZ EP        322 16.46                             132   -0.34 9  149 260 
 PTB  HE ES        322 37.39                             132   -0.65 9  149 260 
 SPBC HZ EP   1    322 18.20                             130    0.09 7  162 220 
 SPBC HN ES        322 40.15                             130   -0.23 9  162 220 
 SPBC HZ I         322 42.60         5.8 0.48            134            162 220 
 OCA  HZ EP   1    322 18.84                             130    0.49 7  163 353 
 OCA  HN ES   1    322 40.21                             130   -0.58 7  163 353 
 OCA  HZ I         322 46.45         4.2 0.28            132            163 353 
 ZAR  HZ EP   1    322 22.71                             123    0.30 6  207 293 
 ZAR  HE ES        322 47.74                             123   -0.29 8  207 293 
 ZAR  HZ I         322 54.45         5.8 0.38            124            207 293 
 NOR  HZ EP   1    322 25.14                             119   -0.23 6  234 235 
 NOR  HE ES        322 53.79                             119    0.49 8  234 235 
 NOR  HZ I         322 58.78         3.8 0.26            122            234 235 
 GUY2CHZ EP   1    322 33.53                             113    0.31 5  301 235 
 GUY2CHN ES        323  7.53                             113    0.26 7  301 235 
 GUY2CHZ I         323 16.14         2.0 0.34                           301 235 
                                                                                
