 2010 1215 0254 59.4 L   6.815 -72.919141.2  RSN  8 0.3 1.6LRSN                1
 GAP=184        0.57       3.9     8.1  6.5 -0.1943E+01  0.5962E+01 -0.6756E+01E
 Epicentro: CEPITA - SANTANDER                                                 3
 ACTION:UP  11-01-14 15:25 OP:pat  STATUS:               ID:20101215025459 L   I
 2010-12-15-0251-01S.COL___137                                                 6
 STAT SP IPHASW D HRMM SECON CODA AMPLIT PERI AZIMU VELO SNR AR TRES W  DIS CAZ7
 BAR2 SZ EP   1    255 18.74                             164    -0.2 7   38 230 
 BAR2 SZ ES   1    255 34.14                             164     0.0 7   38 230 
 BAR2 SZ I         255 35.65        15.1 0.21                            38 230 
 BTL  SZ EP        255 19.19                             163     0.210   40 287 
 GIR2 SZ EP   2    255 19.17                             163     0.3 5   42 314 
 RUS  HZ EP   1    255 22.96                             142     0.0 7  104 190 
 RUS  HE ES   1    255 41.15                             142    -0.1 7  104 190 
 RUS  HZ I         255 42.93         4.2 0.32                           104 190 
 GRA  SZ EP   2    255 23.98                             138     0.3 5  119   6 
 GRA  SZ I         255 47.58         3.5 0.27                           119   6 
 OCA  SZ EP   2    255 27.37                             128    -0.3 5  164 344 
 OCA  SZ ES   2    255 49.12                             128    -0.6 5  164 344 
 OCA  SZ I         255 54.10         4.6 0.27                           164 344 
 CHI  HZ EP   2    255 37.17                             115    -0.7 4  258 200 
 CHI  HZ I         256 11.28         2.3 0.18                           258 200 
 HEL  HZ EP   2    255 42.60                             112     0.4 4  297 257 
 HEL  HN ES   2    256 15.46                             112    -0.1 4  297 257 
 HEL  HZ I         256 19.60         2.8 0.39                           297 257 
                                                                                
