 2013  415 0658 21.4 L   6.820 -73.191144.8  RSN 10 0.4 2.0LRSN                1
 GAP=179        0.78       2.9     4.5  4.9 -0.8108E+00  0.4551E+01 -0.7810E+00E
 Epicentro: ZAPATOCA - SANTANDER                                               3
 ACTION:UPD 13-05-22 14:38 OP:EP   STATUS:               ID:20130415065821 L   I
 2013-04-15-0650-00M.COL___244                                                 6
 STAT SP IPHASW D HRMM SECON CODA AMPLIT PERI AZIMU VELO AIN AR TRES W  DIS CAZ7
 BAR2 SZ EP        658 41.10                             170    0.1710 25.2 178 
 BAR2 SZ ES        658 56.23                             170    0.0510 25.2 178 
 BAR2 SZ I         658 57.64        47.3 0.16            167           25.2 178 
 BRR  HZ EP     D  658 42.90                             154    0.7710 65.8 299 
 BRR  HN ES   1    658 58.57                             154    0.27 7 65.8 299 
 BRR  HZ I         659  3.23        17.8 0.24            149           65.8 299 
 RUS  HZ EP        658 45.20                             143   -0.0310  103 173 
 RUS  HN ES   1    659  3.50                             143   -0.32 7  103 173 
 RUS  HZ I         659  5.18         8.3 0.24            145            103 173 
 PTB  HZ EP        658 47.65                             133   -0.22 9  143 258 
 PTB  HN ES   1    659  7.84                             133   -0.69 7  143 258 
 PTB  HZ I         659 15.75        14.0 0.50            130            143 258 
 OCA  HZ EP        658 49.15                             130   -0.21 9  158 355 
 OCA  HN ES   1    659 10.86                             130   -0.32 7  158 355 
 OCA  HZ I         659 15.83        15.7 0.32            132            158 355 
 NOR  HZ EP   2    658 56.60                             119   -0.16 4  232 233 
 NOR  HN ES   1    659 24.71                             119    0.35 6  232 233 
 NOR  HZ I         659 31.36         8.4 0.22            119            232 233 
 SML  HZ EP        658 57.26                             118   -0.25 8  240 336 
 SML  HN ES   2    659 25.65                             118   -0.05 4  240 336 
 SML  HZ I         659 28.04         9.9 0.10            119            240 336 
 CHI  HZ EP   1    658 58.82                             117   -0.30 6  250 194 
 CHI  HN ES   1    659 28.53                             117   -0.02 6  250 194 
 CHI  HZ I         659 33.99         7.6 0.46            119            250 194 
 HEL  HZ EP   1    659  1.93                             115    0.86 6  268 255 
 HEL  HN ES   1    659 31.76                             115   -0.27 6  268 255 
 HEL  HZ I         659 41.32         6.4 0.44            115            268 255 
 PRA  HZ EP        659 14.56                             106   -0.25 6  392 209 
                                                                                
