 2011  615 0608 23.8 L   6.753 -73.115144.5  RSN  6 0.4 1.6LRSN                1
 GAP=163        0.72       4.4     7.8  7.4 -0.3255E+01 -0.1045E+02 -0.5386E+01E
 Epicentro: LOS SANTOS - SANTANDER                                             3
 ACTION:UP  11-07-14 19:05 OP:ep   STATUS:               ID:20110615060823 L   I
 2011-06-15-0600-00M.COL___125                                                 6
 STAT SP IPHASW D HRMM SECON CODA AMPLIT PERI AZIMU VELO SNR AR TRES W  DIS CAZ7
 BAR2 SZ EP   1    6 8 43.42                             172     0.2 7   19 203 
 BAR2 SZ ES   1    6 8 58.05                             172    -0.3 7   19 203 
 BAR2 SZ I         6 8 59.65        10.9 0.40                            19 203 
 BRR  HZ EP   1    6 8 45.25                             150     0.1 7   77 301 
 BRR  HZ I         6 8 45.45        12.5 0.16                            77 301 
 BRR  HE ES   1    6 9  2.18                             150     0.4 7   77 301 
 RUS  HZ EP   1    6 8 47.11                             145     0.1 7   95 178 
 RUS  HZ I         6 8 48.21         2.6 0.27                            95 178 
 RUS  HN ES   2    6 9  5.29                             145     0.1 5   95 178 
 GRA  SZ EP   1    6 8 49.26                             136     0.0 7  130  15 
 GRA  SZ ES   2    6 9  8.26                             136    -0.8 5  130  15 
 GRA  SZ I         6 9 13.02         3.2 0.21                           130  15 
 OCA  SZ EP   1    6 8 52.19                             128    -0.3 7  166 352 
 OCA  SZ ES   2    6 9 15.13                             128     0.2 5  166 352 
 OCA  SZ I         6 9 18.93         7.3 0.32                           166 352 
 NOR  SN ES   2    6 9 26.48                             118    -0.7 4  235 236 
                                                                                
