 2011  315 0533 54.1 L   6.785 -73.100148.1  RSN 22 0.4 3.4LRSN                1
 GAP=105        0.77       2.8     4.2  5.2 -0.3748E+01  0.5622E+01 -0.2799E+00E
 Epicentro: LOS SANTOS - SANTANDER                                             3
 ACTION:UP  11-06-16 14:33 OP:jfem STATUS:               ID:20110315053354 L   I
 2011-03-15-0532-39S.COL___138                                                 6
 STAT SP IPHASW D HRMM SECON CODA AMPLIT PERI AZIMU VELO SNR AR TRES W  DIS CAZ7
 BAR2 SZ IP        534 13.99                             171     0.010   23 203 
 BAR2 SZ ES   1    534 29.33                             171    -0.2 7   23 203 
 BAR2 SZ I         534 32.09       829.7 0.35                            23 203 
 BTL  SZ IP        534 14.14                             171     0.110   24 308 
 RUS  HZ EP   1    534 17.92                             144     0.0 7   99 179 
 RUS  HE ES   1    534 36.27                             144    -0.3 7   99 179 
 RUS  HZ I         534 37.95       356.5 0.31                            99 179 
 GUE  SZ EP        534 18.99                             140    -0.110  117   9 
 GRA  SZ IP        534 19.80                             137     0.210  126  15 
 GRA  SZ I         534 49.37       354.7 0.40                           126  15 
 OCA  SZ ES   1    534 45.23                             130     0.0 7  163 351 
 OCA  SZ I         534 50.46       443.8 0.33                           163 351 
 YOP  SZ IP        534 24.50                             127     0.5 9  175 155 
 YOP  SN ES   1    534 47.59                             127     0.3 7  175 155 
 YOP  SZ I         534 49.59       135.5 0.44                           175 155 
 NOR  SZ EP   1    534 29.92                             118    -0.4 6  238 236 
 NOR  SE ES   1    534 57.79                             118    -0.8 6  238 236 
 CHI  HZ EP   1    534 31.66                             117    -0.3 6  248 196 
 CHI  HN ES   1    535  1.14                             117    -0.3 6  248 196 
 CHI  HZ I         535  9.19       136.0 0.34                           248 196 
 HEL  HZ EP   1    534 34.47                             115    -0.5 6  277 256 
 HEL  HZ I         535 12.43       164.1 0.33                           277 256 
 GUY  SZ EP        534 38.76                             112     0.5 7  305 236 
 GUY  SE ES   1    535 13.74                             112     1.1 5  305 236 
 GUY  SZ I         535 24.92       277.5 0.62                           305 236 
 TOL  SZ EP        534 43.09                             109     0.3 6  346 225 
 SDV  BZ EP        534 43.26                             109    -0.7 6  358  49 
 MON  HZ EP   4    534 41.09                             109    -2.7 0  358 308 
 PRA  HZ EP   1    534 47.51                             107    -0.3 4  393 210 
 PRA  HN ES   1    535 29.43                             107    -0.3 4  393 210 
 SJA  SZ EP   3    534 47.33                             106    -1.4 1  400 194 
 HORQ SZ EP   1    535  4.91                             101     0.0 3  535 227 
 MARA HZ EP   2    535  4.49                             101    -0.9 2  539 216 
 MAL  SZ EP        535  7.90                             101     0.3 3  561 237 
 PCON HZ EP        535 14.61                              99    -0.1 3  614 217 
 POP2 HZ EP   1    535 14.34                              99    -0.1 2  615 220 
 FLO2 HZ EP   2    535 17.14                              99    -0.2 1  641 206 
 SOTA HZ EP   1    535 18.72                              99     0.3 2  645 217 
                                                                                
