 2017  915 0659 41.7 L   6.783 -73.127147.5  RSN  7 0.3 1.2LRSN                1
 GAP=238        0.80       3.4     4.8  5.2  0.4892E+01  0.7093E+01  0.2961E+01E
 Epicentro: LOS SANTOS - SANTANDER                                             3
 ACTION:UPD 17-10-05 19:12 OP:rebc STATUS:               ID:20170915065941 L   I
 OLDACT:REG 17-09-15 13:28 OP:mg   STATUS:               ID:20170915065743     3
 2017-09-15-0658-00M.COL___420                                                 6
 STAT SP IPHASW D HRMM SECON CODA AMPLIT PERI AZIMU VELO AIN AR TRES W  DIS CAZ7
 BAR2 EZ EP        7 0  1.26                             171   -0.2310 22.0 196 
 BAR2 EZ ES        7 0 16.58                             171   -0.3610 22.0 196 
 BAR2 EZ I         7 0 19.23         4.1 0.27            166           22.0 196 
 BRR  HZ EP        7 0  2.94                             152   -0.2310 73.9 299 
 BRR  HN ES        7 0 20.48                             152    0.5510 73.9 299 
 BRR  HZ I         7 0 23.52         3.1 0.13            151           73.9 299 
 RUS  HZ EP        7 0  5.72                             145    0.2610 98.6 177 
 RUS  HN ES        7 0 24.27                             145    0.2610 98.6 177 
 RUS  HZ I         7 0 26.13         2.8 0.19            145           98.6 177 
 SPBC HZ EP        7 0 10.23                             129   -0.07 9  163 220 
 SPBC HN ES        7 0 32.33                             129   -0.29 9  163 220 
 SPBC HZ I         7 0 39.20         3.1 0.19            129            163 220 
 ZAR  HZ EP        7 0 14.89                             122    0.38 8  207 292 
 ZAR  HN ES        7 0 39.63                             122   -0.48 8  207 292 
 ZAR  HZ I         7 0 44.04         1.7 0.21            124            207 292 
 NOR  HZ EP        7 0 17.47                             119   -0.11 8  235 235 
 NOR  HN ES        7 0 45.99                             119    0.41 8  235 235 
 NOR  HZ I         7 0 48.11         1.5 0.25            119            235 235 
 CHI  HZ EP   1    7 0 19.49                             118    0.15 6  247 196 
 CHI  HN ES        7 0 48.51                             118   -0.20 8  247 196 
 CHI  HZ I         7 0 55.15         0.6 0.13            119            247 196 
                                                                                
