 2015  615 0424 26.8 L   6.785 -73.023150.3  RSN 11 0.4 1.8LRSN                1
 GAP=195        0.95       2.8     4.8  5.2 -0.3135E+01  0.7788E+01 -0.4888E+00E
 Epicentro: CEPITA - SANTANDER                                                 3
 ACTION:UPD 15-09-10 22:12 OP:cam  STATUS:               ID:20150615042426 L   I
 OLDACT:REG 15-06-15 13:22 OP:drio STATUS:               ID:20150615041747     3
 2015-06-15-0417-47M.COL___315                                                 6
 STAT SP IPHASW D HRMM SECON CODA AMPLIT PERI AZIMU VELO AIN AR TRES W  DIS CAZ7
 BAR2 EZ EP        424 47.31                             169    0.2910 27.6 220 
 BAR2 EZ ES        425  2.86                             169    0.0410 27.6 220 
 BAR2 EZ I         425  3.94         7.2 0.40            166           27.6 220 
 BRR  HZ EP        424 49.33                             149    0.1810 84.0 295 
 BRR  HN ES        425  6.61                             149   -0.0010 84.0 295 
 BRR  HZ I         425  8.89         5.4 0.16            145           84.0 295 
 RUS  HZ EP        424 51.08                             145    0.2510 98.9 184 
 RUS  HN ES        425  9.56                             145   -0.0510 98.9 184 
 RUS  HZ I         425 11.09         3.2 0.46            144           98.9 184 
 OCA  HZ EP        424 56.03                             130    0.26 9  164 349 
 OCA  HN ES        425 18.24                             130   -0.17 9  164 349 
 OCA  HZ I         425 23.22        12.2 0.18            128            164 349 
 SPBC HZ EP        424 56.23                             129   -0.09 9  171 223 
 SPBC HN ES        425 18.81                             129   -0.57 9  171 223 
 SPBC HZ I         425 25.40        12.6 0.34            126            171 223 
 NOR  HZ EP        425  3.27                             118   -0.57 8  245 237 
 NOR  HN ES        425 32.38                             118   -0.39 8  245 237 
 NOR  HZ I         425 34.98         5.2 0.18            116            245 237 
 SML  HZ EP        425  4.02                             118   -0.42 8  251 333 
 SML  HN ES        425 33.46                             118   -0.37 8  251 333 
 SML  HZ I         425 36.95        10.2 0.10            116            251 333 
 HEL  HZ EP        425  9.44                             114    0.83 7  285 257 
 HEL  HN ES        425 42.47                             114    1.21 7  285 257 
 HEL  HZ I         425 47.10         1.8 0.48            112            285 257 
 GUY2CHZ EP        425 12.04                             112    0.31 7  311 236 
 GUY2CHN ES        425 47.20                             112    0.39 7  311 236 
 GUY2CHZ I         425 57.36         3.2 0.52                           311 236 
 CBOC HZ EP        425 14.86                             110   -0.42 6  346 253 
 CBOC HZ I         425 42.71         0.9 0.28            108            346 253 
 CBOC HN ES        425 52.58                             110   -0.55 6  346 253 
 PRA  HZ EP        425 20.60                             107   -0.47 6  397 211 
 PRA  HN ES        426  3.36                             107   -0.07 6  397 211 
 PRA  HZ I         426  8.93         2.6 0.44            106            397 211 
                                                                                
