 2017  715 0942  2.4 L   6.810 -73.138146.3  RSN 10 0.3 1.6LRSN                1
 GAP=112        0.63       2.7     2.7  4.2  0.1531E+01  0.2137E+01  0.3454E+01E
 Epicentro: LOS SANTOS - SANTANDER                                             3
 ACTION:UPD 17-08-30 15:33 OP:rebc STATUS:               ID:20170715094202 L   I
 OLDACT:UP  17-07-15 18:35 OP:dnl  STATUS:               ID:20170715093741     3
 OLDACT:UP  17-07-15 18:34 OP:dnl  STATUS:               ID:20170715093741     3
 OLDACT:REG 17-07-15 13:37 OP:dnl  STATUS:               ID:20170715093741     3
 2017-07-15-0938-00M.COL___359                                                 6
 STAT SP IPHASW D HRMM SECON CODA AMPLIT PERI AZIMU VELO AIN AR TRES W  DIS CAZ7
 BAR2 EZ EP   2    942 21.79                             170   -0.30 5 24.6 192 
 BAR2 EZ ES        942 37.11                             170   -0.3610 24.6 192 
 BAR2 EZ I         942 38.43        10.9 0.20            168           24.6 192 
 BRR  HZ EP   2    942 23.78                             153    0.20 5 71.4 297 
 BRR  HN ES        942 40.48                             153    0.3410 71.4 297 
 BRR  HZ I         942 44.86         7.6 0.12            151           71.4 297 
 PAM  EZ IP     C  942 24.43                             151   -0.1210 75.9  40 
 PAM  EN ES        942 41.79                             151   -0.0710 75.9  40 
 PAM  EZ I         942 44.00         7.2 0.56            155           75.9  40 
 RUS  HZ EP        942 26.22                             144   -0.0310  102 177 
 RUS  HN ES        942 44.83                             144   -0.0510  102 177 
 RUS  HZ I         942 45.85         3.7 0.22            145            102 177 
 PTB  HZ EP   2    942 29.49                             132    0.02 5  149 258 
 PTB  HE ES   4    942 46.97                             132   -3.65 0  149 258 
 PTB  HZ I         942 52.55         3.5 0.34            131            149 258 
 SPBC HZ EP        942 30.96                             129   -0.08 9  165 219 
 SPBC HN ES   4    942 54.56                             129    1.15 0  165 219 
 SPBC HZ I         942 59.62         7.9 0.26            129            165 219 
 YPLC HZ EP        942 32.09                             127   -0.17 9  177 152 
 YPLC HN ES        942 56.21                             127    0.64 9  177 152 
 YPLC HZ I         942 57.08         5.6 0.24            129            177 152 
 ZAR  HZ EP   4    942 37.49                             122    2.61 0  204 292 
 ZAR  HE ES        943  0.47                             122    0.23 9  204 292 
 ZAR  HZ I         943  5.45         4.0 0.24            123            204 292 
 NOR  HZ EP   2    942 38.34                             118    0.07 4  236 234 
 NOR  HE ES        943  6.00                             118   -0.28 8  236 234 
 NOR  HZ I         943 10.89         2.6 0.38            119            236 234 
 GUY2CHZ EP   4    942 47.66                             112    1.51 0  303 235 
 GUY2CHE ES   4    943 22.39                             112    2.09 0  303 235 
 GUY2CHZ I         943 28.85         1.6 0.30                           303 235 
                                                                                
