 2014  815 0441 36.1 L   6.769 -73.158152.0  RSN  4 0.4 1.4LRSN                1
 GAP=246        1.00       7.6     8.3  9.1 -0.1253E+02 -0.6280E+01  0.1741E+02E
 Epicentro: LOS SANTOS - SANTANDER                                             3
 ACTION:UPD 14-09-15 21:50 OP:nd   STATUS:               ID:20140815044136 L   I
 OLDACT:REG 14-08-15 13:14 OP:spq  STATUS:               ID:20140815043819     3
 2014-08-15-0438-19M.COL___269                                                 6
 STAT SP IPHASW D HRMM SECON CODA AMPLIT PERI AZIMU VELO AIN AR TRES W  DIS CAZ7
 BAR2 SZ EP        441 56.23                             172   -0.2110 19.7 188 
 BAR2 SZ ES   1    442 11.79                             172   -0.50 7 19.7 188 
 BAR2 SZ I         442 14.32         7.7 0.26            170           19.7 188 
 BRR  HZ EP        441 58.19                             153    0.2110 71.7 302 
 BRR  HN ES        442 15.52                             153    0.4910 71.7 302 
 BRR  HZ I         442 20.57         2.8 0.48            154           71.7 302 
 PTB  HZ EP        442  2.89                             134   -0.54 9  146 260 
 PTB  HN ES        442 24.31                             134   -0.42 9  146 260 
 PTB  HZ I         442 28.12         2.9 0.42            135            146 260 
 SPBC HZ EP        442  5.23                             131    0.45 9  160 219 
 SPBC HN ES        442 27.44                             131    0.31 9  160 219 
 SPBC HZ I         442 33.05         3.5 0.22            133            160 219 
                                                                                
