 2017 1015 0157 38.4 L   6.765 -73.181138.2  RSN  9 0.4 1.4LRSN                1
 GAP=110        0.96       4.1     3.6  5.9  0.1422E+01  0.4687E+01  0.3299E+01E
 Epicentro: LOS SANTOS - SANTANDER                                             3
 ACTION:UPD 17-11-07 19:31 OP:rebc STATUS:               ID:20171015014747 L   I
 OLDACT:UPD 17-10-15 13:29 OP:leo  STATUS:               ID:20171015014747 L   3
 2017-10-15-0148-00M.COL___429                                                 6
 STAT SP IPHASW D HRMM SECON CODA AMPLIT PERI AZIMU VELO AIN AR TRES W  DIS CAZ7
 BAR2 EZ EP        157 56.97                             172   -0.0410 19.1 181 
 BAR2 EZ ES        158 11.42                             172   -0.1310 19.1 181 
 BAR2 EZ I         158 13.09         6.9 0.22            169           19.1 181 
 BRR  HZ EP        157 58.90                             152    0.2810 69.8 303 
 BRR  HE ES        158 15.24                             152    0.8110 69.8 303 
 PAM  EZ IP     D  158  0.02                             148   -0.1110 82.9  40 
 PAM  EN ES        158 16.60                             148   -0.5110 82.9  40 
 PAM  EZ I         158 18.44         4.0 0.20            151           82.9  40 
 RUS  HZ EP        158  1.08                             143   -0.0410 97.0 174 
 RUS  HN ES        158 19.15                             143    0.2810 97.0 174 
 RUS  HZ I         158 20.64         4.9 0.24            143           97.0 174 
 PTB  HZ EP        158  4.03                             131   -0.28 9  143 260 
 PTB  HN ES        158 24.03                             131   -0.51 9  143 260 
 PTB  HZ I         158 27.06         3.8 0.18            131            143 260 
 YPLC HZ EP        158  7.58                             125    0.11 9  175 150 
 YPLC HN ES   4    158 28.07                             125   -2.11 0  175 150 
 ZAR  HZ EP        158 10.68                             121    0.57 9  202 294 
 ZAR  HN ES        158 34.55                             121   -0.33 9  202 294 
 NOR  HN ES   4    158 38.72                             117   -1.43 0  229 235 
 NOR  HZ I         158 46.76         2.1 0.38            118            229 235 
 GUY2CHZ EP   4    158 22.66                             111    1.64 0  296 235 
 GUY2CHN ES        158 54.09                             111   -0.20 7  296 235 
 GUY2CHZ I         159  1.90         1.2 0.36                           296 235 
                                                                                
