 2017  915 0210 23.2 L   6.753 -73.117142.0  RSN  9 0.4 1.7LRSN                1
 GAP=142        0.78       3.2     3.9  5.3 -0.1488E+00  0.5102E+01  0.2641E+01E
 Epicentro: LOS SANTOS - SANTANDER                                             3
 ACTION:UPD 17-10-05 19:12 OP:rebc STATUS:               ID:20170915021023 L   I
 OLDACT:UP  17-09-15 16:18 OP:mg   STATUS:               ID:20170915020744     3
 OLDACT:REG 17-09-15 12:48 OP:mg   STATUS:               ID:20170915020744     3
 2017-09-15-0208-00M.COL___462                                                 6
 STAT SP IPHASW D HRMM SECON CODA AMPLIT PERI AZIMU VELO AIN AR TRES W  DIS CAZ7
 BAR2 EZ EP     C  210 42.19                             172   -0.1510 19.2 202 
 BAR2 EZ ES   1    210 56.51                             172   -0.72 7 19.2 202 
 BAR2 EZ I         210 58.36        17.7 0.24            169           19.2 202 
 BRR  HZ IP     C  210 44.25                             150   -0.0510 76.5 301 
 BRR  HN ES        211  1.39                             150    0.6710 76.5 301 
 BRR  HZ I         211  4.59         6.6 0.36            150           76.5 301 
 PAM  EZ EP        210 45.19                             150   -0.0010 79.6  35 
 PAM  EN ES        211  2.45                             150    0.1410 79.6  35 
 PAM  EZ I         211  4.92         8.4 0.50            154           79.6  35 
 RUS  HZ EP        210 46.08                             145   -0.1510 95.2 178 
 RUS  HN ES        211  4.29                             145    0.1210 95.2 178 
 RUS  HZ I         211  5.69        11.5 0.24            145           95.2 178 
 SPBC HZ EP        210 51.09                             129   -0.17 9  161 221 
 SPBC HN ES        211 13.25                             129    0.13 9  161 221 
 SPBC HZ I         211 19.07         7.2 0.22            129            161 221 
 ZAR  HZ EP   1    210 55.86                             121   -0.09 6  209 293 
 ZAR  HN ES        211 20.98                             121   -0.49 8  209 293 
 ZAR  HZ I         211 26.81         5.0 0.35            122            209 293 
 CHI  HZ EP   1    211  0.54                             117    0.26 6  244 196 
 CHI  HN ES   3    211 30.86                             117    1.69 2  244 196 
 CHI  HZ I         211 35.25         1.3 0.22            118            244 196 
 GUY2CHZ EP   1    211  6.93                             112    0.30 5  301 236 
 GUY2CHN ES   4    211 43.32                             112    2.84 0  301 236 
 GUY2CHZ I         211 49.28         2.0 0.35                           301 236 
 PTGC HZ EP   4    211  4.84                             111   -1.41 0  303 159 
 PTGC HN ES   4    211 37.32                             111   -2.48 0  303 159 
 PTGC HZ I         211 41.92         5.3 0.36            113            303 159 
                                                                                
