 2013  115 0832 29.0 L   6.801 -73.145145.3  RSN  8 0.4 1.9LRSN                1
 GAP=183        0.80       4.0     5.8  6.6  0.7519E+01  0.8971E+01  0.3960E+01E
 Epicentro: LOS SANTOS - SANTANDER                                             3
 ACTION:UPD 13-02-15 09:14 OP:ep   STATUS:               ID:20130115083229 L   I
 2013-01-15-0830-00M.COL___241                                                 6
 STAT SP IPHASW D HRMM SECON CODA AMPLIT PERI AZIMU VELO AIN AR TRES W  DIS CAZ7
 BAR2 SZ EP        832 48.64                             170    0.0610 23.4 190 
 BAR2 SZ ES   1    833  4.12                             170    0.27 7 23.4 190 
 BAR2 SZ I         833  8.99        20.1 0.20            164           23.4 190 
 BRR  HZ EP   1    832 50.38                             153    0.28 7 71.2 298 
 BRR  HN ES   1    833  7.08                             153    0.52 7 71.2 298 
 BRR  HZ I         833 11.35        18.6 0.12            141           71.2 298 
 RUS  HZ EP   1    832 52.73                             144    0.02 7  101 176 
 RUS  HN ES   1    833 11.07                             144   -0.14 7  101 176 
 RUS  HZ I         833 13.12        11.2 0.38            137            101 176 
 PTB  HZ EP   1    832 55.50                             132   -0.44 7  148 259 
 PTB  HN ES   1    833 16.39                             132   -0.56 7  148 259 
 PTB  HZ I         833 19.94        11.8 0.14            121            148 259 
 OCA  HN ES   1    833 18.61                             130   -0.70 7  160 353 
 OCA  HZ I         833 22.79         7.3 0.24            122            160 353 
 ZAR  HZ EP   1    833  1.28                             122   -0.14 6  204 292 
 ZAR  HN ES   1    833 26.92                             122    0.21 6  204 292 
 ZAR  HZ I         833 32.22        15.3 0.60            113            204 292 
 CHI  HZ EP   1    833  7.20                             117    0.51 6  249 195 
 CHI  HN ES   1    833 35.44                             117   -0.64 6  249 195 
 CHI  HZ I         833 39.63         2.9 0.34            110            249 195 
 HEL  HZ EP   1    833  9.94                             115    0.74 6  272 256 
 HEL  HZ I         833 46.96         4.4 0.30            107            272 256 
                                                                                
