 2011  915 0536 22.4 L   6.766 -72.988150.1  RSN  7 0.3 1.7LRSN                1
 GAP=199        0.43       3.3     5.1  4.9  0.4202E+01  0.4501E+01 -0.2459E+00E
 Epicentro: CEPITA - SANTANDER                                                 3
 ACTION:UPD 12-07-13 15:57 OP:ep   STATUS:               ID:20110915053622 L   I
 2011-09-15-0534-21S.COL___169                                                 6
 STAT SP IPHASW D HRMM SECON CODA AMPLIT PERI AZIMU VELO AIN AR TRES W  DIS CAZ7
 BAR2 SZ EP   1    536 42.75                             169    0.08 7 28.8 228 
 BAR2 SZ I         536 43.16         9.8 0.45                          28.8 228 
 BAR2 SZ ES   2    536 58.73                             169    0.25 5 28.8 228 
 GIR2 SZ EP   2    536 42.52                             164   -0.37 5 41.4 327 
 GIR2 SZ ES   2    536 58.90                             164    0.03 5 41.4 327 
 BRR  HZ EP   1    536 44.66                             148   -0.40 7 88.5 295 
 BRR  HZ I         536 45.11        13.7 0.13                          88.5 295 
 BRR  HN ES   2    537  2.69                             148   -0.04 5 88.5 295 
 RUS  HZ EP   1    536 46.53                             146    0.19 7 97.1 186 
 RUS  HN ES   2    537  4.91                             146   -0.10 5 97.1 186 
 RUS  HZ I         537  6.90         3.0 0.42                          97.1 186 
 OCA  SZ EP   2    536 51.70                             129    0.02 5  167 347 
 OCA  SZ ES   2    537 14.47                             129   -0.04 5  167 347 
 OCA  SZ I         537 17.73         5.3 0.37                           167 347 
 ZAR  HZ EP   1    536 57.34                             121    0.39 6  222 291 
 ZAR  HN ES   2    537 24.16                             121    0.26 4  222 291 
 ZAR  HZ I         537 27.23         6.9 0.41                           222 291 
 RREF HE ES   2    537 46.60                             111   -0.52 3  333 232 
 RREF HZ I         537 54.25         1.8 0.72                           333 232 
                                                                                
