 2010 1215 0308  6.5 L   6.793 -73.258137.4  RSN  7 0.3 1.5LRSN                1
 GAP=148        0.66       3.5    18.2  8.5  0.3170E+01  0.4875E+02 -0.3600E+01E
 Epicentro: ZAPATOCA - SANTANDER                                               3
 ACTION:UP  11-01-14 15:25 OP:pat  STATUS:               ID:20101215030806 L   I
 2010-12-15-0303-21S.COL___137                                                 6
 STAT SP IPHASW D HRMM SECON CODA AMPLIT PERI AZIMU VELO SNR AR TRES W  DIS CAZ7
 BTL  SZ EP        3 8 25.42                             174     0.410   14 356 
 BAR2 SZ EP   1    3 8 25.26                             170     0.1 7   24 160 
 BAR2 SZ ES   2    3 8 39.19                             170    -0.5 5   24 160 
 BAR2 SZ I         3 8 41.44         8.9 0.35                            24 160 
 GIR2 SZ EP   2    3 8 25.41                             166     0.2 5   32  13 
 RUS  HZ EP   2    3 8 29.83                             142     0.3 5  101 169 
 RUS  HN ES   2    3 8 47.19                             142    -0.3 5  101 169 
 RUS  HZ I         3 8 48.61         1.6 0.25                           101 169 
 GRA  SZ EP   1    3 8 31.24                             134    -0.2 7  131  23 
 GRA  SZ I         3 8 32.68         6.6 0.21                           131  23 
 OCA  SZ EP        3 8 34.00                             128    -0.2 9  160 358 
 OCA  SZ ES        3 8 55.70                             128     0.0 9  160 358 
 OCA  SZ I         3 9  1.14         6.1 0.25                           160 358 
 PRA  HZ EP   1    3 8 58.54                             105    -0.5 4  385 208 
                                                                                
