 2011  215 0343 46.2 L   6.809 -73.275139.4  RSN  7 0.4 1.6LRSN                1
 GAP=134        0.81       3.2    10.3  9.2 -0.1492E+02  0.3156E+02 -0.4966E+01E
 Epicentro: ZAPATOCA - SANTANDER                                               3
 ACTION:UP  11-03-28 15:08 OP:jfem STATUS:               ID:20110215034346 L   I
 2011-02-15-0342-31S.COL___136                                                 6
 STAT SP IPHASW D HRMM SECON CODA AMPLIT PERI AZIMU VELO SNR AR TRES W  DIS CAZ7
 BAR2 SZ EP        344  5.00                             168    -0.110   26 157 
 BAR2 SZ ES   2    344 19.40                             168    -0.5 5   26 157 
 BAR2 SZ I         344 20.90        11.5 0.29                            26 157 
 GIR2 SZ EP        344  4.98                             166    -0.110   31  17 
 GIR2 SZ ES   3    344 20.45                             166     0.6 2   31  17 
 RUS  HZ EP        344  9.35                             141    -0.210  103 168 
 RUS  HN ES   1    344 27.65                             141    -0.1 7  103 168 
 RUS  HZ I         344 28.77         4.4 0.19                           103 168 
 GRA  SZ EP        344 11.63                             134     0.410  130  24 
 GRA  SZ ES   1    344 31.50                             134     0.7 7  130  24 
 GRA  SZ I         344 32.70         6.6 0.42                           130  24 
 OCA  SZ EP        344 13.68                             128    -0.2 9  158 358 
 OCA  SZ ES   1    344 34.94                             128    -0.5 7  158 358 
 OCA  SZ I         344 40.03         8.4 0.58                           158 358 
 NOR  SN ES   2    344 47.48                             118     0.4 4  224 232 
 CHI  HZ EP   2    344 23.03                             116    -0.3 4  246 192 
 CHI  HE ES        344 52.61                             116     0.4 8  246 192 
 CHI  HZ I         344 56.21         1.3 0.46                           246 192 
                                                                                
