 2012  215 0432 17.3 L   6.756 -73.190154.0  RSN  5 0.3 1.2LRSN                1
 GAP=229        0.52       7.7     7.3  7.2  0.3562E+02  0.6314E+01  0.2145E+01E
 ACTION:UP  12-03-07 16:30 OP:epov STATUS:               ID:20120215043217 L   I
 2012-02-15-0430-00M.COL___188                                                 6
 STAT SP IPHASW D HRMM SECON CODA AMPLIT PERI AZIMU VELO AIN AR TRES W  DIS CAZ7
 BAR2 SZ ES   2    432 53.16                             173   -0.65 5 18.1 177 
 BRR  HZ EP   1    432 39.22                             154    0.00 7 69.5 304 
 BRR  HZ I         432 42.69         5.6 0.53                          69.5 304 
 BRR  HN ES   2    432 56.80                             154    0.46 5 69.5 304 
 RUS  HZ EP   1    432 41.47                             147   -0.06 7 96.2 173 
 RUS  HN ES   2    433  0.99                             147    0.53 5 96.2 173 
 RUS  HZ I         433  1.31         1.2 0.25                          96.2 173 
 PTB  HZ EP   1    432 44.39                             135   -0.02 7  142 260 
 PTB  HN ES   2    433  5.30                             135   -0.29 5  142 260 
 ZAR  HN ES   2    433 15.63                             124    0.11 4  201 294 
                                                                                
