 2010 1015 0702  3.9 L   6.788 -73.124152.4  RSN  4 0.1 1.3LRSN                1
 GAP=225        0.36       6.9    13.1  7.7  0.8014E+02 -0.7257E+02 -0.3635E+02E
 Epicentro: LOS SANTOS - SANTANDER                                             3
 ACTION:UP  11-02-18 11:09 OP:tino STATUS:               ID:20101015070203 L   I
 2010-10-15-0656-45S.COL___128                                                 6
 STAT SP IPHASW D HRMM SECON CODA AMPLIT PERI AZIMU VELO SNR AR TRES W  DIS CAZ7
 BTL  SZ EP        7 2 24.40                             172     0.110   21 312 
 BAR2 SZ EP   1    7 2 24.13                             171    -0.2 7   23 197 
 BAR2 SZ I         7 2 24.41         4.4 0.12                            23 197 
 BRR  HZ EP        7 2 25.93                             153     0.010   74 299 
 BRR  HZ I         7 2 26.13         7.5 0.10                            74 299 
 BRR  HN ES   1    7 2 43.09                             153     0.0 7   74 299 
 RUS  HZ EP   1    7 2 28.25                             146     0.0 7   99 177 
 RUS  HN ES   1    7 2 47.19                             146     0.0 7   99 177 
 RUS  HZ I         7 2 48.58         1.9 0.29                            99 177 
                                                                                
