 2017  615 0420 52.3 L   6.808 -73.182161.4  RSN 10 0.4 1.9LRSN                1
 GAP=138        0.85       4.5     3.8  6.8 -0.3545E+00 -0.8439E+01  0.5263E+01E
 Epicentro: ZAPATOCA - SANTANDER                                               3
 ACTION:UPD 17-09-14 16:52 OP:jn   STATUS:               ID:20170615042052 L   I
 OLDACT:UP  17-06-15 16:43 OP:dani STATUS:               ID:20170615041726     3
 OLDACT:UP  17-06-15 16:43 OP:dani STATUS:               ID:20170615041726     3
 OLDACT:UP  17-06-15 16:43 OP:dani STATUS:               ID:20170615041726     3
 OLDACT:REG 17-06-15 12:58 OP:dani STATUS:               ID:20170615041726     3
 2017-06-15-0418-00M.COL___368                                                 6
 STAT SP IPHASW D HRMM SECON CODA AMPLIT PERI AZIMU VELO AIN AR TRES W  DIS CAZ7
 BRR  HZ EP        421 15.22                             156    0.3010 67.3 300 
 BRR  HE ES        421 32.62                             156    0.0210 67.3 300 
 BRR  HZ I         421 35.94        13.2 0.36            152           67.3 300 
 PTB  HZ EP        421 19.93                             136   -0.29 9  144 258 
 PTB  HN ES        421 41.46                             136   -0.57 9  144 258 
 PTB  HZ I         421 44.07         7.7 0.14            133            144 258 
 TAM  HZ EP        421 21.40                             133   -0.18 9  159 105 
 SPBC HZ EP        421 22.38                             132    0.54 9  161 218 
 SPBC HN ES        421 44.70                             132   -0.21 9  161 218 
 SPBC HZ I         421 47.19        13.1 0.26            131            161 218 
 YPLC HZ EP        421 23.40                             129   -0.09 9  180 150 
 YPLC HN ES   4    421 44.90                             129   -2.95 0  180 150 
 YPLC HZ I         421 48.49         8.6 0.22            130            180 150 
 ZAR  HN ES        421 51.43                             126    0.23 9  200 292 
 ZAR  HZ I         421 57.47         7.7 0.19            124            200 292 
 NOR  HZ EP        421 28.20                             122   -0.46 8  232 234 
 NOR  HN ES        421 57.53                             122    0.48 8  232 234 
 NOR  HZ I         422  0.29         5.1 0.12            120            232 234 
 HEL  HZ EP        421 33.36                             118    0.44 8  268 255 
 HEL  HN ES        422  4.89                             118    0.26 8  268 255 
 HEL  HZ I         422 12.81         4.4 0.53            117            268 255 
 CBOC HN ES   3    422 14.43                             113   -1.85 2  330 252 
 CBOC HZ I         422 28.24         2.0 0.36            112            330 252 
 SJC  HZ EP        421 47.53                             108   -0.51 6  406 327 
                                                                                
