 2017 1015 0737  0.2 L   6.785 -73.131138.3  RSN  6 0.4 1.2LRSN                1
 GAP=238        1.06       6.4     6.2  7.7  0.1714E+02  0.1673E+02  0.1029E+02E
 Epicentro: LOS SANTOS - SANTANDER                                             3
 ACTION:UPD 17-11-07 19:32 OP:rebc STATUS:               ID:20171015072739 L   I
 OLDACT:UPD 17-10-15 13:29 OP:leo  STATUS:               ID:20171015072739 L   3
 2017-10-15-0728-00M.COL___414                                                 6
 STAT SP IPHASW D HRMM SECON CODA AMPLIT PERI AZIMU VELO AIN AR TRES W  DIS CAZ7
 BAR2 EZ EP        737 18.79                             171   -0.0610 22.0 195 
 BAR2 EZ ES        737 33.57                             171    0.1310 22.0 195 
 BAR2 EZ I         737 35.07         3.3 0.36            170           22.0 195 
 BRR  HZ EP        737 20.62                             150   -0.0110 73.4 299 
 BRR  HN ES        737 36.72                             150    0.1210 73.4 299 
 BRR  HZ I         737 38.59         4.2 0.46            150           73.4 299 
 RUS  HZ EP        737 22.98                             143   -0.0610 98.8 177 
 RUS  HN ES        737 41.06                             143    0.1710 98.8 177 
 RUS  HZ I         737 43.20         1.6 0.36            145           98.8 177 
 PTB  HZ EP        737 25.75                             130   -0.89 9  149 260 
 PTB  HN ES        737 46.70                             130   -0.59 9  149 260 
 PTB  HZ I         737 49.82         1.2 0.46            131            149 260 
 ZAR  HZ EP   4    737 33.85                             120    1.51 0  206 292 
 ZAR  HN ES        737 58.01                             120    0.56 8  206 292 
 ZAR  HZ I         738  2.67         2.0 0.46            121            206 292 
 GUY2CHZ EP        737 44.37                             111    0.91 7  302 235 
 GUY2CHN ES        738 17.47                             111    0.23 7  302 235 
 GUY2CHZ I         738 26.74         1.1 0.80                           302 235 
                                                                                
