 2011  815 0337 33.6 L   6.772 -73.139139.1  RSN  4 0.2 1.5LRSN                1
 GAP=183        0.44       3.0     8.0  5.7  0.1314E+02 -0.1791E+02 -0.7038E+01E
 Epicentro: LOS SANTOS - SANTANDER                                             3
 ACTION:UPD 12-07-13 15:52 OP:ep   STATUS:               ID:20110815033733 L   I
 2011-08-15-0320-00M.COL___151                                                 6
 STAT SP IPHASW D HRMM SECON CODA AMPLIT PERI AZIMU VELO AIN AR TRES W  DIS CAZ7
 BAR2 SZ EP   2    337 51.90                             171   -0.43 5 20.4 194 
 BAR2 SZ ES   2    338  6.54                             171   -0.43 5 20.4 194 
 BAR2 SZ I         338  7.87         7.1 0.20                          20.4 194 
 BRR  HZ EP        337 54.13                             151    0.0110 73.4 300 
 BRR  HE ES   1    338 10.15                             151    0.00 7 73.4 300 
 BRR  HZ I         338 15.69         8.6 0.14                          73.4 300 
 RUS  HZ EP   1    337 56.40                             143   -0.03 7 97.4 176 
 RUS  HE ES   1    338 14.53                             143    0.27 7 97.4 176 
 RUS  HZ I         338 16.02         3.0 0.34                          97.4 176 
 OCA  SZ EP   1    338  1.62                             127   -0.05 7  163 353 
 OCA  SZ ES   1    338 23.78                             127    0.19 7  163 353 
 OCA  SZ I         338 26.88         5.0 0.35                           163 353 
                                                                                
