 2014 1215 0310 32.0 L   6.791 -73.181140.5  RSN  8 0.3 1.5LRSN                1
 GAP=133        0.86       3.1     3.5  5.8  0.5511E-01  0.5553E+01 -0.2599E+01E
 Epicentro: LOS SANTOS - SANTANDER                                             3
 ACTION:UPD 15-02-10 17:03 OP:nd   STATUS:               ID:20141215031032 L   I
 OLDACT:REG 14-12-15 12:58 OP:fm   STATUS:               ID:20141215030744     3
 2014-12-15-0307-44M.COL___288                                                 6
 STAT SP IPHASW D HRMM SECON CODA AMPLIT PERI AZIMU VELO AIN AR TRES W  DIS CAZ7
 BAR2 EZ EP        310 51.16                             171    0.1810 22.0 180 
 BAR2 EZ ES        311  5.52                             171   -0.2510 22.0 180 
 BAR2 EZ I         311  7.16         8.1 0.34            172           22.0 180 
 BRR  HZ EP        310 52.72                             152    0.3010 68.3 301 
 BRR  HN ES        311  9.03                             152    0.6810 68.3 301 
 BRR  HZ I         311 13.25         6.4 0.32            151           68.3 301 
 PAM  SZ EP        310 54.12                             149    0.2510 80.7  41 
 PAM  SN ES        311 10.73                             149   -0.2010 80.7  41 
 PAM  SZ I         311 13.15         6.6 0.50            152           80.7  41 
 RUS  HZ EP        310 54.92                             143   -0.2710 99.9 174 
 RUS  HE ES        311 13.16                             143   -0.1210 99.9 174 
 RUS  HZ I         311 14.74         3.5 0.28            147           99.9 174 
 PTB  HZ EP        310 58.33                             132    0.16 9  144 259 
 PTB  HE ES        311 18.24                             132   -0.35 9  144 259 
 PTB  HZ I         311 21.14         3.7 0.62            132            144 259 
 SPBC HN ES        311 21.45                             128   -0.02 9  160 218 
 SPBC HZ I         311 23.78         6.5 0.10            131            160 218 
 ZAR  HZ EP        311  4.03                             122    0.26 9  201 293 
 ZAR  HN ES        311 28.39                             122   -0.16 9  201 293 
 ZAR  HZ I         311 38.48         2.7 0.32            123            201 293 
 SML  HE ES        311 35.83                             116   -0.72 8  243 336 
                                                                                
