 2017  215 0802 47.6 L   6.746 -73.193147.1  RSN  4 0.4 1.0LRSN                1
 GAP=228        1.06       8.4     7.9  8.6  0.3272E+02  0.7148E+01  0.2407E+01E
 Epicentro: VILLANUEVA - SANTANDER                                             3
 ACTION:UPD 17-05-24 15:36 OP:jn   STATUS:               ID:20170215080221 L   I
 OLDACT:UP  17-02-17 17:01 OP:nlst STATUS:               ID:20170215080221 L   3
 OLDACT:REG 17-02-15 13:07 OP:dani STATUS:               ID:20170215075742     3
 2017-02-15-0758-00M.COL___355                                                 6
 STAT SP IPHASW D HRMM SECON CODA AMPLIT PERI AZIMU VELO AIN AR TRES W  DIS CAZ7
 BAR2 EZ EP        8 3  6.99                             173   -0.3310 17.1 176 
 BAR2 EZ ES        8 3 22.00                             173   -0.6710 17.1 176 
 BAR2 EZ I         8 3 22.98         2.7 0.40            166           17.1 176 
 BRR  HZ EP        8 3  8.88                             153    0.0210 69.9 305 
 BRR  HN ES        8 3 26.06                             153    0.6510 69.9 305 
 RUS  HZ EP        8 3 11.41                             146    0.2710 95.2 173 
 RUS  HN ES        8 3 29.87                             146    0.4010 95.2 173 
 RUS  HZ I         8 3 32.29         1.8 0.34            142           95.2 173 
 PTB  HZ EP        8 3 14.03                             134   -0.13 9  142 261 
 PTB  HN ES        8 3 34.59                             134   -0.26 9  142 261 
 PTB  HZ I         8 3 39.72         1.2 0.30            131            142 261 
                                                                                
