 2014 1215 0138 57.9 L   6.748 -73.128144.2  RSN  4 0.5 1.2LRSN                1
 GAP=225        1.22      16.4     6.9 13.8 -0.5797E+02 -0.8594E+01  0.1040E+03E
 Epicentro: LOS SANTOS - SANTANDER                                             3
 ACTION:UPD 15-02-10 17:03 OP:nd   STATUS:               ID:20141215013857 L   I
 OLDACT:REG 14-12-15 12:55 OP:fm   STATUS:               ID:20141215013735     3
 2014-12-15-0137-35M.COL___288                                                 6
 STAT SP IPHASW D HRMM SECON CODA AMPLIT PERI AZIMU VELO AIN AR TRES W  DIS CAZ7
 BRR  HZ EP        139 18.37                             151   -0.7810 75.8 302 
 BRR  HN ES        139 36.24                             151    0.5210 75.8 302 
 BRR  HZ I         139 41.94         7.1 0.50            145           75.8 302 
 PAM  SZ EP        139 20.82                             149    0.6610 80.7  36 
 PAM  SN ES        139 37.10                             149   -0.4110 80.7  36 
 PAM  SZ I         139 38.61         1.8 0.36            148           80.7  36 
 PTB  HZ EP        139 25.01                             131    0.18 9  149 261 
 PTB  HN ES        139 45.68                             131   -0.15 9  149 261 
 PTB  HZ I         139 48.14         1.5 0.14            131            149 261 
 ZAR  HN ES        139 56.18                             121   -0.03 8  208 293 
 ZAR  HZ I         140  2.05         1.8 0.42            121            208 293 
                                                                                
