 2012  615 0052  1.3 L   7.398 -73.186135.7  RSN  5 0.3 1.3LRSN                1
 GAP=106        0.48       3.2     3.4  6.8 -0.5213E+00  0.1294E+02  0.1757E+01E
 Epicentro: EL PLAYON - SANTANDER                                              3
 ACTION:UPD 12-08-06 17:49 OP:ep   STATUS:               ID:20120615005201 L   I
 2012-06-15-0050-00M.COL___200                                                 6
 STAT SP IPHASW D HRMM SECON CODA AMPLIT PERI AZIMU VELO AIN AR TRES W  DIS CAZ7
 PAM  SZ EP   1    052 21.38                             157    0.24 7 54.1  97 
 PAM  SN ES   1    052 36.52                             157   -0.11 7 54.1  97 
 BAR2 SZ ES   1    052 39.62                             145   -0.06 7 89.1 180 
 BAR2 SZ I         052 41.03         4.5 0.32                          89.1 180 
 OCA  HN ES   1    052 40.02                             143   -0.08 7 94.1 351 
 PTB  HZ EP   1    052 29.70                             125    0.16 7  169 236 
 PTB  HN ES   1    052 51.50                             125   -0.08 7  169 236 
 PTB  HZ I         052 53.23         1.2 0.41                           169 236 
 ZAR  HZ EP   2    052 30.34                             123   -0.74 4  185 273 
 ZAR  HN ES   1    052 54.59                             123    0.26 7  185 273 
 ZAR  HZ I         052 57.90         4.6 0.38                           185 273 
                                                                                
