 2015  315 0602 46.9 L   6.710 -73.223148.0  RSN  4 0.3 0.9LRSN                1
 GAP=212        0.69       7.0     7.4  7.5  0.2897E+02  0.1260E+02  0.1195E+02E
 Epicentro: VILLANUEVA - SANTANDER                                             3
 ACTION:UPD 15-04-30 16:26 OP:nd   STATUS:               ID:20150315060246 L   I
 OLDACT:DUP 15-03-15 17:27 OP:spq  STATUS:               ID:20150315055747d    3
 2015-03-15-0557-46M.COL___260                                                 6
 STAT SP IPHASW D HRMM SECON CODA AMPLIT PERI AZIMU VELO AIN AR TRES W  DIS CAZ7
 BAR2 EZ ES   1    6 3 21.47                             174   -0.60 7 13.7 161 
 BAR2 EZ I         6 3 22.18         3.1 0.26            173           13.7 161 
 BRR  HZ EP   1    6 3  8.05                             153   -0.17 7 69.6 309 
 BRR  HE ES        6 3 25.16                             153    0.3210 69.6 309 
 BRR  HZ I         6 3 27.93         2.4 0.48            153           69.6 309 
 RUS  HZ EP   1    6 3 10.57                             147    0.30 7 91.7 170 
 RUS  HN ES   1    6 3 28.71                             147    0.22 7 91.7 170 
 RUS  HZ I         6 3 30.23         0.6 0.56            148           91.7 170 
 PTB  HZ EP   1    6 3 12.88                             135   -0.29 7  138 262 
 PTB  HN ES   1    6 3 33.58                             135   -0.07 7  138 262 
 PTB  HZ I         6 3 36.47         0.9 0.30            134            138 262 
                                                                                
