 2016  615 0516 31.3 L   6.840 -73.120154.0  RSN 21 0.4 2.1LRSN                1
 GAP= 71        0.88       3.0     2.8  4.7 -0.1214E+01  0.1485E+01  0.6952E+01E
 Epicentro: LOS SANTOS - SANTANDER                                             3
 ACTION:UPD 16-07-21 22:19 OP:rebc STATUS:               ID:20160615051631 L   I
 OLDACT:UP  16-06-15 17:55 OP:dani STATUS:               ID:20160615050746     3
 OLDACT:UP  16-06-15 17:52 OP:dani STATUS:               ID:20160615050746     3
 OLDACT:REG 16-06-15 12:57 OP:dani STATUS:               ID:20160615050746     3
 2016-06-15-0507-46M.COL___316                                                 6
 STAT SP IPHASW D HRMM SECON CODA AMPLIT PERI AZIMU VELO AIN AR TRES W  DIS CAZ7
 BAR2 EZ EP        516 51.53                             169   -0.5310 28.3 194 
 BAR2 EZ I         517  9.53        27.3 0.28                          28.3 194 
 BRR  HZ EP        516 53.42                             153    0.0110 71.8 294 
 BRR  HE ISg       517 10.83                             153    0.2010 71.8 294 
 BRR  HE ES        517 10.89                             153    0.2610 71.8 294 
 BRR  HZ I         517 12.49        18.5 0.40                          71.8 294 
 PAM  EZ EP     D  516 54.34                             154    0.2010 72.1  40 
 PAM  EN ES        517 11.70                             154   -0.2310 72.1  40 
 PAM  EZ I         517 13.99        13.4 0.58                          72.1  40 
 RUS  HZ EP        516 55.92                             144   -0.2910  105 178 
 RUS  HE ES   4    517 14.31                             144   -1.30 0  105 178 
 PTB  HZ EP   9    516 58.19                             133   -1.13 0  151 257 
 PTB  HN ES        517 19.64                             132   -0.38 9  151 257 
 PTB  HZ I         517 23.59        15.1 0.16                           151 257 
 TAM  HZ EP     D  516 59.72                             132    0.18 9  154 107 
 TAM  HZ I         517 20.36        12.1 0.38                           154 107 
 TAM  HN ES        517 21.72                             132    0.18 9  154 107 
 OCA  HZ EP        516 59.95                             132    0.02 9  156 352 
 OCA  HE ES        517 22.19                             132   -0.05 9  156 352 
 OCA  HZ I         517 26.54        30.5 0.30                           156 352 
 SPBC HZ EP        517  0.39                             130   -0.58 9  168 219 
 SPBC HN ES   4    517 22.83                             130   -1.25 0  168 219 
 SPBC HZ I         517 24.67        26.7 0.10                           168 219 
 ZAR  HZ EP        517  4.28                             124   -0.16 9  205 291 
 ZAR  HN ES   4    517 28.80                             124   -1.46 0  205 291 
 ZAR  HZ I         517 36.55        15.8 0.30                           205 291 
 NOR  HN ES        517 36.23                             119   -0.51 8  240 234 
 NOR  HZ I         517 39.14        13.2 0.24                           240 234 
 CHI  HZ EP        517  9.56                             118   -0.49 8  254 196 
 CHI  HE ES        517 40.32                             118    0.08 8  254 196 
 CHI  HZ I         517 44.40         4.1 0.24                           254 196 
 ROSC BZ EP        517 11.48                             118    0.99 8  258 211 
 ROSC BN ES   4    517 44.86                             118    3.83 0  258 211 
 ROSC BZ I         517 49.22        15.7 0.45                           258 211 
 HEL  HZ EP        517 12.85                             116    0.44 7  276 255 
 HEL  HN ES   4    517 46.90                             116    2.45 0  276 255 
 HEL  HZ I         517 50.43         8.1 0.34                           276 255 
 GUY2CHZ EP        517 16.58                             113    0.69 7  306 234 
 GUY2CHE ES   4    517 53.34                             113    2.70 0  306 234 
 GUY2CHZ I         517 58.02         9.1 0.58                           306 234 
 PTGC HZ EP   4    517 14.46                             113   -1.46 0  312 159 
 PTGC HZ I         517 37.43         5.7 0.52                           312 159 
 PTGC HN ES   4    517 47.79                             113   -2.91 0  312 159 
 LL6C HZ EP   4    517 17.92                             112    1.01 0  321 357 
 CBOC HZ EP        517 19.56                             111    0.49 7  338 252 
 CBOC HN ES        517 56.31                             111    0.00 7  338 252 
 CBOC HZ I         518  3.01         2.8 0.50                           338 252 
 ARGC HZ EP   9    517 22.90                             110    1.95 0  356 340 
 ARGC HN ES        518  1.27                             109   -0.33 6  356 340 
 ARGC HZ I         518  9.40         2.0 0.30                           356 340 
 PRA  HZ EP        517 25.18                             107   -0.59 6  397 210 
 PRA  HN ES        518  9.04                             107    0.82 6  397 210 
 PRA  HZ I         518 12.20         3.8 0.56                           397 210 
 ORTC HZ EP        517 25.91                             107   -0.25 6  401 216 
 ORTC HN ES   4    518 10.20                             107    1.27 0  401 216 
 ORTC HZ I         518 13.81         3.7 0.20                           401 216 
 SJC  HZ EP   4    517 25.93                             107   -1.00 0  407 326 
 SJC  HE ES   4    518  7.59                             107   -2.71 0  407 326 
 SJC  HZ I         518 13.16         1.5 0.24                           407 326 
 PAL  HZ EP        517 26.93                             107   -0.41 6  410 239 
 PAL  HN ES        518 11.04                             107    0.02 6  410 239 
 PAL  HZ I         518 15.83         3.5 0.54                           410 239 
                                                                                
