 2014  815 0238 49.2 L   6.803 -73.154147.4  RSN 13 0.4 1.7LRSN                1
 GAP=135        1.05       3.5     4.6  7.2 -0.1908E+01  0.7671E+01 -0.1474E+01E
 Epicentro: LOS SANTOS - SANTANDER                                             3
 ACTION:UPD 14-09-15 21:49 OP:nd   STATUS:               ID:20140815023849 L   I
 OLDACT:DUP 14-08-15 16:29 OP:spq  STATUS:               ID:20140815023819d    3
 2014-08-15-0238-18M.COL___269                                                 6
 STAT SP IPHASW D HRMM SECON CODA AMPLIT PERI AZIMU VELO AIN AR TRES W  DIS CAZ7
 BAR2 SZ EP        239  9.03                             171   -0.0210 23.5 188 
 BAR2 SZ ES   1    239 23.90                             171   -0.61 7 23.5 188 
 BAR2 SZ I         239 25.87        17.6 0.32            168           23.5 188 
 BRR  HZ EP        239 10.66                             153    0.1710 70.2 299 
 BRR  HE ES        239 27.70                             153    0.6210 70.2 299 
 BRR  HZ I         239 32.21         9.5 0.16            152           70.2 299 
 PAM  SZ EP        239 11.77                             151    0.1410 77.7  40 
 PAM  SE ES        239 28.79                             151   -0.3210 77.7  40 
 PAM  SZ I         239 30.70        16.8 0.52            155           77.7  40 
 RUS  HZ EP   1    239 12.77                             144   -0.39 7  101 176 
 RUS  HE ES   1    239 31.93                             144    0.10 7  101 176 
 RUS  HZ I         239 33.07         2.5 0.56            144            101 176 
 PTB  HZ EP        239 15.87                             133   -0.37 9  147 259 
 PTB  HN ES        239 36.66                             133   -0.66 9  147 259 
 PTB  HZ I         239 40.04         5.7 0.14            132            147 259 
 OCA  HN ES        239 40.19                             130    0.42 9  160 353 
 OCA  HZ I         239 41.67        12.3 0.20            132            160 353 
 SPBC HN ES        239 40.85                             129    0.74 9  163 219 
 SPBC HZ I         239 46.56         3.4 0.28            129            163 219 
 ZAR  HZ EP        239 22.29                             123    0.62 9  203 292 
 ZAR  HN ES        239 46.51                             123   -0.47 9  203 292 
 ZAR  HZ I         239 52.35         4.9 0.25            123            203 292 
 SML  HZ EP   1    239 25.35                             118   -0.51 6  243 335 
 SML  HN ES   1    239 54.24                             118   -0.21 6  243 335 
 CHI  HN ES   1    239 56.49                             117   -0.01 6  249 195 
 CHI  HZ I         239 59.95         2.2 0.32            118            249 195 
 GUY2CHZ EP   4    239 36.95                             113    4.11 0  301 235 
 GUY2CHN ES   4    240 11.33                             113    4.47 0  301 235 
 GUY2CHZ I         240 17.01         1.9 0.31                           301 235 
 PRA  HN ES   4    240 26.73                             107    2.18 0  392 209 
 PRA  HZ I         240 32.77         2.4 0.40            107            392 209 
 SJC  HZ EP   4    239 43.42                             106   -1.32 0  408 327 
 SJC  HE ES   4    240 25.99                             106   -2.06 0  408 327 
 SJC  HZ I         240 28.12         2.3 0.50            107            408 327 
                                                                                
