 2013  915 0951 40.6 L   6.761 -73.162141.8  RSN 10 0.5 1.9LRSN                1
 GAP=181        1.12       3.2     5.9  7.7 -0.9973E+00  0.3773E+01 -0.1801E+01E
 Epicentro: LOS SANTOS - SANTANDER                                             3
 ACTION:UPD 13-10-22 09:22 OP:ep   STATUS:               ID:20130915095140 L   I
 OLDACT:REG 13-09-15 10:32 OP:carl STATUS:               ID:20130915094959     3
 2013-09-15-0949-59M.COL___269                                                 6
 STAT SP IPHASW D HRMM SECON CODA AMPLIT PERI AZIMU VELO AIN AR TRES W  DIS CAZ7
 BAR2 SZ EP        951 59.51                             172   -0.1110 18.8 187 
 BAR2 SZ ES   1    952 14.09                             172   -0.40 7 18.8 187 
 BAR2 SZ I         952 15.58        13.4 0.20            170           18.8 187 
 BRR  HZ EP        952  1.42                             152    0.1110 71.8 302 
 BRR  HN ES   1    952 18.39                             152    0.89 7 71.8 302 
 BRR  HN I         952 22.39        28.4 0.24            149           71.8 302 
 RUS  HZ EP        952  3.48                             144   -0.1410 96.4 175 
 RUS  HN ES   1    952 21.87                             144    0.26 7 96.4 175 
 RUS  HZ I         952 22.82         4.6 0.22            146           96.4 175 
 PTB  HZ EP        952  6.66                             132   -0.31 9  145 260 
 PTB  HN ES   1    952 26.92                             132   -0.64 7  145 260 
 PTB  HZ I         952 31.00         7.2 0.36            130            145 260 
 SPBC HZ EP        952  8.35                             129    0.02 9  159 219 
 SPBC HN ES        952 29.48                             129   -0.50 9  159 219 
 SPBC HZ I         952 35.42        10.4 0.16            129            159 219 
 OCA  HZ EP        952 10.08                             128    1.13 9  164 354 
 OCA  HN ES        952 30.94                             128   -0.15 9  164 354 
 OCA  HZ I         952 33.81         6.1 0.18            129            164 354 
 ZAR  HZ EP        952 12.73                             121   -0.01 9  204 293 
 ZAR  HN ES   1    952 38.13                             121    0.28 6  204 293 
 ZAR  HZ I         952 43.56        11.7 0.58            121            204 293 
 NOR  HE ES        952 43.78                             118    0.79 8  231 235 
 NOR  HE I         952 47.78        16.3 0.16            118            231 235 
 CHI  HZ EP        952 17.22                             117   -0.31 8  244 195 
 CHI  HN ES   1    952 46.73                             117    0.36 6  244 195 
 CHI  HZ I         952 55.12         1.9 0.64            118            244 195 
 SML  HZ EP   1    952 16.81                             116   -0.50 6  247 336 
 SML  HE ES        952 45.20                             116   -0.77 8  247 336 
 SML  HZ I         952 53.63         7.2 0.20            117            247 336 
                                                                                
