 2017  915 0326 45.2 L   6.863 -73.278120.1  RSN  5 0.3 1.2LRSN                1
 GAP=111        0.70       3.7     4.3  5.4 -0.6881E+01  0.3759E+00  0.5251E+01E
 Epicentro: BETULIA - SANTANDER                                                3
 ACTION:UPD 17-10-05 19:12 OP:rebc STATUS:               ID:20170915032645 L   I
 OLDACT:UP  17-09-15 16:52 OP:mg   STATUS:               ID:20170915031737     3
 OLDACT:REG 17-09-15 12:56 OP:mg   STATUS:               ID:20170915031737     3
 2017-09-15-0318-00M.COL___462                                                 6
 STAT SP IPHASW D HRMM SECON CODA AMPLIT PERI AZIMU VELO AIN AR TRES W  DIS CAZ7
 BAR2 EZ IP     C  327  1.89                             164   -0.0810 31.8 161 
 BAR2 EZ ES        327 15.03                             164   -0.0410 31.8 161 
 BAR2 EZ I         327 16.04        10.8 0.28            161           31.8 161 
 BRR  HZ EP        327  2.20                             154   -0.4410 55.0 299 
 BRR  HN ES        327 16.30                             154    0.0510 55.0 299 
 BRR  HZ I         327 17.55         3.1 0.17            156           55.0 299 
 PAM  EZ EP        327  5.49                             144    0.3710 82.8  50 
 PAM  EZ ES        327 20.69                             144    0.0210 82.8  50 
 RUS  HZ EP   1    327  7.14                             135   -0.11 7  110 169 
 RUS  HN ES   2    327 23.95                             135   -0.52 5  110 169 
 RUS  HZ I         327 27.78         1.2 0.14            134            110 169 
 SPBC HZ EP        327 11.39                             123   -0.15 9  160 213 
 SPBC HE ES        327 32.60                             123    0.51 9  160 213 
 SPBC HZ I         327 37.24         2.6 0.13            123            160 213 
                                                                                
