 2013  315 0443 33.3 L   6.762 -73.222150.4  RSN  5 0.3 1.7LRSN                1
 GAP=222        0.66       6.3     5.1  7.5  0.1494E+02 -0.2301E+01  0.7029E+01E
 Epicentro: ZAPATOCA - SANTANDER                                               3
 ACTION:UPD 13-04-09 14:02 OP:ep   STATUS:               ID:20130315044333 L   I
 2013-03-15-0440-00M.COL___244                                                 6
 STAT SP IPHASW D HRMM SECON CODA AMPLIT PERI AZIMU VELO AIN AR TRES W  DIS CAZ7
 BAR2 SZ EP   1    443 53.22                             172   -0.24 7 19.3 167 
 BAR2 SZ I         444  9.33        10.5 0.26            171           19.3 167 
 BRR  HZ EP        443 54.96                             155    0.2310 66.2 305 
 BRR  HN ES        444 11.54                             155    0.1310 66.2 305 
 BRR  HN I         444 12.62        16.8 0.24            153           66.2 305 
 RUS  HZ EP   1    443 57.15                             146   -0.18 7 97.4 171 
 RUS  HN ES   2    444 15.73                             146   -0.31 5 97.4 171 
 RUS  HN I         444 16.51         4.8 0.26            143           97.4 171 
 PTB  HZ EP        444  0.19                             135    0.29 9  139 260 
 PTB  HN ES        444 20.70                             135    0.09 9  139 260 
 PTB  HN I         444 26.26         4.2 0.54            133            139 260 
 ZAR  HN ES        444 29.99                             124   -0.54 9  198 294 
 ZAR  HN I         444 36.46         6.6 0.30            121            198 294 
                                                                                
