 2017  415 0831 44.6 L   6.827 -73.147145.9  RSN  7 0.3 1.7LRSN                1
 GAP=135        0.65       2.8     3.0  4.1 -0.5967E+00  0.2449E+01 -0.8581E+00E
 Epicentro: LOS SANTOS - SANTANDER                                             3
 ACTION:UPD 17-05-30 21:12 OP:jn   STATUS:               ID:20170415083144 L   I
 OLDACT:UP  17-04-15 18:43 OP:edw  STATUS:               ID:20170415082652d    3
 OLDACT:DUP 17-04-15 18:39 OP:edw  STATUS:               ID:20170415082652d    3
 OLDACT:UP  17-04-15 18:38 OP:edw  STATUS:               ID:20170415082651     3
 OLDACT:UP  17-04-15 18:36 OP:edw  STATUS:               ID:20170415082651     3
 OLDACT:REG 17-04-15 13:21 OP:edw  STATUS:               ID:20170415082651     3
 2017-04-15-0828-00M.COL___368                                                 6
 STAT SP IPHASW D HRMM SECON CODA AMPLIT PERI AZIMU VELO AIN AR TRES W  DIS CAZ7
 BAR2 EZ EP        832  4.24                             169   -0.1010 26.3 189 
 BAR2 EZ ES        832 19.48                             169   -0.2310 26.3 189 
 BAR2 EZ I         832 22.34        12.1 0.68            174           26.3 189 
 BRR  HZ EP     C  832  5.84                             153    0.1310 69.7 296 
 BRR  HN ES        832 22.25                             153    0.1010 69.7 296 
 BRR  HZ I         832 26.62         8.9 0.30            152           69.7 296 
 PAM  EZ EP        832  6.85                             152    0.1210 75.1  41 
 PAM  EN ES        832 24.15                             152    0.1910 75.1  41 
 PAM  EZ I         832 29.61         7.2 0.56            152           75.1  41 
 RUS  HZ EP   4    832  7.34                             143   -1.27 0  104 176 
 RUS  HN ES        832 27.01                             143   -0.3110  104 176 
 PTB  HZ EP   9    832 11.23                             132   -0.43 0  148 258 
 PTB  HN ES        832 32.34                             133    0.03 9  148 258 
 PTB  HZ I         832 35.29         7.2 0.18            134            148 258 
 SPBC HZ EP        832 13.23                             129   -0.13 9  165 218 
 SPBC HN ES        832 36.38                             129    0.62 9  165 218 
 ZAR  HZ EP        832 16.83                             123   -0.13 9  203 291 
 ZAR  HN ES        832 41.89                             123   -0.29 9  203 291 
 ZAR  HZ I         832 48.38         6.4 0.26            124            203 291 
 NOR  HN ES   4    832 50.36                             118    1.80 0  236 234 
                                                                                
