 2016 1015 0721 24.0 L   6.798 -73.149143.9  RSN  7 0.4 1.4LRSN                1
 GAP=136        1.10       4.7     4.7  7.5 -0.1086E+01  0.7198E+01  0.3164E+01E
 Epicentro: LOS SANTOS - SANTANDER                                             3
 ACTION:UPD 16-11-09 19:19 OP:rebc STATUS:               ID:20161015072124 L   I
 OLDACT:REG 16-10-15 13:07 OP:ar   STATUS:               ID:20161015071741     3
 2016-10-15-0718-00M.COL___365                                                 6
 STAT SP IPHASW D HRMM SECON CODA AMPLIT PERI AZIMU VELO AIN AR TRES W  DIS CAZ7
 BAR2 EZ EP        721 43.27                             170   -0.1810 23.0 189 
 BAR2 EZ ES        721 58.98                             170    0.4010 23.0 189 
 BAR2 EZ I         722  1.49         6.1 0.56            169           23.0 189 
 BRR  HZ EP        721 45.41                             152    0.4310 71.0 299 
 BRR  HE ES        722  1.79                             152    0.4810 71.0 299 
 PAM  EZ EP        721 46.28                             150    0.1910 77.8  40 
 PAM  EE ES        722  2.86                             150   -0.4310 77.8  40 
 PAM  EZ I         722  5.31         4.9 0.52            155           77.8  40 
 RUS  HZ EP        721 47.69                             143    0.0910  100 176 
 RUS  HN ES        722  5.40                             143   -0.5810  100 176 
 RUS  HZ I         722  8.02         3.1 0.30            145            100 176 
 PTB  HZ EP        721 50.26                             132   -0.56 9  147 259 
 PTB  HN ES        722 11.11                             132   -0.60 9  147 259 
 PTB  HZ I         722 15.36         2.1 0.48            132            147 259 
 SPBC HZ EP        721 52.83                             129    0.47 9  163 219 
 SPBC HN ES        722 14.91                             129    0.46 9  163 219 
 SPBC HZ I         722 21.75         4.4 0.28            129            163 219 
 ZAR  HE ES        722 21.32                             122   -0.21 9  204 292 
 ZAR  HZ I         722 28.57         2.3 0.28            123            204 292 
                                                                                
