 2013 1215 0448 16.7 L   6.760 -73.189147.5  RSN  7 0.3 1.4LRSN                1
 GAP=133        0.78       4.2     5.3  7.6  0.8234E+01 -0.5880E+01 -0.6021E+01E
 Epicentro: VILLANUEVA - SANTANDER                                             3
 ACTION:UPD 14-01-13 10:18 OP:ep   STATUS:               ID:20131215044816 L   I
 OLDACT:DUP 13-12-15 09:02 OP:jn   STATUS:               ID:20131215044001d    3
 OLDACT:REG 13-12-15 07:17 OP:jn   STATUS:               ID:20131215044000     3
 2013-12-15-0440-00M.COL___285                                                 6
 STAT SP IPHASW D HRMM SECON CODA AMPLIT PERI AZIMU VELO AIN AR TRES W  DIS CAZ7
 BAR2 SZ ES   1    448 51.54                             173   -0.29 7 18.5 178 
 BAR2 SZ I         448 52.96        11.1 0.18            171           18.5 178 
 BRR  HZ EP        448 38.15                             153    0.2510 69.4 304 
 BRR  HN ES        448 54.99                             153    0.5210 69.4 304 
 BRR  HZ I         448 56.15         4.2 0.12            152           69.4 304 
 PAM  SZ EP   1    448 39.36                             149   -0.11 7 83.9  40 
 RUS  HZ EP        448 40.44                             145    0.1310 96.6 173 
 RUS  HN ES        448 58.66                             145   -0.0910 96.6 173 
 RUS  HZ I         449  0.06         2.4 0.24            145           96.6 173 
 PTB  HN ES   1    449  3.46                             134   -0.58 7  142 260 
 PTB  HZ I         449  7.59         2.7 0.12            133            142 260 
 OCA  HE ES   1    449  7.41                             129   -0.55 7  164 355 
 ZAR  HN ES   1    449 14.01                             123   -0.12 6  201 294 
                                                                                
