 2011  515 0809 22.0 L   6.790 -73.072146.0  RSN  6 0.1 1.2LRSN                1
 GAP=164        0.34       2.7     6.3  8.2 -0.1184E+01 -0.4047E+02  0.6428E+00E
 Epicentro: LOS SANTOS - SANTANDER                                             3
 ACTION:UP  11-06-29 08:53 OP:tino STATUS:               ID:20110515080922 L   I
 2011-05-15-0808-05S.COL___141                                                 6
 STAT SP IPHASW D HRMM SECON CODA AMPLIT PERI AZIMU VELO SNR AR TRES W  DIS CAZ7
 BTL  SZ EP        8 9 41.91                             170     0.210   26 303 
 GIR2 SZ EP   3    8 9 41.83                             166     0.0 2   35 337 
 BRR  HZ EP        8 9 43.57                             151    -0.110   79 296 
 BRR  HN ES   1    810  0.57                             151     0.0 7   79 296 
 BRR  HZ I         810  3.23         3.8 0.12                            79 296 
 RUS  HZ EP        8 9 45.71                             145     0.010   99 181 
 RUS  HN ES   3    810  3.90                             145    -0.3 2   99 181 
 RUS  HZ I         810  5.53         2.2 0.32                            99 181 
 BRI  SZ EP        8 9 45.80                             142     0.010  107  16 
 BRI  SZ I         8 9 49.30         3.1 0.76                           107  16 
 GRA  SZ EP        8 9 47.20                             138     0.010  125  14 
 GRA  SZ I         8 9 48.62         2.6 0.20                           125  14 
                                                                                
