 2013  215 0420 37.1 L   6.783 -73.168153.6  RSN  6 0.3 1.6LRSN                1
 GAP=135        0.70       3.9     4.2  7.8 -0.1771E+01  0.5931E+01 -0.6977E+01E
 Epicentro: LOS SANTOS - SANTANDER                                             3
 ACTION:UPD 13-03-12 09:33 OP:ep   STATUS:               ID:20130215042037 L   I
 2013-02-15-0420-00M.COL___241                                                 6
 STAT SP IPHASW D HRMM SECON CODA AMPLIT PERI AZIMU VELO AIN AR TRES W  DIS CAZ7
 BAR2 SZ EP   2    420 57.67                             172   -0.01 5 21.2 184 
 BRR  HZ EP   1    420 59.48                             154    0.39 7 70.0 301 
 PAM  SZ EP        421  0.35                             151   -0.0310 80.4  40 
 PAM  SN ES   1    421 18.19                             151   -0.31 7 80.4  40 
 PAM  SN I         421 18.78         4.6 0.16            154           80.4  40 
 RUS  HZ EP        421  1.43                             146   -0.1310 98.9 175 
 RUS  HN ES   1    421 21.05                             146    0.44 7 98.9 175 
 RUS  HN I         421 21.62         2.3 0.16            150           98.9 175 
 PTB  HZ EP        421  4.66                             134    0.14 9  145 259 
 PTB  HN ES        421 25.52                             134   -0.36 9  145 259 
 PTB  HN I         421 30.95         6.9 0.38            134            145 259 
 SML  HZ EP   1    421 13.82                             119   -0.48 6  244 336 
 SML  HN ES   1    421 43.93                             119    0.66 6  244 336 
 SML  HN I         421 49.48         6.7 0.10            120            244 336 
                                                                                
