 2016  315 0843  8.7 L   6.796 -73.175144.4  RSN 15 0.4 2.0LRSN                1
 GAP=133        0.82       2.4     3.0  5.4 -0.1515E+01  0.7160E+01 -0.1397E+01E
 Epicentro: LOS SANTOS - SANTANDER                                             3
 ACTION:UPD 16-05-13 21:24 OP:cam  STATUS:               ID:20160315084308 L   I
 OLDACT:DUP 16-03-15 17:28 OP:dnl  STATUS:               ID:20160315083751d    3
 OLDACT:REG 16-03-15 17:19 OP:dnl  STATUS:               ID:20160315083750     3
 2016-03-15-0837-50M.COL___297                                                 6
 STAT SP IPHASW D HRMM SECON CODA AMPLIT PERI AZIMU VELO AIN AR TRES W  DIS CAZ7
 BAR2 EZ EP        843 28.32                             171    0.1710 22.5 182 
 BAR2 EZ ES        843 43.04                             171   -0.2910 22.5 182 
 BAR2 EZ I         843 44.52        27.2 0.34            171           22.5 182 
 PAM  EZ IP     C  843 31.10                             150    0.1810 79.8  41 
 PAM  EN ES        843 48.48                             150    0.2210 79.8  41 
 PAM  EZ I         843 50.57        17.9 0.43            143           79.8  41 
 RUS  HZ EP        843 32.57                             143    0.2610  100 174 
 RUS  HE ES        843 50.54                             143   -0.1810  100 174 
 RUS  HZ I         843 51.94         7.3 0.54            139            100 174 
 PTB  HZ EP        843 35.08                             132   -0.18 9  144 259 
 PTB  HN ES        843 55.51                             132   -0.46 9  144 259 
 PTB  HZ I         844  1.76        11.6 0.17            125            144 259 
 OCA  HZ EP        843 36.38                             129   -0.54 9  160 354 
 OCA  HN ES        843 59.05                             129    0.13 9  160 354 
 OCA  HZ I         844  3.70        22.4 0.22            121            160 354 
 SPBC HZ EP   2    843 37.21                             129    0.34 5  161 218 
 SPBC HN ES        843 58.66                             129   -0.18 9  161 218 
 SPBC HZ I         844  4.66        10.8 0.16            122            161 218 
 ZAR  HZ EP        843 40.84                             122    0.08 9  201 293 
 ZAR  HN ES        844  6.42                             122    0.65 9  201 293 
 ZAR  HZ I         844 12.95        15.6 0.24            115            201 293 
 NOR  HN ES        844 12.30                             118    0.70 8  232 234 
 NOR  HZ I         844 20.32         6.6 0.12            112            232 234 
 CHI  HZ EP   2    843 45.72                             117   -0.47 4  247 194 
 CHI  HE ES        844 15.42                             117   -0.01 8  247 194 
 CHI  HZ I         844 19.36         4.2 0.40            111            247 194 
 URE  HZ EP   2    843 48.67                             113   -0.71 4  281 292 
 URE  HN ES        844 20.71                             113   -0.40 7  281 292 
 URE  HZ I         844 29.74         8.5 0.20            107            281 292 
 GUY2CHZ EP   4    843 53.39                             112    1.47 0  298 234 
 GUY2CHN ES        844 26.16                             112    0.54 7  298 234 
 GUY2CHZ I         844 32.53         3.4 0.30                           298 234 
 LL6C HZ EP   4    843 52.92                             110   -1.46 0  325 358 
 LL6C HZ I         844 18.08         7.0 0.78            104            325 358 
 LL6C HN ES   4    844 27.73                             110   -2.28 0  325 358 
 CBOC HZ EP   2    843 55.07                             110   -0.11 3  330 252 
 CBOC HN ES        844 30.93                             110   -0.51 7  330 252 
 CBOC HZ I         844 38.41         1.3 0.24            104            330 252 
 MON  HZ EP   4    843 52.15                             108   -5.23 0  351 309 
 MON  HN ES   4    844 33.92                             108   -1.44 0  351 309 
 MON  HZ I         844 48.97         3.7 0.58            103            351 309 
 SDV  BZ EP   4    843 57.92                             108   -1.10 0  363  50 
 SDV  BE ES   4    844 32.86                             108   -5.40 0  363  50 
 MACC HZ EP   4    844 15.14                             101   -2.13 0  520 188 
 MACC HE ES   4    845  6.45                             101   -4.30 0  520 188 
 MACC HZ I         845 30.69         2.5 0.56             97            520 188 
                                                                                
