 2017  115 0227  8.7 L   6.796 -73.102138.7  RSN  9 0.3 1.4LRSN                1
 GAP=142        0.71       3.2     3.3  4.9 -0.2212E-01  0.4132E+01  0.2324E+01E
 Epicentro: LOS SANTOS - SANTANDER                                             3
 ACTION:UPD 17-05-22 15:59 OP:jn   STATUS:               ID:20170115022708 L   I
 OLDACT:UP  17-01-15 13:51 OP:e    STATUS:               ID:20170115021746     3
 OLDACT:UP  17-01-15 13:51 OP:e    STATUS:               ID:20170115021746     3
 OLDACT:UP  17-01-15 13:50 OP:e    STATUS:               ID:20170115021746     3
 OLDACT:UP  17-01-15 13:50 OP:e    STATUS:               ID:20170115021746     3
 OLDACT:UP  17-01-15 13:49 OP:e    STATUS:               ID:20170115021746     3
 OLDACT:UP  17-01-15 13:49 OP:e    STATUS:               ID:20170115021746     3
 OLDACT:REG 17-01-15 12:25 OP:and  STATUS:               ID:20170115021746     3
 2017-01-15-0218-00M.COL___332                                                 6
 STAT SP IPHASW D HRMM SECON CODA AMPLIT PERI AZIMU VELO AIN AR TRES W  DIS CAZ7
 BAR2 EZ EP        227 27.07                             170   -0.3910 24.2 202 
 BAR2 EZ ES        227 42.38                             170    0.2610 24.2 202 
 BAR2 EZ I         227 42.99         4.1 0.15            168           24.2 202 
 PAM  EZ EP        227 30.08                             150    0.1110 74.8  36 
 PAM  EN ES        227 46.28                             150   -0.3010 74.8  36 
 BRR  HZ EP        227 29.15                             150   -0.1710 75.7 297 
 BRR  HN ES        227 45.54                             150    0.1110 75.7 297 
 BRR  HZ I         227 50.87         5.5 0.23            146           75.7 297 
 RUS  HZ EP        227 31.93                             142    0.2610 99.9 179 
 RUS  HN ES        227 49.74                             142    0.1310 99.9 179 
 RUS  HZ I         227 50.66         3.4 0.30            145           99.9 179 
 PTB  HZ EP   9    227 34.30                             129   -1.19 0  152 259 
 PTB  HN ES   2    227 54.99                             130   -0.24 5  152 259 
 PTB  HZ I         227 57.18         3.0 0.14            128            152 259 
 ZAR  HN ES        228  6.75                             120    0.27 8  209 292 
 ZAR  HZ I         228 14.54         3.3 0.16            120            209 292 
 NOR  HN ES        228 11.64                             117   -0.62 8  238 235 
 NOR  HZ I         228 15.17         2.2 0.18            117            238 235 
 GUY2CHZ EP        227 52.73                             111    0.36 7  305 235 
 GUY2CHN ES   4    228 27.95                             111    1.49 0  305 235 
 GUY2CHZ I         228 32.68         1.5 0.40                           305 235 
 SJC  HZ EP   9    228  2.03                             104   -2.33 0  412 326 
 SJC  HN ES        228 45.80                             105    0.33 6  412 326 
                                                                                
