 2016  715 0531 54.9 L   7.208 -73.341106.1  RSN  6 0.4 1.5LRSN                1
 GAP=245        0.89       5.2     5.2  6.3  0.1320E+02  0.2587E+01 -0.1846E+01E
 Epicentro: LEBRIJA - SANTANDER                                                3
 ACTION:UPD 17-03-29 16:51 OP:lp   STATUS:               ID:20160715053154 L   I
 OLDACT:REG 16-07-15 13:30 OP:lv   STATUS:               ID:20160715052759     3
 2016-07-15-0527-59S.COL___328                                                 6
 STAT SP IPHASW D HRMM SECON CODA AMPLIT PERI AZIMU VELO AIN AR TRES W  DIS CAZ7
 BRR  HZ EP        532  9.93                             157   -0.2110 42.4 255 
 BRR  HN ES        532 22.33                             157    0.2810 42.4 255 
 BRR  HZ I         532 22.65         8.0 0.10            158           42.4 255 
 BAR2 EZ EP        532 12.00                             144   -0.1810 70.3 166 
 BAR2 EZ ES        532 25.77                             144    0.0910 70.3 166 
 BAR2 EZ I         532 27.57        11.3 0.24            146           70.3 166 
 PTB  HZ EP   9    532 17.00                             122   -1.53 0  144 239 
 PTB  HN ES        532 34.89                                   -0.56 9  144 239 
 PTB  HZ I         532 36.22         4.5 0.12            123            144 239 
 RUS  HZ EP   4    532 17.75                             121   -1.87 0  148 169 
 RUS  HN ES   2    532 37.85                             121   -1.06 5  148 169 
 ZAR  HZ EP        532 21.41                             117    0.06 9  170 281 
 ZAR  HN ES        532 41.71                             117   -0.29 9  170 281 
 ZAR  HZ I         532 44.94         5.8 0.10            118            170 281 
 SPBC HZ EP        532 24.27                             114    0.64 9  190 205 
 SPBC HN ES        532 46.00                             114   -0.06 9  190 205 
                                                                                
