 2011  715 0241 23.3 L   6.786 -73.083148.3  RSN  5 0.3 1.5LRSN                1
 GAP=166        0.56       3.3     7.1  5.5 -0.1132E+01 -0.9893E+01 -0.6423E+00E
 Epicentro: LOS SANTOS - SANTANDER                                             3
 ACTION:UPD 12-07-25 14:00 OP:epov STATUS:               ID:20110715024000 L   I
 2011-07-15-0240-00M.COL___133                                                 6
 STAT SP IPHASW D HRMM SECON CODA AMPLIT PERI AZIMU VELO AIN AR TRES W  DIS CAZ7
 BAR2 SZ EP   1    241 43.06                             170   -0.22 7 24.1 207 
 BAR2 SZ ES   1    241 58.64                             170   -0.21 7 24.1 207 
 BAR2 SZ I         242  0.30         9.4 0.34                          24.1 207 
 GIR2 SZ EP   1    241 43.44                             166    0.04 7 34.6 339 
 GIR2 SZ ES   1    241 58.62                             166   -0.43 7 34.6 339 
 BRR  HZ EP   1    241 45.08                             151   -0.07 7 78.1 297 
 BRR  HZ I         241 45.39         8.1 0.14                          78.1 297 
 BRR  HN ES   1    242  2.46                             151    0.29 7 78.1 297 
 RUS  HZ EP   1    241 47.31                             145    0.10 7 98.8 180 
 RUS  HN ES   1    242  6.13                             145    0.30 7 98.8 180 
 RUS  HZ I         242  7.59         3.4 0.30                          98.8 180 
 GRA  SZ EP   1    241 48.56                             138   -0.21 7  125  14 
 GRA  SZ ES   1    242  9.03                             138    0.43 7  125  14 
 GRA  SZ I         242  9.57         2.6 0.33                           125  14 
                                                                                
