 2014  715 0012 51.7 L   6.764 -73.097148.3  RSN  7 0.5 1.7LRSN                1
 GAP=215        1.17       5.7     8.6 10.0 -0.8978E+01  0.1182E+02 -0.1365E+02E
 Epicentro: LOS SANTOS - SANTANDER                                             3
 ACTION:UPD 15-03-16 20:44 OP:nd   STATUS:               ID:20140715001251 L   I
 OLDACT:DUP 14-07-15 13:36 OP:FM   STATUS:               ID:20140715000813d    3
 2014-07-15-0008-12M.COL___259                                                 6
 STAT SP IPHASW D HRMM SECON CODA AMPLIT PERI AZIMU VELO AIN AR TRES W  DIS CAZ7
 BAR2 SZ EP   1    013 11.63                             172    0.05 7 21.2 206 
 BAR2 SZ ES   1    013 26.60                             172   -0.50 7 21.2 206 
 BAR2 SZ I         013 28.15         8.2 0.30            169           21.2 206 
 BRR  HZ EP   1    013 14.06                             151    0.57 7 77.8 299 
 BRR  HN ES        013 31.31                             151    0.8110 77.8 299 
 BRR  HZ I         013 34.66         7.2 0.16            146           77.8 299 
 PTB  HZ EP   1    013 18.76                             132   -0.51 7  152 261 
 PTB  HN ES        013 39.89                             132   -0.91 9  152 261 
 PTB  HZ I         013 45.73         2.9 0.10            131            152 261 
 SPBC HN ES        013 42.96                             130    0.13 9  164 221 
 SPBC HZ I         013 45.29         4.8 0.21            131            164 221 
 OCA  HN ES   1    013 42.85                             129   -0.36 7  165 351 
 OCA  HZ I         013 49.28         6.3 0.46            129            165 351 
 ZAR  HZ EP        013 25.50                             122    0.54 8  211 293 
 ZAR  HN ES        013 51.11                             122    0.19 8  211 293 
 ZAR  HZ I         014  0.04         4.8 0.38            121            211 293 
 SML  HZ EP   1    013 28.77                             117   -0.32 6  250 335 
 SML  HN ES   1    013 57.67                             117   -0.59 6  250 335 
 SML  HZ I         014  3.16         8.0 0.10            117            250 335 
                                                                                
