 2015 1015 0400  8.1 L   6.794 -73.136144.9  RSN 11 0.4 1.5LRSN                1
 GAP=138        1.01       2.6     4.3  5.5 -0.1609E+01  0.7857E+01  0.2226E+00E
 Epicentro: LOS SANTOS - SANTANDER                                             3
 ACTION:UPD 15-12-22 20:40 OP:cam  STATUS:               ID:20151015040008 L   I
 OLDACT:DUP 15-10-15 17:15 OP:ak   STATUS:               ID:20151015035746d    3
 OLDACT:REG 15-10-15 14:18 OP:ak   STATUS:               ID:20151015035745     3
 2015-10-15-0357-45M.COL___340                                                 6
 STAT SP IPHASW D HRMM SECON CODA AMPLIT PERI AZIMU VELO AIN AR TRES W  DIS CAZ7
 BAR2 EZ EP        4 0 27.38                             171   -0.2010 22.9 193 
 BAR2 EZ ES        4 0 42.74                             171   -0.0710 22.9 193 
 BAR2 EZ I         4 0 43.91         8.4 0.24            171           22.9 193 
 BRR  HZ EP        4 0 29.62                             152    0.4310 72.5 299 
 BRR  HN ES        4 0 46.43                             152    0.7610 72.5 299 
 BRR  HZ I         4 0 49.87         4.9 0.23            152           72.5 299 
 PAM  EZ EP        4 0 30.16                             151   -0.0110 77.2  39 
 PAM  EN ES        4 0 47.57                             151    0.1410 77.2  39 
 PAM  EZ I         4 0 50.97         3.5 0.07            154           77.2  39 
 RUS  HZ EP        4 0 31.13                             144   -0.5410 99.8 177 
 RUS  HN ES        4 0 49.86                             144   -0.2310 99.8 177 
 RUS  HZ I         4 0 53.42         2.1 0.36            147           99.8 177 
 OCA  HZ EP   1    4 0 37.17                             129    0.79 7  161 353 
 OCA  HN ES        4 0 58.27                             129   -0.20 9  161 353 
 OCA  HZ I         4 1  6.14         8.2 0.40            131            161 353 
 SPBC HZ EP   4    4 0 30.41                             129   -6.10 0  163 219 
 SPBC HN ES        4 0 58.58                             129   -0.12 9  163 219 
 SPBC HZ I         4 1  4.26         6.3 0.18            131            163 219 
 ZAR  HZ EP        4 0 40.08                             122   -0.50 8  205 292 
 ZAR  HN ES        4 1  5.39                             122   -0.55 8  205 292 
 NOR  HZ EP        4 0 43.50                             118   -0.29 8  235 235 
 NOR  HN ES        4 1 11.96                             118    0.30 8  235 235 
 NOR  HZ I         4 1 16.70         2.4 0.27            120            235 235 
 SML  HZ EP        4 0 45.08                             117    0.33 8  245 335 
 SML  HE ES        4 1 12.59                             117   -0.78 8  245 335 
 SML  HZ I         4 1 17.91         5.2 0.11            119            245 335 
 CHI  HZ EP        4 0 46.18                             117    0.51 8  248 195 
 CHI  HN ES        4 1 14.92                             117   -0.09 8  248 195 
 CHI  HZ I         4 1 20.42         2.3 0.36            119            248 195 
 GUY2CHZ EP        4 0 52.17                             112    0.49 7  302 235 
 GUY2CHN ES        4 1 26.00                             112    0.29 7  302 235 
 GUY2CHZ I         4 1 33.21         1.5 0.30                           302 235 
                                                                                
