 2012  915 0359 10.9 L   6.686 -73.189143.2  RSN 13 0.4 2.7LRSN                1
 GAP= 82        0.85       3.4     3.5  6.3  0.1392E+01  0.7824E+00  0.5063E+01E
 Epicentro: VILLANUEVA - SANTANDER                                             3
 ACTION:UPD 12-10-22 14:18 OP:ep   STATUS:               ID:20120915035910 L   I
 2012-09-15-0357-49M.COL___212                                                 6
 STAT SP IPHASW D HRMM SECON CODA AMPLIT PERI AZIMU VELO AIN AR TRES W  DIS CAZ7
 BAR2 SZ EP        359 29.68                             176   -0.3310 10.4 176 
 BAR2 SZ ES   2    359 44.72                             176   -0.20 5 10.4 176 
 BAR2 SZ I         359 46.08       246.0 0.18                          10.4 176 
 GIR2 SZ ES   2    359 45.54                             162   -0.51 5 43.5 359 
 BRR  HZ EP   1    359 31.50                             151   -0.43 7 74.3 309 
 BRR  HN ES   1    359 48.57                             151    0.23 7 74.3 309 
 BRR  HN I         359 49.67       186.0 0.16                          74.3 309 
 RUS  HZ EP   1    359 33.67                             147    0.14 7 88.5 172 
 RUS  HN ES   1    359 51.89                             147    0.69 7 88.5 172 
 RUS  HZ I         359 53.81        36.5 0.22                          88.5 172 
 PAM  SZ EP   9    359 32.56                             146   -1.09 0 90.3  37 
 PAM  SZ I         359 32.81        74.4 0.22                          90.3  37 
 PAM  SE ES   9    359 49.74                                   -0.58 0 90.3  37 
 GRA  SZ EP        359 37.40                             133    0.34 9  139  18 
 GRA  SZ ES        359 57.94                             133    0.46 9  139  18 
 PTB  HZ EP   1    359 36.69                             133   -0.34 7  141 263 
 PTB  HN ES   1    359 57.50                             133    0.07 7  141 263 
 PTB  HN I         4 0  0.92        41.9 0.11                           141 263 
 TAM  HZ EP   1    359 37.93                             130   -0.60 7  157 100 
 TAM  HZ I         359 38.11        35.7 0.20                           157 100 
 TAM  HN ES   1    359 59.63                             130   -0.47 7  157 100 
 ZAR  HN ES   1    4 0  7.75                             122   -0.73 6  205 296 
 ZAR  HZ I         4 0 16.38        35.5 0.36                           205 296 
 AGZ  SZ EP   1    359 43.81                             121    0.09 6  209 158 
 AGZ  SZ ES   1    4 0  9.00                             121   -0.34 6  209 158 
 CHI  HZ EP   1    359 47.81                             118    0.83 6  235 195 
 CHI  HN I         4 0 23.09        44.5 0.42                           235 195 
 HEL  HZ EP   1    359 50.41                             115    0.28 6  265 258 
 HEL  HZ I         4 0 28.31        18.5 0.36                           265 258 
 PRA  HZ EP   1    4 0  3.16                             107    0.41 5  379 210 
 PRA  HZ I         4 0 52.09        24.0 0.50                           379 210 
                                                                                
