 2012  215 0610  0.9 L   6.781 -73.169143.2  RSN  4 0.4 1.1LRSN                1
 GAP=233        0.66       9.5    10.0  9.8  0.5333E+02  0.1571E+01  0.3002E+00E
 ACTION:UP  12-03-07 16:30 OP:epov STATUS:               ID:20120215061000 L   I
 2012-02-15-0610-00M.COL___188                                                 6
 STAT SP IPHASW D HRMM SECON CODA AMPLIT PERI AZIMU VELO AIN AR TRES W  DIS CAZ7
 BAR2 SZ ES   2    610 34.38                             171   -0.80 5 20.9 184 
 BRR  HZ EP   1    610 21.90                             152    0.23 7 70.0 301 
 BRR  HZ I         610 25.62         4.7 0.54                          70.0 301 
 BRR  HE ES   2    610 38.23                             152    0.33 5 70.0 301 
 RUS  HZ EP   1    610 24.30                             144    0.07 7 98.7 174 
 RUS  HE ES   2    610 42.87                             144    0.41 5 98.7 174 
 RUS  HZ I         610 43.79         1.3 0.33                          98.7 174 
 PTB  HZ EP   2    610 26.58                             132   -0.78 5  145 259 
 PTB  HN ES   2    610 48.12                             132    0.10 5  145 259 
                                                                                
