 2014 1015 0017  8.3 L   6.765 -73.213155.9  RSN  5 0.5 1.6LRSN                1
 GAP=130        1.12       6.8     6.9 15.4  0.1703E+02 -0.2742E+02 -0.6465E+02E
 Epicentro: ZAPATOCA - SANTANDER                                               3
 ACTION:UPD 14-11-29 23:49 OP:nd   STATUS:               ID:20141015001708 L   I
 OLDACT:REG 14-10-15 12:57 OP:mh   STATUS:               ID:20141015000745     3
 2014-10-15-0007-45M.COL___292                                                 6
 STAT SP IPHASW D HRMM SECON CODA AMPLIT PERI AZIMU VELO AIN AR TRES W  DIS CAZ7
 PAM  SZ EP        017 32.17                             150    0.1510 85.1  42 
 RUS  HZ EP        017 33.53                             147    0.7110 97.6 172 
 RUS  HN ES        017 51.51                             147   -0.4710 97.6 172 
 PTB  HZ EP        017 34.61                             136   -0.78 9  140 260 
 PTB  HN ES        017 56.94                             136    0.40 9  140 260 
 PTB  HZ I         017 58.42         3.3 0.32            135            140 260 
 ZAR  HN ES   1    018  6.47                             125    0.19 6  199 294 
 ZAR  HZ I         018 13.18         6.3 0.39            125            199 294 
 SML  HZ EP        017 45.44                             119   -0.09 8  244 337 
 SML  HN ES        018 14.49                             119   -0.11 8  244 337 
                                                                                
