 2011  815 0542 24.4 L   6.461 -73.817166.0  RSN  4 0.4 1.3LRSN                1
 GAP=140        0.66       7.3     9.0 10.4  0.2078E+02  0.5320E+02  0.3225E+02E
 Epicentro: SANTA HELENA DEL OPON - SANTANDER                                  3
 ACTION:UPD 12-07-13 15:52 OP:ep   STATUS:               ID:20110815054224 L   I
 2011-08-15-0540-00M.COL___151                                                 6
 STAT SP IPHASW D HRMM SECON CODA AMPLIT PERI AZIMU VELO AIN AR TRES W  DIS CAZ7
 BAR2 SZ EP        542 47.93                             156   -0.2510 71.7  78 
 BAR2 SZ ES   2    543  5.98                             156   -0.72 5 71.7  78 
 BAR2 SZ I         543  6.79         3.6 0.71                          71.7  78 
 BRR  HZ EP   2    542 48.46                             156    0.60 5 72.4   9 
 BRR  HZ I         542 51.95         3.7 0.10                          72.4   9 
 BRR  HE ES   1    543  6.34                             156    0.20 7 72.4   9 
 RUS  HZ EP   2    542 50.50                             148    0.14 5  103 128 
 RUS  HE ES   1    543 10.94                             148    0.36 7  103 128 
 RUS  HZ I         543 12.00         1.5 0.29                           103 128 
 NOR  SZ EP   1    542 53.47                             135   -0.14 7  153 230 
                                                                                
