 2015 1015 0343 52.4 L   6.750 -73.118147.1  RSN  4 0.3 1.3LRSN                1
 GAP=244        0.68       5.0     5.7  6.8  0.1207E+02  0.1509E+02  0.1960E+01E
 Epicentro: LOS SANTOS - SANTANDER                                             3
 ACTION:UPD 15-12-22 20:40 OP:cam  STATUS:               ID:20151015034352 L   I
 OLDACT:UP  15-10-15 16:16 OP:ak   STATUS:               ID:20151015033750     3
 OLDACT:REG 15-10-15 14:17 OP:ak   STATUS:               ID:20151015033750     3
 2015-10-15-0337-50M.COL___340                                                 6
 STAT SP IPHASW D HRMM SECON CODA AMPLIT PERI AZIMU VELO AIN AR TRES W  DIS CAZ7
 BAR2 EZ EP   1    344 12.17                             172    0.10 7 18.9 202 
 BAR2 EZ ES        344 27.47                             172    0.0310 18.9 202 
 BAR2 EZ I         344 29.28         6.0 0.18            162           18.9 202 
 RUS  HZ EP   1    344 16.38                             146    0.53 7 94.9 178 
 RUS  HE ES        344 33.91                             146   -0.2510 94.9 178 
 RUS  HZ I         344 37.17         1.0 0.38            143           94.9 178 
 SPBC HZ EP        344 20.37                             130   -0.38 9  161 221 
 SPBC HN ES        344 43.17                             130    0.27 9  161 221 
 SPBC HZ I         344 51.23         2.1 0.11            127            161 221 
 ZAR  HZ EP   4    344 32.47                             122    7.07 0  209 293 
 ZAR  HN ES        344 51.12                             122   -0.05 8  209 293 
 ZAR  HZ I         344 57.24         3.2 0.29            121            209 293 
                                                                                
