 2012 1115 0433 14.3 L   6.728 -73.198156.3  RSN  4 0.3 1.1LRSN                1
 GAP=226        0.64      11.2     7.4 12.8  0.2817E+01 -0.3243E+02  0.7637E+02E
 Epicentro: VILLANUEVA - SANTANDER                                             3
 ACTION:UPD 12-12-05 15:33 OP:}ep  STATUS:               ID:20121115043314 L   I
 2012-11-15-0430-00M.COL___230                                                 6
 STAT SP IPHASW D HRMM SECON CODA AMPLIT PERI AZIMU VELO AIN AR TRES W  DIS CAZ7
 BAR2 SZ EP   1    433 34.50                             174   -0.59 7 15.2 174 
 BAR2 SZ I         433 35.21         3.4 0.06                          15.2 174 
 BRR  HZ EP   1    433 36.70                             154    0.12 7 70.6 306 
 BRR  HZ I         433 49.08         3.0 0.56                          70.6 306 
 BRR  HE ES   1    433 54.14                             154    0.19 7 70.6 306 
 RUS  HZ EP   1    433 39.01                             148    0.38 7 93.3 172 
 RUS  HZ I         433 52.11         0.8 0.25                          93.3 172 
 PTB  HZ EP   1    433 41.60                             136    0.04 7  141 262 
 PTB  HE ES   1    434  2.66                             136   -0.15 7  141 262 
                                                                                
