 2016  815 0136 25.0 L   6.805 -73.184150.0  RSN  7 0.4 1.6LRSN                1
 GAP=132        1.00       3.9     4.5  8.5 -0.1238E+01  0.6668E+01  0.4938E+01E
 Epicentro: ZAPATOCA - SANTANDER                                               3
 ACTION:UPD 16-10-29 15:35 OP:rebc STATUS:               ID:20160815013625 L   I
 OLDACT:DUP 16-08-15 13:07 OP:dnl  STATUS:               ID:20160815012745d    3
 2016-08-15-0128-00M.COL___383                                                 6
 STAT SP IPHASW D HRMM SECON CODA AMPLIT PERI AZIMU VELO AIN AR TRES W  DIS CAZ7
 BRR  HZ EP        136 47.16                             155    0.7310 67.2 300 
 BRR  HE ES        137  3.73                             155    0.6210 67.2 300 
 BRR  HZ I         137  7.02         4.5 0.18                          67.2 300 
 PAM  EZ EP        136 47.86                             151    0.0210 79.7  42 
 PAM  EE ES        137  4.98                             151   -0.6510 79.7  42 
 PAM  EZ I         137  7.26         8.0 0.50                          79.7  42 
 RUS  HZ EP   2    136 49.12                             144   -0.15 5  102 174 
 RUS  HN ES        137  8.41                             144    0.2410  102 174 
 RUS  HZ I         137  9.39         4.4 0.42                           102 174 
 PTB  HZ EP        136 51.91                             134   -0.08 9  144 258 
 PTB  HN ES        137 12.88                             134   -0.13 9  144 258 
 PTB  HZ I         137 15.82         3.6 0.14                           144 258 
 SPBC HE ES        137 15.57                             130   -0.41 9  161 218 
 SPBC HZ I         137 19.36         9.1 0.12                           161 218 
 ZAR  HZ EP   3    136 57.21                             124   -0.13 2  200 292 
 ZAR  HN ES        137 22.03                             124   -0.50 9  200 292 
 ZAR  HZ I         137 28.42         1.8 0.11                           200 292 
 CHI  HZ EP   2    137  3.05                             118    0.14 4  248 194 
 CHI  HN ES        137 32.40                             118   -0.05 8  248 194 
 CHI  HZ I         137 36.40         3.2 0.48                           248 194 
                                                                                
