 2012  315 0559 57.7 L   7.365 -73.189128.9  RSN  6 0.1 1.5LRSN                1
 GAP=178        0.39       3.0     2.1  3.6  0.7156E+00  0.1031E+01  0.1099E+01E
 ACTION:UP  12-03-31 23:20 OP:EP   STATUS:               ID:20120315055957 L   I
 2012-03-15-0556-40M.COL___181                                                 6
 STAT SP IPHASW D HRMM SECON CODA AMPLIT PERI AZIMU VELO SNR AR TRES W  DIS CAZ7
 PAM  SZ EP   1    6 0 16.56                             156    -0.2 7   54  93 
 PAM  SN ES   1    6 0 31.70                             156     0.1 7   54  93 
 PAM  SZ I         6 0 32.99         6.0 0.15                            54  93 
 BRR  HZ EP   1    6 0 16.64                             152     0.0 7   64 244 
 BRR  HN ES        6 0 31.36                             152     0.010   64 244 
 BRR  HZ I         6 0 31.94        10.1 0.11                            64 244 
 BAR2 SZ EP   1    6 0 18.37                             144     0.1 7   85 180 
 BAR2 SZ ES   1    6 0 34.32                             144    -0.1 7   85 180 
 BAR2 SZ I         6 0 36.09        11.7 0.13                            85 180 
 RUS  HZ EP   1    6 0 25.51                             125     0.1 7  163 176 
 RUS  HN ES   1    6 0 47.30                             125     0.2 7  163 176 
 RUS  HZ I         6 0 50.22         1.7 0.15                           163 176 
 PTB  HZ EP   1    6 0 25.10                             124    -0.1 7  167 237 
 PTB  HN ES   1    6 0 46.44                             124    -0.3 7  167 237 
 PTB  HZ I         6 0 51.26         3.4 0.14                           167 237 
 ZAR  HN ES   1    6 0 50.17                             121     0.3 7  185 274 
                                                                                
