 2014  915 0300 10.9 L   6.800 -73.126147.8  RSN 17 0.5 2.2LRSN                1
 GAP=139        1.17       2.8     4.2  5.5 -0.2115E+01  0.7409E+01  0.1829E+01E
 Epicentro: LOS SANTOS - SANTANDER                                             3
 ACTION:UPD 14-10-03 23:05 OP:nd   STATUS:               ID:20140915030010 L   I
 OLDACT:REG 14-09-15 12:34 OP:carl STATUS:               ID:20140915025819     3
 2014-09-15-0258-19M.COL___293                                                 6
 STAT SP IPHASW D HRMM SECON CODA AMPLIT PERI AZIMU VELO AIN AR TRES W  DIS CAZ7
 BAR2 SZ IP     D  3 0 30.76                             170   -0.0010 23.8 195 
 BAR2 SZ ES        3 0 45.92                             170   -0.3510 23.8 195 
 BAR2 SZ I         3 0 48.25        37.9 0.26            168           23.8 195 
 BRR  HZ IP     C  3 0 32.62                             152    0.2610 73.2 298 
 BRR  HN ES        3 0 50.18                             152    1.0710 73.2 298 
 BRR  HZ I         3 0 53.78        23.8 0.52            148           73.2 298 
 PAM  SZ EP        3 0 33.49                             152    0.2610 76.0  38 
 PAM  SN ES        3 0 50.63                             152   -0.0410 76.0  38 
 PAM  SZ I         3 0 52.66        13.3 0.20            156           76.0  38 
 RUS  HZ EP        3 0 34.68                             144   -0.1410  100 177 
 RUS  HN ES        3 0 53.40                             144   -0.0910  100 177 
 RUS  HZ I         3 0 54.24        12.6 0.18            146            100 177 
 PTB  HZ EP        3 0 37.47                             132   -0.74 9  150 259 
 PTB  HN ES        3 0 58.74                             132   -0.79 9  150 259 
 PTB  HZ I         3 1  4.55        28.9 0.62            130            150 259 
 OCA  HZ EP        3 0 39.15                             130   -0.23 9  161 352 
 OCA  HN ES        3 1  2.44                             130    0.83 9  161 352 
 OCA  HZ I         3 1  5.84        22.0 0.20            131            161 352 
 SPBC HZ EP        3 0 39.68                             129    0.01 9  165 220 
 SPBC HN ES        3 1  1.63                             129   -0.49 9  165 220 
 SPBC HZ I         3 1  8.14        24.3 0.40            129            165 220 
 ZAR  HZ EP        3 0 43.41                             122   -0.27 8  206 292 
 ZAR  HN ES        3 1  8.71                             122   -0.54 8  206 292 
 ZAR  HZ I         3 1 14.72        27.8 0.54            122            206 292 
 SML  HZ EP        3 0 47.15                             118   -0.58 8  245 335 
 SML  HN ES        3 1 15.74                             118   -0.73 8  245 335 
 SML  HZ I         3 1 19.37        17.9 0.10            118            245 335 
 CHI  HZ EP        3 0 48.82                             117    0.07 8  249 196 
 CHI  HN ES        3 1 18.11                             117   -0.18 8  249 196 
 CHI  HZ I         3 1 23.65         5.0 0.20            119            249 196 
 ROSC BZ EP   4    3 0 49.95                             117    0.71 0  254 211 
 ROSC BN ES   4    3 1 20.66                             117    1.51 0  254 211 
 HEL  HZ EP        3 0 52.18                             115    0.74 8  274 256 
 HEL  HN ES        3 1 23.24                             115    0.17 8  274 256 
 HEL  HZ I         3 1 29.60        12.1 0.24            115            274 256 
 GUY2CHZ EP        3 0 55.34                             112    0.55 7  303 235 
 GUY2CHN ES        3 1 29.90                             112    0.87 7  303 235 
 CBOC HZ EP        3 0 58.76                             110    0.64 7  336 252 
 CBOC HN ES        3 1 34.60                             110   -0.37 7  336 252 
 CBOC HZ I         3 1 48.45         3.6 0.46            111            336 252 
 TOL  SN ES        3 1 38.24                             109    1.00 7  345 225 
 MON  HZ EP   4    3 0 57.98                             109   -2.19 0  355 308 
 MON  HN ES   4    3 1 36.43                             109   -2.18 0  355 308 
 MON  HZ I         3 1 52.98         3.9 0.44            109            355 308 
 PRA  HZ EP        3 1  4.37                             107   -0.23 6  393 210 
 PRA  HN ES        3 1 46.51                             107    0.02 6  393 210 
 PRA  HZ I         3 1 52.77         6.6 0.64            108            393 210 
 ORTC HZ EP        3 1  5.16                             107    0.14 6  397 216 
 ORTC HN ES        3 1 47.18                             107   -0.07 6  397 216 
 ORTC HZ I         3 1 53.74         4.8 0.36            108            397 216 
                                                                                
