 2012  115 0736  4.7 L   6.754 -73.180150.1  RSN  5 0.3 1.5LRSN                1
 GAP=176        0.70       5.9     6.1  6.6  0.9656E+01  0.6413E+01  0.5633E+01E
 Epicentro: VILLANUEVA - SANTANDER                                             3
 ACTION:UP  12-02-03 08:17 OP:REBC STATUS:               ID:20120115073604 L   I
 2012-01-15-0730-00M.COL___187                                                 6
 STAT SP IPHASW D HRMM SECON CODA AMPLIT PERI AZIMU VELO SNR AR TRES W  DIS CAZ7
 BAR2 SZ EP   1    736 24.53                             173    -0.2 7   18 181 
 BAR2 SZ ES   1    736 40.37                             173     0.0 7   18 181 
 BAR2 SZ I         736 41.24         6.5 0.34                            18 181 
 GIR2 SZ EP   1    736 25.00                             166     0.0 7   36 358 
 GIR2 SZ ES   1    736 40.43                             166    -0.4 7   36 358 
 BRR  HZ EP   1    736 26.36                             153     0.1 7   71 304 
 BRR  HZ I         736 26.62        10.6 0.16                            71 304 
 BRR  HE ES   1    736 43.78                             153     0.7 7   71 304 
 RUS  HZ EP   1    736 28.81                             146     0.3 7   96 174 
 RUS  HN ES   1    736 47.24                             146     0.1 7   96 174 
 RUS  HZ I         736 48.35         2.2 0.41                            96 174 
 PTB  HZ EP   1    736 31.52                             134    -0.1 7  143 261 
 PTB  HN ES   1    736 52.26                             134    -0.3 7  143 261 
                                                                                
