 2013  815 0301 35.3 L   6.748 -73.157144.5  RSN  6 0.3 2.1LRSN                1
 GAP=138        0.81       5.3     4.1  6.1  0.5219E+01 -0.1605E+00 -0.1382E+02E
 Epicentro: LOS SANTOS - SANTANDER                                             3
 ACTION:UPD 14-01-14 09:03 OP:ep   STATUS:               ID:20130815030135 L   I
 OLDACT:REG 13-08-15 09:02 OP:stll STATUS:               ID:20130815025850     3
 2013-08-15-0258-50M.COL___226                                                 6
 STAT SP IPHASW D HRMM SECON CODA AMPLIT PERI AZIMU VELO AIN AR TRES W  DIS CAZ7
 BAR2 SZ EP        3 1 54.73                             173    0.0310 17.4 189 
 BAR2 SZ ES        3 2  9.53                             173   -0.2810 17.4 189 
 BAR2 SZ I         3 2 10.76        10.9 0.20            173           17.4 189 
 BRR  HZ EP        3 1 56.67                             152    0.2210 73.1 303 
 BRR  HN ES        3 2 13.30                             152    0.3810 73.1 303 
 BRR  HN I         3 2 18.06        38.0 0.16            149           73.1 303 
 RUS  HN ES        3 2 16.91                             145    0.2410 94.9 175 
 PTB  HZ EP        3 2  1.82                             132   -0.17 9  146 261 
 PTB  HN ES        3 2 22.34                             132   -0.44 9  146 261 
 PTB  HN I         3 2 27.73        21.4 0.48            132            146 261 
 CAPV BZ EP        3 2  2.72                             130   -0.39 9  155  37 
 ZAR  HZ EP        3 2  8.33                             122    0.53 9  205 294 
 ZAR  HN ES        3 2 32.97                             122   -0.16 9  205 294 
 ZAR  HN I         3 2 39.29        12.8 0.14            122            205 294 
                                                                                
