 2017  815 0502 40.9 L   6.784 -73.135143.3  RSN  8 0.3 1.4LRSN                1
 GAP=212        0.67       3.0     3.4  4.2  0.2982E+01  0.1838E+01  0.3520E+01E
 Epicentro: LOS SANTOS - SANTANDER                                             3
 ACTION:UPD 17-09-04 20:20 OP:rebc STATUS:               ID:20170815050240 L   I
 OLDACT:UP  17-08-15 14:40 OP:and  STATUS:               ID:20170815045644d    3
 OLDACT:DUP 17-08-15 14:38 OP:and  STATUS:               ID:20170815045644d    3
 2017-08-15-0457-00M.COL___410                                                 6
 STAT SP IPHASW D HRMM SECON CODA AMPLIT PERI AZIMU VELO AIN AR TRES W  DIS CAZ7
 BAR2 EZ EP        5 3  0.02                             171   -0.1710 21.8 194 
 BAR2 EZ ES        5 3 15.18                             171   -0.0710 21.8 194 
 BAR2 EZ I         5 3 17.83         6.1 0.30            168           21.8 194 
 BRR  HZ IP     D  5 3  1.91                             151    0.0310 73.1 299 
 BRR  HN ES        5 3 18.84                             151    0.5810 73.1 299 
 BRR  HZ I         5 3 21.48         4.4 0.30            152           73.1 299 
 RUS  HZ EP        5 3  4.26                             144   -0.0010 98.7 177 
 RUS  HN ES        5 3 22.09                             144   -0.4010 98.7 177 
 RUS  HZ I         5 3 24.73         2.5 0.24            144           98.7 177 
 SPBC HZ EP        5 3  9.26                             129    0.12 9  163 220 
 SPBC HN ES        5 3 31.21                             129    0.04 9  163 220 
 SPBC HZ I         5 3 33.99         4.5 0.11            129            163 220 
 YPLC HZ EP        5 3 10.43                             126    0.14 9  175 151 
 ZAR  HN ES        5 3 38.19                             122   -0.49 8  206 292 
 NOR  HZ EP        5 3 16.36                             118   -0.10 8  235 235 
 NOR  HN ES        5 3 44.20                             118   -0.02 8  235 235 
 NOR  HZ I         5 3 49.20         2.3 0.30            119            235 235 
 CHI  HZ EP        5 3 18.41                             117    0.12 8  247 196 
 CHI  HN ES        5 3 47.71                             117    0.24 8  247 196 
 CHI  HZ I         5 3 51.71         1.2 0.16            118            247 196 
                                                                                
