 2017 1015 0630 48.5 L   6.285 -73.716 91.1  RSN  5 0.3 1.1LRSN                1
 GAP=165        0.79       5.0     3.5  6.6  0.1274E+02  0.5881E+01  0.6929E+01E
 Epicentro: SANTA HELENA DEL OPON - SANTANDER                                  3
 ACTION:UPD 17-11-07 19:31 OP:rebc STATUS:               ID:20171015062123 L   I
 OLDACT:UPD 17-10-15 13:29 OP:leo  STATUS:               ID:20171015062123 L   3
 2017-10-15-0628-00M.COL___414                                                 6
 STAT SP IPHASW D HRMM SECON CODA AMPLIT PERI AZIMU VELO AIN AR TRES W  DIS CAZ7
 BAR2 EZ EP        631  3.98                             141   -0.2510 68.1  60 
 BAR2 EZ ES        631 16.38                             141   -0.0810 68.1  60 
 BAR2 EZ I         631 18.37         8.0 0.22            144           68.1  60 
 RUS  HZ EP        631  5.67                             135   -0.1010 82.4 122 
 RUS  HN ES        631 19.73                             135    0.5310 82.4 122 
 RUS  HZ I         631 20.76         1.3 0.40            138           82.4 122 
 PTB  HZ EP        631  5.15                             133   -0.3310 86.5 289 
 PTB  HN ES        631 18.60                             133   -0.1010 86.5 289 
 PTB  HZ I         631 22.19         1.4 0.07            135           86.5 289 
 YPLC HZ EP        631 15.31                             112    0.17 9  178 124 
 YPLC HN ES        631 35.53                             112   -0.36 9  178 124 
 YPLC HZ I         631 38.74         2.4 0.26            115            178 124 
 ZAR  HZ EP        631 16.30                             112    0.55 9  184 317 
 ZAR  HE ES        631 37.05                             112    0.08 9  184 317 
 ZAR  HZ I         631 40.97         2.4 0.14            114            184 317 
                                                                                
