 2017  315 0900 29.7 L   6.803 -73.167146.7  RSN  4 0.1 1.5LRSN                1
 GAP=143        0.43       2.6     2.7  4.6 -0.1892E+01  0.4407E+01  0.1403E+01E
 Epicentro: LOS SANTOS - SANTANDER                                             3
 ACTION:UPD 17-05-25 18:40 OP:jn   STATUS:               ID:20170315090029 L   I
 OLDACT:REG 17-03-15 13:24 OP:cog  STATUS:               ID:20170315085740     3
 2017-03-15-0858-00M.COL___381                                                 6
 STAT SP IPHASW D HRMM SECON CODA AMPLIT PERI AZIMU VELO AIN AR TRES W  DIS CAZ7
 PAM  EN ES        9 1  9.50                             151   -0.0210 78.7  41 
 RUS  HZ EP        9 0 53.47                             144   -0.0710  101 175 
 RUS  HN ES        9 1 12.24                             144    0.0710  101 175 
 PTB  HZ EP        9 0 56.35                             133   -0.15 9  145 259 
 PTB  HN ES        9 1 17.55                             133    0.12 9  145 259 
 PTB  HZ I         9 1 20.45         2.0 0.54            133            145 259 
 SPBC HZ EP        9 0 58.36                             129    0.25 9  162 218 
 SPBC HN ES        9 1 20.11                             129   -0.20 9  162 218 
 SPBC HZ I         9 1 22.81         4.1 0.12            130            162 218 
 SPBC HN I         9 1 24.46         5.6 0.44                           162 218 
                                                                                
