 2013  915 0410 31.3 L   6.840 -73.141149.1  RSN 11 0.5 2.0LRSN                1
 GAP=135        1.17       3.9     5.1  7.1 -0.1692E+01  0.4311E+01 -0.4671E-01E
 Epicentro: LOS SANTOS - SANTANDER                                             3
 ACTION:UPD 13-10-22 09:22 OP:ep   STATUS:               ID:20130915041031 L   I
 OLDACT:REG 13-09-15 10:24 OP:carl STATUS:               ID:20130915040959     3
 2013-09-15-0409-59M.COL___269                                                 6
 STAT SP IPHASW D HRMM SECON CODA AMPLIT PERI AZIMU VELO AIN AR TRES W  DIS CAZ7
 BAR2 SZ EP        410 51.48                             169    0.1010 27.7 190 
 BAR2 SZ ES   1    411  6.56                             169   -0.52 7 27.7 190 
 BAR2 SZ I         411  8.39        15.8 0.34            161           27.7 190 
 BRR  HZ IP     C  410 53.07                             154    0.3810 69.7 295 
 BRR  HN ES        411 10.07                             154    0.6710 69.7 295 
 BRR  HZ I         411 13.69        16.9 0.28            153           69.7 295 
 PAM  SZ EP        410 54.15                             153    0.5310 73.7  41 
 PAM  SN ES   1    411 11.15                             153    0.09 7 73.7  41 
 PAM  SZ I         411 12.88        23.0 0.48            151           73.7  41 
 RUS  HZ EP        410 55.09                             143   -0.5610  105 177 
 RUS  HN ES   1    411 14.47                             143   -0.20 7  105 177 
 RUS  HZ I         411 17.86         4.6 0.30            134            105 177 
 PTB  HZ EP        410 58.13                             132   -0.50 9  149 257 
 PTB  HN ES   1    411 19.05                             132   -0.93 7  149 257 
 PTB  HZ I         411 22.13        11.8 0.10            127            149 257 
 OCA  HZ EP        410 59.19                             131   -0.24 9  156 353 
 OCA  HN ES   1    411 20.96                             131   -0.45 7  156 353 
 OCA  HZ I         411 24.93        19.4 0.28            129            156 353 
 SPBC HZ EP        411  0.93                             129    0.56 9  167 218 
 SPBC HN ES   1    411 22.92                             129   -0.15 7  167 218 
 SPBC HZ I         411 29.82        10.5 0.46            122            167 218 
 ZAR  HZ EP        411  4.28                             123    0.47 9  203 291 
 ZAR  HN ES        411 29.79                             123    0.59 9  203 291 
 ZAR  HZ I         411 34.74        22.2 0.32            119            203 291 
 NOR  HE ES        411 35.49                             119   -0.28 8  238 234 
 SML  HZ EP        411  7.15                             119   -0.52 8  240 335 
 SML  HN ES   1    411 34.94                             119   -1.13 6  240 335 
 SML  HZ I         411 38.86        25.4 0.10            115            240 335 
 CHI  HZ EP        411 10.07                             117    0.46 8  253 195 
 CHI  HZ I         411 49.14         2.6 0.34            111            253 195 
                                                                                
