 2012  715 0600 10.8 L   6.702 -73.185151.6  RSN  5 0.2 1.5LRSN                1
 GAP=225        0.64       6.0     5.8  6.0  0.2210E+02  0.3093E+01  0.3176E+01E
 Epicentro: VILLANUEVA - SANTANDER                                             3
 ACTION:UPD 12-08-14 11:44 OP:ep   STATUS:               ID:20120715060010 L   I
 2012-07-15-0600-00M.COL___197                                                 6
 STAT SP IPHASW D HRMM SECON CODA AMPLIT PERI AZIMU VELO AIN AR TRES W  DIS CAZ7
 BAR2 SZ EP   1    6 0 30.62                             175    -0.3 7   12 179 
 BAR2 SZ ES   1    6 0 46.35                             175    -0.3 7   12 179 
 BAR2 SZ I         6 0 48.33         5.9 0.21            174             12 179 
 BRR  HZ EP        6 0 32.69                             153     0.010   73 308 
 BRR  HN ES        6 0 50.08                             153     0.310   73 308 
 BRR  HZ I         6 0 52.38        11.5 0.13            155             73 308 
 RUS  HZ EP        6 0 34.68                             148     0.310   90 173 
 RUS  HN ES   1    6 0 52.81                             148     0.0 7   90 173 
 RUS  HZ I         6 0 55.04         2.2 0.27            149             90 173 
 PTB  HZ EP   1    6 0 37.59                             135    -0.1 7  142 263 
 PTB  HN ES   1    6 0 58.73                             135     0.0 7  142 263 
 PTB  HZ I         6 1  0.22         4.2 0.25            136            142 263 
 ZAR  HE ES   1    6 1  9.02                             124    -0.3 6  204 295 
