 2017  415 0614 42.2 L   6.699 -73.159144.0  RSN  7 0.4 1.1LRSN                1
 GAP=139        1.15       5.7     6.1  8.0  0.9352E+01 -0.4991E+01 -0.1286E+02E
 Epicentro: VILLANUEVA - SANTANDER                                             3
 ACTION:UPD 17-05-30 21:12 OP:jn   STATUS:               ID:20170415061442 L   I
 OLDACT:UP  17-04-15 17:09 OP:edw  STATUS:               ID:20170415060742d    3
 OLDACT:UP  17-04-15 17:08 OP:edw  STATUS:               ID:20170415060742d    3
 OLDACT:DUP 17-04-15 17:06 OP:edw  STATUS:               ID:20170415060742d    3
 2017-04-15-0608-00M.COL___368                                                 6
 STAT SP IPHASW D HRMM SECON CODA AMPLIT PERI AZIMU VELO AIN AR TRES W  DIS CAZ7
 BAR2 EZ EP        615  1.38                             175   -0.0710 12.1 193 
 BAR2 EZ ES        615 16.09                             175   -0.3710 12.1 193 
 BAR2 EZ I         615 17.61         2.6 0.68            172           12.1 193 
 BRR  HZ EP        615  3.56                             150    0.1110 76.0 306 
 BRR  HN ES        615 20.27                             150    0.2610 76.0 306 
 BRR  HZ I         615 24.81         2.2 0.42            147           76.0 306 
 PAM  EZ EP        615  4.45                             147   -0.4010 87.1  36 
 RUS  HZ EP        615  4.59                             146   -0.4210 89.6 175 
 RUS  HN ES        615 23.40                             146    0.6010 89.6 175 
 RUS  HZ I         615 24.32         1.8 0.30            149           89.6 175 
 PTB  HZ EP   9    615  8.56                             132   -0.18 0  145 263 
 PTB  HN ES        615 28.41                             132   -0.85 9  145 263 
 PTB  HZ I         615 34.27         1.3 0.34            130            145 263 
 SPBC HN ES        615 30.96                             130   -0.15 9  154 221 
 ZAR  HZ EP        615 15.65                             121    0.78 8  207 295 
 ZAR  HN ES        615 40.14                             121   -0.20 8  207 295 
 ZAR  HZ I         615 47.86         1.5 0.26            121            207 295 
                                                                                
