 2012  115 0737 54.4 L   6.770 -73.255142.9  RSN  6 0.3 1.5LRSN                1
 GAP=146        0.76       6.6     8.6  7.9  0.1433E+02  0.2476E+02  0.6759E+01E
 Epicentro: ZAPATOCA - SANTANDER                                               3
 ACTION:UP  12-02-03 08:17 OP:REBC STATUS:               ID:20120115073754 L   I
 2012-01-15-0730-00M.COL___187                                                 6
 STAT SP IPHASW D HRMM SECON CODA AMPLIT PERI AZIMU VELO SNR AR TRES W  DIS CAZ7
 BAR2 SZ EP   1    738 13.17                             171    -0.5 7   21 158 
 BAR2 SZ ES   1    738 28.23                             171    -0.4 7   21 158 
 BAR2 SZ I         738 29.85         9.8 0.18                            21 158 
 GIR2 SZ EP   1    738 14.18                             166     0.4 7   35  11 
 GIR2 SZ ES   2    738 29.23                             166     0.3 5   35  11 
 BRR  HZ EP   1    738 15.06                             155     0.3 7   63 306 
 BRR  HZ I         738 36.69         8.6 0.15                            63 306 
 RUS  HZ EP   1    738 17.43                             144    -0.3 7   99 169 
 RUS  HN ES   1    738 36.40                             144     0.5 7   99 169 
 RUS  HZ I         738 37.60         3.5 0.42                            99 169 
 PTB  HZ EP   1    738 19.82                             134    -0.2 7  135 259 
 PTB  HN ES   2    738 40.01                             134     0.0 5  135 259 
 CHI  HZ EP   1    738 31.45                             117     0.2 6  242 193 
 CHI  HZ I         739  2.82         2.3 0.38                           242 193 
                                                                                
