 2012  515 0432 57.9 L   6.771 -73.110156.3  RSN  5 0.3 1.4LRSN                1
 GAP=186        0.57       5.5     8.9  6.9  0.3122E+02 -0.7207E+01 -0.5620E+01E
 Epicentro: LOS SANTOS - SANTANDER                                             3
 ACTION:UP  12-07-05 12:05 OP:pat  STATUS:               ID:20120515043257 L   I
 2012-05-15-0430-00M.COL___195                                                 6
 STAT SP IPHASW D HRMM SECON CODA AMPLIT PERI AZIMU VELO SNR AR TRES W  DIS CAZ7
 BAR2 SZ EP   1    433 18.88                             172     0.1 7   21 202 
 BAR2 SZ ES   1    433 35.13                             172     0.1 7   21 202 
 BAR2 SZ I         433 35.62         5.7 0.40                            21 202 
 BRR  HZ EP   1    433 20.81                             153     0.3 7   76 299 
 BRR  HZ I         433 21.08         7.2 0.15                            76 299 
 BRR  HE ES   1    433 38.28                             153     0.2 7   76 299 
 RUS  HZ EP   1    433 22.44                             147    -0.1 7   97 178 
 RUS  HN ES   1    433 41.43                             147    -0.2 7   97 178 
 RUS  HZ I         433 45.01         2.2 0.43                            97 178 
 OCA  HN ES   2    433 49.90                             131    -0.5 5  164 352 
 ZAR  HN ES   2    433 57.24                             124    -0.6 4  209 293 
                                                                                
