 2011  615 0842  0.3 L   6.817 -73.962 12.0  RSN  6 0.2 1.7LRSN                1
 GAP=185        0.59       2.0     4.0  4.3 -0.1155E+01  0.8534E+01 -0.2067E+01E
 Epicentro: PUERTO PARRA - SANTANDER                                           3
 ACTION:UP  11-07-14 19:05 OP:ep   STATUS:               ID:20110615084200 L   I
 2011-06-15-0840-00M.COL___125                                                 6
 STAT SP IPHASW D HRMM SECON CODA AMPLIT PERI AZIMU VELO SNR AR TRES W  DIS CAZ7
 BRR  HZ EP   1    842  7.17                             102    -0.3 7   42  41 
 BRR  HN ES   1    842 12.94                             102     0.0 7   42  41 
 BAR2 SZ EP        842 14.90                              95     0.110   90 106 
 BAR2 SZ ES   1    842 25.79                              95    -0.3 7   90 106 
 BAR2 SZ I         842 28.25        14.7 0.27                            90 106 
 RUS  HZ EP        842 23.18                              93     0.4 9  141 136 
 RUS  HE ES   1    842 40.16                              93    -0.2 7  141 136 
 RUS  HZ I         842 42.61         8.3 0.18                           141 136 
 BRI  SZ EP   1    842 25.39                              56     0.0 7  163  52 
 BRI  SZ I         842 46.92         6.4 0.23                           163  52 
 NOR  SN ES   2    842 46.16                              56    -0.5 4  171 216 
 GRA  SZ EP        842 26.91                              56     0.1 9  174  47 
 GRA  SZ ES   1    842 47.61                              56     0.1 7  174  47 
 GRA  SZ I         842 49.01        39.8 0.30                           174  47 
                                                                                
