 2014 1015 0611 19.4 L   6.806 -73.158144.6  RSN  8 0.4 1.6LRSN                1
 GAP=135        0.87       2.8     3.9  6.4 -0.1133E+01  0.8253E+01 -0.2419E+01E
 Epicentro: LOS SANTOS - SANTANDER                                             3
 ACTION:UPD 14-11-29 23:50 OP:nd   STATUS:               ID:20141015061119 L   I
 OLDACT:UP  14-10-15 17:17 OP:mh   STATUS:               ID:20141015060741     3
 OLDACT:UP  14-10-15 16:57 OP:mh   STATUS:               ID:20141015060741     3
 OLDACT:REG 14-10-15 13:33 OP:mh   STATUS:               ID:20141015060741     3
 2014-10-15-0607-41M.COL___292                                                 6
 STAT SP IPHASW D HRMM SECON CODA AMPLIT PERI AZIMU VELO AIN AR TRES W  DIS CAZ7
 BAR2 SZ EP        611 39.36                             170    0.4210 23.8 187 
 BAR2 SZ ES        611 53.78                             170   -0.3710 23.8 187 
 BAR2 SZ I         611 56.37                             169           23.8 187 
 PAM  SZ EP        611 42.03                             150    0.4710 77.7  41 
 PAM  SN ES        611 58.90                             150    0.1010 77.7  41 
 PAM  SZ I         612  1.39         7.1 0.48            155           77.7  41 
 RUS  HZ EP        611 42.62                             143   -0.5110  101 175 
 RUS  HN ES        612  1.81                             143    0.2010  101 175 
 RUS  HZ I         612  3.15         4.3 0.28            147            101 175 
 PTB  HZ EP        611 45.90                             132   -0.31 9  147 258 
 PTB  HN ES        612  6.97                             132   -0.12 9  147 258 
 PTB  HZ I         612  9.49         3.0 0.12            132            147 258 
 OCA  HN ES        612  9.12                             129   -0.43 9  159 354 
 SPBC HZ EP        611 47.95                             129    0.13 9  163 218 
 SPBC HN ES        612 10.12                             129    0.16 9  163 218 
 SPBC HZ I         612 16.42         5.6 0.28            130            163 218 
 ZAR  HZ EP   4    611 49.91                             122   -1.76 0  203 292 
 ZAR  HN ES        612 17.11                             122    0.32 9  203 292 
 ZAR  HZ I         612 27.82         2.6 0.22            123            203 292 
 SML  HZ EP   1    611 55.22                             117   -0.67 6  243 336 
 SML  HE ES        612 24.62                             117    0.31 8  243 336 
 SML  HZ I         612 26.27         5.5 0.10            119            243 336 
                                                                                
