 2010  515 0803  1.9 L   6.820 -73.024135.4  RSN 12 0.5 2.2LRSN                1
 GAP=135        1.02       4.7     8.7  8.4 -0.1641E+02 -0.1505E+02  0.4641E+01E
 Epicentro: CEPITA - SANTANDER                                                 3
 ACTION:UP  10-08-24 10:05 OP:vdl  STATUS:               ID:20100515080301 L   I
 2010-05-15-0801-35S.COL___108                                                 6
 STAT SP IPHASW D HRMM SECON CODA AMPLIT PERI AZIMU VELO AIN AR TRES W  DIS CAZ7
 BAR2 SZ IP        8 3 20.53                             167     0.010   31 215 
 BAR2 SZ ES   1    8 3 34.45                             167    -0.5 7   31 215 
 BRR  HZ IP     C  8 3 23.08                             147     0.410   82 293 
 BRR  HZ I         8 3 23.42        45.3 0.11                            82 293 
 BRR  HN ES   2    8 3 39.40                             147     0.5 5   82 293 
 BRI  SZ EP        8 3 25.05                             141     0.710  102  14 
 RUS  HZ EP        8 3 25.02                             141     0.210  103 184 
 GUE  SZ EP        8 3 25.46                             138     0.110  112   6 
 OCA  SZ EP        8 3 28.93                             127    -0.5 9  160 348 
 OCA  SZ ES   1    8 3 50.12                             127    -0.8 7  160 348 
 OCA  SZ I         8 3 53.74        26.1 0.73                           160 348 
 CHI  HZ EP   2    8 3 38.81                             114    -0.9 4  255 198 
 CHI  HE ES   3    8 4  8.29                             114    -0.9 2  255 198 
 ROSC BZ EP   2    8 3 40.69                             114     0.2 4  262 213 
 ROSC BN ES   2    8 4 11.20                             114     0.6 4  262 213 
 ROSC BZ I         8 4 16.53         7.1 0.67                           262 213 
 HEL  HZ EP   2    8 3 43.25                             112     0.1 4  286 256 
 HEL  HZ I         8 4 19.33         8.4 0.53                           286 256 
 RREF BZ EP   2    8 3 49.29                             108     0.3 3  334 231 
 RREF BN ES   2    8 4 25.35                             108    -0.4 3  334 231 
 RREF BZ I         8 4 29.52         7.8 0.14                           334 231 
 SDV  BZ EP        8 3 50.09                             107    -0.2 6  349  49 
 SDV  BZ I         8 3 51.01         6.2 0.43                           349  49 
 PRA  HZ EP        8 3 55.57                             104    -0.6 6  401 211 
 PRA  HZ I         8 4 43.44         4.4 0.22                           401 211 
                                                                                
