 2010  315 0227 14.2 L   6.770 -73.080150.0  RSN  8 0.4 2.0LRSN                1
 GAP=189        0.85       4.3    12.0  8.7  0.1413E+02 -0.5031E+01  0.4591E+01E
 Epicentro: LOS SANTOS - SANTANDER                                             3
 ACTION:UP  10-08-24 09:54 OP:vdl  STATUS:               ID:20100315022714 L   I
 2010-03-15-0224-52S.COL___095                                                 6
 STAT SP IPHASW D HRMM SECON CODA AMPLIT PERI AZIMU VELO SNR AR TRES W  DIS CAZ7
 BAR2 SZ EP   2    227 34.02                             171    -0.3 5   23 210 
 BRR  HZ IP        227 35.89                             151    -0.410   79 298 
 BRR  HN ES   1    227 53.32                             151    -0.1 7   79 298 
 BRR  HZ I         227 55.01        18.3 0.19                            79 298 
 RUS  HZ EP        227 37.97                             146    -0.110   97 180 
 RUS  HN ES   1    227 57.01                             146     0.3 7   97 180 
 RUS  HZ I         227 57.98         7.8 0.44                            97 180 
 OCA  SZ EP   1    227 42.80                             130    -0.4 7  165 351 
 OCA  SZ ES   1    228  6.74                             130     0.9 7  165 351 
 CHI  HZ EP   1    227 52.34                             118     0.4 6  247 197 
 CHI  HE ES   2    228 21.90                             118     0.4 4  247 197 
 CHI  HZ I         228 25.25         4.5 0.42                           247 197 
 HEL  HZ EP   2    227 56.17                             115     0.9 4  278 257 
 HEL  HZ I         228 32.24         4.9 0.37                           278 257 
 DBB  SZ EP   3    228  2.43                             110    -0.3 2  347 275 
 PRA  HZ EP   1    228  7.90                             107     0.0 4  393 211 
 PRA  HZ I         228 55.93         6.1 0.45                           393 211 
                                                                                
