 2010 1015 0052 29.4 L   6.782 -73.087147.2  RSN 10 0.3 2.1LRSN                1
 GAP=165        0.65       3.2     6.6  6.4 -0.6184E+01 -0.2739E+01  0.2832E+01E
 Epicentro: LOS SANTOS - SANTANDER                                             3
 ACTION:UP  11-02-18 11:09 OP:tino STATUS:               ID:20101015005229 L   I
 2010-10-15-0049-57S.COL___128                                                 6
 STAT SP IPHASW D HRMM SECON CODA AMPLIT PERI AZIMU VELO SNR AR TRES W  DIS CAZ7
 BTL  SZ EP   1    052 49.51                             170     0.2 7   25 307 
 GIR2 SZ EP   1    052 49.11                             166    -0.3 7   35 340 
 BRR  HZ IP     D  052 50.88                             150    -0.210   78 298 
 BRR  HZ I         052 51.10        36.6 0.18                            78 298 
 BRR  HE ES   1    053  8.29                             150     0.3 7   78 298 
 RUS  HZ EP   1    052 53.22                             145     0.1 7   98 180 
 RUS  HE ES   1    053 11.68                             145     0.0 7   98 180 
 RUS  HZ I         053 14.15         7.1 0.14                            98 180 
 GUE  SZ EP   1    052 54.93                             139     0.6 7  117   9 
 GRA  SZ EP        052 54.80                             137     0.010  126  14 
 GRA  SZ ES   1    053 14.19                             137    -0.4 7  126  14 
 GRA  SZ I         053 15.94        16.0 0.36                           126  14 
 NOR  SZ EP   2    053  5.19                             118    -0.5 4  239 236 
 CHI  HZ EP   1    053  7.32                             117     0.1 6  248 197 
 CHI  HE ES   2    053 36.31                             117    -0.3 4  248 197 
 CHI  HZ I         053 42.32         4.6 0.32                           248 197 
 HEL  HZ EP   2    053 10.56                             114     0.2 4  278 257 
 HEL  HZ I         053 47.75         9.9 0.44                           278 257 
 PRA  HZ EP   2    053 23.17                             107     0.0 3  393 211 
 PRA  HZ I         054  9.30        13.7 0.34                           393 211 
                                                                                
