 2012 1215 0532  3.7 L   6.811 -73.143147.3  RSN  8 0.4 1.5LRSN                1
 GAP=136        0.76       4.7     4.5  6.1  0.1740E+01  0.5083E+01  0.6663E+01E
 Epicentro: LOS SANTOS - SANTANDER                                             3
 ACTION:UPD 13-01-04 14:27 OP:ep   STATUS:               ID:20121215053203 L   I
 2012-12-15-0529-51M.COL___204                                                 6
 STAT SP IPHASW D HRMM SECON CODA AMPLIT PERI AZIMU VELO AIN AR TRES W  DIS CAZ7
 BAR2 SZ EP   1    532 23.44                             170   -0.10 7 24.5 190 
 BAR2 SZ ES   1    532 39.31                             170    0.30 7 24.5 190 
 BAR2 SZ I         532 39.71        14.3 0.28                          24.5 190 
 GIR2 SZ EP   1    532 23.57                             168    0.04 7 30.2 349 
 GIR2 SZ ES   1    532 38.24                             168   -0.75 7 30.2 349 
 GIR2 SZ I         532 40.55         6.0 0.40                          30.2 349 
 BRR  HZ EP   1    532 25.33                             153    0.33 7 70.9 298 
 BRR  HN ES   1    532 42.42                             153    0.81 7 70.9 298 
 BRR  HZ I         532 46.43         4.8 0.26                          70.9 298 
 PAM  SZ EP   1    532 26.18                             151    0.16 7 76.3  40 
 PAM  SE ES   1    532 43.24                             151   -0.18 7 76.3  40 
 PAM  SZ I         532 45.38         9.2 0.58                          76.3  40 
 RUS  HZ EP   1    532 27.59                             144   -0.10 7  102 176 
 RUS  HN ES   1    532 46.46                             144    0.07 7  102 176 
 RUS  HZ I         532 47.34         2.1 0.22                           102 176 
 PTB  HZ EP   1    532 30.43                             132   -0.41 7  148 258 
 PTB  HN ES   1    532 51.55                             132   -0.46 7  148 258 
 PTB  HZ I         532 55.07         4.3 0.12                           148 258 
 ZAR  HN ES   1    533  1.61                             123    0.01 6  204 292 
 ZAR  HZ I         533  7.32         4.0 0.38                           204 292 
 CHI  HZ EP   1    532 41.85                             117    0.23 6  250 195 
                                                                                
