 2017  115 0509 55.1 L   6.769 -73.213147.9  RSN  5 0.3 1.0LRSN                1
 GAP=128        0.64       4.9     4.2  6.6  0.2489E+01 -0.3428E+01 -0.1392E+02E
 Epicentro: ZAPATOCA - SANTANDER                                               3
 ACTION:UPD 17-05-22 15:59 OP:jn   STATUS:               ID:20170115050955 L   I
 OLDACT:UP  17-01-15 15:25 OP:e    STATUS:               ID:20170115050746     3
 OLDACT:REG 17-01-15 12:40 OP:and  STATUS:               ID:20170115050746     3
 2017-01-15-0508-00M.COL___335                                                 6
 STAT SP IPHASW D HRMM SECON CODA AMPLIT PERI AZIMU VELO AIN AR TRES W  DIS CAZ7
 BAR2 EZ EP        510 14.80                             171   -0.0810 19.9 170 
 BAR2 EZ ES        510 30.32                             171   -0.0110 19.9 170 
 BAR2 EZ I         510 30.84         3.3 0.15            172           19.9 170 
 BRR  HZ EP        510 16.41                             154    0.2210 66.6 304 
 BRR  HE ES   3    510 33.90                             154    1.24 2 66.6 304 
 BRR  HZ I         510 35.46         2.5 0.20            153           66.6 304 
 PAM  EZ IP     D  510 17.61                             149   -0.3410 84.8  42 
 RUS  HZ EP        510 19.15                             144    0.3210 98.0 172 
 RUS  HN ES        510 37.38                             144    0.0110 98.0 172 
 RUS  HZ I         510 38.72         1.0 0.46            147           98.0 172 
 PTB  HN ES        510 41.89                             134   -0.22 9  140 260 
 PTB  HZ I         510 45.65         1.6 0.12            134            140 260 
                                                                                
