 2017 1115 0702 41.9 L   6.800 -73.128147.6  RSN  5 0.5 1.4LRSN                1
 GAP=239        1.19       7.0     7.6  9.7  0.2258E+02  0.8197E+01  0.8684E+00E
 Epicentro: LOS SANTOS - SANTANDER                                             3
 ACTION:UPD 17-12-12 19:55 OP:rebc STATUS:               ID:20171115070241 L   I
 OLDACT:REG 17-11-15 13:56 OP:leo  STATUS:               ID:20171115065739     3
 2017-11-15-0658-00M.COL___444                                                 6
 STAT SP IPHASW D HRMM SECON CODA AMPLIT PERI AZIMU VELO AIN AR TRES W  DIS CAZ7
 BRR  HZ EP        7 3  3.21                             152   -0.1110 72.9 298 
 BRR  HN ES        7 3 20.68                             152    0.6310 72.9 298 
 BRR  HZ I         7 3 23.97         4.9 0.12            150           72.9 298 
 RUS  HZ EP        7 3  5.76                             144   -0.0410  100 177 
 RUS  HN ES     C  7 3 24.29                             144   -0.1710  100 177 
 RUS  HZ I         7 3 25.17         3.7 0.40            145            100 177 
 PTB  HZ EP        7 3  8.69                             132   -0.47 9  150 259 
 PTB  HN ES        7 3 29.62                             132   -0.84 9  150 259 
 PTB  HZ I         7 3 36.44         2.9 0.30            131            150 259 
 ZAR  HZ EP        7 3 15.09                             123    0.47 8  206 292 
 ZAR  HN ES        7 3 39.84                             123   -0.33 8  206 292 
 NOR  HZ EP        7 3 18.12                             119    0.24 8  236 235 
 NOR  HN ES        7 3 46.84                             119    0.87 8  236 235 
 NOR  HZ I         7 3 51.74         1.7 0.30            119            236 235 
                                                                                
