 2015  615 0436 48.5 L   6.815 -73.147130.1  RSN 19 0.4 2.5LRSN                1
 GAP=136        0.86       1.8     3.0  3.9 -0.1424E+01  0.4503E+01  0.9886E-01E
 Epicentro: LOS SANTOS - SANTANDER                                             3
 ACTION:UPD 15-09-10 22:12 OP:cam  STATUS:               ID:20150615043648 L   I
 OLDACT:UP  15-06-15 17:01 OP:drio STATUS:               ID:20150615042739     3
 OLDACT:REG 15-06-15 13:23 OP:drio STATUS:               ID:20150615042739     3
 2015-06-15-0427-39M.COL___315                                                 6
 STAT SP IPHASW D HRMM SECON CODA AMPLIT PERI AZIMU VELO AIN AR TRES W  DIS CAZ7
 BAR2 EZ EP     D  437  6.68                             169    0.3610 24.9 189 
 BAR2 EZ ES        437 19.87                             169   -0.3310 24.9 189 
 BAR2 EZ I         437 22.86        58.5 0.22            166           24.9 189 
 BRR  HZ EP     C  437  8.53                             150    0.5710 70.3 297 
 BRR  HE ES        437 22.78                             150   -0.3410 70.3 297 
 BRR  HZ I         437 28.80        45.6 0.26            146           70.3 297 
 PAM  SZ EP        437  9.24                             148    0.2110 76.2  40 
 PAM  SN ES        437 24.94                             148   -0.0810 76.2  40 
 PAM  SZ I         437 27.42        37.4 0.24            154           76.2  40 
 RUS  HZ EP        437 10.72                             140   -0.1910  102 176 
 RUS  HE ES        437 28.22                             140   -0.1410  102 176 
 RUS  HZ I         437 32.18        19.1 0.46            144            102 176 
 OCA  HZ EP        437 15.75                             126    0.23 9  159 353 
 OCA  HN ES        437 36.59                             126    0.03 9  159 353 
 OCA  HZ I         437 44.91        75.6 0.22            128            159 353 
 SPBC HZ EP        437 15.70                             125   -0.30 9  164 219 
 SPBC HN ES        437 37.82                             125    0.40 9  164 219 
 SPBC HZ I         437 42.47        52.9 0.40            127            164 219 
 ZAR  HZ EP        437 20.07                             119    0.13 9  203 292 
 ZAR  HN ES        437 44.30                             119   -0.13 9  203 292 
 ZAR  HZ I         438  1.77        27.6 0.30            119            203 292 
 NOR  HZ EP        437 22.89                             115   -0.61 8  236 234 
 NOR  HN ES        437 51.43                             115    0.65 8  236 234 
 NOR  HZ I         437 56.08        19.6 0.18            117            236 234 
 SML  HZ EP        437 23.49                             114   -0.67 8  242 335 
 SML  HE ES        437 51.58                             114   -0.38 8  242 335 
 SML  HZ I         437 55.62        29.9 0.10            116            242 335 
 CHI  HZ EP        437 25.22                             113   -0.37 8  250 195 
 CHI  HN ES        437 54.52                             113    0.03 8  250 195 
 CHI  HZ I         437 59.50        21.2 0.30            117            250 195 
 ROSC BZ EP        437 26.51                             113    0.51 8  254 211 
 ROSC BN ES        437 55.31                             113    0.09 8  254 211 
 ROSC BZ I         438  1.28        50.7 0.40            116            254 211 
 HEL  HZ EP        437 28.34                             111    0.31 8  272 255 
 HEL  HN ES        437 59.19                             111    0.35 8  272 255 
 HEL  HZ I         438  5.22        16.8 0.24            113            272 255 
 URE  HZ EP   4    437 27.29                             110   -1.52 0  283 292 
 URE  HE ES   4    437 56.63                             110   -3.60 0  283 292 
 GUY2CHZ EP        437 31.30                             109   -0.27 7  302 235 
 GUY2CHN ES        438  4.94                             109   -0.19 7  302 235 
 GUY2CHZ I         438 13.11        17.2 0.58                           302 235 
 LL2C HZ EP        437 31.22                             109   -0.05 7  305 354 
 LL2C HN ES        438  5.45                             109    0.84 7  305 354 
 LL2C HZ I         438  9.28        24.3 0.18            111            305 354 
 PTGC HZ EP   4    437 29.97                             108   -1.95 0  310 159 
 PTGC HE ES   4    438  3.65                             108   -2.10 0  310 159 
 CBOC HZ EP        437 34.18                             107   -0.72 7  334 252 
 CBOC HE ES        438 10.66                             107   -0.40 7  334 252 
 CBOC HZ I         438 16.52         4.7 0.30            109            334 252 
 TOL  SZ EP        437 36.10                             106   -0.23 7  345 224 
 TOL  SN ES        438 14.30                             106    0.68 7  345 224 
 TOL  SZ I         438 23.08        14.1 0.32            108            345 224 
 MON  HZ EP   4    437 35.54                             106   -1.31 0  353 308 
 MON  HN ES   4    438 13.31                             106   -1.22 0  353 308 
 PRA  HZ EP   4    437 40.34                             104   -1.38 0  393 209 
 PRA  HE ES   4    438 22.19                             104   -1.01 0  393 209 
 PRA  HZ I         438 29.21        18.0 0.26            106            393 209 
 ORTC HZ EP        437 42.02                             103   -0.09 6  397 216 
 ORTC HE ES        438 23.66                             103   -0.24 6  397 216 
 ORTC HZ I         438 28.98         8.5 0.34            106            397 216 
 SJC  HZ EP   4    437 40.95                             103   -2.51 0  408 327 
 SJC  HN ES   4    438 21.99                             103   -4.31 0  408 327 
 SJC  HZ I         438 36.52         4.2 0.42            105            408 327 
                                                                                
