 2013 1115 0155 35.3 L   6.806 -73.175148.2  RSN 15 0.5 2.2LRSN                1
 GAP=180        1.12       3.0     5.5  6.0 -0.4419E+00  0.5491E+01 -0.7688E+00E
 Epicentro: LOS SANTOS - SANTANDER                                             3
 ACTION:UPD 14-01-09 16:28 OP:ep   STATUS:               ID:20131115015535 L   I
 OLDACT:REG 13-11-15 08:01 OP:nd   STATUS:               ID:20131115015000     3
 2013-11-15-0150-00M.COL___279                                                 6
 STAT SP IPHASW D HRMM SECON CODA AMPLIT PERI AZIMU VELO AIN AR TRES W  DIS CAZ7
 BAR2 SZ EP        155 56.15                             171    0.8910 23.7 182 
 BAR2 SZ ES        156 10.49                             171   -0.3210 23.7 182 
 BAR2 SZ I         156 11.65        44.8 0.18            165           23.7 182 
 BRR  HZ EP        155 56.93                             154    0.3610 68.0 299 
 BRR  HN ES        156 14.10                             154    0.9610 68.0 299 
 BRR  HZ I         156 15.12        18.3 0.14            147           68.0 299 
 RUS  HN ES        156 17.71                             144   -0.4510  102 174 
 PTB  HZ EP        156  1.82                             133   -0.41 9  145 258 
 PTB  HN ES        156 22.88                             133   -0.33 9  145 258 
 PTB  HZ I         156 25.99        15.3 0.74            129            145 258 
 OCA  HZ EP        156  3.74                             130    0.00 9  159 354 
 OCA  HN ES        156 25.57                             130   -0.32 9  159 354 
 OCA  HZ I         156 29.95        20.0 0.40            131            159 354 
 SPBC HZ EP        156  3.96                             130    0.08 9  162 218 
 SPBC HN ES        156 26.23                             130    0.08 9  162 218 
 SPBC HZ I         156 33.77        26.6 0.34            127            162 218 
 ZAR  HZ EP        156  7.70                             123    0.10 9  201 292 
 ZAR  HN ES        156 32.73                             123   -0.05 9  201 292 
 ZAR  HZ I         156 38.55        16.2 0.44            121            201 292 
 NOR  HZ EP        156 11.08                             119    0.11 8  232 234 
 NOR  HN ES        156 38.70                             119   -0.06 8  232 234 
 NOR  HZ I         156 46.65        13.3 0.44            117            232 234 
 SML  HZ EP        156 11.63                             118   -0.25 8  242 336 
 SML  HN ES        156 39.61                             118   -0.78 8  242 336 
 SML  HZ I         156 43.59        23.6 0.10            118            242 336 
 CHI  HZ EP        156 13.07                             118   -0.08 8  248 194 
 CHI  HN ES        156 42.10                             118   -0.55 8  248 194 
 CHI  HZ I         156 48.19         4.9 0.52            117            248 194 
 ROSC BZ EP   4    156 14.73                             117    1.26 0  252 210 
 ROSC BN ES   4    156 45.20                             117    1.98 0  252 210 
 HEL  HZ EP   4    156 16.78                             116    1.44 0  269 255 
 HEL  HN ES   4    156 48.53                             116    1.98 0  269 255 
 HEL  HZ I         156 55.61         8.8 0.38            114            269 255 
 GUY2CHZ EP   4    156 21.51                             113    2.71 0  299 234 
 GUY2CHN ES   4    156 54.35                             113    1.64 0  299 234 
 GUY2CHZ I         157  1.74         7.8 0.28                           299 234 
 RREF HZ EP        156 22.01                             111    0.66 7  320 229 
 RREF HN ES   4    156 58.93                             111    1.68 0  320 229 
 RREF HZ I         157  5.95         9.4 0.28            110            320 229 
 CBOC HZ EP   4    156 23.39                             111    1.37 0  331 252 
 CBOC HN ES   4    157  0.35                             111    1.91 0  331 252 
 CBOC HZ I         157  7.30         2.1 0.32            109            331 252 
 SJC  HZ EP   4    156 29.23                             106   -1.47 0  407 327 
 SJC  HN ES   4    157 10.76                             106   -3.13 0  407 327 
 SJC  HZ I         157 14.78         2.7 0.50            106            407 327 
                                                                                
