 2015 1215 0248  4.7 L   6.817 -73.133142.0  RSN 11 0.4 2.2LRSN                1
 GAP=137        0.96       3.0     3.8  5.3 -0.1550E+01  0.6624E+01  0.8018E-01E
 Epicentro: LOS SANTOS - SANTANDER                                             3
 OLDACT:UP  15-12-15 15:06 OP:cara STATUS:               ID:20151215023746     3
 OLDACT:UP  15-12-15 15:01 OP:cara STATUS:               ID:20151215023746     3
 OLDACT:REG 15-12-15 13:01 OP:cara STATUS:               ID:20151215023746     3
 ACTION:UPD 16-02-04 15:04 OP:cam  STATUS:               ID:20151215024804 L   I
 OLDACT:DUP 15-12-15 15:26 OP:cara STATUS:               ID:20151215023747d    3
 OLDACT:UP  15-12-15 15:24 OP:cara STATUS:               ID:20151215023746     3
 2015-12-15-0237-46M.COL___328                                                 6
 STAT SP IPHASW D HRMM SECON CODA AMPLIT PERI AZIMU VELO AIN AR TRES W  DIS CAZ7
 BAR2 EZ EP        248 23.77                             169   -0.1310 25.5 192 
 BAR2 EZ ES        248 38.43                             169   -0.4610 25.5 192 
 BAR2 EZ I         248 40.21        31.0 0.26            169           25.5 192 
 BRR  HZ IP     C  248 25.59                             152    0.1610 71.6 297 
 BRR  HE ES        248 41.93                             152    0.3010 71.6 297 
 BRR  HZ I         248 45.39        20.5 0.16            149           71.6 297 
 PAM  EZ EP        248 26.54                             151    0.2010 75.0  40 
 PAM  EN ES        248 43.77                             151    0.5210 75.0  40 
 PAM  EZ I         248 45.59        20.3 0.54            154           75.0  40 
 RUS  HZ EP        248 27.86                             142   -0.3310  102 177 
 RUS  HN ES        248 46.84                             142    0.3110  102 177 
 RUS  HZ I         248 48.08        14.3 0.24            145            102 177 
 PTB  HZ EP        248 30.97                             131   -0.53 9  150 258 
 PTB  HE ES        248 52.05                             131   -0.37 9  150 258 
 PTB  HZ I         248 57.08        18.3 0.32            130            150 258 
 OCA  HE ES        248 53.73                             129   -0.52 9  159 353 
 OCA  HZ I         248 58.07        48.5 0.28            130            159 353 
 SPBC HN ES        248 55.00                             128   -0.30 9  166 219 
 SPBC HZ I         248 58.69        19.3 0.24            129            166 219 
 ZAR  HZ EP        248 37.46                             121    0.52 9  205 291 
 ZAR  HE ES        249  2.58                             121    0.48 9  205 291 
 ZAR  HZ I         249  7.70        21.5 0.30            122            205 291 
 SML  HZ EP        248 40.39                             117   -0.57 8  243 335 
 SML  HN ES   4    249  7.97                             117   -1.30 0  243 335 
 SML  HZ I         249 14.26        17.8 0.26            118            243 335 
 HEL  HZ EP        248 45.20                             114    0.30 8  274 255 
 HEL  HN ES        249 16.43                             114    0.15 8  274 255 
 HEL  HZ I         249 22.55         7.1 0.50            115            274 255 
 PRA  HZ EP        248 58.47                             106    0.13 6  394 210 
 PRA  HE ES        249 40.88                             106    0.68 6  394 210 
 PRA  HZ I         249 44.29         4.0 0.34            107            394 210 
                                                                                
