 2014  615 0223 15.6 L   7.158 -73.046160.5  RSN  5 0.3 1.7LRSN                1
 GAP=208        0.83       4.6     6.0  8.1 -0.7469E+00  0.1257E+02 -0.4261E+01E
 Epicentro: BUCARAMANGA - SANTANDER                                            3
 ACTION:UPD 14-07-01 22:54 OP:nd   STATUS:               ID:20140615022315 L   I
 OLDACT:REG 14-06-15 12:40 OP:mh   STATUS:               ID:20140615021805     3
 2014-06-15-0218-05M.COL___262                                                 6
 STAT SP IPHASW D HRMM SECON CODA AMPLIT PERI AZIMU VELO AIN AR TRES W  DIS CAZ7
 BAR2 SZ EP        223 38.90                             157    0.5310 64.4 194 
 BAR2 SZ ES        223 55.98                             157   -0.1610 64.4 194 
 BAR2 SZ I         223 56.66         8.0 0.17            157           64.4 194 
 OCA  HN ES        224  2.45                             141   -0.1310  123 346 
 PTB  HZ EP        223 45.22                             131   -0.59 9  170 246 
 PTB  HN ES        224  9.38                             131    0.00 9  170 246 
 PTB  HZ I         224 11.71         4.8 0.24            130            170 246 
 ZAR  HN ES        224 15.33                             126    0.30 9  203 281 
 SJC  HZ EP        224  8.71                             109    0.03 6  383 322 
 SJC  HN ES   4    224 46.90                             109   -3.18 0  383 322 
 SJC  HZ I         224 53.07         1.6 0.23            109            383 322 
                                                                                
