 2016  915 0944  6.6 L   6.764 -73.116141.6  RSN  6 0.5 1.6LRSN                1
 GAP=165        1.30       7.0     6.9  9.4 -0.7737E+01  0.2401E+02  0.7355E+01E
 Epicentro: LOS SANTOS - SANTANDER                                             3
 ACTION:UPD 17-08-17 21:12 OP:lp   STATUS:               ID:20160915094406 L   I
 OLDACT:REG 16-09-15 20:28 OP:lv   STATUS:               ID:20160915093735     3
 2016-09-15-0938-00M.COL___327                                                 6
 STAT SP IPHASW D HRMM SECON CODA AMPLIT PERI AZIMU VELO AIN AR TRES W  DIS CAZ7
 BAR2 EZ EP        944 25.43                             171   -0.2410 20.4 201 
 BAR2 EZ ES        944 40.30                             171   -0.2510 20.4 201 
 BAR2 EZ I         944 42.44         5.6 0.15            169           20.4 201 
 BRR  HZ EP        944 27.38                             150   -0.2110 76.0 300 
 BRR  HN ES        944 44.24                             150    0.2810 76.0 300 
 BRR  HZ I         944 48.67         8.7 0.33            149           76.0 300 
 PAM  EE ES        944 45.69                             150    0.2110 78.5  36 
 PTB  HZ EP        944 32.74                             131   -0.73 9  150 261 
 PTB  HE ES        944 54.47                             131    0.05 9  150 261 
 PTB  HZ I         944 55.87         4.2 0.14            131            150 261 
 SPBC HZ EP        944 34.51                             128   -0.18 9  162 221 
 SPBC HN ES        944 57.20                             128    0.60 9  162 221 
 SPBC HZ I         945  2.35         3.1 0.09            129            162 221 
 ZAR  HZ EP        944 40.56                             121    1.30 8  209 293 
 ZAR  HN ES        945  4.06                             121   -0.67 8  209 293 
 ZAR  HZ I         945 10.52         5.1 0.18            122            209 293 
                                                                                
