 2011  915 0359 33.7 L   6.865 -73.277121.6  RSN  9 0.2 2.2LRSN                1
 GAP=163        0.38       1.9     2.7  3.1  0.9052E+00  0.2352E+01  0.9226E+00E
 Epicentro: ZAPATOCA - SANTANDER                                               3
 ACTION:UPD 12-07-13 15:57 OP:ep   STATUS:               ID:20110915035933 L   I
 2011-09-15-0355-41S.COL___169                                                 6
 STAT SP IPHASW D HRMM SECON CODA AMPLIT PERI AZIMU VELO AIN AR TRES W  DIS CAZ7
 BAR2 SZ IP        359 50.87                             164    0.1610 31.9 161 
 BAR2 SZ ES   1    4 0  3.85                             164   -0.11 7 31.9 161 
 BAR2 SZ I         4 0  5.20       123.5 0.27                          31.9 161 
 BRR  HZ IP     C  359 51.28                             154   -0.0810 55.0 299 
 BRR  HE ES   1    4 0  5.41                             154    0.30 7 55.0 299 
 BRR  HZ I         4 0  6.04        54.6 0.13                          55.0 299 
 RUS  HZ EP   1    359 55.82                             135   -0.13 7  110 169 
 RUS  HN ES   2    4 0 12.92                             135   -0.37 5  110 169 
 OCA  SZ EP   1    359 59.30                             125   -0.15 7  152 358 
 OCA  SZ ES   2    4 0 19.48                             125   -0.03 5  152 358 
 OCA  SZ I         4 0 25.63        23.2 0.41                           152 358 
 ZAR  HZ EP   1    4 0  2.73                             119   -0.25 7  188 292 
 ZAR  HN ES   2    4 0 25.93                             119    0.13 4  188 292 
 ZAR  HZ I         4 0 28.31        16.2 0.57                           188 292 
 NOR  SZ EP   2    4 0  7.72                             114    0.34 4  228 231 
 NOR  SN ES   2    4 0 33.52                             114   -0.11 4  228 231 
 CHI  HZ EP   1    4 0 11.03                             111    0.40 6  252 192 
 CHI  HN ES   2    4 0 39.44                             111    0.03 4  252 192 
 CHI  HZ I         4 0 43.03         4.1 0.95                           252 192 
 HEL  HZ EP   2    4 0 11.58                             111    0.13 4  260 253 
 HEL  HN ES   2    4 0 40.46                             111   -0.41 4  260 253 
 HEL  HZ I         4 0 46.13         6.8 0.30                           260 253 
 PRA  HZ EP   2    4 0 26.43                             102   -0.03 3  391 207 
 PRA  HN ES   2    4 1  7.62                             102    0.03 3  391 207 
                                                                                
