 2010  815 0113 22.3 L   6.748 -73.049146.7  RSN  8 0.4 1.8LRSN                1
 GAP=170        1.03       5.1    10.8  8.1 -0.5995E+00 -0.4026E+02 -0.3977E+01E
 Epicentro: ARATOCA - SANTANDER                                                3
 ACTION:UP  10-09-07 10:55 OP:vdl  STATUS:               ID:20100815011322 L   I
 2010-08-15-0111-12S.COL___111                                                 6
 STAT SP IPHASW D HRMM SECON CODA AMPLIT PERI AZIMU VELO SNR AR TRES W  DIS CAZ7
 BAR2 SZ EP        113 42.38                                     0.410   23 221 
 BAR2 SZ ES   1    113 56.90                             171    -0.5 7   23 221 
 BAR2 SZ I         113 58.79        12.5 0.23                            23 221 
 BTL  SZ EP        113 42.49                             168     0.310   31 308 
 BTL  SZ ES        113 57.92                             168     0.210   31 308 
 GIR2 SZ EP        113 42.45                             164     0.110   40 336 
 BRR  HZ IP     C  113 44.23                             149     0.010   83 299 
 BRR  HZ I         113 44.51        21.1 0.19                            83 299 
 BRR  HN ES        114  1.38                             149     0.010   83 299 
 RUS  HZ EP        113 44.95                             146    -0.710   95 182 
 RUS  HE ES   2    114  4.44                             146     0.5 5   95 182 
 RUS  HZ I         114  6.10         5.2 0.42                            95 182 
 GUE  SZ EP        113 47.44                             139     0.110  121   7 
 GRA  SZ EP        113 48.23                             136     0.410  129  12 
 GRA  SZ ES   1    114  7.45                             136    -0.3 7  129  12 
 GRA  SZ I         114  8.89         8.4 0.47                           129  12 
 OCA  SZ EP   1    113 50.95                             128    -0.4 7  168 350 
 OCA  SZ ES   1    114 13.40                             128    -0.6 7  168 350 
 OCA  SZ I         114 15.92         9.8 0.29                           168 350 
                                                                                
