 2016  415 0507 35.5 L   6.807 -73.144140.0  RSN 11 0.4 1.8LRSN                1
 GAP=136        0.89       2.7     4.1  5.3 -0.2754E+01  0.7136E+01  0.6381E+00E
 Epicentro: LOS SANTOS - SANTANDER                                             3
 ACTION:UPD 16-05-05 14:21 OP:rebc STATUS:               ID:20160415050735 L   I
 OLDACT:UP  16-04-15 18:38 OP:mh   STATUS:               ID:20160415045748d    3
 OLDACT:UP  16-04-15 18:36 OP:mh   STATUS:               ID:20160415045748d    3
 OLDACT:UP  16-04-15 18:36 OP:mh   STATUS:               ID:20160415045748d    3
 OLDACT:UP  16-04-15 18:34 OP:mh   STATUS:               ID:20160415045748d    3
 OLDACT:REG 16-04-15 13:53 OP:mh   STATUS:               ID:20160415045748d    3
 2016-04-15-0457-47M.COL___310                                                 6
 STAT SP IPHASW D HRMM SECON CODA AMPLIT PERI AZIMU VELO AIN AR TRES W  DIS CAZ7
 BAR2 EZ EP        5 7 54.45                             170   -0.0010 24.1 190 
 BAR2 EZ ES        5 8  9.76                             170    0.5210 24.1 190 
 BAR2 EZ I         5 8 10.80         9.6 0.28            168           24.1 190 
 PAM  EZ EP        5 7 57.23                             150    0.1710 76.7  40 
 PAM  EN ES        5 8 13.59                             150   -0.2910 76.7  40 
 PAM  EZ I         5 8 16.58        11.8 0.52            155           76.7  40 
 RUS  HZ EP        5 7 58.45                             143   -0.2910  101 176 
 RUS  HN ES        5 8 16.94                             143    0.0710  101 176 
 RUS  HZ I         5 8 18.35         4.3 0.40            145            101 176 
 PTB  HZ EP        5 8  1.32                             131   -0.71 9  148 259 
 PTB  HN ES        5 8 22.14                             131   -0.59 9  148 259 
 PTB  HZ I         5 8 29.52         8.9 0.32            130            148 259 
 OCA  HZ EP        5 8  3.26                             129   -0.04 9  160 353 
 OCA  HN ES        5 8 25.16                             129    0.18 9  160 353 
 OCA  HZ I         5 8 29.80        24.8 0.20            130            160 353 
 SPBC HZ EP        5 8  3.46                             128   -0.17 9  164 219 
 SPBC HN ES        5 8 25.87                             128    0.30 9  164 219 
 SPBC HZ I         5 8 30.70         9.3 0.51            128            164 219 
 ZAR  HZ EP   1    5 8  7.84                             121    0.28 6  204 292 
 ZAR  HN ES   1    5 8 33.24                             121    0.67 6  204 292 
 ZAR  HZ I         5 8 37.99         9.5 0.66            122            204 292 
 CHI  HZ EP        5 8 13.04                             116    0.07 8  249 195 
 CHI  HN ES   1    5 8 41.66                             116   -0.54 6  249 195 
 CHI  HZ I         5 8 43.90         2.3 0.44            118            249 195 
 ROSC BZ EP   4    5 8 15.27                             116    1.88 0  254 211 
 ROSC BN ES   4    5 8 44.96                             116    2.01 0  254 211 
 ROSC BZ I         5 8 50.59         6.8 0.53            117            254 211 
 URE  HZ EP   4    5 8 17.35                             113    1.07 0  284 292 
 URE  HN ES   4    5 8 50.30                             113    2.21 0  284 292 
 GUY2CHZ EP   1    5 8 19.52                             111    0.61 5  302 235 
 GUY2CHN ES   4    5 8 53.91                             111    1.13 0  302 235 
 GUY2CHZ I         5 9  3.43         2.5 0.06                           302 235 
 ORTC HZ EP        5 8 29.45                             105    0.14 6  396 216 
 ORTC HN ES        5 9 12.06                             105    0.77 6  396 216 
 ORTC HZ I         5 9 16.84         2.1 0.29            107            396 216 
                                                                                
