 2010  615 0057  2.4 L   6.874 -72.717128.8  RSN  4 0.3 1.5LRSN                1
 GAP=224        0.64       4.3    37.6 14.2  0.9455E+02 -0.4544E+03 -0.3493E+02E
 Epicentro: CERRITO - SANTANDER                                                3
 ACTION:UP  10-08-24 10:10 OP:vdl  STATUS:               ID:20100615005702 L   I
 2010-06-15-0055-01S.COL___114                                                 6
 STAT SP IPHASW D HRMM SECON CODA AMPLIT PERI AZIMU VELO SNR AR TRES W  DIS CAZ7
 BAR2 SZ EP        057 21.30                             153    -0.110   60 239 
 BAR2 SZ ES   1    057 36.62                             153     0.3 7   60 239 
 RUS  HZ EP   1    057 25.81                             136     0.1 7  116 200 
 RUS  HN ES   1    057 43.73                             136    -0.2 7  116 200 
 RUS  HZ I         057 46.11         3.3 0.35                           116 200 
 OCA  SZ EP   1    057 30.29                             125     0.4 7  165 336 
 OCA  SZ ES   1    057 50.99                             125    -0.4 7  165 336 
 OCA  SZ I         057 59.98         5.1 0.39                           165 336 
 CHI  HZ EP   1    057 41.85                             111     0.0 6  272 204 
 CHI  HZ I         058 11.14         2.0 0.36                           272 204 
                                                                                
