 2012  115 0529 40.6 L   6.802 -73.124145.1  RSN  7 0.3 1.9LRSN                1
 GAP=139        0.74       4.9     5.2  6.3  0.4604E+01  0.9109E+01  0.3074E+01E
 Epicentro: LOS SANTOS - SANTANDER                                             3
 ACTION:UP  12-02-03 08:17 OP:REBC STATUS:               ID:20120115052940 L   I
 2012-01-15-0527-59S.COL___187                                                 6
 STAT SP IPHASW D HRMM SECON CODA AMPLIT PERI AZIMU VELO SNR AR TRES W  DIS CAZ7
 BAR2 SZ EP   1    530  0.12                             170    -0.1 7   24 196 
 BAR2 SZ ES   1    530 15.20                             170    -0.3 7   24 196 
 BAR2 SZ I         530 16.05        25.7 0.27                            24 196 
 GIR2 SZ EP   1    530  0.22                             167     0.0 7   32 346 
 GIR2 SZ ES   1    530 15.20                             167    -0.3 7   32 346 
 BRR  HZ EP   1    530  1.94                             152     0.1 7   73 297 
 BRR  HE ES   1    530 18.95                             152     0.6 7   73 297 
 BRR  HZ I         530 21.28        16.5 0.20                            73 297 
 PAM  SZ EP   1    530  2.75                             151     0.1 7   76  38 
 PAM  SN ES   1    530 19.84                             151     0.0 7   76  38 
 PAM  SZ I         530 21.97        10.1 0.59                            76  38 
 RUS  HZ EP   1    530  4.52                             144     0.2 7  101 177 
 RUS  HN ES   1    530 23.04                             144     0.2 7  101 177 
 RUS  HZ I         530 23.73         5.8 0.19                           101 177 
 PTB  HZ EP   1    530  7.09                             131    -0.7 7  150 259 
 ZAR  HZ EP   2    530 13.91                             122     0.6 4  206 292 
 ZAR  HN ES   1    530 38.59                             122    -0.1 6  206 292 
 ZAR  HZ I         530 44.73        15.6 0.29                           206 292 
                                                                                
