 2016 1215 0607 31.6 L   6.781 -73.081144.0  RSN  9 0.4 1.5LRSN                1
 GAP=125        0.81       3.4     3.8  4.4  0.1575E+01  0.2690E+01  0.3708E+01E
 Epicentro: LOS SANTOS - SANTANDER                                             3
 ACTION:UPD 17-01-11 20:15 OP:rebc STATUS:               ID:20161215060731 L   I
 OLDACT:UP  16-12-15 16:26 OP:and  STATUS:               ID:20161215055745     3
 OLDACT:REG 16-12-15 12:39 OP:and  STATUS:               ID:20161215055745     3
 2016-12-15-0558-00M.COL___378                                                 6
 STAT SP IPHASW D HRMM SECON CODA AMPLIT PERI AZIMU VELO AIN AR TRES W  DIS CAZ7
 BAR2 EZ EP        6 7 50.76                             170   -0.3110 23.6 208 
 BAR2 EZ ES        6 8  6.50                             170    0.2810 23.6 208 
 BAR2 EZ I         6 8  7.93         9.0 0.24            168           23.6 208 
 PAM  EZ IP     D  6 7 53.80                             151    0.2810 74.8  34 
 PAM  EN ES        6 8 10.80                             151    0.2210 74.8  34 
 PAM  EZ I         6 8 12.50         3.9 0.16            154           74.8  34 
 BRR  HZ IP     C  6 7 52.60                             150   -0.4310 78.5 297 
 BRR  HN ES        6 8  9.32                             150   -0.4010 78.5 297 
 BRR  HZ I         6 8 11.67         7.6 0.12            149           78.5 297 
 RUS  HZ EP        6 7 54.94                             144   -0.1110 98.2 180 
 RUS  HN ES        6 8 13.38                             144    0.0710 98.2 180 
 RUS  HZ I         6 8 15.49         4.2 0.24            145           98.2 180 
 PTB  HZ EP   9    6 7 57.52                             130   -1.56 0  154 260 
 PTB  HN ES        6 8 18.78                                   -0.14 9  154 260 
 PTB  HZ I         6 8 24.14         4.4 0.18            130            154 260 
 ZAR  HZ EP        6 8  5.01                             121    0.26 8  211 292 
 ZAR  HN ES        6 8 30.61                             121    0.05 8  211 292 
 ZAR  HZ I         6 8 35.16         3.8 0.17            121            211 292 
 PTGC HZ EP        6 8 14.23                             112   -0.68 7  304 160 
 GUY2CHZ EP        6 8 16.49                             112    0.79 7  306 236 
 GUY2CHN ES   4    6 8 52.77                             112    2.71 0  306 236 
 GUY2CHZ I         6 8 55.25         1.6 0.31                           306 236 
 PRA  HZ EP        6 8 25.59                             106    0.28 6  394 211 
 PRA  HN ES        6 9  7.24                             106    0.08 6  394 211 
 PRA  HZ I         6 9 12.72         1.2 0.32            107            394 211 
                                                                                
