 2012  915 0942 12.9 L   6.795 -73.127151.5  RSN 13 0.4 2.5LRSN                1
 GAP=116        0.80       3.8     4.1  5.3  0.1521E+01  0.5703E+01  0.6663E+01E
 Epicentro: LOS SANTOS - SANTANDER                                             3
 ACTION:UPD 12-10-22 14:18 OP:ep   STATUS:               ID:20120915094212 L   I
 2012-09-15-0940-00M.COL___227                                                 6
 STAT SP IPHASW D HRMM SECON CODA AMPLIT PERI AZIMU VELO AIN AR TRES W  DIS CAZ7
 BAR2 SZ EP        942 33.18                             171   -0.0910 23.2 195 
 BAR2 SZ ES   1    942 48.59                             171   -0.53 7 23.2 195 
 BAR2 SZ I         942 50.93        95.0 0.30                          23.2 195 
 GIR2 SZ EP   1    942 33.71                             167    0.38 7 32.3 347 
 GIR2 SZ ES   1    942 48.83                             167   -0.40 7 32.3 347 
 BRR  HZ EP   1    942 35.22                             153    0.38 7 73.3 298 
 BRR  HZ I         942 35.42        57.3 0.12                          73.3 298 
 BRR  HN ES   1    942 52.72                             153    0.81 7 73.3 298 
 PAM  SZ EP   1    942 36.05                             152    0.32 7 76.5  38 
 PAM  SN ES   1    942 53.34                             152   -0.16 7 76.5  38 
 PAM  SN I         942 56.82        36.1 0.42                          76.5  38 
 RUS  HZ EP        942 37.07                             145   -0.1510 99.9 177 
 RUS  HZ I         942 37.70        18.4 0.16                          99.9 177 
 RUS  HE ES   1    942 56.03                             145   -0.12 7 99.9 177 
 PTB  HZ EP   1    942 39.85                             133   -0.71 7  150 259 
 PTB  HN ES   1    943  1.59                             133   -0.52 7  150 259 
 PTB  HN I         943  2.50        58.6 0.30                           150 259 
 YOP  SZ EP   1    942 43.70                             128    0.43 7  177 154 
 YOP  SZ I         943  9.20        26.5 0.30                           177 154 
 ZAR  HZ EP   1    942 45.69                             123   -0.30 6  206 292 
 ZAR  HN ES   1    943 12.35                             123    0.58 6  206 292 
 ZAR  HZ I         943 17.63        41.2 0.28                           206 292 
 NOR  SN ES   2    943 17.88                             119    0.47 4  236 235 
 CHI  HZ EP   1    942 51.06                             118    0.09 6  249 196 
 CHI  HN ES   1    943 21.34                             118    0.71 6  249 196 
 CHI  HN I         943 23.12        34.6 0.28                           249 196 
 HEL  HZ EP   1    942 53.39                             116   -0.28 6  274 256 
 HEL  HZ I         943 32.43        25.6 0.28                           274 256 
 DBB  SZ EP   1    943  0.47                             110   -0.44 5  342 274 
 PRA  HZ EP   1    943  6.38                             107   -0.35 4  393 210 
 PRA  HZ I         943  8.99        15.8 0.18                           393 210 
 PRA  HE ES   1    943 48.88                             107    0.19 4  393 210 
                                                                                
