 2012 1215 0048 32.9 L   7.210 -73.388111.0  RSN  7 0.2 1.2LRSN                1
 GAP=111        0.47       2.3     2.6  4.0 -0.8368E+00  0.1566E+01  0.1380E+01E
 Epicentro: LEBRIJA - SANTANDER                                                3
 ACTION:UPD 13-01-04 14:27 OP:ep   STATUS:               ID:20121215004832 L   I
 2012-12-15-0047-36M.COL___213                                                 6
 STAT SP IPHASW D HRMM SECON CODA AMPLIT PERI AZIMU VELO AIN AR TRES W  DIS CAZ7
 GIR2 SZ EP   1    048 48.23                             166   -0.04 7 25.9 124 
 GIR2 SZ ES   1    049  0.37                             166    0.10 7 25.9 124 
 GIR2 SZ I         049  1.78         9.4 0.48                          25.9 124 
 BRR  HZ EP   1    048 48.72                             160    0.25 7 37.5 252 
 BRR  HE ES   1    049  0.58                             160   -0.06 7 37.5 252 
 BAR2 SZ EP   1    048 50.97                             145    0.18 7 72.0 162 
 BAR2 SZ ES   1    049  4.97                             145    0.21 7 72.0 162 
 PAM  SZ EP   1    048 51.62                             143    0.09 7 77.4  79 
 PAM  SN ES   1    049  6.13                             143    0.05 7 77.4  79 
 PAM  SZ I         049  8.98         2.6 0.31                          77.4  79 
 OCA  HN ES   1    049 10.39                             131   -0.33 7  114   4 
 PTB  HZ EP   1    048 56.54                             124    0.13 7  139 238 
 PTB  HN ES   1    049 14.68                             124   -0.09 7  139 238 
 PTB  HZ I         049 18.19         4.6 0.16                           139 238 
 RUS  HZ EP   1    048 58.07                             123    0.00 7  150 167 
 RUS  HE ES   1    049 17.13                             123   -0.59 7  150 167 
 RUS  HZ I         049 18.91         1.4 0.40                           150 167 
                                                                                
