 2011 1215 0203 23.1 L   6.763 -73.117143.7  RSN  6 0.3 1.6LRSN                1
 GAP=142        0.55       3.6     4.4  5.6 -0.4437E+01  0.2785E+01  0.1292E+01E
 Epicentro: LOS SANTOS - SANTANDER                                             3
 ACTION:UPD 12-07-13 16:16 OP:ep   STATUS:               ID:20111215020323 L   I
 2011-12-15-0200-00M.COL___185                                                 6
 STAT SP IPHASW D HRMM SECON CODA AMPLIT PERI AZIMU VELO AIN AR TRES W  DIS CAZ7
 BAR2 SZ EP   1    2 3 42.31                             172   -0.07 7 20.2 201 
 BAR2 SZ ES   1    2 3 56.92                             172   -0.52 7 20.2 201 
 BAR2 SZ I         2 3 58.43        11.8 0.22                          20.2 201 
 GIR2 SZ EP   1    2 3 42.48                             165   -0.13 7 35.9 346 
 BRR  HZ EP   1    2 3 44.20                             151   -0.06 7 75.9 300 
 BRR  HN ES   1    2 4  1.15                             151    0.36 7 75.9 300 
 BRR  HZ I         2 4  2.43         7.9 0.09                          75.9 300 
 PAM  SZ EP   1    2 3 45.29                             150    0.16 7 78.7  36 
 PAM  SE ES   1    2 4  2.34                             150    0.00 7 78.7  36 
 RUS  HZ EP   1    2 3 46.22                             145   -0.08 7 96.4 178 
 RUS  HN ES   1    2 4  4.84                             145    0.41 7 96.4 178 
 RUS  HZ I         2 4  5.75         3.8 0.17                          96.4 178 
 NOR  SN ES   1    2 4 26.37                             118   -0.12 6  235 236 
                                                                                
