 2013  215 0244 46.8 L   6.768 -73.160148.8  RSN  8 0.5 1.8LRSN                1
 GAP=136        1.16       4.6     5.5  8.1  0.1687E+01  0.5213E+01  0.2131E+01E
 Epicentro: LOS SANTOS - SANTANDER                                             3
 ACTION:UPD 13-03-12 09:33 OP:ep   STATUS:               ID:20130215024446 L   I
 2013-02-15-0240-00M.COL___241                                                 6
 STAT SP IPHASW D HRMM SECON CODA AMPLIT PERI AZIMU VELO AIN AR TRES W  DIS CAZ7
 BAR2 SZ EP        245  6.37                             172   -0.3810 19.6 187 
 BRR  HZ EP        245  8.70                             153    0.3810 71.6 302 
 BRR  HN ES        245 25.86                             153    0.7710 71.6 302 
 BRR  HN I         245 27.68        12.4 0.26            151           71.6 302 
 PAM  SZ EP        245  9.64                             150    0.0610 81.1  39 
 PAM  SN ES        245 27.12                             150   -0.2110 81.1  39 
 PAM  SN I         245 27.90        10.1 0.48            153           81.1  39 
 RUS  HZ EP        245 11.13                             145    0.5010 97.2 175 
 RUS  HN ES        245 28.89                             145   -0.3110 97.2 175 
 RUS  HN I         245 30.77         5.9 0.28            146           97.2 175 
 PTB  HZ EP        245 13.63                             133   -0.21 9  146 260 
 PTB  HN ES        245 34.30                             133   -0.62 9  146 260 
 PTB  HN I         245 40.31         5.7 0.22            132            146 260 
 ZAR  HE ES   1    245 45.44                             123    0.53 6  204 293 
 CHI  HZ EP        245 24.83                             118    0.55 8  245 195 
 CHI  HN ES   2    245 52.34                             118   -1.15 4  245 195 
 CHI  HN I         245 57.83         2.3 0.38            119            245 195 
 SML  HZ EP        245 23.75                             118   -0.14 8  246 336 
 SML  HN ES   1    245 51.75                             118   -1.06 6  246 336 
 SML  HN I         245 59.04        10.7 0.26            118            246 336 
                                                                                
