 2014  515 0233 59.7 L   6.836 -73.140143.6  RSN 16 0.5 2.3LRSN                1
 GAP= 70        1.15       3.0     3.8  6.1 -0.1651E+01  0.2784E+01  0.2960E+01E
 Epicentro: LOS SANTOS - SANTANDER                                             3
 ACTION:UPD 15-03-16 16:57 OP:nd   STATUS:               ID:20140515023359 L   I
 OLDACT:REG 14-05-15 13:27 OP:spq  STATUS:               ID:20140515022814     3
 2014-05-15-0228-14M.COL___251                                                 6
 STAT SP IPHASW D HRMM SECON CODA AMPLIT PERI AZIMU VELO AIN AR TRES W  DIS CAZ7
 BRR  HZ EPg       234 21.00                             153    0.4710 69.9 295 
 BRR  HE ESg       234 37.65                             153    0.8610 69.9 295 
 BRR  HZ I         234 42.22        22.1 0.12            151           69.9 295 
 PAM  SZ EP        234 22.19                             151    0.7210 73.9  41 
 PAM  SE ESg  1    234 38.12                             151   -0.34 7 73.9  41 
 PAM  SZ I         234 41.32        43.4 0.48            155           73.9  41 
 RUS  HZ EP        234 23.43                             142   -0.0910  105 177 
 RUS  HE ES        234 42.24                             142    0.1310  105 177 
 RUS  HZ I         234 42.90        26.2 0.28            145            105 177 
 PTB  HZ EP        234 25.96                             131   -0.65 9  149 257 
 PTB  HN ES        234 46.81                             131   -0.80 9  149 257 
 PTB  HZ I         234 49.95        20.7 0.12            132            149 257 
 TAM  HZ EP        234 27.54                             130    0.30 9  156 106 
 TAM  HN ES   4    234 47.51                             130   -1.22 0  156 106 
 OCA  HZ EP        234 27.35                             130   -0.11 9  156 353 
 OCA  HN ES        234 48.55                             130   -0.58 9  156 353 
 OCA  HZ I         234 52.57        16.4 0.26            132            156 353 
 SPBC HZ EP        234 28.09                             128   -0.27 9  167 218 
 SPBC HN ES        234 50.35                             128   -0.37 9  167 218 
 SPBC HZ I         234 52.93        34.1 0.35            130            167 218 
 ZAR  HZ EP        234 31.66                             122   -0.24 9  203 291 
 ZAR  HN ES        234 56.88                             122   -0.14 9  203 291 
 ZAR  HZ I         235  4.66        13.4 0.16            123            203 291 
 NOR  HZ EP   1    234 35.23                             118   -0.37 6  238 234 
 NOR  HN ES   1    235  3.59                             118   -0.02 6  238 234 
 NOR  HZ I         235  5.72        15.0 0.18            119            238 234 
 SML  HZ EP        234 35.45                             117   -0.38 8  240 335 
 SML  HN ES   1    235  3.97                             117   -0.04 6  240 335 
 SML  HZ I         235  7.50        24.5 0.08            119            240 335 
 CHI  HZ EP        234 37.42                             116   -0.29 8  253 195 
 CHI  HN ES        235  6.70                             116   -0.66 8  253 195 
 CHI  HZ I         235 10.45        11.8 0.56            119            253 195 
 HEL  HZ EP        234 40.97                             114    1.00 8  274 255 
 HEL  HE ES   1    235 11.95                             114    0.56 6  274 255 
 HEL  HZ I         235 17.25        10.2 0.28            116            274 255 
 GUY2CHZ EP        234 44.06                             112    0.54 7  304 234 
 GUY2CHE ES        235 17.61                             112   -0.09 7  304 234 
 GUY2CHZ I         235 25.44         9.4 0.34                           304 234 
 RREF HZ EP        234 45.52                             110   -0.57 7  325 229 
 RREF HE ES   4    235 24.40                             110    2.12 0  325 229 
 RREF HZ I         235 31.34        12.5 0.44            112            325 229 
 CBOC HZ EP        234 47.54                             109    0.82 7  335 251 
 CBOC HE ES        235 23.95                             109    0.54 7  335 251 
 PRA  HZ EP        234 53.16                             106   -0.42 6  396 209 
 PRA  HE ES        235 36.43                             106    0.82 6  396 209 
 PRA  HZ I         235 41.14         8.0 0.24            108            396 209 
                                                                                
