 2011  215 0234 34.6 L   6.826 -73.165142.0  RSN  9 0.3 2.1LRSN                1
 GAP=156        0.73       3.6     6.6  6.6 -0.1317E+02  0.2286E+02 -0.5937E+01E
 Epicentro: LOS SANTOS - SANTANDER                                             3
 ACTION:UP  11-03-28 15:08 OP:jfem STATUS:               ID:20110215023434 L   I
 2011-02-15-0234-41S.COL___136                                                 6
 STAT SP IPHASW D HRMM SECON CODA AMPLIT PERI AZIMU VELO SNR AR TRES W  DIS CAZ7
 BAR2 SZ IP        234 53.73                             169    -0.110   26 184 
 BAR2 SZ ES   1    235  8.80                             169     0.0 7   26 184 
 BAR2 SZ I         235 11.66        27.6 0.37                            26 184 
 RUS  HZ EP   1    234 57.65                             142    -0.6 7  104 175 
 RUS  HZ I         234 58.48         6.9 0.23                           104 175 
 RUS  HE ES   1    235 16.64                             142     0.0 7  104 175 
 GRA  SZ IP        234 59.47                             137     0.110  124  19 
 GRA  SZ ES   1    235 18.97                             137     0.3 7  124  19 
 GRA  SZ I         235 20.15        26.2 0.30                           124  19 
 OCA  SZ EP   1    235  2.15                             129    -0.2 7  157 354 
 OCA  SZ I         235 28.26        17.2 0.25                           157 354 
 NOR  SZ EP   1    235  9.68                             118    -0.4 6  235 234 
 NOR  SN ES   1    235 37.51                             118    -0.3 6  235 234 
 CHI  HZ EP        235 12.46                             116     0.1 8  251 195 
 CHI  HN ES   1    235 42.32                             116     0.6 6  251 195 
 CHI  HZ I         235 50.97         5.2 0.29                           251 195 
 HEL  HZ EP   2    235 15.14                             114     0.7 4  271 255 
 HEL  HZ I         235 52.66         7.7 0.47                           271 255 
 RREF HZ EP   1    235 20.98                             110     0.4 5  322 229 
 RREF HN ES   1    235 57.05                             110     0.6 5  322 229 
 RREF HZ I         236  3.24         8.6 0.35                           322 229 
 DBB  SZ EP   1    235 21.32                             109    -0.3 5  337 274 
                                                                                
