 2012  515 0425 57.8 L   6.840 -72.979136.9  RSN  5 0.2 1.4LRSN                1
 GAP=200        0.45       4.0     6.8  5.7  0.1750E+02 -0.8828E+01 -0.5706E+01E
 Epicentro: CEPITA - SANTANDER                                                 3
 ACTION:DUP 12-07-05 12:05 OP:pat  STATUS:               ID:20120515042558dL   I
 2012-05-15-0420-00M.COL___195                                                 6
 STAT SP IPHASW D HRMM SECON CODA AMPLIT PERI AZIMU VELO SNR AR TRES W  DIS CAZ7
 BAR2 SZ EP   1    426 16.91                             165     0.2 7   35 219 
 BAR2 SZ I         426 17.49         4.3 0.18                            35 219 
 BAR2 SZ ES   1    426 31.45                             165     0.0 7   35 219 
 BRR  HZ EP   1    426 18.64                             146    -0.3 7   86 290 
 BRR  HZ I         426 18.82         7.0 0.16                            86 290 
 BRR  HN ES   1    426 35.58                             146     0.1 7   86 290 
 RUS  HZ EP   1    426 21.23                             141     0.2 7  105 186 
 RUS  HN ES   1    426 39.07                             141    -0.2 7  105 186 
 RUS  HZ I         426 40.99         2.9 0.30                           105 186 
 OCA  HN ES   2    426 46.83                             128     0.0 5  159 346 
 ZAR  HN ES   2    426 57.64                             118     0.1 4  220 289 
                                                                                
