 2013  715 0350 29.9 L   6.777 -73.151146.8  RSN  7 0.4 1.5LRSN                1
 GAP=183        1.07       4.5     6.3  6.3  0.7649E+00  0.6089E+01 -0.8554E+00E
 Epicentro: LOS SANTOS - SANTANDER                                             3
 ACTION:UPD 13-08-12 10:37 OP:ep   STATUS:               ID:20130715035029 L   I
 OLDACT:REG 13-07-15 08:59 OP:nd   STATUS:               ID:20130715034959     3
 2013-07-15-0349-59M.COL___267                                                 6
 STAT SP IPHASW D HRMM SECON CODA AMPLIT PERI AZIMU VELO AIN AR TRES W  DIS CAZ7
 BAR2 SZ EP        350 49.75                             172    0.1110 20.7 190 
 BAR2 SZ ES        351  4.62                             172   -0.3910 20.7 190 
 BAR2 SZ I         351  6.20         8.9 0.18            173           20.7 190 
 GIR2 SZ EP        350 49.92                             166    0.1210 33.7 352 
 GIR2 SZ ES        351  5.08                             166   -0.2210 33.7 352 
 GIR2 SZ I         351  6.17         6.7 0.10            165           33.7 352 
 BRR  HZ EP        350 51.58                             152    0.3410 71.9 301 
 BRR  HN ES        351  8.55                             152    0.6910 71.9 301 
 BRR  HZ I         351  9.06         4.5 0.16            152           71.9 301 
 RUS  HZ EP        350 53.85                             145    0.2410 98.0 176 
 RUS  HN ES        351 11.85                             145   -0.2310 98.0 176 
 RUS  HZ I         351 13.82         2.5 0.20            147           98.0 176 
 PTB  HZ EP        350 56.20                             132   -0.69 9  147 260 
 PTB  HN ES        351 17.46                             132   -0.45 9  147 260 
 PTB  HZ I         351 19.42         3.9 0.16            133            147 260 
 SPBC HZ EP        350 58.73                             130    0.44 9  161 219 
 SPBC HN ES        351 20.71                             130    0.31 9  161 219 
 SML  HZ EP        351  6.16                             117   -0.68 8  246 336 
 SML  HN ES   2    351 36.40                             117    0.77 4  246 336 
 SML  HZ I         351 40.57         6.8 0.10            117            246 336 
                                                                                
