 2013 1115 0655 50.4 L   6.323 -73.564113.9  RSN  6 0.4 1.9LRSN                1
 GAP=229        0.89       5.8     4.6  6.9 -0.6065E+01  0.4684E+01 -0.9114E+01E
 Epicentro: SANTA HELENA DEL OPON - SANTANDER                                  3
 ACTION:UPD 14-01-09 16:28 OP:ep   STATUS:               ID:20131115065550 L   I
 OLDACT:DUP 13-11-15 11:14 OP:nd   STATUS:               ID:20131115065002d    3
 2013-11-15-0650-00M.COL___279                                                 6
 STAT SP IPHASW D HRMM SECON CODA AMPLIT PERI AZIMU VELO AIN AR TRES W  DIS CAZ7
 BAR2 SZ EP        656  7.78                             154    0.3810 51.7  55 
 BAR2 SZ ES        656 20.57                             154   -0.0510 51.7  55 
 BAR2 SZ I         656 21.79        94.4 0.20            153           51.7  55 
 BRR  HZ EP        656  9.73                             140    0.2110 88.2 349 
 BRR  HN ES        656 24.81                             140    0.4110 88.2 349 
 BRR  HZ I         656 30.35         7.2 0.44            135           88.2 349 
 PTB  HZ EP        656 10.61                             135   -0.0410  102 284 
 PTB  HN ES        656 25.92                             135   -0.4910  102 284 
 PTB  HZ I         656 30.98         8.1 0.30            132            102 284 
 ZAR  HZ EP   2    656 20.22                             116    0.43 4  193 312 
 ZAR  HN ES   2    656 43.50                             116    0.82 4  193 312 
 ZAR  HZ I         656 48.61         7.1 0.19            116            193 312 
 OCA  HZ EP        656 21.93                             113   -0.36 8  214   7 
 OCA  HN ES        656 46.39                             113   -0.74 8  214   7 
 OCA  HZ I         656 51.02         6.8 0.30            114            214   7 
 SML  HZ EP   2    656 29.93                             107    0.26 4  280 348 
 SML  HN ES   2    657  0.81                             107    0.54 4  280 348 
 SML  HZ I         657  7.44         5.0 0.10            108            280 348 
                                                                                
