 2013  515 0313 33.7 L   6.701 -73.211147.8  RSN  4 0.4 1.3LRSN                1
 GAP=216        0.87       8.7     7.0  9.3  0.2523E+02  0.5548E+01  0.1622E+01E
 Epicentro: VILLANUEVA - SANTANDER                                             3
 ACTION:UPD 13-06-20 09:50 OP:ep   STATUS:               ID:20130515031333 L   I
 2013-05-15-0310-00M.COL___256                                                 6
 STAT SP IPHASW D HRMM SECON CODA AMPLIT PERI AZIMU VELO AIN AR TRES W  DIS CAZ7
 BAR2 SZ EP   1    313 53.05                             175   -0.40 8 12.4 165 
 BAR2 SZ ES   1    314  8.25                             175   -0.57 8 12.4 165 
 BAR2 SZ I         314 10.65         6.0 0.32            178           12.4 165 
 BRR  HZ EP   1    313 54.95                             153   -0.16 8 71.3 309 
 BRR  HN ES   1    314 12.55                             153    0.77 8 71.3 309 
 BRR  HZ I         314 16.75         2.8 0.10            154           71.3 309 
 RUS  HZ EP   1    313 57.20                             147    0.20 8 90.5 171 
 RUS  HE ES   1    314 15.56                             147    0.42 8 90.5 171 
 RUS  HZ I         314 16.78         2.5 0.36            153           90.5 171 
 PTB  HZ EP   1    314  0.30                             134    0.21 7  139 263 
 PTB  HN ES        314 20.35                             134   -0.2910  139 263 
                                                                                
