 2010 1115 0844 43.8 L   6.780 -73.126141.0  RSN 11 0.4 2.2LRSN                1
 GAP=185        0.85       3.9     6.4  6.9 -0.3808E+01  0.1280E+02 -0.1154E+01E
 Epicentro: LOS SANTOS - SANTANDER                                             3
 ACTION:UP  10-12-17 16:52 OP:REBC STATUS:               ID:20101115084443 L   I
 2010-11-15-0840-06S.COL___130                                                 6
 STAT SP IPHASW D HRMM SECON CODA AMPLIT PERI AZIMU VELO SNR AR TRES W  DIS CAZ7
 BAR2 SZ IP        845  2.98                             171     0.110   22 197 
 BAR2 SZ ES   1    845 17.40                             171    -0.3 7   22 197 
 BAR2 SZ I         845 19.22        18.2 0.21                            22 197 
 BTL  SZ EP        845  3.30                             171     0.510   22 314 
 BRR  HZ EP        845  4.92                             151     0.310   74 299 
 BRR  HE ES   1    845 21.33                             151     0.5 7   74 299 
 BRR  HZ I         845 27.21        34.2 0.26                            74 299 
 RUS  HZ EP   1    845  6.95                             143     0.0 7   98 177 
 RUS  HE ES   1    845 24.57                             143    -0.4 7   98 177 
 RUS  HZ I         845 26.19        16.8 0.32                            98 177 
 OCA  SZ EP        845 11.55                             128    -0.4 9  163 352 
 OCA  SZ ES   1    845 33.51                             128    -0.5 7  163 352 
 OCA  SZ I         845 37.77        26.4 0.39                           163 352 
 NOR  SZ EP   2    845 18.89                             117    -0.5 4  235 235 
 NOR  SE ES   2    845 47.01                             117     0.0 4  235 235 
 ROSC BN ES   2    845 50.60                             116    -0.5 4  252 212 
 ROSC BZ I         845 59.03         7.3 0.55                           252 212 
 HEL  HZ EP   1    845 24.24                             114     0.3 6  274 256 
 HEL  HE ES   1    845 54.63                             114    -0.7 6  274 256 
 HEL  HZ I         846  1.90         7.4 0.67                           274 256 
 GUY  SZ EP   2    845 28.15                             111     0.9 4  302 235 
 GUY  SZ I         846 13.78        10.6 0.43                           302 235 
 TOL  SZ EP   2    845 31.49                             108    -0.4 3  343 225 
 PRA  HZ EP   2    845 36.91                             106    -0.2 3  391 210 
 PRA  HN ES   2    846 19.11                             106     0.5 3  391 210 
 PRA  HZ I         846 25.75        19.6 0.26                           391 210 
                                                                                
