 2012 1115 0544 18.7 L   6.828 -73.147142.9  RSN  6 0.4 1.4LRSN                1
 GAP=135        0.86       6.1     5.7  9.0  0.7999E+01  0.1727E+02  0.8675E+01E
 Epicentro: LOS SANTOS - SANTANDER                                             3
 ACTION:UPD 12-12-05 15:33 OP:}ep  STATUS:               ID:20121115054418 L   I
 2012-11-15-0540-00M.COL___230                                                 6
 STAT SP IPHASW D HRMM SECON CODA AMPLIT PERI AZIMU VELO AIN AR TRES W  DIS CAZ7
 BAR2 SZ EP   1    544 38.17                             169    0.11 7 26.3 189 
 BAR2 SZ ES   1    544 53.40                             169    0.25 7 26.3 189 
 BAR2 SZ I         544 54.02        10.7 0.26                          26.3 189 
 BRR  HZ EP   1    544 39.93                             152    0.46 7 69.7 296 
 BRR  HN ES   1    544 56.25                             152    0.60 7 69.7 296 
 PAM  SE ES   1    544 56.89                             151   -0.58 7 75.1  41 
 PAM  SZ I         544 58.47         5.0 0.24                          75.1  41 
 RUS  HZ EP   1    544 42.90                             142    0.49 7  104 176 
 RUS  HN ES   1    545  0.41                             142   -0.48 7  104 176 
 RUS  HZ I         545  3.11         2.0 0.36                           104 176 
 PTB  HZ EP   1    544 45.09                             131   -0.41 7  148 258 
 PTB  HN ES   1    545  6.15                             131   -0.23 7  148 258 
 PTB  HZ I         545  8.81         5.2 0.29                           148 258 
 ZAR  HE ES   1    545 15.49                             122   -0.42 6  203 291 
                                                                                
