 2011  915 0326 42.3 L   6.763 -73.007146.4  RSN 11 0.3 2.1LRSN                1
 GAP=193        0.46       2.5     4.7  4.5 -0.1740E+01  0.6234E+01 -0.2963E+00E
 Epicentro: CEPITA - SANTANDER                                                 3
 ACTION:UPD 12-07-13 15:57 OP:ep   STATUS:               ID:20110915032642 L   I
 2011-09-15-0320-00M.COL___171                                                 6
 STAT SP IPHASW D HRMM SECON CODA AMPLIT PERI AZIMU VELO AIN AR TRES W  DIS CAZ7
 BAR2 SZ IP        327  2.29                             169    0.2510 27.1 226 
 BAR2 SZ ES   2    327 17.17                             169   -0.30 5 27.1 226 
 BAR2 SZ I         327 18.23        37.6 0.36                          27.1 226 
 GIR2 SZ EP   1    327  2.37                             164    0.09 7 40.5 329 
 GIR2 SZ ES   2    327 17.72                             164   -0.19 5 40.5 329 
 BRR  HZ IP     C  327  4.14                             148   -0.2710 86.7 296 
 BRR  HZ I         327  4.43        30.3 0.28                          86.7 296 
 BRR  HN ES   2    327 21.72                             148    0.02 5 86.7 296 
 RUS  HZ EP   2    327  6.06                             145    0.27 5 96.6 185 
 RUS  HN ES   2    327 24.58                             145    0.44 5 96.6 185 
 RUS  HZ I         327 25.91         9.8 0.23                          96.6 185 
 OCA  SZ EP   1    327 11.16                             129   -0.07 7  167 348 
 OCA  SZ ES   2    327 34.08                             129    0.25 5  167 348 
 OCA  SZ I         327 36.36        11.2 0.19                           167 348 
 ZAR  HZ EP   1    327 16.33                             120   -0.05 6  220 292 
 ZAR  HZ I         327 46.90        15.8 0.34                           220 292 
 NOR  SN ES   2    327 47.63                             117   -0.28 4  245 237 
 CHI  HZ EP   2    327 19.60                             117   -0.45 4  249 199 
 CHI  HE ES   2    327 48.70                             117   -0.83 4  249 199 
 CHI  HZ I         327 56.61         3.1 0.54                           249 199 
 HEL  HZ EP   1    327 24.33                             114    0.28 6  286 257 
 HEL  HN ES   2    327 57.13                             114    0.47 4  286 257 
 HEL  HZ I         328  1.37         4.2 0.62                           286 257 
 COD  HZ I         327 48.63        16.4 1.06                           354 352 
 COD  HN ES   2    328  9.38                             109   -0.22 3  354 352 
 PRA  HZ EP   2    327 36.72                             106    0.42 3  396 212 
 PRA  HN ES   2    328 18.40                             106   -0.06 3  396 212 
                                                                                
