 2010  515 0725  9.1 L   6.790 -73.048138.3  RSN  6 0.4 1.4LRSN                1
 GAP=167        0.73       5.6    12.7 11.4 -0.1069E+02 -0.6176E+02 -0.1840E+02E
 Epicentro: LOS SANTOS - SANTANDER                                             3
 ACTION:UP  10-08-24 10:05 OP:vdl  STATUS:               ID:20100515072509 L   I
 2010-05-15-0723-16S.COL___108                                                 6
 STAT SP IPHASW D HRMM SECON CODA AMPLIT PERI AZIMU VELO AIN AR TRES W  DIS CAZ7
 BAR2 SZ EP        725 27.75                             169    -0.210   27 214 
 BAR2 SZ ES   2    725 42.64                             169     0.0 5   27 214 
 BRR  HZ EP   2    725 29.37                             148    -0.7 5   81 296 
 BRR  HE ES   2    725 46.75                             148     0.3 5   81 296 
 BRR  HZ I         725 51.21         6.2 0.44                            81 296 
 RUS  HZ EP   2    725 31.71                             142    -0.3 5   99 182 
 RUS  HE ES   2    725 50.22                             142     0.3 5   99 182 
 RUS  HZ I         725 51.68         3.1 0.30                            99 182 
 BRI  SZ EP        725 32.39                             140     0.310  106  15 
 GUE  SZ EP        725 33.30                             138     0.210  116   7 
 GRA  SZ ES   2    725 51.76                             135    -0.8 5  124  13 
                                                                                
