 2010  615 0945 32.2 L   6.041 -73.252 86.8  RSN  4 0.3 0.9LRSN                1
 GAP=236        0.55       4.6    21.7  7.4 -0.3054E+02  0.3167E+02 -0.2052E+02E
 Epicentro: GAMBITA - SANTANDER                                                3
 ACTION:UP  10-08-24 10:10 OP:vdl  STATUS:               ID:20100615094532 L   I
 2010-06-15-0944-03S.COL___114                                                 6
 STAT SP IPHASW D HRMM SECON CODA AMPLIT PERI AZIMU VELO SNR AR TRES W  DIS CAZ7
 RUS  HZ EP   1    945 44.83                             163    -0.4 7   25 131 
 RUS  HN ES   2    945 55.63                             163     0.3 5   25 131 
 RUS  HZ I         945 59.15         3.2 0.37                            25 131 
 BAR2 SZ EP        945 47.15                             142     0.210   61   7 
 BAR2 SZ ES   2    945 58.02                             142    -0.4 5   61   7 
 GUE  SZ EP   1    946  1.39                             108    -0.2 6  201  10 
 GUE  SZ ES   1    946 24.34                             108    -0.2 6  201  10 
 GRA  SZ EP   1    946  2.61                             108     0.2 6  210  14 
 GRA  SZ ES   1    946 26.17                             108     0.2 6  210  14 
                                                                                
