 2017  115 0808 43.9 L   6.782 -73.129149.8  RSN 16 0.5 1.9LRSN                1
 GAP= 98        1.12       3.8     3.2  5.9 -0.4347E+00  0.3491E+01  0.6643E+01E
 Epicentro: LOS SANTOS - SANTANDER                                             3
 ACTION:UPD 17-05-22 15:59 OP:jn   STATUS:               ID:20170115080843 L   I
 OLDACT:UP  17-01-15 17:06 OP:e    STATUS:               ID:20170115080743     3
 OLDACT:UP  17-01-15 17:06 OP:e    STATUS:               ID:20170115080743     3
 OLDACT:UP  17-01-15 17:05 OP:e    STATUS:               ID:20170115080743     3
 OLDACT:UP  17-01-15 17:05 OP:e    STATUS:               ID:20170115080743     3
 OLDACT:UP  17-01-15 17:03 OP:e    STATUS:               ID:20170115080743     3
 OLDACT:REG 17-01-15 12:57 OP:and  STATUS:               ID:20170115080743     3
 2017-01-15-0808-00M.COL___329                                                 6
 STAT SP IPHASW D HRMM SECON CODA AMPLIT PERI AZIMU VELO AIN AR TRES W  DIS CAZ7
 BAR2 EZ EP        8 9  3.98                             171   -0.0110 21.8 196 
 BAR2 EZ ES        8 9 19.08                             171   -0.5810 21.8 196 
 BAR2 EZ I         8 9 21.14        19.4 0.08            169           21.8 196 
 BRR  HZ EP        8 9  5.86                             152    0.2310 73.7 299 
 BRR  HN ES        8 9 23.36                             152    0.7810 73.7 299 
 BRR  HZ I         8 9 27.13        12.3 0.12            150           73.7 299 
 PAM  EZ EP     D  8 9  6.80                             151    0.2310 77.8  38 
 PAM  EN ES        8 9 23.92                             151   -0.3410 77.8  38 
 PAM  EZ I         8 9 26.28        12.4 0.54            155           77.8  38 
 RUS  HZ EP        8 9  7.91                             145    0.0010 98.5 177 
 RUS  HN ES        8 9 26.94                             145    0.3110 98.5 177 
 RUS  HZ I         8 9 29.21        10.8 0.48            146           98.5 177 
 PTB  HZ EP        8 9 10.64                             133   -0.69 9  149 260 
 PTB  HN ES        8 9 32.07                             133   -0.65 9  149 260 
 PTB  HZ I         8 9 37.90        15.7 0.40            131            149 260 
 TAM  HZ IP     D  8 9 12.15                             132    0.45 9  153 104 
 TAM  HN ES        8 9 33.75                             132    0.37 9  153 104 
 ZAR  HZ EP        8 9 16.33                             123   -0.53 8  206 292 
 ZAR  HN ES        8 9 42.60                             123    0.03 8  206 292 
 ZAR  HZ I         8 9 49.09        10.0 0.28            123            206 292 
 NOR  HZ EP        8 9 19.54                             119   -0.37 8  235 235 
 NOR  HN ES        8 9 47.99                             119    0.00 8  235 235 
 NOR  HZ I         8 9 51.68         7.4 0.16            119            235 235 
 CHI  HZ EP        8 9 21.95                             118    0.27 8  247 196 
 CHI  HN ES        8 9 50.57                             118   -0.57 8  247 196 
 CHI  HZ I         8 9 59.57         4.4 0.48            119            247 196 
 ROSC BZ EP        8 9 22.87                             117    0.70 8  252 212 
 ROSC BE ES        8 9 51.76                             117   -0.25 8  252 212 
 ROSC BZ I         8 9 58.70         8.4 0.35            118            252 212 
 URE  HZ EP   3    8 9 24.40                             114   -1.04 2  286 292 
 GUY2CHZ EP   4    8 9 29.32                             113    1.58 0  302 235 
 GUY2CHN ES   4    810  4.74                             113    2.81 0  302 235 
 GUY2CHZ I         810  9.08         5.1 0.44                           302 235 
 PTGC HZ EP        8 9 26.94                             112   -0.72 7  306 159 
 PTGC HN ES   3    8 9 59.96                             112   -1.84 2  306 159 
 PTGC HZ I         810  0.17         4.6 0.30            114            306 159 
 ELA  HZ EP   4    8 9 33.97                             111    3.03 0  329 230 
 ELA  HN ES        810  8.62                             111    0.99 7  329 230 
 ELA  HZ I         810 19.81         3.4 0.42            111            329 230 
 CBOC HZ EP   3    8 9 32.49                             110    1.38 2  335 253 
 CBOC HN ES        810  8.64                             110    0.70 7  335 253 
 CBOC HZ I         810 13.36         1.8 0.32            111            335 253 
 SJC  HZ EP   4    8 9 38.16                             106   -1.75 0  412 327 
 SJC  HN ES   4    810 20.28                             106   -3.31 0  412 327 
 SJC  HZ I         810 32.69         2.0 0.69            107            412 327 
                                                                                
