 2016  615 0020 29.5 L   6.798 -73.102149.4  RSN  9 0.4 1.7LRSN                1
 GAP=242        0.88       4.3     5.9  5.3  0.2056E+01  0.8244E+01  0.5504E+01E
 Epicentro: LOS SANTOS - SANTANDER                                             3
 ACTION:UPD 16-07-21 22:18 OP:rebc STATUS:               ID:20160615002029 L   I
 OLDACT:UP  16-06-15 15:19 OP:dani STATUS:               ID:20160615001743     3
 OLDACT:UP  16-06-15 15:19 OP:dani STATUS:               ID:20160615001743     3
 OLDACT:REG 16-06-15 12:18 OP:dani STATUS:               ID:20160615001743     3
 2016-06-15-0017-43M.COL___325                                                 6
 STAT SP IPHASW D HRMM SECON CODA AMPLIT PERI AZIMU VELO AIN AR TRES W  DIS CAZ7
 BAR2 EZ EP        020 49.43                             170   -0.1710 24.4 201 
 BAR2 EZ ES        021  5.10                             170   -0.1710 24.4 201 
 BAR2 EZ I         021  5.57         9.0 0.42                          24.4 201 
 BRR  HZ EP        020 51.53                             152    0.2210 75.6 297 
 BRR  HE ES        021  8.88                             152    0.5810 75.6 297 
 BRR  HZ I         021 10.35        11.8 0.13                          75.6 297 
 RUS  HZ EP        020 53.74                             145    0.1510  100 179 
 RUS  HN ES        021 12.14                             145   -0.2310  100 179 
 RUS  HZ I         021 13.03         5.0 0.26                           100 179 
 PTB  HZ EP        020 56.34                             132   -0.86 9  152 259 
 PTB  HE ES   4    021 16.81                             132   -1.99 0  152 259 
 PTB  HZ I         021 23.21         5.6 0.48                           152 259 
 SPBC HZ EP        020 58.48                             129   -0.08 9  166 220 
 SPBC HE ES        021 21.05                             129   -0.17 9  166 220 
 SPBC HZ I         021 22.56         8.2 0.28                           166 220 
 NOR  HZ EP        021  5.76                             119   -0.10 8  238 235 
 NOR  HN ES        021 34.05                             119   -0.16 8  238 235 
 NOR  HZ I         021 42.69         3.4 0.50                           238 235 
 CHI  HZ EP        021  7.74                             118    0.21 8  250 196 
 CHI  HE ES        021 37.77                             118    0.59 8  250 196 
 CHI  HZ I         021 41.87         2.4 0.24                           250 196 
 GUY2CHZ EP        021 14.00                             113    0.28 7  305 235 
 GUY2CHE ES   4    021 50.08                             113    1.88 0  305 235 
 GUY2CHZ I         021 55.78         2.4 0.42                           305 235 
 PRA  HZ EP        021 23.75                             107    0.33 6  394 210 
 PRA  HN ES   4    022  8.16                             107    2.70 0  394 210 
 PRA  HZ I         022 10.57         2.1 0.36                           394 210 
                                                                                
