 2013  115 0824  7.7 L   6.690 -73.187140.6  RSN  5 0.3 1.1LRSN                1
 GAP=224        0.57       6.2     5.6  6.5  0.2342E+02  0.1085E+02  0.7121E+01E
 Epicentro: VILLANUEVA - SANTANDER                                             3
 ACTION:UPD 13-02-15 09:14 OP:ep   STATUS:               ID:20130115082407 L   I
 2013-01-15-0820-00M.COL___241                                                 6
 STAT SP IPHASW D HRMM SECON CODA AMPLIT PERI AZIMU VELO AIN AR TRES W  DIS CAZ7
 BAR2 SZ EP   1    824 26.26                             175   -0.31 7 10.8 177 
 BAR2 SZ ES   1    824 41.14                             175   -0.10 7 10.8 177 
 BAR2 SZ I         824 42.50         4.6 0.26            172           10.8 177 
 BRR  HN ES   1    824 44.95                             151    0.24 7 74.1 309 
 RUS  HZ EP   1    824 30.71                             146    0.54 7 88.9 173 
 RUS  HN ES   1    824 47.50                             146   -0.16 7 88.9 173 
 RUS  HZ I         824 48.91         1.7 0.54            146           88.9 173 
 PTB  HZ EP   1    824 33.43                             132   -0.28 7  141 263 
 PTB  HN ES   1    824 54.06                             132    0.09 7  141 263 
 PTB  HZ I         824 56.40         1.3 0.40            132            141 263 
 ZAR  HN ES   1    825  4.99                             121   -0.06 6  205 296 
                                                                                
