 2010 1115 0327 23.9 L   6.793 -73.111145.9  RSN 17 0.4 2.7LRSN                1
 GAP=163        0.76       3.0     5.3  4.9 -0.6012E+01  0.6098E+01  0.2778E+01E
 Epicentro: LOS SANTOS - SANTANDER                                             3
 ACTION:UP  10-12-17 16:52 OP:REBC STATUS:               ID:20101115032723 L   I
 2010-11-15-0324-49S.COL___127                                                 6
 STAT SP IPHASW D HRMM SECON CODA AMPLIT PERI AZIMU VELO SNR AR TRES W  DIS CAZ7
 BAR2 SZ EP   1    327 43.45                             170    -0.1 7   24 200 
 BAR2 SZ ES   1    327 58.74                             170    -0.2 7   24 200 
 BAR2 SZ I         328  2.23        95.4 0.36                            24 200 
 GIR2 SZ EP   1    327 43.77                             167     0.1 7   33 344 
 GIR2 SZ ES   1    327 58.61                             167    -0.5 7   33 344 
 BRR  HZ IP     C  327 45.53                             151     0.210   75 298 
 BRR  HE ES   1    328  2.31                             151     0.3 7   75 298 
 BRR  HZ I         328  7.00       111.0 0.14                            75 298 
 RUS  HZ EP   1    327 47.69                             144     0.1 7  100 178 
 RUS  HE ES   1    328  6.34                             144     0.2 7  100 178 
 RUS  HZ I         328  8.27        51.1 0.46                           100 178 
 GUE  SZ EP   2    327 48.35                             139    -0.3 5  117  10 
 GRA  SZ EP   1    327 49.21                             137     0.1 7  125  16 
 GRA  SZ ES   1    328  8.65                             137    -0.2 7  125  16 
 GRA  SZ I         328  9.64        34.5 0.20                           125  16 
 OCA  SZ EP   1    327 51.98                             129    -0.4 7  162 352 
 OCA  SZ ES   1    328 15.26                             129     0.7 7  162 352 
 OCA  SZ I         328 17.95        57.7 0.17                           162 352 
 NOR  SZ EP   1    327 59.13                             118    -0.8 6  238 235 
 NOR  SE ES   1    328 27.67                             118    -0.4 6  238 235 
 CHI  HZ EP   2    328  1.51                             117    -0.2 4  249 196 
 CHI  HN ES   2    328 31.04                             117    -0.1 4  249 196 
 CHI  HZ I         328 35.14        17.6 0.62                           249 196 
 ROSC BZ EP   2    328  1.90                             117    -0.3 4  254 212 
 ROSC BZ I         328 42.07        22.9 0.32                           254 212 
 HEL  HZ EP   2    328  4.70                             114     0.2 4  276 256 
 HEL  HN ES   2    328 35.49                             114    -0.7 4  276 256 
 HEL  HZ I         328 43.24        26.3 0.32                           276 256 
 VIL  SE ES   2    328 41.80                             112     0.9 4  302 191 
 VIL  SZ I         328 47.30        17.2 0.44                           302 191 
 GUY  SZ EP   2    328  8.39                             112     0.5 4  304 235 
 GUY  SZ I         328 51.65        47.8 0.46                           304 235 
 RREF HZ EP   1    328 10.01                             111    -0.3 5  324 230 
 RREF HN ES   1    328 47.21                             111     0.6 5  324 230 
 RREF HZ I         328 56.13        23.7 0.36                           324 230 
 TOL  SZ EP   1    328 13.05                             109     0.6 5  346 225 
 PRA  HZ EP   1    328 17.49                             106    -0.1 4  393 210 
 PRA  HE ES   1    328 59.48                             106     0.0 4  393 210 
 PRA  HZ I         329  5.09        64.4 0.20                           393 210 
 SJA  SZ EP   2    328 18.83                             106     0.3 3  400 194 
 SJA  SZ I         329  9.78        20.8 0.50                           400 194 
                                                                                
