 2014 1115 0720 37.5 L   5.940 -73.911105.3  RSN  8 0.5 1.7LRSN                1
 GAP=116        1.33       4.7     4.2  8.1 -0.9931E+01  0.7502E+00 -0.2177E+01E
 Epicentro: LA BELLEZA - SANTANDER                                             3
 ACTION:UPD 14-12-19 15:43 OP:nd   STATUS:               ID:20141115072037 L   I
 OLDACT:UP  14-11-15 19:05 OP:stll STATUS:               ID:20141115071746     3
 OLDACT:REG 14-11-15 14:29 OP:stll STATUS:               ID:20141115071746     3
 2014-11-15-0717-46M.COL___274                                                 6
 STAT SP IPHASW D HRMM SECON CODA AMPLIT PERI AZIMU VELO AIN AR TRES W  DIS CAZ7
 SPBC HZ EP        720 53.15                             159    0.6510 36.5 209 
 SPBC HN ES        721  4.03                             159   -0.2010 36.5 209 
 SPBC HZ I         721  5.50        34.7 0.10            161           36.5 209 
 PTB  HZ EP        720 55.56                             136   -0.3510 89.7 318 
 PTB  HN ES        721 10.06                             136   -0.2310 89.7 318 
 PTB  HZ I         721 11.33         6.1 0.12            137           89.7 318 
 RUS  HZ EP        720 56.77                             136    0.0310 91.8  93 
 RUS  HZ I         720 56.94         5.6 0.30            137           91.8  93 
 RUS  HN ES        721 11.37                             136   -0.4010 91.8  93 
 BAR2 SZ EP        720 58.34                             130    0.4910  108  48 
 BAR2 SZ ES        721 14.49                             130    0.7410  108  48 
 BAR2 SZ I         721 16.48        22.3 0.42            132            108  48 
 NOR  HZ EP        720 58.07                             129   -0.0810  114 249 
 NOR  HN ES        721 14.11                             129   -0.1710  114 249 
 NOR  HZ I         721 17.45        17.1 0.16            130            114 249 
 BRR  HZ EP        721  0.03                             124    0.2910  131  10 
 BRR  HN ES        721 17.56                             124    0.4510  131  10 
 PAM  SZ EP        721  8.45                             112    0.12 9  205  41 
 PAM  SN ES        721 30.75                             112   -1.65 9  205  41 
 PAM  SZ I         721 36.93         3.1 0.20            113            205  41 
 TOL  SZ EP        721  9.49                             110    0.02 8  216 226 
 TOL  SN ES        721 34.37                             110   -0.06 8  216 226 
                                                                                
