 2016  215 0331 14.9 L   6.789 -73.159148.2  RSN  6 0.4 1.5LRSN                1
 GAP=135        1.03       4.5     5.3  6.9 -0.2578E+01  0.3692E+01  0.8113E+01E
 Epicentro: LOS SANTOS - SANTANDER                                             3
 ACTION:UPD 16-03-04 21:26 OP:rebc STATUS:               ID:20160215033114 L   I
 OLDACT:DUP 16-02-15 16:40 OP:drio STATUS:               ID:20160215032750d    3
 2016-02-15-0327-49M.COL___299                                                 6
 STAT SP IPHASW D HRMM SECON CODA AMPLIT PERI AZIMU VELO AIN AR TRES W  DIS CAZ7
 BAR2 EZ EP        331 34.76                             171   -0.0010 21.9 187 
 BAR2 EZ ES        331 49.96                             171   -0.3210 21.9 187 
 BAR2 EZ I         331 51.30         9.9 0.38            170           21.9 187 
 BRR  HZ EP        331 36.48                             153    0.2410 70.5 300 
 BRR  HE ES        331 53.80                             153    0.8910 70.5 300 
 BRR  HZ I         331 57.95         8.3 0.42            151           70.5 300 
 PAM  EZ EP        331 37.59                             151    0.1310 79.3  40 
 PAM  EN ES        331 54.73                             151   -0.3510 79.3  40 
 PAM  EZ I         331 56.71         6.3 0.46            155           79.3  40 
 RUS  HZ EP        331 38.74                             145   -0.0410 99.5 175 
 RUS  HE ES        331 57.47                             145    0.0410 99.5 175 
 RUS  HZ I         331 58.37         2.7 0.68            147           99.5 175 
 PTB  HZ EP        331 41.34                             133   -0.54 9  146 259 
 PTB  HN ES        332  2.38                             133   -0.57 9  146 259 
 PTB  HZ I         332  9.21         3.4 0.46            132            146 259 
 CHI  HZ EP        331 52.77                             118    0.24 8  247 195 
 CHI  HE ES        332 22.27                             118    0.37 8  247 195 
 CHI  HZ I         332 25.58         2.5 0.62            119            247 195 
                                                                                
