 2017 1015 0535 37.3 L   6.817 -73.185138.9  RSN 19 0.4 2.2LRSN                1
 GAP= 62        0.91       2.8     2.5  4.9 -0.5087E+00  0.3394E+01  0.2264E+01E
 Epicentro: ZAPATOCA - SANTANDER                                               3
 ACTION:UPD 17-11-07 19:31 OP:rebc STATUS:               ID:20171015052739 L   I
 OLDACT:UPD 17-10-15 13:29 OP:leo  STATUS:               ID:20171015052739 L   3
 2017-10-15-0528-00M.COL___414                                                 6
 STAT SP IPHASW D HRMM SECON CODA AMPLIT PERI AZIMU VELO AIN AR TRES W  DIS CAZ7
 BAR2 EZ EP        535 56.29                             169    0.1510 24.9 179 
 BAR2 EZ ES        536 10.59                             169   -0.2510 24.9 179 
 BAR2 EZ I         536 12.20        39.1 0.26            165           24.9 179 
 BRR  HZ EP        535 58.07                             153    0.6210 66.5 299 
 BRR  HN ES   4    536 14.62                             153    1.46 0 66.5 299 
 BRR  HZ I         536 18.51        28.1 0.18            154           66.5 299 
 PAM  EZ EP        535 59.35                             149    0.4710 78.8  43 
 PAM  HN ES        536 15.73                             149    0.0110 78.8  43 
 PAM  EZ I         536 18.11        26.7 0.52            148           78.8  43 
 RUS  HZ EP        536  0.40                             142   -0.1610  103 174 
 RUS  HN ES        536 18.75                             142    0.0510  103 174 
 RUS  HZ I         536 20.84        18.1 0.16            137            103 174 
 PTB  HZ EP        536  3.22                             131   -0.15 9  144 258 
 PTB  HN ES        536 23.18                             131   -0.52 9  144 258 
 PTB  HZ I         536 26.52        18.5 0.14            129            144 258 
 TAM  HZ IP     C  536  4.69                             128   -0.20 9  160 105 
 TAM  HN ES        536 26.36                             128   -0.05 9  160 105 
 YPLC HZ IP     C  536  6.87                             124   -0.11 9  181 150 
 YPLC HZ I         536 33.65        11.6 0.32            120            181 150 
 ZAR  HE ES        536 33.66                             121    0.25 9  199 292 
 NOR  HZ EP        536 12.72                             117    0.33 8  232 233 
 NOR  HN ES        536 40.58                             117    0.83 8  232 233 
 NOR  HZ I         536 46.39        11.1 0.20            115            232 233 
 CHI  HZ EP        536 14.63                             116   -0.08 8  249 194 
 CHI  HN ES        536 43.64                             116   -0.25 8  249 194 
 CHI  HZ I         536 49.29         7.2 0.34            113            249 194 
 ROSC BZ EP   4    536 16.96                             115    1.97 0  252 210 
 ROSC BN ES   4    536 45.36                             115    0.96 0  252 210 
 ROSC BZ I         536 51.09        18.6 0.40            113            252 210 
 GUY2CHZ EP        536 21.05                             111    0.72 7  299 234 
 GUY2CHN ES        536 53.69                             111   -0.20 7  299 234 
 GUY2CHZ I         537  0.97         6.7 0.26                           299 234 
 PTGC HZ EP   4    536 19.70                             110   -1.54 0  312 158 
 PTGC HN ES   4    536 52.45                             110   -3.06 0  312 158 
 PTGC HZ I         537  1.42         5.3 0.36            107            312 158 
 LL6C HZ EP   4    536 20.85                             109   -1.64 0  323 358 
 LL6C HN ES        536 56.87                             109   -0.86 7  323 358 
 DBB  EN ES        536 59.80                             108   -0.62 7  335 274 
 DBB  EZ I         537  2.29         6.5 0.30            107            335 274 
 ARGC HZ EP   4    536 23.09                             107   -3.24 0  356 341 
 ARGC HN ES   4    537  3.09                             107   -1.49 0  356 341 
 ARGC HZ I         537  7.61         3.3 0.28            106            356 341 
 PRA  HZ EP        536 30.01                             105   -0.53 6  392 209 
 PRA  HN ES        537 11.61                             105   -0.45 6  392 209 
 PRA  HZ I         537 18.97         9.8 0.28            103            392 209 
 ORTC HZ EP        536 30.80                             105   -0.08 6  394 216 
 ORTC HN ES   4    537 14.19                             105    1.52 0  394 216 
 ORTC HZ I         537 20.79         6.3 0.26            103            394 216 
 SJC  HZ EP   4    536 30.64                             105   -1.54 0  405 327 
 SJC  HN ES   4    537 11.54                             105   -3.45 0  405 327 
 SJC  HZ I         537 15.88         4.2 0.54            103            405 327 
                                                                                
