 2017  415 0843 42.5 L   6.802 -73.130149.4  RSN 29 0.5 2.6LRSN                1
 GAP=113        1.08       2.8     3.1  4.5  0.7003E+00  0.3694E+01  0.2429E+01E
 Epicentro: LOS SANTOS - SANTANDER                                             3
 ACTION:UPD 17-05-30 21:12 OP:jn   STATUS:               ID:20170415084342 L   I
 OLDACT:UP  17-04-15 18:54 OP:edw  STATUS:               ID:20170415083734     3
 OLDACT:REG 17-04-15 13:22 OP:edw  STATUS:               ID:20170415083734     3
 2017-04-15-0838-00M.COL___368                                                 6
 STAT SP IPHASW D HRMM SECON CODA AMPLIT PERI AZIMU VELO AIN AR TRES W  DIS CAZ7
 BAR2 EZ IP     C  844  2.66                             171    0.0410 23.9 194 
 BAR2 EZ ES        844 17.85                             171   -0.4310 23.9 194 
 BAR2 EZ I         844 19.15       180.6 0.42            168           23.9 194 
 BRR  HZ IP     C  844  4.47                             153    0.3110 72.6 298 
 BRR  HN ES        844 22.08                             153    1.0610 72.6 298 
 BRR  HZ I         844 25.08        53.0 0.30            151           72.6 298 
 PAM  EZ EP     C  844  5.47                             152    0.4010 76.1  39 
 PAM  EN ES        844 22.87                             152    0.2310 76.1  39 
 PAM  EZ I         844 24.93        83.8 0.50            155           76.1  39 
 RUS  HZ EP        844  6.83                             145    0.1710  101 177 
 RUS  HN ES        844 25.30                             145   -0.1710  101 177 
 RUS  HZ I         844 26.58       117.3 0.32            144            101 177 
 PTB  HZ EP        844  9.45                             133   -0.51 9  150 259 
 PTB  HN ES        844 30.66                             133   -0.69 9  150 259 
 PTB  HZ I         844 32.49        40.2 0.16            131            150 259 
 SPBC HZ EP        844 11.64                             130    0.20 9  164 219 
 SPBC HN ES        844 33.81                             130   -0.17 9  164 219 
 SPBC HZ I         844 36.48       119.0 0.24            129            164 219 
 YPLC HZ EP        844 12.95                             127    0.41 9  176 152 
 YPLC HN ES        844 35.42                             127   -0.52 9  176 152 
 YPLC HZ I         844 40.46        30.6 0.28            128            176 152 
 ZAR  HZ EP        844 14.98                             123   -0.40 8  206 292 
 ZAR  HN ES        844 40.75                             123   -0.24 8  206 292 
 ZAR  HZ I         844 46.03        25.0 0.26            123            206 292 
 NOR  HZ EP        844 18.84                             119    0.19 8  236 235 
 NOR  HN ES        844 47.05                             119    0.24 8  236 235 
 NOR  HZ I         844 50.13        30.5 0.28            119            236 235 
 CHI  HZ EP        844 20.72                             118    0.20 8  249 196 
 CHI  HN ES        844 49.52                             118   -0.62 8  249 196 
 CHI  HZ I         844 59.94        16.5 0.38            118            249 196 
 ROSC BZ EP   4    844 22.13                             117    1.15 0  254 211 
 ROSC BN ES        844 51.74                             117    0.78 8  254 211 
 ROSC BZ I         844 58.02        38.9 0.55            117            254 211 
 HEL  HZ EP        844 22.83                             115   -0.30 8  274 256 
 HEL  HN ES        844 54.70                             115   -0.09 8  274 256 
 HEL  HZ I         845  1.75        21.1 0.26            115            274 256 
 URE  HZ EP   9    844 22.12                             114   -1.84 0  285 292 
 URE  HN ES        844 53.40                             115   -1.03 7  285 292 
 URE  HZ I         845  4.24        20.4 0.28            114            285 292 
 VIL  EZ EP        844 26.26                             113    0.07 7  304 192 
 VIL  EN ES   4    844 59.39                             113   -0.85 0  304 192 
 VIL  EZ I         845  3.11        19.8 0.44            113            304 192 
 PTGC HZ EP   9    844 25.65                             112   -0.86 0  308 159 
 PTGC HN ES        844 59.09                             113   -0.86 7  308 159 
 PTGC HZ I         845  5.62        12.8 0.22            113            308 159 
 LL6C HN EP   4    844  8.02                             111   -20.4 0  325 357 
 LL6C HN ES   4    844 43.28                             111   -20.9 0  325 357 
 ELA  HZ EP   4    844 32.07                             111    2.35 0  331 230 
 ELA  HN ES   4    845  7.95                             111    1.44 0  331 230 
 ELA  HZ I         845 14.16        13.8 0.34            111            331 230 
 LL5C HZ EP   9    844 29.60                             110    0.36 0  332 349 
 LL5C HN ES        845  6.01                                   -0.01 7  332 349 
 CBOC HZ EP        844 30.40                             110    0.59 7  335 252 
 CBOC HN ES        845  6.35                             110   -0.32 7  335 252 
 CBOC HZ I         845 12.77         5.2 0.36            110            335 252 
 DBB  EZ EP        844 30.12                             110   -0.24 7  341 274 
 DBB  EN ES   4    845  6.13                             110   -1.53 0  341 274 
 DBB  EZ I         845  7.94         6.9 0.14            110            341 274 
 ANIL HZ EP   4    844 34.31                             109    1.66 0  359 225 
 ANIL HN ES        845 12.44                             109    0.71 6  359 225 
 ANIL HZ I         845 22.21        46.9 0.32            109            359 225 
 ARGC HZ EP   4    844 32.71                             109    0.33 0  360 340 
 ARGC HN ES   4    845 12.00                             109    0.75 0  360 340 
 ARGC HZ I         845 17.89         5.4 0.24            109            360 340 
 PRA  HZ EP        844 36.24                             107   -0.07 6  393 210 
 PRA  HN ES        845 17.94                             107   -0.31 6  393 210 
 PRA  HZ I         845 24.74        17.6 0.34            107            393 210 
 ORTC HZ EP        844 37.35                             107    0.62 6  397 216 
 ORTC HN ES   4    845 20.76                             107    1.77 0  397 216 
 APAC HZ EP        844 36.59                             107   -0.45 6  400 288 
 APAC HN ES   4    845 20.41                             107    0.86 0  400 288 
 APAC HZ I         845 21.26         6.1 0.24            107            400 288 
 PAL  HZ EP        844 38.46                             106    0.45 6  407 239 
 PAL  HN ES        845 21.54                             106    0.26 6  407 239 
 PAL  HZ I         845 26.44         7.1 0.30            106            407 239 
 SJC  HZ EP        844 37.00                             106   -1.31 6  410 327 
 SJC  HN ES   4    845 17.88                             106   -3.93 0  410 327 
 SJC  HZ I         845 22.26         8.1 0.46            107            410 327 
 GUA  EZ EP        844 44.78                             104   -1.02 5  474 173 
 GUA  EN ES        845 34.36                             104   -0.78 5  474 173 
 SMAR HZ EP        844 48.46                             103   -0.07 4  497 346 
 SMAR HN ES   4    845 35.68                             103   -4.32 0  497 346 
 MACC HZ EP   4 D  844 49.51                             102   -1.89 0  521 189 
 MACC HN ES   4    845 41.51                             102   -3.60 0  521 189 
 MACC HZ I         845 43.82         2.7 0.38            102            521 189 
 URI  HZ EP   4    844 53.32                             101   -2.23 0  556  13 
 URI  HN ES   4    845 48.82                             101   -3.68 0  556  13 
                                                                                
