 2011  215 0821 22.0 L   6.763 -73.151138.4  RSN 11 0.4 2.3LRSN                1
 GAP=135        1.00       3.8     6.2  7.3 -0.4416E+01  0.1301E+02 -0.4424E+00E
 Epicentro: LOS SANTOS - SANTANDER                                             3
 ACTION:UP  11-03-28 15:08 OP:jfem STATUS:               ID:20110215082122 L   I
 2011-02-15-0819-31S.COL___137                                                 6
 STAT SP IPHASW D HRMM SECON CODA AMPLIT PERI AZIMU VELO SNR AR TRES W  DIS CAZ7
 BAR2 SZ IP        821 40.46                             172    -0.210   19 191 
 BAR2 SZ ES   1    821 54.97                             172    -0.2 7   19 191 
 BAR2 SZ I         821 56.31        34.3 0.22                            19 191 
 BTL  SZ ES   2    821 56.21                             171     0.9 5   21 323 
 GIR2 SZ EP        821 40.61                             165    -0.310   35 352 
 RUS  HZ IP        821 44.51                             143    -0.210   97 176 
 RUS  HN ES   1    822  2.60                             143     0.2 7   97 176 
 RUS  HZ I         822  4.72        29.1 0.34                            97 176 
 GRA  SZ IP        821 47.50                             134     0.610  130  17 
 GRA  SZ ES   1    822  6.62                             134     0.2 7  130  17 
 GRA  SZ I         822  8.10        41.5 0.34                           130  17 
 OCA  SZ IP        821 49.33                             127    -0.8 9  164 354 
 OCA  SZ I         822 12.60        28.3 0.50                           164 354 
 YOP  SZ EP        821 51.27                             125     0.1 9  176 153 
 YOP  SN ES   1    822 13.75                             125    -0.2 7  176 153 
 NOR  SZ EP        821 57.18                             117     0.2 8  232 235 
 NOR  SN ES   1    822 23.96                             117    -0.3 6  232 235 
 CHI  HZ EP   1    821 58.98                             116     0.2 6  245 195 
 CHI  HN ES   2    822 27.94                             116     0.4 4  245 195 
 CHI  HZ I         822 31.35         9.3 0.30                           245 195 
 HEL  HZ EP   1    822  2.48                             113     0.8 6  271 257 
 HEL  HZ I         822 39.92         8.7 0.48                           271 257 
 GUY  SZ EP   2    822  5.69                             111     0.8 4  299 235 
 GUY  SN ES   2    822 37.76                             111    -0.7 4  299 235 
 GUY  SZ I         822 45.97        14.7 0.41                           299 235 
                                                                                
