 2013  415 0237 56.3 L   6.753 -73.511122.4  RSN  5 0.4 1.5LRSN                1
 GAP=131        1.00       5.0     7.1 10.0  0.1440E+02 -0.1084E+02 -0.1517E+02E
 Epicentro: EL CARMEN DE CHUCURI - SANTANDER                                   3
 ACTION:UPD 13-05-22 14:38 OP:EP   STATUS:               ID:20130415023756 L   I
 2013-04-15-0230-00M.COL___244                                                 6
 STAT SP IPHASW D HRMM SECON CODA AMPLIT PERI AZIMU VELO AIN AR TRES W  DIS CAZ7
 BAR2 SZ EP        238 13.59                             161   -0.1110 40.4 116 
 BAR2 SZ ES   4    238 24.91                             161   -2.35 0 40.4 116 
 BAR2 SZ I         238 27.05         8.1 0.16            145           40.4 116 
 BRR  HZ IP     C  238 14.02                             158    0.4710 45.0 330 
 BRR  HN ES   1    238 27.55                             158    0.56 7 45.0 330 
 BRR  HZ I         238 28.56         8.6 0.16            138           45.0 330 
 RUS  HZ EP        238 18.40                             137    0.0810  106 154 
 RUS  HN ES   1    238 34.89                             137   -0.59 7  106 154 
 RUS  HZ I         238 38.24         4.5 0.80            121            106 154 
 PTB  HZ EP     D  238 18.06                             136    0.3210  107 257 
 PTB  HN ES   1    238 33.89                             136   -0.57 7  107 257 
 PTB  HZ I         238 35.40         4.9 0.28            121            107 257 
 SML  HZ EP        238 30.84                             113    0.09 8  235 345 
 SML  HN IP   4    238 56.85                             113   26.10 0  235 345 
 SML  HN ES        238 56.85                             113   -0.75 8  235 345 
 SML  HZ I         239  3.82         4.7 0.08            100            235 345 
                                                                                
