 2016  815 0733 23.6 L   6.799 -73.140138.0  RSN  9 0.6 1.5LRSN                1
 GAP=137        1.41       4.4     6.7  8.1 -0.9509E+01  0.1050E+02  0.4085E+01E
 Epicentro: LOS SANTOS - SANTANDER                                             3
 ACTION:UPD 16-10-29 15:35 OP:rebc STATUS:               ID:20160815073323 L   I
 OLDACT:REG 16-08-15 12:36 OP:ak   STATUS:               ID:20160815072730     3
 2016-08-15-0728-00M.COL___371                                                 6
 STAT SP IPHASW D HRMM SECON CODA AMPLIT PERI AZIMU VELO AIN AR TRES W  DIS CAZ7
 BAR2 EZ EP   2    733 42.32                             170   -0.00 5 23.3 192 
 BAR2 EZ ES        733 55.92                             170   -0.9910 23.3 192 
 BAR2 EZ I         734  0.11         7.5 0.54                          23.3 192 
 BRR  HZ EP        733 44.13                             151    0.1510 71.8 298 
 BRR  HN ES        734  0.87                             151    1.0210 71.8 298 
 BRR  HZ I         734  5.22         4.9 0.28                          71.8 298 
 PAM  EZ EP        733 45.28                             149    0.2810 77.1  39 
 PAM  EE ES        734  2.25                             149    0.5810 77.1  39 
 PAM  EZ I         734  4.51         6.6 0.50                          77.1  39 
 RUS  HZ EP   2    733 46.63                             142    0.02 5  100 176 
 RUS  HE ES        734  4.85                             142    0.3210  100 176 
 RUS  HZ I         734  6.19         4.4 0.36                           100 176 
 PTB  HZ EP   2    733 48.92                             130   -1.11 5  148 259 
 PTB  HE ES        734  9.82                             130   -0.80 9  148 259 
 PTB  HZ I         734 11.09         2.9 0.18                           148 259 
 OCA  HZ EP        733 51.44                             128    0.08 9  160 353 
 OCA  HN ES        734 12.15                             128   -0.85 9  160 353 
 OCA  HZ I         734 16.43         8.5 0.16                           160 353 
 SPBC HZ EP        733 51.34                             127   -0.23 9  163 219 
 SPBC HN ES        734 13.52                             127    0.15 9  163 219 
 SPBC HZ I         734 15.76         6.7 0.24                           163 219 
 CHI  HZ EP        734  0.54                             115   -0.37 8  249 195 
 CHI  HN ES        734 29.61                             115   -0.38 8  249 195 
 CHI  HZ I         734 36.01         2.1 0.34                           249 195 
 GUY2CHZ EP        734  7.38                             111    0.44 7  302 235 
 GUY2CHE ES        734 41.77                             111    1.05 7  302 235 
 GUY2CHZ I         734 48.47         2.0 0.32                           302 235 
                                                                                
