 2010  415 0522 13.1 L   6.827 -72.930141.9  RSN  6 0.5 2.0LRSN                1
 GAP=228        1.16       6.4    11.4 10.1 -0.3110E+02 -0.1084E+02  0.1675E+02E
 Epicentro: CEPITA - SANTANDER                                                 3
 ACTION:UPD 10-08-24 09:59 OP:vdl  STATUS:               ID:20100415052223 L   I
 2010-04-15-0519-05S.COL___100                                                 6
 STAT SP IPHASW D HRMM SECON CODA AMPLIT PERI AZIMU VELO AIN AR TRES W  DIS CAZ7
 BAR2 SZ EP        522 32.89                             164     0.210   38 227 
 BAR2 SZ ES   1    522 47.72                             164    -0.2 7   38 227 
 BRR  HZ EP        522 35.08                             145    -0.110   92 290 
 BRR  HN ES        522 52.27                             145    -0.110   92 290 
 BRR  HZ I         522 53.08        19.4 0.05                            92 290 
 OCA  SZ EP        522 41.51                             129     0.2 9  162 345 
 OCA  SZ ES   1    523  3.07                             129    -0.2 7  162 345 
 OCA  SZ I         523  5.96        17.3 0.27                           162 345 
 HEL  HE ES   2    523 27.89                             112    -1.2 4  296 256 
 HEL  HZ I         523 31.53         3.0 0.69                           296 256 
 RREF BN ES        523 40.37                             109     1.3 7  342 232 
 RREF BZ I         523 42.64         3.0 0.41                           342 232 
 PRA  HZ EP   1    523  7.81                             105    -0.4 4  407 212 
 PRA  HN ES        523 50.46                             105    -0.8 6  407 212 
 PRA  HZ I         523 52.33         3.2 0.20                           407 212 
                                                                                
