 2013  915 0824 27.6 L   6.909 -72.923  4.1  RSN  9 0.5 1.9LRSN                1
 GAP=162        1.03       2.1     3.3  6.2 -0.2621E+01  0.7220E+01 -0.3951E+01E
 Epicentro: GUACA - SANTANDER                                                  3
 ACTION:UPD 13-10-22 09:22 OP:ep   STATUS:               ID:20130915082427 L   I
 OLDACT:REG 13-09-15 10:30 OP:carl STATUS:               ID:20130915081959     3
 2013-09-15-0819-59M.COL___269                                                 6
 STAT SP IPHASW D HRMM SECON CODA AMPLIT PERI AZIMU VELO AIN AR TRES W  DIS CAZ7
 BAR2 SZ IP     D  824 35.03                              90   -0.2310 45.3 219 
 BAR2 SZ ES   1    824 40.19                              90   -1.08 7 45.3 219 
 BAR2 SZ I         824 41.21       126.4 0.20             47           45.3 219 
 PAM  SZ EP        824 36.79                              90    0.0210 53.6  27 
 PAM  SN ES        824 43.32                              90   -0.6410 53.6  27 
 BRR  HZ EP        824 42.13                              90    0.3610 89.9 284 
 BRR  HN ES   1    824 52.81                              90   -0.05 7 89.9 284 
 BRR  HZ I         824 53.91        20.4 0.12             47           89.9 284 
 RUS  HZ EP   1    824 46.50                              90    0.60 7  114 189 
 RUS  HE ES        825  0.33                              90    0.1210  114 189 
 RUS  HZ I         825  2.84        14.0 0.44             47            114 189 
 OCA  HZ EP   1    824 51.74                              90    0.19 7  153 343 
 OCA  HN ES        825 10.15                              90   -0.12 9  153 343 
 PTB  HZ EP        824 55.29                              90    0.70 9  174 257 
 PTB  HN ES   1    825 14.95                              90   -0.73 7  174 257 
 PTB  HZ I         825 21.23         7.8 0.42             47            174 257 
 SPBC HZ EP   1    824 56.60                              56    0.14 7  188 223 
 SPBC HN ES   4    825 20.94                              56    1.93 0  188 223 
 SPBC HZ I         825 25.42        27.2 0.38             37            188 223 
 ZAR  HZ EP        825  1.26                              56    0.54 8  223 287 
 ZAR  HE ES        825 26.36                              56   -0.23 8  223 287 
 ZAR  HZ I         825 28.15        10.9 0.58             37            223 287 
 SML  HZ EP   1    825  3.79                              56    0.42 6  245 329 
 SML  HN ES        825 31.40                              56    0.10 8  245 329 
 SML  HZ I         825 35.41        18.1 0.10             37            245 329 
                                                                                
