 2010 1015 0417 32.6 L   6.828 -73.013148.7  RSN  4 0.2 1.4LRSN                1
 GAP=173        0.49       5.2     9.8 12.0  0.2079E+02 -0.6602E+02 -0.2857E+02E
 Epicentro: CEPITA - SANTANDER                                                 3
 ACTION:UP  11-02-18 11:09 OP:tino STATUS:               ID:20101015041732 L   I
 2010-10-15-0415-31S.COL___128                                                 6
 STAT SP IPHASW D HRMM SECON CODA AMPLIT PERI AZIMU VELO SNR AR TRES W  DIS CAZ7
 BAR2 SZ EP   1    417 52.63                             167    -0.2 7   32 216 
 BAR2 SZ I         418  2.90        10.2 0.13                            32 216 
 BRR  HZ EP        417 54.71                             149    -0.110   83 292 
 BRR  HZ I         417 54.93        11.2 0.16                            83 292 
 BRR  HN ES   2    418 12.34                             149     0.2 5   83 292 
 RUS  HZ EP   1    417 57.15                             143     0.3 7  104 184 
 RUS  HN ES   2    418 15.63                             143    -0.2 5  104 184 
 RUS  HZ I         418 16.64         2.2 0.32                           104 184 
 GRA  SZ EP   1    417 57.64                             139     0.1 7  119  11 
 GRA  SZ I         417 58.92         1.9 0.09                           119  11 
                                                                                
