 2015  315 0759 27.8 L   6.804 -73.143147.4  RSN 11 0.4 1.5LRSN                1
 GAP=137        0.91       2.9     3.8  5.8 -0.2754E+01  0.3961E+01  0.1058E+01E
 Epicentro: LOS SANTOS - SANTANDER                                             3
 ACTION:UPD 15-04-30 16:26 OP:nd   STATUS:               ID:20150315075927 L   I
 OLDACT:REG 15-03-15 13:08 OP:spq  STATUS:               ID:20150315075735     3
 2015-03-15-0757-35M.COL___257                                                 6
 STAT SP IPHASW D HRMM SECON CODA AMPLIT PERI AZIMU VELO AIN AR TRES W  DIS CAZ7
 BAR2 EZ EP        759 47.49                             170   -0.1810 23.8 191 
 BAR2 EZ ES   1    8 0  2.83                             170   -0.31 7 23.8 191 
 BAR2 EZ I         8 0  4.22         4.6 0.44            171           23.8 191 
 BRR  HZ EP     C  759 49.35                             153    0.1910 71.3 298 
 BRR  HN ES        8 0  6.76                             153    0.9610 71.3 298 
 BRR  HZ I         8 0 10.64         5.1 0.40            150           71.3 298 
 PAM  SZ EP        759 50.39                             152    0.2010 76.8  40 
 PAM  SN ES        8 0  7.73                             152    0.1110 76.8  40 
 PAM  SZ I         8 0  8.14         1.9 0.36            153           76.8  40 
 RUS  HZ EP   1    759 51.67                             144   -0.10 7  101 176 
 RUS  HN ES   1    8 0 10.25                             144   -0.20 7  101 176 
 RUS  HZ I         8 0 11.31         2.6 0.26            147            101 176 
 PTB  HZ EP        759 54.50                             132   -0.47 9  148 259 
 PTB  HN ES        8 0 15.70                             132   -0.44 9  148 259 
 PTB  HZ I         8 0 17.44         3.2 0.44            132            148 259 
 OCA  HZ EP   1    759 56.19                             130   -0.04 7  160 353 
 OCA  HN ES        8 0 17.88                             130   -0.50 9  160 353 
 OCA  HZ I         8 0 23.35         4.5 0.24            131            160 353 
 SPBC HZ EP        759 56.53                             129    0.02 9  164 219 
 SPBC HN ES        8 0 18.77                             129   -0.11 9  164 219 
 SPBC HZ I         8 0 21.32         5.4 0.34            130            164 219 
 ZAR  HN ES        8 0 25.69                             123   -0.11 9  204 292 
 ZAR  HZ I         8 0 31.28         3.5 0.43            123            204 292 
 NOR  HN ES        8 0 32.19                             119    0.49 8  235 234 
 NOR  HZ I         8 0 36.71         2.7 0.18            120            235 234 
 SML  HZ EP   1    8 0  4.80                             118    0.28 6  243 335 
 SML  HN ES   1    8 0 32.69                             118   -0.44 6  243 335 
 SML  HZ I         8 0 36.82         5.1 0.28            118            243 335 
 PRA  HZ EP   1    8 0 22.49                             107    1.02 4  393 210 
 PRA  HN ES   1    8 1  3.10                             107   -0.21 4  393 210 
 PRA  HZ I         8 1  6.06         0.8 0.54            108            393 210 
                                                                                
