 2011 1015 0225 20.4 L   6.780 -73.112150.4  RSN  5 0.3 1.7LRSN                1
 GAP=142        0.54       3.6     4.5  6.2  0.1603E+01  0.2144E+00  0.2689E+01E
 Epicentro: LOS SANTOS - SANTANDER                                             3
 ACTION:UPD 12-07-13 16:03 OP:ep   STATUS:               ID:20111015022520 L   I
 2011-10-15-0224-01S.COL___168                                                 6
 STAT SP IPHASW D HRMM SECON CODA AMPLIT PERI AZIMU VELO AIN AR TRES W  DIS CAZ7
 BAR2 SZ EP        225 40.43                             171   -0.1610 22.2 201 
 BAR2 SZ I         225 56.28         8.0 0.72                          22.2 201 
 BRR  HZ EP        225 42.53                             152    0.2210 75.5 299 
 BRR  HZ I         225 44.19         7.1 0.10                          75.5 299 
 BRR  HE ES   1    225 59.64                             152    0.25 7 75.5 299 
 PAM  SZ EP        225 43.15                             152    0.0510 76.8  36 
 PAM  SN ES   1    226  0.61                             152   -0.17 7 76.8  36 
 RUS  HZ EP        225 44.50                             145    0.0410 98.2 178 
 RUS  HE ES   1    226  3.15                             145   -0.06 7 98.2 178 
 ZAR  HN ES   2    226 18.61                             123   -0.88 4  208 292 
 ZAR  HZ I         226 24.89         5.2 0.50                           208 292 
                                                                                
