 2013 1115 0122 32.7 L   6.562 -73.466117.0  RSN 11 0.4 1.9LRSN                1
 GAP= 66        0.92       2.8     2.8  5.3 -0.1039E+01  0.5478E+01 -0.1289E+01E
 Epicentro: EL CARMEN DE CHUCURI - SANTANDER                                   3
 ACTION:UPD 14-01-09 16:28 OP:ep   STATUS:               ID:20131115012232 L   I
 OLDACT:REG 13-11-15 07:59 OP:nd   STATUS:               ID:20131115012000     3
 2013-11-15-0120-00M.COL___279                                                 6
 STAT SP IPHASW D HRMM SECON CODA AMPLIT PERI AZIMU VELO AIN AR TRES W  DIS CAZ7
 BAR2 SZ EP        122 49.39                             164    0.3110 31.6  84 
 BAR2 SZ ES        123  2.07                             164    0.1710 31.6  84 
 BAR2 SZ I         123  3.25       117.8 0.44            163           31.6  84 
 BRR  HZ EP        122 50.47                             148    0.0210 66.1 336 
 BRR  HN ES        123  4.56                             148    0.2310 66.1 336 
 BRR  HZ I         123 14.65         9.2 0.14            145           66.1 336 
 RUS  HZ EP        122 53.05                             142    0.5710 85.3 150 
 RUS  HN ES        123  7.78                             142   -0.1710 85.3 150 
 RUS  HZ I         123  9.72        11.0 0.24            145           85.3 150 
 PTB  HZ IP   4 C  122 52.67                             134   -1.15 0  110 269 
 PTB  HN ES        123  9.54                             134   -0.7910  110 269 
 PTB  HZ I         123 13.43        11.9 0.14            134            110 269 
 PAM  SZ EP        122 55.08                             131   -0.3910  121  45 
 PAM  SN ES        123 12.98                             131   -0.2810  121  45 
 PAM  SZ I         123 13.34        10.6 0.36            129            121  45 
 SPBC HZ EP        122 54.68                             131   -0.2710  121 214 
 SPBC HN ES   2    123 12.83                             131    0.49 5  121 214 
 SPBC HZ I         123 17.45        22.5 0.20            133            121 214 
 ZAR  HZ EP        123  1.41                             118    0.08 9  185 304 
 ZAR  HN ES        123 24.29                             118    0.59 9  185 304 
 ZAR  HZ I         123 29.69        13.9 0.44            117            185 304 
 NOR  HZ EP        123  1.58                             117   -0.40 9  191 235 
 NOR  HN ES        123 25.05                             117    0.19 9  191 235 
 NOR  HZ I         123 29.03         6.2 0.16            118            191 235 
 HEL  HZ EP        123  7.47                             112    0.50 8  232 260 
 HEL  HN ES        123 33.48                             112   -0.26 8  232 260 
 HEL  HZ I         123 36.91         5.9 0.36            112            232 260 
 SML  HZ EP        123  9.18                             109   -0.13 8  256 345 
 SML  HN ES        123 37.83                             109   -0.07 8  256 345 
 SML  HZ I         123 47.87         8.0 0.10            109            256 345 
 GUY2CHZ EP   4    123  7.23                             110   -2.75 0  257 235 
 GUY2CHN ES   4    123 42.20                             110    3.11 0  257 235 
 GUY2CHZ I         123 48.33         4.0 0.58                           257 235 
                                                                                
