 2017  115 0418 32.1 L   6.796 -73.136150.6  RSN 13 0.6 1.7LRSN                1
 GAP=120        1.07       3.9     3.9  5.6 -0.1184E+00  0.5063E+01  0.4552E+01E
 Epicentro: LOS SANTOS - SANTANDER                                             3
 ACTION:UPD 17-05-22 15:59 OP:jn   STATUS:               ID:20170115041832 L   I
 OLDACT:UP  17-01-15 15:02 OP:e    STATUS:               ID:20170115040746d    3
 OLDACT:UP  17-01-15 15:01 OP:e    STATUS:               ID:20170115040746d    3
 OLDACT:UP  17-01-15 15:01 OP:e    STATUS:               ID:20170115040746d    3
 OLDACT:UP  17-01-15 15:01 OP:e    STATUS:               ID:20170115040746d    3
 OLDACT:UP  17-01-15 14:59 OP:e    STATUS:               ID:20170115040746d    3
 OLDACT:UP  17-01-15 14:57 OP:e    STATUS:               ID:20170115040746d    3
 OLDACT:DUP 17-01-15 14:55 OP:e    STATUS:               ID:20170115040746d    3
 OLDACT:UP  17-01-15 14:54 OP:e    STATUS:               ID:20170115040745     3
 OLDACT:UP  17-01-15 14:54 OP:e    STATUS:               ID:20170115040745     3
 OLDACT:UP  17-01-15 14:53 OP:e    STATUS:               ID:20170115040745     3
 OLDACT:UP  17-01-15 14:53 OP:e    STATUS:               ID:20170115040745     3
 OLDACT:UP  17-01-15 14:50 OP:e    STATUS:               ID:20170115040745     3
 OLDACT:UP  17-01-15 14:49 OP:e    STATUS:               ID:20170115040745     3
 OLDACT:UP  17-01-15 14:49 OP:e    STATUS:               ID:20170115040745     3
 OLDACT:UP  17-01-15 14:47 OP:e    STATUS:               ID:20170115040745     3
 OLDACT:UP  17-01-15 14:46 OP:e    STATUS:               ID:20170115040745     3
 OLDACT:REG 17-01-15 12:35 OP:and  STATUS:               ID:20170115040745     3
 2017-01-15-0408-00M.COL___335                                                 6
 STAT SP IPHASW D HRMM SECON CODA AMPLIT PERI AZIMU VELO AIN AR TRES W  DIS CAZ7
 BAR2 EZ EP        418 52.28                             171   -0.0210 23.1 193 
 BAR2 EZ ES        419  7.76                             171   -0.3110 23.1 193 
 BAR2 EZ I         419  9.03        20.2 0.20            168           23.1 193 
 BRR  HZ EP        418 54.23                             153    0.4010 72.3 298 
 BRR  HN ES        419 11.61                             153    0.8210 72.3 298 
 BRR  HZ I         419 19.44         6.2 0.21            150           72.3 298 
 PAM  EZ EP        418 55.09                             152    0.2810 77.1  39 
 PAM  EN ES        419 12.30                             152   -0.2310 77.1  39 
 PAM  EZ I         419 14.83         5.8 0.56            156           77.1  39 
 RUS  HZ EP        418 56.15                             145   -0.1410  100 177 
 RUS  HN ES        419 15.29                             145    0.1310  100 177 
 RUS  HZ I         419 16.21         5.7 0.26            147            100 177 
 PTB  HZ EP        418 59.27                             133   -0.28 9  149 259 
 PTB  HN ES        419 20.28                             133   -0.68 9  149 259 
 PTB  HZ I         419 22.41         7.3 0.18            132            149 259 
 ZAR  HN ES        419 30.29                             123   -0.33 9  205 292 
 ZAR  HZ I         419 41.07         4.4 0.18            123            205 292 
 NOR  HZ EP        419  8.78                             119    0.61 8  235 235 
 NOR  HN ES        419 35.94                             119   -0.37 8  235 235 
 NOR  HZ I         419 42.09         4.7 0.18            120            235 235 
 CHI  HZ EP        419 10.35                             118    0.30 8  248 195 
 CHI  HN ES        419 39.71                             118    0.06 8  248 195 
 CHI  HZ I         419 48.09         2.1 0.52            119            248 195 
 ROSC BZ EP   9    419 13.12                             118    2.62 0  253 211 
 ROSC BN ES        419 43.16                             118    0.08 8  253 211 
 ROSC BZ I         419 47.21         6.1 0.45            119            253 211 
 URE  HZ EP        419 12.68                             114   -0.85 7  285 292 
 URE  HN ES   4    419 44.21                             114   -1.64 0  285 292 
 URE  HZ I         419 51.06         2.3 0.14            115            285 292 
 GUY2CHZ EP   4    419 18.12                             113    2.12 0  302 235 
 GUY2CHN ES   3    419 53.62                             113    3.38 2  302 235 
 GUY2CHZ I         420  2.53         2.8 0.60                           302 235 
 PTGC HZ EP        419 15.47                             112   -0.61 7  308 159 
 PTGC HN ES   4    419 48.46                             112   -1.93 0  308 159 
 CBOC HZ EP        419 19.98                             111    0.67 7  334 252 
 CBOC HN ES        419 56.42                             111    0.28 7  334 252 
 CBOC HZ I         420  1.51         0.9 0.31            111            334 252 
                                                                                
