 2011  515 0052 41.3 L   6.763 -73.082145.7  RSN  9 0.4 1.9LRSN                1
 GAP=147        1.04       4.7     9.7  6.9 -0.1514E+02 -0.3373E+01  0.1781E+00E
 Epicentro: LOS SANTOS - SANTANDER                                             3
 ACTION:UP  11-06-29 08:53 OP:tino STATUS:               ID:20110515005241 L   I
 2011-05-15-0050-24S.COL___141                                                 6
 STAT SP IPHASW D HRMM SECON CODA AMPLIT PERI AZIMU VELO SNR AR TRES W  DIS CAZ7
 BAR2 SZ IP        053  0.97                             171     0.110   22 211 
 BAR2 SZ ES   1    053 14.94                             171    -1.2 7   22 211 
 BAR2 SZ I         053 17.76        11.3 0.36                            22 211 
 BTL  SZ EP        053  1.11                             169     0.110   27 310 
 BTL  SZ ES   1    053 16.81                             169     0.4 7   27 310 
 PAM  SZ EP   2    053  3.85                             151     0.4 5   76  33 
 PAM  SN ES   2    053 20.87                             151     0.1 5   76  33 
 BRR  HZ EP        053  2.62                             150    -0.310   79 299 
 BRR  HN ES   1    053 20.30                             150     0.5 7   79 299 
 BRR  HZ I         053 22.56        13.8 0.08                            79 299 
 RUS  HZ EP        053  4.54                             145    -0.210   96 180 
 RUS  HN ES   1    053 23.62                             145     0.6 7   96 180 
 RUS  HZ I         053 25.31         4.7 0.57                            96 180 
 BRI  SZ IP        053  5.58                             141     0.310  110  17 
 BRI  SZ ES   1    053 23.79                             141    -0.2 7  110  17 
 GRA  SZ IP        053  6.74                             136     0.010  128  14 
 GRA  SZ ES   1    053 26.60                             136     0.1 7  128  14 
 GRA  SZ I         053 27.62        10.2 0.45                           128  14 
 OCA  SZ EP        053  9.78                             129    -0.3 9  165 351 
 OCA  SZ I         053 35.21        10.7 0.40                           165 351 
 PRA  HZ EP        053 34.86                             106     0.0 6  392 211 
 PRA  HZ I         053 36.71        12.8 0.20                           392 211 
                                                                                
