 2016  315 0246 24.7 L   6.803 -73.153143.8  RSN  6 0.4 1.5LRSN                1
 GAP=142        0.79       3.8     4.4  7.4 -0.6449E+01  0.8258E+01  0.2823E+01E
 Epicentro: LOS SANTOS - SANTANDER                                             3
 ACTION:UPD 16-05-13 21:24 OP:cam  STATUS:               ID:20160315024624 L   I
 OLDACT:REG 16-03-15 13:15 OP:dnl  STATUS:               ID:20160315023748     3
 2016-03-15-0237-48M.COL___307                                                 6
 STAT SP IPHASW D HRMM SECON CODA AMPLIT PERI AZIMU VELO AIN AR TRES W  DIS CAZ7
 PAM  EZ EP        246 46.94                             150    0.2610 77.6  40 
 PAM  EE ES        247  4.05                             150    0.1910 77.6  40 
 PAM  EZ I         247  6.26         5.5 0.56            154           77.6  40 
 RUS  HZ EP        246 48.15                             143   -0.1010  101 176 
 RUS  HN ES        247  6.21                             143   -0.4410  101 176 
 RUS  HZ I         247  8.44         1.5 0.34            146            101 176 
 PTB  HZ EP        246 50.88                             132   -0.52 9  147 259 
 PTB  HN ES        247 12.09                             132   -0.17 9  147 259 
 PTB  HZ I         247 16.79         4.5 0.16            133            147 259 
 SPBC HZ EP        246 53.02                             129    0.04 9  163 219 
 SPBC HE ES        247 15.55                             129    0.47 9  163 219 
 SPBC HZ I         247 17.63         4.2 0.11            131            163 219 
 CHI  HN EP   2    247  2.57                             117    0.31 4  249 195 
 CHI  HE ES        247 31.74                             117    0.15 8  249 195 
 CHI  HN I         247 35.73         2.9 0.34            119            249 195 
 GUY2CHZ EP   4    247 17.32                             112    9.20 0  301 235 
 GUY2CHN ES   2    247 43.06                             112    1.03 4  301 235 
 GUY2CHZ I         247 51.47         1.9 0.30                           301 235 
                                                                                
