 2016  415 0453 13.1 L   6.785 -73.166138.7  RSN  7 0.4 1.6LRSN                1
 GAP=135        0.96       4.4     4.4  6.9 -0.4891E+01  0.1297E+02 -0.3122E+01E
 Epicentro: LOS SANTOS - SANTANDER                                             3
 ACTION:UPD 16-05-05 14:21 OP:rebc STATUS:               ID:20160415045313 L   I
 OLDACT:UP  16-04-15 18:29 OP:mh   STATUS:               ID:20160415044747     3
 OLDACT:REG 16-04-15 13:52 OP:mh   STATUS:               ID:20160415044747     3
 2016-04-15-0447-47M.COL___310                                                 6
 STAT SP IPHASW D HRMM SECON CODA AMPLIT PERI AZIMU VELO AIN AR TRES W  DIS CAZ7
 BAR2 EZ EP        453 31.95                             171    0.0810 21.4 185 
 BAR2 EZ ES        453 46.30                             171   -0.1910 21.4 185 
 BAR2 EZ I         453 48.02         9.4 0.12            170           21.4 185 
 PAM  EN EP        453 34.76                             148   -0.0110 80.1  40 
 PAM  EZ ES        453 51.74                             148    0.0910 80.1  40 
 PAM  EN I         453 52.63        16.5 0.46            152           80.1  40 
 RUS  HZ EP        453 36.11                             142    0.0310 99.1 175 
 RUS  HN ES        453 53.65                             142   -0.3410 99.1 175 
 RUS  HZ I         453 54.66         3.1 0.24            146           99.1 175 
 PTB  HZ EP        453 39.32                             131    0.02 9  145 259 
 PTB  HN ES        453 59.13                             131   -0.58 9  145 259 
 PTB  HZ I         454  2.32         5.2 0.34            130            145 259 
 SPBC HZ EP        453 40.90                             128    0.07 9  160 219 
 SPBC HN ES        454  3.39                             128    0.95 9  160 219 
 SPBC HZ I         454  8.42         4.0 0.22            129            160 219 
 ZAR  HZ EP   1    453 44.82                             121   -0.15 6  203 293 
 ZAR  HN ES   1    454 10.63                             121    0.82 6  203 293 
 ZAR  HZ I         454 18.25         6.3 0.50            121            203 293 
 CBOC HZ EP   1    453 59.23                             109   -0.22 5  331 252 
 CBOC HN ES   1    454 34.63                             109   -0.96 5  331 252 
 CBOC HZ I         454 39.36         0.9 0.68            110            331 252 
                                                                                
