 2011  215 0032 59.9 L   6.786 -73.117148.6  RSN  5 0.2 1.4LRSN                1
 GAP=162        0.43       2.4     5.2  5.9 -0.7728E+01  0.1218E+02 -0.2376E+01E
 Epicentro: LOS SANTOS - SANTANDER                                             3
 ACTION:UP  11-03-28 15:08 OP:jfem STATUS:               ID:20110215003259 L   I
 2011-02-15-0028-57S.COL___136                                                 6
 STAT SP IPHASW D HRMM SECON CODA AMPLIT PERI AZIMU VELO SNR AR TRES W  DIS CAZ7
 BAR2 SZ EP   2    033 19.57                             171    -0.2 5   23 199 
 BAR2 SZ I         033 36.41         6.7 0.38                            23 199 
 RUS  HZ EP   1    033 23.80                             145     0.0 8   99 178 
 RUS  HE ES   1    033 42.63                             145     0.2 8   99 178 
 RUS  HZ I         033 43.13         3.4 0.35                            99 178 
 GRA  SZ EP        033 25.41                             137     0.010  126  16 
 GRA  SZ ES   1    033 45.21                             137    -0.1 7  126  16 
 GRA  SZ I         033 46.11         4.6 0.33                           126  16 
 NOR  SZ EP   1    033 36.16                             119     0.2 6  237 235 
 NOR  SN ES   1    034  4.08                             119     0.0 6  237 235 
 CHI  HZ EP   1    033 37.75                             118     0.1 6  248 196 
 CHI  HN ES        034  6.84                             118    -0.3 8  248 196 
 CHI  HZ I         034 10.35         1.7 0.42                           248 196 
                                                                                
