 2017 1015 0806 24.6 L   6.805 -73.134150.4  RSN 24 0.5 2.5LRSN                1
 GAP= 66        1.08       2.6     2.8  4.6  0.3526E-01  0.3120E+01  0.6166E+00E
 Epicentro: LOS SANTOS - SANTANDER                                             3
 ACTION:UPD 17-11-07 19:32 OP:rebc STATUS:               ID:20171015074941 L   I
 OLDACT:UPD 17-10-15 13:29 OP:leo  STATUS:               ID:20171015074941 L   3
 2017-10-15-0758-00M.COL___408                                                 6
 STAT SP IPHASW D HRMM SECON CODA AMPLIT PERI AZIMU VELO AIN AR TRES W  DIS CAZ7
 BAR2 EZ EP        8 6 44.58                             171   -0.2210 24.1 193 
 BAR2 EZ ES        8 7  0.30                             171   -0.2610 24.1 193 
 BAR2 EZ I         8 7  3.91        53.2 0.40            167           24.1 193 
 BRR  HZ IP     D  8 6 46.77                             153    0.4710 72.1 298 
 BRR  HN ES        8 7  3.98                             153    0.7610 72.1 298 
 BRR  HZ I         8 7  8.43        28.2 0.26            152           72.1 298 
 PAM  EZ EP        8 6 47.72                             152    0.4810 76.1  39 
 PAM  EN ES        8 7  4.95                             152    0.0610 76.1  39 
 PAM  EZ I         8 7  7.08        52.6 0.50            157           76.1  39 
 RUS  HZ EP        8 6 48.71                             145   -0.1310  101 177 
 RUS  HN ES        8 7  7.68                             145   -0.0710  101 177 
 RUS  HZ I         8 7 10.05        29.6 0.54            144            101 177 
 PTB  HZ EP        8 6 51.47                             133   -0.60 9  149 259 
 PTB  HN ES        8 7 12.81                             133   -0.69 9  149 259 
 PTB  HZ I         8 7 14.96        30.5 0.36            132            149 259 
 TAM  HZ IP     C  8 6 52.93                             132    0.38 9  154 105 
 TAM  HN ES        8 7 14.63                             132    0.29 9  154 105 
 TAM  HZ I         8 7 15.24        20.0 0.30            135            154 105 
 YPLC HZ EP        8 6 54.98                             128    0.26 9  177 152 
 YPLC HN ES        8 7 17.38                             128   -0.83 9  177 152 
 YPLC HZ I         8 7 19.82        48.0 0.24            129            177 152 
 ZAR  HZ EP        8 6 57.37                             123   -0.08 9  205 292 
 ZAR  HN ES        8 7 23.01                             123   -0.06 9  205 292 
 ZAR  HZ I         8 7 29.67        34.3 0.44            124            205 292 
 NOR  HZ EP        8 7  1.20                             119    0.45 8  236 235 
 NOR  HN ES        8 7 28.83                             119   -0.11 8  236 235 
 NOR  HZ I         8 7 32.52        31.3 0.20            120            236 235 
 CHI  HZ EP        8 7  3.03                             118    0.38 8  250 195 
 CHI  HN ES        8 7 32.02                             118   -0.31 8  250 195 
 CHI  HZ I         8 7 40.42        14.2 0.48            119            250 195 
 ROSC BZ EP   4    8 7  4.55                             117    1.45 0  254 211 
 ROSC BN ES   4    8 7 36.82                             117    3.69 0  254 211 
 ROSC BZ I         8 7 42.52        30.3 0.40            118            254 211 
 URE  HZ EP        8 7  5.36                             114   -0.65 7  285 292 
 URE  HN ES   4    8 7 35.52                             114   -2.79 0  285 292 
 GUY2CHZ EP        8 7  9.78                             113    1.20 7  303 235 
 GUY2CHN ES        8 7 42.62                             113   -0.26 7  303 235 
 GUY2CHZ I         8 7 51.67        18.5 0.30                           303 235 
 PTGC HZ EP        8 7  7.65                             112   -1.02 7  309 159 
 PTGC HN ES   4    8 7 40.98                             112   -2.07 0  309 159 
 PTGC HZ I         8 7 45.81        13.8 0.32            114            309 159 
 LL6C HZ EP        8 7  9.92                             111   -0.52 7  324 357 
 LL6C HN ES        8 7 46.26                             111    0.06 7  324 357 
 ELA  HZ EP   4    8 7 14.71                             111    2.91 0  330 230 
 ELA  HN ES   4    8 7 50.93                             111    2.31 0  330 230 
 ELA  HZ I         8 7 57.44        12.3 0.36            112            330 230 
 DBB  EZ EP        8 7 12.42                             110    0.01 7  341 274 
 DBB  EN ES   4    8 7 48.55                             110   -1.15 0  341 274 
 DBB  EZ I         8 7 55.42         6.7 0.28            111            341 274 
 ARGC HZ EP        8 7 14.46                             109    0.04 6  359 340 
 ARGC HE ES        8 7 52.84                             109   -0.45 6  359 340 
 ARGC HZ I         8 7 57.20         5.5 0.38            111            359 340 
 ANIL HZ EP   9    8 7 15.96                             109    1.23 0  359 225 
 ANIL HE ES        8 7 56.08                                    1.01 6  359 225 
 ANIL HZ I         8 8  2.60        28.1 0.28            110            359 225 
 PRA  HZ EP        8 7 18.24                             107   -0.17 6  393 210 
 PRA  HE ES        8 8  0.45                             107    0.06 6  393 210 
 PRA  HZ I         8 8  6.01        12.2 0.28            108            393 210 
 ORTC HZ EP        8 7 19.16                             107    0.34 6  397 216 
 ORTC HN ES        8 8  2.15                             107    1.04 6  397 216 
 ORTC HZ I         8 8  8.56         8.8 0.40            108            397 216 
 PAL  HZ EP        8 7 20.03                             107   -0.05 6  407 239 
 PAL  HN ES        8 8  3.67                             107    0.32 6  407 239 
 PAL  HZ I         8 8  8.38         7.5 0.20            107            407 239 
 SJC  HZ EP   4    8 7 18.77                             106   -1.57 0  409 327 
 SJC  HN ES   4    8 7 59.31                             106   -4.52 0  409 327 
 SJC  HZ I         8 8  4.61         5.9 0.34            108            409 327 
 URI  HZ EP   9    8 7 35.11                             101   -2.50 0  556  13 
 URI  HN ES        8 8 31.22                                   -0.84 3  556  13 
 GARC HZ EP   4    8 7 38.77                             101   -1.31 0  574 207 
 GARC HN ES   4    8 8 35.08                             101   -3.88 0  574 207 
                                                                                
