 2011  515 0605 16.0 L   6.816 -73.153142.6  RSN 16 0.5 2.4LRSN                1
 GAP=135        1.20       4.7     7.4  6.7 -0.1649E+02  0.1499E+02  0.2432E+01E
 Epicentro: LOS SANTOS - SANTANDER                                             3
 ACTION:UP  11-06-29 08:53 OP:tino STATUS:               ID:20110515060516 L   I
 2011-05-15-0601-29S.COL___141                                                 6
 STAT SP IPHASW D HRMM SECON CODA AMPLIT PERI AZIMU VELO SNR AR TRES W  DIS CAZ7
 BTL  SZ IP        6 5 35.64                             173     0.510   17 312 
 BTL  SZ ES   1    6 5 50.49                             173     0.4 7   17 312 
 BAR2 SZ IP        6 5 35.32                             170     0.010   25 187 
 BAR2 SZ ES   1    6 5 50.06                             170    -0.3 7   25 187 
 BAR2 SZ I         6 5 52.09        62.9 0.21                            25 187 
 GIR2 SZ EP   3    6 5 35.35                             168     0.1 2   29 351 
 GIR2 SZ ES   3    6 5 50.57                             168     0.3 2   29 351 
 BRR  HZ IP     D  6 5 37.09                             152     0.310   70 298 
 BRR  HN ES   1    6 5 53.07                             152     0.2 7   70 298 
 BRR  HZ I         6 5 56.51        37.3 0.13                            70 298 
 PAM  SZ IP        6 5 38.24                             150     0.410   77  41 
 PAM  SN ES   1    6 5 55.09                             150     0.2 7   77  41 
 RUS  HZ EP        6 5 39.22                             143    -0.410  102 176 
 RUS  HN ES   1    6 5 58.31                             143     0.3 7  102 176 
 RUS  HZ I         6 5 59.89        37.7 0.47                           102 176 
 BRI  SZ EP        6 5 39.78                             141     0.310  107  22 
 BRI  SZ ES   1    6 5 56.22                             141    -1.6 7  107  22 
 GRA  SZ EP        6 5 41.00                             137     0.110  124  18 
 GRA  SZ ES   1    6 6  0.17                             137    -0.1 7  124  18 
 GRA  SZ I         6 6  2.11        23.2 0.28                           124  18 
 OCA  SZ EP        6 5 44.10                             129     0.2 9  158 353 
 OCA  SZ ES   1    6 6  5.22                             129    -0.5 7  158 353 
 OCA  SZ I         6 6 10.60        17.0 0.51                           158 353 
 NOR  SZ EP        6 5 51.02                             118    -0.6 8  235 234 
 NOR  SN ES   1    6 6 18.84                             118    -0.5 6  235 234 
 ROSC BZ EP   4    6 5 55.16                             116     1.1 0  254 211 
 ROSC BZ I         6 6 30.77        19.3 0.43                           254 211 
 HEL  HZ EP        6 5 56.26                             114     0.2 8  272 255 
 HEL  HZ I         6 6 33.26         9.0 0.41                           272 255 
 RREF HZ EP        6 6  2.21                             110     0.1 7  322 229 
 RREF HZ I         6 6 47.10        16.0 0.26                           322 229 
 DBB  SZ EP   3    6 6  3.54                             109     0.3 2  339 274 
 TOL  SZ EP        6 6  4.83                             109     0.6 7  344 224 
 PRA  HZ EP        6 6  8.49                             106    -1.1 6  393 209 
 PRA  HZ I         6 6 53.90        20.8 0.21                           393 209 
                                                                                
