 2016 1115 0331 48.2 L   6.850 -73.312130.6  RSN  4 0.3 1.2LRSN                1
 GAP=109        0.75       6.8     4.0  6.0 -0.1309E+02  0.3191E+01  0.1589E+00E
 Epicentro: ZAPATOCA - SANTANDER                                               3
 ACTION:UPD 17-10-26 21:08 OP:lp   STATUS:               ID:20161115033148 L   I
 OLDACT:REG 16-11-15 12:48 OP:edw  STATUS:               ID:20161115032726     3
 2016-11-15-0328-00M.COL___338                                                 6
 STAT SP IPHASW D HRMM SECON CODA AMPLIT PERI AZIMU VELO AIN AR TRES W  DIS CAZ7
 BAR2 EZ EP        332  6.43                             166    0.2110 31.9 153 
 BAR2 EZ ES        332 20.07                             166   -0.2110 31.9 153 
 BAR2 EZ I         332 20.63        13.5 0.40            169           31.9 153 
 BRR  HZ EP        332  6.76                             157    0.0810 52.6 303 
 BRR  HN ES        332 20.83                             157   -0.2810 52.6 303 
 BRR  HZ I         332 21.73         4.0 0.12            154           52.6 303 
 PAM  EZ EP        332  9.32                             145   -0.1110 86.6  51 
 PAM  EN ES        332 26.27                             145    0.2710 86.6  51 
 PAM  EZ I         332 29.54         1.9 0.34            147           86.6  51 
 PTB  HZ EP        332 12.01                             132   -0.4010  131 255 
 PTB  HN ES        332 31.76                             132    0.4610  131 255 
 PTB  HZ I         332 39.23         1.3 0.20            131            131 255 
                                                                                
