 2016 1115 0651  6.3 L   6.070 -73.688118.4  RSN 17 0.5 2.3LRSN                1
 GAP= 61        1.07       2.7     2.8  6.6 -0.2458E+01  0.7807E+00  0.5841E+01E
 Epicentro: CHIPATA - SANTANDER                                                3
 ACTION:UPD 17-10-26 21:08 OP:lp   STATUS:               ID:20161115065106 L   I
 OLDACT:UP  16-11-15 17:24 OP:edw  STATUS:               ID:20161115064747d    3
 OLDACT:UP  16-11-15 17:23 OP:edw  STATUS:               ID:20161115064747d    3
 OLDACT:DUP 16-11-15 17:15 OP:edw  STATUS:               ID:20161115064747d    3
 2016-11-15-0648-00M.COL___344                                                 6
 STAT SP IPHASW D HRMM SECON CODA AMPLIT PERI AZIMU VELO AIN AR TRES W  DIS CAZ7
 BAR2 EZ IP     D  651 25.84                             143    0.3410 80.4  44 
 BAR2 EZ ES        651 40.36                             143   -0.1610 80.4  44 
 BAR2 EZ I         651 41.44       135.6 0.12            148           80.4  44 
 PTB  HZ EP   9    651 25.61                             137   -1.08 0 99.6 301 
 PTB  HN ES        651 41.17                             138   -0.3810 99.6 301 
 PTB  HZ I         651 44.02        26.7 0.10            139           99.6 301 
 BRR  HZ EP        651 28.06                             132    0.0910  115 359 
 BRR  HE ES        651 44.92                             132    0.0110  115 359 
 BRR  HZ I         651 49.10        33.3 0.12            137            115 359 
 NOR  HZ EP        651 30.21                             126   -0.45 9  142 247 
 NOR  HN ES        651 49.69                             126   -0.00 9  142 247 
 NOR  HZ I         651 51.25        72.0 0.20            128            142 247 
 ROSC BZ EP        651 33.10                             124    0.93 9  153 207 
 ROSC BN ES   4    651 54.58                             124    2.19 0  153 207 
 ROSC BZ I         652  0.36        20.1 0.30            126            153 207 
 CHI  HZ EP        651 32.43                             123   -0.42 9  159 182 
 CHI  HN ES        651 53.75                             123    0.15 9  159 182 
 CHI  HZ I         651 55.72        18.4 0.46            126            159 182 
 PAM  EZ EP     C  651 35.44                             120    0.57 9  178  38 
 PAM  EN ES        651 57.39                             120    0.20 9  178  38 
 PAM  EZ I         652  1.43        20.4 0.20            124            178  38 
 ZAR  HZ EP        651 37.41                             115    0.38 9  204 321 
 ZAR  HN ES        652  0.59                             115   -0.45 9  204 321 
 ZAR  HZ I         652  5.44        26.0 0.30            119            204 321 
 TAM  HZ EP        651 38.70                             114    0.50 8  214  79 
 TAM  HN ES        652  2.33                             114   -0.78 8  214  79 
 TAM  HZ I         652  3.45        17.7 0.30            118            214  79 
 ELA  HZ EP   4    651 41.99                             112    1.11 0  232 235 
 ELA  HE ES   4    652 10.13                             112    2.25 0  232 235 
 ELA  HZ I         652 13.95         9.0 0.38            115            232 235 
 CBOC HZ EP        651 43.72                             110    0.31 8  258 265 
 CBOC HN ES        652 12.08                             110   -0.30 8  258 265 
 CBOC HZ I         652 15.55         5.5 0.46            112            258 265 
 ANIL HZ EP        651 44.07                             110    0.54 8  258 228 
 ANIL HN ES        652 13.15                             110    0.54 8  258 228 
 ANIL HZ I         652 19.70        27.3 0.38            112            258 228 
 PTGC HZ EP        651 43.73                             109   -0.72 8  269 140 
 PTGC HN ES   4    652 13.00                             109   -1.24 0  269 140 
 PTGC HZ I         652 14.76         7.9 0.22            112            269 140 
 URE  HZ EP        651 44.35                             108   -0.88 7  276 312 
 URE  HN ES   4    652 13.36                             108   -2.27 0  276 312 
 URE  HZ I         652 15.63        11.0 0.12            111            276 312 
 PRA  HZ EP        651 46.59                             107   -0.61 7  293 207 
 PRA  HN ES        652 18.93                             107   -0.20 7  293 207 
 PRA  HZ I         652 21.77        11.9 0.28            109            293 207 
 ORTC HZ EP        651 47.25                             107   -0.22 7  295 216 
 ORTC HN ES        652 19.62                             107   -0.00 7  295 216 
 ORTC HZ I         652 24.98        11.5 0.16            109            295 216 
 LL6C HZ EP   4    651 42.25                             101   -18.6 0  408   6 
 LL6C HE ES   4    652 27.12                             101   -16.3 0  408   6 
 ARGC HZ EP   4    652  5.91                             100    3.23 0  423 352 
 ARGC HN ES   4    652 49.36                             100    2.67 0  423 352 
 CRJC HZ EP   4    652 20.66                              96    2.03 0  555   9 
 CRJC HE ES   4    653 13.64                              96   -1.44 0  555   9 
 CRJC HZ I         653 21.24         7.4 0.48             98            555   9 
                                                                                
