 2011  715 0604 23.5 L   6.778 -73.055150.7  RSN  5 0.2 1.5LRSN                1
 GAP=167        0.53       2.9     6.3  5.5 -0.4996E+01 -0.7473E+01 -0.4452E+00E
 Epicentro: LOS SANTOS - SANTANDER                                             3
 ACTION:UPD 12-07-25 14:00 OP:epov STATUS:               ID:20110715060129 L   I
 2011-07-15-0601-29S.COL___132                                                 6
 STAT SP IPHASW D HRMM SECON CODA AMPLIT PERI AZIMU VELO AIN AR TRES W  DIS CAZ7
 BAR2 SZ EP   1    6 4 43.51                             170   -0.22 7 24.9 215 
 BAR2 SZ I         6 4 44.05         8.3 0.34                          24.9 215 
 BAR2 SZ ES   1    6 4 59.53                             170    0.00 7 24.9 215 
 BRR  HZ EP   1    6 4 45.28                             150   -0.46 7 81.2 297 
 BRR  HZ I         6 4 45.66        15.3 0.17                          81.2 297 
 BRR  HN ES   1    6 5  3.39                             150    0.29 7 81.2 297 
 RUS  HZ EP   1    6 4 47.63                             145    0.10 7 97.9 182 
 RUS  HN ES   1    6 5  6.33                             145    0.04 7 97.9 182 
 RUS  HZ I         6 5  7.39         3.0 0.30                          97.9 182 
 BRI  SZ EP   1    6 4 48.11                             143    0.33 7  108  15 
 BRI  SZ ES   1    6 5  6.41                             143   -0.32 7  108  15 
 BRI  SZ I         6 5  8.55         2.2 0.31                           108  15 
 GRA  SZ EP   1    6 4 49.33                             138    0.19 7  125  13 
 GRA  SZ ES   1    6 5  9.23                             138    0.07 7  125  13 
 GRA  SZ I         6 5  9.99         3.8 0.34                           125  13 
                                                                                
