 2013 1015 0613 42.1 L   6.737 -73.160144.6  RSN  4 0.4 1.2LRSN                1
 GAP=231        0.88       8.2     9.2  8.1  0.4951E+02  0.1468E+02  0.1032E+02E
 Epicentro: VILLANUEVA - SANTANDER                                             3
 ACTION:UPD 13-11-25 09:21 OP:ep   STATUS:               ID:20131015061342 L   I
 OLDACT:REG 13-10-15 08:08 OP:jn   STATUS:               ID:20131015060959     3
 2013-10-15-0609-59M.COL___274                                                 6
 STAT SP IPHASW D HRMM SECON CODA AMPLIT PERI AZIMU VELO AIN AR TRES W  DIS CAZ7
 BAR2 SZ ES   1    614 16.92                             173    0.39 7 16.2 189 
 BAR2 SZ I         614 21.30         5.4 0.28            176           16.2 189 
 BRR  HZ EP   1    614  3.53                             151    0.31 7 73.4 304 
 BRR  HN ES        614 19.40                             151   -0.3110 73.4 304 
 BRR  HZ I         614 24.48         2.7 0.10            153           73.4 304 
 RUS  HZ EP        614  4.69                             145   -0.5310 93.7 175 
 RUS  HE ES        614 23.42                             145    0.1510 93.7 175 
 RUS  HZ I         614 25.09         1.6 0.50            151           93.7 175 
 PTB  HZ EP        614  9.16                             132    0.48 9  145 261 
 PTB  HN ES   1    614 29.20                             132   -0.24 7  145 261 
 PTB  HZ I         614 32.19         2.0 0.30            136            145 261 
                                                                                
