 2017  515 0322 28.7 L   6.605 -73.181118.4  RSN  4 0.3 1.2LRSN                1
 GAP=234        0.77       9.2     4.4 10.3 -0.2240E+02  0.9192E+01  0.2028E+02E
 Epicentro: BARICHARA - SANTANDER                                              3
 ACTION:UPD 17-06-16 13:36 OP:jn   STATUS:               ID:20170515032228 L   I
 OLDACT:UP  17-05-16 13:40 OP:nlst STATUS:               ID:20170515032228 L   3
 OLDACT:REG 17-05-15 12:30 OP:dnl  STATUS:               ID:20170515031740     3
 2017-05-15-0318-00M.COL___359                                                 6
 STAT SP IPHASW D HRMM SECON CODA AMPLIT PERI AZIMU VELO AIN AR TRES W  DIS CAZ7
 BRR  HZ EP        322 48.29                             143    0.6410 80.7 313 
 BRR  HN ES   4    323  5.72                             143    3.30 0 80.7 313 
 BRR  HZ I         323 10.63         4.0 0.62            148           80.7 313 
 PAM  EZ EP        322 49.34                             138   -0.2610 97.1  33 
 PAM  EZ ES     D  323  5.84                             138   -0.0510 97.1  33 
 PAM  EN ES   4    323  7.02                             138    1.13 0 97.1  33 
 PAM  EZ I         323 11.24         2.0 0.38            148           97.1  33 
 PTB  HZ EP        322 52.72                             126   -0.23 9  141 267 
 PTB  HN ES        323 11.81                             126   -0.05 9  141 267 
 PTB  HZ I         323 19.30         1.8 0.48            135            141 267 
 ZAR  HZ EP        323  0.26                             115    0.11 8  210 298 
 ZAR  HN ES        323 24.46                             115   -0.21 8  210 298 
 ZAR  HZ I         323 30.61         2.9 0.32            124            210 298 
                                                                                
