 2011  115 0104  4.7 L   6.784 -72.952145.7  RSN  4 0.2 1.3LRSN                1
 GAP=202        0.44       3.5    17.1  5.7  0.1000E+02 -0.3442E+02  0.1818E+00E
 Epicentro: CEPITA - SANTANDER                                                 3
 ACTION:UP  11-02-08 08:40 OP:pat  STATUS:               ID:20110115010404 L   I
 2011-01-15-0101-54S.COL___135                                                 6
 STAT SP IPHASW D HRMM SECON CODA AMPLIT PERI AZIMU VELO SNR AR TRES W  DIS CAZ7
 BTL  SZ EP   1    1 4 24.55                             165    -0.2 7   38 293 
 BTL  SZ ES   1    1 4 40.36                             165     0.0 7   38 293 
 RUS  HZ EP   1    1 4 28.54                             144     0.1 7  100 188 
 RUS  HN ES   1    1 4 46.87                             144     0.0 7  100 188 
 RUS  HZ I         1 4 47.95         3.1 0.38                           100 188 
 OCA  SZ EP   2    1 4 33.92                             129     0.3 5  166 346 
 CHI  HZ EP   2    1 4 42.49                             117    -0.5 4  253 200 
 CHI  HE ES   2    1 5 13.05                             117     0.3 4  253 200 
 CHI  HZ I         1 5 17.42         1.7 0.25                           253 200 
                                                                                
