 2010  815 0753 10.5 L   6.811 -73.030140.7  RSN 11 0.3 2.1LRSN                1
 GAP=171        0.71       2.8     5.5  4.5 -0.4744E+01  0.2893E+01 -0.9688E+00E
 Epicentro: CEPITA - SANTANDER                                                 3
 ACTION:UP  10-09-07 10:55 OP:vdl  STATUS:               ID:20100815075310 L   I
 2010-08-15-0750-53S.COL___111                                                 6
 STAT SP IPHASW D HRMM SECON CODA AMPLIT PERI AZIMU VELO SNR AR TRES W  DIS CAZ7
 BTL  SZ EP        753 29.88                             168     0.210   29 294 
 BTL  SZ ES   2    753 44.44                                    -0.2 5   29 294 
 BAR2 SZ EP   1    753 29.68                             167     0.0 7   30 215 
 BAR2 SZ ES   1    753 44.28                             167    -0.4 7   30 215 
 BAR2 SZ I         753 45.43        43.3 0.22                            30 215 
 GIR2 SZ EP        753 29.88                             165     0.210   35 329 
 GIR2 SZ ES   1    753 45.24                             165     0.6 7   35 329 
 BRR  HZ IP     C  753 31.68                             148    -0.110   82 294 
 BRR  HZ I         753 32.02        47.3 0.09                            82 294 
 BRR  HN ES   1    753 48.35                             148     0.0 7   82 294 
 RUS  HZ EP   1    753 33.77                             143    -0.1 7  102 183 
 RUS  HN ES        753 51.95                             143    -0.110  102 183 
 RUS  HZ I         753 52.93        10.9 0.21                           102 183 
 GUE  SZ EP        753 34.88                             139     0.410  113   6 
 GRA  SZ EP        753 34.72                             137    -0.210  121  12 
 GRA  SZ ES   1    753 53.74                             137    -0.3 7  121  12 
 OCA  SZ EP   1    753 38.73                             128     0.2 7  161 349 
 OCA  SZ ES   1    753 59.74                             128    -0.6 7  161 349 
 OCA  SZ I         754  4.09        16.3 0.24                           161 349 
 HEL  HZ EP   1    753 52.17                             113     0.3 6  285 256 
 HEL  HN ES   3    754 23.36                                    -0.8 2  285 256 
 HEL  HZ I         754 29.03         4.1 0.20                           285 256 
 RREF HZ EP   1    753 57.49                             109    -0.2 5  332 231 
 RREF HE ES   1    754 34.75                             109     0.3 5  332 231 
 RREF HZ I         754 42.68         3.6 0.31                           332 231 
 PRA  HZ EP   1    754  4.16                             105    -0.6 4  399 211 
 PRA  HZ I         754 51.64         3.0 0.37                           399 211 
                                                                                
