 2011  615 0634 15.9 L   6.768 -73.058148.0  RSN  5 0.2 1.2LRSN                1
 GAP=169        0.52       5.5     7.3  8.0 -0.1935E+02 -0.1002E+02  0.4883E+01E
 Epicentro: LOS SANTOS - SANTANDER                                             3
 ACTION:UP  11-07-14 19:05 OP:ep   STATUS:               ID:20110615063415 L   I
 2011-06-15-0620-00M.COL___125                                                 6
 STAT SP IPHASW D HRMM SECON CODA AMPLIT PERI AZIMU VELO SNR AR TRES W  DIS CAZ7
 BAR2 SZ EP   1    634 35.76                             171    -0.1 7   24 215 
 BAR2 SZ ES   2    634 51.27                             171    -0.1 5   24 215 
 BAR2 SZ I         634 53.63         4.8 0.28                            24 215 
 BRR  HZ EP   1    634 37.61                             150    -0.3 7   81 297 
 BRR  HN ES   2    634 55.43                             150     0.4 5   81 297 
 BRR  HZ I         634 58.43         3.7 0.39                            81 297 
 RUS  HZ EP   2    634 39.84                             145     0.2 5   97 182 
 RUS  HZ I         634 59.66         1.3 0.31                            97 182 
 GRA  SZ EP   1    634 41.73                             137     0.3 7  127  13 
 GRA  SZ ES   2    635  1.08                             137    -0.3 5  127  13 
 GRA  SZ I         635  2.54         2.3 0.22                           127  13 
 NOR  SE ES   2    635 20.82                             118    -0.1 4  241 236 
                                                                                
