 2011  215 0309 39.7 L   6.716 -73.190141.0  RSN  5 0.4 1.7LRSN                1
 GAP=154        0.81       5.2    10.1  8.1 -0.3118E+02  0.3064E+02 -0.5121E+01E
 Epicentro: VILLANUEVA - SANTANDER                                             3
 ACTION:UP  11-03-28 15:08 OP:jfem STATUS:               ID:20110215030939 L   I
 2011-02-15-0304-17S.COL___136                                                 6
 STAT SP IPHASW D HRMM SECON CODA AMPLIT PERI AZIMU VELO SNR AR TRES W  DIS CAZ7
 BAR2 SZ EP   2    3 9 57.52                             174    -1.1 5   14 177 
 BAR2 SZ ES   1    310 13.26                             174    -0.1 7   14 177 
 BAR2 SZ I         310 16.05        12.9 0.20                            14 177 
 RUS  HZ EP        310  2.05                             145    -0.310   92 173 
 RUS  HN ES   2    310 20.74                             145     0.7 5   92 173 
 GRA  SZ EP        310  5.74                             133     0.3 9  136  18 
 GRA  SZ ES   1    310 25.41                             133    -0.1 7  136  18 
 GRA  SZ I         310 27.82         7.8 0.34                           136  18 
 NOR  SZ EP        310 14.13                             118     0.0 8  225 236 
 NOR  SN ES   2    310 41.18                             118     0.2 4  225 236 
 CHI  HZ EP   1    310 16.07                             117     0.1 6  238 195 
 CHI  HE ES   2    310 44.94                             117     0.6 4  238 195 
 CHI  HZ I         310 53.24         3.3 0.56                           238 195 
                                                                                
