 2013  215 0433 34.4 L   6.548 -73.141175.2  RSN  4 0.2 1.7LRSN                1
 GAP=220        0.47       5.3     4.8  5.6  0.1259E+02 -0.3536E+01 -0.5906E+01E
 Epicentro: SAN GIL - SANTANDER                                                3
 ACTION:UPD 13-03-12 09:33 OP:ep   STATUS:               ID:20130215043334 L   I
 2013-02-15-0430-00M.COL___241                                                 6
 STAT SP IPHASW D HRMM SECON CODA AMPLIT PERI AZIMU VELO AIN AR TRES W  DIS CAZ7
 RUS  HZ EP   1    433 59.95                             157    0.32 7 72.7 175 
 RUS  HN ES   1    434 19.19                             157   -0.08 7 72.7 175 
 RUS  HN I         434 20.57         6.6 0.38            159           72.7 175 
 BRR  HZ EP        433 59.72                             152   -0.0110 88.3 314 
 BRR  HN ES   1    434 19.37                             152   -0.09 7 88.3 314 
 BRR  HN I         434 21.79         9.2 0.46            153           88.3 314 
 PTB  HZ EP        434  3.54                             138   -0.22 9  145 270 
 PTB  HN ES        434 26.65                             138    0.03 9  145 270 
 PTB  HN I         434 27.58         5.5 0.26            141            145 270 
 ZAR  HN ES   2    434 38.59                             127    0.55 4  217 299 
                                                                                
