 2011  515 0521  3.2 L   7.009 -73.153129.2  RSN  6 0.3 1.3LRSN                1
 GAP=155        0.64       5.3     8.3  6.9 -0.1140E+02 -0.9518E+01  0.1663E+02E
 Epicentro: GIRON - SANTANDER                                                  3
 ACTION:UP  11-06-29 08:53 OP:tino STATUS:               ID:20110515052103 L   I
 2011-05-15-0517-39S.COL___141                                                 6
 STAT SP IPHASW D HRMM SECON CODA AMPLIT PERI AZIMU VELO SNR AR TRES W  DIS CAZ7
 GIR2 SZ EP        521 20.45                             176     0.010    9 330 
 GIR2 SZ ES   2    521 33.18                             176    -0.7 5    9 330 
 BTL  SZ EP        521 20.98                             173     0.310   16 232 
 BTL  SZ ES   1    521 34.73                             173     0.4 7   16 232 
 BAR2 SZ EP        521 21.63                             159     0.010   46 184 
 BAR2 SZ I         521 33.06         7.6 0.66                            46 184 
 BAR2 SZ ES   3    521 35.66                             159    -0.3 2   46 184 
 BRR  HZ EP        521 21.81                             153    -0.310   63 280 
 BRR  HZ I         521 22.02         3.7 0.20                            63 280 
 BRR  HN ES   2    521 36.97                             153     0.2 5   63 280 
 GRA  SZ ES   1    521 42.27                             139     0.0 7  104  22 
 GRA  SZ I         521 45.58         2.4 0.63                           104  22 
 RUS  HZ EP        521 27.15                             134    -0.110  124 176 
                                                                                
