 2017  315 0905 18.4 L   6.585 -73.752100.0  RSN  5 0.4 0.9LRSN                1
 GAP=148        0.70       3.3     2.6  6.6 -0.2196E+01 -0.1310E+01 -0.4662E+01E
 Epicentro: EL CARMEN - SANTANDER                                              3
 ACTION:UPD 17-05-25 18:40 OP:jn   STATUS:               ID:20170315090518 L   I
 OLDACT:UP  17-03-15 15:28 OP:cog  STATUS:               ID:20170315085743d    3
 OLDACT:DUP 17-03-15 15:26 OP:cog  STATUS:               ID:20170315085743d    3
 2017-03-15-0858-00M.COL___381                                                 6
 STAT SP IPHASW D HRMM SECON CODA AMPLIT PERI AZIMU VELO AIN AR TRES W  DIS CAZ7
 BAR2 EZ EP        9 5 34.53                             146   -0.0110 63.0  89 
 BAR2 EZ ES        9 5 47.20                             146    0.0310 63.0  89 
 BAR2 EZ I         9 5 47.92         5.9 0.18            147           63.0  89 
 PTB  HZ EP        9 5 35.31                             139   -0.0610 78.1 266 
 PTB  HN ES        9 5 48.50                             139   -0.1410 78.1 266 
 PTB  HZ I         9 5 50.16         2.4 0.16            142           78.1 266 
 RUS  HZ EP        9 5 38.03                             130   -0.4810  106 136 
 RUS  HE ES        9 5 54.15                             130   -0.0810  106 136 
 RUS  HZ I         9 5 57.40         0.7 0.40            131            106 136 
 SPBC HZ EP   3    9 5 39.93                             129    1.71 2  109 199 
 SPBC HN ES        9 5 54.10                             129    0.3810  109 199 
 PAM  EZ EP        9 5 42.21                             121    0.03 9  143  54 
 PAM  EE ES        9 6  1.01                             121    0.25 9  143  54 
 PAM  EZ I         9 6  2.32         1.2 0.50            123            143  54 
                                                                                
