 2016  115 0647  1.5 L   6.804 -73.178147.8  RSN 17 0.5 2.1LRSN                1
 GAP=132        1.31       3.9     4.8  6.4 -0.2078E+01  0.7952E+01 -0.6202E+00E
 Epicentro: LOS SANTOS - SANTANDER                                             3
 ACTION:UPD 16-03-09 23:25 OP:cam  STATUS:               ID:20160115064701 L   I
 OLDACT:UP  16-01-15 16:04 OP:drio STATUS:               ID:20160115063738     3
 OLDACT:UP  16-01-15 16:04 OP:drio STATUS:               ID:20160115063738     3
 OLDACT:REG 16-01-15 12:17 OP:drio STATUS:               ID:20160115063738     3
 2016-01-15-0637-38M.COL___329                                                 6
 STAT SP IPHASW D HRMM SECON CODA AMPLIT PERI AZIMU VELO AIN AR TRES W  DIS CAZ7
 BAR2 EZ EP        647 21.50                             171    0.1110 23.4 181 
 BAR2 EZ ES        647 35.64                             171   -1.2510 23.4 181 
 BAR2 EZ I         647 39.24        17.5 0.46            169           23.4 181 
 BRR  HZ EP        647 23.26                             154    0.5610 67.9 300 
 BRR  HN ES        647 40.66                             154    1.4310 67.9 300 
 BRR  HZ I         647 45.97        12.9 0.14            152           67.9 300 
 PAM  EZ EP        647 24.14                             151    0.0810 79.4  42 
 PAM  EN ES        647 41.41                             151   -0.2410 79.4  42 
 PAM  EZ I         647 43.55        13.3 0.52            156           79.4  42 
 RUS  HZ EP        647 25.31                             144   -0.2010  101 174 
 RUS  HE ES        647 44.34                             144    0.1010  101 174 
 RUS  HZ I         647 45.00        12.7 0.30            147            101 174 
 PTB  HZ EP        647 28.19                             133   -0.15 9  144 258 
 PTB  HN ES        647 48.84                             133   -0.43 9  144 258 
 PTB  HZ I         647 56.87        17.9 0.32            133            144 258 
 OCA  HZ EP        647 30.30                             130    0.40 9  159 354 
 OCA  HN ES   4    647 50.55                             130   -1.50 0  159 354 
 OCA  HZ I         647 56.31        25.5 0.26            133            159 354 
 SPBC HZ EP        647 30.38                             130    0.39 9  161 218 
 SPBC HN ES        647 52.44                             130    0.24 9  161 218 
 SPBC HZ I         647 58.65        20.8 0.28            131            161 218 
 ZAR  HZ EP        647 33.58                             123   -0.16 9  201 292 
 ZAR  HN ES        647 58.79                             123   -0.08 9  201 292 
 ZAR  HZ I         648  2.24        10.7 0.24            124            201 292 
 NOR  HZ EP        647 36.50                             119   -0.58 8  232 234 
 NOR  HE ES        648  5.06                             119    0.24 8  232 234 
 NOR  HZ I         648  9.67         8.5 0.22            121            232 234 
 SML  HZ EP        647 38.09                             118    0.04 8  242 336 
 SML  HE ES        648  6.09                             118   -0.46 8  242 336 
 SML  HZ I         648  9.28        18.5 0.10            120            242 336 
 CHI  HZ EP        647 39.31                             118    0.04 8  248 194 
 CHI  HN ES   4    648  7.21                             118   -1.51 0  248 194 
 CHI  HZ I         648 14.27         4.2 0.24            120            248 194 
 HEL  HZ EP   4    647 43.10                             115    1.64 0  269 256 
 HEL  HE ES        648 12.49                             115   -0.13 8  269 256 
 HEL  HZ I         648 19.67         7.3 0.30            117            269 256 
 URE  HZ EP        647 41.40                             114   -0.89 7  280 292 
 URE  HE ES   4    648 10.84                             114   -3.27 0  280 292 
 URE  HZ I         648 17.32         7.6 0.10            116            280 292 
 GUY2CHZ EP   4    647 46.67                             113    1.76 0  299 234 
 GUY2CHN ES   4    648 15.19                             113   -3.58 0  299 234 
 GUY2CHZ I         648 26.74         6.1 0.26                           299 234 
 CBOC HZ EP   4    647 49.52                             110    1.38 0  330 252 
 CBOC HE ES   4    648 22.72                             110   -1.79 0  330 252 
 CBOC HZ I         648 27.18         2.2 0.40            112            330 252 
 PRA  HZ EP        647 55.29                             107    0.35 6  391 209 
 PRA  HN ES   4    648 32.68                             107   -3.93 0  391 209 
 ORTC HZ EP        647 55.71                             107    0.42 6  394 216 
 ORTC HE ES   4    648 39.18                             107    1.93 0  394 216 
 ORTC HZ I         648 45.22         3.3 0.32            109            394 216 
 SJC  HZ EP   4    647 55.42                             106   -1.45 0  407 327 
 SJC  HN ES   4    648 37.01                             106   -3.04 0  407 327 
                                                                                
