 2012  415 0540 23.2 L   6.766 -73.350123.7  RSN  7 0.2 2.2LRSN                1
 GAP= 88        0.45       1.7     2.1  3.1  0.3181E-01  0.1409E+01 -0.6922E+00E
 Epicentro: ZAPATOCA - SANTANDER                                               3
 ACTION:UPD 12-07-05 11:53 OP:tino STATUS:               ID:20120415054023 L   I
 2012-04-15-0539-39M.COL___163                                                 6
 STAT SP IPHASW D HRMM SECON CODA AMPLIT PERI AZIMU VELO AIN AR TRES W  DIS CAZ7
 BAR2 SZ EP        540 40.29                             167     0.110   27 136 
 BAR2 SZ ES        540 53.45                             167    -0.110   27 136 
 BAR2 SZ I         540 54.60        59.0 0.41                            27 136 
 BRR  HZ IP        540 41.06                             154     0.010   55 313 
 BRR  HZ I         540 41.24        62.2 0.09                            55 313 
 BRR  HE ES        540 54.85                             154    -0.110   55 313 
 PAM  SZ EP        540 44.49                             140     0.110   96  49 
 PAM  SE ES        541  1.19                             140     0.210   96  49 
 RUS  HZ EP        540 44.58                             138    -0.310  101 163 
 RUS  HN ES        541  1.79                             138     0.010  101 163 
 OCA  SZ EP        540 50.28                             123     0.2 9  163   1 
 OCA  SZ ES   1    541 10.92                             123    -0.2 7  163   1 
 ZAR  HZ EP   1    540 52.01                             120    -0.2 7  185 296 
 ZAR  HE ES   1    541 15.01                             120     0.1 7  185 296 
 ZAR  HZ I         541 18.51        10.0 0.21                           185 296 
 NOR  SN ES   1    541 20.97                             116     0.3 6  214 232 
                                                                                
