 2017  815 0414 36.0 L   5.914 -73.735108.4  RSN  4 0.2 1.1LRSN                1
 GAP=146        0.60       5.3     3.2  5.4 -0.1208E+02  0.5312E+01 -0.7887E+01E
 Epicentro: GUAVATA - SANTANDER                                                3
 ACTION:UPD 17-09-04 20:20 OP:rebc STATUS:               ID:20170815041436 L   I
 OLDACT:UP  17-08-15 14:15 OP:and  STATUS:               ID:20170815040741     3
 OLDACT:UP  17-08-15 14:14 OP:and  STATUS:               ID:20170815040741     3
 OLDACT:REG 17-08-15 12:24 OP:and  STATUS:               ID:20170815040741     3
 2017-08-15-0408-00M.COL___410                                                 6
 STAT SP IPHASW D HRMM SECON CODA AMPLIT PERI AZIMU VELO AIN AR TRES W  DIS CAZ7
 SPBC HZ EP        414 51.69                             155   -0.2410 47.3 232 
 SPBC HN ES        415  4.08                             155   -0.2610 47.3 232 
 SPBC HZ I         415 10.56         3.0 0.10            158           47.3 232 
 RUS  HZ EP        414 54.01                             144   -0.0510 72.2  92 
 RUS  HN ES        415  8.40                             144    0.2710 72.2  92 
 RUS  HZ I         415 11.85         1.2 0.20            150           72.2  92 
 BAR2 EZ EP        414 55.70                             135    0.0510 96.7  39 
 BAR2 EZ ES        415 10.89                             135   -0.0610 96.7  39 
 BAR2 EZ I         415 12.63         7.2 0.30            143           96.7  39 
 NOR  HZ EP        414 58.59                             125   -0.0510  131 253 
 NOR  HN ES        415 16.67                             125    0.3910  131 253 
 NOR  HZ I         415 17.64         4.4 0.20            132            131 253 
                                                                                
