 2015 1215 0946  1.5 L   6.800 -73.140140.2  RSN  6 0.3 1.4LRSN                1
 GAP=137        0.60       2.5     3.6  5.9  0.9971E+00  0.1058E+02 -0.2427E+01E
 Epicentro: LOS SANTOS - SANTANDER                                             3
 ACTION:UPD 16-02-04 15:05 OP:cam  STATUS:               ID:20151215094601 L   I
 OLDACT:UP  15-12-15 16:33 OP:dnl  STATUS:               ID:20151215093747     3
 OLDACT:REG 15-12-15 13:32 OP:cara STATUS:               ID:20151215093747     3
 2015-12-15-0937-47M.COL___327                                                 6
 STAT SP IPHASW D HRMM SECON CODA AMPLIT PERI AZIMU VELO AIN AR TRES W  DIS CAZ7
 BAR2 EZ EP        946 20.36                             170   -0.1410 23.5 191 
 BAR2 EZ ES   2    946 34.98                             170   -0.31 5 23.5 191 
 BAR2 EZ I         946 36.35         6.2 0.15            171           23.5 191 
 PAM  EZ EP        946 23.26                             150    0.1210 77.0  39 
 PAM  EN ES        946 40.02                             150    0.0310 77.0  39 
 PAM  EZ I         946 42.89         3.9 0.25            153           77.0  39 
 RUS  HZ EP        946 24.79                             143    0.0410  101 176 
 RUS  HE ES        946 42.87                             143    0.0310  101 176 
 RUS  HZ I         946 44.97         2.5 0.20            147            101 176 
 ZAR  HZ EP        946 33.72                             121    0.03 9  205 292 
 ZAR  HN ES        946 58.58                             121   -0.17 9  205 292 
 ZAR  HZ I         947  4.09         2.2 0.10            123            205 292 
 SML  HZ EP   1    946 37.15                             116   -0.74 6  244 335 
 SML  HE ES        947  6.60                             116    0.37 8  244 335 
 SML  HZ I         947  9.53         2.4 0.08            118            244 335 
 GUY2CHN ES   2    947 19.80                             111    0.99 4  302 235 
 GUY2CHZ I         947 28.39         1.1 0.35                           302 235 
                                                                                
