 2013  715 0803  5.2 L   6.819 -73.143142.0  RSN 16 0.4 2.2LRSN                1
 GAP=113        1.06       2.6     3.3  5.0  0.2302E-01  0.4194E+01  0.1043E+01E
 Epicentro: LOS SANTOS - SANTANDER                                             3
 ACTION:UPD 13-08-12 10:37 OP:ep   STATUS:               ID:20130715080305 L   I
 OLDACT:REG 13-07-15 10:06 OP:nd   STATUS:               ID:20130715075959     3
 2013-07-15-0759-59M.COL___267                                                 6
 STAT SP IPHASW D HRMM SECON CODA AMPLIT PERI AZIMU VELO AIN AR TRES W  DIS CAZ7
 BAR2 SZ EP        8 3 24.43                             169    0.0510 25.4 190 
 BAR2 SZ ES        8 3 39.29                             169   -0.0810 25.4 190 
 BAR2 SZ I         8 3 40.40        51.1 0.38            171           25.4 190 
 GIR2 SZ EP        8 3 24.36                             168    0.0310 29.3 349 
 GIR2 SZ ES   2    8 3 39.65                             168    0.37 5 29.3 349 
 GIR2 SZ I         8 3 46.37        19.5 0.22            168           29.3 349 
 BRR  HZ IP     D  8 3 26.27                             152    0.4110 70.5 297 
 BRR  HN ES        8 3 42.55                             152    0.5510 70.5 297 
 BRR  HZ I         8 3 48.15        24.6 0.12            153           70.5 297 
 PAM  SZ IP     C  8 3 27.36                             151    0.4910 75.6  40 
 PAM  SN ES        8 3 43.80                             151    0.0010 75.6  40 
 PAM  SZ I         8 3 46.74        39.3 0.86            154           75.6  40 
 RUS  HZ EP        8 3 28.36                             142   -0.3310  103 176 
 RUS  HN ES        8 3 46.50                             142   -0.5510  103 176 
 RUS  HZ I         8 3 47.86        22.4 0.28            146            103 176 
 PTB  HZ EP        8 3 31.46                             131   -0.42 9  148 258 
 PTB  HN ES        8 3 51.84                             131   -0.89 9  148 258 
 PTB  HZ I         8 3 55.02        19.8 0.16            133            148 258 
 OCA  HZ EP        8 3 32.57                             129   -0.41 9  158 353 
 OCA  HN ES   2    8 3 54.96                             129    0.27 5  158 353 
 OCA  HZ I         8 3 59.07        26.1 0.20            132            158 353 
 SPBC HZ IP     D  8 3 33.59                             128    0.05 9  165 219 
 SPBC HN ES        8 3 55.42                             128   -0.26 9  165 219 
 YOP  SZ EP        8 3 35.11                             125    0.00 9  181 154 
 YOP  SE ES        8 3 59.25                             125    0.78 9  181 154 
 YOP  SZ I         8 4  5.11        10.0 0.24            129            181 154 
 ZAR  HZ EP        8 3 36.94                             122   -0.36 9  204 292 
 ZAR  HE ES        8 4  2.80                             122    0.42 9  204 292 
 ZAR  HZ I         8 4  8.62        24.7 0.42            124            204 292 
 NOR  HZ EP        8 3 41.08                             117    0.25 8  236 234 
 NOR  HN ES        8 4  8.89                             117    0.24 8  236 234 
 NOR  HZ I         8 4  9.95        14.8 0.12            120            236 234 
 SML  HZ EP        8 3 40.65                             117   -0.73 8  242 335 
 SML  HN ES        8 4  9.28                             117   -0.35 8  242 335 
 SML  HZ I         8 4 13.86        32.5 0.26            119            242 335 
 CHI  HZ EP        8 3 42.72                             116   -0.16 8  251 195 
 CHI  HN ES        8 4 11.60                             116   -0.70 8  251 195 
 CHI  HZ I         8 4 19.26         8.0 0.46            119            251 195 
 HEL  HZ EP        8 3 46.05                             114    0.78 8  273 255 
 HEL  HN ES        8 4 16.99                             114    0.44 8  273 255 
 HEL  HZ I         8 4 23.53         7.7 0.46            116            273 255 
 GUY2CHZ EP        8 3 49.29                             111    0.54 7  303 234 
 GUY2CHN ES        8 4 23.16                             111    0.40 7  303 234 
 GUY2CHZ I         8 4 32.89         7.7 0.40                           303 234 
 SJC  HZ EP   4    8 3 57.92                             105   -2.49 0  408 327 
 SJC  HN ES   4    8 4 38.50                             105   -5.00 0  408 327 
 SJC  HZ I         8 4 44.34         6.7 0.44            107            408 327 
                                                                                
