 2014 1015 0642 22.7 L   6.797 -73.158144.9  RSN  8 0.4 1.5LRSN                1
 GAP=135        0.91       3.4     4.1  6.1 -0.6846E+00  0.6200E+01  0.1013E+01E
 Epicentro: LOS SANTOS - SANTANDER                                             3
 ACTION:UPD 14-11-29 23:50 OP:nd   STATUS:               ID:20141015064222 L   I
 OLDACT:UP  14-10-15 17:31 OP:mh   STATUS:               ID:20141015063750     3
 OLDACT:UP  14-10-15 17:30 OP:mh   STATUS:               ID:20141015063750     3
 OLDACT:REG 14-10-15 13:34 OP:mh   STATUS:               ID:20141015063750     3
 2014-10-15-0637-50M.COL___293                                                 6
 STAT SP IPHASW D HRMM SECON CODA AMPLIT PERI AZIMU VELO AIN AR TRES W  DIS CAZ7
 BAR2 SZ EP   1    642 42.48                             171    0.27 7 22.8 187 
 BAR2 SZ ES        642 57.22                             171   -0.2210 22.8 187 
 BAR2 SZ I         642 58.57        19.5 0.07            171           22.8 187 
 BRR  HZ EP   1    642 43.95                             153    0.26 7 70.1 299 
 BRR  HN ES        643  0.62                             153    0.5510 70.1 299 
 BRR  HZ I         643  2.35         5.0 0.14            150           70.1 299 
 PAM  SZ EP        642 45.38                             150    0.4910 78.5  40 
 PAM  SN ES        643  1.97                             150   -0.2310 78.5  40 
 PAM  SZ I         643  4.54         3.7 0.58            152           78.5  40 
 RUS  HZ EP        642 45.97                             144   -0.3810  100 175 
 RUS  HN ES        643  4.66                             144   -0.1410  100 175 
 RUS  HZ I         643  5.26         2.7 0.20            146            100 175 
 PTB  HZ EP   1    642 49.66                             132    0.20 7  146 259 
 PTB  HN ES   1    643  9.64                             132   -0.70 7  146 259 
 PTB  HZ I         643 14.46         3.5 0.08            131            146 259 
 OCA  HZ EP   4    642 48.02                             129   -2.93 0  160 354 
 OCA  HN ES   1    643 12.42                             129   -0.57 7  160 354 
 OCA  HZ I         643 16.37         4.4 0.31            130            160 354 
 SPBC HZ EP        642 51.25                             129    0.23 9  162 219 
 SPBC HN ES        643 13.40                             129    0.28 9  162 219 
 SPBC HZ I         643 16.96         3.6 0.22            130            162 219 
 ZAR  HZ EP   1    642 54.21                             122   -0.75 6  203 292 
 ZAR  HN ES        643 20.18                             122    0.05 9  203 292 
 ZAR  HZ I         643 26.89         2.7 0.25            122            203 292 
                                                                                
