 2011  815 0752 53.1 L   6.722 -73.148137.6  RSN  7 0.3 1.9LRSN                1
 GAP=182        0.50       2.2     5.2  4.6 -0.3649E+01  0.1050E+02 -0.1347E+01E
 Epicentro: VILLANUEVA - SANTANDER                                             3
 ACTION:UPD 12-07-13 15:52 OP:ep   STATUS:               ID:20110815075253 L   I
 2011-08-15-0740-00M.COL___151                                                 6
 STAT SP IPHASW D HRMM SECON CODA AMPLIT PERI AZIMU VELO AIN AR TRES W  DIS CAZ7
 BAR2 SZ EP        753 11.55                             174   -0.0810 14.8 195 
 BAR2 SZ ES   1    753 25.88                             174   -0.18 7 14.8 195 
 BAR2 SZ I         753 27.96        30.0 0.33                          14.8 195 
 BRR  HZ EP   1    753 13.61                             149   -0.05 7 75.5 304 
 RUS  HZ EP   1    753 15.47                             145    0.01 7 91.9 175 
 RUS  HN ES   1    753 32.96                             145    0.09 7 91.9 175 
 RUS  HZ I         753 35.35        10.8 0.37                          91.9 175 
 OCA  SZ EP        753 21.62                             126   -0.04 9  169 354 
 OCA  SZ ES   1    753 44.27                             126    0.36 7  169 354 
 OCA  SZ I         753 49.16        16.3 0.26                           169 354 
 NOR  SZ EP   1    753 27.88                             117    0.04 6  230 236 
 NOR  SN ES   1    753 54.66                             117   -0.25 6  230 236 
 CHI  HZ EP   1    753 29.50                             116    0.03 6  240 196 
 CHI  HE ES   2    753 58.20                             116    0.40 4  240 196 
 CHI  HZ I         754  8.06         4.2 0.30                           240 196 
 PRA  HZ EP   1    753 44.78                             105   -0.70 4  384 210 
 PRA  HN ES   1    754 27.14                             105    0.83 4  384 210 
                                                                                
