 2010  715 0951 50.7 L   7.659 -73.233148.0  RSN  4 0.1 1.5LRSN                1
 GAP=139        0.46       5.2     6.6  5.4 -0.1906E+02 -0.6807E+01  0.5813E+01E
 Epicentro: EL PLAYON - SANTANDER                                              3
 ACTION:UPD 10-12-01 15:17 OP:pat  STATUS:               ID:20100715095150 L   I
 2010-07-15-0947-59S.COL___120                                                 6
 STAT SP IPHASW D HRMM SECON CODA AMPLIT PERI AZIMU VELO AIN AR TRES W  DIS CAZ7
 GUE  SZ IP        952 11.27                             165     0.110   39  61 
 GUE  SZ I         952 11.95         3.1 0.13                            39  61 
 GUE  SZ ES   1    952 26.89                             165    -0.2 7   39  61 
 BRI  SZ EP   1    952 11.44                             161     0.1 7   48  82 
 BRI  SZ I         952 30.67         6.4 0.31                            48  82 
 OCA  SZ EP   1    952 11.95                             155    -0.1 7   65 352 
 OCA  SZ ES   1    952 28.66                             155     0.1 7   65 352 
 OCA  SZ I         952 31.26         5.3 0.37                            65 352 
 BRR  HZ EP   1    952 12.44                             150    -0.2 7   81 221 
 BRR  HZ I         952 12.72         8.7 0.15                            81 221 
 BRR  HE ES   1    952 29.94                             150     0.1 7   81 221 
                                                                                
