 2016  215 0234 39.0 L   6.807 -73.163148.7  RSN 10 0.4 1.9LRSN                1
 GAP=134        0.94       2.8     3.9  5.3 -0.8688E+00  0.3683E+01  0.1020E+01E
 Epicentro: LOS SANTOS - SANTANDER                                             3
 ACTION:UPD 16-03-04 21:26 OP:rebc STATUS:               ID:20160215023439 L   I
 OLDACT:REG 16-02-15 12:09 OP:drio STATUS:               ID:20160215022748     3
 2016-02-15-0227-48M.COL___302                                                 6
 STAT SP IPHASW D HRMM SECON CODA AMPLIT PERI AZIMU VELO AIN AR TRES W  DIS CAZ7
 BAR2 EZ EP        234 58.98                             170   -0.0410 23.8 185 
 BAR2 EZ ES        235 14.29                             170   -0.3210 23.8 185 
 BAR2 EZ I         235 15.12        18.9 0.24            171           23.8 185 
 BRR  HZ EP     D  235  0.61                             154    0.2310 69.1 299 
 BRR  HE ES        235 17.95                             154    0.9210 69.1 299 
 BRR  HZ I         235 22.69        14.1 0.20            152           69.1 299 
 PAM  EZ EP        235  1.86                             151    0.2710 78.0  41 
 PAM  EE ES        235 19.10                             151   -0.0910 78.0  41 
 PAM  EZ I         235 21.08        10.6 0.48            154           78.0  41 
 RUS  HZ EP        235  3.11                             144   -0.0210  102 175 
 RUS  HE ES        235 21.81                             144   -0.1210  102 175 
 RUS  HZ I         235 22.68         8.8 0.24            147            102 175 
 PTB  HZ EP        235  5.72                             133   -0.35 9  146 258 
 PTB  HN ES        235 26.78                             133   -0.40 9  146 258 
 PTB  HZ I         235 28.72        12.9 0.58            133            146 258 
 OCA  HZ EP        235  7.87                             130    0.40 9  159 354 
 OCA  HE ES        235 28.98                             130   -0.68 9  159 354 
 OCA  HZ I         235 32.29        12.0 0.16            132            159 354 
 SPBC HZ EP        235  7.78                             130    0.09 9  163 218 
 SPBC HE ES        235 30.09                             130    0.04 9  163 218 
 SPBC HZ I         235 33.79         8.8 0.20            131            163 218 
 ZAR  HZ EP        235 10.97                             123   -0.48 9  202 292 
 ZAR  HE ES        235 36.92                             123    0.18 9  202 292 
 ZAR  HZ I         235 42.42         8.8 0.56            124            202 292 
 CHI  HZ EP        235 17.15                             118    0.24 8  249 195 
 CHI  HE ES        235 46.51                             118    0.05 8  249 195 
 CHI  HZ I         235 48.83         5.8 0.36            120            249 195 
 GUY2CHZ EP   4    235 24.38                             113    1.74 0  300 234 
 GUY2CHE ES   4    235 59.97                             113    3.31 0  300 234 
 GUY2CHZ I         236  4.17         3.1 0.22                           300 234 
 PTGC HZ EP   4    235 22.17                             112   -1.00 0  310 158 
 PTGC HE ES   4    235 55.19                             112   -2.42 0  310 158 
                                                                                
