 2012  615 0037 49.0 L   6.826 -73.169144.6  RSN  4 0.3 1.3LRSN                1
 GAP=145        0.56       4.6     4.4  7.1 -0.6245E+01  0.8813E+01 -0.1845E+01E
 Epicentro: LOS SANTOS - SANTANDER                                             3
 ACTION:UPD 12-08-06 17:49 OP:ep   STATUS:               ID:20120615003749 L   I
 2012-06-15-0030-00M.COL___200                                                 6
 STAT SP IPHASW D HRMM SECON CODA AMPLIT PERI AZIMU VELO AIN AR TRES W  DIS CAZ7
 BAR2 SZ EP   1    038  8.54                             169    0.03 7 25.9 183 
 BAR2 SZ I         038  8.97         5.0 0.09                          25.9 183 
 BAR2 SZ ES   2    038 24.32                             169    0.57 5 25.9 183 
 PAM  SZ EP   1    038 11.48                             151    0.45 7 76.9  42 
 PAM  SE ES   1    038 27.85                             151   -0.39 7 76.9  42 
 RUS  HZ EP   1    038 12.73                             143   -0.10 7  104 175 
 RUS  HN ES   1    038 31.31                             143   -0.13 7  104 175 
 RUS  HZ I         038 32.72         3.9 0.43                           104 175 
 PTB  HZ EP   1    038 15.55                             132   -0.12 7  146 258 
 PTB  HN ES   1    038 36.48                             132   -0.01 7  146 258 
 PTB  HZ I         038 38.55         2.3 0.11                           146 258 
                                                                                
