 2017 1115 0207 54.9 L   6.422 -73.552  4.0  RSN 12 0.8 2.3LRSN                1
 GAP= 56        1.94       4.3     3.2  7.8 -0.3314E+01  0.5243E+01 -0.8247E+01E
 Epicentro: SANTA HELENA DEL OPON - SANTANDER                                  3
 ACTION:UPD 17-12-12 19:55 OP:rebc STATUS:               ID:20171115020754 L   I
 OLDACT:UP  17-11-17 13:20 OP:nlst STATUS:               ID:20171115020754 L   3
 OLDACT:UP  17-11-15 16:07 OP:leo  STATUS:               ID:20171115015743     3
 OLDACT:UP  17-11-15 16:07 OP:leo  STATUS:               ID:20171115015743     3
 OLDACT:UP  17-11-15 16:05 OP:leo  STATUS:               ID:20171115015743     3
 OLDACT:REG 17-11-15 13:24 OP:leo  STATUS:               ID:20171115015743     3
 2017-11-15-0158-00M.COL___453                                                 6
 STAT SP IPHASW D HRMM SECON CODA AMPLIT PERI AZIMU VELO AIN AR TRES W  DIS CAZ7
 BAR2 EZ EP        2 8  2.12                              47   -0.4910 45.0  65 
 BAR2 HN ES        2 8  7.89                              47   -0.7010 45.0  65 
 BAR2 EZ I         2 8  9.78       191.3 0.46             47           45.0  65 
 BRR  HZ EP        2 8  7.65                              47    0.3210 77.8 347 
 BRR  HN ES        2 8 17.96                              47    0.9710 77.8 347 
 BRR  HZ I         2 8 18.56       101.8 0.12             47           77.8 347 
 RUS  HZ IP     D  2 8  6.87                              47   -1.0310 78.2 138 
 RUS  HN ES   4    2 8 15.84                              47   -2.17 0 78.2 138 
 PTB  HZ EP        2 8 11.19                              47    0.3510  101 277 
 PTB  HN ES        2 8 23.02                              47   -0.2210  101 277 
 PAM  EZ EP        2 8 17.15                              47    0.12 9  138  43 
 PAM  EN ES        2 8 32.98                              47   -1.28 9  138  43 
 YPLC HZ EP        2 8 22.68                              47    0.95 9  172 131 
 YPLC HE ES   4    2 8 45.49                              47    2.87 0  172 131 
 NOR  HZ EP        2 8 21.16                              47   -0.80 9  174 237 
 NOR  HN ES        2 8 41.95                              47   -1.08 9  174 237 
 NOR  HZ I         2 8 43.15        67.4 0.40             47            174 237 
 ZAR  HZ EP        2 8 22.95                              37   -0.60 9  187 309 
 ZAR  HN ES        2 8 45.95                              37    0.09 9  187 309 
 TAM  HZ EP        2 8 25.22                              37    0.61 9  195  89 
 TAM  HN ES        2 8 49.00                              37    1.26 9  195  89 
 TAM  HZ I         2 8 51.09        23.8 0.66             37            195  89 
 CHI  HZ EP     D  2 8 27.05                              37    1.45 9  199 186 
 CHI  HE ES   4 C  2 8 54.36                              37    4.84 0  199 186 
 GUY2CHZ EP        2 8 31.52                              37    0.68 8  240 237 
 GUY2CHN ES        2 8 58.95                              37    0.11 8  240 237 
 GUY2CHZ I         2 8 59.95        13.3 0.26                           240 237 
 CBOC HZ EP   9    2 8 36.79                              37    1.48 0  279 257 
 CBOC HN ES        2 9  8.18                              37   -0.10 7  279 257 
                                                                                
