 2017 1215 0310 27.2 L   6.543 -73.528105.1  RSN 16 0.8 2.0LRSN                1
 GAP= 71        1.69       3.7     3.7  8.8 -0.2795E+01  0.8021E+01 -0.7557E+00E
 Epicentro: EL CARMEN - SANTANDER                                              3
 ACTION:UPD 18-01-04 13:20 OP:rebc STATUS:               ID:20171215031027 L   I
 OLDACT:UP  17-12-15 14:26 OP:osc  STATUS:               ID:20171215030738     3
 OLDACT:REG 17-12-15 12:32 OP:edw  STATUS:               ID:20171215030738     3
 2017-12-15-0308-00M.COL___479                                                 6
 STAT SP IPHASW D HRMM SECON CODA AMPLIT PERI AZIMU VELO AIN AR TRES W  DIS CAZ7
 BAR2 EZ IP     D  310 42.72                             158    0.2110 38.6  82 
 BAR2 EZ ES        310 55.09                             158    0.6310 38.6  82 
 PTB  HZ EP   9 D  310 45.54                             132   -1.20 0  103 270 
 PTB  HN ES        311  0.43                             131   -0.3710  103 270 
 PTB  HZ I         311  1.70        21.5 0.18            133            103 270 
 SPBC HZ EP        310 47.51                             128   -0.5310  115 211 
 SPBC HN ES        311  4.01                             128   -0.2910  115 211 
 SPBC HZ I         311 11.29        21.0 0.18            129            115 211 
 PAM  EZ EP        310 49.51                             126   -0.1810  127  46 
 PAM  EN ES        311  7.30                             126    0.0510  127  46 
 PAM  EZ I         311  8.78        12.1 0.20            129            127  46 
 YPLC HZ EP        310 54.61                             115   -0.08 9  180 135 
 YPLC HE ES        311 16.47                             115    0.32 9  180 135 
 YPLC HZ I         311 18.64        25.5 0.38            117            180 135 
 ZAR  HZ EP        310 55.22                             115    0.50 9  181 306 
 ZAR  HN ES        311 17.03                             115    0.82 9  181 306 
 ZAR  HZ I         311 19.26        23.2 0.48            117            181 306 
 NOR  HZ EP        310 54.26                             114   -0.88 9  184 234 
 NOR  HN ES        311 15.79                             114   -1.15 9  184 234 
 NOR  HZ I         311 17.97         6.0 0.32            116            184 234 
 OCA  HZ EP        310 55.10                             114   -0.74 9  189   7 
 OCA  HE ES        311 18.02                             114   -0.17 9  189   7 
 TAM  HZ EP        310 55.72                             113   -0.37 9  192  93 
 TAM  HE ES        311 18.00                             113   -0.64 9  192  93 
 GUY2CHZ EP   9    311  4.52                             107    1.26 0  250 234 
 GUY2CHE ES        311 32.82                             106    0.16 8  250 234 
 GUY2CHZ I         311 35.36         4.6 0.30                           250 234 
 URE  HZ EP        311  2.94                             106   -0.72 8  259 301 
 URE  HN ES        311 30.31                             106   -1.81 8  259 301 
 URE  HZ I         311 33.95         9.0 0.18            108            259 301 
 ELA  HN ES        311 38.93                             105    1.49 7  279 228 
 CBOC HZ EP        311  6.92                             104   -0.04 7  285 255 
 CBOC HE ES        311 38.42                             104    0.43 7  285 255 
 DRL03HZ EP        311 11.21                             102    0.89 7  315   1 
 DRL03HE ES        311 45.64                             102    1.68 7  315   1 
 PRA  HZ EP        311 14.71                             100    0.49 6  347 206 
 PRA  HE ES        311 50.64                             100   -0.27 6  347 206 
 PRA  HZ I         311 55.49         7.7 0.22            102            347 206 
 ORTC HZ EP        311 15.27                             100    0.95 6  348 213 
 ORTC HN ES        311 52.56                             100    1.48 6  348 213 
 ORTC HZ I         311 55.73         2.9 0.22            102            348 213 
 SJC  HZ EP   4    311 20.96                              97   -1.23 0  413 334 
 SJC  HE ES   4    312  2.45                              97   -2.65 0  413 334 
                                                                                
