 2017  915 0154 21.0 L   6.773 -73.131140.0  RSN 19 0.5 2.0LRSN                1
 GAP=114        0.70       2.7     2.8  4.3 -0.5775E+00  0.4835E+01  0.2223E+01E
 Epicentro: LOS SANTOS - SANTANDER                                             3
 ACTION:UPD 17-10-05 19:12 OP:rebc STATUS:               ID:20170915015421 L   I
 OLDACT:UP  17-09-15 15:59 OP:mg   STATUS:               ID:20170915014737     3
 OLDACT:UP  17-09-15 15:58 OP:mg   STATUS:               ID:20170915014737     3
 OLDACT:REG 17-09-15 12:46 OP:mg   STATUS:               ID:20170915014737     3
 2017-09-15-0148-00M.COL___462                                                 6
 STAT SP IPHASW D HRMM SECON CODA AMPLIT PERI AZIMU VELO AIN AR TRES W  DIS CAZ7
 BAR2 EZ IP     C  154 39.83                             171   -0.1010 20.8 196 
 BAR2 EZ ES   1    154 54.12                             171   -0.54 7 20.8 196 
 BAR2 EZ I         154 55.52        29.2 0.26            167           20.8 196 
 BRR  HZ IP     C  154 41.72                             151   -0.0210 74.0 300 
 BRR  HN ES        154 58.52                             151    0.6410 74.0 300 
 BRR  HZ I         155  3.30        24.3 0.10            151           74.0 300 
 PAM  EZ EP        154 42.74                             149    0.0110 78.7  37 
 PAM  EN ES        154 59.42                             149   -0.2310 78.7  37 
 PAM  EZ I         155  1.19        20.0 0.20            155           78.7  37 
 RUS  HZ EP        154 44.34                             144    0.3310 97.5 177 
 RUS  HN ES        155  2.07                             144    0.1510 97.5 177 
 RUS  HZ I         155  3.09         7.6 0.26            143           97.5 177 
 SPBC HZ EP        154 48.97                             128   -0.02 9  162 220 
 SPBC HN ES        155 10.58                             128   -0.20 9  162 220 
 SPBC HZ I         155 14.51        13.9 0.09            127            162 220 
 YPLC HZ EP   4    154 46.93                             126   -3.16 0  173 151 
 YPLC HN ES   3    155 14.45                             126    1.70 2  173 151 
 YPLC HZ I         155 17.49         5.7 0.40            127            173 151 
 ZAR  HZ EP        154 53.17                             121   -0.22 8  207 293 
 ZAR  HN ES   1    155 18.43                             121   -0.20 6  207 293 
 ZAR  HZ I         155 22.36        10.1 0.11            122            207 293 
 NOR  HZ EP   4    154 56.69                             117    0.29 0  234 235 
 NOR  HE ES   4    155 23.83                             117   -0.15 0  234 235 
 NOR  HZ I         155 26.46         6.4 0.21            118            234 235 
 CHI  HZ EP   9    154 59.85                             116    1.68 0  246 196 
 CHI  HN ES   4    155 28.42                             116   -0.38 0  246 196 
 CHI  HZ I         155 33.03         2.6 0.21            117            246 196 
 HEL  HZ EP   3    155  2.20                             114    1.13 2  273 256 
 HEL  HN ES   1    155 32.13                             114   -0.15 6  273 256 
 HEL  HZ I         155 39.11         6.7 0.29            114            273 256 
 GUY2CHZ EP   4    155  5.80                             111    1.45 0  301 235 
 GUY2CHN ES   4    155 42.16                             111    4.03 0  301 235 
 GUY2CHZ I         155 45.22         8.0 0.24                           301 235 
 PTGC HZ EP   2    155  3.28                             111   -0.99 4  305 159 
 PTGC HN ES   3    155 36.51                             111   -1.47 2  305 159 
 PTGC HZ I         155 39.42         5.9 0.53            112            305 159 
 ELA  HN ES   1    155 43.92                             109    0.05 5  328 230 
 ELA  HZ I         155 51.14         4.9 0.53            110            328 230 
 CBOC HZ EP   1    155  8.70                             109    0.90 5  334 253 
 CBOC HN ES        155 44.11                             109   -0.16 7  334 253 
 CBOC HZ I         155 47.49         2.3 0.28            110            334 253 
 DBB  EN ES   1    155 45.32                             108   -0.20 5  341 275 
 DBB  EZ I         155 46.22         4.1 0.20            109            341 275 
 PRA  HZ EP        155 14.17                             106    0.01 6  390 210 
 PRA  HN ES   4    155 58.02                             106    2.42 0  390 210 
 PRA  HZ I         156  0.19         5.2 0.32            106            390 210 
 ORTC HZ EP   1    155 15.06                             105    0.45 4  394 217 
 ORTC HN ES   3    155 57.68                             105    1.30 1  394 217 
 ORTC HZ I         156  3.14         2.6 0.52            106            394 217 
 PAL  HZ EP   1    155 15.63                             105   -0.37 4  406 240 
 PAL  HN ES   1    155 58.23                             105   -0.64 4  406 240 
 PAL  HZ I         156  4.39         1.6 0.21            106            406 240 
 SJC  HZ EP   4    155 14.71                             105   -2.11 0  413 327 
 SJC  HN ES   4    155 56.07                             105   -4.25 0  413 327 
 SJC  HZ I         155 59.30         2.4 0.44            106            413 327 
                                                                                
