 2010  815 0707 23.1 L   6.832 -73.020142.5  RSN  5 0.2 1.3LRSN                1
 GAP=203        0.42       6.6     6.6  5.8 -0.3890E+00 -0.2070E+02 -0.1464E+02E
 Epicentro: CEPITA - SANTANDER                                                 3
 ACTION:UP  10-09-07 10:55 OP:vdl  STATUS:               ID:20100815070723 L   I
 2010-08-15-0705-56S.COL___111                                                 6
 STAT SP IPHASW D HRMM SECON CODA AMPLIT PERI AZIMU VELO SNR AR TRES W  DIS CAZ7
 BTL  SZ EP        7 7 42.56                             168     0.110   29 289 
 BTL  SZ ES   1    7 7 57.32                             168    -0.2 7   29 289 
 BAR2 SZ EP   2    7 7 42.41                             167    -0.1 5   32 214 
 BAR2 SZ ES   2    7 7 57.88                             167     0.2 5   32 214 
 BAR2 SZ I         7 7 58.12         4.5 0.31                            32 214 
 GIR2 SZ EP   2    7 7 42.53                             166     0.1 5   33 325 
 BRR  HZ EP   1    7 7 44.35                             148    -0.2 7   82 292 
 BRR  HE ES   1    7 8  1.45                             148     0.1 7   82 292 
 BRR  HZ I         7 8  6.09         3.6 0.12                            82 292 
 GRA  SZ EP        7 7 47.46                             138     0.010  119  12 
 GRA  SZ I         7 7 48.64         2.6 0.26                           119  12 
                                                                                
