 2011  215 0118 15.1 L   6.756 -72.921151.0  RSN  5 0.4 1.5LRSN                1
 GAP=185        0.76       4.1    20.9 11.5 -0.1468E+02  0.1092E+02 -0.9407E+01E
 Epicentro: CEPITA - SANTANDER                                                 3
 ACTION:UP  11-03-28 15:08 OP:jfem STATUS:               ID:20110215011816 L   I
 2011-02-15-0100-00M.COL___138                                                 6
 STAT SP IPHASW D HRMM SECON CODA AMPLIT PERI AZIMU VELO SNR AR TRES W  DIS CAZ7
 BAR2 SZ EP   2    118 34.88                             167    -0.7 5   34 238 
 BAR2 SZ I         118 50.80         9.6 0.31                            34 238 
 BTL  SZ EP   1    118 36.42                             164     0.6 7   42 295 
 RUS  HZ EP   1    118 39.22                             146     0.1 7   97 191 
 RUS  HN ES   1    118 57.67                             146    -0.2 7   97 191 
 RUS  HZ I         118 58.81         3.6 0.29                            97 191 
 GRA  SZ EP   1    118 40.89                             138     0.1 7  126   6 
 GRA  SZ ES   1    119  0.74                             138     0.0 7  126   6 
 GRA  SZ I         119  1.54         4.6 0.45                           126   6 
 OCA  SZ EP   1    118 44.22                             129    -0.5 7  170 345 
 OCA  SZ ES   1    119  7.79                             129     0.0 7  170 345 
                                                                                
