 2016  815 0433 30.3 L   7.417 -73.163133.5  RSN  4 0.2 1.3LRSN                1
 GAP=219        0.60       6.6     4.0  5.5 -0.8357E+01  0.9283E+01 -0.3028E+01E
 Epicentro: EL PLAYON - SANTANDER                                              3
 ACTION:UPD 16-10-29 15:35 OP:rebc STATUS:               ID:20160815043330 L   I
 OLDACT:REG 16-08-15 12:26 OP:ak   STATUS:               ID:20160815042732     3
 2016-08-15-0428-00M.COL___374                                                 6
 STAT SP IPHASW D HRMM SECON CODA AMPLIT PERI AZIMU VELO AIN AR TRES W  DIS CAZ7
 PAM  EE ES        434  5.27                             158    0.2010 51.9  99 
 PAM  EZ I         434  7.40         3.8 0.46                          51.9  99 
 BRR  HZ EP        433 49.97                             151   -0.1110 69.6 241 
 BRR  HE ES        434  5.25                             151   -0.2210 69.6 241 
 BRR  HZ I         434  5.89         3.0 0.10                          69.6 241 
 BAR2 EZ EP        433 51.94                             144    0.0910 91.2 181 
 BAR2 EZ ES        434  8.45                             144   -0.1810 91.2 181 
 BAR2 EZ I         434  9.23         5.9 0.38                          91.2 181 
 PTB  HZ EP        433 58.62                             124   -0.16 9  173 236 
 PTB  HE ES        434 21.40                             124    0.44 9  173 236 
 PTB  HZ I         434 24.10         1.6 0.30                           173 236 
                                                                                
