 2017 1015 0718 55.9 L   6.622 -73.233140.2  RSN  4 0.3 0.7LRSN                1
 GAP=165        0.73       5.4     5.1  5.9  0.1337E+02  0.5829E+01  0.2631E+01E
 Epicentro: BARICHARA - SANTANDER                                              3
 ACTION:UPD 17-11-07 19:32 OP:rebc STATUS:               ID:20171015070908 L   I
 OLDACT:UPD 17-10-15 13:29 OP:leo  STATUS:               ID:20171015070908 L   3
 2017-10-15-0718-00M.COL___414                                                 6
 STAT SP IPHASW D HRMM SECON CODA AMPLIT PERI AZIMU VELO AIN AR TRES W  DIS CAZ7
 BAR2 EZ EP        719 14.02                             177   -0.5710 6.54 121 
 BAR2 EZ ES        719 29.32                             177    0.1210 6.54 121 
 BAR2 EZ I         719 30.60         2.1 0.06            174           6.54 121 
 BRR  HZ EP        719 17.08                             150    0.4310 75.3 315 
 BRR  HN ES        719 32.80                             150   -0.0710 75.3 315 
 RUS  HZ EP        719 17.95                             148    0.1510 82.4 168 
 RUS  HN ES        719 34.97                             148    0.0510 82.4 168 
 RUS  HZ I         719 38.70         0.6 0.23            146           82.4 168 
 PTB  HZ EP        719 21.23                             133   -0.04 9  136 266 
 PTB  HN ES        719 41.04                             133   -0.06 9  136 266 
 PTB  HZ I         719 43.64         0.7 0.13            134            136 266 
                                                                                
