 2012  715 0043 46.5 L   6.800 -73.142146.0  RSN 12 0.3 2.5LRSN                1
 GAP= 71        0.94       3.6     3.0  5.1 -0.1818E+00  0.3226E+01  0.1475E+01E
 Epicentro: LOS SANTOS - SANTANDER                                             3
 ACTION:UPD 12-08-14 11:44 OP:ep   STATUS:               ID:20120715004346 L   I
 2012-07-15-0040-00M.COL___197                                                 6
 STAT SP IPHASW D HRMM SECON CODA AMPLIT PERI AZIMU VELO AIN AR TRES W  DIS CAZ7
 BAR2 SZ EP        044  6.17                             170     0.110   23 191 
 BAR2 SZ I         044  6.65        83.8 0.33            168             23 191 
 BAR2 SZ ES        044 21.05                             170    -0.410   23 191 
 BRR  HZ IP     D  044  8.00                             152     0.410   72 298 
 BRR  HN ES        044 24.97                             152     0.810   72 298 
 BRR  HZ I         044 29.48       128.4 0.18            136             72 298 
 PAM  SZ EP        044  8.77                             151     0.110   77  39 
 PAM  SN ES        044 25.87                             151    -0.110   77  39 
 RUS  HZ EP        044 10.35                             144     0.110  101 176 
 RUS  HN ES        044 28.60                             144    -0.210  101 176 
 RUS  HZ I         044 30.55        40.9 0.33            135            101 176 
 PTB  HZ EP        044 12.91                             132    -0.6 9  148 259 
 PTB  HE ES   1    044 34.57                             132     0.0 7  148 259 
 PTB  HZ I         044 38.48        26.1 0.19            117            148 259 
 TAM  HZ EP        044 14.39                             131     0.3 9  155 105 
 TAM  HE ES        044 35.65                             131     0.0 9  155 105 
 OCA  HZ EP        044 14.20                             130    -0.6 9  160 353 
 OCA  HZ I         044 38.20        77.4 0.28            115            160 353 
 ZAR  HZ EP   1    044 18.70                             122    -0.2 6  204 292 
 ZAR  HE ES   1    044 44.18                             122    -0.1 6  204 292 
 NOR  SZ EP   1    044 22.34                             119     0.1 6  235 235 
 NOR  SN ES   1    044 49.82                             119    -0.3 6  235 235 
 CHI  HZ EP   1    044 24.25                             117     0.1 6  249 195 
 CHI  HN ES   1    044 53.84                             117     0.2 6  249 195 
 CHI  HZ I         044 56.56         9.8 0.48            106            249 195 
 HEL  HZ EP   1    044 26.71                             115     0.0 6  272 256 
 HEL  HN ES   1    044 57.89                             115    -0.2 6  272 256 
 HEL  HZ I         045  6.51        15.9 0.41            103            272 256 
 GUY  SZ EP   1    044 31.12                             112     0.8 5  304 235 
 GUY  SZ I         045 14.00        27.9 0.54            101            304 235 
