 2015  215 0559 50.8 L   6.563 -73.542106.9  RSN 18 0.6 2.2LRSN                1
 GAP= 74        1.31       2.7     3.1  5.8 -0.2941E+01  0.4459E+01  0.2117E+01E
 Epicentro: EL CARMEN - SANTANDER                                              3
 ACTION:UPD 15-04-30 21:26 OP:nd   STATUS:               ID:20150215055950 L   I
 OLDACT:REG 15-02-15 12:50 OP:stll STATUS:               ID:20150215055748     3
 2015-02-15-0557-48M.COL___290                                                 6
 STAT SP IPHASW D HRMM SECON CODA AMPLIT PERI AZIMU VELO AIN AR TRES W  DIS CAZ7
 BAR2 EZ IP     D  6 0  6.89                             158    0.5310 39.9  85 
 BAR2 EZ ES        6 0 18.70                             158    0.1810 39.9  85 
 BAR2 EZ I         6 0 20.57       140.3 0.36            152           39.9  85 
 BRR  HZ IP     D  6 0  7.73                             147    0.4010 63.1 343 
 BRR  HN ES        6 0 20.26                             147    0.0310 63.1 343 
 BRR  HZ I         6 0 22.22        27.3 0.12            143           63.1 343 
 RUS  HZ IP     D  6 0  9.87                             137   -0.1610 89.8 146 
 RUS  HE ES        6 0 25.65                             137    0.6110 89.8 146 
 PTB  HZ EP        6 0  9.75                             133   -0.6110  101 269 
 PTB  HN ES        6 0 24.60                             133   -1.0210  101 269 
 PTB  HZ I         6 0 26.02        32.9 0.48            130            101 269 
 SPBC HZ EP        6 0 11.86                             129   -0.0210  117 210 
 SPBC HN ES        6 0 28.17                             129   -0.1610  117 210 
 SPBC HZ I         6 0 30.68        61.1 0.26            126            117 210 
 PAM  SZ IP     D  6 0 13.42                             126    0.0410  127  47 
 PAM  SN ES        6 0 31.15                             126    0.1410  127  47 
 PAM  SZ I         6 0 32.43        29.8 0.42            121            127  47 
 NOR  HZ EP        6 0 18.52                             115   -0.31 9  184 233 
 NOR  HN ES        6 0 40.38                             115   -0.34 9  184 233 
 NOR  HZ I         6 0 42.93        27.1 0.14            113            184 233 
 OCA  HZ EP        6 0 18.79                             115   -0.52 9  187   8 
 OCA  HN ES        6 0 41.31                             115   -0.25 9  187   8 
 OCA  HZ I         6 0 48.99        30.4 0.20            111            187   8 
 TAM  HZ EP        6 0 19.60                             114   -0.36 9  194  94 
 TAM  HZ I         6 0 41.51        12.9 0.14            110            194  94 
 TAM  HE ES        6 0 41.81                             114   -0.91 9  194  94 
 CHI  HZ EP        6 0 22.96                             111    0.20 8  215 186 
 CHI  HN ES        6 0 47.96                             111    0.25 8  215 186 
 CHI  HZ I         6 0 53.87         5.4 0.28            109            215 186 
 GUY2CHZ EP        6 0 27.66                             107    0.73 8  250 234 
 GUY2CHN ES        6 0 55.94                             107    0.81 8  250 234 
 GUY2CHZ I         6 1  1.67         9.9 0.26                           250 234 
 SML  HZ EP        6 0 26.76                             107   -0.04 8  254 347 
 SML  HE ES        6 0 55.71                             107    0.82 8  254 347 
 SML  HZ I         6 1  6.99        27.0 0.10            105            254 347 
 RREF HZ EP        6 0 30.39                             106    0.78 8  272 228 
 RREF HN ES        6 1  0.55                             106    0.65 8  272 228 
 RREF HZ I         6 1  6.22        11.0 0.22            105            272 228 
 CBOC HZ EP        6 0 31.39                             105    0.88 7  284 254 
 CBOC HZ I         6 0 32.84         7.0 0.18            104            284 254 
 CBOC HN ES        6 1  1.07                             105   -0.43 7  284 254 
 TOL  SZ EP        6 0 32.77                             104    0.85 7  294 222 
 TOL  SN ES        6 1  3.77                             104   -0.25 7  294 222 
 ANIL HZ EP        6 0 32.90                             103   -0.62 7  308 222 
 ANIL HN ES        6 1  7.64                             103    0.79 7  308 222 
 PRA  HZ EP        6 0 37.68                             101   -0.33 6  348 205 
 PRA  HN ES        6 1 14.80                             101   -0.06 6  348 205 
 PRA  HZ I         6 1 20.19         7.9 0.32            101            348 205 
 ORTC HZ EP        6 0 37.56                             101   -0.51 6  349 213 
 ORTC HN ES        6 1 13.18                             101   -1.78 6  349 213 
 ORTC HZ I         6 1 23.97         5.2 0.36            101            349 213 
                                                                                
