 2011  615 0905 49.2 L   6.775 -73.103147.0  RSN 14 0.4 3.4LRSN                1
 GAP=143        1.07       3.8     6.7  6.0 -0.1091E+02  0.9331E+01  0.3092E+01E
 Epicentro: LOS SANTOS - SANTANDER                                             3
 ACTION:UP  11-07-14 19:05 OP:ep   STATUS:               ID:20110615090549 L   I
 2011-06-15-0903-33S.COL___138                                                 6
 STAT SP IPHASW D HRMM SECON CODA AMPLIT PERI AZIMU VELO SNR AR TRES W  DIS CAZ7
 BAR2 SZ EP        9 6  8.95                             171     0.010   22 203 
 BAR2 SZ ES   1    9 6 24.21                             171    -0.1 7   22 203 
 BAR2 SZ I         9 6 26.68       827.1 0.29                            22 203 
 BTL  SZ EP        9 6  9.43                             170     0.410   24 311 
 BTL  SZ ES   1    9 6 24.96                             170     0.5 7   24 311 
 GIR2 SZ EP        9 6  9.27                             166     0.210   35 343 
 BRR  HZ IP     C  9 6 10.85                             151     0.110   77 299 
 BRR  HN ES   1    9 6 28.09                             151     0.5 7   77 299 
 BRR  HZ I         9 6 30.46      1097.7 0.15                            77 299 
 PAM  SZ EP        9 6 11.77                             151     0.310   77  36 
 PAM  SN ES   1    9 6 28.61                             151    -0.3 7   77  36 
 PAM  SZ I         9 6 31.17       343.4 0.26                            77  36 
 RUS  HZ EP        9 6 12.68                             145    -0.210   98 179 
 RUS  HZ I         9 6 13.72       198.7 0.33                            98 179 
 RUS  HN ES   1    9 6 30.64                             145    -0.7 7   98 179 
 BRI  SZ EP        9 6 13.47                             141     0.210  109  18 
 BRI  SZ ES   1    9 6 31.40                             141    -0.7 7  109  18 
 BRI  SZ I         9 6 35.17       399.2 0.19                           109  18 
 GRA  SZ EP        9 6 14.76                             137     0.110  127  15 
 GRA  SZ ES   1    9 6 34.59                             137     0.1 7  127  15 
 GRA  SZ I         9 6 36.10       698.5 0.23                           127  15 
 OCA  SZ EP        9 6 17.36                             129    -0.6 9  164 352 
 OCA  SZ ES   1    9 6 40.17                             129    -0.1 7  164 352 
 OCA  SZ I         9 6 42.88       448.9 0.23                           164 352 
 NOR  SZ EP        9 6 24.62                             118    -0.6 8  237 236 
 NOR  SN ES   1    9 6 52.84                             118    -0.5 6  237 236 
 NOR  SZ I         9 7  0.83        44.4 0.25                           237 236 
 CHI  HZ EP        9 6 26.51                             117    -0.3 8  247 196 
 CHI  HN ES   1    9 6 56.41                             117     0.2 6  247 196 
 CHI  HZ I         9 7  5.87       232.6 0.31                           247 196 
 ROSC BZ EP        9 6 28.32                             117     0.9 8  253 212 
 DBB  SZ EP        9 6 36.77                             109    -0.5 7  344 275 
 TOL  SZ EP        9 6 38.16                             109     0.5 7  345 226 
                                                                                
