 2014  815 0704 15.5 L   5.897 -73.657119.4  RSN  5 0.4 1.0LRSN                1
 GAP=175        0.80       4.4     5.8  7.8 -0.1040E+02 -0.5107E+01 -0.4517E+00E
 Epicentro: PUENTE NACIONAL - SANTANDER                                        3
 ACTION:UPD 14-09-15 21:50 OP:nd   STATUS:               ID:20140815070415 L   I
 OLDACT:REG 14-08-15 13:34 OP:spq  STATUS:               ID:20140815065818     3
 2014-08-15-0658-18M.COL___266                                                 6
 STAT SP IPHASW D HRMM SECON CODA AMPLIT PERI AZIMU VELO AIN AR TRES W  DIS CAZ7
 SPBC HN ES        7 4 46.50                             154   -0.0810 53.4 240 
 SPBC HZ I         7 4 48.26         3.3 0.11            157           53.4 240 
 BAR2 SZ EP   1    7 4 35.29                             140   -0.56 7 93.1  34 
 BAR2 SZ ES   1    7 4 51.82                             140    0.13 7 93.1  34 
 BAR2 SZ I         7 4 53.67         4.5 0.28            141           93.1  34 
 PTB  HZ EP        7 4 37.01                             133   -0.2510  113 309 
 PTB  HN ES        7 4 54.09                             133   -0.1110  113 309 
 PTB  HZ I         7 4 57.44         0.9 0.20            134            113 309 
 BRR  HZ EP   1    7 4 39.25                             128    0.12 7  134 357 
 BRR  HN ES   1    7 4 58.27                             128    0.74 7  134 357 
 BRR  HZ I         7 5  1.48         1.0 0.14            129            134 357 
 PRA  HN ES   1    7 5 26.02                             108    0.70 6  277 210 
                                                                                
