 2010  615 0654 10.5 L   6.759 -73.359144.6  RSN  4 0.2 1.0LRSN                1
 GAP=224        0.52       5.2    29.7  7.5 -0.5305E+02  0.5500E+02 -0.2398E+02E
 Epicentro: ZAPATOCA - SANTANDER                                               3
 ACTION:UP  10-08-24 10:10 OP:vdl  STATUS:               ID:20100615065410 L   I
 2010-06-15-0652-40S.COL___114                                                 6
 STAT SP IPHASW D HRMM SECON CODA AMPLIT PERI AZIMU VELO SNR AR TRES W  DIS CAZ7
 BAR2 SZ IP        654 30.03                             169     0.010   27 134 
 BAR2 SZ ES   1    654 45.24                             169     0.0 7   27 134 
 RUS  HZ EP   1    654 34.03                             143    -0.1 7  101 162 
 RUS  HE ES   1    654 52.58                             143     0.1 7  101 162 
 RUS  HZ I         654 53.60         1.6 0.06                           101 162 
 BRI  SZ EP   2    654 34.69                             137    -0.7 5  123  30 
 GRA  SZ EP        654 36.93                             134     0.2 9  139  26 
                                                                                
