 2017  615 0832 32.4 L   6.839 -73.279109.3  RSN  7 0.3 1.9LRSN                1
 GAP=163        0.76       4.0     2.3  6.5 -0.2096E+00 -0.1148E+01  0.1084E+02E
 Epicentro: ZAPATOCA - SANTANDER                                               3
 ACTION:UPD 17-09-14 16:52 OP:jn   STATUS:               ID:20170615083232 L   I
 OLDACT:DUP 17-06-15 16:57 OP:dhb  STATUS:               ID:20170615082730d    3
 OLDACT:REG 17-06-15 13:25 OP:dani STATUS:               ID:20170615082729     3
 2017-06-15-0828-00M.COL___365                                                 6
 STAT SP IPHASW D HRMM SECON CODA AMPLIT PERI AZIMU VELO AIN AR TRES W  DIS CAZ7
 BRR  HZ EP        832 48.56                             151   -0.2210 56.3 302 
 BRR  HE EP        832 48.62                             151           56.3 302 
 BRR  HN ES        833  1.84                             151    0.2910 56.3 302 
 PTB  HZ EP   4    832 53.43                             125   -1.89 0  134 256 
 PTB  HN ES        833 12.97                             125   -0.2210  134 256 
 PTB  HZ I         833 15.24        12.0 0.12            125            134 256 
 SPBC HZ EP        832 57.40                             120   -0.44 9  158 214 
 SPBC HN ES        833 17.64                             120   -0.04 9  158 214 
 SPBC HZ I         833 19.56        10.9 0.12            120            158 214 
 TAM  HZ EP        832 59.13                             118    0.02 9  170 105 
 TAM  HN ES        833 19.99                             118    0.05 9  170 105 
 TAM  HZ I         833 22.77         6.6 0.20            118            170 105 
 ZAR  HZ EP   4    833  0.34                             115   -0.73 0  189 293 
 ZAR  HN ES        833 23.17                             115   -0.26 9  189 293 
 ZAR  HZ I         833 24.92        19.1 0.24            116            189 293 
 NOR  HZ EP        833  5.94                             111    0.68 8  226 231 
 NOR  HN ES        833 30.73                             111   -0.16 8  226 231 
 HEL  HZ EP        833  9.49                             107   -0.03 8  259 254 
 HEL  HN ES        833 39.03                             107    0.57 8  259 254 
 HEL  HZ I         833 42.73         3.3 0.26            108            259 254 
                                                                                
