 2014  715 0546  9.8 L   6.232 -73.869 93.6  RSN  5 0.4 1.2LRSN                1
 GAP=137        0.90       3.8     4.6  9.3 -0.6596E+01 -0.1864E+01  0.1227E+01E
 Epicentro: LANDAZURI - SANTANDER                                              3
 ACTION:UPD 15-03-16 20:44 OP:nd   STATUS:               ID:20140715054609 L   I
 OLDACT:DUP 14-07-15 17:51 OP:fm   STATUS:               ID:20140715053808d    3
 2014-07-15-0538-07M.COL___259                                                 6
 STAT SP IPHASW D HRMM SECON CODA AMPLIT PERI AZIMU VELO AIN AR TRES W  DIS CAZ7
 SPBC HZ EP        546 25.49                             142   -0.0210 68.0 199 
 SPBC HN ES        546 37.88                             142    0.1110 68.0 199 
 SPBC HZ I         546 39.88         7.0 0.28            149           68.0 199 
 PTB  HZ EP        546 25.44                             140   -0.3910 73.3 298 
 PTB  HN ES        546 37.92                             140   -0.4210 73.3 298 
 PTB  HZ I         546 43.08         3.0 0.10            142           73.3 298 
 BAR2 SZ EP   1    546 26.91                             135   -0.28 7 85.8  62 
 BAR2 SZ ES   1    546 40.74                             135   -0.01 7 85.8  62 
 BAR2 SZ I         546 42.08         7.7 0.52            141           85.8  62 
 BRR  HZ EP   1    546 27.96                             130   -0.06 7 98.3  10 
 BRR  HN ES        546 42.94                             130    0.7210 98.3  10 
 BRR  HZ I         546 46.94         2.6 0.28            134           98.3  10 
 GUY2CHN ES   1    547  3.25                             111    0.49 6  200 236 
 GUY2CHZ I         547  9.06         1.6 0.54                           200 236 
                                                                                
