 2011 1115 0844 60.0 L   6.746 -73.112138.0  RSN  5 0.4 1.4LRSN                1
 GAP=143        0.80       4.8     4.9  7.5  0.3696E+01  0.1337E+02  0.3628E+00E
 Epicentro: JORDAN - SANTANDER                                                 3
 ACTION:UPD 12-07-13 16:10 OP:ep   STATUS:               ID:20111115084460 L   I
 2011-11-15-0843-29S.COL___179                                                 6
 STAT SP IPHASW D HRMM SECON CODA AMPLIT PERI AZIMU VELO AIN AR TRES W  DIS CAZ7
 BAR2 SZ EP   1    845 18.12                             172   -0.47 7 18.7 205 
 BAR2 SZ ES   1    845 32.84                             172   -0.26 7 18.7 205 
 BAR2 SZ I         845 35.67         7.6 0.19                          18.7 205 
 BRR  HZ EP   1    845 20.98                             149    0.30 7 77.5 301 
 BRR  HN ES   1    845 37.53                             149    0.71 7 77.5 301 
 BRR  HZ I         845 40.40         8.7 0.18                          77.5 301 
 PAM  SZ EP   1    845 21.96                             149    0.43 7 79.9  35 
 PAM  SN ES        845 38.12                             149   -0.2310 79.9  35 
 RUS  HZ EP   1    845 22.40                             144   -0.12 7 94.4 178 
 RUS  HZ I         845 23.88         2.4 0.13                          94.4 178 
 RUS  HN ES   1    845 40.35                             144    0.25 7 94.4 178 
 ZAR  HZ EP   1    845 32.72                             120    0.18 6  210 293 
 ZAR  HN ES        845 57.49                             120   -0.45 8  210 293 
 ZAR  HZ I         846  2.94         2.8 0.10                           210 293 
                                                                                
