 2017 1115 0124  6.1 L   6.804 -73.098149.8  RSN  7 0.5 1.7LRSN                1
 GAP=116        1.25       5.5     5.3  7.8  0.1081E+02  0.5788E+01  0.4132E+01E
 Epicentro: LOS SANTOS - SANTANDER                                             3
 ACTION:UPD 17-12-12 19:55 OP:rebc STATUS:               ID:20171115012406 L   I
 OLDACT:UP  17-11-15 15:29 OP:leo  STATUS:               ID:20171115011738     3
 OLDACT:UP  17-11-15 15:26 OP:leo  STATUS:               ID:20171115011738     3
 OLDACT:REG 17-11-15 13:16 OP:leo  STATUS:               ID:20171115011738     3
 2017-11-15-0118-00M.COL___444                                                 6
 STAT SP IPHASW D HRMM SECON CODA AMPLIT PERI AZIMU VELO AIN AR TRES W  DIS CAZ7
 BAR2 EZ EP        124 25.18                             170   -1.0310 25.2 202 
 BAR2 EZ ES        124 41.55                             170   -0.3810 25.2 202 
 PAM  EZ EP        124 28.93                             153    0.4310 73.8  37 
 PAM  EN ES        124 45.62                             153   -0.3810 73.8  37 
 PAM  EZ I         124 47.54         8.2 0.44            154           73.8  37 
 BRR  HZ EP        124 28.03                             152    0.1310 75.7 296 
 BRR  HN ES        124 45.96                             152    1.0310 75.7 296 
 BRR  HZ I         124 48.75        10.0 0.12            151           75.7 296 
 RUS  HZ EP        124 30.56                             145    0.3410  101 179 
 RUS  HN ES        124 49.10                             145    0.0410  101 179 
 RUS  HZ I         124 49.69         4.7 0.44            146            101 179 
 PTB  HZ EP        124 33.48                             132   -0.35 9  153 259 
 PTB  HN ES        124 55.47                             132   -0.02 9  153 259 
 PTB  HZ I         124 56.70         4.1 0.40            132            153 259 
 YPLC HZ EP        124 36.28                             128    0.34 9  175 153 
 YPLC HE ES        124 59.36                             128    0.11 9  175 153 
 YPLC HZ I         125  2.63         7.2 0.24            130            175 153 
 ZAR  HZ EP        124 39.30                             123    0.04 8  209 292 
 ZAR  HN ES        125  4.80                             123   -0.35 8  209 292 
 ZAR  HZ I         125 10.83         4.3 0.22            123            209 292 
                                                                                
