 2015  115 0525 46.7 L   6.719 -73.156142.6  RSN  5 0.5 1.2LRSN                1
 GAP=139        1.30       6.8     6.6  9.6 -0.3982E+01  0.8067E+01  0.1710E+01E
 Epicentro: VILLANUEVA - SANTANDER                                             3
 ACTION:UPD 15-03-02 15:39 OP:nd   STATUS:               ID:20150115052546 L   I
 OLDACT:DUP 15-01-15 14:13 OP:carl STATUS:               ID:20150115051751d    3
 2015-01-15-0517-50M.COL___253                                                 6
 STAT SP IPHASW D HRMM SECON CODA AMPLIT PERI AZIMU VELO AIN AR TRES W  DIS CAZ7
 BAR2 EZ EP        526  6.24                             174    0.3910 14.3 192 
 BAR2 EZ ES        526 20.47                             174   -0.2810 14.3 192 
 BAR2 EZ I         526 23.43         3.7 0.20            175           14.3 192 
 BRR  HZ EP        526  8.27                             151    0.4910 74.9 305 
 BRR  HE ES        526 24.99                             151    0.8110 74.9 305 
 PAM  SE EP        526  9.28                             148    0.1610 85.2  36 
 PAM  SE ES        526 25.85                             148   -0.7210 85.2  36 
 PAM  SE I         526 29.01         4.4 0.42            150           85.2  36 
 RUS  HZ EP        526  9.36                             146   -0.2010 91.7 175 
 RUS  HE ES        526 27.69                             146    0.3310 91.7 175 
 PTB  HZ EP        526 12.82                             132   -0.40 9  145 262 
 PTB  HN ES        526 33.16                             132   -0.71 9  145 262 
 PTB  HZ I         526 37.12         1.2 0.48            133            145 262 
                                                                                
