 2015  615 0804 50.1 L   6.806 -73.098149.4  RSN 25 0.5 2.7LRSN                1
 GAP=123        1.02       2.3     3.4  4.6 -0.9710E+00  0.5093E+01  0.1729E+01E
 Epicentro: LOS SANTOS - SANTANDER                                             3
 ACTION:UPD 15-09-10 22:12 OP:cam  STATUS:               ID:20150615080450 L   I
 OLDACT:UP  15-06-15 18:32 OP:drio STATUS:               ID:20150615075740     3
 OLDACT:UP  15-06-15 18:22 OP:drio STATUS:               ID:20150615075740     3
 OLDACT:UP  15-06-15 18:20 OP:drio STATUS:               ID:20150615075740     3
 OLDACT:REG 15-06-15 13:35 OP:drio STATUS:               ID:20150615075740     3
 2015-06-15-0757-40M.COL___315                                                 6
 STAT SP IPHASW D HRMM SECON CODA AMPLIT PERI AZIMU VELO AIN AR TRES W  DIS CAZ7
 BAR2 EZ IP     D  8 5 10.28                             170    0.0710 25.4 201 
 BAR2 EZ ES        8 5 25.27                             170   -0.6310 25.4 201 
 BAR2 EZ I         8 5 27.95       122.1 0.30            168           25.4 201 
 PAM  SZ EP        8 5 12.97                             153    0.4810 73.6  37 
 PAM  SN ES        8 5 30.36                             153    0.4110 73.6  37 
 PAM  SZ I         8 5 32.39        75.1 0.46            155           73.6  37 
 BRR  HZ EP     C  8 5 12.16                             152    0.2710 75.5 296 
 BRR  HE ES        8 5 29.42                             152    0.5410 75.5 296 
 BRR  HZ I         8 5 33.08        52.8 0.32            149           75.5 296 
 RUS  HZ EP        8 5 14.18                             144   -0.0610  101 179 
 RUS  HN ES        8 5 32.80                             144   -0.2810  101 179 
 RUS  HZ I         8 5 34.11        38.4 0.40            145            101 179 
 OCA  HZ EP        8 5 18.29                             130   -0.41 9  160 351 
 OCA  HN ES        8 5 41.02                             130    0.02 9  160 351 
 OCA  HZ I         8 5 45.52       107.3 0.36            130            160 351 
 SPBC HZ EP        8 5 19.20                             129   -0.04 9  167 220 
 SPBC HN ES        8 5 41.99                             129    0.01 9  167 220 
 SPBC HZ I         8 5 48.20       103.4 0.44            128            167 220 
 ZAR  HZ EP        8 5 23.02                             122   -0.24 8  209 291 
 ZAR  HE ES        8 5 48.60                             122   -0.52 8  209 291 
 ZAR  HZ I         8 5 59.18        53.6 0.36            122            209 291 
 NOR  HZ EP        8 5 26.16                             119   -0.38 8  239 235 
 NOR  HE ES        8 5 55.35                             119    0.38 8  239 235 
 NOR  HZ I         8 5 58.12        40.8 0.20            118            239 235 
 SML  HZ EP        8 5 26.46                             118   -0.64 8  245 334 
 SML  HN ES        8 5 55.84                             118   -0.13 8  245 334 
 SML  HZ I         8 6  3.03        80.4 0.28            118            245 334 
 CHI  HZ EP        8 5 28.38                             118    0.16 8  251 196 
 CHI  HN ES        8 5 57.90                             118   -0.06 8  251 196 
 CHI  HZ I         8 6  7.45        19.3 0.70            118            251 196 
 ROSC BZ EP   4    8 5 29.85                             117    1.07 0  256 212 
 ROSC BN ES   4    8 6  1.17                             117    2.22 0  256 212 
 ROSC BZ I         8 6  7.91        54.3 0.45            117            256 212 
 HEL  HZ EP        8 5 31.67                             115    0.59 7  277 256 
 HEL  HN ES        8 6  2.17                             115   -0.87 7  277 256 
 HEL  HZ I         8 6  8.77        21.5 0.34            115            277 256 
 URE  HZ EP   4    8 5 34.62                             114    2.76 0  288 291 
 URE  HN ES        8 6  5.23                             114    0.79 7  288 291 
 URE  HZ I         8 6 14.37        25.4 0.18            113            288 291 
 VIL  SZ EP   4    8 5 31.14                             113   -2.74 0  305 193 
 VIL  SN ES   4    8 6  9.43                             113    1.40 0  305 193 
 VIL  SZ I         8 6 13.87        25.1 0.50            113            305 193 
 GUY2CHZ EP        8 5 35.34                             113    0.94 7  306 235 
 GUY2CHN ES        8 6  8.35                             113   -0.61 7  306 235 
 GUY2CHZ I         8 6 16.95        39.6 0.76                           306 235 
 LL2C HZ EP   4    8 5 35.12                             112    1.28 0  306 353 
 LL2C HN ES   4    8 6  9.22                             112    1.27 0  306 353 
 LL2C HZ I         8 6 17.00        58.8 0.46            113            306 353 
 PTGC HZ EP        8 5 33.18                             112   -0.80 7  307 160 
 PTGC HN ES   4    8 6  6.23                             112   -1.98 0  307 160 
 PTGC HZ I         8 6 22.56        11.2 0.44            113            307 160 
 CBOC HZ EP        8 5 37.95                             110    0.19 7  339 252 
 CBOC HE ES        8 6 14.14                             110   -0.80 7  339 252 
 CBOC HZ I         8 6 19.57         7.3 0.46            110            339 252 
 TOL  SZ EP        8 5 39.68                             110    0.70 6  348 225 
 TOL  SN ES        8 6 17.52                             110    0.41 6  348 225 
 TOL  SZ I         8 6 24.08        23.8 0.36            110            348 225 
 MON  HZ EP        8 5 39.33                             109   -0.34 6  357 308 
 MON  HN ES   4    8 6 16.26                             109   -2.07 0  357 308 
 MON  HZ I         8 6 30.88        10.8 0.50            109            357 308 
 ANIL HZ EP        8 5 40.94                             109    0.41 6  362 225 
 ANIL HN ES        8 6 20.32                             109    0.46 6  362 225 
 PRA  HZ EP        8 5 43.82                             107   -0.30 6  395 210 
 PRA  HN ES        8 6 26.52                             107    0.26 6  395 210 
 PRA  HZ I         8 6 32.07        21.5 0.36            107            395 210 
 ORTC HZ EP        8 5 44.12                             107   -0.45 6  399 217 
 ORTC HN ES        8 6 27.77                             107    0.71 6  399 217 
 ORTC HZ I         8 6 33.83        19.5 0.38            107            399 217 
 SJC  HZ EP   4    8 5 44.29                             106   -1.76 0  412 326 
 SJC  HE ES   4    8 6 25.36                             106   -4.34 0  412 326 
 SJC  HZ I         8 6 33.09         6.9 0.52            106            412 326 
 MACC HZ EP   4    8 5 57.03                             102   -2.05 0  522 189 
 MACC HZ I    3    8 6  8.29         4.8 0.42            102            522 189 
 MACC HN ES   4    8 6 49.48                             102   -3.40 0  522 189 
                                                                                
