 2011  915 0937  8.7 L   6.799 -73.116147.2  RSN  9 0.2 1.8LRSN                1
 GAP=186        0.30       1.9     3.3  3.3  0.1090E+01  0.2986E+01  0.2138E+01E
 Epicentro: LOS SANTOS - SANTANDER                                             3
 ACTION:UPD 12-07-13 15:57 OP:ep   STATUS:               ID:20110915093708 L   I
 2011-09-15-0934-54S.COL___169                                                 6
 STAT SP IPHASW D HRMM SECON CODA AMPLIT PERI AZIMU VELO AIN AR TRES W  DIS CAZ7
 BAR2 SZ EP   1    937 28.41                             170   -0.15 7 24.0 198 
 BAR2 SZ ES   2    937 43.91                             170   -0.11 5 24.0 198 
 BAR2 SZ I         937 46.26         9.0 0.32                          24.0 198 
 GIR2 SZ EP   2    937 28.53                             167   -0.08 5 32.1 345 
 GIR2 SZ ES   2    937 44.13                             167    0.02 5 32.1 345 
 BRR  HZ EP   1    937 30.20                             152   -0.02 7 74.1 297 
 BRR  HE ES   2    937 47.12                             152    0.16 5 74.1 297 
 BRR  HZ I         937 50.83        11.8 0.36                          74.1 297 
 RUS  HZ EP   2    937 32.57                             144   -0.05 5  100 178 
 RUS  HN ES   2    937 51.39                             144    0.15 5  100 178 
 RUS  HZ I         937 53.43         5.5 0.40                           100 178 
 OCA  SZ ES   2    937 59.78                             130    0.35 5  161 352 
 OCA  SZ I         938  3.41         7.8 0.38                           161 352 
 ZAR  HZ EP   2    937 41.69                             122    0.09 4  207 292 
 ZAR  HN ES   2    938  6.80                             122   -0.42 4  207 292 
 ZAR  HZ I         938 12.11         5.1 0.24                           207 292 
 NOR  SN ES   2    938 13.13                             118    0.15 4  237 235 
 CHI  HZ EP   1    937 46.52                             117   -0.08 6  249 196 
 CHI  HE ES   2    938 16.18                             117    0.05 4  249 196 
 CHI  HZ I         938 19.59         2.9 0.61                           249 196 
 PRA  HZ EP   2    938  2.95                             107    0.46 3  393 210 
 PRA  HN ES   2    938 44.60                             107    0.19 3  393 210 
 PRA  HZ I         938 48.44         9.5 0.36                           393 210 
                                                                                
