 2012  215 0735 38.7 L   6.850 -73.050152.0  RSN  8 0.5 1.5LRSN                1
 GAP=214        0.87       7.6     7.6  8.0  0.1103E+02  0.8804E+01  0.2715E+02E
 ACTION:UP  12-03-07 16:30 OP:epov STATUS:               ID:20120215073538 L   I
 2012-02-15-0730-00M.COL___188                                                 6
 STAT SP IPHASW D HRMM SECON CODA AMPLIT PERI AZIMU VELO AIN AR TRES W  DIS CAZ7
 GIR2 SZ EP        735 58.81                             168   -0.3110 29.8 328 
 GIR2 SZ ES        736 14.95                             168   -0.0710 29.8 328 
 BAR2 SZ EP   1    735 59.70                             168    0.38 7 32.0 207 
 BAR2 SZ ES   2    736 14.82                             168   -0.56 5 32.0 207 
 BAR2 SZ I         736 16.21         9.2 0.44                          32.0 207 
 BRR  HZ EP   1    736  1.71                             151    0.73 7 78.4 291 
 BRR  HN ES   1    736 18.92                             151    0.60 7 78.4 291 
 BRR  HZ I         736 20.25         6.1 0.14                          78.4 291 
 RUS  HZ EP   1    736  3.33                             144   -0.17 7  106 182 
 RUS  HN ES   2    736 22.90                             144    0.10 5  106 182 
 RUS  HZ I         736 24.01         3.6 0.39                           106 182 
 PTB  HZ EP   1    736  6.71                             131   -0.55 7  159 258 
 PTB  HE ES   2    736 28.62                             131   -0.88 5  159 258 
 ZAR  HE ES   2    736 37.98                             123   -0.68 4  212 290 
 NOR  SN ES   2    736 46.19                             118    0.95 4  246 235 
 CHI  HZ EP   1    736 17.82                             118    0.13 6  257 197 
                                                                                
