 2013  115 0632 14.4 L   7.553 -73.047153.5  RSN  8 0.3 2.0LRSN                1
 GAP=203        0.60       3.1     4.7  5.5  0.1764E+01 -0.1090E+01  0.3964E+01E
 Epicentro: EL PLAYON - SANTANDER                                              3
 ACTION:UPD 13-02-15 09:14 OP:ep   STATUS:               ID:20130115063214 L   I
 2013-01-15-0630-00M.COL___241                                                 6
 STAT SP IPHASW D HRMM SECON CODA AMPLIT PERI AZIMU VELO AIN AR TRES W  DIS CAZ7
 OCA  HZ EP   1    632 37.36                             151    0.13 7 81.6 338 
 OCA  HN ES   1    632 54.98                             151   -0.04 7 81.6 338 
 OCA  HZ I         632 56.88        21.4 0.44            132           81.6 338 
 BRR  HZ EP        632 37.56                             148    0.1310 88.5 236 
 BRR  HN ES   1    632 55.92                             148    0.54 7 88.5 236 
 BRR  HZ I         632 58.15        15.0 0.20            128           88.5 236 
 BAR2 SZ EP   1    632 39.04                             143   -0.02 7  107 188 
 BAR2 SZ ES   1    632 57.74                             143   -0.54 7  107 188 
 BAR2 SZ I         633  2.58        28.3 0.26            126            107 188 
 RUS  HZ EP   1    632 46.09                             127    0.08 7  184 181 
 RUS  HN ES   1    633 10.57                             127   -0.07 7  184 181 
 RUS  HZ I         633 12.00         4.5 0.28            112            184 181 
 PTB  HZ EP   1    632 45.67                             126   -0.51 7  192 234 
 PTB  HN ES   1    633 10.67                             126   -0.28 7  192 234 
 PTB  HZ I         633 15.20         8.5 0.18            109            192 234 
 ZAR  HN ES   1    633 12.35                             125   -0.02 6  200 268 
 ZAR  HZ I         633 15.22         9.5 0.26            108            200 268 
 HEL  HZ EP   1    632 59.54                             113   -0.04 5  313 241 
 HEL  HZ I         633 46.57         3.6 0.34            101            313 241 
 CHI  HZ EP   1    633  1.84                             111    0.04 5  332 193 
 CHI  HN ES   1    633 39.43                             111    0.68 5  332 193 
 CHI  HZ I         633 49.27         2.1 0.34            101            332 193 
                                                                                
