 2013  915 0421 45.8 L   6.808 -73.133147.9  RSN 10 0.5 1.9LRSN                1
 GAP=184        1.16       3.5     6.3  7.0  0.1911E-02  0.3935E+01  0.3392E+00E
 Epicentro: LOS SANTOS - SANTANDER                                             3
 ACTION:UPD 13-10-22 09:22 OP:ep   STATUS:               ID:20130915042145 L   I
 OLDACT:REG 13-09-15 10:25 OP:carl STATUS:               ID:20130915041959     3
 2013-09-15-0419-59M.COL___269                                                 6
 STAT SP IPHASW D HRMM SECON CODA AMPLIT PERI AZIMU VELO AIN AR TRES W  DIS CAZ7
 BAR2 SZ EP        422  5.82                             170    0.1510 24.4 193 
 BAR2 SZ ES        422 20.50                             170   -0.7010 24.4 193 
 BAR2 SZ I         422 22.60        17.7 0.40            169           24.4 193 
 BRR  HZ EP        422  7.74                             153    0.5510 72.0 297 
 BRR  HE ES        422 25.11                             153    1.2110 72.0 297 
 BRR  HZ I         422 28.41        10.9 0.12            149           72.0 297 
 RUS  HZ EP        422 10.09                             144    0.3110  101 177 
 RUS  HN ES   1    422 27.98                             144   -0.53 7  101 177 
 RUS  HZ I         422 29.61         7.7 0.24            147            101 177 
 PTB  HZ EP        422 12.46                             132   -0.58 9  149 259 
 PTB  HN ES   1    422 34.03                             132   -0.29 7  149 259 
 PTB  HZ I         422 41.00        11.0 0.30            131            149 259 
 OCA  HZ EP        422 14.33                             130    0.15 9  160 353 
 OCA  HE ES        422 35.93                             130   -0.41 9  160 353 
 OCA  HZ I         422 41.65        11.3 0.30            131            160 353 
 SPBC HZ EP        422 14.59                             129    0.02 9  165 219 
 SPBC HN ES   1    422 36.76                             129   -0.28 7  165 219 
 SPBC HZ I         422 39.55        18.6 0.30            130            165 219 
 ZAR  HZ EP        422 18.44                             123   -0.01 9  205 292 
 ZAR  HN ES   1    422 43.52                             123   -0.42 6  205 292 
 ZAR  HZ I         422 50.75        12.1 0.32            122            205 292 
 NOR  HE ES        422 49.74                             119   -0.15 8  236 234 
 SML  HZ EP   1    422 22.17                             118   -0.32 6  244 335 
 SML  HN ES   1    422 50.79                             118   -0.34 6  244 335 
 SML  HZ I         422 58.45        13.7 0.10            119            244 335 
 CHI  HZ EP        422 23.60                             117   -0.11 8  250 195 
 CHI  HN ES        422 53.86                             117    0.55 8  250 195 
 CHI  HZ I         422 58.95         2.2 0.30            119            250 195 
                                                                                
