 2013  115 0823 12.5 L   6.818 -73.174151.3  RSN  5 0.4 1.2LRSN                1
 GAP=236        0.72       8.5     7.3  8.0  0.4205E+02  0.1097E+02  0.7775E+01E
 Epicentro: LOS SANTOS - SANTANDER                                             3
 ACTION:UPD 13-02-15 09:14 OP:ep   STATUS:               ID:20130115082312 L   I
 2013-01-15-0820-00M.COL___241                                                 6
 STAT SP IPHASW D HRMM SECON CODA AMPLIT PERI AZIMU VELO AIN AR TRES W  DIS CAZ7
 BAR2 SZ EP   1    823 32.83                             170   -0.03 7 25.0 182 
 BAR2 SZ ES   1    823 48.08                             170   -0.64 7 25.0 182 
 BAR2 SZ I         823 49.43         5.8 0.26            164           25.0 182 
 BRR  HN ES   1    823 51.49                             155    0.60 7 67.4 298 
 RUS  HZ EP   1    823 37.24                             144    0.25 7  103 174 
 RUS  HN ES   1    823 56.26                             144    0.19 7  103 174 
 RUS  HZ I         823 56.59         1.2 0.30            142            103 174 
 PTB  HZ EP   1    823 39.46                             134   -0.25 7  145 258 
 PTB  HN ES   1    824  0.95                             134    0.03 7  145 258 
 PTB  HZ I         824  5.71         2.2 0.20            131            145 258 
 ZAR  HN ES   1    824 10.04                             124   -0.23 6  200 292 
                                                                                
