 2014  715 0639 41.0 L   6.696 -73.213150.0  RSN  6 0.2 2.0LRSN                1
 GAP=214        0.63       5.4     4.6  5.6  0.1318E+02  0.1887E+01  0.2548E+01E
 Epicentro: VILLANUEVA - SANTANDER                                             3
 ACTION:UPD 15-03-16 20:44 OP:nd   STATUS:               ID:20140715063941 L   I
 OLDACT:DUP 14-07-15 18:31 OP:fm   STATUS:               ID:20140715062817d    3
 OLDACT:REG 14-07-15 13:13 OP:fm   STATUS:               ID:20140715062814     3
 2014-07-15-0628-14M.COL___259                                                 6
 STAT SP IPHASW D HRMM SECON CODA AMPLIT PERI AZIMU VELO AIN AR TRES W  DIS CAZ7
 BAR2 SZ EP        640  0.66                             175   -0.2810 12.0 164 
 BAR2 SZ ES   1    640 16.13                             175   -0.38 7 12.0 164 
 BAR2 SZ I         640 17.34        30.8 0.22            159           12.0 164 
 BRR  HZ IP     D  640  2.58                             153   -0.0110 71.4 310 
 BRR  HE ES        640 19.82                             153    0.3710 71.4 310 
 BRR  HZ I         640 22.16        13.2 0.14            144           71.4 310 
 RUS  HZ EP        640  4.77                             148    0.3510 90.0 171 
 RUS  HN ES   1    640 22.74                             148    0.03 7 90.0 171 
 RUS  HZ I         640 24.12         9.0 0.38            165           90.0 171 
 PTB  HZ EP        640  7.31                             135   -0.17 9  139 263 
 PTB  HN ES        640 28.16                             135    0.00 9  139 263 
 PTB  HZ I         640 34.43        17.1 0.58            143            139 263 
 ZAR  HN ES   1    640 38.64                             124   -0.19 6  202 296 
 ZAR  HZ I         640 42.35        20.4 0.26            125            202 296 
 ROSC BZ I         640 22.90         5.3 0.20            134            239 211 
                                                                                
