 2011 1115 0736 36.1 L   6.753 -73.144139.0  RSN  7 0.4 1.7LRSN                1
 GAP=139        0.78       3.8     4.8  8.2 -0.1222E+01  0.1035E+02 -0.1401E+01E
 Epicentro: LOS SANTOS - SANTANDER                                             3
 ACTION:UPD 12-07-13 16:10 OP:ep   STATUS:               ID:20111115073636 L   I
 2011-11-15-0734-35S.COL___179                                                 6
 STAT SP IPHASW D HRMM SECON CODA AMPLIT PERI AZIMU VELO AIN AR TRES W  DIS CAZ7
 BAR2 SZ EP   1    736 54.82                             172   -0.04 7 18.3 193 
 BAR2 SZ I         737 17.40         8.8 0.45                          18.3 193 
 BRR  HZ EP   1    736 57.09                             150    0.36 7 74.0 302 
 BRR  HN ES   1    737 13.55                             150    0.77 7 74.0 302 
 BRR  HZ I         737 18.51        20.6 0.15                          74.0 302 
 PAM  SZ EP   1    736 58.09                             148    0.20 7 81.3  37 
 PAM  SN ES   1    737 14.50                             148   -0.35 7 81.3  37 
 RUS  HZ EP   1    736 59.14                             144    0.29 7 95.4 176 
 RUS  HN ES   1    737 16.33                             144   -0.23 7 95.4 176 
 RUS  HZ I         737 19.37         3.4 0.35                          95.4 176 
 OCA  SZ EP   1    737  4.55                             127    0.11 7  165 353 
 OCA  SZ ES   1    737 25.84                             127   -0.66 7  165 353 
 OCA  SZ I         737 29.07        11.5 0.30                           165 353 
 ZAR  HZ EP   1    737  8.43                             120    0.04 6  206 293 
 ZAR  HN ES   1    737 33.34                             120   -0.19 6  206 293 
 ZAR  HZ I         737 39.79         5.8 0.22                           206 293 
 NOR  SN ES   1    737 37.87                             117   -0.64 6  232 236 
                                                                                
