 2015  315 0432 41.9 L   6.777 -73.168149.5  RSN  5 0.3 1.0LRSN                1
 GAP=135        0.74       4.8     5.7  7.5  0.7624E+00 -0.7295E+01  0.2251E+01E
 Epicentro: LOS SANTOS - SANTANDER                                             3
 ACTION:UPD 15-04-30 16:26 OP:nd   STATUS:               ID:20150315043241 L   I
 OLDACT:REG 15-03-15 12:53 OP:spq  STATUS:               ID:20150315042736     3
 2015-03-15-0427-36M.COL___260                                                 6
 STAT SP IPHASW D HRMM SECON CODA AMPLIT PERI AZIMU VELO AIN AR TRES W  DIS CAZ7
 BRR  HZ EP        433  3.29                             153   -0.0910 70.4 301 
 BRR  HE ES        433 20.38                             153    0.2210 70.4 301 
 BRR  HZ I         433 22.23         1.8 0.60            154           70.4 301 
 PAM  SZ EP   1    433  4.50                             150   -0.20 7 80.9  40 
 RUS  HZ EP   1    433  5.38                             145   -0.45 7 98.2 175 
 RUS  HE ES   1    433 24.68                             145    0.17 7 98.2 175 
 RUS  HZ I         433 25.81         1.0 0.46            145           98.2 175 
 PTB  HZ EP        433  9.16                             133    0.27 9  145 260 
 PTB  HN ES   1    433 29.29                             133   -0.68 7  145 260 
 PTB  HZ I         433 31.73         1.9 0.26            134            145 260 
 SPBC HZ EP   1    433 10.89                             131    0.56 7  160 219 
 SPBC HE ES   1    433 32.47                             131   -0.06 7  160 219 
 SPBC HZ I         433 36.39         1.7 0.10            131            160 219 
                                                                                
