 2017 1015 0615 25.1 L   6.773 -73.208138.3  RSN  7 0.4 1.3LRSN                1
 GAP=130        0.98       4.8     4.9  6.9 -0.2508E+01  0.1582E+01  0.7187E+01E
 Epicentro: ZAPATOCA - SANTANDER                                               3
 ACTION:UPD 17-11-07 19:31 OP:rebc STATUS:               ID:20171015060242 L   I
 OLDACT:UPD 17-10-15 13:29 OP:leo  STATUS:               ID:20171015060242 L   3
 2017-10-15-0608-00M.COL___414                                                 6
 STAT SP IPHASW D HRMM SECON CODA AMPLIT PERI AZIMU VELO AIN AR TRES W  DIS CAZ7
 BAR2 EZ EP        615 43.81                             171    0.0210 20.2 172 
 BAR2 EZ ES        615 58.17                             171   -0.1810 20.2 172 
 BAR2 EZ I         616  0.29         6.1 0.28            171           20.2 172 
 BRR  HZ EP        615 45.61                             153    0.3910 66.9 304 
 BRR  HE ES        616  1.39                             153    0.5010 66.9 304 
 BRR  HZ I         616  6.57         3.7 0.30            153           66.9 304 
 PAM  EZ EP        615 46.74                             147   -0.2410 84.1  42 
 RUS  HZ EP        615 47.63                             143   -0.3410 98.3 172 
 RUS  HN ES        616  5.94                             143    0.1410 98.3 172 
 RUS  HZ I         616  7.79         1.3 0.24            145           98.3 172 
 PTB  HZ ES        616 10.43                             132   -0.43 9  140 259 
 NOR  HN ES        616 25.97                             118   -0.58 8  227 234 
 PRA  HZ EP        616 17.98                             105    0.29 6  386 209 
 PRA  HN ES        616 59.74                             105    1.05 6  386 209 
 PRA  HZ I         617  5.70         0.9 0.29            107            386 209 
                                                                                
