 2011  615 0233 11.4 L   6.767 -73.079143.7  RSN  8 0.4 1.6LRSN                1
 GAP=166        0.87       5.5     9.7 10.8 -0.7152E+01 -0.2752E+02 -0.1529E+01E
 Epicentro: LOS SANTOS - SANTANDER                                             3
 ACTION:UP  11-07-14 19:05 OP:ep   STATUS:               ID:20110615023311 L   I
 2011-06-15-0220-00M.COL___125                                                 6
 STAT SP IPHASW D HRMM SECON CODA AMPLIT PERI AZIMU VELO SNR AR TRES W  DIS CAZ7
 BAR2 SZ EP   2    233 30.84                             171     0.0 5   23 211 
 BAR2 SZ ES   2    233 45.60                             171    -0.3 5   23 211 
 BAR2 SZ I         233 46.52         9.9 0.18                            23 211 
 BTL  SZ EP        233 31.58                             169     0.710   27 309 
 GIR2 SZ EP   2    233 30.95                             165    -0.1 5   37 340 
 BRR  HZ EP   1    233 32.44                             150    -0.4 7   79 298 
 BRR  HZ I         233 35.19        11.0 0.06                            79 298 
 BRR  HE ES   1    233 49.34                             150    -0.2 7   79 298 
 RUS  HZ EP   1    233 34.27                             144    -0.4 7   97 180 
 RUS  HN ES   2    233 53.22                             144     0.4 5   97 180 
 RUS  HZ I         233 55.12         4.8 0.32                            97 180 
 GRA  SZ EP   1    233 36.20                             136    -0.4 7  127  14 
 GRA  SZ ES   2    233 55.93                             136    -0.3 5  127  14 
 GRA  SZ I         233 57.00         4.9 0.23                           127  14 
 OCA  SZ EP   2    233 40.43                             128     0.4 5  165 351 
 OCA  SZ ES   2    234  2.77                             128     0.5 5  165 351 
 OCA  SZ I         234  7.26         3.9 0.87                           165 351 
 NOR  SN ES   2    234 15.56                             118     0.0 4  239 236 
                                                                                
