 2016 1115 0459 10.3 L   6.623 -73.213140.8  RSN  5 0.2 1.4LRSN                1
 GAP=130        0.76       7.3     5.2  5.5  0.1169E+02  0.1183E+02  0.9140E+01E
 Epicentro: BARICHARA - SANTANDER                                              3
 ACTION:UPD 17-10-26 21:08 OP:lp   STATUS:               ID:20161115045910 L   I
 OLDACT:UP  16-11-15 16:25 OP:edw  STATUS:               ID:20161115045644     3
 OLDACT:REG 16-11-15 12:57 OP:edw  STATUS:               ID:20161115045644     3
 2016-11-15-0457-00M.COL___344                                                 6
 STAT SP IPHASW D HRMM SECON CODA AMPLIT PERI AZIMU VELO AIN AR TRES W  DIS CAZ7
 BAR2 EZ EP        459 29.03                             177   -0.0310 4.80 136 
 BAR2 EZ ES        459 43.90                             177    0.1810 4.80 136 
 BAR2 EZ I         459 46.78         8.2 0.30            177           4.80 136 
 BRR  HZ EP        459 30.88                             150   -0.3310 76.9 314 
 BRR  HE ES        459 47.64                             150    0.0810 76.9 314 
 BRR  HZ I         459 49.03         4.9 0.12            149           76.9 314 
 PAM  EZ IP   9    459 32.03                             144   -1.26 0 97.4  36 
 PAM  EN ES        459 49.34                             147   -0.6510 97.4  36 
 PAM  EZ I         459 51.17         5.0 0.56            147           97.4  36 
 PTB  HZ EP        459 36.03                             132    0.10 9  138 266 
 PTB  HN ES        459 55.81                             132   -0.14 9  138 266 
 PTB  HZ I         459 58.81         1.9 0.09            133            138 266 
 ZAR  HZ EP        459 42.87                             121    0.32 8  206 298 
 ZAR  HN ES        5 0  7.61                             121   -0.13 8  206 298 
 ZAR  HZ I         5 0 13.76         3.2 0.36            122            206 298 
                                                                                
