 2014  715 0351 30.7 L   6.804 -73.119146.3  RSN 14 0.5 1.9LRSN                1
 GAP=186        1.13       4.1     5.6  7.1 -0.3878E-01  0.9533E+01  0.4280E+01E
 Epicentro: LOS SANTOS - SANTANDER                                             3
 ACTION:UPD 15-03-16 20:44 OP:nd   STATUS:               ID:20140715035130 L   I
 OLDACT:REG 14-07-15 12:54 OP:fm   STATUS:               ID:20140715034809     3
 2014-07-15-0348-09M.COL___259                                                 6
 STAT SP IPHASW D HRMM SECON CODA AMPLIT PERI AZIMU VELO AIN AR TRES W  DIS CAZ7
 BAR2 SZ EP        351 50.42                             170    0.0210 24.4 197 
 BAR2 SZ ES   1    352  6.18                             170    0.40 7 24.4 197 
 BAR2 SZ I         352  8.13        11.2 0.28            167           24.4 197 
 BRR  HZ EP        351 52.39                             152    0.3710 73.6 297 
 BRR  HN ES        352  9.49                             152    0.8210 73.6 297 
 BRR  HZ I         352 14.52         6.4 0.22            149           73.6 297 
 RUS  HZ EP   1    351 54.31                             144   -0.19 7  101 178 
 RUS  HN ES        352 12.36                             144   -0.7210  101 178 
 RUS  HZ I         352 16.35         4.0 0.22            146            101 178 
 PTB  HZ IP   1    351 57.47                             132   -0.49 7  151 259 
 PTB  HN ES        352 18.42                             132   -0.82 9  151 259 
 PTB  HZ I         352 24.42         9.8 0.40            131            151 259 
 OCA  HN ES   1    352 21.22                             130    0.08 7  160 352 
 SPBC HZ EP   1    351 59.14                             129   -0.29 7  165 220 
 SPBC HN ES        352 22.26                             129    0.41 9  165 220 
 SPBC HZ I         352 26.47        10.6 0.18            129            165 220 
 ZAR  HE ES        352 28.68                             122   -0.29 8  207 292 
 ZAR  HZ I         352 34.77         9.0 0.30            123            207 292 
 NOR  HZ EP   1    352  6.38                             118   -0.34 6  237 235 
 NOR  HN ES        352 34.44                             118   -0.39 8  237 235 
 NOR  HZ I         352 41.54         5.0 0.22            119            237 235 
 SML  HZ EP   1    352  6.69                             117   -0.74 6  245 335 
 SML  HE ES   4    352 34.25                             117   -1.85 0  245 335 
 SML  HZ I         352 40.11        10.2 0.10            119            245 335 
 HEL  HZ EP   1    352 12.21                             115    0.96 6  275 256 
 HEL  HN ES   1    352 42.23                             115   -0.66 6  275 256 
 HEL  HZ I         352 49.13         3.8 0.38            115            275 256 
 GUY2CHZ EP   1    352 14.77                             112    0.16 5  304 235 
 GUY2CHN ES   4    352 52.06                             112    3.19 0  304 235 
 GUY2CHZ I         352 57.21         4.7 0.74                           304 235 
 RREF HN ES   4    352 54.68                             111    1.32 0  324 230 
 TOL  SZ EP   1    352 19.84                             109    0.61 5  346 225 
 TOL  SN ES        352 58.02                             109    0.93 6  346 225 
 TOL  SZ I         353  4.38         8.5 0.44            111            346 225 
 PRA  HZ EP   1    352 24.77                             106    0.34 4  394 210 
 PRA  HN ES        353  6.94                             106    0.59 6  394 210 
 PRA  HZ I         353 12.15         3.4 0.34            108            394 210 
 SJC  HZ EP   4    352 24.66                             106   -1.75 0  410 327 
 SJC  HN ES   4    353  5.67                             106   -4.21 0  410 327 
 SJC  HZ I         353 11.54         1.5 0.48            107            410 327 
                                                                                
