 2011 1215 0017 44.3 L   6.759 -73.092148.0  RSN  5 0.2 1.6LRSN                1
 GAP=145        0.47       4.3     8.4  5.8  0.2160E+02 -0.1446E+02 -0.5191E+01E
 Epicentro: LOS SANTOS - SANTANDER                                             3
 ACTION:UPD 12-07-13 16:16 OP:ep   STATUS:               ID:20111215001744 L   I
 2011-12-15-0010-00M.COL___185                                                 6
 STAT SP IPHASW D HRMM SECON CODA AMPLIT PERI AZIMU VELO AIN AR TRES W  DIS CAZ7
 BAR2 SZ EP   1    018  3.79                             172   -0.37 7 21.0 209 
 BAR2 SZ I         018 20.69         5.5 0.21                          21.0 209 
 PAM  SZ EP   2    018  7.18                             151    0.41 5 77.5  34 
 BRR  HZ EP   1    018  6.08                             151   -0.05 7 78.6 299 
 BRR  HZ I         018 22.38        11.0 0.55                          78.6 299 
 BRR  HE ES   1    018 23.24                             151    0.09 7 78.6 299 
 RUS  HZ EP   1    018  7.82                             146   -0.12 7 95.8 179 
 RUS  HN ES        018 26.47                             146    0.0910 95.8 179 
 RUS  HZ I         018 28.30         3.3 0.65                          95.8 179 
 CHI  HZ EP   1    018 22.01                             118    0.17 6  246 197 
 CHI  HZ I         018 22.55         4.7 0.48                           246 197 
                                                                                
