 2012  615 0238 39.0 L   6.750 -73.159147.8  RSN  5 0.3 1.5LRSN                1
 GAP=137        0.59       4.5     4.1  6.5 -0.2791E+01  0.7381E+01 -0.2755E+01E
 Epicentro: LOS SANTOS - SANTANDER                                             3
 ACTION:UPD 12-08-06 17:49 OP:ep   STATUS:               ID:20120615023839 L   I
 2012-06-15-0230-00M.COL___200                                                 6
 STAT SP IPHASW D HRMM SECON CODA AMPLIT PERI AZIMU VELO AIN AR TRES W  DIS CAZ7
 BAR2 SZ EP   1    238 58.95                             173    0.16 7 17.6 189 
 BAR2 SZ ES   1    239 14.57                             173    0.36 7 17.6 189 
 BAR2 SZ I         239 15.94         8.2 0.28                          17.6 189 
 PAM  SZ EP   1    239  1.66                             149   -0.10 7 82.6  38 
 PAM  SN ES   1    239 19.27                             149   -0.23 7 82.6  38 
 RUS  HZ EP   1    239  2.63                             146    0.04 7 95.2 175 
 RUS  HN ES   1    239 20.94                             146   -0.03 7 95.2 175 
 RUS  HZ I         239 22.72         3.2 0.39                          95.2 175 
 PTB  HZ EP   1    239  6.02                             133    0.09 7  145 261 
 PTB  HN ES   1    239 26.35                             133   -0.58 7  145 261 
 PTB  HZ I         239 27.42         2.9 0.12                           145 261 
 ZAR  HN ES   2    239 37.85                             123    0.70 4  205 294 
 ZAR  HZ I         239 45.08         4.0 0.12                           205 294 
                                                                                
