 2010 1015 0625 10.8 L   7.460 -73.207140.0  RSN  5 0.3 1.8LRSN                1
 GAP=134        0.69       8.2     9.4  8.4 -0.5374E+02 -0.1417E+02  0.1141E+02E
 Epicentro: EL PLAYON - SANTANDER                                              3
 ACTION:UP  11-02-18 11:09 OP:tino STATUS:               ID:20101015062510 L   I
 2010-10-15-0622-41S.COL___128                                                 6
 STAT SP IPHASW D HRMM SECON CODA AMPLIT PERI AZIMU VELO SNR AR TRES W  DIS CAZ7
 GIR2 SZ EP   1    625 29.79                             163    -0.3 7   42 178 
 GUE  SZ EP        625 30.94                             159     0.210   51  37 
 GUE  SZ I         625 31.88         4.6 0.08                            51  37 
 GRA  SZ IP        625 31.29                             154     0.110   65  43 
 GRA  SZ ES   1    625 46.94                             154    -0.1 7   65  43 
 GRA  SZ I         625 48.63        35.8 0.30                            65  43 
 BRR  HZ EP        625 30.89                             153    -0.210   68 235 
 BRR  HN ES   1    625 47.38                             153     0.4 7   68 235 
 BRR  HZ I         625 48.63        13.5 0.11                            68 235 
 OCA  SZ EP   1    625 32.75                             146     0.2 7   87 352 
 OCA  SZ ES   2    625 49.09                             146    -0.4 5   87 352 
 OCA  SZ I         625 52.53         9.0 0.33                            87 352 
                                                                                
