 2013  615 0307 57.4 L   6.788 -73.147145.4  RSN  8 0.5 1.9LRSN                1
 GAP=183        0.88       3.3     6.4  6.9  0.1624E+01  0.1271E+02 -0.1641E+01E
 Epicentro: LOS SANTOS - SANTANDER                                             3
 ACTION:UPD 14-01-08 09:54 OP:ep   STATUS:               ID:20130615030757 L   I
 OLDACT:DUP 13-06-15 10:50 OP:mh   STATUS:               ID:20130615025960d    3
 2013-06-15-0259-59M.COL___261                                                 6
 STAT SP IPHASW D HRMM SECON CODA AMPLIT PERI AZIMU VELO AIN AR TRES W  DIS CAZ7
 BAR2 SZ EP   1    3 8 17.00                             171    0.04 7 22.0 190 
 BAR2 SZ ES   1    3 8 32.51                             171    0.30 7 22.0 190 
 BAR2 SZ I         3 8 33.67         7.9 0.46            167           22.0 190 
 BRR  HZ EP        3 8 18.93                             152    0.3910 71.8 300 
 BRR  HN ES   1    3 8 35.77                             152    0.74 7 71.8 300 
 BRR  HN I         3 8 36.62        18.1 0.32            146           71.8 300 
 RUS  HZ EP   1    3 8 21.22                             144    0.20 7 99.2 176 
 RUS  HE ES        3 8 38.95                             144   -0.4910 99.2 176 
 RUS  HE I         3 8 40.70         6.2 0.43            145           99.2 176 
 PTB  HZ EP   1    3 8 23.78                             132   -0.52 7  147 259 
 PTB  HN ES   1    3 8 44.99                             132   -0.30 7  147 259 
 PTB  HZ I         3 8 52.32         5.7 0.44            129            147 259 
 OCA  HN ES   1    3 8 47.52                             129   -0.44 7  162 353 
 OCA  HN I         3 8 51.14        28.4 0.18            129            162 353 
 NOR  HZ EP   1    3 8 33.59                             118    0.58 6  234 235 
 NOR  HN ES   1    3 9  0.20                             118   -0.59 6  234 235 
 NOR  HN I         3 9  6.14        11.1 0.14            117            234 235 
 SML  HZ EP   1    3 8 33.61                             117   -0.52 6  245 335 
 SML  HN ES        3 9  2.70                             117   -0.09 8  245 335 
 SML  HN I         3 9  9.48        13.1 0.10            117            245 335 
 PRA  HZ EP   1    3 8 51.36                             106    0.60 4  391 210 
 PRA  HN ES   1    3 9 33.01                             106    0.62 4  391 210 
 PRA  HN I         3 9 38.75         1.1 0.34            106            391 210 
                                                                                
