 2010  715 0328 12.5 L   6.782 -73.089148.0  RSN 16 0.5 3.0LRSN                1
 GAP=130        1.05       4.0     7.2  6.9 -0.1237E+02  0.6518E+01  0.2774E+01E
 Epicentro: LOS SANTOS - SANTANDER                                             3
 ACTION:UPD 10-12-01 15:17 OP:pat  STATUS:               ID:20100715032812 L   I
 2010-07-15-0323-57S.COL___120                                                 6
 STAT SP IPHASW D HRMM SECON CODA AMPLIT PERI AZIMU VELO AIN AR TRES W  DIS CAZ7
 BAR2 SZ IP        328 32.20                             171    -0.210   24 206 
 BAR2 SZ ES   1    328 47.51                             171    -0.5 7   24 206 
 BAR2 SZ I         328 49.97       170.9 0.19                            24 206 
 GIR2 SZ EP   1    328 33.31                             166     0.7 7   35 341 
 BRR  HZ IP     C  328 34.16                             151    -0.110   78 298 
 BRR  HZ I         328 34.44       176.1 0.19                            78 298 
 BRR  HE ES   1    328 51.66                             151     0.4 7   78 298 
 RUS  HZ IP     D  328 36.06                             145    -0.310   98 180 
 RUS  HN ES   1    328 55.00                             145     0.1 7   98 180 
 BRI  SZ IP        328 36.79                             142     0.210  108  17 
 BRI  SZ ES   2    328 54.96                             142    -0.5 5  108  17 
 BRI  SZ I         329  2.06        67.9 0.71                           108  17 
 GUE  SZ EP   1    328 38.26                             140     0.7 7  117   9 
 GRA  SZ IP        328 38.03                             137     0.010  126  14 
 GRA  SZ ES   1    328 58.31                             137     0.5 7  126  14 
 GRA  SZ I         328 59.35       104.0 0.38                           126  14 
 OCA  SZ EP        328 40.59                             130    -0.7 9  163 351 
 OCA  SZ ES   1    329  3.49                             130    -0.2 7  163 351 
 OCA  SZ I         329  9.10        67.2 0.43                           163 351 
 ROSC BZ IP     C  328 51.98                             117     1.0 8  254 212 
 ROSC BZ I         329 30.41        46.4 0.42                           254 212 
 CVER SZ EP   2    328 53.37                             115     0.3 4  273 204 
 CVER SZ ES   2    329 24.47                             115    -0.2 4  273 204 
 CVER SZ I         329 36.22        45.7 0.40                           273 204 
 HEL  HZ EP   2    328 53.85                             115     0.4 4  278 257 
 HEL  HN ES   2    329 24.46                             115    -1.0 4  278 257 
 HEL  HZ I         329 30.89        43.7 0.29                           278 257 
 GUY  SZ EP   2    328 57.54                             112     0.8 4  305 236 
 GUY  SE ES   2    329 31.39                             112     0.2 4  305 236 
 GUY  SZ I         329 39.67       127.3 0.45                           305 236 
 RREF HZ EP   1    328 59.34                             111     0.2 5  325 230 
 RREF HN ES   2    329 35.74                             111     0.2 3  325 230 
 RREF HZ I         329 44.77        56.0 0.32                           325 230 
 DBB  SZ EP   2    329  0.05                             109    -0.8 3  346 274 
 SDV  BZ EP   2    329  1.43                             109    -0.8 3  357  49 
 PRA  HZ IP     D  329  5.66                             107    -0.6 6  393 211 
 PRA  HE ES   2    329 47.59                             107    -0.7 3  393 211 
 PRA  HZ I         329 51.67        36.5 0.52                           393 211 
                                                                                
