 2015 1015 0157 14.5 L   6.908 -73.199127.6  RSN  7 0.3 1.5LRSN                1
 GAP=179        0.85       2.4     5.4  5.3 -0.5360E+00  0.6892E+01 -0.1416E+01E
 Epicentro: BETULIA - SANTANDER                                                3
 ACTION:UPD 15-12-22 20:40 OP:cam  STATUS:               ID:20151015015714 L   I
 OLDACT:UP  15-10-15 15:20 OP:ak   STATUS:               ID:20151015014746     3
 OLDACT:REG 15-10-15 14:09 OP:ak   STATUS:               ID:20151015014746     3
 2015-10-15-0147-46M.COL___340                                                 6
 STAT SP IPHASW D HRMM SECON CODA AMPLIT PERI AZIMU VELO AIN AR TRES W  DIS CAZ7
 BAR2 EZ EP        157 32.70                             164    0.4110 35.0 177 
 BAR2 EZ ES        157 46.23                             164    0.0710 35.0 177 
 BAR2 EZ I         157 47.81        16.9 0.30            165           35.0 177 
 BRR  HZ EP        157 33.11                             153   -0.0010 60.8 291 
 BRR  HN ES        157 48.06                             153    0.4410 60.8 291 
 BRR  HZ I         157 49.26         6.1 0.13            150           60.8 291 
 RUS  HZ EP        157 37.67                             136    0.1310  113 173 
 RUS  HE ES        157 54.85                             136   -0.6510  113 173 
 RUS  HZ I         157 56.62         2.9 0.26            138            113 173 
 OCA  HZ EP        157 40.42                             128    0.17 9  148 355 
 OCA  HE ES        158  0.23                             128   -0.09 9  148 355 
 SPBC HZ EP        157 42.21                             123   -0.08 9  169 215 
 SPBC HN ES        158  3.83                             123   -0.13 9  169 215 
 SPBC HZ I         158  8.21         2.5 0.14            124            169 215 
 SML  HZ EP        157 48.75                             115    0.05 8  230 335 
 SML  HE ES        158 14.62                             115   -0.75 8  230 335 
 SML  HZ I         158 23.84         6.5 0.09            115            230 335 
 GUY2CHZ EP        157 58.09                             108    0.47 7  304 232 
 GUY2CHN ES        158 31.09                             108   -0.15 7  304 232 
 GUY2CHZ I         158 35.66         1.4 0.30                           304 232 
                                                                                
