 2013 1215 0653 40.9 L   6.776 -73.203159.4  RSN  5 0.5 1.1LRSN                1
 GAP=197        1.01      11.6     9.8 12.5  0.3530E+02  0.1384E+02 -0.3387E+02E
 Epicentro: ZAPATOCA - SANTANDER                                               3
 ACTION:UPD 14-01-13 10:18 OP:ep   STATUS:               ID:20131215065340 L   I
 OLDACT:REG 13-12-15 07:19 OP:jn   STATUS:               ID:20131215065000     3
 2013-12-15-0650-00M.COL___285                                                 6
 STAT SP IPHASW D HRMM SECON CODA AMPLIT PERI AZIMU VELO AIN AR TRES W  DIS CAZ7
 BAR2 SZ EP   1    654  2.16                             173    0.07 7 20.4 173 
 BAR2 SZ ES        654 18.02                             173   -0.6210 20.4 173 
 BRR  HZ EP   1    654  3.96                             155    0.67 7 67.1 303 
 BRR  HN ES        654 21.25                             155    0.4610 67.1 303 
 BRR  HZ I         654 24.90         2.2 0.50            149           67.1 303 
 PTB  HN ES   1    654 29.81                             136   -0.06 7  141 259 
 PTB  HZ I         654 37.26         1.7 0.42            130            141 259 
 ZAR  HN ES   2    654 38.61                             125   -0.80 4  199 294 
 SML  HN ES   2    654 46.91                             119   -0.54 4  244 337 
                                                                                
