 2010  715 0117 23.5 L   6.792 -73.053140.1  RSN 10 0.3 2.2LRSN                1
 GAP=167        0.83       3.5     6.3  6.5 -0.8159E+01  0.2973E+01 -0.9708E+00E
 Epicentro: LOS SANTOS - SANTANDER                                             3
 ACTION:UPD 10-12-01 15:17 OP:pat  STATUS:               ID:20100715011723 L   I
 2010-07-15-0114-13S.COL___120                                                 6
 STAT SP IPHASW D HRMM SECON CODA AMPLIT PERI AZIMU VELO AIN AR TRES W  DIS CAZ7
 BAR2 SZ IP        117 42.66                             169     0.110   26 213 
 BAR2 SZ ES   1    117 57.15                             169    -0.2 7   26 213 
 BAR2 SZ I         117 58.75        48.8 0.34                            26 213 
 GIR2 SZ EP   1    117 42.81                             165     0.2 7   35 334 
 BRR  HZ IP     D  117 44.61                             148     0.010   81 296 
 BRR  HZ I         117 44.99        44.4 0.10                            81 296 
 BRR  HE ES   1    118  1.48                             148     0.4 7   81 296 
 RUS  HZ EP   1    117 46.34                             143    -0.3 7  100 182 
 RUS  HN ES   1    118  4.58                             143    -0.1 7  100 182 
 RUS  HZ I         118  6.95        14.4 0.47                           100 182 
 BRI  SZ IP        117 47.34                             141     0.710  106  15 
 BRI  SZ I         118 11.08        22.7 0.64                           106  15 
 GRA  SZ IP        117 47.59                             136    -0.510  124  13 
 GRA  SZ ES        118  7.26                             136     0.010  124  13 
 GRA  SZ I         118  8.15        18.9 0.35                           124  13 
 OCA  SZ IP   1    117 51.43                             128    -0.2 7  163 350 
 OCA  SZ ES   1    118 13.23                             128    -0.3 7  163 350 
 OCA  SZ I         118 16.65        23.8 0.20                           163 350 
 HEL  HZ EP   2    118  4.65                             113     0.1 4  282 256 
 HEL  HE ES   2    118 35.64                             113    -0.9 4  282 256 
 HEL  HZ I         118 41.31         6.5 0.48                           282 256 
 RREF HZ EP   2    118 10.70                             109     0.4 3  329 231 
 RREF HE ES   2    118 47.18                             109     0.5 3  329 231 
 RREF HZ I         118 55.84         5.3 0.35                           329 231 
 PRA  HZ EP   2    118 17.14                             105    -0.2 3  396 211 
 PRA  HE ES   2    118 59.47                             105     0.1 3  396 211 
 PRA  HZ I         119  4.24         3.3 0.21                           396 211 
                                                                                
