 2013  615 0305 52.8 L   6.825 -73.196140.7  RSN  5 0.3 1.7LRSN                1
 GAP=197        0.63       3.6     5.8  6.2  0.8988E+01  0.6534E+01 -0.4416E+01E
 Epicentro: ZAPATOCA - SANTANDER                                               3
 ACTION:UPD 14-01-08 09:54 OP:ep   STATUS:               ID:20130615030552 L   I
 OLDACT:UP  13-06-15 10:57 OP:mh   STATUS:               ID:20130615025959     3
 OLDACT:REG 13-06-15 07:24 OP:mh   STATUS:               ID:20130615025959     3
 2013-06-15-0259-59M.COL___261                                                 6
 STAT SP IPHASW D HRMM SECON CODA AMPLIT PERI AZIMU VELO AIN AR TRES W  DIS CAZ7
 BAR2 SZ EP   1    3 6 11.67                             169   -0.16 7 25.8 177 
 BAR2 SZ ES   1    3 6 26.96                             169    0.26 7 25.8 177 
 BAR2 SZ I         3 6 28.49         3.8 0.28            170           25.8 177 
 BRR  HZ EP   1    3 6 13.45                             154    0.44 7 65.0 299 
 BRR  HN ES        3 6 28.47                             154   -0.3310 65.0 299 
 BRR  HN I         3 6 36.30        12.4 0.22            150           65.0 299 
 RUS  HE ES        3 6 34.60                             142    0.0210  104 173 
 RUS  HE I         3 6 35.24         5.9 0.50            148            104 173 
 PTB  HZ EP        3 6 18.61                             132   -0.25 9  143 257 
 PTB  HN ES   1    3 6 39.57                             132    0.35 7  143 257 
 PTB  HN I         3 6 45.08         7.3 0.58            132            143 257 
 SML  HN ES        3 6 56.62                             117    0.10 8  239 336 
 SML  HN I         3 7  2.04         9.5 0.10            120            239 336 
                                                                                
