 2014 1115 0612 27.3 L   6.781 -73.145140.3  RSN 15 0.6 2.3LRSN                1
 GAP= 66        1.45       4.0     4.3  6.9 -0.4097E+01  0.6390E+01  0.6177E+01E
 Epicentro: LOS SANTOS - SANTANDER                                             3
 ACTION:UPD 14-12-19 15:43 OP:nd   STATUS:               ID:20141115061227 L   I
 OLDACT:REG 14-11-15 14:24 OP:stll STATUS:               ID:20141115060746     3
 2014-11-15-0607-46M.COL___283                                                 6
 STAT SP IPHASW D HRMM SECON CODA AMPLIT PERI AZIMU VELO AIN AR TRES W  DIS CAZ7
 BAR2 SZ EP        612 46.45                             171    0.1710 21.3 191 
 BAR2 SZ ES        613  1.32                             171    0.2710 21.3 191 
 BAR2 SZ I         613  2.37        63.5 0.26            170           21.3 191 
 BRR  HZ IP     C  612 48.35                             151    0.3810 72.3 300 
 BRR  HN ES        613  5.03                             151    0.9710 72.3 300 
 BRR  HZ I         613  6.96        38.4 0.14            150           72.3 300 
 PAM  SZ EP     C  612 49.27                             149    0.1910 78.9  39 
 PAM  SN ES        613  5.25                             149   -0.7810 78.9  39 
 PAM  SZ I         613  8.44        41.1 0.50            151           78.9  39 
 RUS  HZ IP     C  612 50.47                             143    0.0610 98.5 176 
 RUS  HZ I         612 51.15        20.5 0.10            144           98.5 176 
 RUS  HN ES        613  8.96                             143    0.5610 98.5 176 
 PTB  HZ EP        612 53.46                             131   -0.38 9  147 260 
 PTB  HN ES        613 13.42                             131   -1.09 9  147 260 
 PTB  HZ I         613 16.35        29.5 0.16            130            147 260 
 TAM  HZ IP     C  612 54.87                             129    0.34 9  154 104 
 TAM  HZ I         612 54.94        36.8 0.20            131            154 104 
 TAM  HN ES        613 15.26                             129   -0.48 9  154 104 
 OCA  HZ EP        612 54.89                             128   -0.54 9  162 353 
 OCA  HE ES        613 17.42                             128    0.07 9  162 353 
 OCA  HZ I         613 21.41        27.3 0.22            129            162 353 
 SPBC HZ EP        612 55.47                             128    0.19 9  162 219 
 SPBC HN ES        613 17.03                             128   -0.04 9  162 219 
 SPBC HZ I         613 18.93        33.8 0.12            128            162 219 
 NOR  HZ IP     C  613  2.95                             117    0.31 8  234 235 
 NOR  HN ES        613 30.26                             117    0.09 8  234 235 
 NOR  HZ I         613 37.07        14.7 0.16            117            234 235 
 CHI  HZ EP        613  4.06                             116   -0.46 8  247 195 
 CHI  HN ES        613 32.50                             116   -1.03 8  247 195 
 CHI  HZ I         613 40.06         6.8 0.34            117            247 195 
 PTGC HZ EP   9    613  9.73                             111   -1.00 0  307 159 
 PTGC HZ I         613 10.10        15.5 0.22            111            307 159 
 PTGC HN ES        613 42.36                                   -1.21 7  307 159 
 CBOC HZ EP        613 14.12                             109    0.15 7  333 252 
 CBOC HZ I         613 19.47         3.0 0.18            109            333 252 
 CBOC HN ES        613 48.63                             109   -1.72 7  333 252 
 TOL  SZ EP        613 16.28                             108    1.06 7  342 225 
 TOL  SN ES        613 53.33                             108    0.77 7  342 225 
 PRA  HZ EP        613 20.31                             106   -0.16 6  390 210 
 PRA  HN ES        614  1.73                             106   -0.18 6  390 210 
 PRA  HZ I         614  8.24        10.5 0.38            106            390 210 
 ORTC HZ EP        613 21.46                             105    0.57 6  394 216 
 ORTC HN ES        614  3.69                             105    1.04 6  394 216 
 ORTC HZ I         614  8.56         6.5 0.52            106            394 216 
                                                                                
