 2015 1015 0137 45.7 L   6.782 -73.111147.9  RSN 21 0.6 2.5LRSN                1
 GAP=123        1.13       2.9     4.5  6.3 -0.4528E+00  0.5094E+01  0.4724E+01E
 Epicentro: LOS SANTOS - SANTANDER                                             3
 ACTION:UPD 15-12-22 20:40 OP:cam  STATUS:               ID:20151015013745 L   I
 OLDACT:DUP 15-10-15 14:37 OP:mher STATUS:               ID:20151015012749d    3
 2015-10-15-0127-48M.COL___340                                                 6
 STAT SP IPHASW D HRMM SECON CODA AMPLIT PERI AZIMU VELO AIN AR TRES W  DIS CAZ7
 BAR2 EZ EP     C  138  5.86                             171    0.2610 22.4 200 
 BAR2 EZ ES        138 20.87                             171   -0.2210 22.4 200 
 BAR2 EZ I         138 22.25        92.2 0.16            165           22.4 200 
 BRR  HZ EP        138  7.65                             151    0.3010 75.5 298 
 BRR  HN ES        138 24.44                             151    0.2210 75.5 298 
 BRR  HZ I         138 25.83        31.7 0.16            144           75.5 298 
 PAM  EZ EP   1    138  8.61                             151    0.49 7 76.6  36 
 PAM  EN ES        138 25.89                             151    0.3010 76.6  36 
 RUS  HZ EP        138  9.82                             145    0.2910 98.4 178 
 RUS  HE ES        138 28.03                             145   -0.0710 98.4 178 
 RUS  HZ I         138 29.65        21.2 0.26            142           98.4 178 
 TAM  HN ES   4    138 35.77                             132    1.16 0  151 105 
 OCA  HZ EP   1    138 14.27                             130   -0.16 7  163 352 
 OCA  HN ES        138 36.55                             130   -0.27 9  163 352 
 OCA  HZ I         138 38.90        66.4 0.22            127            163 352 
 SPBC HZ EP        138 14.81                             129    0.34 9  164 220 
 SPBC HN ES        138 36.43                             129   -0.47 9  164 220 
 ZAR  HN ES   2    138 43.78                             122   -0.73 4  208 292 
 ZAR  HZ I         138 52.51        23.3 0.20            118            208 292 
 NOR  HZ EP        138 22.21                             119    0.42 8  237 235 
 NOR  HN ES        138 49.09                             119   -0.83 8  237 235 
 NOR  HZ I         138 55.53        23.5 0.48            115            237 235 
 SML  HN ES        138 50.97                             117   -0.82 8  247 335 
 SML  HN I         138 59.03        78.6 0.10            115            247 335 
 CHI  HZ EP   1    138 23.84                             118    0.39 6  248 196 
 CHI  HN ES        138 53.88                             118    1.01 8  248 196 
 CHI  HZ I         139  0.30        12.2 0.44            115            248 196 
 ROSC BZ EP   4    138 25.82                             117    1.83 0  253 212 
 ROSC BE ES   2    138 53.85                             117    0.01 4  253 212 
 ROSC BZ I         139  3.52        31.2 0.40            114            253 212 
 HEL  HN ES        138 58.29                             115    0.16 8  275 256 
 HEL  HZ I         139  6.63        11.5 0.42            111            275 256 
 URE  HE ES   4    138 56.72                             114   -3.14 0  288 292 
 URE  HZ I         139  6.51        15.5 0.15            110            288 292 
 VIL  SN ES   2    139  2.89                             112   -0.06 4  302 192 
 GUY2CHE ES   2    139  4.48                             112    0.56 4  303 235 
 GUY2CHZ I         139 12.32        25.1 0.34                           303 235 
 PTGC HZ EP        138 28.99                             112   -0.32 7  305 159 
 PTGC HN ES        139  1.55                             112   -1.76 7  305 159 
 PTGC HZ I         139  5.21        22.4 0.42            111            305 159 
 ELA  HN ES   4    139  9.81                             110    0.20 0  331 230 
 ELA  HZ I         139 15.86         9.1 0.66            108            331 230 
 DBB  SZ ES   4    139  9.30                             110   -1.89 0  343 275 
 DBB  SZ I         139 12.47        35.1 0.62            107            343 275 
 ANIL HZ IP   4    139  1.87                             109   26.11 0  359 225 
 ANIL HN ES   4    139 15.49                             109    0.71 0  359 225 
 ANIL HZ I         139 26.54        25.5 0.38            106            359 225 
 ORTC HZ EP   2    138 40.31                             107    0.51 3  396 217 
 ORTC HN ES   2    139 22.56                             107    0.59 3  396 217 
 ORTC HZ I         139 30.12        12.2 0.40            105            396 217 
 SJC  HZ EP   4    138 40.13                             106   -1.67 0  413 327 
 SJC  HE ES   4    139 21.31                             106   -4.22 0  413 327 
 SJC  HZ I         139 30.47         2.8 0.28            104            413 327 
                                                                                
