 2012  215 0423  2.2 L   6.845 -73.318128.5  RSN  7 0.3 1.7LRSN                1
 GAP=100        0.49       3.9     3.3  5.0  0.2062E+01  0.3029E+01  0.4010E+01E
 ACTION:UP  12-03-07 16:30 OP:epov STATUS:               ID:20120215042302 L   I
 2012-02-15-0420-00M.COL___188                                                 6
 STAT SP IPHASW D HRMM SECON CODA AMPLIT PERI AZIMU VELO AIN AR TRES W  DIS CAZ7
 GIR2 SZ EP        423 19.70                             167   -0.0410 29.3  28 
 GIR2 SZ ES   2    423 32.87                             167   -0.57 5 29.3  28 
 BAR2 SZ EP   1    423 20.12                             165    0.17 7 31.7 152 
 BAR2 SZ ES   2    423 33.73                             165   -0.09 5 31.7 152 
 BAR2 SZ I         423 34.31        23.0 0.22                          31.7 152 
 BRR  HZ EP   1    423 20.54                             157    0.12 7 52.3 304 
 BRR  HE ES   1    423 34.64                             157   -0.02 7 52.3 304 
 BRR  HZ I         423 35.32        13.5 0.18                          52.3 304 
 PAM  SZ EP   2    423 23.22                             144   -0.06 5 87.5  51 
 PAM  SN ES   2    423 40.14                             144    0.40 5 87.5  51 
 RUS  HZ EP   1    423 25.01                             138    0.11 7  108 166 
 RUS  HZ I         423 42.45         4.5 0.68                           108 166 
 RUS  HN ES   2    423 42.68                             138    0.06 5  108 166 
 PTB  HZ EP   1    423 25.63                             132   -0.52 7  130 255 
 PTB  HN ES   2    423 45.43                             132    0.58 5  130 255 
 ZAR  HZ EP   2    423 31.35                             121   -0.14 4  185 293 
 ZAR  HN ES   2    423 54.64                             121    0.29 4  185 293 
 ZAR  HZ I         423 58.65         5.2 0.33                           185 293 
                                                                                
