 2012  615 0712 59.2 L   6.791 -73.148147.7  RSN  7 0.3 1.5LRSN                1
 GAP=137        0.57       3.2     3.9  5.7 -0.1517E+01  0.9000E+01 -0.1310E+01E
 Epicentro: LOS SANTOS - SANTANDER                                             3
 ACTION:UPD 12-08-06 17:49 OP:ep   STATUS:               ID:20120615071259 L   I
 2012-06-15-0710-00M.COL___200                                                 6
 STAT SP IPHASW D HRMM SECON CODA AMPLIT PERI AZIMU VELO AIN AR TRES W  DIS CAZ7
 BAR2 SZ EP   1    713 19.11                             171    0.07 7 22.3 190 
 BAR2 SZ ES   1    713 34.97                             171    0.45 7 22.3 190 
 BAR2 SZ I         713 36.16         7.3 0.35                          22.3 190 
 PAM  SZ EP   1    713 21.70                             151    0.03 7 78.3  39 
 PAM  SN ES   1    713 38.71                             151   -0.49 7 78.3  39 
 RUS  HZ EP   1    713 22.99                             144   -0.08 7 99.6 176 
 RUS  HE ES   1    713 41.71                             144    0.02 7 99.6 176 
 RUS  HZ I         713 45.18         2.6 0.39                          99.6 176 
 PTB  HZ EP   1    713 25.95                             132   -0.33 7  147 259 
 PTB  HN ES   1    713 47.11                             132   -0.30 7  147 259 
 PTB  HZ I         713 53.00         3.6 0.26                           147 259 
 OCA  HN ES   1    713 50.34                             130    0.33 7  161 353 
 ZAR  HZ EP   2    713 31.94                             123    0.16 4  204 292 
 ZAR  HE ES   2    713 57.12                             123   -0.08 4  204 292 
 ZAR  HZ I         714  3.54         5.3 0.23                           204 292 
 HEL  HZ EP   1    713 39.89                             115    0.44 6  272 256 
                                                                                
