 2017 1115 0425 26.2 L   6.779 -73.163142.8  RSN  4 0.4 1.4LRSN                1
 GAP=135        0.98       5.3     5.0  8.7 -0.2985E+01  0.3892E+01  0.6397E+01E
 Epicentro: LOS SANTOS - SANTANDER                                             3
 ACTION:UPD 17-12-12 19:55 OP:rebc STATUS:               ID:20171115042526 L   I
 OLDACT:DUP 17-11-15 17:00 OP:leo  STATUS:               ID:20171115041735d    3
 2017-11-15-0418-00M.COL___453                                                 6
 STAT SP IPHASW D HRMM SECON CODA AMPLIT PERI AZIMU VELO AIN AR TRES W  DIS CAZ7
 BRR  HZ EP        425 47.19                             152    0.2210 70.7 301 
 BRR  HN ES        426  3.63                             152    0.4410 70.7 301 
 BRR  HZ I         426  8.26         6.7 0.12            152           70.7 301 
 PAM  EZ EP        425 48.30                             149    0.0510 80.4  40 
 PAM  EN ES        426  5.10                             149   -0.3810 80.4  40 
 PAM  EZ I         426  7.23         3.8 0.34            152           80.4  40 
 RUS  HZ EP        425 50.02                             144    0.5510 98.4 175 
 RUS  HN ES        426  7.46                             144   -0.1910 98.4 175 
 RUS  HZ I         426  8.53         5.0 0.24            148           98.4 175 
 PTB  HZ EP        425 52.06                             132   -0.63 9  145 260 
 PTB  HN ES        426 13.20                             132   -0.16 9  145 260 
 PTB  HZ I         426 15.90         3.0 0.46            134            145 260 
                                                                                
