 2017  215 0021  5.7 L   6.771 -73.145144.3  RSN  4 0.4 1.2LRSN                1
 GAP=138        0.86       5.4     5.4  8.5  0.5578E+01 -0.8616E+01 -0.6309E+01E
 Epicentro: LOS SANTOS - SANTANDER                                             3
 ACTION:UPD 17-05-24 15:36 OP:jn   STATUS:               ID:20170215001012dL   I
 OLDACT:UP  17-02-15 13:43 OP:dani STATUS:               ID:20170215001012dL   3
 OLDACT:UP  17-02-15 13:42 OP:dani STATUS:               ID:20170215001012dL   3
 OLDACT:UP  17-02-15 13:42 OP:dani STATUS:               ID:20170215001012dL   3
 OLDACT:DUP 17-02-15 13:28 OP:dani STATUS:               ID:20170215001012dL   3
 OLDACT:UP  17-02-15 13:27 OP:dani STATUS:               ID:20170215001011 L   3
 OLDACT:UP  17-02-15 13:26 OP:dani STATUS:               ID:20170215001011 L   3
 OLDACT:UP  17-02-15 13:26 OP:dani STATUS:               ID:20170215001011 L   3
 OLDACT:UP  17-02-15 13:24 OP:dani STATUS:               ID:20170215001011 L   3
 OLDACT:UP  17-02-15 13:24 OP:dani STATUS:               ID:20170215001011 L   3
 OLDACT:UP  17-02-15 13:24 OP:dani STATUS:               ID:20170215001011 L   3
 OLDACT:UPD 17-02-15 12:31 OP:edw  STATUS:               ID:20170215001011 L   3
 2017-02-15-0018-00M.COL___367                                                 6
 STAT SP IPHASW D HRMM SECON CODA AMPLIT PERI AZIMU VELO AIN AR TRES W  DIS CAZ7
 BRR  HZ EP        021 26.73                             152   -0.0210 72.9 301 
 BRR  HE ES        021 43.75                             152    0.5610 72.9 301 
 BRR  HZ I         021 47.00         5.9 0.27            152           72.9 301 
 PAM  EZ EP        021 27.80                             150   -0.0710 79.8  38 
 PAM  EE ES   3    021 43.38                             150   -1.81 2 79.8  38 
 PAM  EZ I         021 47.25         4.1 0.68            153           79.8  38 
 RUS  HZ EP        021 29.20                             145    0.1710 97.3 176 
 RUS  HE ES        021 47.31                             145    0.0510 97.3 176 
 RUS  HZ I         021 48.44         1.4 0.29            149           97.3 176 
 PTB  HZ EP        021 32.33                             133   -0.13 9  147 260 
 PTB  HE ES        021 52.84                             133   -0.53 9  147 260 
 PTB  HZ I         021 58.19         1.3 0.19            134            147 260 
                                                                                
