 2010  315 0346 21.3 L   6.799 -73.026151.4  RSN  7 0.3 1.9LRSN                1
 GAP=195        0.50       3.3     7.9  6.1  0.2515E+01  0.7096E+01 -0.1932E+01E
 Epicentro: CEPITA - SANTANDER                                                 3
 ACTION:UP  10-08-24 09:54 OP:vdl  STATUS:               ID:20100315034621 L   I
 2010-03-15-0343-32S.COL___095                                                 6
 STAT SP IPHASW D HRMM SECON CODA AMPLIT PERI AZIMU VELO SNR AR TRES W  DIS CAZ7
 BAR2 SZ IP        346 41.70                             169    -0.110   29 217 
 BRR  HZ EP   1    346 43.63                             150    -0.2 7   83 294 
 BRR  HN ES   2    347  1.30                             150     0.0 5   83 294 
 BRR  HZ I         347  5.17        12.3 0.19                            83 294 
 RUS  HZ EP   1    346 45.64                             145     0.0 7  100 184 
 RUS  HE ES   1    347  4.52                             145    -0.1 7  100 184 
 RUS  HZ I         347  5.21         5.8 0.33                           100 184 
 OCA  SZ EP   1    346 50.52                             130     0.2 7  162 349 
 OCA  SZ I         347 16.46        20.8 0.25                           162 349 
 CHI  HZ EP   2    346 59.77                             118     0.0 4  252 198 
 CHI  HN ES   2    347 30.54                             118     0.8 4  252 198 
 CHI  HZ I         347 34.90         2.6 0.28                           252 198 
 HEL  HZ EP   2    347  3.47                             115     0.2 4  285 256 
 HEL  HZ I         347 41.36         4.4 0.48                           285 256 
 PRA  HZ EP   1    347 15.35                             107    -0.5 4  399 211 
 PRA  HN ES   2    347 58.08                             107    -0.2 3  399 211 
 PRA  HZ I         348  5.98         3.4 0.39                           399 211 
                                                                                
