 2010  715 0412 56.7 L   6.372 -74.062100.0  RSN  4 0.0 1.6LRSN                1
 GAP=282        0.30       5.3    10.6  0.0  0.4708E+02  0.4640E+03  0.1301E+03E
 Epicentro: SANTA HELENA DEL OPON - SANTANDER                                  3
 ACTION:UPD 10-12-01 15:17 OP:pat  STATUS:               ID:20100715041256 L   I
 2010-07-15-0408-39S.COL___120                                                 6
 STAT SP IPHASW D HRMM SECON CODA AMPLIT PERI AZIMU VELO AIN AR TRES W  DIS CAZ7
 BRR  HZ IP     C  413 14.49                             136             90  25 
 BRR  HZ I         413 14.81         9.7 0.09                            90  25 
 BRR  HN ES   1    413 28.76                             136             90  25 
 BAR2 SZ EP        413 13.49                                            100  76 
 BAR2 SZ ES   1    413 26.32                             145            100  76 
 BAR2 SZ I         413 27.41        27.1 0.13                           100  76 
 RUS  HZ EP   1    413 15.35                             137     0.0 9  121 116 
 RUS  HZ I         413 15.84         3.7 0.31                           121 116 
 RUS  HE ES   2    413 29.93                             137     0.0 6  121 116 
 GUE  SZ EP        413 25.49                             113     0.010  204  38 
 GUE  SZ I         413 26.03         3.3 0.07                           204  38 
                                                                                
