 2017 1215 0747 47.4 L   6.792 -73.141148.1  RSN  5 0.2 1.4LRSN                1
 GAP=259        0.42       2.7     2.7  3.8  0.1555E+00  0.3185E+01 -0.1197E+01E
 Epicentro: LOS SANTOS - SANTANDER                                             3
 ACTION:UPD 18-01-04 13:20 OP:rebc STATUS:               ID:20171215074747 L   I
 OLDACT:REG 17-12-15 12:51 OP:edw  STATUS:               ID:20171215073744     3
 2017-12-15-0738-00M.COL___473                                                 6
 STAT SP IPHASW D HRMM SECON CODA AMPLIT PERI AZIMU VELO AIN AR TRES W  DIS CAZ7
 BAR2 EZ EP        748  7.37                             171    0.0810 22.6 192 
 BAR2 EZ ES        748 22.81                             171    0.0010 22.6 192 
 BAR2 EZ I         748 26.34         3.8 0.40            172           22.6 192 
 PTB  HZ EP   2    748 14.23                             132   -0.35 5  148 259 
 PTB  HE ES        748 35.60                             132   -0.19 9  148 259 
 PTB  HZ I         748 36.91         2.0 0.36            135            148 259 
 SPBC HZ EP        748 16.14                             130    0.10 9  163 219 
 SPBC HN ES        748 38.27                             130   -0.11 9  163 219 
 SPBC HZ I         748 41.48         4.2 0.24            132            163 219 
 ZAR  HZ EP        748 19.93                             123   -0.15 9  205 292 
 ZAR  HN ES        748 45.75                             123    0.18 9  205 292 
 ZAR  HZ I         748 48.36         2.8 0.38            125            205 292 
 NOR  HE ES        748 51.44                             119    0.22 8  235 235 
                                                                                
