 2013 1215 0651  6.5 L   6.772 -73.158147.4  RSN  6 0.5 1.4LRSN                1
 GAP=194        0.93       6.2     6.8  8.2 -0.2608E+01  0.6822E+01 -0.1312E+02E
 Epicentro: LOS SANTOS - SANTANDER                                             3
 ACTION:UPD 14-01-13 10:18 OP:ep   STATUS:               ID:20131215065106 L   I
 OLDACT:REG 13-12-15 07:19 OP:jn   STATUS:               ID:20131215065000     3
 2013-12-15-0650-00M.COL___285                                                 6
 STAT SP IPHASW D HRMM SECON CODA AMPLIT PERI AZIMU VELO AIN AR TRES W  DIS CAZ7
 BAR2 SZ EP        651 26.29                             172    0.0510 20.1 188 
 BAR2 SZ ES        651 41.69                             172    0.0310 20.1 188 
 BAR2 SZ I         651 43.31         7.3 0.26            174           20.1 188 
 BRR  HZ EP   1    651 28.33                             153    0.51 7 71.5 301 
 BRR  HN ES        651 44.88                             153    0.4210 71.5 301 
 BRR  HZ I         651 51.77         4.1 0.64            152           71.5 301 
 PTB  HZ EP   1    651 33.40                             133   -0.00 7  146 260 
 PTB  HN ES        651 53.84                             133   -0.56 9  146 260 
 PTB  HZ I         651 56.73         2.7 0.34            135            146 260 
 OCA  HN ES   1    651 56.62                             130   -0.96 7  163 354 
 ZAR  HN ES   2    652  4.77                             123    0.37 4  204 293 
 SML  HZ EP   1    651 43.30                             118   -0.13 6  246 336 
 SML  HN ES   2    652 13.11                             118    0.85 4  246 336 
                                                                                
