 2017  115 0623 51.3 L   6.735 -73.080145.9  RSN 12 0.3 1.7LRSN                1
 GAP=127        0.97       3.3     3.6  5.1  0.1539E+01  0.3596E+01  0.5071E+01E
 Epicentro: JORDAN - SANTANDER                                                 3
 ACTION:UPD 17-05-22 15:59 OP:jn   STATUS:               ID:20170115062351 L   I
 OLDACT:UP  17-01-15 15:58 OP:e    STATUS:               ID:20170115061748d    3
 OLDACT:UP  17-01-15 15:56 OP:e    STATUS:               ID:20170115061748d    3
 OLDACT:UP  17-01-15 15:55 OP:e    STATUS:               ID:20170115061748d    3
 OLDACT:DUP 17-01-15 15:53 OP:e    STATUS:               ID:20170115061748d    3
 OLDACT:UP  17-01-15 15:53 OP:e    STATUS:               ID:20170115061747d    3
 OLDACT:DUP 17-01-15 15:51 OP:e    STATUS:               ID:20170115061747d    3
 OLDACT:UP  17-01-15 15:50 OP:e    STATUS:               ID:20170115061746     3
 OLDACT:REG 17-01-15 12:47 OP:and  STATUS:               ID:20170115061746     3
 2017-01-15-0618-00M.COL___335                                                 6
 STAT SP IPHASW D HRMM SECON CODA AMPLIT PERI AZIMU VELO AIN AR TRES W  DIS CAZ7
 BAR2 EZ EP        624 10.86                             172    0.0310 19.4 216 
 BAR2 EZ ES        624 26.24                             172    0.1410 19.4 216 
 BAR2 EZ I         624 27.70        13.4 0.22            167           19.4 216 
 PAM  EZ EP        624 14.03                             150    0.4510 79.0  32 
 PAM  EN ES        624 30.66                             150   -0.3410 79.0  32 
 PAM  EZ I         624 34.13         7.5 0.40            153           79.0  32 
 BRR  HZ EP        624 13.01                             149   -0.0010 81.1 301 
 BRR  HE ES        624 30.35                             149    0.3710 81.1 301 
 BRR  HZ I         624 30.96        11.4 0.18            146           81.1 301 
 RUS  HZ EP        624 14.60                             146    0.1010 93.1 180 
 RUS  HN ES        624 32.34                             146   -0.2910 93.1 180 
 RUS  HZ I         624 34.70         4.9 0.34            145           93.1 180 
 PTB  HZ EP   9    624 17.68                             130   -1.11 0  154 262 
 PTB  HN ES        624 38.21                             131   -0.94 9  154 262 
 PTB  HZ I         624 44.71         6.4 0.20            128            154 262 
 ZAR  HZ EP        624 25.03                             121    0.33 8  214 293 
 ZAR  HN ES        624 49.88                             121   -0.91 8  214 293 
 ZAR  HZ I         624 55.69         6.9 0.32            120            214 293 
 NOR  HZ EP        624 27.16                             118   -0.04 8  237 237 
 NOR  HN ES        624 55.26                             118    0.02 8  237 237 
 NOR  HZ I         624 59.95         4.4 0.34            117            237 237 
 CHI  HZ EP        624 28.76                             117    0.33 8  244 197 
 CHI  HN ES        624 57.54                             117    0.11 8  244 197 
 CHI  HZ I         625  5.98         1.1 0.33            117            244 197 
 URE  HZ EP   4    624 31.12                             112   -2.28 0  293 293 
 URE  HN ES   4    625  3.11                             112   -3.16 0  293 293 
 URE  HZ I         625 14.99         3.6 0.16            112            293 293 
 PTGC HZ EP        624 33.60                             112   -0.46 7  299 159 
 PTGC HN ES        625  6.88                             112   -0.56 7  299 159 
 GUY2CHZ EP   4    624 37.85                             112    2.76 0  303 237 
 GUY2CHN ES   4    625 12.46                             112    3.18 0  303 237 
 GUY2CHZ I         625 16.12         2.4 0.30                           303 237 
 CBOC HZ EP        624 38.93                             109    0.20 7  338 254 
 CBOC HN ES        625 16.06                             109    0.30 7  338 254 
 CBOC HZ I         625 26.89         1.0 0.48            109            338 254 
                                                                                
