 2014  815 0249 16.0 L   6.826 -73.145147.0  RSN 28 0.4 2.7LRSN                1
 GAP= 70        0.99       2.6     2.7  4.6 -0.4662E+00  0.2827E+01  0.2617E+01E
 Epicentro: LOS SANTOS - SANTANDER                                             3
 ACTION:UPD 14-09-15 21:50 OP:nd   STATUS:               ID:20140815024916 L   I
 OLDACT:UP  14-08-15 16:56 OP:spq  STATUS:               ID:20140815024812     3
 OLDACT:REG 14-08-15 12:58 OP:spq  STATUS:               ID:20140815024812     3
 2014-08-15-0248-12M.COL___269                                                 6
 STAT SP IPHASW D HRMM SECON CODA AMPLIT PERI AZIMU VELO AIN AR TRES W  DIS CAZ7
 BAR2 SZ IP     C  249 35.83                             169   -0.0610 26.2 189 
 BAR2 SZ ES   1    249 51.15                             169   -0.22 7 26.2 189 
 BAR2 SZ I         249 52.22       124.5 0.18            166           26.2 189 
 BRR  HZ IP     D  249 37.57                             153    0.3110 69.9 296 
 BRR  HE ES        249 54.76                             153    0.9610 69.9 296 
 BRR  HZ I         249 59.06        52.6 0.14            152           69.9 296 
 PAM  SZ IP     D  249 38.48                             152    0.2210 75.1  41 
 PAM  SN ES        249 55.67                             152    0.0810 75.1  41 
 PAM  SZ I         249 57.67        93.5 0.54            157           75.1  41 
 RUS  HZ EP   1    249 39.93                             143   -0.20 7  103 176 
 RUS  HE ES   1    249 58.80                             143   -0.12 7  103 176 
 RUS  HZ I         250  0.45        63.2 0.34            142            103 176 
 PTB  HZ EP        249 42.41                             132   -0.76 9  148 258 
 PTB  HN ES        250  3.75                             132   -0.58 9  148 258 
 PTB  HZ I         250  6.28        62.7 0.12            131            148 258 
 TAM  HZ IP     D  249 44.15                             131    0.26 9  156 106 
 TAM  HE ES        250  5.73                             131    0.12 9  156 106 
 TAM  HZ I         250  6.80        18.8 0.26            133            156 106 
 OCA  HZ EP        249 43.84                             130   -0.34 9  157 353 
 OCA  HN ES        250  5.41                             130   -0.72 9  157 353 
 OCA  HZ I         250 11.03        48.2 0.48            133            157 353 
 SPBC HZ EP     C  249 44.74                             129   -0.12 9  165 218 
 SPBC HN ES        250  6.72                             129   -0.61 9  165 218 
 SPBC HZ I         250  9.67        99.6 0.24            128            165 218 
 ZAR  HZ EP        249 48.47                             123    0.01 9  203 291 
 ZAR  HN ES        250 14.07                             123    0.32 9  203 291 
 ZAR  HZ I         250 19.75        38.4 0.24            123            203 291 
 NOR  HZ EP        249 52.30                             119    0.27 8  236 234 
 NOR  HN ES        250 19.62                             119   -0.48 8  236 234 
 NOR  HZ I         250 25.01        34.4 0.28            118            236 234 
 SML  HZ EP        249 52.17                             118   -0.29 8  241 335 
 SML  HN ES   1    250 20.96                             118    0.10 6  241 335 
 SML  HZ I         250 24.10        63.9 0.26            119            241 335 
 CHI  HZ EP        249 54.21                             117    0.09 8  251 195 
 CHI  HN ES   1    250 23.55                             117   -0.27 6  251 195 
 CHI  HZ I         250 27.43        17.9 0.62            117            251 195 
 ROSC BZ EP   4    249 55.65                             117    1.14 0  255 211 
 ROSC BN ES   4    250 26.72                             117    2.21 0  255 211 
 ROSC BZ I         250 30.89        41.8 0.35            116            255 211 
 HEL  HZ EP   4    249 57.68                             115    1.27 0  273 255 
 HEL  HE ES        250 28.61                             115    0.72 8  273 255 
 HEL  HZ I         250 36.44        24.4 0.54            115            273 255 
 URE  HZ EP   4    249 55.65                             114   -1.41 0  283 291 
 GUY2CHZ EP        250  0.66                             112    0.75 7  303 234 
 GUY2CHN ES   4    250 38.39                             112    4.27 0  303 234 
 GUY2CHZ I         250 42.38        27.0 0.34                           303 234 
 VIL  SZ EP        249 59.91                             112    0.07 7  306 191 
 VIL  SE ES   1    250 34.66                             112    0.65 5  306 191 
 VIL  SZ I         250 40.19        27.3 0.40            112            306 191 
 PTGC HZ EP   4    249 59.15                             112   -1.11 0  311 159 
 PTGC HN ES   4    250 32.56                             112   -2.19 0  311 159 
 PTGC HZ I         250 39.48        23.1 0.32            112            311 159 
 RREF HZ EP   4    250  3.91                             111    1.45 0  324 229 
 RREF HN ES   4    250 42.66                             111    3.99 0  324 229 
 RREF HZ I         250 48.16        25.1 0.38            111            324 229 
 CBOC HZ EP        250  2.74                             110   -0.38 7  335 252 
 CBOC HE ES        250 39.94                             110    0.10 7  335 252 
 CBOC HZ I         250 52.09         7.5 0.44            110            335 252 
 DBB  SZ EP   1    250  3.57                             110    0.02 5  339 274 
 DBB  SZ ES   1    250 41.04                             110    0.43 5  339 274 
 DBB  SZ I         250 43.93        48.7 0.34            110            339 274 
 TOL  SZ EP        250  5.42                             109    0.83 6  346 224 
 TOL  SE ES   4    250 45.69                             109    3.23 0  346 224 
 TOL  SZ I         250 50.70        35.2 0.36            109            346 224 
 MON  HZ EP   4    250  3.02                             109   -1.87 0  352 308 
 MON  HE ES   4    250 41.62                             109   -1.37 0  352 308 
 MON  HZ I         250 42.22         6.5 0.16            109            352 308 
 ANIL HZ EP   4    250  7.38                             108    1.24 0  359 224 
 ANIL HE ES   4    250 47.38                             108    2.16 0  359 224 
 ANIL HZ I         250 50.75         4.8 0.26            109            359 224 
 PRA  HZ EP        250  9.22                             107   -0.69 6  395 209 
 PRA  HE ES   4    250 53.51                             107    1.59 0  395 209 
 PRA  HZ I         250 58.69        21.8 0.40            107            395 209 
 ORTC HZ EP        250 10.14                             106   -0.15 6  398 216 
 ORTC HN ES   4    250 54.05                             106    1.46 0  398 216 
 ORTC HZ I         251  0.33        13.5 0.44            107            398 216 
 SJC  HZ EP   4    250  9.81                             106   -1.55 0  407 327 
 SJC  HE ES   4    250 51.07                             106   -3.44 0  407 327 
 SJC  HZ I         250 54.45         8.0 0.36            107            407 327 
 PAL  HZ EP        250 11.94                             106    0.51 6  407 239 
 PAL  HN ES   4    250 56.63                             106    2.01 0  407 239 
 PAL  HZ I         251  0.16        19.1 0.18            106            407 239 
 MACC HZ EP   4    250 23.22                             102   -1.91 0  523 189 
 MACC HE ES   4    251 16.03                             102   -2.99 0  523 189 
 MACC HZ I         251 44.50         4.4 0.56            102            523 189 
                                                                                
