 2011 1015 0530 42.7 L   6.818 -73.149144.0  RSN 16 0.4 3.1LRSN                1
 GAP=113        0.87       2.9     3.8  6.1  0.1050E+01  0.8359E+01  0.5963E+01E
 Epicentro: LOS SANTOS - SANTANDER                                             3
 ACTION:UPD 12-07-13 16:03 OP:ep   STATUS:               ID:20111015053042 L   I
 2011-10-15-0529-09S.COL___168                                                 6
 STAT SP IPHASW D HRMM SECON CODA AMPLIT PERI AZIMU VELO AIN AR TRES W  DIS CAZ7
 BAR2 SZ IP        531  2.08                             170   -0.0910 25.2 188 
 BAR2 SZ I         531 17.82       241.5 0.30                          25.2 188 
 BRR  HZ IP     D  531  3.86                             153    0.2610 70.0 297 
 BRR  HN ES   1    531 20.82                             153    0.93 7 70.0 297 
 BRR  HZ I         531 24.11       174.8 0.14                          70.0 297 
 PAM  SZ IP        531  4.87                             151    0.2010 76.1  41 
 PAM  SN ES   1    531 21.85                             151    0.06 7 76.1  41 
 RUS  HZ EP        531  6.11                             143   -0.3210  103 176 
 RUS  HN ES   1    531 24.24                             143   -0.70 7  103 176 
 RUS  HZ I         531 26.76       136.2 0.24                           103 176 
 OCA  SZ EP        531 10.61                             130   -0.09 9  158 353 
 OCA  SZ ES   1    531 31.69                             130   -0.84 7  158 353 
 OCA  SZ I         531 36.97       107.1 0.40                           158 353 
 YOP  SZ EP        531 12.93                             126    0.11 9  181 153 
 YOP  SE ES   1    531 36.88                             126    0.58 7  181 153 
 ZAR  HZ EP        531 14.71                             122   -0.22 9  203 292 
 ZAR  HN ES   1    531 40.09                             122    0.02 6  203 292 
 ZAR  HZ I         531 46.31       126.4 0.36                           203 292 
 NOR  SZ EP        531 17.99                             118   -0.44 8  236 234 
 NOR  SN ES   1    531 46.05                             118   -0.24 6  236 234 
 CHI  HZ EP        531 20.60                             117    0.09 8  250 195 
 CHI  HE ES   1    531 49.66                             117   -0.33 6  250 195 
 CHI  HZ I         531 53.03        36.6 0.38                           250 195 
 ROSC BZ EP   2    531 21.86                             116    0.96 4  254 211 
 ROSC BZ I         531 55.90        66.4 0.40                           254 211 
 HEL  HZ EP        531 23.07                             114    0.22 8  272 255 
 HEL  HE ES   1    531 53.79                             114   -0.37 6  272 255 
 HEL  HZ I         532  0.53        56.8 0.44                           272 255 
 GUY  SZ EP        531 27.00                             112    0.40 7  304 235 
 GUY  SZ I         532  8.89        81.6 0.34                           304 235 
 VIL  SE ES   2    532  0.28                             112    0.06 4  305 191 
 RREF HZ EP        531 28.80                             110   -0.09 7  323 229 
 RREF HZ I         532 14.69        40.2 0.30                           323 229 
 TOL  SZ EP        531 32.00                             109    0.97 7  345 224 
 PRA  HZ EP        531 35.61                             106   -0.74 6  394 209 
 PRA  HN ES   1    532 18.29                             106    0.11 4  394 209 
 PRA  HZ I         532 23.15       118.7 0.28                           394 209 
                                                                                
