 2010 1015 0215  3.7 L   6.775 -73.064146.0  RSN  5 0.1 1.7LRSN                1
 GAP=168        0.38       2.2     4.5  5.1 -0.1717E+00 -0.5749E+01 -0.5053E+00E
 Epicentro: LOS SANTOS - SANTANDER                                             3
 ACTION:UP  11-02-18 11:09 OP:tino STATUS:               ID:20101015021503 L   I
 2010-10-15-0211-53S.COL___128                                                 6
 STAT SP IPHASW D HRMM SECON CODA AMPLIT PERI AZIMU VELO SNR AR TRES W  DIS CAZ7
 BAR2 SZ EP        215 23.43                             170     0.110   24 213 
 BAR2 SZ I         215 23.57        11.2 0.19                            24 213 
 BTL  SZ EP   1    215 23.55                             169     0.1 7   28 305 
 BRR  HZ EP        215 25.25                             150    -0.210   81 297 
 BRR  HZ I         215 25.65        14.3 0.13                            81 297 
 BRR  HE ES   1    215 42.51                             150     0.1 7   81 297 
 RUS  HZ EP   1    215 27.31                             145     0.1 7   98 181 
 RUS  HN ES   1    215 45.56                             145    -0.1 7   98 181 
 RUS  HZ I         215 48.75         3.0 0.32                            98 181 
 GRA  SZ EP   1    215 29.06                             137     0.1 7  126  13 
 GRA  SZ ES   1    215 48.64                             137    -0.1 7  126  13 
 GRA  SZ I         215 49.84        10.3 0.29                           126  13 
                                                                                
