 2010  815 0404 53.8 L   6.612 -73.346123.1  RSN 15 0.4 2.6LRSN                1
 GAP= 74        0.97       3.1     6.2  5.1 -0.8378E+01  0.1135E+02  0.3923E+00E
 Epicentro: GALAN - SANTANDER                                                  3
 ACTION:UP  10-09-07 10:55 OP:vdl  STATUS:               ID:20100815040453 L   I
 2010-08-15-0403-03S.COL___111                                                 6
 STAT SP IPHASW D HRMM SECON CODA AMPLIT PERI AZIMU VELO SNR AR TRES W  DIS CAZ7
 BAR2 SZ IP        4 5 10.79                             171     0.210   18  97 
 BAR2 SZ ES        4 5 23.60                             171    -0.110   18  97 
 BAR2 SZ I         4 5 25.59       191.6 0.46                            18  97 
 BTL  SZ EP        4 5 11.37                             163     0.310   35  14 
 BTL  SZ ES   1    4 5 25.00                             163     0.5 7   35  14 
 GIR2 SZ EP        4 5 12.15                             155     0.410   54  18 
 GIR2 SZ ES   1    4 5 25.80                             155     0.0 7   54  18 
 BRR  HZ EP        4 5 12.13                             149    -0.210   68 324 
 BRR  HN ES   1    4 5 26.43                             149    -0.4 7   68 324 
 BRR  HZ I         4 5 27.44        88.0 0.11                            68 324 
 URB  SZ EP        4 5 12.49                                    -0.110   69   1 
 URB  SZ ES   2    4 5 27.09                                    -0.1 5   69   1 
 RUS  HZ IP     D  4 5 14.02                             144    -0.210   85 160 
 RUS  HN ES   1    4 5 29.88                             144    -0.2 7   85 160 
 RUS  HZ I         4 5 31.24        57.6 0.25                            85 160 
 GUE  SZ EP        4 5 18.11                             128    -0.8 9  143  19 
 GRA  SZ EP        4 5 19.50                             125    -0.2 9  153  23 
 GRA  SZ ES   1    4 5 39.65                             125    -0.3 7  153  23 
 GRA  SZ I         4 5 42.47        29.2 0.28                           153  23 
 OCA  SZ EP        4 5 22.89                             121     0.4 9  180   1 
 OCA  SZ ES   1    4 5 45.44                             121     0.6 7  180   1 
 OCA  SZ I         4 5 52.97        52.3 0.31                           180   1 
 CHI  HZ EP   1    4 5 27.62                             115     0.1 6  223 191 
 CHI  HE ES   2    4 5 53.30                             115    -0.5 4  223 191 
 CHI  HZ I         4 5 58.09        16.5 0.62                           223 191 
 ROSC BZ EP   1    4 5 28.89                             115     1.4 6  224 209 
 ROSC BE ES   1    4 5 54.04                             115     0.2 6  224 209 
 ROSC BZ I         4 5 58.99        21.7 0.53                           224 209 
 HEL  HZ EP   1    4 5 29.62                             112    -0.4 6  246 259 
 HEL  HZ I         4 6  1.03        22.5 0.40                           246 259 
 RREF HZ EP   1    4 5 35.69                             108     0.2 5  291 230 
 RREF HE ES   2    4 6  7.65                             108    -0.4 4  291 230 
 RREF HZ I         4 6 14.99        30.2 0.51                           291 230 
 ANIL HZ EP   1    4 5 39.36                             106     0.1 5  327 224 
 ANIL HE ES   1    4 6 14.41                             106    -0.3 5  327 224 
 ANIL HZ I         4 6 19.46        41.5 0.33                           327 224 
 PRA  HZ EP   1    4 5 42.78                             104    -0.4 5  363 208 
 PRA  HN ES   2    4 6 21.87                             104     0.1 3  363 208 
 PRA  HZ I         4 6 27.88        16.8 0.33                           363 208 
                                                                                
