 2010 1015 0629  3.3 L   6.799 -73.121146.5  RSN 11 0.3 2.1LRSN                1
 GAP=143        0.64       3.0     4.9  5.4 -0.9695E+00 -0.3879E+00  0.8793E+00E
 Epicentro: LOS SANTOS - SANTANDER                                             3
 ACTION:UP  11-02-18 11:09 OP:tino STATUS:               ID:20101015062903 L   I
 2010-10-15-0627-47S.COL___128                                                 6
 STAT SP IPHASW D HRMM SECON CODA AMPLIT PERI AZIMU VELO SNR AR TRES W  DIS CAZ7
 BTL  SZ EP   1    629 23.19                             171     0.2 7   21 309 
 BAR2 SZ EP        629 23.09                             170     0.010   24 197 
 BAR2 SZ ES   2    629 38.58                             170     0.1 5   24 197 
 BAR2 SZ I         629 40.76        32.6 0.29                            24 197 
 BRR  HZ EP        629 24.78                             152     0.110   74 298 
 BRR  HE ES   1    629 41.71                             152     0.3 7   74 298 
 BRR  HZ I         629 45.40        27.1 0.10                            74 298 
 RUS  HZ EP   1    629 26.94                             144    -0.2 7  100 178 
 RUS  HN ES   1    629 45.31                             144    -0.4 7  100 178 
 RUS  HZ I         629 47.27         9.5 0.30                           100 178 
 GUE  SZ EP        629 28.03                             140     0.010  116  11 
 GUE  SZ I         629 28.93         7.3 0.06                           116  11 
 OCA  SZ EP   1    629 31.32                             130    -0.4 7  161 352 
 OCA  SZ I         629 59.85        17.1 0.71                           161 352 
 YOP  SZ EP   1    629 33.67                             127     0.4 7  178 154 
 NOR  SZ EP   1    629 38.95                             118    -0.4 6  237 235 
 NOR  SE ES   2    630  6.78                             118    -0.7 4  237 235 
 CHI  HZ EP   1    629 41.37                             117     0.2 6  249 196 
 CHI  HN ES   1    630 10.82                             117     0.2 6  249 196 
 CHI  HZ I         630 14.17         8.8 0.62                           249 196 
 HEL  HZ EP   2    629 44.65                             115     0.8 4  275 256 
 HEL  HN ES   2    630 15.39                             115    -0.1 4  275 256 
 HEL  HZ I         630 22.12         5.9 0.54                           275 256 
 PRA  HZ EP   1    629 57.14                             107     0.1 4  393 210 
 PRA  HZ I         630 43.61        16.2 0.34                           393 210 
                                                                                
