 2014  115 0357  5.6 L   6.724 -73.213154.0  RSN  5 0.2 1.3LRSN                1
 GAP=224        0.42       2.7     3.5  4.4  0.5678E+01  0.2799E+01  0.2791E+01E
 Epicentro: VILLANUEVA - SANTANDER                                             3
 ACTION:UPD 14-03-13 09:55 OP:ep   STATUS:               ID:20140115035705 L   I
 OLDACT:UP  14-01-15 09:27 OP:cam  STATUS:               ID:20140115035000     3
 OLDACT:REG 14-01-15 07:49 OP:cam  STATUS:               ID:20140115035000     3
 2014-01-15-0350-00M.COL___285                                                 6
 STAT SP IPHASW D HRMM SECON CODA AMPLIT PERI AZIMU VELO AIN AR TRES W  DIS CAZ7
 BRR  HZ EP   1    357 27.52                             154   -0.03 7 69.6 308 
 BRR  HN ES        357 44.71                             154    0.0310 69.6 308 
 BRR  HZ I         357 48.76         4.8 0.38            157           69.6 308 
 RUS  HZ EP   1    357 29.40                             148   -0.25 7 93.0 171 
 RUS  HE ES        357 48.50                             148    0.0810 93.0 171 
 RUS  HZ I         357 50.87         2.4 0.44            148           93.0 171 
 PTB  HZ EP   1    357 32.35                             136   -0.14 7  139 262 
 PTB  HN ES        357 53.36                             136   -0.10 9  139 262 
 PTB  HZ I         357 55.53         5.2 0.12            137            139 262 
 ZAR  HE ES        358  3.84                             125    0.13 9  201 295 
 CHI  HZ EP   2    357 43.42                             120    0.73 4  239 194 
 CHI  HN ES        358 11.62                             120   -0.01 8  239 194 
 CHI  HZ I         358 16.90         0.9 0.44            122            239 194 
                                                                                
