 2012 1215 0934  5.0 L   6.558 -73.591105.2  RSN  5 0.3 1.4LRSN                1
 GAP=126        0.66       4.9     3.9  8.7  0.6174E+01  0.1463E+02  0.2084E+02E
 Epicentro: EL CARMEN DE CHUCURI - SANTANDER                                   3
 ACTION:UPD 13-01-04 14:28 OP:ep   STATUS:               ID:20121215093405 L   I
 2012-12-15-0929-55M.COL___195                                                 6
 STAT SP IPHASW D HRMM SECON CODA AMPLIT PERI AZIMU VELO AIN AR TRES W  DIS CAZ7
 BAR2 SZ EP   1    934 20.82                             155    0.19 7 45.3  85 
 BAR2 SZ ES   1    934 32.96                             155    0.11 7 45.3  85 
 BAR2 SZ I         934 34.91        16.0 0.38                          45.3  85 
 BRR  HN ES   1    934 34.57                             147    0.56 7 62.2 348 
 BRR  HZ I         934 35.60         8.4 0.10                          62.2 348 
 GIR2 SZ ES   1    934 35.04                             143   -0.61 7 72.4  37 
 RUS  HZ EP   1    934 24.42                             136    0.12 7 92.6 143 
 RUS  HN ES   1    934 39.32                             136   -0.06 7 92.6 143 
 RUS  HZ I         934 42.11         3.6 0.34                          92.6 143 
 PTB  HZ EP     C  934 23.85                             134   -0.0710 95.7 269 
 PTB  HN ES   1    934 38.50                             134   -0.20 7 95.7 269 
 PTB  HZ I         934 43.51         5.4 0.18                          95.7 269 
                                                                                
