 2016  815 0849 41.3 L   6.757 -73.103147.5  RSN  7 0.4 1.3LRSN                1
 GAP=144        0.93       4.3     4.8  7.6 -0.2800E+01  0.7619E+01 -0.5989E+01E
 Epicentro: LOS SANTOS - SANTANDER                                             3
 ACTION:UPD 16-10-29 15:35 OP:rebc STATUS:               ID:20160815084941 L   I
 OLDACT:REG 16-08-15 12:39 OP:ak   STATUS:               ID:20160815084735     3
 2016-08-15-0848-00M.COL___368                                                 6
 STAT SP IPHASW D HRMM SECON CODA AMPLIT PERI AZIMU VELO AIN AR TRES W  DIS CAZ7
 BAR2 EZ EP   2    850  0.74                             172   -0.29 5 20.2 206 
 BAR2 EZ ES        850 16.32                             172   -0.1410 20.2 206 
 BAR2 EZ I         850 17.71         3.9 0.21                          20.2 206 
 BRR  HZ EP        850  3.41                             151    0.4510 77.6 300 
 BRR  HN ES        850 20.58                             151    0.6910 77.6 300 
 PAM  EZ EP        850  3.92                             151    0.2110 78.3  35 
 PAM  EN ES        850 20.89                             151   -0.3310 78.3  35 
 PAM  EZ I         850 23.53         5.1 0.50                          78.3  35 
 RUS  HZ EP   2    850  4.83                             146    0.00 5 95.6 179 
 RUS  HN ES        850 23.03                             146   -0.1910 95.6 179 
 RUS  HZ I         850 25.23         2.7 0.32                          95.6 179 
 SPBC HN ES        850 32.09                             130   -0.03 9  163 221 
 SPBC HZ I         850 34.12         3.3 0.12                           163 221 
 ZAR  HZ EP   2    850 14.16                             122   -0.29 4  210 293 
 ZAR  HN ES        850 39.57                             122   -0.77 8  210 293 
 GUY2CHZ EP   9    850 26.66                             113    1.58 0  302 236 
 GUY2CHE ES        851  1.15                                    0.31 7  302 236 
 GUY2CHZ I         851  7.49         1.0 0.46                           302 236 
                                                                                
