 2014  415 0036 26.2 L   6.838 -73.157139.6  RSN  5 0.4 1.8LRSN                1
 GAP=152        0.81       3.6     6.0  9.2 -0.7906E+01  0.2565E+02  0.8620E+01E
 Epicentro: LOS SANTOS - SANTANDER                                             3
 ACTION:UPD 14-05-13 23:08 OP:nd   STATUS:               ID:20140415003626 L   I
 OLDACT:DUP 14-04-15 13:24 OP:nd   STATUS:               ID:20140415003043d    3
 2014-04-15-0030-42M.COL___252                                                 6
 STAT SP IPHASW D HRMM SECON CODA AMPLIT PERI AZIMU VELO AIN AR TRES W  DIS CAZ7
 PAM  SZ EP        036 47.76                             150    0.1610 75.0  42 
 PAM  SN ES        037  4.38                             150    0.0710 75.0  42 
 PAM  SZ I         037  6.31         8.9 0.42            159           75.0  42 
 OCA  HZ EP        036 53.36                             129   -0.25 9  156 353 
 OCA  HN ES        037 14.84                             129   -0.16 9  156 353 
 OCA  HZ I         037 18.40         8.5 0.56            134            156 353 
 NOR  HZ EP        037  1.67                             117   -0.06 8  236 233 
 NOR  HN ES        037 29.44                             117   -0.01 8  236 233 
 NOR  HZ I         037 34.70         6.6 0.18            120            236 233 
 CHI  HZ EP        037  3.49                             115   -0.47 8  252 195 
 CHI  HN ES        037 33.39                             115   -0.03 8  252 195 
 CHI  HZ I         037 38.59         2.3 0.24            119            252 195 
 HEL  HZ EP        037  7.08                             113    1.00 8  272 255 
 HEL  HN ES   2    037 36.52                             113   -0.68 4  272 255 
 HEL  HZ I         037 43.40         4.4 0.30            117            272 255 
                                                                                
