 2011 1015 0055  9.7 L   6.759 -73.154148.2  RSN  5 0.3 2.1LRSN                1
 GAP=137        0.70       4.5     4.7  6.0  0.5223E+01  0.6219E+01 -0.1200E+01E
 Epicentro: LOS SANTOS - SANTANDER                                             3
 ACTION:UPD 12-07-13 16:03 OP:ep   STATUS:               ID:20111015005509 L   I
 2011-10-15-0052-46S.COL___168                                                 6
 STAT SP IPHASW D HRMM SECON CODA AMPLIT PERI AZIMU VELO AIN AR TRES W  DIS CAZ7
 BAR2 SZ EP        055 29.40                             172   -0.1010 18.7 190 
 BAR2 SZ ES   1    055 44.68                             172   -0.30 7 18.7 190 
 BAR2 SZ I         055 46.03        22.7 0.14                          18.7 190 
 BRR  HZ IP     C  055 31.35                             152    0.2010 72.7 302 
 BRR  HZ I         055 31.54        29.5 0.14                          72.7 302 
 BRR  HN ES   1    055 48.58                             152    0.66 7 72.7 302 
 PAM  SZ EP        055 32.63                             150    0.2610 81.5  38 
 PAM  SN ES   1    055 49.68                             150   -0.42 7 81.5  38 
 RUS  HZ EP        055 33.30                             146   -0.0410 96.2 175 
 RUS  HN ES   1    055 51.88                             146    0.07 7 96.2 175 
 ZAR  HZ EP        055 42.17                             123   -0.18 9  205 293 
 ZAR  HE ES   1    056  7.36                             123   -0.50 6  205 293 
 ZAR  HZ I         056 12.79         9.3 0.44                           205 293 
                                                                                
