 2012 1015 0452  0.1 L   6.786 -73.126145.9  RSN  4 0.1 1.1LRSN                1
 GAP=140        0.38       2.7     2.7  4.6  0.1122E+01  0.1033E+01  0.1022E+00E
 Epicentro: LOS SANTOS - SANTANDER                                             3
 ACTION:UPD 12-11-22 17:03 OP:ep   STATUS:               ID:20121015045200 L   I
 2012-10-15-0450-00M.COL___230                                                 6
 STAT SP IPHASW D HRMM SECON CODA AMPLIT PERI AZIMU VELO AIN AR TRES W  DIS CAZ7
 BRR  HZ EP        452 21.43                             152    0.0110 73.8 299 
 BRR  HN ES   1    452 38.29                             152    0.25 7 73.8 299 
 BRR  HZ I         452 43.16         2.7 0.13                          73.8 299 
 PAM  SZ EP        452 22.39                             151    0.0610 77.3  38 
 PAM  SZ I         452 22.70         2.9 0.19                          77.3  38 
 PAM  SE ES   1    452 39.51                             151   -0.15 7 77.3  38 
 RUS  HZ EP   1    452 23.80                             144    0.05 7 98.9 177 
 RUS  HZ I         452 24.80         1.3 0.10                          98.9 177 
 RUS  HN ES   1    452 42.09                             144   -0.10 7 98.9 177 
 ZAR  HN ES   1    452 58.12                             122   -0.22 6  207 292 
                                                                                
