 2012  915 0530 45.5 L   6.776 -73.148150.6  RSN  9 0.4 2.0LRSN                1
 GAP=184        0.65       4.6     5.0  6.0  0.7670E+01  0.7388E+01  0.1007E+02E
 Epicentro: LOS SANTOS - SANTANDER                                             3
 ACTION:UPD 12-10-22 14:18 OP:ep   STATUS:               ID:20120915053045 L   I
 2012-09-15-0530-00M.COL___227                                                 6
 STAT SP IPHASW D HRMM SECON CODA AMPLIT PERI AZIMU VELO AIN AR TRES W  DIS CAZ7
 BAR2 SZ EP        531  5.39                             172   -0.2310 20.6 190 
 BAR2 SZ I         531 32.46        12.2 0.30                          20.6 190 
 GIR2 SZ EP   1    531  5.79                             166    0.02 7 33.9 352 
 GIR2 SZ ES   1    531 21.74                             166    0.12 7 33.9 352 
 BRR  HZ EP   1    531  7.33                             153    0.14 7 72.3 301 
 BRR  HN ES   1    531 24.64                             153    0.50 7 72.3 301 
 BRR  HN I         531 27.24        37.0 0.16                          72.3 301 
 RUS  HE ES   1    531 28.09                             146   -0.16 7 97.9 176 
 RUS  HZ I         531 29.18         7.7 0.36                          97.9 176 
 PTB  HZ EP   1    531 12.29                             133   -0.46 7  147 260 
 PTB  HN ES   1    531 33.63                             133   -0.41 7  147 260 
 PTB  HN I         531 34.05        12.9 0.20                           147 260 
 ZAR  HE ES   1    531 43.82                             123   -0.09 6  205 293 
 ZAR  HZ I         531 49.80        10.5 0.38                           205 293 
 CHI  HZ EP   1    531 23.09                             118   -0.05 6  246 195 
 CHI  HN ES   2    531 52.93                             118    0.40 4  246 195 
 CHI  HN I         531 57.02        10.1 0.28                           246 195 
 HEL  HZ EP   2    531 26.67                             116    0.86 4  271 256 
 HEL  HZ I         532  3.86         5.3 0.58                           271 256 
 PRA  HZ EP   1    531 39.72                             107    0.87 4  390 210 
 PRA  HZ I         532 27.13         5.1 0.34                           390 210 
                                                                                
