 2013  415 0756  6.9 L   6.724 -73.211144.9  RSN  4 0.3 1.3LRSN                1
 GAP=190        0.60       4.8     5.6  5.7  0.1036E+01  0.2766E+01 -0.9111E+01E
 Epicentro: VILLANUEVA - SANTANDER                                             3
 ACTION:UPD 13-05-22 14:38 OP:EP   STATUS:               ID:20130415075606 L   I
 2013-04-15-0750-00M.COL___244                                                 6
 STAT SP IPHASW D HRMM SECON CODA AMPLIT PERI AZIMU VELO AIN AR TRES W  DIS CAZ7
 BAR2 SZ EP        756 26.26                             174   -0.0310 14.9 168 
 BAR2 SZ ES   1    756 41.16                             174   -0.25 7 14.9 168 
 BRR  HZ EP        756 28.19                             153    0.3110 69.7 307 
 BRR  HN ES   1    756 44.48                             153    0.24 7 69.7 307 
 BRR  HZ I         756 44.96         2.7 0.46            145           69.7 307 
 PTB  HZ EP        756 33.21                             134    0.17 9  139 262 
 PTB  HN ES   1    756 53.06                             134   -0.36 7  139 262 
 PTB  HZ I         756 56.39         2.0 0.38            131            139 262 
 SML  HZ EP        756 43.61                             117   -0.40 8  249 338 
 SML  HE ES   1    757 12.94                             117   -0.01 6  249 338 
 SML  HZ I         757 21.45         1.8 0.30            114            249 338 
                                                                                
