 2016 1115 0258 23.3 L   6.724 -73.166147.9  RSN  4 0.3 1.3LRSN                1
 GAP=150        0.71       7.3     4.4  5.7 -0.1593E+02  0.1680E+01  0.4379E+01E
 Epicentro: VILLANUEVA - SANTANDER                                             3
 ACTION:UPD 17-10-26 21:08 OP:lp   STATUS:               ID:20161115025823 L   I
 OLDACT:UP  16-11-15 14:58 OP:edw  STATUS:               ID:20161115025749     3
 OLDACT:REG 16-11-15 12:46 OP:edw  STATUS:               ID:20161115025749     3
 2016-11-15-0258-00M.COL___338                                                 6
 STAT SP IPHASW D HRMM SECON CODA AMPLIT PERI AZIMU VELO AIN AR TRES W  DIS CAZ7
 BAR2 EZ EP        258 43.17                             174    0.1410 14.7 187 
 BAR2 EZ ES        258 58.52                             174    0.0910 14.7 187 
 BAR2 EZ I         258 59.55         6.1 0.15            175           14.7 187 
 BRR  HZ EP        258 44.99                             152    0.1810 73.7 305 
 BRR  HN ES        259  1.95                             152    0.3610 73.7 305 
 BRR  HZ I         259  3.15         2.2 0.12            152           73.7 305 
 PAM  EZ EP        258 46.11                             149   -0.1110 85.4  37 
 PAM  EN ES        259  3.79                             149   -0.3110 85.4  37 
 PAM  EZ I         259  5.66         2.1 0.30            150           85.4  37 
 PTB  HZ EP        258 50.19                             133    0.09 9  144 262 
 PTB  HN ES        259 10.52                             133   -0.50 9  144 262 
 PTB  HZ I         259 12.88         4.2 0.90            134            144 262 
                                                                                
