 2017  515 0654 51.4 L   6.745 -73.146146.7  RSN  6 0.4 1.7LRSN                1
 GAP=184        0.94       5.1     4.7  8.0 -0.1064E+02  0.2265E+01  0.1025E+02E
 Epicentro: LOS SANTOS - SANTANDER                                             3
 ACTION:UPD 17-06-16 13:36 OP:jn   STATUS:               ID:20170515065451 L   I
 OLDACT:REG 17-05-15 12:37 OP:dnl  STATUS:               ID:20170515064740     3
 2017-05-15-0648-00M.COL___353                                                 6
 STAT SP IPHASW D HRMM SECON CODA AMPLIT PERI AZIMU VELO AIN AR TRES W  DIS CAZ7
 BRR  HZ EP        655 13.03                             152    0.2510 74.3 303 
 BRR  HN ES        655 30.21                             152    0.7210 74.3 303 
 BRR  HZ I         655 31.26         5.5 0.34            150           74.3 303 
 PAM  EZ IP     C  655 13.91                             149   -0.0510 82.2  37 
 PAM  EZ EP     C  655 13.92                             149           82.2  37 
 PAM  EE ES        655 31.24                             149   -0.3610 82.2  37 
 PAM  EZ I         655 33.23         6.6 0.54            153           82.2  37 
 PTB  HZ EP   2    655 17.75                             132   -0.55 5  147 261 
 PTB  HN ES        655 38.58                             132   -0.74 9  147 261 
 PTB  HZ I         655 45.87         4.9 0.50            132            147 261 
 SPBC HZ EP        655 19.85                             130    0.36 9  158 220 
 SPBC HN ES        655 41.34                             130   -0.09 9  158 220 
 SPBC HZ I         655 44.02         7.2 0.40            131            158 220 
 ZAR  HZ EP        655 23.91                             122   -0.20 8  206 294 
 ZAR  HN ES        655 49.65                             122    0.00 8  206 294 
 ZAR  HZ I         655 55.24         6.4 0.40            123            206 294 
 NOR  HZ EP   2    655 27.12                             119    0.35 4  231 236 
 NOR  HE ES        655 54.48                             119    0.09 8  231 236 
 NOR  HZ I         656  0.04         4.6 0.40            120            231 236 
                                                                                
