 2013 1215 0228 31.0 L   6.768 -73.174144.4  RSN  8 0.5 1.8LRSN                1
 GAP=180        1.19       4.6     6.4  7.5  0.4549E+00  0.7627E+01  0.8016E+01E
 Epicentro: LOS SANTOS - SANTANDER                                             3
 ACTION:UPD 14-01-13 10:18 OP:ep   STATUS:               ID:20131215022831 L   I
 OLDACT:REG 13-12-15 07:35 OP:jn   STATUS:               ID:20131215022639     3
 2013-12-15-0226-39M.COL___238                                                 6
 STAT SP IPHASW D HRMM SECON CODA AMPLIT PERI AZIMU VELO AIN AR TRES W  DIS CAZ7
 BAR2 SZ EP        228 50.28                             172   -0.0810 19.4 183 
 BAR2 SZ ES        229  5.97                             172    0.4810 19.4 183 
 BAR2 SZ I         229  6.50        38.7 0.16            169           19.4 183 
 BRR  HZ EP        228 52.06                             153    0.1410 70.3 302 
 BRR  HN ES        229  8.78                             153    0.5310 70.3 302 
 BRR  HZ I         229 10.30         9.4 0.14            151           70.3 302 
 RUS  HZ EP        228 54.21                             145   -0.1410 97.3 174 
 RUS  HN ES        229 12.14                             145   -0.4510 97.3 174 
 RUS  HZ I         229 14.01         6.6 0.36            144           97.3 174 
 PTB  HZ EP        228 56.79                             133   -0.69 9  144 260 
 PTB  HN ES        229 17.40                             133   -0.76 9  144 260 
 PTB  HZ I         229 22.63         6.7 0.18            131            144 260 
 SPBC HZ EP        228 59.39                             130    0.48 9  158 219 
 SPBC HN ES        229 20.93                             130    0.22 9  158 219 
 SPBC HZ I         229 22.33         7.8 0.18            129            158 219 
 OCA  HN ES   1    229 21.10                             129   -0.61 7  163 354 
 NOR  HZ EP        229  6.88                             119    0.76 8  230 235 
 NOR  HN ES        229 33.78                             119    0.24 8  230 235 
 NOR  HZ I         229 38.70         5.3 0.22            119            230 235 
 CHI  HZ EP        229  8.50                             117    0.37 8  244 195 
 CHI  HN ES        229 36.45                             117   -0.66 8  244 195 
 CHI  HZ I         229 43.68         2.9 0.42            118            244 195 
                                                                                
