 2014 1015 0741 25.0 L   6.782 -73.168147.3  RSN  6 0.4 1.4LRSN                1
 GAP=180        0.89       4.3     5.5  9.7  0.4433E+01  0.5891E+01 -0.5054E+01E
 Epicentro: LOS SANTOS - SANTANDER                                             3
 ACTION:UPD 14-11-29 23:50 OP:nd   STATUS:               ID:20141015074125 L   I
 OLDACT:UP  14-10-15 17:48 OP:mh   STATUS:               ID:20141015073748d    3
 OLDACT:DUP 14-10-15 17:38 OP:mh   STATUS:               ID:20141015073748d    3
 2014-10-15-0737-47M.COL___292                                                 6
 STAT SP IPHASW D HRMM SECON CODA AMPLIT PERI AZIMU VELO AIN AR TRES W  DIS CAZ7
 BAR2 SZ EP        741 45.19                             171    0.3910 21.0 184 
 BAR2 SZ I         742  1.58        11.0 0.16            166           21.0 184 
 BRR  HZ EP        741 46.44                             153    0.1610 70.1 301 
 BRR  HN ES        742  2.87                             153    0.0210 70.1 301 
 BRR  HZ I         742  5.24         3.3 0.25            157           70.1 301 
 RUS  HN ES        742  7.35                             145    0.0010 98.8 175 
 RUS  HZ I         742  9.17         3.5 0.14            139           98.8 175 
 PTB  HZ EP        741 51.39                             133   -0.48 9  145 259 
 PTB  HN ES        742 12.44                             133   -0.37 9  145 259 
 OCA  HZ EP   4    741 51.55                             130   -2.06 0  162 354 
 OCA  HN ES        742 15.56                             130   -0.35 9  162 354 
 ZAR  HN ES        742 23.30                             123    0.62 9  203 293 
                                                                                
