 2013  615 0446 35.0 L   6.721 -73.165138.3  RSN  4 0.2 1.4LRSN                1
 GAP=229        0.53       4.8     5.7  5.6  0.1762E+02  0.7487E+01  0.4104E+01E
 Epicentro: VILLANUEVA - SANTANDER                                             3
 ACTION:UPD 14-01-08 09:54 OP:ep   STATUS:               ID:20130615044635 L   I
 OLDACT:UP  13-06-15 11:31 OP:mh   STATUS:               ID:20130615043959     3
 OLDACT:REG 13-06-15 07:26 OP:mh   STATUS:               ID:20130615043959     3
 2013-06-15-0439-59M.COL___261                                                 6
 STAT SP IPHASW D HRMM SECON CODA AMPLIT PERI AZIMU VELO AIN AR TRES W  DIS CAZ7
 BAR2 SZ ES   1    447  7.85                             174   -0.23 7 14.3 188 
 BAR2 SZ I         447  9.70         4.8 0.16            174           14.3 188 
 BRR  HZ EP   1    446 55.48                             150   -0.05 7 74.0 305 
 BRR  HN ES        447 11.66                             150    0.1310 74.0 305 
 BRR  HN I         447 15.94         9.7 0.16            151           74.0 305 
 RUS  HZ EP   1    446 57.80                             145    0.38 7 92.0 174 
 RUS  HN ES        447 14.85                             145   -0.0410 92.0 174 
 RUS  HN I         447 17.04         2.7 0.22            148           92.0 174 
 PTB  HZ EP   1    447  0.63                             131   -0.42 7  144 262 
 PTB  HN ES   1    447 21.48                             131    0.12 7  144 262 
 PTB  HN I         447 23.49         2.8 0.22            133            144 262 
                                                                                
