 2015  615 0907 17.8 L   6.749 -73.164148.0  RSN  4 0.3 1.3LRSN                1
 GAP=241        0.71       4.7     5.3  6.2  0.9733E+01  0.9832E+01 -0.4283E+01E
 Epicentro: LOS SANTOS - SANTANDER                                             3
 ACTION:UPD 15-09-10 22:12 OP:cam  STATUS:               ID:20150615090717 L   I
 OLDACT:REG 15-06-15 13:39 OP:drio STATUS:               ID:20150615085738     3
 2015-06-15-0857-38M.COL___300                                                 6
 STAT SP IPHASW D HRMM SECON CODA AMPLIT PERI AZIMU VELO AIN AR TRES W  DIS CAZ7
 BAR2 EZ EP        9 7 37.19                             173   -0.4310 17.5 187 
 BAR2 EZ ES        9 7 53.17                             173    0.1110 17.5 187 
 BAR2 EZ I         9 7 54.89         3.1 0.36            171           17.5 187 
 RUS  HZ EP        9 7 41.28                             146   -0.1410 95.1 175 
 RUS  HE ES        9 8  0.09                             146    0.2710 95.1 175 
 RUS  HZ I         9 8  1.02         1.6 0.34            148           95.1 175 
 SPBC HZ EP        9 7 46.14                             131    0.17 9  158 220 
 SPBC HN ES        9 8  7.69                             131   -0.23 9  158 220 
 SPBC HZ I         9 8 10.86         4.1 0.20            131            158 220 
 ZAR  HZ EP        9 7 50.91                             123    0.46 9  204 294 
 ZAR  HN ES        9 8 15.75                             123   -0.14 9  204 294 
 ZAR  HZ I         9 8 21.46         2.4 0.28            123            204 294 
                                                                                
