 2013 1115 0726 52.2 L   6.799 -73.213143.2  RSN  5 0.5 1.4LRSN                1
 GAP=195        1.29       6.4     8.9  9.5  0.2365E+02 -0.2079E+01 -0.1901E+02E
 Epicentro: ZAPATOCA - SANTANDER                                               3
 ACTION:UPD 14-01-09 16:28 OP:ep   STATUS:               ID:20131115072652 L   I
 OLDACT:REG 13-11-15 08:59 OP:nd   STATUS:               ID:20131115072000     3
 2013-11-15-0720-00M.COL___279                                                 6
 STAT SP IPHASW D HRMM SECON CODA AMPLIT PERI AZIMU VELO AIN AR TRES W  DIS CAZ7
 BAR2 SZ EP        727 11.02                             170   -0.4810 23.1 171 
 BAR2 SZ ES        727 27.04                             170    0.4810 23.1 171 
 BAR2 SZ I         727 27.82         9.0 0.38            172           23.1 171 
 BRR  HZ EP        727 13.07                             154    0.3810 64.8 302 
 BRR  HN ES        727 27.69                             154   -1.0110 64.8 302 
 BRR  HZ I         727 31.28         3.8 0.32            153           64.8 302 
 RUS  HZ EP        727 15.69                             143   -0.0410  101 172 
 RUS  HN ES        727 34.29                             143    0.1910  101 172 
 RUS  HZ I         727 35.39         1.5 0.38            145            101 172 
 PTB  HZ EP        727 18.13                             133   -0.14 9  140 258 
 PTB  HN ES        727 38.97                             133    0.35 9  140 258 
 PTB  HZ I         727 41.60         2.4 0.16            133            140 258 
 SML  HZ EP        727 27.93                             117   -0.41 8  241 337 
 SML  HN ES        727 57.42                             117    0.87 8  241 337 
 SML  HZ I         727 59.67         3.7 0.28            118            241 337 
                                                                                
