 2010 1015 0617 10.2 L   7.075 -73.072139.5  RSN  5 0.1 1.2LRSN                1
 GAP=162        0.35       4.3     7.4  7.7 -0.5741E+01 -0.3262E+02 -0.8111E+01E
 Epicentro: FLORIDABLANCA - SANTANDER                                          3
 ACTION:UP  11-02-18 11:09 OP:tino STATUS:               ID:20101015061710 L   I
 2010-10-15-0616-22S.COL___128                                                 6
 STAT SP IPHASW D HRMM SECON CODA AMPLIT PERI AZIMU VELO SNR AR TRES W  DIS CAZ7
 BTL  SZ EP        617 29.21                             168     0.010   28 231 
 BAR2 SZ ES   2    617 45.60                             157    -0.1 5   55 193 
 BRR  HZ EP   2    617 30.41                             151    -0.2 5   71 273 
 BRR  HZ I         617 34.01         8.8 0.35                            71 273 
 BRR  HE ES   2    617 46.71                             151     0.1 5   71 273 
 GRA  SZ EP        617 32.39                             144     0.010   94  18 
 GRA  SZ I         617 50.98         2.7 0.18                            94  18 
 RUS  HZ EP   2    617 35.85                             135     0.1 5  131 181 
 RUS  HZ I         617 56.93         1.1 0.50                           131 181 
                                                                                
