 2012  815 0636 54.5 L   6.719 -73.127143.0  RSN 10 0.4 2.1LRSN                1
 GAP=142        0.86       4.9     5.5  5.8 -0.1684E+01  0.9988E+01  0.9331E+01E
 Epicentro: JORDAN - SANTANDER                                                 3
 ACTION:UP  12-09-10 11:56 OP:ep   STATUS:               ID:20120815063654 L   I
 2012-08-15-0630-00M.COL___217                                                 6
 STAT SP IPHASW D HRMM SECON CODA AMPLIT PERI AZIMU VELO AIN AR TRES W  DIS CAZ7
 BAR2 SZ EP        637 13.74                             173    0.0510 15.4 204 
 BAR2 SZ ES   1    637 28.32                             173   -0.32 7 15.4 204 
 BAR2 SZ I         637 30.97        34.7 0.22                          15.4 204 
 GIR2 SZ EP        637 14.05                             164   -0.1110 40.4 349 
 GIR2 SZ ES   1    637 29.01                             164   -0.46 7 40.4 349 
 BRR  HZ EP        637 15.83                             150    0.0710 77.6 304 
 BRR  HN ES        637 32.81                             150    0.4910 77.6 304 
 BRR  HZ I         637 35.97        23.7 0.20                          77.6 304 
 PAM  SZ EP        637 16.97                             149    0.1610 83.2  35 
 PAM  SZ I         637 18.06        12.5 0.20                          83.2  35 
 PAM  SN ES   1    637 33.96                             149   -0.24 7 83.2  35 
 RUS  HZ EP        637 17.49                             146    0.1210 91.6 177 
 RUS  HZ I         637 18.47        13.9 0.40                          91.6 177 
 RUS  HN ES   1    637 35.55                             146    0.36 7 91.6 177 
 PTB  HZ EP        637 20.43                             131   -0.90 9  148 262 
 PTB  HZ I         637 46.78        10.3 0.50                           148 262 
 ZAR  HZ EP   3    637 26.80                             121   -0.56 2  209 294 
 ZAR  HZ I         637 57.83        19.9 0.32                           209 294 
 NOR  SZ EP        637 29.98                             118    0.24 8  231 237 
 NOR  SN ES   3    637 55.58                             118   -1.63 2  231 237 
 NOR  SZ I         638  2.82        15.4 0.36                           231 237 
 HEL  HZ EP        637 35.21                             114    0.61 8  272 258 
 HEL  HN ES   3    638  6.09                             114    0.23 2  272 258 
 HEL  HZ I         638 12.74         9.3 0.26                           272 258 
 PRA  HZ EP        637 47.02                             106   -0.16 6  385 210 
 PRA  HZ I         638 34.66         6.2 0.38                           385 210 
                                                                                
