 2012 1215 0842 24.3 L   6.979 -73.142158.1  RSN  4 0.4 1.1LRSN                1
 GAP=254        0.71      10.9     8.4 10.1  0.3880E+02  0.1421E+02 -0.1566E+02E
 Epicentro: FLORIDABLANCA - SANTANDER                                          3
 ACTION:UPD 13-01-04 14:28 OP:ep   STATUS:               ID:20121215084224 L   I
 2012-12-15-0839-52M.COL___201                                                 6
 STAT SP IPHASW D HRMM SECON CODA AMPLIT PERI AZIMU VELO AIN AR TRES W  DIS CAZ7
 BAR2 SZ EP   1    842 46.27                             164    0.36 7 43.0 186 
 BAR2 SZ ES   1    843  2.22                             164   -0.56 7 43.0 186 
 BRR  HE ES   2    843  4.15                             156    0.43 5 64.5 283 
 RUS  HN ES   1    843 11.52                             141    0.23 7  120 177 
 RUS  HZ I         843 14.24         0.9 0.26                           120 177 
 PTB  HZ EP   1    842 52.36                             133   -0.40 7  153 252 
 PTB  HN ES   1    843 15.12                             133    0.15 7  153 252 
 PTB  HZ I         843 17.10         2.2 0.28                           153 252 
                                                                                
