 2012  115 0217 46.6 L   6.742 -73.207145.9  RSN  5 0.4 1.3LRSN                1
 GAP=168        0.76       6.6     6.2  8.9  0.1574E+02  0.1879E+02  0.6350E+01E
 Epicentro: VILLANUEVA - SANTANDER                                             3
 ACTION:UP  12-02-03 08:17 OP:REBC STATUS:               ID:20120115021746 L   I
 2012-01-15-0210-00M.COL___187                                                 6
 STAT SP IPHASW D HRMM SECON CODA AMPLIT PERI AZIMU VELO SNR AR TRES W  DIS CAZ7
 BAR2 SZ ES   1    218 21.22                             173    -0.1 7   17 171 
 BAR2 SZ I         218 22.44         8.2 0.16                            17 171 
 GIR2 SZ EP   1    218  6.04                             165    -0.4 7   37   2 
 GIR2 SZ ES   1    218 21.96                             165     0.1 7   37   2 
 RUS  HZ EP   1    218 10.13                             145     0.2 7   95 172 
 RUS  HN ES   1    218 28.40                             145     0.3 7   95 172 
 RUS  HZ I         218 29.69         2.2 0.27                            95 172 
 PTB  HZ EP   2    218 12.52                             134    -0.3 5  140 261 
 PTB  HN ES   1    218 32.84                             134    -0.5 7  140 261 
 ZAR  HN ES   1    218 44.34                             123     0.7 6  200 295 
                                                                                
