 2015 1215 0338 42.4 L   6.808 -73.143148.8  RSN 12 0.4 2.2LRSN                1
 GAP=137        0.96       2.8     3.7  5.5 -0.2132E+01  0.5323E+01 -0.1385E+01E
 Epicentro: LOS SANTOS - SANTANDER                                             3
 ACTION:UPD 16-02-04 15:05 OP:cam  STATUS:               ID:20151215033842 L   I
 OLDACT:REG 15-12-15 13:05 OP:cara STATUS:               ID:20151215033742     3
 2015-12-15-0337-42M.COL___328                                                 6
 STAT SP IPHASW D HRMM SECON CODA AMPLIT PERI AZIMU VELO AIN AR TRES W  DIS CAZ7
 BAR2 EZ IP     C  339  2.41                             170   -0.0410 24.3 190 
 BAR2 EZ ES        339 18.02                             170   -0.0410 24.3 190 
 BAR2 EZ I         339 20.13        17.8 0.20            170           24.3 190 
 BRR  HZ IP     C  339  4.17                             153    0.2610 71.1 298 
 BRR  HN ES        339 21.32                             153    0.6710 71.1 298 
 BRR  HZ I         339 25.32        29.8 0.16            150           71.1 298 
 PAM  EZ IP        339  5.21                             152    0.2910 76.5  40 
 PAM  EN ES        339 22.23                             152   -0.2310 76.5  40 
 PAM  EZ I         339 23.71        16.9 0.38            154           76.5  40 
 RUS  HZ EP        339  6.29                             144   -0.2610  101 176 
 RUS  HN ES        339 25.35                             144   -0.0010  101 176 
 RUS  HZ I         339 26.10        12.5 0.18            148            101 176 
 PTB  HZ EP        339  9.06                             133   -0.64 9  148 259 
 PTB  HE ES        339 30.75                             133   -0.21 9  148 259 
 PTB  HZ I         339 32.81        19.5 0.10            132            148 259 
 OCA  HZ EP        339 11.59                             130    0.69 9  159 353 
 OCA  HN ES        339 32.77                             130   -0.34 9  159 353 
 OCA  HZ I         339 39.29        32.0 0.20            131            159 353 
 SPBC HZ EP        339 11.48                             130    0.23 9  164 219 
 SPBC HN ES        339 33.28                             130   -0.45 9  164 219 
 SPBC HZ I         339 38.10        23.1 0.10            131            164 219 
 ZAR  HZ EP   4    339 16.51                             123    1.43 0  204 292 
 ZAR  HE ES        339 40.85                             123    0.31 9  204 292 
 ZAR  HZ I         339 45.87        27.1 0.30            123            204 292 
 NOR  HZ EP        339 18.96                             119    0.53 8  235 234 
 NOR  HE ES        339 46.74                             119    0.24 8  235 234 
 NOR  HZ I         339 51.54        12.1 0.30            120            235 234 
 SML  HZ EP        339 18.75                             118   -0.41 8  243 335 
 SML  HN ES        339 47.22                             118   -0.59 8  243 335 
 SML  HZ I         339 54.15        20.4 0.10            119            243 335 
 HEL  HZ EP   4    339 24.31                             115    1.45 0  273 256 
 HEL  HN ES        339 54.17                             115   -0.23 8  273 256 
 HEL  HZ I         340  2.91         6.4 0.72            116            273 256 
 GUY2CHZ EP   4    339 27.92                             113    1.65 0  302 235 
 GUY2CHN ES   4    340  1.86                             113    1.39 0  302 235 
 GUY2CHZ I         340 10.59         9.0 0.62                           302 235 
                                                                                
