 2010 1215 0225  3.8 L   6.755 -73.112142.8  RSN  7 0.3 1.8LRSN                1
 GAP=163        0.47       3.5     6.9  5.4 -0.7653E+01  0.7645E+01  0.2896E+01E
 Epicentro: LOS SANTOS - SANTANDER                                             3
 ACTION:UP  11-01-14 15:25 OP:pat  STATUS:               ID:20101215022503 L   I
 2010-12-15-0220-00M.COL___129                                                 6
 STAT SP IPHASW D HRMM SECON CODA AMPLIT PERI AZIMU VELO SNR AR TRES W  DIS CAZ7
 BAR2 SZ EP        225 23.06                             172     0.110   20 204 
 BAR2 SZ ES   2    225 37.73                             172    -0.2 5   20 204 
 BAR2 SZ I         225 40.58        15.2 0.23                            20 204 
 BTL  SZ EP        225 23.10                             170     0.010   25 316 
 BTL  SZ ES   2    225 38.51                             170     0.4 5   25 316 
 RUS  HZ EP        225 26.95                             145     0.110   95 178 
 RUS  HN ES   1    225 44.68                             145    -0.2 7   95 178 
 RUS  HZ I         225 46.70        10.0 0.21                            95 178 
 GRA  SZ ES   2    225 48.43                             135    -0.4 5  129  15 
 GRA  SZ I         225 49.45        11.0 0.28                           129  15 
 NOR  SE ES   2    226  6.88                             118    -0.3 4  235 236 
 CHI  HZ EP   2    225 41.10                             117     0.2 4  245 196 
 CHI  HZ I         226 15.98         4.3 0.31                           245 196 
 PRA  HZ EP   2    225 56.06                             106    -0.8 3  390 210 
 PRA  HN ES   2    226 38.67                             106     0.3 3  390 210 
                                                                                
