 2012  215 0959 13.3 L   6.774 -73.135144.0  RSN 10 0.3 1.8LRSN                1
 GAP=139        0.62       4.0     3.6  5.5 -0.1125E+01 -0.6432E+00  0.6048E+01E
 ACTION:UP  12-03-07 16:30 OP:epov STATUS:               ID:20120215095913 L   I
 2012-02-15-0957-59S.COL___191                                                 6
 STAT SP IPHASW D HRMM SECON CODA AMPLIT PERI AZIMU VELO AIN AR TRES W  DIS CAZ7
 BAR2 SZ EP   1    959 32.56                             171   -0.13 7 20.8 195 
 BAR2 SZ ES   2    959 47.45                             171   -0.34 5 20.8 195 
 BAR2 SZ I         959 48.49        16.1 0.26                          20.8 195 
 GIR2 SZ EP   1    959 32.59                             166   -0.28 7 34.3 349 
 GIR2 SZ ES   2    959 47.91                             166   -0.20 5 34.3 349 
 BRR  HZ EP        959 34.25                             152   -0.1710 73.6 300 
 BRR  HN ES        959 51.47                             152    0.6010 73.6 300 
 BRR  HZ I         959 52.32        18.2 0.15                          73.6 300 
 PAM  SZ EP   1    959 35.57                             150    0.14 7 78.8  38 
 PAM  SN ES   2    959 52.65                             150   -0.03 5 78.8  38 
 RUS  HZ EP   1    959 36.62                             145   -0.07 7 97.7 177 
 RUS  HN ES   2    959 55.41                             145    0.50 5 97.7 177 
 RUS  HZ I         959 56.15         5.6 0.37                          97.7 177 
 PTB  HZ EP   2    959 39.58                             132   -0.62 5  148 260 
 PTB  HE ES       10 0  0.83                             132   -0.34 9  148 260 
 ZAR  HZ EP   2    959 46.20                             122    0.32 4  206 293 
 ZAR  HN ES   2   10 0 10.99                             122   -0.28 4  206 293 
 ZAR  HZ I        10 0 17.56         5.6 0.39                           206 293 
 NOR  SN ES   2   10 0 17.27                             119    0.66 4  234 235 
 CHI  HZ EP   2    959 50.81                             117    0.15 4  246 196 
 CHI  HN ES   2   10 0 20.03                             117    0.25 4  246 196 
 CHI  HZ I        10 0 23.85         3.7 0.56                           246 196 
 HEL  HZ EP   2    959 53.69                             115    0.19 4  273 256 
 HEL  HZ I        10 0 30.82         3.9 0.36                           273 256 
                                                                                
