 2016  115 0224 41.9 L   6.874 -73.321124.0  RSN 14 0.4 1.7LRSN                1
 GAP= 53        1.05       2.5     2.8  5.3 -0.9322E-02  0.1845E+01 -0.1068E+00E
 Epicentro: BETULIA - SANTANDER                                                3
 ACTION:UPD 16-03-09 23:25 OP:cam  STATUS:               ID:20160115022441 L   I
 OLDACT:UP  16-02-25 14:32 OP:cam  STATUS:               ID:20160115022441 L   3
 OLDACT:UP  16-02-23 20:52 OP:AR   STATUS:               ID:20160115022441 L   3
 OLDACT:UP  16-01-15 13:20 OP:drio STATUS:               ID:20160115021747d    3
 OLDACT:UP  16-01-15 13:19 OP:drio STATUS:               ID:20160115021747d    3
 OLDACT:DUP 16-01-15 13:10 OP:drio STATUS:               ID:20160115021747d    3
 2016-01-15-0217-46M.COL___336                                                 6
 STAT SP IPHASW D HRMM SECON CODA AMPLIT PERI AZIMU VELO AIN AR TRES W  DIS CAZ7
 BAR2 EZ EP     C  224 59.43                             163    0.1510 34.7 154 
 BAR2 EZ ES        225 12.50                             163   -0.3110 34.7 154 
 BRR  HZ EP        224 59.94                             156    0.3610 50.3 301 
 BRR  HN ES        225 13.19                             156   -0.1510 50.3 301 
 BRR  HZ I         225 14.26        13.3 0.12            152           50.3 301 
 PAM  EZ EP        225  2.34                             143   -0.1310 85.9  53 
 PAM  EN ES        225 19.15                             143    0.6510 85.9  53 
 PAM  EZ I         225 20.68         4.9 0.20            143           85.9  53 
 RUS  HZ EP        225  4.61                             136    0.0810  112 166 
 RUS  HE ES        225 21.87                             136   -0.2810  112 166 
 RUS  HZ I         225 23.07         4.5 0.28            133            112 166 
 PTB  HZ EP        225  4.67                             130   -0.9210  131 254 
 PTB  HN ES        225 24.67                             130    0.6210  131 254 
 PTB  HZ I         225 26.88        10.3 0.32            126            131 254 
 OCA  HZ EP        225  7.72                             126    0.00 9  151   0 
 OCA  HN ES        225 27.27                             126   -0.55 9  151   0 
 OCA  HZ I         225 30.58        28.9 0.26            124            151   0 
 SPBC HZ EP        225  8.68                             124    0.29 9  159 212 
 SPBC HN ES        225 28.87                             124   -0.16 9  159 212 
 SPBC HZ I         225 33.65         6.5 0.40            121            159 212 
 TAM  HZ EP        225 10.21                             121    0.09 9  176 106 
 TAM  HN ES        225 32.02                             121   -0.08 9  176 106 
 ZAR  HZ EP        225 11.46                             120    0.66 9  183 292 
 ZAR  HN ES        225 33.85                             120    0.53 9  183 292 
 ZAR  HZ I         225 38.90         7.3 0.36            117            183 292 
 SML  HZ EP        225 15.79                             114    0.05 8  229 339 
 SML  HN ES        225 41.65                             114   -0.46 8  229 339 
 SML  HZ I         225 47.76        12.3 0.26            112            229 339 
 CHI  HZ EP        225 18.59                             112   -0.35 8  252 190 
 CHI  HN ES        225 48.21                             112    0.41 8  252 190 
 CHI  HZ I         226  0.20         1.8 0.44            109            252 190 
 HEL  HZ EP   4    225 21.71                             111    2.46 0  256 253 
 HEL  HN ES        225 47.65                             111   -0.70 8  256 253 
 HEL  HZ I         225 54.22         3.7 0.68            109            256 253 
 GUY2CHZ EP   9    225 25.49                             109    2.09 0  291 231 
 GUY2CHE ES        225 57.58                             109   -0.25 7  291 231 
 GUY2CHZ I         226  3.30         2.1 0.28                           291 231 
 SJC  HZ EP   4    225 33.50                             103   -1.30 0  392 329 
 SJC  HZ I         225 47.15         2.3 0.56            101            392 329 
 SJC  HN ES   4    226 13.36                             103   -2.68 0  392 329 
                                                                                
