 2011  115 0143 37.5 L   6.811 -73.113142.9  RSN  6 0.2 1.4LRSN                1
 GAP=162        0.39       2.5    10.1  4.1 -0.1227E+02 -0.7572E+01  0.7457E-01E
 Epicentro: LOS SANTOS - SANTANDER                                             3
 ACTION:UP  11-02-08 08:40 OP:pat  STATUS:               ID:20110115014337 L   I
 2011-01-15-0141-07S.COL___135                                                 6
 STAT SP IPHASW D HRMM SECON CODA AMPLIT PERI AZIMU VELO SNR AR TRES W  DIS CAZ7
 BTL  SZ EP   1    143 56.85                             171     0.1 8   21 305 
 BTL  SZ ES   1    144 11.81                             171     0.0 8   21 305 
 BAR2 SZ EP   2    143 56.63                             169    -0.2 5   25 198 
 BAR2 SZ I         144 14.51         5.6 0.29                            25 198 
 RUS  HZ EP   1    144  0.94                             143    -0.1 8  102 178 
 RUS  HN ES   1    144 19.46                             143     0.0 8  102 178 
 RUS  HZ I         144 21.09         1.7 0.23                           102 178 
 GRA  SZ EP        144  2.49                             137     0.210  124  16 
 GRA  SZ ES   1    144 21.58                             137    -0.1 7  124  16 
 GRA  SZ I         144 24.88         6.7 0.32                           124  16 
 OCA  SZ EP   2    144  5.23                             129    -0.3 5  160 352 
 CHI  HZ EP   2    144 15.50                             116     0.2 4  251 196 
 CHI  HZ I         144 50.26         1.8 0.51                           251 196 
                                                                                
