 2012  115 0334 49.1 L   6.684 -73.180139.4  RSN 17 0.4 3.3LRSN                1
 GAP=114        0.91       3.6     4.0  5.4  0.1567E+01  0.5303E+01  0.6218E+01E
 Epicentro: VILLANUEVA - SANTANDER                                             3
 ACTION:UP  12-02-03 08:17 OP:REBC STATUS:               ID:20120115033449 L   I
 2012-01-15-0330-00M.COL___187                                                 6
 STAT SP IPHASW D HRMM SECON CODA AMPLIT PERI AZIMU VELO SNR AR TRES W  DIS CAZ7
 BAR2 SZ IP     C  335  7.70                             176    -0.110   10 182 
 BAR2 SZ I         335  8.07       522.1 0.20                            10 182 
 BAR2 SZ ES   1    335 22.48                             176     0.2 7   10 182 
 GIR2 SZ EP   1    335  8.25                             162    -0.2 7   44 358 
 GIR2 SZ ES   1    335 23.31                             162    -0.2 7   44 358 
 BRR  HZ EP        335 10.04                             150     0.210   75 309 
 BRR  HZ I         335 10.53       523.3 0.14                            75 309 
 BRR  HE ES   1    335 26.81                             150     0.9 7   75 309 
 RUS  HZ EP   1    335 11.32                             146     0.0 7   88 173 
 RUS  HN ES   1    335 28.67                             146     0.0 7   88 173 
 RUS  HZ I         335 30.27       471.1 0.37                            88 173 
 PAM  SZ IP        335 11.18                             146    -0.310   90  36 
 PAM  SZ I         335 11.63       250.1 0.25                            90  36 
 PAM  SN ES   1    335 28.36                             146    -0.5 7   90  36 
 PTB  HZ EP   1    335 14.23                             132    -0.8 7  142 264 
 PTB  HN ES   1    335 34.57                             132    -0.7 7  142 264 
 YOP  SZ EP   1    335 17.60                             126    -0.1 7  169 150 
 YOP  SN ES   1    335 40.51                             126     0.4 7  169 150 
 YOP  SZ I         335 42.27       237.1 0.48                           169 150 
 OCA  SZ EP   1    335 18.96                             126     0.8 7  173 355 
 ZAR  HZ EP   1    335 21.32                             121     0.0 6  206 296 
 ZAR  HN ES   1    335 46.63                             121     0.2 6  206 296 
 ZAR  HZ I         335 53.02       445.8 0.38                           206 296 
 NOR  SZ EP   1    335 22.97                             118    -0.4 6  224 237 
 NOR  SN ES   1    335 50.11                             118     0.1 6  224 237 
 CHI  HZ EP   1    335 25.31                             117     0.3 6  235 195 
 CHI  HZ I         336  0.26        69.1 0.40                           235 195 
 ROSC BZ EP   1    335 25.91                             117     0.5 6  240 212 
 ROSC BZ I         336  0.90       136.6 0.42                           240 212 
 HEL  HZ EP   1    335 28.21                             114     0.0 6  266 258 
 HEL  HZ I         336  5.60       142.4 0.32                           266 258 
 VIL  SZ EP   1    335 30.76                             112     0.1 5  290 191 
 VIL  SZ I         336  8.87        64.9 0.37                           290 191 
 RREF HZ EP   2    335 34.25                             110     0.6 3  311 231 
 RREF HZ I         336 19.22        87.5 0.50                           311 231 
 PRA  HZ EP   1    335 40.58                             106    -0.3 5  379 210 
 SJA  SZ EP   1    335 41.76                             106    -0.1 4  387 193 
                                                                                
