 2011  215 0059  1.3 L   6.781 -72.866142.0  RSN  4 0.3 1.5LRSN                1
 GAP=191        0.61       4.6    10.9  9.1 -0.3201E+02  0.4633E+02 -0.9543E+01E
 Epicentro: SAN ANDRES - SANTANDER                                             3
 ACTION:UP  11-03-28 15:08 OP:jfem STATUS:               ID:20110215005901 L   I
 2011-02-15-0058-40S.COL___136                                                 6
 STAT SP IPHASW D HRMM SECON CODA AMPLIT PERI AZIMU VELO SNR AR TRES W  DIS CAZ7
 BAR2 SZ ES   3    059 35.43                             163    -0.9 2   41 239 
 BAR2 SZ I         059 43.19         7.4 0.65                            41 239 
 RUS  HZ EP   1    059 24.55                             143    -0.2 7  101 194 
 RUS  HN ES   1    059 43.20                             143     0.2 7  101 194 
 RUS  HZ I         059 44.01         2.7 0.50                           101 194 
 GRA  SZ EP   1    059 26.09                             137     0.2 7  122   3 
 GRA  SZ I         059 27.41         3.8 0.33                           122   3 
 GRA  SZ ES   1    059 45.09                             137     0.0 7  122   3 
 RREF HZ EP   1    059 49.36                             109    -0.5 5  345 233 
 RREF HN ES   1    1 0 28.17                             109     0.3 5  345 233 
 RREF HZ I         1 0 36.74         2.0 0.33                           345 233 
                                                                                
