 2017  215 0805 15.9 L   6.713 -73.205144.7  RSN  4 0.2 0.8LRSN                1
 GAP=221        0.47       5.2     4.0  4.5  0.1168E+02  0.4987E+01  0.1776E+01E
 Epicentro: VILLANUEVA - SANTANDER                                             3
 ACTION:UPD 17-05-24 15:36 OP:jn   STATUS:               ID:20170215080515 L   I
 OLDACT:DUP 17-02-15 17:06 OP:edw  STATUS:               ID:20170215075743d    3
 OLDACT:REG 17-02-15 13:07 OP:dani STATUS:               ID:20170215075742     3
 2017-02-15-0758-00M.COL___355                                                 6
 STAT SP IPHASW D HRMM SECON CODA AMPLIT PERI AZIMU VELO AIN AR TRES W  DIS CAZ7
 BAR2 EZ ES        8 5 50.19                             174   -0.1810 13.6 169 
 BRR  HZ EP   2    8 5 37.22                             152    0.26 5 70.9 308 
 BRR  HN ES   2    8 5 53.70                             152    0.35 5 70.9 308 
 RUS  HZ EP        8 5 38.78                             146   -0.1810 91.7 172 
 RUS  HN ES        8 5 57.13                             146    0.2110 91.7 172 
 RUS  HZ I         8 6  0.09         1.2 0.42            143           91.7 172 
 PTB  HZ EP        8 5 42.14                             133    0.05 9  140 262 
 PTB  HN ES        8 6  2.42                             133   -0.06 9  140 262 
 PTB  HZ I         8 6  4.55         0.7 0.09            133            140 262 
                                                                                
