 2011  715 0543 10.0 L   6.783 -73.111149.0  RSN  4 0.2 1.1LRSN                1
 GAP=142        0.45       5.1     8.7  7.2  0.1610E+02 -0.3832E+02 -0.7392E+01E
 Epicentro: LOS SANTOS - SANTANDER                                             3
 ACTION:UPD 12-07-25 14:00 OP:epov STATUS:               ID:20110715054109 L   I
 2011-07-15-0541-09S.COL___132                                                 6
 STAT SP IPHASW D HRMM SECON CODA AMPLIT PERI AZIMU VELO AIN AR TRES W  DIS CAZ7
 BAR2 SZ EP   1    543 29.81                             171   -0.18 7 22.5 200 
 BAR2 SZ ES   1    543 45.36                             171   -0.23 7 22.5 200 
 BAR2 SZ I         543 46.06         3.9 0.41                          22.5 200 
 BRR  HN ES   1    543 48.77                             152    0.09 7 75.4 298 
 PAM  SZ EP   1    543 32.65                             152    0.16 7 76.5  36 
 RUS  HZ EP   1    543 33.86                             145   -0.05 7 98.5 178 
 RUS  HZ I         543 35.04         1.6 0.13                          98.5 178 
 RUS  HN ES   2    543 53.02                             145    0.45 5 98.5 178 
                                                                                
