 2015  615 0417 36.8 L   6.575 -73.400119.1  RSN  5 0.2 1.4LRSN                1
 GAP=113        0.59       2.1     4.1  4.2  0.1344E+01  0.5388E+01 -0.1262E+01E
 Epicentro: HATO - SANTANDER                                                   3
 ACTION:UPD 15-09-10 22:12 OP:cam  STATUS:               ID:20150615041736 L   I
 OLDACT:UP  15-06-15 16:21 OP:drio STATUS:               ID:20150615040747     3
 OLDACT:REG 15-06-15 13:22 OP:drio STATUS:               ID:20150615040747     3
 2015-06-15-0407-47M.COL___315                                                 6
 STAT SP IPHASW D HRMM SECON CODA AMPLIT PERI AZIMU VELO AIN AR TRES W  DIS CAZ7
 BAR2 EZ EP        417 53.51                             168    0.2910 24.1  85 
 BAR2 EZ ES        418  6.07                             168    0.0210 24.1  85 
 BAR2 EZ I         418  7.52         7.0 0.38            170           24.1  85 
 BRR  HZ EP        417 54.92                             148    0.0210 68.2 330 
 BRR  HN ES        418  9.23                             148    0.1710 68.2 330 
 BRR  HZ I         418 10.00         8.0 0.14            148           68.2 330 
 RUS  HZ EP        417 56.71                             143    0.0710 83.2 155 
 RUS  HE ES        418 11.77                             143   -0.3710 83.2 155 
 RUS  HZ I         418 13.62         2.4 0.24            145           83.2 155 
 SPBC HZ EP        417 59.94                             130    0.2210  126 216 
 SPBC HN ES        418 17.49                             130   -0.1410  126 216 
 SPBC HZ I         418 20.21         3.4 0.10            130            126 216 
 SML  HZ EP        418 13.53                             110   -0.04 8  257 343 
 SML  HN ES        418 41.87                             110   -0.41 8  257 343 
 SML  HZ I         418 46.57         3.4 0.32            110            257 343 
                                                                                
