 2012  215 0238 10.9 L   6.765 -73.129157.5  RSN  6 0.4 1.6LRSN                1
 GAP=140        0.66       6.7     5.5  9.0  0.5535E+01  0.1309E+02  0.1013E+02E
 ACTION:UP  12-03-07 16:30 OP:epov STATUS:               ID:20120215023810 L   I
 2012-02-15-0230-00M.COL___188                                                 6
 STAT SP IPHASW D HRMM SECON CODA AMPLIT PERI AZIMU VELO AIN AR TRES W  DIS CAZ7
 GIR2 SZ EP   2    238 31.73                             167   -0.32 5 35.4 348 
 GIR2 SZ ES   2    238 48.41                             167   -0.16 5 35.4 348 
 BRR  HZ EP   1    238 33.70                             153    0.21 7 74.7 300 
 BRR  HZ I         238 34.01        12.1 0.17                          74.7 300 
 BRR  HN ES   2    238 51.91                             153    0.78 5 74.7 300 
 PAM  SZ EP   2    238 34.68                             152    0.23 5 79.2  37 
 PAM  SE ES   2    238 52.27                             152   -0.57 5 79.2  37 
 RUS  HZ EP   2    238 36.20                             147    0.67 5 96.6 177 
 RUS  HE ES   2    238 54.78                             147    0.02 5 96.6 177 
 RUS  HZ I         238 55.74         2.3 0.30                          96.6 177 
 PTB  HZ EP   1    238 38.45                             134   -0.47 7  149 260 
 PTB  HN ES   2    239  0.19                             134   -0.61 5  149 260 
 ZAR  HE ES   1    239 10.79                             124    0.19 6  207 293 
 ZAR  HZ I         239 16.92         4.2 0.23                           207 293 
                                                                                
