 2014  715 0634 48.2 L   6.822 -73.131141.6  RSN 21 0.6 2.3LRSN                1
 GAP=137        1.29       3.7     5.1  7.6 -0.4054E+01  0.1454E+02  0.2674E+01E
 Epicentro: LOS SANTOS - SANTANDER                                             3
 ACTION:UPD 15-03-16 20:44 OP:nd   STATUS:               ID:20140715063448 L   I
 OLDACT:UP  14-07-28 10:53 OP:CAM  STATUS:               ID:20140715063448 L   3
 OLDACT:REG 14-07-15 13:13 OP:fm   STATUS:               ID:20140715062814     3
 2014-07-15-0628-14M.COL___259                                                 6
 STAT SP IPHASW D HRMM SECON CODA AMPLIT PERI AZIMU VELO AIN AR TRES W  DIS CAZ7
 BAR2 SZ EP     D  635  7.70                             169    0.3610 26.1 193 
 BAR2 SZ ES   1    635 22.58                             169    0.28 7 26.1 193 
 BAR2 SZ I         635 23.60        66.9 0.30            166           26.1 193 
 BRR  HZ IP     C  635  9.44                             152    0.5810 71.5 296 
 PAM  SZ EP        635 10.00                             151    0.2610 74.4  40 
 PAM  SN ES        635 27.33                             151    0.7410 74.4  40 
 PAM  SZ I         635 29.21        42.3 0.18            157           74.4  40 
 RUS  HZ EP        635 10.38                             142   -1.2910  103 177 
 RUS  HN ES        635 29.82                             142   -0.1910  103 177 
 RUS  HZ I         635 32.23        22.1 0.16            143            103 177 
 PTB  HZ EP        635 14.24                             131   -0.73 9  150 258 
 PTB  HN ES        635 35.34                             131   -0.55 9  150 258 
 PTB  HZ I         635 40.51        31.6 0.16            129            150 258 
 OCA  HZ EP        635 15.71                             129   -0.21 9  158 352 
 OCA  HN ES        635 36.96                             129   -0.62 9  158 352 
 OCA  HZ I         635 41.56        27.0 0.30            131            158 352 
 SPBC HZ EP     D  635 16.71                             128    0.10 9  166 219 
 SPBC HN ES        635 38.85                             128    0.04 9  166 219 
 SPBC HZ I         635 40.62        27.0 0.24            127            166 219 
 ZAR  HZ EP   1    635 19.51                             121   -0.87 6  205 291 
 ZAR  HN ES        635 45.60                             121    0.07 9  205 291 
 ZAR  HZ I         635 52.57        32.3 0.40            121            205 291 
 NOR  HZ EP   1    635 23.80                             117   -0.14 6  237 234 
 NOR  HN ES        635 51.52                             117   -0.33 8  237 234 
 NOR  HZ I         635 53.58        14.4 0.20            117            237 234 
 SML  HZ EP   4    635 23.72                             117   -0.65 0  242 335 
 SML  HN ES   4    635 53.81                             117    1.18 0  242 335 
 SML  HZ I         635 55.94        24.2 0.10            118            242 335 
 CHI  HZ EP        635 25.86                             116   -0.07 8  251 195 
 CHI  HN ES        635 55.40                             116    0.01 8  251 195 
 CHI  HZ I         636  0.10         6.6 0.38            117            251 195 
 ROSC BZ EP   4    635 28.08                             115    1.71 0  256 211 
 ROSC BN ES   4    635 58.32                             115    2.14 0  256 211 
 ROSC BZ I         636  5.58        11.2 0.35            116            256 211 
 HEL  HZ EP   1    635 28.78                             114    0.38 6  274 255 
 HEL  HN ES   4    635 58.49                             114   -1.30 0  274 255 
 HEL  HZ I         636  6.01        12.2 0.26            114            274 255 
 URE  HE ES   4    635 58.96                             113   -2.05 0  284 291 
 URE  HZ I         636  0.86        13.8 0.14            113            284 291 
 GUY2CHZ EP   1    635 32.48                             111    0.60 5  304 235 
 GUY2CHN ES   4    636  8.92                             111    2.93 0  304 235 
 GUY2CHZ I         636 15.69        10.8 0.48                           304 235 
 RREF HZ EP   1    635 35.69                             110    1.25 5  325 229 
 RREF HN ES   4    636 14.12                             110    3.58 0  325 229 
 RREF HZ I         636 21.06        10.6 0.24            110            325 229 
 CBOC HZ EP        635 36.21                             109    1.05 7  336 252 
 CBOC HN ES        636 12.78                             109    0.95 7  336 252 
 CBOC HZ I         636 22.65         3.0 0.50            109            336 252 
 DBB  SZ EP   4    635 34.10                             109   -1.52 0  341 274 
 DBB  SZ ES   4    636  8.76                             109   -3.89 0  341 274 
 TOL  SZ EP   1    635 36.44                             108   -0.14 5  346 225 
 TOL  SN ES   4    636 16.00                             108    1.65 0  346 225 
 TOL  SZ I         636 22.99        23.3 0.72            109            346 225 
 PRA  HZ EP   4    635 41.99                             106    0.12 0  395 210 
 PRA  HN ES   4    636 22.94                             106   -0.84 0  395 210 
 PRA  HZ I         636 29.72         7.6 0.46            106            395 210 
 ORTC HZ EP   1    635 41.99                             105   -0.29 4  398 216 
 ORTC HN ES        636 25.26                             105    0.77 6  398 216 
 ORTC HZ I         636 32.40         4.8 0.40            106            398 216 
 SJC  HZ EP   4    635 41.70                             105   -1.74 0  408 327 
 SJC  HN ES   4    636 21.86                             105   -4.70 0  408 327 
 SJC  HZ I         636 27.33         5.2 0.40            106            408 327 
                                                                                
