 2012  615 0231 19.8 L   6.830 -73.173143.7  RSN  6 0.2 1.4LRSN                1
 GAP=132        0.49       2.6     3.0  5.5 -0.2596E+00  0.5131E+01 -0.8585E+00E
 Epicentro: LOS SANTOS - SANTANDER                                             3
 ACTION:UPD 12-08-06 17:49 OP:ep   STATUS:               ID:20120615023119 L   I
 2012-06-15-0230-00M.COL___200                                                 6
 STAT SP IPHASW D HRMM SECON CODA AMPLIT PERI AZIMU VELO AIN AR TRES W  DIS CAZ7
 BAR2 SZ EP   1    231 39.19                             169   -0.04 7 26.4 182 
 BAR2 SZ ES   1    231 54.41                             169    0.01 7 26.4 182 
 BAR2 SZ I         231 55.08         4.5 0.29                          26.4 182 
 PAM  SZ EP   1    231 42.08                             151    0.33 7 76.9  43 
 PAM  SN ES   1    231 58.69                             151   -0.19 7 76.9  43 
 RUS  HZ EP   1    231 43.68                             142    0.08 7  104 175 
 RUS  HN ES   1    232  2.27                             142    0.10 7  104 175 
 RUS  HZ I         232  3.64         4.0 0.28                           104 175 
 PTB  HZ EP   1    231 45.90                             132   -0.48 7  145 257 
 PTB  HN ES   1    232  7.05                             132   -0.07 7  145 257 
 PTB  HZ I         232  9.49         3.2 0.18                           145 257 
 OCA  HN ES   1    232  9.18                             130   -0.09 7  157 354 
 ZAR  HN ES   1    232 16.92                             122    0.37 6  200 292 
                                                                                
