 2011  515 0146 32.3 L   6.805 -73.091139.0  RSN  8 0.3 1.6LRSN                1
 GAP=143        0.71       3.4     6.2  5.2 -0.3255E+01 -0.2040E+01 -0.1320E+01E
 Epicentro: LOS SANTOS - SANTANDER                                             3
 ACTION:UP  11-06-29 08:53 OP:tino STATUS:               ID:20110515014632 L   I
 2011-05-15-0144-58S.COL___141                                                 6
 STAT SP IPHASW D HRMM SECON CODA AMPLIT PERI AZIMU VELO SNR AR TRES W  DIS CAZ7
 BTL  SZ EP        146 51.24                             170     0.110   23 303 
 BTL  SZ ES   1    147  5.76                             170     0.0 7   23 303 
 BAR2 SZ EP        146 50.83                             169    -0.310   26 203 
 BAR2 SZ ES   1    147  5.64                             169    -0.2 7   26 203 
 BAR2 SZ I         147  7.97        12.9 0.39                            26 203 
 GIR2 SZ EP   3    146 50.93                             166    -0.3 2   32 340 
 GIR2 SZ ES   3    147  5.91                             166     0.0 2   32 340 
 PAM  SZ EP        146 53.90                             151     0.410   73  36 
 PAM  SN ES   1    147 10.26                             151     0.2 7   73  36 
 BRR  HZ EP        146 52.75                             149    -0.310   76 296 
 BRR  HZ I         146 52.92        12.4 0.13                            76 296 
 BRR  HN ES   1    147  9.57                             149     0.4 7   76 296 
 RUS  HZ EP        146 55.64                             142     0.210  101 179 
 RUS  HN ES   1    147 13.31                             142    -0.1 7  101 179 
 RUS  HZ I         147 15.26         3.6 0.24                           101 179 
 GRA  SZ EP   2    146 55.96                             136    -0.8 5  124  15 
 GRA  SZ ES   1    147 15.52                             136    -0.3 7  124  15 
 GRA  SZ I         147 18.97         5.0 0.45                           124  15 
 OCA  SZ EP        147  0.23                             128     0.1 9  161 351 
 OCA  SZ I         147 28.11         5.6 0.35                           161 351 
                                                                                
