 2010 1015 0640 17.2 L   6.810 -73.136147.9  RSN  5 0.2 1.2LRSN                1
 GAP=160        0.46       5.8    10.5  7.6  0.3802E+02 -0.4685E+02 -0.1694E+02E
 Epicentro: LOS SANTOS - SANTANDER                                             3
 ACTION:UP  11-02-18 11:09 OP:tino STATUS:               ID:20101015064017 L   I
 2010-10-15-0637-58S.COL___128                                                 6
 STAT SP IPHASW D HRMM SECON CODA AMPLIT PERI AZIMU VELO SNR AR TRES W  DIS CAZ7
 BTL  SZ EP   1    640 37.30                             172     0.3 7   19 310 
 BAR2 SZ EP   2    640 37.13                             170     0.0 5   25 192 
 BAR2 SZ ES   2    640 52.72                             170     0.1 5   25 192 
 BAR2 SZ I         640 53.30         5.0 0.26                            25 192 
 BRR  HZ EP   1    640 38.40                             153    -0.2 7   72 297 
 BRR  HZ I         640 53.38         5.1 0.58                            72 297 
 BRR  HE ES   1    640 55.32                             153     0.0 7   72 297 
 RUS  HZ EP   1    640 41.39                             144     0.1 7  102 177 
 RUS  HE ES   2    640 59.64                             144    -0.3 5  102 177 
 RUS  HZ I         641  1.09         1.4 0.27                           102 177 
 GRA  SZ EP   2    640 42.26                             138    -0.3 5  124  17 
                                                                                
