 2017  415 0049 16.9 L   6.735 -73.142140.0  RSN  5 0.4 1.2LRSN                1
 GAP=233        0.98       7.4     7.1  7.7  0.3339E+02  0.3664E+01 -0.8532E+01E
 Epicentro: LOS SANTOS - SANTANDER                                             3
 ACTION:UPD 17-05-30 21:12 OP:jn   STATUS:               ID:20170415004916 L   I
 OLDACT:UP  17-04-15 13:46 OP:edw  STATUS:               ID:20170415004744     3
 OLDACT:REG 17-04-15 12:31 OP:edw  STATUS:               ID:20170415004744     3
 2017-04-15-0048-00M.COL___362                                                 6
 STAT SP IPHASW D HRMM SECON CODA AMPLIT PERI AZIMU VELO AIN AR TRES W  DIS CAZ7
 BAR2 EZ EP        049 35.09                             173   -0.5810 16.3 196 
 BAR2 EZ ES        049 50.28                             173   -0.0610 16.3 196 
 BAR2 EZ I         049 52.06         6.6 0.30            166           16.3 196 
 BRR  HZ IP     D  049 37.30                             150   -0.3310 75.2 303 
 BRR  HN ES        049 54.20                             150    0.3710 75.2 303 
 RUS  HZ EP        049 39.63                             145    0.1110 93.3 176 
 RUS  HN ES        049 57.59                             145    0.3910 93.3 176 
 RUS  HZ I         049 59.30         2.1 0.24            143           93.3 176 
 PTB  HZ EP   4    049 45.29                             131    2.01 0  147 262 
 PTB  HE ES        050  3.42                             131   -0.47 9  147 262 
 PTB  HZ I         050  8.89         1.6 0.28            128            147 262 
 ZAR  HZ EP        049 49.86                             121    0.59 8  207 294 
 ZAR  HN ES        050 14.67                             121    0.13 8  207 294 
 ZAR  HZ I         050 19.63         1.4 0.58            120            207 294 
                                                                                
