 2010  515 0146  0.7 L   6.517 -73.459107.7  RSN  7 0.4 1.3LRSN                1
 GAP=188        0.67       4.3     8.0  7.5  0.5653E+01 -0.1014E+02 -0.1406E+02E
 Epicentro: SIMACOTA - SANTANDER                                               3
 ACTION:UP  10-08-24 10:05 OP:vdl  STATUS:               ID:20100515014600 L   I
 2010-05-15-0144-59S.COL___108                                                 6
 STAT SP IPHASW D HRMM SECON CODA AMPLIT PERI AZIMU VELO AIN AR TRES W  DIS CAZ7
 BAR2 SZ EP        146 16.00                             162     0.010   32  75 
 BAR2 SZ ES   2    146 27.95                             162     0.0 5   32  75 
 BRR  HZ EP        146 17.63                             144    -0.210   71 337 
 BRR  HE ES   2    146 31.66                             144     0.4 5   71 337 
 RUS  HZ EP   1    146 18.91                             140    -0.4 7   81 149 
 RUS  HE ES   2    146 33.92                             140     0.1 5   81 149 
 RUS  HZ I         146 35.95         2.0 0.61                            81 149 
 BRI  SZ EP        146 25.80                             120     0.3 9  151  29 
 GUE  SZ EP        146 26.08                             120    -0.1 9  157  22 
 GUE  SZ ES   2    146 46.02                             120    -0.1 5  157  22 
 GRA  SZ EP        146 27.57                             117     0.4 9  168  26 
 GRA  SZ ES   2    146 47.11                             117    -0.7 5  168  26 
 OCA  SZ EP   2    146 29.64                             114    -0.1 4  191   5 
 OCA  SZ ES   3    146 50.74                             114    -1.6 2  191   5 
 OCA  SZ I         147  0.86         4.7 0.44                           191   5 
                                                                                
