 2011  615 0407 14.3 L   6.733 -73.055148.0  RSN  5 0.1 1.4LRSN                1
 GAP=170        0.35       3.2     5.5  3.8  0.3859E+01 -0.4525E+01  0.8823E+00E
 Epicentro: ARATOCA - SANTANDER                                                3
 ACTION:UP  11-07-14 19:05 OP:ep   STATUS:               ID:20110615040714 L   I
 2011-06-15-0406-06S.COL___138                                                 6
 STAT SP IPHASW D HRMM SECON CODA AMPLIT PERI AZIMU VELO SNR AR TRES W  DIS CAZ7
 BAR2 SZ EP   1    4 7 34.32                             172     0.2 7   21 222 
 BAR2 SZ ES   2    4 7 49.63                             172     0.0 5   21 222 
 BAR2 SZ I         4 7 50.05         7.0 0.47                            21 222 
 BTL  SZ EP        4 7 34.45                             168     0.110   31 311 
 BTL  SZ ES        4 7 50.00                             168     0.010   31 311 
 BRR  HZ EP   1    4 7 36.21                             149    -0.2 7   84 300 
 BRR  HZ I         4 7 52.87         4.7 0.22                            84 300 
 BRR  HN ES   1    4 7 53.71                             149     0.0 7   84 300 
 RUS  HZ EP   2    4 7 37.64                             146    -0.1 5   93 182 
 RUS  HN ES   2    4 7 55.92                             146    -0.1 5   93 182 
 RUS  HZ I         4 7 57.52         3.1 0.24                            93 182 
 GRA  SZ ES   2    4 8  0.18                             136    -0.1 5  130  12 
 GRA  SZ I         4 8  2.60         3.2 0.30                           130  12 
                                                                                
