 2012  715 0142 39.9 L   5.937 -73.734123.4  RSN  5 0.1 1.8LRSN                1
 GAP=212        0.39       3.0     2.4  5.2 -0.2980E+01 -0.1335E+01  0.3522E+01E
 Epicentro: GUAVATA - SANTANDER                                                3
 ACTION:UPD 12-08-14 11:44 OP:ep   STATUS:               ID:20120715014239 L   I
 2012-07-15-0140-00M.COL___197                                                 6
 STAT SP IPHASW D HRMM SECON CODA AMPLIT PERI AZIMU VELO AIN AR TRES W  DIS CAZ7
 BAR2 SZ EP        143  0.76                             140     0.110   95  40 
 BAR2 SZ ES   1    143 16.78                             140    -0.1 7   95  40 
 BAR2 SZ I         143 18.46        15.9 0.23            135             95  40 
 PTB  HZ EP   1    143  1.32                             137     0.2 7  104 310 
 PTB  HN ES   1    143 17.64                             137     0.0 7  104 310 
 BRR  HZ EP        143  3.15                             130    -0.210  129   1 
 BRR  HZ I         143  6.25         6.9 0.40            125            129   1 
 BRR  HE ES   1    143 21.84                             130     0.2 7  129   1 
 NOR  SZ EP   1    143  3.66                             130     0.0 7  132 252 
 NOR  SN ES   1    143 22.23                             130     0.0 7  132 252 
 ZAR  HN ES   1    143 36.71                             116    -0.1 6  212 324 
 ZAR  HZ I         143 41.90         5.0 0.36            112            212 324 
