 2016  715 0636 35.0 L   6.799 -73.144142.0  RSN 16 0.5 2.2LRSN                1
 GAP=137        1.13       3.8     4.1  5.9 -0.2326E+01  0.7752E+01  0.2970E+01E
 Epicentro: LOS SANTOS - SANTANDER                                             3
 ACTION:UPD 17-03-29 16:51 OP:lp   STATUS:               ID:20160715063635 L   I
 OLDACT:REG 16-07-15 13:38 OP:lv   STATUS:               ID:20160715062759     3
 2016-07-15-0627-59S.COL___328                                                 6
 STAT SP IPHASW D HRMM SECON CODA AMPLIT PERI AZIMU VELO AIN AR TRES W  DIS CAZ7
 BAR2 EZ EP        636 53.89                             170   -0.2410 23.2 191 
 BAR2 EZ ES        637  8.90                             170   -0.1810 23.2 191 
 BAR2 EZ I         637 10.00        64.8 0.12            169           23.2 191 
 BRR  HZ IP     C  636 55.75                             152    0.0410 71.4 299 
 BRR  HN ES        637 12.76                             152    0.8610 71.4 299 
 BRR  HZ I         637 17.27        32.9 0.13            151           71.4 299 
 PAM  EZ EP        636 56.71                             150   -0.0610 77.4  39 
 PAM  EN ES        637 13.95                             150    0.1710 77.4  39 
 PAM  EZ I         637 18.60        22.8 0.50            154           77.4  39 
 RUS  HZ EP        636 57.92                             143   -0.4010  100 176 
 RUS  HN ES        637 16.84                             143    0.2910  100 176 
 RUS  HZ I         637 17.48        15.7 0.28            144            100 176 
 PTB  HZ EP   4    637  0.58                             131   -1.05 0  148 259 
 PTB  HN ES        637 21.50                             131   -0.94 9  148 259 
 PTB  HZ I         637 24.05        20.9 0.14            131            148 259 
 SPBC HZ EP        637  2.87                             128   -0.29 9  163 219 
 SPBC HN ES        637 24.80                             128   -0.37 9  163 219 
 SPBC HZ I         637 29.83        23.9 0.18            129            163 219 
 ZAR  HZ EP        637  8.03                             122    0.85 9  204 292 
 ZAR  HN ES        637 32.40                             122    0.08 9  204 292 
 ZAR  HZ I         637 38.54        35.5 0.34            122            204 292 
 NOR  HN ES        637 37.91                             118   -0.27 8  235 235 
 NOR  HZ I         637 40.00        13.9 0.16            118            235 235 
 ROSC BZ EP   9    637 15.07                             116    2.21 0  253 211 
 ROSC BN ES        637 45.36                                    0.72 8  253 211 
 ROSC BZ I         637 49.49        10.6 0.40            117            253 211 
 HEL  HZ EP   4    637 16.18                             114    1.19 0  272 256 
 HEL  HN ES        637 46.63                             114    0.41 8  272 256 
 HEL  HZ I         637 52.25         7.2 0.40            115            272 256 
 URE  HZ EP        637 14.90                             113   -0.97 7  284 292 
 URE  HN ES   2    637 46.77                             113   -1.01 4  284 292 
 GUY2CHZ EP        637 18.67                             112    0.27 7  301 235 
 GUY2CHN ES   2    637 52.97                             112    0.69 4  301 235 
 GUY2CHZ I         637 58.46         7.2 0.36                           301 235 
 PTGC HZ EP   4    637 17.12                             111   -1.50 0  308 159 
 PTGC HN ES   4    637 50.82                             111   -1.85 0  308 159 
 PTGC HZ I         637 52.98         6.1 0.38            113            308 159 
 ELA  HN ES   2    637 57.84                             110   -0.24 3  329 230 
 ELA  HZ I         638  6.19         7.5 0.26            111            329 230 
 PRA  HZ EP        637 28.69                             106    0.35 6  392 210 
 PRA  HE ES        638 10.87                             106    0.89 6  392 210 
 PRA  HZ I         638 13.91         4.2 0.26            107            392 210 
 ORTC HZ EP        637 28.73                             106   -0.01 6  395 216 
 ORTC HN ES        638 11.26                             106    0.56 6  395 216 
 ORTC HZ I         638 15.65         3.5 0.26            107            395 216 
                                                                                
