 2012  215 0517 20.0 L   6.767 -73.106146.0  RSN 12 0.4 1.9LRSN                1
 GAP=143        0.67       3.9     4.7  6.1 -0.1769E+01  0.6285E+01  0.7899E+01E
 ACTION:UP  12-03-07 16:30 OP:epov STATUS:               ID:20120215051720 L   I
 2012-02-15-0510-00M.COL___188                                                 6
 STAT SP IPHASW D HRMM SECON CODA AMPLIT PERI AZIMU VELO AIN AR TRES W  DIS CAZ7
 BAR2 SZ EP   1    517 39.54                             171   -0.08 7 21.1 204 
 BAR2 SZ ES   2    517 54.98                             171    0.06 5 21.1 204 
 BAR2 SZ I         517 56.27        14.3 0.17                          21.1 204 
 BRR  HZ EP   1    517 41.61                             151    0.10 7 76.8 299 
 BRR  HN ES   1    517 58.92                             151    0.65 7 76.8 299 
 BRR  HZ I         518  2.25        14.2 0.63                          76.8 299 
 PAM  SZ EP   1    517 42.12                             151   -0.14 7 77.6  35 
 PAM  SE ES   2    517 59.60                             151   -0.02 5 77.6  35 
 RUS  HZ EP   2    517 43.37                             145   -0.13 5 96.7 179 
 RUS  HE ES   2    518  1.96                             145    0.13 5 96.7 179 
 RUS  HZ I         518  3.49         6.3 0.20                          96.7 179 
 PTB  HZ EP   1    517 46.45                             132   -0.88 7  151 261 
 PTB  HE ES   2    518  7.99                             132   -0.64 5  151 261 
 OCA  SZ ES   2    518 11.30                             129    0.16 5  164 352 
 ZAR  HZ EP   2    517 52.20                             122   -0.83 4  210 293 
 ZAR  HN ES   2    518 18.47                             122   -0.32 4  210 293 
 ZAR  HZ I         518 23.97        13.1 0.47                           210 293 
 NOR  SZ EP   1    517 55.83                             119   -0.08 6  236 236 
 NOR  SN ES   2    518 23.85                             119   -0.06 4  236 236 
 CHI  HZ EP   1    517 57.48                             118    0.02 6  246 196 
 CHI  HN ES   2    518 26.71                             118    0.03 4  246 196 
 CHI  HZ I         518 31.07         4.0 0.49                           246 196 
 HEL  HZ EP   1    518  1.61                             115    1.00 6  275 257 
 HEL  HZ I         518 37.60         4.5 0.23                           275 257 
 RREF HZ EP   2    518  6.91                             111    0.64 3  323 230 
 RREF HN ES   2    518 42.53                             111    0.17 3  323 230 
 RREF HZ I         518 51.13         7.4 0.36                           323 230 
 PRA  HZ EP   2    518 13.60                             107    0.18 3  391 210 
 PRA  HN ES   2    518 55.38                             107    0.30 3  391 210 
                                                                                
