 2016  615 0214 52.1 L   6.823 -73.128152.0  RSN 28 0.5 2.6LRSN                1
 GAP= 53        0.95       2.3     2.5  4.2 -0.1431E+01  0.1293E+01  0.9326E+00E
 Epicentro: LOS SANTOS - SANTANDER                                             3
 ACTION:UPD 16-07-21 22:19 OP:rebc STATUS:               ID:20160615021452 L   I
 OLDACT:UP  16-06-15 16:06 OP:dani STATUS:               ID:20160615020745d    3
 OLDACT:UP  16-06-15 16:04 OP:dani STATUS:               ID:20160615020745d    3
 OLDACT:UP  16-06-15 16:04 OP:dani STATUS:               ID:20160615020745d    3
 OLDACT:UP  16-06-15 16:03 OP:dani STATUS:               ID:20160615020745d    3
 OLDACT:DUP 16-06-15 15:50 OP:dani STATUS:               ID:20160615020745d    3
 2016-06-15-0207-44M.COL___322                                                 6
 STAT SP IPHASW D HRMM SECON CODA AMPLIT PERI AZIMU VELO AIN AR TRES W  DIS CAZ7
 BAR2 EZ IP     D  215 12.27                             170   -0.2510 26.3 193 
 BAR2 EZ I         215 30.11        67.3 0.22                          26.3 193 
 BRR  HZ IP     D  215 14.07                             153    0.1310 71.8 296 
 BRR  HN ES        215 30.79                             153   -0.2010 71.8 296 
 BRR  HZ I         215 34.31        85.6 0.26                          71.8 296 
 PAM  EZ EP        215 15.24                             153    0.4610 74.1  40 
 PAM  EN ES        215 32.41                             153   -0.0710 74.1  40 
 PAM  EZ I         215 35.21        47.9 0.58                          74.1  40 
 RUS  HZ EP     D  215 16.27                             144   -0.3510  103 177 
 RUS  HN ES        215 35.44                             144   -0.3210  103 177 
 RUS  HZ I         215 37.01        31.0 0.26                           103 177 
 PTB  HZ EP   9    215 18.69                             133   -1.09 0  150 258 
 PTB  HN ES        215 40.32                             133    0.02 9  150 258 
 PTB  HZ I         215 45.21        45.5 0.44                           150 258 
 TAM  HZ IP     C  215 20.73                             132    0.59 9  154 106 
 TAM  HZ I         215 41.67        35.5 0.36                           154 106 
 TAM  HN ES        215 42.69                             132    0.65 9  154 106 
 OCA  HZ EP        215 20.71                             131    0.04 9  158 352 
 OCA  HN ES        215 43.07                             131    0.10 9  158 352 
 OCA  HZ I         215 46.89        70.1 0.32                           158 352 
 SPBC HZ EP        215 21.03                             130   -0.33 9  166 219 
 SPBC HN ES        215 44.15                             130   -0.06 9  166 219 
 SPBC HZ I         215 49.42        73.7 0.26                           166 219 
 ZAR  HZ EP        215 24.76                             124   -0.27 9  205 291 
 ZAR  HN ES        215 51.02                             124    0.29 9  205 291 
 ZAR  HZ I         215 55.11        40.2 0.24                           205 291 
 NOR  HZ EP        215 28.35                             119   -0.16 8  238 234 
 NOR  HN ES        215 56.80                             119   -0.12 8  238 234 
 NOR  HZ I         216  4.12        32.0 0.16                           238 234 
 CHI  HZ EP     C  215 30.63                             118    0.18 8  252 195 
 CHI  HN ES        216  0.05                             118   -0.33 8  252 195 
 CHI  HZ I         216  6.02        14.2 0.36                           252 195 
 ROSC BZ EP   4    215 32.16                             118    1.27 0  256 211 
 ROSC BE ES        216  2.22                             118    1.05 8  256 211 
 ROSC BZ I         216  8.55        32.0 0.75                           256 211 
 HEL  HZ EP   4    215 34.01                             116    1.11 0  275 255 
 HEL  HE ES   4    216  7.43                             116    2.69 0  275 255 
 HEL  HZ I         216 11.02        27.0 0.44                           275 255 
 URE  HZ EP        215 32.82                             115   -0.74 7  285 291 
 URE  HE ES   4    216  3.92                             115   -1.99 0  285 291 
 URE  HZ I         216 16.43        50.2 0.86                           285 291 
 SOCV BZ EP        215 35.21                             113    0.14 7  298  57 
 SOCV BE ES        216  7.52                             113   -1.09 7  298  57 
 GUY2CHZ EP        215 36.60                             113    0.27 7  304 235 
 GUY2CHE ES   4    216 14.59                             113    3.74 0  304 235 
 GUY2CHZ I         216 17.47        21.7 0.56                           304 235 
 PTGC HZ EP     C  215 35.56                             113   -0.85 7  310 159 
 PTGC HN ES   4    216  8.76                             113   -2.22 0  310 159 
 PTGC HZ I         216 10.21        25.4 0.24                           310 159 
 LL6C HZ EP        215 38.41                             112    0.64 7  322 357 
 ELA  HZ EP   4    215 42.08                             111    2.52 0  332 229 
 ELA  HN ES   4    216 18.02                             111    1.42 0  332 229 
 ELA  HZ I         216 31.52        19.0 0.42                           332 229 
 CBOC HZ EP        215 39.90                             111    0.34 7  336 252 
 CBOC HN ES        216 16.56                             111   -0.04 7  336 252 
 CBOC HZ I         216 33.36         8.5 0.56                           336 252 
 DBB  SZ EP        215 39.75                             110   -0.27 7  341 274 
 DBB  SZ I         216 18.38        35.1 0.50                           341 274 
 ANIL HZ EP   4    215 44.54                             109    2.04 0  361 224 
 ANIL HN ES   4    216 24.90                             109    3.07 0  361 224 
 ANIL HZ I         216 28.49        44.2 0.32                           361 224 
 PRA  HZ EP        215 46.07                             107   -0.12 6  395 210 
 PRA  HE ES        216 27.75                             107   -0.65 6  395 210 
 PRA  HZ I         216 34.54        13.7 0.48                           395 210 
 ORTC HZ EP        215 46.49                             107   -0.10 6  399 216 
 ORTC HN ES        216 30.16                             107    1.04 6  399 216 
 ORTC HZ I         216 36.24         9.0 0.20                           399 216 
 SJC  HZ EP   4 D  215 46.50                             107   -1.23 0  408 327 
 SJC  HN ES   4    216 27.53                             107   -3.60 0  408 327 
 SJC  HZ I         216 35.15         6.9 0.26                           408 327 
 PAL  HZ EP        215 47.99                             107    0.19 6  409 239 
 CRJC HZ EP   9    215 52.77                             104   -1.67 0  465   3 
 CRJC HN ES        216 41.18                             105   -0.23 5  465   3 
 CRJC HZ I         216 49.28         8.4 0.14                           465   3 
 SMAR HZ EP        215 58.43                             103    0.56 4  495 346 
 SMAR HZ I         216 50.26         5.2 0.34                           495 346 
 MACC HZ EP   4    215 59.40                             102   -1.88 0  523 189 
                                                                                
