 2011  915 0359 34.2 L   6.867 -73.283118.0  RSN 11 0.3 2.1LRSN                1
 GAP=161        0.45       2.0     3.2  4.4 -0.6090E-01  0.4132E+01  0.3928E+00E
 Epicentro: BETULIA - SANTANDER                                                3
 ACTION:UPD 12-07-13 15:57 OP:ep   STATUS:               ID:20110915035934 L   I
 2011-09-15-0355-41S.COL___169                                                 6
 STAT SP IPHASW D HRMM SECON CODA AMPLIT PERI AZIMU VELO AIN AR TRES W  DIS CAZ7
 BAR2 SZ IP        359 50.89                             164    0.1610 32.3 160 
 BAR2 SZ ES   2    4 0  3.83                             164    0.18 5 32.3 160 
 BAR2 SZ I         4 0  5.22       111.1 0.34                          32.3 160 
 BRR  HZ IP     C  359 51.29                             154   -0.0710 54.4 299 
 BRR  HN ES   2    4 0  5.06                             154    0.29 5 54.4 299 
 BRR  HZ I         4 0  6.06        53.1 0.13                          54.4 299 
 RUS  HZ EP   1    359 55.83                             134   -0.26 7  110 168 
 RUS  HN ES   2    4 0 12.94                             134   -0.26 5  110 168 
 RUS  HZ I         4 0 14.66         5.6 0.21                           110 168 
 OCA  SZ EP   1    359 59.31                             124   -0.30 7  152 358 
 OCA  SZ ES   2    4 0 19.29                             124   -0.17 5  152 358 
 OCA  SZ I         4 0 25.68        23.2 0.53                           152 358 
 ZAR  HZ EP   2    4 0  2.77                             118   -0.36 4  187 292 
 ZAR  HN ES   2    4 0 26.03                             118    0.31 4  187 292 
 ZAR  HZ I         4 0 28.35        15.3 0.44                           187 292 
 NOR  SZ EP   2    4 0  7.73                             113    0.14 4  227 231 
 NOR  SN ES   2    4 0 33.00                             113   -0.66 4  227 231 
 CHI  HZ EP   1    4 0 11.03                             110    0.13 6  252 191 
 CHI  HN ES   2    4 0 40.17                             110    0.61 4  252 191 
 CHI  HZ I         4 0 43.01         4.2 0.87                           252 191 
 HEL  HZ EP   1    4 0 12.02                             110    0.36 6  259 253 
 HEL  HN ES   2    4 0 40.44                             110   -0.47 4  259 253 
 HEL  HZ I         4 0 46.15         6.5 0.24                           259 253 
 RREF HN ES   2    4 0 53.40                             106    0.30 3  315 227 
 RREF HZ I         4 0 59.11         5.0 0.27                           315 227 
 COD  HZ EP   2    4 0 20.82                             104    0.23 3  340 357 
 COD  HZ I         4 0 35.52        17.6 0.89                           340 357 
 COD  HN ES   2    4 0 57.30                             104    0.50 3  340 357 
 PRA  HE ES   2    4 1  7.43                             101   -0.39 3  391 207 
                                                                                
