 2013  115 0910 44.2 L   6.791 -73.184150.2  RSN  5 0.3 1.1LRSN                1
 GAP=233        0.69       7.2     6.9  6.7  0.2597E+02  0.5029E+01 -0.4771E+01E
 Epicentro: LOS SANTOS - SANTANDER                                             3
 ACTION:UPD 13-02-15 09:14 OP:ep   STATUS:               ID:20130115091044 L   I
 2013-01-15-0910-00M.COL___241                                                 6
 STAT SP IPHASW D HRMM SECON CODA AMPLIT PERI AZIMU VELO AIN AR TRES W  DIS CAZ7
 BAR2 SZ EP   1    911  4.10                             171   -0.25 7 21.9 180 
 BAR2 SZ ES   1    911 19.45                             171   -0.61 7 21.9 180 
 BRR  HZ EP   1    911  5.96                             154    0.28 7 68.0 301 
 BRR  HN ES   1    911 22.90                             154    0.49 7 68.0 301 
 RUS  HZ EP   1    911  8.62                             145    0.26 7 99.9 174 
 RUS  HN ES   1    911 27.45                             145    0.26 7 99.9 174 
 RUS  HZ I         911 28.38         1.3 0.30             47           99.9 174 
 PTB  HZ EP   1    911 11.03                             134   -0.13 7  143 259 
 PTB  HN ES   1    911 32.06                             134   -0.12 7  143 259 
 PTB  HZ I         911 34.46         1.8 0.18             47            143 259 
 ZAR  HZ EP   1    911 16.31                             124   -0.29 6  201 293 
 ZAR  HZ I         911 48.29         1.9 0.34             37            201 293 
                                                                                
