 2016  215 0349 19.4 L   7.390 -73.188135.5  RSN  7 0.3 1.4LRSN                1
 GAP=105        0.85       3.3     3.9  5.8 -0.2460E+01  0.8041E+01  0.3997E+00E
 Epicentro: EL PLAYON - SANTANDER                                              3
 ACTION:UPD 16-03-04 21:26 OP:rebc STATUS:               ID:20160215034919 L   I
 OLDACT:REG 16-02-15 12:11 OP:drio STATUS:               ID:20160215034750     3
 2016-02-15-0347-50M.COL___302                                                 6
 STAT SP IPHASW D HRMM SECON CODA AMPLIT PERI AZIMU VELO AIN AR TRES W  DIS CAZ7
 PAM  EZ EP        349 39.71                             157    0.4810 54.3  96 
 PAM  EE ES        349 54.79                             157    0.0710 54.3  96 
 PAM  EZ I         349 57.05         3.1 0.44            162           54.3  96 
 BRR  HZ EP        349 39.28                             153    0.1710 65.7 242 
 BRR  HE ES        349 54.70                             153    0.2010 65.7 242 
 BRR  HZ I         349 57.61         7.7 0.44            153           65.7 242 
 BAR2 EZ ES        349 57.70                             145    0.0610 88.2 180 
 BAR2 EZ I         349 58.79         6.4 0.16            148           88.2 180 
 OCA  HZ EP        349 40.97                             143   -0.2810 95.0 351 
 OCA  HE ES        349 57.79                             143   -0.5110 95.0 351 
 OCA  HZ I         350  5.18         3.5 0.26            145           95.0 351 
 PTB  HZ EP        349 47.44                             126   -0.12 9  169 236 
 PTB  HN ES        350  9.45                             126   -0.09 9  169 236 
 PTB  HZ I         350 12.10         2.6 0.40            128            169 236 
 ZAR  HZ EP        349 49.29                             123    0.13 9  185 274 
 ZAR  HN ES        350 12.87                             123    0.48 9  185 274 
 ZAR  HZ I         350 17.02         4.4 0.22            125            185 274 
 SPBC HZ EP        349 52.57                             118    0.06 8  216 207 
 SPBC HN ES        350 17.61                             118   -0.74 8  216 207 
 SPBC HZ I         350 26.53         2.1 0.28            121            216 207 
                                                                                
