 2016 1115 0308  9.4 L   6.755 -73.047146.0  RSN  6 0.3 1.6LRSN                1
 GAP=130        0.73       6.3     3.9  5.5  0.1410E+01 -0.1135E+01  0.3768E+00E
 Epicentro: JORDAN - SANTANDER                                                 3
 ACTION:UPD 17-10-26 21:08 OP:lp   STATUS:               ID:20161115030809 L   I
 OLDACT:UP  16-11-15 15:07 OP:edw  STATUS:               ID:20161115030747     3
 OLDACT:UP  16-11-15 15:06 OP:edw  STATUS:               ID:20161115030747     3
 OLDACT:REG 16-11-15 12:47 OP:edw  STATUS:               ID:20161115030747     3
 2016-11-15-0308-00M.COL___338                                                 6
 STAT SP IPHASW D HRMM SECON CODA AMPLIT PERI AZIMU VELO AIN AR TRES W  DIS CAZ7
 BAR2 EZ EP        3 8 29.10                             170    0.0210 23.4 220 
 BAR2 EZ ES        3 8 44.36                             170   -0.0510 23.4 220 
 BAR2 EZ I         3 8 46.87        10.7 0.24            165           23.4 220 
 PAM  EZ EP        3 8 32.04                             152    0.5110 75.1  31 
 PAM  EN ES        3 8 48.53                             152   -0.2410 75.1  31 
 PAM  EZ I         3 8 51.31         7.0 0.38            149           75.1  31 
 BRR  HZ EP        3 8 30.88                             149   -0.4310 83.2 298 
 BRR  HZ I         3 8 48.47         5.7 0.38            142           83.2 298 
 BRR  HN ES        3 8 48.65                             149    0.2610 83.2 298 
 PTB  HZ EP   9    3 8 34.23                             130   -3.09 0  158 261 
 PTB  HN ES        3 8 56.20                             131    0.21 9  158 261 
 PTB  HZ I         3 9  4.01         3.8 0.46            123            158 261 
 ZAR  HZ EP   4    3 8 44.19                             121    1.06 0  216 292 
 ZAR  HN ES        3 9  9.32                             121   -0.10 8  216 292 
 CHI  HN ES   4    3 9 16.51                             117    0.28 0  247 198 
 PTGC HZ EP   2    3 8 52.31                             112   -0.02 4  300 160 
 PTGC HN ES   4    3 9 23.79                             112   -2.00 0  300 160 
                                                                                
