 2015  115 0617 19.3 L   6.744 -73.128141.2  RSN  7 0.4 1.4LRSN                1
 GAP=141        1.12       4.6     4.8  7.1 -0.9472E+00  0.9040E+01  0.7830E-01E
 Epicentro: LOS SANTOS - SANTANDER                                             3
 ACTION:UPD 15-03-02 15:39 OP:nd   STATUS:               ID:20150115061719 L   I
 OLDACT:DUP 15-01-15 15:04 OP:carl STATUS:               ID:20150115060750d    3
 2015-01-15-0607-49M.COL___250                                                 6
 STAT SP IPHASW D HRMM SECON CODA AMPLIT PERI AZIMU VELO AIN AR TRES W  DIS CAZ7
 BAR2 EZ EP        617 38.21                             172   -0.0510 17.8 200 
 BAR2 EZ ES        617 52.98                             172   -0.0910 17.8 200 
 BAR2 EZ I         617 54.01         6.8 0.20            171           17.8 200 
 BRR  HZ EP        617 40.07                             150   -0.1610 76.0 302 
 BRR  HN ES        617 56.88                             150    0.3210 76.0 302 
 BRR  HZ I         618  1.46         5.4 0.12            149           76.0 302 
 PAM  SZ EP        617 41.31                             149    0.0610 81.1  36 
 PAM  SN ES        617 57.99                             149   -0.3910 81.1  36 
 PAM  SZ I         618  0.12         4.8 0.54            153           81.1  36 
 RUS  HZ EP        617 42.25                             145    0.1210 94.2 177 
 RUS  HN ES        618  0.55                             145    0.6010 94.2 177 
 RUS  HZ I         618  1.59         3.0 0.38            147           94.2 177 
 PTB  HZ EP        617 45.41                             131   -0.55 9  149 261 
 PTB  HN ES        618  5.87                             131   -0.90 9  149 261 
 PTB  HZ I         618  8.44         3.2 0.54            131            149 261 
 SPBC HZ EP        617 46.93                             129   -0.17 9  160 221 
 SPBC HN ES        618  8.78                             129   -0.01 9  160 221 
 SPBC HZ I         618 15.36         3.2 0.20            130            160 221 
 ZAR  HZ EP        617 52.43                             121    0.56 8  208 294 
 ZAR  HN ES        618 18.14                             121    0.84 8  208 294 
 ZAR  HZ I         618 23.93         3.8 0.56            122            208 294 
                                                                                
