 2016  515 0910  4.6 L   6.635 -73.191142.0  RSN  4 0.2 1.2LRSN                1
 GAP=216        0.59       6.4     4.2  4.7  0.9343E+01  0.5613E+01  0.1678E+00E
 Epicentro: BARICHARA - SANTANDER                                              3
 ACTION:UPD 16-08-18 17:46 OP:cam  STATUS:               ID:20160515091004 L   I
 OLDACT:DUP 16-05-15 15:57 OP:drio STATUS:               ID:20160515090746d    3
 2016-05-15-0907-44M.COL___291                                                 6
 STAT SP IPHASW D HRMM SECON CODA AMPLIT PERI AZIMU VELO AIN AR TRES W  DIS CAZ7
 BAR2 EZ EP        910 23.50                             178   -0.0910 4.82 169 
 BAR2 EZ ES        910 38.59                             178    0.2310 4.82 169 
 BAR2 EZ I         910 39.42         3.7 0.18            169           4.82 169 
 BRR  HZ EP        910 25.52                             150   -0.2610 77.7 312 
 BRR  HE ES        910 42.19                             150   -0.0710 77.7 312 
 BRR  HZ I         910 44.10         3.2 0.74            147           77.7 312 
 PTB  HZ EP        910 30.45                             133   -0.18 9  140 266 
 PTB  HN ES        910 50.91                             133    0.01 9  140 266 
 PTB  HZ I         910 58.21         1.4 0.26            130            140 266 
 ZAR  HZ EP     D  910 37.67                             121    0.50 8  207 297 
 ZAR  HN ES        911  2.52                             121   -0.02 8  207 297 
 ZAR  HZ I         911  8.00         2.0 0.34            121            207 297 
                                                                                
