 2010  715 0209  2.4 L   6.793 -73.107140.6  RSN  7 0.3 1.9LRSN                1
 GAP=160        0.79       3.8     6.6  7.0 -0.4064E+01 -0.4059E+01 -0.5979E+01E
 Epicentro: LOS SANTOS - SANTANDER                                             3
 ACTION:UPD 10-12-01 15:17 OP:pat  STATUS:               ID:20100715020902 L   I
 2010-07-15-0205-14S.COL___120                                                 6
 STAT SP IPHASW D HRMM SECON CODA AMPLIT PERI AZIMU VELO AIN AR TRES W  DIS CAZ7
 BAR2 SZ EP   1    2 9 21.14                             170    -0.2 8   24 201 
 BAR2 SZ ES   1    2 9 35.70                             170    -0.5 8   24 201 
 BAR2 SZ I         2 9 36.84        14.1 0.29                            24 201 
 BRR  HZ EP   1    2 9 23.00                             150    -0.2 8   75 298 
 BRR  HN ES   1    2 9 40.11                             150     0.6 8   75 298 
 BRR  HZ I         2 9 44.41        24.1 0.19                            75 298 
 RUS  HZ EP   1    2 9 25.67                             143     0.1 8  100 179 
 RUS  HE ES   1    2 9 43.76                             143     0.1 8  100 179 
 BRI  SZ IP        2 9 25.88                             140     0.210  108  19 
 BRI  SZ I         2 9 49.14        12.8 0.41                           108  19 
 GRA  SZ IP        2 9 27.16                             136     0.010  125  15 
 GRA  SZ ES   1    2 9 46.70                             136     0.3 7  125  15 
 GRA  SZ I         2 9 48.87        12.0 0.30                           125  15 
 OCA  SZ EP   1    2 9 30.21                             128    -0.2 7  162 352 
 OCA  SZ ES   1    2 9 51.76                             128    -0.5 7  162 352 
 OCA  SZ I         2 9 55.86        17.2 0.45                           162 352 
 HEL  HZ EP   2    2 9 43.17                             113     0.4 4  276 256 
 HEL  HE ES   2    210 13.88                             113    -0.4 4  276 256 
 HEL  HZ I         210 22.19         2.9 0.30                           276 256 
                                                                                
