 2012 1215 0437 54.8 L   6.822 -73.180138.0  RSN  9 0.4 1.8LRSN                1
 GAP=131        0.68       3.3     4.1  5.9 -0.4961E+00  0.7995E+01  0.2221E+01E
 Epicentro: ZAPATOCA - SANTANDER                                               3
 ACTION:UPD 13-01-04 14:27 OP:ep   STATUS:               ID:20121215043754 L   I
 2012-12-15-0435-41M.COL___204                                                 6
 STAT SP IPHASW D HRMM SECON CODA AMPLIT PERI AZIMU VELO AIN AR TRES W  DIS CAZ7
 BAR2 SZ EP   1    438 13.30                             169   -0.26 7 25.4 181 
 BAR2 SZ ES   1    438 27.96                             169   -0.22 7 25.4 181 
 BAR2 SZ I         438 29.57        21.5 0.10                          25.4 181 
 GIR2 SZ EP   1    438 13.48                             168   -0.01 7 28.4 357 
 GIR2 SZ ES   1    438 28.14                             168    0.08 7 28.4 357 
 GIR2 SZ I         438 30.39        11.6 0.58                          28.4 357 
 BRR  HZ EP   1    438 15.23                             153    0.35 7 66.8 298 
 BRR  HN ES   4    438 31.95                             153    1.42 0 66.8 298 
 BRR  HZ I         438 36.02        13.2 0.16                          66.8 298 
 PAM  SZ EP   1    438 16.35                             149    0.09 7 78.0  43 
 PAM  SN ES   1    438 33.30                             149    0.33 7 78.0  43 
 PAM  SZ I         438 35.42        12.7 0.42                          78.0  43 
 RUS  HZ EP   1    438 17.68                             141   -0.34 7  103 174 
 RUS  HN ES   1    438 36.48                             141    0.36 7  103 174 
 RUS  HZ I         438 37.36         5.4 0.36                           103 174 
 PTB  HZ EP   1    438 20.27                             131   -0.60 7  145 258 
 PTB  HN ES   1    438 40.95                             131   -0.24 7  145 258 
 PTB  HZ I         438 44.07         6.8 0.14                           145 258 
 OCA  HN ES   1    438 43.26                             128   -0.42 7  157 354 
 OCA  HZ I         438 48.41         7.4 0.38                           157 354 
 ZAR  HE ES   1    438 51.55                             121    0.67 6  200 292 
 ZAR  HZ I         438 58.10         7.5 0.38                           200 292 
 PRA  HZ EP   1    438 48.62                             105    0.50 4  392 209 
 PRA  HN ES   2    439 30.12                             105    0.43 3  392 209 
 PRA  HZ I         439 35.08         1.8 0.28                           392 209 
                                                                                
