 2010 1015 0558  7.0 L   6.537 -73.517116.2  RSN  6 0.3 1.2LRSN                1
 GAP=107        0.63       4.8     6.7  9.2 -0.8046E+01  0.2784E+02 -0.1332E+02E
 Epicentro: EL CARMEN DE CHUCURI - SANTANDER                                   3
 ACTION:UP  11-02-18 11:09 OP:tino STATUS:               ID:20101015055807 L   I
 2010-10-15-0554-57S.COL___128                                                 6
 STAT SP IPHASW D HRMM SECON CODA AMPLIT PERI AZIMU VELO SNR AR TRES W  DIS CAZ7
 BAR2 SZ EP        558 23.61                             161     0.110   37  81 
 BAR2 SZ ES   1    558 36.11                             161    -0.3 7   37  81 
 BTL  SZ EP        558 24.45                             155     0.410   50  33 
 BRR  HZ EP        558 24.48                             148    -0.210   67 341 
 BRR  HZ I         558 39.50         5.7 0.14                            67 341 
 RUS  HZ EP   1    558 26.57                             141    -0.2 7   86 146 
 RUS  HZ I         558 29.08         1.4 0.15                            86 146 
 RUS  HN ES   2    558 42.33                             141     0.1 5   86 146 
 GRA  SZ EP   2    558 33.51                             120    -0.5 5  169  28 
 GRA  SZ ES   2    558 55.47                             120     0.3 5  169  28 
 GRA  SZ I         558 58.66         3.2 0.29                           169  28 
 NOR  SN ES   2    558 58.10                             117     0.2 4  184 235 
                                                                                
