 2014 1015 0952 15.1 L   6.771 -73.141148.6  RSN  6 0.4 1.5LRSN                1
 GAP=138        0.81       3.8     4.3  8.4  0.8210E+00  0.8410E+01 -0.1061E+02E
 Epicentro: LOS SANTOS - SANTANDER                                             3
 ACTION:UPD 14-11-29 23:50 OP:nd   STATUS:               ID:20141015095215 L   I
 OLDACT:UP  14-10-15 18:38 OP:mh   STATUS:               ID:20141015094746     3
 OLDACT:UP  14-10-15 18:37 OP:mh   STATUS:               ID:20141015094746     3
 OLDACT:UP  14-10-15 18:36 OP:mh   STATUS:               ID:20141015094746     3
 OLDACT:UP  14-10-15 18:35 OP:mh   STATUS:               ID:20141015094746     3
 OLDACT:REG 14-10-15 13:42 OP:mh   STATUS:               ID:20141015094746     3
 2014-10-15-0947-46M.COL___286                                                 6
 STAT SP IPHASW D HRMM SECON CODA AMPLIT PERI AZIMU VELO AIN AR TRES W  DIS CAZ7
 BAR2 SZ EP   1    952 35.04                             172    0.00 7 20.2 193 
 BAR2 SZ I         952 36.10         5.0 0.62            173           20.2 193 
 PAM  SZ EP        952 37.81                             150    0.0410 79.6  38 
 PAM  SN ES   1    952 55.07                             150   -0.37 7 79.6  38 
 PAM  SZ I         952 56.77         3.6 0.42            152           79.6  38 
 RUS  HZ EP        952 38.79                             145   -0.1310 97.3 176 
 RUS  HN ES        952 57.86                             145    0.3710 97.3 176 
 RUS  HZ I         952 59.43         3.0 0.50            151           97.3 176 
 PTB  HZ EP        952 42.20                             133   -0.11 9  148 260 
 PTB  HN ES        953  3.08                             133   -0.44 9  148 260 
 PTB  HZ I         953  6.71         4.3 0.10            134            148 260 
 ZAR  HZ EP   1    952 48.58                             123    0.65 6  206 293 
 ZAR  HN ES   1    953 13.71                             123    0.19 6  206 293 
 ZAR  HZ I         953 19.86         3.7 0.32            124            206 293 
 SML  HZ EP   1    952 51.51                             118   -0.74 6  247 336 
 SML  HN ES        953 21.74                             118    0.53 8  247 336 
 SML  HZ I         953 30.70         3.6 0.28            119            247 336 
                                                                                
