 2014 1015 0739 16.8 L   6.214 -73.683106.6  RSN  6 0.2 1.2LRSN                1
 GAP=175        0.53       2.6     2.6  4.8  0.1794E+01  0.4885E+01 -0.3419E+00E
 Epicentro: LA PAZ - SANTANDER                                                 3
 ACTION:UPD 14-11-29 23:50 OP:nd   STATUS:               ID:20141015073916 L   I
 OLDACT:REG 14-10-15 13:39 OP:mh   STATUS:               ID:20141015073747     3
 2014-10-15-0737-47M.COL___292                                                 6
 STAT SP IPHASW D HRMM SECON CODA AMPLIT PERI AZIMU VELO AIN AR TRES W  DIS CAZ7
 BAR2 SZ EP   1    739 34.22                             144    0.17 7 69.3  53 
 BAR2 SZ ES        739 47.70                             144    0.1710 69.3  53 
 RUS  HZ EP        739 35.15                             142    0.3110 75.3 118 
 RUS  HN ES   1    739 48.54                             142   -0.40 7 75.3 118 
 RUS  HZ I         739 50.27         3.5 0.30            148           75.3 118 
 PTB  HZ EP        739 35.58                             136   -0.0010 92.8 293 
 PTB  HN ES   1    739 50.20                             136   -0.06 7 92.8 293 
 PTB  HZ I         739 52.78         3.1 0.18            138           92.8 293 
 BRR  HZ EP        739 35.87                             134   -0.2110 98.8 358 
 BRR  HN ES        739 51.06                             134   -0.0810 98.8 358 
 BRR  HZ I         739 59.19         1.7 0.16            133           98.8 358 
 ZAR  HZ EP        739 45.44                             114   -0.21 9  192 317 
 ZAR  HN ES   1    740  8.54                             114    0.37 7  192 317 
 ZAR  HZ I         740  9.87         2.7 0.16            117            192 317 
 OCA  HN ES        740 15.64                             109   -0.02 8  227  10 
 OCA  HZ I         740 22.46         3.1 0.57            112            227  10 
                                                                                
