 2011  215 0308  9.6 L   6.794 -73.157135.2  RSN  6 0.3 1.8LRSN                1
 GAP=182        0.51       2.5     5.8  5.3 -0.1849E+01  0.1552E+02 -0.2401E+01E
 Epicentro: LOS SANTOS - SANTANDER                                             3
 ACTION:UP  11-03-28 15:08 OP:jfem STATUS:               ID:20110215030809 L   I
 2011-02-15-0304-17S.COL___136                                                 6
 STAT SP IPHASW D HRMM SECON CODA AMPLIT PERI AZIMU VELO SNR AR TRES W  DIS CAZ7
 BAR2 SZ EP        3 8 27.93                             170     0.010   23 188 
 BAR2 SZ ES   1    3 8 42.40                             170     0.1 7   23 188 
 BAR2 SZ I         3 8 43.75        29.9 0.23                            23 188 
 RUS  HZ EP        3 8 32.40                             142     0.110  100 175 
 RUS  HN ES   1    3 8 49.73                             142    -0.3 7  100 175 
 RUS  HZ I         3 8 52.17         6.6 0.16                           100 175 
 OCA  SZ EP        3 8 37.07                             127    -0.1 9  161 354 
 OCA  SZ ES   1    3 8 58.68                             127     0.0 7  161 354 
 OCA  SZ I         3 9  1.93        15.1 0.35                           161 354 
 NOR  SZ EP        3 8 44.42                             116    -0.2 8  233 235 
 CHI  HZ EP   3    3 8 46.45                             115    -0.2 2  248 195 
 CHI  HN ES   2    3 9 15.86                             115     0.3 4  248 195 
 CHI  HZ I         3 9 19.84         1.3 0.44                           248 195 
 HEL  HZ EP   2    3 8 50.04                             113     0.9 4  271 256 
 HEL  HE ES   2    3 9 19.73                             113    -0.3 4  271 256 
 HEL  HZ I         3 9 29.32         4.4 0.37                           271 256 
                                                                                
