 2014 1115 0802 48.8 L   6.813 -73.159149.7  RSN  6 0.4 1.3LRSN                1
 GAP=134        1.05       5.1     5.3  7.6 -0.6692E+01  0.4551E+01  0.1588E+01E
 Epicentro: LOS SANTOS - SANTANDER                                             3
 ACTION:UPD 14-12-19 15:43 OP:nd   STATUS:               ID:20141115080248 L   I
 OLDACT:REG 14-11-15 14:30 OP:stll STATUS:               ID:20141115075746     3
 2014-11-15-0757-46M.COL___274                                                 6
 STAT SP IPHASW D HRMM SECON CODA AMPLIT PERI AZIMU VELO AIN AR TRES W  DIS CAZ7
 BAR2 SZ EP        8 3  8.84                             170   -0.0510 24.5 186 
 BAR2 SZ I         8 3  9.27         4.2 0.38            172           24.5 186 
 BAR2 SZ ES        8 3 24.31                             170   -0.2810 24.5 186 
 BRR  HZ EP        8 3 10.50                             154    0.2710 69.3 298 
 BRR  HN ES        8 3 27.80                             154    0.8210 69.3 298 
 BRR  HZ I         8 3 32.21         4.4 0.16            153           69.3 298 
 PAM  SZ EP        8 3 11.46                             152    0.0710 77.2  41 
 PAM  SN ES        8 3 28.50                             152   -0.5310 77.2  41 
 PAM  SZ I         8 3 30.80         3.4 0.48            153           77.2  41 
 RUS  HZ EP        8 3 13.38                             144    0.3710  102 175 
 RUS  HN ES        8 3 32.17                             144    0.2510  102 175 
 RUS  HZ I         8 3 32.66         1.9 0.26            148            102 175 
 PTB  HZ EP        8 3 15.57                             133   -0.39 9  147 258 
 PTB  HN ES        8 3 36.71                             133   -0.45 9  147 258 
 PTB  HZ I         8 3 39.22         2.2 0.16            134            147 258 
 SPBC HN ES        8 3 39.86                             130   -0.21 9  163 218 
                                                                                
