 2013  415 0609 28.8 L   6.796 -73.127154.0  RSN  9 0.5 2.0LRSN                1
 GAP=185        0.89       3.5     6.3  7.1  0.3831E+00  0.2412E+01 -0.2198E+01E
 Epicentro: LOS SANTOS - SANTANDER                                             3
 ACTION:UPD 13-05-22 14:38 OP:EP   STATUS:               ID:20130415060928 L   I
 2013-04-15-0607-36M.COL___206                                                 6
 STAT SP IPHASW D HRMM SECON CODA AMPLIT PERI AZIMU VELO AIN AR TRES W  DIS CAZ7
 BAR2 SZ EP     C  6 9 49.41                             171   -0.0310 23.4 195 
 BAR2 SZ I         610  6.15        19.8 0.28            170           23.4 195 
 BRR  HZ IP     C  6 9 51.30                             153    0.3410 73.2 298 
 BRR  HN ES   1    610  8.85                             153    0.60 7 73.2 298 
 BRR  HZ I         610 13.66        12.9 0.12            154           73.2 298 
 RUS  HZ EP        6 9 53.32                             146   -0.0310  100 177 
 RUS  HN ES   1    610 12.07                             146   -0.41 7  100 177 
 RUS  HZ I         610 13.29         6.5 0.38            148            100 177 
 PTB  HZ EP        6 9 56.11                             133   -0.52 9  150 259 
 PTB  HN ES   1    610 17.62                             133   -0.71 7  150 259 
 PTB  HZ I         610 24.88        14.4 0.42            135            150 259 
 OCA  HZ EP        6 9 57.92                             131    0.09 9  161 352 
 OCA  HN ES   1    610 20.59                             131    0.12 7  161 352 
 OCA  HZ I         610 25.37        12.6 0.30            135            161 352 
 SML  HZ EP        610  5.95                             119   -0.09 8  245 335 
 SML  HN ES   1    610 35.11                             119    0.03 6  245 335 
 SML  HZ I         610 37.34        14.5 0.10            122            245 335 
 HEL  HZ EP   1    610 10.50                             116    0.84 6  274 256 
 HEL  HN ES   2    610 41.69                             116    0.17 4  274 256 
 HEL  HZ I         610 49.12         4.7 0.28            118            274 256 
 PRA  HZ EP        610 23.47                             108    0.77 6  393 210 
 PRA  HN ES   1    611  5.16                             108    0.42 4  393 210 
 PRA  HZ I         611 10.07         3.0 0.52            110            393 210 
 SJC  HZ EP        610 23.83                             107   -0.99 6  411 327 
 SJC  HN ES   4    611  5.53                             107   -2.98 0  411 327 
 SJC  HZ I         611 10.08         2.2 0.33            109            411 327 
                                                                                
