 2011 1215 0208 47.6 L   6.783 -73.110143.9  RSN  4 0.2 1.4LRSN                1
 GAP=142        0.42       3.0     4.2  5.3  0.3549E+00  0.7005E+00  0.1775E+01E
 Epicentro: LOS SANTOS - SANTANDER                                             3
 ACTION:UPD 12-07-13 16:16 OP:ep   STATUS:               ID:20111215020847 L   I
 2011-12-15-0206-48S.COL___147                                                 6
 STAT SP IPHASW D HRMM SECON CODA AMPLIT PERI AZIMU VELO AIN AR TRES W  DIS CAZ7
 BAR2 SZ EP   1    2 9  6.80                             171   -0.24 7 22.6 201 
 BRR  HZ EP        2 9  8.83                             151   -0.0210 75.6 298 
 BRR  HE ES   1    2 9 25.46                             151    0.07 7 75.6 298 
 BRR  HZ I         2 9 30.01         8.4 0.16                          75.6 298 
 PAM  SZ EP   1    2 9  9.91                             151    0.30 7 76.4  36 
 PAM  SN ES   1    2 9 26.60                             151   -0.13 7 76.4  36 
 RUS  HZ EP   1    2 9 10.99                             144   -0.08 7 98.5 178 
 RUS  HE ES   1    2 9 29.46                             144    0.12 7 98.5 178 
 RUS  HZ I         2 9 30.55         2.2 0.27                          98.5 178 
                                                                                
