 2017  215 0923 38.1 L   6.988 -73.265125.3  RSN  5 0.3 1.5LRSN                1
 GAP=240        0.70       5.1     4.5  5.1  0.1505E+02  0.2528E+01 -0.1642E+01E
 Epicentro: BETULIA - SANTANDER                                                3
 ACTION:UPD 17-05-24 15:36 OP:jn   STATUS:               ID:20170215092338 L   I
 OLDACT:DUP 17-02-15 18:23 OP:dani STATUS:               ID:20170215091745d    3
 OLDACT:UP  17-02-15 18:22 OP:dani STATUS:               ID:20170215091744     3
 OLDACT:UP  17-02-15 18:22 OP:dani STATUS:               ID:20170215091744     3
 OLDACT:UP  17-02-15 18:22 OP:dani STATUS:               ID:20170215091744     3
 OLDACT:REG 17-02-15 13:13 OP:dani STATUS:               ID:20170215091744     3
 2017-02-15-0918-00M.COL___349                                                 6
 STAT SP IPHASW D HRMM SECON CODA AMPLIT PERI AZIMU VELO AIN AR TRES W  DIS CAZ7
 BAR2 EZ EP        923 56.08                             159    0.1010 44.7 168 
 BAR2 EZ ES        924 10.15                             159    0.2110 44.7 168 
 BAR2 EZ I         924 11.28        23.9 0.38            157           44.7 168 
 BRR  HZ EP        923 55.63                             156   -0.3010 51.1 285 
 BRR  HN ES        924  9.60                             156   -0.2410 51.1 285 
 BRR  HZ I         924 11.00        20.0 0.32            150           51.1 285 
 RUS  HZ EP        924  1.93                             133    0.1610  123 171 
 RUS  HN ES        924 20.24                             133   -0.0010  123 171 
 RUS  HZ I         924 21.55         2.2 0.22            133            123 171 
 PTB  HZ EP        924  2.29                             128   -0.50 9  141 249 
 PTB  HN ES        924 22.04                             128   -0.01 9  141 249 
 PTB  HZ I         924 26.71         2.7 0.23            125            141 249 
 ZAR  HZ EP        924  7.45                             120    0.25 9  185 288 
 ZAR  HN ES        924 30.35                             120    0.44 9  185 288 
 ZAR  HZ I         924 38.23         2.0 0.35            119            185 288 
                                                                                
