 2012  815 0328  7.0 L   6.717 -73.180146.8  RSN  5 0.4 1.5LRSN                1
 GAP=227        0.95       7.9     7.6 10.6  0.3570E+02  0.6475E+01 -0.2515E+01E
 Epicentro: VILLANUEVA - SANTANDER                                             3
 ACTION:UPD 12-09-10 11:56 OP:ep   STATUS:               ID:20120815032807 L   I
 2012-08-15-0320-00M.COL___217                                                 6
 STAT SP IPHASW D HRMM SECON CODA AMPLIT PERI AZIMU VELO AIN AR TRES W  DIS CAZ7
 BAR2 SZ EP   1    328 26.13                             175   -0.48 7 13.8 181 
 BAR2 SZ ES   1    328 41.16                             175   -0.74 7 13.8 181 
 BAR2 SZ I         328 42.45         8.5 0.23                          13.8 181 
 BRR  HZ EP   1    328 28.33                             152   -0.03 7 72.9 306 
 BRR  HN ES        328 45.51                             152    0.4910 72.9 306 
 BRR  HZ I         328 46.85         6.5 0.14                          72.9 306 
 RUS  HZ EP   1    328 30.43                             147    0.18 7 91.8 173 
 RUS  HN ES        328 48.77                             147    0.3910 91.8 173 
 RUS  HZ I         328 49.99         4.9 0.34                          91.8 173 
 PTB  HN ES        328 53.90                             134   -0.41 9  142 262 
 PTB  HZ I         328 55.10         2.5 0.11                           142 262 
 ZAR  HE ES   1    329  5.10                             123    0.20 6  204 295 
                                                                                
