 2010  115 0454 27.5 L   6.819 -73.030146.4  RSN  4 0.2 1.4LRSN                1
 GAP=195        0.44       3.4    20.6  4.8 -0.2006E+02  0.3832E+02 -0.3716E+01E
 Epicentro: CEPITA - SANTANDER                                                 3
 ACTION:UP  10-08-24 09:44 OP:vdl  STATUS:               ID:20100115045427 L   I
 2010-01-15-0452-01S.COL___095                                                 6
 STAT SP IPHASW D HRMM SECON CODA AMPLIT PERI AZIMU VELO SNR AR TRES W  DIS CAZ7
 BAR2 SZ EP   1    454 47.32                             168     0.010   30 214 
 BAR2 SZ ES   1    455  2.72                             168    -0.110   30 214 
 RUS  BZ EP   2    454 51.59                             143     0.2 6  103 183 
 RUS  BE ES   1    455 10.24                             143     0.110  103 183 
 RUS  BZ I         455 10.79         2.8 0.66                           103 183 
 OCA  SZ EP   1    454 55.97                             130     0.1 9  160 349 
 OCA  SZ I         455 24.10         5.8 0.27                           160 349 
 CHI  HZ IP        455  5.59                             117    -0.210  254 198 
 CHI  HE ES   2    455 36.13                             117     0.4 5  254 198 
 CHI  HZ I         455 40.69         1.2 0.50                           254 198 
                                                                                
