 2012  615 0344 31.3 L   6.856 -73.380123.2  RSN  6 0.4 1.8LRSN                1
 GAP= 91        0.82       4.0     4.6  9.0 -0.2623E+01  0.1104E+02 -0.8512E+01E
 Epicentro: SAN VICENTE DE CHUCURI - SANTANDER                                 3
 ACTION:UPD 12-08-06 17:49 OP:ep   STATUS:               ID:20120615034431 L   I
 2012-06-15-0340-00M.COL___200                                                 6
 STAT SP IPHASW D HRMM SECON CODA AMPLIT PERI AZIMU VELO AIN AR TRES W  DIS CAZ7
 BAR2 SZ EP        344 49.17                             162    0.5110 36.5 143 
 BAR2 SZ I         344 49.37        49.3 0.10                          36.5 143 
 BAR2 SZ ES   1    345  2.43                             162    0.26 7 36.5 143 
 PAM  SZ EP   1    344 52.52                             141    0.24 7 92.3  55 
 PAM  SN ES   1    345  8.07                             141   -0.55 7 92.3  55 
 RUS  HZ EP   1    344 53.85                             135    0.00 7  112 163 
 RUS  HE ES   1    345 11.20                             135   -0.22 7  112 163 
 RUS  HZ I         345 12.72         4.4 0.22                           112 163 
 PTB  HZ EP   1    344 54.26                             132   -0.05 7  124 254 
 PTB  HN ES   1    345 11.67                             132   -0.56 7  124 254 
 PTB  HZ I         345 16.91         4.0 0.21                           124 254 
 OCA  HZ EP   1    344 56.64                             125   -0.63 7  153   3 
 OCA  HN ES   1    345 17.74                             125    0.24 7  153   3 
 OCA  HZ I         345 18.84        15.5 0.31                           153   3 
 ZAR  HN ES   2    345 22.32                             121    0.67 4  178 293 
                                                                                
