 2010  715 0250 25.5 L   6.735 -73.152152.9  RSN  4 0.2 1.1LRSN                1
 GAP=158        0.40       4.7    10.3  8.9  0.2835E+02 -0.6637E+02 -0.1921E+02E
 Epicentro: JORDAN - SANTANDER                                                 3
 ACTION:UPD 10-12-01 15:17 OP:pat  STATUS:               ID:20100715025025 L   I
 2010-07-15-0248-40S.COL___120                                                 6
 STAT SP IPHASW D HRMM SECON CODA AMPLIT PERI AZIMU VELO AIN AR TRES W  DIS CAZ7
 BRR  HZ EP   1    250 47.68                             153     0.0 7   74 304 
 BRR  HE ES   1    251  4.84                             153     0.0 7   74 304 
 BRR  HZ I         251  7.95         4.6 0.15                            74 304 
 RUS  HZ EP   1    250 49.47                             147     0.0 7   93 175 
 RUS  HN ES   2    251  8.27                             147     0.1 5   93 175 
 RUS  HZ I         251  9.65         1.8 0.63                            93 175 
 GUE  SZ EP   2    250 51.79                             139     0.3 5  124  12 
 GUE  SZ I         251  8.14         0.8 0.12                           124  12 
 GRA  SZ EP   2    250 51.73                             137    -0.3 5  133  17 
 GRA  SZ I         251 14.07         2.7 0.60                           133  17 
                                                                                
