 2012  615 0026 53.7 L   6.802 -73.157146.2  RSN 14 0.4 2.6LRSN 3.0WRSN        1
 SPEC AVERAGE  MO 13.6 ST0.562 OM  1.8 f0 4.14 R0.6829 AL 0.91 WI 21.4 MW  3.0 3
 SPEC SD       MO  0.2 ST0.136 OM  0.7 f00.282 R0.0464 AL      WI      MW  0.1 3
 GAP=135        0.79       2.9     3.5  5.4 -0.9115E+00  0.6547E+01  0.3016E+01E
 Epicentro: LOS SANTOS - SANTANDER                                             3
 SPEC ZAR HH Z MO 13.8 ST0.747 OM  1.3 f0 3.80 R0.7400 AL 0.42 WI 26.5 MW  3.2 3
 SPEC ZAR HH Z T 02725 K 0.000 GD  250 VP 7.60 DE 3.00 Q0230.0 QA 0.60 VS 4.20 3
 SPEC PTB HH Z MO 13.5 ST0.512 OM  1.0 f0 4.49 R0.6263 AL 1.18 WI 21.1 MW  2.9 3
 SPEC PTB HH Z T 02719 K 0.000 GD  207 VP 7.60 DE 3.00 Q0230.0 QA 0.60 VS 4.20 3
 SPEC RUS HH Z MO 13.5 ST0.427 OM  1.1 f0 4.12 R0.6825 AL 1.12 WI 16.7 MW  2.9 3
 SPEC RUS HH Z T 02716 K 0.000 GD  177 VP 7.60 DE 3.00 Q0230.0 QA 0.60 VS 4.20 3
 ACTION:UPD 12-08-06 17:49 OP:ep   STATUS:               ID:20120615002653 L   I
 2012-06-15-0020-00M.COL___200                                                 6
 STAT SP IPHASW D HRMM SECON CODA AMPLIT PERI AZIMU VELO AIN AR TRES W  DIS CAZ7
 BAR2 SZ EP        027 13.50                             170    0.1110 23.4 187 
 BAR2 SZ ES   1    027 28.74                             170    0.00 7 23.4 187 
 BAR2 SZ I         027 31.53       102.1 0.46                          23.4 187 
 PAM  SZ EP        027 16.40                             151    0.3910 78.0  40 
 PAM  SE ES   1    027 33.24                             151   -0.16 7 78.0  40 
 RUS  HZ IP     D  027 17.32                             144   -0.2110  101 175 
 RUS  HN ES   1    027 36.16                             144    0.06 7  101 175 
 RUS  HZ I         027 37.15        28.7 0.21                           101 175 
 PTB  HZ EP        027 20.03                             132   -0.57 9  147 259 
 PTB  HN ES   1    027 40.89                             132   -0.69 7  147 259 
 PTB  HZ I         027 48.78        83.5 0.52                           147 259 
 OCA  HZ EP   1    027 21.72                             130   -0.30 7  160 354 
 OCA  HE ES   1    027 44.07                             130   -0.03 7  160 354 
 OCA  HZ I         027 48.53        94.9 0.16                           160 354 
 ZAR  HZ EP   1    027 25.97                             123   -0.08 6  203 292 
 ZAR  HN ES   1    027 52.21                             123    0.93 6  203 292 
 ZAR  HZ I         027 57.94        53.6 0.23                           203 292 
 NOR  SZ EP   1    027 29.46                             119    0.09 6  234 234 
 NOR  SN ES   1    027 56.89                             119   -0.29 6  234 234 
 CHI  HZ EP        027 31.44                             117    0.02 8  249 195 
 CHI  HE ES   1    028  1.14                             117    0.31 6  249 195 
 CHI  HZ I         028  8.60        21.7 0.60                           249 195 
 ROSC BZ EP   1    027 31.37                             117   -0.43 6  252 211 
 ROSC BN ES   2    028  2.28                             117    0.77 4  252 211 
 ROSC BZ I         028  9.39        35.2 0.58                           252 211 
 HEL  HZ EP   1    027 34.54                             115    0.73 6  271 256 
 HEL  HN ES   1    028  5.10                             115    0.01 6  271 256 
 HEL  HZ I         028 12.14        30.9 0.35                           271 256 
 VIL  SZ EP   1    027 37.71                             112    0.57 5  303 191 
 VIL  SZ I         028 21.82        12.4 0.64                           303 191 
 DBB  SZ EP   1    027 41.64                             110    0.58 5  338 274 
 DBB  SZ ES   1    028 17.94                             110   -0.04 5  338 274 
 TOL  SZ EP   1    027 41.16                             109   -0.74 5  343 224 
 TOL  SZ ES   2    028 20.21                             109    0.73 3  343 224 
 PRA  HZ EP        027 46.59                             107   -0.61 6  392 209 
 PRA  HN ES   1    028 29.78                             107    0.87 4  392 209 
                                                                                
