 2012  215 0016 59.4 L   6.788 -73.139148.0  RSN 11 0.4 2.0LRSN                1
 GAP=138        0.60       3.5     4.1  5.2 -0.8425E+00  0.3663E+01  0.6024E+01E
 ACTION:UP  12-03-07 16:30 OP:epov STATUS:               ID:20120215001659 L   I
 2012-02-15-0010-00M.COL___188                                                 6
 STAT SP IPHASW D HRMM SECON CODA AMPLIT PERI AZIMU VELO AIN AR TRES W  DIS CAZ7
 BAR2 SZ ES   2    017 34.31                             171   -0.45 5 22.2 192 
 BAR2 SZ I         017 35.87        46.8 0.21                          22.2 192 
 GIR2 SZ EP   1    017 19.22                             167   -0.14 7 32.7 349 
 GIR2 SZ ES   2    017 34.75                             167   -0.19 5 32.7 349 
 BRR  HZ EP   1    017 21.03                             153    0.19 7 72.5 299 
 BRR  HN ES   1    017 38.25                             153    0.67 7 72.5 299 
 BRR  HZ I         017 39.58        17.1 0.16                          72.5 299 
 PAM  SZ EP   1    017 21.92                             151    0.05 7 77.9  39 
 PAM  SN ES   2    017 39.57                             151    0.16 5 77.9  39 
 RUS  HZ EP   1    017 23.26                             145    0.01 7 99.2 176 
 RUS  HN ES   1    017 41.74                             145   -0.13 7 99.2 176 
 RUS  HZ I         017 43.04        16.3 0.29                          99.2 176 
 PTB  HZ EP   1    017 25.83                             132   -0.74 7  148 259 
 PTB  HN ES   2    017 47.12                             132   -0.66 5  148 259 
 ZAR  HN ES   2    017 57.31                             123   -0.30 4  205 292 
 ZAR  HZ I         018  3.93         6.5 0.17                           205 292 
 NOR  SN ES   2    018  3.48                             119    0.30 4  235 235 
 CHI  HZ EP   1    017 37.06                             118   -0.02 6  248 195 
 CHI  HZ I         017 39.83         5.6 0.48                           248 195 
 CHI  HN ES   2    018  6.94                             118    0.45 4  248 195 
 RREF HZ EP   2    017 45.88                             111    0.30 3  321 230 
 RREF HE ES   2    018 22.09                             111    0.47 3  321 230 
 RREF HZ I         018 29.94         6.4 0.28                           321 230 
 PRA  HZ EP   1    017 53.30                             107    0.42 4  391 210 
 PRA  HE ES   2    018 35.00                             107    0.38 3  391 210 
                                                                                
