 2017  415 0257 29.3 L   7.430 -73.181132.0  RSN  5 0.1 1.3LRSN                1
 GAP=188        0.66       5.8     3.0  5.6  0.6036E+00  0.3042E+01 -0.1402E+02E
 Epicentro: EL PLAYON - SANTANDER                                              3
 ACTION:UPD 17-05-30 21:12 OP:jn   STATUS:               ID:20170415025729 L   I
 OLDACT:DUP 17-04-15 15:25 OP:edw  STATUS:               ID:20170415024329d    3
 OLDACT:UP  17-04-15 15:24 OP:edw  STATUS:               ID:20170415024328     3
 OLDACT:UP  17-04-15 15:22 OP:edw  STATUS:               ID:20170415024328     3
 OLDACT:REG 17-04-15 12:42 OP:edw  STATUS:               ID:20170415024328     3
 2017-04-15-0248-00M.COL___368                                                 6
 STAT SP IPHASW D HRMM SECON CODA AMPLIT PERI AZIMU VELO AIN AR TRES W  DIS CAZ7
 PAM  EZ EP        257 48.94                             157    0.2410 54.1 101 
 PAM  EN ES        258  3.91                             157    0.0410 54.1 101 
 PAM  EZ I         258  6.20         3.7 0.54            160           54.1 101 
 BRR  HZ EP        257 48.70                             151   -0.0710 68.6 239 
 BRR  HN ES        258  3.95                             151   -0.0510 68.6 239 
 BRR  HZ I         258  4.65         4.4 0.24            151           68.6 239 
 BAR2 EZ EP        257 50.82                             143    0.1010 92.6 180 
 BAR2 EZ ES        258  7.23                             143   -0.2310 92.6 180 
 BAR2 EZ I         258  8.38         7.7 0.80            145           92.6 180 
 PTB  HZ EP   9    257 57.17                             124   -0.33 0  172 235 
 PTB  HN ES        258 19.87                             131    0.66 9  172 235 
 PTB  HZ I         258 22.24         1.7 0.16            125            172 235 
 ZAR  HZ EP        257 58.93                             122    0.07 9  185 272 
 ZAR  HN ES        258 21.83                             122   -0.12 9  185 272 
 ZAR  HZ I         258 25.91         1.5 0.28            123            185 272 
                                                                                
