 2016 1215 0711 18.3 L   6.785 -73.133149.3  RSN  6 0.3 1.2LRSN                1
 GAP=139        0.82       4.2     3.7  5.5  0.1623E+01  0.5075E+01 -0.1014E+01E
 Epicentro: LOS SANTOS - SANTANDER                                             3
 ACTION:UPD 17-01-11 20:15 OP:rebc STATUS:               ID:20161215071118 L   I
 OLDACT:REG 16-12-15 12:43 OP:and  STATUS:               ID:20161215070641     3
 2016-12-15-0707-00M.COL___375                                                 6
 STAT SP IPHASW D HRMM SECON CODA AMPLIT PERI AZIMU VELO AIN AR TRES W  DIS CAZ7
 BAR2 EZ EP        711 38.35                             171   -0.0010 22.0 194 
 BAR2 EZ ES        711 54.40                             171    0.4310 22.0 194 
 BAR2 EZ I         711 59.87         4.0 0.55            171           22.0 194 
 BRR  HZ EP        711 39.96                             152   -0.0110 73.2 299 
 BRR  HN ES        711 57.07                             152    0.2210 73.2 299 
 PAM  EZ EP     D  711 41.13                             151    0.1910 77.8  38 
 PAM  EN ES        711 58.11                             151   -0.4610 77.8  38 
 PAM  EZ I         711 59.82         2.4 0.26            155           77.8  38 
 RUS  HZ EP        711 42.72                             145    0.4210 98.8 177 
 RUS  HN ES        712  0.65                             145   -0.3510 98.8 177 
 RUS  HZ I         712  2.93         1.1 0.35            148           98.8 177 
 PTB  HZ EP        711 45.14                             133   -0.54 9  149 260 
 PTB  HN ES        712  6.86                             133   -0.15 9  149 260 
 PTB  HZ I         712  8.52         2.4 0.12            134            149 260 
 ZAR  HZ EP        711 51.38                             123    0.18 8  206 292 
 ZAR  HN ES        712 16.87                             123    0.03 8  206 292 
 ZAR  HZ I         712 23.80         3.0 0.16            125            206 292 
                                                                                
