 2010  715 0443 19.6 L   6.443 -73.704 16.6  RSN  5 0.2 1.6LRSN                1
 GAP=132        0.58       2.5     4.3  9.2  0.6653E+01  0.2814E+02  0.1298E+02E
 Epicentro: SANTA HELENA DEL OPON - SANTANDER                                  3
 ACTION:UPD 10-12-01 15:17 OP:pat  STATUS:               ID:20100715044319 L   I
 2010-07-15-0439-30S.COL___120                                                 6
 STAT SP IPHASW D HRMM SECON CODA AMPLIT PERI AZIMU VELO AIN AR TRES W  DIS CAZ7
 BAR2 SZ IP        443 29.70                             103     0.010   60  74 
 BAR2 SZ ES   1    443 37.64                             103     0.0 7   60  74 
 BAR2 SZ I         443 38.66        20.9 0.21                            60  74 
 BRR  HZ EP   1    443 31.01                             100    -0.5 7   73 359 
 BRR  HN ES   1    443 41.14                             100     0.4 7   73 359 
 BRR  HZ I         443 41.98        25.9 0.14                            73 359 
 RUS  HZ IP     D  443 34.70                              98     0.010   92 132 
 RUS  HZ I         443 35.13        24.6 0.07                            92 132 
 RUS  HE ES   1    443 46.61                              98     0.1 7   92 132 
 GUE  SZ EP   2    443 46.07                              56     0.0 4  176  29 
 RREF HN ES   2    444 24.05                              56     0.2 4  249 227 
 RREF HZ I         444 37.09         3.5 0.18                           249 227 
                                                                                
