 2016  915 0159 37.8 L   6.744 -73.148147.2  RSN  5 0.3 1.6LRSN                1
 GAP=233        0.76       6.0     5.6  6.1  0.1769E+02  0.7144E+01 -0.6491E+01E
 Epicentro: LOS SANTOS - SANTANDER                                             3
 ACTION:UPD 17-08-17 21:12 OP:lp   STATUS:               ID:20160915015937 L   I
 OLDACT:REG 16-09-15 20:08 OP:lv   STATUS:               ID:20160915015737     3
 2016-09-15-0158-00M.COL___330                                                 6
 STAT SP IPHASW D HRMM SECON CODA AMPLIT PERI AZIMU VELO AIN AR TRES W  DIS CAZ7
 BAR2 EZ EP        159 57.11                             173   -0.3410 17.2 193 
 BAR2 EZ ES        2 0 12.55                             173   -0.2610 17.2 193 
 BAR2 EZ I         2 0 13.51        12.2 0.52            168           17.2 193 
 BRR  HZ EP        159 59.48                             152    0.2610 74.2 303 
 BRR  HN ES        2 0 16.13                             152    0.1610 74.2 303 
 BRR  HZ I         2 0 25.39         4.9 0.54            149           74.2 303 
 RUS  HE ES        2 0 19.85                             146    0.3510 94.4 176 
 RUS  HZ I         2 0 22.74         4.4 0.48            150           94.4 176 
 PTB  HZ EP        2 0  4.28                             133   -0.43 9  146 261 
 PTB  HE ES        2 0 25.71                             133   -0.03 9  146 261 
 PTB  HZ I         2 0 33.05         4.5 0.36            133            146 261 
 ZAR  HZ EP        2 0 10.94                             122    0.42 8  206 294 
 ZAR  HN ES        2 0 35.98                             122   -0.09 8  206 294 
 ZAR  HZ I         2 0 42.46         4.4 0.38            124            206 294 
                                                                                
