 2015  615 0046 18.6 L   6.361 -73.793100.7  RSN  5 0.4 1.1LRSN                1
 GAP=115        0.96       3.3     4.3  8.9  0.2471E+01  0.1572E+02 -0.2370E+01E
 Epicentro: LANDAZURI - SANTANDER                                              3
 ACTION:UPD 15-09-10 22:12 OP:cam  STATUS:               ID:20150615004618 L   I
 OLDACT:REG 15-06-15 13:03 OP:drio STATUS:               ID:20150615003748     3
 2015-06-15-0037-48M.COL___315                                                 6
 STAT SP IPHASW D HRMM SECON CODA AMPLIT PERI AZIMU VELO AIN AR TRES W  DIS CAZ7
 BAR2 EZ EP        046 35.49                             142   -0.0210 72.2  69 
 BAR2 EZ ES        046 48.88                             142    0.1710 72.2  69 
 BAR2 EZ I         046 50.20         5.5 0.28            154           72.2  69 
 BRR  HZ EP        046 35.98                             137   -0.0510 83.0   6 
 BRR  HE ES        046 49.30                             137   -0.3410 83.0   6 
 SPBC HZ EP        046 35.42                             137   -0.8510 84.3 202 
 SPBC HE ES        046 50.42                             137    0.3610 84.3 202 
 SPBC HZ I         046 59.70         4.8 0.28            139           84.3 202 
 RUS  HZ EP        046 38.04                             134    0.3710 94.1 123 
 RUS  HN ES        046 52.49                             134   -0.0610 94.1 123 
 RUS  HZ I         046 55.34         1.8 0.38            142           94.1 123 
 ZAR  HZ EP        046 45.25                             115    0.32 9  172 317 
 ZAR  HN ES        047  5.67                             115    0.20 9  172 317 
                                                                                
