 2017  115 0556 46.2 L   6.772 -73.171154.0  RSN  5 0.3 1.0LRSN                1
 GAP=135        0.50       4.1     5.9  7.6  0.1015E+02 -0.2678E+02 -0.1251E+02E
 Epicentro: LOS SANTOS - SANTANDER                                             3
 ACTION:UPD 17-05-22 15:59 OP:jn   STATUS:               ID:20170115055646 L   I
 OLDACT:UP  17-01-15 15:40 OP:e    STATUS:               ID:20170115054744d    3
 OLDACT:UP  17-01-15 15:39 OP:e    STATUS:               ID:20170115054744d    3
 OLDACT:UP  17-01-15 15:39 OP:e    STATUS:               ID:20170115054744d    3
 OLDACT:UP  17-01-15 15:39 OP:e    STATUS:               ID:20170115054744d    3
 OLDACT:UP  17-01-15 15:39 OP:e    STATUS:               ID:20170115054744d    3
 OLDACT:DUP 17-01-15 15:36 OP:e    STATUS:               ID:20170115054744d    3
 OLDACT:DUP 17-01-15 15:34 OP:e    STATUS:               ID:20170115054743d    3
 OLDACT:UP  17-01-15 15:34 OP:e    STATUS:               ID:20170115054742     3
 OLDACT:UP  17-01-15 15:33 OP:e    STATUS:               ID:20170115054742     3
 OLDACT:UP  17-01-15 15:32 OP:e    STATUS:               ID:20170115054742     3
 OLDACT:REG 17-01-15 12:44 OP:and  STATUS:               ID:20170115054742     3
 2017-01-15-0548-00M.COL___335                                                 6
 STAT SP IPHASW D HRMM SECON CODA AMPLIT PERI AZIMU VELO AIN AR TRES W  DIS CAZ7
 BAR2 EZ EP        557  6.66                             173   -0.1510 19.9 184 
 BAR2 EZ ES   3    557 21.73                             173   -1.11 2 19.9 184 
 BAR2 EZ I         557 24.40         2.6 0.30            173           19.9 184 
 BRR  HZ EP   3    557  8.80                             155    0.55 2 70.4 302 
 BRR  HN ES        557 25.61                             155    0.2010 70.4 302 
 PAM  EZ EP        557  9.52                             151   -0.0610 81.5  40 
 RUS  HZ EP   2    557 10.92                             147    0.30 5 97.7 174 
 RUS  HN ES        557 29.72                             147    0.0910 97.7 174 
 RUS  HZ I         557 30.47         1.1 0.32            148           97.7 174 
 PTB  HZ EP   3    557 13.42                             135   -0.19 2  144 260 
 PTB  HN ES   2    557 34.42                             135   -0.53 5  144 260 
                                                                                
