 2016  715 0739 30.9 L   6.801 -73.130155.4  RSN  7 0.3 1.4LRSN                1
 GAP=239        0.62       3.6     4.3  4.5  0.6907E+01  0.3946E+01 -0.4410E-01E
 Epicentro: LOS SANTOS - SANTANDER                                             3
 ACTION:UPD 17-03-29 16:51 OP:lp   STATUS:               ID:20160715073930 L   I
 OLDACT:REG 16-07-15 13:45 OP:lv   STATUS:               ID:20160715073759     3
 2016-07-15-0737-59S.COL___319                                                 6
 STAT SP IPHASW D HRMM SECON CODA AMPLIT PERI AZIMU VELO AIN AR TRES W  DIS CAZ7
 BAR2 EZ EP        739 51.52                             171   -0.2110 23.8 194 
 BAR2 EZ ES        740  7.96                             171    0.0110 23.8 194 
 BAR2 EZ I         740  9.67         3.2 0.10            167           23.8 194 
 BRR  HZ IP     D  739 53.47                             154    0.2610 72.7 298 
 BRR  HE ES        740 10.80                             154    0.2110 72.7 298 
 BRR  HZ I         740 14.82         3.5 0.12            149           72.7 298 
 RUS  HZ EP        739 55.90                             146    0.2610  101 177 
 RUS  HN ES        740 14.76                             146   -0.1610  101 177 
 RUS  HZ I         740 15.12         2.5 0.30            147            101 177 
 PTB  HN ES   4    740 18.28                             134   -2.35 0  150 259 
 PTB  HZ I         740 21.68         4.2 0.17            131            150 259 
 SPBC HZ EP        740  0.47                             131    0.18 9  164 219 
 SPBC HN ES        740 22.95                             131   -0.25 9  164 219 
 SPBC HZ I         740 27.50         4.4 0.24            130            164 219 
 ZAR  HZ EP        740  3.75                             124   -0.43 8  206 292 
 ZAR  HE ES        740 29.96                             124   -0.15 8  206 292 
 ZAR  HZ I         740 37.96         3.2 0.24            123            206 292 
 HEL  HE ES   2    740 44.41                             117    0.66 4  274 256 
 HEL  HZ I         740 50.85         1.6 0.24            116            274 256 
 SJC  HN ES   4    741  8.80                             107   -1.79 0  410 327 
                                                                                
