 2017  215 0820  5.1 L   6.271 -73.116183.6  RSN  7 0.4 1.6LRSN                1
 GAP=187        0.89       4.4     6.2  6.1  0.1108E+02  0.9018E+01  0.3278E+01E
 Epicentro: CHARALA - SANTANDER                                                3
 ACTION:UPD 17-05-24 15:36 OP:jn   STATUS:               ID:20170215082005 L   I
 OLDACT:REG 17-02-15 13:09 OP:dani STATUS:               ID:20170215081740     3
 2017-02-15-0818-00M.COL___355                                                 6
 STAT SP IPHASW D HRMM SECON CODA AMPLIT PERI AZIMU VELO AIN AR TRES W  DIS CAZ7
 BAR2 EZ IP     D  820 29.46                             168   -0.1510 36.3 348 
 BAR2 EZ ES        820 48.23                             168   -0.4510 36.3 348 
 BAR2 EZ I         820 49.41        12.9 0.40            167           36.3 348 
 RUS  HZ IP     D  820 30.25                             167    0.1210 42.0 175 
 RUS  HN ES        820 49.49                             167   -0.1310 42.0 175 
 RUS  HZ I         820 51.08         5.1 0.40            168           42.0 175 
 BRR  HZ EP        820 33.59                             147    0.6910  114 325 
 BRR  HN ES        820 55.00                             147    0.4610  114 325 
 BRR  HZ I         820 58.71         4.4 0.28            147            114 325 
 PTB  HZ EP        820 35.40                             139   -0.30 9  151 281 
 PTB  HN ES        820 59.62                             139    0.08 9  151 281 
 PTB  HZ I         821  1.23         3.5 0.54            139            151 281 
 CHI  HZ EP        820 39.53                             131   -0.40 9  194 201 
 CHI  HN ES        821  7.49                             131    0.44 9  194 201 
 ZAR  HZ EP        820 43.27                             126   -0.05 8  235 305 
 ZAR  HN ES        821 12.76                             126   -0.34 8  235 305 
 ZAR  HZ I         821 15.89         2.2 0.24            126            235 305 
 URE  HE ES   2    821 27.01                             118   -0.56 3  313 302 
                                                                                
