 2017  615 0835 38.1 L   6.753 -73.196148.0  RSN  4 0.4 1.3LRSN                1
 GAP=274        0.90       5.7     9.1  9.6  0.2661E+01 -0.2107E+02  0.1016E+02E
 Epicentro: VILLANUEVA - SANTANDER                                             3
 ACTION:UPD 17-09-14 16:52 OP:jn   STATUS:               ID:20170615083537 L   I
 OLDACT:UP  17-07-05 19:14 OP:nlst STATUS:               ID:20170615083537 L   3
 OLDACT:UP  17-06-15 18:05 OP:dani STATUS:               ID:20170615082731d    3
 OLDACT:UP  17-06-15 18:05 OP:dani STATUS:               ID:20170615082731d    3
 OLDACT:UP  17-06-15 18:05 OP:dani STATUS:               ID:20170615082731d    3
 OLDACT:UP  17-06-15 18:04 OP:dani STATUS:               ID:20170615082731d    3
 OLDACT:UP  17-06-15 18:03 OP:dani STATUS:               ID:20170615082731d    3
 OLDACT:UP  17-06-15 18:03 OP:dani STATUS:               ID:20170615082731d    3
 OLDACT:DUP 17-06-15 18:00 OP:dani STATUS:               ID:20170615082731d    3
 OLDACT:DUP 17-06-15 16:57 OP:dhb  STATUS:               ID:20170615082730d    3
 OLDACT:REG 17-06-15 13:25 OP:dani STATUS:               ID:20170615082729     3
 2017-06-15-0828-00M.COL___365                                                 6
 STAT SP IPHASW D HRMM SECON CODA AMPLIT PERI AZIMU VELO AIN AR TRES W  DIS CAZ7
 BRR  HZ EP        835 58.78                             154   -0.5810 69.1 305 
 BRR  HN ES        836 16.40                             154    0.4410 69.1 305 
 BRR  HZ I         836 17.29         3.5 0.14            145           69.1 305 
 PTB  HZ EP        836  5.09                             134    0.43 9  141 260 
 PTB  HN ES        836 25.03                             134   -0.36 9  141 260 
 PTB  HZ I         836 32.21         1.9 0.39            127            141 260 
 SPBC HZ EP        836  5.95                             131   -0.10 9  156 219 
 SPBC HN ES        836 28.00                             131    0.14 9  156 219 
 SPBC HZ I         836 31.42         2.9 0.21            127            156 219 
 ZAR  HZ EP   2    836 10.94                             124    0.58 4  201 294 
 ZAR  HN ES        836 35.45                             124   -0.08 9  201 294 
 ZAR  HZ I         836 42.34         2.7 0.18            119            201 294 
                                                                                
