 2011 1215 0644 46.4 L   7.231 -73.856 14.2  RSN  4 0.1 1.3LRSN                1
 GAP=295        0.32       2.7     5.5  2.2 -0.4797E+00  0.6155E+01  0.1151E+01E
 Epicentro: PUERTO WILCHES - SANTANDER                                         3
 ACTION:UPD 12-07-13 16:16 OP:ep   STATUS:               ID:20111215064446 L   I
 2011-12-15-0640-00M.COL___185                                                 6
 STAT SP IPHASW D HRMM SECON CODA AMPLIT PERI AZIMU VELO AIN AR TRES W  DIS CAZ7
 BRR  HZ IP     D  644 50.56                             120   -0.0610 21.0 131 
 BRR  HN ES   1    644 53.96                             120    0.06 7 21.0 131 
 BRR  HZ I         644 55.38        34.7 0.09                          21.0 131 
 GIR2 SZ EP   1    644 58.61                              98   -0.05 7 75.1 103 
 PAM  SZ EP   1    645  7.07                              95    0.04 7  128  85 
 RUS  HZ EP   1    645 12.89                              56    0.13 7  171 150 
 RUS  HN ES   1    645 33.24                              56   -0.06 7  171 150 
 RUS  HZ I         645 35.07         4.6 0.29                           171 150 
                                                                                
