 2016 1215 0215  1.4 L   6.773 -73.190146.7  RSN  4 0.2 1.1LRSN                1
 GAP=132        0.68       4.4     4.3  6.8  0.4353E+01 -0.6824E+01 -0.4738E+01E
 Epicentro: LOS SANTOS - SANTANDER                                             3
 ACTION:UPD 17-01-11 20:15 OP:rebc STATUS:               ID:20161215021501 L   I
 OLDACT:REG 16-12-15 12:25 OP:and  STATUS:               ID:20161215020748     3
 2016-12-15-0208-00M.COL___375                                                 6
 STAT SP IPHASW D HRMM SECON CODA AMPLIT PERI AZIMU VELO AIN AR TRES W  DIS CAZ7
 BRR  HZ EP        215 22.72                             154    0.2610 68.4 303 
 BRR  HN ES        215 39.02                             154    0.1010 68.4 303 
 PAM  EZ EP     C  215 23.73                             149   -0.2810 82.8  41 
 RUS  HZ EP        215 25.42                             145    0.3910 98.1 173 
 RUS  HN ES        215 43.32                             145   -0.1710 98.1 173 
 RUS  HZ I         215 43.92         2.4 0.50            144           98.1 173 
 PTB  HZ EP        215 27.62                             133   -0.30 9  142 260 
 PTB  HN ES        215 48.59                             133   -0.05 9  142 260 
 PTB  HZ I         215 52.14         1.7 0.14            132            142 260 
                                                                                
