 2013  715 0127 39.6 L   6.706 -73.186143.5  RSN  4 0.5 1.2LRSN                1
 GAP=225        1.13       9.2     8.3  9.5  0.3509E+02  0.1097E+02 -0.4563E+01E
 Epicentro: VILLANUEVA - SANTANDER                                             3
 ACTION:UPD 13-08-12 10:37 OP:ep   STATUS:               ID:20130715012739 L   I
 OLDACT:REG 13-07-15 08:44 OP:nd   STATUS:               ID:20130715011959     3
 2013-07-15-0119-59M.COL___267                                                 6
 STAT SP IPHASW D HRMM SECON CODA AMPLIT PERI AZIMU VELO AIN AR TRES W  DIS CAZ7
 BAR2 SZ EP        127 58.54                             175   -0.2510 12.6 178 
 BAR2 SZ ES        128 13.03                             175   -0.7310 12.6 178 
 BAR2 SZ I         128 14.89         3.0 0.20            177           12.6 178 
 BRR  HZ EP        128  0.72                             151    0.1010 73.1 307 
 BRR  HN ES   1    128 18.00                             151    0.99 7 73.1 307 
 BRR  HZ I         128 22.88         5.6 0.30            151           73.1 307 
 RUS  HZ EP        128  2.80                             146    0.3710 90.7 173 
 RUS  HN ES        128 20.55                             146    0.3110 90.7 173 
 RUS  HZ I         128 22.35         1.5 0.30            151           90.7 173 
 PTB  HZ EP        128  5.55                             132   -0.28 9  142 263 
 PTB  HN ES        128 26.17                             132   -0.12 9  142 263 
 PTB  HZ I         128 28.71         3.8 0.16            135            142 263 
                                                                                
