 2011  315 0247 27.6 L   6.812 -73.156134.9  RSN  7 0.3 2.1LRSN                1
 GAP=135        0.79       3.6     7.1  7.1 -0.5984E+01  0.7823E+01 -0.3154E+01E
 Epicentro: LOS SANTOS - SANTANDER                                             3
 ACTION:UP  11-06-16 14:33 OP:jfem STATUS:               ID:20110315024727 L   I
 2011-03-15-0244-33S.COL___138                                                 6
 STAT SP IPHASW D HRMM SECON CODA AMPLIT PERI AZIMU VELO SNR AR TRES W  DIS CAZ7
 BAR2 SZ EP        247 46.27                             169     0.310   25 187 
 BAR2 SZ ES   1    248  0.32                             169     0.0 7   25 187 
 BAR2 SZ I         248  3.56        48.4 0.34                            25 187 
 RUS  HZ EP   1    247 50.26                             141    -0.2 7  102 175 
 RUS  HN ES   1    248  8.09                             141    -0.2 7  102 175 
 RUS  HZ I         248  9.98        13.5 0.22                           102 175 
 GRA  SZ IP        247 52.29                             135     0.410  125  18 
 GRA  SZ I         248 12.80        24.1 0.32                           125  18 
 OCA  SZ EP   1    247 54.91                             127    -0.1 7  159 353 
 OCA  SZ ES   1    248 15.77                             127    -0.6 7  159 353 
 OCA  SZ I         248 19.95        15.5 0.31                           159 353 
 YOP  SZ EP   1    247 56.96                             123    -0.2 7  181 153 
 NOR  SZ EP   1    248  2.29                             116    -0.5 6  235 234 
 NOR  SE ES   1    248 30.62                             116     0.4 6  235 234 
 CHI  HZ EP   1    248  4.62                             115    -0.3 6  250 195 
 CHI  HZ I         248 44.23         6.8 0.63                           250 195 
                                                                                
