 2010 1215 0853  8.4 L   5.882 -74.000 80.2  RSN  6 0.3 1.5LRSN                1
 GAP=113        0.59       5.2     3.6 14.0 -0.7808E+01  0.2112E+02  0.7124E+01E
 Epicentro: LA BELLEZA - SANTANDER                                             3
 ACTION:UP  11-01-14 15:25 OP:pat  STATUS:               ID:20101215085308 L   I
 2010-12-15-0840-00M.COL___137                                                 6
 STAT SP IPHASW D HRMM SECON CODA AMPLIT PERI AZIMU VELO SNR AR TRES W  DIS CAZ7
 RUS  HZ EP        853 26.81                             124     0.210  102  89 
 RUS  HZ I         853 27.12         4.8 0.13                           102  89 
 RUS  HE ES   2    853 40.15                             124    -0.6 5  102  89 
 BAR2 SZ EP        853 28.12                             119    -0.110  120  49 
 BAR2 SZ ES   1    853 43.81                             119     0.2 7  120  49 
 BAR2 SZ I         853 45.90        13.6 0.20                           120  49 
 HEL  HZ EP   2    853 33.66                             110    -0.7 4  173 281 
 HEL  HE ES   2    853 54.82                             110     0.3 4  173 281 
 HEL  HZ I         853 57.11         6.1 0.40                           173 281 
 RREF HZ EP   2    853 36.31                             108     0.2 4  185 234 
 RREF HN ES   2    853 57.55                             108    -0.1 4  185 234 
 RREF HZ I         854  3.42         3.4 0.51                           185 234 
 GRA  SZ EP   2    853 43.93                             102    -0.3 4  258  31 
 PRA  HZ EP   2    853 44.34                             102     0.1 4  259 202 
                                                                                
