 2016 1115 0616 57.8 L   6.793 -73.112145.5  RSN  7 0.3 1.7LRSN                1
 GAP=159        0.68       3.0     3.2  4.2 -0.1477E+01  0.1936E+01  0.3751E+01E
 Epicentro: LOS SANTOS - SANTANDER                                             3
 ACTION:UPD 17-10-26 21:08 OP:lp   STATUS:               ID:20161115061657 L   I
 OLDACT:UP  16-11-15 17:04 OP:edw  STATUS:               ID:20161115060742d    3
 OLDACT:DUP 16-11-15 17:00 OP:edw  STATUS:               ID:20161115060742d    3
 2016-11-15-0608-00M.COL___344                                                 6
 STAT SP IPHASW D HRMM SECON CODA AMPLIT PERI AZIMU VELO AIN AR TRES W  DIS CAZ7
 BAR2 EZ EP        617 17.36                             170   -0.0610 23.5 199 
 BAR2 EZ ES        617 32.38                             170   -0.3310 23.5 199 
 BAR2 EZ I         617 34.71        14.0 0.23            171           23.5 199 
 BRR  HZ IP     C  617 19.08                             151   -0.0710 74.9 298 
 BRR  HN ES        617 35.97                             151    0.1810 74.9 298 
 BRR  HZ I         617 36.78        11.0 0.16            150           74.9 298 
 PAM  EZ EP     C  617 20.21                             151    0.3010 75.7  37 
 PAM  EN ES        617 37.22                             151    0.0910 75.7  37 
 PAM  EZ I         617 39.53         9.0 0.58            153           75.7  37 
 PTB  HZ EP   9    617 24.10                             131   -0.98 0  151 259 
 PTB  HN ES        617 45.32                             131   -0.05 9  151 259 
 PTB  HZ I         617 49.79         7.8 0.16            131            151 259 
 ZAR  HZ EP        617 30.63                             122   -0.00 8  208 292 
 ZAR  HN ES        617 55.85                             122   -0.38 8  208 292 
 ZAR  HZ I         618  1.01         4.4 0.09            122            208 292 
 NOR  HZ EP        617 34.00                             118    0.19 8  237 235 
 NOR  HN ES        618  2.39                             118    0.51 8  237 235 
 NOR  HZ I         618  3.24         3.4 0.16            119            237 235 
 CHI  HZ EP        617 34.94                             117   -0.58 8  249 196 
 CHI  HN ES        618  5.04                             117    0.11 8  249 196 
                                                                                
