 2016  815 0803 43.2 L   6.645 -73.366152.9  RSN  4 0.4 1.0LRSN                1
 GAP=143        0.62       5.6     5.4  8.9  0.1555E+02  0.2900E+01  0.5042E+01E
 Epicentro: GALAN - SANTANDER                                                  3
 ACTION:UPD 16-10-29 15:35 OP:rebc STATUS:               ID:20160815080343 L   I
 OLDACT:REG 16-08-15 12:37 OP:ak   STATUS:               ID:20160815075735     3
 2016-08-15-0758-00M.COL___371                                                 6
 STAT SP IPHASW D HRMM SECON CODA AMPLIT PERI AZIMU VELO AIN AR TRES W  DIS CAZ7
 BAR2 EZ EP   2    8 4  3.40                             172   -0.23 5 21.1 106 
 BAR2 EZ I         8 4 18.56         3.8 0.20                          21.1 106 
 BRR  HZ EP   2    8 4  3.99                             156   -0.73 5 63.8 323 
 BRR  HE ES        8 4 21.67                             156    0.1510 63.8 323 
 BRR  HZ I         8 4 25.28         1.9 0.23                          63.8 323 
 RUS  HZ EP   2    8 4  6.98                             149    0.12 5 88.9 159 
 RUS  HE ES        8 4 25.36                             149    0.0410 88.9 159 
 RUS  HZ I         8 4 27.17         1.0 0.30                          88.9 159 
 PTB  HZ EP   2    8 4  9.26                             140    0.76 5  121 265 
 PTB  HN ES        8 4 28.08                             140   -0.1710  121 265 
 PTB  HZ I         8 4 32.62         1.0 0.32                           121 265 
                                                                                
