 2017  515 0413  4.8 L   6.878 -73.261131.9  RSN  4 0.3 1.5LRSN                1
 GAP=317        0.53       6.7     5.3  6.6 -0.5050E+01  0.2844E+01  0.1753E+01E
 Epicentro: BETULIA - SANTANDER                                                3
 ACTION:UPD 17-06-16 13:36 OP:jn   STATUS:               ID:20170515041304 L   I
 OLDACT:UP  17-05-15 14:03 OP:dnl  STATUS:               ID:20170515040742d    3
 OLDACT:DUP 17-05-15 14:01 OP:dnl  STATUS:               ID:20170515040742d    3
 2017-05-15-0408-00M.COL___359                                                 6
 STAT SP IPHASW D HRMM SECON CODA AMPLIT PERI AZIMU VELO AIN AR TRES W  DIS CAZ7
 BRR  HZ EP        413 23.85                             156    0.1910 55.8 297 
 BRR  HN ES        413 38.20                             156   -0.1310 55.8 297 
 BRR  HZ I         413 39.18         4.0 0.12            143           55.8 297 
 PTB  HZ EP   2    413 29.04                             131   -0.70 5  137 254 
 PTB  HN ES        413 49.27                             131    0.11 9  137 254 
 PTB  HZ I         413 50.88         5.0 0.54            124            137 254 
 ZAR  HZ EP   2    413 35.10                             121    0.26 4  189 291 
 ZAR  HN ES        413 58.16                             121   -0.07 9  189 291 
 ZAR  HZ I         414  5.67         4.0 0.30            115            189 291 
 NOR  HZ EP   4    413 40.69                             116    1.42 0  230 231 
 NOR  HE ES   4    413 58.16                             116   -7.96 0  230 231 
 NOR  HZ I         414  7.05         2.5 0.16            112            230 231 
                                                                                
