 2016 1115 0019 15.0 L   7.419 -73.263124.2  RSN  5 0.1 1.5LRSN                1
 GAP=185        0.43       4.1     2.5  4.8 -0.4918E+01  0.6275E+01 -0.1014E+02E
 Epicentro: EL PLAYON - SANTANDER                                              3
 ACTION:UPD 17-10-26 21:08 OP:lp   STATUS:               ID:20161115001915 L   I
 OLDACT:UP  16-11-15 14:08 OP:edw  STATUS:               ID:20161115001747d    3
 OLDACT:DUP 16-11-15 14:02 OP:edw  STATUS:               ID:20161115001747d    3
 OLDACT:UP  16-11-15 14:00 OP:edw  STATUS:               ID:20161115001746     3
 OLDACT:REG 16-11-15 12:30 OP:edw  STATUS:               ID:20161115001746     3
 2016-11-15-0018-00M.COL___335                                                 6
 STAT SP IPHASW D HRMM SECON CODA AMPLIT PERI AZIMU VELO AIN AR TRES W  DIS CAZ7
 BRR  HN ES        019 47.50                             152    0.1310 60.4 235 
 PAM  EZ EP        019 34.22                             152    0.2010 62.9  98 
 PAM  EN ES        019 48.73                             152   -0.1610 62.9  98 
 PAM  EZ I         019 52.05         4.2 0.30            151           62.9  98 
 BAR2 EZ ES        019 51.71                             141   -0.0310 91.9 174 
 BAR2 EZ I         019 53.55        10.9 0.14            142           91.9 174 
 PTB  HN ES        020  2.82                             123   -0.04 9  164 234 
 ZAR  HZ EP        019 43.02                             121   -0.12 9  176 273 
                                                                                
