 2013  815 0438 22.9 L   7.036 -73.450110.4  RSN  5 0.3 2.0LRSN                1
 GAP=126        0.83       3.7     3.4  6.2  0.3398E+01  0.1537E+01 -0.2004E+01E
 Epicentro: SAN VICENTE DE CHUCURI - SANTANDER                                 3
 ACTION:UPD 14-01-14 09:03 OP:ep   STATUS:               ID:20130815043822 L   I
 OLDACT:REG 13-08-15 09:07 OP:stll STATUS:               ID:20130815042848     3
 2013-08-15-0428-48M.COL___232                                                 6
 STAT SP IPHASW D HRMM SECON CODA AMPLIT PERI AZIMU VELO AIN AR TRES W  DIS CAZ7
 BRR  HZ EP        438 38.05                             164   -0.0810 30.0 285 
 BRR  HN ES        438 49.74                             164   -0.2810 30.0 285 
 BRR  HN I         438 50.26        27.8 0.16            163           30.0 285 
 BAR2 SZ EP        438 40.46                             151    0.6810 57.3 149 
 BAR2 SZ ES        438 53.10                             151    0.1410 57.3 149 
 BAR2 SZ I         438 54.65        24.5 0.40            152           57.3 149 
 RUS  HZ EP        438 46.10                             126   -0.2610  133 162 
 RUS  HN ES        439  4.48                             126   -0.1810  133 162 
 CAPV BZ ES        439  8.03                             121   -0.07 9  155  54 
 ZAR  HZ EP        438 48.54                             119   -0.33 9  163 288 
 ZAR  HN ES        439  9.45                             119    0.32 9  163 288 
 ZAR  HN I         439 11.56        18.5 0.18            120            163 288 
                                                                                
