 2016  915 0103  5.2 L   6.769 -73.121142.8  RSN  6 0.3 1.5LRSN                1
 GAP=238        0.71       3.8     4.2  4.8  0.6604E+01  0.3519E+01 -0.6129E+00E
 Epicentro: LOS SANTOS - SANTANDER                                             3
 ACTION:UPD 17-08-17 21:12 OP:lp   STATUS:               ID:20160915010305 L   I
 OLDACT:DUP 16-09-15 21:20 OP:lv   STATUS:               ID:20160915005742d    3
 2016-09-15-0058-00M.COL___330                                                 6
 STAT SP IPHASW D HRMM SECON CODA AMPLIT PERI AZIMU VELO AIN AR TRES W  DIS CAZ7
 BAR2 EZ IP     C  1 3 24.32                             171   -0.0510 20.7 199 
 BAR2 EZ ES        1 3 39.02                             171   -0.3410 20.7 199 
 BAR2 EZ I         1 3 40.33         9.5 0.19            167           20.7 199 
 BRR  HZ EP        1 3 26.37                             151    0.1510 75.3 300 
 BRR  HN ES        1 3 43.01                             151    0.3610 75.3 300 
 BRR  HZ I         1 3 43.67        17.8 0.38            148           75.3 300 
 RUS  HZ EP        1 3 28.42                             144    0.0710 97.0 178 
 RUS  HE ES        1 3 46.51                             144    0.0610 97.0 178 
 RUS  HZ I         1 3 47.56         1.9 0.19            144           97.0 178 
 PTB  HZ EP        1 3 31.50                             131   -0.57 9  150 260 
 PTB  HN ES        1 3 52.84                             131   -0.23 9  150 260 
 PTB  HZ I         1 3 55.69         3.8 0.20            129            150 260 
 SPBC HZ EP        1 3 33.37                             128    0.03 9  162 221 
 SPBC HE ES        1 3 55.67                             128    0.34 9  162 221 
 SPBC HZ I         1 3 59.79         3.2 0.14            127            162 221 
 ZAR  HZ EP        1 3 38.11                             121    0.30 8  208 293 
 ZAR  HN ES        1 4  3.17                             121   -0.11 8  208 293 
 ZAR  HZ I         1 4  8.69         4.6 0.28            121            208 293 
                                                                                
