 2013 1015 0506 54.3 L   6.780 -73.132150.6  RSN  7 0.4 1.5LRSN                1
 GAP=184        0.82       3.6     6.6  7.8  0.3392E+01 -0.5401E+01 -0.5525E+01E
 Epicentro: LOS SANTOS - SANTANDER                                             3
 ACTION:UPD 13-11-25 09:21 OP:ep   STATUS:               ID:20131015050654 L   I
 OLDACT:REG 13-10-15 08:04 OP:jn   STATUS:               ID:20131015045959     3
 2013-10-15-0459-59M.COL___274                                                 6
 STAT SP IPHASW D HRMM SECON CODA AMPLIT PERI AZIMU VELO AIN AR TRES W  DIS CAZ7
 BAR2 SZ EP        5 7 14.60                             172    0.1010 21.5 195 
 BAR2 SZ I         5 7 30.94        12.9 0.16            172           21.5 195 
 BRR  HZ EP        5 7 16.47                             153    0.3410 73.6 299 
 BRR  HN ES        5 7 33.60                             153    0.4710 73.6 299 
 BRR  HZ I         5 7 37.47         5.5 0.26            157           73.6 299 
 RUS  HZ EP   2    5 7 18.68                             146    0.29 5 98.3 177 
 RUS  HN ES        5 7 36.90                             146   -0.2610 98.3 177 
 RUS  HZ I         5 7 38.25         3.4 0.24            146           98.3 177 
 PTB  HE ES   1    5 7 42.71                             133   -0.50 7  149 260 
 PTB  HZ I         5 7 44.48         3.0 0.16            137            149 260 
 SPBC HZ EP        5 7 23.40                             130    0.27 9  162 220 
 SPBC HN ES        5 7 45.31                             130   -0.29 9  162 220 
 SPBC HZ I         5 7 47.04         4.8 0.20            133            162 220 
 OCA  HN ES   2    5 7 44.84                             130   -0.94 5  163 353 
 SML  HZ EP   1    5 7 30.98                             118   -0.52 6  246 335 
 SML  HE ES   1    5 8  0.26                             118   -0.25 6  246 335 
                                                                                
