 2014 1015 0640 47.9 L   6.775 -73.133156.2  RSN  5 0.5 1.4LRSN                1
 GAP=227        1.26       6.3    11.4 14.5 -0.2437E+02 -0.3764E+02  0.1699E+02E
 Epicentro: LOS SANTOS - SANTANDER                                             3
 ACTION:UPD 14-11-29 23:50 OP:nd   STATUS:               ID:20141015064047 L   I
 OLDACT:UP  14-10-15 17:31 OP:mh   STATUS:               ID:20141015063750     3
 OLDACT:UP  14-10-15 17:31 OP:mh   STATUS:               ID:20141015063750     3
 OLDACT:UP  14-10-15 17:30 OP:mh   STATUS:               ID:20141015063750     3
 OLDACT:REG 14-10-15 13:34 OP:mh   STATUS:               ID:20141015063750     3
 2014-10-15-0637-50M.COL___293                                                 6
 STAT SP IPHASW D HRMM SECON CODA AMPLIT PERI AZIMU VELO AIN AR TRES W  DIS CAZ7
 BRR  HZ EP        641 10.82                             153    0.4410 73.8 300 
 BRR  HN ES   1    641 28.62                             153    0.75 7 73.8 300 
 BRR  HZ I         641 32.38         3.6 0.08            153           73.8 300 
 PTB  HN ES        641 37.37                             134   -0.27 9  149 260 
 SPBC HZ EP        641 16.49                             132   -0.66 9  162 220 
 SPBC HN ES        641 39.99                             132    0.05 9  162 220 
 SPBC HZ I         641 45.41         3.8 0.76            134            162 220 
 OCA  HN ES        641 39.71                             131   -0.59 9  163 353 
 ZAR  HZ EP        641 22.18                             124    0.85 8  206 293 
 ZAR  HN ES        641 47.04                             124   -0.34 8  206 293 
 ZAR  HZ I         641 53.27         2.3 0.31            127            206 293 
                                                                                
