 2013  315 0442 43.2 L   6.687 -73.146143.8  RSN  4 0.4 1.5LRSN                1
 GAP=229        0.69       9.1     9.3 10.5  0.6823E+02 -0.7229E+01 -0.3333E+02E
 Epicentro: VILLANUEVA - SANTANDER                                             3
 ACTION:UPD 13-04-09 14:02 OP:ep   STATUS:               ID:20130315044243 L   I
 2013-03-15-0440-00M.COL___244                                                 6
 STAT SP IPHASW D HRMM SECON CODA AMPLIT PERI AZIMU VELO AIN AR TRES W  DIS CAZ7
 BRR  HZ EP   1    443  4.14                             150   -0.35 7 78.0 307 
 BRR  HN ES   2    443 20.91                             150   -0.22 5 78.0 307 
 BRR  HN I         443 21.95         4.8 0.18            148           78.0 307 
 RUS  HZ EP   1    443  5.98                             147    0.14 7 88.1 175 
 RUS  HN ES        443 23.65                             147    0.1210 88.1 175 
 RUS  HN I         443 25.64         3.9 0.28            147           88.1 175 
 PTB  HZ EP   1    443  9.64                             132   -0.14 7  146 264 
 PTB  HN ES   2    443 29.65                             132   -0.91 5  146 264 
 PTB  HN I         443 31.91         3.4 0.18            131            146 264 
 ZAR  HN ES        443 42.06                             121    0.45 8  209 295 
 ZAR  HN I         443 47.43         4.7 0.24            121            209 295 
                                                                                
