 2012  215 0101 24.8 L   6.699 -73.085143.8  RSN  5 0.2 2.0LRSN                1
 GAP=191        0.44       6.2     4.7  5.7 -0.1545E+02 -0.4386E+01  0.1353E+02E
 ACTION:UP  12-03-07 16:30 OP:epov STATUS:               ID:20120215010124 L   I
 2012-02-15-0100-00M.COL___188                                                 6
 STAT SP IPHASW D HRMM SECON CODA AMPLIT PERI AZIMU VELO AIN AR TRES W  DIS CAZ7
 BAR2 SZ EP   1    1 1 44.43                             173    0.32 7 16.0 222 
 BAR2 SZ I         1 1 45.05        17.2 0.39                          16.0 222 
 BAR2 SZ ES   2    1 1 59.08                             173   -0.06 5 16.0 222 
 GIR2 SZ EP   1    1 1 44.51                             162   -0.18 7 43.7 344 
 GIR2 SZ ES   2    1 2  0.27                             162    0.11 5 43.7 344 
 BRR  HZ EP   1    1 1 46.33                             149   -0.15 7 82.7 303 
 BRR  HZ I         1 1 46.53        23.2 0.23                          82.7 303 
 BRR  HN ES   1    1 2  3.49                             149    0.14 7 82.7 303 
 PAM  SZ EP   1    1 1 47.38                             149    0.20 7 82.7  31 
 PAM  SN ES   1    1 2  4.35                             149   -0.25 7 82.7  31 
 NOR  SN ES   2    1 2 27.76                             118   -0.35 4  234 238 
                                                                                
