 2014 1015 0248 53.5 L   6.840 -73.154142.6  RSN 23 0.5 2.9LRSN                1
 GAP= 69        1.10       2.7     3.2  6.0 -0.5074E-01  0.4690E+01  0.5030E+01E
 Epicentro: LOS SANTOS - SANTANDER                                             3
 ACTION:UPD 14-11-29 23:49 OP:nd   STATUS:               ID:20141015024853 L   I
 OLDACT:UP  14-10-15 16:24 OP:mh   STATUS:               ID:20141015024747     3
 OLDACT:UP  14-10-15 16:08 OP:mh   STATUS:               ID:20141015024747     3
 OLDACT:UP  14-10-15 16:08 OP:mh   STATUS:               ID:20141015024747     3
 OLDACT:UP  14-10-15 16:07 OP:mh   STATUS:               ID:20141015024747     3
 OLDACT:UP  14-10-15 16:07 OP:mh   STATUS:               ID:20141015024747     3
 OLDACT:UP  14-10-15 16:06 OP:mh   STATUS:               ID:20141015024747     3
 OLDACT:REG 14-10-15 13:01 OP:mh   STATUS:               ID:20141015024747     3
 2014-10-15-0247-47M.COL___292                                                 6
 STAT SP IPHASW D HRMM SECON CODA AMPLIT PERI AZIMU VELO AIN AR TRES W  DIS CAZ7
 BAR2 SZ IP     C  249 12.97                             169    0.1410 27.6 187 
 BAR2 SZ I         249 29.73       252.4 0.73            166           27.6 187 
 BRR  HZ IP     D  249 14.70                             153    0.5710 68.4 296 
 BRR  HN ES        249 30.46                             153    0.2210 68.4 296 
 BRR  HZ I         249 32.35        80.2 0.03            152           68.4 296 
 PAM  SZ EP     D  249 15.63                             151    0.4310 74.6  42 
 PAM  SN ES        249 32.55                             151    0.4210 74.6  42 
 PAM  SZ I         249 34.60       182.0 0.50            155           74.6  42 
 RUS  HZ EP     C  249 17.14                             142   -0.1210  105 176 
 RUS  HN ES        249 35.77                             142   -0.0410  105 176 
 RUS  HZ I         249 37.31       110.2 0.28            142            105 176 
 PTB  HZ EP        249 19.57                             131   -0.63 9  148 257 
 PTB  HN ES        249 40.32                             131   -0.72 9  148 257 
 PTB  HZ I         249 42.89       102.3 0.20            131            148 257 
 OCA  HZ EP   1    249 21.41                             130    0.29 7  156 353 
 OCA  HN ES        249 41.93                             130   -0.75 9  156 353 
 OCA  HZ I         249 46.33        81.2 0.20            132            156 353 
 TAM  HZ IP     D  249 21.40                             129    0.29 9  157 106 
 TAM  HN ES        249 42.43                             129   -0.22 9  157 106 
 SPBC HZ EP     C  249 21.97                             128   -0.05 9  166 218 
 SPBC HN ES   1    249 44.07                             128   -0.21 7  166 218 
 SPBC HZ I         249 51.14       132.9 0.24            128            166 218 
 ZAR  HZ EP   1    249 25.64                             122    0.17 6  202 291 
 ZAR  HN ES        249 51.02                             122    0.61 9  202 291 
 ZAR  HZ I         249 56.54        96.2 0.28            123            202 291 
 SML  HZ EP   1    249 28.91                             117   -0.54 6  239 335 
 SML  HN ES        249 57.03                             117   -0.48 8  239 335 
 SML  HZ I         250  0.64       139.8 0.10            119            239 335 
 CHI  HZ EP        249 31.30                             116   -0.15 8  253 195 
 CHI  HN ES        250  0.64                             116   -0.43 8  253 195 
 CHI  HZ I         250  7.31        35.5 0.30            117            253 195 
 ROSC BZ EP   4 C  249 33.01                             116    1.21 0  256 210 
 ROSC BN ES   4    250  3.00                             116    1.31 0  256 210 
 ROSC BZ I         250  9.88        78.2 0.40            116            256 210 
 URE  HZ EP   4    249 32.96                             113   -1.16 0  281 291 
 URE  HN ES   4    250  3.62                             113   -2.20 0  281 291 
 URE  HZ I         250 12.84        52.6 0.34            114            281 291 
 GUY2CHZ EP        249 37.23                             112    0.07 7  303 234 
 GUY2CHN ES   4    250 12.10                             112    0.88 0  303 234 
 GUY2CHZ I         250 20.96        39.1 0.38                           303 234 
 VIL  SZ EP   1    249 36.64                             111   -0.59 5  308 191 
 VIL  SN ES        250 10.62                             111   -0.74 7  308 191 
 VIL  SZ I         250 20.37        57.7 0.36            112            308 191 
 PTGC HZ EP   4 C  249 36.33                             111   -1.38 0  313 159 
 PTGC HN ES   4    250  9.62                             111   -2.59 0  313 159 
 PTGC HZ I         250 12.45        33.6 0.06            112            313 159 
 CBOC HZ EP        249 40.69                             109    0.36 7  334 251 
 CBOC HN ES        250 16.54                             109   -0.33 7  334 251 
 CBOC HZ I         250 24.79        10.0 0.46            110            334 251 
 TOL  SZ EP        249 42.84                             109    0.93 6  346 224 
 TOL  SN ES        250 21.25                             109    1.57 6  346 224 
 TOL  SZ I         250 26.98        69.5 0.36            109            346 224 
 MON  HZ EP   4    249 39.81                             108   -2.15 0  350 308 
 MON  HN ES   4    250 17.89                             108   -1.89 0  350 308 
 MON  HZ I         250 21.17        12.4 0.25            109            350 308 
 ANIL HZ EP   4    249 44.66                             108    1.19 0  360 224 
 ANIL HN ES   4    250 24.88                             108    2.43 0  360 224 
 ANIL HZ I         250 30.06         9.5 0.37            108            360 224 
 PRA  HZ EP   1    249 46.64                             106   -0.66 4  395 209 
 PRA  HN ES        250 29.35                             106    0.07 6  395 209 
 PRA  HZ I         250 33.68        32.3 0.38            106            395 209 
 ORTC HZ EP        249 47.04                             106   -0.62 6  399 216 
 ORTC HN ES        250 30.56                             106    0.65 6  399 216 
 SJC  HZ EP   4    249 46.62                             105   -1.83 0  405 327 
 SJC  HN ES   4    250 27.73                             105   -3.59 0  405 327 
 PAL  HZ EP   4    249 48.55                             105   -0.17 0  407 238 
 PAL  HN ES   4    250 31.22                             105   -0.59 0  407 238 
 PAL  HZ I         250 37.22        12.2 0.42            106            407 238 
 MACC HZ EP   4    250  0.32                             101   -2.31 0  525 188 
 MACC HN ES   4    250 53.73                             101   -2.83 0  525 188 
                                                                                
