 2017  715 0324 15.5 L   6.818 -73.147146.6  RSN 26 0.5 2.6LRSN                1
 GAP= 66        1.03       3.3     2.6  4.8  0.1328E+01  0.3727E+01  0.4303E+01E
 Epicentro: LOS SANTOS - SANTANDER                                             3
 ACTION:UPD 17-08-30 15:33 OP:rebc STATUS:               ID:20170715032415 L   I
 OLDACT:UP  17-07-15 16:04 OP:dnl  STATUS:               ID:20170715031742     3
 OLDACT:UP  17-07-15 16:03 OP:dnl  STATUS:               ID:20170715031742     3
 OLDACT:UP  17-07-15 16:02 OP:dnl  STATUS:               ID:20170715031742     3
 OLDACT:REG 17-07-15 15:54 OP:dnl  STATUS:               ID:20170715031742     3
 2017-07-15-0318-00M.COL___377                                                 6
 STAT SP IPHASW D HRMM SECON CODA AMPLIT PERI AZIMU VELO AIN AR TRES W  DIS CAZ7
 BAR2 EZ IP     C  324 35.14                             170   -0.1610 25.2 189 
 BAR2 EZ ES        324 50.08                             170   -0.6510 25.2 189 
 BAR2 EZ I         324 52.95       123.2 0.28            169           25.2 189 
 BRR  HZ IP     C  324 36.92                             153    0.2110 70.1 297 
 BRR  HN ES        324 54.04                             153    0.8010 70.1 297 
 BRR  HE ES        324 54.05                             154           70.1 297 
 BRR  HZ I         324 57.93        59.1 0.34            152           70.1 297 
 PAM  EZ IP     C  324 37.95                             151    0.1910 76.0  41 
 PAM  EN ES        324 55.31                             151    0.2210 76.0  41 
 PAM  EZ I         324 57.32        90.0 0.50            154           76.0  41 
 RUS  HZ EP        324 39.06                             143   -0.4510  103 176 
 RUS  HN ES        324 57.96                             143   -0.2510  103 176 
 RUS  HZ I         324 59.03        68.7 0.32            144            103 176 
 PTB  HZ EP        324 41.60                             132   -0.99 9  148 258 
 PTB  HN ES        325  2.86                             132   -0.83 9  148 258 
 PTB  HZ I         325  8.50        26.0 0.16            132            148 258 
 TAM  HZ IP     C  324 43.52                             130    0.18 9  156 106 
 TAM  HN ES        325  5.24                             130    0.21 9  156 106 
 TAM  HZ I         325 15.29        18.0 0.54            133            156 106 
 SPBC HZ EP        324 44.05                             129   -0.18 9  165 219 
 SPBC HN ES   4    325  5.98                             129   -0.63 0  165 219 
 SPBC HZ I         325  8.72        78.9 0.30            129            165 219 
 YPLC HZ IP     D  324 45.55                             126   -0.01 9  179 152 
 YPLC HN ES        325  9.51                             126    0.52 9  179 152 
 YPLC HZ I         325 10.48        77.2 0.28            128            179 152 
 ZAR  HZ EP   2    324 47.66                             123   -0.28 4  203 292 
 ZAR  HN ES        325 13.07                             123   -0.15 9  203 292 
 ZAR  HZ I         325 18.97        39.8 0.32            123            203 292 
 TABC EZ EP   9    324 52.68                             119    1.18 0  232 210 
 TABC EZ ES        325 21.08                             119    0.34 8  232 210 
 TABC EZ I         325 26.61        36.8 0.40            119            232 210 
 NOR  HZ EP        324 51.15                             118   -0.27 8  236 234 
 NOR  HE ES        325 19.66                             118    0.25 8  236 234 
 NOR  HZ I         325 24.75        26.9 0.22            119            236 234 
 ROSC BZ EP   4    324 54.94                             117    1.07 0  254 211 
 ROSC BN ES   4    325 26.32                             117    2.55 0  254 211 
 ROSC BZ I         325 29.89        42.9 0.40            117            254 211 
 HEL  HZ EP        324 56.59                             115    0.77 8  272 255 
 HEL  HE ES        325 27.66                             115    0.41 8  272 255 
 HEL  HZ I         325 35.39        16.2 0.42            115            272 255 
 URE  HZ EP   2    324 55.72                             114   -0.82 4  283 292 
 URE  HE ES   4    325 26.07                             114   -2.46 0  283 292 
 URE  HZ I         325 38.31        19.8 0.16            114            283 292 
 GUY2CHZ EP   4    325  0.18                             112    0.89 0  302 234 
 GUY2CHN ES   4    325 36.55                             112    3.13 0  302 234 
 GUY2CHZ I         325 45.35        23.6 0.42                           302 234 
 VIL  EZ EP        324 58.82                             112   -0.38 7  305 191 
 VIL  EN ES        325 33.43                             112    0.17 7  305 191 
 VIL  EZ I         325 37.97        21.9 0.38            112            305 191 
 PTGC HZ IP   4 D  324 58.28                             111   -1.36 0  311 159 
 PTGC HN ES   4    325 31.63                             111   -2.41 0  311 159 
 PTGC HZ I         325 36.53        29.9 0.30            112            311 159 
 CBOC HZ EP        325  3.15                             110    0.62 7  334 252 
 CBOC HE ES        325 39.71                             110    0.52 7  334 252 
 CBOC HZ I         325 52.71         5.4 0.26            110            334 252 
 DBB  EZ EP   2    325  2.42                             110   -0.58 3  339 274 
 DBB  EN ES   4    325 38.26                             110   -1.77 0  339 274 
 DBB  EZ I         325 40.17         9.3 0.30            110            339 274 
 APAC HZ EP   2    325  9.09                             106   -0.57 3  397 288 
 APAC HN ES        325 52.30                             106    0.42 6  397 288 
 APAC HZ I         325 56.84         6.6 0.40            107            397 288 
 ORTC HZ EP        325  9.40                             106   -0.25 6  397 216 
 ORTC HE ES        325 52.93                             106    1.07 6  397 216 
 ORTC HZ I         325 58.98        15.5 0.36            107            397 216 
 SJC  HZ EP   4    325  9.31                             106   -1.61 0  407 327 
 SJC  HN ES   4    325 50.25                             106   -3.87 0  407 327 
 SJC  HZ I         325 54.63         5.8 0.48            106            407 327 
 PAL  HZ EP        325 10.84                             106    0.02 6  407 239 
 PAL  HE ES   4    325 52.43                             106   -1.51 0  407 239 
 PAL  HZ I         325 56.68         6.6 0.22            106            407 239 
 CRJC HZ EP   9    325 15.46                             103   -2.36 0  466   4 
 CRJC HN ES        326  3.73                             104   -0.32 5  466   4 
 CRJC HZ I         326 13.75        14.2 0.70            104            466   4 
 GUA  EZ EP   4    325 17.55                             103   -1.39 0  476 173 
 GUA  EE ES        326  8.25                             103   -0.15 5  476 173 
 GUA  EZ I         326 12.70        11.9 0.72            104            476 173 
 MACC HZ EP   4    325 22.15                             102   -2.34 0  522 189 
 MACC HE ES   4    326 13.69                             102   -4.58 0  522 189 
 MACC HZ I         326 19.11         4.8 0.54            102            522 189 
                                                                                
