 2016  915 0106 14.6 L   6.769 -73.125139.6  RSN 13 0.4 2.1LRSN                1
 GAP=141        1.06       3.3     3.8  5.4 -0.2529E+01  0.5709E+01  0.1030E+01E
 Epicentro: LOS SANTOS - SANTANDER                                             3
 ACTION:UPD 17-08-17 21:12 OP:lp   STATUS:               ID:20160915010614 L   I
 OLDACT:DUP 16-09-15 21:24 OP:lv   STATUS:               ID:20160915005743d    3
 2016-09-15-0058-00M.COL___330                                                 6
 STAT SP IPHASW D HRMM SECON CODA AMPLIT PERI AZIMU VELO AIN AR TRES W  DIS CAZ7
 BAR2 EZ EP        1 6 33.05                             171   -0.3610 20.5 198 
 BAR2 EZ ES        1 6 47.88                             171   -0.2210 20.5 198 
 BAR2 EZ I         1 6 49.28        40.3 0.24            169           20.5 198 
 BRR  HZ EP        1 6 35.45                             150    0.1710 74.9 300 
 BRR  HN ES        1 6 52.07                             150    0.6410 74.9 300 
 BRR  HZ I         1 6 56.05        26.4 0.12            149           74.9 300 
 PAM  EZ EP        1 6 36.26                             149    0.0410 78.7  37 
 PAM  EN ES        1 6 53.13                             149    0.0210 78.7  37 
 PAM  EZ I         1 6 55.39        21.5 0.47            153           78.7  37 
 RUS  HZ EP        1 6 37.30                             144   -0.1610 97.0 177 
 RUS  HN ES        1 6 55.67                             144    0.3610 97.0 177 
 RUS  HZ I         1 6 56.63        14.3 0.25            145           97.0 177 
 PTB  HZ EP        1 6 40.45                             130   -0.74 9  149 260 
 PTB  HN ES        1 7  1.23                             130   -0.73 9  149 260 
 PTB  HZ I         1 7  3.31        12.9 0.18            130            149 260 
 SPBC HZ EP        1 6 42.28                             128   -0.21 9  162 220 
 SPBC HN ES        1 7  3.95                             128   -0.31 9  162 220 
 SPBC HZ I         1 7  8.06        21.3 0.10            128            162 220 
 OCA  HZ EP        1 6 42.99                             128    0.22 9  164 353 
 OCA  HN ES   4    1 7  3.34                             128   -1.42 0  164 353 
 OCA  HZ I         1 7  7.11        41.5 0.33            130            164 353 
 ZAR  HZ EP        1 6 47.08                             121    0.10 8  207 293 
 ZAR  HN ES        1 7 12.06                             121   -0.20 8  207 293 
 ZAR  HZ I         1 7 17.50        13.6 0.19            121            207 293 
 NOR  HZ EP        1 6 49.98                             117    0.04 8  235 235 
 NOR  HE ES        1 7 17.21                             117   -0.31 8  235 235 
 NOR  HZ I         1 7 23.11        10.4 0.18            118            235 235 
 CHI  HZ EP        1 6 51.87                             116    0.23 8  246 196 
 CHI  HN ES        1 7 20.76                             116    0.21 8  246 196 
 CHI  HZ I         1 7 26.12         4.2 0.27            117            246 196 
 ROSC BZ EP   9    1 6 55.19                             116    3.02 0  251 212 
 ROSC BN ES        1 7 25.18                                    0.67 8  251 212 
 ROSC BZ I         1 7 30.16         9.6 0.30            117            251 212 
 HEL  HZ EP        1 6 55.41                             113    0.78 8  273 257 
 HEL  HE ES        1 7 26.66                             113    0.78 8  273 257 
 HEL  HZ I         1 7 32.46         6.1 0.36            114            273 257 
 GUY2CHZ EP        1 6 57.22                             111   -0.67 7  301 236 
 GUY2CHN ES        1 7 32.53                             111    0.86 7  301 236 
 GUY2CHZ I         1 7 40.67         5.0 0.49                           301 236 
                                                                                
