 2013 1015 0059 57.5 L   6.763 -73.151142.3  RSN  6 0.3 1.4LRSN                1
 GAP=138        0.75       3.6     3.8  5.7 -0.4216E+01  0.4260E+01 -0.8807E+00E
 Epicentro: LOS SANTOS - SANTANDER                                             3
 ACTION:UPD 13-11-25 09:21 OP:ep   STATUS:               ID:20131015005957 L   I
 OLDACT:REG 13-10-15 07:49 OP:jn   STATUS:               ID:20131015005959     3
 2013-10-15-0059-59M.COL___274                                                 6
 STAT SP IPHASW D HRMM SECON CODA AMPLIT PERI AZIMU VELO AIN AR TRES W  DIS CAZ7
 BAR2 SZ EP        1 0 16.76                             172    0.1510 19.2 190 
 BAR2 SZ ES        1 0 31.56                             172    0.0210 19.2 190 
 BAR2 SZ I         1 0 33.07        10.4 0.18            173           19.2 190 
 BRR  HZ EP        1 0 18.61                             151    0.2710 72.7 302 
 BRR  HN ES   1    1 0 35.11                             151    0.50 7 72.7 302 
 BRR  HZ I         1 0 36.29         3.1 0.12            152           72.7 302 
 PAM  SZ EP        1 0 19.74                             149    0.2010 80.9  38 
 PAM  SN ES        1 0 36.42                             149   -0.3410 80.9  38 
 PAM  SZ I         1 0 38.21         4.3 0.20            151           80.9  38 
 RUS  HZ EP        1 0 20.71                             144    0.1110 96.6 176 
 RUS  HN ES        1 0 38.43                             144   -0.2010 96.6 176 
 RUS  HZ I         1 0 39.90         2.7 0.46            146           96.6 176 
 PTB  HZ EP        1 0 23.53                             131   -0.51 9  146 260 
 PTB  HN ES        1 0 44.46                             131   -0.30 9  146 260 
 PTB  HZ I         1 0 46.43         4.1 0.60            133            146 260 
 SPBC HE ES        1 0 47.42                             129    0.28 9  160 220 
                                                                                
