 2015  815 0744 21.4 L   6.791 -73.118145.8  RSN  8 0.4 1.8LRSN                1
 GAP=206        0.85       3.1     5.5  5.5 -0.2955E+01  0.4667E+01 -0.1577E+01E
 Epicentro: LOS SANTOS - SANTANDER                                             3
 ACTION:UPD 15-09-15 23:02 OP:cam  STATUS:               ID:20150815074421 L   I
 OLDACT:REG 15-08-15 14:04 OP:ar   STATUS:               ID:20150815073749     3
 2015-08-15-0737-49M.COL___328                                                 6
 STAT SP IPHASW D HRMM SECON CODA AMPLIT PERI AZIMU VELO AIN AR TRES W  DIS CAZ7
 BAR2 EZ EP        744 41.02                             171   -0.0110 23.1 198 
 BAR2 EZ ES        744 56.02                             171   -0.3310 23.1 198 
 BAR2 EZ I         744 57.39        12.6 0.18            164           23.1 198 
 BRR  HZ EP        744 43.11                             151    0.3710 74.4 298 
 BRR  HN ES        745  0.07                             151    0.6910 74.4 298 
 BRR  HZ I         745  2.28         5.9 0.70            144           74.4 298 
 OCA  HZ EP        744 49.68                             129   -0.17 9  162 352 
 OCA  HN ES        745 12.05                             129    0.01 9  162 352 
 OCA  HZ I         745 14.25        13.5 0.24            129            162 352 
 SPBC HZ EP        744 50.01                             129   -0.00 9  164 220 
 SPBC HN ES        745 11.97                             129   -0.36 9  164 220 
 SPBC HZ I         745 19.01         8.1 0.44            127            164 220 
 ZAR  HN ES        745 19.24                             122   -0.51 8  207 292 
 ZAR  HZ I         745 27.54         6.0 0.36            120            207 292 
 SML  HZ EP        744 57.86                             117   -0.41 8  246 335 
 SML  HE ES        745 26.96                             117   -0.07 8  246 335 
 SML  HZ I         745 29.70         5.5 0.10            117            246 335 
 HEL  HZ EP   2    745  3.12                             115    1.21 4  275 256 
 HEL  HN ES   2    745 33.36                             115   -0.15 4  275 256 
 HEL  HZ I         745 42.17         1.9 0.22            113            275 256 
 GUY2CHZ EP        745  5.59                             112    0.36 7  303 235 
 GUY2CHN ES   2    745 39.69                             112    0.28 4  303 235 
 GUY2CHZ I         745 47.44         4.0 0.32                           303 235 
                                                                                
