 2014  315 0817 57.4 L   6.813 -73.160139.8  RSN 26 0.4 2.9LRSN                1
 GAP= 70        0.66       1.8     2.1  3.6 -0.8899E+00  0.2592E+01 -0.2407E+00E
 Epicentro: LOS SANTOS - SANTANDER                                             3
 OLDACT:REG 14-03-15 08:44 OP:fm   STATUS:               ID:20140315080809     3
 ACTION:UPD 14-04-09 23:17 OP:nd   STATUS:               ID:20140315081757 L   I
 OLDACT:UP  14-03-15 09:37 OP:fm   STATUS:               ID:20140315080809     3
 2014-03-15-0808-09M.COL___245                                                 6
 STAT SP IPHASW D HRMM SECON CODA AMPLIT PERI AZIMU VELO AIN AR TRES W  DIS CAZ7
 BAR2 SZ EP     C  818 16.53                             170    0.1510 24.6 186 
 BAR2 SZ ES   1    818 31.16                             170    0.01 7 24.6 186 
 BAR2 SZ I         818 32.63       242.5 0.18            169           24.6 186 
 PAM  SZ EP     D  818 19.47                             150    0.4610 77.3  41 
 PAM  SN ES        818 36.10                             150    0.2610 77.3  41 
 PAM  SZ I         818 38.20       298.3 0.44            151           77.3  41 
 RUS  HZ EP     C  818 20.59                             142   -0.1410  102 175 
 RUS  HN ES        818 38.61                             142   -0.2810  102 175 
 RUS  SZ I         818 40.49        72.3 0.30            142            102 175 
 PTB  HZ EP        818 23.66                             131   -0.15 9  147 258 
 PTB  HN ES        818 44.32                             131   -0.06 9  147 258 
 PTB  SZ I         818 47.60        90.9 0.18            129            147 258 
 TAM  HZ IP     D  818 24.94                             129    0.11 9  157 105 
 TAM  HN ES        818 46.30                             129    0.11 9  157 105 
 TAM  SZ I         818 55.76        29.6 0.82            130            157 105 
 OCA  HZ EP     C  818 24.82                             128   -0.32 9  159 354 
 OCA  HE ES        818 46.70                             128   -0.04 9  159 354 
 OCA  SZ I         818 51.17       126.5 0.38            128            159 354 
 SPBC HZ EP        818 25.61                             128    0.11 9  163 218 
 SPBC HN ES        818 46.99                             128   -0.40 9  163 218 
 SPBC SZ I         818 52.93        83.6 0.28            126            163 218 
 ZAR  HZ EP        818 29.51                             121    0.21 9  202 292 
 ZAR  HE ES   4    818 55.57                             121    1.43 0  202 292 
 ZAR  SZ I         819  0.52       100.1 0.30            120            202 292 
 NOR  HZ EP        818 33.16                             117    0.37 8  234 234 
 NOR  HN ES        819  0.69                             117    0.33 8  234 234 
 NOR  SZ I         819  5.68        44.9 0.34            116            234 234 
 SML  HZ EP        818 32.82                             116   -0.70 8  242 335 
 SML  HN ES   4    818 59.44                             116   -2.22 0  242 335 
 SML  SZ I         819  8.06       104.2 0.08            116            242 335 
 CHI  HZ EP        818 34.85                             116   -0.08 8  250 195 
 CHI  HN ES   1    819  3.53                             116   -0.63 6  250 195 
 CHI  SZ I         819  8.19        25.0 0.28            115            250 195 
 ROSC BZ EP   4    818 36.82                             115    1.53 0  253 211 
 ROSC BE ES   4    819  5.37                             115    0.55 0  253 211 
 ROSC SZ I         819 14.30        48.0 0.45            115            253 211 
 HEL  HZ EP   1    818 37.11                             114   -0.12 6  271 255 
 HEL  HN ES   2    819  8.28                             114    0.02 4  271 255 
 HEL  SZ I         819 14.24        24.4 0.80            113            271 255 
 URE  HZ EP   4    818 37.07                             112   -0.93 0  282 292 
 URE  HE ES   4    819  8.54                             112   -1.10 0  282 292 
 URE  SZ I         819 10.57        64.2 0.12            112            282 292 
 GUY2CHZ EP   4    818 41.24                             111    0.51 0  301 234 
 GUY2CHE ES   4    819 16.48                             111    1.98 0  301 234 
 GUY2CSZ I         819 23.75        36.7 0.46                           301 234 
 VIL  SZ EP   2    818 40.28                             111   -0.44 4  304 191 
 VIL  SN ES   2    819 13.93                             111   -0.55 4  304 191 
 VIL  SZ I         819 24.98        30.4 0.36            110            304 191 
 PTGC HZ EP   4 C  818 39.75                             110   -1.51 0  311 158 
 PTGC HN ES   4    819 13.26                             110   -2.17 0  311 158 
 PTGC SZ I         819 15.23        48.8 0.26            110            311 158 
 RREF HZ EP   2    818 43.69                             110    0.38 3  322 229 
 RREF HN ES   2    819 20.09                             110    1.01 3  322 229 
 RREF SZ I         819 29.20        29.0 0.54            109            322 229 
 CBOC HZ EP   2    818 44.66                             109    0.66 3  333 252 
 CBOC HE ES   2    819 20.26                             109   -0.05 3  333 252 
 CBOC SZ I         819 25.60        14.6 0.48            108            333 252 
 DBB  SZ EP   1    818 44.58                             108    0.09 5  338 274 
 DBB  SZ ES   2    819 20.84                             108   -0.35 3  338 274 
 DBB  SZ I         819 27.70       158.1 0.50            108            338 274 
 COD  HZ EP   2    818 44.24                             108   -1.16 3  347 355 
 COD  HN ES   4    819 24.15                             108    1.34 0  347 355 
 COD  SZ I         819 32.01         7.0 0.72            108            347 355 
 ANIL HZ EP   2    818 47.82                             107    0.80 3  357 224 
 ARGC HZ EP   4    818 47.32                             107    0.67 0  357 341 
 ARGC HE ES   4    819 25.59                             107    0.55 0  357 341 
 ARGC SZ I         819 34.43        16.8 0.50            107            357 341 
 ANIL HN ES   4    819 26.86                             107    1.17 0  357 224 
 ANIL SZ I         819 30.34        68.1 0.34            107            357 224 
 SDV  BZ EP   4    818 46.39                             107   -0.90 0  361  51 
 SDV  BN ES   4    819 22.95                             107   -3.22 0  361  51 
 ORTC HZ EP   1    818 51.53                             105    0.33 4  396 216 
 ORTC HN ES   1    819 33.65                             105    0.53 4  396 216 
 ORTC SZ I         819 39.59        25.9 0.46            105            396 216 
 SJC  HZ EP   4    818 51.23                             105   -1.34 0  407 327 
 SJC  HN ES   4    819 32.14                             105   -3.43 0  407 327 
 SJC  SZ I         819 36.08        30.1 0.58            104            407 327 
 MACC HZ EP   4    819  3.85                             101   -2.31 0  522 188 
 MACC HN ES   4    819 55.59                             101   -4.16 0  522 188 
 MACC SZ I         820  1.24         8.3 1.18            100            522 188 
                                                                                
