 2016  415 0605 11.2 L   6.768 -73.126143.6  RSN  5 0.2 1.4LRSN                1
 GAP=140        0.49       2.7     2.8  3.7 -0.3476E+01  0.3019E+01 -0.5089E+00E
 Epicentro: LOS SANTOS - SANTANDER                                             3
 ACTION:UPD 16-05-05 14:21 OP:rebc STATUS:               ID:20160415060511 L   I
 OLDACT:UP  16-04-15 19:41 OP:mh   STATUS:               ID:20160415055742d    3
 OLDACT:DUP 16-04-15 19:37 OP:mh   STATUS:               ID:20160415055742d    3
 OLDACT:REG 16-04-15 13:55 OP:mh   STATUS:               ID:20160415055741     3
 2016-04-15-0557-41M.COL___310                                                 6
 STAT SP IPHASW D HRMM SECON CODA AMPLIT PERI AZIMU VELO AIN AR TRES W  DIS CAZ7
 BAR2 EZ EP        6 5 30.67                             172    0.2010 20.4 198 
 BAR2 EZ ES        6 5 45.62                             172    0.0910 20.4 198 
 PAM  EZ EP        6 5 33.30                             150    0.0710 78.8  37 
 PAM  EN ES        6 5 50.38                             150   -0.0610 78.8  37 
 PAM  EZ I         6 5 52.65         5.0 0.54            152           78.8  37 
 RUS  HZ EP        6 5 34.32                             144   -0.1210 97.0 177 
 RUS  HN ES        6 5 52.40                             144   -0.1910 97.0 177 
 PTB  HN EP        6 5 38.14                             131    0.05 9  149 260 
 PTB  HZ ES        6 5 58.86                             131   -0.23 9  149 260 
 PTB  HN I         6 6  1.01         4.1 0.40            132            149 260 
 SPBC HZ EP        6 5 39.21                             129   -0.16 9  162 220 
 SPBC HN ES        6 6  1.71                             129    0.34 9  162 220 
 SPBC HZ I         6 6  5.24         2.5 0.51            130            162 220 
                                                                                
