 2013  515 0536  3.1 L   6.798 -73.139143.1  RSN 11 0.4 1.9LRSN                1
 GAP= 71        0.83       2.9     3.1  5.5 -0.7380E+00  0.2787E+01 -0.2198E+00E
 Epicentro: LOS SANTOS - SANTANDER                                             3
 ACTION:UPD 13-06-20 09:50 OP:ep   STATUS:               ID:20130515053603 L   I
 2013-05-15-0530-00M.COL___256                                                 6
 STAT SP IPHASW D HRMM SECON CODA AMPLIT PERI AZIMU VELO AIN AR TRES W  DIS CAZ7
 BAR2 SZ EP        536 22.43                             170    0.0310 23.2 192 
 BAR2 SZ ES   1    536 37.20                             170   -0.26 7 23.2 192 
 BAR2 SZ I         536 38.23        15.3 0.18            170           23.2 192 
 GIR2 SZ EP   1    536 22.62                             167    0.16 7 31.6 349 
 GIR2 SZ I         536 38.45        14.7 0.12            167           31.6 349 
 BRR  HZ EP        536 24.39                             152    0.3910 71.9 298 
 BRR  HN ES        536 40.74                             152    0.4410 71.9 298 
 BRR  HZ I         536 44.10        15.5 0.34            153           71.9 298 
 PAM  SZ EP        536 25.45                             150    0.4410 77.1  39 
 PAM  SN ES   1    536 42.47                             150    0.37 7 77.1  39 
 PAM  SZ I         536 44.66        21.1 0.58            148           77.1  39 
 RUS  HZ EP   1    536 26.72                             143    0.16 7  100 176 
 RUS  HN ES   1    536 44.64                             143   -0.23 7  100 176 
 RUS  HZ I         536 45.62         6.4 0.56            142            100 176 
 PTB  HZ EP        536 29.56                             131   -0.35 9  148 259 
 PTB  HN ES   1    536 50.07                             131   -0.75 7  148 259 
 PTB  HZ I         536 52.94        14.7 0.12            132            148 259 
 TAM  HZ EP   1    536 30.74                             130    0.25 7  154 105 
 TAM  HN ES   1    536 51.05                             130   -0.81 7  154 105 
 TAM  HZ I         537  1.71         6.8 0.40            128            154 105 
 OCA  HZ EP   1    536 30.55                             129   -0.68 7  161 353 
 OCA  HN ES        536 52.97                             129   -0.20 9  161 353 
 OCA  HZ I         536 55.89        18.9 0.28            128            161 353 
 NOR  HZ EP   1    536 39.25                             118    0.53 6  235 235 
 NOR  HE ES        537  6.61                             118    0.10 8  235 235 
 NOR  HZ I         537  8.26         3.0 0.14            118            235 235 
 SML  HZ EP   1    536 39.39                             117   -0.24 6  244 335 
 SML  HN ES        537  7.83                             117   -0.29 8  244 335 
 SML  HZ I         537  9.89        13.6 0.26            117            244 335 
 HEL  HZ EP   2    536 43.49                             114    0.25 4  273 256 
 HEL  HN ES   1    537 14.46                             114   -0.10 6  273 256 
 HEL  HZ I         537 21.41         2.8 0.28            114            273 256 
 SJC  HZ EP   4    536 56.97                             105   -1.67 0  410 327 
 SJC  HN ES   4    537 37.66                             105   -4.30 0  410 327 
                                                                                
