 2017  415 0517 26.1 L   6.722 -73.112146.8  RSN  7 0.4 1.2LRSN                1
 GAP=144        1.32       5.5     6.1  8.1 -0.1159E+01  0.6847E+01 -0.5543E+00E
 Epicentro: JORDAN - SANTANDER                                                 3
 ACTION:UPD 17-05-30 21:12 OP:jn   STATUS:               ID:20170415051726 L   I
 OLDACT:UP  17-04-15 16:43 OP:edw  STATUS:               ID:20170415050657d    3
 OLDACT:DUP 17-04-15 16:40 OP:edw  STATUS:               ID:20170415050657d    3
 OLDACT:DUP 17-04-15 16:37 OP:edw  STATUS:               ID:20170415050656d    3
 OLDACT:UP  17-04-15 16:34 OP:edw  STATUS:               ID:20170415050654     3
 OLDACT:REG 17-04-15 13:07 OP:edw  STATUS:               ID:20170415050654     3
 2017-04-15-0508-00M.COL___368                                                 6
 STAT SP IPHASW D HRMM SECON CODA AMPLIT PERI AZIMU VELO AIN AR TRES W  DIS CAZ7
 BAR2 EZ EP     C  517 45.69                             173   -0.0910 16.3 209 
 BAR2 EZ ES        518  0.39                             173   -0.7110 16.3 209 
 BAR2 EZ I         518  1.00         2.7 0.64            172           16.3 209 
 BRR  HZ EP        517 47.77                             150   -0.0810 78.8 303 
 BRR  HE ES        518  5.68                             150    0.9010 78.8 303 
 BRR  HZ I         518  5.70         3.6 0.44            148           78.8 303 
 PAM  EZ EP     D  517 48.86                             149    0.1110 82.1  34 
 PAM  EN ES        518  6.00                             149   -0.3910 82.1  34 
 PAM  EZ I         518  8.69         1.8 0.44            151           82.1  34 
 RUS  HZ EP        517 49.98                             146    0.6010 91.8 178 
 RUS  HN ES        518  7.67                             146    0.1610 91.8 178 
 RUS  HZ I         518  9.08         1.5 0.28            147           91.8 178 
 PTB  HZ EP   9    517 52.62                             131   -0.78 0  150 262 
 PTB  HN ES        518 12.77                             132   -1.11 9  150 262 
 PTB  HZ I         518 16.76         2.3 0.10            130            150 262 
 SPBC HZ EP        517 54.24                             129   -0.09 9  159 222 
 SPBC HN ES        518 16.13                             129   -0.19 9  159 222 
 SPBC HZ I         518 20.70         2.5 0.10            129            159 222 
 ZAR  HZ EP        517 58.89                             121   -0.47 8  211 294 
 ZAR  HN ES        518 25.40                             121    0.12 8  211 294 
 ZAR  HZ I         518 30.31         2.6 0.48            121            211 294 
                                                                                
