 2017  815 0808 20.8 L   6.875 -73.400106.1  RSN  4 0.3 1.2LRSN                1
 GAP=196        0.73       7.5     8.0  5.9  0.5340E+02  0.2040E+02  0.1512E+02E
 Epicentro: SAN VICENTE DE CHUCURI - SANTANDER                                 3
 ACTION:UPD 17-09-04 20:20 OP:rebc STATUS:               ID:20170815080820 L   I
 OLDACT:UP  17-08-15 14:25 OP:mg   STATUS:               ID:20170815075739     3
 OLDACT:REG 17-08-15 12:53 OP:mg   STATUS:               ID:20170815075739     3
 2017-08-15-0758-00M.COL___407                                                 6
 STAT SP IPHASW D HRMM SECON CODA AMPLIT PERI AZIMU VELO AIN AR TRES W  DIS CAZ7
 BAR2 EZ IP     C  8 8 36.39                             158    0.1210 39.5 142 
 BAR2 EZ ES        8 8 48.44                             158    0.1010 39.5 142 
 BAR2 EZ I         8 8 50.08        15.5 0.20            158           39.5 142 
 BRR  HZ IP     C  8 8 35.80                             156   -0.2810 43.0 307 
 BRR  HN ES        8 8 48.01                             156    0.0010 43.0 307 
 BRR  HZ I         8 8 48.10         3.4 0.26            156           43.0 307 
 RUS  HZ EP        8 8 42.57                             129    0.4310  114 162 
 RUS  HN ES        8 8 58.45                             129   -0.3310  114 162 
 RUS  HZ I         8 8 59.90         1.5 0.18            130            114 162 
 ZAR  HZ EP        8 8 47.41                             116   -0.35 9  175 293 
 ZAR  HN ES        8 9  9.09                             116    0.30 9  175 293 
 ZAR  HZ I         8 9 10.54         1.9 0.58            117            175 293 
                                                                                
