 2014  815 0742 41.4 L   6.800 -73.144160.0  RSN  8 0.5 1.7LRSN                1
 GAP=223        1.16       5.2     7.1  7.2  0.2309E+01  0.1227E+02  0.7131E+00E
 Epicentro: LOS SANTOS - SANTANDER                                             3
 ACTION:UPD 14-09-15 21:50 OP:nd   STATUS:               ID:20140815074241 L   I
 OLDACT:UP  14-08-15 19:06 OP:mher STATUS:               ID:20140815073813     3
 OLDACT:UP  14-08-15 19:05 OP:spq  STATUS:               ID:20140815073813     3
 OLDACT:REG 14-08-15 13:38 OP:spq  STATUS:               ID:20140815073813     3
 2014-08-15-0738-13M.COL___266                                                 6
 STAT SP IPHASW D HRMM SECON CODA AMPLIT PERI AZIMU VELO AIN AR TRES W  DIS CAZ7
 BAR2 SZ EP        743  2.88                             171    0.1010 23.3 190 
 BAR2 SZ ES        743 18.73                             171   -0.7010 23.3 190 
 BAR2 SZ I         743 20.82        12.4 0.28            169           23.3 190 
 BRR  HZ EP        743  4.75                             155    0.6010 71.4 298 
 BRR  HN ES        743 22.20                             155    0.3310 71.4 298 
 BRR  HZ I         743 25.22         6.5 0.14            144           71.4 298 
 PTB  HZ EP        743  8.94                             135   -0.68 9  148 259 
 PTB  HN ES   1    743 31.58                             135   -0.01 7  148 259 
 PTB  HZ I         743 38.05         8.6 0.44            129            148 259 
 SPBC HZ EP   1    743 11.71                             132    0.63 7  163 219 
 SPBC HN ES        743 34.45                             132    0.26 9  163 219 
 SPBC HZ I         743 37.31         4.5 0.16            130            163 219 
 ZAR  HZ EP   1    743 15.25                             125    0.38 6  204 292 
 ZAR  HN ES        743 41.53                             125    0.59 9  204 292 
 ZAR  HZ I         743 47.77         4.7 0.37            120            204 292 
 HEL  HZ EP        743 21.64                             117   -0.79 8  272 256 
 HEL  HN ES        743 53.60                             117   -0.81 8  272 256 
 HEL  HZ I         744  1.10         2.5 0.20            114            272 256 
 MON  HZ EP   4    743 29.76                             111   -1.28 0  354 308 
 MON  HN ES   4    744  8.45                             111   -1.28 0  354 308 
 PRA  HZ EP        743 35.83                             109    0.33 6  392 210 
 PRA  HN ES        744 18.26                             109    0.60 6  392 210 
 PRA  HZ I         744 22.77         2.1 0.65            108            392 210 
 SJC  HZ EP        743 37.10                             108   -0.42 6  409 327 
 SJC  HN ES        744 20.94                             108   -0.31 6  409 327 
 SJC  HZ I         745  1.77         1.4 0.62            105            409 327 
                                                                                
