 2014  415 0534 14.9 L   7.523 -73.433103.1  RSN  4 0.5 1.3LRSN                1
 GAP=159        1.18       5.2     6.1 15.6 -0.1664E+01  0.1269E+02  0.4575E+02E
 Epicentro: SABANA DE TORRES - SANTANDER                                       3
 ACTION:UPD 14-05-13 23:08 OP:nd   STATUS:               ID:20140415053414 L   I
 OLDACT:REG 14-04-15 14:12 OP:spq  STATUS:               ID:20140415053035     3
 2014-04-15-0530-35M.COL___259                                                 6
 STAT SP IPHASW D HRMM SECON CODA AMPLIT PERI AZIMU VELO AIN AR TRES W  DIS CAZ7
 OCA  HZ EP        534 32.38                             139   -0.1510 80.1   9 
 OCA  HN ES        534 46.22                             139   -0.0710 80.1   9 
 OCA  HZ I         534 47.00         6.7 0.14            145           80.1   9 
 ZAR  HZ EP        534 39.91                             118    0.13 9  157 269 
 ZAR  HN ES   1    535  0.45                             118    1.25 7  157 269 
 ZAR  HZ I         535  3.74         4.1 0.32            120            157 269 
 PTB  HZ EP     D  534 39.39                             118   -0.35 9  157 226 
 PTB  HN ES        534 58.37                             118   -0.77 9  157 226 
 PTB  HZ I         535  2.90         2.2 0.12            121            157 226 
 RUS  HZ EP        534 43.46                             114    0.09 9  184 168 
 RUS  HN ES        535  6.10                             114    0.51 9  184 168 
                                                                                
