 2012  215 0543 32.7 L   6.786 -73.170147.3  RSN  6 0.3 1.2LRSN                1
 GAP=234        0.50       7.0     6.4  7.0  0.2665E+02  0.5829E+01  0.6718E+01E
 ACTION:UP  12-03-07 16:30 OP:epov STATUS:               ID:20120215054332 L   I
 2012-02-15-0540-00M.COL___186                                                 6
 STAT SP IPHASW D HRMM SECON CODA AMPLIT PERI AZIMU VELO AIN AR TRES W  DIS CAZ7
 BAR2 SZ EP   1    543 52.38                             171   -0.05 7 21.5 184 
 BAR2 SZ ES   2    544  7.28                             171   -0.58 5 21.5 184 
 BAR2 SZ I         544  8.97         4.2 0.25                          21.5 184 
 BRR  HZ EP   2    543 54.25                             153    0.37 5 69.6 301 
 BRR  HN ES   2    544 10.98                             153    0.55 5 69.6 301 
 BRR  HZ I         544 17.17         5.0 0.50                          69.6 301 
 RUS  HZ EP   2    543 56.26                             144   -0.21 5 99.3 174 
 RUS  HZ I         543 57.08         1.2 0.08                          99.3 174 
 RUS  HN ES   2    544 15.33                             144    0.30 5 99.3 174 
 PTB  HZ EP   2    543 59.19                             133   -0.30 5  145 259 
 PTB  HE ES   2    544 20.39                             133   -0.02 5  145 259 
 ZAR  HN ES   2    544 29.93                             123   -0.31 4  202 293 
 CHI  HZ EP   2    544 10.53                             118    0.32 4  246 195 
                                                                                
