 2013  115 0325 39.2 L   7.405 -73.176130.5  RSN  5 0.2 1.8LRSN                1
 GAP=263        0.45       6.5     4.5  5.3  0.1605E+02 -0.5574E+01 -0.1440E+02E
 Epicentro: EL PLAYON - SANTANDER                                              3
 ACTION:UPD 13-02-15 09:14 OP:ep   STATUS:               ID:20130115032539 L   I
 2013-01-15-0320-00M.COL___241                                                 6
 STAT SP IPHASW D HRMM SECON CODA AMPLIT PERI AZIMU VELO AIN AR TRES W  DIS CAZ7
 BRR  HZ EP   1    325 58.68                             151    0.15 7 67.7 241 
 BRR  HN ES   1    326 13.54                             151   -0.04 7 67.7 241 
 BRR  HZ I         326 14.65         8.3 0.11            145           67.7 241 
 BAR2 SZ EP   1    326  0.29                             143   -0.05 7 89.9 180 
 BAR2 SZ ES   1    326 16.73                             143   -0.08 7 89.9 180 
 BAR2 SZ I         326 18.15        11.5 0.16            138           89.9 180 
 RUS  HZ EP   1    326  7.88                             125    0.31 7  168 176 
 PTB  HZ EP   1    326  6.79                             124   -0.47 7  171 236 
 PTB  HN ES   1    326 29.24                             124    0.11 7  171 236 
 PTB  HZ I         326 32.46        12.2 0.45            121            171 236 
 ZAR  HZ EP   1    326  8.76                             121   -0.04 7  186 273 
 ZAR  HN ES   2    326 32.14                             121    0.27 4  186 273 
                                                                                
