 2014 1215 0530  1.5 L   6.699 -73.239156.1  RSN  4 0.4 1.0LRSN                1
 GAP=218        0.93       7.7     7.6  8.2  0.3936E+02 -0.1821E+01 -0.9594E+01E
 Epicentro: BARICHARA - SANTANDER                                              3
 ACTION:UPD 15-02-10 17:03 OP:nd   STATUS:               ID:20141215053001 L   I
 OLDACT:REG 14-12-15 13:03 OP:fm   STATUS:               ID:20141215052745     3
 2014-12-15-0527-45M.COL___288                                                 6
 STAT SP IPHASW D HRMM SECON CODA AMPLIT PERI AZIMU VELO AIN AR TRES W  DIS CAZ7
 BRR  HZ EP        530 23.16                             155   -0.4910 69.1 311 
 BRR  HN ES        530 40.86                             155   -0.0710 69.1 311 
 BRR  HZ I         530 43.68         1.3 0.16            153           69.1 311 
 RUS  HZ EP        530 25.80                             149    0.1910 90.8 169 
 RUS  HN ES        530 44.67                             149    0.2410 90.8 169 
 RUS  HZ I         530 46.86         0.7 0.24            149           90.8 169 
 PTB  HZ EP        530 27.89                             137   -0.40 9  136 263 
 PTB  HE ES        530 48.89                             137   -0.30 9  136 263 
 PTB  HZ I         530 54.93         1.1 0.24            135            136 263 
 ZAR  HZ EP        530 34.55                             125    0.41 9  199 296 
 ZAR  HN ES        531  0.24                             125    0.63 9  199 296 
 ZAR  HZ I         531  7.00         2.0 0.40            126            199 296 
                                                                                
