 2013  315 0335 28.6 L   6.772 -73.127146.0  RSN  6 0.5 1.4LRSN                1
 GAP=140        0.79       7.7     5.8  9.7  0.9323E+00 -0.8890E+01 -0.1363E+02E
 Epicentro: LOS SANTOS - SANTANDER                                             3
 ACTION:UPD 13-04-09 14:02 OP:ep   STATUS:               ID:20130315033528 L   I
 2013-03-15-0330-00M.COL___244                                                 6
 STAT SP IPHASW D HRMM SECON CODA AMPLIT PERI AZIMU VELO AIN AR TRES W  DIS CAZ7
 BAR2 SZ ES   2    336  2.61                             172   -0.89 5 20.8 197 
 BAR2 SZ I         336  4.89         9.4 0.70            170           20.8 197 
 BRR  HZ EP        335 49.98                             152    0.0210 74.6 300 
 BRR  HN ES   1    336  6.98                             152    0.35 7 74.6 300 
 BRR  HZ I         336  7.80         4.7 0.32            148           74.6 300 
 PAM  SZ EP        335 50.88                             151   -0.0310 78.6  37 
 PAM  SZ I         336  9.53         2.6 0.18            135           78.6  37 
 RUS  HZ EP   2    335 52.73                             145    0.59 5 97.3 177 
 RUS  HE ES   2    336 11.09                             145    0.59 5 97.3 177 
 RUS  HZ I         336 11.79         2.7 0.24            142           97.3 177 
 PTB  HZ EP   1    335 55.00                             132   -0.72 7  149 260 
 PTB  HN ES   1    336 16.85                             132   -0.02 7  149 260 
 PTB  HZ I         336 19.22         3.2 0.34            131            149 260 
 ZAR  HN ES   2    336 27.50                             122    0.55 4  207 293 
                                                                                
