 2010  815 0523 27.6 L   6.824 -73.061144.2  RSN  6 0.2 1.3LRSN                1
 GAP=194        0.49       8.0     8.9  9.0 -0.3928E+02 -0.6011E+02  0.2062E+02E
 Epicentro: LOS SANTOS - SANTANDER                                             3
 ACTION:UP  10-09-07 10:55 OP:vdl  STATUS:               ID:20100815052327 L   I
 2010-08-15-0520-00S.COL___111                                                 6
 STAT SP IPHASW D HRMM SECON CODA AMPLIT PERI AZIMU VELO SNR AR TRES W  DIS CAZ7
 BAR2 SZ EP   2    523 47.12                             168     0.0 5   29 208 
 BAR2 SZ I         524  3.11         4.1 0.13                            29 208 
 GIR2 SZ EP   2    523 47.16                             168     0.1 5   32 332 
 BRR  HZ EP   1    523 48.91                             150    -0.1 7   79 294 
 BRR  HZ I         523 51.20         5.4 0.11                            79 294 
 BRR  HE ES        524  5.67                             150     0.010   79 294 
 GUE  SZ EP   1    523 52.19                             141     0.4 7  112   8 
 GUE  SZ I         523 52.70         1.5 0.17                           112   8 
 GRA  SZ EP        523 52.02                             138    -0.210  121  14 
 GRA  SZ ES   2    524 11.43                             138    -0.1 5  121  14 
 OCA  SZ EP   1    523 55.64                             130     0.0 7  159 350 
 OCA  SZ I         524 22.64         4.3 0.41                           159 350 
                                                                                
