 2010  715 0850 21.2 L   7.388 -73.191134.4  RSN 10 0.5 2.1LRSN                1
 GAP=116        1.14       6.6     9.4  8.7 -0.2856E+02 -0.1465E+02  0.1278E+02E
 Epicentro: EL PLAYON - SANTANDER                                              3
 ACTION:UPD 10-12-01 15:17 OP:pat  STATUS:               ID:20100715085021 L   I
 2010-07-15-0847-24S.COL___120                                                 6
 STAT SP IPHASW D HRMM SECON CODA AMPLIT PERI AZIMU VELO AIN AR TRES W  DIS CAZ7
 BRI  SZ EP   1    850 40.48                             156    -0.1 7   57  50 
 BRI  SZ I         850 40.94        35.7 0.33                            57  50 
 BRI  SZ ES   2    850 55.38                             156    -0.3 5   57  50 
 GUE  SZ EP        850 41.38                             156     0.610   57  31 
 GUE  SZ I         850 41.69        26.3 0.10                            57  31 
 GUE  SZ ES   1    850 56.28                             156     0.2 7   57  31 
 BRR  HZ EP   1    850 40.45                             153    -0.3 7   65 242 
 BRR  HE ES   1    850 55.90                             153    -0.1 7   65 242 
 BRR  HZ I         850 56.59        29.4 0.07                            65 242 
 GRA  SZ IP        850 42.02                             151     0.810   70  38 
 GRA  SZ ES   1    850 56.74                             151    -0.1 7   70  38 
 GRA  SZ I         851  1.24        41.9 0.43                            70  38 
 BAR2 SZ EP   2    850 42.16                             145    -0.4 5   88 179 
 BAR2 SZ ES   2    850 59.09                             145    -0.1 5   88 179 
 BAR2 SZ I         850 59.91        20.4 0.33                            88 179 
 OCA  SZ EP   1    850 42.37                             143    -0.6 7   95 351 
 OCA  SZ ES   1    850 59.42                             143    -0.5 7   95 351 
 OCA  SZ I         851  1.18        24.1 0.19                            95 351 
 RUS  HZ EP   2    850 49.14                             126    -0.5 5  166 176 
 RUS  HN ES   2    851 11.68                             126    -0.1 5  166 176 
 HEL  HZ EP   2    851  3.39                             111     0.5 4  290 243 
 HEL  HZ I         851 43.31         3.7 0.28                           290 243 
 SDV  BZ IP     C  851  6.03                             108    -0.9 7  327  60 
 SDV  BZ I         851 43.32         3.8 0.38                           327  60 
 RREF HZ EP   2    851 12.36                             106     0.6 3  364 221 
 RREF HZ I         852  0.16         3.7 0.32                           364 221 
                                                                                
