 2013 1015 0609  7.9 L   6.828 -73.157142.9  RSN  8 0.5 1.6LRSN                1
 GAP=134        1.08       4.0     5.1  7.4 -0.1447E+01  0.1189E+02 -0.5592E+01E
 Epicentro: LOS SANTOS - SANTANDER                                             3
 ACTION:UPD 13-11-25 09:21 OP:ep   STATUS:               ID:20131015060907 L   I
 OLDACT:REG 13-10-15 09:00 OP:jn   STATUS:               ID:20131015060749     3
 2013-10-15-0607-49M.COL___226                                                 6
 STAT SP IPHASW D HRMM SECON CODA AMPLIT PERI AZIMU VELO AIN AR TRES W  DIS CAZ7
 BAR2 SZ EP        6 9 27.40                             169    0.1410 26.2 186 
 BAR2 SZ ES        6 9 42.48                             169    0.1310 26.2 186 
 BAR2 SZ I         6 9 45.14         8.6 0.28            169           26.2 186 
 BRR  HZ EP        6 9 29.30                             153    0.6910 68.7 297 
 BRR  HN ES   2    6 9 45.46                             153    0.71 5 68.7 297 
 BRR  HZ I         6 9 49.90         7.1 0.30            152           68.7 297 
 PAM  SZ EP        6 9 30.25                             151    0.5210 75.8  42 
 PAM  SN ES        6 9 46.39                             151   -0.3510 75.8  42 
 PAM  SZ I         6 9 49.35         3.2 0.20            156           75.8  42 
 RUS  HZ EP        6 9 31.80                             142    0.1910  104 176 
 RUS  HE ES        6 9 49.48                             142   -0.6210  104 176 
 RUS  HZ I         6 9 53.39         2.4 0.30            146            104 176 
 PTB  HZ EP        6 9 34.06                             131   -0.54 9  147 258 
 PTB  HN ES        6 9 55.07                             131   -0.34 9  147 258 
 PTB  HZ I         6 9 57.70         6.7 0.14            133            147 258 
 SPBC HZ EP        6 9 36.36                             128    0.01 9  165 218 
 SPBC HE ES   1    6 9 58.83                             128    0.30 7  165 218 
 SPBC HZ I         610  4.17         6.8 0.44            131            165 218 
 ZAR  HE ES   1    610  5.65                             122    0.74 6  202 291 
 ZAR  HZ I         610 11.39         6.2 0.52            124            202 291 
 SML  HZ EP        6 9 43.76                             117   -0.26 8  240 335 
 SML  HN ES        610 11.53                             117   -0.65 8  240 335 
                                                                                
