 2011 1015 0311 52.9 L   6.796 -73.116140.2  RSN  5 0.3 1.7LRSN                1
 GAP=141        0.79       4.5     7.4  6.9  0.5314E+00 -0.1875E+01 -0.5802E+01E
 Epicentro: LOS SANTOS - SANTANDER                                             3
 ACTION:UPD 12-07-13 16:03 OP:ep   STATUS:               ID:20111015031152 L   I
 2011-10-15-0300-00M.COL___171                                                 6
 STAT SP IPHASW D HRMM SECON CODA AMPLIT PERI AZIMU VELO AIN AR TRES W  DIS CAZ7
 BAR2 SZ EP        312 11.51                             170   -0.3310 23.7 198 
 BAR2 SZ ES   1    312 26.03                             170   -0.60 7 23.7 198 
 BAR2 SZ I         312 27.51        11.5 0.34                          23.7 198 
 BRR  HZ EP        312 13.29                             150   -0.3110 74.3 298 
 BRR  HN ES   1    312 30.26                             150    0.49 7 74.3 298 
 BRR  HZ I         312 31.90        11.3 0.12                          74.3 298 
 PAM  SZ EP        312 14.42                             150    0.0310 75.7  37 
 PAM  SN ES   1    312 31.32                             150    0.15 7 75.7  37 
 RUS  HZ EP        312 16.15                             143    0.1210100.0 178 
 RUS  HN ES   1    312 34.60                             143    0.51 7100.0 178 
 OCA  SZ EP        312 21.05                             128    0.22 9  161 352 
 OCA  SZ I         312 48.36         5.2 0.70                           161 352 
                                                                                
