 2013  615 0634 53.0 L   6.753 -73.166141.3  RSN  5 0.5 1.5LRSN                1
 GAP=231        0.91       8.6     7.1  9.6  0.2227E+02  0.1904E+02  0.9067E+01E
 Epicentro: LOS SANTOS - SANTANDER                                             3
 ACTION:UPD 14-01-08 09:54 OP:ep   STATUS:               ID:20130615063453 L   I
 OLDACT:UP  13-06-15 11:41 OP:mh   STATUS:               ID:20130615062959     3
 OLDACT:REG 13-06-15 07:28 OP:mh   STATUS:               ID:20130615062959     3
 2013-06-15-0629-59M.COL___261                                                 6
 STAT SP IPHASW D HRMM SECON CODA AMPLIT PERI AZIMU VELO AIN AR TRES W  DIS CAZ7
 BAR2 SZ EP   1    635 12.62                             173    0.60 7 17.9 186 
 BAR2 SZ ES   1    635 27.40                             173    0.56 7 17.9 186 
 BAR2 SZ I         635 27.92         5.1 0.36            163           17.9 186 
 BRR  HZ EP   1    635 13.81                             152    0.07 7 71.9 303 
 BRR  HN ES   1    635 29.49                             152   -0.40 7 71.9 303 
 BRR  HN I         635 31.73         9.4 0.24            148           71.9 303 
 RUS  HZ EP   1    635 15.75                             144   -0.23 7 95.6 175 
 RUS  HN ES   1    635 33.54                             144   -0.34 7 95.6 175 
 RUS  HN I         635 36.18         2.6 0.16            141           95.6 175 
 PTB  HZ EP   1    635 18.82                             132   -0.53 7  145 261 
 PTB  HN ES   1    635 39.52                             132   -0.36 7  145 261 
 PTB  HN I         635 45.28        14.7 0.46            128            145 261 
 HEL  HN ES   1    636  4.41                             114    0.88 6  269 257 
 HEL  HN I         636 10.74         1.6 0.24            113            269 257 
                                                                                
