 2013  115 0017  1.3 L   6.712 -73.210141.9  RSN  6 0.4 1.4LRSN                1
 GAP=219        0.84       6.3     7.7  8.3  0.2910E+02  0.2164E+02  0.1822E+02E
 Epicentro: VILLANUEVA - SANTANDER                                             3
 ACTION:UPD 13-02-15 09:14 OP:ep   STATUS:               ID:20130115001701 L   I
 2013-01-15-0010-00M.COL___241                                                 6
 STAT SP IPHASW D HRMM SECON CODA AMPLIT PERI AZIMU VELO AIN AR TRES W  DIS CAZ7
 BAR2 SZ ES   1    017 34.37                             174   -0.70 7 13.5 167 
 BRR  HZ EP   1    017 21.76                             152   -0.19 7 70.7 308 
 BRR  HN ES   1    017 38.88                             152    0.79 7 70.7 308 
 BRR  HZ I         017 45.16         6.8 0.48            153           70.7 308 
 RUS  HZ EP   1    017 24.34                             146    0.35 7 91.6 171 
 RUS  HN ES   1    017 41.87                             146    0.15 7 91.6 171 
 RUS  HZ I         017 43.56         3.0 0.28            152           91.6 171 
 PTB  HZ EP   1    017 26.51                             133   -0.61 7  139 262 
 PTB  HN ES   1    017 47.15                             133   -0.15 7  139 262 
 PTB  HZ I         017 50.68         2.8 0.13            136            139 262 
 ZAR  HE ES   1    017 58.18                             122    0.09 6  202 295 
 CHI  HZ EP   1    017 37.70                             117    0.19 6  237 194 
 CHI  HN ES   1    018  5.94                             117    0.14 6  237 194 
                                                                                
