 2013  315 0704 31.3 L   6.822 -73.169146.8  RSN  6 0.5 1.7LRSN                1
 GAP=133        0.90       4.2     4.7 10.5 -0.1572E+00  0.6662E+01 -0.2683E+01E
 Epicentro: LOS SANTOS - SANTANDER                                             3
 ACTION:UPD 13-04-09 14:02 OP:ep   STATUS:               ID:20130315070432dL   I
 2013-03-15-0700-00M.COL___244                                                 6
 STAT SP IPHASW D HRMM SECON CODA AMPLIT PERI AZIMU VELO AIN AR TRES W  DIS CAZ7
 PAM  SZ EP        7 4 53.98                             151    0.3610 77.2  42 
 PAM  SN ES   1    7 5 11.24                             151    0.22 7 77.2  42 
 PAM  SN I         7 5 11.94         8.3 0.24            153           77.2  42 
 RUS  HZ EP        7 4 55.47                             143    0.1210  103 175 
 RUS  HN ES   2    7 5 13.23                             143   -0.87 5  103 175 
 RUS  HN I         7 5 14.24         3.5 0.34            146            103 175 
 PTB  HZ EP        7 4 58.05                             133   -0.12 9  146 258 
 PTB  HN ES        7 5 19.05                             133   -0.08 9  146 258 
 PTB  HN I         7 5 24.50         9.6 0.26            131            146 258 
 ZAR  HN ES   1    7 5 29.34                             123    0.77 6  201 292 
 ZAR  HN I         7 5 33.31         5.6 0.20            122            201 292 
 SML  HZ EP   1    7 5  7.76                             118    0.13 6  240 336 
 SML  HN ES        7 5 35.12                             118   -0.84 8  240 336 
 SML  HN I         7 5 44.71         8.2 0.32            118            240 336 
 CHI  HN ES   2    7 5 38.52                             117   -0.32 4  250 194 
 CHI  HN I         7 5 42.22         3.7 0.24            118            250 194 
                                                                                
