 2016  115 0615  3.1 L   6.822 -73.147149.4  RSN  8 0.5 1.3LRSN                1
 GAP=135        1.20       4.5     6.0  7.0 -0.5507E+01  0.5695E+01  0.2789E+01E
 Epicentro: LOS SANTOS - SANTANDER                                             3
 ACTION:UPD 16-03-09 23:25 OP:cam  STATUS:               ID:20160115061503 L   I
 OLDACT:UP  16-01-15 15:42 OP:drio STATUS:               ID:20160115060749     3
 OLDACT:REG 16-01-15 12:16 OP:drio STATUS:               ID:20160115060749     3
 2016-01-15-0607-49M.COL___329                                                 6
 STAT SP IPHASW D HRMM SECON CODA AMPLIT PERI AZIMU VELO AIN AR TRES W  DIS CAZ7
 BAR2 EZ EP        615 22.60                             170   -0.6610 25.7 189 
 BAR2 EZ ES        615 38.79                             170   -0.1710 25.7 189 
 BAR2 EZ I         615 41.28         3.3 0.14            168           25.7 189 
 BRR  HZ EP        615 25.09                             153    0.4710 70.0 297 
 BRR  HN ES        615 42.32                             153    0.9510 70.0 297 
 BRR  HZ I         615 45.42         3.7 0.10            152           70.0 297 
 PAM  EZ EP        615 25.99                             152    0.3510 75.6  41 
 PAM  EE ES        615 42.97                             152   -0.2310 75.6  41 
 PAM  EZ I         615 43.66         3.8 0.18            157           75.6  41 
 RUS  HZ EP        615 27.89                             144    0.4610  103 176 
 RUS  HE ES        615 46.03                             144   -0.3410  103 176 
 RUS  HZ I         615 47.99         2.4 0.30            145            103 176 
 PTB  HZ EP        615 30.22                             133   -0.22 9  148 258 
 PTB  HN ES        615 51.29                             133   -0.45 9  148 258 
 PTB  HZ I         615 57.72         3.3 0.40            132            148 258 
 SPBC HZ EP        615 32.15                             130    0.06 9  165 218 
 SPBC HN ES        615 54.27                             130   -0.41 9  165 218 
 SPBC HZ I         615 57.37         4.0 0.24            129            165 218 
 SML  HZ EP        615 39.07                             118   -0.66 8  241 335 
 SML  HE ES   4    616  6.35                             118   -1.92 0  241 335 
 SML  HZ I         616 10.40         2.1 0.10            120            241 335 
 CHI  HZ EP        615 41.49                             118    0.20 8  251 195 
 CHI  HN ES        616 11.62                             118    0.57 8  251 195 
 CHI  HZ I         616 19.41         0.8 0.44            119            251 195 
                                                                                
