 2012  115 0128 16.3 L   5.936 -73.576  4.5  RSN  7 0.4 1.6LRSN                1
 GAP= 92        0.90       4.1     4.2 10.8 -0.4969E+01  0.2847E+02 -0.3445E+01E
 Epicentro: BARBOSA - SANTANDER                                                3
 ACTION:UP  12-02-03 08:17 OP:REBC STATUS:               ID:20120115012816 L   I
 2012-01-15-0127-59S.COL___187                                                 6
 STAT SP IPHASW D HRMM SECON CODA AMPLIT PERI AZIMU VELO SNR AR TRES W  DIS CAZ7
 RUS  HZ EP        128 25.30                              91    -0.410   55  95 
 BAR2 SZ EP   1    128 30.04                              91     0.1 7   85  31 
 BAR2 SZ ES   1    128 40.85                              91     0.2 7   85  31 
 BAR2 SZ I         128 48.39        14.5 0.27                            85  31 
 PTB  HZ EP   1    128 34.92                              90     0.1 7  118 304 
 CHI  HZ EP   1    128 40.04                              90     0.7 7  146 187 
 CHI  HZ I         128 41.87         7.7 0.46                           146 187 
 NOR  SZ EP   1    128 38.97                              90    -0.6 7  149 254 
 HEL  HZ EP   1    128 49.51                              56     0.3 6  218 278 
 HEL  HE ES   1    129 14.48                              56    -0.4 6  218 278 
 RREF HZ EP   1    128 51.12                              56     0.4 6  227 240 
 RREF HZ I         128 53.75         5.9 0.29                           227 240 
                                                                                
