 2012  515 0013  6.4 L   6.777 -73.098142.2  RSN 10 0.4 2.1LRSN                1
 GAP=144        0.83       3.9     5.1  7.3  0.9134E+00  0.9868E+01  0.5890E+01E
 Epicentro: LOS SANTOS - SANTANDER                                             3
 ACTION:UP  12-07-05 12:05 OP:pat  STATUS:               ID:20120515001306 L   I
 2012-05-15-0010-00M.COL___195                                                 6
 STAT SP IPHASW D HRMM SECON CODA AMPLIT PERI AZIMU VELO SNR AR TRES W  DIS CAZ7
 BAR2 SZ EP   1    013 25.76                             171     0.2 7   22 204 
 BAR2 SZ ES   1    013 40.30                             171    -0.2 7   22 204 
 BAR2 SZ I         013 42.10        52.7 0.26                            22 204 
 PAM  SZ EP   1    013 28.55                             151     0.4 7   76  35 
 PAM  SE ES   1    013 45.01                             151    -0.1 7   76  35 
 BRR  HZ EP   1    013 27.56                             150     0.1 7   77 298 
 BRR  HZ I         013 27.75        25.9 0.15                            77 298 
 BRR  HN ES   1    013 44.67                             150     0.7 7   77 298 
 RUS  HZ EP   1    013 29.66                             144     0.1 7   98 179 
 RUS  HN ES   1    013 47.61                             144    -0.1 7   98 179 
 RUS  HZ I         013 49.71        12.2 0.40                            98 179 
 OCA  HN ES   1    013 56.02                             128    -0.8 7  163 351 
 ZAR  HN ES   1    014  4.49                             121    -0.3 6  210 292 
 ZAR  HZ I         014  9.79        10.6 0.27                           210 292 
 NOR  SN ES   1    014  9.70                             117    -0.5 6  238 236 
 CHI  HZ EP   1    013 43.64                             116    -0.1 6  248 196 
 CHI  HZ I         014 20.29         5.4 0.37                           248 196 
 URE  HN ES   2    014 21.08                             112     0.7 4  290 292 
 PRA  HZ EP   1    013 59.74                             106    -0.1 4  392 210 
                                                                                
