 2010 1215 0618 52.8 L   6.842 -73.231138.0  RSN  8 0.2 1.7LRSN                1
 GAP=147        0.49       2.3     6.1  7.1 -0.6319E+01  0.2562E+02 -0.3055E+01E
 Epicentro: ZAPATOCA - SANTANDER                                               3
 ACTION:UP  11-01-14 15:25 OP:pat  STATUS:               ID:20101215061852 L   I
 2010-12-15-0616-05S.COL___137                                                 6
 STAT SP IPHASW D HRMM SECON CODA AMPLIT PERI AZIMU VELO SNR AR TRES W  DIS CAZ7
 GIR2 SZ EP   2    619 11.50                             169     0.1 5   27   9 
 BAR2 SZ EP        619 11.62                             168     0.010   28 169 
 BAR2 SZ I         619 12.06         7.6 0.08                            28 169 
 RUS  HZ EP   2    619 15.99                             141    -0.2 5  106 171 
 RUS  HN ES   1    619 34.35                             141    -0.1 7  106 171 
 RUS  HZ I         619 35.90         5.2 0.41                           106 171 
 GRA  SZ EP   1    619 17.09                             136    -0.1 7  125  22 
 GRA  SZ ES        619 36.60                             136     0.310  125  22 
 GRA  SZ I         619 37.97         9.7 0.41                           125  22 
 OCA  SZ EP        619 19.73                             129    -0.2 9  155 356 
 OCA  SZ ES   2    619 40.78                             129    -0.4 5  155 356 
 OCA  SZ I         619 48.24         8.6 0.31                           155 356 
 CHI  HZ EP   2    619 29.94                             116    -0.3 4  251 193 
 CHI  HE ES   2    619 59.70                             116     0.1 4  251 193 
 CHI  HZ I         620  4.21         2.9 0.16                           251 193 
 HEL  HZ EP   2    619 32.09                             114     0.4 4  264 254 
 HEL  HN ES   2    620  2.15                             114     0.1 4  264 254 
 HEL  HZ I         620 11.46         3.0 0.20                           264 254 
 PRA  HZ EP   2    619 46.28                             106     0.3 3  392 208 
 PRA  HE ES   2    620 28.05                             106     0.6 3  392 208 
                                                                                
