 2012 1215 0416 45.6 L   6.765 -73.158149.4  RSN  7 0.3 1.4LRSN                1
 GAP=137        0.56       4.1     3.8  5.1  0.1554E+01  0.2552E+01  0.1786E+01E
 Epicentro: LOS SANTOS - SANTANDER                                             3
 ACTION:UPD 13-01-04 14:27 OP:ep   STATUS:               ID:20121215041645 L   I
 2012-12-15-0410-01M.COL___204                                                 6
 STAT SP IPHASW D HRMM SECON CODA AMPLIT PERI AZIMU VELO AIN AR TRES W  DIS CAZ7
 BAR2 SZ EP   1    417  5.62                             172    0.02 7 19.3 188 
 BAR2 SZ ES   1    417 20.75                             172   -0.44 7 19.3 188 
 BAR2 SZ I         417 22.07         5.3 0.15                          19.3 188 
 GIR2 SZ ES   1    417 21.99                             166    0.42 7 34.9 354 
 GIR2 SZ I         417 22.52         6.5 0.38                          34.9 354 
 BRR  HZ EP   1    417  7.34                             153    0.15 7 72.0 302 
 BRR  HN ES   1    417 24.00                             153   -0.03 7 72.0 302 
 BRR  HZ I         417 25.18         5.3 0.44                          72.0 302 
 PAM  SZ EP   1    417  8.48                             150    0.04 7 81.3  39 
 PAM  SN ES   2    417 25.82                             150   -0.43 5 81.3  39 
 PAM  SZ I         417 27.48         2.5 0.49                          81.3  39 
 RUS  HZ EP   1    417  9.68                             146    0.23 7 96.8 175 
 RUS  HN ES   1    417 28.25                             146    0.20 7 96.8 175 
 RUS  HZ I         417 30.53         1.5 0.18                          96.8 175 
 PTB  HZ EP   1    417 12.22                             133   -0.47 7  146 260 
 PTB  HE ES   1    417 33.70                             133   -0.12 7  146 260 
 PTB  HZ I         417 35.75         3.8 0.13                           146 260 
 ZAR  HN ES   2    417 44.22                             123    0.39 4  204 293 
 ZAR  HZ I         417 49.99         3.5 0.12                           204 293 
                                                                                
