 2014 1015 0833 32.5 L   6.810 -73.142148.2  RSN 18 0.5 2.5LRSN                1
 GAP=136        1.17       3.0     4.8  5.8 -0.2468E+01  0.7578E+01  0.1854E+01E
 Epicentro: LOS SANTOS - SANTANDER                                             3
 ACTION:UPD 14-11-29 23:50 OP:nd   STATUS:               ID:20141015083333dL   I
 OLDACT:UP  14-10-15 18:15 OP:mh   STATUS:               ID:20141015082745d    3
 OLDACT:DUP 14-10-15 18:15 OP:mh   STATUS:               ID:20141015082745d    3
 OLDACT:UP  14-10-15 18:14 OP:mh   STATUS:               ID:20141015082744     3
 OLDACT:UP  14-10-15 18:14 OP:mh   STATUS:               ID:20141015082744     3
 OLDACT:UP  14-10-15 18:13 OP:mh   STATUS:               ID:20141015082744     3
 OLDACT:REG 14-10-15 13:40 OP:mh   STATUS:               ID:20141015082744     3
 2014-10-15-0827-44M.COL___292                                                 6
 STAT SP IPHASW D HRMM SECON CODA AMPLIT PERI AZIMU VELO AIN AR TRES W  DIS CAZ7
 BAR2 SZ EP        833 52.41                             170   -0.0410 24.5 190 
 BAR2 SZ ES        834  7.73                             170   -0.2810 24.5 190 
 BAR2 SZ I         834  9.02       101.4 0.75            170           24.5 190 
 BRR  HZ IP     C  833 54.37                             153    0.4610 71.0 298 
 BRR  HN ES        834 11.65                             153    1.0510 71.0 298 
 BRR  HZ I         834 12.50        54.9 0.50            149           71.0 298 
 PAM  SZ EP        833 55.28                             152    0.3710 76.2  40 
 PAM  SN ES        834 12.55                             152    0.1610 76.2  40 
 PAM  SZ I         834 14.73        42.3 0.62            153           76.2  40 
 RUS  HZ EP        833 56.35                             144   -0.2310  102 176 
 RUS  HN ES        834 15.12                             144   -0.2310  102 176 
 RUS  HZ I         834 16.58        29.6 0.47            145            102 176 
 PTB  HZ EP        833 58.87                             132   -0.86 9  148 258 
 PTB  HN ES        834 20.38                             132   -0.58 9  148 258 
 PTB  HZ I         834 22.39        32.4 0.22            130            148 258 
 OCA  HZ EP        834  0.77                             130   -0.13 9  159 353 
 OCA  HN ES        834 22.75                             130   -0.30 9  159 353 
 OCA  HZ I         834 29.15        25.0 0.10            129            159 353 
 SPBC HZ EP        834  1.17                             129   -0.13 9  164 219 
 SPBC HN ES        834 23.21                             129   -0.55 9  164 219 
 SPBC HZ I         834 25.63        42.9 0.22            128            164 219 
 ZAR  HZ EP   1    834  4.81                             123   -0.29 6  204 292 
 ZAR  HN ES        834 30.65                             123    0.12 9  204 292 
 ZAR  HZ I         834 37.32        49.5 0.28            121            204 292 
 SML  HZ EP        834  8.63                             118   -0.54 8  243 335 
 SML  HN ES        834 37.61                             118   -0.16 8  243 335 
 SML  HZ I         834 40.83        29.4 0.24            117            243 335 
 ROSC BZ EP        834 11.95                             117    1.06 8  254 211 
 ROSC BN ES   4    834 42.35                             117    1.53 0  254 211 
 ROSC BZ I         834 48.76        23.9 0.73            117            254 211 
 URE  HZ EP   4    834 12.36                             114   -1.32 0  284 292 
 URE  HN ES   4    834 43.12                             114   -2.69 0  284 292 
 URE  HZ I         834 49.96        23.8 0.12            113            284 292 
 GUY2CHZ EP        834 16.83                             113    0.49 7  302 235 
 GUY2CHN ES   4    834 52.51                             113    1.99 0  302 235 
 GUY2CHZ I         834 59.41                                            302 235 
 PTGC HZ EP   4    834 14.96                             112   -1.62 0  310 159 
 PTGC HN ES   4    834 48.07                             112   -2.88 0  310 159 
 PTGC HZ I         834 53.61         9.3 0.43            112            310 159 
 RREF HZ EP   4    834 15.44                             111   -3.43 0  323 229 
 RREF HN ES   4    834 50.76                             111   -4.28 0  323 229 
 RREF HZ I         834 58.51        13.3 0.18            111            323 229 
 TOL  SZ EP   1    834 21.91                             110    0.93 5  345 225 
 TOL  SN ES        834 59.67                             110    0.87 7  345 225 
 MON  HZ EP   4    834 19.60                             109   -1.95 0  353 308 
 MON  HN ES   4    834 58.02                             109   -1.79 0  353 308 
 MON  HZ I         835 13.87         7.8 0.54            108            353 308 
 PRA  HZ EP   1    834 25.60                             107   -0.65 4  393 210 
 PRA  HN ES        835  7.90                             107   -0.27 6  393 210 
 PRA  HZ I         835 11.30         8.1 0.30            107            393 210 
 ORTC HZ EP        834 26.53                             107   -0.11 6  397 216 
 ORTC HN ES        835  9.26                             107    0.39 6  397 216 
 ORTC HZ I         835 15.82         5.6 0.38            106            397 216 
 SJC  HZ EP   4    834 26.13                             106   -1.93 0  408 327 
 SJC  HN ES   4    835  7.25                             106   -4.14 0  408 327 
                                                                                
