 2012  915 0722 41.1 L   6.307 -73.628109.4  RSN  6 0.4 1.7LRSN                1
 GAP=158        0.83       5.4     4.4  8.7  0.7360E+01  0.1380E+02 -0.2640E-01E
 Epicentro: SANTA HELENA DEL OPON - SANTANDER                                  3
 ACTION:UPD 12-10-22 14:18 OP:ep   STATUS:               ID:20120915072241 L   I
 2012-09-15-0720-00M.COL___227                                                 6
 STAT SP IPHASW D HRMM SECON CODA AMPLIT PERI AZIMU VELO AIN AR TRES W  DIS CAZ7
 BAR2 SZ EP        722 58.14                             150    0.1710 58.5  57 
 BAR2 SZ I         722 58.33        29.7 0.32                          58.5  57 
 BAR2 SZ ES   1    723 11.44                             150    0.32 7 58.5  57 
 RUS  HZ EP   1    722 59.54                             143    0.05 7 75.8 127 
 RUS  HN ES   1    723 13.90                             143    0.06 7 75.8 127 
 RUS  HZ I         723 16.36         6.0 0.26                          75.8 127 
 BRR  HZ EP   1    722 59.74                             138   -0.09 7 88.9 354 
 BRR  HZ I         723  0.03        10.4 0.12                          88.9 354 
 BRR  HE ES   2    723 15.41                             138    0.98 5 88.9 354 
 PTB  HZ EP   1    722 59.92                             135   -0.45 7 95.1 286 
 PTB  HN ES   1    723 15.12                             135   -0.27 7 95.1 286 
 PTB  HN I         723 17.21        17.1 0.25                          95.1 286 
 GIR2 SZ EP   1    723  0.79                             135    0.01 7 97.9  29 
 GIR2 SZ ES   1    723 15.19                             135   -0.93 7 97.9  29 
 ZAR  HZ EP   1    723 10.18                             115    0.40 7  189 314 
 ZAR  HN ES   1    723 32.45                             115    0.31 7  189 314 
                                                                                
