 2012  615 0644 31.4 L   6.822 -73.166146.9  RSN  7 0.4 1.5LRSN                1
 GAP=133        0.80       4.4     4.8  8.3 -0.1139E+01  0.1594E+02 -0.3510E+01E
 Epicentro: LOS SANTOS - SANTANDER                                             3
 ACTION:UPD 12-08-06 17:49 OP:ep   STATUS:               ID:20120615064431 L   I
 2012-06-15-0640-00M.COL___200                                                 6
 STAT SP IPHASW D HRMM SECON CODA AMPLIT PERI AZIMU VELO AIN AR TRES W  DIS CAZ7
 BAR2 SZ EP   1    644 51.25                             170    0.04 7 25.5 184 
 BAR2 SZ I         644 51.82         9.6 0.44                          25.5 184 
 BAR2 SZ ES   1    645  6.84                             170    0.18 7 25.5 184 
 PAM  SZ EP   1    644 53.98                             151    0.27 7 77.0  42 
 PAM  SN ES   1    645 10.27                             151   -0.84 7 77.0  42 
 RUS  HZ EP   1    644 55.43                             143   -0.02 7  103 175 
 RUS  HZ I         644 56.59         2.6 0.13                           103 175 
 RUS  HN ES   1    645 14.67                             143    0.46 7  103 175 
 PTB  HZ EP   1    644 58.00                             133   -0.30 7  146 258 
 PTB  HN ES   1    645 18.76                             133   -0.52 7  146 258 
 PTB  HZ I         645 24.79         3.5 0.28                           146 258 
 OCA  HN ES   1    645 22.10                             130    0.61 7  158 354 
 ZAR  HZ EP   1    645  3.31                             123   -0.30 6  201 292 
 ZAR  HN ES   1    645 29.07                             123    0.34 6  201 292 
 ZAR  HZ I         645 34.92         4.7 0.30                           201 292 
 HEL  HE ES   2    645 43.06                             115    0.29 4  270 255 
                                                                                
