 2017  815 0333 43.1 L   6.780 -73.136147.5  RSN  5 0.4 1.4LRSN                1
 GAP=237        0.66       4.4     5.0  6.4 -0.4950E+01  0.9385E+01 -0.3261E+01E
 Epicentro: LOS SANTOS - SANTANDER                                             3
 ACTION:UPD 17-09-04 20:20 OP:rebc STATUS:               ID:20170815033343 L   I
 OLDACT:UP  17-08-15 13:39 OP:and  STATUS:               ID:20170815032741     3
 OLDACT:REG 17-08-15 12:21 OP:and  STATUS:               ID:20170815032741     3
 2017-08-15-0328-00M.COL___410                                                 6
 STAT SP IPHASW D HRMM SECON CODA AMPLIT PERI AZIMU VELO AIN AR TRES W  DIS CAZ7
 BAR2 EZ EP        334  2.76                             171   -0.1710 21.3 194 
 BAR2 EZ ES        334 18.19                             171   -0.1910 21.3 194 
 BAR2 EZ I         334 20.25         3.0 0.12            172           21.3 194 
 BRR  HZ EP        334  4.62                             152    0.0410 73.2 300 
 BRR  HZ I         334 19.93        10.6 0.36            140           73.2 300 
 BRR  HN ES   2    334 21.89                             152    0.58 5 73.2 300 
 RUS  HZ EP        334  6.86                             145   -0.0310 98.3 177 
 RUS  HN ES        334 25.74                             145    0.3210 98.3 177 
 RUS  HZ I         334 26.29         3.7 0.30            148           98.3 177 
 SPBC HZ EP   3    334 13.18                             130    1.52 2  162 220 
 SPBC HN ES        334 33.56                             130   -0.36 9  162 220 
 SPBC HZ I         334 34.88         3.6 0.22            126            162 220 
 NOR  HN ES        334 46.99                             119    0.16 8  234 235 
 NOR  HZ I         334 53.01         1.9 0.29            114            234 235 
                                                                                
