 2011 1115 0628 44.3 L   6.763 -73.123144.9  RSN  7 0.4 1.9LRSN                1
 GAP=141        0.87       3.7     5.8  6.6  0.2616E+01  0.4877E+01  0.2420E+01E
 Epicentro: LOS SANTOS - SANTANDER                                             3
 ACTION:UPD 12-07-13 16:10 OP:ep   STATUS:               ID:20111115062844 L   I
 2011-11-15-0627-11S.COL___179                                                 6
 STAT SP IPHASW D HRMM SECON CODA AMPLIT PERI AZIMU VELO AIN AR TRES W  DIS CAZ7
 BAR2 SZ EP        629  4.07                             172    0.2810 20.0 199 
 BAR2 SZ ES   1    629 19.25                             172    0.28 7 20.0 199 
 BAR2 SZ I         629 20.83        24.5 0.27                          20.0 199 
 BRR  HZ EP   1    629  5.95                             151    0.32 7 75.4 300 
 BRR  HZ I         629  6.29        41.5 0.12                          75.4 300 
 BRR  HN ES        629 22.72                             151    0.4810 75.4 300 
 PAM  SZ EP   1    629  6.89                             150    0.34 7 79.0  36 
 PAM  SZ I         629  7.13        11.8 0.19                          79.0  36 
 PAM  SN ES   1    629 23.29                             150   -0.59 7 79.0  36 
 RUS  HZ EP   1    629  7.93                             145    0.24 7 96.4 177 
 RUS  HN ES   1    629 25.32                             145   -0.60 7 96.4 177 
 RUS  HZ I         629 27.98         9.8 0.32                          96.4 177 
 OCA  SZ EP   1    629 12.72                             129   -0.27 7  165 352 
 OCA  SZ ES   1    629 34.95                             129   -0.39 7  165 352 
 OCA  SZ I         629 40.48         8.1 0.22                           165 352 
 ZAR  HZ EP   1    629 16.88                             122   -0.24 6  208 293 
 ZAR  HN ES   1    629 42.02                             122   -0.68 6  208 293 
 ZAR  HZ I         629 49.07         7.9 0.17                           208 293 
 CHI  HZ EP   1    629 22.03                             117    0.40 6  245 196 
 CHI  HZ I         629 24.75         2.9 0.41                           245 196 
 CHI  HN ES   1    629 50.12                             117   -0.60 6  245 196 
                                                                                
