 2016  815 0541 41.5 L   6.679 -73.111143.9  RSN  4 0.3 1.2LRSN                1
 GAP=188        0.76       7.3     4.4  6.8  0.1564E+01  0.4577E+01 -0.3837E+01E
 Epicentro: JORDAN - SANTANDER                                                 3
 ACTION:UPD 16-10-29 15:35 OP:rebc STATUS:               ID:20160815054141 L   I
 OLDACT:DUP 16-08-15 14:56 OP:dnl  STATUS:               ID:20160815053737d    3
 2016-08-15-0538-00M.COL___368                                                 6
 STAT SP IPHASW D HRMM SECON CODA AMPLIT PERI AZIMU VELO AIN AR TRES W  DIS CAZ7
 BAR2 EZ EP        542  0.98                             175    0.2610 12.4 219 
 BAR2 EZ ES        542 15.42                             175   -0.3010 12.4 219 
 BAR2 EZ I         542 17.87         2.1 0.66                          12.4 219 
 BRR  HZ EP        542  3.01                             149   -0.0510 81.6 306 
 BRR  HE ES        542 20.39                             149    0.5010 81.6 306 
 BRR  HZ I         542 23.54         2.8 0.38                          81.6 306 
 PAM  EZ EP        542  4.05                             148   -0.0010 86.0  32 
 PAM  EN ES        542 21.52                             148   -0.1210 86.0  32 
 PAM  EZ I         542 23.85         2.4 0.70                          86.0  32 
 ZAR  HE ES        542 40.28                             121   -0.40 8  213 295 
 ZAR  HZ I         542 41.78         2.0 0.20                           213 295 
                                                                                
