 2016  315 0012 24.2 L   6.629 -73.113121.0  RSN  5 0.4 1.4LRSN                1
 GAP=148        0.74       7.4    11.3  6.6 -0.6516E+02  0.1248E+02 -0.1767E+01E
 Epicentro: CURITI - SANTANDER                                                 3
 ACTION:UPD 16-05-13 21:24 OP:cam  STATUS:               ID:20160315001224 L   I
 OLDACT:REG 16-03-15 13:00 OP:dnl  STATUS:               ID:20160315000751     3
 2016-03-15-0007-51M.COL___307                                                 6
 STAT SP IPHASW D HRMM SECON CODA AMPLIT PERI AZIMU VELO AIN AR TRES W  DIS CAZ7
 BAR2 EZ EP        012 40.88                             176    0.2210 8.67 242 
 BAR2 EZ ES        012 53.35                             176   -0.1210 8.67 242 
 BAR2 EZ I         012 56.39         9.5 0.11            173           8.67 242 
 RUS  HZ EP   2    012 44.47                             144    0.28 5 81.5 178 
 RUS  HN ES   2    012 59.94                             144    0.20 5 81.5 178 
 RUS  HZ I         013  2.75         2.3 0.30            143           81.5 178 
 PAM  EZ EP        012 45.23                             141    0.3510 90.9  30 
 PAM  EE ES        013  0.63                             141   -0.3510 90.9  30 
 CHI  HZ EP   2    012 57.39                             113   -1.37 4  231 197 
 CHI  HN ES   4    013 22.59                             113   -3.10 0  231 197 
 GUY2CHZ EP   2    013  5.81                             107   -0.16 4  294 238 
 GUY2CHN ES   2    013 38.70                             107    0.19 4  294 238 
 GUY2CHZ I         013 44.86         2.0 0.58                           294 238 
                                                                                
