 2011  515 0428 20.2 L   6.775 -73.088140.6  RSN 14 0.5 2.3LRSN                1
 GAP=145        1.20       5.8     8.3  6.9 -0.2421E+02  0.1376E+01  0.9139E+01E
 Epicentro: LOS SANTOS - SANTANDER                                             3
 ACTION:UP  11-06-29 08:53 OP:tino STATUS:               ID:20110515042820 L   I
 2011-05-15-0427-34S.COL___141                                                 6
 STAT SP IPHASW D HRMM SECON CODA AMPLIT PERI AZIMU VELO SNR AR TRES W  DIS CAZ7
 BAR2 SZ EP        428 39.32                             170     0.110   23 207 
 BAR2 SZ ES   1    428 54.09                             170     0.0 7   23 207 
 BAR2 SZ I         428 55.98        48.1 0.19                            23 207 
 BTL  SZ IP        428 39.50                             169     0.210   25 309 
 BTL  SZ ES   1    428 53.77                             169    -0.4 7   25 309 
 GIR2 SZ EP        428 39.32                             165    -0.110   36 341 
 GIR2 SZ ES   1    428 54.10                             165    -0.3 7   36 341 
 PAM  SZ EP        428 42.20                             150     0.410   76  34 
 PAM  SN ES   2    428 59.37                             150     0.7 5   76  34 
 BRR  HZ IP     C  428 41.14                             149    -0.110   78 298 
 BRR  HZ I         428 41.50        33.7 0.12                            78 298 
 BRR  HN ES   1    428 58.47                             149     0.8 7   78 298 
 RUS  HZ IP     D  428 43.26                             144     0.010   98 180 
 RUS  HZ I         429  3.24        11.9 0.54                            98 180 
 BRI  SZ EP        428 43.77                             140     0.110  109  17 
 BRI  SZ ES   1    429  1.34                             140    -0.6 7  109  17 
 GRA  SZ IP        428 45.05                             136    -0.110  127  14 
 GRA  SZ I         428 46.15        31.4 0.32                           127  14 
 OCA  SZ EP        428 47.61                             128    -0.9 9  164 351 
 OCA  SZ ES   1    429 11.04                             128     0.5 7  164 351 
 OCA  SZ I         429 13.82        29.9 0.25                           164 351 
 NOR  SZ EP        428 55.75                             117    -0.3 8  238 236 
 NOR  SN ES   1    429 23.01                             117    -1.0 6  238 236 
 HEL  HZ EP   2    429  1.73                             113     0.9 4  278 257 
 HEL  HZ I         429 39.93         5.9 0.21                           278 257 
 GUY  SZ EP   3    429  5.08                             111     0.8 2  307 236 
 GUY  SZ I         429 49.29         9.4 0.36                           307 236 
 RREF HZ EP        429  7.58                             110     1.1 7  325 230 
 RREF HZ I         429 48.79         6.8 0.20                           325 230 
 PRA  HZ EP        429 13.41                             106    -0.3 6  393 211 
 PRA  HZ I         429 58.18        18.2 0.19                           393 211 
                                                                                
