 2011  215 0501  2.2 L   6.761 -73.278140.9  RSN  7 0.2 1.7LRSN                1
 GAP=128        0.65       3.5     7.6  7.5 -0.1270E+02  0.2881E+02 -0.7191E+01E
 Epicentro: ZAPATOCA - SANTANDER                                               3
 ACTION:UP  11-03-28 15:08 OP:jfem STATUS:               ID:20110215050101 L   I
 2011-02-15-0459-13S.COL___137                                                 6
 STAT SP IPHASW D HRMM SECON CODA AMPLIT PERI AZIMU VELO SNR AR TRES W  DIS CAZ7
 BAR2 SZ ES   2    5 1 36.44                             171     0.4 5   21 151 
 BAR2 SZ I         5 1 37.91        12.2 0.37                            21 151 
 RUS  HZ EP        5 1 25.00                             143    -0.310   98 167 
 RUS  HN ES   1    5 1 43.28                             143    -0.1 7   98 167 
 RUS  HZ I         5 1 45.40         3.4 0.32                            98 167 
 GRA  SZ EP        5 1 27.93                             134     0.110  135  23 
 GRA  SZ ES   1    5 1 47.72                             134    -0.1 7  135  23 
 GRA  SZ I         5 1 49.83         8.7 0.09                           135  23 
 OCA  SZ EP   1    5 1 30.38                             128    -0.1 7  164 358 
 OCA  SZ I         5 1 57.50        10.1 0.18                           164 358 
 NOR  SN ES   2    5 2  2.41                             119    -0.2 4  220 233 
 CHI  HZ EP        5 1 39.23                             117     0.4 8  241 192 
 CHI  HZ I         5 2 16.30         1.9 0.39                           241 192 
 HEL  HZ EP   1    5 1 40.55                             115     0.1 6  257 256 
 HEL  HZ I         5 2 19.53         3.5 0.41                           257 256 
                                                                                
