 2017  515 0239 30.4 L   6.826 -73.132151.9  RSN  5 0.3 1.4LRSN                1
 GAP=194        0.66       6.3     3.8  7.2 -0.9998E+01  0.1788E+01  0.2209E+02E
 Epicentro: LOS SANTOS - SANTANDER                                             3
 ACTION:UPD 17-06-16 13:36 OP:jn   STATUS:               ID:20170515023930 L   I
 OLDACT:UP  17-05-15 13:43 OP:dnl  STATUS:               ID:20170515023739     3
 OLDACT:UP  17-05-15 13:43 OP:dnl  STATUS:               ID:20170515023739     3
 OLDACT:REG 17-05-15 12:28 OP:dnl  STATUS:               ID:20170515023739     3
 2017-05-15-0238-00M.COL___359                                                 6
 STAT SP IPHASW D HRMM SECON CODA AMPLIT PERI AZIMU VELO AIN AR TRES W  DIS CAZ7
 BRR  HZ EP        239 52.39                             153    0.1810 71.2 296 
 BRR  HN ES        240  9.39                             153    0.1610 71.2 296 
 BRR  HZ I         240  9.90         4.3 0.70            154           71.2 296 
 PAM  EZ EP        239 53.40                             153    0.3110 74.2  40 
 PAM  EN ES        240 10.54                             153   -0.2510 74.2  40 
 PAM  EZ I         240 15.05         2.5 0.40            159           74.2  40 
 PTB  HZ EP        239 57.55                             133   -0.50 9  150 258 
 PTB  HN ES   4    240 18.32                             133   -1.30 0  150 258 
 PTB  HZ I         240 25.65         2.8 0.50            134            150 258 
 ZAR  HZ EP   4    240  1.80                             124   -1.49 0  204 291 
 ZAR  HE ES        240 28.90                             124   -0.04 9  204 291 
 ZAR  HZ I         240 35.42         2.1 0.18            126            204 291 
 NOR  HZ EP   2    240  6.96                             119    0.17 4  238 234 
 NOR  HN ES        240 35.25                             119    0.07 8  238 234 
 NOR  HZ I         240 41.31         2.2 0.18            121            238 234 
                                                                                
