 2012  115 0203 43.2 L   6.774 -73.113145.1  RSN  8 0.4 1.8LRSN                1
 GAP=142        0.88       5.4     6.0  6.8  0.3859E+01  0.1087E+02 -0.1937E+01E
 Epicentro: LOS SANTOS - SANTANDER                                             3
 ACTION:UP  12-02-03 08:17 OP:REBC STATUS:               ID:20120115020343 L   I
 2012-01-15-0200-00M.COL___187                                                 6
 STAT SP IPHASW D HRMM SECON CODA AMPLIT PERI AZIMU VELO SNR AR TRES W  DIS CAZ7
 BAR2 SZ EP   1    2 4  2.46                             171    -0.2 7   22 201 
 BAR2 SZ ES   1    2 4 17.20                             171    -0.7 7   22 201 
 BAR2 SZ I         2 4 18.39        21.6 0.30                            22 201 
 GIR2 SZ EP   1    2 4  2.95                             166     0.1 7   35 345 
 GIR2 SZ ES   1    2 4 18.33                             166     0.1 7   35 345 
 BRR  HZ EP   1    2 4  4.66                             151     0.2 7   76 299 
 BRR  HZ I         2 4  5.00        23.1 0.11                            76 299 
 BRR  HE ES   1    2 4 21.58                             151     0.4 7   76 299 
 PAM  SZ EP   1    2 4  5.76                             151     0.5 7   77  36 
 PAM  SN ES   1    2 4 22.42                             151    -0.2 7   77  36 
 PAM  SZ I         2 4 24.96         9.7 0.31                            77  36 
 RUS  HZ EP   1    2 4  6.99                             144     0.4 7   98 178 
 RUS  HN ES   1    2 4 25.18                             144     0.2 7   98 178 
 RUS  HZ I         2 4 27.03         5.9 0.28                            98 178 
 PTB  HZ EP   1    2 4  9.61                             131    -0.7 7  151 260 
 OCA  SZ EP   1    2 4 11.27                             129    -0.5 7  164 352 
 ZAR  HZ EP   1    2 4 16.17                             122     0.1 6  209 292 
 ZAR  HN ES   1    2 4 41.83                             122     0.2 6  209 292 
 ZAR  HZ I         2 4 44.28         6.6 0.10                           209 292 
                                                                                
