 2012 1115 0824 37.5 L   6.815 -73.182144.3  RSN  5 0.4 1.2LRSN                1
 GAP=131        0.78       3.8     5.8  9.9 -0.2135E+01  0.2034E+02 -0.7029E+01E
 Epicentro: ZAPATOCA - SANTANDER                                               3
 ACTION:UPD 12-12-05 15:33 OP:}ep  STATUS:               ID:20121115082437 L   I
 2012-11-15-0820-00M.COL___230                                                 6
 STAT SP IPHASW D HRMM SECON CODA AMPLIT PERI AZIMU VELO AIN AR TRES W  DIS CAZ7
 PAM  SZ EP   1    824 59.72                             150    0.08 7 78.8  43 
 PAM  SN ES   1    825 16.76                             150   -0.15 7 78.8  43 
 PAM  SZ I         825 19.48         2.3 0.52                          78.8  43 
 RUS  HZ EP   1    825  0.90                             143   -0.35 7  103 174 
 RUS  HN ES   1    825 19.88                             143    0.11 7  103 174 
 RUS  HZ I         825 20.56         2.5 0.26                           103 174 
 PTB  HZ EP   1    825  3.82                             132   -0.21 7  144 258 
 PTB  HN ES   1    825 24.97                             132    0.25 7  144 258 
 PTB  HZ I         825 27.97         3.8 0.11                           144 258 
 OCA  HN ES   1    825 27.77                             130    0.42 7  158 354 
 SML  HZ EP   1    825 14.49                             117    0.78 6  241 336 
 SML  HN ES   1    825 41.06                             117   -0.89 6  241 336 
                                                                                
