 2016 1215 0259 18.1 L   6.780 -73.173141.1  RSN  5 0.3 1.3LRSN                1
 GAP=134        0.84       4.8     5.0  7.6 -0.6455E+01  0.7448E+01 -0.5339E+01E
 Epicentro: LOS SANTOS - SANTANDER                                             3
 ACTION:UPD 17-01-11 20:15 OP:rebc STATUS:               ID:20161215025917 L   I
 OLDACT:UP  16-12-15 14:49 OP:and  STATUS:               ID:20161215025744     3
 OLDACT:REG 16-12-15 12:28 OP:and  STATUS:               ID:20161215025744     3
 2016-12-15-0258-00M.COL___375                                                 6
 STAT SP IPHASW D HRMM SECON CODA AMPLIT PERI AZIMU VELO AIN AR TRES W  DIS CAZ7
 BAR2 EZ ES        259 52.36                             171    0.4410 20.8 183 
 BAR2 EZ I         259 54.59         7.0 0.30            171           20.8 183 
 BRR  HZ EP        259 39.07                             152    0.4410 69.7 301 
 BRR  HN ES   4    259 56.12                             152    1.46 0 69.7 301 
 BRR  HZ I         259 59.43         3.2 0.22            148           69.7 301 
 PAM  EZ EP        259 40.06                             149    0.0510 80.9  40 
 PAM  EN ES        259 56.74                             149   -0.3810 80.9  40 
 PAM  EZ I         259 59.14         3.2 0.50            152           80.9  40 
 RUS  HZ EP        259 41.09                             143   -0.1310 98.7 174 
 RUS  HN ES        259 59.18                             143   -0.1010 98.7 174 
 PTB  HN ES        3 0  4.50                             132   -0.36 9  144 259 
 PTB  HZ I         3 0 12.25         2.1 0.42            131            144 259 
                                                                                
