 2015  315 0118  2.6 L   6.765 -73.153145.6  RSN  6 0.3 1.3LRSN                1
 GAP= 97        0.61       3.8     3.4  5.1 -0.1208E+01 -0.4800E+01  0.3484E+01E
 Epicentro: LOS SANTOS - SANTANDER                                             3
 ACTION:UPD 15-04-30 16:25 OP:nd   STATUS:               ID:20150315011802 L   I
 OLDACT:DUP 15-03-15 14:33 OP:spq  STATUS:               ID:20150315010750d    3
 2015-03-15-0107-49M.COL___260                                                 6
 STAT SP IPHASW D HRMM SECON CODA AMPLIT PERI AZIMU VELO AIN AR TRES W  DIS CAZ7
 BAR2 EZ EP        118 22.13                             172   -0.0010 19.3 190 
 BAR2 EZ ES   1    118 37.06                             172   -0.31 7 19.3 190 
 BAR2 EZ I         118 38.13         5.2 0.25            173           19.3 190 
 BRR  HZ EP        118 23.97                             152    0.1710 72.5 302 
 BRR  HN ES        118 40.68                             152    0.3410 72.5 302 
 BRR  HZ I         118 43.79         6.8 0.38            152           72.5 302 
 PAM  SZ EP        118 24.92                             150   -0.0910 80.9  38 
 PAM  SE ES        118 42.35                             150   -0.1410 80.9  38 
 PAM  SZ I         118 43.71         3.4 0.56            151           80.9  38 
 RUS  HZ EP   1    118 26.22                             145    0.16 7 96.7 175 
 RUS  HN ES   1    118 44.56                             145    0.21 7 96.7 175 
 RUS  HZ I         118 45.36         2.0 0.20            147           96.7 175 
 PTB  HN ES   1    118 49.71                             132   -0.62 7  146 260 
 PTB  HZ I         118 51.52         2.5 0.08            133            146 260 
 TAM  HZ EP        118 30.21                             130   -0.03 9  155 104 
                                                                                
