 2016  915 0754 51.5 L   6.844 -73.112150.1  RSN  4 0.3 1.3LRSN                1
 GAP=245        0.67       4.3     6.7  7.3  0.1604E+02  0.9525E+01  0.2981E+01E
 Epicentro: LOS SANTOS - SANTANDER                                             3
 ACTION:UPD 17-08-17 21:12 OP:lp   STATUS:               ID:20160915075451 L   I
 OLDACT:REG 16-09-15 20:24 OP:lv   STATUS:               ID:20160915074743     3
 2016-09-15-0748-00M.COL___327                                                 6
 STAT SP IPHASW D HRMM SECON CODA AMPLIT PERI AZIMU VELO AIN AR TRES W  DIS CAZ7
 BRR  HZ EP        755 13.43                             153    0.2610 72.4 294 
 BRR  HN ES        755 30.22                             153    0.1310 72.4 294 
 BRR  HZ I         755 31.05         3.7 0.17            146           72.4 294 
 RUS  HN ES        755 34.84                             143   -0.2810  105 178 
 SPBC HZ EP        755 20.82                             129   -0.08 9  169 219 
 SPBC HN ES        755 44.13                             129    0.29 9  169 219 
 SPBC HZ I         755 46.40         2.1 0.13            126            169 219 
 ZAR  HN ES        755 49.67                             123   -0.39 8  206 290 
 ZAR  HZ I         755 56.74         1.9 0.19            120            206 290 
                                                                                
