 2010  815 0318 42.4 L   6.814 -73.000141.7  RSN 10 0.3 1.9LRSN                1
 GAP=175        0.85       4.0     6.7  6.5 -0.3301E+01 -0.4797E+01 -0.3395E+01E
 Epicentro: CEPITA - SANTANDER                                                 3
 ACTION:UP  10-09-07 10:55 OP:vdl  STATUS:               ID:20100815031842 L   I
 2010-08-15-0317-26S.COL___111                                                 6
 STAT SP IPHASW D HRMM SECON CODA AMPLIT PERI AZIMU VELO SNR AR TRES W  DIS CAZ7
 BTL  SZ IP        319  2.08                             167     0.410   32 291 
 BAR2 SZ EP        319  1.81                                     0.110   32 220 
 BAR2 SZ ES   1    319 15.94                             167    -0.9 7   32 220 
 BAR2 SZ I         319 18.57        24.1 0.13                            32 220 
 GIR2 SZ EP   2    319  1.98                             165     0.3 5   36 324 
 BRR  HZ EP        319  3.67                             147    -0.310   85 292 
 BRR  HN ES        319 21.01                             147     0.210   85 292 
 BRR  HZ I         319 22.76        21.0 0.20                            85 292 
 RUS  HZ EP        319  5.73                             142    -0.110  102 185 
 RUS  HN ES   1    319 24.63                             142     0.5 7  102 185 
 RUS  HZ I         319 25.49         7.1 0.30                           102 185 
 GUE  SZ EP        319  6.65                             140     0.210  113   4 
 GRA  SZ EP   1    319  6.61                             137    -0.2 7  120  10 
 OCA  SZ EP        319 10.28                             128    -0.2 9  161 347 
 OCA  SZ ES   2    319 32.66                             128     0.2 5  161 347 
 OCA  SZ I         319 38.10         6.4 0.40                           161 347 
 HEL  HZ EP   1    319 23.83                             113    -0.4 5  288 256 
 HEL  HZ I         320  0.44         4.4 0.29                           288 256 
 RREF HZ EP   1    319 29.88                             109     0.0 5  335 231 
 RREF HE ES   1    320  7.09                             109     0.2 5  335 231 
 RREF HZ I         320 10.95         5.2 0.40                           335 231 
                                                                                
