 2017 1015 0634 46.9 L   6.773 -73.156143.5  RSN  6 0.4 1.3LRSN                1
 GAP=136        1.06       5.6     5.3  8.4  0.6642E+01  0.1502E+02  0.6714E+01E
 Epicentro: LOS SANTOS - SANTANDER                                             3
 ACTION:UPD 17-11-07 19:32 OP:rebc STATUS:               ID:20171015062124dL   I
 OLDACT:DUP 17-10-15 15:49 OP:l    STATUS:               ID:20171015062124dL   3
 2017-10-15-0628-00M.COL___414                                                 6
 STAT SP IPHASW D HRMM SECON CODA AMPLIT PERI AZIMU VELO AIN AR TRES W  DIS CAZ7
 BAR2 EZ EP        635  6.16                             172   -0.0210 20.3 188 
 BAR2 EZ ES        635 20.61                             172   -0.6310 20.3 188 
 BAR2 EZ I         635 23.16         3.3 0.13            172           20.3 188 
 BRR  HZ EP        635  8.16                             152    0.3410 71.7 301 
 BRR  HN ES        635 24.89                             152    0.7410 71.7 301 
 BRR  HZ I         635 30.39         8.4 0.24            153           71.7 301 
 PAM  EN ES        635 26.19                             149   -0.1410 80.4  39 
 RUS  HZ EP        635 10.47                             144    0.2610 97.7 175 
 RUS  HN ES        635 28.46                             144    0.0610 97.7 175 
 RUS  HZ I         635 30.33         1.6 0.20            148           97.7 175 
 PTB  HZ EP        635 13.19                             132   -0.33 9  146 260 
 PTB  HN ES        635 34.45                             132    0.16 9  146 260 
 PTB  HZ I         635 35.68         3.2 0.47            134            146 260 
 ZAR  HN ES        635 43.75                             122   -0.64 9  204 293 
                                                                                
