 2011  615 0744 33.9 L   6.777 -73.164146.4  RSN  8 0.5 1.8LRSN                1
 GAP=135        1.17       8.3    12.7 11.2 -0.2567E+02 -0.3968E+02 -0.7942E+01E
 Epicentro: LOS SANTOS - SANTANDER                                             3
 ACTION:UP  11-07-14 19:05 OP:ep   STATUS:               ID:20110615074433 L   I
 2011-06-15-0742-44S.COL___138                                                 6
 STAT SP IPHASW D HRMM SECON CODA AMPLIT PERI AZIMU VELO SNR AR TRES W  DIS CAZ7
 BTL  SZ EP        744 53.75                             172     0.210   19 324 
 BAR2 SZ EP        744 53.38                             172    -0.210   21 186 
 BAR2 SZ ES   1    745  8.32                             172    -0.6 7   21 186 
 BAR2 SZ I         745  9.49         9.0 0.20                            21 186 
 BRR  HZ EP        744 55.28                             153     0.110   71 301 
 BRR  HN ES   1    745 11.75                             153     0.1 7   71 301 
 BRR  HZ I         745 13.69        15.3 0.16                            71 301 
 PAM  SZ EP   1    744 55.59                             150    -0.8 7   81  39 
 RUS  HZ EP   1    744 58.50                             145     0.9 7   98 175 
 BRI  SZ EP        744 58.11                             141     0.010  112  21 
 BRI  SZ ES   1    745 17.84                             141     0.8 7  112  21 
 GRA  SZ EP        744 59.45                             136    -0.110  129  18 
 GRA  SZ I         745  0.76        10.5 0.19                           129  18 
 OCA  SZ EP   1    745  2.09                             129    -0.4 7  163 354 
                                                                                
