 2016  915 0542 36.8 L   6.773 -73.117146.6  RSN  8 0.2 1.8LRSN                1
 GAP=186        0.60       2.1     3.1  3.8 -0.1502E+00  0.2286E+01 -0.8423E+00E
 Epicentro: LOS SANTOS - SANTANDER                                             3
 ACTION:UPD 17-08-17 21:12 OP:lp   STATUS:               ID:20160915054236 L   I
 OLDACT:DUP 16-09-16 07:22 OP:cara STATUS:               ID:20160915053745d    3
 2016-09-15-0538-00M.COL___330                                                 6
 STAT SP IPHASW D HRMM SECON CODA AMPLIT PERI AZIMU VELO AIN AR TRES W  DIS CAZ7
 BAR2 EZ ES        543 11.94                             171    0.1410 21.2 200 
 BAR2 EZ I         543 17.35        11.6 0.46            171           21.2 200 
 BRR  HZ EP        542 58.52                             151    0.2910 75.4 299 
 BRR  HN ES        543 15.17                             151    0.1810 75.4 299 
 BRR  HZ I         543 22.70         5.2 0.18            151           75.4 299 
 RUS  HZ EP        543  0.39                             145    0.0310 97.4 178 
 RUS  HN ES        543 18.32                             145   -0.4510 97.4 178 
 RUS  HZ I         543 21.03         2.7 0.26            151           97.4 178 
 PTB  HZ EP        543  4.19                             132    0.17 9  150 260 
 PTB  HE ES        543 25.43                             132    0.14 9  150 260 
 PTB  HZ I         543 30.66         6.6 0.38            135            150 260 
 SPBC HZ EP        543  5.43                             129    0.14 9  163 221 
 SPBC HN ES        543 27.56                             129    0.02 9  163 221 
 SPBC HZ I         543 32.63         7.2 0.22            134            163 221 
 OCA  HZ EP        543  5.42                             129   -0.02 9  164 352 
 OCA  HE ES        543 27.74                             129   -0.09 9  164 352 
 OCA  HZ I         543 31.41        14.9 0.40            133            164 352 
 ZAR  HZ EP        543  9.45                             122   -0.22 8  208 293 
 ZAR  HN ES        543 34.84                             122   -0.51 8  208 293 
 ZAR  HZ I         543 41.57        10.6 0.32            125            208 293 
 GUY2CHZ EP   4    543 21.88                             112    1.38 0  302 236 
 GUY2CHE ES        543 54.65                             112    0.03 7  302 236 
 GUY2CHZ I         544  2.98         3.9 0.44                           302 236 
                                                                                
