 2016  915 0728  5.0 L   6.846 -73.146146.9  RSN  7 0.3 1.8LRSN                1
 GAP=245        0.71       4.6     4.3  5.3  0.8417E+01  0.4506E+01 -0.4092E+01E
 Epicentro: LOS SANTOS - SANTANDER                                             3
 ACTION:UPD 17-08-17 21:12 OP:lp   STATUS:               ID:20160915072805 L   I
 OLDACT:UP  16-09-16 07:18 OP:dani STATUS:               ID:20160915071739d    3
 OLDACT:UP  16-09-16 07:18 OP:dani STATUS:               ID:20160915071739d    3
 OLDACT:DUP 16-09-16 07:14 OP:dani STATUS:               ID:20160915071739d    3
 OLDACT:UP  16-09-16 07:08 OP:dani STATUS:               ID:20160915071737     3
 OLDACT:UP  16-09-16 07:07 OP:dani STATUS:               ID:20160915071737     3
 OLDACT:REG 16-09-15 20:22 OP:lv   STATUS:               ID:20160915071737     3
 2016-09-15-0718-00M.COL___327                                                 6
 STAT SP IPHASW D HRMM SECON CODA AMPLIT PERI AZIMU VELO AIN AR TRES W  DIS CAZ7
 BAR2 EZ EP        728 25.06                             169    0.2210 28.3 188 
 BAR2 EZ ES        728 40.23                             169   -0.1110 28.3 188 
 BAR2 EZ I         728 41.23        17.3 0.24            157           28.3 188 
 RUS  HZ EP        728 29.24                             143    0.0510  106 176 
 RUS  HN ES        728 47.99                             143   -0.1010  106 176 
 RUS  HZ I         728 48.76         7.4 0.26            131            106 176 
 PTB  HZ EP        728 31.76                             132   -0.36 9  149 257 
 PTB  HE ES        728 52.87                             132   -0.42 9  149 257 
 PTB  HZ I         728 59.92         7.6 0.23            119            149 257 
 SPBC HZ EP        728 33.96                             128    0.04 9  167 218 
 SPBC HN ES        728 57.04                             128    0.53 9  167 218 
 SPBC HZ I         729  0.49         9.0 0.23            117            167 218 
 ZAR  HZ EP        728 37.36                             123    0.07 9  202 291 
 ZAR  HN ES        729  2.87                             123    0.37 9  202 291 
 ZAR  HZ I         729 10.92         4.1 0.31            113            202 291 
 NOR  HZ EP        728 40.83                             118   -0.25 8  238 233 
 NOR  HZ I         729 13.68         3.5 0.31            108            238 233 
 GUY2CHZ EP   4    728 51.50                             112    2.55 0  304 234 
 GUY2CHE ES   4    729 28.63                             112    5.36 0  304 234 
 GUY2CHZ I         729 31.29         2.1 0.43                           304 234 
                                                                                
