 2012  215 0742  4.1 L   6.784 -73.171156.7  RSN  5 0.4 1.2LRSN                1
 GAP=179        0.60       7.7     8.6 10.1  0.1796E+02 -0.1179E+02  0.4197E+01E
 ACTION:UP  12-03-07 16:30 OP:epov STATUS:               ID:20120215074204 L   I
 2012-02-15-0740-00M.COL___188                                                 6
 STAT SP IPHASW D HRMM SECON CODA AMPLIT PERI AZIMU VELO AIN AR TRES W  DIS CAZ7
 BAR2 SZ EP   1    742 24.89                             172   -0.17 7 21.2 183 
 BAR2 SZ I         742 42.54         2.7 0.31                          21.2 183 
 GIR2 SZ EP   2    742 24.95                             167   -0.21 5 32.7 356 
 GIR2 SZ ES   2    742 41.02                             167   -0.53 5 32.7 356 
 BRR  HZ EP   1    742 26.84                             154    0.43 7 69.6 301 
 BRR  HZ I         742 31.75         3.2 0.34                          69.6 301 
 BRR  HN ES   2    742 44.22                             154    0.45 5 69.6 301 
 RUS  HZ EP   2    742 28.59                             146   -0.29 5 99.0 174 
 RUS  HN ES   2    742 48.57                             146    0.39 5 99.0 174 
 PTB  HN ES   2    742 52.82                             135   -0.48 5  145 259 
                                                                                
