 2012 1115 0328 33.4 L   6.702 -73.200151.0  RSN  4 0.3 1.1LRSN                1
 GAP=222        0.64       6.9     6.8  8.6  0.2397E+02 -0.6503E+01 -0.4759E+01E
 Epicentro: VILLANUEVA - SANTANDER                                             3
 ACTION:UPD 12-12-05 15:33 OP:}ep  STATUS:               ID:20121115032833 L   I
 2012-11-15-0327-48M.COL___201                                                 6
 STAT SP IPHASW D HRMM SECON CODA AMPLIT PERI AZIMU VELO AIN AR TRES W  DIS CAZ7
 BAR2 SZ EP   1    328 53.07                             175   -0.44 7 12.3 171 
 BAR2 SZ I         328 53.23         4.8 0.11                          12.3 171 
 BRR  HZ EP   1    328 55.13                             153   -0.05 7 72.1 308 
 BRR  HE ES   1    329 12.39                             153    0.23 7 72.1 308 
 RUS  HZ EP   1    328 56.98                             148   -0.02 7 90.4 172 
 RUS  HN ES   1    329 15.56                             148    0.17 7 90.4 172 
 RUS  HZ I         329 16.49         1.3 0.32                          90.4 172 
 PTB  HZ EP   1    329  0.66                             135    0.52 7  140 263 
 PTB  HN ES   1    329 20.59                             135   -0.39 7  140 263 
 PTB  HZ I         329 25.14         1.4 0.20                           140 263 
                                                                                
