 2015  815 0656 22.0 L   6.794 -73.152147.5  RSN 15 0.4 2.4LRSN                1
 GAP=182        0.90       2.4     3.9  4.9 -0.9329E+00  0.6566E+01 -0.4105E+00E
 Epicentro: LOS SANTOS - SANTANDER                                             3
 ACTION:UPD 15-09-15 23:02 OP:cam  STATUS:               ID:20150815065622 L   I
 OLDACT:REG 15-08-15 14:02 OP:ar   STATUS:               ID:20150815064750     3
 2015-08-15-0647-50M.COL___328                                                 6
 STAT SP IPHASW D HRMM SECON CODA AMPLIT PERI AZIMU VELO AIN AR TRES W  DIS CAZ7
 BAR2 EZ EP        656 41.64                             171   -0.2310 22.5 188 
 BAR2 EZ ES        656 57.39                             171    0.0610 22.5 188 
 BAR2 EZ I         656 57.74       119.0 0.10            167           22.5 188 
 BRR  HZ EP     D  656 43.60                             153    0.2410 70.9 299 
 BRR  HN ES        657  0.95                             153    0.9610 70.9 299 
 BRR  HZ I         657  5.36        31.4 0.14            148           70.9 299 
 RUS  HZ EP        656 45.56                             145   -0.3610100.0 176 
 RUS  HN ES        657  4.42                             145   -0.1310100.0 176 
 RUS  HZ I         657  5.69        23.9 0.24            146          100.0 176 
 OCA  HZ EP        656 50.28                             130   -0.26 9  161 353 
 OCA  HN ES        657 12.24                             130   -0.53 9  161 353 
 OCA  HZ I         657 15.23        55.7 0.18            131            161 353 
 SPBC HZ EP        656 50.47                             130   -0.11 9  162 219 
 SPBC HN ES        657 12.82                             130   -0.02 9  162 219 
 SPBC HZ I         657 18.26        34.7 0.10            129            162 219 
 ZAR  HZ EP        656 54.85                             123    0.30 9  204 292 
 ZAR  HN ES        657 19.55                             123   -0.37 9  204 292 
 ZAR  HZ I         657 25.76        19.2 0.16            122            204 292 
 NOR  HZ EP        656 57.82                             119    0.06 8  234 234 
 NOR  HN ES        657 25.61                             119   -0.02 8  234 234 
 NOR  HZ I         657 30.75        19.4 0.42            119            234 234 
 SML  HZ EP        656 59.23                             118    0.43 8  244 336 
 SML  HE ES        657 27.18                             118   -0.29 8  244 336 
 SML  HZ I         657 31.26        27.0 0.10            119            244 336 
 HEL  HN ES        657 33.12                             115   -0.48 8  271 256 
 HEL  HZ I         657 41.12         9.9 0.26            115            271 256 
 URE  HN ES   4    657 33.42                             114   -1.79 0  283 292 
 URE  HZ I         657 46.25         9.8 0.18            114            283 292 
 GUY2CHN ES   4    657 42.37                             113    2.76 0  300 235 
 GUY2CHZ I         657 47.82        10.8 0.26                           300 235 
 DBB  SZ EP        657  9.91                             110    0.40 7  339 274 
 DBB  SZ ES        657 46.69                             110    0.16 7  339 274 
 DBB  SZ I         657 49.66        23.4 0.54            110            339 274 
 TOL  SZ EP   1    657 11.21                             110    0.96 5  343 225 
 TOL  SN ES        657 47.09                             110   -0.76 7  343 225 
 TOL  SZ I         657 54.12         6.4 0.52            110            343 225 
 ORTC HZ EP        657 16.40                             107    0.50 6  394 216 
 ORTC HN ES        657 58.28                             107    0.36 6  394 216 
 ORTC HZ I         658  4.84         3.9 0.68            108            394 216 
 PAL  HZ EP   2    657 17.27                             106    0.13 3  405 239 
 PAL  HN ES   2    657 59.86                             106   -0.26 3  405 239 
 PAL  HZ I         658  5.95         4.7 0.42            107            405 239 
                                                                                
