 2010  415 0057 57.5 L   6.793 -73.079146.1  RSN  8 0.5 2.4LRSN                1
 GAP=206        1.17       5.1     8.0  7.5 -0.7850E+01  0.1370E+02  0.8207E+01E
 Epicentro: LOS SANTOS - SANTANDER                                             3
 ACTION:UPD 10-08-24 09:59 OP:vdl  STATUS:               ID:20100415005806 L   I
 2010-04-15-0053-26S.COL___100                                                 6
 STAT SP IPHASW D HRMM SECON CODA AMPLIT PERI AZIMU VELO AIN AR TRES W  DIS CAZ7
 BAR2 SZ EP        058 17.16                             170    -0.110   25 207 
 BAR2 SZ ES        058 32.02                             170    -0.610   25 207 
 BRR  HZ EP        058 19.42                             150     0.310   78 296 
 BRR  HN ES        058 36.79                             150     0.810   78 296 
 BRR  HZ I         058 38.37        36.0 0.79                            78 296 
 OCA  SZ EP        058 25.70                             130    -0.3 9  162 351 
 OCA  SZ ES   2    058 48.14                             130    -0.1 5  162 351 
 CHI  HZ EP   1    058 35.46                             117     0.1 6  250 197 
 CHI  HN ES        059  5.09                             117     0.2 8  250 197 
 CHI  HZ I         059  8.11        12.9 0.20                           250 197 
 HEL  HZ EP   1    058 39.00                             114     0.5 6  279 256 
 HEL  HN ES        059  9.59                             114    -0.9 7  279 256 
 HEL  HZ I         059 16.20        11.3 0.06                           279 256 
 RREF BZ EP        058 44.63                             111     0.4 7  327 230 
 RREF BN ES        059 20.66                             111    -0.1 7  327 230 
 RREF BZ I         059 29.25        17.4 0.80                           327 230 
 DBB  SZ EP        058 45.31                             109    -0.6 6  347 274 
 PRA  HZ EP        058 51.93                             106     0.5 6  395 211 
 PRA  HN ES   1    059 33.53                             106     0.1 4  395 211 
 PRA  HZ I         059 39.06        14.1 0.42                           395 211 
                                                                                
