 2011  615 0955  0.1 L   6.793 -73.110148.0  RSN  5 0.4 1.7LRSN                1
 GAP=160        0.90       5.2    10.3  9.2 -0.4349E+01 -0.2596E+02 -0.1056E+02E
 Epicentro: LOS SANTOS - SANTANDER                                             3
 ACTION:UP  11-07-14 19:05 OP:ep   STATUS:               ID:20110615095500 L   I
 2011-06-15-0940-00M.COL___125                                                 6
 STAT SP IPHASW D HRMM SECON CODA AMPLIT PERI AZIMU VELO SNR AR TRES W  DIS CAZ7
 BAR2 SZ EP        955 19.94                             170     0.010   24 200 
 BAR2 SZ ES   1    955 34.94                             170    -0.5 7   24 200 
 BAR2 SZ I         955 36.18        15.8 0.30                            24 200 
 BRR  HZ EP        955 21.54                             152    -0.110   75 298 
 BRR  HN ES   1    955 38.75                             152     0.2 7   75 298 
 BRR  HZ I         955 39.55        17.3 0.13                            75 298 
 RUS  HZ EP   1    955 24.24                             144     0.3 7  100 178 
 RUS  HN ES   1    955 42.83                             144     0.2 7  100 178 
 RUS  HZ I         955 43.70         2.7 0.16                           100 178 
 BRI  SZ EP   1    955 23.38                             142    -0.7 7  108  19 
 GRA  SZ EP        955 25.66                             138     0.210  125  16 
 GRA  SZ I         955 27.02         5.4 0.25                           125  16 
 GRA  SZ ES   1    955 45.67                             138     0.4 7  125  16 
                                                                                
