 2011  415 0854 18.2 L   6.788 -73.139150.5  RSN 13 0.4 2.7LRSN                1
 GAP=115        0.97       4.0     4.7  5.8 -0.4171E+01  0.3654E+01  0.7063E+01E
 Epicentro: LOS SANTOS - SANTANDER                                             3
 ACTION:UP  11-06-22 15:31 OP:REBC STATUS:               ID:20110415085419dL   I
 2011-04-15-0850-42S.COL___139                                                 6
 STAT SP IPHASW D HRMM SECON CODA AMPLIT PERI AZIMU VELO SNR AR TRES W  DIS CAZ7
 BTL  SZ EP        854 38.54                             172     0.210   20 315 
 BTL  SZ ES   1    854 53.82                             172    -0.2 7   20 315 
 BAR2 SZ EP   1    854 38.13                             171    -0.3 7   22 193 
 BAR2 SZ ES   1    854 53.48                             171    -0.6 7   22 193 
 BAR2 SZ I         854 55.03        96.0 0.24                            22 193 
 GIR2 SZ EP        854 39.33                             167     0.810   33 349 
 GIR2 SZ ES   1    854 54.67                             167     0.4 7   33 349 
 BRR  HZ EP   1    854 40.09                             153     0.1 7   73 299 
 BRR  HN ES   1    854 57.41                             153     0.5 7   73 299 
 BRR  HZ I         855  1.42        74.5 0.17                            73 299 
 PAM  SZ EP   1    854 40.92                             151     0.0 7   78  38 
 PAM  SN ES   1    854 58.31                             151    -0.4 7   78  38 
 GRA  SZ IP        854 44.00                             138     0.010  127  17 
 GRA  SZ ES   2    855  3.95                             138    -0.1 5  127  17 
 GRA  SZ I         855  4.89        58.4 0.50                           127  17 
 OCA  SZ EP   1    854 46.32                             130    -0.7 7  162 353 
 OCA  SZ ES   1    855  9.09                             130    -0.4 7  162 353 
 OCA  SZ I         855 13.22        66.1 0.32                           162 353 
 YOP  SZ EP        854 48.27                             127    -0.2 9  177 153 
 YOP  SZ I         854 49.45        20.0 0.49                           177 153 
 YOP  SE ES   1    855 12.44                             127     0.4 7  177 153 
 NOR  SZ EP   1    854 53.61                             119    -0.6 6  235 235 
 NOR  SN ES   1    855 21.62                             119    -0.6 6  235 235 
 HEL  HZ EP   1    854 59.50                             116     0.8 6  272 256 
 HEL  HN ES   1    855 30.19                             116    -0.1 6  272 256 
 HEL  HZ I         855 36.67        25.7 0.38                           272 256 
 VIL  SZ EP   2    855  1.29                             113    -0.4 4  302 192 
 VIL  SZ I         855 41.29        18.3 0.38                           302 192 
 GUY  SZ EP   1    855  2.23                             113     0.0 5  303 235 
 GUY  SE ES   1    855 36.82                             113     0.2 5  303 235 
 GUY  SZ I         855 45.66        50.4 0.36                           303 235 
 PRA  HZ EP   1    855 11.84                             107     0.0 4  391 210 
 PRA  HE ES   2    855 53.29                             107    -0.3 3  391 210 
                                                                                
