 2013  215 0056 29.5 L   6.798 -73.146149.6  RSN  7 0.5 1.6LRSN                1
 GAP=137        1.21       5.9     6.3  8.7  0.6713E+01  0.1506E+02  0.1694E+02E
 Epicentro: LOS SANTOS - SANTANDER                                             3
 ACTION:UPD 13-03-12 09:33 OP:ep   STATUS:               ID:20130215005629 L   I
 2013-02-15-0050-00M.COL___241                                                 6
 STAT SP IPHASW D HRMM SECON CODA AMPLIT PERI AZIMU VELO AIN AR TRES W  DIS CAZ7
 BAR2 SZ EP        056 49.47                             171   -0.1510 23.1 190 
 BAR2 SZ ES        057  4.85                             171   -0.4410 23.1 190 
 BAR2 SZ I         057  7.17         9.7 0.28            168           23.1 190 
 BRR  HZ EP        056 51.65                             153    0.5510 71.3 299 
 BRR  HN ES        057  8.85                             153    0.9210 71.3 299 
 PAM  SN ES        057  9.58                             151   -0.2510 77.6  39 
 PAM  SN I         057 10.43         8.4 0.46            156           77.6  39 
 RUS  HZ EP        056 53.37                             145   -0.2710  100 176 
 RUS  HN ES        057 12.65                             145    0.1910  100 176 
 RUS  HN I         057 13.77         4.2 0.22            145            100 176 
 PTB  HZ EP        056 56.45                             133   -0.35 9  148 259 
 PTB  HN ES        057 17.35                             133   -0.73 9  148 259 
 PTB  HN I         057 22.83         8.3 0.30            133            148 259 
 ZAR  HN ES   1    057 27.59                             123   -0.15 6  204 292 
 CHI  HZ EP        057  7.63                             118    0.21 8  248 195 
 CHI  HN ES   1    057 37.85                             118    0.88 6  248 195 
 CHI  HN I         057 40.78         2.8 0.24            119            248 195 
                                                                                
