 2016  815 0304 23.2 L   6.692 -73.207151.1  RSN  4 0.3 1.4LRSN                1
 GAP=217        0.49       4.6     4.8  7.3  0.1252E+02  0.6529E+01  0.4311E+01E
 Epicentro: VILLANUEVA - SANTANDER                                             3
 ACTION:UPD 16-10-29 15:35 OP:rebc STATUS:               ID:20160815030423 L   I
 OLDACT:REG 16-08-15 12:18 OP:ak   STATUS:               ID:20160815025734     3
 2016-08-15-0258-00M.COL___380                                                 6
 STAT SP IPHASW D HRMM SECON CODA AMPLIT PERI AZIMU VELO AIN AR TRES W  DIS CAZ7
 BAR2 EZ EP   3    3 4 43.10                             176   -0.17 2 11.4 166 
 BAR2 EZ ES   3    3 4 58.10                             176   -0.85 2 11.4 166 
 BAR2 EZ I         3 5  0.34         7.2 0.48                          11.4 166 
 BRR  HZ EP   2    3 4 44.54                             153   -0.42 5 72.3 309 
 BRR  HE ES        3 5  2.13                             153    0.1810 72.3 309 
 BRR  HZ I         3 5  7.91         3.0 0.12                          72.3 309 
 RUS  HZ EP   2    3 4 47.01                             148    0.31 5 89.5 171 
 RUS  HN ES        3 5  5.04                             148   -0.0210 89.5 171 
 RUS  HZ I         3 5  6.66         3.3 0.28                          89.5 171 
 PTB  HZ IP   2    3 4 50.23                             135    0.40 5  139 263 
 PTB  HE ES        3 5 10.45                             135   -0.18 9  139 263 
 PTB  HZ I         3 5 14.50         3.0 0.29                           139 263 
                                                                                
