 2011 1215 0821 32.3 L   6.790 -73.117148.4  RSN 21 0.5 3.8LRSN                1
 GAP=117        0.90       2.8     4.2  4.9 -0.1828E+01  0.5757E+01  0.4669E+01E
 Epicentro: LOS SANTOS - SANTANDER                                             3
 ACTION:UPD 12-07-13 16:16 OP:ep   STATUS:               ID:20111215082132 L   I
 2011-12-15-0820-00M.COL___184                                                 6
 STAT SP IPHASW D HRMM SECON CODA AMPLIT PERI AZIMU VELO AIN AR TRES W  DIS CAZ7
 BAR2 SZ IP        821 52.34                             171    0.0510 23.0 198 
 BAR2 SZ ES   1    822  7.42                             171   -0.42 7 23.0 198 
 BAR2 SZ I         822  9.14      2653.3 0.18                          23.0 198 
 GIR2 SZ IP        821 52.40                             167    0.0210 33.0 345 
 GIR2 SZ ES   1    822  8.33                             167    0.33 7 33.0 345 
 BRR  HZ IP     C  821 54.18                             152    0.2110 74.5 298 
 BRR  HN ES   1    822 11.28                             152    0.45 7 74.5 298 
 BRR  HZ I         822 14.73       684.8 0.23                          74.5 298 
 PAM  SZ IP        821 55.12                             151    0.3410 76.3  37 
 PAM  SE ES   1    822 11.93                             151   -0.34 7 76.3  37 
 RUS  HZ IP     D  821 56.13                             145   -0.1310 99.3 178 
 RUS  HN ES   1    822 14.28                             145   -0.64 7 99.3 178 
 RUS  HZ I         822 16.31       870.5 0.22                          99.3 178 
 OCA  SZ EP        822  0.81                             130   -0.19 9  162 352 
 OCA  SZ ES   1    822 23.01                             130   -0.34 7  162 352 
 OCA  SZ I         822 26.96       530.6 0.23                           162 352 
 YOP  SZ IP        822  2.82                             127    0.48 9  176 154 
 YOP  SN ES   1    822 25.65                             127   -0.09 7  176 154 
 YOP  SZ I         822 31.39       264.2 0.67                           176 154 
 CTAU SZ IP     C  822  5.96                             123    0.41 9  203 210 
 CTAU SZ I         822 36.47       532.4 0.31                           203 210 
 NOR  SZ EP        822  8.05                             119   -0.39 8  237 235 
 NOR  SN ES   1    822 35.79                             119   -0.80 6  237 235 
 CHI  HZ IP     D  822  9.93                             118   -0.24 8  248 196 
 CHI  HE ES   1    822 39.23                             118   -0.44 6  248 196 
 CHI  HZ I         822 45.15       335.3 0.49                           248 196 
 ROSC BZ IP     D  822 11.79                             117    1.10 8  253 212 
 ROSC BE ES   1    822 41.08                             117    0.49 6  253 212 
 ROSC BZ I         822 47.78       718.1 0.34                           253 212 
 CVER SZ EP        822 13.35                             115    0.49 8  272 203 
 CVER SZ I         822 49.65       398.8 0.36                           272 203 
 HEL  HZ EP   1    822 12.09                             115   -0.91 6  275 256 
 HEL  HZ I         822 51.90       274.2 0.19                           275 256 
 VIL  SZ EP   1    822 15.23                             112   -0.60 5  303 192 
 VIL  SN ES   1    822 49.29                             112   -0.46 5  303 192 
 VIL  SZ I         822 52.75       223.5 0.25                           303 192 
 GUY  SZ EP   1    822 16.39                             112   -0.17 5  306 236 
 GUY  SN ES   1    822 51.53                             112    0.48 5  306 236 
 GUY  SZ I         822 57.95       547.1 0.54                           306 236 
 RREF HZ EP   1    822 18.10                             111   -0.70 5  323 230 
 RREF HN ES        822 55.65                             111    0.62 7  323 230 
 RREF HZ I         823  2.94       372.4 0.22                           323 230 
 DBB  SZ EP   1    822 19.58                             110   -0.72 5  343 274 
 TOL  SZ EP   1    822 21.26                             110    0.39 5  345 225 
 PRA  HZ EP        822 25.56                             107   -0.47 6  393 210 
 PRA  HN ES   1    823  7.99                             107    0.09 4  393 210 
 PAL  HZ EP   1    822 27.78                             106   -0.07 4  408 239 
 GUA  SZ EP   1    822 34.53                             103   -0.86 4  473 173 
                                                                                
