 2013  115 0717 42.3 L   6.793 -73.155134.5  RSN 12 0.5 2.3LRSN                1
 GAP= 71        0.93       3.8     3.8  7.0  0.1771E+01  0.9609E+01  0.4616E+01E
 Epicentro: LOS SANTOS - SANTANDER                                             3
 ACTION:UPD 13-02-15 09:14 OP:ep   STATUS:               ID:20130115071742 L   I
 2013-01-15-0716-45M.COL___178                                                 6
 STAT SP IPHASW D HRMM SECON CODA AMPLIT PERI AZIMU VELO AIN AR TRES W  DIS CAZ7
 BAR2 SZ EP        718  0.74                             170    0.2210 22.4 188 
 BAR2 SZ ES   1    718 14.53                             170   -0.23 7 22.4 188 
 BAR2 SZ I         718 17.17       135.3 0.20            159           22.4 188 
 BRR  HZ EP     C  718  2.53                             151    0.3510 70.7 299 
 BRR  HN ES   4    718 19.43                             151    1.72 0 70.7 299 
 BRR  HZ I         718 20.61        34.8 0.14            137           70.7 299 
 PAM  SZ EP   1    718  3.49                             148    0.12 7 78.6  40 
 PAM  SN ES   1    718 20.31                             148    0.48 7 78.6  40 
 PAM  SZ I         718 23.04        18.6 0.52            140           78.6  40 
 RUS  HZ EP   1    718  4.80                             142   -0.07 7 99.9 175 
 RUS  HN ES   1    718 22.91                             142    0.40 7 99.9 175 
 RUS  HZ I         718 24.75        40.9 0.26            126           99.9 175 
 PTB  HZ EP   1    718  7.30                             130   -0.93 7  147 259 
 PTB  HN ES   1    718 28.26                             130   -0.23 7  147 259 
 PTB  HZ I         718 31.23        20.6 0.14            115            147 259 
 TAM  HZ EP   1    718  9.08                             128   -0.07 7  156 105 
 TAM  HE ES   1    718 29.28                             128   -0.84 7  156 105 
 OCA  HN ES   1    718 30.72                             127   -0.53 7  161 354 
 OCA  HZ I         718 33.84        40.0 0.20            116            161 354 
 ZAR  HZ EP   1    718 14.41                             120    0.48 6  203 292 
 ZAR  HN ES   1    718 38.89                             120    0.25 6  203 292 
 ZAR  HZ I         718 45.30        24.9 0.20            109            203 292 
 CHI  HZ EP     C  718 19.01                             115   -0.24 8  248 195 
 CHI  HN ES   1    718 47.96                             115   -0.15 6  248 195 
 CHI  HZ I         718 55.41        11.0 0.46            105            248 195 
 ROSC BZ EP   1    718 20.65                             114    0.98 6  252 211 
 ROSC BZ I         718 57.43        21.4 0.40            104            252 211 
 HEL  HZ EP   1    718 22.21                             113    0.41 6  271 256 
 HEL  HZ I         719  0.57         7.8 0.34            103            271 256 
 DBB  SZ EP   1    718 29.32                             107    0.12 5  339 274 
 DBB  SZ ES   1    719  4.55                             107   -1.26 5  339 274 
 DBB  SZ I         719  8.70         9.0 0.38            100            339 274 
                                                                                
