 2011  715 0203  9.6 L   6.236 -73.671112.5  RSN  5 0.3 1.3LRSN                1
 GAP=121        0.53       3.3     2.9  6.7 -0.1477E+01  0.1070E+02  0.2373E+01E
 Epicentro: SANTA HELENA DEL OPON - SANTANDER                                  3
 ACTION:UPD 12-07-25 14:00 OP:epov STATUS:               ID:20110715020000 L   I
 2011-07-15-0200-00M.COL___133                                                 6
 STAT SP IPHASW D HRMM SECON CODA AMPLIT PERI AZIMU VELO AIN AR TRES W  DIS CAZ7
 BAR2 SZ EP        2 3 27.46                             147    0.1810 66.9  54 
 BAR2 SZ ES   1    2 3 41.01                             147   -0.09 7 66.9  54 
 BAR2 SZ I         2 3 42.63         7.9 0.12                          66.9  54 
 RUS  HZ EP   1    2 3 28.23                             144    0.00 7 75.4 120 
 RUS  HZ I         2 3 28.66         2.2 0.34                          75.4 120 
 RUS  HN ES   1    2 3 42.51                             144   -0.27 7 75.4 120 
 BRR  HZ EP   1    2 3 29.08                             136   -0.10 7 96.4 357 
 BRR  HZ I         2 3 33.89         4.7 0.31                          96.4 357 
 BRR  HE ES   1    2 3 44.64                             136    0.16 7 96.4 357 
 NOR  SZ EP   1    2 3 34.68                             122    0.13 7  152 241 
 NOR  SN ES   1    2 3 54.48                             122    0.45 7  152 241 
 HEL  HZ EP   1    2 3 40.52                             114   -0.21 6  206 269 
 HEL  HZ I         2 4  0.37         3.4 0.64                           206 269 
 HEL  HN ES   1    2 4  4.51                             114   -0.52 6  206 269 
                                                                                
