 2012  415 0123 18.2 L   6.527 -73.528111.2  RSN  4 0.3 1.5LRSN                1
 GAP=108        0.68       5.0     5.9  9.0 -0.5475E+01  0.3651E+02 -0.2437E+01E
 Epicentro: EL CARMEN DE CHUCURI - SANTANDER                                   3
 ACTION:UPD 12-07-05 11:53 OP:tino STATUS:               ID:20120415012318 L   I
 2012-04-15-0119-39M.COL___166                                                 6
 STAT SP IPHASW D HRMM SECON CODA AMPLIT PERI AZIMU VELO AIN AR TRES W  DIS CAZ7
 BAR2 SZ EP        123 34.50                             159     0.210   39  79 
 BAR2 SZ ES        123 46.82                             159     0.110   39  79 
 BAR2 SZ I         123 48.36        31.2 0.45                            39  79 
 BRR  HZ EP        123 35.30                             146    -0.210   67 342 
 BRR  HZ I         123 56.24         7.3 0.19                            67 342 
 RUS  HZ EP   1    123 37.81                             140     0.3 7   86 145 
 RUS  HE ES   1    123 52.25                             140    -0.4 7   86 145 
 RUS  HZ I         123 54.86         2.3 0.27                            86 145 
 NOR  SZ EP   1    123 46.02                             117    -0.4 7  183 234 
 NOR  SE ES   1    124  8.61                             117     0.3 7  183 234 
                                                                                
