 2013  815 0453  3.4 L   6.823 -73.154139.4  RSN  8 0.7 2.1LRSN                1
 GAP=137        1.65       5.5     8.6  9.9 -0.1063E+02 -0.4078E+01  0.1647E-01E
 Epicentro: LOS SANTOS - SANTANDER                                             3
 ACTION:UPD 14-01-14 09:03 OP:ep   STATUS:               ID:20130815045303 L   I
 OLDACT:UP  13-08-15 14:36 OP:stll STATUS:               ID:20130815044850     3
 OLDACT:REG 13-08-15 09:08 OP:stll STATUS:               ID:20130815044850     3
 2013-08-15-0448-50M.COL___232                                                 6
 STAT SP IPHASW D HRMM SECON CODA AMPLIT PERI AZIMU VELO AIN AR TRES W  DIS CAZ7
 BAR2 SZ EP        453 22.38                             169    0.0710 25.7 187 
 BAR2 SZ ES        453 36.91                             169   -0.1610 25.7 187 
 BAR2 SZ I         453 38.45        22.8 0.18            170           25.7 187 
 BRR  HZ EP        453 24.49                             152    0.7510 69.2 297 
 BRR  HN ES        453 41.20                             152    1.5910 69.2 297 
 BRR  HZ I         453 44.57        14.8 0.14            151           69.2 297 
 RUS  HZ EP        453 26.25                             142   -0.4710  103 176 
 RUS  HN ES        453 44.79                             142   -0.1310  103 176 
 RUS  HN I         453 46.32        24.1 0.30            145            103 176 
 PTB  HZ EP        453 29.43                             131   -0.38 9  147 258 
 PTB  HN ES        453 49.84                             131   -0.58 9  147 258 
 PTB  HN I         453 52.27        19.9 0.20            131            147 258 
 CAPV BZ EP        453 30.65                             131    0.51 9  148  39 
 OCA  HZ EP        453 30.72                             129   -0.24 9  158 353 
 OCA  HN ES        453 51.32                             129   -1.14 9  158 353 
 OCA  HZ I         453 56.53        12.3 0.48            131            158 353 
 SPBC HZ EP        453 31.35                             128   -0.20 9  165 218 
 SPBC HN ES        453 53.07                             128   -0.44 9  165 218 
 SPBC HN I         454  0.21        28.5 0.72            129            165 218 
 PRA  HZ EP        453 57.72                             106    0.81 6  394 209 
 PRA  HN ES        454 39.12                             106    0.47 6  394 209 
                                                                                
