 2011  215 0017 44.4 L   6.729 -73.077122.0  RSN  5 0.4 1.6LRSN                1
 GAP=167        0.86       4.6     9.3  9.4 -0.2249E+02  0.3107E+02 -0.7707E+01E
 Epicentro: JORDAN - SANTANDER                                                 3
 ACTION:UP  11-03-28 15:08 OP:jfem STATUS:               ID:20110215001744 L   I
 2011-02-15-0015-06S.COL___136                                                 6
 STAT SP IPHASW D HRMM SECON CODA AMPLIT PERI AZIMU VELO SNR AR TRES W  DIS CAZ7
 BAR2 SZ EP   1    018  0.97                             170    -0.1 7   19 218 
 BAR2 SZ ES   1    018 13.58                             170    -0.5 7   19 218 
 BAR2 SZ I         018 18.95         9.5 0.25                            19 218 
 RUS  HZ EP   1    018  5.13                             141    -0.1 7   93 180 
 RUS  HN ES   2    018 22.38                             141     0.9 5   93 180 
 RUS  HZ I         018 24.84         4.0 0.32                            93 180 
 GRA  SZ EP   1    018  7.59                             130    -0.5 7  131  13 
 GRA  SZ ES   1    018 27.14                             130     0.5 7  131  13 
 GRA  SZ I         018 29.29         5.6 0.26                           131  13 
 OCA  SZ ES   1    018 33.33                             122     0.1 7  169 351 
 OCA  SZ I         018 36.37        11.4 0.22                           169 351 
 NOR  SZ EP   1    018 19.19                             113     0.1 6  237 237 
 NOR  SN ES   1    018 46.23                             113     0.1 6  237 237 
                                                                                
