 2016  115 0938  7.9 L   6.813 -73.132147.9  RSN 27 0.5 2.4LRSN                1
 GAP= 66        1.09       2.2     2.9  4.7 -0.3404E+00  0.4008E+01  0.1183E+01E
 Epicentro: LOS SANTOS - SANTANDER                                             3
 ACTION:UPD 16-03-09 23:25 OP:cam  STATUS:               ID:20160115093808 L   I
 OLDACT:UP  16-02-23 20:52 OP:AR   STATUS:               ID:20160115093808 L   3
 OLDACT:UP  16-01-15 17:23 OP:drio STATUS:               ID:20160115092748     3
 OLDACT:UP  16-01-15 17:22 OP:drio STATUS:               ID:20160115092748     3
 OLDACT:UP  16-01-15 17:22 OP:drio STATUS:               ID:20160115092748     3
 OLDACT:REG 16-01-15 12:21 OP:drio STATUS:               ID:20160115092748     3
 2016-01-15-0927-48M.COL___328                                                 6
 STAT SP IPHASW D HRMM SECON CODA AMPLIT PERI AZIMU VELO AIN AR TRES W  DIS CAZ7
 BAR2 EZ IP     C  938 27.93                             170    0.1310 25.0 193 
 BAR2 EZ ES        938 42.95                             170   -0.3910 25.0 193 
 BAR2 EZ I         938 44.01        48.9 0.26            168           25.0 193 
 BRR  HZ EP        938 29.68                             153    0.3810 71.9 297 
 BRR  HN ES        938 46.78                             153    0.7810 71.9 297 
 BRR  HZ I         938 50.10        31.4 0.34            149           71.9 297 
 PAM  EZ IP     D  938 30.65                             152    0.4510 75.4  39 
 PAM  EN ES        938 47.81                             152    0.1910 75.4  39 
 PAM  EZ I         938 49.68        62.1 0.62            154           75.4  39 
 RUS  HZ EP        938 31.71                             144   -0.2210  102 177 
 RUS  HN ES        938 49.98                             144   -0.7210  102 177 
 PTB  HZ EP        938 34.52                             132   -0.66 9  150 258 
 PTB  HN ES   4    938 54.59                             132   -1.88 0  150 258 
 PTB  HZ I         939  3.09        33.9 0.38            130            150 258 
 TAM  HZ EP        938 35.94                             131    0.31 9  154 106 
 TAM  HZ I         938 56.85        12.1 0.44            133            154 106 
 TAM  HN ES        938 57.79                             131    0.52 9  154 106 
 OCA  HZ EP        938 35.95                             130   -0.30 9  159 353 
 OCA  HE ES        938 58.29                             130   -0.08 9  159 353 
 OCA  HZ I         939  2.01        85.6 0.18            130            159 353 
 SPBC HZ EP        938 36.84                             129    0.11 9  165 219 
 SPBC HN ES        938 58.87                             129   -0.37 9  165 219 
 SPBC HZ I         939  6.47        33.3 0.20            127            165 219 
 ZAR  HZ EP        938 40.87                             123    0.32 9  205 292 
 ZAR  HE ES        939  6.31                             123    0.27 9  205 292 
 ZAR  HZ I         939 16.61        22.9 0.28            121            205 292 
 NOR  HZ EP        938 43.72                             119   -0.23 8  237 234 
 NOR  HE ES        939 11.53                             119   -0.55 8  237 234 
 NOR  HZ I         939 20.50        22.0 0.22            117            237 234 
 SML  HZ EP        938 43.99                             118   -0.57 8  243 335 
 SML  HN ES        939 12.57                             118   -0.60 8  243 335 
 SML  HZ I         939 16.10        34.9 0.10            117            243 335 
 CHI  HZ EP        938 45.85                             117   -0.03 8  250 195 
 CHI  HN ES        939 15.21                             117   -0.32 8  250 195 
 CHI  HZ I         939 19.19         7.7 0.24            117            250 195 
 ROSC BZ EP   4    938 47.59                             117    1.26 0  255 211 
 ROSC BN ES        939 16.19                             117   -0.13 8  255 211 
 ROSC BZ I         939 25.63        30.8 0.35            116            255 211 
 HEL  HZ EP   4    938 50.16                             115    1.76 0  274 256 
 HEL  HE ES        939 20.84                             115    0.84 8  274 256 
 HEL  HZ I         939 26.58        11.8 0.28            114            274 256 
 URE  HZ EP        938 48.55                             114   -0.60 7  285 292 
 URE  HN ES   4    939 20.01                             114   -1.33 0  285 292 
 URE  HZ I         939 32.02        14.6 0.22            113            285 292 
 SOCV BZ EP   4    938 49.50                             113   -1.30 0  299  57 
 SOCV BN ES   4    939 20.73                             113   -3.54 0  299  57 
 GUY2CHZ EP        938 52.57                             113    0.76 7  303 235 
 GUY2CHE ES        939 26.59                             113    0.51 7  303 235 
 GUY2CHZ I         939 34.84        14.2 0.70                           303 235 
 VIL  SZ EP        938 51.93                             112    0.35 7  305 192 
 VIL  SN ES        939 25.85                             112    0.18 7  305 192 
 PTGC HZ EP        938 50.85                             112   -1.07 7  309 159 
 PTGC HN ES   4    939 24.41                             112   -1.85 0  309 159 
 PTGC HZ I         939 26.57        12.4 0.50            112            309 159 
 ELA  HZ EP   4    938 57.37                             110    2.32 0  331 229 
 ELA  HE ES   4    939 34.35                             110    2.50 0  331 229 
 ELA  HZ I         939 40.60        11.8 0.42            110            331 229 
 CBOC HZ EP        938 55.59                             110    0.50 7  335 252 
 CBOC HN ES   4    939 30.12                             110   -1.80 0  335 252 
 CBOC HZ I         939 41.09         4.2 0.32            109            335 252 
 DBB  SZ EP   4    938 56.78                             110    1.18 0  341 274 
 DBB  SZ ES        939 32.31                             110   -0.52 7  341 274 
 DBB  SZ I         939 48.21        17.3 0.30            109            341 274 
 ARGC HZ EP        938 58.43                             109    0.91 6  358 340 
 ARGC HE ES        939 35.31                             109   -0.94 6  358 340 
 PRA  HZ EP        939  1.70                             107   -0.00 6  394 210 
 PRA  HE ES        939 43.70                             107    0.02 6  394 210 
 PRA  HZ I         939 47.40        12.0 0.64            106            394 210 
 ORTC HZ EP        939  2.69                             107    0.58 6  397 216 
 ORTC HE ES        939 44.92                             107    0.52 6  397 216 
 ORTC HZ I         939 52.65         8.2 0.38            106            397 216 
 PAL  HZ EP        939  3.44                             106    0.10 6  408 239 
 PAL  HN ES   4    939 45.23                             106   -1.38 0  408 239 
 PAL  HZ I         940  1.76         3.0 0.38            105            408 239 
 SJC  HZ EP   4    939  1.85                             106   -1.62 0  409 327 
 SJC  HN ES   4    939 42.09                             106   -4.74 0  409 327 
 SJC  HZ I         939 47.68         6.6 0.38            106            409 327 
 CRJC HZ EP   4    939  8.10                             104   -2.16 0  466   3 
 CRJC HN ES   4    939 55.50                             104   -3.42 0  466   3 
 CRJC HZ I         940  1.38         7.3 0.16            104            466   3 
                                                                                
