 2013  115 0443 38.2 L   6.814 -73.177140.1  RSN 11 0.5 2.4LRSN                1
 GAP=180        0.85       3.5     4.9  6.6  0.1658E+01  0.9082E+01  0.2841E+01E
 Epicentro: LOS SANTOS - SANTANDER                                             3
 ACTION:UPD 13-02-15 09:14 OP:ep   STATUS:               ID:20130115044338 L   I
 2013-01-15-0440-00M.COL___241                                                 6
 STAT SP IPHASW D HRMM SECON CODA AMPLIT PERI AZIMU VELO AIN AR TRES W  DIS CAZ7
 BAR2 SZ EP   1    443 57.26                             170    0.06 7 24.6 181 
 BAR2 SZ ES   1    444 12.14                             170    0.14 7 24.6 181 
 BAR2 SZ I         444 15.05       109.1 0.34            165           24.6 181 
 BRR  HZ EP     C  443 59.00                             153    0.4510 67.4 299 
 BRR  HE ES   4    444 16.20                             153    1.81 0 67.4 299 
 BRR  HZ I         444 20.12        42.1 0.14            149           67.4 299 
 RUS  HZ EP   1    444  1.26                             142   -0.30 7  102 174 
 RUS  HN ES   1    444 20.11                             142    0.35 7  102 174 
 RUS  HZ I         444 21.03        45.4 0.24            135            102 174 
 PTB  HZ EP   1    444  3.99                             131   -0.46 7  145 258 
 PTB  HN ES   1    444 24.80                             131   -0.11 7  145 258 
 PTB  HZ I         444 28.01        22.7 0.11            125            145 258 
 OCA  HZ EP   1    444  6.21                             129    0.30 7  158 354 
 OCA  HN ES   1    444 27.09                             129   -0.42 7  158 354 
 OCA  HZ I         444 31.93        19.7 0.26            124            158 354 
 ZAR  HZ EP   1    444  9.54                             122   -0.37 6  200 292 
 ZAR  HN ES   1    444 34.45                             122   -0.17 6  200 292 
 ZAR  HZ I         444 40.82        16.3 0.24            117            200 292 
 CHI  HZ EP        444 15.42                             116   -0.27 8  249 194 
 CHI  HN ES   1    444 44.16                             116   -0.75 6  249 194 
 CHI  HZ I         444 50.38        13.2 0.28            111            249 194 
 HEL  HZ EP   1    444 18.39                             114    0.56 6  269 255 
 HEL  HE ES   1    444 48.02                             114   -0.69 6  269 255 
 HEL  HZ I         444 56.08        13.6 0.38            109            269 255 
 VIL  SZ EP   1    444 20.82                             111   -0.67 5  304 191 
 VIL  SZ I         444 58.43        14.1 0.32            106            304 191 
 RREF HZ EP   1    444 24.84                             110    0.89 5  320 229 
 RREF HE ES   1    445  0.27                             110    0.66 5  320 229 
 RREF HZ I         445  9.51        15.7 0.34            105            320 229 
 TOL  SZ EP   1    444 27.04                             108    0.93 5  342 224 
                                                                                
