 2010  715 0322 24.2 L   7.419 -73.261133.4  RSN  7 0.3 1.7LRSN                1
 GAP=121        0.78       4.6     7.2  7.2 -0.1366E+02  0.5084E+01 -0.1977E+01E
 Epicentro: EL PLAYON - SANTANDER                                              3
 ACTION:UPD 10-12-01 15:17 OP:pat  STATUS:               ID:20100715032224 L   I
 2010-07-15-0321-28S.COL___120                                                 6
 STAT SP IPHASW D HRMM SECON CODA AMPLIT PERI AZIMU VELO AIN AR TRES W  DIS CAZ7
 GIR2 SZ ES   2    322 57.40                             163     0.3 5   38 169 
 GUE  SZ EP   2    322 44.65                             155     0.8 5   59  39 
 GUE  SZ I         322 44.99         7.8 0.11                            59  39 
 BRR  HZ IP     C  322 43.62                             154     0.210   61 235 
 BRR  HE ES   1    322 58.71                             154     0.3 7   61 235 
 BRR  HZ I         323  0.02        19.1 0.17                            61 235 
 BRI  SZ EP   1    322 43.82                             154     0.1 7   61  57 
 BRI  SZ I         322 44.28         8.5 0.19                            61  57 
 BRI  SZ ES   1    322 59.33                             154     0.4 7   61  57 
 GRA  SZ IP        322 44.27                             150    -0.110   72  44 
 GRA  SZ ES   1    322 59.88                             150    -0.2 7   72  44 
 GRA  SZ I         323  3.27        15.6 0.36                            72  44 
 OCA  SZ EP   1    322 45.58                             144     0.0 7   91 356 
 OCA  SZ ES   1    323  1.79                             144    -0.5 7   91 356 
 OCA  SZ I         323  4.27         7.9 0.45                            91 356 
 BAR2 SZ EP   1    322 45.61                             143    -0.2 7   92 175 
 BAR2 SZ ES   1    323  2.11                             143    -0.5 7   92 175 
 BAR2 SZ I         323  3.05        15.1 0.12                            92 175 
                                                                                
