 2014  815 0024 59.8 L   6.806 -73.113147.4  RSN 11 0.4 1.6LRSN                1
 GAP=140        0.77       2.6     3.5  5.3 -0.7955E+00  0.4558E+01  0.2006E+01E
 Epicentro: LOS SANTOS - SANTANDER                                             3
 ACTION:UPD 14-09-15 21:49 OP:nd   STATUS:               ID:20140815002459 L   I
 OLDACT:DUP 14-08-15 15:27 OP:spq  STATUS:               ID:20140815001820d    3
 2014-08-15-0018-19M.COL___275                                                 6
 STAT SP IPHASW D HRMM SECON CODA AMPLIT PERI AZIMU VELO AIN AR TRES W  DIS CAZ7
 BAR2 SZ EP        025 19.78                             170    0.0810 24.8 198 
 BAR2 SZ ES   1    025 35.50                             170    0.31 7 24.8 198 
 BAR2 SZ I         025 36.06        10.8 0.20            168           24.8 198 
 BRR  HZ EP        025 21.20                             152   -0.1310 74.1 297 
 BRR  HN ES        025 38.23                             152    0.1410 74.1 297 
 BRR  HZ I         025 44.09        11.3 0.38            150           74.1 297 
 PAM  SZ EP        025 22.42                             152    0.3510 74.6  38 
 PAM  SE ES        025 39.36                             152   -0.0510 74.6  38 
 PAM  SZ I         025 41.83         5.5 0.58            156           74.6  38 
 RUS  HZ EP   1    025 23.15                             144   -0.64 7  101 178 
 RUS  HE ES   1    025 41.95                             144   -0.51 7  101 178 
 RUS  HZ I         025 44.18         3.4 0.36            145            101 178 
 PTB  HZ EP        025 27.06                             132   -0.22 9  151 259 
 PTB  HE ES   1    025 48.07                             132   -0.61 7  151 259 
 PTB  HZ I         025 50.19         4.6 0.10            131            151 259 
 OCA  HN ES        025 50.67                             130    0.24 9  160 352 
 OCA  HZ I         025 53.23         5.7 0.26            132            160 352 
 ZAR  HE ES        025 58.52                             122    0.16 8  207 292 
 ZAR  HZ I         026  4.97         2.8 0.46            123            207 292 
 NOR  HN ES        026  4.68                             118    0.44 8  238 235 
 NOR  HZ I         026  9.74         3.3 0.16            119            238 235 
 SML  HZ EP   1    025 36.50                             118   -0.17 6  245 334 
 SML  HE ES   1    026  4.55                             118   -0.83 6  245 334 
 SML  HZ I         026  8.59         6.2 0.28            119            245 334 
 CHI  HZ EP   1    025 38.15                             117    0.34 6  250 196 
 CHI  HE ES   1    026  7.59                             117    0.18 6  250 196 
 CHI  HZ I         026 17.95         2.4 0.44            118            250 196 
 GUY2CHZ EP   1    025 44.45                             112    0.54 5  305 235 
 GUY2CHN ES   4    026 20.29                             112    2.02 0  305 235 
 GUY2CHZ I         026 26.45         1.7 0.38                           305 235 
                                                                                
