 2017  315 0528 25.2 L   5.923 -73.751110.7  RSN  7 0.3 1.4LRSN                1
 GAP= 87        0.66       2.3     2.4  5.2 -0.5055E+00 -0.6693E+00 -0.1318E+01E
 Epicentro: SUCRE - SANTANDER                                                  3
 ACTION:UPD 17-05-25 18:40 OP:jn   STATUS:               ID:20170315052825 L   I
 OLDACT:UP  17-03-15 14:42 OP:cog  STATUS:               ID:20170315052741     3
 OLDACT:REG 17-03-15 13:01 OP:cog  STATUS:               ID:20170315052741     3
 2017-03-15-0528-00M.COL___382                                                 6
 STAT SP IPHASW D HRMM SECON CODA AMPLIT PERI AZIMU VELO AIN AR TRES W  DIS CAZ7
 SPBC HZ EP        528 41.20                             155   -0.1110 46.5 230 
 SPBC HN ES        528 53.87                             155   -0.0010 46.5 230 
 RUS  HZ EP        528 43.71                             144    0.1310 74.0  93 
 RUS  HN ES        528 57.91                             144   -0.0110 74.0  93 
 RUS  HZ I         528 59.84         2.0 0.17            120           74.0  93 
 PTB  HZ EP   3    528 43.80                             133   -1.50 2  104 311 
 PTB  HE ES        529  0.59                             133   -0.3910  104 311 
 PTB  HZ I         529  1.67         6.1 0.38            113            104 311 
 NOR  HZ EP        528 47.75                             126   -0.0810  130 252 
 NOR  HE ES        529  5.97                             126    0.4910  130 252 
 NOR  HZ I         529  7.04         9.0 0.41            109            130 252 
 BRR  HZ EP   4    528 45.55                             126   -2.30 0  131   2 
 BRR  HE ES        529  5.72                             126    0.2010  131   2 
 CHI  HN ES        529  8.48                             124   -0.16 9  143 179 
 PAM  EZ EP        528 55.31                             115    0.07 9  195  37 
 PAM  EZ I         529 21.68         2.6 0.28            100            195  37 
                                                                                
