 2013  715 0614 26.9 L   6.835 -73.164146.0  RSN  9 0.4 1.7LRSN                1
 GAP=142        1.02       3.9     4.5  6.0 -0.3790E+01  0.5533E+01  0.3945E+01E
 Epicentro: LOS SANTOS - SANTANDER                                             3
 ACTION:UPD 13-08-12 10:37 OP:ep   STATUS:               ID:20130715061426 L   I
 OLDACT:REG 13-07-15 09:59 OP:nd   STATUS:               ID:20130715060959     3
 2013-07-15-0609-59M.COL___267                                                 6
 STAT SP IPHASW D HRMM SECON CODA AMPLIT PERI AZIMU VELO AIN AR TRES W  DIS CAZ7
 BAR2 SZ EP        614 46.21                             169   -0.4310 26.9 184 
 BAR2 SZ I         615  3.04        11.1 0.34            169           26.9 184 
 GIR2 SZ EP        614 46.34                             169   -0.1610 27.2 353 
 GIR2 SZ ES        615  1.93                             169    0.1410 27.2 353 
 GIR2 SZ I         615  2.81         5.4 0.28            169           27.2 353 
 BRR  HZ IP     C  614 48.19                             154    0.3010 67.6 296 
 BRR  HN ES        615  4.90                             154    0.6510 67.6 296 
 BRR  HZ I         615  9.11         9.2 0.42            153           67.6 296 
 PAM  SZ IP     D  614 49.42                             151    0.3710 75.8  43 
 PAM  SN ES        615  5.97                             151   -0.3510 75.8  43 
 PAM  SZ I         615  8.45        13.1 0.56            153           75.8  43 
 PTB  HZ EP        614 54.07                             132    0.28 9  147 257 
 PTB  HN ES        615 13.78                             132   -0.98 9  147 257 
 PTB  HZ I         615 21.06         2.8 0.20            132            147 257 
 SPBC HZ EP        614 55.61                             129    0.01 9  165 218 
 SPBC HN ES        615 18.15                             129    0.18 9  165 218 
 ZAR  HZ EP        614 59.36                             123    0.33 9  201 291 
 ZAR  HE ES        615 24.34                             123    0.25 9  201 291 
 ZAR  HZ I         615 31.65         3.9 0.30            123            201 291 
 SML  HZ EP        615  2.80                             118   -0.28 8  239 335 
 SML  HN ES        615 30.81                             118   -0.48 8  239 335 
 SML  HZ I         615 38.06         8.0 0.28            118            239 335 
 PRA  HZ EP        615 21.09                             106    0.37 6  394 209 
 PRA  HN ES        616  2.31                             106   -0.38 6  394 209 
 PRA  HZ I         616  7.64         2.4 0.36            107            394 209 
                                                                                
