 2015  815 0839 58.1 L   6.707 -73.216165.8  RSN  4 0.2 1.6LRSN                1
 GAP=186        0.34       6.3     6.6  5.6  0.2218E+02  0.7686E+00 -0.1150E+02E
 Epicentro: VILLANUEVA - SANTANDER                                             3
 ACTION:UPD 15-09-15 23:02 OP:cam  STATUS:               ID:20150815083958 L   I
 OLDACT:REG 15-08-15 14:14 OP:ar   STATUS:               ID:20150815083748     3
 2015-08-15-0837-48M.COL___328                                                 6
 STAT SP IPHASW D HRMM SECON CODA AMPLIT PERI AZIMU VELO AIN AR TRES W  DIS CAZ7
 BAR2 EZ EP   2    840 20.01                             175   -0.00 5 13.2 164 
 BAR2 EZ ES   2    840 37.30                             175    0.20 5 13.2 164 
 BAR2 EZ I         840 38.01         5.7 0.28            168           13.2 164 
 BRR  HZ EP   2    840 21.45                             156    0.03 5 70.5 309 
 BRR  HN ES   2    840 39.25                             156   -0.35 5 70.5 309 
 BRR  HZ I         840 44.70         4.9 0.14            150           70.5 309 
 ZAR  HZ EP   2    840 31.66                             127    0.01 4  201 296 
 ZAR  HN ES   2    840 57.96                             127    0.15 4  201 296 
 ZAR  HZ I         841  3.11         2.7 0.30            126            201 296 
 SML  HZ EP   2    840 36.40                             121   -0.20 4  250 338 
 SML  HN ES   2    841  6.84                             121    0.21 4  250 338 
 SML  HZ I         841  7.52         3.8 0.50            123            250 338 
                                                                                
