 2014 1115 0736 56.1 L   6.819 -73.171141.2  RSN 23 0.6 2.8LRSN                1
 GAP= 55        1.85       4.2     5.0  7.9 -0.3235E+01  0.1320E+02  0.3634E+01E
 Epicentro: LOS SANTOS - SANTANDER                                             3
 ACTION:UPD 14-12-19 15:43 OP:nd   STATUS:               ID:20141115073656 L   I
 OLDACT:REG 14-11-15 14:29 OP:stll STATUS:               ID:20141115072744     3
 2014-11-15-0727-44M.COL___274                                                 6
 STAT SP IPHASW D HRMM SECON CODA AMPLIT PERI AZIMU VELO AIN AR TRES W  DIS CAZ7
 BAR2 SZ IP     C  737 15.52                             169    0.2910 25.1 183 
 BAR2 SZ ES        737 29.68                             169   -0.4610 25.1 183 
 BAR2 SZ I         737 31.53       190.4 0.42            169           25.1 183 
 BRR  HZ IP     D  737 17.39                             153    0.8210 67.7 298 
 BRR  HN ES        737 33.92                             153    1.3910 67.7 298 
 BRR  HZ I         737 37.51        90.3 0.30            148           67.7 298 
 PAM  SZ IP     D  737 18.35                             150    0.4910 77.6  42 
 PAM  SN ES        737 34.86                             150    0.0410 77.6  42 
 PAM  SZ I         737 37.45       127.6 0.50            151           77.6  42 
 RUS  HZ IP     C  737 19.50                             142   -0.0910  103 175 
 RUS  HN ES        737 37.79                             142   -0.1110  103 175 
 RUS  HZ I         737 39.06        87.1 0.22            143            103 175 
 PTB  HZ EP     C  737 21.94                             131   -0.56 9  145 258 
 PTB  HN ES        737 42.57                             131   -0.51 9  145 258 
 PTB  HZ I         737 45.56        90.9 0.28            128            145 258 
 TAM  HZ IP     D  737 23.86                             129    0.12 9  158 105 
 TAM  HZ I         737 24.04       134.0 0.38            131            158 105 
 TAM  HN ES        737 44.85                             129   -0.44 9  158 105 
 OCA  HZ EP        737 23.69                             129   -0.15 9  158 354 
 OCA  HN ES        737 45.02                             129   -0.45 9  158 354 
 OCA  HZ I         737 50.28        71.7 0.44            127            158 354 
 SPBC HZ EP     C  737 24.35                             128    0.10 9  163 218 
 SPBC HN ES        737 46.02                             128   -0.18 9  163 218 
 SPBC HZ I         737 52.19       102.4 0.42            127            163 218 
 NOR  HZ IP     D  737 31.50                             117    0.03 8  234 234 
 NOR  HE ES        737 59.12                             117    0.08 8  234 234 
 NOR  HZ I         738  6.22        55.7 0.20            116            234 234 
 CHI  HZ EP        737 33.77                             116    0.07 8  250 194 
 CHI  HN ES        738  2.88                             116   -0.14 8  250 194 
 CHI  HZ I         738  6.14        17.7 0.40            116            250 194 
 URE  HZ EP        737 35.28                             113   -1.30 7  280 292 
 URE  HE ES        738  7.14                             113   -1.01 7  280 292 
 URE  HZ I         738 18.03        27.2 0.20            111            280 292 
 PTGC HZ IP   9 C  737 38.73                             110   -1.38 0  312 158 
 PTGC HN ES        738 10.83                                   -2.22 7  312 158 
 PTGC HZ I         738 14.45        30.6 0.52            111            312 158 
 CBOC HZ EP        737 43.42                             109    0.81 7  332 252 
 CBOC HN ES        738 19.03                             109    0.15 7  332 252 
 CBOC HZ I         738 26.35        10.6 0.30            108            332 252 
 DBB  SZ EP        737 43.50                             109    0.43 7  337 274 
 DBB  SZ I         738 23.71        54.0 0.38            108            337 274 
 TOL  SZ EP        737 44.70                             108    0.57 7  343 224 
 TOL  SN ES        738 20.57                             108   -1.02 7  343 224 
 ARGC HZ EP        737 45.04                             107   -0.22 6  356 341 
 ARGC HE ES        738 23.80                             107    0.21 6  356 341 
 ARGC HZ I         738 26.51        10.8 0.22            107            356 341 
 ANIL HZ EP        737 46.25                             107    0.56 6  357 224 
 ANIL HE ES        738 25.44                             107    1.08 6  357 224 
 SDV  BZ EP   9    737 44.73                             107   -1.35 0  361  51 
 SDV  BN ES        738 20.13                                   -3.57 6  361  51 
 PRA  HZ EP        737 48.68                             106   -0.85 6  392 209 
 PRA  HZ I         737 51.44        22.5 0.18            105            392 209 
 PRA  HN ES        738 30.83                             106   -0.37 6  392 209 
 ORTC HZ EP        737 49.70                             105   -0.18 6  395 216 
 ORTC HZ I         737 51.68        16.0 0.18            105            395 216 
 ORTC HN ES        738 31.96                             105    0.13 6  395 216 
 PAL  HZ EP        737 51.43                             105    0.46 6  404 239 
 PAL  HE ES        738 33.29                             105   -0.46 6  404 239 
 PAL  HZ I         738 39.81        12.3 0.40            104            404 239 
 SJC  HZ EP   9    737 49.59                             105   -1.55 0  406 327 
 SJC  HN ES        738 30.29                                   -2.22 6  406 327 
 SJC  HZ I         738 34.52         9.4 0.34            104            406 327 
 SMAR HZ EP   9    738  0.19                             102   -1.35 0  494 347 
 SMAR HN ES        738 48.17                                   -3.06 4  494 347 
                                                                                
