 2017  815 0357  8.6 L   6.798 -73.076145.5  RSN 11 0.5 1.6LRSN                1
 GAP=218        0.76       3.8     4.0  4.5  0.6277E+01  0.2365E+01  0.5016E+01E
 Epicentro: LOS SANTOS - SANTANDER                                             3
 ACTION:UPD 17-09-04 20:20 OP:rebc STATUS:               ID:20170815035708 L   I
 OLDACT:UP  17-08-15 14:07 OP:and  STATUS:               ID:20170815034744d    3
 OLDACT:UP  17-08-15 14:07 OP:and  STATUS:               ID:20170815034744d    3
 OLDACT:UP  17-08-15 14:06 OP:and  STATUS:               ID:20170815034744d    3
 OLDACT:UP  17-08-15 14:05 OP:and  STATUS:               ID:20170815034744d    3
 OLDACT:UP  17-08-15 14:05 OP:and  STATUS:               ID:20170815034744d    3
 OLDACT:DUP 17-08-15 14:03 OP:and  STATUS:               ID:20170815034744d    3
 2017-08-15-0348-00M.COL___410                                                 6
 STAT SP IPHASW D HRMM SECON CODA AMPLIT PERI AZIMU VELO AIN AR TRES W  DIS CAZ7
 BAR2 EZ EP     C  357 28.15                             170   -0.1110 25.6 207 
 BAR2 EZ ES        357 43.64                             170    0.0610 25.6 207 
 BAR2 EZ I         357 44.67         7.6 0.14            161           25.6 207 
 BRR  HZ EP        357 29.94                             150   -0.2010 78.1 296 
 BRR  HN ES        357 47.05                             150    0.1310 78.1 296 
 BRR  HZ I         357 50.23        11.4 0.32            145           78.1 296 
 RUS  HZ EP        357 32.29                             144   -0.0210  100 180 
 RUS  HN ES        357 50.87                             144    0.0810  100 180 
 RUS  HZ I         357 52.78         2.6 0.30            141            100 180 
 SPBC HZ EP        357 37.36                             128   -0.19 9  168 221 
 SPBC HN ES   2    357 59.31                             128   -0.81 5  168 221 
 SPBC HZ I         358  5.35         6.2 0.20            125            168 221 
 YPLC HZ EP        357 38.55                             127    0.52 9  173 154 
 YPLC HN ES   3    358  2.62                             127    1.65 2  173 154 
 YPLC HZ I         358  3.50         5.8 0.24            128            173 154 
 ZAR  HZ EP   4    357 44.09                             121    2.30 0  211 291 
 ZAR  HN ES        358  7.58                             121   -0.08 8  211 291 
 ZAR  HZ I         358 12.26         4.5 0.22            120            211 291 
 NOR  HN ES        358 13.15                             118   -0.22 8  241 236 
 NOR  HZ I         358 18.90         2.5 0.20            116            241 236 
 CHI  HZ EP        357 46.35                             117   -0.16 8  251 197 
 CHI  HN ES        358 16.18                             117    0.11 8  251 197 
 CHI  HZ I         358 18.62         1.4 0.25            116            251 197 
 PTGC HZ EP        357 51.36                             112   -0.78 7  306 160 
 GUY2CHZ EP        357 53.63                             112    0.72 7  307 236 
 GUY2CHN ES   4    358 30.41                             112    2.95 0  307 236 
 GUY2CHZ I         358 38.40         2.1 0.46                           307 236 
 CBOC HZ EP        357 56.53                             109    0.18 7  341 253 
 CBOC HN ES   3    358 35.87                             109    2.29 2  341 253 
 CBOC HZ I         358 49.21         0.9 0.66            109            341 253 
                                                                                
