 2013  115 0551 31.5 L   6.863 -73.108147.5  RSN  8 0.4 2.1LRSN                1
 GAP=187        0.75       3.7     5.0  6.2  0.5090E+01  0.8113E+01  0.3715E+01E
 Epicentro: LOS SANTOS - SANTANDER                                             3
 ACTION:UPD 13-02-15 09:14 OP:ep   STATUS:               ID:20130115055131 L   I
 2013-01-15-0550-00M.COL___241                                                 6
 STAT SP IPHASW D HRMM SECON CODA AMPLIT PERI AZIMU VELO AIN AR TRES W  DIS CAZ7
 BAR2 SZ EP   1    551 51.61                             168    0.09 7 31.0 195 
 BAR2 SZ ES   1    552  6.91                             168   -0.22 7 31.0 195 
 BAR2 SZ I         552  8.49        52.9 0.32            164           31.0 195 
 BRR  HZ EP   1    551 53.26                             153    0.38 7 72.0 292 
 BRR  HN ES   1    552 10.10                             153    0.54 7 72.0 292 
 BRR  HZ I         552 12.07        16.1 0.20            149           72.0 292 
 RUS  HZ EP   1    551 55.86                             142   -0.05 7  107 179 
 RUS  HN ES   1    552 15.04                             142    0.09 7  107 179 
 RUS  HZ I         552 16.39         6.9 0.22            142            107 179 
 PTB  HZ EP   1    551 58.30                             131   -0.81 7  153 257 
 PTB  HN ES   1    552 20.06                             131   -0.59 7  153 257 
 PTB  HZ I         552 20.88        19.1 0.16            130            153 257 
 OCA  HN ES   1    552 20.68                             131   -0.41 7  154 351 
 ZAR  HZ EP   1    552  4.30                             123    0.10 6  205 290 
 ZAR  HN ES   1    552 30.16                             123    0.45 6  205 290 
 ZAR  HZ I         552 35.12        15.4 0.20            122            205 290 
 CHI  HZ EP   1    552 10.12                             117   -0.02 6  256 196 
 CHI  HN ES   1    552 40.51                             117    0.23 6  256 196 
 CHI  HZ I         552 43.20         5.4 0.44            117            256 196 
 HEL  HZ EP   1    552 13.04                             115    0.60 6  278 255 
 HEL  HN ES   1    552 44.14                             115   -0.24 6  278 255 
 HEL  HZ I         552 51.02         8.4 0.40            114            278 255 
                                                                                
