 2014 1215 0619 59.4 L   6.774 -73.181138.2  RSN  6 0.5 1.2LRSN                1
 GAP=133        1.25       6.0     5.4  8.5  0.2802E+01  0.1315E+02 -0.2941E+01E
 Epicentro: LOS SANTOS - SANTANDER                                             3
 ACTION:UPD 15-02-10 17:03 OP:nd   STATUS:               ID:20141215061959 L   I
 OLDACT:REG 14-12-15 13:05 OP:fm   STATUS:               ID:20141215061743     3
 2014-12-15-0617-43M.COL___288                                                 6
 STAT SP IPHASW D HRMM SECON CODA AMPLIT PERI AZIMU VELO AIN AR TRES W  DIS CAZ7
 BAR2 EZ ES        620 32.96                             171    0.3710 20.1 180 
 BAR2 EZ I         620 34.18         5.8 0.30            171           20.1 180 
 BRR  HZ IP     C  620 20.06                             152    0.4610 69.3 302 
 BRR  HN ES        620 35.96                             152    0.5810 69.3 302 
 BRR  HZ I         620 40.55         3.4 0.26            151           69.3 302 
 PAM  SZ EP     D  620 21.23                             148    0.1310 82.1  40 
 PAM  SN ES        620 37.35                             148   -0.6810 82.1  40 
 PAM  SZ I         620 40.09         4.6 0.58            153           82.1  40 
 RUS  HZ EP        620 22.67                             143    0.4610 98.1 174 
 RUS  HN ES        620 39.56                             143   -0.4610 98.1 174 
 RUS  HZ I         620 42.41         1.4 0.26            146           98.1 174 
 PTB  HZ EP        620 24.66                             131   -0.68 9  143 260 
 PTB  HN ES        620 45.46                             131   -0.12 9  143 260 
 PTB  HZ I         620 53.57         2.1 0.46            132            143 260 
 ZAR  HZ EP        620 31.48                             121    0.40 9  202 293 
 ZAR  HN ES        620 55.21                             121   -0.60 9  202 293 
 ZAR  HZ I         620 59.01         2.2 0.12            123            202 293 
                                                                                
