 2017  115 0113 26.0 L   6.766 -73.098143.8  RSN  8 0.4 1.4LRSN                1
 GAP=144        0.84       4.3     4.6  6.2  0.6271E+00  0.7210E+01 -0.7923E+00E
 Epicentro: LOS SANTOS - SANTANDER                                             3
 ACTION:UPD 17-05-22 15:59 OP:jn   STATUS:               ID:20170115011326 L   I
 OLDACT:UP  17-01-15 13:16 OP:e    STATUS:               ID:20170115010741     3
 OLDACT:UP  17-01-15 13:16 OP:e    STATUS:               ID:20170115010741     3
 OLDACT:UP  17-01-15 13:16 OP:e    STATUS:               ID:20170115010741     3
 OLDACT:UP  17-01-15 13:15 OP:e    STATUS:               ID:20170115010741     3
 OLDACT:UP  17-01-15 13:15 OP:e    STATUS:               ID:20170115010741     3
 OLDACT:UP  17-01-15 13:14 OP:e    STATUS:               ID:20170115010741     3
 OLDACT:REG 17-01-15 12:21 OP:and  STATUS:               ID:20170115010741     3
 2017-01-15-0108-00M.COL___338                                                 6
 STAT SP IPHASW D HRMM SECON CODA AMPLIT PERI AZIMU VELO AIN AR TRES W  DIS CAZ7
 BAR2 EZ ES        114  0.02                             171   -0.4610 21.4 206 
 BAR2 EZ I         114  2.25         6.9 0.24            170           21.4 206 
 PAM  EZ EP        113 48.22                             150    0.2010 77.2  35 
 PAM  EN ES   2    114  4.30                             150   -0.88 5 77.2  35 
 PAM  EZ I         114  7.05         3.0 0.40            153           77.2  35 
 BRR  HZ EP        113 47.19                             150   -0.1510 77.6 299 
 BRR  HE ES        114  4.38                             150    0.4110 77.6 299 
 BRR  HZ I         114  9.94         6.8 0.18            148           77.6 299 
 RUS  HZ EP   2    113 49.56                             144    0.26 5 96.6 179 
 RUS  HN ES        114  7.85                             144    0.3910 96.6 179 
 RUS  HZ I         114  8.58         2.5 0.22            148           96.6 179 
 PTB  HZ EP   9    113 52.37                             131   -0.88 0  152 261 
 PTB  HN ES   2    114 12.88                                   -0.73 5  152 261 
 PTB  HZ I         114 17.31         2.7 0.10            131            152 261 
 ZAR  HN ES        114 24.86                             121    0.14 8  210 293 
 ZAR  HZ I         114 29.32         3.4 0.22            122            210 293 
 NOR  HZ EP   4    113 58.61                             118   -3.27 0  237 236 
 NOR  HN ES        114 29.67                             118   -0.18 8  237 236 
 NOR  HZ I         114 34.38         1.3 0.14            119            237 236 
 GUY2CHZ EP        114  9.37                             112   -0.43 7  303 236 
 GUY2CHN ES   4    114 47.38                             112    3.44 0  303 236 
 GUY2CHZ I         114 49.87         0.9 0.30                           303 236 
                                                                                
