 2011 1015 0121 11.9 L   6.861 -73.152143.3  RSN  7 0.4 2.2LRSN                1
 GAP=133        0.95       4.4     6.5  7.3  0.1607E+01  0.1286E+02 -0.1913E+01E
 Epicentro: LOS SANTOS - SANTANDER                                             3
 ACTION:UPD 12-07-13 16:03 OP:ep   STATUS:               ID:20111015012111 L   I
 2011-10-15-0118-58S.COL___168                                                 6
 STAT SP IPHASW D HRMM SECON CODA AMPLIT PERI AZIMU VELO AIN AR TRES W  DIS CAZ7
 BAR2 SZ EP        121 31.24                             168   -0.1210 29.9 186 
 BAR2 SZ ES   1    121 45.68                             168   -0.87 7 29.9 186 
 BAR2 SZ I         121 48.15        27.2 0.38                          29.9 186 
 BRR  HZ IP     D  121 32.87                             153    0.3210 67.6 294 
 BRR  HE ES   1    121 49.61                             153    0.93 7 67.6 294 
 BRR  HZ I         121 51.97        27.4 0.12                          67.6 294 
 PAM  SZ EP        121 33.82                             152    0.2710 72.8  43 
 PAM  SN ES   1    121 50.69                             152    0.22 7 72.8  43 
 RUS  HZ EP        121 35.73                             141   -0.1510  107 176 
 RUS  HE ES   1    121 54.80                             141    0.19 7  107 176 
 OCA  SZ EP        121 39.39                             130    0.04 9  154 353 
 OCA  SZ ES   1    121 59.95                             130   -0.84 7  154 353 
 OCA  SZ I         122  4.70        13.8 0.47                           154 353 
 ZAR  HZ EP        121 43.75                             122   -0.08 9  201 290 
 ZAR  HN ES   2    122  8.35                             122   -0.41 4  201 290 
 ZAR  HZ I         122 14.48        23.5 0.34                           201 290 
 NOR  SZ EP   1    121 47.61                             118   -0.21 6  238 233 
                                                                                
