 2013  215 0558 49.6 L   6.750 -73.170145.8  RSN  6 0.4 1.8LRSN                1
 GAP=136        1.11       6.5     5.1  9.2  0.9840E+00  0.5363E+01 -0.2772E+01E
 Epicentro: VILLANUEVA - SANTANDER                                             3
 ACTION:UPD 13-03-12 09:33 OP:ep   STATUS:               ID:20130215055849 L   I
 2013-02-15-0557-36M.COL___176                                                 6
 STAT SP IPHASW D HRMM SECON CODA AMPLIT PERI AZIMU VELO AIN AR TRES W  DIS CAZ7
 BAR2 SZ EP        559  9.10                             173   -0.0710 17.5 184 
 BAR2 SZ ES        559 24.22                             173   -0.1810 17.5 184 
 BAR2 SZ I         559 25.02        11.2 0.18            171           17.5 184 
 BRR  HZ EP        559 11.16                             152    0.3410 71.7 303 
 BRR  HN ES        559 28.02                             152    0.6810 71.7 303 
 BRR  HN I         559 32.29        12.3 0.14            150           71.7 303 
 PAM  SZ EP        559 12.00                             149   -0.2210 83.4  39 
 PAM  SN ES        559 29.53                             149   -0.3110 83.4  39 
 PAM  SN I         559 30.16        10.4 0.44            153           83.4  39 
 RUS  HZ EP   1    559 13.12                             145    0.10 7 95.3 174 
 RUS  HN ES   1    559 31.82                             145    0.57 7 95.3 174 
 RUS  HN I         559 33.36         5.5 0.32            147           95.3 174 
 PTB  HZ EP   4    559 14.42                             133   -1.85 0  144 261 
 PTB  HN ES        559 36.14                             133   -0.91 9  144 261 
 PTB  HN I         559 42.01        10.7 0.50            132            144 261 
 ZAR  HN ES        559 47.56                             122    0.23 9  204 294 
 ZAR  HN I         559 53.01         7.7 0.54            122            204 294 
                                                                                
