 2014  815 0207 29.0 L   6.804 -73.103149.4  RSN  7 0.3 1.6LRSN                1
 GAP=142        0.64       3.0     3.9  5.2 -0.4705E+01  0.4774E+01  0.7099E+00E
 Epicentro: LOS SANTOS - SANTANDER                                             3
 ACTION:UPD 14-09-15 21:49 OP:nd   STATUS:               ID:20140815020729 L   I
 OLDACT:DUP 14-08-15 14:53 OP:spq  STATUS:               ID:20140815015820d    3
 2014-08-15-0158-19M.COL___275                                                 6
 STAT SP IPHASW D HRMM SECON CODA AMPLIT PERI AZIMU VELO AIN AR TRES W  DIS CAZ7
 BAR2 SZ EP        2 7 49.09                             170   -0.0210 25.0 201 
 BAR2 SZ ES   1    2 8  4.61                             170   -0.18 7 25.0 201 
 BAR2 SZ I         2 8  5.07        14.2 0.26            168           25.0 201 
 PAM  SZ EP        2 7 51.74                             152    0.3110 74.1  37 
 PAM  SE ES        2 8  9.08                             152    0.1710 74.1  37 
 PAM  SZ I         2 8 10.29         3.3 0.26            155           74.1  37 
 BRR  HZ EP        2 7 50.64                             152   -0.1410 75.2 297 
 BRR  HN ES        2 8  7.81                             152    0.0510 75.2 297 
 BRR  HZ I         2 8 10.71         6.8 0.40            148           75.2 297 
 RUS  HE ES   1    2 8 11.42                             144   -0.53 7  101 179 
 RUS  HZ I         2 8 12.48         2.2 0.32            145            101 179 
 SPBC HZ EP        2 7 57.87                             129   -0.23 9  167 220 
 SPBC HN ES        2 8 21.10                             129    0.30 9  167 220 
 SPBC HZ I         2 8 24.53         4.8 0.34            128            167 220 
 NOR  HN ES        2 8 34.01                             119    0.24 8  239 235 
 NOR  HZ I         2 8 40.81         2.4 0.14            118            239 235 
 SML  HN ES   1    2 8 34.40                             118   -0.49 6  245 334 
 SML  HZ I         2 8 38.24         6.8 0.10            118            245 334 
                                                                                
