 2011  115 0616 23.6 L   6.834 -73.150132.8  RSN  6 0.4 1.7LRSN                1
 GAP=158        0.84       3.8     7.4 11.4 -0.7991E+01  0.3766E+02 -0.2429E+01E
 Epicentro: LOS SANTOS - SANTANDER                                             3
 ACTION:DUP 11-02-08 08:40 OP:pat  STATUS:               ID:20110115061624dL   I
 2011-01-15-0614-19S.COL___135                                                 6
 STAT SP IPHASW D HRMM SECON CODA AMPLIT PERI AZIMU VELO SNR AR TRES W  DIS CAZ7
 BAR2 SZ EP   1    616 41.86                             168     0.1 8   27 188 
 BAR2 SZ I         617  1.77         6.6 0.22                            27 188 
 RUS  HZ EP   1    616 46.39                             140     0.0 8  104 176 
 RUS  HN ES   1    617  4.02                             140    -0.2 8  104 176 
 RUS  HZ I         617  6.14         5.1 0.21                           104 176 
 GRA  SZ EP        616 47.70                             135     0.310  122  18 
 GRA  SZ ES   1    617  6.33                             135     0.3 7  122  18 
 GRA  SZ I         617  8.09        11.0 0.45                           122  18 
 OCA  SZ EP   1    616 50.61                             127     0.0 7  156 353 
 OCA  SZ ES   1    617 10.93                             127    -0.7 7  156 353 
 OCA  SZ I         617 15.16        10.1 0.32                           156 353 
 CHI  HZ EP   1    617  0.98                             114     0.0 6  252 195 
 CHI  HZ I         617 37.30         2.1 0.31                           252 195 
 HEL  HZ EP   1    617  2.67                             112    -0.6 6  273 255 
 HEL  HN ES   1    617 34.80                             112     0.6 6  273 255 
 HEL  HZ I         617 40.62         4.0 0.49                           273 255 
                                                                                
