 2016 1115 0142 43.4 L   6.330 -73.598111.8  RSN  7 0.3 1.7LRSN                1
 GAP=149        0.69       2.8     2.7  4.9 -0.2698E+01  0.1451E+01  0.4750E+01E
 Epicentro: SANTA HELENA DEL OPON - SANTANDER                                  3
 ACTION:UPD 17-10-26 21:08 OP:lp   STATUS:               ID:20161115014243 L   I
 OLDACT:UP  16-11-15 14:46 OP:edw  STATUS:               ID:20161115013748     3
 OLDACT:UP  16-11-15 14:45 OP:edw  STATUS:               ID:20161115013748     3
 OLDACT:REG 16-11-15 12:40 OP:edw  STATUS:               ID:20161115013748     3
 2016-11-15-0138-00M.COL___338                                                 6
 STAT SP IPHASW D HRMM SECON CODA AMPLIT PERI AZIMU VELO AIN AR TRES W  DIS CAZ7
 BAR2 EZ IP     C  143  0.36                             152    0.1010 54.3  58 
 BAR2 EZ ES        143 13.52                             152    0.1110 54.3  58 
 BAR2 EZ I         143 14.75        28.7 0.54            155           54.3  58 
 BRR  HZ EP        143  2.05                             139   -0.1010 86.8 352 
 BRR  HN ES        143 16.63                             139   -0.1610 86.8 352 
 BRR  HZ I         143 19.27         4.9 0.52            142           86.8 352 
 PTB  HZ EP   9    143  2.18                             136   -0.90 0 97.7 284 
 PTB  HN ES        143 17.17                             136   -0.3710 97.7 284 
 PTB  HZ I         143 19.61        10.8 0.30            137           97.7 284 
 PAM  EZ EP        143  8.55                             123   -0.06 9  149  42 
 PAM  EN ES        143 28.44                             123    0.15 9  149  42 
 PAM  EZ I         143 32.07         3.7 0.24            125            149  42 
 NOR  HZ EP        143  8.87                             120   -0.73 9  164 239 
 NOR  HN ES        143 30.17                             120    0.13 9  164 239 
 NOR  HZ I         143 35.31         7.3 0.18            121            164 239 
 ZAR  HZ EP        143 12.29                             116    0.03 9  189 313 
 ZAR  HN ES        143 35.15                             116    0.37 9  189 313 
 ZAR  HZ I         143 36.45         6.1 0.22            118            189 313 
 PRA  HN EP        143 27.86                             103    0.20 7  323 206 
 PRA  HE ES        144  2.35                             103    0.16 7  323 206 
 PRA  HZ I         144  8.13         2.7 0.34            104            323 206 
                                                                                
