 2015  815 0706 36.5 L   6.831 -73.150140.8  RSN 18 0.6 2.3LRSN                1
 GAP=183        1.19       2.9     4.8  6.0  0.8520E-01  0.1008E+02  0.1329E+01E
 Epicentro: LOS SANTOS - SANTANDER                                             3
 ACTION:UPD 15-09-15 23:02 OP:cam  STATUS:               ID:20150815070636 L   I
 OLDACT:UP  15-08-15 17:07 OP:ar   STATUS:               ID:20150815065749     3
 OLDACT:REG 15-08-15 14:03 OP:ar   STATUS:               ID:20150815065749     3
 2015-08-15-0657-49M.COL___328                                                 6
 STAT SP IPHASW D HRMM SECON CODA AMPLIT PERI AZIMU VELO AIN AR TRES W  DIS CAZ7
 BAR2 EZ IP     C  7 6 55.49                             169   -0.0610 26.6 188 
 BAR2 EZ ES        7 7  9.88                             169   -0.5710 26.6 188 
 BAR2 EZ I         7 7 13.64        38.4 0.16            166           26.6 188 
 BRR  HZ IP     C  7 6 57.27                             152    0.3210 69.2 296 
 BRR  HN ES        7 7 13.57                             152    0.6310 69.2 296 
 BRR  HZ I         7 7 16.68        36.4 0.14            151           69.2 296 
 RUS  HZ EP        7 6 59.55                             142   -0.4210  104 176 
 RUS  HN ES        7 7 18.43                             142    0.1210  104 176 
 RUS  HZ I         7 7 19.91        18.7 0.32            144            104 176 
 OCA  HZ EP        7 7  4.52                             129    0.47 9  157 353 
 OCA  HN ES        7 7 25.16                             129   -0.42 9  157 353 
 OCA  HZ I         7 7 28.41        53.5 0.22            133            157 353 
 SPBC HZ EP        7 7  4.52                             127   -0.28 9  166 218 
 SPBC HN ES        7 7 26.96                             127    0.05 9  166 218 
 SPBC HZ I         7 7 33.51        28.2 0.40            128            166 218 
 ZAR  HZ EP        7 7  8.50                             121    0.10 9  202 291 
 ZAR  HN ES        7 7 33.24                             121   -0.08 9  202 291 
 ZAR  HZ I         7 7 39.14        30.9 0.64            123            202 291 
 NOR  HZ EP     C  7 7 11.95                             117   -0.12 8  236 234 
 NOR  HE ES        7 7 39.79                             117   -0.06 8  236 234 
 NOR  HZ I         7 7 45.57        18.2 0.14            118            236 234 
 SML  HZ EP        7 7 11.88                             117   -0.56 8  240 335 
 SML  HN ES        7 7 41.48                             117    0.96 8  240 335 
 SML  HZ I         7 7 42.19        20.1 0.28            119            240 335 
 CHI  HZ EP   2    7 7 14.18                             116   -0.04 4  252 195 
 CHI  HN ES   2    7 7 42.63                             116   -1.05 4  252 195 
 CHI  HZ I         7 7 48.29        10.0 0.28            118            252 195 
 HEL  HZ IP        7 7 17.43                             114    0.97 8  272 255 
 HEL  HN ES        7 7 48.02                             114    0.35 8  272 255 
 HEL  HZ I         7 7 54.54        11.0 0.50            115            272 255 
 URE  HE ES        7 7 47.37                             113   -1.43 7  282 291 
 URE  HZ I         7 7 50.99        13.8 0.14            114            282 291 
 GUY2CHZ EP        7 7 20.73                             111    0.72 7  303 234 
 GUY2CHN ES   1    7 7 55.25                             111    1.26 5  303 234 
 GUY2CHZ I         7 8  3.64         8.9 0.60                           303 234 
 VIL  SN ES        7 7 54.28                             111    0.29 7  307 191 
 CBOC HZ EP   2    7 7 23.57                             109    0.33 3  334 252 
 CBOC HN ES   2    7 8  0.63                             109    0.90 3  334 252 
 CBOC HZ I         7 8  1.41         3.7 0.26            110            334 252 
 DBB  SZ EP   1    7 7 22.13                             109   -1.52 5  339 274 
 DBB  SZ ES   1    7 7 59.07                             109   -1.39 5  339 274 
 DBB  SZ I         7 8  3.39        19.9 0.58            110            339 274 
 TOL  SZ EP        7 7 25.27                             108    0.52 6  346 224 
 TOL  SN ES        7 8  1.88                             108   -0.55 6  346 224 
 TOL  SZ I         7 8 10.08        11.2 0.38            110            346 224 
 ORTC HZ EP        7 7 30.12                             105   -0.38 6  398 216 
 ORTC HN ES        7 8 12.87                             105    0.22 6  398 216 
 ORTC HZ I         7 8 19.74         9.3 0.22            107            398 216 
 PAL  HZ EP        7 7 31.35                             105   -0.26 6  407 239 
 PAL  HN ES   2    7 8 15.07                             105    0.44 3  407 239 
 PAL  HZ I         7 8 19.18         2.8 0.22            106            407 239 
                                                                                
