 2012 1215 0349 15.6 L   6.785 -73.163145.6  RSN  7 0.4 1.4LRSN                1
 GAP=135        0.83       5.4     4.8  7.2  0.1533E+01  0.6927E+01  0.3450E+01E
 Epicentro: LOS SANTOS - SANTANDER                                             3
 ACTION:UPD 13-01-04 14:27 OP:ep   STATUS:               ID:20121215034915 L   I
 2012-12-15-0347-36M.COL___210                                                 6
 STAT SP IPHASW D HRMM SECON CODA AMPLIT PERI AZIMU VELO AIN AR TRES W  DIS CAZ7
 BAR2 SZ EP   1    349 35.21                             171    0.03 7 21.5 186 
 BAR2 SZ ES   1    349 49.81                             171   -0.63 7 21.5 186 
 BAR2 SZ I         349 52.05         8.1 0.21                          21.5 186 
 GIR2 SZ EP   1    349 35.31                             167    0.02 7 32.6 354 
 GIR2 SZ ES   1    349 50.98                             167    0.33 7 32.6 354 
 GIR2 SZ I         349 52.09         4.8 0.34                          32.6 354 
 BRR  HZ EP   1    349 36.94                             153    0.25 7 70.3 300 
 BRR  HE ES   1    349 53.87                             153    0.75 7 70.3 300 
 BRR  HZ I         349 56.78         6.2 0.42                          70.3 300 
 PAM  SZ EP   1    349 38.10                             150    0.15 7 79.9  40 
 PAM  SE ES   1    349 54.75                             150   -0.63 7 79.9  40 
 PAM  SZ I         349 57.02         3.2 0.36                          79.9  40 
 RUS  HZ EP   1    349 39.27                             144    0.03 7 99.1 175 
 RUS  HE ES   1    349 58.11                             144    0.45 7 99.1 175 
 RUS  HZ I         349 59.67         3.3 0.34                          99.1 175 
 PTB  HZ EP   1    349 42.10                             132   -0.26 7  146 259 
 PTB  HN ES   1    350  2.64                             132   -0.59 7  146 259 
 PTB  HZ I         350  6.23         3.2 0.20                           146 259 
 ZAR  HN ES   1    350 13.10                             122   -0.02 6  203 293 
 ZAR  HZ I         350 18.85         4.2 0.31                           203 293 
                                                                                
