 2016  115 0556 36.7 L   6.805 -73.110148.2  RSN 11 0.5 1.6LRSN                1
 GAP=187        1.21       3.3     6.5  6.6 -0.1214E+01  0.5014E+01 -0.1988E+00E
 Epicentro: LOS SANTOS - SANTANDER                                             3
 ACTION:UPD 16-03-09 23:25 OP:cam  STATUS:               ID:20160115055636 L   I
 OLDACT:UP  16-01-15 15:39 OP:drio STATUS:               ID:20160115054750     3
 OLDACT:REG 16-01-15 12:16 OP:drio STATUS:               ID:20160115054750     3
 2016-01-15-0547-50M.COL___329                                                 6
 STAT SP IPHASW D HRMM SECON CODA AMPLIT PERI AZIMU VELO AIN AR TRES W  DIS CAZ7
 BAR2 EZ EP        556 56.47                             170   -0.1410 24.9 199 
 BAR2 EZ ES        557 12.23                             170    0.0610 24.9 199 
 BAR2 EZ I         557 13.24         5.7 0.30            165           24.9 199 
 BRR  HZ EP        556 58.48                             152    0.2310 74.4 297 
 BRR  HE ES        557 16.03                             152    0.9410 74.4 297 
 BRR  HZ I         557 18.08         5.7 0.14            148           74.4 297 
 RUS  HZ EP        557  0.38                             144   -0.3010  101 178 
 RUS  HN ES        557 19.28                             144   -0.1310  101 178 
 RUS  HZ I         557 21.36         2.1 0.26            144            101 178 
 PTB  HZ EP        557  3.35                             132   -0.84 9  152 259 
 PTB  HN ES        557 24.75                             132   -0.90 9  152 259 
 PTB  HZ I         557 32.16         6.0 0.36            129            152 259 
 OCA  HZ EP        557  5.68                             130    0.53 9  160 352 
 OCA  HE ES        557 27.26                             130   -0.11 9  160 352 
 OCA  HZ I         557 31.52        10.6 0.16            132            160 352 
 SPBC HZ EP        557  5.50                             129   -0.13 9  166 220 
 SPBC HE ES        557 28.19                             129   -0.03 9  166 220 
 SPBC HZ I         557 34.66        11.2 0.32            128            166 220 
 SML  HZ EP        557 13.31                             118   -0.24 8  245 334 
 SML  HE ES        557 41.78                             118   -0.53 8  245 334 
 CHI  HZ EP        557 14.61                             117   -0.06 8  250 196 
 CHI  HN ES        557 44.47                             117    0.15 8  250 196 
 CHI  HZ I         557 51.69         1.3 0.24            118            250 196 
 HEL  HZ EP        557 18.47                             115    1.03 7  276 256 
 HEL  HN ES   4    557 47.50                             115   -1.74 0  276 256 
 HEL  HZ I         557 56.17         2.7 0.34            114            276 256 
 GUY2CHZ EP   4    557 22.85                             113    2.07 0  305 235 
 GUY2CHE ES        557 55.85                             113    0.65 7  305 235 
 GUY2CHZ I         558  3.76         2.5 0.56                           305 235 
 PRA  HZ EP        557 30.98                             107    0.42 6  394 210 
 PRA  HE ES   4    558 14.41                             107    1.82 0  394 210 
 PRA  HZ I         558 19.97         1.7 0.24            107            394 210 
                                                                                
