 2016 1115 0809 41.2 L   6.764 -73.123149.2  RSN 15 0.4 2.3LRSN                1
 GAP= 68        1.03       4.3     3.3  5.9 -0.2816E-01  0.1613E+01  0.9671E+01E
 Epicentro: LOS SANTOS - SANTANDER                                             3
 ACTION:UPD 17-10-26 21:08 OP:lp   STATUS:               ID:20161115080941 L   I
 OLDACT:UP  16-11-15 18:34 OP:edw  STATUS:               ID:20161115080745     3
 OLDACT:REG 16-11-15 13:39 OP:edw  STATUS:               ID:20161115080745     3
 2016-11-15-0808-00M.COL___344                                                 6
 STAT SP IPHASW D HRMM SECON CODA AMPLIT PERI AZIMU VELO AIN AR TRES W  DIS CAZ7
 BAR2 EZ EP     C  810  1.05                             172   -0.0910 20.1 199 
 BAR2 EZ ES        810 16.47                             172   -0.2610 20.1 199 
 BAR2 EZ I         810 18.05        59.1 0.24            168           20.1 199 
 BRR  HZ IP     C  810  3.05                             151    0.1310 75.4 300 
 BRR  HN ES        810 20.15                             151    0.2610 75.4 300 
 BRR  HZ I         810 22.76        43.0 0.12            150           75.4 300 
 PAM  EZ IP     C  810  4.03                             150    0.1910 79.0  36 
 PAM  EN ES        810 21.33                             150   -0.1910 79.0  36 
 PAM  EZ I         810 24.02        28.3 0.44            155           79.0  36 
 PTB  HZ EP   9    810  7.64                             132   -0.93 0  150 261 
 PTB  HN ES        810 28.13                             132   -0.89 9  150 261 
 PTB  HZ I         810 31.30        21.3 0.42            130            150 261 
 TAM  HZ IP     D  810  9.30                             131    0.51 9  152 104 
 TAM  HN ES        810 29.99                             131   -0.36 9  152 104 
 TAM  HZ I         810 31.54        12.7 0.22            134            152 104 
 ZAR  HZ EP        810 14.04                             122   -0.19 8  208 293 
 ZAR  HN ES        810 39.77                             122   -0.26 8  208 293 
 ZAR  HZ I         810 45.47        34.2 0.28            122            208 293 
 NOR  HZ EP        810 17.29                             119    0.22 8  234 236 
 NOR  HN ES        810 45.29                             119    0.22 8  234 236 
 NOR  HZ I         810 50.36        15.1 0.18            118            234 236 
 CHI  HZ EP        810 19.19                             118    0.48 8  245 196 
 CHI  HN ES        810 48.03                             118    0.04 8  245 196 
 ROSC BZ EP   4    810 21.06                             117    1.82 0  251 212 
 ROSC BN ES   4    810 49.97                             117    1.03 0  251 212 
 ROSC BZ I         810 57.99         9.7 0.40            116            251 212 
 URE  HZ EP   4    810 21.96                             113   -0.87 0  288 292 
 URE  HN ES   4    810 55.10                             113   -0.23 0  288 292 
 URE  HZ I         810 59.70        14.6 0.18            113            288 292 
 PTGC HZ EP        810 23.82                             112   -0.82 7  304 159 
 PTGC HN ES   4    810 56.71                             112   -1.85 0  304 159 
 PTGC HZ I         811  1.60         5.4 0.64            112            304 159 
 LL6C HZ EP   4    810  7.53                             110   -20.0 0  329 357 
 LL6C HN ES   4    810 42.70                             110   -20.9 0  329 357 
 CBOC HZ EP   2    810 28.76                             110    0.40 3  335 253 
 CBOC HN ES   2    811  4.20                             110   -0.97 3  335 253 
 CBOC HZ I         811 16.85         3.4 0.40            110            335 253 
 ARGC HZ EP   4    810 34.54                             108    3.05 0  364 340 
 ARGC HN ES   4    811 12.34                             108    1.60 0  364 340 
 PRA  HZ EP   4    810 31.76                             107   -2.78 0  390 210 
 PRA  HE ES   4    811 14.03                             107   -2.15 0  390 210 
 PRA  HZ I         811 19.82         5.8 0.22            107            390 210 
 ORTC HZ EP   4    810 36.06                             107    1.06 0  394 217 
 ORTC HN ES   4    811 18.25                             107    1.26 0  394 217 
 ORTC HZ I         811 23.55         4.4 0.43            106            394 217 
 PAL  HZ EP   4    810 37.07                             106    0.62 0  406 240 
 PAL  HE ES   4    811 20.74                             106    1.16 0  406 240 
 SJC  HZ EP   4    810 35.40                             105   -2.00 0  414 327 
 SJC  HN ES   4    811 16.13                             105   -5.13 0  414 327 
 CRJC HZ EP   9    810 39.19                             103   -5.03 0  471   3 
 CRJC HN ES        811 30.17                                    1.80 5  471   3 
                                                                                
