 2015  315 0729  3.5 L   6.797 -73.137147.2  RSN 25 0.5 2.5LRSN                1
 GAP= 55        1.00       2.7     2.7  4.5 -0.1621E+01  0.2595E+01  0.1412E+01E
 Epicentro: LOS SANTOS - SANTANDER                                             3
 ACTION:UPD 15-04-30 16:26 OP:nd   STATUS:               ID:20150315072903 L   I
 OLDACT:UP  15-03-15 18:07 OP:spq  STATUS:               ID:20150315072749     3
 OLDACT:REG 15-03-15 13:06 OP:spq  STATUS:               ID:20150315072749     3
 2015-03-15-0727-49M.COL___257                                                 6
 STAT SP IPHASW D HRMM SECON CODA AMPLIT PERI AZIMU VELO AIN AR TRES W  DIS CAZ7
 BAR2 EZ IP     C  729 23.23                             171   -0.0410 23.2 193 
 BAR2 EZ ES   1    729 38.08                             171   -0.63 7 23.2 193 
 BAR2 EZ I         729 39.21       112.3 0.34            168           23.2 193 
 BRR  HZ IP     C  729 25.09                             152    0.2610 72.3 298 
 BRR  HN ES        729 42.22                             152    0.7210 72.3 298 
 BRR  HZ I         729 46.58        47.3 0.14            149           72.3 298 
 PAM  SZ IP     C  729 26.04                             151    0.2210 77.0  39 
 PAM  SN ES        729 43.29                             151    0.0410 77.0  39 
 PAM  SZ I         729 45.21        82.0 0.60            153           77.0  39 
 RUS  HZ EP        729 27.30                             144   -0.0310  100 177 
 RUS  HN ES        729 45.84                             144   -0.1110  100 177 
 RUS  HZ I         729 46.64        37.5 0.30            144            100 177 
 PTB  HZ EP        729 30.08                             132   -0.56 9  149 259 
 PTB  HN ES        729 50.91                             132   -0.92 9  149 259 
 PTB  HZ I         729 53.31        49.9 0.14            130            149 259 
 TAM  HZ IP     D  729 31.58                             131    0.42 9  154 105 
 TAM  HN ES        729 52.81                             131    0.05 9  154 105 
 TAM  HZ I         729 53.80        27.3 0.40            134            154 105 
 OCA  HZ EP        729 31.36                             130   -0.57 9  161 353 
 OCA  HE ES        729 54.82                             130    0.68 9  161 353 
 OCA  HZ I         729 58.38        52.4 0.26            129            161 353 
 SPBC HZ EP        729 32.17                             129    0.06 9  164 219 
 SPBC HE ES        729 54.13                             129   -0.32 9  164 219 
 SPBC HZ I         730  0.22        68.2 0.28            128            164 219 
 NOR  HZ EP        729 39.65                             119    0.30 8  235 235 
 NOR  HE ES        730  7.53                             119    0.20 8  235 235 
 NOR  HZ I         730  8.76        41.6 0.16            117            235 235 
 SML  HZ EP        729 39.45                             118   -0.80 8  244 335 
 SML  HN ES   1    730  8.64                             118   -0.31 6  244 335 
 SML  HZ I         730 16.47        57.0 0.10            117            244 335 
 ROSC BZ EP   4    729 43.74                             117    2.05 0  253 211 
 ROSC BN ES   4    730 14.63                             117    3.13 0  253 211 
 ROSC BZ I         730 19.68        24.4 0.25            116            253 211 
 HEL  HZ EP   1    729 43.43                             115   -0.42 6  273 256 
 HEL  HN ES   1    730 15.59                             115    0.24 6  273 256 
 HEL  HZ I         730 22.36        17.6 0.44            114            273 256 
 GUY2CHZ EP        729 47.82                             112    0.61 7  302 235 
 GUY2CHN ES        730 21.51                             112    0.18 7  302 235 
 GUY2CHZ I         730 29.55        16.6 0.26                           302 235 
 PTGC HZ EP     C  729 46.47                             112   -0.84 7  308 159 
 PTGC HE ES   4    730 19.71                             112   -1.80 0  308 159 
 PTGC HZ I         730 22.29        15.4 0.50            112            308 159 
 RREF HZ EP   4    729 50.96                             111    1.23 0  322 230 
 RREF HN ES   4    730 28.33                             111    2.51 0  322 230 
 RREF HZ I         730 34.96        18.6 0.30            110            322 230 
 CBOC HZ EP        729 51.14                             110    0.60 7  334 252 
 CBOC HN ES        730 27.24                             110   -0.01 7  334 252 
 CBOC HZ I         730 34.21         5.7 0.24            109            334 252 
 DBB  SZ EP        729 51.12                             110    0.00 7  341 274 
 DBB  SZ ES   1    730 28.17                             110   -0.12 5  341 274 
 TOL  SZ EP   4    729 53.35                             109    1.52 0  344 225 
 TOL  SE ES   4    730 31.86                             109    2.30 0  344 225 
 TOL  SZ I         730 38.30        11.2 0.34            109            344 225 
 MON  HZ EP   4 C  729 50.69                             109   -1.95 0  355 308 
 MON  HN ES   4    730 29.32                             109   -1.68 0  355 308 
 MON  HZ I         730 45.49        11.6 0.38            108            355 308 
 ANIL HE ES   4    730 35.16                             109    2.85 0  358 225 
 ANIL HZ I         730 44.89         3.4 0.32            108            358 225 
 SDV  BZ EP        729 52.92                             108   -0.58 6  360  50 
 SDV  BE ES   4    730 29.44                             108   -3.08 0  360  50 
 SDV  BZ I         730 33.05         7.9 0.40            109            360  50 
 PRA  HZ EP        729 57.07                             107    0.01 6  392 210 
 PRA  HN ES        730 39.67                             107    0.81 6  392 210 
 PRA  HZ I         730 44.40        16.7 0.58            106            392 210 
 ORTC HZ EP        729 58.11                             107    0.64 6  396 216 
 ORTC HN ES   4    730 40.61                             107    1.01 0  396 216 
 ORTC HZ I         730 46.36        10.5 0.28            106            396 216 
 PAL  HZ EP        729 59.37                             106    0.62 6  406 239 
 PAL  HN ES        730 41.65                             106   -0.23 6  406 239 
 PAL  HZ I         730 52.19         5.3 0.40            106            406 239 
 YOT  HZ EP   1    730  6.93                             103    0.32 4  472 229 
 YOT  HN ES   4    730 54.24                             103   -1.63 0  472 229 
                                                                                
