 2012  615 0751 16.0 L   6.822 -73.115140.7  RSN  6 0.4 1.3LRSN                1
 GAP=139        0.68       4.1     4.3  8.5 -0.5124E+00  0.1250E+02 -0.5199E+00E
 Epicentro: LOS SANTOS - SANTANDER                                             3
 ACTION:UPD 12-08-06 17:49 OP:ep   STATUS:               ID:20120615075116 L   I
 2012-06-15-0750-00M.COL___200                                                 6
 STAT SP IPHASW D HRMM SECON CODA AMPLIT PERI AZIMU VELO AIN AR TRES W  DIS CAZ7
 BAR2 SZ EP   1    751 35.81                             169    0.70 7 26.4 196 
 BAR2 SZ ES   2    751 50.26                             169    0.26 5 26.4 196 
 BAR2 SZ I         751 54.00         5.5 0.41                          26.4 196 
 PAM  SZ EP   1    751 37.14                             151   -0.32 7 73.4  39 
 PAM  SN ES   1    751 53.87                             151   -0.31 7 73.4  39 
 RUS  HZ EP   1    751 39.47                             142    0.02 7  103 178 
 RUS  HN ES   1    751 57.75                             142    0.04 7  103 178 
 RUS  HZ I         752  1.09         2.1 0.20                           103 178 
 PTB  HZ EP   1    751 42.67                             130   -0.27 7  152 258 
 PTB  HN ES   1    752  3.53                             130   -0.39 7  152 258 
 PTB  HZ I         752  9.62         2.5 0.34                           152 258 
 OCA  HN ES   2    752  5.93                             129    0.54 5  158 352 
 ZAR  HN ES   1    752 13.80                             121    0.18 6  206 291 
                                                                                
