 2014  315 0321 28.8 L   6.775 -73.103146.0  RSN  6 0.3 1.5LRSN                1
 GAP=143        0.64       3.2     4.3  7.9  0.1157E+01  0.1421E+02  0.8510E+00E
 Epicentro: LOS SANTOS - SANTANDER                                             3
 OLDACT:REG 14-03-15 08:21 OP:fm   STATUS:               ID:20140315031815     3
 ACTION:UPD 14-04-09 23:17 OP:nd   STATUS:               ID:20140315032128 L   I
 OLDACT:UP  14-03-15 10:52 OP:fm   STATUS:               ID:20140315031815     3
 2014-03-15-0318-15M.COL___248                                                 6
 STAT SP IPHASW D HRMM SECON CODA AMPLIT PERI AZIMU VELO AIN AR TRES W  DIS CAZ7
 BAR2 SZ EP        321 48.40                             171   -0.0010 22.0 203 
 BAR2 SZ I         322  8.43        10.4 1.06            162           22.0 203 
 PAM  SZ EP        321 51.24                             151    0.2710 76.8  36 
 PAM  SN ES        322  8.28                             151   -0.0110 76.8  36 
 PAM  SZ I         322 16.00         4.6 0.48            154           76.8  36 
 RUS  HZ EP        321 52.33                             145    0.0010 97.6 179 
 RUS  HN ES        322 10.65                             145   -0.0510 97.6 179 
 RUS  SZ I         322 19.52         3.8 3.10            137           97.6 179 
 PTB  HZ EP   2    321 55.37                             131   -0.76 5  152 260 
 PTB  SZ I         322 19.37         4.9 0.42            123            152 260 
 OCA  HN ES   2    322 18.83                             129   -0.94 5  164 352 
 ZAR  HE ES        322 27.77                             121    0.23 8  209 292 
                                                                                
