 2015 1015 0506  1.0 L   6.814 -73.148137.6  RSN  8 0.4 1.4LRSN                1
 GAP=135        1.04       3.2     4.9  6.8 -0.1279E+00  0.8706E+01 -0.3512E+01E
 Epicentro: LOS SANTOS - SANTANDER                                             3
 ACTION:UPD 15-12-22 20:40 OP:cam  STATUS:               ID:20151015050601 L   I
 OLDACT:UP  15-10-15 17:47 OP:ak   STATUS:               ID:20151015045741     3
 OLDACT:UP  15-10-15 17:46 OP:ak   STATUS:               ID:20151015045741     3
 OLDACT:REG 15-10-15 14:21 OP:ak   STATUS:               ID:20151015045741     3
 2015-10-15-0457-41M.COL___340                                                 6
 STAT SP IPHASW D HRMM SECON CODA AMPLIT PERI AZIMU VELO AIN AR TRES W  DIS CAZ7
 BAR2 EZ EP   1    5 6 19.82                             169    0.11 7 24.8 189 
 BAR2 EZ ES        5 6 34.08                             169   -0.2010 24.8 189 
 BAR2 EZ I         5 6 36.66         5.3 0.21            171           24.8 189 
 BRR  HZ EP        5 6 21.79                             151    0.5510 70.2 297 
 BRR  HN ES        5 6 37.38                             151    0.3810 70.2 297 
 BRR  HZ I         5 6 43.18         4.3 0.11            152           70.2 297 
 PAM  EZ EP        5 6 22.98                             150    0.6610 76.3  40 
 PAM  EN ES        5 6 38.93                             150    0.0110 76.3  40 
 PAM  EZ I         5 6 47.85         2.8 0.28            154           76.3  40 
 RUS  HZ EP        5 6 24.34                             142    0.2410  102 176 
 RUS  HN ES        5 6 41.79                             142   -0.3210  102 176 
 RUS  HZ I         5 6 44.33         3.5 0.28            147            102 176 
 OCA  HZ EP        5 6 28.08                             128   -0.48 9  159 353 
 OCA  HN ES        5 6 49.58                             128   -0.45 9  159 353 
 SPBC HZ EP   1    5 6 28.90                             127   -0.11 7  164 219 
 SPBC HN ES        5 6 50.32                             127   -0.52 9  164 219 
 SPBC HZ I         5 6 56.28         3.0 0.24            132            164 219 
 ZAR  HZ EP        5 6 32.65                             121   -0.21 9  203 292 
 ZAR  HE ES        5 6 58.28                             121    0.59 9  203 292 
 ZAR  HZ I         5 7  5.30         3.8 0.11            124            203 292 
 SML  HZ EP   4    5 6 32.80                             116   -4.24 0  242 335 
 SML  HE ES        5 7  4.52                             116   -0.60 8  242 335 
                                                                                
