 2013  115 0453 39.8 L   6.741 -73.169145.7  RSN  6 0.4 1.7LRSN                1
 GAP=230        0.71       4.9     6.0  6.7  0.1503E+02  0.7903E+01  0.6879E+01E
 Epicentro: VILLANUEVA - SANTANDER                                             3
 ACTION:UPD 13-02-15 09:14 OP:ep   STATUS:               ID:20130115045339 L   I
 2013-01-15-0450-00M.COL___241                                                 6
 STAT SP IPHASW D HRMM SECON CODA AMPLIT PERI AZIMU VELO AIN AR TRES W  DIS CAZ7
 BAR2 SZ EP   1    453 59.07                             173   -0.22 7 16.6 185 
 BAR2 SZ ES   1    454 13.90                             173   -0.60 7 16.6 185 
 BRR  HZ EP     C  454  0.93                             152   -0.0610 72.4 304 
 BRR  HN ES   1    454 18.16                             152    0.63 7 72.4 304 
 BRR  HZ I         454 23.01         6.9 0.14            147           72.4 304 
 RUS  HZ EP   1    454  3.43                             146    0.34 7 94.3 174 
 RUS  HN ES   1    454 21.56                             146    0.30 7 94.3 174 
 RUS  HZ I         454 22.96        10.2 0.30            144           94.3 174 
 PTB  HZ EP   1    454  5.94                             133   -0.47 7  144 261 
 PTB  HN ES   1    454 27.05                             133   -0.14 7  144 261 
 PTB  HZ I         454 32.65         6.7 0.32            129            144 261 
 ZAR  HN ES   1    454 37.67                             122    0.11 6  204 294 
 ZAR  HZ I         454 44.00         5.6 0.22            122            204 294 
 CHI  HZ EP   1    454 17.00                             118    0.27 6  242 195 
 CHI  HN ES   1    454 45.44                             118   -0.10 6  242 195 
 CHI  HZ I         454 52.31         2.0 0.56            118            242 195 
                                                                                
