 2012  615 0056 31.5 L   6.795 -73.163148.5  RSN  4 0.2 1.1LRSN                1
 GAP=141        0.38       4.1     3.4  4.8  0.4717E+00  0.4946E+01 -0.8661E-01E
 Epicentro: LOS SANTOS - SANTANDER                                             3
 ACTION:UPD 12-08-06 17:49 OP:ep   STATUS:               ID:20120615005631 L   I
 2012-06-15-0050-00M.COL___200                                                 6
 STAT SP IPHASW D HRMM SECON CODA AMPLIT PERI AZIMU VELO AIN AR TRES W  DIS CAZ7
 BAR2 SZ EP   1    056 51.45                             171    0.00 7 22.5 185 
 BAR2 SZ I         056 52.17         3.8 0.15                          22.5 185 
 BAR2 SZ ES   1    057  6.86                             171   -0.14 7 22.5 185 
 PAM  SN ES   2    057 11.87                             151    0.13 5 79.0  40 
 RUS  HZ EP   1    056 55.66                             144    0.16 7  100 175 
 RUS  HN ES   1    057 14.18                             144   -0.03 7  100 175 
 RUS  HZ I         057 15.48         1.5 0.26                           100 175 
 PTB  HZ EP   1    056 58.27                             133   -0.25 7  146 259 
 PTB  HN ES   1    057 19.78                             133    0.19 7  146 259 
 PTB  HZ I         057 21.41         1.8 0.35                           146 259 
                                                                                
