 2012  915 0846 47.8 L   6.361 -73.651109.2  RSN  6 0.3 1.4LRSN                1
 GAP=153        0.70       5.0     4.0  7.3  0.9307E+01  0.8125E+01  0.4265E+00E
 Epicentro: SANTA HELENA DEL OPON - SANTANDER                                  3
 ACTION:UPD 12-10-22 14:18 OP:ep   STATUS:               ID:20120915084647 L   I
 2012-09-15-0840-00M.COL___227                                                 6
 STAT SP IPHASW D HRMM SECON CODA AMPLIT PERI AZIMU VELO AIN AR TRES W  DIS CAZ7
 BAR2 SZ EP   1    847  4.82                             150    0.22 7 57.7  64 
 BAR2 SZ ES   1    847 17.80                             150    0.10 7 57.7  64 
 RUS  HZ EP   1    847  6.80                             141    0.20 7 81.4 130 
 RUS  HE ES   1    847 21.14                             141   -0.12 7 81.4 130 
 RUS  HZ I         847 21.85         3.9 0.32                          81.4 130 
 BRR  HZ EP   1    847  5.95                             140   -0.07 7 82.7 355 
 BRR  HE ES   1    847 19.88                             140   -0.34 7 82.7 355 
 BRR  HN I         847 26.28        12.8 0.22                          82.7 355 
 PTB  HZ EP   1    847  5.87                             137   -0.86 7 91.3 283 
 PTB  HN ES   1    847 21.91                             137    0.42 7 91.3 283 
 PTB  HZ I         847 22.68         5.2 0.13                          91.3 283 
 GIR2 SZ EP   1    847  7.24                             136    0.10 7 94.1  32 
 ZAR  HZ EP   1    847 16.09                             116    0.27 7  183 313 
 ZAR  HE ES   1    847 37.86                             116    0.19 7  183 313 
 ZAR  HZ I         847 41.46         3.0 0.16                           183 313 
                                                                                
