 2011  515 0229 21.0 L   6.781 -73.115143.8  RSN  9 0.3 1.6LRSN                1
 GAP=141        0.73       4.4     8.4  6.9 -0.9902E+01 -0.1704E+02  0.1923E+00E
 Epicentro: LOS SANTOS - SANTANDER                                             3
 ACTION:UP  11-06-29 08:53 OP:tino STATUS:               ID:20110515022921 L   I
 2011-05-15-0226-10S.COL___141                                                 6
 STAT SP IPHASW D HRMM SECON CODA AMPLIT PERI AZIMU VELO SNR AR TRES W  DIS CAZ7
 BAR2 SZ EP        229 40.42                             171     0.010   22 200 
 BAR2 SZ ES   3    229 56.02                             171     0.5 2   22 200 
 BAR2 SZ I         229 59.06        11.6 0.68                            22 200 
 BTL  SZ EP        229 40.53                             171     0.110   23 312 
 BTL  SZ ES   1    229 54.68                             171    -0.9 7   23 312 
 GIR2 SZ EP        229 40.33                             166    -0.210   34 345 
 GIR2 SZ ES   3    229 56.55                             166     0.8 2   34 345 
 BRR  HZ EP        229 42.20                             151     0.010   75 299 
 BRR  HZ I         229 42.46        10.5 0.14                            75 299 
 BRR  HN ES   2    229 59.40                             151     0.7 5   75 299 
 PAM  SZ EP        229 43.07                             151     0.010   77  37 
 RUS  HZ EP        229 44.61                             144     0.210   98 178 
 RUS  HN ES   3    230  3.07                             144     0.4 2   98 178 
 RUS  HZ I         230  4.21         2.4 0.36                            98 178 
 BRI  SZ EP        229 44.87                             141     0.110  109  19 
 GRA  SZ EP        229 46.04                             136    -0.210  127  16 
 GRA  SZ I         229 47.23         4.8 0.34                           127  16 
 GRA  SZ ES   1    230  6.12                             136     0.3 7  127  16 
 OCA  SZ EP        229 49.49                             129     0.0 9  163 352 
 OCA  SZ I         230  8.29        10.6 0.58                           163 352 
                                                                                
