 2014 1115 0416 26.1 L   6.811 -73.160143.4  RSN  4 0.4 1.1LRSN                1
 GAP=237        1.11      10.1     8.7  9.5  0.4850E+02  0.1293E+02  0.1674E+02E
 Epicentro: LOS SANTOS - SANTANDER                                             3
 ACTION:UPD 14-12-19 15:43 OP:nd   STATUS:               ID:20141115041626 L   I
 OLDACT:DUP 14-11-15 17:47 OP:stll STATUS:               ID:20141115040743d    3
 2014-11-15-0407-42M.COL___289                                                 6
 STAT SP IPHASW D HRMM SECON CODA AMPLIT PERI AZIMU VELO AIN AR TRES W  DIS CAZ7
 BAR2 SZ EP        416 45.04                             170   -0.4510 24.3 186 
 BAR2 SZ ES        417  0.03                             170   -0.5710 24.3 186 
 BRR  HN ES        417  3.76                             153    0.6410 69.2 298 
 RUS  HZ EP        416 50.09                             143    0.3510  102 175 
 RUS  HN ES        417  8.51                             143    0.3510  102 175 
 RUS  HZ I         417  9.34         1.6 0.18            142            102 175 
 PTB  HZ EP        416 52.73                             132   -0.05 9  146 258 
 PTB  HN ES        417 13.26                             132   -0.31 9  146 258 
 PTB  HZ I         417 15.37         2.2 0.16            131            146 258 
                                                                                
