 2013  215 0123 23.7 L   6.763 -73.155145.9  RSN 11 0.5 2.4LRSN                1
 GAP= 72        1.15       4.1     3.7  6.6  0.7564E+00  0.3626E+01  0.4246E+01E
 Epicentro: LOS SANTOS - SANTANDER                                             3
 ACTION:UPD 13-03-12 09:33 OP:ep   STATUS:               ID:20130215012323 L   I
 2013-02-15-0120-00M.COL___241                                                 6
 STAT SP IPHASW D HRMM SECON CODA AMPLIT PERI AZIMU VELO AIN AR TRES W  DIS CAZ7
 BAR2 SZ EP        123 43.28                             172    0.0310 19.1 189 
 BAR2 SZ ES        123 57.69                             172   -0.8210 19.1 189 
 BAR2 SZ I         124  0.05        63.6 0.20            171           19.1 189 
 BRR  HZ EP        123 45.19                             152    0.2710 72.4 302 
 BRR  HN ES        124  2.63                             152    1.1610 72.4 302 
 PAM  SZ EP        123 46.23                             150    0.0810 81.2  38 
 PAM  SN ES        124  3.59                             150   -0.0710 81.2  38 
 PAM  SN I         124  4.51        37.7 0.52            152           81.2  38 
 RUS  HZ EP        123 47.03                             145   -0.1310 96.6 175 
 RUS  HN ES        124  5.87                             145    0.4010 96.6 175 
 RUS  HN I         124  7.24        38.9 0.40            145           96.6 175 
 PTB  HZ EP        123 49.99                             132   -0.52 9  146 260 
 PTB  HN ES        124 11.05                             132   -0.38 9  146 260 
 PTB  HN I         124 13.16        40.2 0.24            131            146 260 
 TAM  HZ IP     D  123 51.47                             131    0.10 9  155 103 
 TAM  HN ES        124 13.08                             131    0.12 9  155 103 
 TAM  HN I         124 13.80        26.6 0.32            132            155 103 
 OCA  HN ES   1    124 13.93                             129   -0.83 7  164 354 
 ZAR  HZ EP   1    123 55.94                             122   -0.27 6  205 293 
 ZAR  HN ES   1    124 21.20                             122   -0.38 6  205 293 
 ZAR  HN I         124 28.34        34.0 0.20            122            205 293 
 CHI  HZ EP        124  1.15                             118    0.22 8  244 195 
 CHI  HN ES        124 29.57                             118   -0.42 8  244 195 
 CHI  HN I         124 32.59        11.3 0.46            118            244 195 
 SML  HZ EP   2    124  0.81                             117    0.13 4  247 336 
 HEL  HZ EP   1    124  4.55                             115    0.86 6  270 257 
 HEL  HN ES   1    124 35.42                             115    0.53 6  270 257 
 HEL  HN I         124 43.00        12.8 0.34            115            270 257 
                                                                                
