 2012 1215 0858 41.5 L   6.747 -73.156150.9  RSN  5 0.3 1.3LRSN                1
 GAP=182        0.67       7.4     9.0  7.5  0.4817E+02  0.2095E+02  0.1447E+02E
 Epicentro: LOS SANTOS - SANTANDER                                             3
 ACTION:UPD 13-01-04 14:28 OP:ep   STATUS:               ID:20121215085841 L   I
 2012-12-15-0856-35M.COL___195                                                 6
 STAT SP IPHASW D HRMM SECON CODA AMPLIT PERI AZIMU VELO AIN AR TRES W  DIS CAZ7
 BAR2 SZ EP   1    859  1.38                             173   -0.29 7 17.4 190 
 BAR2 SZ ES   1    859 17.04                             173   -0.34 7 17.4 190 
 BAR2 SZ I         859 19.62         5.9 0.31                          17.4 190 
 GIR2 SZ ES   1    859 17.79                             166   -0.12 7 36.9 354 
 BRR  HZ EP   1    859  3.53                             153    0.19 7 73.2 303 
 BRR  HN ES   1    859 20.97                             153    0.61 7 73.2 303 
 BRR  HZ I         859 24.52         4.3 0.44                          73.2 303 
 RUS  HZ EP   1    859  5.58                             146    0.20 7 94.8 175 
 RUS  HN ES   1    859 24.07                             146    0.07 7 94.8 175 
 RUS  HZ I         859 25.39         2.2 0.30                          94.8 175 
 ZAR  HE ES   1    859 39.64                             123   -0.46 6  205 294 
                                                                                
