 2016  615 0420 11.1 L   6.822 -73.105152.5  RSN  8 0.4 1.7LRSN                1
 GAP=141        0.98       3.6     4.3  7.1 -0.1103E+01  0.5998E+01  0.2756E+01E
 Epicentro: LOS SANTOS - SANTANDER                                             3
 ACTION:UPD 16-07-21 22:19 OP:rebc STATUS:               ID:20160615042011 L   I
 OLDACT:UP  16-06-15 16:51 OP:dani STATUS:               ID:20160615041743     3
 OLDACT:UP  16-06-15 16:47 OP:dani STATUS:               ID:20160615041743     3
 OLDACT:UP  16-06-15 16:46 OP:dani STATUS:               ID:20160615041743     3
 OLDACT:UP  16-06-15 16:46 OP:dani STATUS:               ID:20160615041743     3
 OLDACT:UP  16-06-15 16:44 OP:dani STATUS:               ID:20160615041743     3
 OLDACT:REG 16-06-15 12:52 OP:dani STATUS:               ID:20160615041743     3
 2016-06-15-0417-43M.COL___319                                                 6
 STAT SP IPHASW D HRMM SECON CODA AMPLIT PERI AZIMU VELO AIN AR TRES W  DIS CAZ7
 BAR2 EZ EP     C  420 31.66                             170    0.0610 26.8 199 
 BAR2 EZ I         420 48.86         6.3 0.40                          26.8 199 
 PAM  EZ EP     C  420 34.27                             153    0.5110 72.7  38 
 PAM  EE ES        420 51.09                             153   -0.3510 72.7  38 
 PAM  EZ I         420 53.25         4.3 0.26                          72.7  38 
 BRR  HZ EP     C  420 33.48                             153    0.3410 74.2 295 
 BRR  HE ES        420 50.94                             153    0.6110 74.2 295 
 BRR  HZ I         420 54.38        10.0 0.10                          74.2 295 
 RUS  HZ EP        420 35.33                             145   -0.3310  103 179 
 RUS  HE ES        420 54.53                             145   -0.3010  103 179 
 RUS  HZ I         420 55.27         3.7 0.50                           103 179 
 PTB  HZ EP        420 38.62                             132   -0.44 9  153 258 
 PTB  HE ES        421  0.98                             132    0.11 9  153 258 
 PTB  HZ I         421  3.08         5.7 0.12                           153 258 
 OCA  HN ES        421  1.92                             131   -0.22 9  158 351 
 OCA  HZ I         421  5.95        14.4 0.18                           158 351 
 SPBC HZ EP        420 40.68                             130    0.12 9  168 220 
 SPBC HE ES        421  3.73                             130    0.19 9  168 220 
 SPBC HZ I         421  8.61         4.5 0.26                           168 220 
 ZAR  HZ EP        420 44.60                             123    0.27 8  207 291 
 ZAR  HE ES        421  9.49                             123   -0.75 8  207 291 
 ZAR  HZ I         421 15.73        12.5 0.30                           207 291 
                                                                                
