 2012  215 0744 42.7 L   6.772 -73.117151.6  RSN 13 0.4 2.1LRSN                1
 GAP=141        0.65       3.9     4.2  5.8 -0.2215E+01  0.4057E+01  0.8204E+01E
 ACTION:UP  12-03-07 16:30 OP:epov STATUS:               ID:20120215074442 L   I
 2012-02-15-0740-00M.COL___188                                                 6
 STAT SP IPHASW D HRMM SECON CODA AMPLIT PERI AZIMU VELO AIN AR TRES W  DIS CAZ7
 BAR2 SZ EP   1    745  2.86                             172   -0.19 7 21.1 200 
 BAR2 SZ ES   2    745 18.61                             172   -0.27 5 21.1 200 
 BAR2 SZ I         745 19.66        24.8 0.34                          21.1 200 
 GIR2 SZ EP   1    745  3.04                             166   -0.18 7 35.0 346 
 GIR2 SZ ES   2    745 19.71                             166    0.52 5 35.0 346 
 BRR  HZ EP   1    745  4.78                             152    0.01 7 75.5 299 
 BRR  HZ I         745  5.11        29.9 0.16                          75.5 299 
 BRR  HE ES   1    745 22.36                             152    0.41 7 75.5 299 
 PAM  SZ EP   1    745  6.05                             152    0.42 7 77.9  36 
 PAM  SN ES   2    745 23.21                             152   -0.26 5 77.9  36 
 RUS  HZ EP   1    745  6.50                             146   -0.35 7 97.3 178 
 RUS  HN ES   2    745 25.61                             146   -0.04 5 97.3 178 
 RUS  HZ I         745 27.32        10.3 0.42                          97.3 178 
 PTB  HZ EP   1    745  9.49                             133   -0.94 7  150 260 
 PTB  HE ES   2    745 31.66                             133   -0.36 5  150 260 
 ZAR  HZ EP   2    745 16.09                             123    0.09 4  208 293 
 ZAR  HN ES   2    745 41.68                             123   -0.26 4  208 293 
 ZAR  HZ I         745 48.04        18.7 0.27                           208 293 
 NOR  SZ EP   2    745 18.61                             120   -0.30 4  235 236 
 NOR  SN ES   2    745 46.52                             120   -0.59 4  235 236 
 CHI  HZ EP   1    745 21.07                             119    0.52 6  246 196 
 CHI  HN ES   2    745 50.36                             119    0.33 4  246 196 
 CHI  HZ I         745 56.17         5.8 0.64                           246 196 
 ROSC BN ES   2    745 51.26                             118    0.28 4  252 212 
 ROSC BZ I         745 56.22        12.1 0.44                           252 212 
 HEL  HZ EP   2    745 24.54                             116    1.02 4  274 257 
 HEL  HN ES   2    745 55.76                             116    0.44 4  274 257 
 HEL  HZ I         746  1.96         5.7 0.50                           274 257 
 RREF HZ EP   2    745 29.72                             112    0.53 3  322 230 
 RREF HN ES   2    746  6.15                             112    0.73 3  322 230 
 RREF HZ I         746 14.15         6.9 0.40                           322 230 
 PRA  HZ EP   2    745 36.41                             108    0.07 3  391 210 
 PRA  HN ES   2    746 18.35                             108    0.21 3  391 210 
                                                                                
