 2011 1115 0417 31.4 L   6.779 -73.132152.6  RSN  7 0.4 1.9LRSN                1
 GAP=139        0.86       4.2     5.5  7.2 -0.2042E+01  0.1231E+02 -0.1447E+01E
 Epicentro: LOS SANTOS - SANTANDER                                             3
 ACTION:UPD 12-07-13 16:10 OP:ep   STATUS:               ID:20111115041731 L   I
 2011-11-15-0416-00S.COL___177                                                 6
 STAT SP IPHASW D HRMM SECON CODA AMPLIT PERI AZIMU VELO AIN AR TRES W  DIS CAZ7
 BAR2 SZ EP   1    417 51.97                             172    0.21 7 21.4 195 
 BAR2 SZ ES   1    418  7.24                             172   -0.44 7 21.4 195 
 BAR2 SZ I         418 10.66        10.6 0.26                          21.4 195 
 BRR  HZ EP        417 54.01                             153    0.6410 73.7 300 
 BRR  HZ I         417 55.54        18.5 0.12                          73.7 300 
 BRR  HN ES   1    418 11.15                             153    0.60 7 73.7 300 
 PAM  SZ EP   1    417 54.70                             152    0.36 7 78.2  38 
 PAM  SZ I         417 55.18        10.4 0.18                          78.2  38 
 PAM  SN ES   1    418 11.80                             152   -0.48 7 78.2  38 
 RUS  HZ EP   1    417 55.30                             146   -0.31 7 98.2 177 
 RUS  HN ES   1    418 14.75                             146    0.22 7 98.2 177 
 RUS  HZ I         418 16.45         5.3 0.40                          98.2 177 
 OCA  SZ EP   1    417 59.89                             131   -0.54 7  163 353 
 OCA  SZ ES   1    418 22.80                             131   -0.31 7  163 353 
 OCA  SZ I         418 26.98         9.6 0.27                           163 353 
 ZAR  HZ EP   1    418  4.67                             123    0.19 6  206 293 
 ZAR  HN ES   1    418 30.00                             123   -0.32 6  206 293 
 ZAR  HZ I         418 36.52        11.9 0.37                           206 293 
 NOR  SZ EP   1    418  7.26                             120   -0.21 6  235 235 
 NOR  SN ES   1    418 35.10                             120   -0.55 6  235 235 
                                                                                
