 2016 1015 0359 33.7 L   6.767 -73.211143.3  RSN  5 0.5 1.2LRSN                1
 GAP=226        1.29       7.7     8.6  9.8  0.1887E+02  0.1778E+02  0.1212E+02E
 Epicentro: ZAPATOCA - SANTANDER                                               3
 ACTION:UPD 16-11-09 19:19 OP:rebc STATUS:               ID:20161015035933 L   I
 OLDACT:REG 16-10-15 12:53 OP:ar   STATUS:               ID:20161015035745     3
 2016-10-15-0358-00M.COL___365                                                 6
 STAT SP IPHASW D HRMM SECON CODA AMPLIT PERI AZIMU VELO AIN AR TRES W  DIS CAZ7
 BAR2 EZ ES        4 0  7.38                             172   -0.6310 19.6 171 
 BAR2 EZ I         4 0  9.98         4.9 0.30            169           19.6 171 
 BRR  HZ EP        359 54.49                             153    0.1210 66.9 304 
 BRR  HN ES        4 0 11.15                             153    0.6810 66.9 304 
 RUS  HZ EP        359 57.01                             144   -0.0110 97.7 172 
 RUS  HN ES        4 0 15.36                             144    0.1610 97.7 172 
 RUS  HZ I         4 0 16.39         1.4 0.34            144           97.7 172 
 PTB  HZ EP        359 59.95                             133    0.17 9  140 260 
 PTB  HN ES        4 0 19.27                             133   -0.85 9  140 260 
 PTB  HZ I         4 0 22.95         2.0 0.16            133            140 260 
 SPBC HZ EP        4 0  0.93                             130   -0.40 9  156 218 
 SPBC HN ES        4 0 23.61                             130    0.74 9  156 218 
 SPBC HZ I         4 0 27.04         2.7 0.22            129            156 218 
                                                                                
