 2012 1215 0336 38.0 L   6.872 -73.157146.3  RSN  4 0.4 1.2LRSN                1
 GAP=243        0.76      10.7     8.1  9.1  0.4291E+02  0.7675E+01 -0.3689E+00E
 Epicentro: LOS SANTOS - SANTANDER                                             3
 ACTION:UPD 13-01-04 14:27 OP:ep   STATUS:               ID:20121215033638 L   I
 2012-12-15-0330-03M.COL___210                                                 6
 STAT SP IPHASW D HRMM SECON CODA AMPLIT PERI AZIMU VELO AIN AR TRES W  DIS CAZ7
 BAR2 SZ EP   1    336 58.02                             168    0.18 7 31.0 185 
 BAR2 SZ ES   1    337 14.00                             168    0.66 7 31.0 185 
 BAR2 SZ I         337 15.74         4.2 0.18                          31.0 185 
 BRR  HE ES   2    337 14.44                             154   -0.83 5 66.6 293 
 RUS  HZ EP   1    337  2.18                             142   -0.18 7  109 176 
 RUS  HN ES   1    337 20.98                             142   -0.41 7  109 176 
 RUS  HZ I         337 21.93         1.2 0.42                           109 176 
 PTB  HZ EP   1    337  5.00                             133   -0.02 7  148 256 
 PTB  HE ES   1    337 26.28                             133    0.15 7  148 256 
 PTB  HZ I         337 31.97         2.4 0.26                           148 256 
                                                                                
