 2013  515 0601  2.6 L   6.768 -73.174152.6  RSN  4 0.5 1.2LRSN                1
 GAP=232        1.06      10.1     9.3 12.6  0.3893E+02  0.1980E+02 -0.2025E+02E
 Epicentro: LOS SANTOS - SANTANDER                                             3
 ACTION:UPD 13-06-20 09:50 OP:ep   STATUS:               ID:20130515060102 L   I
 2013-05-15-0600-00M.COL___256                                                 6
 STAT SP IPHASW D HRMM SECON CODA AMPLIT PERI AZIMU VELO AIN AR TRES W  DIS CAZ7
 BAR2 SZ EP   1    6 1 22.73                             172   -0.22 7 19.5 183 
 BAR2 SZ ES   1    6 1 37.85                             172   -1.00 7 19.5 183 
 BAR2 SZ I         6 1 40.49         3.9 0.28            179           19.5 183 
 BRR  HZ EP   1    6 1 24.56                             154    0.15 7 70.3 302 
 BRR  HN ES   1    6 1 42.16                             154    0.71 7 70.3 302 
 BRR  HZ I         6 1 45.82         2.6 0.28            154           70.3 302 
 RUS  HN ES        6 1 46.10                             146    0.4510 97.3 174 
 PTB  HZ EP   1    6 1 29.69                             134   -0.08 7  144 260 
 PTB  HN ES        6 1 50.76                             134   -0.23 9  144 260 
                                                                                
