 2011 1115 0549 45.2 L   6.777 -73.116146.7  RSN 13 0.5 2.3LRSN                1
 GAP=141        0.82       3.1     4.6  5.5 -0.1989E+01  0.8388E+01  0.2295E+01E
 Epicentro: LOS SANTOS - SANTANDER                                             3
 ACTION:UPD 12-07-13 16:10 OP:ep   STATUS:               ID:20111115054945 L   I
 2011-11-15-0548-12S.COL___179                                                 6
 STAT SP IPHASW D HRMM SECON CODA AMPLIT PERI AZIMU VELO AIN AR TRES W  DIS CAZ7
 BAR2 SZ EP   1    550  5.19                             171    0.24 7 21.7 200 
 BAR2 SZ ES   1    550 20.50                             171    0.17 7 21.7 200 
 BAR2 SZ I         550 21.75        73.0 0.25                          21.7 200 
 BRR  HZ IP     C  550  7.08                             151    0.3610 75.3 299 
 BRR  HZ I         550  7.33        57.1 0.13                          75.3 299 
 BRR  HN ES   1    550 24.20                             151    0.72 7 75.3 299 
 PAM  SZ EP   1    550  7.64                             151    0.09 7 77.3  36 
 PAM  SN ES   1    550 24.59                             151   -0.36 7 77.3  36 
 PAM  SZ I         550 27.45         4.3 0.20                          77.3  36 
 RUS  HZ EP   1    550  9.06                             145    0.17 7 97.9 178 
 RUS  HN ES   1    550 27.25                             145   -0.09 7 97.9 178 
 RUS  HZ I         550 29.04        31.2 0.28                          97.9 178 
 OCA  SZ EP   1    550 13.82                             129   -0.07 7  163 352 
 OCA  SZ ES   1    550 35.74                             129   -0.50 7  163 352 
 OCA  SZ I         550 42.48        17.6 0.25                           163 352 
 ZAR  HZ EP   1    550 17.75                             122   -0.40 6  208 292 
 ZAR  HN ES   1    550 43.31                             122   -0.52 6  208 292 
 ZAR  HZ I         550 49.19        26.6 0.26                           208 292 
 NOR  SZ EP   1    550 20.73                             119   -0.42 6  236 235 
 NOR  SN ES   1    550 48.25                             119   -0.92 6  236 235 
 CHI  HZ EP   1    550 22.86                             117    0.04 6  247 196 
 CHI  HN ES   1    550 51.13                             117   -1.01 6  247 196 
 CHI  HZ I         550 56.72         8.8 0.47                           247 196 
 HEL  HZ EP   1    550 26.54                             115    0.76 6  275 256 
 HEL  HN ES   1    550 57.80                             115    0.39 6  275 256 
 HEL  HZ I         551  3.20         9.4 0.30                           275 256 
 RREF HZ EP   1    550 31.89                             111    0.37 5  323 230 
 TOL  SZ EP   1    550 34.08                             109    0.49 5  344 225 
 COD  HZ EP   1    550 33.46                             109   -0.51 5  351 354 
 PRA  HZ EP   1    550 39.21                             107    0.49 4  391 210 
 PRA  HN ES   1    551 20.59                             107    0.14 4  391 210 
 PRA  HZ I         551 24.91        26.3 0.23                           391 210 
                                                                                
