 2014  415 0041  3.3 L   6.824 -73.161141.8  RSN 15 0.4 2.1LRSN                1
 GAP=133        0.84       2.1     3.3  5.5 -0.1185E+01  0.5344E+01  0.5226E+00E
 Epicentro: LOS SANTOS - SANTANDER                                             3
 ACTION:UPD 14-05-13 23:08 OP:nd   STATUS:               ID:20140415004103 L   I
 OLDACT:REG 14-04-15 13:09 OP:nd   STATUS:               ID:20140415004042     3
 2014-04-15-0040-42M.COL___252                                                 6
 STAT SP IPHASW D HRMM SECON CODA AMPLIT PERI AZIMU VELO AIN AR TRES W  DIS CAZ7
 PAM  SZ EP        041 25.35                             150    0.2810 76.4  42 
 PAM  SN ES        041 42.16                             150    0.1410 76.4  42 
 PAM  SZ I         041 43.13        15.0 0.24            157           76.4  42 
 RUS  HZ EP        041 26.89                             142   -0.0210  103 175 
 RUS  HN ES        041 45.09                             142   -0.2110  103 175 
 RUS  HZ I         041 46.94        11.2 0.32            145            103 175 
 PTB  HZ EP        041 29.43                             131   -0.46 9  147 258 
 PTB  HN ES        041 50.11                             131   -0.49 9  147 258 
 PTB  HZ I         041 57.58        14.8 0.54            131            147 258 
 OCA  HZ EP        041 30.67                             129   -0.40 9  157 354 
 OCA  HN ES        041 53.21                             129    0.51 9  157 354 
 OCA  HZ I         041 57.25        19.0 0.34            132            157 354 
 SPBC HZ EP        041 31.84                             128    0.20 9  164 218 
 SPBC HN ES        041 53.42                             128   -0.30 9  164 218 
 SPBC HZ I         042  0.79        19.6 0.20            129            164 218 
 ZAR  HZ EP        041 35.64                             122    0.37 9  202 292 
 ZAR  HN ES        042  0.80                             122    0.63 9  202 292 
 ZAR  HZ I         042  6.13        14.9 0.30            123            202 292 
 NOR  HZ EP        041 38.98                             118    0.11 8  235 234 
 NOR  HN ES        042  6.52                             118   -0.06 8  235 234 
 NOR  HZ I         042 12.98        10.0 0.34            119            235 234 
 SML  HZ EP        041 38.71                             117   -0.70 8  241 335 
 SML  HN ES        042  7.08                             117   -0.45 8  241 335 
 SML  HZ I         042 13.25        21.9 0.28            119            241 335 
 CHI  HZ EP        041 41.11                             116    0.05 8  251 195 
 CHI  HN ES        042 10.75                             116    0.27 8  251 195 
 CHI  HZ I         042 15.48         5.4 0.20            119            251 195 
 ROSC BZ EP   4    041 42.90                             116    1.49 0  254 210 
 ROSC BN ES   4    042 14.70                             116    3.60 0  254 210 
 ROSC BZ I         042 19.65        14.5 0.40            118            254 210 
 HEL  HZ EP   1    041 43.48                             114    0.23 6  271 255 
 HEL  HN ES   1    042 14.78                             114    0.40 6  271 255 
 HEL  HZ I         042 22.86         3.7 0.36            115            271 255 
 URE  HZ EP   4    041 42.72                             113   -1.22 0  281 292 
 URE  HN ES   4    042 13.15                             113   -2.45 0  281 292 
 URE  HZ I         042 17.61         6.7 0.12            114            281 292 
 GUY2CHZ EP   4    041 48.76                             111    1.96 0  301 234 
 GUY2CHN ES   4    042 21.44                             111    0.75 0  301 234 
 GUY2CHZ I         042 30.84         6.8 0.46                           301 234 
 PRA  HZ EP        041 57.22                             106    0.31 6  394 209 
 PRA  HN ES        042 39.01                             106    0.32 6  394 209 
 PRA  HZ I         042 45.43         6.5 0.40            108            394 209 
 SJC  HZ EP   4    041 56.63                             105   -1.77 0  406 327 
 SJC  HN ES   4    042 37.95                             105   -3.40 0  406 327 
 SJC  HZ I         042 48.30         2.6 0.44            107            406 327 
                                                                                
