 2015 1115 0049 45.8 L   6.091 -73.779106.0  RSN  6 0.4 1.7LRSN                1
 GAP=164        0.76       3.5     3.8  9.4 -0.3513E+01  0.1263E+02 -0.2008E+01E
 Epicentro: EL PENON - SANTANDER                                               3
 ACTION:UPD 15-12-28 16:10 OP:cam  STATUS:               ID:20151115004945 L   I
 OLDACT:UP  15-11-15 14:18 OP:dnl  STATUS:               ID:20151115004748     3
 OLDACT:UP  15-11-15 14:15 OP:dnl  STATUS:               ID:20151115004748     3
 OLDACT:REG 15-11-15 11:38 OP:dnl  STATUS:               ID:20151115004748     3
 2015-11-15-0047-48M.COL___322                                                 6
 STAT SP IPHASW D HRMM SECON CODA AMPLIT PERI AZIMU VELO AIN AR TRES W  DIS CAZ7
 SPBC HZ EP        050  1.95                             149   -0.1010 58.4 214 
 SPBC HZ I         050 12.69        17.8 0.10            144           58.4 214 
 SPBC HN ES   2    050 14.20                             149   -0.55 5 58.4 214 
 BAR2 EZ EP        050  4.32                             138    0.0410 86.2  50 
 BAR2 EZ ES   2    050 18.46                             138   -0.27 5 86.2  50 
 BAR2 EZ I         050 20.52        16.1 0.26            141           86.2  50 
 BRR  HZ EP   2    050  6.53                             129    0.24 5  113   4 
 BRR  HN ES        050 22.42                             129    0.1110  113   4 
 NOR  HZ EP        050  8.79                             124    0.3210  134 244 
 NOR  HN ES   2    050 27.37                             124    1.20 5  134 244 
 NOR  HZ I         050 29.70         9.5 0.16            123            134 244 
 HEL  HN ES        050 37.81                             113   -0.52 9  194 273 
 HEL  HZ I         050 42.34         2.6 0.30            114            194 273 
 ZAR  HZ EP        050 14.71                             113   -0.30 9  196 322 
 ZAR  HZ I         050 16.87         4.4 0.10            115            196 322 
 ZAR  HE ES        050 38.02                             113    0.20 9  196 322 
                                                                                
