 2012  515 0632  0.7 L   6.902 -73.056143.8  RSN  5 0.3 1.5LRSN                1
 GAP=193        0.61       5.5     9.5  8.1  0.3085E+02 -0.6064E+01 -0.7994E+01E
 Epicentro: PIEDECUESTA - SANTANDER                                            3
 ACTION:UP  12-07-05 12:05 OP:pat  STATUS:               ID:20120515063200 L   I
 2012-05-15-0630-00M.COL___195                                                 6
 STAT SP IPHASW D HRMM SECON CODA AMPLIT PERI AZIMU VELO SNR AR TRES W  DIS CAZ7
 BAR2 SZ EP   1    632 20.92                             165     0.5 7   37 202 
 BAR2 SZ ES   1    632 36.03                             165     0.2 7   37 202 
 BAR2 SZ I         632 37.71         9.3 0.18                            37 202 
 BRR  HZ EP   1    632 21.73                             151    -0.2 7   76 287 
 BRR  HN ES   2    632 38.58                             151     0.1 5   76 287 
 BRR  HZ I         632 44.55         6.0 0.12                            76 287 
 RUS  HZ EP   1    632 25.11                             140     0.0 7  112 182 
 RUS  HN ES   1    632 43.72                             140    -0.4 7  112 182 
 RUS  HZ I         632 45.43         2.6 0.40                           112 182 
 OCA  HN ES   2    632 48.92                             131    -0.3 5  151 349 
 ZAR  HN ES   2    632 59.20                             121     0.0 4  210 288 
                                                                                
