 2013 1015 0420 13.4 L   6.788 -73.147146.0  RSN 10 0.5 1.6LRSN                1
 GAP=137        1.27       4.3     5.8  8.3 -0.3747E+01  0.8014E+01 -0.1826E+00E
 Epicentro: LOS SANTOS - SANTANDER                                             3
 ACTION:UPD 13-11-25 09:21 OP:ep   STATUS:               ID:20131015042013 L   I
 OLDACT:REG 13-10-15 08:01 OP:jn   STATUS:               ID:20131015041959     3
 2013-10-15-0419-59M.COL___274                                                 6
 STAT SP IPHASW D HRMM SECON CODA AMPLIT PERI AZIMU VELO AIN AR TRES W  DIS CAZ7
 BAR2 SZ EP        420 33.19                             171    0.1810 22.0 190 
 BAR2 SZ ES   1    420 48.93                             171    0.61 7 22.0 190 
 BAR2 SZ I         420 50.50        10.0 0.18            171           22.0 190 
 BRR  HZ EP        420 35.03                             152    0.4510 71.7 299 
 BRR  HN ES        420 51.93                             152    0.8110 71.7 299 
 BRR  HZ I         420 55.08         4.7 0.12            151           71.7 299 
 PAM  SZ EP        420 36.11                             150    0.4310 78.5  39 
 PAM  SN ES        420 52.66                             150   -0.4210 78.5  39 
 PAM  SZ I         420 55.39         8.7 0.56            153           78.5  39 
 RUS  HZ EP        420 37.44                             144    0.3810 99.3 176 
 RUS  HN ES        420 54.79                             144   -0.7410 99.3 176 
 RUS  HZ I         420 56.83         3.3 0.32            146           99.3 176 
 PTB  HZ EP        420 40.24                             132   -0.09 9  147 259 
 PTB  HN ES        421  0.95                             132   -0.40 9  147 259 
 PTB  HZ I         421  2.95         4.9 0.10            132            147 259 
 SPBC HZ EP        420 42.16                             129    0.37 9  162 219 
 SPBC HE ES        421  3.30                             129   -0.65 9  162 219 
 SPBC HZ I         421  5.03         4.5 0.18            130            162 219 
 OCA  HE ES        421  3.34                             129   -0.67 9  162 353 
 OCA  HZ I         421  7.56         3.9 0.16            131            162 353 
 ZAR  HE ES   1    421 11.40                             122    0.18 6  204 292 
 ZAR  HZ I         421 17.88         6.9 0.52            123            204 292 
 SML  HZ EP        420 49.47                             117   -0.66 8  245 335 
 CHI  HE ES   2    421 20.95                             117    0.70 4  247 195 
 CHI  HZ I         421 26.38         1.7 0.36            119            247 195 
                                                                                
