 2013  115 0417  3.5 L   6.809 -73.154141.4  RSN 15 0.5 2.7LRSN 3.3WRSN        1
 SPEC AVERAGE  MO 14.0 ST  1.6 OM  2.9 f0 2.15 R0.7134 AL 1.65 WI 14.5 MW  3.3 3
 SPEC SD       MO  0.1 ST  1.1 OM  0.6 f00.468 R0.1445 AL      WI      MW  0.1 3
 GAP=135        0.97       3.5     4.6  6.2  0.1823E+00  0.8225E+01  0.4580E+01E
 Epicentro: LOS SANTOS - SANTANDER                                             3
 SPEC ZAR HH N MO 14.1 ST  2.4 OM  2.3 f0 2.41 R0.6100 AL 1.35 WI 17.0 MW  3.3 3
 SPEC ZAR HH N T 418 0 K 0.000 GD  247 VS 4.20 DE 3.20 Q0300.0 QA 0.60 VS 4.20 3
 SPEC PTB HH N MO 14.0 ST  1.2 OM  2.3 f0 2.06 R0.7136 AL 1.50 WI 13.2 MW  3.3 3
 SPEC PTB HH N T 41749 K 0.000 GD  203 VS 4.20 DE 3.20 Q0300.0 QA 0.60 VS 4.20 3
 SPEC RUS HH N MO 13.7 ST0.345 OM  2.1 f0 1.66 R0.8855 AL 1.70 WI 10.6 MW  3.1 3
 SPEC RUS HH N T 41744 K 0.000 GD  174 VS 4.20 DE 3.20 Q0300.0 QA 0.60 VS 4.20 3
 SPEC CHI HH N MO 14.1 ST0.794 OM  2.2 f0 1.72 R0.8547 AL 2.11 WI 19.6 MW  3.3 3
 SPEC CHI HH N T 418 9 K 0.000 GD  286 VS 4.20 DE 3.20 Q0300.0 QA 0.60 VS 4.20 3
 SPEC BRR HH N MO 14.0 ST  3.4 OM  2.4 f0 2.92 R0.5034 AL 1.61 WI 12.0 MW  3.3 3
 SPEC BRR HH N T 41739 K 0.000 GD  157 VS 4.20 DE 3.20 Q0300.0 QA 0.60 VS 4.20 3
 ACTION:UPD 13-02-15 09:14 OP:ep   STATUS:               ID:20130115041703 L   I
 2013-01-15-0415-42M.COL___181                                                 6
 STAT SP IPHASW D HRMM SECON CODA AMPLIT PERI AZIMU VELO AIN AR TRES W  DIS CAZ7
 BAR2 SZ EP   1    417 22.64                             170    0.07 7 24.2 188 
 BAR2 SZ ES   1    417 37.12                             170   -0.37 7 24.2 188 
 BAR2 SZ I         417 38.55       114.3 0.20            161           24.2 188 
 BRR  HZ IP     C  417 24.47                             152    0.4110 70.0 298 
 BRR  HN ES   1    417 41.28                             152    1.15 7 70.0 298 
 BRR  HZ I         417 44.52       100.2 0.30            142           70.0 298 
 PAM  SZ EP     C  417 25.39                             150    0.2010 77.2  41 
 PAM  SN ES   1    417 42.34                             150    0.19 7 77.2  41 
 PAM  SZ I         417 44.82       110.3 0.58            144           77.2  41 
 RUS  HZ EP   1    417 26.69                             143   -0.16 7  102 176 
 RUS  HN ES   1    417 44.80                             143   -0.30 7  102 176 
 RUS  HZ I         417 45.97        25.5 0.32            129            102 176 
 PTB  HZ EP   1    417 29.25                             131   -0.76 7  147 258 
 PTB  HN ES   1    417 50.09                             131   -0.63 7  147 258 
 PTB  HZ I         417 52.46        84.2 0.26            119            147 258 
 OCA  HZ EP   1    417 30.87                             129   -0.45 7  159 353 
 OCA  HN ES   1    417 52.23                             129   -0.83 7  159 353 
 OCA  HZ I         417 55.85        97.2 0.28            119            159 353 
 ZAR  HZ EP   1    417 35.23                             122   -0.26 6  203 292 
 ZAR  HN ES   1    418  0.89                             122    0.41 6  203 292 
 ZAR  HZ I         418  6.90       113.7 0.50            111            203 292 
 CHI  HZ EP   1    417 40.92                             116   -0.07 6  249 195 
 CHI  HN ES   1    418  9.78                             116   -0.49 6  249 195 
 CHI  HZ I         418 16.27        22.2 0.32            105            249 195 
 ROSC BZ EP   1    417 42.33                             116    0.95 6  253 211 
 ROSC BZ I         418 18.63        45.7 0.30            105            253 211 
 HEL  HZ EP   1    417 43.56                             114    0.18 6  271 256 
 HEL  HN ES   1    418 14.22                             114   -0.30 6  271 256 
 HEL  HZ I         418 21.12        40.6 0.34            104            271 256 
 URE  HZ EP   1    417 43.70                             113   -0.48 6  283 292 
 VIL  SZ EP   1    417 46.38                             111   -0.39 5  304 191 
 VIL  SE ES   1    418 20.70                             111    0.15 5  304 191 
 VIL  SZ I         418 26.27        33.7 0.38            101            304 191 
 RREF HZ EP   1    417 50.52                             110    1.11 5  322 229 
 RREF HZ I         418 31.30        25.3 0.56            100            322 229 
 DBB  SZ EP   1    417 50.60                             109   -0.05 5  339 274 
 SJA  SZ EP   1    417 58.69                             105    0.74 4  401 193 
                                                                                
