 2015 1215 0406 17.5 L   6.899 -73.125141.5  RSN  5 0.3 1.4LRSN                1
 GAP=283        0.71       6.0     4.4  5.6 -0.7454E+00  0.8465E+01 -0.3711E+01E
 Epicentro: PIEDECUESTA - SANTANDER                                            3
 ACTION:UPD 16-02-04 15:05 OP:cam  STATUS:               ID:20151215040617 L   I
 OLDACT:REG 15-12-15 13:06 OP:cara STATUS:               ID:20151215035743     3
 2015-12-15-0357-43M.COL___328                                                 6
 STAT SP IPHASW D HRMM SECON CODA AMPLIT PERI AZIMU VELO AIN AR TRES W  DIS CAZ7
 BAR2 EZ EP        4 6 37.43                             166    0.4810 34.5 191 
 BAR2 EZ IP        4 6 37.59                             166           34.5 191 
 BAR2 EZ ES        4 6 52.10                             166    0.0210 34.5 191 
 BAR2 EZ I         4 6 53.88         5.4 0.24            162           34.5 191 
 RUS  HZ EP        4 6 41.54                             140   -0.1610  111 178 
 RUS  HE ES        4 7  0.43                             140   -0.1110  111 178 
 RUS  HZ I         4 7  1.22         2.4 0.38            141            111 178 
 PTB  HZ EP        4 6 44.11                             130   -0.50 9  152 255 
 PTB  HN ES        4 7  5.69                             130   -0.02 9  152 255 
 PTB  HZ I         4 7 12.65         3.8 0.42            129            152 255 
 SPBC HZ EP        4 6 46.55                             126   -0.14 9  173 217 
 SPBC HN ES        4 7  9.33                             126   -0.10 9  173 217 
 SPBC HZ I         4 7 16.48         4.3 0.28            127            173 217 
 GUY2CHZ EP        4 7  2.29                             111    0.39 7  309 233 
 GUY2CHN ES        4 7 36.89                             111    0.39 7  309 233 
 GUY2CHZ I         4 7 44.12         1.3 0.40                           309 233 
                                                                                
