 2014 1215 0512 37.7 L   6.794 -73.128145.3  RSN  8 0.5 1.4LRSN                1
 GAP=229        1.11       5.7     6.2  8.8  0.1398E+02  0.6685E+01 -0.9177E+01E
 Epicentro: LOS SANTOS - SANTANDER                                             3
 ACTION:UPD 15-02-10 17:03 OP:nd   STATUS:               ID:20141215051237 L   I
 OLDACT:REG 14-12-15 13:03 OP:fm   STATUS:               ID:20141215050742     3
 2014-12-15-0507-42M.COL___288                                                 6
 STAT SP IPHASW D HRMM SECON CODA AMPLIT PERI AZIMU VELO AIN AR TRES W  DIS CAZ7
 BAR2 EZ EP   1    512 57.56                             171    0.30 7 23.1 195 
 BRR  HZ EP        512 59.27                             152    0.3710 73.2 298 
 BRR  HN ES        513 16.03                             152    0.5810 73.2 298 
 BRR  HZ I         513 23.40         3.2 0.16            151           73.2 298 
 RUS  HZ EP        513  1.28                             144   -0.0510 99.8 177 
 RUS  HE ES        513 19.16                             144   -0.6210 99.8 177 
 RUS  HZ I         513 21.22         1.7 0.18            149           99.8 177 
 PTB  HZ EP        513  5.22                             132    0.44 9  150 259 
 PTB  HE ES        513 25.81                             132   -0.10 9  150 259 
 PTB  HZ I         513 28.41         3.2 0.40            134            150 259 
 SPBC HN ES        513 28.32                             129   -0.15 9  164 220 
 SPBC HZ I         513 32.63         5.3 0.42            133            164 220 
 ZAR  HZ EP        513  9.92                             122   -0.39 8  206 292 
 ZAR  HN ES        513 35.33                             122   -0.43 8  206 292 
 ZAR  HZ I         513 41.00         2.6 0.30            125            206 292 
 HEL  HZ EP        513 18.36                             115    0.30 8  274 256 
 HEL  HE ES        513 50.12                             115    0.56 8  274 256 
 HEL  HZ I         513 55.75         1.9 0.30            118            274 256 
 MON  HN ES        514  4.03                             108   -1.24 6  356 308 
 MON  HZ I         514  7.72         0.7 0.40            111            356 308 
                                                                                
