 2017  915 0359 14.9 L   6.787 -73.111144.0  RSN  4 0.1 1.2LRSN                1
 GAP=142        0.41       2.2     3.2  3.5 -0.1523E+00 -0.7119E+00  0.6337E+00E
 Epicentro: LOS SANTOS - SANTANDER                                             3
 ACTION:UPD 17-10-05 19:12 OP:rebc STATUS:               ID:20170915035914 L   I
 OLDACT:REG 17-09-15 13:02 OP:mg   STATUS:               ID:20170915035740     3
 2017-09-15-0358-00M.COL___459                                                 6
 STAT SP IPHASW D HRMM SECON CODA AMPLIT PERI AZIMU VELO AIN AR TRES W  DIS CAZ7
 BAR2 EZ EP        359 34.07                             171   -0.2110 22.9 200 
 BAR2 EZ ES   1    359 49.25                             171   -0.16 7 22.9 200 
 BAR2 EZ I         359 50.15         3.3 0.24            171           22.9 200 
 BRR  HZ EP        359 35.95                             151   -0.1110 75.3 298 
 BRR  HN ES        359 52.73                             151    0.1410 75.3 298 
 BRR  HZ I         359 56.84         4.3 0.12            150           75.3 298 
 PAM  EZ EP        359 36.87                             151    0.0510 76.2  37 
 PAM  EN ES        359 53.98                             151    0.0310 76.2  37 
 PAM  EZ I         359 56.15         4.7 0.56            153           76.2  37 
 RUS  HZ EP        359 38.49                             144    0.1710 98.9 178 
 RUS  HE ES        359 56.65                             144    0.0310 98.9 178 
 RUS  HZ I         359 58.09         1.6 0.30            147           98.9 178 
                                                                                
