 2012 1115 0400 34.9 L   6.795 -73.141145.8  RSN 12 0.4 2.1LRSN                1
 GAP=137        0.84       3.4     4.8  6.0  0.1263E+01  0.8253E+01  0.4212E+01E
 Epicentro: LOS SANTOS - SANTANDER                                             3
 ACTION:UPD 12-12-05 15:33 OP:}ep  STATUS:               ID:20121115040034 L   I
 2012-11-15-0400-00M.COL___230                                                 6
 STAT SP IPHASW D HRMM SECON CODA AMPLIT PERI AZIMU VELO AIN AR TRES W  DIS CAZ7
 BAR2 SZ EP   1    4 0 54.49                             171   -0.05 7 22.9 191 
 BAR2 SZ ES   1    4 1  9.52                             171   -0.33 7 22.9 191 
 BAR2 SZ I         4 1 10.44        52.9 0.32                          22.9 191 
 GIR2 SZ EP   1    4 0 54.68                             167    0.07 7 31.9 350 
 GIR2 SZ ES   1    4 1  9.90                             167   -0.07 7 31.9 350 
 BRR  HZ EP        4 0 56.45                             152    0.3510 71.9 299 
 BRR  HE ES   1    4 1 13.46                             152    0.83 7 71.9 299 
 BRR  HZ I         4 1 16.68        23.6 0.16                          71.9 299 
 PAM  SZ EP   1    4 0 57.47                             151    0.33 7 77.5  39 
 PAM  SN ES   1    4 1 14.54                             151    0.06 7 77.5  39 
 PAM  SZ I         4 1 16.30        18.7 0.58                          77.5  39 
 RUS  HZ EP   1    4 0 58.41                             144   -0.21 7100.0 176 
 RUS  HE ES   1    4 1 16.92                             144   -0.20 7100.0 176 
 RUS  HZ I         4 1 17.88        10.1 0.32                         100.0 176 
 PTB  HZ EP   1    4 1  1.21                             132   -0.70 7  148 259 
 PTB  HN ES   1    4 1 22.51                             132   -0.46 7  148 259 
 PTB  HZ I         4 1 25.60        17.5 0.16                           148 259 
 OCA  HN ES   1    4 1 25.30                             129   -0.11 7  161 353 
 ZAR  HN ES   1    4 1 32.99                             122    0.21 6  205 292 
 ZAR  HZ I         4 1 34.73        14.8 0.10                           205 292 
 SML  HE ES   1    4 1 39.15                             117   -1.09 6  244 335 
 CHI  HZ EP   1    4 1 12.56                             117    0.00 6  248 195 
 CHI  HN ES   1    4 1 41.99                             117    0.06 6  248 195 
 CHI  HZ I         4 1 49.89         3.5 0.56                           248 195 
 HEL  HZ EP   1    4 1 16.12                             115    0.96 6  272 256 
 HEL  HZ I         4 1 54.86         8.3 0.26                           272 256 
 PRA  HZ EP   1    4 1 28.40                             106    0.00 4  392 210 
 PRA  HZ I         4 2 17.64         4.2 0.32                           392 210 
                                                                                
