 2013  315 0320  1.8 L   7.164 -74.057 16.0  RSN  8 0.5 2.4LRSN                1
 GAP=102        1.13       3.9     2.5  4.6  0.2385E+01  0.8691E+00 -0.6878E-01E
 Epicentro: BARRANCABERMEJA - SANTANDER                                        3
 ACTION:UPD 13-04-09 14:02 OP:ep   STATUS:               ID:20130315032001 L   I
 2013-03-15-0320-00M.COL___244                                                 6
 STAT SP IPHASW D HRMM SECON CODA AMPLIT PERI AZIMU VELO AIN AR TRES W  DIS CAZ7
 BRR  HZ EP     D  320  8.68                             109    0.1310 38.6  99 
 BRR  HN ES   1    320 14.30                             109    0.49 7 38.6  99 
 BRR  HZ I         320 15.24       246.0 0.16            105           38.6  99 
 ZAR  HZ EP        320 17.06                              97    0.0410 95.6 292 
 ZAR  HN ES   1    320 28.52                              97   -0.36 7 95.6 292 
 ZAR  HZ I         320 30.48        53.8 0.54             96           95.6 292 
 BAR2 SZ EP   1    320 20.17                              96   -0.07 7  115 123 
 BAR2 SZ ES        320 33.78                              96   -0.8410  115 123 
 BAR2 SZ I         320 35.60        73.5 0.32             95            115 123 
 OCA  HZ EP   1    320 23.74                              56   -0.48 7  144  34 
 OCA  HN ES   1    320 41.82                              56    0.12 7  144  34 
 OCA  HZ I         320 44.88       114.4 0.48             56            144  34 
 PAM  SZ EP        320 26.02                              56    0.51 9  151  83 
 PAM  SN ES   1    320 43.17                              56   -0.83 7  151  83 
 PAM  SZ I         320 46.03       114.9 0.28             56            151  83 
 RUS  HZ EP        320 29.52                              56    0.76 9  177 143 
 RUS  HN ES   1    320 50.26                              56    0.47 7  177 143 
 RUS  HZ I         320 51.57        37.4 0.44             56            177 143 
 HEL  HZ EP     C  320 31.38                              56    0.51 9  195 237 
 HEL  HN ES   1    320 52.84                              56   -0.70 6  195 237 
 HEL  HZ I         320 54.43        17.5 0.34             56            195 237 
 NOR  HZ EP   1    320 30.56                              56   -0.35 6  199 207 
                                                                                
