 2016 1115 0018 56.6 L   6.794 -73.118150.0  RSN  8 0.2 1.9LRSN                1
 GAP=158        0.69       3.1     3.3  4.3 -0.1600E+01  0.1953E+01  0.3933E+01E
 Epicentro: LOS SANTOS - SANTANDER                                             3
 ACTION:UPD 17-10-26 21:08 OP:lp   STATUS:               ID:20161115001856 L   I
 OLDACT:UP  16-11-15 14:00 OP:edw  STATUS:               ID:20161115001746     3
 OLDACT:REG 16-11-15 12:30 OP:edw  STATUS:               ID:20161115001746     3
 2016-11-15-0018-00M.COL___335                                                 6
 STAT SP IPHASW D HRMM SECON CODA AMPLIT PERI AZIMU VELO AIN AR TRES W  DIS CAZ7
 BAR2 EZ EP        019 16.76                             171   -0.0110 23.4 198 
 BAR2 EZ ES        019 32.45                             171   -0.0310 23.4 198 
 BAR2 EZ I         019 33.53        14.4 0.18            167           23.4 198 
 BRR  HZ EP        019 18.62                             152    0.2110 74.2 298 
 BRR  HE ES        019 35.33                             152   -0.0710 74.2 298 
 BRR  HZ I         019 40.92         6.9 0.09            150           74.2 298 
 PAM  EZ EP        019 19.50                             151    0.2810 76.0  37 
 PAM  EN ES        019 36.60                             151   -0.2310 76.0  37 
 PAM  EZ I         019 38.88        13.3 0.46            157           76.0  37 
 PTB  HZ EP   9    019 23.67                             132   -0.54 0  151 259 
 PTB  HN ES        019 44.65                             132   -0.53 9  151 259 
 PTB  HZ I         019 50.59         8.5 0.13            131            151 259 
 ZAR  HZ EP        019 29.72                             122    0.04 8  207 292 
 ZAR  HN ES        019 55.51                             122    0.06 8  207 292 
 ZAR  HZ I         020  1.06         9.2 0.32            123            207 292 
 NOR  HZ EP        019 32.89                             119    0.05 8  237 235 
 NOR  HN ES        020  1.13                             119    0.05 8  237 235 
 NOR  HZ I         020  7.92         4.9 0.26            119            237 235 
 CHI  HZ EP        019 33.86                             118   -0.73 8  249 196 
 CHI  HN ES        020  4.47                             118    0.27 8  249 196 
 CHI  HZ I         020  7.19         3.4 0.24            119            249 196 
 ROSC BZ EP   4    019 37.66                             117    2.56 0  254 212 
 ROSC BN ES   4    020  9.10                             117    4.00 0  254 212 
 ROSC BZ I         020 10.86         8.7 0.70            118            254 212 
                                                                                
