 2014  315 0445 42.7 L   6.799 -73.152143.4  RSN  8 0.4 1.7LRSN                1
 GAP=136        0.80       3.4     3.7  6.2 -0.1594E+01  0.8250E+01 -0.2554E+01E
 Epicentro: LOS SANTOS - SANTANDER                                             3
 OLDACT:REG 14-03-15 08:27 OP:fm   STATUS:               ID:20140315043817     3
 OLDACT:DUP 14-03-15 11:44 OP:fm   STATUS:               ID:20140315043819d    3
 OLDACT:UP  14-03-15 11:43 OP:fm   STATUS:               ID:20140315043817     3
 ACTION:UPD 14-04-09 23:17 OP:nd   STATUS:               ID:20140315044542 L   I
 OLDACT:UP  14-03-15 12:02 OP:fm   STATUS:               ID:20140315043819d    3
 2014-03-15-0438-17M.COL___248                                                 6
 STAT SP IPHASW D HRMM SECON CODA AMPLIT PERI AZIMU VELO AIN AR TRES W  DIS CAZ7
 BAR2 SZ EP   1    446  1.80                             170   -0.28 7 23.1 188 
 BAR2 SZ ES   1    446 16.89                             170   -0.27 7 23.1 188 
 BAR2 SZ I         446 18.26        29.1 0.20            166           23.1 188 
 PAM  SZ EP        446  4.93                             150    0.1910 77.9  40 
 PAM  SN ES        446 21.88                             150   -0.0110 77.9  40 
 PAM  SZ I         446 23.59         8.1 0.56            138           77.9  40 
 RUS  HZ EP        446  6.11                             143   -0.1410  100 176 
 RUS  HN ES        446 24.96                             143    0.3710  100 176 
 RUS  SZ I         446 25.60         7.1 0.70            131            100 176 
 PTB  HZ EP        446  8.96                             132   -0.49 9  147 259 
 PTB  HN ES        446 29.87                             132   -0.42 9  147 259 
 PTB  SZ I         446 33.54         5.6 0.76            117            147 259 
 SPBC HZ EP        446 11.13                             129    0.12 9  163 219 
 SPBC HN ES        446 33.06                             129    0.01 9  163 219 
 SPBC SZ I         446 36.67         6.0 0.24            115            163 219 
 ZAR  HZ EP   1    446 15.06                             122    0.09 6  204 292 
 ZAR  HE ES        446 40.92                             122    0.80 9  204 292 
 ZAR  SZ I         446 48.68         4.8 0.40            109            204 292 
 SML  HZ EP   2    446 19.09                             117   -0.13 4  244 335 
 SML  HN ES   2    446 46.95                             117   -0.72 4  244 335 
 SML  SZ I         446 54.97         4.4 0.88            106            244 335 
 HEL  HZ EP   2    446 23.41                             114    0.65 4  271 256 
 HEL  SZ I         447 10.61         3.0 2.90            104            271 256 
                                                                                
