 2011  515 0609 17.4 L   6.786 -73.178143.6  RSN  6 0.6 1.4LRSN                1
 GAP=133        1.03       5.6    11.5 10.2 -0.3420E+01 -0.3240E+02  0.1621E+01E
 Epicentro: LOS SANTOS - SANTANDER                                             3
 ACTION:UP  11-06-29 08:53 OP:tino STATUS:               ID:20110515060917 L   I
 2011-05-15-0608-33S.COL___141                                                 6
 STAT SP IPHASW D HRMM SECON CODA AMPLIT PERI AZIMU VELO SNR AR TRES W  DIS CAZ7
 BTL  SZ EP        6 9 37.00                             172     0.310   18 326 
 BTL  SZ ES   1    6 9 51.24                             172    -0.5 7   18 326 
 BAR2 SZ EP        6 9 36.83                             171     0.110   21 181 
 BAR2 SZ I         6 9 53.32         9.4 0.15                            21 181 
 BRR  HZ EP        6 9 38.56                             152     0.310   69 301 
 BRR  HN ES   1    6 9 54.23                             152    -0.2 7   69 301 
 BRR  HZ I         6 9 59.78         4.8 0.22                            69 301 
 PAM  SN ES   3    6 9 59.99                             149     3.0 2   81  41 
 RUS  HZ EP        6 9 40.74                             143    -0.110   99 174 
 RUS  HN ES   1    6 9 59.05                             143    -0.1 7   99 174 
 RUS  HZ I         610  2.23         2.7 0.28                            99 174 
 GRA  SZ EP        6 9 42.59                             135    -0.110  128  19 
 GRA  SZ ES   1    610  2.04                             135    -0.4 7  128  19 
 GRA  SZ I         610  5.34         3.9 0.30                           128  19 
                                                                                
