 2017  415 0122  6.1 L   6.803 -73.154135.2  RSN  5 0.1 1.0LRSN                1
 GAP=135        0.36       2.0     1.9  3.5  0.2801E+00  0.2298E+01  0.2200E-01E
 Epicentro: LOS SANTOS - SANTANDER                                             3
 ACTION:UPD 17-05-30 21:12 OP:jn   STATUS:               ID:20170415012206 L   I
 OLDACT:UP  17-04-15 13:52 OP:edw  STATUS:               ID:20170415011242     3
 OLDACT:UP  17-04-15 13:51 OP:edw  STATUS:               ID:20170415011242     3
 OLDACT:REG 17-04-15 12:33 OP:edw  STATUS:               ID:20170415011242     3
 2017-04-15-0118-00M.COL___362                                                 6
 STAT SP IPHASW D HRMM SECON CODA AMPLIT PERI AZIMU VELO AIN AR TRES W  DIS CAZ7
 BRR  HZ EP        122 25.92                             151   -0.1210 70.2 299 
 BRR  HN ES        122 41.56                             151   -0.0410 70.2 299 
 BRR  HZ I         122 43.71         3.1 0.34            150           70.2 299 
 PAM  EZ EP     C  122 27.13                             149   -0.0810 77.8  40 
 PAM  EN ES        122 43.79                             149    0.1110 77.8  40 
 PAM  EZ I         122 48.62         2.4 0.18            151           77.8  40 
 RUS  HN ES        122 46.57                             141   -0.0110  101 176 
 PTB  HZ EP        122 32.29                             130    0.16 9  147 259 
 PTB  HN ES   4    122 50.81                             130   -1.63 0  147 259 
 PTB  HZ I         122 57.45         1.0 0.34            132            147 259 
 ZAR  HZ EP   4    122 36.42                             120   -1.34 0  203 292 
 ZAR  HN ES        123  2.48                             120    0.02 9  203 292 
 ZAR  HZ I         123  7.95         1.0 0.28            122            203 292 
 CBOC HE ES   4    123 31.10                             108    2.42 0  333 252 
                                                                                
