 2016  115 0422 36.1 L   6.504 -73.797 87.3  RSN  4 0.2 1.1LRSN                1
 GAP=169        0.52       3.1     1.9  5.7  0.7539E+00  0.9934E+00  0.4649E+01E
 Epicentro: CIMITARRA - SANTANDER                                              3
 ACTION:UPD 16-03-09 23:25 OP:cam  STATUS:               ID:20160115042236 L   I
 OLDACT:REG 16-01-15 12:13 OP:drio STATUS:               ID:20160115041749     3
 2016-01-15-0417-49M.COL___335                                                 6
 STAT SP IPHASW D HRMM SECON CODA AMPLIT PERI AZIMU VELO AIN AR TRES W  DIS CAZ7
 BAR2 EZ ES        423  3.59                             139    0.1410 68.7  82 
 BAR2 EZ I         423  5.35         7.6 0.40            144           68.7  82 
 PTB  HZ EP        422 51.28                             137   -0.2310 73.0 273 
 PTB  HN ES        423  3.57                             137    0.0310 73.0 273 
 PTB  HZ I         423  5.43         3.8 0.32            141           73.0 273 
 SPBC HZ EP        422 54.10                             127    0.1010 99.0 198 
 SPBC HN ES        423  8.07                             127    0.1010 99.0 198 
 SPBC HZ I         423 10.86         3.7 0.38            131           99.0 198 
 RUS  HZ EP        422 55.20                             126    0.1810  104 131 
 RUS  HN ES        423  9.49                             126   -0.3110  104 131 
 RUS  HZ I         423 11.67         1.4 0.42            130            104 131 
                                                                                
