 2015  215 0632 39.4 L   6.835 -73.165145.8  RSN 10 0.5 1.7LRSN                1
 GAP= 69        1.23       3.4     4.2  6.7 -0.2941E+00  0.2211E+01  0.1635E+01E
 Epicentro: LOS SANTOS - SANTANDER                                             3
 ACTION:UPD 15-04-30 21:26 OP:nd   STATUS:               ID:20150215063239 L   I
 OLDACT:REG 15-02-15 12:51 OP:stll STATUS:               ID:20150215062750     3
 2015-02-15-0627-50M.COL___293                                                 6
 STAT SP IPHASW D HRMM SECON CODA AMPLIT PERI AZIMU VELO AIN AR TRES W  DIS CAZ7
 BAR2 EZ EP        632 59.13                             169    0.0410 26.9 184 
 BAR2 EZ I         632 59.56         8.1 0.38            168           26.9 184 
 BAR2 EZ ES        633 13.93                             169   -0.5410 26.9 184 
 BRR  HZ EP        633  0.88                             154    0.5510 67.5 297 
 BRR  HZ I         633  1.13        11.5 0.34            153           67.5 297 
 BRR  HN ES        633 17.74                             154    1.0710 67.5 297 
 PAM  SZ EP        633  1.82                             151    0.3110 75.9  43 
 PAM  SZ I         633  2.22        16.2 0.16            153           75.9  43 
 PAM  SN ES        633 18.85                             151    0.0710 75.9  43 
 RUS  HZ EP        633  3.70                             143    0.2710  105 175 
 RUS  HN ES        633 22.04                             143   -0.1410  105 175 
 RUS  HZ I         633 23.08         4.9 0.42            142            105 175 
 PTB  HZ EP        633  6.37                             132    0.14 9  146 257 
 PTB  HN ES        633 27.21                             132    0.04 9  146 257 
 PTB  HZ I         633 29.44         7.3 0.14            131            146 257 
 OCA  HN ES        633 28.64                             130   -0.47 9  156 354 
 OCA  HZ I         633 34.13         3.0 0.34            131            156 354 
 TAM  HZ EP        633  7.63                             130    0.28 9  158 106 
 TAM  HZ I         633  8.06         7.7 0.44            131            158 106 
 TAM  HN ES        633 28.96                             130   -0.21 9  158 106 
 SPBC HZ EP        633  8.51                             129    0.47 9  165 218 
 SPBC HN ES     D  633 29.75                             129   -0.64 9  165 218 
 SPBC HZ I         633 35.22         6.5 0.18            128            165 218 
 SML  HZ EP        633 14.96                             118   -0.57 8  239 335 
 SML  HN ES        633 42.80                             118   -0.93 8  239 335 
 CHI  HZ EP        633 17.58                             117    0.16 8  252 194 
 CHI  HN ES        633 46.38                             117   -0.71 8  252 194 
 CHI  HZ I         633 53.75         2.0 0.40            117            252 194 
                                                                                
