 2013  715 0746 57.5 L   6.813 -73.129151.1  RSN 17 0.4 2.3LRSN                1
 GAP=138        0.95       2.6     3.6  4.3 -0.1353E+01  0.4193E+01  0.1963E+01E
 Epicentro: LOS SANTOS - SANTANDER                                             3
 ACTION:UPD 13-08-12 10:37 OP:ep   STATUS:               ID:20130715074657 L   I
 OLDACT:REG 13-07-15 10:05 OP:nd   STATUS:               ID:20130715073959     3
 2013-07-15-0739-59M.COL___267                                                 6
 STAT SP IPHASW D HRMM SECON CODA AMPLIT PERI AZIMU VELO AIN AR TRES W  DIS CAZ7
 BAR2 SZ IP     D  747 17.74                             170   -0.0410 25.2 194 
 BAR2 SZ ES        747 33.45                             170   -0.1710 25.2 194 
 BAR2 SZ I         747 34.64        26.1 0.14            168           25.2 194 
 GIR2 SZ EP        747 17.68                             168   -0.0710 30.2 346 
 GIR2 SZ ES        747 34.24                             168    0.6710 30.2 346 
 GIR2 SZ I         747 34.49        21.1 0.10            167           30.2 346 
 BRR  HZ IP     C  747 19.60                             153    0.3510 72.2 297 
 BRR  HN ES        747 36.92                             153    0.6810 72.2 297 
 BRR  HZ I         747 39.31        29.4 0.14            151           72.2 297 
 PAM  SZ EP        747 20.39                             152    0.2710 75.1  39 
 PAM  SN ES        747 37.77                             152   -0.0210 75.1  39 
 PAM  SZ I         747 39.97        26.1 0.48            156           75.1  39 
 RUS  HZ EP        747 22.03                             144    0.1810  102 177 
 RUS  HN ES        747 40.55                             144   -0.3110  102 177 
 RUS  HZ I         747 43.16        15.4 0.40            146            102 177 
 PTB  HZ EP        747 24.46                             133   -0.61 9  150 258 
 PTB  HN ES        747 45.70                             133   -0.89 9  150 258 
 PTB  HZ I         747 52.93        33.1 0.46            132            150 258 
 OCA  HZ EP        747 25.87                             131   -0.22 9  159 352 
 OCA  HN ES        747 47.70                             131   -0.71 9  159 352 
 OCA  HZ I         747 52.79        19.2 0.22            132            159 352 
 SPBC HZ EP        747 26.69                             130    0.09 9  166 219 
 SPBC HN ES   2    747 49.08                             130   -0.24 5  166 219 
 ZAR  HZ EP        747 30.50                             123    0.11 8  205 292 
 ZAR  HE ES        747 55.82                             123   -0.25 8  205 292 
 ZAR  HZ I         748  1.34        27.6 0.32            123            205 292 
 NOR  HZ EP        747 33.79                             119    0.02 8  237 234 
 NOR  HN ES        748  2.48                             119    0.40 8  237 234 
 NOR  HZ I         748  6.28        12.9 0.20            120            237 234 
 SML  HZ EP        747 34.16                             119   -0.18 8  243 335 
 SML  HN ES   2    748  3.46                             119    0.36 4  243 335 
 SML  HZ I         748  5.93        23.2 0.30            120            243 335 
 CHI  HZ EP        747 35.77                             118    0.09 8  251 195 
 CHI  HN ES        748  4.88                             118   -0.60 8  251 195 
 CHI  HZ I         748 10.88         6.9 0.28            119            251 195 
 HEL  HZ EP   3    747 39.18                             116    0.98 2  274 256 
 HEL  HN ES        748 10.28                             116    0.31 8  274 256 
 HEL  HZ I         748 16.16        14.7 0.38            116            274 256 
 GUY2CHZ EP        747 42.24                             113    0.64 7  304 235 
 GUY2CHN ES   4    748 18.77                             113    2.75 0  304 235 
 GUY2CHZ I         748 24.22         7.5 0.28                           304 235 
 PRA  HZ EP        747 51.52                             107    0.08 6  394 210 
 PRA  HN ES        748 33.83                             107    0.30 6  394 210 
 PRA  HZ I         748 37.76         8.1 0.30            108            394 210 
 ORTC HZ EP        747 52.05                             107    0.20 6  398 216 
 ORTC HN ES   4    748 35.35                             107    1.09 0  398 216 
 ORTC HZ I         748 41.57         4.6 0.52            108            398 216 
 SJC  HZ EP   4    747 52.00                             107   -1.19 0  409 327 
 SJC  HN ES   4    748 32.74                             107   -3.91 0  409 327 
 SJC  HZ I         748 37.51         3.8 0.50            107            409 327 
                                                                                
