 2015 1215 0602 43.4 L   6.827 -73.147141.6  RSN 15 0.4 2.2LRSN                1
 GAP=135        0.92       2.5     3.4  5.1 -0.2506E+01  0.7858E+01 -0.1085E+01E
 Epicentro: LOS SANTOS - SANTANDER                                             3
 ACTION:UPD 16-02-04 15:05 OP:cam  STATUS:               ID:20151215060243 L   I
 OLDACT:REG 15-12-15 13:19 OP:cara STATUS:               ID:20151215055746     3
 2015-12-15-0557-46M.COL___328                                                 6
 STAT SP IPHASW D HRMM SECON CODA AMPLIT PERI AZIMU VELO AIN AR TRES W  DIS CAZ7
 BAR2 EZ EP        6 3  2.39                             169   -0.2010 26.3 189 
 BAR2 EZ ES        6 3 17.14                             169   -0.4310 26.3 189 
 BAR2 EZ I         6 3 18.90        35.0 0.20            169           26.3 189 
 BRR  HZ EP     C  6 3  4.48                             152    0.4710 69.7 296 
 BRR  HN ES   4    6 3 21.62                             152    1.53 0 69.7 296 
 BRR  HZ I         6 3 25.30        21.6 0.22            148           69.7 296 
 PAM  EZ EP        6 3  5.74                             151    0.7010 75.2  41 
 PAM  EN ES        6 3 22.13                             151    0.2110 75.2  41 
 PAM  EZ I         6 3 24.84        19.2 0.52            154           75.2  41 
 RUS  HZ EP        6 3  6.65                             142   -0.3110  104 176 
 RUS  HN ES        6 3 25.46                             142    0.1110  104 176 
 RUS  HZ I         6 3 26.45        18.6 0.24            148            104 176 
 PTB  HZ EP   4    6 3  9.03                             131   -1.04 0  148 258 
 PTB  HE ES        6 3 31.18                             131    0.30 9  148 258 
 PTB  HZ I         6 3 37.26        20.9 0.32            131            148 258 
 OCA  HZ EP        6 3 10.44                             129   -0.66 9  157 353 
 OCA  HE ES        6 3 32.66                             129   -0.05 9  157 353 
 OCA  HZ I         6 3 41.15        29.9 0.26            130            157 353 
 SPBC HZ EP        6 3 11.40                             128   -0.40 9  165 218 
 SPBC HE ES        6 3 34.04                             128    0.09 9  165 218 
 SPBC HZ I         6 3 36.46        22.1 0.16            130            165 218 
 ZAR  HZ EP        6 3 15.62                             122    0.18 9  203 291 
 ZAR  HE ES        6 3 40.15                             122   -0.29 9  203 291 
 ZAR  HZ I         6 3 46.23        15.9 0.54            122            203 291 
 NOR  HZ EP        6 3 18.80                             117   -0.26 8  236 234 
 NOR  HE ES        6 3 46.57                             117   -0.32 8  236 234 
 NOR  HZ I         6 3 51.36        12.7 0.22            120            236 234 
 SML  HZ EP        6 3 19.09                             117   -0.39 8  241 335 
 SML  HE ES        6 3 47.85                             117    0.21 8  241 335 
 SML  HZ I         6 3 56.33        24.8 0.10            118            241 335 
 HEL  HZ EP        6 3 23.93                             114    0.46 8  273 255 
 HEL  HN ES        6 3 54.39                             114   -0.34 8  273 255 
 HEL  HZ I         6 4  0.84         9.1 0.32            116            273 255 
 URE  HE ES   4    6 3 54.09                             113   -1.81 0  283 291 
 URE  HZ I         6 4  5.39         9.1 0.16            114            283 291 
 GUY2CHZ EP        6 3 26.84                             111   -0.16 7  303 234 
 GUY2CHN ES        6 4  1.81                             111    0.80 7  303 234 
 GUY2CHZ I         6 4  8.95         6.9 0.32                           303 234 
 CBOC HZ EP        6 3 30.91                             109    0.68 7  334 252 
 CBOC HE ES        6 4  6.44                             109   -0.33 7  334 252 
 CBOC HZ I         6 4 12.26         2.6 0.36            111            334 252 
 ORTC HZ EP        6 3 37.11                             105   -0.34 6  398 216 
 ORTC HN ES        6 4 20.13                             105    0.52 6  398 216 
 ORTC HZ I         6 4 26.38         4.0 0.48            108            398 216 
                                                                                
