 2016 1015 0632 56.2 L   6.050 -73.688116.8  RSN  8 0.4 1.7LRSN                1
 GAP=120        1.06       3.9     3.4  7.0 -0.2235E+01  0.8566E+01 -0.4928E+01E
 Epicentro: VELEZ - SANTANDER                                                  3
 ACTION:UPD 16-11-09 19:19 OP:rebc STATUS:               ID:20161015063256 L   I
 OLDACT:UP  16-10-15 17:05 OP:ar   STATUS:               ID:20161015062731     3
 OLDACT:REG 16-10-15 13:04 OP:ar   STATUS:               ID:20161015062731     3
 2016-10-15-0628-00M.COL___365                                                 6
 STAT SP IPHASW D HRMM SECON CODA AMPLIT PERI AZIMU VELO AIN AR TRES W  DIS CAZ7
 SPBC HZ EP        633 13.75                             150   -0.0710 61.2 224 
 SPBC HN ES        633 27.17                             150   -0.3710 61.2 224 
 SPBC HZ I         633 28.90        12.0 0.22            152           61.2 224 
 RUS  HZ EP        633 15.04                             148    0.1410 69.2 105 
 RUS  HN ES        633 29.24                             148   -0.2210 69.2 105 
 RUS  HZ I         633 31.02         7.5 0.24            152           69.2 105 
 BAR2 EZ EP        633 15.78                             143    0.3510 82.0  43 
 BAR2 EZ ES        633 30.55                             143    0.1410 82.0  43 
 PTB  HZ EP        633 15.65                             136   -0.9610  101 303 
 PTB  HN ES        633 32.45                             136   -0.0610  101 303 
 PTB  HZ I         633 33.27        10.4 0.10            136            101 303 
 BRR  HZ EP        633 18.02                             132    0.0110  117 359 
 BRR  HN ES        633 35.58                             132    0.5810  117 359 
 BRR  HZ I         633 40.36         5.1 0.16            132            117 359 
 NOR  HZ EP        633 20.65                             126    0.23 9  141 248 
 NOR  HN ES        633 39.69                             126    0.40 9  141 248 
 NOR  HZ I         633 41.08        15.1 0.16            127            141 248 
 HEL  HZ EP        633 27.85                             115    0.39 9  204 274 
 HEL  HN ES        633 52.32                             115    0.50 9  204 274 
 HEL  HZ I         633 58.31         3.0 0.22            117            204 274 
 ZAR  HZ EP        633 26.59                             115   -0.52 8  205 321 
 ZAR  HN ES        633 50.73                             115   -0.46 8  205 321 
 ZAR  HZ I         633 55.76        10.9 0.34            116            205 321 
                                                                                
