 2016  115 0910  7.7 L   6.756 -73.175140.0  RSN  5 0.4 1.1LRSN                1
 GAP=135        1.11       5.7     5.1  8.7 -0.4167E+00  0.1655E+02 -0.8419E+01E
 Epicentro: LOS SANTOS - SANTANDER                                             3
 ACTION:UPD 16-03-09 23:25 OP:cam  STATUS:               ID:20160115091007 L   I
 OLDACT:REG 16-01-15 12:20 OP:drio STATUS:               ID:20160115090743     3
 2016-01-15-0907-43M.COL___328                                                 6
 STAT SP IPHASW D HRMM SECON CODA AMPLIT PERI AZIMU VELO AIN AR TRES W  DIS CAZ7
 BAR2 EZ EP        910 26.51                             172   -0.0510 18.1 183 
 BAR2 EZ ES        910 42.01                             172    0.7610 18.1 183 
 BAR2 EZ I         910 42.61         2.8 0.24            172           18.1 183 
 PAM  EZ EP        910 29.68                             148   -0.0110 83.2  39 
 PAM  EN ES        910 46.42                             148   -0.4110 83.2  39 
 PAM  EZ I         910 47.02         1.7 0.42            151           83.2  39 
 RUS  HZ EP        910 30.30                             144   -0.2710 96.0 174 
 RUS  HN ES        910 48.38                             144   -0.0210 96.0 174 
 RUS  HZ I         910 49.78         1.3 0.26            147           96.0 174 
 PTB  HZ EP        910 33.63                             132   -0.22 9  144 260 
 PTB  HE ES        910 53.75                             132   -0.48 9  144 260 
 PTB  HZ I         910 56.52         2.5 0.24            131            144 260 
 ZAR  HZ EP        910 40.62                             121    0.94 9  203 294 
 ZAR  HE ES        911  4.49                             121   -0.12 9  203 294 
 ZAR  HZ I         911 11.43         2.1 0.74            122            203 294 
                                                                                
