 2012  115 0641  8.8 L   6.701 -73.196156.2  RSN  5 0.2 1.2LRSN                1
 GAP=172        0.47       4.7     5.1  6.6  0.1093E+02  0.1200E+02  0.1521E+01E
 Epicentro: VILLANUEVA - SANTANDER                                             3
 ACTION:UP  12-02-03 08:17 OP:REBC STATUS:               ID:20120115064108 L   I
 2012-01-15-0640-00M.COL___187                                                 6
 STAT SP IPHASW D HRMM SECON CODA AMPLIT PERI AZIMU VELO SNR AR TRES W  DIS CAZ7
 GIR2 SZ ES   2    641 46.16                             164    -0.4 5   42   0 
 BRR  HZ EP   1    641 31.24                             154     0.1 7   73 308 
 BRR  HZ I         641 31.49         3.6 0.15                            73 308 
 BRR  HE ES   1    641 48.76                             154     0.2 7   73 308 
 RUS  HN ES   1    641 51.84                             149     0.1 7   90 172 
 RUS  HZ I         641 53.13         2.1 0.34                            90 172 
 PTB  HZ EP   1    641 35.85                             136    -0.2 7  140 263 
 PTB  HN ES   1    641 57.03                             136    -0.2 7  140 263 
 ZAR  HN ES   1    642  7.91                             125     0.2 6  203 296 
                                                                                
