 2014  615 0102 49.0 L   6.359 -73.790108.0  RSN  4 0.4 1.4LRSN                1
 GAP=165        0.93      10.0     4.9 10.3 -0.2785E+02 -0.6073E+01  0.5750E+02E
 Epicentro: LANDAZURI - SANTANDER                                              3
 ACTION:UPD 14-07-01 22:54 OP:nd   STATUS:               ID:20140615010249 L   I
 OLDACT:DUP 14-06-15 16:00 OP:mh   STATUS:               ID:20140615005819d    3
 2014-06-15-0058-18M.COL___259                                                 6
 STAT SP IPHASW D HRMM SECON CODA AMPLIT PERI AZIMU VELO AIN AR TRES W  DIS CAZ7
 BAR2 SZ EP        1 3  6.16                             144   -0.4410 71.9  69 
 BAR2 SZ ES        1 3 20.66                             144    0.3310 71.9  69 
 BAR2 SZ I         1 3 21.89        18.8 0.27            155           71.9  69 
 PTB  HZ EP        1 3  6.56                             142   -0.0510 76.4 285 
 PTB  HN ES        1 3 20.41                             142    0.0510 76.4 285 
 PTB  HZ I         1 3 28.53         2.4 0.26            144           76.4 285 
 NOR  HZ EP        1 3 12.93                             122   -0.37 9  148 234 
 NOR  HN ES        1 3 32.13                             122   -0.13 9  148 234 
 NOR  HZ I         1 3 36.44         5.3 0.20            127            148 234 
 GUY2CHZ EP        1 3 21.90                             112    0.79 8  215 234 
 GUY2CHN ES   4    1 3 48.78                             112    2.61 0  215 234 
 GUY2CHZ I         1 3 53.55         1.9 0.41                           215 234 
                                                                                
