 2013  215 0045 34.1 L   6.778 -73.178142.0  RSN  5 0.3 1.5LRSN                1
 GAP=133        0.65       3.6     3.3  6.6 -0.1451E+01  0.6871E+01 -0.1351E+01E
 Epicentro: LOS SANTOS - SANTANDER                                             3
 ACTION:UPD 13-03-12 09:33 OP:ep   STATUS:               ID:20130215004534 L   I
 2013-02-15-0040-00M.COL___241                                                 6
 STAT SP IPHASW D HRMM SECON CODA AMPLIT PERI AZIMU VELO AIN AR TRES W  DIS CAZ7
 BAR2 SZ ES   2    046  7.63                             171   -0.55 5 20.6 181 
 PAM  SZ EP        045 56.12                             149   -0.1010 81.5  40 
 PAM  SN ES        046 13.48                             149    0.0510 81.5  40 
 PAM  SN I         046 15.21         5.3 0.50            153           81.5  40 
 RUS  HZ EP        045 57.56                             144    0.1910 98.5 174 
 RUS  HN ES        046 15.63                             144    0.1410 98.5 174 
 RUS  HN I         046 17.36         3.5 0.34            147           98.5 174 
 PTB  HZ EP        046  0.08                             132   -0.36 9  144 259 
 PTB  HN ES        046 20.86                             132   -0.10 9  144 259 
 PTB  HN I         046 25.61         5.7 0.34            134            144 259 
 ZAR  HE ES   1    046 31.67                             122    0.65 6  202 293 
                                                                                
