 2014  515 0809 55.7 L   6.814 -73.155150.1  RSN 12 0.4 2.0LRSN                1
 GAP=135        0.90       2.5     3.7  5.8 -0.2141E+01  0.4161E+01  0.3862E+00E
 Epicentro: LOS SANTOS - SANTANDER                                             3
 OLDACT:REG 14-05-15 14:07 OP:spq  STATUS:               ID:20140515080818     3
 ACTION:UPD 15-03-16 16:57 OP:nd   STATUS:               ID:20140515080955 L   I
 OLDACT:UP  14-05-15 19:12 OP:fm   STATUS:               ID:20140515080818     3
 2014-05-15-0808-18M.COL___248                                                 6
 STAT SP IPHASW D HRMM SECON CODA AMPLIT PERI AZIMU VELO AIN AR TRES W  DIS CAZ7
 BRR  HZ IP     C  810 17.66                             154    0.3910 69.6 298 
 BRR  HN ES        810 34.42                             154    0.3610 69.6 298 
 BRR  HZ I         810 38.40        16.7 0.16            154           69.6 298 
 PAM  SZ EP        810 18.89                             152    0.5010 76.9  41 
 PAM  SN ES        810 35.82                             152   -0.2310 76.9  41 
 PAM  HZ I         810 37.65        12.8 0.72            153           76.9  41 
 RUS  HZ EP   1    810 19.52                             144   -0.51 7  102 176 
 RUS  HN ES        810 38.98                             144    0.0010  102 176 
 PTB  HZ EP        810 22.61                             133   -0.39 9  147 258 
 PTB  HE ES        810 43.51                             133   -0.75 9  147 258 
 PTB  HZ I         810 46.32        10.4 0.28            134            147 258 
 OCA  HZ EP        810 24.06                             131   -0.18 9  159 353 
 OCA  HN ES        810 46.28                             131   -0.18 9  159 353 
 OCA  HZ I         810 48.80         8.6 0.28            132            159 353 
 SPBC HN ES   1    810 47.85                             130    0.70 7  164 218 
 ZAR  HN ES        810 54.02                             124    0.30 9  203 292 
 NOR  HN ES        810 59.38                             119   -0.42 8  235 234 
 SML  HZ EP        810 32.26                             119   -0.15 8  242 335 
 SML  HE ES        811  1.18                             119    0.16 8  242 335 
 SML  HZ I         811  4.38        13.2 0.08            120            242 335 
 CHI  HN ES   1    811  3.72                             118    0.21 6  250 195 
 HEL  HN ES   4    811 10.92                             116    3.33 0  271 255 
 GUY2CHN ES   1    811 14.23                             113    0.50 5  301 234 
 RREF HN ES   4    811 21.49                             112    3.24 0  322 229 
 PRA  HZ EP        810 49.93                             107    0.42 6  393 209 
 PRA  HN ES        811 31.21                             107   -0.24 6  393 209 
 PRA  HZ I         811 33.90         5.6 4.54            109            393 209 
 ORTC HN ES   4    811 35.25                             107    3.14 0  396 216 
                                                                                
