 2012  915 0907 29.0 L   6.715 -73.196157.0  RSN  5 0.2 1.3LRSN                1
 GAP=225        0.44       4.9     4.5  6.3  0.1231E+02 -0.9723E-01 -0.5929E+01E
 Epicentro: VILLANUEVA - SANTANDER                                             3
 ACTION:UPD 12-10-22 14:18 OP:ep   STATUS:               ID:20120915090729 L   I
 2012-09-15-0900-00M.COL___227                                                 6
 STAT SP IPHASW D HRMM SECON CODA AMPLIT PERI AZIMU VELO AIN AR TRES W  DIS CAZ7
 BAR2 SZ EP   1    9 7 49.56                             175   -0.26 7 13.6 173 
 BAR2 SZ I         9 7 49.73         7.0 0.20                          13.6 173 
 BRR  HZ EP   1    9 7 51.45                             154    0.07 7 71.6 307 
 BRR  HN ES   1    9 8  8.81                             154   -0.03 7 71.6 307 
 RUS  HE ES   1    9 8 12.41                             148    0.20 7 91.8 172 
 RUS  HZ I         9 8 13.45         1.7 0.27                          91.8 172 
 PTB  HZ EP   1    9 7 56.34                             136    0.06 7  141 262 
 PTB  HE ES   1    9 8 17.31                             136   -0.26 7  141 262 
 PTB  HZ I         9 8 19.69         1.3 0.13                           141 262 
 ZAR  HE ES   1    9 8 28.11                             125    0.27 6  203 295 
 ZAR  HZ I         9 8 34.09         2.9 0.38                           203 295 
                                                                                
