 2017  415 0929 53.4 L   6.736 -73.163146.0  RSN  5 0.3 1.2LRSN                1
 GAP=244        0.84       5.4     5.6  6.7  0.2446E+01  0.9242E+01 -0.4109E+01E
 Epicentro: LOS SANTOS - SANTANDER                                             3
 ACTION:UPD 17-05-30 21:12 OP:jn   STATUS:               ID:20170415092953 L   I
 OLDACT:REG 17-04-15 13:25 OP:edw  STATUS:               ID:20170415092739     3
 2017-04-15-0928-00M.COL___368                                                 6
 STAT SP IPHASW D HRMM SECON CODA AMPLIT PERI AZIMU VELO AIN AR TRES W  DIS CAZ7
 BAR2 EZ EP        930 12.88                             173   -0.0810 16.1 188 
 BAR2 EZ ES        930 27.86                             173   -0.3410 16.1 188 
 BAR2 EZ I         930 29.31         4.4 0.28            171           16.1 188 
 BRR  HZ EP        930 14.75                             152    0.0410 73.2 304 
 BRR  HN ES        930 31.84                             152    0.5210 73.2 304 
 PTB  HZ EP        930 20.58                             133    0.45 9  145 261 
 PTB  HE ES        930 41.03                             133    0.07 9  145 261 
 PTB  HZ I         930 46.37         1.1 0.20            131            145 261 
 SPBC HN ES        930 43.02                             130   -0.05 9  157 220 
 ZAR  HZ EP        930 25.81                             122   -0.17 9  205 294 
 ZAR  HN ES        930 50.79                             122   -0.60 9  205 294 
 ZAR  HZ I         930 57.72         1.7 0.26            122            205 294 
                                                                                
