 2014 1215 0759 43.1 L   6.796 -73.164144.4  RSN  6 0.3 1.3LRSN                1
 GAP=235        0.71       4.0     4.2  5.2  0.6844E+01  0.3261E+01 -0.2323E+01E
 Epicentro: LOS SANTOS - SANTANDER                                             3
 ACTION:UPD 15-02-10 17:04 OP:nd   STATUS:               ID:20141215075943 L   I
 OLDACT:REG 14-12-15 13:10 OP:fm   STATUS:               ID:20141215075740     3
 2014-12-15-0757-40M.COL___288                                                 6
 STAT SP IPHASW D HRMM SECON CODA AMPLIT PERI AZIMU VELO AIN AR TRES W  DIS CAZ7
 BAR2 EZ EP        8 0  2.41                             171   -0.1110 22.6 185 
 BAR2 EZ ES        8 0 17.93                             171    0.2310 22.6 185 
 BAR2 EZ I         8 0 19.38         3.9 0.20            166           22.6 185 
 BRR  HZ EP        8 0  4.29                             153    0.3110 69.6 300 
 BRR  HN ES        8 0 20.22                             153   -0.0710 69.6 300 
 BRR  HZ I         8 0 23.94         3.5 0.32            149           69.6 300 
 RUS  HZ EP        8 0  6.42                             144   -0.2510  100 175 
 RUS  HN ES        8 0 24.88                             144   -0.1910  100 175 
 RUS  HZ I         8 0 26.66         1.5 0.34            144            100 175 
 PTB  HZ EP        8 0  9.54                             132   -0.19 9  146 259 
 PTB  HE ES        8 0 30.16                             132   -0.37 9  146 259 
 PTB  HZ I         8 0 32.64         2.8 0.58            130            146 259 
 SPBC HN ES        8 0 33.85                             129    0.51 9  162 219 
 SPBC HZ I         8 0 40.74         3.8 0.26            128            162 219 
 ZAR  HZ EP        8 0 15.57                             122    0.33 9  202 292 
 ZAR  HN ES        8 0 40.22                             122   -0.12 9  202 292 
 ZAR  HZ I         8 0 50.56         2.3 0.56            122            202 292 
                                                                                
