 2010  615 0817 55.8 L   6.816 -72.976141.4  RSN  5 0.3 1.5LRSN                1
 GAP=175        0.56       3.0    14.8  6.7  0.9606E+00 -0.1190E+02 -0.5390E+01E
 Epicentro: CEPITA - SANTANDER                                                 3
 ACTION:UP  10-08-24 10:10 OP:vdl  STATUS:               ID:20100615081755 L   I
 2010-06-15-0814-13S.COL___114                                                 6
 STAT SP IPHASW D HRMM SECON CODA AMPLIT PERI AZIMU VELO SNR AR TRES W  DIS CAZ7
 BAR2 SZ EP        818 15.12                             166     0.010   34 223 
 BAR2 SZ ES   1    818 30.59                             166     0.4 7   34 223 
 BRI  SZ EP   2    818 19.11                             142     0.4 5  102  11 
 BRI  SZ ES   2    818 36.33                             142    -0.3 5  102  11 
 RUS  HZ EP   1    818 19.42                             142     0.2 7  103 187 
 RUS  HN ES   1    818 37.16                             142    -0.4 7  103 187 
 RUS  HZ I         818 38.97         4.0 0.27                           103 187 
 OCA  SZ EP   1    818 23.80                             128    -0.1 7  162 346 
 OCA  SZ ES   1    818 45.68                             128    -0.1 7  162 346 
 OCA  SZ I         818 48.64         5.3 0.23                           162 346 
 HEL  HZ EP   3    818 37.48                             112    -0.4 2  291 256 
 HEL  HZ I         819 14.57         2.1 0.25                           291 256 
                                                                                
