 2017 1215 0953 10.6 L   6.849 -73.169141.8  RSN 11 0.5 2.0LRSN                1
 GAP= 63        1.11       3.5     4.1  6.9 -0.2090E+01  0.6534E+01  0.4001E+01E
 Epicentro: ZAPATOCA - SANTANDER                                               3
 ACTION:UPD 18-01-04 13:20 OP:rebc STATUS:               ID:20171215095310 L   I
 OLDACT:UP  17-12-15 18:38 OP:edw  STATUS:               ID:20171215094744     3
 OLDACT:UP  17-12-15 18:13 OP:edw  STATUS:               ID:20171215094744     3
 OLDACT:REG 17-12-15 13:01 OP:edw  STATUS:               ID:20171215094744     3
 2017-12-15-0948-00M.COL___464                                                 6
 STAT SP IPHASW D HRMM SECON CODA AMPLIT PERI AZIMU VELO AIN AR TRES W  DIS CAZ7
 BAR2 EZ EP        953 29.80                             168   -0.0310 28.4 183 
 BAR2 EZ ES        953 44.87                             168    0.0110 28.4 183 
 BAR2 EZ I         953 46.17        14.7 0.56            167           28.4 183 
 PAM  EZ EP        953 32.60                             151    0.3810 75.0  44 
 PAM  EE ES        953 49.37                             151    0.2710 75.0  44 
 PAM  EZ I         953 51.52        14.8 0.54            154           75.0  44 
 PTB  HZ EP        953 36.70                             131   -0.39 9  146 257 
 PTB  HN ES        953 57.41                             131   -0.36 9  146 257 
 PTB  HZ I         954  0.01        10.0 0.14            132            146 257 
 OCA  HZ EP        953 37.85                             130   -0.18 9  155 354 
 OCA  HE ES        953 59.56                             130    0.11 9  155 354 
 OCA  HZ I         954  4.10        39.2 0.46            133            155 354 
 TAM  HZ EP   2    953 37.44                             129   -0.86 5  159 107 
 TAM  HN ES   2    953 58.94                             129   -1.00 5  159 107 
 SPBC HZ EP        953 39.34                             128    0.32 9  166 217 
 SPBC HN ES        954  0.74                             128   -0.47 9  166 217 
 SPBC HZ I         954  9.73        11.5 0.24            129            166 217 
 YPLC HZ EP        953 40.42                             125   -0.25 9  183 151 
 YPLC HN ES        954  4.53                             125    0.38 9  183 151 
 YPLC HZ I         954 12.60         6.8 0.28            126            183 151 
 ZAR  HZ EP        953 42.43                             122    0.13 9  200 291 
 ZAR  HN ES   4    954 10.74                             122    3.69 0  200 291 
 ZAR  HZ I         954 13.57        11.8 0.18            124            200 291 
 DRL03HE ES   4    954 25.52                             113    2.37 0  283 353 
 GUY2CHN ES        954 29.38                             111    1.30 7  302 234 
 PRA  HZ EP        954  4.29                             106   -0.07 6  395 209 
 PRA  HN ES        954 45.63                             106   -0.69 6  395 209 
 PRA  HZ I         954 52.55         4.7 0.30            107            395 209 
 SJC  HZ EP   9    954  4.08                             105   -1.22 0  403 327 
 SJC  HN ES        954 45.19                             106   -1.58 6  403 327 
 SJC  HZ I         954 49.10         2.0 0.32            107            403 327 
                                                                                
