 2011  315 0138  2.6 L   7.295 -73.580 17.4  RSN  4 0.3 1.3LRSN                1
 GAP=215        0.79       2.7     7.6  8.1  0.5683E+01  0.2598E+02  0.1353E+02E
 Epicentro: SABANA DE TORRES - SANTANDER                                       3
 ACTION:UP  11-06-16 14:33 OP:jfem STATUS:               ID:20110315013802 L   I
 2011-03-15-0136-30S.COL___138                                                 6
 STAT SP IPHASW D HRMM SECON CODA AMPLIT PERI AZIMU VELO SNR AR TRES W  DIS CAZ7
 BAR2 SZ ES   1    138 28.50                              99     0.1 8   89 151 
 BAR2 SZ I         138 29.62         6.2 0.14                            89 151 
 GRA  SZ EP   1    138 19.62                              97    -0.1 8  108  53 
 OCA  SZ EP        138 19.43                              97    -0.410  108  15 
 GRA  SZ ES   1    138 33.07                              97    -0.1 8  108  53 
 OCA  SZ I         138 29.80         7.8 0.32                           108  15 
 GRA  SZ I         138 33.63        13.0 0.41                           108  53 
 OCA  SZ ES        138 33.77                              97     0.410  108  15 
 RUS  HZ EP   1    138 27.95                              56     0.1 7  164 160 
 RUS  HN ES   1    138 47.52                              56     0.0 7  164 160 
 RUS  HZ I         138 49.45         2.5 0.22                           164 160 
                                                                                
