 2014  915 0656 22.4 L   6.743 -73.115154.8  RSN  6 0.5 1.7LRSN                1
 GAP=236        1.28       7.1     7.8  8.7  0.2200E+02  0.9528E+01 -0.3576E+01E
 Epicentro: LOS SANTOS - SANTANDER                                             3
 ACTION:UPD 14-10-03 23:05 OP:nd   STATUS:               ID:20140915065622 L   I
 OLDACT:REG 14-09-15 12:38 OP:carl STATUS:               ID:20140915064820     3
 2014-09-15-0648-20M.COL___293                                                 6
 STAT SP IPHASW D HRMM SECON CODA AMPLIT PERI AZIMU VELO AIN AR TRES W  DIS CAZ7
 BAR2 SZ EP        656 43.07                             173    0.0910 18.2 204 
 BAR2 SZ ES        656 58.82                             173   -0.2510 18.2 204 
 BAR2 SZ I         657  1.17         8.4 0.32            165           18.2 204 
 BRR  HZ EP        656 44.99                             152    0.1710 77.3 301 
 BRR  HN ES        657  2.70                             152    0.3610 77.3 301 
 RUS  HZ EP        656 46.56                             147   -0.0010 94.1 178 
 RUS  HN ES        657  5.30                             147   -0.1510 94.1 178 
 RUS  HZ I         657  7.89         2.7 0.24            144           94.1 178 
 PTB  HZ EP        656 49.70                             133   -0.57 9  150 261 
 PTB  HN ES        657 11.15                             133   -0.89 9  150 261 
 PTB  HZ I         657 18.55        10.7 0.42            131            150 261 
 SPBC HZ EP        656 52.09                             131    0.77 9  161 221 
 SPBC HN ES        657 14.35                             131    0.44 9  161 221 
 SPBC HZ I         657 21.24         9.6 0.32            129            161 221 
 ZAR  HZ EP        656 55.22                             123   -0.75 8  210 293 
 ZAR  HE ES        657 22.98                             123    0.80 8  210 293 
                                                                                
