 2017 1115 0421 49.0 L   5.842 -73.750114.8  RSN  6 0.5 1.3LRSN                1
 GAP=154        1.21       5.5     4.8  8.7 -0.5855E+01  0.7533E+01 -0.5942E+01E
 Epicentro: JESUS MARIA - SANTANDER                                            3
 ACTION:UPD 17-12-12 19:55 OP:rebc STATUS:               ID:20171115042149 L   I
 OLDACT:DUP 17-11-15 17:04 OP:leo  STATUS:               ID:20171115041736d    3
 OLDACT:DUP 17-11-15 17:00 OP:leo  STATUS:               ID:20171115041735d    3
 2017-11-15-0418-00M.COL___453                                                 6
 STAT SP IPHASW D HRMM SECON CODA AMPLIT PERI AZIMU VELO AIN AR TRES W  DIS CAZ7
 SPBC HZ EP        422  5.13                             159   -0.1810 41.4 240 
 SPBC HN ES        422 17.84                             159   -0.2110 41.4 240 
 SPBC HZ I         422 19.36        10.1 0.34            161           41.4 240 
 RUS  HZ EP        422  7.60                             145   -0.1710 74.0  86 
 RUS  HN ES        422 22.55                             145    0.1210 74.0  86 
 RUS  HZ I         422 24.54         2.7 0.16            148           74.0  86 
 PTB  HZ EP        422  9.11                             133   -0.8710  110 315 
 PTB  HN ES        422 25.83                             133   -0.5410  110 315 
 PTB  HZ I         422 26.94         3.0 0.12            134            110 315 
 NOR  HZ EP        422 11.85                             128    0.1610  128 256 
 NOR  HN ES        422 30.16                             128    0.7510  128 256 
 NOR  HZ I         422 33.14         4.7 0.26            131            128 256 
 BRR  HZ EP        422 13.00                             125    0.19 9  140   2 
 BRR  HN ES        422 32.16                             125    0.76 9  140   2 
 BRR  HZ I         422 37.83         3.0 0.24            127            140   2 
 GUY2CHZ EP        422 19.03                             117    0.19 9  192 249 
 GUY2CHZ I         422 51.56         1.2 0.68                           192 249 
                                                                                
