 2012  115 0041 31.6 L   7.114 -73.984 87.6  RSN 12 0.4 2.7LRSN                1
 GAP=146        0.87       4.2     2.7  6.5 -0.8729E+00  0.2360E+01  0.7898E+01E
 Epicentro: BARRANCABERMEJA - SANTANDER                                        3
 ACTION:UP  12-02-03 08:17 OP:REBC STATUS:               ID:20120115004131 L   I
 2012-01-15-0040-00M.COL___182                                                 6
 STAT SP IPHASW D HRMM SECON CODA AMPLIT PERI AZIMU VELO SNR AR TRES W  DIS CAZ7
 BRR  HZ IP     D  041 44.07                             159    -0.210   30  91 
 BRR  HZ I         041 44.40       382.9 0.13                            30  91 
 BRR  HN ES   1    041 54.57                             159     0.5 7   30  91 
 PTB  HZ EP   1    041 47.44                             133    -0.5 7   82 219 
 PTB  HN ES   1    042  0.07                             133    -0.5 7   82 219 
 GIR2 SZ EP        041 48.52                             131     0.010   87  92 
 GIR2 SZ ES   1    042  1.75                             131     0.0 7   87  92 
 ZAR  HZ IP     D  041 49.96                             126    -0.110  105 294 
 ZAR  HE ES   1    042  5.05                             126     0.6 7  105 294 
 ZAR  HZ I         042  6.73       269.6 0.25                           105 294 
 BAR2 SZ EP   1    041 50.50                             126     0.1 7  106 123 
 BAR2 SZ I         042  9.59        69.8 0.29                           106 123 
 PAM  SZ EP   1    041 54.59                             117    -0.2 7  144  80 
 PAM  SN ES   1    042 12.71                             117    -0.2 7  144  80 
 PAM  SZ I         042 13.78        80.9 0.19                           144  80 
 RUS  HZ EP   1    041 57.43                             113    -0.1 7  168 144 
 RUS  HN ES   1    042 17.71                             113     0.1 7  168 144 
 RUS  HZ I         042 19.88        40.4 0.25                           168 144 
 NOR  SZ EP   1    042  0.37                             109     0.0 6  197 210 
 NOR  SE ES   1    042 22.61                             109    -0.1 6  197 210 
 HEL  HZ EP   1    042  0.45                             109    -0.5 6  199 239 
 HEL  HZ I         042 28.33        47.6 0.23                           199 239 
 CHI  HZ EP   1    042 11.10                             103     1.0 6  276 174 
 CHI  HZ I         042 55.43        25.6 0.72                           276 174 
 RREF HZ EP   1    042 12.39                             103     0.6 5  287 212 
 RREF HZ I         042 56.07        31.6 0.38                           287 212 
 PRA  HZ EP   1    042 24.27                              99     0.9 4  389 195 
                                                                                
