 2011 1015 0451 50.3 L   6.799 -73.118154.0  RSN  5 0.3 1.5LRSN                1
 GAP=140        0.68       5.6     5.7  8.6  0.2190E+01 -0.4194E+00  0.1546E+02E
 Epicentro: LOS SANTOS - SANTANDER                                             3
 ACTION:UPD 12-07-13 16:03 OP:ep   STATUS:               ID:20111015045150 L   I
 2011-10-15-0450-43S.COL___168                                                 6
 STAT SP IPHASW D HRMM SECON CODA AMPLIT PERI AZIMU VELO AIN AR TRES W  DIS CAZ7
 BAR2 SZ EP        452 10.68                             171   -0.2610 24.0 197 
 BAR2 SZ I         452 10.95         4.8 0.38                          24.0 197 
 BRR  HZ EP        452 12.63                             153    0.1310 74.0 297 
 BRR  HZ I         452 12.80         9.2 0.36                          74.0 297 
 BRR  HN ES   1    452 30.23                             153    0.42 7 74.0 297 
 PAM  SZ EP        452 13.52                             153    0.2310 75.5  38 
 PAM  SE ES   1    452 30.88                             153   -0.35 7 75.5  38 
 RUS  HZ EP        452 14.91                             145    0.0510  100 178 
 RUS  HN ES   2    452 33.92                             145   -0.08 5  100 178 
 ZAR  HN ES   2    452 48.57                             124   -0.98 4  207 292 
                                                                                
