 2016 1115 0542 15.8 L   6.803 -73.143145.1  RSN 14 0.5 2.1LRSN                1
 GAP=151        1.15       4.8     5.1  6.8 -0.1798E+01  0.8280E+01  0.1200E+02E
 Epicentro: LOS SANTOS - SANTANDER                                             3
 ACTION:UPD 17-10-26 21:08 OP:lp   STATUS:               ID:20161115054215 L   I
 OLDACT:UP  16-11-15 16:49 OP:edw  STATUS:               ID:20161115053748d    3
 OLDACT:DUP 16-11-15 16:40 OP:edw  STATUS:               ID:20161115053748d    3
 OLDACT:UP  16-11-15 16:37 OP:edw  STATUS:               ID:20161115053747     3
 OLDACT:UP  16-11-15 16:36 OP:edw  STATUS:               ID:20161115053747     3
 OLDACT:REG 16-11-15 13:30 OP:edw  STATUS:               ID:20161115053747     3
 2016-11-15-0538-00M.COL___344                                                 6
 STAT SP IPHASW D HRMM SECON CODA AMPLIT PERI AZIMU VELO AIN AR TRES W  DIS CAZ7
 BAR2 EZ EP        542 35.20                             170   -0.1410 23.7 191 
 BAR2 EZ ES        542 50.27                             170   -0.3210 23.7 191 
 BAR2 EZ I         542 51.53        28.7 0.22            166           23.7 191 
 BRR  HZ IP     C  542 37.01                             152    0.1410 71.3 298 
 BRR  HN ES        542 54.43                             152    1.1210 71.3 298 
 BRR  HZ I         542 57.51        24.8 0.12            151           71.3 298 
 PAM  EZ EP     D  542 38.14                             151    0.2410 76.9  40 
 PAM  EN ES        542 54.89                             151   -0.2610 76.9  40 
 PAM  EZ I         542 57.26        24.4 0.50            157           76.9  40 
 PTB  HZ EP        542 41.87                             132   -0.86 9  148 259 
 PTB  HN ES        543  3.07                             132   -0.68 9  148 259 
 PTB  HZ I         543  6.31        15.9 0.54            131            148 259 
 ZAR  HZ EP        542 48.06                             122   -0.15 9  204 292 
 ZAR  HN ES        543 13.45                             122   -0.04 9  204 292 
 ZAR  HZ I         543 19.02        24.3 0.30            123            204 292 
 NOR  HN ES   2    543 19.53                             118    0.13 4  235 234 
 CHI  HZ EP        542 53.79                             117    0.30 8  249 195 
 CHI  HN ES        543 22.77                             117   -0.13 8  249 195 
 CHI  HZ I         543 28.83         3.6 0.28            117            249 195 
 ROSC BZ EP   4    542 56.05                             116    2.13 0  253 211 
 ROSC BN ES   4    543 25.59                             116    1.93 0  253 211 
 ROSC BZ I         543 29.94         9.3 0.35            117            253 211 
 URE  HZ EP   4    542 59.52                             113    2.68 0  284 292 
 URE  HN ES   4    543 25.82                             113   -3.05 0  284 292 
 URE  HZ I         543 30.03        11.9 0.18            114            284 292 
 PTGC HZ EP   4 D  542 58.18                             111   -1.45 0  309 159 
 PTGC HN ES   4    543 31.31                             111   -2.52 0  309 159 
 LL6C HZ EP   4    542 40.28                             110   -21.1 0  325 358 
 LL6C HN ES   4    543 17.97                             110   -19.0 0  325 358 
 CBOC HZ EP        543  3.22                             110    0.50 7  334 252 
 CBOC HN ES   4    543 38.09                             110   -1.24 0  334 252 
 CBOC HZ I         543 48.93         1.8 0.21            110            334 252 
 ARGC HZ EP   2    543  4.91                             108   -0.48 3  359 340 
 ARGC HN ES   4    543 38.17                             108   -5.91 0  359 340 
 PRA  HZ EP        543  9.79                             106    0.45 6  392 210 
 PRA  HE ES        543 52.04                             106    0.94 6  392 210 
 PRA  HZ I         543 56.87         6.0 0.26            107            392 210 
 ORTC HZ EP        543  9.51                             106   -0.23 6  396 216 
 ORTC HN ES   4    543 53.39                             106    1.57 0  396 216 
 ORTC HZ I         543 59.96         4.6 0.86            107            396 216 
 SJC  HZ EP   4    543  9.19                             106   -2.12 0  409 327 
 SJC  HN ES   4    543 50.03                             106   -4.59 0  409 327 
 SJC  HZ I         543 54.71         3.3 0.46            107            409 327 
                                                                                
