 2015  315 0039 49.2 L   6.803 -73.156150.3  RSN  5 0.3 1.1LRSN                1
 GAP=135        0.73       4.8     4.5  6.3 -0.3969E+01  0.5504E+00  0.4600E+01E
 Epicentro: LOS SANTOS - SANTANDER                                             3
 ACTION:UPD 15-04-30 16:25 OP:nd   STATUS:               ID:20150315003949 L   I
 OLDACT:REG 15-03-15 12:31 OP:spq  STATUS:               ID:20150315003742     3
 2015-03-15-0037-42M.COL___260                                                 6
 STAT SP IPHASW D HRMM SECON CODA AMPLIT PERI AZIMU VELO AIN AR TRES W  DIS CAZ7
 BAR2 EZ EP        040  9.26                             171   -0.1610 23.5 187 
 BAR2 EZ ES   1    040 25.05                             171   -0.11 7 23.5 187 
 BAR2 EZ I         040 25.66         3.9 0.16            171           23.5 187 
 BRR  HZ EP   1    040 11.24                             154    0.42 7 70.1 299 
 BRR  HN ES        040 28.05                             154    0.4010 70.1 299 
 BRR  HZ I         040 30.06         6.5 0.27            153           70.1 299 
 PAM  SZ EP        040 12.14                             151    0.1710 77.8  40 
 PAM  SN ES        040 29.35                             151   -0.3410 77.8  40 
 PAM  SZ I         040 31.27         1.6 0.35            153           77.8  40 
 RUS  HZ EP   1    040 13.59                             145    0.12 7  101 175 
 RUS  HE ES   1    040 32.62                             145    0.25 7  101 175 
 RUS  HZ I         040 33.39         0.8 0.62            146            101 175 
 PTB  HZ EP   1    040 16.09                             133   -0.40 7  147 259 
 PTB  HN ES   1    040 37.23                             133   -0.52 7  147 259 
 PTB  HZ I         040 40.02         1.8 0.10            134            147 259 
                                                                                
