 2013  515 0332 30.6 L   6.736 -73.160144.1  RSN  5 0.5 1.1LRSN                1
 GAP=180        0.93       8.1     8.4  9.0  0.2842E+02  0.1706E+02  0.2247E+02E
 Epicentro: VILLANUEVA - SANTANDER                                             3
 ACTION:UPD 13-06-20 09:50 OP:ep   STATUS:               ID:20130515033230 L   I
 2013-05-15-0330-00M.COL___256                                                 6
 STAT SP IPHASW D HRMM SECON CODA AMPLIT PERI AZIMU VELO AIN AR TRES W  DIS CAZ7
 BAR2 SZ EP   1    332 49.35                             173   -0.60 7 16.1 189 
 BAR2 SZ ES   1    333  4.37                             173   -0.64 7 16.1 189 
 BAR2 SZ I         333  6.18         4.3 0.36            166           16.1 189 
 GIR2 SZ ES   1    333  5.57                             164   -0.11 7 38.1 354 
 BRR  HZ EP   1    332 52.04                             151    0.28 7 73.6 304 
 BRR  HN ES   1    333  8.98                             151    0.76 7 73.6 304 
 RUS  HZ EP        332 53.91                             145    0.1710 93.6 175 
 RUS  HN ES   1    333 12.26                             145    0.50 7 93.6 175 
 RUS  HZ I         333 14.36         0.9 0.34            143           93.6 175 
 PTB  HZ EP   1    332 57.08                             132   -0.15 7  145 261 
 PTB  HN ES   1    333 17.57                             132   -0.40 7  145 261 
 PTB  HZ I         333 22.28         2.3 0.20            130            145 261 
                                                                                
