 2011  415 0854 18.5 L   6.794 -73.136147.7  RSN 12 0.5 2.6LRSN                1
 GAP=115        1.03       4.2     5.4  6.3 -0.5705E+01  0.5826E+01  0.7006E+01E
 Epicentro: LOS SANTOS - SANTANDER                                             3
 ACTION:UP  11-06-22 15:31 OP:REBC STATUS:               ID:20110415085418 L   I
 2011-04-15-0850-42S.COL___139                                                 6
 STAT SP IPHASW D HRMM SECON CODA AMPLIT PERI AZIMU VELO SNR AR TRES W  DIS CAZ7
 BTL  SZ EP   1    854 38.58                             172     0.3 7   20 314 
 BTL  SZ ES   1    854 53.82                             172     0.1 7   20 314 
 BAR2 SZ IP        854 38.22                             171    -0.110   23 193 
 BAR2 SZ ES   1    854 53.00                             171    -0.8 7   23 193 
 BAR2 SZ I         854 55.04        95.6 0.26                            23 193 
 GIR2 SZ EP   1    854 39.27                             167     0.8 7   32 349 
 GIR2 SZ ES   1    854 54.67                             167     0.7 7   32 349 
 BRR  HZ EP   1    854 40.09                             152     0.2 7   72 299 
 BRR  HE ES   1    854 57.31                             152     0.7 7   72 299 
 BRR  HZ I         855  1.43        77.8 0.19                            72 299 
 PAM  SZ EP   1    854 40.91                             151     0.0 7   77  39 
 PAM  SN ES   1    854 58.18                             151    -0.2 7   77  39 
 GRA  SZ IP        854 44.03                             137     0.110  126  17 
 GRA  SZ ES   1    855  3.17                             137    -0.6 7  126  17 
 GRA  SZ I         855  6.94        57.9 0.41                           126  17 
 OCA  SZ EP   1    854 46.32                             130    -0.7 7  161 353 
 OCA  SZ ES   1    855  9.05                             130    -0.3 7  161 353 
 YOP  SZ EP   1    854 48.55                             127     0.0 7  178 154 
 YOP  SZ I         854 49.46        20.3 0.47                           178 154 
 YOP  SE ES   1    855 12.37                             127     0.3 7  178 154 
 NOR  SZ EP   1    854 54.09                             119    -0.3 6  235 235 
 NOR  SN ES   1    855 21.62                             119    -0.8 6  235 235 
 HEL  HZ EP   1    854 59.65                             115     0.7 6  273 256 
 HEL  HN ES   1    855 30.12                             115    -0.3 6  273 256 
 HEL  HZ I         855 36.66        25.3 0.36                           273 256 
 GUY  SZ EP   1    855  3.15                             113     0.6 5  304 235 
 GUY  SZ I         855 45.65        51.2 0.35                           304 235 
 PRA  HZ EP   1    855 11.90                             107    -0.2 4  392 210 
 PRA  HE ES   1    855 53.34                             107    -0.5 4  392 210 
                                                                                
