 2010  915 0404 32.5 L   6.827 -72.942133.9  RSN  4 0.2 1.4LRSN                1
 GAP=258        0.70      13.7    19.1  9.9  0.2163E+03 -0.1024E+03 -0.5084E+02E
 Epicentro: CEPITA - SANTANDER                                                 3
 ACTION:UP  11-02-18 11:02 OP:tino STATUS:               ID:20100915040432 L   I
 2010-09-15-0401-27S.COL___118                                                 6
 STAT SP IPHASW D HRMM SECON CODA AMPLIT PERI AZIMU VELO SNR AR TRES W  DIS CAZ7
 BAR2 SZ EP        4 4 51.50                             164     0.410   37 226 
 BTL  SZ EP        4 4 51.10                             164     0.010   37 286 
 BAR2 SZ ES   1    4 5  5.39                             164    -0.3 7   37 226 
 BAR2 SZ I         4 5  9.45         9.5 0.39                            37 226 
 BRR  HZ EP        4 4 53.45                             144    -0.310   91 290 
 BRR  HE ES   1    4 5 10.42                             144     0.2 7   91 290 
 BRR  HZ I         4 5 14.11         5.9 0.21                            91 290 
 RUS  HZ EP        4 4 55.40                             140     0.010  104 189 
 RUS  HZ I         4 5 15.48         2.3 0.24                           104 189 
                                                                                
