 2017  715 0927 11.3 L   6.813 -73.143149.2  RSN  7 0.2 1.4LRSN                1
 GAP=136        0.61       3.0     3.2  5.3 -0.2931E+01 -0.9089E+00  0.3902E+01E
 Epicentro: LOS SANTOS - SANTANDER                                             3
 ACTION:UPD 17-08-30 15:33 OP:rebc STATUS:               ID:20170715092711 L   I
 OLDACT:UP  17-07-15 18:19 OP:dnl  STATUS:               ID:20170715091742     3
 OLDACT:REG 17-07-15 13:29 OP:dnl  STATUS:               ID:20170715091742     3
 2017-07-15-0918-00M.COL___368                                                 6
 STAT SP IPHASW D HRMM SECON CODA AMPLIT PERI AZIMU VELO AIN AR TRES W  DIS CAZ7
 BAR2 EZ EP        927 31.14                             170   -0.2610 24.8 190 
 BAR2 EZ I         927 47.32         7.4 0.30            172           24.8 190 
 BRR  HZ EP        927 32.65                             153   -0.1810 70.8 297 
 BRR  HN ES        927 49.90                             153    0.3010 70.8 297 
 BRR  HZ I         927 56.49         6.4 0.38            149           70.8 297 
 PAM  EZ EP        927 34.16                             152    0.3310 76.1  40 
 PAM  EN ES        927 51.22                             152   -0.1710 76.1  40 
 PAM  EZ I         927 53.23         3.1 0.50            150           76.1  40 
 RUS  HZ EP        927 35.42                             144   -0.1010  102 176 
 RUS  HN ES        927 54.42                             144    0.0310  102 176 
 RUS  HZ I         927 55.17         1.6 0.32            146            102 176 
 PTB  HE ES        927 59.65                             133   -0.28 9  148 258 
 PTB  HZ I         928  4.37         1.7 0.30            131            148 258 
 SPBC HZ EP        927 40.44                             130    0.22 9  165 219 
 SPBC HE ES        928  2.88                             130    0.13 9  165 219 
 SPBC HZ I         928  5.06         3.9 0.26            129            165 219 
 ZAR  HZ EP   4    927 46.30                             123    2.33 0  204 292 
 ZAR  HE ES   4    928  7.42                             123   -2.02 0  204 292 
 ZAR  HZ I         928 14.31         2.6 0.24            121            204 292 
                                                                                
