 2011  215 0714 39.2 L   6.767 -73.146138.0  RSN  5 0.2 1.3LRSN                1
 GAP=159        0.52       2.6    13.7  5.8 -0.8713E+01 -0.1417E+02 -0.1890E+01E
 Epicentro: LOS SANTOS - SANTANDER                                             3
 ACTION:UP  11-03-28 15:08 OP:jfem STATUS:               ID:20110215071439 L   I
 2011-02-15-0713-00S.COL___136                                                 6
 STAT SP IPHASW D HRMM SECON CODA AMPLIT PERI AZIMU VELO SNR AR TRES W  DIS CAZ7
 BAR2 SZ EP        714 57.63                             171    -0.210   20 192 
 BAR2 SZ ES   1    715 12.72                             171     0.3 7   20 192 
 BAR2 SZ I         715 15.56         6.9 0.49                            20 192 
 GIR2 SZ EP   3    714 57.66                             165    -0.4 2   35 351 
 GIR2 SZ ES   3    715 12.41                             165    -0.4 2   35 351 
 RUS  HZ EP        715  1.94                             143     0.010   97 176 
 RUS  HN ES   1    715 19.69                             143     0.0 7   97 176 
 RUS  HZ I         715 21.06         2.0 0.29                            97 176 
 GRA  SZ EP        715  4.34                             134     0.210  129  17 
 GRA  SZ I         715  5.46         3.8 0.39                           129  17 
 GRA  SZ ES   1    715 23.27                             134    -0.2 7  129  17 
 OCA  SZ ES   1    715 29.22                             127     0.0 7  164 353 
                                                                                
