 2017 1215 0827 19.4 L   6.746 -73.194145.8  RSN  5 0.3 1.5LRSN                1
 GAP=180        0.85       3.9     5.4  7.3 -0.2789E+01  0.1243E+02 -0.3247E+01E
 Epicentro: VILLANUEVA - SANTANDER                                             3
 ACTION:UPD 18-01-04 13:20 OP:rebc STATUS:               ID:20171215082719 L   I
 OLDACT:UP  17-12-15 16:26 OP:edw  STATUS:               ID:20171215081742d    3
 OLDACT:DUP 17-12-15 16:19 OP:edw  STATUS:               ID:20171215081742d    3
 OLDACT:REG 17-12-15 12:54 OP:edw  STATUS:               ID:20171215081741     3
 2017-12-15-0818-00M.COL___461                                                 6
 STAT SP IPHASW D HRMM SECON CODA AMPLIT PERI AZIMU VELO AIN AR TRES W  DIS CAZ7
 BAR2 EZ EP        827 38.67                             173   -0.2710 17.0 176 
 BAR2 EZ ES        827 53.92                             173   -0.2510 17.0 176 
 BAR2 EZ I         827 55.08         9.3 0.40            169           17.0 176 
 PTB  HZ EP        827 45.70                             133   -0.12 9  141 261 
 PTB  HN ES        828  6.43                             133    0.02 9  141 261 
 PTB  HZ I         828  8.37         2.0 0.14            133            141 261 
 SPBC HZ EP        827 47.65                             131    0.49 9  155 219 
 SPBC HN ES        828  9.09                             131    0.28 9  155 219 
 SPBC HZ I         828 15.65         6.8 0.10            130            155 219 
 OCA  HE ES        828 11.24                             129    0.52 9  166 355 
 ZAR  HZ EP        827 51.03                             123   -0.57 9  201 294 
 ZAR  HE ES        828 16.62                             123   -0.08 9  201 294 
                                                                                
