 2012 1115 0713 45.5 L   6.754 -73.148141.5  RSN  5 0.4 1.2LRSN                1
 GAP=138        0.69       5.4     5.1 13.2  0.9618E+01 -0.1343E+02 -0.4650E+02E
 Epicentro: LOS SANTOS - SANTANDER                                             3
 ACTION:UPD 12-12-05 15:33 OP:}ep  STATUS:               ID:20121115071345 L   I
 2012-11-15-0710-00M.COL___230                                                 6
 STAT SP IPHASW D HRMM SECON CODA AMPLIT PERI AZIMU VELO AIN AR TRES W  DIS CAZ7
 PAM  SZ EP   1    714  7.85                             148    0.31 7 81.6  37 
 PAM  SZ I         714  8.02         4.7 0.18                          81.6  37 
 RUS  HZ EP   1    714  8.58                             144    0.10 7 95.5 176 
 RUS  HN ES   1    714 26.29                             144   -0.10 7 95.5 176 
 RUS  HZ I         714 27.98         2.5 0.30                          95.5 176 
 PTB  HZ EP   1    714 11.91                             131   -0.12 7  147 261 
 PTB  HN ES   1    714 32.32                             131   -0.38 7  147 261 
 PTB  HZ I         714 33.68         1.6 0.32                           147 261 
 ZAR  HE ES   1    714 43.88                             121    0.78 6  206 293 
 SML  HZ EP   1    714 22.17                             116   -0.23 6  248 336 
 SML  HE ES   1    714 50.69                             116   -0.48 6  248 336 
                                                                                
