 2013 1215 0445 43.9 L   6.780 -73.159145.6  RSN  8 0.5 1.9LRSN                1
 GAP=136        1.26       4.8     5.7  9.2 -0.2590E+01  0.8704E+01 -0.5965E+00E
 Epicentro: LOS SANTOS - SANTANDER                                             3
 ACTION:UPD 14-01-13 10:18 OP:ep   STATUS:               ID:20131215044543 L   I
 OLDACT:REG 13-12-15 07:17 OP:jn   STATUS:               ID:20131215044000     3
 2013-12-15-0440-00M.COL___285                                                 6
 STAT SP IPHASW D HRMM SECON CODA AMPLIT PERI AZIMU VELO AIN AR TRES W  DIS CAZ7
 BAR2 SZ EP        446  3.62                             171    0.1910 21.0 187 
 BAR2 SZ ES        446 18.51                             171   -0.1810 21.0 187 
 BAR2 SZ I         446 20.02        28.8 0.15            172           21.0 187 
 BRR  HZ EP        446  5.45                             153    0.4610 71.0 301 
 BRR  HN ES        446 22.42                             153    0.9610 71.0 301 
 PAM  SZ EP        446  6.49                             150    0.2710 80.0  39 
 PAM  SN ES        446 23.60                             150   -0.0610 80.0  39 
 PAM  SZ I         446 25.65        16.3 0.48            151           80.0  39 
 RUS  HZ EP        446  7.52                             144    0.0710 98.5 175 
 RUS  HN ES        446 25.71                             144   -0.1410 98.5 175 
 RUS  HZ I         446 27.36         9.3 0.32            146           98.5 175 
 PTB  HZ EP        446 10.57                             132   -0.08 9  146 260 
 PTB  HN ES        446 30.96                             132   -0.59 9  146 260 
 PTB  HZ I         446 33.76         5.9 0.34            132            146 260 
 SPBC HN ES   1    446 33.58                             129   -0.55 7  161 219 
 SPBC HZ I         446 37.23         9.8 0.18            130            161 219 
 OCA  HN ES        446 33.48                             129   -1.09 9  162 354 
 OCA  HZ I         446 37.86         6.3 0.18            129            162 354 
 ZAR  HN ES   1    446 41.97                             122    0.46 6  204 293 
 ZAR  HZ I         446 48.28         8.9 0.32            122            204 293 
                                                                                
