 2017 1215 0625 33.4 L   6.835 -73.200129.4  RSN  6 0.5 1.4LRSN                1
 GAP=181        1.21       5.3     6.9  9.7 -0.1449E+02  0.2666E+02 -0.9044E+01E
 Epicentro: ZAPATOCA - SANTANDER                                               3
 ACTION:UPD 18-01-04 13:20 OP:rebc STATUS:               ID:20171215062533 L   I
 OLDACT:UP  17-12-15 14:14 OP:edw  STATUS:               ID:20171215061742d    3
 OLDACT:DUP 17-12-15 14:06 OP:edw  STATUS:               ID:20171215061742d    3
 2017-12-15-0618-00M.COL___479                                                 6
 STAT SP IPHASW D HRMM SECON CODA AMPLIT PERI AZIMU VELO AIN AR TRES W  DIS CAZ7
 BAR2 EZ EP        625 50.31                             168   -0.8510 26.9 176 
 BAR2 EZ ES        626  5.54                             168    0.5410 26.9 176 
 BAR2 EZ I         626  6.75         9.0 0.14            170           26.9 176 
 PTB  HZ EP        625 57.94                             129   -0.67 9  143 257 
 PTB  HN ES        626 17.89                             129   -0.38 9  143 257 
 PTB  HZ I         626 25.13         2.0 0.56            130            143 257 
 OCA  HZ EP        626  0.49                             126    0.44 9  156 355 
 OCA  HN ES        626 20.75                             126   -0.08 9  156 355 
 OCA  HZ I         626 24.11         9.9 0.38            129            156 355 
 ZAR  HZ EP        626  4.71                             119    0.62 9  197 292 
 ZAR  HE ES        626 27.90                             119   -0.12 9  197 292 
 ZAR  HZ I         626 32.34         3.0 0.32            121            197 292 
 NOR  HZ EP        626  8.18                             115    0.22 8  232 233 
 NOR  HE ES        626 35.50                             115    0.58 8  232 233 
 NOR  HZ I         626 38.10         1.1 0.48            118            232 233 
 GUY2CHN ES        626 49.31                             109    0.06 7  299 233 
                                                                                
