 2014  515 0456 35.7 L   6.809 -73.127151.4  RSN 18 0.5 2.3LRSN                1
 GAP= 72        1.07       2.6     3.4  5.9 -0.1039E+01  0.3674E+01  0.1783E+01E
 Epicentro: LOS SANTOS - SANTANDER                                             3
 OLDACT:REG 14-05-15 13:45 OP:spq  STATUS:               ID:20140515044814     3
 ACTION:UPD 15-03-16 16:57 OP:nd   STATUS:               ID:20140515045635 L   I
 OLDACT:UP  14-05-15 17:08 OP:fm   STATUS:               ID:20140515044814     3
 2014-05-15-0448-14M.COL___251                                                 6
 STAT SP IPHASW D HRMM SECON CODA AMPLIT PERI AZIMU VELO AIN AR TRES W  DIS CAZ7
 BRR  HZ EP        456 57.79                             153    0.2310 72.5 297 
 BRR  HE ES        457 15.23                             153    0.6410 72.5 297 
 BRR  HZ I         457 18.24        25.5 0.14            151           72.5 297 
 PAM  SZ EP        456 58.75                             152    0.3310 75.4  39 
 PAM  SN ES        457 15.86                             152   -0.2710 75.4  39 
 PAM  HZ I         457 17.68        24.1 0.62            156           75.4  39 
 RUS  HZ EP        456 59.79                             145   -0.3010  101 177 
 RUS  HE ES        457 19.04                             145   -0.0610  101 177 
 PTB  HZ EP        457  2.76                             133   -0.59 9  150 259 
 PTB  HN ES        457 24.00                             133   -0.90 9  150 259 
 PTB  HZ I         457 31.03        38.2 0.34            132            150 259 
 TAM  HZ EP   1    457  4.00                             132    0.30 7  153 106 
 TAM  HN ES   1    457 26.09                             132    0.57 7  153 106 
 OCA  HZ EP        457  4.58                             131    0.17 9  160 352 
 OCA  HN ES        457 26.40                             131   -0.39 9  160 352 
 OCA  HZ I         457 31.39        18.1 0.18            133            160 352 
 SPBC HZ EP        457  4.85                             130    0.00 9  165 219 
 SPBC HN ES        457 27.74                             130    0.18 9  165 219 
 SPBC HZ I         457 33.99        25.9 0.40            129            165 219 
 ZAR  HZ EP        457  8.33                             123   -0.36 8  206 292 
 ZAR  HE ES        457 35.34                             123    0.93 8  206 292 
 ZAR  HZ I         457 39.55        18.5 0.26            123            206 292 
 NOR  HZ EP        457 12.25                             119    0.23 8  237 235 
 NOR  HE ES        457 39.77                             119   -0.56 8  237 235 
 NOR  HZ I         457 43.59        17.9 0.16            119            237 235 
 SML  HZ EP        457 12.43                             119   -0.24 8  244 335 
 SML  HE ES        457 41.58                             119    0.10 8  244 335 
 SML  HZ I         457 46.21        28.4 0.08            120            244 335 
 CHI  HZ EP        457 13.97                             118    0.07 8  250 196 
 CHI  HN ES        457 42.98                             118   -0.69 8  250 196 
 HEL  HZ EP   4    457 17.84                             116    1.37 0  274 256 
 HEL  HN ES        457 48.69                             116    0.44 8  274 256 
 HEL  HZ I         457 55.10        11.2 0.34            116            274 256 
 URE  HZ EP   4    457 15.93                             114   -1.31 0  285 292 
 URE  HE ES   4    457 47.68                             114   -1.94 0  285 292 
 URE  HZ I         457 54.09         9.5 0.16            115            285 292 
 PTGC HZ EP   4    457 18.79                             113   -1.06 0  309 159 
 PTGC HN ES   4    457 52.33                             113   -1.95 0  309 159 
 PTGC HZ I         458  1.04         9.6 0.48            114            309 159 
 TOL  SZ ES   1    458  3.06                             110    0.60 5  346 225 
 TOL  HZ I         458 13.38         6.5 2.30            110            346 225 
 ARGC HN ES   1    458  3.82                             109   -0.64 5  359 340 
 ANIL HE ES   4    458 10.40                             109    5.20 0  359 225 
 PRA  HZ EP        457 30.68                             107    1.02 6  394 210 
 PRA  HN ES        458 11.29                             107   -0.43 6  394 210 
 PRA  HZ I         458 28.02         9.4 2.12            108            394 210 
 ORTC HN ES   1    458 13.27                             107    0.81 4  397 216 
 SJC  HZ EP   4    457 30.13                             107   -1.38 0  410 327 
 SJC  HN ES   4    458 11.49                             107   -3.53 0  410 327 
                                                                                
