 2015  315 0435 33.0 L   6.756 -73.155141.2  RSN  6 0.4 1.0LRSN                1
 GAP=137        0.96       5.4     5.1  8.4 -0.8625E+01  0.3329E+01  0.3649E+01E
 Epicentro: LOS SANTOS - SANTANDER                                             3
 ACTION:UPD 15-04-30 16:26 OP:nd   STATUS:               ID:20150315043533 L   I
 OLDACT:DUP 15-03-15 16:46 OP:spq  STATUS:               ID:20150315042737d    3
 2015-03-15-0427-36M.COL___260                                                 6
 STAT SP IPHASW D HRMM SECON CODA AMPLIT PERI AZIMU VELO AIN AR TRES W  DIS CAZ7
 BAR2 EZ ES   1    436  6.48                             172   -0.28 7 18.4 190 
 BAR2 EZ I         436  7.86         3.3 0.40            169           18.4 190 
 BRR  HZ EP        435 53.74                             151    0.0310 72.8 302 
 BRR  HE ES        436 10.63                             151    0.7410 72.8 302 
 BRR  HZ I         436 11.67         2.6 0.46            152           72.8 302 
 PAM  SZ EP        435 54.87                             149   -0.0910 81.8  38 
 PAM  SN ES        436 11.79                             149   -0.3410 81.8  38 
 PAM  SZ I         436 13.12         1.8 0.34            153           81.8  38 
 RUS  HZ EP   1    435 56.66                             144    0.74 7 95.8 175 
 RUS  HE ES   1    436 13.77                             144   -0.06 7 95.8 175 
 RUS  HZ I         436 15.06         0.8 0.28            143           95.8 175 
 PTB  HZ EP   1    435 59.06                             131   -0.33 7  146 261 
 PTB  HN ES        436 19.53                             131   -0.47 9  146 261 
 PTB  HZ I         436 22.21         1.7 0.18            131            146 261 
 SPBC HN ES   1    436 22.35                             129    0.02 7  159 220 
 SPBC HZ I         436 29.98         1.4 0.24            128            159 220 
                                                                                
