 2012 1215 0352 52.4 L   6.765 -73.159149.1  RSN  7 0.4 1.5LRSN                1
 GAP=136        0.86       4.6     5.1  7.5  0.2080E+01  0.7085E+01  0.7194E+01E
 Epicentro: LOS SANTOS - SANTANDER                                             3
 ACTION:UPD 13-01-04 14:27 OP:ep   STATUS:               ID:20121215035252 L   I
 2012-12-15-0349-56M.COL___210                                                 6
 STAT SP IPHASW D HRMM SECON CODA AMPLIT PERI AZIMU VELO AIN AR TRES W  DIS CAZ7
 BAR2 SZ EP   1    353 12.32                             172    0.01 7 19.3 188 
 BAR2 SZ ES   1    353 28.04                             172    0.16 7 19.3 188 
 BAR2 SZ I         353 29.24        12.3 0.28                          19.3 188 
 BRR  HZ EP     D  353 14.21                             153    0.3110 71.8 302 
 BRR  HN ES   1    353 31.36                             153    0.65 7 71.8 302 
 BRR  HZ I         353 36.68         5.3 0.18                          71.8 302 
 PAM  SZ EP   1    353 15.17                             150    0.01 7 81.3  39 
 PAM  SN ES   1    353 32.15                             150   -0.79 7 81.3  39 
 PAM  SZ I         353 34.31         7.2 0.64                          81.3  39 
 RUS  HZ EP   1    353 16.27                             145    0.10 7 96.9 175 
 RUS  HE ES   1    353 35.00                             145    0.24 7 96.9 175 
 RUS  HZ I         353 36.45         2.8 0.22                          96.9 175 
 PTB  HZ EP   1    353 19.09                             133   -0.31 7  146 260 
 PTB  HN ES   1    353 40.06                             133   -0.44 7  146 260 
 PTB  HZ I         353 42.43         6.4 0.11                           146 260 
 ZAR  HE ES   1    353 50.28                             123   -0.24 6  204 293 
 ZAR  HZ I         353 56.83         4.1 0.09                           204 293 
 CHI  HZ EP   1    353 30.44                             118    0.64 6  245 195 
 CHI  HN ES   1    353 58.21                             118   -0.80 6  245 195 
 CHI  HZ I         354  3.85         1.3 0.28                           245 195 
 MON  HZ EP   4    353 39.35                             109   -2.28 0  355 309 
 MON  HE ES   4    354 18.13                             109   -1.93 0  355 309 
                                                                                
