 2016  415 0634  7.1 L   6.821 -73.164138.8  RSN 12 0.4 2.0LRSN                1
 GAP=133        0.89       2.7     3.5  5.3 -0.2386E+01  0.6746E+01  0.3308E+00E
 Epicentro: LOS SANTOS - SANTANDER                                             3
 ACTION:UPD 16-05-05 14:21 OP:rebc STATUS:               ID:20160415063407 L   I
 OLDACT:UP  16-04-15 19:50 OP:mh   STATUS:               ID:20160415062742     3
 OLDACT:UP  16-04-15 19:49 OP:mh   STATUS:               ID:20160415062742     3
 OLDACT:REG 16-04-15 14:02 OP:mh   STATUS:               ID:20160415062742     3
 2016-04-15-0627-42M.COL___310                                                 6
 STAT SP IPHASW D HRMM SECON CODA AMPLIT PERI AZIMU VELO AIN AR TRES W  DIS CAZ7
 BAR2 EZ EP        634 26.04                             169    0.0610 25.4 185 
 BAR2 EZ ES        634 40.07                             169   -0.6010 25.4 185 
 BAR2 EZ I         634 43.80        16.1 0.17            168           25.4 185 
 PAM  EZ EP        634 28.79                             150    0.2010 76.9  42 
 PAM  EN ES        634 45.75                             150    0.4310 76.9  42 
 PAM  EZ I         634 47.88        17.7 0.58            156           76.9  42 
 RUS  HZ EP        634 30.13                             142   -0.2710  103 175 
 RUS  HN ES        634 48.90                             142    0.3610  103 175 
 RUS  HZ I         634 50.54        13.8 0.34            144            103 175 
 PTB  HZ EP        634 32.65                             131   -0.76 9  146 258 
 PTB  HN ES        634 54.04                             131    0.15 9  146 258 
 PTB  HZ I         634 56.15        14.5 0.12            131            146 258 
 OCA  HZ EP        634 35.00                             128    0.32 9  158 354 
 OCA  HN ES        634 55.72                             128   -0.43 9  158 354 
 OCA  HZ I         634 59.77        25.4 0.12            132            158 354 
 SPBC HZ EP        634 35.02                             127   -0.15 9  164 218 
 SPBC HN ES        634 57.12                             127    0.09 9  164 218 
 SPBC HZ I         635  4.30        20.9 0.24            128            164 218 
 ZAR  HZ EP   1    634 38.70                             121   -0.15 6  201 292 
 ZAR  HN ES   1    635  4.07                             121    0.48 6  201 292 
 ZAR  HZ I         635  9.54         9.4 0.30            122            201 292 
 NOR  HZ EP        634 42.53                             117    0.09 8  234 234 
 NOR  HN ES        635 10.48                             117    0.50 8  234 234 
 NOR  HZ I         635 15.13         8.7 0.29            118            234 234 
 CHI  HZ EP        634 44.56                             115   -0.09 8  250 195 
 CHI  HN ES        635 13.56                             115   -0.35 8  250 195 
 CHI  HZ I         635 19.93         4.0 0.23            118            250 195 
 ROSC BZ EP   1    634 45.84                             115    0.85 6  254 210 
 ROSC BN ES   4    635 17.03                             115    2.51 0  254 210 
 ROSC BZ I         635 21.38         8.3 0.23            117            254 210 
 HEL  HZ EP   1    634 46.55                             113   -0.30 6  271 255 
 HEL  HN ES        635 17.90                             113    0.07 8  271 255 
 HEL  HZ I         635 26.72         5.5 0.37            115            271 255 
 URE  HZ EP   4    634 46.51                             112   -1.06 0  281 292 
 URE  HN ES   4    635 17.34                             112   -1.77 0  281 292 
 GUY2CHZ EP   4    634 52.08                             111    1.68 0  301 234 
 GUY2CHN ES   4    635 27.25                             111    3.11 0  301 234 
 GUY2CHZ I         635 32.69         5.9 0.67                           301 234 
 ANIL HE ES   4    635 40.62                             107    5.24 0  358 224 
 ORTC HZ EP   4    635  0.77                             105   -0.14 0  396 216 
 ORTC HN ES   4    635 44.24                             105    1.39 0  396 216 
                                                                                
