 2011 1115 0253 22.8 L   6.622 -73.233152.0  RSN  4 0.3 1.6LRSN                1
 GAP=165        0.58       8.4     9.6  6.2  0.6661E+02  0.1572E+02  0.5362E+01E
 Epicentro: BARICHARA - SANTANDER                                              3
 ACTION:UPD 12-07-13 16:10 OP:ep   STATUS:               ID:20111115025322 L   I
 2011-11-15-0251-39S.COL___179                                                 6
 STAT SP IPHASW D HRMM SECON CODA AMPLIT PERI AZIMU VELO AIN AR TRES W  DIS CAZ7
 BAR2 SZ EP   1    253 42.93                             177   -0.04 7 6.50 120 
 BAR2 SZ ES   1    253 58.25                             177   -0.45 7 6.50 120 
 BAR2 SZ I         253 59.99        10.3 0.18                          6.50 120 
 BRR  HZ EP   1    253 45.09                             152    0.24 7 75.4 315 
 BRR  HZ I         253 45.40        12.2 0.13                          75.4 315 
 BRR  HN ES   1    254  2.41                             152    0.35 7 75.4 315 
 RUS  HZ EP   1    253 46.16                             150    0.18 7 82.3 168 
 RUS  HN ES   1    254  4.13                             150    0.08 7 82.3 168 
 RUS  HZ I         254  6.74         3.9 0.44                          82.3 168 
 ZAR  HZ EP   1    253 55.17                             124   -0.45 6  204 298 
 ZAR  HN ES   1    254 21.18                             124   -0.04 6  204 298 
 ZAR  HZ I         254 26.29         3.0 0.22                           204 298 
                                                                                
