 2013  915 0206 16.0 L   6.863 -72.996148.4  RSN 10 0.5 2.0LRSN                1
 GAP=214        1.06       4.2    10.1  7.8  0.1350E+02  0.1767E+02  0.1101E+01E
 Epicentro: CEPITA - SANTANDER                                                 3
 ACTION:UPD 13-10-22 09:22 OP:ep   STATUS:               ID:20130915020616 L   I
 OLDACT:REG 13-09-15 10:21 OP:carl STATUS:               ID:20130915015959     3
 2013-09-15-0159-59M.COL___269                                                 6
 STAT SP IPHASW D HRMM SECON CODA AMPLIT PERI AZIMU VELO AIN AR TRES W  DIS CAZ7
 BAR2 SZ EP        2 6 36.62                             166    0.3210 36.3 215 
 BAR2 SZ ES   1    2 6 52.07                             166   -0.04 7 36.3 215 
 BAR2 SZ I         2 6 54.38         9.5 0.32            160           36.3 215 
 BRR  HZ EP        2 6 38.75                             149    0.5610 83.6 289 
 BRR  HN ES   1    2 6 55.85                             149    0.37 7 83.6 289 
 BRR  HZ I         2 6 59.28        13.6 0.12            144           83.6 289 
 RUS  HZ EP        2 6 40.70                             142    0.1510  108 185 
 RUS  HE ES   1    2 6 59.43                             142   -0.26 7  108 185 
 RUS  HZ I         2 7  0.28         6.9 0.24            143            108 185 
 PTB  HZ EP   4    2 6 43.19                             129   -1.64 0  165 258 
 PTB  HN ES   4    2 7  4.74                             129   -2.56 0  165 258 
 PTB  HZ I         2 7 11.84        13.0 0.38            127            165 258 
 SPBC HZ EP        2 6 45.46                             127   -0.80 9  179 222 
 SPBC HN ES   4    2 7  7.99                             127   -1.85 0  179 222 
 SPBC HZ I         2 7 12.20        12.5 0.20            126            179 222 
 ZAR  HZ EP        2 6 49.92                             121   -0.07 8  217 289 
 ZAR  HN ES   4    2 7 15.08                             121   -1.40 0  217 289 
 ZAR  HZ I         2 7 20.75        17.1 0.26            120            217 289 
 SML  HZ EP        2 6 52.92                             118   -0.01 8  245 331 
 SML  HN ES        2 7 20.91                             118   -0.81 8  245 331 
 SML  HZ I         2 7 29.44        11.1 0.10            118            245 331 
 NOR  HZ EP   4    2 6 52.88                             117   -0.91 0  252 235 
 NOR  HN ES   4    2 7 21.18                             117   -2.07 0  252 235 
 NOR  HZ I         2 7 26.38         6.9 0.66            117            252 235 
 CHI  HZ EP        2 6 54.99                             117   -0.12 8  260 198 
 CHI  HN ES        2 7 25.08                             117   -0.52 8  260 198 
 CHI  HZ I         2 7 33.96         3.8 0.28            117            260 198 
 GUY2CHZ EP        2 7  2.74                             112    1.01 7  319 235 
 GUY2CHE ES   1    2 7 37.49                             112    0.10 5  319 235 
 GUY2CHZ I         2 7 45.44         6.0 0.46                           319 235 
                                                                                
