 2016  515 0344 13.8 L   6.752 -73.113142.0  RSN  9 0.3 1.7LRSN                1
 GAP=237        0.67       3.3     3.7  4.6  0.2949E+01  0.6887E+01  0.2932E+01E
 Epicentro: LOS SANTOS - SANTANDER                                             3
 ACTION:UPD 16-08-18 17:46 OP:cam  STATUS:               ID:20160515034413 L   I
 OLDACT:UP  16-05-15 13:55 OP:drio STATUS:               ID:20160515033747     3
 OLDACT:REG 16-05-15 12:27 OP:drio STATUS:               ID:20160515033747     3
 2016-05-15-0337-47M.COL___294                                                 6
 STAT SP IPHASW D HRMM SECON CODA AMPLIT PERI AZIMU VELO AIN AR TRES W  DIS CAZ7
 BAR2 EZ EP        344 32.83                             172   -0.0710 19.2 204 
 BAR2 EZ ES        344 47.36                             172   -0.4410 19.2 204 
 BAR2 EZ I         344 48.48        15.4 0.16            170           19.2 204 
 BRR  HZ EP        344 34.70                             150   -0.1910 77.0 301 
 BRR  HE ES        344 51.63                             150    0.2910 77.0 301 
 BRR  HZ I         344 55.46         7.4 0.12            149           77.0 301 
 RUS  HZ EP        344 37.24                             144    0.4510 95.1 178 
 RUS  HE ES        344 54.76                             144    0.0510 95.1 178 
 RUS  HZ I         344 56.59         4.4 0.52            146           95.1 178 
 PTB  HZ EP   4    344 39.69                             130   -1.02 0  150 261 
 PTB  HE ES   4    345  0.23                             130   -1.47 0  150 261 
 PTB  HZ I         345  3.03         6.3 0.48            131            150 261 
 SPBC HZ EP        344 41.94                             128    0.09 9  161 221 
 SPBC HE ES        345  3.69                             128   -0.03 9  161 221 
 SPBC HZ I         345  7.74         4.6 0.20            129            161 221 
 OCA  HZ EP   4    344 43.25                             128    0.88 0  166 352 
 OCA  HN ES   4    345  2.71                             128   -1.95 0  166 352 
 OCA  HZ I         345  4.84        13.6 0.20            130            166 352 
 ZAR  HZ EP   4    344 47.43                             121    0.86 0  209 293 
 ZAR  HN ES        345 12.28                             121    0.15 8  209 293 
 ZAR  HZ I         345 15.31         4.4 0.38            122            209 293 
 NOR  HZ EP        344 49.40                             118    0.09 8  235 236 
 NOR  HE ES        345 16.98                             118   -0.02 8  235 236 
 NOR  HZ I         345 18.63         4.1 0.14            119            235 236 
 CBOC HZ EP        345  0.13                             109   -0.65 7  335 253 
 CBOC HN ES        345 37.40                             109   -0.02 7  335 253 
 CBOC HZ I         345 40.53         1.1 0.32            110            335 253 
                                                                                
