 2017  115 0232  2.3 L   6.785 -73.179144.9  RSN  4 0.2 1.3LRSN                1
 GAP=140        0.64       7.5     4.2  5.5 -0.7016E+01 -0.6934E+00 -0.4373E+01E
 Epicentro: LOS SANTOS - SANTANDER                                             3
 ACTION:UPD 17-05-22 15:59 OP:jn   STATUS:               ID:20170115023202 L   I
 OLDACT:UP  17-01-15 13:55 OP:e    STATUS:               ID:20170115022744     3
 OLDACT:UP  17-01-15 13:55 OP:e    STATUS:               ID:20170115022744     3
 OLDACT:UP  17-01-15 13:55 OP:e    STATUS:               ID:20170115022744     3
 OLDACT:REG 17-01-15 12:26 OP:and  STATUS:               ID:20170115022744     3
 2017-01-15-0228-00M.COL___332                                                 6
 STAT SP IPHASW D HRMM SECON CODA AMPLIT PERI AZIMU VELO AIN AR TRES W  DIS CAZ7
 BAR2 EZ EP        232 21.74                             171   -0.0810 21.3 181 
 BAR2 EZ ES        232 37.09                             171    0.0610 21.3 181 
 BRR  HZ EP        232 23.72                             153    0.4610 68.8 301 
 BRR  HZ I         232 35.89         8.0 0.32            141           68.8 301 
 BRR  HN ES        232 39.37                             153   -0.2110 68.8 301 
 PAM  EZ EP        232 24.61                             149   -0.0710 81.0  41 
 PTB  HZ EP        232 28.57                             133   -0.30 9  144 259 
 PTB  HN ES        232 49.69                             133    0.12 9  144 259 
 PTB  HZ I         232 57.18         1.1 0.31            124            144 259 
                                                                                
