 2017  115 0633 55.7 L   6.597 -73.494116.9  RSN 26 0.6 2.5LRSN                1
 GAP= 54        0.96       2.2     2.6  4.5 -0.1291E+01  0.5293E+01 -0.6452E-01E
 Epicentro: EL CARMEN - SANTANDER                                              3
 ACTION:UPD 17-05-22 15:59 OP:jn   STATUS:               ID:20170115063355 L   I
 OLDACT:UP  17-03-29 15:28 OP:jn   STATUS:               ID:20170115063355 L   3
 OLDACT:UP  17-03-29 15:06 OP:nlst STATUS:               ID:20170115063355 L   3
 OLDACT:UP  17-01-15 16:09 OP:e    STATUS:               ID:20170115062745     3
 OLDACT:UP  17-01-15 16:08 OP:e    STATUS:               ID:20170115062745     3
 OLDACT:UP  17-01-15 16:06 OP:e    STATUS:               ID:20170115062745     3
 OLDACT:UP  17-01-15 16:06 OP:e    STATUS:               ID:20170115062745     3
 OLDACT:UP  17-01-15 16:05 OP:e    STATUS:               ID:20170115062745     3
 OLDACT:UP  17-01-15 16:04 OP:e    STATUS:               ID:20170115062745     3
 OLDACT:UP  17-01-15 16:04 OP:e    STATUS:               ID:20170115062745     3
 OLDACT:UP  17-01-15 16:01 OP:e    STATUS:               ID:20170115062745     3
 OLDACT:UP  17-01-15 16:01 OP:e    STATUS:               ID:20170115062745     3
 OLDACT:REG 17-01-15 12:49 OP:and  STATUS:               ID:20170115062745     3
 2017-01-15-0628-00M.COL___335                                                 6
 STAT SP IPHASW D HRMM SECON CODA AMPLIT PERI AZIMU VELO AIN AR TRES W  DIS CAZ7
 BAR2 EZ IP     D  634 12.40                             162    0.2010 34.5  91 
 BAR2 HN ES        634 24.83                             162   -0.2510 34.5  91 
 BRR  HZ EP        634 13.14                             150   -0.0210 61.3 337 
 BRR  HN ES        634 26.78                             150   -0.0210 61.3 337 
 BRR  HZ I         634 32.81        94.4 0.12            149           61.3 337 
 RUS  HZ EP        634 15.32                             140   -0.5610 90.2 150 
 RUS  HN ES        634 31.12                             140   -0.5110 90.2 150 
 RUS  HZ I         634 32.64        70.2 0.36            145           90.2 150 
 PTB  HZ IP   3 C  634 15.23                             134   -1.35 2  107 267 
 PTB  HN ES   4    634 29.97                             134   -2.90 0  107 267 
 PTB  HZ I         634 36.60        79.1 0.22            135            107 267 
 PAM  EZ EP        634 18.63                             131    0.1910  120  47 
 PAM  EN ES        634 36.68                             131    0.4910  120  47 
 PAM  EZ I         634 41.03        45.8 0.52            135            120  47 
 ZAR  HZ EP        634 24.20                             118    0.36 9  180 303 
 ZAR  HN ES   3    634 47.31                             118    1.51 2  180 303 
 ZAR  HZ I         634 50.81       110.2 0.30            120            180 303 
 TAM  HZ IP     D  634 25.19                             117    0.34 9  189  95 
 TAM  HN ES        634 47.61                             117    0.01 9  189  95 
 TAM  HZ I         634 48.78        18.1 0.16            121            189  95 
 NOR  HZ EP   9    634 23.98                             117   -1.00 0  190 233 
 NOR  HN ES        634 46.17                             116   -0.66 9  190 233 
 NOR  HZ I         634 49.66        53.4 0.12            119            190 233 
 ROSC BZ EP        634 28.63                             114    0.53 8  215 205 
 ROSC BN ES        634 54.12                             114    0.74 8  215 205 
 ROSC BZ I         634 58.91        29.9 0.40            117            215 205 
 CHI  HZ EP        634 28.48                             113   -0.14 8  219 187 
 CHI  HN ES        634 53.82                             113   -0.49 8  219 187 
 CHI  HZ I         634 56.10        14.2 0.32            116            219 187 
 GUY2CHZ EP        634 33.28                             109    0.31 8  257 234 
 GUY2CHN ES        635  2.61                             109    0.56 8  257 234 
 GUY2CHZ I         635 10.45        33.9 0.60                           257 234 
 URE  HZ EP   2    634 31.76                             109   -0.87 4  259 300 
 URE  HN ES   4    634 59.72                             109   -1.72 0  259 300 
 URE  HZ I         635  4.09        47.1 0.16            111            259 300 
 ELA  HZ EP        634 36.61                             107    0.27 7  285 228 
 ELA  HN ES   3    635  6.80                             107   -1.25 2  285 228 
 ELA  HZ I         635 12.08        22.0 0.40            109            285 228 
 CBOC HZ EP        634 36.82                             107    0.36 7  290 254 
 CBOC HN ES        635  8.25                             107   -0.01 7  290 254 
 CBOC HZ I         635 14.02        16.6 0.24            108            290 254 
 DBB  EZ EP        634 37.81                             106   -0.12 7  304 279 
 DBB  EZ ES   4    635  8.40                             106   -2.49 0  304 279 
 DBB  EZ I         635 12.74        13.5 0.22            107            304 279 
 PTGC HZ EP   4    634 36.90                             105   -1.08 0  305 150 
 PTGC HN ES   4    635  8.77                             105   -2.21 0  305 150 
 PTGC HZ I         635  9.36        16.1 0.37            109            305 150 
 LL6C HZ EP   9    634 25.41                             103   -17.6 0  348   4 
 LL6C HN ES        635  3.10                             102    0.74 6  348   4 
 LL6C HZ I         635 11.38        12.8 0.32            105            348   4 
 ORTC HZ EP        634 44.16                             103    0.22 6  355 213 
 ORTC HN ES   3    635 22.88                             103    1.30 2  355 213 
 ORTC HZ I         635 23.72        10.0 0.22            105            355 213 
 PAL  HZ EP        634 44.60                             102   -0.10 6  361 239 
 PAL  HN ES        635 22.20                             102   -0.74 6  361 239 
 PAL  HZ I         635 28.21        17.5 0.40            104            361 239 
 ARGC HZ EP   3    634 47.54                             102    1.86 2  370 347 
 ARGC HN ES   3    635 26.43                             102    1.75 2  370 347 
 ARGC HZ I         635 43.21         7.7 0.30            104            370 347 
 LCBC HZ EP        634 50.24                             100    0.55 6  404 308 
 LCBC HN ES   4    635 33.69                             100    1.87 0  404 308 
 SJC  HZ EP        634 49.21                             100   -1.26 6  409 333 
 SJC  HN ES        635 31.74                             100   -1.47 6  409 333 
 SJC  HZ I         635 36.53         6.0 0.40            102            409 333 
 YOT  HZ EP        634 52.10                              99   -0.70 5  428 228 
 YOT  HE ES        635 37.48                              99    0.13 5  428 228 
 YOT  HZ I         635 45.03         2.8 0.46            101            428 228 
 CRJC HZ EP   3    635  1.97                              97    1.29 1  494   8 
 CRJC HN ES        635 50.94                              97   -0.44 4  494   8 
 CRJC HZ I         635 57.61        15.1 0.26             99            494   8 
 SMAR HZ EP   4    635  5.79                              97    3.10 0  511 351 
 SMAR HN ES        635 54.53                              97   -0.43 4  511 351 
 URI  HZ EP        635 11.74                              95   -0.26 3  588  16 
 URI  HN ES        636 11.77                              95    0.25 3  588  16 
 URI  HZ I         636 19.29         3.0 0.52             97            588  16 
                                                                                
