 2014 1015 0440 28.2 L   6.688 -73.107145.7  RSN  5 0.4 1.6LRSN                1
 GAP=186        1.04       9.3     5.1  8.3 -0.1149E+02  0.9063E+01  0.8876E+01E
 Epicentro: JORDAN - SANTANDER                                                 3
 ACTION:UPD 14-11-29 23:50 OP:nd   STATUS:               ID:20141015044028 L   I
 OLDACT:UP  14-10-15 16:45 OP:mh   STATUS:               ID:20141015043745     3
 OLDACT:UP  14-10-15 16:45 OP:mh   STATUS:               ID:20141015043745     3
 OLDACT:UP  14-10-15 16:45 OP:mh   STATUS:               ID:20141015043745     3
 OLDACT:REG 14-10-15 13:29 OP:mh   STATUS:               ID:20141015043745     3
 2014-10-15-0437-45M.COL___292                                                 6
 STAT SP IPHASW D HRMM SECON CODA AMPLIT PERI AZIMU VELO AIN AR TRES W  DIS CAZ7
 BAR2 SZ EP        440 48.22                             174    0.5410 13.5 218 
 BAR2 SZ ES   1    441  2.89                             174    0.03 7 13.5 218 
 BAR2 SZ I         441  5.02        10.6 0.33            174           13.5 218 
 BRR  HZ EP   1    440 50.53                             149    0.57 7 81.4 305 
 BRR  HZ I         441  5.16         7.9 0.28            147           81.4 305 
 BRR  HN ES        441  7.40                             149    0.4810 81.4 305 
 PAM  SZ EP        440 50.69                             148   -0.2010 84.9  32 
 PAM  SZ I         441  6.08         5.2 0.30            138           84.9  32 
 PAM  SN ES        441  8.14                             148   -0.4310 84.9  32 
 PTB  HZ EP        440 54.79                             131   -0.61 9  150 264 
 PTB  HN ES        441 16.18                             131   -0.41 9  150 264 
 PTB  HZ I         441 19.42         4.0 0.09            127            150 264 
 ZAR  HZ EP        441  1.95                             121    0.37 8  213 295 
 ZAR  HN ES        441 27.46                             121   -0.14 8  213 295 
                                                                                
