 2017 1015 0206 29.6 L   6.738 -73.249140.8  RSN  5 0.5 1.1LRSN                1
 GAP=207        1.25       9.6     9.2 11.7  0.5785E+02  0.2121E+02  0.6549E+01E
 Epicentro: ZAPATOCA - SANTANDER                                               3
 ACTION:UPD 17-11-07 19:31 OP:rebc STATUS:               ID:20171015015743 L   I
 OLDACT:UPD 17-10-15 13:29 OP:leo  STATUS:               ID:20171015015743 L   3
 2017-10-15-0158-00M.COL___429                                                 6
 STAT SP IPHASW D HRMM SECON CODA AMPLIT PERI AZIMU VELO AIN AR TRES W  DIS CAZ7
 BAR2 EZ ES        2 7  2.64                             172   -0.6310 17.7 155 
 BRR  HZ EP        2 6 49.45                             154   -0.4210 65.5 309 
 BRR  HN ES        2 7  6.27                             154    0.5710 65.5 309 
 BRR  HZ I         2 7  7.26         4.3 0.64            155           65.5 309 
 RUS  HZ EP        2 6 52.52                             144    0.0610 95.2 169 
 RUS  HN ES        2 7 10.86                             144    0.5610 95.2 169 
 RUS  HZ I         2 7 12.81         1.1 0.26            145           95.2 169 
 PTB  HN ES        2 7 14.34                             134   -0.52 9  135 261 
 ZAR  HN ES        2 7 25.78                             122    0.44 9  196 295 
                                                                                
