 2013  715 0956 58.5 L   6.808 -73.150145.7  RSN 11 0.5 2.0LRSN                1
 GAP=136        1.38       4.1     5.7  7.2 -0.1991E+01  0.1009E+02 -0.3644E+01E
 Epicentro: LOS SANTOS - SANTANDER                                             3
 ACTION:UPD 13-08-12 10:37 OP:ep   STATUS:               ID:20130715095658 L   I
 OLDACT:REG 13-07-15 10:17 OP:nd   STATUS:               ID:20130715094959     3
 2013-07-15-0949-59M.COL___267                                                 6
 STAT SP IPHASW D HRMM SECON CODA AMPLIT PERI AZIMU VELO AIN AR TRES W  DIS CAZ7
 BAR2 SZ EP        957 18.20                             170    0.0310 24.1 189 
 BAR2 SZ ES        957 32.83                             170   -0.6510 24.1 189 
 BAR2 SZ I         957 34.40        28.1 0.26            173           24.1 189 
 GIR2 SZ EP        957 18.11                             168   -0.0610 30.4 351 
 GIR2 SZ ES        957 33.95                             168    0.4610 30.4 351 
 GIR2 SZ I         957 34.73        14.6 0.10            164           30.4 351 
 BRR  HZ IP     C  957 19.96                             153    0.3310 70.4 298 
 BRR  HN ES        957 37.14                             153    1.0610 70.4 298 
 BRR  HZ I         957 41.99        16.2 0.16            151           70.4 298 
 PAM  SZ EP        957 21.06                             151    0.3410 77.0  40 
 PAM  SN ES        957 37.82                             151   -0.2010 77.0  40 
 PAM  SZ I         957 40.31        11.5 0.52            152           77.0  40 
 RUS  HZ EP        957 22.15                             144   -0.1910  101 176 
 RUS  HN ES        957 40.74                             144   -0.1710  101 176 
 RUS  HZ I         957 41.93        13.3 0.26            149            101 176 
 PTB  HZ EP        957 24.68                             132   -0.79 9  148 258 
 PTB  HN ES        957 45.98                             132   -0.50 9  148 258 
 PTB  HZ I         957 47.79        13.0 0.60            133            148 258 
 OCA  HZ EP        957 27.54                             130    0.78 9  159 353 
 OCA  HN ES        957 48.12                             130   -0.65 9  159 353 
 OCA  HZ I         957 56.65         9.1 0.24            130            159 353 
 SPBC HZ EP        957 26.98                             129   -0.08 9  164 219 
 SPBC HN ES        957 49.69                             129    0.38 9  164 219 
 ZAR  HZ EP        957 31.92                             122    1.02 9  203 292 
 ZAR  HE ES        957 55.93                             122   -0.22 9  203 292 
 ZAR  HZ I         958  1.55        11.9 0.46            123            203 292 
 SML  HZ EP        957 34.62                             118   -0.44 8  243 335 
 SML  HN ES        958  2.79                             118   -0.75 8  243 335 
 SML  HZ I         958  8.19         9.3 0.24            118            243 335 
 GUY2CHZ EP   4    957 43.26                             112    1.10 0  301 235 
 GUY2CHN ES   4    958 17.63                             112    1.45 0  301 235 
 GUY2CHZ I         958 24.47         5.3 0.32                           301 235 
                                                                                
