 2012 1215 0311 55.4 L   6.781 -73.160145.9  RSN  8 0.4 1.7LRSN                1
 GAP=136        0.74       3.8     4.4  6.4  0.1038E+01  0.4950E+01  0.2936E+01E
 Epicentro: LOS SANTOS - SANTANDER                                             3
 ACTION:UPD 13-01-04 14:27 OP:ep   STATUS:               ID:20121215031155 L   I
 2012-12-15-0309-53M.COL___210                                                 6
 STAT SP IPHASW D HRMM SECON CODA AMPLIT PERI AZIMU VELO AIN AR TRES W  DIS CAZ7
 BAR2 SZ EP   1    312 14.99                             171    0.00 7 21.0 187 
 BAR2 SZ ES   1    312 29.88                             171   -0.40 7 21.0 187 
 BAR2 SZ I         312 31.06        31.5 0.28                          21.0 187 
 BRR  HZ EP     C  312 16.78                             153    0.2510 70.9 301 
 BRR  HE ES   1    312 33.85                             153    0.83 7 70.9 301 
 BRR  HZ I         312 35.02         9.1 0.14                          70.9 301 
 PAM  SZ EP   1    312 17.86                             150    0.08 7 80.0  39 
 PAM  SN ES   1    312 35.02                             150   -0.22 7 80.0  39 
 PAM  SZ I         312 37.13        10.4 0.54                          80.0  39 
 RUS  HZ EP   1    312 18.89                             144   -0.12 7 98.6 175 
 RUS  HN ES   1    312 37.64                             144    0.21 7 98.6 175 
 RUS  HZ I         312 38.71         4.6 0.30                          98.6 175 
 PTB  HZ EP   1    312 21.72                             132   -0.47 7  146 260 
 PTB  HN ES   1    312 42.55                             132   -0.55 7  146 260 
 PTB  HZ I         312 44.89         5.4 0.14                           146 260 
 OCA  HN ES   1    312 45.87                             129   -0.25 7  162 354 
 ZAR  HN ES   1    312 53.11                             122    0.07 6  203 293 
 ZAR  HZ I         312 59.80         4.6 0.22                           203 293 
 CHI  HZ EP   1    312 33.20                             117    0.37 6  246 195 
 CHI  HZ I         313  7.19         1.7 0.21                           246 195 
                                                                                
