 2010  215 0627  6.9 L   6.793 -72.992143.9  RSN  8 0.5 2.4LRSN                1
 GAP=212        0.98       4.6    10.5 10.6 -0.1910E+02  0.2659E+02  0.1470E+02E
 Epicentro: CEPITA - SANTANDER                                                 3
 ACTION:UP  10-08-24 09:49 OP:vdl  STATUS:               ID:20100215062707 L   I
 2010-02-15-0626-38S.COL___093                                                 6
 STAT SP IPHASW D HRMM SECON CODA AMPLIT PERI AZIMU VELO SNR AR TRES W  DIS CAZ7
 BAR2 SZ IP        627 26.53                             167     0.110   31 224 
 BAR2 SZ ES   2    627 41.47                             167    -0.2 5   31 224 
 OCA  SZ EP        627 34.89                             129    -0.5 9  164 347 
 OCA  SZ ES        627 57.96                             129     0.4 9  164 347 
 OCA  SZ I         628  2.16        39.3 0.15                           164 347 
 CHI  HZ EP        627 44.58                             116    -0.3 8  253 199 
 CHI  HE ES   2    628 13.55                             116    -1.1 4  253 199 
 CHI  HZ I         628 17.77         7.2 0.51                           253 199 
 ROSC BZ EP        627 46.50                             116     0.7 8  261 214 
 ROSC BE ES   1    628 16.45                             116     0.2 6  261 214 
 ROSC BZ I         628 22.83        15.4 0.52                           261 214 
 HEL  HZ EP        627 48.21                             113    -0.6 7  288 257 
 HEL  HE ES   2    628 20.32                             113    -1.2 4  288 257 
 RREF BZ EP        627 54.67                             110     0.3 7  334 231 
 RREF BE ES   1    628 32.22                             110     0.8 5  334 231 
 RREF BZ I         628 36.02        12.3 0.29                           334 231 
 TOL  SZ EP        627 56.75                             108     0.4 6  355 227 
 TOL  SZ ES   2    628 35.01                             108     0.0 3  355 227 
 PRA  HZ EP   2    628  0.29                             106    -1.0 3  400 212 
 PRA  HN ES   2    628 43.98                             106     0.3 3  400 212 
 PRA  HZ I         628 48.11        11.8 0.32                           400 212 
                                                                                
