 2012  415 0701 38.8 L   6.806 -73.103144.0  RSN 10 0.3 2.4LRSN                1
 GAP=142        0.72       2.7     3.5  4.7 -0.9652E+00  0.4859E+01  0.1610E+01E
 Epicentro: LOS SANTOS - SANTANDER                                             3
 ACTION:UPD 12-07-05 11:53 OP:tino STATUS:               ID:20120415070138 L   I
 2012-04-15-0659-39M.COL___160                                                 6
 STAT SP IPHASW D HRMM SECON CODA AMPLIT PERI AZIMU VELO AIN AR TRES W  DIS CAZ7
 BAR2 SZ EP        7 1 58.32                             170     0.010   25 200 
 BAR2 SZ ES   1    7 2 13.35                             170    -0.1 7   25 200 
 BAR2 SZ I         7 2 14.97        31.4 0.13                            25 200 
 PAM  SZ EP        7 2  1.11                             152     0.510   74  37 
 PAM  SN ES        7 2 17.57                             152    -0.110   74  37 
 BRR  HZ EP        7 2  0.19                             151     0.210   75 296 
 BRR  HZ I         7 2  2.43        47.5 0.11                            75 296 
 BRR  HE ES        7 2 16.90                             151     0.410   75 296 
 RUS  HZ EP        7 2  2.34                             143    -0.110  101 179 
 RUS  HE ES   1    7 2 20.44                             143    -0.4 7  101 179 
 OCA  SZ EP        7 2  6.92                             129    -0.1 9  160 351 
 OCA  SZ ES   1    7 2 28.52                             129    -0.4 7  160 351 
 ZAR  HZ EP        7 2 11.09                             121    -0.5 8  208 291 
 ZAR  HN ES   1    7 2 36.95                             121    -0.2 6  208 291 
 ZAR  HZ I         7 2 42.52        30.1 0.27                           208 291 
 NOR  SE ES   1    7 2 43.04                             118     0.0 6  239 235 
 CHI  HZ EP   1    7 2 16.31                             117    -0.3 6  251 196 
 CHI  HN ES   1    7 2 46.44                             117     0.3 6  251 196 
 CHI  HZ I         7 2 50.23         8.2 0.62                           251 196 
 HEL  HZ EP   1    7 2 19.60                             114     0.1 6  277 256 
 HEL  HE ES   1    7 2 51.29                             114     0.1 6  277 256 
 HEL  HZ I         7 2 58.43        13.4 0.31                           277 256 
 GUY  SZ EP   1    7 2 23.45                             111     0.3 5  308 235 
 GUY  SZ I         7 3  4.28        17.8 0.44                           308 235 
                                                                                
