 2014  815 0346 30.8 L   6.795 -73.142149.1  RSN  4 0.4 1.5LRSN                1
 GAP=252        0.85       7.4     8.6  7.9 -0.5142E+01  0.1226E+01  0.1750E+02E
 Epicentro: LOS SANTOS - SANTANDER                                             3
 ACTION:UPD 14-09-15 21:50 OP:nd   STATUS:               ID:20140815034630 L   I
 OLDACT:REG 14-08-15 13:04 OP:spq  STATUS:               ID:20140815033820     3
 2014-08-15-0338-20M.COL___269                                                 6
 STAT SP IPHASW D HRMM SECON CODA AMPLIT PERI AZIMU VELO AIN AR TRES W  DIS CAZ7
 BAR2 SZ EP   1    346 50.52                             171   -0.30 7 22.8 191 
 BAR2 SZ ES   1    347  6.05                             171   -0.39 7 22.8 191 
 BAR2 SZ I         347  6.72         6.3 0.26            165           22.8 191 
 BRR  HZ EP        346 52.51                             153    0.1710 71.8 299 
 BRR  HN ES        347  9.51                             153    0.3610 71.8 299 
 BRR  HZ I         347 12.89         5.1 0.34            152           71.8 299 
 PTB  HZ EP        346 57.76                             133   -0.30 9  148 259 
 PTB  HN ES   1    347 18.63                             133   -0.70 7  148 259 
 PTB  HZ I         347 21.00         4.5 0.42            131            148 259 
 SPBC HZ EP        346 59.78                             130    0.25 9  163 219 
 SPBC HN ES   1    347 22.48                             130    0.53 7  163 219 
 SPBC HZ I         347 29.10         3.4 0.34            129            163 219 
                                                                                
