 2016  715 0700  8.8 L   6.772 -73.129142.0  RSN  8 0.3 1.6LRSN                1
 GAP=140        0.77       3.6     3.7  5.0 -0.4234E+01  0.2890E+01  0.3737E+01E
 Epicentro: LOS SANTOS - SANTANDER                                             3
 ACTION:UPD 17-03-29 16:51 OP:lp   STATUS:               ID:20160715070008 L   I
 OLDACT:REG 16-07-15 13:43 OP:lv   STATUS:               ID:20160715065759     3
 2016-07-15-0657-59S.COL___328                                                 6
 STAT SP IPHASW D HRMM SECON CODA AMPLIT PERI AZIMU VELO AIN AR TRES W  DIS CAZ7
 BAR2 EZ EP     C  7 0 27.80                             171   -0.1610 20.8 197 
 BAR2 EZ ES        7 0 42.67                             171   -0.2110 20.8 197 
 BAR2 EZ I         7 0 43.95        10.5 0.13            171           20.8 197 
 BRR  HZ EP        7 0 29.67                             151   -0.0910 74.3 300 
 BRR  HN ES        7 0 46.70                             151    0.6210 74.3 300 
 BRR  HZ I         7 0 51.38         6.1 0.14            150           74.3 300 
 PAM  EZ EP        7 0 30.77                             150    0.0410 78.6  37 
 PAM  EN ES        7 0 47.71                             150   -0.0910 78.6  37 
 PAM  EZ I         7 0 49.23         5.1 0.18            152           78.6  37 
 RUS  HZ EP        7 0 31.83                             144   -0.1610 97.4 177 
 RUS  HN ES        7 0 50.52                             144    0.4710 97.4 177 
 RUS  HZ I         7 0 51.29         3.3 0.38            146           97.4 177 
 PTB  HZ EP   2    7 0 34.96                             131   -0.66 5  149 260 
 PTB  HE ES        7 0 56.20                             131   -0.31 9  149 260 
 SPBC HZ EP        7 0 36.80                             129   -0.14 9  162 220 
 SPBC HN ES        7 0 58.53                             129   -0.32 9  162 220 
 SPBC HZ I         7 1  1.34         6.8 0.06            129            162 220 
 GUY2CHZ EP   2    7 0 52.46                             112    0.21 4  301 235 
 GUY2CHE ES        7 1 26.40                             112    0.29 7  301 235 
 ORTC HZ EP        7 1  3.07                             106    0.60 6  394 217 
 ORTC HE ES   4    7 1 47.68                             106    3.37 0  394 217 
 ORTC HZ I         7 1 50.83         1.7 0.32            107            394 217 
                                                                                
