 2017 1115 0113 26.7 L   6.870 -73.058140.6  RSN  7 0.5 1.7LRSN                1
 GAP=252        1.32       6.8     9.3  9.0  0.3295E+02  0.2620E+02  0.1331E+02E
 Epicentro: PIEDECUESTA - SANTANDER                                            3
 ACTION:UPD 17-12-12 19:55 OP:rebc STATUS:               ID:20171115011326 L   I
 OLDACT:UP  17-11-15 15:09 OP:leo  STATUS:               ID:20171115010741     3
 OLDACT:REG 17-11-15 13:13 OP:leo  STATUS:               ID:20171115010741     3
 2017-11-15-0108-00M.COL___453                                                 6
 STAT SP IPHASW D HRMM SECON CODA AMPLIT PERI AZIMU VELO AIN AR TRES W  DIS CAZ7
 BAR2 EZ EP        113 46.33                             166    0.3710 33.7 204 
 BAR2 EZ ES        114  0.16                             166   -0.8410 33.7 204 
 BAR2 EZ I         114  2.36        10.2 0.56            159           33.7 204 
 BRR  HZ EP        113 48.17                             150    0.5510 76.8 290 
 BRR  HN ES        114  4.74                             150    0.7910 76.8 290 
 BRR  HZ I         114  9.71        10.8 0.28            140           76.8 290 
 RUS  HZ EP        113 50.64                             141    0.1310  108 181 
 RUS  HN ES        114  8.96                             141   -0.1310  108 181 
 PTB  HZ EP        113 53.36                             129   -0.92 9  159 257 
 PTB  HZ I         114 18.09         5.1 0.32            121            159 257 
 ZAR  HZ EP        113 59.21                             120   -0.25 8  210 289 
 ZAR  HN ES        114 24.69                             120   -0.34 8  210 289 
 CHI  HZ EP        114  5.01                             115   -0.21 8  259 197 
 CHI  HN ES        114 35.91                             115    0.63 8  259 197 
 CHI  HZ I         114 41.53         2.9 0.50            111            259 197 
 GUY2CHZ EP   4    114 12.67                             110    1.20 0  314 235 
 GUY2CHN ES        114 46.54                             110    0.13 7  314 235 
 GUY2CHZ I         114 54.74         3.4 0.46                           314 235 
                                                                                
