 2013 1115 0916 35.1 L   6.775 -73.179147.8  RSN  6 0.3 1.5LRSN                1
 GAP=197        0.73       3.7     4.5  5.0  0.7730E+01  0.3715E+00 -0.5935E+01E
 Epicentro: LOS SANTOS - SANTANDER                                             3
 ACTION:UPD 14-01-09 16:28 OP:ep   STATUS:               ID:20131115091635 L   I
 OLDACT:REG 13-11-15 09:06 OP:nd   STATUS:               ID:20131115091000     3
 2013-11-15-0910-00M.COL___279                                                 6
 STAT SP IPHASW D HRMM SECON CODA AMPLIT PERI AZIMU VELO AIN AR TRES W  DIS CAZ7
 BAR2 SZ EP        916 54.92                             172    0.0310 20.2 181 
 BAR2 SZ ES        917 10.03                             172   -0.3210 20.2 181 
 BAR2 SZ I         917 11.44        16.6 0.18            176           20.2 181 
 BRR  HZ EP        916 56.78                             153    0.4410 69.4 302 
 BRR  HN ES        917 13.42                             153    0.4810 69.4 302 
 BRR  HZ I         917 28.84         6.2 0.28            153           69.4 302 
 RUS  HZ EP        916 58.92                             145    0.0710 98.2 174 
 RUS  HN ES        917 17.28                             145   -0.1310 98.2 174 
 RUS  HZ I         917 19.32         2.2 0.22            155           98.2 174 
 PTB  HZ EP        917  1.64                             133   -0.20 9  144 260 
 PTB  HN ES        917 22.72                             133    0.00 9  144 260 
 PTB  HZ I         917 24.73         2.8 0.10            138            144 260 
 ZAR  HZ EP        917  7.68                             123    0.27 9  202 293 
 ZAR  HN ES        917 32.26                             123   -0.38 9  202 293 
 ZAR  HZ I         917 39.25         3.3 0.38            127            202 293 
 SML  HZ EP        917 11.68                             118   -0.24 8  245 336 
 SML  HN ES        917 40.39                             118   -0.27 8  245 336 
 SML  HZ I         917 43.15         2.4 0.10            122            245 336 
                                                                                
