 2014  115 0051 32.3 L   6.843 -73.124150.2  RSN 12 0.3 2.0LRSN                1
 GAP=137        0.71       2.3     3.3  5.1  0.3721E+00  0.6166E+01  0.2116E+01E
 Epicentro: LOS SANTOS - SANTANDER                                             3
 ACTION:UPD 14-03-13 09:55 OP:ep   STATUS:               ID:20140115005132 L   I
 OLDACT:UP  14-01-15 08:38 OP:cam  STATUS:               ID:20140115005000     3
 OLDACT:REG 14-01-15 07:39 OP:cam  STATUS:               ID:20140115005000     3
 2014-01-15-0050-00M.COL___285                                                 6
 STAT SP IPHASW D HRMM SECON CODA AMPLIT PERI AZIMU VELO AIN AR TRES W  DIS CAZ7
 BRR  HZ EP     C  051 54.10                             153    0.2110 71.3 294 
 BRR  HE ES        052 11.01                             153    0.2410 71.3 294 
 BRR  HZ I         052 15.50        14.0 0.30            153           71.3 294 
 PAM  SZ EP        051 55.15                             153    0.5010 72.1  40 
 PAM  SN ES        052 12.11                             153   -0.0110 72.1  40 
 PAM  SZ I         052 14.03        15.9 0.44            159           72.1  40 
 RUS  HZ EP        051 56.70                             143   -0.0810  105 178 
 RUS  HN ES        052 15.71                             143   -0.2010  105 178 
 RUS  HZ I         052 20.90         3.6 0.40            146            105 178 
 PTB  HZ EP        051 59.42                             132   -0.48 9  151 257 
 PTB  HN ES   4    052 20.22                             132   -1.23 0  151 257 
 PTB  HZ I         052 22.65        20.9 0.16            134            151 257 
 OCA  HE ES   1    052 22.12                             131   -0.43 7  156 352 
 OCA  HZ I         052 27.34        12.0 0.22            136            156 352 
 ZAR  HZ EP        052  5.21                             123    0.16 9  205 291 
 ZAR  HN ES        052 30.99                             123    0.36 9  205 291 
 ZAR  HZ I         052 35.14        13.6 0.24            126            205 291 
 NOR  HZ EP        052  8.87                             119    0.11 8  239 234 
 NOR  HE ES        052 36.82                             119   -0.41 8  239 234 
 NOR  HZ I         052 44.35         9.8 0.22            121            239 234 
 SML  HZ EP   2    052  8.76                             119   -0.02 4  240 334 
 SML  HN ES        052 36.77                             119   -0.51 8  240 334 
 SML  HZ I         052 39.81        14.3 0.26            122            240 334 
 CHI  HZ EP   1    052 10.81                             117    0.03 6  254 195 
 CHI  HN ES   1    052 40.94                             117    0.12 6  254 195 
 CHI  HZ I         052 46.96         3.7 0.34            120            254 195 
 HEL  HZ EP   4    052 15.44                             115    2.35 0  276 255 
 HEL  HN ES   2    052 45.36                             115    0.41 4  276 255 
 HEL  HZ I         052 51.27         9.3 0.42            117            276 255 
 GUY2CHZ EP   4    052 19.01                             113    2.40 0  306 234 
 GUY2CHN ES   4    052 53.95                             113    2.74 0  306 234 
 GUY2CHZ I         053  1.04         9.6 0.32                           306 234 
 SJC  HZ EP   4    052 26.33                             106   -1.33 0  407 326 
 SJC  HN ES   4    053  7.12                             106   -3.75 0  407 326 
 SJC  HZ I         053 11.25         3.0 0.46            109            407 326 
                                                                                
