 2016  915 0719 53.5 L   5.959 -73.573122.0  RSN  8 0.3 1.7LRSN                1
 GAP=141        0.86       4.0     3.1  5.7 -0.1875E+01  0.7229E+01 -0.2441E+01E
 Epicentro: BARBOSA - SANTANDER                                                3
 ACTION:UPD 17-08-17 21:12 OP:lp   STATUS:               ID:20160915071953 L   I
 OLDACT:UP  16-09-16 07:08 OP:dani STATUS:               ID:20160915071737     3
 OLDACT:UP  16-09-16 07:07 OP:dani STATUS:               ID:20160915071737     3
 OLDACT:REG 16-09-15 20:22 OP:lv   STATUS:               ID:20160915071737     3
 2016-09-15-0718-00M.COL___327                                                 6
 STAT SP IPHASW D HRMM SECON CODA AMPLIT PERI AZIMU VELO AIN AR TRES W  DIS CAZ7
 RUS  HZ EP        720 11.48                             155   -0.3810 54.8  98 
 RUS  HN ES        720 26.11                             155   -0.0910 54.8  98 
 RUS  HZ I         720 28.08         6.9 0.24            160           54.8  98 
 SPBC HZ EP        720 11.46                             150   -0.3910 64.9 238 
 SPBC HN ES        720 26.27                             150    0.0910 64.9 238 
 SPBC HZ I         720 29.03        13.2 0.13            151           64.9 238 
 BAR2 EZ EP        720 13.21                             144   -0.0110 82.3  32 
 BAR2 EZ ES        720 29.06                             144    0.4510 82.3  32 
 BAR2 EZ I         720 30.31        20.9 0.36            146           82.3  32 
 PTB  HE ES        720 32.79                             133   -0.2810  117 303 
 NOR  HZ EP        720 18.89                             126   -0.02 9  150 253 
 NOR  HE ES        720 39.33                             126    0.59 9  150 253 
 NOR  HZ I         720 41.59        12.0 0.11            127            150 253 
 GUY2CHZ EP        720 26.53                             116    0.28 8  214 248 
 GUY2CHN ES   4    720 53.94                             116    2.14 0  214 248 
 GUY2CHZ I         721  1.39         3.2 0.27                           214 248 
 HEL  HZ EP        720 26.85                             115    0.35 8  218 277 
 HEL  HE ES        720 51.59                             115   -0.65 8  218 277 
 HEL  HZ I         720 58.30         3.6 0.31            117            218 277 
 ZAR  HZ EP        720 26.64                             114    0.25 8  221 320 
 ZAR  HN ES        720 51.96                             114   -0.09 8  221 320 
 ZAR  HZ I         720 56.82         4.6 0.35            116            221 320 
                                                                                
