 2017 1115 0219 51.8 L   5.865 -73.844116.6  RSN  9 0.5 1.6LRSN                1
 GAP= 87        1.16       3.2     3.5  7.1 -0.1760E+01  0.4304E+01 -0.2108E+01E
 Epicentro: JESUS MARIA - SANTANDER                                            3
 ACTION:UPD 17-12-12 19:55 OP:rebc STATUS:               ID:20171115021951 L   I
 OLDACT:UP  17-11-15 16:29 OP:leo  STATUS:               ID:20171115021744     3
 OLDACT:REG 17-11-15 13:25 OP:leo  STATUS:               ID:20171115021744     3
 2017-11-15-0218-00M.COL___453                                                 6
 STAT SP IPHASW D HRMM SECON CODA AMPLIT PERI AZIMU VELO AIN AR TRES W  DIS CAZ7
 SPBC HZ EP        220  7.99                             162   -0.1110 34.5 227 
 SPBC HE ES        220 21.00                             162    0.2110 34.5 227 
 SPBC HZ I         220 21.34        17.6 0.28            162           34.5 227 
 RUS  HZ EP        220 11.49                             142   -0.0610 84.3  88 
 RUS  HN ES        220 26.50                             142   -0.4310 84.3  88 
 RUS  HZ I         220 27.80         8.6 0.18            144           84.3  88 
 PTB  HZ EP        220 11.49                             136   -0.7110  101 318 
 PTB  HN ES        220 28.46                             136    0.3710  101 318 
 PTB  HZ I         220 31.75         4.0 0.16            139            101 318 
 BAR2 EZ EP        220 13.61                             134    0.4110  109  42 
 BAR2 EZ ES        220 29.65                             134   -0.2110  109  42 
 NOR  HZ EP        220 13.65                             131   -0.1610  118 254 
 NOR  HN ES        220 30.14                             131   -0.8110  118 254 
 NOR  HZ I         220 33.00        11.3 0.20            133            118 254 
 CHI  HZ EP        220 16.10                             127    0.03 9  137 175 
 CHI  HN ES        220 35.36                             127    0.38 9  137 175 
 CHI  HZ I         220 43.83         2.3 0.64            128            137 175 
 BRR  HZ EP        220 15.83                             126    0.21 9  138   6 
 BRR  HE ES        220 34.74                             126    0.57 9  138   6 
 BRR  HZ I         220 37.22        11.3 0.14            129            138   6 
 GUY2CHZ EP        220 21.59                             118    0.74 9  183 247 
 GUY2CHN ES        220 43.81                             118    0.33 9  183 247 
 GUY2CHZ I         220 49.87         3.7 0.28                           183 247 
 ZAR  HZ EP        220 22.58                             114   -0.86 8  212 328 
 ZAR  HN ES        220 48.33                             114    0.23 8  212 328 
                                                                                
