 2010  115 0903 16.7 L   6.819 -73.038146.6  RSN  8 0.3 2.0LRSN                1
 GAP=134        0.52       3.1     6.1  3.8 -0.1037E+02  0.1813E+01 -0.1877E+01E
 Epicentro: CEPITA - SANTANDER                                                 3
 ACTION:UP  10-08-24 09:44 OP:vdl  STATUS:               ID:20100115090316 L   I
 2010-01-15-0858-24S.COL___095                                                 6
 STAT SP IPHASW D HRMM SECON CODA AMPLIT PERI AZIMU VELO SNR AR TRES W  DIS CAZ7
 BAR2 SZ IP        9 3 36.64                             168     0.110   30 213 
 BAR2 SZ ES        9 3 51.97                             168    -0.110   30 213 
 RUS  BZ IP        9 3 40.56                             143    -0.110  103 183 
 RUS  BN ES   1    9 3 59.59                             143     0.2 7  103 183 
 RUS  BZ I         9 4  0.46         5.4 0.27                           103 183 
 OCA  SZ IP        9 3 45.05                             130     0.0 9  160 349 
 OCA  SZ I         9 4 11.64        21.7 0.31                           160 349 
 CHI  HZ IP        9 3 54.64                             117    -0.4 8  254 198 
 CHI  HE ES   1    9 4 24.95                             117     0.0 6  254 198 
 CHI  HZ I         9 4 33.52         5.4 0.51                           254 198 
 RREF BZ EP   2    9 4  4.01                             110     0.0 3  332 230 
 RREF BE ES   2    9 4 41.07                             110     0.1 3  332 230 
 RREF BZ I         9 4 49.12         6.9 0.26                           332 230 
 SDV  BZ IP        9 4  5.70                             109     0.2 6  350  49 
 SDV  BZ I         9 4  6.82         1.8 0.11                           350  49 
 TOL  SZ EP   2    9 4  6.94                             109     0.8 3  353 226 
 PRA  HZ EP   2    9 4 10.39                             106    -0.7 3  400 211 
 PRA  HN ES   1    9 4 53.98                             106     0.4 4  400 211 
 PRA  HZ I         9 4 58.31         4.6 0.38                           400 211 
                                                                                
