 2013  815 0802 16.9 L   6.073 -73.771103.5  RSN  4 0.4 1.6LRSN                1
 GAP=167        1.04       4.9     6.0 10.7 -0.9349E+01  0.1950E+02 -0.2402E+02E
 Epicentro: BOLIVAR - SANTANDER                                                3
 ACTION:UPD 14-01-14 09:03 OP:ep   STATUS:               ID:20130815080216 L   I
 OLDACT:REG 13-08-15 09:24 OP:stll STATUS:               ID:20130815075839     3
 2013-08-15-0758-39M.COL___232                                                 6
 STAT SP IPHASW D HRMM SECON CODA AMPLIT PERI AZIMU VELO AIN AR TRES W  DIS CAZ7
 SPBC HZ I         8 2 32.59        12.5 0.12            150           57.2 216 
 SPBC HZ EP        8 2 32.61                             148   -0.2410 57.2 216 
 SPBC HN ES        8 2 45.44                             148    0.1610 57.2 216 
 BAR2 SZ EP        8 2 35.07                             137   -0.1710 86.8  49 
 BAR2 SZ ES        8 2 49.35                             137   -0.2010 86.8  49 
 BAR2 SZ I         8 2 51.00        16.3 0.37            121           86.8  49 
 BRR  HZ EP        8 2 38.38                             128    0.9610  115   3 
 BRR  HN ES        8 2 53.32                             128   -0.1210  115   3 
 BRR  HZ I         8 2 56.57         3.7 0.26            115            115   3 
 ZAR  HZ EP   1    8 2 45.63                             112   -0.65 6  198 323 
 ZAR  HN ES        8 3  9.09                             112   -0.11 9  198 323 
                                                                                
