 2015  315 0525 43.8 L   6.740 -73.163143.6  RSN  6 0.3 1.0LRSN                1
 GAP=137        0.79       4.8     4.8  6.9 -0.9017E+01  0.7284E+01 -0.1868E+01E
 Epicentro: LOS SANTOS - SANTANDER                                             3
 ACTION:UPD 15-04-30 16:26 OP:nd   STATUS:               ID:20150315052543 L   I
 OLDACT:DUP 15-03-15 16:56 OP:spq  STATUS:               ID:20150315051746d    3
 2015-03-15-0517-45M.COL___260                                                 6
 STAT SP IPHASW D HRMM SECON CODA AMPLIT PERI AZIMU VELO AIN AR TRES W  DIS CAZ7
 BAR2 EZ ES   1    526 17.45                             173   -0.59 7 16.5 187 
 BAR2 EZ I         526 18.52         2.8 0.36            174           16.5 187 
 BRR  HZ EP        526  4.71                             151   -0.0810 73.0 304 
 BRR  HN ES        526 21.73                             151    0.5510 73.0 304 
 BRR  HZ I         526 26.63         2.6 0.68            151           73.0 304 
 PAM  SZ EP        526  6.12                             148   -0.0310 83.7  38 
 PAM  SE ES        526 23.48                             148   -0.1310 83.7  38 
 PAM  SZ I         526 25.25         1.5 0.44            151           83.7  38 
 RUS  HE ES   1    526 25.19                             145    0.34 7 94.1 175 
 RUS  HZ I         526 26.78         1.0 0.48            149           94.1 175 
 PTB  HZ EP        526 10.36                             132    0.08 9  145 261 
 PTB  HE ES   1    526 30.39                             132   -0.58 7  145 261 
 PTB  HZ I         526 32.73         1.3 0.12            134            145 261 
 SPBC HN ES   1    526 33.22                             130    0.08 7  157 220 
 SPBC HZ I         526 34.44         1.1 0.16            132            157 220 
                                                                                
