 2017  615 0947 19.9 L   6.761 -73.155126.3  RSN  5 0.4 1.6LRSN                1
 GAP=278        0.94       5.2     9.2  9.6 -0.1116E+02 -0.4387E+01  0.5908E+01E
 Epicentro: LOS SANTOS - SANTANDER                                             3
 ACTION:UPD 17-09-14 16:52 OP:jn   STATUS:               ID:20170615094719 L   I
 OLDACT:REG 17-06-15 13:31 OP:dani STATUS:               ID:20170615093743     3
 2017-06-15-0938-00M.COL___365                                                 6
 STAT SP IPHASW D HRMM SECON CODA AMPLIT PERI AZIMU VELO AIN AR TRES W  DIS CAZ7
 BRR  HZ IP     D  947 39.19                             148    0.1110 72.5 302 
 BRR  HE ES        947 53.89                             148   -0.1310 72.5 302 
 BRR  HZ I         948  9.79         7.1 0.39            156           72.5 302 
 PTB  HZ EP        947 44.47                             127   -0.73 9  146 260 
 PTB  HN ES        948  4.71                             127   -0.20 9  146 260 
 SPBC HZ EP   4    947 46.88                             125    0.29 0  159 220 
 SPBC HE ES        948  7.93                             125    0.53 9  159 220 
 SPBC HZ I         948 10.82        10.5 0.26            139            159 220 
 ZAR  HZ EP        947 51.68                             118    0.43 9  205 293 
 ZAR  HN ES        948 16.00                             118    0.31 9  205 293 
 ZAR  HZ I         948 20.71         3.2 0.11            130            205 293 
 NOR  HZ EP   4    947 54.60                             114    0.38 0  231 235 
 NOR  HE ES        948 20.75                             114   -0.23 8  231 235 
 NOR  HZ I         948 25.47         3.3 0.14            127            231 235 
                                                                                
