 2015 1215 0427 46.3 L   6.259 -73.690105.5  RSN  6 0.3 1.2LRSN                1
 GAP=120        0.88       3.5     4.0  6.7 -0.6004E+01  0.1024E+02 -0.3087E+01E
 Epicentro: SANTA HELENA DEL OPON - SANTANDER                                  3
 ACTION:UPD 16-02-04 15:05 OP:cam  STATUS:               ID:20151215042746 L   I
 OLDACT:DUP 15-12-15 16:05 OP:cara STATUS:               ID:20151215041745d    3
 2015-12-15-0417-44M.COL___328                                                 6
 STAT SP IPHASW D HRMM SECON CODA AMPLIT PERI AZIMU VELO AIN AR TRES W  DIS CAZ7
 BAR2 EZ IP     D  428  3.29                             145   -0.0910 67.2  57 
 BAR2 EZ ES        428 17.02                             145    0.3610 67.2  57 
 BAR2 EZ I         428 17.80        12.7 0.28            142           67.2  57 
 RUS  HZ EP        428  4.41                             141   -0.1510 78.5 121 
 RUS  HZ I         428 16.95         1.3 0.16            134           78.5 121 
 RUS  HE ES        428 19.10                             141    0.3310 78.5 121 
 SPBC HZ EP        428  3.95                             140   -0.1210 79.3 212 
 SPBC HN ES        428 17.32                             140   -0.5710 79.3 212 
 SPBC HZ I         428 22.52         6.2 0.12            137           79.3 212 
 BRR  HZ EP        428  5.52                             135    0.3810 93.8 359 
 BRR  HN ES        428 19.56                             135   -0.2310 93.8 359 
 BRR  HZ I         428 20.14         3.4 0.22            137           93.8 359 
 PAM  EZ EP        428 12.09                             118   -0.42 9  162  42 
 GUY2CHZ EP        428 18.80                             110    0.10 8  218 238 
 GUY2CHN ES        428 44.48                             110    0.54 8  218 238 
 GUY2CHZ I         428 50.11         1.6 0.82                           218 238 
                                                                                
