 2013  815 0847 48.2 L   6.809 -73.141153.3  RSN  7 0.4 2.0LRSN                1
 GAP=151        1.02       7.2     6.4  7.7 -0.2698E+02  0.2475E+01  0.1664E+02E
 Epicentro: LOS SANTOS - SANTANDER                                             3
 ACTION:UPD 14-01-14 09:03 OP:ep   STATUS:               ID:20130815084748 L   I
 OLDACT:REG 13-08-15 09:26 OP:stll STATUS:               ID:20130815083849     3
 2013-08-15-0838-49M.COL___232                                                 6
 STAT SP IPHASW D HRMM SECON CODA AMPLIT PERI AZIMU VELO AIN AR TRES W  DIS CAZ7
 BAR2 SZ EP     C  848  8.48                             171   -0.2610 24.4 191 
 BAR2 SZ ES   1    848 24.58                             171   -0.19 7 24.4 191 
 BRR  HZ EP        848 10.33                             154    0.1810 71.1 298 
 BRR  HN ES        848 27.87                             154    0.5910 71.1 298 
 BRR  HZ I         848 32.24         9.5 0.24            153           71.1 298 
 PAM  SZ EP   1    848 11.52                             152    0.37 7 76.3  40 
 PAM  SN ES        848 28.91                             152   -0.1410 76.3  40 
 PTB  HZ EP        848 15.34                             133   -0.50 9  148 258 
 PTB  HN ES        848 36.54                             133   -0.86 9  148 258 
 PTB  HZ I         848 43.90        12.0 0.42            134            148 258 
 SPBC HZ EP        848 17.46                             130    0.09 9  164 219 
 SPBC HN ES        848 40.21                             130    0.07 9  164 219 
 SPBC HZ I         848 46.60        14.8 0.30            132            164 219 
 NOR  HZ EP   1    848 24.51                             120    0.04 6  236 234 
 NOR  HE ES        848 53.52                             120    0.76 8  236 234 
 NOR  HZ I         848 56.17         8.9 0.18            122            236 234 
 HEL  HZ EP   1    848 29.07                             116    0.20 6  273 256 
                                                                                
