 2017  815 0233 11.4 L   6.521 -73.520108.0  RSN 24 0.5 2.3LRSN                1
 GAP= 42        0.89       2.2     2.2  4.4 -0.5731E-01  0.3893E+01  0.1837E+01E
 Epicentro: EL CARMEN - SANTANDER                                              3
 ACTION:UPD 17-09-04 20:20 OP:rebc STATUS:               ID:20170815023311 L   I
 OLDACT:UP  17-08-15 13:30 OP:and  STATUS:               ID:20170815022740     3
 OLDACT:UP  17-08-15 13:29 OP:and  STATUS:               ID:20170815022740     3
 OLDACT:UP  17-08-15 13:28 OP:and  STATUS:               ID:20170815022740     3
 OLDACT:UP  17-08-15 13:25 OP:and  STATUS:               ID:20170815022740     3
 OLDACT:UP  17-08-15 13:25 OP:and  STATUS:               ID:20170815022740     3
 OLDACT:UP  17-08-15 13:22 OP:and  STATUS:               ID:20170815022740     3
 OLDACT:UP  17-08-15 13:22 OP:and  STATUS:               ID:20170815022740     3
 OLDACT:REG 17-08-15 12:14 OP:and  STATUS:               ID:20170815022740     3
 2017-08-15-0228-00M.COL___410                                                 6
 STAT SP IPHASW D HRMM SECON CODA AMPLIT PERI AZIMU VELO AIN AR TRES W  DIS CAZ7
 BAR2 EZ IP     D  233 27.23                             160    0.1710 38.1  78 
 BAR2 EZ ES        233 39.90                             160    0.6410 38.1  78 
 BAR2 EZ I         233 40.84       197.4 0.16            157           38.1  78 
 BRR  HZ IP     D  233 28.16                             146   -0.2710 68.2 342 
 BRR  HE ES        233 42.04                             146    0.3410 68.2 342 
 BRR  HZ I         233 43.34        34.1 0.11            147           68.2 342 
 RUS  HZ IP     D  233 30.12                             140   -0.2410 84.7 145 
 RUS  HN ES        233 45.19                             140    0.0710 84.7 145 
 RUS  HZ I         233 48.03        25.6 0.18            134           84.7 145 
 SPBC HZ EP        233 32.01                             130   -0.3510  114 213 
 SPBC HN ES   2    233 48.36                             130   -0.32 5  114 213 
 SPBC HZ I         233 49.79        55.8 0.10            126            114 213 
 PAM  EZ EP        233 34.38                             127    0.1310  128  45 
 PAM  EN ES        233 51.65                             127   -0.4010  128  45 
 PAM  EZ I         233 57.00        42.5 0.14            126            128  45 
 YPLC HZ IP     D  233 39.08                             117    0.25 9  177 135 
 YPLC HN ES   3    234  1.45                             117    1.24 2  177 135 
 YPLC HZ I         234  2.33        53.9 0.30            114            177 135 
 TABC EZ EP        233 40.69                             116    0.68 9  183 204 
 TABC EZ ES   4    234  4.79                             116    2.49 0  183 204 
 TABC EZ I         234  7.55        23.2 0.24            114            183 204 
 NOR  HZ EP        233 38.70                             116   -0.76 9  183 235 
 NOR  HN ES        234  0.72                             116   -0.60 9  183 235 
 NOR  HZ I         234  2.54        25.0 0.18            114            183 235 
 ZAR  HZ EP        233 39.17                             116   -0.19 9  183 306 
 ZAR  HN ES        234  1.50                             116    0.36 9  183 306 
 ZAR  HZ I         234  3.84        54.5 0.42            115            183 306 
 TAM  HZ IP   4 D  233 33.65                             115   -6.71 0  191  93 
 TAM  HN ES        234  2.54                             115   -0.39 9  191  93 
 TAM  HZ I         234  8.19        22.4 0.40            113            191  93 
 ROSC BZ EP   9    233 43.90                             113    1.47 0  206 206 
 ROSC BN ES        234  8.64                             113    0.55 8  206 206 
 ROSC BZ I         234 13.59        22.6 0.55            111            206 206 
 CHI  HZ EP        233 42.95                             113   -0.02 8  211 186 
 CHI  HN ES        234  7.34                             113   -0.24 8  211 186 
 CHI  HZ I         234 14.42        10.3 0.36            110            211 186 
 HEL  HZ EP        233 44.26                             111   -0.33 8  225 261 
 HEL  HN ES        234 10.12                             111   -0.34 8  225 261 
 HEL  HZ I         234 15.33        12.8 0.18            110            225 261 
 GUY2CHZ EP        233 47.94                             108    0.40 8  250 235 
 GUY2CHN ES   3    234 16.68                             108    0.98 2  250 235 
 GUY2CHZ I         234 20.52        13.6 0.24                           250 235 
 ELA  HZ EP   3    233 52.50                             106    1.62 2  278 229 
 ELA  HN ES   3    234 20.09                             106   -1.56 2  278 229 
 ELA  HZ I         234 34.29        13.0 0.80            106            278 229 
 CBOC HZ EP        233 51.86                             105    0.53 7  285 255 
 CBOC HN ES   3    234 21.30                             105   -1.15 2  285 255 
 CBOC HZ I         234 33.14         4.1 0.49            105            285 255 
 PTGC HZ EP   9    233 51.58                             104   -1.19 0  299 149 
 PTGC HN ES        234 23.98                             105    0.15 7  299 149 
 PTGC HZ I         234 51.42        16.1 0.38            104            299 149 
 DBB  EZ EP        233 53.28                             104    0.04 7  302 281 
 DBB  EN ES        234 26.32                             104    0.46 7  302 281 
 DBB  EZ I         234 27.96         7.6 0.14            105            302 281 
 ANIL HZ EP   3    233 55.53                             104    1.54 2  306 223 
 ANIL HN ES   4    234 30.17                             104    2.98 0  306 223 
 ANIL HZ I         234 32.29        28.0 0.32            104            306 223 
 PRA  HZ EP        233 58.98                             102    0.66 6  345 206 
 PRA  HN ES        234 35.14                             102    0.25 6  345 206 
 PRA  HZ I         234 41.33         6.6 0.22            102            345 206 
 ORTC HZ EP   3    233 56.82                             101   -1.62 2  346 214 
 ORTC HN ES   3    234 36.27                             101    1.15 2  346 214 
 ORTC HZ I         234 41.58         8.3 0.46            102            346 214 
 PAL  HZ EP        233 59.38                             101   -0.05 6  354 240 
 PAL  HN ES   4    234 31.21                             101   -5.66 0  354 240 
 PAL  HZ I         234 39.26         3.9 0.47            102            354 240 
 LL6C HZ EP        233 59.15                             101   -0.44 6  356   4 
 LL6C HN ES   4    234 40.66                             101    3.50 0  356   4 
 SJC  HZ EP   4    234  4.99                              98   -1.80 0  416 334 
 SJC  HN ES   4    234 46.61                              98   -3.37 0  416 334 
 SJC  HZ I         235  1.95         2.9 0.38            100            416 334 
                                                                                
