 2013  415 0219  3.8 L   6.823 -73.132137.8  RSN  4 0.3 1.4LRSN                1
 GAP=202        0.61       4.0     5.4  6.6  0.6634E+01  0.2487E+01 -0.1217E+02E
 Epicentro: LOS SANTOS - SANTANDER                                             3
 ACTION:UPD 13-05-22 14:38 OP:EP   STATUS:               ID:20130415021903 L   I
 2013-04-15-0215-40M.COL___206                                                 6
 STAT SP IPHASW D HRMM SECON CODA AMPLIT PERI AZIMU VELO AIN AR TRES W  DIS CAZ7
 BAR2 SZ EP        219 22.52                             169   -0.0310 26.1 192 
 BAR2 SZ ES   1    219 36.78                             169   -0.38 7 26.1 192 
 BAR2 SZ I         219 39.67         8.0 0.20            169           26.1 192 
 RUS  HZ EP        219 27.21                             141    0.2410  103 177 
 RUS  HE ES   1    219 45.26                             141    0.23 7  103 177 
 RUS  HZ I         219 46.78         2.0 0.40            145            103 177 
 PTB  HZ EP        219 29.94                             130   -0.38 9  150 258 
 PTB  HN ES   1    219 51.29                             130    0.29 7  150 258 
 PTB  HZ I         219 55.23         3.4 0.42            131            150 258 
 SML  HZ EP        219 39.75                             116   -0.07 8  242 335 
 SML  HN ES   1    220  8.22                             116    0.32 6  242 335 
 SML  HZ I         220 10.54         4.2 0.10            118            242 335 
                                                                                
