 2016  315 0956 22.9 L   6.818 -73.195137.9  RSN  7 0.3 1.1LRSN                1
 GAP=130        0.50       3.1     3.4  4.7 -0.2359E+01  0.4777E+01  0.1354E+01E
 Epicentro: ZAPATOCA - SANTANDER                                               3
 ACTION:UPD 16-05-13 21:24 OP:cam  STATUS:               ID:20160315095622 L   I
 OLDACT:REG 16-03-15 13:39 OP:dnl  STATUS:               ID:20160315094751     3
 2016-03-15-0947-51M.COL___291                                                 6
 STAT SP IPHASW D HRMM SECON CODA AMPLIT PERI AZIMU VELO AIN AR TRES W  DIS CAZ7
 BAR2 EZ EP   2    956 41.67                             169    0.02 5 25.1 177 
 BAR2 EZ ES        956 56.51                             169    0.2610 25.1 177 
 BAR2 EZ I         956 57.73         3.2 0.12            170           25.1 177 
 PAM  EZ EP   2    956 44.58                             148    0.14 5 79.4  43 
 PAM  EE ES   2    957  0.80                             148   -0.42 5 79.4  43 
 PAM  EZ I         957  1.95         3.0 0.34            152           79.4  43 
 RUS  HZ EP   2    956 45.75                             141   -0.35 5  103 173 
 RUS  HN ES   4    957  1.41                             141   -2.77 0  103 173 
 RUS  HZ I         957  4.34         1.1 0.32            145            103 173 
 PTB  HZ EP        956 48.75                             131   -0.06 9  143 258 
 PTB  HN ES        957  8.81                             131   -0.19 9  143 258 
 PTB  HZ I         957 11.80         2.4 0.16            130            143 258 
 SPBC HZ EP   2    956 50.87                             128    0.20 5  161 217 
 SPBC HN ES        957 12.21                             128   -0.09 9  161 217 
 SPBC HZ I         957 17.32         2.2 0.10            128            161 217 
 ZAR  HZ EP   2    956 55.05                             121    0.78 4  198 292 
 ZAR  HN ES   4    957 17.40                             121   -1.31 0  198 292 
 ZAR  HZ I         957 26.16         1.0 0.12            121            198 292 
 CHI  HZ EP   4    956 57.82                             115   -2.45 0  249 194 
 CHI  HN ES        957 29.41                             115    0.01 8  249 194 
                                                                                
