 2016  615 0824 46.1 L   6.742 -73.181150.3  RSN  5 0.2 1.2LRSN                1
 GAP=229        0.59       4.5     4.2  4.3  0.1167E+02  0.2281E+01 -0.1609E+01E
 Epicentro: VILLANUEVA - SANTANDER                                             3
 ACTION:UPD 16-07-21 22:19 OP:rebc STATUS:               ID:20160615082446 L   I
 OLDACT:REG 16-06-15 13:34 OP:dani STATUS:               ID:20160615081749     3
 2016-06-15-0817-49M.COL___316                                                 6
 STAT SP IPHASW D HRMM SECON CODA AMPLIT PERI AZIMU VELO AIN AR TRES W  DIS CAZ7
 BAR2 EZ EP        825  6.15                             173   -0.0410 16.5 181 
 BAR2 EZ ES        825 21.56                             173   -0.2810 16.5 181 
 BAR2 EZ I         825 23.83         4.0 0.24                          16.5 181 
 BRR  HZ EP        825  7.83                             153    0.0510 71.3 305 
 BRR  HN ES        825 24.71                             153    0.0510 71.3 305 
 RUS  HZ EP        825  9.85                             146   -0.0610 94.5 173 
 RUS  HE ES        825 28.85                             146    0.3910 94.5 173 
 RUS  HZ I         825 29.95         2.0 0.36                          94.5 173 
 PTB  HZ EP        825 12.81                             134   -0.23 9  143 261 
 PTB  HN ES        825 33.78                             134   -0.24 9  143 261 
 PTB  HZ I         825 37.78         1.6 0.18                           143 261 
 ZAR  HZ EP        825 18.85                             123    0.08 9  203 294 
 ZAR  HN ES        825 44.57                             123    0.34 9  203 294 
 ZAR  HZ I         825 48.92         1.4 0.24                           203 294 
                                                                                
