 2012  315 0334 46.8 L   6.787 -73.139143.2  RSN  7 0.4 1.4LRSN                1
 GAP=138        0.93       5.8     5.2 10.6 -0.1814E+01  0.1152E+02  0.8231E+01E
 ACTION:UP  12-03-31 23:19 OP:EP   STATUS:               ID:20120315033446 L   I
 2012-03-15-0330-00M.COL___202                                                 6
 STAT SP IPHASW D HRMM SECON CODA AMPLIT PERI AZIMU VELO SNR AR TRES W  DIS CAZ7
 BAR2 SZ EP   1    335  5.94                             171    -0.2 7   22 192 
 BAR2 SZ I         335 22.68         9.3 0.21                            22 192 
 BRR  HZ IP        335  7.94                             152     0.210   73 299 
 BRR  HZ EP        335  7.95                             152             73 299 
 BRR  HN ES   1    335 24.69                             152     0.6 7   73 299 
 BRR  HZ I         335 29.23        11.9 0.15                            73 299 
 PAM  SZ EP   1    335  8.97                             150     0.2 7   78  38 
 PAM  SZ I         335  9.28         4.2 0.15                            78  38 
 PAM  SN ES   1    335 25.73                             150    -0.2 7   78  38 
 RUS  HZ EP   1    335 10.14                             144    -0.1 7   99 176 
 RUS  HN ES   1    335 28.28                             144    -0.2 7   99 176 
 RUS  HZ I         335 30.59         3.0 0.27                            99 176 
 PTB  HZ EP   1    335 13.41                             131    -0.2 7  148 259 
 PTB  HN ES   1    335 33.84                             131    -0.7 7  148 259 
 PTB  HZ I         335 36.61         1.7 0.27                           148 259 
 ZAR  HN ES   1    335 44.08                             122    -0.4 6  205 292 
 NOR  SN ES   1    335 50.89                             118     0.8 6  234 235 
                                                                                
