 2012 1215 0538 30.8 L   6.774 -73.156144.9  RSN  6 0.4 1.5LRSN                1
 GAP=136        0.70       4.0     4.8  6.2 -0.1964E+01  0.3124E+01  0.6537E+01E
 Epicentro: LOS SANTOS - SANTANDER                                             3
 ACTION:UPD 13-01-04 14:27 OP:ep   STATUS:               ID:20121215053830 L   I
 2012-12-15-0536-36M.COL___204                                                 6
 STAT SP IPHASW D HRMM SECON CODA AMPLIT PERI AZIMU VELO AIN AR TRES W  DIS CAZ7
 BAR2 SZ EP   1    538 50.27                             172   -0.03 7 20.3 188 
 BAR2 SZ ES   1    539  5.19                             172   -0.29 7 20.3 188 
 BAR2 SZ I         539  6.79        13.8 0.18                          20.3 188 
 BRR  HZ EP   1    538 52.23                             152    0.32 7 71.6 301 
 BRR  HN ES   1    539  8.83                             152    0.48 7 71.6 301 
 BRR  HZ I         539 13.10         7.1 0.16                          71.6 301 
 PAM  SZ EP   1    538 53.30                             150    0.17 7 80.3  39 
 PAM  SN ES   1    539 10.02                             150   -0.51 7 80.3  39 
 PAM  SZ I         539 12.50         5.4 0.44                          80.3  39 
 RUS  HZ EP   1    538 54.44                             144    0.14 7 97.8 175 
 RUS  HN ES   1    539 13.06                             144    0.46 7 97.8 175 
 RUS  HZ I         539 14.74         4.3 0.32                          97.8 175 
 PTB  HZ EP   1    538 57.10                             132   -0.48 7  146 260 
 PTB  HN ES   1    539 18.24                             132   -0.20 7  146 260 
 PTB  HZ I         539 22.40         4.3 0.13                           146 260 
 CHI  HZ EP   1    539  8.37                             117    0.22 6  246 195 
 CHI  HE ES   1    539 36.77                             117   -0.48 6  246 195 
 CHI  HZ I         539 41.74         1.7 0.74                           246 195 
                                                                                
