 2017 1015 0651 26.8 L   6.721 -73.165139.4  RSN 10 0.4 1.5LRSN                1
 GAP=204        1.01       4.0     4.2  5.8  0.7055E+01  0.4127E+01  0.5347E+01E
 Epicentro: VILLANUEVA - SANTANDER                                             3
 ACTION:UPD 17-11-07 19:32 OP:rebc STATUS:               ID:20171015064117 L   I
 OLDACT:UPD 17-10-15 13:29 OP:leo  STATUS:               ID:20171015064117 L   3
 2017-10-15-0648-00M.COL___414                                                 6
 STAT SP IPHASW D HRMM SECON CODA AMPLIT PERI AZIMU VELO AIN AR TRES W  DIS CAZ7
 BAR2 EZ EP        651 45.36                             174   -0.1310 14.4 188 
 BAR2 EZ ES        651 59.42                             174   -0.6610 14.4 188 
 BAR2 EZ I         652  1.69        12.5 0.18            170           14.4 188 
 BRR  HZ EP        651 47.26                             150   -0.1510 74.0 305 
 BRR  HN ES        652  4.32                             150    0.8210 74.0 305 
 BRR  HZ I         652  8.26         4.8 0.14            150           74.0 305 
 RUS  HZ EP        651 49.39                             145    0.1010 92.1 174 
 RUS  HN ES        652  7.44                             145    0.5910 92.1 174 
 RUS  HZ I         652  9.83         4.0 0.38            146           92.1 174 
 PTB  HZ EP        651 52.21                             131   -0.70 9  144 262 
 PTB  HN ES        652 13.35                             131    0.06 9  144 262 
 PTB  HZ I         652 19.24         2.7 0.38            131            144 262 
 YPLC HZ EP        651 55.64                             126    0.17 9  170 149 
 YPLC HN ES        652 17.58                             126   -0.27 9  170 149 
 ZAR  HZ EP        651 59.23                             121    0.26 8  206 295 
 ZAR  HE ES        652 23.72                             121   -0.37 8  206 295 
 ZAR  HZ I         652 28.62         3.6 0.48            122            206 295 
 NOR  HN ES        652 28.40                             118   -0.04 8  228 236 
 CHI  HZ EP        652  3.27                             117    0.12 8  240 195 
 CHI  HN ES        652 31.27                             117   -0.25 8  240 195 
 CHI  HZ I         652 36.40         1.4 0.36            118            240 195 
 GUY2CHZ EP   9    652 11.34                             112    2.00 0  294 236 
 GUY2CHN ES        652 44.29                                   -0.25 7  294 236 
 GUY2CHZ I         652 50.51         2.1 0.82                           294 236 
 PRA  HZ EP        652 19.82                             106    0.75 6  383 210 
 PRA  HN ES        652 59.81                             106   -0.05 6  383 210 
 PRA  HZ I         653  5.23         1.0 0.22            107            383 210 
                                                                                
