 2017  415 0905 46.1 L   6.476 -73.512  2.8  RSN 15 0.6 2.1LRSN                1
 GAP= 63        1.77       4.4     3.4  6.8 -0.3306E+01  0.1094E+01 -0.6786E+01E
 Epicentro: SANTA HELENA DEL OPON - SANTANDER                                  3
 ACTION:UPD 17-05-30 21:12 OP:jn   STATUS:               ID:20170415090546 L   I
 OLDACT:UP  17-04-15 19:05 OP:edw  STATUS:               ID:20170415085739     3
 OLDACT:UP  17-04-15 19:04 OP:edw  STATUS:               ID:20170415085739     3
 OLDACT:REG 17-04-15 13:23 OP:edw  STATUS:               ID:20170415085739     3
 2017-04-15-0858-00M.COL___368                                                 6
 STAT SP IPHASW D HRMM SECON CODA AMPLIT PERI AZIMU VELO AIN AR TRES W  DIS CAZ7
 BAR2 EZ IP     D  9 5 52.87                              47   -0.1110 38.7  71 
 BAR2 EZ ES        9 5 57.87                              47   -0.4810 38.7  71 
 BAR2 EZ I         9 5 59.52        85.5 0.50             47           38.7  71 
 BRR  HZ EP     C  9 5 58.36                              47    0.4010 73.1 342 
 BRR  HN ES        9 6  8.32                              47    1.1210 73.1 342 
 BRR  HZ I         9 6 10.26        61.6 0.10             47           73.1 342 
 RUS  HZ IP   9 C  9 5 58.62                              47   -0.91 0 80.2 144 
 RUS  HN ES        9 6  7.63                              47   -1.4610 80.2 144 
 RUS  HZ I         9 6  8.95       121.0 0.14             47           80.2 144 
 PTB  HZ EP     D  9 6  2.78                              47    0.0310  105 274 
 PTB  HZ IP        9 6  2.78                              47    0.0310  105 274 
 PTB  HN ES        9 6 15.13                              47   -0.6010  105 274 
 PTB  HZ I         9 6 17.59       113.0 0.10             47            105 274 
 SPBC HZ EP        9 6  3.16                              47   -0.5110  110 214 
 SPBC HN ES   4    9 6 15.52                              47   -1.85 0  110 214 
 SPBC HZ I         9 6 21.94        71.5 0.10             47            110 214 
 PAM  EZ EP        9 6  7.36                              47    0.1210  131  43 
 PAM  EN ES        9 6 23.17                              47   -0.5610  131  43 
 PAM  EZ I         9 6 24.12       102.5 0.18             47            131  43 
 YPLC HZ EP        9 6 13.74                              47    0.55 9  173 134 
 YPLC HN ES   4    9 6 36.35                              47    2.04 0  173 134 
 YPLC HZ I         9 6 38.20        22.3 0.36             47            173 134 
 NOR  HZ EP   9    9 6 13.60                              37   -0.66 0  181 236 
 NOR  HN ES        9 6 34.78                              37   -0.77 9  181 236 
 NOR  HZ I         9 6 36.60        19.4 0.24             37            181 236 
 ZAR  HZ EP   9    9 6 14.11                              37   -0.76 0  186 307 
 ZAR  HN ES        9 6 35.35                              37   -1.20 9  186 307 
 ZAR  HZ I         9 6 41.12        22.5 0.18             37            186 307 
 CHI  HZ EP        9 6 18.40                              37    0.62 8  206 187 
 CHI  HN ES   4    9 6 45.51                              37    3.03 0  206 187 
 CHI  HZ I         9 6 49.30         9.9 0.34             37            206 187 
 HEL  HZ EP     D  9 6 19.19                              37   -0.99 8  225 262 
 HEL  HN ES   4    9 6 43.41                              37   -3.35 0  225 262 
 HEL  HZ I         9 6 45.31        11.3 0.20             37            225 262 
 ELA  HZ EP   4    9 6 27.74                              37    1.15 0  275 230 
 ELA  HN ES   2    9 6 59.22                              37    1.05 4  275 230 
 ELA  HZ I         9 7  0.07         5.2 0.38             37            275 230 
 CBOC HZ EP   2    9 6 28.27                              37    0.89 4  285 256 
 CBOC HN ES   4    9 7  1.56                              37    1.99 0  285 256 
 PTGC HZ EP   4    9 6 30.39                              36    2.00 0  295 149 
 PTGC HN ES   4    9 7  6.35                              36    4.98 0  295 149 
 PTGC HZ I         9 7 13.71         8.0 0.38             36            295 149 
 PRA  HZ EP   4    9 6 35.62                              36    1.41 0  341 207 
 PRA  HN ES   4    9 7 20.69                              36    8.96 0  341 207 
 PRA  HZ I         9 7 22.99         7.7 0.40             36            341 207 
                                                                                
