 2012  915 0437 13.5 L   6.802 -73.151141.3  RSN  6 0.4 1.5LRSN                1
 GAP=184        0.77       6.7     6.7  9.4  0.1038E+02  0.1479E+02 -0.6648E+01E
 Epicentro: LOS SANTOS - SANTANDER                                             3
 ACTION:UPD 12-10-22 14:18 OP:ep   STATUS:               ID:20120915043713 L   I
 2012-09-15-0430-00M.COL___227                                                 6
 STAT SP IPHASW D HRMM SECON CODA AMPLIT PERI AZIMU VELO AIN AR TRES W  DIS CAZ7
 BAR2 SZ EP   1    437 32.49                             170   -0.13 7 23.4 188 
 BAR2 SZ ES   1    437 47.26                             170   -0.25 7 23.4 188 
 BAR2 SZ I         437 48.78        11.5 0.18                          23.4 188 
 GIR2 SZ EP   1    437 32.40                             167   -0.26 7 31.0 351 
 GIR2 SZ ES   1    437 47.40                             167   -0.18 7 31.0 351 
 BRR  HZ EP   1    437 34.40                             152    0.24 7 70.6 299 
 BRR  HN ES   2    437 51.22                             152    0.98 5 70.6 299 
 BRR  HZ I         437 53.70         4.2 0.22                          70.6 299 
 RUS  HZ I         437 55.37         5.1 0.38                           101 176 
 RUS  HN ES   1    437 55.48                             143    0.43 7  101 176 
 PTB  HN ES   1    438  0.21                             131   -0.58 7  147 259 
 PTB  HN I         438  0.38         4.3 0.30                           147 259 
 ZAR  HN ES   2    438 11.31                             121    0.66 4  203 292 
                                                                                
