 2014  515 0331  1.8 L   6.737 -73.134140.0  RSN  7 0.4 1.4LRSN                1
 GAP=141        0.79       3.5     4.5  9.3 -0.1574E+00  0.2218E+02 -0.1452E+01E
 Epicentro: JORDAN - SANTANDER                                                 3
 ACTION:UPD 15-03-16 16:57 OP:nd   STATUS:               ID:20140515033101 L   I
 OLDACT:REG 14-05-15 13:37 OP:spq  STATUS:               ID:20140515032819     3
 2014-05-15-0328-19M.COL___251                                                 6
 STAT SP IPHASW D HRMM SECON CODA AMPLIT PERI AZIMU VELO AIN AR TRES W  DIS CAZ7
 PAM  SN ESg       331 40.81                             148    0.0610 82.2  36 
 PAM  SZ I         331 43.20         4.2 0.41            152           82.2  36 
 RUS  HZ EP   1    331 24.38                             145   -0.06 7 93.5 177 
 RUS  HN ES        331 42.04                             145   -0.0810 93.5 177 
 RUS  HZ I         331 44.23         2.2 0.22            149           93.5 177 
 PTB  HZ EP        331 27.73                             131   -0.54 9  148 262 
 PTB  HN ES        331 48.62                             131   -0.33 9  148 262 
 PTB  HZ I         331 50.97         4.9 0.18            132            148 262 
 SPBC HZ EP   1    331 29.95                             129    0.56 7  159 221 
 SPBC HN ES   1    331 51.50                             129    0.57 7  159 221 
 SPBC HZ I         331 53.06         2.5 0.12            131            159 221 
 OCA  HE ES   4    331 51.62                             127   -0.97 0  167 353 
 OCA  HZ I         331 52.98         3.8 0.54            130            167 353 
 ZAR  HE ES        331 59.95                             121    0.37 8  208 294 
 ZAR  HZ I         332  8.12         2.9 0.24            123            208 294 
 SML  HN ES   1    332  7.78                             116    0.04 6  251 336 
                                                                                
