 2015 1215 0010  0.6 L   6.797 -73.089152.7  RSN 14 0.4 2.2LRSN                1
 GAP=144        0.92       2.8     3.3  4.7 -0.1851E+01  0.5468E+01 -0.2102E+00E
 Epicentro: LOS SANTOS - SANTANDER                                             3
 ACTION:UPD 16-02-04 15:04 OP:cam  STATUS:               ID:20151215001000 L   I
 OLDACT:REG 15-12-15 12:46 OP:cara STATUS:               ID:20151215000000     3
 2015-12-15-0000-00M.COL___328                                                 6
 STAT SP IPHASW D HRMM SECON CODA AMPLIT PERI AZIMU VELO AIN AR TRES W  DIS CAZ7
 BAR2 EZ IP        010 20.88                             170   -0.1710 24.9 204 
 BAR2 EZ ES        010 36.86                             170   -0.1810 24.9 204 
 BAR2 EZ I         010 38.99        21.2 0.34            169           24.9 204 
 PAM  EZ IP        010 23.62                             153    0.3110 73.8  36 
 PAM  EE ES        010 41.20                             153    0.1410 73.8  36 
 BRR  HZ EP     C  010 22.85                             152    0.0710 76.9 296 
 BRR  HE ES        010 40.62                             152    0.5210 76.9 296 
 BRR  HZ I         010 44.58        19.6 0.52            149           76.9 296 
 RUS  HZ EP        010 24.82                             145   -0.1410  100 180 
 RUS  HN ES        010 43.81                             145   -0.1810  100 180 
 RUS  HZ I         010 44.99         7.1 0.20            148            100 180 
 PTB  HZ EP   4    010 27.66                             132   -0.98 0  154 259 
 PTB  HE ES        010 49.92                             132   -0.63 9  154 259 
 PTB  HZ I         010 50.81        21.3 0.36            132            154 259 
 OCA  HZ EP        010 30.22                             131    0.70 9  161 351 
 OCA  HN ES        010 51.60                             131   -0.51 9  161 351 
 OCA  HZ I         010 55.87        31.7 0.30            131            161 351 
 SPBC HZ IP        010 29.94                             130   -0.01 9  167 221 
 SPBC HE ES        010 53.10                             130    0.23 9  167 221 
 SPBC HZ I         010 56.00        44.7 0.10            131            167 221 
 ZAR  HZ EP        010 33.42                             123   -0.64 8  210 292 
 ZAR  HE ES        011  0.68                             123    0.48 8  210 292 
 ZAR  HZ I         011  5.76        19.5 0.48            123            210 292 
 SML  HZ EP        010 37.16                             118   -0.73 8  247 334 
 SML  HE ES   4    011  5.99                             118   -1.03 0  247 334 
 SML  HZ I         011 11.19        25.4 0.24            119            247 334 
 HEL  HZ EP        010 41.68                             116   -0.11 7  278 256 
 HEL  HN ES        011 13.67                             116   -0.28 7  278 256 
 HEL  HZ I         011 19.21         9.4 0.38            116            278 256 
 URE  HZ EP   4    010 41.64                             114   -0.99 0  290 292 
 URE  HN ES        011 15.79                             114    0.35 7  290 292 
 URE  HZ I         011 25.20         8.6 0.24            115            290 292 
 GUY2CHZ EP   4    010 45.83                             113    0.78 0  306 235 
 GUY2CHN ES        011 19.76                             113    0.01 7  306 235 
 GUY2CHZ I         011 25.87         8.1 0.34                           306 235 
 CBOC HZ EP        010 48.69                             111    0.26 7  339 252 
 CBOC HN ES        011 25.68                             111   -0.10 7  339 252 
 CBOC HZ I         011 29.08         2.6 0.22            111            339 252 
 ORTC HZ EP        010 55.60                             107    0.47 6  399 217 
 ORTC HN ES        011 38.30                             107    0.61 6  399 217 
 ORTC HZ I         011 43.57         3.0 0.38            108            399 217 
                                                                                
