 2017 1015 0023 47.5 L   6.774 -73.191150.0  RSN 10 0.4 1.4LRSN                1
 GAP=109        1.09       4.5     4.2  7.1  0.3412E+01  0.7172E+01  0.9244E+01E
 Epicentro: ZAPATOCA - SANTANDER                                               3
 ACTION:UPD 17-11-07 19:31 OP:rebc STATUS:               ID:20171015001738 L   I
 OLDACT:UPD 17-10-15 13:29 OP:leo  STATUS:               ID:20171015001738 L   3
 2017-10-15-0018-00M.COL___438                                                 6
 STAT SP IPHASW D HRMM SECON CODA AMPLIT PERI AZIMU VELO AIN AR TRES W  DIS CAZ7
 BAR2 EZ EP        024  7.54                             172   -0.0510 20.1 177 
 BAR2 EZ ES        024 22.42                             172   -0.8210 20.1 177 
 BAR2 EZ I         024 23.96         7.0 0.12            170           20.1 177 
 BRR  HZ EP     D  024  9.19                             154    0.2310 68.4 303 
 BRR  HE ES        024 26.44                             154    0.7510 68.4 303 
 PAM  EZ EP        024 10.36                             150   -0.1410 82.8  41 
 PAM  EN ES        024 28.39                             150   -0.0410 82.8  41 
 PAM  EZ I         024 29.54         4.9 0.42            152           82.8  41 
 RUS  HZ EP        024 11.35                             145   -0.1610 98.2 173 
 RUS  HN ES        024 30.53                             145    0.3110 98.2 173 
 RUS  HZ I         024 31.13         3.7 0.26            144           98.2 173 
 PTB  HZ EP   4    024 12.71                             134   -1.63 0  142 260 
 PTB  HN ES        024 35.12                             134   -0.14 9  142 260 
 PTB  HZ I         024 35.81         2.0 0.14            132            142 260 
 YPLC HN ES        024 41.31                             128    0.23 9  177 149 
 YPLC HZ I         024 42.72         4.8 0.30            127            177 149 
 ZAR  HE ES        024 45.11                             124   -0.01 9  201 293 
 ZAR  HZ I         024 52.53         2.8 0.13            122            201 293 
 NOR  HZ EP        024 22.04                             120   -0.83 8  229 234 
 NOR  HN ES   4    024 51.61                             120    1.15 0  229 234 
 NOR  HZ I         024 59.19         2.7 0.18            119            229 234 
 CHI  HZ EP        024 25.71                             118    0.71 8  245 194 
 CHI  HN ES   4    024 52.90                             118   -1.35 0  245 194 
 CHI  HZ I         024 58.17         1.4 0.46            117            245 194 
 GUY2CHZ EP   4    024 31.97                             114    1.30 0  295 235 
 GUY2CHN ES        025  4.30                             114   -0.03 7  295 235 
 GUY2CHZ I         025 12.57         1.3 0.58                           295 235 
                                                                                
