 2011 1215 0153  4.3 L   6.802 -73.118150.5  RSN 25 0.5 4.5LRSN 4.6WRSN        1
 SPEC AVERAGE  MO 16.0 ST  5.5 OM  4.3 f0 1.38 R2.1508 AL 1.39 WI 29.9 MW  4.6 3
 SPEC SD       MO  0.1 ST  3.7 OM  1.0 f00.343 R0.4827 AL      WI      MW  0.1 3
 GAP=116        1.04       2.9     4.5  5.2 -0.3274E+01  0.5357E+01  0.4088E+01E
 Epicentro: LOS SANTOS - SANTANDER                                             3
 Evento sentido                                                                2
 Reportado como sentido en:                                                    3
 FLORIDABLANCA (SANTANDER), CUCUTA (NORTE DE SANTANDER), ENVIGADO (ANTIOQUIA)  3
 SPEC COD HH Z MO 16.1 ST  3.2 OM  3.4 f0 1.05 R2.6781 AL 1.01 WI 37.2 MW  4.7 3
 SPEC COD HH Z T 15351 K 0.020 GD  379 VP 7.60 DE 3.20 Q0230.0 QA 0.60 VS 4.20 3
 SPEC RREFHH Z MO 15.9 ST 11.1 OM  3.2 f0 1.89 R1.4878 AL 1.80 WI 35.7 MW  4.6 3
 SPEC RREFHH Z T 15350 K 0.020 GD  357 VP 7.60 DE 3.20 Q0230.0 QA 0.60 VS 4.20 3
 SPEC RUS HH Z MO 15.8 ST  2.0 OM  3.4 f0 1.15 R2.4452 AL 1.23 WI 18.1 MW  4.5 3
 SPEC RUS HH Z T 15328 K 0.020 GD  181 VP 7.60 DE 3.20 Q0230.0 QA 0.60 VS 4.20 3
 SPEC HEL HH Z MO 16.0 ST  8.9 OM  3.3 f0 1.70 R1.6541 AL 1.59 WI 28.9 MW  4.6 3
 SPEC HEL HH Z T 15344 K 0.020 GD  313 VP 7.60 DE 3.20 Q0230.0 QA 0.60 VS 4.20 3
 SPEC CHI HH Z MO 15.9 ST  2.4 OM  3.3 f0 1.13 R2.4885 AL 1.31 WI 29.8 MW  4.6 3
 SPEC CHI HH Z T 15341 K 0.020 GD  291 VP 7.60 DE 3.20 Q0230.0 QA 0.60 VS 4.20 3
 ACTION:UPD 12-07-13 16:16 OP:ep   STATUS:               ID:20111215015304 L   I
 2011-12-15-0150-00M.COL___185                                                 6
 STAT SP IPHASW D HRMM SECON CODA AMPLIT PERI AZIMU VELO AIN AR TRES W  DIS CAZ7
 BAR2 SZ IP     D  153 24.56                             170    0.0210 24.3 197 
 BAR2 SZ ES   1    153 40.26                             170   -0.04 7 24.3 197 
 BAR2 SZ I         153 40.99      7946.9 0.42                          24.3 197 
 GIR2 SZ IP        153 24.66                             167    0.0910 31.7 345 
 GIR2 SZ ES   1    153 39.99                             167   -0.37 7 31.7 345 
 BRR  HZ IP     C  153 26.46                             152    0.3310 73.8 297 
 BRR  HN ES   1    153 43.59                             152    0.45 7 73.8 297 
 BRR  HZ I         153 46.19      3938.6 0.13                          73.8 297 
 PAM  SZ IP     D  153 27.35                             152    0.4310 75.3  38 
 PAM  SN ES   1    153 44.56                             152    0.01 7 75.3  38 
 RUS  HZ IP     C  153 28.34                             145   -0.2010  101 178 
 RUS  HN ES   1    153 46.67                             145   -0.76 7  101 178 
 RUS  HZ I         153 48.58      4405.7 0.38                           101 178 
 BRI  SZ IP     C  153 29.15                             142    0.5810  107  19 
 BRI  SZ ES   1    153 47.08                             142   -0.40 7  107  19 
 GUE  SZ EP   1    153 28.70                             140   -0.71 7  116  11 
 OCA  SZ EP        153 33.03                             130    0.01 9  160 352 
 OCA  SZ ES   1    153 54.95                             130   -0.45 7  160 352 
 OCA  SZ I         154  1.99      3960.9 0.41                           160 352 
 YOP  SZ IP     C  153 35.00                             127    0.40 9  178 154 
 YOP  SN ES   1    153 58.71                             127    0.50 7  178 154 
 YOP  SZ I         154  0.54      1263.4 0.27                           178 154 
 CTAU SZ IP     D  153 38.05                             123    0.27 9  204 210 
 CTAU SZ ES   1    154  3.79                             123   -0.09 6  204 210 
 CTAU SZ I         154  7.76      4113.8 0.33                           204 210 
 CTAB SZ EP   1    153 41.79                             120    1.25 6  232 211 
 CTAB SZ ES   1    154  8.09                             120   -0.70 6  232 211 
 CTAB SZ I         154 15.03      3261.4 0.60                           232 211 
 NOR  SZ EP        153 40.14                             119   -0.47 8  237 235 
 NOR  SE ES   1    154  8.77                             119   -0.14 6  237 235 
 CHI  HZ EP        153 42.08                             118   -0.32 8  250 196 
 CHI  HE ES   1    154 11.42                             118   -0.67 6  250 196 
 CHI  HZ I         154 17.29      1094.5 0.60                           250 196 
 ROSC BZ EP        153 43.95                             117    1.05 8  255 212 
 ROSC BZ I         154 21.80      2420.0 0.48                           255 212 
 CVER SZ EP        153 45.64                             115    0.56 8  274 203 
 CVER SZ I         154 21.95      1011.5 0.32                           274 203 
 HEL  HZ EP   1    153 44.26                             115   -0.85 6  275 256 
 HEL  HN ES   1    154 16.94                             115    0.01 6  275 256 
 HEL  HZ I         154 23.76      1341.3 0.44                           275 256 
 VIL  SZ EP        153 47.47                             113   -0.58 7  304 192 
 VIL  SZ I         154 28.98       723.9 0.70                           304 192 
 GUY  SZ EP   1    153 48.76                             113    0.05 5  306 235 
 GUY  SN ES   1    154 24.19                             113    0.86 5  306 235 
 GUY  SZ I         154 31.31      2967.6 0.35                           306 235 
 RREF HZ EP   1    153 50.45                             111   -0.50 5  324 230 
 RREF HZ I         154 35.92      2162.4 0.30                           324 230 
 DBB  SZ EP        153 52.63                             110    0.29 7  343 274 
 DBB  SZ I         154 33.30       416.4 0.58                           343 274 
 COD  HZ EP   1    153 51.73                             110   -1.17 5  348 354 
 COD  HZ I         154 37.28      1649.1 0.32                           348 354 
 PRA  HZ EP   1    153 57.61                             107   -0.60 4  394 210 
 SJA  SZ EP        153 58.02                             107   -1.13 6  401 193 
 SJA  SZ I         154 43.85      1462.0 0.39                           401 193 
 PAL  HZ EP   1    154  0.26                             106    0.30 4  408 239 
 GUA  SZ EP   1    154  6.80                             104   -0.79 3  474 173 
                                                                                
