 2016  915 0632 34.6 L   6.141 -73.799101.3  RSN 12 0.4 1.8LRSN                1
 GAP=100        0.92       2.6     2.6  5.8 -0.2024E+01  0.4797E+01 -0.2781E+01E
 Epicentro: LANDAZURI - SANTANDER                                              3
 ACTION:UPD 17-08-17 21:12 OP:lp   STATUS:               ID:20160915063234 L   I
 OLDACT:REG 16-09-15 20:21 OP:lv   STATUS:               ID:20160915062730     3
 2016-09-15-0628-00M.COL___327                                                 6
 STAT SP IPHASW D HRMM SECON CODA AMPLIT PERI AZIMU VELO AIN AR TRES W  DIS CAZ7
 SPBC HZ EP        632 51.02                             146    0.3510 61.9 209 
 SPBC HN ES        633  3.67                             146    0.4910 61.9 209 
 SPBC HZ I         633  5.02        32.7 0.24            151           61.9 209 
 RUS  HZ EP        632 52.74                             138   -0.1510 83.8 109 
 RUS  HE ES        633  6.61                             138   -0.5210 83.8 109 
 RUS  HZ I         633  8.00         4.8 0.28            144           83.8 109 
 BAR2 EZ EP        632 52.87                             137    0.2810 84.5  54 
 BAR2 HN ES        633  7.07                             137    0.4710 84.5  54 
 BAR2 EZ I         633  8.09        36.2 0.44            140           84.5  54 
 PTB  HZ EP        632 51.88                             136   -0.4610 85.1 301 
 PTB  HE ES        633  5.75                             136   -0.4010 85.1 301 
 PTB  HZ I         633  8.47        12.0 0.12            137           85.1 301 
 BRR  HZ EP     C  632 54.39                             129    0.0910  107   5 
 BRR  HN ES        633  9.49                             129   -0.1510  107   5 
 BRR  HZ I         633 17.06         7.7 0.18            131            107   5 
 NOR  HZ EP        632 56.69                             122   -0.4010  135 242 
 NOR  HE ES        633 14.49                             122   -0.1110  135 242 
 NOR  HZ I         633 19.03        21.8 0.16            126            135 242 
 ZAR  HZ EP        633  3.24                             112    0.21 9  190 322 
 ZAR  HN ES        633 25.41                             112    0.23 9  190 322 
 ZAR  HZ I         633 29.92        15.1 0.34            115            190 322 
 HEL  HZ EP        633  4.43                             112    0.75 9  192 272 
 HEL  HN ES   4    633 28.17                             112    1.83 0  192 272 
 HEL  HZ I         633 31.63         4.6 0.22            115            192 272 
 GUY2CHZ EP        633  4.67                             111   -0.21 9  201 240 
 GUY2CHE ES        633 28.29                             111   -0.17 9  201 240 
 GUY2CHZ I         633 35.85         5.4 0.46                           201 240 
 OCA  HE ES        633 35.11                             107   -0.24 8  238  13 
 OCA  HZ I         633 40.79         9.0 0.46            110            238  13 
 CBOC HZ EP   9    633 10.71                             106    0.89 0  247 263 
 CBOC HN ES        633 38.45                                    0.30 8  247 263 
 URE  HZ EP   4    633  8.54                             105   -2.81 0  262 313 
 URE  HN ES   4    633 37.43                             105   -2.55 0  262 313 
 URE  HZ I         633 40.57         8.5 0.12            107            262 313 
                                                                                
