 2015  115 0239  3.7 L   6.813 -73.147144.4  RSN 10 0.5 1.9LRSN                1
 GAP=136        1.24       3.5     5.2  7.1  0.4576E+00  0.1032E+02  0.1396E+01E
 Epicentro: LOS SANTOS - SANTANDER                                             3
 ACTION:UPD 15-03-02 15:39 OP:nd   STATUS:               ID:20150115023903 L   I
 OLDACT:REG 15-01-15 13:02 OP:carl STATUS:               ID:20150115023745     3
 2015-01-15-0237-45M.COL___253                                                 6
 STAT SP IPHASW D HRMM SECON CODA AMPLIT PERI AZIMU VELO AIN AR TRES W  DIS CAZ7
 BAR2 EZ EP        239 23.19                             170    0.0010 24.8 189 
 BAR2 EZ ES        239 38.33                             170   -0.0610 24.8 189 
 BAR2 EZ I         239 39.62        14.1 0.22            168           24.8 189 
 BRR  HZ EP        239 25.13                             153    0.4910 70.4 298 
 BRR  HN ES        239 41.83                             153    0.8410 70.4 298 
 BRR  HZ I         239 45.48        18.0 0.40            151           70.4 298 
 PAM  SZ EP        239 26.19                             151    0.4910 76.3  40 
 PAM  SN ES        239 42.92                             151    0.0510 76.3  40 
 PAM  SZ I         239 45.00        15.7 0.46            156           76.3  40 
 RUS  HZ EP        239 27.36                             143   -0.0510  102 176 
 RUS  HN ES        239 45.15                             143   -0.7710  102 176 
 PTB  HZ EP        239 29.86                             132   -0.70 9  148 258 
 PTB  HN ES        239 50.95                             132   -0.57 9  148 258 
 PTB  HZ I         239 58.17         9.6 0.44            131            148 258 
 OCA  HN ES        239 53.43                             130   -0.22 9  159 353 
 OCA  HZ I         239 56.11         8.8 0.24            132            159 353 
 ZAR  HZ EP        239 36.46                             122    0.49 9  203 292 
 ZAR  HN ES        240  1.59                             122    0.43 9  203 292 
 ZAR  HZ I         240  7.59         7.2 0.32            123            203 292 
 SML  HZ EP        239 39.58                             117   -0.51 8  242 335 
 SML  HN ES        240  7.58                             117   -0.90 8  242 335 
 SML  HZ I         240 10.81        10.2 0.10            119            242 335 
 CHI  HZ EP        239 41.78                             117    0.32 8  250 195 
 CHI  HN ES        240 11.38                             117    0.45 8  250 195 
 CHI  HZ I         240 20.06         2.6 0.36            118            250 195 
 TOL  SN ES        240 29.78                             109    0.10 7  344 224 
                                                                                
