 2017 1015 0646 58.3 L   6.723 -73.140134.5  RSN  7 0.4 1.6LRSN                1
 GAP=115        1.04       4.2     4.1  6.4  0.6352E+01  0.4220E+01  0.2760E+01E
 Epicentro: JORDAN - SANTANDER                                                 3
 ACTION:UPD 17-11-07 19:32 OP:rebc STATUS:               ID:20171015063740dL   I
 OLDACT:DUP 17-10-15 15:54 OP:l    STATUS:               ID:20171015063740dL   3
 2017-10-15-0638-00M.COL___414                                                 6
 STAT SP IPHASW D HRMM SECON CODA AMPLIT PERI AZIMU VELO AIN AR TRES W  DIS CAZ7
 BAR2 EZ EP        647 16.35                             173   -0.0510 15.3 198 
 BAR2 EZ ES        647 30.31                             173   -0.2310 15.3 198 
 BAR2 EZ I         647 32.57         8.9 0.42            172           15.3 198 
 BRR  HZ EP        647 18.22                             149   -0.3010 76.2 304 
 BRR  HN ES        647 35.08                             149    0.7710 76.2 304 
 BRR  HZ I         647 41.06        17.6 0.18            149           76.2 304 
 PAM  EZ EP        647 19.38                             147   -0.3310 83.7  35 
 PAM  EN ES        647 36.30                             147   -0.1310 83.7  35 
 PAM  EZ I         647 37.18         6.4 0.18            150           83.7  35 
 RUS  HZ EP        647 20.45                             144    0.1510 92.1 176 
 RUS  HN ES        647 37.85                             144    0.3710 92.1 176 
 RUS  HZ I         647 39.39         3.2 0.46            146           92.1 176 
 PTB  HZ EP        647 23.91                             129   -0.36 9  147 262 
 PTB  HN ES        647 44.06                             129   -0.49 9  147 262 
 PTB  HZ I         647 46.39         4.1 0.24            130            147 262 
 YPLC HZ EP        647 26.93                             125    0.44 9  169 150 
 YPLC HN ES        647 48.19                             125   -0.32 9  169 150 
 YPLC HZ I         647 52.94         3.7 0.34            128            169 150 
 ZAR  HZ EP        647 31.20                             119    0.78 8  208 294 
 ZAR  HN ES        647 55.27                             119   -0.24 8  208 294 
 ZAR  HZ I         648  3.16         5.9 0.54            121            208 294 
 SJC  HZ EP   4    647 43.95                             103   -10.4 0  417 328 
 SJC  HN ES   4    648 32.61                             103   -5.51 0  417 328 
                                                                                
