 2014  715 0512 21.6 L   6.766 -73.131151.6  RSN  7 0.5 1.4LRSN                1
 GAP=204        0.98       4.5     8.1  8.5 -0.1263E+02  0.9048E+01 -0.5151E+01E
 Epicentro: LOS SANTOS - SANTANDER                                             3
 ACTION:UPD 15-03-16 20:44 OP:nd   STATUS:               ID:20140715051221 L   I
 OLDACT:REG 14-07-15 12:58 OP:fm   STATUS:               ID:20140715050819     3
 2014-07-15-0508-19M.COL___259                                                 6
 STAT SP IPHASW D HRMM SECON CODA AMPLIT PERI AZIMU VELO AIN AR TRES W  DIS CAZ7
 BAR2 SZ EP   2    512 42.03                             172    0.12 5 20.0 196 
 BAR2 SZ ES   1    512 57.33                             172   -0.39 7 20.0 196 
 BAR2 SZ I         513  1.12         4.0 0.80            170           20.0 196 
 BRR  HZ EP   1    512 44.27                             153    0.67 7 74.4 301 
 BRR  HN ES        513  1.37                             153    0.6410 74.4 301 
 BRR  HZ I         513  3.84         2.5 0.16            148           74.4 301 
 PTB  HZ EP   1    512 48.94                             133   -0.22 7  149 260 
 PTB  HN ES        513  9.88                             133   -0.75 9  149 260 
 PTB  HZ I         513 17.69         2.1 0.10            132            149 260 
 SPBC HZ EP   1    512 50.56                             131    0.15 7  161 220 
 SPBC HN ES        513 12.96                             131    0.11 9  161 220 
 SPBC HZ I         513 15.69         3.2 0.16            132            161 220 
 OCA  HN ES   1    513 12.98                             130   -0.52 7  164 353 
 OCA  HZ I         513 18.56         3.6 0.32            130            164 353 
 SML  HZ EP   1    512 58.55                             118   -0.49 6  248 335 
 SML  HN ES        513 28.33                             118    0.12 8  248 335 
 SML  HZ I         513 35.83         3.1 0.10            118            248 335 
 HEL  HZ EP   4    513  3.82                             116    1.60 0  273 257 
 HEL  HN ES   1    513 34.26                             116    0.38 6  273 257 
 HEL  HZ I         513 40.87         1.4 0.50            116            273 257 
                                                                                
