 2012  915 0749 10.5 L   6.797 -73.171152.0  RSN  5 0.3 1.4LRSN                1
 GAP=179        0.63       6.5     6.6  7.7  0.1387E+02  0.1065E+02  0.1858E+01E
 Epicentro: LOS SANTOS - SANTANDER                                             3
 ACTION:UPD 12-10-22 14:18 OP:ep   STATUS:               ID:20120915074910 L   I
 2012-09-15-0747-46M.COL___209                                                 6
 STAT SP IPHASW D HRMM SECON CODA AMPLIT PERI AZIMU VELO AIN AR TRES W  DIS CAZ7
 BAR2 SZ EP   1    749 30.44                             171   -0.41 7 22.6 183 
 BAR2 SZ I         749 30.56         5.0 0.24                          22.6 183 
 BAR2 SZ ES   2    749 46.32                             171   -0.42 5 22.6 183 
 GIR2 SZ ES   2    749 46.62                             168   -0.20 5 31.3 355 
 BRR  HZ EP   1    749 32.27                             154    0.08 7 68.9 300 
 BRR  HN ES   1    749 49.57                             154    0.45 7 68.9 300 
 BRR  HN I         749 50.39         8.4 0.18                          68.9 300 
 RUS  HZ I         749 54.15         2.3 0.28                           100 174 
 RUS  HN ES   1    749 54.17                             145    0.32 7  100 174 
 PTB  HZ EP   1    749 37.89                             134    0.17 7  145 259 
 PTB  HN ES   1    749 58.60                             134   -0.36 7  145 259 
 PTB  HZ I         750  0.02         1.9 0.28                           145 259 
                                                                                
