 2017  715 0903 11.5 L   6.813 -73.126145.0  RSN 14 0.5 1.9LRSN                1
 GAP=113        1.17       4.1     4.1  6.0 -0.2196E+01  0.5773E+01  0.3810E+01E
 Epicentro: LOS SANTOS - SANTANDER                                             3
 ACTION:UPD 17-08-30 15:33 OP:rebc STATUS:               ID:20170715090311 L   I
 OLDACT:UP  17-07-15 18:11 OP:dnl  STATUS:               ID:20170715085744     3
 OLDACT:REG 17-07-15 12:42 OP:dnl  STATUS:               ID:20170715085744     3
 2017-07-15-0858-00M.COL___368                                                 6
 STAT SP IPHASW D HRMM SECON CODA AMPLIT PERI AZIMU VELO AIN AR TRES W  DIS CAZ7
 BAR2 EZ IP     C  9 3 30.82                             170   -0.2510 25.2 194 
 BAR2 EZ ES        9 3 46.19                             170   -0.1510 25.2 194 
 BAR2 EZ I         9 3 46.77        17.2 0.26            166           25.2 194 
 BRR  HZ IP     D  9 3 32.60                             152   -0.0310 72.4 297 
 BRR  HN ES        9 3 49.72                             152    0.6010 72.4 297 
 BRR  HZ I         9 3 50.16        12.3 0.32            151           72.4 297 
 PAM  EZ EP     D  9 3 33.65                             151    0.1710 74.9  39 
 PAM  EN ES        9 3 50.50                             151   -0.1310 74.9  39 
 PAM  EZ I         9 3 52.62        13.1 0.54            155           74.9  39 
 RUS  HZ EP     D  9 3 34.95                             143   -0.3210  102 177 
 RUS  HE ES        9 3 53.87                             143    0.0610  102 177 
 RUS  HZ I         9 3 55.46        14.8 0.20            142            102 177 
 PTB  HZ EP   9    9 3 37.58                             131   -1.04 0  150 258 
 PTB  HN ES        9 3 58.53                             131   -0.21 9  150 258 
 PTB  HZ I         9 4  1.19         7.0 0.18            130            150 258 
 SPBC HZ EP        9 3 40.00                             128   -0.17 9  166 219 
 SPBC HN ES        9 4  2.84                             128    0.30 9  166 219 
 SPBC HZ I         9 4  8.98        10.5 0.46            127            166 219 
 YPLC HZ EP     C  9 3 41.40                             126    0.14 9  177 152 
 YPLC HE ES   4    9 4  5.85                             126    1.38 0  177 152 
 YPLC HZ I         9 4  8.16         5.2 0.42            127            177 152 
 ZAR  HZ EP        9 3 44.84                             122    0.80 8  206 292 
 ZAR  HN ES        9 4  8.56                             122   -0.87 8  206 292 
 ZAR  HZ I         9 4 15.45         7.3 0.58            122            206 292 
 NOR  HZ EP        9 3 47.29                             118   -0.17 8  237 234 
 NOR  HN ES        9 4 14.15                             118   -1.36 8  237 234 
 NOR  HZ I         9 4 20.95         4.5 0.30            118            237 234 
 ROSC BZ EP   4    9 3 51.73                             116    1.90 0  255 211 
 ROSC BN ES        9 4 20.51                             116    0.78 8  255 211 
 ROSC BZ I         9 4 26.02         7.0 0.45            116            255 211 
 HEL  HZ EP        9 3 52.07                             114    0.13 8  275 256 
 HEL  HN ES        9 4 23.66                             114    0.17 8  275 256 
 HEL  HZ I         9 4 28.66         3.2 0.38            114            275 256 
 GUY2CHZ EP   4    9 3 56.56                             112    1.20 0  304 235 
 GUY2CHN ES        9 4 30.50                             112    0.92 7  304 235 
 GUY2CHZ I         9 4 38.83         2.9 0.62                           304 235 
 PTGC HZ EP   9    9 3 54.24                             111   -1.14 0  309 159 
 PTGC HN ES        9 4 28.09                             111   -0.38 7  309 159 
 ORTC HZ EP        9 4  4.99                             106   -0.69 6  398 216 
 ORTC HN ES   4    9 4 49.34                             106    1.40 0  398 216 
 ORTC HZ I         9 4 55.32         2.2 0.30            106            398 216 
                                                                                
