 2015 1215 0826 52.6 L   6.414 -73.430122.0  RSN  6 0.3 1.5LRSN                1
 GAP= 98        0.78       3.1     4.8  6.0 -0.1087E+01  0.1550E+02 -0.3833E+00E
 Epicentro: CHIMA - SANTANDER                                                  3
 ACTION:UPD 16-02-04 15:05 OP:cam  STATUS:               ID:20151215082652 L   I
 OLDACT:DUP 15-12-15 16:52 OP:\dnl STATUS:               ID:20151215081748d    3
 OLDACT:REG 15-12-15 13:30 OP:cara STATUS:               ID:20151215081747     3
 2015-12-15-0817-47M.COL___327                                                 6
 STAT SP IPHASW D HRMM SECON CODA AMPLIT PERI AZIMU VELO AIN AR TRES W  DIS CAZ7
 BAR2 EZ EP        827  9.75                             164    0.0710 33.8  54 
 BAR2 EZ ES        827 23.02                             164    0.0110 33.8  54 
 BAR2 EZ I         827 24.19         9.6 0.15            166           33.8  54 
 RUS  HZ EP        827 12.10                             149    0.2810 69.3 146 
 RUS  HN ES   1    827 26.33                             149   -0.48 7 69.3 146 
 RUS  HZ I         827 28.51         3.1 0.10            153           69.3 146 
 BRR  HZ EP        827 11.64                             144   -0.3910 82.7 338 
 BRR  HN ES        827 27.63                             144    0.4510 82.7 338 
 NOR  HE ES   2    827 43.96                             119   -0.30 4  185 240 
 NOR  HZ I         827 49.01         5.6 0.34            119            185 240 
 GUY2CHZ EP        827 30.05                             112    0.56 8  251 239 
 GUY2CHE ES        827 58.00                             112   -0.27 8  251 239 
 GUY2CHZ I         828  4.19         2.6 0.32                           251 239 
 SML  HZ EP        827 31.16                             109   -0.22 8  273 345 
 SML  HE ES        828  1.39                             109   -0.25 8  273 345 
 SML  HZ I         828 10.45         2.5 0.11            110            273 345 
                                                                                
