 2015 1015 0813  1.2 L   6.760 -73.134143.3  RSN  5 0.5 1.4LRSN                1
 GAP=128        1.19       8.6    13.2 10.7  0.8738E+02 -0.8303E+02 -0.5730E+02E
 Epicentro: LOS SANTOS - SANTANDER                                             3
 ACTION:UPD 15-12-22 20:40 OP:cam  STATUS:               ID:20151015081301 L   I
 OLDACT:REG 15-10-15 14:37 OP:ak   STATUS:               ID:20151015080750     3
 2015-10-15-0807-50M.COL___337                                                 6
 STAT SP IPHASW D HRMM SECON CODA AMPLIT PERI AZIMU VELO AIN AR TRES W  DIS CAZ7
 BAR2 EZ EP        813 20.56                             172    0.1410 19.4 196 
 BAR2 EZ ES        813 35.09                             172   -0.3610 19.4 196 
 BAR2 EZ I         813 36.77         6.0 0.18            173           19.4 196 
 BRR  HZ EP     C  813 22.65                             151    0.4110 74.5 301 
 BRR  HN ES        813 39.42                             151    0.7410 74.5 301 
 BRR  HZ I         813 40.48         4.3 0.12            151           74.5 301 
 RUS  HZ EP        813 24.09                             145   -0.2610 96.1 177 
 RUS  HN ES        813 42.08                             145   -0.3610 96.1 177 
 RUS  HZ I         813 44.24         2.1 0.32            146           96.1 177 
 TAM  HZ EP        813 28.85                             130    0.42 9  153 104 
 SML  HZ EP        813 38.04                             116   -0.11 8  248 335 
 SML  HN ES        814  6.03                             116   -0.96 8  248 335 
 SML  HZ I         814  9.51         2.4 0.42            117            248 335 
                                                                                
