 2013  615 0423 13.5 L   6.807 -73.145147.7  RSN  9 0.5 2.1LRSN                1
 GAP=183        0.98       3.9     6.6  7.1  0.4963E+01  0.7630E+01 -0.3602E+01E
 Epicentro: LOS SANTOS - SANTANDER                                             3
 ACTION:UPD 14-01-08 09:54 OP:ep   STATUS:               ID:20130615042313 L   I
 OLDACT:UP  13-06-15 11:15 OP:mh   STATUS:               ID:20130615041959     3
 OLDACT:REG 13-06-15 07:26 OP:mh   STATUS:               ID:20130615041959     3
 2013-06-15-0419-59M.COL___261                                                 6
 STAT SP IPHASW D HRMM SECON CODA AMPLIT PERI AZIMU VELO AIN AR TRES W  DIS CAZ7
 BAR2 SZ EP        423 33.59                             170    0.2310 24.2 190 
 BAR2 SZ ES        423 48.96                             170    0.1010 24.2 190 
 BAR2 SZ I         423 49.93        16.6 0.24            174           24.2 190 
 BRR  HZ EP     C  423 35.51                             153    0.6910 70.9 298 
 BRR  HN ES   1    423 51.92                             153    0.46 7 70.9 298 
 BRR  HN I         423 52.74        47.6 0.28            150           70.9 298 
 RUS  HZ EP   1    423 37.75                             144    0.27 7  101 176 
 RUS  HN ES        423 55.76                             144   -0.4310  101 176 
 RUS  HN I         423 56.72         9.6 0.40            147            101 176 
 PTB  HZ EP        423 40.43                             132   -0.20 9  148 259 
 PTB  HN ES        424  1.44                             132   -0.36 9  148 259 
 PTB  HN I         424  6.41        13.0 0.28            132            148 259 
 OCA  HZ EP   1    423 41.29                             130   -0.58 7  159 353 
 OCA  HN ES   1    424  3.94                             130   -0.06 7  159 353 
 OCA  HN I         424 12.46        20.4 0.36            129            159 353 
 SML  HN ES        424 18.18                             118   -0.55 8  243 335 
 SML  HN I         424 25.86        22.5 0.28            117            243 335 
 CHI  HZ EP   1    423 50.95                             117   -0.42 6  249 195 
 CHI  HN ES   2    424 20.60                             117   -0.33 4  249 195 
 CHI  HN I         424 22.19         9.3 0.30            119            249 195 
 HEL  HZ EP   1    423 54.88                             115    1.05 6  272 256 
 GUY2CHZ EP   4    423 58.96                             113    1.72 0  302 235 
 GUY2CHE ES   4    424 34.98                             113    3.60 0  302 235 
 GUY2CHE I         424 40.14         7.4 0.44                           302 235 
                                                                                
