 2016  115 0632 55.1 L   6.810 -73.149149.9  RSN 27 0.5 2.7LRSN                1
 GAP= 71        1.04       2.2     2.8  4.1 -0.7595E+00  0.2697E+01  0.4998E+00E
 Epicentro: LOS SANTOS - SANTANDER                                             3
 ACTION:UPD 16-03-09 23:25 OP:cam  STATUS:               ID:20160115063255 L   I
 OLDACT:UP  16-02-23 20:52 OP:AR   STATUS:               ID:20160115063255 L   3
 OLDACT:UP  16-01-15 15:57 OP:drio STATUS:               ID:20160115062735     3
 OLDACT:UP  16-01-15 15:56 OP:drio STATUS:               ID:20160115062735     3
 OLDACT:REG 16-01-15 12:17 OP:drio STATUS:               ID:20160115062735     3
 2016-01-15-0627-35M.COL___329                                                 6
 STAT SP IPHASW D HRMM SECON CODA AMPLIT PERI AZIMU VELO AIN AR TRES W  DIS CAZ7
 BAR2 EZ IP     D  633 15.22                             170   -0.0210 24.3 189 
 BAR2 EZ ES        633 30.60                             170   -0.3510 24.3 189 
 BAR2 EZ I         633 32.91        52.3 0.16            169           24.3 189 
 BRR  HZ EP     D  633 17.12                             154    0.4810 70.3 298 
 BRR  HE ES        633 34.63                             154    1.1810 70.3 298 
 BRR  HZ I         633 36.84        59.5 0.16            153           70.3 298 
 PAM  EZ IP     D  633 18.01                             152    0.2910 76.8  40 
 PAM  EE ES        633 35.47                             152    0.1110 76.8  40 
 PAM  EZ I         633 37.27        68.3 0.56            154           76.8  40 
 RUS  HZ IP     D  633 19.07                             144   -0.2610  102 176 
 RUS  HE ES        633 38.08                             144   -0.1510  102 176 
 RUS  HZ I         633 40.69        28.7 0.36            144            102 176 
 PTB  HZ EP        633 21.94                             133   -0.44 9  148 258 
 PTB  HN ES        633 43.07                             133   -0.60 9  148 258 
 PTB  HZ I         633 49.24        67.9 0.34            132            148 258 
 TAM  HZ IP     D  633 23.33                             131    0.17 9  156 105 
 TAM  HZ I         633 44.05        31.7 0.36            132            156 105 
 TAM  HN ES        633 45.35                             131    0.29 9  156 105 
 OCA  HZ EP        633 23.44                             131   -0.19 9  159 353 
 OCA  HN ES        633 45.35                             131   -0.53 9  159 353 
 OCA  HZ I         633 51.21        93.9 0.24            132            159 353 
 SPBC HZ EP        633 24.06                             130    0.09 9  164 219 
 SPBC HN ES        633 45.77                             130   -0.71 9  164 219 
 SPBC HZ I         633 53.36       106.8 0.30            129            164 219 
 ZAR  HZ EP        633 27.98                             123    0.25 9  203 292 
 ZAR  HE ES        633 53.49                             123    0.30 9  203 292 
 ZAR  HZ I         633 59.78        76.2 0.54            123            203 292 
 NOR  HZ EP        633 31.34                             119    0.24 8  235 234 
 NOR  HN ES        633 59.51                             119    0.33 8  235 234 
 NOR  HZ I         634  4.18        38.5 0.16            119            235 234 
 SML  HZ EP        633 31.50                             118   -0.33 8  243 335 
 SML  HN ES        634  0.23                             118   -0.26 8  243 335 
 SML  HZ I         634  4.95        67.6 0.10            119            243 335 
 CHI  HZ EP        633 33.22                             118    0.10 8  250 195 
 CHI  HN ES        634  2.31                             118   -0.48 8  250 195 
 CHI  HZ I         634  6.59        18.5 0.38            118            250 195 
 ROSC BZ EP        633 34.19                             117    0.67 8  253 211 
 ROSC BN ES   4    634  1.12                             117   -2.37 0  253 211 
 ROSC BZ I         634  8.70        35.1 0.40            117            253 211 
 HEL  HZ EP        633 35.79                             116    0.29 8  272 256 
 HEL  HN ES   4    634  8.63                             116    1.61 0  272 256 
 HEL  HZ I         634 13.94        26.5 0.34            115            272 256 
 URE  HZ EP        633 35.32                             114   -0.96 7  283 292 
 URE  HN ES   4    634  4.52                             114   -3.89 0  283 292 
 URE  HZ I         634 11.77        24.1 0.12            114            283 292 
 SOCV BZ EP   4    633 36.70                             113   -1.61 0  301  57 
 SOCV BN ES   4    634  8.43                             113   -3.58 0  301  57 
 GUY2CHZ EP        633 39.44                             113    0.51 7  301 235 
 GUY2CHN ES        634 12.81                             113   -0.31 7  301 235 
 GUY2CHZ I         634 22.25        27.6 0.36                           301 235 
 VIL  SZ EP        633 37.95                             113   -0.86 7  304 191 
 VIL  SE ES   4    634 14.43                             113    1.52 0  304 191 
 ELA  HZ EP   4    633 44.35                             111    2.18 0  330 229 
 ELA  HN ES   4    634 20.08                             111    1.20 0  330 229 
 ELA  HZ I         634 27.03        20.0 0.34            111            330 229 
 CBOC HZ EP        633 42.87                             111    0.69 7  334 252 
 CBOC HE ES   4    634 17.67                             111   -1.23 0  334 252 
 CBOC HZ I         634 30.71         8.1 0.50            110            334 252 
 DBB  SZ EP        633 42.73                             110    0.04 7  339 274 
 DBB  SZ ES   4    634 17.26                             110   -2.55 0  339 274 
 DBB  SZ I         634 21.14        51.8 0.36            110            339 274 
 ANIL HZ EP   9    633 47.08                             109    1.97 0  358 224 
 ANIL HE ES        634 25.60                             109   -0.49 6  358 224 
 ANIL HZ I         634 31.31        58.7 0.48            109            358 224 
 ARGC HZ EP        633 45.06                             109    0.28 6  358 340 
 ARGC HE ES        634 23.04                             109   -0.49 6  358 340 
 SDV  BZ EP        633 44.95                             109   -0.30 6  360  50 
 SDV  BE ES   4    634 22.29                             109   -2.09 0  360  50 
 SDV  BZ I         634 23.78         9.9 0.40            109            360  50 
 PRA  HZ EP        633 48.95                             107    0.11 6  393 209 
 PRA  HN ES        634 30.72                             107   -0.05 6  393 209 
 PRA  HZ I         634 36.59        17.4 0.56            107            393 209 
 ORTC HZ EP        633 49.34                             107    0.11 6  396 216 
 ORTC HN ES        634 32.20                             107    0.75 6  396 216 
 ORTC HZ I         634 36.86        11.5 0.30            107            396 216 
 PAL  HZ EP        633 50.56                             106    0.14 6  406 239 
 PAL  HN ES   4    634 32.46                             106   -1.11 0  406 239 
 PAL  HZ I         634 41.06         6.3 0.26            106            406 239 
 SJC  HZ EP   4    633 49.30                             106   -1.36 0  408 327 
 SJC  HE ES   4    634 30.48                             106   -3.53 0  408 327 
 SJC  HZ I         634 34.66         6.6 0.36            107            408 327 
                                                                                
