 2011  615 0546 15.9 L   6.707 -73.225157.6  RSN  4 0.2 1.2LRSN                1
 GAP=171        0.56      12.0    23.0 12.2  0.2355E+03 -0.1891E+03 -0.7338E+02E
 Epicentro: VILLANUEVA - SANTANDER                                             3
 ACTION:UP  11-07-14 19:05 OP:ep   STATUS:               ID:20110615054615 L   I
 2011-06-15-0540-00M.COL___125                                                 6
 STAT SP IPHASW D HRMM SECON CODA AMPLIT PERI AZIMU VELO SNR AR TRES W  DIS CAZ7
 BAR2 SZ EP   1    546 36.46                             175    -0.4 7   14 160 
 BAR2 SZ I         546 36.79         3.3 0.44                            14 160 
 BTL  SZ EP        546 37.18                             171     0.210   24 349 
 BRR  HZ EP   1    546 38.42                             155     0.1 7   70 309 
 BRR  HE ES   1    546 55.58                             155    -0.1 7   70 309 
 BRR  HZ I         546 57.93         4.3 0.58                            70 309 
 RUS  HZ EP   1    546 40.17                             149    -0.1 7   91 170 
 RUS  HE ES   2    546 59.38                             149     0.2 5   91 170 
 RUS  HZ I         547  0.30         1.4 0.37                            91 170 
                                                                                
