 2013  115 0014 52.3 L   6.759 -73.189145.8  RSN  6 0.3 1.5LRSN                1
 GAP=229        0.60       4.4     5.1  5.7  0.1193E+02  0.6739E+01  0.6768E+01E
 Epicentro: VILLANUEVA - SANTANDER                                             3
 ACTION:UPD 13-02-15 09:14 OP:ep   STATUS:               ID:20130115001452 L   I
 2013-01-15-0010-00M.COL___241                                                 6
 STAT SP IPHASW D HRMM SECON CODA AMPLIT PERI AZIMU VELO AIN AR TRES W  DIS CAZ7
 BAR2 SZ EP   1    015 11.55                             172   -0.31 7 18.4 178 
 BAR2 SZ ES   1    015 26.76                             172   -0.35 7 18.4 178 
 BAR2 SZ I         015 29.15        17.3 0.36            164           18.4 178 
 BRR  HZ EP   1    015 13.34                             153   -0.03 7 69.4 304 
 BRR  HN ES   1    015 30.19                             153    0.40 7 69.4 304 
 BRR  HZ I         015 31.08         7.8 0.34            150           69.4 304 
 RUS  HZ EP   1    015 15.98                             145    0.20 7 96.5 173 
 RUS  HN ES   1    015 34.36                             145    0.28 7 96.5 173 
 RUS  HZ I         015 35.05         3.8 0.28            143           96.5 173 
 PTB  HZ EP   1    015 18.52                             133   -0.26 7  142 260 
 PTB  HN ES   1    015 38.99                             133   -0.44 7  142 260 
 PTB  HZ I         015 46.46         4.3 0.46            130            142 260 
 ZAR  HE ES   1    015 49.97                             123    0.39 6  201 294 
 CHI  HZ EP   1    015 29.43                             118    0.03 6  243 194 
 CHI  HN ES   1    015 58.51                             118    0.18 6  243 194 
 CHI  HZ I         016  3.24         1.2 0.34            118            243 194 
                                                                                
