 2015  915 0852 48.8 L   7.397 -73.197128.0  RSN  5 0.2 1.4LRSN                1
 GAP=187        0.54       2.3     3.0  4.5 -0.7709E+00  0.2497E+01 -0.9144E+00E
 Epicentro: EL PLAYON - SANTANDER                                              3
 ACTION:UPD 15-10-28 16:26 OP:cam  STATUS:               ID:20150915085248 L   I
 OLDACT:REG 15-09-15 12:49 OP:mh   STATUS:               ID:20150915084735     3
 2015-09-15-0847-35M.COL___353                                                 6
 STAT SP IPHASW D HRMM SECON CODA AMPLIT PERI AZIMU VELO AIN AR TRES W  DIS CAZ7
 BRR  HZ EP   1    853  8.19                             151    0.47 7 65.3 241 
 BRR  HN ES        853 22.43                             151   -0.0310 65.3 241 
 BRR  HZ I         853 23.30         5.4 0.14            152           65.3 241 
 BAR2 EZ EP        853  9.86                             143    0.2310 89.0 179 
 BAR2 EZ ES        853 25.72                             143   -0.1510 89.0 179 
 BAR2 EZ I         853 27.40         4.9 0.08            145           89.0 179 
 OCA  HZ EP        853  9.61                             141   -0.2810 94.0 352 
 OCA  HN ES        853 26.41                             141    0.0910 94.0 352 
 OCA  HZ I         853 28.54         5.1 0.14            142           94.0 352 
 PTB  HZ EP   1    853 16.41                             124   -0.04 7  168 236 
 PTB  HN ES        853 37.86                             124   -0.14 9  168 236 
 ZAR  HZ EP        853 17.85                             121   -0.16 9  184 273 
 ZAR  HN ES        853 40.93                             121    0.15 9  184 273 
 ZAR  HZ I         853 43.92         2.8 0.32            122            184 273 
                                                                                
