 2012  815 0708 47.4 L   6.731 -73.202142.0  RSN  4 0.2 1.2LRSN                1
 GAP=171        0.37       6.9     7.5  6.3  0.4635E+01  0.1283E+01  0.2112E+02E
 Epicentro: VILLANUEVA - SANTANDER                                             3
 ACTION:UPD 12-09-10 11:56 OP:ep   STATUS:               ID:20120815070847 L   I
 2012-08-15-0700-00M.COL___217                                                 6
 STAT SP IPHASW D HRMM SECON CODA AMPLIT PERI AZIMU VELO AIN AR TRES W  DIS CAZ7
 GIR2 SZ EP   3    7 9  6.60                             164   -0.25 2 38.5   1 
 BRR  HZ EP        7 9  7.99                             152   -0.0910 70.1 306 
 BRR  HZ I         7 9  9.48         4.4 0.28                          70.1 306 
 BRR  HN ES   1    7 9 24.35                             152    0.14 7 70.1 306 
 RUS  HZ EP   3    7 9 10.99                             145    0.70 2 93.6 172 
 RUS  HN ES   3    7 9 27.93                             145   -0.21 2 93.6 172 
 RUS  HZ I         7 9 30.50         1.6 0.28                          93.6 172 
 PTB  HZ EP        7 9 13.42                             133    0.03 9  140 261 
 PTB  HN ES   3    7 9 33.19                             133   -0.47 2  140 261 
                                                                                
