 2013  915 0155 38.7 L   6.704 -73.200146.5  RSN  6 0.4 1.7LRSN                1
 GAP=176        0.92       4.4     5.8  7.5  0.9460E+01  0.7472E+01 -0.1445E+01E
 Epicentro: VILLANUEVA - SANTANDER                                             3
 ACTION:UPD 13-10-22 09:22 OP:ep   STATUS:               ID:20130915015538 L   I
 OLDACT:DUP 13-09-15 10:44 OP:carl STATUS:               ID:20130915014960d    3
 2013-09-15-0149-59M.COL___269                                                 6
 STAT SP IPHASW D HRMM SECON CODA AMPLIT PERI AZIMU VELO AIN AR TRES W  DIS CAZ7
 BAR2 SZ EP        155 57.97                             175   -0.2810 12.6 171 
 BAR2 SZ ES   1    156 13.06                             175   -0.44 7 12.6 171 
 BAR2 SZ I         156 14.49         8.2 0.36            175           12.6 171 
 BRR  HZ EP        156  0.02                             153    0.0510 72.0 308 
 BRR  HN ES        156 17.24                             153    0.6710 72.0 308 
 RUS  HZ EP        156  1.73                             147   -0.1110 90.7 172 
 RUS  HN ES        156 20.13                             147    0.2510 90.7 172 
 RUS  HZ I         156 21.39         3.2 0.20            149           90.7 172 
 PTB  HZ EP        156  5.06                             134    0.02 9  140 263 
 PTB  HN ES   1    156 25.47                             134   -0.13 7  140 263 
 PTB  HZ I         156 27.43         4.3 0.40            133            140 263 
 OCA  HN ES        156 30.80                             128   -0.07 9  170 356 
 OCA  HN I         156 32.60        17.9 0.18            129            170 356 
 ZAR  HZ EP   1    156 11.73                             123    0.67 6  203 296 
 ZAR  HN ES        156 35.62                             123   -0.69 9  203 296 
 ZAR  HZ I         156 42.86         5.0 0.30            123            203 296 
                                                                                
