 2016  915 0521 52.3 L   6.803 -73.128147.4  RSN 18 0.4 2.5LRSN                1
 GAP= 72        0.90       2.8     2.5  4.4 -0.1911E+01  0.1871E+01 -0.8175E+00E
 Epicentro: LOS SANTOS - SANTANDER                                             3
 ACTION:UPD 17-08-17 21:12 OP:lp   STATUS:               ID:20160915052152 L   I
 OLDACT:UP  16-09-16 07:13 OP:cara STATUS:               ID:20160915051735     3
 OLDACT:REG 16-09-15 20:18 OP:lv   STATUS:               ID:20160915051735     3
 2016-09-15-0518-00M.COL___330                                                 6
 STAT SP IPHASW D HRMM SECON CODA AMPLIT PERI AZIMU VELO AIN AR TRES W  DIS CAZ7
 BAR2 EZ IP     C  522 12.33                             170    0.2210 24.1 194 
 BAR2 EZ ES        522 27.42                             170   -0.1610 24.1 194 
 BAR2 EZ I         522 30.15        77.8 0.30            168           24.1 194 
 BRR  HZ IP     C  522 14.12                             152    0.4510 72.7 298 
 BRR  HN ES        522 30.95                             152    0.5810 72.7 298 
 BRR  HZ I         522 35.06        55.1 0.34            150           72.7 298 
 PAM  EZ EP        522 14.96                             152    0.3910 75.9  39 
 PAM  EE ES        522 32.18                             152    0.2210 75.9  39 
 PAM  EZ I         522 34.51        56.7 0.44            156           75.9  39 
 RUS  HZ EP        522 16.33                             144    0.1410  101 177 
 RUS  HN ES        522 34.41                             144   -0.4510  101 177 
 RUS  HZ I         522 36.04        48.1 0.26            145            101 177 
 PTB  HZ EP        522 19.21                             132   -0.33 9  150 259 
 PTB  HN ES        522 40.22                             132   -0.59 9  150 259 
 PTB  HZ I         522 47.04        40.7 0.48            131            150 259 
 TAM  HZ EP   4    522 20.73                             131    0.82 0  153 105 
 TAM  HE ES        522 41.78                             131    0.31 9  153 105 
 TAM  HZ I         522 42.98        11.9 0.28            136            153 105 
 OCA  HZ EP        522 20.70                             130    0.01 9  160 352 
 OCA  HE ES        522 42.61                             130   -0.25 9  160 352 
 OCA  HZ I         522 48.92        68.5 0.44            131            160 352 
 SPBC HZ EP        522 21.08                             129    0.05 9  165 219 
 SPBC HN ES        522 43.25                             129   -0.21 9  165 219 
 SPBC HZ I         522 50.20        55.8 0.24            129            165 219 
 ZAR  HZ EP        522 24.82                             122   -0.16 8  206 292 
 ZAR  HN ES        522 50.23                             122   -0.27 8  206 292 
 ZAR  HZ I         523  0.71        28.3 0.24            122            206 292 
 NOR  HZ EP        522 28.13                             119   -0.15 8  236 235 
 NOR  HE ES        522 56.27                             119   -0.10 8  236 235 
 NOR  HZ I         523  1.41        30.5 0.44            119            236 235 
 ROSC BZ EP   4    522 31.70                             117    1.08 0  254 211 
 ROSC BE ES   4    523  3.73                             117    3.20 0  254 211 
 ROSC BZ I         523  7.82        27.1 0.35            118            254 211 
 HEL  HZ EP        522 33.31                             115    0.53 8  274 256 
 HEL  HN ES   4    523  2.11                             115   -2.26 0  274 256 
 HEL  HZ I         523 12.44        21.0 0.28            115            274 256 
 URE  HZ EP   4    522 31.87                             114   -1.73 0  285 292 
 URE  HN ES   4    523  4.40                             114   -1.43 0  285 292 
 URE  HZ I         523  7.93        17.5 0.14            114            285 292 
 SOCV BZ EP        522 35.11                             113   -0.08 7  299  57 
 SOCV BN ES        523  7.62                             113   -1.04 7  299  57 
 GUY2CHZ EP   9    522 37.38                             112    1.23 0  303 235 
 GUY2CHE ES        523 12.17                             112    0.56 7  303 235 
 GUY2CHZ I         523 17.54        17.1 0.62                           303 235 
 LL6C HZ EP   4    522 36.84                             111   -1.16 0  325 357 
 LL6C HN ES   4    523 14.64                             111    0.96 0  325 357 
 ELA  HZ EP   4    522 40.66                             110    1.28 0  331 230 
 ELA  HN ES   4    523 18.06                             110    1.94 0  331 230 
 ELA  HZ I         523 31.70        15.3 0.54            111            331 230 
 CBOC HZ EP        522 39.93                             110    0.46 7  336 252 
 CBOC HE ES        523 16.31                             110    0.03 7  336 252 
 CBOC HZ I         523 20.33         6.0 0.46            110            336 252 
 SJC  HZ EP   4    522 46.06                             106   -1.91 0  410 327 
 SJC  HN ES   4    523 27.61                             106   -3.80 0  410 327 
 SJC  HZ I         523 34.38         4.2 0.64            107            410 327 
                                                                                
