 2011 1015 0755 34.6 L   7.155 -72.912146.9  RSN  4 0.4 1.5LRSN                1
 GAP=142        0.85      11.0    10.5 12.8  0.9198E+01 -0.8550E+01  0.2242E+02E
 Epicentro: TONA - SANTANDER                                                   3
 ACTION:UPD 12-07-13 16:03 OP:ep   STATUS:               ID:20111015075534 L   I
 2011-10-15-0754-19S.COL___168                                                 6
 STAT SP IPHASW D HRMM SECON CODA AMPLIT PERI AZIMU VELO AIN AR TRES W  DIS CAZ7
 PAM  SZ EP   2    755 54.75                             168   -0.18 5 31.1  49 
 PAM  SN ES   2    756 10.56                             168   -0.22 5 31.1  49 
 BAR2 SZ EP        755 56.64                             153    0.5310 69.0 206 
 BRR  HZ EP        755 56.54                             147   -0.4010 88.5 267 
 BRR  HE ES   1    756 14.58                             147    0.22 7 88.5 267 
 BRR  HZ I         756 14.81         5.2 0.72                          88.5 267 
 RUS  HE ES   2    756 22.11                             134   -0.73 5  141 188 
                                                                                
