 2013 1215 0758 26.7 L   6.519 -73.779 86.6  RSN  5 0.5 1.4LRSN                1
 GAP=116        1.12       5.3     4.4 10.9 -0.1304E+01  0.1203E+02 -0.1989E+01E
 Epicentro: SANTA HELENA DEL OPON - SANTANDER                                  3
 ACTION:UPD 14-01-13 10:18 OP:ep   STATUS:               ID:20131215075826 L   I
 OLDACT:REG 13-12-15 07:21 OP:jn   STATUS:               ID:20131215075000     3
 2013-12-15-0750-00M.COL___285                                                 6
 STAT SP IPHASW D HRMM SECON CODA AMPLIT PERI AZIMU VELO AIN AR TRES W  DIS CAZ7
 BRR  HZ EP        758 41.05                             140   -0.4010 65.4   7 
 BRR  HN ES        758 53.33                             140    0.4010 65.4   7 
 BRR  HZ I         758 54.16         4.2 0.28            139           65.4   7 
 BAR2 SZ EP        758 42.19                             140    0.3210 66.5  83 
 BAR2 SZ ES        758 53.37                             140   -0.3010 66.5  83 
 BAR2 SZ I         758 54.75        13.0 0.14            142           66.5  83 
 PTB  HZ EP        758 41.71                             136   -0.5510 74.9 272 
 PTB  HN ES        758 54.03                             136   -0.3410 74.9 272 
 PTB  HZ I         758 55.80         6.3 0.18            136           74.9 272 
 SPBC HN ES   1    758 59.70                             126    0.79 7  101 199 
 ZAR  HZ EP   1    758 51.20                             113    0.11 7  161 312 
 ZAR  HN ES   1    759 10.89                             113    0.80 7  161 312 
 ZAR  HZ I         759 14.05         5.0 0.14            114            161 312 
                                                                                
