 2013  615 0414 30.3 L   6.822 -73.066149.5  RSN 10 0.5 2.2LRSN                1
 GAP=191        0.95       3.7     5.8  7.6  0.3914E+01  0.5138E+01  0.2953E+01E
 Epicentro: LOS SANTOS - SANTANDER                                             3
 ACTION:UPD 14-01-08 09:54 OP:ep   STATUS:               ID:20130615041430 L   I
 OLDACT:REG 13-06-15 07:25 OP:mh   STATUS:               ID:20130615040959     3
 2013-06-15-0409-59M.COL___261                                                 6
 STAT SP IPHASW D HRMM SECON CODA AMPLIT PERI AZIMU VELO AIN AR TRES W  DIS CAZ7
 BAR2 SZ EP        414 50.91                             169    0.4210 28.5 207 
 BAR2 SZ I         415  7.29        10.6 0.18            160           28.5 207 
 BRR  HZ EP     C  414 52.70                             151    0.4510 78.1 294 
 BRR  HN ES        415  9.56                             151    0.1910 78.1 294 
 BRR  HN I         415 10.06        59.7 0.22            144           78.1 294 
 RUS  HZ EP        414 55.00                             144    0.4210  103 181 
 RUS  HN ES   1    415 13.11                             144   -0.40 7  103 181 
 RUS  HN I         415 16.36         6.8 0.40            134            103 181 
 PTB  HZ EP        414 57.73                             131   -0.68 9  157 259 
 PTB  HN ES   4    415 18.63                             131   -1.70 0  157 259 
 PTB  HN I         415 23.51        31.5 0.46            122            157 259 
 OCA  HZ EP   1    414 58.28                             131   -0.53 7  159 350 
 OCA  HN ES   1    415 20.61                             131   -0.43 7  159 350 
 OCA  HN I         415 23.77        32.9 0.28            125            159 350 
 ZAR  HZ EP   1    415  3.42                             122   -0.33 6  211 291 
 ZAR  HN ES   1    415 30.17                             122    0.33 6  211 291 
 ZAR  HN I         415 36.00        24.9 0.38            115            211 291 
 NOR  HZ EP   1    415  7.46                             118    0.29 6  243 235 
 NOR  HN I         415 42.81        14.7 0.16            111            243 235 
 SML  HZ EP   1    415  7.39                             118    0.07 6  245 333 
 SML  HN ES   1    415 35.69                             118   -0.51 6  245 333 
 CHI  HZ EP   1    415  8.40                             117   -0.32 6  253 197 
 CHI  HN ES   1    415 38.09                             117   -0.60 6  253 197 
 CHI  HN I         415 41.18        10.9 0.40            110            253 197 
 HEL  HZ EP   1    415 12.73                             115    1.01 6  281 256 
 HEL  HE ES        415 43.71                             115   -0.32 7  281 256 
 HEL  HZ I         415 51.01         3.9 0.36            108            281 256 
                                                                                
