 2017  815 0149 53.8 L   6.871 -73.125146.6  RSN 14 0.5 1.7LRSN                1
 GAP= 76        1.10       3.9     4.3  5.8  0.4614E+01  0.2019E+01  0.1707E+01E
 Epicentro: LOS SANTOS - SANTANDER                                             3
 ACTION:UPD 17-09-04 20:20 OP:rebc STATUS:               ID:20170815014953 L   I
 OLDACT:UP  17-08-15 13:00 OP:and  STATUS:               ID:20170815014740     3
 OLDACT:UP  17-08-15 13:00 OP:and  STATUS:               ID:20170815014740     3
 OLDACT:UP  17-08-15 12:58 OP:and  STATUS:               ID:20170815014740     3
 OLDACT:UP  17-08-15 12:58 OP:and  STATUS:               ID:20170815014740     3
 OLDACT:UP  17-08-15 12:58 OP:and  STATUS:               ID:20170815014740     3
 OLDACT:UP  17-08-15 12:57 OP:and  STATUS:               ID:20170815014740     3
 OLDACT:REG 17-08-15 12:12 OP:and  STATUS:               ID:20170815014740     3
 2017-08-15-0148-00M.COL___410                                                 6
 STAT SP IPHASW D HRMM SECON CODA AMPLIT PERI AZIMU VELO AIN AR TRES W  DIS CAZ7
 BAR2 EZ EP        150 13.84                             167    0.1010 31.5 192 
 BAR2 EZ ES        150 28.24                             167   -1.0410 31.5 192 
 BAR2 EZ I         150 30.50        12.4 0.13            167           31.5 192 
 BRR  HZ IP     D  150 15.56                             153    0.5810 69.9 292 
 BRR  HN ES        150 32.33                             153    0.8310 69.9 292 
 BRR  HZ I         150 37.58        10.0 0.20            152           69.9 292 
 PAM  EN ES   2    150 32.21                             153   -0.56 5 69.9  42 
 PAM  EZ I         150 36.77         5.9 0.29            158           69.9  42 
 RUS  HZ EP        150 18.03                             142   -0.1810  108 178 
 RUS  HN ES        150 36.96                             142   -0.2910  108 178 
 RUS  HZ I         150 37.64         6.4 0.26            144            108 178 
 TAM  HZ EP        150 22.26                             131    0.70 9  155 108 
 SPBC HZ EP        150 22.79                             128   -0.31 9  171 218 
 SPBC HN ES        150 46.17                             128    0.23 9  171 218 
 SPBC HZ I         150 52.01         9.0 0.13            129            171 218 
 YPLC HZ EP        150 24.38                             126    0.14 9  183 153 
 YPLC HN ES        150 48.38                             126    0.40 9  183 153 
 YPLC HZ I         150 51.90         6.8 0.46            129            183 153 
 ZAR  HZ EP   2    150 25.95                             123   -0.30 4  203 290 
 ZAR  HN ES        150 51.72                             123    0.17 9  203 290 
 ZAR  HZ I         150 57.34         5.8 0.40            124            203 290 
 NOR  HZ EP        150 30.42                             118    0.13 8  241 233 
 NOR  HN ES        150 58.69                             118   -0.05 8  241 233 
 NOR  HZ I         151  5.69         4.8 0.20            119            241 233 
 CHI  HZ EP        150 31.86                             116   -0.59 8  257 195 
 CHI  HN ES   3    151  1.70                             116   -0.88 2  257 195 
 CHI  HZ I         151  4.69         3.4 0.36            118            257 195 
 GUY2CHZ EP   3    150 39.52                             112    1.33 2  308 234 
 GUY2CHN ES   4    151 15.56                             112    2.76 0  308 234 
 GUY2CHZ I         151 19.07         2.2 0.30                           308 234 
 PTGC HZ EP   3    150 37.11                             111   -1.33 2  315 160 
 PRA  HZ EP        150 48.33                             106    0.04 6  400 209 
 PRA  HE ES        151 30.66                             106   -0.13 6  400 209 
 PRA  HZ I         151 35.52         1.6 0.28            108            400 209 
 SJC  HZ EP        150 48.02                             106   -0.76 6  404 326 
 SJC  HN ES        151 30.77                             106   -0.89 6  404 326 
                                                                                
