 2017  615 0252  1.8 L   6.707 -73.098133.9  RSN  6 0.4 1.7LRSN                1
 GAP=280        0.91       5.3     8.4  9.9 -0.4356E+01 -0.2326E+02  0.1414E+02E
 Epicentro: JORDAN - SANTANDER                                                 3
 ACTION:UPD 17-09-14 16:52 OP:jn   STATUS:               ID:20170615025201 L   I
 OLDACT:UP  17-07-05 19:14 OP:nlst STATUS:               ID:20170615025201 L   3
 OLDACT:DUP 17-06-15 15:14 OP:dani STATUS:               ID:20170615024737d    3
 2017-06-15-0248-00M.COL___368                                                 6
 STAT SP IPHASW D HRMM SECON CODA AMPLIT PERI AZIMU VELO AIN AR TRES W  DIS CAZ7
 BRR  HZ EP        252 22.33                             147    0.0710 81.0 303 
 BRR  HN ES   1    252 38.72                             147    0.47 7 81.0 303 
 BRR  HZ I         252 40.45         8.6 0.15            150           81.0 303 
 PTB  HZ EP   1    252 27.29                             128   -0.84 7  151 263 
 PTB  HN ES        252 48.10                             128   -0.59 9  151 263 
 PTB  HZ I         252 50.43         5.2 0.16            131            151 263 
 SPBC HZ EP        252 28.99                             127    0.04 9  159 223 
 SPBC HN ES        252 50.02                             127   -0.14 9  159 223 
 SPBC HZ I         252 54.91         8.7 0.22            128            159 223 
 ZAR  HN ES        252 59.95                             118    0.08 8  213 294 
 NOR  HZ EP        252 36.68                             116    0.01 8  233 237 
 NOR  HN ES        253  4.55                             116    0.65 8  233 237 
 NOR  HZ I         253 10.76         3.4 0.26            118            233 237 
 CBOC HZ EP        252 48.83                             107    0.38 7  336 254 
                                                                                
