 2016 1215 0713  8.9 L   5.946 -73.669118.6  RSN  4 0.2 0.9LRSN                1
 GAP=212        0.66       4.7     3.7  6.5  0.7066E+01  0.8298E+01  0.3982E+01E
 Epicentro: GUAVATA - SANTANDER                                                3
 ACTION:UPD 17-01-11 20:15 OP:rebc STATUS:               ID:20161215071308 L   I
 OLDACT:DUP 16-12-15 17:40 OP:and  STATUS:               ID:20161215070642d    3
 OLDACT:REG 16-12-15 12:43 OP:and  STATUS:               ID:20161215070641     3
 2016-12-15-0707-00M.COL___375                                                 6
 STAT SP IPHASW D HRMM SECON CODA AMPLIT PERI AZIMU VELO AIN AR TRES W  DIS CAZ7
 RUS  HZ EP        713 27.32                             150   -0.1810 65.1  95 
 RUS  HN ES        713 42.29                             150    0.2810 65.1  95 
 RUS  HZ I         713 42.85         1.4 0.34            153           65.1  95 
 BAR2 EZ EP        713 28.76                             141   -0.0910 89.5  37 
 BAR2 EZ ES        713 44.09                             141   -0.3110 89.5  37 
 BAR2 EZ I         713 45.94         4.3 0.24            143           89.5  37 
 PTB  HZ EP        713 30.41                             134    0.2510  109 307 
 PTB  HN ES        713 46.51                             134   -0.2410  109 307 
 PTB  HZ I         713 48.82         1.2 0.14            136            109 307 
 BRR  HZ EP        713 31.87                             129   -0.0410  129 358 
 BRR  HN ES        713 50.20                             129    0.3510  129 358 
                                                                                
