 2016  115 0128 41.5 L   6.801 -73.167139.2  RSN 12 0.4 1.7LRSN                1
 GAP=134        1.07       3.5     4.2  5.7 -0.3749E+00  0.6965E+01  0.3301E+01E
 Epicentro: LOS SANTOS - SANTANDER                                             3
 ACTION:UPD 16-03-09 23:25 OP:cam  STATUS:               ID:20160115012841 L   I
 OLDACT:UP  16-01-15 13:08 OP:drio STATUS:               ID:20160115012749     3
 OLDACT:REG 16-01-15 12:08 OP:drio STATUS:               ID:20160115012749     3
 2016-01-15-0127-49M.COL___336                                                 6
 STAT SP IPHASW D HRMM SECON CODA AMPLIT PERI AZIMU VELO AIN AR TRES W  DIS CAZ7
 BAR2 EZ EP        129  0.98                             170    0.6910 23.1 184 
 BAR2 EZ ES        129 14.22                             170   -0.7610 23.1 184 
 BAR2 EZ I         129 17.08         9.2 0.22            169           23.1 184 
 BRR  HZ EP        129  2.02                             152    0.2510 69.1 299 
 BRR  HN ES        129 18.40                             152    0.7810 69.1 299 
 BRR  HZ I         129 25.61         6.9 0.26            151           69.1 299 
 PAM  EZ EP        129  3.06                             149   -0.0010 78.8  41 
 PAM  EE ES        129 19.89                             149   -0.0310 78.8  41 
 PAM  EZ I         129 21.71         7.7 0.50            155           78.8  41 
 RUS  HZ EP        129  4.49                             142   -0.1010  101 175 
 RUS  HN ES        129 22.65                             142    0.0210  101 175 
 RUS  HZ I         129 24.51         3.2 0.66            145            101 175 
 PTB  HZ EP        129  6.99                             131   -0.69 9  145 259 
 PTB  HN ES        129 27.79                             131   -0.34 9  145 259 
 PTB  HZ I         129 33.32         9.1 0.82            131            145 259 
 ZAR  HZ EP        129 13.14                             121   -0.10 9  202 292 
 ZAR  HN ES        129 38.20                             121    0.16 9  202 292 
 ZAR  HZ I         129 41.11         5.7 0.12            122            202 292 
 NOR  HZ EP        129 16.80                             117    0.19 8  233 234 
 NOR  HE ES        129 43.66                             117   -0.36 8  233 234 
 NOR  HZ I         129 46.49         4.0 0.16            119            233 234 
 SML  HZ EP        129 17.24                             116   -0.36 8  243 336 
 SML  HN ES   4    129 44.28                             116   -1.51 0  243 336 
 SML  HZ I         129 48.08         6.9 0.24            118            243 336 
 CHI  HZ EP        129 18.55                             116   -0.19 8  248 195 
 CHI  HN ES        129 48.00                             116    0.18 8  248 195 
 CHI  HZ I         129 55.94         2.2 0.44            118            248 195 
 URE  HZ EP   4    129 24.31                             112    2.35 0  282 292 
 URE  HN ES   4    129 51.05                             112   -2.50 0  282 292 
 URE  HZ I         130  0.37         3.7 0.30            114            282 292 
 GUY2CHZ EP   4    129 26.39                             111    1.84 0  299 234 
 GUY2CHN ES   4    130  0.01                             111    1.84 0  299 234 
 GUY2CHZ I         130 11.50         1.7 0.56                           299 234 
 PRA  HZ EP        129 34.59                             105   -0.04 6  391 209 
 PRA  HE ES        130 17.15                             105    1.05 6  391 209 
 PRA  HZ I         130 21.56         1.9 0.42            107            391 209 
                                                                                
