 2012  215 0235  3.8 L   6.742 -73.184158.4  RSN  5 0.3 1.3LRSN                1
 GAP=175        0.45       6.3     6.4  8.0  0.2054E+02  0.1551E+02  0.1357E+02E
 ACTION:UP  12-03-07 16:30 OP:epov STATUS:               ID:20120215023503 L   I
 2012-02-15-0230-00M.COL___188                                                 6
 STAT SP IPHASW D HRMM SECON CODA AMPLIT PERI AZIMU VELO AIN AR TRES W  DIS CAZ7
 GIR2 SZ ES   2    235 41.44                             166   -0.38 5 37.3 358 
 BRR  HZ EP   2    235 26.33                             155   -0.02 5 70.9 305 
 BRR  HN ES   2    235 44.53                             155    0.62 5 70.9 305 
 BRR  HZ I         235 46.48         6.4 0.36                          70.9 305 
 RUS  HZ EP   2    235 28.71                             148    0.26 5 94.5 173 
 RUS  HN ES   2    235 47.51                             148   -0.14 5 94.5 173 
 RUS  HZ I         235 48.31         1.8 0.38                          94.5 173 
 PTB  HZ EP   2    235 31.28                             136   -0.12 5  142 261 
 PTB  HN ES   2    235 52.85                             136   -0.06 5  142 261 
 ZAR  HE ES   2    236  2.62                             125   -0.24 4  203 294 
                                                                                
