 2010  115 0836  5.0 L   6.812 -72.983141.3  RSN  6 0.5 1.8LRSN                1
 GAP=199        0.99       6.0    26.7  9.8 -0.7814E+02  0.8645E+02 -0.7329E+01E
 Epicentro: CEPITA - SANTANDER                                                 3
 ACTION:UP  10-08-24 09:44 OP:vdl  STATUS:               ID:20100115083605 L   I
 2010-01-15-0820-00S.COL___094                                                 6
 STAT SP IPHASW D HRMM SECON CODA AMPLIT PERI AZIMU VELO SNR AR TRES W  DIS CAZ7
 BAR2 SZ EP   1    836 24.11                             166    -0.2 8   33 222 
 BAR2 SZ ES   1    836 39.03                             166    -0.4 8   33 222 
 GIR2 SZ EP   1    836 25.35                             164     1.0 8   38 322 
 RUS  BZ EP   2    836 27.73                             142    -0.7 5  102 186 
 RUS  BN ES   2    836 47.16                             142     0.4 5  102 186 
 RUS  BZ I         836 48.39         7.2 0.34                           102 186 
 OCA  SZ IP        836 32.87                             128    -0.310  162 347 
 OCA  SZ ES   2    836 55.33                             128     0.2 5  162 347 
 OCA  SZ I         837  0.80        20.2 0.35                           162 347 
 CHI  HZ EP   1    836 43.02                             115    -0.2 6  255 199 
 CHI  HN ES   2    837 13.73                             115     0.8 4  255 199 
 CHI  HZ I         837 17.14         2.1 0.31                           255 199 
 PRA  HZ IP        836 59.85                             105     0.3 6  402 212 
 PRA  HN ES   1    837 41.73                             105    -0.4 5  402 212 
 PRA  HZ I         837 46.00         2.1 0.31                           402 212 
                                                                                
