 2015  615 0743 37.5 L   6.805 -73.097145.1  RSN  5 0.4 1.6LRSN                1
 GAP=188        0.97       3.6     8.5  7.1 -0.1839E+00 -0.3785E+01 -0.2510E+01E
 Epicentro: LOS SANTOS - SANTANDER                                             3
 ACTION:UPD 15-09-10 22:12 OP:cam  STATUS:               ID:20150615074337 L   I
 OLDACT:REG 15-06-15 13:35 OP:drio STATUS:               ID:20150615073743     3
 2015-06-15-0737-43M.COL___315                                                 6
 STAT SP IPHASW D HRMM SECON CODA AMPLIT PERI AZIMU VELO AIN AR TRES W  DIS CAZ7
 BAR2 EZ EP        743 57.20                             170    0.0810 25.3 202 
 BAR2 EZ ES        744 11.95                             170   -0.4510 25.3 202 
 BAR2 EZ I         744 13.68         7.7 0.16            168           25.3 202 
 BRR  HZ EP        743 58.95                             151    0.0810 75.7 296 
 BRR  HN ES        744 16.14                             151    0.6310 75.7 296 
 BRR  HZ I         744 22.04         5.6 0.48            148           75.7 296 
 RUS  HZ EP        744  1.29                             144    0.0510  101 179 
 RUS  HE ES        744 20.05                             144    0.3210  101 179 
 RUS  HZ I         744 20.53         4.9 0.34            147            101 179 
 OCA  HZ EP        744  6.16                             129    0.35 9  160 351 
 OCA  HN ES        744 27.27                             129   -0.59 9  160 351 
 OCA  HZ I         744 31.68         5.1 0.16            130            160 351 
 SPBC HZ EP        744  6.14                             128   -0.20 9  167 220 
 SPBC HN ES        744 28.40                             128   -0.41 9  167 220 
 SPBC HZ I         744 30.77         7.4 0.22            130            167 220 
 ZAR  HZ EP   4    744 12.37                             121    1.94 0  209 291 
 ZAR  HE ES   4    744 35.20                             121   -0.88 0  209 291 
                                                                                
