 2016  915 0131  9.7 L   6.829 -73.073140.7  RSN 11 0.5 1.8LRSN                1
 GAP=215        0.98       3.8     4.4  5.4  0.1754E+01  0.7491E+01 -0.1414E+01E
 Epicentro: LOS SANTOS - SANTANDER                                             3
 ACTION:UPD 17-08-17 21:12 OP:lp   STATUS:               ID:20160915013109 L   I
 OLDACT:REG 16-09-15 20:06 OP:lv   STATUS:               ID:20160915012740     3
 2016-09-15-0128-00M.COL___330                                                 6
 STAT SP IPHASW D HRMM SECON CODA AMPLIT PERI AZIMU VELO AIN AR TRES W  DIS CAZ7
 BAR2 EZ IP     C  131 29.03                             168    0.1710 28.8 205 
 BAR2 EZ ES        131 43.72                             168   -0.0810 28.8 205 
 BAR2 EZ I         131 47.87         6.8 0.17            168           28.8 205 
 BRR  HZ IP     C  131 30.88                             150    0.2110 77.0 294 
 BRR  HE ES        131 47.59                             150    0.5810 77.0 294 
 BRR  HZ I         131 54.13        11.8 0.22            149           77.0 294 
 RUS  HZ EP        131 33.18                             142   -0.0110  104 181 
 RUS  HN ES        131 51.69                             142    0.1910  104 181 
 RUS  HZ I         131 53.50         6.2 0.26            146            104 181 
 PTB  HZ EP        131 36.90                             129   -0.17 9  156 258 
 PTB  HN ES        131 58.33                             129   -0.08 9  156 258 
 PTB  HZ I         131 59.43         9.6 0.12            131            156 258 
 SPBC HZ EP        131 38.04                             127   -0.53 9  171 220 
 SPBC HE ES        132  0.17                             127   -0.90 9  171 220 
 ZAR  HZ EP        131 42.49                             120   -0.01 8  210 291 
 ZAR  HN ES        132  7.59                             120   -0.48 8  210 291 
 ZAR  HZ I         132 13.32         8.0 0.30            123            210 291 
 NOR  HZ EP        131 46.32                             117    0.25 8  243 235 
 NOR  HN ES        132 13.83                             117   -0.60 8  243 235 
 NOR  HZ I         132 16.95         6.6 0.23            119            243 235 
 HEL  HZ EP   2    131 51.53                             113    0.89 4  281 256 
 HEL  HN ES        132 23.11                             113    0.55 7  281 256 
 HEL  HZ I         132 28.81         4.4 0.34            115            281 256 
 GUY2CHZ EP        131 54.92                             111    0.87 7  310 235 
 GUY2CHE ES        132 28.76                             111    0.12 7  310 235 
 GUY2CHZ I         132 36.51         2.7 0.45                           310 235 
 CBOC HZ EP        131 57.74                             108    0.32 7  342 252 
 CBOC HN ES        132 35.05                             108    0.41 7  342 252 
 CBOC HZ I         132 42.06         2.1 0.11            111            342 252 
 SJC  HZ EP        132  4.76                             105   -0.56 6  411 326 
 SJC  HN ES        132 48.10                             105   -0.60 6  411 326 
 SJC  HZ I         132 48.82         1.0 0.45            107            411 326 
                                                                                
