 2015 1015 0626 33.7 L   6.317 -73.526114.9  RSN 18 0.5 2.1LRSN                1
 GAP= 82        1.08       2.3     3.1  5.3 -0.2558E+01  0.7275E+01 -0.8835E+00E
 Epicentro: CONTRATACION - SANTANDER                                           3
 ACTION:UPD 15-12-22 20:40 OP:cam  STATUS:               ID:20151015062633 L   I
 OLDACT:REG 15-10-15 14:29 OP:ak   STATUS:               ID:20151015061748     3
 2015-10-15-0617-48M.COL___340                                                 6
 STAT SP IPHASW D HRMM SECON CODA AMPLIT PERI AZIMU VELO AIN AR TRES W  DIS CAZ7
 BAR2 EZ EP        626 50.89                             156    0.3210 48.7  51 
 BAR2 EZ ES        627  3.89                             156    0.1310 48.7  51 
 BAR2 EZ I         627  5.53        55.9 0.20            160           48.7  51 
 RUS  HZ EP        626 51.88                             148   -0.1710 67.9 134 
 RUS  HN ES        627  6.10                             148   -0.3010 67.9 134 
 BRR  HZ EP     C  626 52.98                             139    0.0310 89.7 347 
 BRR  HN ES        627  7.65                             139   -0.3410 89.7 347 
 BRR  HZ I         627  9.47        17.9 0.14            139           89.7 347 
 SPBC HZ EP        626 53.25                             137   -0.2710 95.2 219 
 SPBC HE ES        627  9.51                             137    0.5010 95.2 219 
 SPBC HZ I         627 14.46        24.3 0.12            138           95.2 219 
 PAM  EZ EP        626 58.92                             125    0.23 9  145  39 
 PAM  EN ES        627 18.46                             125    0.25 9  145  39 
 PAM  EZ I         627 19.82        11.1 0.19            128            145  39 
 NOR  HZ EP        627  0.14                             120   -0.57 9  170 241 
 NOR  HN ES        627 21.06                             120   -0.75 9  170 241 
 NOR  HZ I         627 25.67        29.6 0.06            120            170 241 
 ROSC BZ EP        627  2.22                             117   -0.54 9  186 208 
 ROSC BN ES   4    627 27.68                             117    2.22 0  186 208 
 ROSC BZ I         627 31.19        15.4 0.35            119            186 208 
 CHI  HZ EP        627  2.75                             117   -0.31 9  188 187 
 CHI  HN ES        627 25.86                             117   -0.13 9  188 187 
 CHI  HZ I         627 29.91         9.3 0.24            119            188 187 
 ZAR  HZ EP        627  3.20                             116   -0.25 9  196 312 
 ZAR  HN ES        627 27.30                             116    0.61 9  196 312 
 ZAR  HZ I         627 29.79        11.7 0.22            116            196 312 
 OCA  HZ EP        627  5.26                             113   -0.31 8  214   6 
 OCA  HN ES        627 30.93                             113    0.48 8  214   6 
 OCA  HZ I         627 39.03        26.5 0.56            115            214   6 
 HEL  HZ EP        627  6.71                             113   -0.06 8  222 267 
 HEL  HN ES        627 31.80                             113   -0.80 8  222 267 
 HEL  HZ I         627 38.14        10.6 0.20            113            222 267 
 GUY2CHZ EP        627  8.97                             111    0.39 8  237 239 
 GUY2CHN ES        627 36.77                             111    0.96 8  237 239 
 GUY2CHZ I         627 41.80        14.5 0.48                           237 239 
 ELA  HZ EP        627 12.27                             109    0.65 8  263 232 
 ELA  HN ES        627 42.12                             109    0.89 8  263 232 
 ELA  HZ I         627 53.35         7.6 0.64            110            263 232 
 URE  HZ EP   1    627 11.44                             108   -0.67 6  273 306 
 URE  HN ES   4    627 39.64                             108   -2.47 0  273 306 
 URE  HZ I         627 52.57         5.8 0.21            109            273 306 
 CBOC HZ EP        627 13.39                             107    0.25 7  280 260 
 CBOC HN ES        627 43.49                             107   -0.44 7  280 260 
 CBOC HZ I         627 47.14         3.1 0.36            108            280 260 
 SML  HZ EP        627 12.50                             107   -0.59 7  281 348 
 SML  HN ES        627 43.83                             107   -0.02 7  281 348 
 SML  HZ I         627 52.19        13.3 0.13            108            281 348 
 ANIL HZ EP        627 15.38                             106    0.90 7  290 226 
 ANIL HN ES        627 46.44                             106    0.12 7  290 226 
 ANIL HZ I         627 53.06        14.0 0.14            108            290 226 
 ORTC HZ EP        627 18.84                             104    0.24 7  327 216 
 ORTC HN ES        627 53.45                             104   -0.20 7  327 216 
 ORTC HZ I         627 59.33         8.0 0.46            105            327 216 
                                                                                
