 2014  815 0205 26.1 L   7.420 -73.191132.0  RSN 28 0.4 2.7LRSN                1
 GAP=108        0.85       2.2     2.5  3.9  0.6596E+00  0.2643E+01  0.1605E+01E
 Epicentro: EL PLAYON - SANTANDER                                              3
 ACTION:UPD 14-09-15 21:49 OP:nd   STATUS:               ID:20140815020526 L   I
 OLDACT:REG 14-08-15 12:50 OP:spq  STATUS:               ID:20140815015819     3
 2014-08-15-0158-19M.COL___275                                                 6
 STAT SP IPHASW D HRMM SECON CODA AMPLIT PERI AZIMU VELO AIN AR TRES W  DIS CAZ7
 PAM  SZ IP     C  2 5 45.67                             156    0.0610 55.0  99 
 PAM  SN ES        2 6  0.99                             156    0.1810 55.0  99 
 PAM  SZ I         2 6  3.61       159.7 0.30            159           55.0  99 
 BRR  HZ IP     D  2 5 45.47                             151   -0.0810 67.2 239 
 BRR  HE ES        2 6  0.65                             151   -0.0610 67.2 239 
 BRR  HZ I         2 6  1.18       177.8 0.12            145           67.2 239 
 OCA  HZ EP        2 5 47.28                             143   -0.1110 91.6 351 
 OCA  HN ES        2 6  4.37                             143    0.3810 91.6 351 
 OCA  HZ I         2 6  6.00        39.6 0.22            146           91.6 351 
 BAR2 SZ EP        2 5 47.31                             143   -0.2010 91.6 179 
 BAR2 SZ ES   1    2 6  4.13                             143   -0.06 7 91.6 179 
 RUS  HZ EP        2 5 54.44                             125   -0.30 9  169 176 
 RUS  HN ES   1    2 6 16.75                             125   -0.32 7  169 176 
 RUS  HZ I         2 6 17.50        37.7 0.30            122            169 176 
 PTB  HZ EP        2 5 53.50                             124   -0.72 9  170 235 
 PTB  HE ES        2 6 16.32                             124    0.18 9  170 235 
 PTB  HZ I         2 6 20.33        67.5 0.22            121            170 235 
 SML  HZ EP        2 5 54.51                             123   -0.75 9  181 328 
 SML  HN ES   1    2 6 17.27                             123   -0.73 7  181 328 
 SML  HZ I         2 6 18.10        65.6 0.28            123            181 328 
 ZAR  HZ EP     C  2 5 55.47                             122   -0.15 9  184 273 
 ZAR  HE ES        2 6 19.27                             122    0.64 9  184 273 
 ZAR  HZ I         2 6 20.73        58.4 0.10            120            184 273 
 TAM  HZ IP     C  2 5 56.20                             121    0.02 9  189 125 
 TAM  HN ES        2 6 19.80                             121    0.17 9  189 125 
 TAM  HZ I         2 6 20.94        49.7 0.22            121            189 125 
 SPBC HZ EP        2 5 59.36                             117    0.00 8  218 207 
 SPBC HN ES   4    2 6 26.89                             117    1.60 0  218 207 
 SPBC HZ I         2 6 31.35        42.1 0.38            115            218 207 
 URE  HZ EP   4    2 6  2.31                             113   -1.66 0  261 278 
 URE  HN ES   4    2 6 31.21                             113   -2.28 0  261 278 
 URE  HZ I         2 6 36.02        51.1 0.14            111            261 278 
 NOR  HZ EP        2 6  5.68                             111   -0.12 7  277 222 
 NOR  HE ES        2 6 36.63                             111   -0.13 7  277 222 
 NOR  HZ I         2 6 43.86        27.9 0.22            110            277 222 
 HEL  HZ EP        2 6  7.99                             110    0.06 7  292 242 
 HEL  HE ES   1    2 6 39.98                             110   -0.57 5  292 242 
 HEL  HZ I         2 6 50.11        18.7 0.28            109            292 242 
 ARGC HZ EP   1    2 6  7.31                             110   -0.34 5  293 337 
 ARGC HN ES        2 6 40.88                             110    0.84 7  293 337 
 ARGC HZ I         2 6 45.85        12.7 0.40            110            293 337 
 ROSC BZ EP   4    2 6 11.70                             109    1.50 0  311 204 
 MON  HZ EP   4    2 6  8.00                             109   -1.68 0  311 299 
 MON  HN ES   4    2 6 41.87                             109   -1.80 0  311 299 
 ROSC BN ES   4    2 6 49.12                             109    4.53 0  311 204 
 ROSC BZ I         2 6 56.03        40.8 0.85            107            311 204 
 CHI  HZ EP        2 6 11.08                             109    0.52 7  314 191 
 CHI  HE ES   4    2 6 46.50                             109    1.27 0  314 191 
 CHI  HZ I         2 6 56.47        11.4 0.52            107            314 191 
 SDV  BN ES   4    2 6 44.31                             108   -2.67 0  325  60 
 SDV  BZ I         2 6 47.03        20.7 0.40            108            325  60 
 DBB  SZ EP        2 6 12.67                             107   -0.04 7  336 263 
 DBB  SZ ES   4    2 6 47.83                             107   -1.22 0  336 263 
 GUY2CHZ EP        2 6 14.46                             107    0.63 7  342 225 
 GUY2CHE ES   4    2 6 54.91                             107    3.86 0  342 225 
 GUY2CHZ I         2 6 58.18        20.0 0.44                           342 225 
 SJC  HZ EP   4    2 6 12.89                             106   -1.45 0  351 322 
 SJC  HE ES   4    2 6 49.56                             106   -2.39 0  351 322 
 SJC  HZ I         2 6 51.65         5.6 0.30            106            351 322 
 CBOC HZ EP        2 6 15.47                             106    0.33 6  356 241 
 CBOC HN ES   4    2 6 51.94                             106   -1.45 0  356 241 
 CBOC HZ I         2 7  9.37         7.0 0.54            105            356 241 
 RREF HZ EP   4    2 6 18.42                             106    1.46 0  367 221 
 RREF HN ES   4    2 6 59.67                             106    3.05 0  367 221 
 RREF HZ I         2 7  5.38        19.5 0.30            104            367 221 
 VIL  SZ EP        2 6 17.23                             105    0.52 6  370 189 
 VIL  SN ES   4    2 6 57.56                             105    1.38 0  370 189 
 VIL  SZ I         2 7  6.44        23.4 0.40            104            370 189 
 TOL  SZ EP        2 6 20.56                             104    0.98 6  392 217 
 TOL  SN ES   4    2 7  4.73                             104    3.44 0  392 217 
 TOL  SZ I         2 7 10.16        28.2 0.42            103            392 217 
 ANIL HZ EP   4    2 6 22.83                             104    1.66 0  406 217 
 ANIL HN ES   4    2 7  9.35                             104    5.24 0  406 217 
 SMAR HZ EP   1    2 6 22.71                             103   -0.85 4  429 345 
 SMAR HE ES   4    2 7  3.63                             103   -4.74 0  429 345 
 PAL  HZ EP   1    2 6 25.35                             102    0.31 4  441 231 
 ORTC HZ EP        2 6 25.66                             102   -0.43 5  450 210 
 ORTC HN ES   4    2 7 15.28                             102    2.40 0  450 210 
 ORTC HZ I         2 7 23.50        14.4 0.46            101            450 210 
 PRA  HZ EP        2 6 26.28                             102    0.09 5  451 205 
 PRA  HE ES   4    2 7 16.04                             102    3.00 0  451 205 
 PRA  HZ I         2 7 24.47        12.6 0.46            101            451 205 
                                                                                
