 2015 1015 0136 22.8 L   6.815 -73.150146.9  RSN 22 0.4 2.8LRSN                1
 GAP= 70        0.90       2.2     2.6  4.2 -0.5520E+00  0.2800E+01  0.1525E+01E
 Epicentro: LOS SANTOS - SANTANDER                                             3
 ACTION:UPD 15-12-22 20:40 OP:cam  STATUS:               ID:20151015013622 L   I
 OLDACT:UP  15-10-15 15:28 OP:mher STATUS:               ID:20151015012748     3
 OLDACT:REG 15-10-15 14:06 OP:ak   STATUS:               ID:20151015012748     3
 2015-10-15-0127-48M.COL___340                                                 6
 STAT SP IPHASW D HRMM SECON CODA AMPLIT PERI AZIMU VELO AIN AR TRES W  DIS CAZ7
 BAR2 EZ IP     D  136 42.66                             170    0.0410 24.8 188 
 BAR2 EZ ES        136 57.56                             170   -0.5010 24.8 188 
 BAR2 EZ I         136 58.61       128.0 0.24            171           24.8 188 
 BRR  HZ EP        136 44.53                             153    0.5010 70.0 298 
 BRR  HN ES        137  1.19                             153    0.6210 70.0 298 
 BRR  HZ I         137  4.18        72.3 0.30            151           70.0 298 
 PAM  EZ EP        136 45.60                             151    0.5010 76.5  41 
 PAM  EN ES        137  2.70                             151    0.2110 76.5  41 
 PAM  EZ I         137  3.40        74.6 0.20            149           76.5  41 
 RUS  HZ EP     D  136 46.66                             144   -0.1410  102 176 
 RUS  HN ES        137  5.13                             144   -0.3810  102 176 
 RUS  HZ I         137  6.57        50.4 0.44            143            102 176 
 TAM  HZ IP     D  136 51.11                             131    0.44 9  156 106 
 TAM  HZ I         137 11.96        42.6 0.42            129            156 106 
 TAM  HN ES        137 12.64                             131    0.24 9  156 106 
 OCA  HZ EP   1    136 50.38                             130   -0.69 7  159 353 
 OCA  HN ES        137 12.64                             130   -0.46 9  159 353 
 OCA  HZ I         137 20.66       122.3 0.48            128            159 353 
 SPBC HZ EP        136 51.20                             129   -0.30 9  164 218 
 SPBC HN ES        137 13.82                             129   -0.04 9  164 218 
 SPBC HZ I         137 22.21        75.1 0.44            128            164 218 
 ZAR  HZ EP        136 55.54                             123    0.31 9  203 292 
 ZAR  HN ES        137 20.28                             123   -0.23 9  203 292 
 ZAR  HZ I         137 25.45        57.1 0.38            121            203 292 
 ZAR  HE I         137 26.90       182.9 0.22                           203 292 
 NOR  HZ EP        136 58.48                             119   -0.19 8  235 234 
 NOR  HN ES        137 26.34                             119   -0.30 8  235 234 
 NOR  HZ I         137 32.37        30.4 0.22            117            235 234 
 SML  HZ EP   1    136 58.81                             118   -0.52 6  242 335 
 SML  HN ES   2    137 27.18                             118   -0.63 4  242 335 
 SML  HZ I         137 35.91        52.1 0.24            116            242 335 
 CHI  HZ EP        137  0.84                             117    0.10 8  250 195 
 CHI  HN ES        137 30.03                             117   -0.28 8  250 195 
 CHI  HZ I         137 35.16        37.9 0.32            116            250 195 
 ROSC BZ EP   4    137  2.30                             117    1.18 0  254 211 
 ROSC BN ES   1    137 31.88                             117    0.88 6  254 211 
 ROSC BZ I         137 36.91        96.2 0.40            115            254 211 
 HEL  HZ EP        137  3.13                             115    0.05 8  272 255 
 HEL  HN ES        137 34.71                             115    0.23 8  272 255 
 HEL  HZ I         137 40.35        32.1 0.30            113            272 255 
 URE  HZ EP   4    137  2.31                             114   -1.52 0  283 292 
 URE  HE ES   4    137 32.62                             114   -3.19 0  283 292 
 URE  HZ I         137 41.31        32.9 0.16            112            283 292 
 GUY2CHZ EP   1    137  6.13                             112   -0.41 5  302 234 
 GUY2CHN ES   4    137 43.19                             112    2.55 0  302 234 
 GUY2CHZ I         137 48.75        31.1 0.58                           302 234 
 VIL  SZ IP        137  6.56                             112    0.10 7  305 191 
 VIL  SE ES        137 39.63                             112   -0.86 7  305 191 
 PTGC HZ EP   4    137  5.75                             112   -1.17 0  310 159 
 PTGC HN ES   4    137 39.06                             112   -2.26 0  310 159 
 PTGC HZ I         137 40.46        26.8 0.30            110            310 159 
 ELA  HZ EP   1    137 10.40                             110    0.60 5  330 229 
 ELA  HN ES   4    137 48.73                             110    2.30 0  330 229 
 CBOC HZ EP   4    137 10.44                             110    0.66 0  334 252 
 CBOC HE ES   2    137 47.33                             110    0.92 3  334 252 
 DBB  SZ EP     D  137 10.18                             110   -0.09 7  339 274 
 DBB  SZ ES   4    137 46.15                             110   -1.13 0  339 274 
 DBB  SZ I         137 47.98        77.2 0.30            108            339 274 
 ANIL HZ EP   4    137 15.48                             109    2.72 0  358 224 
 ANIL HN ES   4    137 52.87                             109    1.16 0  358 224 
 SDV  BZ EP   1    137 12.04                             108   -0.79 5  360  50 
 SDV  BN ES   4    137 48.68                             108   -3.16 0  360  50 
 ORTC HZ EP   1    137 17.03                             106    0.13 4  396 216 
 ORTC HN ES        137 59.64                             106    0.57 6  396 216 
 ORTC HZ I         138  3.89        17.8 0.20            105            396 216 
                                                                                
