 2012 1015 0341 15.4 L   6.721 -73.092142.9  RSN  4 0.2 1.4LRSN                1
 GAP=147        0.43       3.4     4.2  5.8 -0.9097E+00 -0.2240E+01  0.6034E+01E
 Epicentro: JORDAN - SANTANDER                                                 3
 ACTION:UPD 12-11-22 17:03 OP:ep   STATUS:               ID:20121015034115 L   I
 2012-10-15-0340-00M.COL___230                                                 6
 STAT SP IPHASW D HRMM SECON CODA AMPLIT PERI AZIMU VELO AIN AR TRES W  DIS CAZ7
 BAR2 SZ EP   2    341 34.63                             173    0.05 5 17.4 215 
 BAR2 SZ I         341 35.21         7.5 0.09                          17.4 215 
 BRR  HZ EP        341 36.60                             149   -0.2110 80.7 302 
 BRR  HZ I         341 37.35         5.1 0.11                          80.7 302 
 BRR  HE ES   1    341 53.71                             149    0.20 7 80.7 302 
 PAM  SZ EP        341 37.72                             149    0.1910 81.0  32 
 PAM  SZ I         341 38.19         3.4 0.29                          81.0  32 
 PAM  SN ES   1    341 54.60                             149   -0.19 7 81.0  32 
 RUS  HZ EP        341 38.26                             146    0.0210 91.7 179 
 RUS  HN ES   2    341 56.01                             146   -0.04 5 91.7 179 
                                                                                
