 2011 1015 0059 53.5 L   6.808 -73.110144.7  RSN  6 0.3 1.6LRSN                1
 GAP=141        0.36       3.5     3.3  5.3 -0.9917E+00 -0.1847E+01  0.9600E+01E
 Epicentro: LOS SANTOS - SANTANDER                                             3
 ACTION:UPD 12-07-13 16:03 OP:ep   STATUS:               ID:20111015005953 L   I
 2011-10-15-0056-53S.COL___168                                                 6
 STAT SP IPHASW D HRMM SECON CODA AMPLIT PERI AZIMU VELO AIN AR TRES W  DIS CAZ7
 BAR2 SZ EP   3    1 0 12.65                             170   -0.35 2 25.2 198 
 PAM  SZ EP        1 0 15.46                             152    0.0810 74.2  38 
 PAM  SN ES   1    1 0 32.40                             152   -0.07 7 74.2  38 
 BRR  HZ EP        1 0 14.68                             151    0.0110 74.2 296 
 BRR  HE ES   1    1 0 31.37                             151    0.16 7 74.2 296 
 BRR  HZ I         1 0 35.40        10.1 0.40                          74.2 296 
 RUS  HZ EP        1 0 17.14                             143   -0.0210  101 178 
 RUS  HN ES   3    1 0 35.09                             143   -0.55 2  101 178 
 OCA  SZ ES   3    1 0 43.19                             129   -0.45 2  160 352 
 ZAR  HN ES   3    1 0 50.81                             122   -0.88 2  207 292 
 ZAR  HZ I         1 0 56.59         3.2 0.40                           207 292 
                                                                                
