 2017 1215 0728 10.3 L   6.765 -73.129142.5  RSN 18 0.8 2.1LRSN                1
 GAP= 67        1.59       4.2     4.6  8.1 -0.1121E+01  0.5733E+01 -0.1804E+01E
 Epicentro: LOS SANTOS - SANTANDER                                             3
 ACTION:UPD 18-01-04 13:20 OP:rebc STATUS:               ID:20171215072810 L   I
 OLDACT:UP  17-12-15 15:50 OP:edw  STATUS:               ID:20171215072741d    3
 OLDACT:UP  17-12-15 15:49 OP:edw  STATUS:               ID:20171215072741d    3
 OLDACT:DUP 17-12-15 15:36 OP:edw  STATUS:               ID:20171215072741d    3
 OLDACT:UP  17-12-15 15:34 OP:edw  STATUS:               ID:20171215072740     3
 OLDACT:REG 17-12-15 12:50 OP:edw  STATUS:               ID:20171215072740     3
 2017-12-15-0728-00M.COL___473                                                 6
 STAT SP IPHASW D HRMM SECON CODA AMPLIT PERI AZIMU VELO AIN AR TRES W  DIS CAZ7
 BAR2 HZ EP        728 29.79                             172    0.3210 20.0 197 
 BAR2 HZ ES        728 44.35                             172   -0.0810 20.0 197 
 BAR2 HZ I         728 45.85        38.1 0.16            168           20.0 197 
 PAM  EZ EP     D  728 32.82                             150    0.5410 79.3  37 
 PAM  EN ES        728 49.12                             150   -0.3110 79.3  37 
 PAM  EZ I         728 51.98        26.3 0.58            148           79.3  37 
 PTB  HZ EP        728 36.91                             131   -0.19 9  149 260 
 PTB  HN ES        728 57.43                             131   -0.57 9  149 260 
 PTB  HZ I         728 59.77        11.8 0.12            129            149 260 
 TAM  HZ EP     C  728 38.11                             130    0.64 9  152 104 
 TAM  HZ I         728 58.59         7.8 0.40            126            152 104 
 TAM  HN ES        728 59.52                             130    0.86 9  152 104 
 SPBC HZ EP        728 38.87                             129    0.50 9  161 220 
 SPBC HN ES        729  0.76                             129    0.49 9  161 220 
 SPBC HZ I         729  6.17        14.0 0.36            126            161 220 
 OCA  HZ EP        728 38.41                             128   -0.33 9  164 353 
 OCA  HN ES        728 60.00                             128   -0.93 9  164 353 
 OCA  HZ I         729  4.68        35.7 0.14            127            164 353 
 YPLC HZ IP   9 D  728 40.22                             127    0.78 0  173 151 
 YPLC HN ES        729  3.53                                    0.58 9  173 151 
 YPLC HZ I         729  6.61        12.5 0.24            122            173 151 
 ZAR  HZ EP        728 43.35                             121    0.49 8  207 293 
 ZAR  HN ES        729  8.20                             121   -0.06 8  207 293 
 ZAR  HZ I         729 14.33        17.9 0.52            120            207 293 
 NOR  HZ EP   4    728 39.32                             118   -6.44 0  234 235 
 NOR  HN ES        729 13.59                             118    0.17 8  234 235 
 NOR  HZ I         729 18.96         6.3 0.26            115            234 235 
 URE  HZ EP   4    728 52.53                             113    0.97 0  287 292 
 URE  HN ES   4    729 21.29                             113   -2.46 0  287 292 
 URE  HZ I         729 23.61        14.8 0.12            111            287 292 
 DRL03HZ EP        728 51.96                             112   -0.25 7  293 353 
 DRL03HE ES        729 25.39                             112    0.49 7  293 353 
 VIL  EE ES   4    729 29.00                             112    2.37 0  300 192 
 GUY2CHZ EP   4    728 55.78                             112    2.11 0  300 236 
 GUY2CHN ES   4    729 28.66                             112    1.16 0  300 236 
 GUY2CHZ I         729 37.71         4.8 0.68                           300 236 
 PTGC HZ EP        728 53.03                             111   -0.50 7  304 159 
 PTGC HN ES        729 24.42                             111   -2.82 7  304 159 
 DRL02HZ EP   9    728 54.81                             109   -1.50 0  329 357 
 DRL02HE ES   4    729 30.12                             110   -0.58 0  329 357 
 ARGC HZ EP        729  0.82                             107    0.50 6  363 340 
 ARGC HN ES   4    729 40.01                             107    0.67 0  363 340 
 PRA  HZ EP   9    729  4.34                             106    0.92 0  390 210 
 PRA  HN ES        729 46.01                             104    0.24 6  390 210 
 PRA  HZ I         729 50.16         4.0 0.24            104            390 210 
 ORTC HZ EP        729  4.40                             106    0.53 6  393 217 
 ORTC HN ES   4    729 49.51                             106    3.86 0  393 217 
 ORTC HZ I         729 58.22         2.4 0.50            104            393 217 
 PAL  HZ EP   1    729  6.02                             105    0.72 4  405 240 
 PAL  HN ES   4    729 45.59                             105   -2.61 0  405 240 
 PAL  HZ I         729 51.13         2.6 0.18            104            405 240 
 SJC  HZ EP   1    729  4.72                             105   -1.53 4  413 327 
 SJC  HN ES   4    729 45.35                             105   -4.54 0  413 327 
 SJC  HZ I         729 50.06         2.5 0.48            104            413 327 
                                                                                
