 2011  815 0006  4.1 L   6.631 -73.706106.0  RSN  4 0.2 1.4LRSN                1
 GAP=220        0.38       3.5     6.9  4.7  0.1769E+02  0.6948E+01  0.2114E+01E
 Epicentro: EL CARMEN DE CHUCURI - SANTANDER                                   3
 ACTION:UPD 12-07-13 15:51 OP:ep   STATUS:               ID:20110815000604 L   I
 2011-08-15-0002-46S.COL___150                                                 6
 STAT SP IPHASW D HRMM SECON CODA AMPLIT PERI AZIMU VELO AIN AR TRES W  DIS CAZ7
 BRR  HZ EP   1    0 6 20.03                             151    0.07 7 52.7 359 
 BRR  HZ I         0 6 22.16         4.5 0.59                          52.7 359 
 BRR  HE ES   1    0 6 32.27                             151   -0.02 7 52.7 359 
 BAR2 SZ EP        0 6 20.77                             149    0.1410 58.1  94 
 BAR2 SZ ES   1    0 6 33.30                             149   -0.18 7 58.1  94 
 BAR2 SZ I         0 6 34.28        19.0 0.19                          58.1  94 
 RUS  HZ EP   2    0 6 24.57                             131   -0.24 5  107 140 
 RUS  HE ES   1    0 6 40.97                             131    0.04 7  107 140 
 RUS  HZ I         0 6 42.55         3.8 0.28                           107 140 
 OCA  SZ EP   2    0 6 31.79                             115   -0.40 4  183  13 
 OCA  SZ ES   2    0 6 54.30                             115    0.25 4  183  13 
 OCA  SZ I         0 6 58.97         3.7 0.21                           183  13 
                                                                                
