 2017  115 0939 54.7 L   6.794 -73.117146.1  RSN  4 0.2 0.8LRSN                1
 GAP=140        0.63       4.6     7.7  6.3  0.1804E+02 -0.2263E+02 -0.1060E+02E
 Epicentro: LOS SANTOS - SANTANDER                                             3
 ACTION:UPD 17-05-22 15:59 OP:jn   STATUS:               ID:20170115093954 L   I
 OLDACT:REG 17-01-15 13:04 OP:and  STATUS:               ID:20170115093743     3
 2017-01-15-0938-00M.COL___329                                                 6
 STAT SP IPHASW D HRMM SECON CODA AMPLIT PERI AZIMU VELO AIN AR TRES W  DIS CAZ7
 BAR2 EZ EP        940 13.99                             170   -0.3910 23.5 198 
 BAR2 EZ ES     C  940 29.48                             170   -0.2510 23.5 198 
 BAR2 EZ I         940 30.66         3.1 0.22            143           23.5 198 
 BRR  HZ EP        940 16.07                             152    0.0110 74.3 298 
 BRR  HN ES        940 32.88                             152    0.1510 74.3 298 
 PAM  EZ EP        940 17.09                             151    0.2210 75.9  37 
 PAM  EZ I         940 36.59         1.1 0.13            123           75.9  37 
 RUS  HZ EP        940 18.42                             144   -0.0110 99.8 178 
 RUS  HN ES        940 37.21                             144    0.2710 99.8 178 
 RUS  HZ I         940 48.05         0.4 0.49            132           99.8 178 
                                                                                
