 2016  115 0547 58.2 L   6.804 -73.139148.3  RSN 12 0.5 1.6LRSN                1
 GAP=137        1.25       3.2     5.6  6.9 -0.1811E+01  0.1214E+02  0.5242E+00E
 Epicentro: LOS SANTOS - SANTANDER                                             3
 ACTION:UPD 16-03-09 23:25 OP:cam  STATUS:               ID:20160115054758 L   I
 OLDACT:UP  16-01-15 15:33 OP:drio STATUS:               ID:20160115053747     3
 OLDACT:UP  16-01-15 15:33 OP:drio STATUS:               ID:20160115053747     3
 OLDACT:REG 16-01-15 12:15 OP:drio STATUS:               ID:20160115053747     3
 2016-01-15-0537-47M.COL___332                                                 6
 STAT SP IPHASW D HRMM SECON CODA AMPLIT PERI AZIMU VELO AIN AR TRES W  DIS CAZ7
 BAR2 EZ EP        548 18.11                             170   -0.0610 23.9 192 
 BAR2 EZ ES        548 33.36                             170   -0.3610 23.9 192 
 BAR2 EZ I         548 34.27         8.7 0.26            171           23.9 192 
 BRR  HZ EP        548 19.98                             153    0.3110 71.6 298 
 BRR  HN ES        548 37.50                             153    1.1110 71.6 298 
 BRR  HZ I         548 40.12         4.6 0.12            151           71.6 298 
 PAM  EZ EP        548 20.87                             151    0.2110 76.6  39 
 PAM  EN ES        548 38.26                             151    0.1010 76.6  39 
 PAM  EZ I         548 43.08         2.7 0.38            152           76.6  39 
 RUS  HZ EP        548 22.03                             144   -0.2210  101 176 
 RUS  HE ES        548 40.62                             144   -0.3710  101 176 
 RUS  HZ I         548 41.38         4.3 0.32            147            101 176 
 PTB  HZ EP        548 24.67                             132   -0.80 9  149 259 
 PTB  HN ES   4    548 44.82                             132   -1.90 0  149 259 
 PTB  HZ I         548 47.63         3.8 0.22            132            149 259 
 OCA  HZ EP        548 27.42                             130    0.72 9  160 353 
 OCA  HE ES        548 48.37                             130   -0.54 9  160 353 
 OCA  HZ I         548 52.18        15.7 0.18            130            160 353 
 SPBC HZ EP        548 27.24                             129    0.25 9  164 219 
 SPBC HN ES        548 48.83                             129   -0.60 9  164 219 
 SPBC HZ I         548 51.08         7.8 0.24            130            164 219 
 ZAR  HZ EP        548 31.44                             123    0.56 9  205 292 
 ZAR  HE ES        548 56.34                             123   -0.02 9  205 292 
 ZAR  HZ I         549  2.64         5.2 0.32            123            205 292 
 SML  HZ EP        548 34.43                             118   -0.55 8  244 335 
 SML  HN ES        549  2.95                             118   -0.70 8  244 335 
 SML  HZ I         549 13.08         5.8 0.10            118            244 335 
 CHI  HZ EP        548 36.24                             118    0.11 8  249 195 
 CHI  HE ES        549  6.51                             118    0.82 8  249 195 
 CHI  HZ I         549 11.29         1.3 0.40            119            249 195 
 GUY2CHZ EP   4    548 43.19                             113    1.15 0  302 235 
 GUY2CHN ES        549 16.18                             113   -0.04 7  302 235 
 GUY2CHZ I         549 25.96         1.9 0.30                           302 235 
 PRA  HZ EP   4    548 50.98                             107   -0.94 0  393 210 
 PRA  HN ES        549 33.65                             107   -0.15 6  393 210 
 PRA  HZ I         549 38.94         1.3 0.26            108            393 210 
                                                                                
