 2017 1215 0210 37.7 L   6.783 -72.967 27.1  RSN  4 0.5 1.2LRSN                1
 GAP=324        1.17      10.6    11.7  5.1 -0.1749E+02  0.2505E+02 -0.1364E+02E
 Epicentro: CEPITA - SANTANDER                                                 3
 ACTION:UPD 18-01-04 13:20 OP:rebc STATUS:               ID:20171215021037 L   I
 OLDACT:UP  17-12-15 13:59 OP:osc  STATUS:               ID:20171215020745     3
 OLDACT:REG 17-12-15 12:27 OP:edw  STATUS:               ID:20171215020745     3
 2017-12-15-0208-00M.COL___482                                                 6
 STAT SP IPHASW D HRMM SECON CODA AMPLIT PERI AZIMU VELO AIN AR TRES W  DIS CAZ7
 BAR2 EZ EP        210 45.41                             126    0.7710 31.8 229 
 BAR2 EZ ES        210 49.59                             126   -0.4510 31.8 229 
 BAR2 EZ I         210 50.08        12.4 0.09            124           31.8 229 
 PTB  HZ EP        211  1.26                              61   -0.65 9  167 261 
 PTB  HE ES        211 21.20                              61    0.42 9  167 261 
 SPBC HZ EP        211  2.74                              61   -0.26 9  175 224 
 SPBC HE ES        211 22.96                              61    0.23 9  175 224 
 SPBC HZ I         211 24.81         4.0 0.22             56            175 224 
 NOR  HZ ES        211 39.16                              61   -0.20 8  250 237 
                                                                                
