 2012  915 0551 44.4 L   6.741 -73.187147.5  RSN  4 0.2 1.4LRSN                1
 GAP=228        0.43       5.7     5.7  5.6  0.1594E+02  0.3200E+01  0.3869E+01E
 Epicentro: VILLANUEVA - SANTANDER                                             3
 ACTION:UPD 12-10-22 14:18 OP:ep   STATUS:               ID:20120915055144 L   I
 2012-09-15-0550-00M.COL___227                                                 6
 STAT SP IPHASW D HRMM SECON CODA AMPLIT PERI AZIMU VELO AIN AR TRES W  DIS CAZ7
 BAR2 SZ EP   1    552  3.83                             173   -0.32 7 16.5 178 
 BAR2 SZ ES   2    552 19.37                             173   -0.16 5 16.5 178 
 BAR2 SZ I         552 20.12         8.4 0.18                          16.5 178 
 BRR  HZ EP   1    552  5.78                             153    0.05 7 70.7 305 
 BRR  HN ES   1    552 22.52                             153    0.16 7 70.7 305 
 BRR  HN I         552 24.09         7.4 0.14                          70.7 305 
 RUS  HZ EP   2    552  8.36                             146    0.44 5 94.5 173 
 RUS  HE ES   2    552 26.37                             146    0.12 5 94.5 173 
 RUS  HZ I         552 27.76         2.2 0.25                          94.5 173 
 PTB  HZ EP   1    552 11.06                             134    0.03 7  142 261 
 PTB  HN ES   2    552 31.53                             134   -0.25 5  142 261 
 PTB  HN I         552 34.10         2.1 0.34                           142 261 
                                                                                
