 2010  215 0756 25.9 L   6.771 -72.970146.3  RSN  6 0.3 1.9LRSN                1
 GAP=213        0.44       3.1     6.1  5.7 -0.4574E+01  0.1455E+02  0.2107E+01E
 Epicentro: CEPITA - SANTANDER                                                 3
 ACTION:UP  10-08-24 09:49 OP:vdl  STATUS:               ID:20100215075625 L   I
 2010-02-15-0755-32S.COL___093                                                 6
 STAT SP IPHASW D HRMM SECON CODA AMPLIT PERI AZIMU VELO SNR AR TRES W  DIS CAZ7
 BAR2 SZ IP        756 45.66                             167    -0.110   31 230 
 BAR2 SZ ES   2    757  1.06                             167    -0.2 5   31 230 
 OCA  SZ EP   1    756 54.71                             128    -0.1 7  167 347 
 OCA  SZ ES   2    757 17.92                             128     0.5 5  167 347 
 OCA  SZ I         757 20.88        14.4 0.14                           167 347 
 CHI  HZ EP   1    757  3.82                             117    -0.1 6  251 200 
 CHI  HN ES   2    757 34.05                             117     0.5 4  251 200 
 CHI  HZ I         757 41.02         2.0 0.53                           251 200 
 HEL  HZ EP        757  8.04                             113    -0.1 7  290 257 
 HEL  HE ES   2    757 40.76                             113    -0.3 4  290 257 
 RREF BZ EP        757 13.81                             110     0.3 7  335 232 
 RREF BN ES   3    757 51.33                             110     0.6 2  335 232 
 RREF BZ I         757 58.01         3.7 0.48                           335 232 
 PRA  HZ EP   2    757 20.10                             106    -0.2 3  399 212 
 PRA  HE ES   3    758  2.04                             106    -0.6 1  399 212 
 PRA  HZ I         758  5.16         2.3 0.32                           399 212 
                                                                                
