 2010 1215 0407  1.5 L   6.797 -73.147151.7  RSN 11 0.4 2.0LRSN                1
 GAP=136        0.62       3.1     5.8  5.9 -0.5937E+01  0.9036E+01 -0.1331E+01E
 Epicentro: LOS SANTOS - SANTANDER                                             3
 ACTION:UP  11-01-14 15:25 OP:pat  STATUS:               ID:20101215040701 L   I
 2010-12-15-0400-00M.COL___137                                                 6
 STAT SP IPHASW D HRMM SECON CODA AMPLIT PERI AZIMU VELO SNR AR TRES W  DIS CAZ7
 BTL  SZ EP        4 7 21.98                             173     0.210   19 315 
 BAR2 SZ EP        4 7 21.86                             171     0.010   23 190 
 BAR2 SZ ES   1    4 7 37.85                             171     0.1 7   23 190 
 BAR2 SZ I         4 7 39.47        21.9 0.22                            23 190 
 GIR2 SZ EP   2    4 7 22.03                             168     0.1 5   32 351 
 RUS  HZ EP        4 7 25.79                             145     0.010  100 176 
 RUS  HN ES   2    4 7 44.25                             145    -0.5 5  100 176 
 RUS  HZ I         4 7 48.01         8.5 0.45                           100 176 
 GRA  SZ EP   1    4 7 27.48                             138     0.2 7  126  17 
 GRA  SZ ES   2    4 7 47.88                             138     0.4 5  126  17 
 GRA  SZ I         4 7 49.62        17.1 0.29                           126  17 
 OCA  SZ EP        4 7 29.87                             131    -0.4 9  161 353 
 OCA  SZ ES   2    4 7 52.40                             131    -0.4 5  161 353 
 OCA  SZ I         4 7 57.69        23.5 0.23                           161 353 
 YOP  SZ EP   2    4 7 32.14                             128     0.2 4  179 153 
 YOP  SZ I         4 7 33.50         7.0 0.44                           179 153 
 NOR  SZ EP   2    4 7 37.67                             120     0.1 4  234 235 
 NOR  SN ES   2    4 8  5.04                             120    -0.6 4  234 235 
 CHI  HZ EP   2    4 7 39.80                             118     0.3 4  248 195 
 CHI  HN ES   2    4 8  9.06                             118    -0.1 4  248 195 
 CHI  HZ I         4 8 17.01         4.7 0.20                           248 195 
 HEL  HZ EP   2    4 7 42.91                             116     0.9 4  272 256 
 HEL  HE ES   2    4 8 14.07                             116     0.5 4  272 256 
 HEL  HZ I         4 8 21.59         7.4 0.08                           272 256 
 PRA  HZ EP   2    4 7 54.90                             108    -0.3 3  392 210 
 PRA  HE ES   2    4 8 36.49                             108    -0.6 3  392 210 
                                                                                
