 2017 1015 0434 24.5 L   6.771 -73.136135.4  RSN  4 0.4 1.0LRSN                1
 GAP=236        1.05       8.0     7.9  8.5  0.3255E+02  0.7488E+01  0.1991E+01E
 Epicentro: LOS SANTOS - SANTANDER                                             3
 ACTION:UPD 17-11-07 19:31 OP:rebc STATUS:               ID:20171015042740 L   I
 OLDACT:UPD 17-10-15 13:29 OP:leo  STATUS:               ID:20171015042740 L   3
 2017-10-15-0428-00M.COL___402                                                 6
 STAT SP IPHASW D HRMM SECON CODA AMPLIT PERI AZIMU VELO AIN AR TRES W  DIS CAZ7
 BAR2 EZ EP        434 42.63                             171   -0.1910 20.4 195 
 BAR2 EZ ES        434 56.59                             171   -0.5210 20.4 195 
 BAR2 EZ I         434 58.62         4.2 0.21            170           20.4 195 
 BRR  HZ EP        434 44.42                             150   -0.2710 73.8 300 
 BRR  HE ES        435  1.10                             150    0.6610 73.8 300 
 BRR  HZ I         435  4.45         3.1 0.23            150           73.8 300 
 RUS  HZ EP        434 47.02                             142    0.0310 97.3 177 
 RUS  HN ES        435  4.95                             142    0.4110 97.3 177 
 RUS  HZ I         435  6.32         1.3 0.30            145           97.3 177 
 PTB  HZ EP        434 51.01                             129    0.33 9  148 260 
 PTB  HN ES        435 10.65                             129   -0.46 9  148 260 
 PTB  HZ I         435 14.11         0.7 0.12            130            148 260 
                                                                                
