 2011  215 0622  0.9 L   6.815 -73.217136.2  RSN  6 0.3 1.4LRSN                1
 GAP=163        0.56       3.5    18.4  7.9 -0.2689E+02  0.7992E+02 -0.7227E+01E
 Epicentro: ZAPATOCA - SANTANDER                                               3
 ACTION:UP  11-03-28 15:08 OP:jfem STATUS:               ID:20110215062200 L   I
 2011-02-15-0619-24S.COL___136                                                 6
 STAT SP IPHASW D HRMM SECON CODA AMPLIT PERI AZIMU VELO SNR AR TRES W  DIS CAZ7
 BAR2 SZ EP        622 19.32                             169    -0.110   25 171 
 BAR2 SZ I         622 19.72         5.7 0.16                            25 171 
 BAR2 SZ ES   2    622 33.95                             169     0.1 5   25 171 
 GIR2 SZ EP   3    622 19.33                             167    -0.1 2   29   5 
 GIR2 SZ ES   3    622 34.05                             167     0.2 2   29   5 
 RUS  HZ EP        622 23.76                             141    -0.210  103 172 
 RUS  HN ES   2    622 41.82                             141    -0.1 5  103 172 
 RUS  HZ I         622 44.31         4.3 0.24                           103 172 
 GRA  SZ EP   3    622 26.34                             134     0.9 2  127  21 
 GRA  SZ ES   2    622 45.04                             134     0.5 5  127  21 
 GRA  SZ I         622 46.83         3.7 0.04                           127  21 
 OCA  SZ EP        622 28.17                             128    -0.1 9  158 356 
 OCA  SZ I         622 54.38         5.3 0.36                           158 356 
 CHI  HZ EP   1    622 38.62                             115     0.5 6  248 193 
 CHI  HN ES   2    623  7.37                             115     0.3 4  248 193 
 CHI  HZ I         623 10.15         1.5 0.17                           248 193 
                                                                                
