 2013 1015 0823 47.0 L   6.812 -73.154145.8  RSN 17 0.4 2.4LRSN                1
 GAP= 65        1.00       2.7     2.7  4.6 -0.5283E+00  0.2567E+01  0.2818E+01E
 Epicentro: LOS SANTOS - SANTANDER                                             3
 2013-10-15-0819-59M.COL___274                                                 6
 ACTION:UPD 13-11-25 09:21 OP:ep   STATUS:               ID:20131015082347 L   I
 OLDACT:UP  13-10-15 14:28 OP:jn   STATUS:               ID:20131015081959     3
 OLDACT:REG 13-10-15 08:15 OP:jn   STATUS:               ID:20131015081959     3
 STAT SP IPHASW D HRMM SECON CODA AMPLIT PERI AZIMU VELO AIN AR TRES W  DIS CAZ7
 BAR2 SZ EP        824  6.74                             170    0.0810 24.6 187 
 BAR2 SZ ES        824 21.89                             170   -0.1110 24.6 187 
 BAR2 HZ I         824 23.19       144.0 0.32            108           24.6 187 
 BRR  HZ EP        824  8.52                             153    0.4410 69.8 298 
 BRR  HN ES        824 25.60                             153    1.0910 69.8 298 
 BRR  HZ I         824 29.60        56.9 0.30            116           69.8 298 
 PAM  SZ EP        824  9.55                             151    0.3510 76.9  41 
 PAM  SE ES        824 26.42                             151   -0.0810 76.9  41 
 PAM  HZ I         824 28.39        35.5 0.60             92           76.9  41 
 RUS  HZ EP        824 10.71                             143   -0.1510  102 176 
 RUS  HE ES        824 29.40                             143   -0.0710  102 176 
 RUS  HZ I         824 30.43        32.8 0.66             91            102 176 
 PTB  HZ EP        824 13.31                             132   -0.61 9  147 258 
 PTB  HN ES        824 34.00                             132   -0.91 9  147 258 
 PTB  HZ I         824 37.10        37.8 0.12             91            147 258 
 TAM  HZ EP        824 15.17                             130    0.37 9  156 105 
 TAM  HN ES        824 36.31                             130   -0.17 9  156 105 
 TAM  HZ I         824 41.17        15.2 0.50             91            156 105 
 OCA  HZ EP        824 14.78                             130   -0.40 9  159 353 
 OCA  HE ES        824 36.40                             130   -0.76 9  159 353 
 OCA  HZ I         824 44.90        34.1 0.48             91            159 353 
 SPBC HZ EP        824 15.61                             129    0.05 9  164 218 
 SPBC HE ES        824 37.72                             129   -0.10 9  164 218 
 SPBC HZ I         824 42.24        54.6 0.20             91            164 218 
 YOP  SZ EP        824 17.41                             126    0.20 9  181 153 
 YOP  HZ I         828 20.21        13.1 3.96             91            181 153 
 ZAR  HZ EP        824 19.02                             123   -0.30 9  203 292 
 ZAR  HN ES        824 44.62                             123    0.10 9  203 292 
 ZAR  HZ I         824 49.64        37.8 0.40             91            203 292 
 NOR  HZ EP        824 22.84                             118    0.09 8  235 234 
 NOR  HE ES        824 50.74                             118    0.12 8  235 234 
 NOR  HZ I         824 56.11        23.4 0.18             91            235 234 
 CHI  HZ EP        824 24.77                             117   -0.06 8  250 195 
 CHI  HN ES        824 54.13                             117   -0.19 8  250 195 
 CHI  HZ I         824 57.38        25.5 0.42             81            250 195 
 HEL  HZ EP        824 27.64                             115    0.48 8  272 255 
 HEL  HN ES        824 58.87                             115    0.39 8  272 255 
 HEL  HZ I         825  4.76        18.2 0.34             81            272 255 
 GUY2CHZ EP        824 30.92                             112    0.29 7  301 234 
 GUY2CHZ I         828 25.13         3.5 3.56                           301 234 
 CBOC HZ EP        824 34.46                             110    0.59 7  333 252 
 CBOC HZ I         828 29.47         3.7 3.20             81            333 252 
 PRA  HZ EP        824 40.26                             106   -0.36 6  393 209 
 PRA  HN ES        825 22.00                             106   -0.43 6  393 209 
 PRA  HZ I         825 26.81        23.5 0.58             81            393 209 
 ORTC HZ EP        824 40.92                             106   -0.08 6  396 216 
 ORTC HN ES   1    825 23.18                             106    0.07 4  396 216 
 ORTC HZ I         825 31.51         8.9 1.92             81            396 216 
                                                                                
