 2015  215 0625 52.1 L   6.808 -73.146136.2  RSN 25 0.6 2.7LRSN                1
 GAP= 53        1.58       3.4     4.1  6.8 -0.2471E+01  0.8366E+01  0.4416E+01E
 Epicentro: LOS SANTOS - SANTANDER                                             3
 ACTION:UPD 15-04-30 21:26 OP:nd   STATUS:               ID:20150215062552 L   I
 OLDACT:REG 15-02-15 12:51 OP:stll STATUS:               ID:20150215061735     3
 2015-02-15-0617-35M.COL___293                                                 6
 STAT SP IPHASW D HRMM SECON CODA AMPLIT PERI AZIMU VELO AIN AR TRES W  DIS CAZ7
 BAR2 EZ IP     C  626 10.92                             169    0.3210 24.2 189 
 BAR2 EZ I         626 11.41       119.1 0.16            168           24.2 189 
 BAR2 EZ ES        626 24.86                             169   -0.1710 24.2 189 
 BRR  HZ IP     C  626 12.79                             151    0.6010 70.7 298 
 BRR  HZ I         626 13.04        83.1 0.26            145           70.7 298 
 BRR  HE ES        626 28.64                             151    0.7810 70.7 298 
 PAM  SZ IP     C  626 13.82                             149    0.5510 76.7  40 
 PAM  SN ES        626 30.38                             149    0.6110 76.7  40 
 PAM  SZ I         626 32.80       136.8 0.48            149           76.7  40 
 RUS  HZ IP     C  626 14.74                             141   -0.2510  102 176 
 RUS  HN ES        626 32.19                             141   -0.6610  102 176 
 RUS  HZ I         626 34.14        54.5 0.24            140            102 176 
 PTB  HZ EP        626 17.46                             129   -0.85 9  148 258 
 PTB  HE ES        626 38.79                             129    0.03 9  148 258 
 PTB  HZ I         626 45.86        38.0 0.44            125            148 258 
 TAM  HZ IP     C  626 19.29                             128    0.22 9  155 105 
 TAM  HZ I         626 19.38        64.3 0.18            128            155 105 
 TAM  HE ES        626 40.23                             128    0.13 9  155 105 
 OCA  HZ EP        626 19.18                             127   -0.42 9  159 353 
 OCA  HE ES        626 40.75                             127   -0.29 9  159 353 
 OCA  HZ I         626 43.00        57.9 0.18            124            159 353 
 SPBC HZ IP     C  626 19.85                             126   -0.10 9  164 219 
 SPBC HN ES        626 41.13                             126   -0.54 9  164 219 
 SPBC HZ I         626 45.23        73.4 0.28            123            164 219 
 ZAR  HN ES        626 49.15                             120    0.45 9  204 292 
 NOR  HZ EP        626 27.17                             116   -0.17 8  235 234 
 NOR  HE ES        626 54.67                             116   -0.16 8  235 234 
 NOR  HZ I         627  0.75        30.4 0.16            113            235 234 
 SML  HZ EP        626 27.30                             115   -0.81 8  243 335 
 SML  HN ES        626 54.79                             115   -1.41 8  243 335 
 SML  HZ I         627  3.09        46.6 0.26            112            243 335 
 CHI  HZ EP        626 29.25                             115   -0.13 8  250 195 
 CHI  HE ES        626 57.80                             115   -0.66 8  250 195 
 CHI  HZ I         627  2.48        18.5 0.42            113            250 195 
 ROSC BZ EP        626 30.16                             114    0.36 8  254 211 
 ROSC BN ES        626 59.90                             114    0.70 8  254 211 
 ROSC BZ I         627  5.70        47.1 0.40            112            254 211 
 SOCV BZ IP   9 C  626 34.01                             110   -0.67 0  301  57 
 SOCV BN ES        627  4.57                                   -2.65 7  301  57 
 GUY2CHZ EP        626 36.11                             110    0.77 7  302 235 
 GUY2CHE ES        627  9.65                             110    0.59 7  302 235 
 GUY2CHZ I         627 16.07        19.9 0.48                           302 235 
 PTGC HZ IP   9 C  626 34.23                             109   -1.42 0  310 159 
 PTGC HE ES        627  6.83                                   -1.37 7  310 159 
 PTGC HZ I         627  9.76        33.5 0.28            108            310 159 
 RREF HZ EP        626 39.09                             109    1.18 7  322 229 
 RREF HE ES        627 12.91                             109   -0.73 7  322 229 
 RREF HZ I         627 24.34        23.5 0.26            107            322 229 
 CBOC HZ EP        626 38.64                             108   -0.02 7  334 252 
 CBOC HN ES        627 14.29                             108   -0.69 7  334 252 
 CBOC HZ I         627 20.94         7.2 0.26            105            334 252 
 DBB  SZ EP        626 39.34                             108    0.15 7  339 274 
 DBB  SZ I         627 25.25        49.0 0.32            105            339 274 
 TOL  SZ EP        626 40.59                             107    0.53 7  344 225 
 TOL  SN ES        627 17.33                             107   -0.13 7  344 225 
 ANIL HZ EP        626 42.36                             107    0.74 6  358 224 
 ANIL HN ES        627 20.45                             107    0.20 6  358 224 
 ANIL HZ I         627 26.78         6.3 0.36            104            358 224 
 SDV  BZ EP   9    626 39.81                             106   -1.92 0  360  50 
 SDV  BN ES        627 17.26                                   -1.26 6  360  50 
 PRA  HZ EP     C  626 44.94                             105   -0.46 6  393 209 
 PRA  HE ES        627 26.18                             105   -0.79 6  393 209 
 PRA  HZ I         627 34.07        19.2 0.56            103            393 209 
 ORTC HZ EP        626 45.91                             105    0.12 6  396 216 
 ORTC HE ES        627 27.95                             105    0.28 6  396 216 
 ORTC HZ I         627 34.08        15.3 0.34            103            396 216 
 CRJC HZ EP   9    626 51.57                             102   -2.67 0  467   4 
 CRJC HN ES        627 37.92                                   -2.12 5  467   4 
                                                                                
