 2013  415 0042 23.2 L   6.822 -73.135153.1  RSN 12 0.5 2.0LRSN                1
 GAP=137        0.90       2.9     5.3  6.7 -0.2840E+01  0.1410E+01 -0.4845E+00E
 Epicentro: LOS SANTOS - SANTANDER                                             3
 ACTION:UPD 13-05-22 14:38 OP:EP   STATUS:               ID:20130415004223 L   I
 2013-04-15-0040-00M.COL___244                                                 6
 STAT SP IPHASW D HRMM SECON CODA AMPLIT PERI AZIMU VELO AIN AR TRES W  DIS CAZ7
 BRR  HZ IP     C  042 45.65                             154    0.5310 71.1 296 
 BRR  HN ES   1    043  2.79                             154    0.55 7 71.1 296 
 BRR  HZ I         043  4.83        10.8 0.20            156           71.1 296 
 PAM  SZ EP        042 46.54                             153    0.5010 74.8  40 
 PAM  SZ I         043  5.93         7.8 0.20            153           74.8  40 
 RUS  HZ EP        042 47.72                             145   -0.1110  103 177 
 RUS  HN ES   1    043  6.25                             145   -0.80 7  103 177 
 RUS  HZ I         043  7.71         9.6 0.32            146            103 177 
 PTB  HZ EP   1    042 50.48                             133   -0.42 7  149 258 
 PTB  HN ES   2    043 11.66                             133   -0.86 5  149 258 
 PTB  HZ I         043 19.06        20.6 0.58            136            149 258 
 OCA  HZ EP        042 51.80                             132   -0.06 9  158 353 
 OCA  HN ES   1    043 14.08                             132   -0.16 7  158 353 
 OCA  HZ I         043 20.31        16.7 0.36            133            158 353 
 NOR  HZ EP        042 59.78                             120    0.18 8  237 234 
 NOR  HN ES   1    043 27.68                             120   -0.32 6  237 234 
 NOR  HZ I         043 31.61        10.0 0.28            122            237 234 
 SML  HZ EP        042 59.34                             119   -0.70 8  242 335 
 SML  HN ES   1    043 28.96                             119    0.16 6  242 335 
 SML  HZ I         043 31.98        11.9 0.10            121            242 335 
 CHI  HZ EP        043  1.97                             118    0.39 8  251 195 
 CHI  HN ES   1    043 31.41                             118   -0.13 6  251 195 
 CHI  HZ I         043 41.01         6.4 0.34            120            251 195 
 HEL  HZ EP   2    043  5.35                             116    1.38 4  274 255 
 HEL  HN ES   1    043 36.02                             116    0.24 6  274 255 
 HEL  HZ I         043 43.08         7.4 0.35            118            274 255 
 COD  HZ EP        043 11.58                             110   -0.01 6  346 354 
 COD  HN ES   2    043 48.41                             110   -0.94 3  346 354 
 COD  HZ I         043 55.11         1.8 0.12            111            346 354 
 PRA  HZ EP        043 17.28                             108    0.00 6  395 210 
 PRA  HN ES   1    043 59.30                             108   -0.17 4  395 210 
 PRA  HZ I         044  6.20         4.6 0.30            109            395 210 
 SJC  HZ EP        043 18.16                             107   -0.67 6  408 327 
 SJC  HN ES   4    044  0.38                             107   -1.85 0  408 327 
 SJC  HZ I         044  5.05         3.1 0.38            108            408 327 
                                                                                
