 2010  515 0719 46.6 L   6.795 -72.936138.1  RSN  6 0.4 1.2LRSN                1
 GAP=181        1.01       6.3    13.5 14.2 -0.1606E+02 -0.6810E+02 -0.1433E+02E
 Epicentro: CEPITA - SANTANDER                                                 3
 ACTION:UP  10-08-24 10:05 OP:vdl  STATUS:               ID:20100515071946 L   I
 2010-05-15-0718-33S.COL___108                                                 6
 STAT SP IPHASW D HRMM SECON CODA AMPLIT PERI AZIMU VELO AIN AR TRES W  DIS CAZ7
 BAR2 SZ EP        720  5.53                             165    -0.110   35 231 
 BAR2 SZ ES   2    720 20.48                             165     0.0 5   35 231 
 BRR  HZ EP        720  8.25                             145    -0.110   92 292 
 BRR  HZ I         720  8.55         4.3 0.17                            92 292 
 BRR  HN ES   2    720 25.40                             145     0.1 5   92 292 
 RUS  HZ EP        720  9.73                             142     0.110  101 189 
 RUS  HE ES   2    720 27.65                             142     0.0 5  101 189 
 RUS  HZ I         720 29.50         1.8 0.31                           101 189 
 BRI  SZ EP        720 10.19                             141     0.810  103   9 
 GUE  SZ EP   2    720 10.73                             138     0.3 5  114   1 
 GRA  SZ EP        720 10.12                             136    -0.710  121   7 
 GRA  SZ ES   2    720 29.44                             136    -0.3 5  121   7 
                                                                                
