 2017  415 0832 40.1 L   6.809 -73.143148.0  RSN 11 0.6 1.9LRSN                1
 GAP=112        1.29       4.9     4.8  7.2 -0.1549E+01  0.5118E+01 -0.1989E+00E
 Epicentro: LOS SANTOS - SANTANDER                                             3
 ACTION:UPD 17-05-30 21:12 OP:jn   STATUS:               ID:20170415083240 L   I
 OLDACT:UP  17-04-15 18:38 OP:edw  STATUS:               ID:20170415082651     3
 OLDACT:UP  17-04-15 18:36 OP:edw  STATUS:               ID:20170415082651     3
 OLDACT:REG 17-04-15 13:21 OP:edw  STATUS:               ID:20170415082651     3
 2017-04-15-0828-00M.COL___368                                                 6
 STAT SP IPHASW D HRMM SECON CODA AMPLIT PERI AZIMU VELO AIN AR TRES W  DIS CAZ7
 BAR2 EZ EP        833  0.09                             170    0.0810 24.3 190 
 BAR2 EZ ES        833 14.60                             170   -0.9510 24.3 190 
 BRR  HZ EP        833  1.81                             153    0.3410 71.0 298 
 BRR  HE ES        833 18.87                             153    0.7210 71.0 298 
 BRR  HZ I         833 22.56        15.9 0.30            150           71.0 298 
 PAM  EZ EP     D  833  2.95                             151    0.4610 76.5  40 
 PAM  EN ES        833 19.67                             151   -0.2910 76.5  40 
 PAM  EZ I         833 21.84        12.7 0.50            154           76.5  40 
 RUS  HZ EP        833  4.24                             144    0.1110  102 176 
 RUS  HN ES        833 22.74                             144   -0.1410  102 176 
 RUS  HZ I         833 24.16         4.7 0.20            146            102 176 
 PTB  HZ EP   9    833  6.93                             132   -0.35 0  148 258 
 PTB  HN ES        833 27.82                             133   -0.32 9  148 258 
 PTB  HZ I         833 30.26        13.6 0.14            132            148 258 
 SPBC HZ EP   4    833 10.37                             129    1.52 0  164 219 
 SPBC HN ES        833 31.34                             129    0.06 9  164 219 
 SPBC HZ I         833 37.61        10.6 0.50            130            164 219 
 YPLC HZ EP        833 10.66                             127    0.54 9  178 152 
 YPLC HN ES   4    833 35.59                             127    2.06 0  178 152 
 ZAR  HZ EP        833 11.71                             123   -0.96 9  204 292 
 ZAR  HN ES        833 38.56                             123    0.47 9  204 292 
 ZAR  HZ I         833 47.34         9.3 0.28            123            204 292 
 NOR  HN ES        833 44.05                             119   -0.02 8  235 234 
 PTGC HE ES   4    833 56.07                             112   -2.42 0  309 159 
 CBOC HZ EP   4    833 28.03                             110    0.87 0  334 252 
 CBOC HE ES        834  3.81                             110   -0.07 7  334 252 
 SJC  HZ EP        833 34.30                             106   -1.35 6  409 327 
 SJC  HN ES   4    834 15.58                             106   -3.41 0  409 327 
                                                                                
