 2010  715 0025 48.5 L   6.848 -73.024144.8  RSN  6 0.3 1.8LRSN                1
 GAP=172        0.54       3.7     6.5  5.6 -0.4969E+01 -0.7681E+01 -0.2527E+01E
 Epicentro: CEPITA - SANTANDER                                                 3
 ACTION:UPD 10-12-01 15:17 OP:pat  STATUS:               ID:20100715002548 L   I
 2010-07-15-0021-39S.COL___120                                                 6
 STAT SP IPHASW D HRMM SECON CODA AMPLIT PERI AZIMU VELO AIN AR TRES W  DIS CAZ7
 BAR2 SZ EP   1    026  8.14                             167    -0.1 7   33 212 
 BAR2 SZ ES   1    026 24.12                             167     0.4 7   33 212 
 BAR2 SZ I         026 24.75         8.5 0.30                            33 212 
 BRR  HZ IP     C  026 10.12                             150     0.010   81 291 
 BRR  HZ I         026 10.33        17.2 0.15                            81 291 
 BRR  HE ES   1    026 26.92                             150    -0.1 7   81 291 
 RUS  HZ EP   2    026 12.46                             142    -0.1 5  106 184 
 RUS  HN ES   2    026 30.78                             142    -0.5 5  106 184 
 GRA  SZ IP        026 13.05                             139     0.110  117  12 
 GRA  SZ I         026 14.17         6.5 0.32                           117  12 
 GRA  SZ ES   2    026 32.26                             139     0.2 5  117  12 
 OCA  SZ EP   2    026 16.10                             130    -0.4 5  157 348 
 OCA  SZ I         026 50.38         7.3 0.53                           157 348 
 PRA  HZ EP   2    026 43.61                             106     0.3 3  403 211 
 PRA  HN ES   2    027 26.55                             106     0.5 3  403 211 
 PRA  HZ I         027 27.97         2.7 0.32                           403 211 
                                                                                
