 2013  715 0309 10.8 L   6.597 -73.441116.2  RSN 22 0.5 2.8LRSN                1
 GAP= 49        1.33       2.6     3.5  5.6 -0.6435E+00  0.5888E+01  0.2791E+01E
 Epicentro: EL CARMEN DE CHUCURI - SANTANDER                                   3
 ACTION:UPD 13-08-12 10:37 OP:ep   STATUS:               ID:20130715030910 L   I
 OLDACT:REG 13-07-15 14:24 OP:nd   STATUS:               ID:20130715030847     3
 2013-07-15-0308-47M.COL___226                                                 6
 STAT SP IPHASW D HRMM SECON CODA AMPLIT PERI AZIMU VELO AIN AR TRES W  DIS CAZ7
 BAR2 SZ IP     C  3 9 27.28                             165    0.2510 28.6  91 
 BAR2 SZ ES        3 9 39.74                             165    0.0510 28.6  91 
 BAR2 SZ I         3 9 41.92       335.5 0.36            167           28.6  91 
 GIR2 SZ EP        3 9 28.60                             151    0.2910 59.8  27 
 GIR2 SZ ES        3 9 42.30                             151    0.3210 59.8  27 
 GIR2 SZ I         3 9 43.46       240.9 0.12            150           59.8  27 
 BRR  HZ IP     D  3 9 28.53                             149    0.1810 63.9 332 
 BRR  HN ES        3 9 42.90                             149    0.8510 63.9 332 
 BRR  HZ I         3 9 43.71       106.0 0.14            147           63.9 332 
 RUS  HZ IP     D  3 9 30.56                             141   -0.1410 87.4 153 
 RUS  HN ES        3 9 46.10                             141   -0.1410 87.4 153 
 RUS  HZ I         3 9 47.74       132.6 0.30            140           87.4 153 
 PTB  HZ IP     D  3 9 31.05                             133   -1.1010  113 267 
 PTB  HN ES        3 9 47.16                             133   -1.6510  113 267 
 PTB  HZ I         3 9 50.98       161.9 0.12            130            113 267 
 PAM  SZ EP        3 9 33.18                             132    0.0810  116  45 
 PAM  SN ES        3 9 50.65                             132    0.1410  116  45 
 PAM  SZ I         3 9 53.44        80.6 0.26            131            116  45 
 SPBC HZ IP     D  3 9 33.15                             129   -0.3210  126 214 
 SPBC HN ES        3 9 51.07                             129   -0.0910  126 214 
 YOP  SZ IP     C  3 9 38.99                             119    0.20 9  178 141 
 YOP  SN ES        310  0.36                             119   -0.26 9  178 141 
 YOP  SZ I         310  2.64       294.4 0.22            118            178 141 
 OCA  HZ EP        3 9 39.29                             118    0.00 9  182   4 
 OCA  HN ES        310  0.59                             118   -0.92 9  182   4 
 OCA  HZ I         310  7.51        60.7 0.36            117            182   4 
 ZAR  HZ EP        3 9 39.63                             118    0.19 9  185 302 
 ZAR  HE ES   2    310  1.98                             118    0.19 4  185 302 
 ZAR  HZ I         310  7.35       118.8 0.36            116            185 302 
 NOR  HZ EP        3 9 40.12                             116   -0.46 9  195 234 
 NOR  HN ES        310  4.41                             116    0.60 9  195 234 
 NOR  HZ I         310  8.36       122.3 0.18            115            195 234 
 ROSC BZ EP     D  3 9 44.32                             114    0.85 8  217 207 
 ROSC BN ES   4    310 12.60                             114    3.64 0  217 207 
 CHI  HZ EP        3 9 43.68                             113   -0.11 8  220 188 
 CHI  HN ES        310  9.83                             113    0.30 8  220 188 
 CHI  HZ I         310 19.10        24.5 0.40            112            220 188 
 HEL  HZ EP        3 9 45.69                             112    0.22 8  235 259 
 HEL  HN ES        310 13.76                             112    1.25 8  235 259 
 HEL  HZ I         310 18.24        55.8 0.22            110            235 259 
 SML  HZ EP        3 9 47.12                             110    0.06 8  253 344 
 SML  HN ES        310 15.65                             110    0.30 8  253 344 
 SML  HZ I         310 21.52        72.4 0.36            108            253 344 
 GUY2CHZ EP        3 9 49.04                             109    0.43 8  262 235 
 GUY2CHN ES   4    310 20.64                             109    2.54 0  262 235 
 GUY2CHZ I         310 26.14        44.8 0.42                           262 235 
 VIL  SZ EP        3 9 49.08                             108   -0.79 7  276 186 
 VIL  SN ES        310 20.35                             108    0.00 7  276 186 
 VIL  SZ I         310 28.85        64.9 0.38            107            276 186 
 DBB  SZ EP        3 9 53.47                             105   -0.24 7  310 279 
 DBB  SZ ES   4    310 24.05                             105   -3.13 0  310 279 
 DBB  SZ I         310 32.82        25.8 0.74            104            310 279 
 PRA  HZ EP        3 9 59.28                             103    0.03 6  357 207 
 PRA  HN ES        310 37.08                             103    0.03 6  357 207 
 PRA  HZ I         310 44.35        31.3 0.28            101            357 207 
 ORTC HZ EP        3 9 59.52                             102    0.09 6  358 214 
 ORTC HN ES   4    310 39.23                             102    1.87 0  358 214 
 ORTC HZ I         310 44.33        29.1 0.76            101            358 214 
 COD  HZ EP   4    310  0.80                             102    0.14 0  369 360 
 COD  HN ES   4    310 40.36                             102    0.81 0  369 360 
 COD  HZ I         310 51.81        10.5 0.38            101            369 360 
 MACC HZ EP   4    310 14.39                              97   -1.36 0  494 185 
 MACC HN ES   4    311  2.41                              97   -4.00 0  494 185 
 MACC HZ I         311 14.10         5.2 0.38             96            494 185 
                                                                                
