 2015  415 0417 10.8 L   6.812 -73.130148.0  RSN 11 0.5 1.9LRSN                1
 GAP=138        1.26       4.3     4.9  7.3 -0.4329E+01  0.1179E+02  0.4860E+01E
 Epicentro: LOS SANTOS - SANTANDER                                             3
 ACTION:UPD 15-06-03 16:54 OP:cam  STATUS:               ID:20150415041710 L   I
 OLDACT:UP  15-04-15 14:22 OP:carl STATUS:               ID:20150415040749d    3
 OLDACT:DUP 15-04-15 14:19 OP:carl STATUS:               ID:20150415040749d    3
 2015-04-15-0407-47M.COL___281                                                 6
 STAT SP IPHASW D HRMM SECON CODA AMPLIT PERI AZIMU VELO AIN AR TRES W  DIS CAZ7
 BAR2 EZ IP     C  417 30.69                             170   -0.0610 25.0 193 
 BAR2 EZ ES        417 46.88                             170    0.5810 25.0 193 
 BAR2 EZ I         417 48.67        11.8 0.30            168           25.0 193 
 BRR  HZ IP     C  417 32.47                             153    0.2110 72.1 297 
 BRR  HN ES        417 49.56                             153    0.5810 72.1 297 
 BRR  HZ I         417 54.24        12.6 0.46            151           72.1 297 
 PAM  SZ EP        417 33.45                             152    0.3110 75.2  39 
 PAM  SN ES        417 50.60                             152    0.0410 75.2  39 
 PAM  SZ I         417 52.59        19.1 0.54            158           75.2  39 
 RUS  HZ EP        417 34.72                             144   -0.1610  102 177 
 RUS  HN ES        417 53.58                             144   -0.0610  102 177 
 RUS  HZ I         417 55.65         4.1 0.28            147            102 177 
 PTB  HZ EP        417 37.36                             132   -0.78 9  150 258 
 PTB  HN ES        417 58.51                             132   -0.95 9  150 258 
 PTB  HZ I         418  6.17        13.4 0.32            133            150 258 
 OCA  HN ES        418  0.62                             130   -0.71 9  159 352 
 SPBC HZ EP        417 39.02                             129   -0.67 9  165 219 
 SPBC HN ES        418  1.67                             129   -0.54 9  165 219 
 SPBC HZ I         418  8.12        15.6 0.34            131            165 219 
 ZAR  HE ES        418  9.17                             123    0.14 9  205 292 
 ZAR  HZ I         418 14.07        12.2 0.34            125            205 292 
 NOR  HZ EP        417 47.29                             119    0.38 8  237 234 
 NOR  HN ES        418 14.88                             119   -0.18 8  237 234 
 NOR  HZ I         418 17.97         9.5 0.20            121            237 234 
 HEL  HZ EP        417 51.85                             115    0.49 8  274 256 
 HEL  HE ES        418 23.84                             115    0.85 8  274 256 
 HEL  HZ I         418 30.45         4.1 0.60            117            274 256 
 GUY2CHZ EP        417 55.34                             113    0.57 7  303 235 
 GUY2CHN ES        418 29.77                             113    0.71 7  303 235 
 GUY2CHZ I         418 37.32         5.6 0.40                           303 235 
                                                                                
