 2017  215 0127 44.8 L   7.022 -72.868178.7  RSN  4 0.1 1.6LRSN                1
 GAP=163        0.34       3.0     3.1  4.7  0.4957E+01 -0.6486E+01 -0.5259E+01E
 Epicentro: SANTA BARBARA - SANTANDER                                          3
 ACTION:UPD 17-05-24 15:36 OP:jn   STATUS:               ID:20170215012744 L   I
 OLDACT:REG 17-02-15 12:34 OP:dani STATUS:               ID:20170215011354     3
 2017-02-15-0118-00M.COL___367                                                 6
 STAT SP IPHASW D HRMM SECON CODA AMPLIT PERI AZIMU VELO AIN AR TRES W  DIS CAZ7
 PAM  EZ EP        128  9.13                             167    0.0410 39.7  28 
 BRR  HZ EP        128 10.79                             151    0.0410 93.8 276 
 BRR  HE ES        128 30.93                             151   -0.0810 93.8 276 
 BRR  HZ I         128 34.98         5.4 0.13            154           93.8 276 
 RUS  HZ EP        128 13.55                             143   -0.1210  127 191 
 RUS  HE ES        128 36.29                             143    0.0810  127 191 
 RUS  HZ I         128 37.07         4.4 0.25            148            127 191 
 ZAR  HN ES        128 50.50                             126    0.05 8  226 283 
                                                                                
