 2017  515 0500 30.0 L   6.744 -73.164150.0  RSN  4 0.3 1.6LRSN                1
 GAP=223        0.78       9.9     4.4  7.3 -0.2048E+02  0.4922E+00  0.2368E+02E
 Epicentro: LOS SANTOS - SANTANDER                                             3
 ACTION:UPD 17-06-16 13:36 OP:jn   STATUS:               ID:20170515050030 L   I
 OLDACT:UP  17-05-15 14:14 OP:dnl  STATUS:               ID:20170515045640     3
 OLDACT:REG 17-05-15 12:33 OP:dnl  STATUS:               ID:20170515045640     3
 2017-05-15-0457-00M.COL___359                                                 6
 STAT SP IPHASW D HRMM SECON CODA AMPLIT PERI AZIMU VELO AIN AR TRES W  DIS CAZ7
 BRR  HZ EP        5 0 51.94                             153    0.2610 72.7 304 
 BRR  HN ES        5 1  9.12                             153    0.5310 72.7 304 
 BRR  HZ I         5 1 13.92         5.3 0.14            154           72.7 304 
 PAM  EZ EP        5 0 53.10                             150    0.0810 83.5  38 
 PAM  EE ES        5 1 10.58                             150   -0.4010 83.5  38 
 PAM  EZ I         5 1 12.32        10.0 0.48            157           83.5  38 
 PTB  HZ EP        5 0 57.04                             134    0.01 9  145 261 
 PTB  HN ES        5 1 17.80                             134   -0.32 9  145 261 
 PTB  HZ I         5 1 24.92         4.0 0.32            136            145 261 
 ZAR  HZ EP        5 1  2.78                             123    0.01 9  205 294 
 ZAR  HN ES        5 1 28.06                             123   -0.28 9  205 294 
 ZAR  HZ I         5 1 32.16         3.1 0.26            127            205 294 
                                                                                
