 2016 1215 0902 41.7 L   6.777 -73.146145.9  RSN  4 0.3 1.3LRSN                1
 GAP=153        0.87       8.4     4.9  7.5  0.2807E+01  0.7062E+01 -0.6465E+01E
 Epicentro: LOS SANTOS - SANTANDER                                             3
 ACTION:UPD 17-01-11 20:15 OP:rebc STATUS:               ID:20161215090241 L   I
 OLDACT:UP  16-12-15 19:11 OP:ar   STATUS:               ID:20161215085742     3
 OLDACT:REG 16-12-15 12:48 OP:and  STATUS:               ID:20161215085742     3
 2016-12-15-0858-00M.COL___369                                                 6
 STAT SP IPHASW D HRMM SECON CODA AMPLIT PERI AZIMU VELO AIN AR TRES W  DIS CAZ7
 BAR2 EZ EP        9 3  1.35                             171    0.0310 20.8 191 
 BAR2 EZ ES        9 3 16.30                             171   -0.3010 20.8 191 
 BAR2 EZ I         9 3 17.77         3.8 0.34            173           20.8 191 
 BRR  HZ EP        9 3  3.08                             152    0.1310 72.4 300 
 BRR  HE ES        9 3 20.12                             152    0.6110 72.4 300 
 BRR  HZ I         9 3 20.56         6.8 0.42            149           72.4 300 
 PAM  EZ EP        9 3  4.31                             150    0.2410 79.4  38 
 PAM  EN ES        9 3 21.21                             150   -0.2910 79.4  38 
 PAM  EZ I         9 3 23.34         3.5 0.54            150           79.4  38 
 ZAR  HZ EP   2    9 3 14.10                             122   -0.17 4  205 293 
 ZAR  HN ES        9 3 39.12                             122   -0.53 9  205 293 
 ZAR  HZ I         9 3 45.96         1.6 0.34            121            205 293 
                                                                                
