 2015 1015 0442 55.4 L   6.788 -73.130145.8  RSN 10 0.4 1.6LRSN                1
 GAP=139        0.94       2.8     4.3  5.5 -0.1833E+01  0.8190E+01  0.1631E+00E
 Epicentro: LOS SANTOS - SANTANDER                                             3
 ACTION:UPD 15-12-22 20:40 OP:cam  STATUS:               ID:20151015044255 L   I
 OLDACT:REG 15-10-15 14:19 OP:ak   STATUS:               ID:20151015043738     3
 2015-10-15-0437-38M.COL___340                                                 6
 STAT SP IPHASW D HRMM SECON CODA AMPLIT PERI AZIMU VELO AIN AR TRES W  DIS CAZ7
 BAR2 EZ EP        443 15.16                             171    0.1910 22.5 195 
 BAR2 EZ ES        443 30.37                             171    0.1110 22.5 195 
 BAR2 EZ I         443 33.08         4.3 0.23            169           22.5 195 
 BRR  HZ EP     D  443 17.04                             152    0.4110 73.3 299 
 BRR  HN ES        443 33.70                             152    0.4810 73.3 299 
 BRR  HZ I         443 38.15         5.0 0.16            148           73.3 299 
 PAM  EZ EP        443 17.96                             151    0.3910 77.3  38 
 PAM  EN ES        443 34.41                             151   -0.4810 77.3  38 
 RUS  HZ EP        443 18.86                             144   -0.1510 99.2 177 
 RUS  HN ES        443 36.98                             144   -0.4810 99.2 177 
 RUS  HZ I         443 38.61         3.4 0.44            148           99.2 177 
 OCA  HZ EP        443 24.30                             129    0.49 9  162 353 
 OCA  HN ES        443 45.42                             129   -0.57 9  162 353 
 OCA  HZ I         443 49.18        13.4 0.20            130            162 353 
 SPBC HZ EP        443 24.15                             129    0.28 9  163 220 
 SPBC HN ES        443 45.96                             129   -0.14 9  163 220 
 ZAR  HZ EP   1    443 27.78                             122   -0.24 6  206 292 
 ZAR  HN ES        443 53.51                             122    0.02 8  206 292 
 ZAR  HZ I         443 59.71         5.7 0.23            122            206 292 
 CHI  HN ES        444  2.56                             117    0.25 8  248 196 
 URE  HZ EP        443 35.82                             113   -0.84 7  286 292 
 URE  HN ES   4    444  6.09                             113   -2.79 0  286 292 
 URE  HZ I         444 19.24         2.8 0.39            114            286 292 
 GUY2CHZ EP        443 38.87                             112   -0.17 7  302 235 
 GUY2CHN ES        444 12.98                             112   -0.14 7  302 235 
 GUY2CHZ I         444 21.85         1.7 0.54                           302 235 
 SJC  HZ EP   4    443 49.53                             105   -1.63 0  411 327 
 SJC  HN ES   4    444 31.00                             105   -3.68 0  411 327 
                                                                                
