 2016  915 0052  0.4 L   6.812 -73.130143.2  RSN 10 0.4 2.0LRSN                1
 GAP=138        0.92       3.7     4.0  5.5 -0.5448E+00  0.9022E+01  0.3638E+01E
 Epicentro: LOS SANTOS - SANTANDER                                             3
 ACTION:UPD 17-08-17 21:12 OP:lp   STATUS:               ID:20160915005200 L   I
 OLDACT:DUP 16-09-15 21:02 OP:lv   STATUS:               ID:20160915004737d    3
 2016-09-15-0048-00M.COL___330                                                 6
 STAT SP IPHASW D HRMM SECON CODA AMPLIT PERI AZIMU VELO AIN AR TRES W  DIS CAZ7
 BAR2 EZ IP     C  052 19.70                             170   -0.0710 25.0 193 
 BAR2 EZ ES        052 34.39                             170   -0.4810 25.0 193 
 BAR2 EZ I         052 36.03        26.8 0.16            169           25.0 193 
 BRR  HZ EP        052 21.53                             152    0.1910 72.1 297 
 BRR  HN ES        052 38.25                             152    0.6010 72.1 297 
 BRR  HZ I         052 42.18        17.3 0.14            151           72.1 297 
 PAM  EN ES        052 39.32                             151    0.0810 75.3  39 
 PAM  EZ I         052 41.49        23.0 0.50            156           75.3  39 
 RUS  HZ EP        052 23.77                             143   -0.2310  102 177 
 RUS  HN ES        052 42.63                             143    0.2310  102 177 
 RUS  HZ I         052 43.57         8.1 0.30            146            102 177 
 PTB  HZ EP        052 26.70                             131   -0.65 9  150 258 
 PTB  HN ES        052 47.99                             131   -0.37 9  150 258 
 PTB  HZ I         052 51.08        10.8 0.16            132            150 258 
 SPBC HZ IP     D  052 28.79                             128   -0.13 9  165 219 
 SPBC HE ES        052 51.53                             128    0.38 9  165 219 
 SPBC HZ I         052 56.79        14.8 0.14            130            165 219 
 ZAR  HZ EP        052 32.87                             122    0.06 9  205 292 
 ZAR  HN ES        052 57.88                             122   -0.19 9  205 292 
 ZAR  HZ I         053  3.61         7.6 0.13            123            205 292 
 NOR  HZ EP        052 36.26                             118    0.03 8  237 234 
 NOR  HN ES        053  3.88                             118   -0.28 8  237 234 
 NOR  HZ I         053  9.88         7.7 0.22            119            237 234 
 GUY2CHZ EP        052 45.06                             112    0.91 7  303 235 
 GUY2CHN ES        053 18.56                             112    0.30 7  303 235 
 SJC  HZ EP   4    052 54.18                             105   -1.69 0  409 327 
 SJC  HN ES   4    053 37.54                             105   -1.59 0  409 327 
 SJC  HZ I         053 39.67         3.5 0.61            107            409 327 
                                                                                
