 2012 1215 0319  3.6 L   6.787 -73.377121.5  RSN  5 0.3 1.1LRSN                1
 GAP=103        0.70       5.8     5.6  8.3  0.1199E+02 -0.2831E+01  0.1790E+01E
 Epicentro: ZAPATOCA - SANTANDER                                               3
 ACTION:UPD 13-01-04 14:27 OP:ep   STATUS:               ID:20121215031903 L   I
 2012-12-15-0317-42M.COL___210                                                 6
 STAT SP IPHASW D HRMM SECON CODA AMPLIT PERI AZIMU VELO AIN AR TRES W  DIS CAZ7
 BAR2 SZ EP   1    319 20.62                             165    0.13 7 30.5 135 
 BAR2 SZ ES   1    319 33.19                             165   -0.50 7 30.5 135 
 BAR2 SZ I         319 34.90        10.0 0.24                          30.5 135 
 GIR2 SZ EP   1    319 20.22                             161   -0.40 7 38.1  32 
 GIR2 SZ I         319 35.27         3.8 0.24                          38.1  32 
 BRR  HZ EP   1    319 21.11                             156    0.12 7 51.2 314 
 BRR  HN ES   1    319 35.11                             156    0.53 7 51.2 314 
 BRR  HZ I         319 36.85         4.0 0.25                          51.2 314 
 RUS  HZ EP   1    319 25.40                             137    0.09 7  104 162 
 RUS  HN ES   1    319 42.60                             137    0.32 7  104 162 
 RUS  HZ I         319 45.10         1.0 0.39                           104 162 
 PTB  HN ES   1    319 43.65                             132   -0.31 7  122 257 
                                                                                
