 2011  715 0300 43.3 L   6.778 -73.101140.8  RSN 16 0.3 2.7LRSN                1
 GAP=143        0.49       1.9     3.0  3.0 -0.2429E+01  0.2284E+01  0.7435E+00E
 Epicentro: LOS SANTOS - SANTANDER                                             3
 ACTION:UPD 12-07-25 14:00 OP:epov STATUS:               ID:20110715025800 L   I
 2011-07-15-0258-00S.COL___132                                                 6
 STAT SP IPHASW D HRMM SECON CODA AMPLIT PERI AZIMU VELO AIN AR TRES W  DIS CAZ7
 BAR2 SZ IP        3 1  2.27                             170    0.0010 22.4 204 
 BAR2 SZ ES   1    3 1 16.96                             170   -0.14 7 22.4 204 
 BAR2 SZ I         3 1 18.32       121.3 0.31                          22.4 204 
 GIR2 SZ EP   1    3 1  2.78                             165    0.34 7 34.8 343 
 GIR2 SZ ES   1    3 1 17.27                             165   -0.13 7 34.8 343 
 PAM  SZ EP   1    3 1  5.05                             150    0.17 7 76.3  36 
 PAM  SN ES   1    3 1 21.86                             150    0.12 7 76.3  36 
 BRR  HZ EP   1    3 1  4.04                             150   -0.16 7 76.7 298 
 BRR  HE ES   1    3 1 20.98                             150    0.45 7 76.7 298 
 BRR  HZ I         3 1 25.22       115.7 0.26                          76.7 298 
 RUS  HZ EP   1    3 1  6.30                             143   -0.03 7 98.0 179 
 RUS  HN ES   1    3 1 24.31                             143   -0.02 7 98.0 179 
 RUS  HZ I         3 1 26.80        65.0 0.31                          98.0 179 
 BRI  SZ EP   1    3 1  6.70                             140   -0.03 7  109  18 
 BRI  SZ ES   2    3 1 25.00                             140   -0.03 5  109  18 
 BRI  SZ I         3 1 30.30        86.6 0.40                           109  18 
 GRA  SZ EP        3 1  7.98                             136   -0.1610  127  15 
 GRA  SZ ES   2    3 1 27.37                             136   -0.18 5  127  15 
 GRA  SZ I         3 1 29.91        73.2 0.32                           127  15 
 OCA  SZ EP   1    3 1 11.52                             128    0.04 7  163 352 
 OCA  SZ ES   1    3 1 33.27                             128   -0.22 7  163 352 
 OCA  SZ I         3 1 35.85        68.8 0.23                           163 352 
 NOR  SZ EP   1    3 1 18.64                             117   -0.35 6  237 236 
 NOR  SE ES   1    3 1 46.41                             117   -0.45 6  237 236 
 CHI  HZ EP   1    3 1 20.31                             116   -0.27 6  248 196 
 CHI  HZ I         3 1 53.29        14.2 0.32                           248 196 
 HEL  HZ EP   1    3 1 24.55                             113    0.86 6  276 257 
 VIL  SN ES   1    3 2  0.06                             111    0.19 5  302 193 
 VIL  SZ I         3 2  9.29        18.7 0.34                           302 193 
 GUY  SE ES   1    3 2  1.26                             111   -0.23 5  306 236 
 GUY  SZ I         3 2  9.70        38.7 0.37                           306 236 
 DBB  SZ EP   1    3 1 30.84                             108   -0.29 5  345 275 
 TOL  SZ EP   1    3 1 31.89                             108    0.37 5  345 226 
 PRA  HZ EP   1    3 1 36.91                             106    0.26 4  392 210 
 PRA  HN ES   1    3 2 18.43                             106    0.13 4  392 210 
                                                                                
