 2017 1115 0331 11.3 L   6.784 -73.092152.3  RSN  7 0.4 1.6LRSN                1
 GAP=242        1.05       5.9     6.4  7.1  0.1555E+02  0.5823E+01 -0.2708E+01E
 Epicentro: LOS SANTOS - SANTANDER                                             3
 ACTION:UPD 17-12-12 19:55 OP:rebc STATUS:               ID:20171115033112dL   I
 OLDACT:UP  17-11-15 16:45 OP:leo  STATUS:               ID:20171115032737     3
 OLDACT:REG 17-11-15 13:41 OP:leo  STATUS:               ID:20171115032737     3
 2017-11-15-0328-00M.COL___453                                                 6
 STAT SP IPHASW D HRMM SECON CODA AMPLIT PERI AZIMU VELO AIN AR TRES W  DIS CAZ7
 BAR2 EZ EP        331 31.78                             171    0.0510 23.4 205 
 BAR2 EZ ES        331 47.05                             171   -0.6110 23.4 205 
 BAR2 EZ I         331 48.36         7.6 0.24            164           23.4 205 
 BRR  HZ EP        331 33.72                             152    0.2110 77.2 298 
 BRR  HN ES        331 51.16                             152    0.3310 77.2 298 
 BRR  HZ I         331 53.89         5.1 0.36            150           77.2 298 
 RUS  HZ EP        331 35.58                             146    0.0110 98.6 179 
 RUS  HN ES        331 54.88                             146    0.3810 98.6 179 
 RUS  HZ I         331 58.93         3.0 0.26            143           98.6 179 
 PTB  HZ EP        331 38.71                             132   -0.60 9  153 260 
 PTB  HN ES        332  0.49                             132   -0.66 9  153 260 
 PTB  HZ I         332  7.07         4.9 0.42            131            153 260 
 SPBC HZ EP        331 40.69                             130    0.14 9  166 221 
 SPBC HN ES        332  3.69                             130    0.34 9  166 221 
 SPBC HZ I         332  9.85         9.1 0.22            128            166 221 
 ZAR  HZ EP        331 44.61                             123   -0.21 8  210 292 
 ZAR  HN ES        332 11.60                             123    0.65 8  210 292 
 GUY2CHZ EP   4    331 57.88                             113    2.22 0  305 236 
 GUY2CHN ES   4    332 34.72                             113    4.47 0  305 236 
 GUY2CHZ I         332 38.96         2.6 0.32                           305 236 
                                                                                
