 2017 1115 0656 38.8 L   6.844 -73.156152.5  RSN 22 0.8 2.9LRSN                1
 GAP=109        1.69       4.2     4.7  7.1  0.2742E+01  0.8815E+01  0.4744E+01E
 Epicentro: LOS SANTOS - SANTANDER                                             3
 ACTION:UPD 17-12-12 19:55 OP:rebc STATUS:               ID:20171115065638 L   I
 OLDACT:REG 17-11-15 13:56 OP:leo  STATUS:               ID:20171115064742     3
 2017-11-15-0648-00M.COL___444                                                 6
 STAT SP IPHASW D HRMM SECON CODA AMPLIT PERI AZIMU VELO AIN AR TRES W  DIS CAZ7
 BAR2 EZ EP        656 59.30                             169   -0.0110 28.0 186 
 BAR2 HE ES        657 14.65                             169   -0.6810 28.0 186 
 BAR2 EZ I         657 15.52       328.4 0.26            167           28.0 186 
 BRR  HZ IP        657  1.04                             155    0.5610 68.0 295 
 BRR  HN ES        657 18.08                             155    0.6610 68.0 295 
 BRR  HZ I         657 21.40       111.5 0.28            151           68.0 295 
 PAM  EZ IP     C  657  2.15                             153    0.6110 74.4  43 
 PAM  EN ES        657 19.46                             153    0.1610 74.4  43 
 PAM  EZ I         657 21.44       207.7 0.48            154           74.4  43 
 RUS  HZ EP        657  3.26                             144   -0.2810  106 176 
 RUS  HN ES        657 22.38                             144   -0.4810  106 176 
 RUS  HZ I         657 23.11       189.7 0.24            142            106 176 
 PTB  HZ EP        657  5.81                             133   -0.48 9  148 257 
 PTB  HN ES        657 27.12                             133   -0.64 9  148 257 
 PTB  HZ I         657 29.17        60.3 0.40            130            148 257 
 SPBC HZ EP        657  8.12                             130    0.03 9  166 218 
 SPBC HN ES        657 31.57                             130    0.61 9  166 218 
 SPBC HZ I         657 36.14       111.0 0.16            127            166 218 
 YPLC HZ IP     C  657  9.75                             127    0.22 9  182 152 
 YPLC HN ES        657 33.90                             127    0.38 9  182 152 
 YPLC HZ I         657 34.70        77.8 0.26            126            182 152 
 ZAR  HZ EP        657 11.70                             124    0.32 9  201 291 
 ZAR  HN ES        657 37.06                             124    0.24 9  201 291 
 ZAR  HZ I         657 44.46        71.9 0.30            122            201 291 
 TABC EZ EP        657 16.90                             120    1.58 8  234 210 
 TABC EZ I         657 49.56        49.8 0.36            118            234 210 
 NOR  HZ EP        657 15.11                             120   -0.00 8  237 233 
 NOR  HN ES        657 43.12                             120   -0.34 8  237 233 
 NOR  HZ I         657 51.11        55.3 0.22            117            237 233 
 CHI  HZ EP        657 17.43                             118    0.10 8  253 195 
 CHI  HN ES        657 46.83                             118   -0.57 8  253 195 
 CHI  HZ I         657 49.20        44.5 0.40            116            253 195 
 ROSC BZ EP   4    657 19.13                             118    1.47 0  256 210 
 ROSC BN ES        657 50.10                             118    2.10 8  256 210 
 ROSC BZ I         657 54.05        73.6 0.35            116            256 210 
 URE  HZ EP        657 19.07                             115   -0.80 7  281 291 
 URE  HN ES        657 50.29                             115   -1.63 7  281 291 
 URE  HZ I         657 56.89        46.5 0.16            113            281 291 
 GUY2CHZ EP        657 23.85                             113    0.93 7  303 234 
 GUY2CHE ES   4    658  1.92                             113    4.57 0  303 234 
 GUY2CHZ I         658  5.31        26.5 0.32                           303 234 
 PTGC HZ EP        657 22.48                             112   -1.01 7  314 159 
 PTGC HN ES        657 56.21                             112   -2.17 7  314 159 
 PTGC HZ I         657 57.72        44.6 0.24            111            314 159 
 CBOC HZ EP        657 27.27                             111    1.24 7  334 251 
 CBOC HN ES        658  2.19                             111   -0.70 7  334 251 
 CBOC HZ I         658 14.04        11.7 0.68            109            334 251 
 DBB  EZ EP        657 27.18                             111    0.81 7  338 273 
 DBB  EN ES        658  2.49                             111   -1.00 7  338 273 
 DBB  EZ I         658  6.70        23.9 0.18            109            338 273 
 PRA  HZ EP        657 32.71                             107   -0.26 6  396 209 
 PRA  HN ES        658 14.48                             107   -0.76 6  396 209 
 PRA  HZ I         658 20.57        23.5 0.32            106            396 209 
 ORTC HZ EP        657 33.72                             107    0.40 6  399 216 
 ORTC HN ES        658 16.03                             107    0.17 6  399 216 
 ORTC HZ I         658 20.74        19.1 0.22            106            399 216 
 PAL  HZ EP        657 34.55                             107    0.20 6  407 238 
 PAL  HN ES        658 17.52                             107   -0.18 6  407 238 
 PAL  HZ I         658 23.27        13.3 0.32            105            407 238 
 CRJC HZ EP        657 39.68                             104   -1.22 5  463   4 
 CRJC HN ES        658 29.40                             104    0.04 5  463   4 
 CRJC HZ I         658 34.36        22.6 0.38            104            463   4 
 CAP2 HZ EP        657 45.20                             103   -0.56 4  505 294 
 CAP2 HN ES   4    658 34.33                             103   -3.68 0  505 294 
 CAP2 HZ I         658 42.83         7.5 0.16            102            505 294 
                                                                                
