 2012 1215 0532 56.3 L   6.781 -73.155152.0  RSN  5 0.4 1.1LRSN                1
 GAP=136        0.76       7.3     6.7 11.6  0.8202E+01 -0.2799E+01  0.2551E+02E
 Epicentro: LOS SANTOS - SANTANDER                                             3
 ACTION:UPD 13-01-04 14:27 OP:ep   STATUS:               ID:20121215053256 L   I
 2012-12-15-0529-51M.COL___204                                                 6
 STAT SP IPHASW D HRMM SECON CODA AMPLIT PERI AZIMU VELO AIN AR TRES W  DIS CAZ7
 BAR2 SZ EP   1    533 16.49                             172   -0.17 7 21.1 188 
 BAR2 SZ ES   2    533 32.10                             172   -0.43 5 21.1 188 
 BAR2 SZ I         533 33.44         7.5 0.26                          21.1 188 
 BRR  HN ES   1    533 35.86                             154    0.67 7 71.4 300 
 BRR  HZ I         533 38.12         1.8 0.22                          71.4 300 
 PAM  SE ES   2    533 36.77                             151   -0.52 5 79.6  39 
 RUS  HZ EP   1    533 20.71                             146    0.16 7 98.6 175 
 RUS  HE ES   1    533 39.65                             146    0.20 7 98.6 175 
 RUS  HZ I         533 41.11         0.7 0.34                          98.6 175 
 PTB  HN ES   1    533 44.53                             134   -0.50 7  146 260 
                                                                                
