 2015 1015 0806  0.5 L   6.915 -73.447113.1  RSN 17 0.6 2.6LRSN                1
 GAP= 55        1.41       3.0     3.7  6.6 -0.2199E+00  0.8994E+01  0.1871E+01E
 Epicentro: SAN VICENTE DE CHUCURI - SANTANDER                                 3
 ACTION:UPD 15-12-22 20:40 OP:cam  STATUS:               ID:20151015080600 L   I
 OLDACT:REG 15-10-15 14:37 OP:ak   STATUS:               ID:20151015075749     3
 2015-10-15-0757-49M.COL___337                                                 6
 STAT SP IPHASW D HRMM SECON CODA AMPLIT PERI AZIMU VELO AIN AR TRES W  DIS CAZ7
 BRR  HZ IP     C  8 6 16.63                             161    0.3610 36.2 306 
 BRR  HN ES        8 6 29.37                             161    0.7810 36.2 306 
 BRR  HZ I         8 6 30.88       124.3 0.44            137           36.2 306 
 BAR2 EZ IP     D  8 6 17.31                             156    0.2410 46.1 141 
 BAR2 EZ I         8 6 17.40       284.4 0.26            155           46.1 141 
 BAR2 EZ ES        8 6 29.66                             156   -0.3410 46.1 141 
 PAM  EZ EP        8 6 20.61                             137   -0.1110 95.0  60 
 PAM  EN ES        8 6 37.00                             137    0.5010 95.0  60 
 RUS  HZ EP        8 6 22.54                             130   -0.3810  120 160 
 RUS  HN ES        8 6 40.13                             130   -0.3010  120 160 
 OCA  HZ EP        8 6 24.98                             124   -0.15 9  147   5 
 OCA  HN ES        8 6 43.71                             124   -0.64 9  147   5 
 OCA  HZ I         8 6 49.48       140.0 0.32            109            147   5 
 SPBC HZ EP        8 6 25.51                             122   -0.42 9  156 206 
 SPBC HN ES        8 6 44.94                             122   -0.84 9  156 206 
 SPBC HZ I         8 6 51.55        38.0 0.36            107            156 206 
 ZAR  HZ EP        8 6 27.23                             119    0.08 9  168 292 
 ZAR  HN ES        8 6 48.49                             119    0.54 9  168 292 
 ZAR  HZ I         8 6 51.59        64.0 0.14            104            168 292 
 TAM  HZ IP     D  8 6 29.60                             116    0.01 9  191 106 
 TAM  HZ I         8 6 30.11        26.8 0.28            107            191 106 
 TAM  HN ES        8 6 52.56                             116    0.26 9  191 106 
 NOR  HZ EP        8 6 32.20                             113   -0.34 8  217 227 
 NOR  HN ES        8 6 56.86                             113   -0.69 8  217 227 
 NOR  HZ I         8 7  2.12        25.5 0.20            101            217 227 
 SML  HZ EP        8 6 31.97                             112   -0.80 8  220 342 
 SML  HE ES        8 6 57.51                             112   -0.45 8  220 342 
 HEL  HZ EP        8 6 36.64                             110    0.66 8  244 251 
 HEL  HZ I         8 7  9.53        17.7 0.52            100            244 251 
 URE  HZ EP        8 6 35.00                             109   -1.05 8  248 292 
 URE  HZ I         8 7 10.78        31.7 0.34             99            248 292 
 CHI  HZ EP        8 6 37.85                             109    0.56 8  255 187 
 CHI  HN ES        8 7  6.09                             109    0.09 8  255 187 
 GUY2CHZ EP        8 6 41.04                             107    0.39 7  283 229 
 GUY2CHZ I         8 7 19.01        13.8 0.38                           283 229 
 DBB  SZ EP        8 6 43.39                             105    0.57 7  305 272 
 DBB  SZ I         8 7 29.29        38.4 0.54             97            305 272 
 CBOC HZ EP        8 6 43.88                             105    0.82 7  307 248 
 CBOC HZ I         8 7 25.48         8.0 0.70             97            307 248 
 ELA  HZ EP        8 6 46.35                             104    2.02 7  314 224 
 ELA  HE ES        8 7 18.10                             104   -0.43 7  314 224 
 ELA  HZ I         8 7 28.21         9.0 0.42             97            314 224 
                                                                                
