 2017 1015 0131 59.7 L   6.802 -73.152142.7  RSN 17 0.3 2.1LRSN                1
 GAP= 65        0.85       2.4     2.8  4.0 -0.2306E+00  0.1230E+01  0.2194E+01E
 Epicentro: LOS SANTOS - SANTANDER                                             3
 ACTION:UPD 17-11-07 19:31 OP:rebc STATUS:               ID:20171015012742 L   I
 OLDACT:UPD 17-10-15 13:29 OP:leo  STATUS:               ID:20171015012742 L   3
 2017-10-15-0128-00M.COL___429                                                 6
 STAT SP IPHASW D HRMM SECON CODA AMPLIT PERI AZIMU VELO AIN AR TRES W  DIS CAZ7
 BAR2 EZ EP        132 18.95                             171    0.0210 23.4 188 
 BAR2 EZ ES        132 33.51                             171   -0.4510 23.4 188 
 BAR2 EZ I         132 36.92        37.5 0.33            168           23.4 188 
 BRR  HZ IP     D  132 20.76                             152    0.3210 70.5 299 
 BRR  HN ES        132 36.84                             152    0.1910 70.5 299 
 BRR  HZ I         132 38.24        15.2 0.30            152           70.5 299 
 PAM  EZ EP        132 21.75                             149    0.1710 77.7  40 
 PAM  EN ES        132 39.08                             149    0.4210 77.7  40 
 PAM  EZ I         132 41.16        16.9 0.46            154           77.7  40 
 RUS  HZ EP        132 23.15                             143    0.0110  101 176 
 RUS  HN ES        132 41.59                             143    0.1410  101 176 
 RUS  HZ I         132 42.81        17.2 0.36            143            101 176 
 PTB  HZ EP   9    132 26.13                             131   -0.20 0  147 259 
 PTB  HN ES        132 46.10                                   -0.82 9  147 259 
 PTB  HZ I         132 50.98         6.1 0.15            131            147 259 
 TAM  HZ IP     D  132 27.36                             129    0.18 9  156 105 
 TAM  HN ES   4    132 45.88                             129   -2.75 0  156 105 
 YPLC HZ IP     C  132 29.36                             126    0.06 9  177 151 
 YPLC HN ES        132 52.21                             126   -0.19 9  177 151 
 YPLC HZ I         132 56.15        17.5 0.26            127            177 151 
 ZAR  HZ EP        132 31.58                             122   -0.26 9  203 292 
 ZAR  HN ES        132 57.19                             122    0.26 9  203 292 
 ZAR  HZ I         133  2.81        14.4 0.36            122            203 292 
 TABC EZ EP   4    132 36.29                             119    1.07 0  230 211 
 TABC EZ ES        133  2.72                             119   -0.23 8  230 211 
 TABC EZ I         133  7.99        10.6 0.40            119            230 211 
 NOR  HZ EP        132 34.88                             118   -0.29 8  234 234 
 NOR  HN ES        133  2.26                             118   -0.61 8  234 234 
 NOR  HZ I         133  5.80         7.5 0.24            118            234 234 
 CHI  HZ IP     D  132 37.25                             116    0.05 8  249 195 
 CHI  HN ES        133  6.13                             116   -0.35 8  249 195 
 CHI  HZ I         133 12.64         5.5 0.30            117            249 195 
 GUY2CHZ EP   4    132 44.88                             112    1.79 0  301 235 
 GUY2CHN ES   4    133 16.45                             112   -0.50 0  301 235 
 GUY2CHZ I         133 25.15         5.4 0.32                           301 235 
 VIL  EZ EP        132 42.93                             111   -0.03 7  303 191 
 LL6C HZ EP        132 44.47                             110   -0.74 7  325 358 
 LL6C HN ES   4    133 18.10                             110   -2.63 0  325 358 
 PRA  HZ EP        132 52.91                             106   -0.16 6  392 209 
 PRA  HE ES        133 34.65                             106   -0.07 6  392 209 
 PRA  HZ I         133 41.18         7.4 0.38            107            392 209 
 ORTC HZ EP        132 54.02                             106    0.56 6  395 216 
 ORTC HN ES        133 36.31                             106    0.90 6  395 216 
 ORTC HZ I         133 42.82         3.4 0.36            106            395 216 
 SJC  HZ EP   4    132 53.25                             105   -1.81 0  409 327 
 SJC  HN ES   4    133 34.10                             105   -4.17 0  409 327 
 MACC HZ EP   4    133  6.00                             101   -2.32 0  521 189 
 MACC HN ES   4    133 57.64                             101   -4.23 0  521 189 
 MACC HZ I         134  6.45         1.5 0.56            102            521 189 
                                                                                
