 2010  215 1204 46.5 L   6.806 -72.897148.2  RSN  5 0.5 1.7LRSN                1
 GAP=328        0.76      14.4    19.0 11.4 -0.1115E+03  0.4334E+02  0.5953E+02E
 Epicentro: SAN ANDRES - SANTANDER                                             3
 ACTION:UP  10-08-24 09:49 OP:vdl  STATUS:               ID:20100215120446 L   I
 2010-02-15-1159-33S.COL___093                                                 6
 STAT SP IPHASW D HRMM SECON CODA AMPLIT PERI AZIMU VELO SNR AR TRES W  DIS CAZ7
 BAR2 SZ EP   1   12 5  7.19                             165     0.3 7   40 233 
 BAR2 SZ ES   2   12 5 22.39                             165    -0.3 5   40 233 
 CHI  HZ EP   1   12 5 25.19                             117    -0.2 6  258 201 
 CHI  HE ES   2   12 5 55.69                             117     0.1 4  258 201 
 CHI  HZ I        12 5 59.90         2.1 0.24                           258 201 
 RREF BZ EP   1   12 5 34.29                             110    -1.0 5  343 232 
 RREF BN ES   2   12 6 13.59                             110     0.3 3  343 232 
 RREF BZ I        12 6 19.62         2.3 0.74                           343 232 
 TOL  SZ EP   1   12 5 38.05                             108     0.8 5  364 228 
 PRA  HZ EP   1   12 5 41.56                             106    -0.3 4  407 213 
                                                                                
