 2015 1215 1732 11.7 L   6.832 -73.150146.0  RSN 16 0.5 2.4LRSN                1
 GAP=134        1.03       3.1     4.7  5.4 -0.4071E+01  0.5885E+01  0.2329E+01E
 Epicentro: LOS SANTOS - SANTANDER                                             3
 ACTION:UPD 16-02-04 15:05 OP:cam  STATUS:               ID:20151215173211 L   I
 OLDACT:UP  15-12-15 23:17 OP:ar   STATUS:               ID:20151215172744     3
 OLDACT:REG 15-12-15 20:35 OP:ar   STATUS:               ID:20151215172744     3
 2015-12-15-1727-44M.COL___337                                                 6
 STAT SP IPHASW D HRMM SECON CODA AMPLIT PERI AZIMU VELO AIN AR TRES W  DIS CAZ7
 BAR2 EZ EP       1732 31.35                             169   -0.1110 26.8 188 
 BAR2 EZ ES       1732 47.14                             169    0.2910 26.8 188 
 BAR2 EZ I        1732 48.02        70.3 0.20            166           26.8 188 
 BRR  HZ EP       1732 33.16                             153    0.3710 69.2 296 
 BRR  HN ES       1732 50.03                             153    0.8110 69.2 296 
 BRR  HZ I        1732 54.11        64.3 0.48            148           69.2 296 
 PAM  EZ EP       1732 34.17                             152    0.3410 74.9  42 
 PAM  EN ES       1732 51.12                             152    0.0610 74.9  42 
 PAM  EZ I        1732 53.51        80.5 0.50            157           74.9  42 
 RUS  HZ EP       1732 35.28                             143   -0.4910  104 176 
 RUS  HN ES       1732 54.29                             143   -0.2210  104 176 
 RUS  HZ I        1732 55.10        20.5 0.30            145            104 176 
 PTB  HZ EP       1732 38.46                             132   -0.28 9  148 257 
 PTB  HN ES       1732 58.99                             132   -0.83 9  148 257 
 PTB  HZ I        1733  4.76        24.6 0.40            130            148 257 
 OCA  HZ EP       1732 39.36                             130   -0.36 9  157 353 
 OCA  HE ES       1733  1.01                             130   -0.55 9  157 353 
 OCA  HZ I        1733  6.70        47.0 0.32            131            157 353 
 SPBC HZ EP       1732 40.25                             129   -0.24 9  166 218 
 SPBC HN ES       1733  2.71                             129   -0.21 9  166 218 
 SPBC HZ I        1733  9.91        32.0 0.58            128            166 218 
 ZAR  HZ EP   4   1732 47.02                             123    3.01 0  202 291 
 ZAR  HN ES   2   1733  9.50                             123    0.31 4  202 291 
 ZAR  HZ I        1733 15.35        28.8 0.30            122            202 291 
 NOR  HZ EP   2   1732 47.47                             118   -0.19 4  236 234 
 NOR  HE ES   2   1733 15.60                             118   -0.08 4  236 234 
 NOR  HZ I        1733 23.65        11.3 0.44            118            236 234 
 SML  HZ EP   2   1732 48.76                             118    0.76 4  240 335 
 SML  HN ES   2   1733 16.20                             118   -0.09 4  240 335 
 SML  HZ I        1733 19.68        35.2 0.28            119            240 335 
 ROSC BZ EP   4   1732 55.36                             116    5.19 0  256 211 
 ROSC BN ES   2   1733 19.92                             116   -0.24 4  256 211 
 ROSC BZ I        1733 27.35        25.4 0.40            117            256 211 
 HEL  HZ EP   4   1732 56.04                             115    4.03 0  273 255 
 HEL  HN ES   4   1733 25.75                             115    2.33 0  273 255 
 HEL  HZ I        1733 32.32         8.0 0.50            115            273 255 
 GUY2CHZ EP       1732 56.64                             112    1.10 7  303 234 
 GUY2CHN ES   4   1733 31.44                             112    1.72 0  303 234 
 GUY2CHZ I        1733 35.54         7.1 0.36                           303 234 
 PRA  HZ EP       1733  5.09                             106   -0.51 6  395 209 
 PRA  HN ES       1733 47.94                             106    0.33 6  395 209 
 PRA  HZ I        1733 50.19        11.1 0.32            108            395 209 
 ORTC HZ EP       1733  6.72                             106    0.75 6  398 216 
 ORTC HN ES       1733 48.92                             106    0.65 6  398 216 
 ORTC HZ I        1733 52.66         9.0 0.28            107            398 216 
 SJC  HZ EP   9   1733  5.29                             106   -1.63 0  406 327 
 SJC  HN ES   2   1733 47.61                                   -0.73 3  406 327 
 SJC  HZ I        1733 51.04         5.0 0.48            107            406 327 
                                                                                
