 2013  915 1256 14.0 L   6.770 -73.161155.2  RSN  5 0.4 1.8LRSN                1
 GAP=199        0.87       5.6     6.9  8.0  0.1319E+02  0.2940E+01 -0.1312E+02E
 Epicentro: LOS SANTOS - SANTANDER                                             3
 ACTION:UPD 13-10-22 09:22 OP:ep   STATUS:               ID:20130915125614 L   I
 OLDACT:UP  13-09-15 15:44 OP:cam  STATUS:               ID:20130915124960d    3
 OLDACT:DUP 13-09-15 15:43 OP:cam  STATUS:               ID:20130915124960d    3
 OLDACT:UP  13-09-15 15:41 OP:cam  STATUS:               ID:20130915124959     3
 OLDACT:REG 13-09-15 14:40 OP:cam  STATUS:               ID:20130915124959     3
 2013-09-15-1249-59M.COL___269                                                 6
 STAT SP IPHASW D HRMM SECON CODA AMPLIT PERI AZIMU VELO AIN AR TRES W  DIS CAZ7
 BAR2 SZ EP       1256 34.69                             173    0.0310 19.9 187 
 BAR2 SZ ES   1   1256 50.27                             173   -0.54 7 19.9 187 
 BAR2 SZ I        1256 51.44        12.6 0.42            171           19.9 187 
 BRR  HZ EP       1256 36.49                             154    0.3510 71.4 301 
 BRR  HN ES       1256 54.00                             154    0.5510 71.4 301 
 RUS  HN ES       1256 57.45                             147   -0.0710 97.5 175 
 PTB  HZ EP       1256 41.46                             135   -0.05 9  146 260 
 PTB  HN ES       1257  2.71                             135   -0.30 9  146 260 
 PTB  HZ I        1257  6.04         8.0 0.14            133            146 260 
 SML  HZ EP   2   1256 51.70                             119    0.33 4  246 336 
 SML  HE ES   1   1257 19.72                             119   -0.84 6  246 336 
                                                                                
