 2017  115 1414 31.1 L   6.792 -73.138149.1  RSN  5 0.3 1.4LRSN                1
 GAP=138        0.74       3.8     4.2  6.4  0.3455E+01  0.4611E+01  0.7094E+01E
 Epicentro: LOS SANTOS - SANTANDER                                             3
 ACTION:UPD 17-05-22 15:59 OP:jn   STATUS:               ID:20170115141431 L   I
 OLDACT:UP  17-01-15 23:22 OP:dani STATUS:               ID:20170115140747     3
 OLDACT:UP  17-01-15 23:21 OP:dani STATUS:               ID:20170115140747     3
 OLDACT:REG 17-01-15 20:22 OP:dani STATUS:               ID:20170115140747     3
 2017-01-15-1408-00M.COL___341                                                 6
 STAT SP IPHASW D HRMM SECON CODA AMPLIT PERI AZIMU VELO AIN AR TRES W  DIS CAZ7
 BRR  HZ EP       1414 52.88                             153    0.1910 72.3 299 
 BRR  HE ES       1415  9.98                             153    0.4610 72.3 299 
 BRR  HZ I        1415 16.05         5.7 0.37            150           72.3 299 
 PAM  EZ EP       1414 53.90                             151    0.2110 77.5  39 
 PAM  EE ES       1415 11.02                             151   -0.2910 77.5  39 
 PAM  EZ I        1415 13.08         6.6 0.46            155           77.5  39 
 RUS  HZ EP       1414 55.05                             145   -0.0810 99.7 177 
 RUS  HE ES       1415 13.72                             145   -0.1510 99.7 177 
 RUS  HZ I        1415 14.88         3.4 0.27            149           99.7 177 
 ZAR  HE ES       1415 28.96                             123   -0.50 9  205 292 
 ZAR  HZ I        1415 36.45         2.0 0.17            124            205 292 
 CHI  HZ EP       1415  8.98                             118    0.04 8  248 195 
                                                                                
