 2011  415 1717 32.2 L   6.759 -73.124151.2  RSN  8 0.3 2.4LRSN                1
 GAP=183        0.81       5.3     6.8  7.0 -0.2089E+02  0.4895E+01  0.1606E+01E
 Epicentro: LOS SANTOS - SANTANDER                                             3
 ACTION:UP  11-06-22 15:31 OP:REBC STATUS:               ID:20110415171732 L   I
 2011-04-15-1713-52S.COL___140                                                 6
 STAT SP IPHASW D HRMM SECON CODA AMPLIT PERI AZIMU VELO SNR AR TRES W  DIS CAZ7
 BAR2 SZ EP       1717 52.29                             172    -0.110   20 199 
 BAR2 SZ ES   1   1718  7.73                             172    -0.4 7   20 199 
 BAR2 SZ I        1718 10.76        43.7 0.25                            20 199 
 BTL  SZ EP       1717 52.90                             171     0.410   24 318 
 GIR2 SZ EP       1717 52.55                             166    -0.110   36 348 
 BRR  HZ EP   1   1717 54.31                             152     0.2 7   76 301 
 BRR  HN ES   1   1718 11.68                             152     0.4 7   76 301 
 BRR  HZ I        1718 12.78        69.2 0.13                            76 301 
 GRA  SZ IP       1717 58.42                             137     0.210  129  16 
 GRA  SZ I        1717 59.74        37.4 0.07                           129  16 
 GRA  SZ ES   1   1718 18.56                             137     0.1 7  129  16 
 OCA  SZ EP   1   1718  0.81                             130    -0.5 7  165 353 
 OCA  SZ ES   1   1718 23.60                             130    -0.5 7  165 353 
 OCA  SZ I        1718 31.65        34.7 0.31                           165 353 
 NOR  SZ EP   1   1718  7.57                             120    -0.6 6  234 236 
 NOR  SE ES   1   1718 36.15                             120    -0.1 6  234 236 
 HEL  HZ EP   1   1718 13.20                             116     0.4 6  273 257 
 HEL  HN ES   2   1718 44.34                             116    -0.2 4  273 257 
 HEL  HZ I        1718 51.90         8.3 0.74                           273 257 
                                                                                
