 2016 1215 1720 19.3 L   6.719 -73.054143.5  RSN  4 0.2 1.6LRSN                1
 GAP=152        0.61       3.2     4.9  5.0 -0.3812E+00 -0.1870E+01  0.2253E+00E
 Epicentro: ARATOCA - SANTANDER                                                3
 ACTION:UPD 17-01-11 20:15 OP:rebc STATUS:               ID:20161215172019 L   I
 OLDACT:REG 16-12-15 22:35 OP:ar   STATUS:               ID:20161215171643     3
 2016-12-15-1717-00M.COL___349                                                 6
 STAT SP IPHASW D HRMM SECON CODA AMPLIT PERI AZIMU VELO AIN AR TRES W  DIS CAZ7
 BAR2 EZ EP       1720 38.46                             172   -0.1010 20.0 225 
 BAR2 EZ ES       1720 53.50                             172   -0.1110 20.0 225 
 BAR2 EZ I        1720 56.31        11.3 0.40            167           20.0 225 
 PAM  EZ EP       1720 41.35                             150    0.0210 78.9  30 
 PAM  EE ES       1720 58.58                             150    0.0310 78.9  30 
 PAM  EZ I        1720 59.04         5.2 0.30            154           78.9  30 
 BRR  HZ EP       1720 40.62                             148   -0.3610 84.4 301 
 BRR  HN ES       1720 58.17                             148    0.2610 84.4 301 
 BRR  HZ I        1721  3.85        12.1 0.32            146           84.4 301 
 RUS  HZ EP       1720 42.53                             146    0.3810 91.5 182 
 RUS  HZ ES       1720 59.88                             146   -0.1210 91.5 182 
 RUS  HZ I        1721  2.23         4.0 0.38            148           91.5 182 
                                                                                
