 2012  715 1135  5.7 L   6.662 -73.224143.8  RSN  5 0.2 1.5LRSN                1
 GAP=196        0.56       5.4     5.8  5.6  0.2057E+02  0.5104E+01  0.5577E+01E
 Epicentro: BARICHARA - SANTANDER                                              3
 ACTION:UPD 12-08-14 11:44 OP:ep   STATUS:               ID:20120715113505 L   I
 2012-07-15-1130-00M.COL___197                                                 6
 STAT SP IPHASW D HRMM SECON CODA AMPLIT PERI AZIMU VELO AIN AR TRES W  DIS CAZ7
 BAR2 SZ EP       1135 24.70                             176    -0.210    9 149 
 BAR2 SZ I        1135 25.06         8.2 0.11            167              9 149 
 BAR2 SZ ES   2   1135 39.34                             176    -0.6 5    9 149 
 BRR  HZ EP       1135 26.86                             152     0.110   73 312 
 BRR  HN ES       1135 43.37                             152     0.210   73 312 
 BRR  HZ I        1135 46.80        14.4 0.26            147             73 312 
 RUS  HZ EP       1135 28.49                             148     0.210   86 170 
 RUS  HN ES   1   1135 46.05                             148     0.1 7   86 170 
 RUS  HZ I        1135 48.31         5.2 0.37            146             86 170 
 PTB  HZ EP       1135 31.49                             134    -0.1 9  137 264 
 PTB  HN ES   2   1135 51.71                             134     0.0 5  137 264 
 PTB  HZ I        1135 58.13         2.3 0.30            129            137 264 
 ZAR  HN ES   2   1136  2.75                             122    -0.2 4  203 297 
 ZAR  HZ I        1136  9.95         3.5 0.14            121            203 297 
