 2016  615 1158 24.1 L   6.805 -73.141143.1  RSN 10 0.5 2.2LRSN                1
 GAP=137        1.11       4.4     4.5  6.6 -0.2254E+01  0.8981E+01  0.2557E+01E
 Epicentro: LOS SANTOS - SANTANDER                                             3
 ACTION:UPD 16-07-21 22:19 OP:rebc STATUS:               ID:20160615115824 L   I
 OLDACT:REG 16-06-15 21:23 OP:dnl  STATUS:               ID:20160615115749     3
 2016-06-15-1157-49M.COL___326                                                 6
 STAT SP IPHASW D HRMM SECON CODA AMPLIT PERI AZIMU VELO AIN AR TRES W  DIS CAZ7
 BAR2 EZ EP       1158 43.28                             170   -0.1410 24.0 191 
 BAR2 EZ ES       1158 57.97                             170   -0.5310 24.0 191 
 BAR2 EZ I        1159  0.71        23.9 0.24                          24.0 191 
 BRR  HZ EP       1158 45.07                             152    0.1010 71.4 298 
 BRR  HE ES       1159  2.18                             152    0.9310 71.4 298 
 BRR  HZ I        1159  5.49        20.0 0.44                          71.4 298 
 PAM  EZ EP       1158 46.04                             151    0.0610 76.6  40 
 PAM  EN ES       1159  3.05                             151   -0.0110 76.6  40 
 PAM  EZ I        1159  5.13        37.6 0.50                          76.6  40 
 RUS  HZ EP       1158 47.30                             143   -0.3310  101 176 
 RUS  HN ES       1159  6.39                             143    0.4010  101 176 
 RUS  HZ I        1159  7.81        24.8 0.32                           101 176 
 PTB  HZ EP       1158 50.09                             131   -0.82 9  148 259 
 PTB  HN ES       1159 11.12                             131   -0.70 9  148 259 
 PTB  HZ I        1159 13.78        22.7 0.10                           148 259 
 SPBC HZ EP       1158 52.58                             128    0.11 9  164 219 
 SPBC HN ES       1159 14.96                             128    0.36 9  164 219 
 SPBC HZ I        1159 17.01        34.0 0.26                           164 219 
 ZAR  HZ EP       1158 56.87                             122    0.47 9  204 292 
 ZAR  HE ES       1159 21.30                             122   -0.29 9  204 292 
 ZAR  HZ I        1159 27.92        14.7 0.42                           204 292 
 NOR  HZ EP       1158 59.72                             118   -0.04 8  235 234 
 NOR  HN ES       1159 27.87                             118    0.30 8  235 234 
 NOR  HZ I        1159 32.46        10.7 0.18                           235 234 
 GUY2CHZ EP   2   1159  8.71                             112    1.04 4  302 235 
 GUY2CHE ES   4   1159 43.83                             112    2.17 0  302 235 
 GUY2CHZ I        1159 49.51         7.7 0.52                           302 235 
 PRA  HZ EP   2   1159 17.99                             106    0.37 3  393 210 
 PRA  HN ES   4   12 0  0.99                             106    1.63 0  393 210 
 PRA  HZ I        12 0  5.77         8.4 0.28                           393 210 
                                                                                
