 2011  215 1300  3.5 L   6.798 -73.042134.3  RSN  5 0.1 1.4LRSN                1
 GAP=170        0.33       4.8    14.3  5.2 -0.4858E+02 -0.5468E+02  0.1073E+02E
 Epicentro: LOS SANTOS - SANTANDER                                             3
 ACTION:UP  11-03-28 15:08 OP:jfem STATUS:               ID:20110215130003 L   I
 2011-02-15-1258-22S.COL___137                                                 6
 STAT SP IPHASW D HRMM SECON CODA AMPLIT PERI AZIMU VELO SNR AR TRES W  DIS CAZ7
 BAR2 SZ ES   2   13 0 36.06                             168    -0.1 5   28 214 
 BTL  SZ EP       13 0 21.85                             167     0.010   28 298 
 BTL  SZ ES   1   13 0 36.17                             167     0.0 7   28 298 
 GIR2 SZ EP   2   13 0 21.58                             164    -0.3 5   35 332 
 GIR2 SZ ES   2   13 0 36.43                             164     0.2 5   35 332 
 RUS  HZ EP   2   13 0 26.12                             141     0.0 5  100 183 
 RUS  HZ I        13 0 46.32         2.5 0.30                           100 183 
 GRA  SZ EP       13 0 27.55                             135     0.110  123  12 
 GRA  SZ I        13 0 28.90         5.7 0.27                           123  12 
 GRA  SZ ES   2   13 0 46.05                             135    -0.1 5  123  12 
                                                                                
