 2017 1115 1250 31.4 L   6.761 -73.185146.2  RSN  8 0.4 1.5LRSN                1
 GAP=118        0.95       3.9     4.1  6.2  0.1831E+01  0.2612E+01  0.5466E+01E
 Epicentro: LOS SANTOS - SANTANDER                                             3
 ACTION:UPD 17-12-12 19:55 OP:rebc STATUS:               ID:20171115125031 L   I
 OLDACT:REG 17-11-15 21:16 OP:lv   STATUS:               ID:20171115124740     3
 2017-11-15-1248-00M.COL___441                                                 6
 STAT SP IPHASW D HRMM SECON CODA AMPLIT PERI AZIMU VELO AIN AR TRES W  DIS CAZ7
 BAR2 EZ EP       1250 51.13                             172    0.1310 18.7 179 
 BAR2 EZ ES       1251  6.43                             172    0.1410 18.7 179 
 BAR2 EZ I        1251  8.46         8.9 0.22            172           18.7 179 
 BRR  HZ EP       1250 52.87                             153    0.3610 69.6 303 
 BRR  HN ES       1251  9.32                             153    0.3410 69.6 303 
 BRR  HZ I        1251 11.43         8.0 0.58            152           69.6 303 
 PAM  EZ EP       1250 54.09                             149    0.0510 83.5  40 
 PAM  EN ES       1251 11.18                             149   -0.5210 83.5  40 
 PAM  EZ I        1251 13.45         3.1 0.26            152           83.5  40 
 RUS  HZ EP       1250 55.33                             145    0.4110 96.7 173 
 RUS  HN ES       1251 13.29                             145    0.0210 96.7 173 
 RUS  HZ I        1251 15.19         3.1 0.30            146           96.7 173 
 PTB  HZ EP       1250 57.78                             133   -0.17 9  143 260 
 PTB  HN ES       1251 17.81                             133   -0.84 9  143 260 
 PTB  HZ I        1251 20.72         4.0 0.58            133            143 260 
 ZAR  HE ES       1251 28.98                             123    0.21 9  202 294 
 ZAR  HZ I        1251 34.65         6.6 0.48            123            202 294 
 CHI  HN ES       1251 37.69                             118    0.16 8  243 194 
 CHI  HZ I        1251 41.24         2.0 0.30            119            243 194 
 PTGC HZ EP       1251 14.41                             112   -0.60 7  306 158 
 PTGC HN ES   4   1251 45.63                             112   -3.39 0  306 158 
                                                                                
