 2012  115 1830  4.1 L   6.793 -73.108151.5  RSN 13 0.4 2.5LRSN                1
 GAP=142        0.71       3.5     4.1  5.3 -0.2474E+01  0.3594E+01  0.3607E+01E
 Epicentro: LOS SANTOS - SANTANDER                                             3
 ACTION:UP  12-02-03 08:17 OP:REBC STATUS:               ID:20120115183004 L   I
 2012-01-15-1830-00M.COL___188                                                 6
 STAT SP IPHASW D HRMM SECON CODA AMPLIT PERI AZIMU VELO SNR AR TRES W  DIS CAZ7
 BAR2 SZ IP       1830 24.33                             171    -0.110   24 200 
 BAR2 SZ ES   1   1830 39.75                             171    -0.5 7   24 200 
 BAR2 SZ I        1830 41.09       104.6 0.29                            24 200 
 GIR2 SZ EP       1830 24.49                             167     0.010   33 343 
 GIR2 SZ ES   2   1830 40.71                             167     0.3 5   33 343 
 PAM  SZ EP       1830 27.20                             152     0.410   75  37 
 PAM  SN ES   2   1830 44.50                             152     0.0 5   75  37 
 BRR  HZ IP     C 1830 26.21                             152     0.110   75 298 
 BRR  HZ I        1830 26.47       115.4 0.18                            75 298 
 BRR  HN ES   1   1830 43.82                             152     0.6 7   75 298 
 RUS  HZ EP       1830 28.17                             145    -0.210  100 178 
 RUS  HZ I        1830 29.04        16.8 0.32                           100 178 
 RUS  HN ES   2   1830 47.36                             145     0.1 5  100 178 
 PTB  HZ EP       1830 31.22                             132    -0.7 9  152 259 
 PTB  HE ES   2   1830 53.24                             132    -0.3 5  152 259 
 OCA  SZ EP   1   1830 32.93                             131    -0.1 7  162 352 
 OCA  SZ ES   2   1830 55.31                             131    -0.2 5  162 352 
 OCA  SZ I        1831  0.74        28.2 0.35                           162 352 
 ZAR  HZ EP   2   1830 37.16                             123    -0.2 4  208 292 
 ZAR  HE ES   2   1831  2.76                             123    -0.5 4  208 292 
 ZAR  HZ I        1831 13.07        28.7 0.31                           208 292 
 NOR  SZ EP   2   1830 40.72                             119     0.2 4  238 235 
 NOR  SE ES   2   1831  9.42                             119     0.6 4  238 235 
 CHI  HZ EP   1   1830 42.30                             118     0.1 6  249 196 
 CHI  HE ES   2   1831 12.37                             118     0.5 4  249 196 
 CHI  HZ I        1831 21.23        12.6 0.61                           249 196 
 HEL  HZ EP   2   1830 45.60                             115     0.6 4  276 256 
 HEL  HN ES   2   1831 17.58                             115     0.6 4  276 256 
 HEL  HZ I        1831 23.89        16.0 0.40                           276 256 
 GUY  SZ EP   2   1830 49.13                             113     0.6 4  306 236 
 GUY  SN ES   2   1831 23.34                             113     0.1 4  306 236 
 GUY  SZ I        1831 31.71        25.2 0.39                           306 236 
 PRA  HZ EP   2   1830 58.04                             107     0.1 3  393 210 
 PRA  HN ES   2   1831 40.45                             107     0.4 3  393 210 
                                                                                
