 2013  615 1641 22.7 L   6.763 -73.124147.7  RSN  6 0.5 2.2LRSN                1
 GAP=237        0.96       7.3     6.8  8.9  0.5717E+01  0.1220E+02  0.1720E+02E
 Epicentro: LOS SANTOS - SANTANDER                                             3
 ACTION:UPD 14-01-08 09:54 OP:ep   STATUS:               ID:20130615164122 L   I
 OLDACT:REG 13-06-15 16:38 OP:mh   STATUS:               ID:20130615163959     3
 2013-06-15-1639-59M.COL___261                                                 6
 STAT SP IPHASW D HRMM SECON CODA AMPLIT PERI AZIMU VELO AIN AR TRES W  DIS CAZ7
 BAR2 SZ EP       1641 42.45                             172   -0.0010 20.0 199 
 BAR2 SZ ES   1   1641 57.26                             172   -0.63 7 20.0 199 
 BAR2 SZ I        1641 58.67        13.7 0.40            166           20.0 199 
 BRR  HZ EP   1   1641 44.53                             151    0.28 7 75.3 300 
 BRR  HE ES       1642  1.56                             151    0.4810 75.3 300 
 BRR  HN I        1642  2.05        46.7 0.28            150           75.3 300 
 RUS  HZ EP   1   1641 46.35                             145    0.05 7 96.4 177 
 RUS  HN ES   1   1642  4.94                             145    0.20 7 96.4 177 
 RUS  HN I        1642  6.88         9.0 0.20            143           96.4 177 
 PTB  HZ EP   1   1641 49.32                             132   -0.61 7  149 261 
 PTB  HN ES   1   1642 10.28                             132   -0.92 7  149 261 
 PTB  HN I        1642 15.97        36.9 0.32            130            149 261 
 NOR  HZ EP   1   1641 58.45                             119   -0.01 6  234 236 
 NOR  HN ES       1642 26.89                             119    0.51 8  234 236 
 NOR  HN I        1642 31.32        27.6 0.18            118            234 236 
 GUY2CHZ EP   4   1642  7.72                             113    1.40 0  301 236 
 GUY2CHN ES   4   1642 44.19                             113    3.82 0  301 236 
 GUY2CHN I        1642 51.97         7.1 0.62                           301 236 
                                                                                
