 2017 1115 1648 25.0 L   6.758 -73.219136.5  RSN  5 0.2 1.3LRSN                1
 GAP=142        0.60       3.5     3.3  5.1 -0.3537E+01  0.4669E+01 -0.2043E+01E
 Epicentro: ZAPATOCA - SANTANDER                                               3
 ACTION:UPD 17-12-12 19:55 OP:rebc STATUS:               ID:20171115164825 L   I
 OLDACT:DUP 17-11-15 23:21 OP:lv   STATUS:               ID:20171115163742d    3
 2017-11-15-1638-00M.COL___453                                                 6
 STAT SP IPHASW D HRMM SECON CODA AMPLIT PERI AZIMU VELO AIN AR TRES W  DIS CAZ7
 BAR2 EZ EP       1648 43.47                             172    0.0210 18.8 167 
 BAR2 EZ ES       1648 58.22                             172    0.3910 18.8 167 
 BAR2 EZ I        1648 58.49         4.4 0.40            172           18.8 167 
 PAM  EZ IP       1648 46.77                             146   -0.0710 86.2  42 
 PAM  EN ES       1649  3.70                             146   -0.1510 86.2  42 
 PAM  EZ I        1649  5.12         3.4 0.20            149           86.2  42 
 RUS  HZ EP       1648 47.67                             143    0.0710 96.9 171 
 RUS  HN ES       1649  4.97                             143   -0.2410 96.9 171 
 RUS  HZ I        1649  7.29         3.6 0.32            145           96.9 171 
 PTB  HZ EP       1648 50.67                             132    0.24 9  139 260 
 PTB  HN ES       1649 10.00                             132   -0.25 9  139 260 
 PTB  HZ I        1649 13.73         2.7 0.14            132            139 260 
 GUY2CHZ EP   4   1649 10.37                             111    3.21 0  292 235 
 GUY2CHN ES   4   1649 42.11                             111    2.09 0  292 235 
 GUY2CHZ I        1649 49.56         1.3 0.24                           292 235 
                                                                                
