 2016  215 1506  4.1 L   6.780 -73.165129.2  RSN  5 0.3 1.5LRSN                1
 GAP=242        0.72       3.8     4.9  5.8  0.7755E+01  0.1442E+02  0.3378E+01E
 Epicentro: LOS SANTOS - SANTANDER                                             3
 ACTION:UPD 16-03-04 21:26 OP:rebc STATUS:               ID:20160215150604 L   I
 OLDACT:UP  16-02-15 23:31 OP:ak   STATUS:               ID:20160215145750     3
 OLDACT:REG 16-02-15 21:22 OP:ak   STATUS:               ID:20160215145750     3
 2016-02-15-1457-50M.COL___310                                                 6
 STAT SP IPHASW D HRMM SECON CODA AMPLIT PERI AZIMU VELO AIN AR TRES W  DIS CAZ7
 BAR2 EZ EP       15 6 21.33                             170   -0.4010 20.9 185 
 BAR2 EZ ES       15 6 35.72                             170    0.2810 20.9 185 
 BAR2 EZ I        15 6 38.30         7.1 0.38            162           20.9 185 
 RUS  HZ EP       15 6 26.09                             141   -0.0510 98.6 175 
 RUS  HN ES       15 6 43.24                             141   -0.0610 98.6 175 
 RUS  HZ I        15 6 45.94         4.9 0.30            140           98.6 175 
 ZAR  HZ EP       15 6 35.70                             119    0.26 9  203 293 
 ZAR  HN ES       15 6 59.72                             119   -0.13 9  203 293 
 ZAR  HZ I        15 7  5.63         5.3 0.17            119            203 293 
 NOR  HZ EP       15 6 39.18                             115    0.55 8  232 235 
 NOR  HE ES       15 7  5.16                             115   -0.37 8  232 235 
 NOR  HZ I        15 7 13.80         3.4 0.16            115            232 235 
 CHI  HZ EP   1   15 6 40.31                             114   -0.37 6  246 195 
 CHI  HN ES       15 7  9.42                             114    0.25 8  246 195 
 CHI  HZ I        15 7 16.08         1.7 0.33            115            246 195 
                                                                                
