 2011 1015 1751  5.4 L   6.813 -73.117145.1  RSN  4 0.3 1.5LRSN                1
 GAP=140        0.52       4.8     6.2  7.7 -0.6040E+01  0.1120E+02  0.1332E+02E
 Epicentro: LOS SANTOS - SANTANDER                                             3
 ACTION:UPD 12-07-13 16:04 OP:ep   STATUS:               ID:20111015175105 L   I
 2011-10-15-1747-31S.COL___168                                                 6
 STAT SP IPHASW D HRMM SECON CODA AMPLIT PERI AZIMU VELO AIN AR TRES W  DIS CAZ7
 BAR2 SZ EP   2   1751 24.60                             170   -0.40 5 25.4 196 
 BAR2 SZ I        1751 25.47         9.5 0.47                          25.4 196 
 BRR  HZ EP   1   1751 26.64                             152    0.04 7 73.3 296 
 BRR  HZ I        1751 37.06         8.7 0.22                          73.3 296 
 BRR  HN ES   2   1751 43.15                             152    0.02 5 73.3 296 
 PAM  SZ EP   1   1751 27.77                             151    0.40 7 74.3  38 
 PAM  SN ES       1751 44.37                             151   -0.1210 74.3  38 
 RUS  HZ EP   1   1751 28.96                             143   -0.22 7  102 178 
 RUS  HN ES   2   1751 48.10                             143    0.38 5  102 178 
 RUS  HZ I        1751 50.06         2.0 0.37                           102 178 
                                                                                
