 2012  215 1650 54.2 L   6.776 -73.140149.4  RSN  5 0.3 1.7LRSN                1
 GAP=186        0.61       6.1     8.8  6.3  0.3346E+02  0.2839E+01  0.2756E+01E
 ACTION:UP  12-03-07 16:30 OP:epov STATUS:               ID:20120215165054 L   I
 2012-02-15-1650-00M.COL___188                                                 6
 STAT SP IPHASW D HRMM SECON CODA AMPLIT PERI AZIMU VELO AIN AR TRES W  DIS CAZ7
 BAR2 SZ EP   1   1651 14.11                             171   -0.07 7 20.9 193 
 BAR2 SZ ES   1   1651 29.14                             171   -0.66 7 20.9 193 
 BAR2 SZ I        1651 30.62        13.1 0.16                          20.9 193 
 GIR2 SZ EP   1   1651 14.22                             167   -0.12 7 34.0 350 
 GIR2 SZ ES   1   1651 30.30                             167    0.22 7 34.0 350 
 BRR  HZ EP   1   1651 15.98                             152    0.17 7 73.1 300 
 BRR  HZ I        1651 16.36        11.3 0.12                          73.1 300 
 BRR  HE ES   1   1651 32.94                             152    0.25 7 73.1 300 
 RUS  HZ EP   1   1651 18.08                             145    0.00 7 97.9 176 
 RUS  HE ES   1   1651 37.08                             145    0.34 7 97.9 176 
 RUS  HZ I        1651 38.44         5.6 0.47                          97.9 176 
 ZAR  HN ES   2   1651 52.26                             123   -0.37 4  206 293 
 ZAR  HZ I        1651 58.88         5.9 0.26                           206 293 
                                                                                
