 2010  315 1025  1.7 L   6.804 -73.137147.1  RSN  6 0.3 1.6LRSN                1
 GAP=184        0.59       4.0     7.9  7.9  0.3370E+01  0.8145E+01  0.7803E+00E
 Epicentro: LOS SANTOS - SANTANDER                                             3
 ACTION:UP  10-08-24 09:54 OP:vdl  STATUS:               ID:20100315102501 L   I
 2010-03-15-1020-39S.COL___095                                                 6
 STAT SP IPHASW D HRMM SECON CODA AMPLIT PERI AZIMU VELO SNR AR TRES W  DIS CAZ7
 BAR2 SZ EP   2   1025 21.38                             170    -0.1 5   24 192 
 BAR2 SZ ES   2   1025 36.63                             170    -0.3 5   24 192 
 BRR  HZ EP       1025 22.71                             152    -0.310   72 298 
 BRR  HZ I        1025 29.72         6.7 0.07                            72 298 
 BRR  HE ES   2   1025 40.19                             152     0.6 5   72 298 
 RUS  HZ EP   2   1025 25.83                             144     0.3 5  101 177 
 RUS  HE ES   2   1025 44.37                             144     0.2 5  101 177 
 RUS  HZ I        1025 45.90         3.6 0.32                           101 177 
 OCA  SZ EP   2   1025 30.03                             130     0.0 5  160 353 
 OCA  SZ ES   2   1025 52.44                             130     0.3 5  160 353 
 OCA  SZ I        1025 57.46         6.5 0.09                           160 353 
 CHI  HZ EP   2   1025 40.22                             117     0.7 4  249 195 
 CHI  HN ES   2   1026  8.58                             117    -0.4 4  249 195 
 CHI  HZ I        1026 16.85         1.7 0.50                           249 195 
 HEL  HN ES   2   1026 13.61                             115     0.1 4  273 256 
 HEL  HZ I        1026 20.17         3.0 0.35                           273 256 
                                                                                
