 2011  715 1950 47.1 L   6.146 -73.823 16.5  RSN  5 0.4 1.0LRSN                1
 GAP=131        0.81       3.5     5.0 10.5  0.3548E+01  0.4513E+02  0.1438E+02E
 Epicentro: LANDAZURI - SANTANDER                                              3
 *RUS-BRR-NOR-PAM-GUY                                                          3
 ACTION:UPD 12-07-25 14:01 OP:epov STATUS:               ID:20110715195046 L   I
 2011-07-15-1948-15S.COL___132                                                 6
 STAT SP IPHASW D HRMM SECON CODA AMPLIT PERI AZIMU VELO AIN AR TRES W  DIS CAZ7
 RUS  HZ EP   1   1951  1.00                              99   -0.45 8 86.6 109 
 RUS  HZ I        1951  1.09         2.9 0.08                          86.6 109 
 RUS  HN ES   1   1951 12.86                              99    0.20 8 86.6 109 
 BRR  HZ I        1951  2.28         9.6 0.12                           107   7 
 BRR  HN ES   1   1951 17.09                              97   -0.12 8  107   7 
 NOR  SN ES       1951 24.51                              56    0.3710  133 241 
 NOR  SZ I        1951 26.90         1.1 0.18                           133 241 
 PAM  SZ EP       1951 14.76                              56    0.23 9  181  43 
 GUY  SN ES   1   1951 39.61                              56   -0.75 7  201 240 
                                                                                
