 2016  415 1655 13.0 L   6.781 -73.160138.2  RSN  6 0.4 1.5LRSN                1
 GAP=147        0.98      10.1     7.8  8.2 -0.6037E+02  0.1997E+02 -0.4488E+01E
 Epicentro: LOS SANTOS - SANTANDER                                             3
 ACTION:UPD 16-05-05 14:21 OP:rebc STATUS:               ID:20160415165513 L   I
 OLDACT:REG 16-04-15 19:05 OP:ar   STATUS:               ID:20160415164745     3
 2016-04-15-1647-45M.COL___319                                                 6
 STAT SP IPHASW D HRMM SECON CODA AMPLIT PERI AZIMU VELO AIN AR TRES W  DIS CAZ7
 BAR2 EZ EP       1655 31.00                             171   -0.6810 21.0 187 
 BAR2 EZ ES       1655 46.06                             171   -0.1810 21.0 187 
 BAR2 EZ I        1655 47.65         6.0 0.30            167           21.0 187 
 PAM  EZ EP       1655 34.93                             148    0.3510 80.0  39 
 PAM  EN ES       1655 51.69                             148    0.2810 80.0  39 
 PAM  EZ I        1655 56.20         5.3 0.42            146           80.0  39 
 RUS  HZ E        1657 30.40                                           98.6 175 
 PTB  HZ EP       1655 38.72                             130   -0.47 9  146 260 
 PTB  HN ES       1655 59.60                             130   -0.01 9  146 260 
 PTB  HZ I        1656  7.89         6.7 0.26            128            146 260 
 SPBC HZ EP   4   1655 39.31                             128   -1.37 0  161 219 
 SPBC HN ES   2   1656  3.01                             128    0.74 5  161 219 
 NOR  HZ EP       1655 48.32                             117    0.28 8  232 235 
 NOR  HN ES       1656 15.83                             117    0.47 8  232 235 
 NOR  HZ I        1656 17.67         2.6 0.18            119            232 235 
                                                                                
