 2016 1215 1548 13.4 L   6.759 -73.198142.4  RSN  4 0.2 1.5LRSN                1
 GAP=140        0.56       3.4     3.2  4.7 -0.3290E+01  0.4044E+01 -0.1721E+01E
 Epicentro: VILLANUEVA - SANTANDER                                             3
 ACTION:UPD 17-01-11 20:15 OP:rebc STATUS:               ID:20161215154813 L   I
 OLDACT:DUP 16-12-16 01:49 OP:ar   STATUS:               ID:20161215153860d    3
 OLDACT:REG 16-12-15 22:30 OP:ar   STATUS:               ID:20161215153858     3
 2016-12-15-1539-10M.COL___352                                                 6
 STAT SP IPHASW D HRMM SECON CODA AMPLIT PERI AZIMU VELO AIN AR TRES W  DIS CAZ7
 BAR2 EZ EP       1548 32.66                             172    0.1310 18.5 175 
 BAR2 EZ ES       1548 47.46                             172    0.0110 18.5 175 
 BAR2 EZ I        1548 49.02         6.9 0.24            173           18.5 175 
 PAM  EZ EP       1548 35.56                             148   -0.1510 84.6  41 
 PAM  EN ES       1548 53.15                             148    0.0410 84.6  41 
 PAM  EZ I        1548 55.06         5.8 0.56            152           84.6  41 
 RUS  HZ EP       1548 36.86                             144    0.3310 96.6 172 
 RUS  HN ES       1548 54.34                             144   -0.2310 96.6 172 
 RUS  HZ I        1548 56.45         4.8 0.34            148           96.6 172 
 PTB  HZ EP       1548 39.20                             133   -0.29 9  141 260 
 PTB  HN ES       1548 59.99                             133    0.14 9  141 260 
 PTB  HZ I        1549  6.68         5.8 0.36            133            141 260 
                                                                                
