 2015  215 1425 47.8 L   6.225 -73.589103.1  RSN  7 0.3 1.4LRSN                1
 GAP=118        0.75       3.6     2.7  5.4 -0.2839E+01  0.6521E+01  0.2462E+01E
 Epicentro: LA PAZ - SANTANDER                                                 3
 ACTION:UPD 15-04-30 21:26 OP:nd   STATUS:               ID:20150215142547 L   I
 OLDACT:REG 15-02-15 22:13 OP:fm   STATUS:               ID:20150215141744     3
 2015-02-15-1417-44M.COL___301                                                 6
 STAT SP IPHASW D HRMM SECON CODA AMPLIT PERI AZIMU VELO AIN AR TRES W  DIS CAZ7
 BAR2 EZ EP       1426  4.23                             147    0.0510 60.6  48 
 BAR2 EZ ES       1426 17.29                             147    0.3710 60.6  48 
 BAR2 EZ I        1426 18.86        12.2 0.22            155           60.6  48 
 RUS  HZ EP       1426  4.80                             145   -0.1810 67.0 123 
 RUS  HE ES       1426 18.21                             145   -0.1410 67.0 123 
 RUS  HZ I        1426 20.79         2.6 0.24            148           67.0 123 
 SPBC HN ES       1426 19.47                             138   -0.0310 82.9 220 
 SPBC HZ I        1426 22.72        11.2 0.10            139           82.9 220 
 PTB  HZ EP       1426  6.84                             131   -0.3410  102 290 
 PTB  HN ES       1426 22.23                             131   -0.0410  102 290 
 PTB  HZ I        1426 24.38         2.7 0.44            135            102 290 
 NOR  HZ EP       1426 12.43                             118   -0.60 9  160 243 
 NOR  HE ES       1426 32.74                             118    0.06 9  160 243 
 NOR  HZ I        1426 38.01         6.3 0.12            120            160 243 
 GUY2CHZ EP       1426 21.33                             109    0.33 8  226 241 
 GUY2CHE ES       1426 46.95                             109    0.10 8  226 241 
 GUY2CHZ I        1426 58.71         3.3 0.52                           226 241 
 RREF HZ EP       1426 23.88                             107    0.60 8  244 233 
 RREF HN ES       1426 51.10                             107    0.17 8  244 233 
 RREF HZ I        1426 57.91         2.4 0.26            110            244 233 
                                                                                
