 2013 1015 1844 20.3 L   6.801 -73.154147.6  RSN 14 0.5 2.8LRSN 3.1WRSN        1
 SPEC AVERAGE  MO 13.8 ST 44.7 OM  2.4 f0 6.47 R0.3604 AL 0.00 WI 24.7 MW  3.1 3
 SPEC SD       MO  0.2 ST 58.7 OM  0.5 f0 3.50 R0.2364 AL      WI      MW  0.1 3
 GAP= 71        1.07       3.4     3.0  5.4  0.2719E+00  0.3782E+01  0.2553E+00E
 Epicentro: LOS SANTOS - SANTANDER                                             3
 SPEC HEL HH N MO 13.7 ST  5.3 OM  1.8 f0 4.54 R0.3423 AL 0.00 WI 25.2 MW  3.1 3
 SPEC HEL HH N T184533 K 0.000 GD  308 VS 4.20 DE 3.20 Q0300.0 QA 0.60 VS 4.20 3
 SPEC SML HH N MO 13.4 ST 32.9 OM  1.6 f0 10.0 R0.1554 AL 0.00 WI 25.2 MW  2.9 3
 SPEC SML HH N T184524 K 0.000 GD  284 VS 4.20 DE 3.20 Q0300.0 QA 0.60 VS 4.20 3
 SPEC NOR HH E MO 13.8 ST 71.3 OM  2.0 f0 9.60 R0.1619 AL 0.00 WI 25.8 MW  3.2 3
 SPEC NOR HH E T184519 K 0.000 GD  276 VS 4.20 DE 3.20 Q0300.0 QA 0.60 VS 4.20 3
 SPEC ZAR HH E MO 14.2 ST183.5 OM  2.4 f0 10.0 R0.1554 AL 0.00 WI 27.0 MW  3.4 3
 SPEC ZAR HH E T184518 K 0.000 GD  250 VS 4.20 DE 3.20 Q0300.0 QA 0.60 VS 4.20 3
 SPEC TAM HH E MO 14.0 ST0.897 OM  2.3 f0 1.93 R0.8052 AL 0.00 WI 19.4 MW  3.3 3
 SPEC TAM HH E T1845 8 K 0.000 GD  214 VS 4.20 DE 3.20 Q0300.0 QA 0.60 VS 4.20 3
 SPEC PTB HH N MO 13.7 ST 60.6 OM  2.0 f0 10.0 R0.1554 AL 0.00 WI 31.7 MW  3.1 3
 SPEC PTB HH N T1845 8 K 0.000 GD  208 VS 4.20 DE 3.20 Q0300.0 QA 0.60 VS 4.20 3
 SPEC RUS HH E MO 13.6 ST0.823 OM  2.0 f0 2.51 R0.6191 AL 0.00 WI 22.9 MW  3.0 3
 SPEC RUS HH E T1845 0 K 0.000 GD  178 VS 4.20 DE 3.20 Q0300.0 QA 0.60 VS 4.20 3
 SPEC PAM SH N MO 13.7 ST  2.0 OM  2.1 f0 3.18 R0.4887 AL 0.00 WI 20.5 MW  3.1 3
 SPEC PAM SH N T184458 K 0.000 GD  166 VS 4.20 DE 3.20 Q0300.0 QA 0.60 VS 4.20 3
 ACTION:UPD 13-11-25 09:21 OP:ep   STATUS:               ID:20131015184420 L   I
 OLDACT:UP  13-10-15 16:40 OP:cam  STATUS:               ID:20131015183959     3
 OLDACT:UP  13-10-15 16:40 OP:cam  STATUS:               ID:20131015183959     3
 OLDACT:REG 13-10-15 15:24 OP:cam  STATUS:               ID:20131015183959     3
 2013-10-15-1839-59M.COL___274                                                 6
 STAT SP IPHASW D HRMM SECON CODA AMPLIT PERI AZIMU VELO AIN AR TRES W  DIS CAZ7
 BAR2 SZ EP       1844 40.03                             171   -0.1110 23.2 188 
 BAR2 SZ ES       1844 55.60                             171   -0.0210 23.2 188 
 BAR2 SZ I        1845  0.96       127.8 0.44            172           23.2 188 
 BRR  HZ IP     C 1844 41.95                             153    0.3510 70.4 299 
 BRR  HN ES       1844 59.13                             153    0.9210 70.4 299 
 BRR  HZ I        1845  4.23        79.8 0.48            151           70.4 299 
 PAM  SZ IP     C 1844 42.88                             151    0.1410 77.9  40 
 PAM  SN ES       1844 59.81                             151   -0.4310 77.9  40 
 PAM  SE I        1845  1.24       135.4 0.80            154           77.9  40 
 RUS  HZ IP     C 1844 43.99                             144   -0.2510  101 176 
 RUS  HE ES       1845  2.93                             144    0.0210  101 176 
 RUS  HZ I        1845  4.76        30.2 0.42            149            101 176 
 PTB  HZ EP       1844 46.73                             133   -0.60 9  147 259 
 PTB  HN ES       1845  7.93                             133   -0.49 9  147 259 
 PTB  HZ I        1845 10.09        83.3 0.16            133            147 259 
 TAM  HZ IP     C 1844 48.32                             131    0.12 9  156 105 
 TAM  HE ES       1845 10.10                             131    0.13 9  156 105 
 TAM  HZ I        1845 10.36        33.0 0.22            137            156 105 
 SPBC HZ EP       1844 49.05                             130    0.16 9  163 219 
 SPBC HN ES       1845 10.46                             130   -0.72 9  163 219 
 SPBC HZ I        1845 16.85        65.0 0.48            132            163 219 
 ZAR  HZ EP       1844 53.18                             123    0.41 9  203 292 
 ZAR  HE ES       1845 18.82                             123    0.72 9  203 292 
 ZAR  HZ I        1845 24.92        76.1 0.34            124            203 292 
 NOR  HZ IP     C 1844 56.53                             119    0.47 8  234 234 
 NOR  HE ES       1845 24.31                             119    0.36 8  234 234 
 NOR  HZ I        1845 29.56        44.4 0.30            121            234 234 
 SML  HZ EP       1844 56.69                             118   -0.29 8  243 335 
 SML  HN ES   1   1845 24.86                             118   -0.73 6  243 335 
 SML  HZ I        1845 36.00        50.0 0.10            119            243 335 
 CHI  HZ EP       1844 58.23                             118    0.15 8  248 195 
 HEL  HZ EP   4   1845  1.94                             115    1.43 0  271 256 
 HEL  HN ES   4   1845 34.93                             115    3.06 0  271 256 
 HEL  HZ I        1845 39.07        31.9 0.28            117            271 256 
 URE  HZ EP   1   1845  1.20                             114   -0.16 6  283 292 
 URE  HE ES       1845 32.52                             114   -0.86 7  283 292 
 URE  HZ I        1845 44.78        64.6 0.82            115            283 292 
 GUY2CHZ EP   1   1845  4.50                             113    0.59 5  300 235 
 GUY2CHN ES   1   1845 37.62                             113   -0.31 5  300 235 
 GUY2CHZ I        1845 47.69        30.0 0.64                           300 235 
 PRA  HZ EP   4   1845 15.40                             107    1.56 0  392 209 
 SJC  HZ EP   4   1845 15.36                             106   -0.50 0  409 327 
                                                                                
