 2014  515 1459 20.4 L   6.806 -73.165141.4  RSN 26 0.5 3.5LRSN                1
 GAP= 70        1.14       2.5     2.8  5.3 -0.8574E+00  0.3149E+01  0.2601E+01E
 Epicentro: LOS SANTOS - SANTANDER                                             3
 ACTION:UPD 15-03-16 16:58 OP:nd   STATUS:               ID:20140515145920 L   I
 OLDACT:REG 14-05-15 22:08 OP:carl STATUS:               ID:20140515145820     3
 2014-05-15-1458-20M.COL___257                                                 6
 STAT SP IPHASW D HRMM SECON CODA AMPLIT PERI AZIMU VELO AIN AR TRES W  DIS CAZ7
 BRR  HZ IP     C 1459 41.60                             153    0.6610 69.0 299 
 BRR  HN ES       1459 57.45                             153    0.4810 69.0 299 
 BRR  HZ I        1459 59.61       469.2 0.18            152           69.0 299 
 PAM  SZ IP     D 1459 42.72                             150    0.5210 78.2  41 
 PAM  SN ES       1459 59.46                             150    0.2510 78.2  41 
 PAM  SZ I        15 0  1.98       829.5 0.56            153           78.2  41 
 RUS  HZ IP     C 1459 43.66                             143   -0.1210  101 175 
 RUS  HN ES       15 0  2.23                             143    0.2110  101 175 
 RUS  HZ I        15 0  3.89       457.6 0.34            143            101 175 
 PTB  HZ IP     C 1459 46.17                             131   -0.66 9  146 258 
 PTB  HN ES       15 0  6.34                             131   -1.10 9  146 258 
 PTB  HZ I        15 0 10.17       483.0 0.16            131            146 258 
 TAM  HZ IP     D 1459 48.13                             129    0.19 9  157 105 
 TAM  HN ES       15 0  9.23                             129   -0.20 9  157 105 
 OCA  HZ EP       1459 48.07                             129   -0.21 9  159 354 
 OCA  HN ES       15 0  9.78                             129   -0.25 9  159 354 
 OCA  HZ I        15 0 13.18       322.5 0.28            131            159 354 
 SPBC HZ IP     C 1459 48.60                             128    0.12 9  162 218 
 SPBC HN ES       15 0 10.14                             128   -0.25 9  162 218 
 SPBC HZ I        15 0 15.11       302.9 0.38            128            162 218 
 ZAR  HZ EP       1459 52.71                             122    0.39 9  202 292 
 ZAR  HE ES       15 0 17.98                             122    0.75 9  202 292 
 ZAR  HZ I        15 0 23.74       321.1 0.44            122            202 292 
 NOR  HZ IP     C 1459 55.52                             118   -0.21 8  233 234 
 NOR  HN ES       15 0 23.33                             118    0.04 8  233 234 
 NOR  HZ I        15 0 29.27       172.0 0.52            118            233 234 
 SML  HZ EP       1459 56.17                             117   -0.44 8  242 336 
 SML  HN ES       15 0 23.95                             117   -0.91 8  242 336 
 SML  HZ I        15 0 34.14       148.3 0.10            118            242 336 
 CHI  HZ EP       1459 57.72                             116   -0.14 8  249 195 
 CHI  HN ES       15 0 26.80                             116   -0.29 8  249 195 
 CHI  HZ I        15 0 36.47       141.9 0.66            117            249 195 
 ROSC BZ IP   4 C 1459 59.60                             116    1.38 0  252 211 
 ROSC BN ES   4   15 0 30.96                             116    3.23 0  252 211 
 ROSC BZ I        15 0 36.05       366.0 0.55            116            252 211 
 HEL  HZ EP       15 0  0.93                             114    0.76 8  270 256 
 HEL  HN ES       15 0 30.61                             114   -0.59 8  270 256 
 HEL  HZ I        15 0 38.70       244.9 0.30            114            270 256 
 URE  HZ EP   4   15 0  0.19                             113   -0.81 0  282 292 
 URE  HE ES   4   15 0 31.84                             113   -0.83 0  282 292 
 URE  HZ I        15 0 35.58       187.5 0.32            113            282 292 
 GUY2CHZ EP       15 0  4.25                             112    0.60 7  300 234 
 GUY2CHN ES       15 0 37.51                             112    0.12 7  300 234 
 GUY2CHZ I        15 0 45.14       196.5 0.30                           300 234 
 VIL  SZ EP       15 0  3.47                             111   -0.17 7  304 191 
 VIL  SN ES       15 0 36.70                             111   -0.68 7  304 191 
 VIL  SZ I        15 0 43.40       180.4 0.46            112            304 191 
 PTGC HZ EP   4   15 0  3.04                             111   -1.18 0  310 158 
 PTGC HN ES   4   15 0 35.70                             111   -2.71 0  310 158 
 PTGC HZ I        15 0 37.92       131.0 0.38            112            310 158 
 CBOC HZ EP       15 0  7.63                             109    0.71 7  332 252 
 CBOC HE ES       15 0 42.47                             109   -0.74 7  332 252 
 CBOC HZ I        15 0 53.43        73.7 0.56            110            332 252 
 DBB  SZ EP       15 0  8.13                             109    0.69 7  337 274 
 DBB  SZ ES       15 0 44.00                             109   -0.14 7  337 274 
 ANIL HZ EP       15 0 10.79                             108    0.88 6  356 224 
 ANIL HN ES       15 0 49.62                             108    1.08 6  356 224 
 ANIL HZ I        15 0 57.05       283.5 0.38            108            356 224 
 SDV  BZ EP       15 0  9.56                             107   -0.85 6  362  50 
 SDV  BE ES   4   15 0 46.48                             107   -2.94 0  362  50 
 SDV  BZ I        15 0 51.78       126.5 0.55            109            362  50 
 PRA  HZ EP       15 0 13.12                             106   -0.59 6  392 209 
 PRA  HE ES       15 0 55.24                             106   -0.06 6  392 209 
 PRA  HZ I        15 1  4.20       118.7 0.48            106            392 209 
 ORTC HZ EP       15 0 14.61                             106    0.53 6  395 216 
 ORTC HN ES       15 0 55.71                             106   -0.25 6  395 216 
 ORTC HZ I        15 1  1.56        82.1 0.50            106            395 216 
 SJC  HZ EP   4   15 0 14.19                             105   -1.41 0  407 327 
 SJC  HE ES   4   15 0 53.60                             105   -5.07 0  407 327 
 YOT  HZ EP       15 0 22.56                             103   -0.62 5  471 229 
 YOT  HN ES   4   15 1 10.91                             103   -1.24 0  471 229 
 CAP2 HZ EP   4   15 0 27.43                             101    0.25 0  505 294 
 CAP2 HE ES   4   15 1 15.98                             101   -3.29 0  505 294 
 MACC HZ EP   4   15 0 26.91                             101   -2.13 0  521 188 
 MACC HE ES   4   15 1 16.61                             101   -5.98 0  521 188 
 MACC HZ I        15 1 50.39        26.4 0.48            102            521 188 
 POP2 HZ EP       15 0 39.98                              99   -0.24 3  612 220 
                                                                                
