 2016  715 1630  2.5 L   6.786 -73.183147.3  RSN  6 0.3 1.6LRSN                1
 GAP=241        0.71       4.2     4.6  5.8  0.9901E+01  0.7661E+01 -0.2024E+00E
 Epicentro: LOS SANTOS - SANTANDER                                             3
 ACTION:UPD 17-03-29 16:51 OP:lp   STATUS:               ID:20160715163002 L   I
 OLDACT:REG 16-07-15 20:47 OP:dani STATUS:               ID:20160715162759     3
 2016-07-15-1627-59S.COL___331                                                 6
 STAT SP IPHASW D HRMM SECON CODA AMPLIT PERI AZIMU VELO AIN AR TRES W  DIS CAZ7
 BAR2 EZ EP       1630 22.06                             171   -0.2010 21.4 180 
 BAR2 EZ ES       1630 37.88                             171    0.1910 21.4 180 
 BAR2 EZ I        1630 38.80         8.2 0.20            173           21.4 180 
 RUS  HZ EP       1630 26.07                             145   -0.2310 99.4 174 
 RUS  HN ES       1630 45.00                             145    0.1210 99.4 174 
 RUS  HZ I        1630 45.83         4.4 0.24            147           99.4 174 
 PTB  HZ EP       1630 29.17                             133   -0.01 9  143 259 
 PTB  HN ES       1630 49.98                             133   -0.03 9  143 259 
 PTB  HZ I        1630 51.74         4.0 0.34            133            143 259 
 ZAR  HZ EP       1630 35.34                             123    0.64 9  201 293 
 ZAR  HN ES       1630 59.46                             123   -0.36 9  201 293 
 ZAR  HZ I        1631  6.16         4.6 0.24            123            201 293 
 CHI  HN ES       1631  9.04                             118   -0.20 8  246 194 
 PRA  HN ES   2   1631 38.07                             107    0.93 3  389 209 
                                                                                
