 2012  815 1807 10.2 L   6.847 -73.045150.8  RSN  4 0.2 1.7LRSN                1
 GAP=251        0.46       6.8     7.8  5.5  0.4363E+02 -0.9624E+01 -0.1135E+02E
 Epicentro: LOS SANTOS - SANTANDER                                             3
 ACTION:UPD 12-09-10 11:56 OP:ep   STATUS:               ID:20120815180710 L   I
 2012-08-15-1800-00M.COL___217                                                 6
 STAT SP IPHASW D HRMM SECON CODA AMPLIT PERI AZIMU VELO AIN AR TRES W  DIS CAZ7
 BAR2 SZ EP   1   18 7 30.52                             167   -0.14 7 32.0 208 
 BAR2 SZ I        18 7 30.79         8.3 0.19                          32.0 208 
 BAR2 SZ ES   1   18 7 46.32                             167   -0.28 7 32.0 208 
 BRR  HZ EP       18 7 32.44                             151    0.0610 79.1 291 
 BRR  HZ I        18 7 34.01        13.1 0.15                          79.1 291 
 BRR  HN ES   1   18 7 49.96                             151    0.31 7 79.1 291 
 RUS  HZ EP   1   18 7 34.91                             143    0.07 7  106 182 
 RUS  HN ES   1   18 7 54.14                             143    0.10 7  106 182 
 ZAR  HN ES   1   18 8  9.89                             122   -0.24 6  213 290 
 ZAR  HZ I        18 8 15.02         3.6 0.06                           213 290 
                                                                                
