 2011  815 1812 44.5 L   7.421 -72.901169.6  RSN  5 0.2 1.8LRSN                1
 GAP=139        0.44       3.1     6.0  4.7  0.2103E+01  0.1619E+01  0.2418E+01E
 Epicentro: CALIFORNIA - SANTANDER                                             3
 ACTION:UPD 12-07-13 15:52 OP:ep   STATUS:               ID:20110815181244 L   I
 2011-08-15-1807-59S.COL___149                                                 6
 STAT SP IPHASW D HRMM SECON CODA AMPLIT PERI AZIMU VELO AIN AR TRES W  DIS CAZ7
 PAM  SZ EP   1   1813  7.44                             171    0.06 7 24.0 112 
 PAM  SN ES   1   1813 25.29                             171    0.05 7 24.0 112 
 BRR  HZ EP   1   1813  9.53                             149   -0.12 7 96.0 249 
 BRR  HN ES   2   1813 29.54                             149    0.26 5 96.0 249 
 BRR  HZ I        1813 30.92         9.1 0.25                          96.0 249 
 BAR2 SZ EP   2   1813  9.45                             149   -0.59 5 96.8 199 
 BAR2 SZ ES   1   1813 29.95                             149   -0.03 7 96.8 199 
 BAR2 SZ I        1813 31.23        12.7 0.30                          96.8 199 
 OCA  SZ EP   2   1813 10.42                             148    0.19 5  102 333 
 OCA  SZ ES   1   1813 30.20                             148   -0.11 7  102 333 
 OCA  SZ I        1813 32.75        12.8 0.15                           102 333 
 RUS  HZ EP   1   1813 16.43                             133    0.35 7  170 187 
 RUS  HE ES   2   1813 40.50                             133   -0.23 4  170 187 
 RUS  HZ I        1813 42.68         2.1 0.20                           170 187 
                                                                                
