 2012  415 1057  4.6 L   6.778 -73.113143.6  RSN  5 0.3 1.7LRSN                1
 GAP=142        0.68       4.5     4.6  6.2  0.3688E+01  0.5123E+01 -0.2940E+01E
 Epicentro: LOS SANTOS - SANTANDER                                             3
 ACTION:UPD 12-07-05 11:53 OP:tino STATUS:               ID:20120415105704 L   I
 2012-04-15-1050-04M.COL___166                                                 6
 STAT SP IPHASW D HRMM SECON CODA AMPLIT PERI AZIMU VELO AIN AR TRES W  DIS CAZ7
 BAR2 SZ EP       1057 23.84                             171    -0.110   22 201 
 BAR2 SZ I        1057 24.02        18.2 0.11                            22 201 
 BAR2 SZ ES   1   1057 38.74                             171    -0.2 7   22 201 
 BRR  HZ EP       1057 25.72                             151     0.010   76 299 
 BRR  HN ES   1   1057 42.83                             151     0.6 7   76 299 
 BRR  HZ I        1057 44.03        12.2 0.25                            76 299 
 PAM  SZ EP       1057 26.65                             150     0.110   77  36 
 PAM  SN ES   1   1057 43.44                             150    -0.2 7   77  36 
 RUS  HZ EP   1   1057 27.81                             144    -0.1 7   98 178 
 RUS  HZ I        1057 28.96         5.1 0.15                            98 178 
 RUS  HN ES   1   1057 46.23                             144     0.1 7   98 178 
 ZAR  HZ EP   1   1057 37.62                             121     0.3 6  208 292 
 ZAR  HN ES   1   1058  2.28                             121    -0.6 6  208 292 
                                                                                
