 2013  315 1720 15.0 L   6.778 -73.137141.5  RSN 10 0.3 2.2LRSN                1
 GAP=139        0.72       3.5     3.8  4.8 -0.1120E+01  0.6911E+01  0.3931E+00E
 Epicentro: LOS SANTOS - SANTANDER                                             3
 ACTION:UPD 13-04-09 14:02 OP:ep   STATUS:               ID:20130315172015 L   I
 2013-03-15-1720-00M.COL___244                                                 6
 STAT SP IPHASW D HRMM SECON CODA AMPLIT PERI AZIMU VELO AIN AR TRES W  DIS CAZ7
 BAR2 SZ EP       1720 34.26                             171    0.1810 21.2 194 
 BAR2 SZ ES       1720 48.88                             171   -0.0710 21.2 194 
 BAR2 SZ I        1720 50.89        57.0 0.21            173           21.2 194 
 BRR  HZ IP     C 1720 36.06                             151    0.2510 73.2 300 
 BRR  HN ES   1   1720 52.38                             151    0.35 7 73.2 300 
 BRR  HE I        1720 56.36        68.5 0.31            141           73.2 300 
 PAM  SZ EP   1   1720 37.07                             149    0.23 7 78.7  38 
 PAM  SZ I        1720 37.44        15.9 0.24            141           78.7  38 
 PAM  SN ES   1   1720 53.66                             149   -0.22 7 78.7  38 
 RUS  HZ EP   1   1720 38.14                             144   -0.02 7 98.1 177 
 RUS  HN ES   1   1720 56.08                             144   -0.13 7 98.1 177 
 RUS  HN I        1720 57.78        24.0 0.27            141           98.1 177 
 PTB  HZ EP       1720 40.88                             131   -0.79 9  148 260 
 PTB  HE ES   1   1721  2.47                             131    0.00 7  148 260 
 PTB  HZ I        1721  4.79        15.0 0.15            123            148 260 
 ZAR  HZ EP   1   1720 47.85                             121    0.49 6  206 293 
 ZAR  HE ES   1   1721 12.09                             121   -0.51 6  206 293 
 ZAR  HZ I        1721 17.50        13.8 0.37            113            206 293 
 NOR  HZ EP   1   1720 50.28                             118   -0.14 6  234 235 
 NOR  HN ES   1   1721 18.47                             118    0.42 6  234 235 
 NOR  HZ I        1721 27.65         8.0 0.15            112            234 235 
 SML  HZ EP   1   1720 51.54                             116   -0.13 6  246 335 
 SML  HZ I        1721 23.36        19.3 0.07            109            246 335 
 HEL  HZ EP   1   1720 55.66                             114    0.62 6  272 256 
 PRA  HZ EP   1   1721  8.00                             106   -0.19 4  390 210 
 PRA  HN ES   1   1721 49.65                             106   -0.03 4  390 210 
 PRA  HZ I        1721 56.78         7.6 0.41            101            390 210 
                                                                                
