 2011  715 1536 22.6 L   6.781 -73.057146.0  RSN 16 0.5 2.7LRSN                1
 GAP=149        0.96       3.4     5.7  6.1 -0.8187E+01  0.1018E+02  0.3417E+01E
 Epicentro: LOS SANTOS - SANTANDER                                             3
 ACTION:UPD 12-07-25 14:00 OP:epov STATUS:               ID:20110715153622 L   I
 2011-07-15-1535-18S.COL___132                                                 6
 STAT SP IPHASW D HRMM SECON CODA AMPLIT PERI AZIMU VELO AIN AR TRES W  DIS CAZ7
 BAR2 SZ EP       1536 42.15                             170   -0.1810 25.1 213 
 BAR2 SZ ES   1   1536 57.55                             170   -0.14 7 25.1 213 
 BAR2 SZ I        1536 58.93       195.0 0.24                          25.1 213 
 BTL  SZ EP       1536 43.37                             169    0.9810 27.7 303 
 PAM  SZ EP       1536 44.87                             152    0.2310 73.3  33 
 PAM  SN ES   1   1537  2.34                             152    0.54 7 73.3  33 
 PAM  SZ I        1537  4.34        32.2 0.53                          73.3  33 
 BRR  HZ EP       1536 44.03                             149   -0.3510 80.8 297 
 BRR  HZ I        1536 44.28       209.9 0.16                          80.8 297 
 BRR  HE ES   1   1537  1.10                             149   -0.24 7 80.8 297 
 RUS  HZ EP       1536 45.98                             144   -0.2710 98.3 182 
 RUS  HN ES   1   1537  4.23                             144   -0.43 7 98.3 182 
 RUS  HZ I        1537  6.00        29.7 0.29                          98.3 182 
 BRI  SZ EP       1536 46.70                             142    0.2310  107  16 
 BRI  SZ ES   1   1537  4.53                             142   -0.52 7  107  16 
 BRI  SZ I        1537 10.17        49.9 0.37                           107  16 
 GRA  SZ IP     C 1536 47.94                             137    0.0910  125  13 
 GRA  SZ ES   1   1537  7.65                             137    0.13 7  125  13 
 GRA  SZ I        1537  9.23        51.0 0.30                           125  13 
 OCA  SZ EP   1   1536 50.84                             129   -0.45 7  164 350 
 OCA  SZ ES   1   1537 13.15                             129   -0.49 7  164 350 
 OCA  SZ I        1537 19.02        48.9 0.22                           164 350 
 NOR  SZ EP   1   1536 58.32                             118   -0.80 6  242 236 
 CHI  HZ EP   1   1536 59.96                             117   -0.47 6  249 197 
 CHI  HN ES   1   1537 29.82                             117   -0.09 6  249 197 
 CHI  HZ I        1537 39.02        24.1 0.63                           249 197 
 ROSC BZ EP   1   1537  1.74                             116    0.60 6  256 213 
 HEL  HZ EP   1   1537  4.06                             114    0.20 6  281 257 
 HEL  HN ES   1   1537 36.75                             114    0.74 6  281 257 
 HEL  HZ I        1537 40.76        39.9 0.34                           281 257 
 GUY  SZ EP   1   1537  8.16                             112    0.86 5  310 236 
 GUY  SZ I        1537 49.52        35.4 0.42                           310 236 
 DBB  SZ EP   1   1537 10.33                             109   -0.93 5  349 274 
 TOL  SZ EP   1   1537 11.52                             109   -0.01 5  349 226 
 TOL  SZ ES   1   1537 50.30                             109    0.63 5  349 226 
 PRA  HZ EP   1   1537 15.61                             106   -0.92 4  395 211 
 PRA  HN ES   1   1537 59.00                             106    0.43 4  395 211 
 PRA  HZ I        1538  1.48        70.3 0.26                           395 211 
                                                                                
