 2012 1115 1125 47.6 L   6.763 -73.158144.6  RSN  6 0.4 1.6LRSN                1
 GAP=137        1.01       5.3     5.2  7.3 -0.3041E+01  0.3990E+01  0.2136E+00E
 Epicentro: LOS SANTOS - SANTANDER                                             3
 ACTION:UPD 12-12-05 15:33 OP:}ep  STATUS:               ID:20121115112547 L   I
 2012-11-15-1120-00M.COL___230                                                 6
 STAT SP IPHASW D HRMM SECON CODA AMPLIT PERI AZIMU VELO AIN AR TRES W  DIS CAZ7
 BAR2 SZ EP       1126  7.19                             172    0.1710 19.1 188 
 BAR2 SZ ES       1126 21.86                             172   -0.3010 19.1 188 
 BAR2 SZ I        1126 23.32        13.8 0.28                          19.1 188 
 GIR2 SZ EP       1126  7.16                             166   -0.0910 35.1 354 
 BRR  HZ EP       1126  9.07                             152    0.3910 72.1 302 
 BRR  HN ES       1126 25.71                             152    0.6010 72.1 302 
 BRR  HN I        1126 26.30        23.4 0.18                          72.1 302 
 PAM  SZ IP       1126 10.11                             149    0.1710 81.4  38 
 PAM  SZ I        1126 10.26         5.1 0.18                          81.4  38 
 PAM  SN ES       1126 26.92                             149   -0.4510 81.4  38 
 RUS  HZ EP       1126 11.25                             145    0.2910 96.6 175 
 RUS  HZ I        1126 12.24         2.0 0.18                          96.6 175 
 RUS  HN ES       1126 29.26                             145    0.0910 96.6 175 
 PTB  HZ EP       1126 13.49                             132   -0.80 9  146 260 
 PTB  HN ES       1126 34.90                             132   -0.20 9  146 260 
 PTB  HN I        1126 40.09         5.8 0.58                           146 260 
                                                                                
