 2014  715 1354 38.4 L   7.414 -73.202134.7  RSN  6 0.6 2.2LRSN                1
 GAP=187        1.38       4.9     7.7 10.3 -0.1234E+01  0.1186E+02 -0.7413E+01E
 Epicentro: EL PLAYON - SANTANDER                                              3
 ACTION:UPD 15-03-16 20:44 OP:nd   STATUS:               ID:20140715135438 L   I
 OLDACT:REG 14-07-15 21:31 OP:stll STATUS:               ID:20140715134818     3
 2014-07-15-1348-18M.COL___253                                                 6
 STAT SP IPHASW D HRMM SECON CODA AMPLIT PERI AZIMU VELO AIN AR TRES W  DIS CAZ7
 BRR  HZ EP       1354 58.17                             152    0.1310 65.7 239 
 BRR  HN ES       1355 13.24                             152   -0.1210 65.7 239 
 BRR  HZ I        1355 14.01        38.1 0.12            151           65.7 239 
 BAR2 SZ EP       1354 59.98                             144   -0.0210 90.9 179 
 BAR2 SZ ES       1355 16.32                             144   -0.5310 90.9 179 
 BAR2 SZ I        1355 17.46        51.3 0.14            146           90.9 179 
 OCA  HZ EP       1355  0.04                             144    0.0710 92.1 352 
 OCA  HN ES       1355 17.81                             144    1.0110 92.1 352 
 OCA  HZ I        1355 19.00        19.9 0.26            144           92.1 352 
 PTB  HZ EP       1355  6.75                             125    0.21 9  169 235 
 PTB  HN ES       1355 28.54                             125    0.04 9  169 235 
 PTB  HZ I        1355 31.60         7.8 0.16            126            169 235 
 SML  HZ EP       1355  7.50                             123   -0.21 9  181 328 
 SML  HZ I        1355  7.85        25.5 0.10            124            181 328 
 SML  HN ES       1355 29.15                             123   -1.43 9  181 328 
 ZAR  HZ EP       1355  8.28                             123    0.34 9  183 273 
 ZAR  HN ES       1355 31.35                             123    0.35 9  183 273 
 ZAR  HZ I        1355 34.62        18.3 0.42            123            183 273 
                                                                                
