 2011  215 1018 21.1 L   6.773 -73.162149.6  RSN 17 0.3 4.1LRSN                1
 GAP=135        0.62       2.3     3.5  3.9 -0.1351E+01  0.3375E+01  0.1950E+01E
 Epicentro: LOS SANTOS - SANTANDER                                             3
 ACTION:UP  11-03-28 15:08 OP:jfem STATUS:               ID:20110215101821 L   I
 2011-02-15-1016-47S.COL___137                                                 6
 STAT SP IPHASW D HRMM SECON CODA AMPLIT PERI AZIMU VELO SNR AR TRES W  DIS CAZ7
 BTL  SZ ES   1   1018 57.33                             172     0.6 7   20 324 
 BAR2 SZ EP       1018 41.11                             172     0.010   20 187 
 BAR2 SZ I        1018 58.07      2896.4 0.22                            20 187 
 GIR2 SZ EP       1018 41.19                             167    -0.110   34 354 
 GIR2 SZ ES   1   1018 56.98                             167    -0.1 7   34 354 
 RUS  HZ EP       1018 44.96                             145    -0.110   98 175 
 RUS  HN ES   1   1019  3.47                             145    -0.2 7   98 175 
 GRA  SZ IP       1018 46.91                             137     0.010  129  18 
 GRA  SZ I        1019  8.38      2051.9 0.26                           129  18 
 OCA  SZ IP       1018 49.67                             130    -0.3 9  163 354 
 OCA  SZ ES   1   1019 12.24                             130    -0.2 7  163 354 
 OCA  SZ I        1019 21.71      2104.0 0.19                           163 354 
 YOP  SZ EP       1018 51.60                             127     0.4 9  177 152 
 NOR  SZ EP       1018 56.70                             120     0.0 8  232 235 
 NOR  SN ES   1   1019 24.37                             120    -0.1 6  232 235 
 CHI  HZ EP       1018 58.84                             118     0.2 8  245 195 
 CHI  HN ES   1   1019 27.28                             118    -0.6 6  245 195 
 CHI  HZ I        1019 34.23      1055.3 0.40                           245 195 
 HEL  HZ EP   1   1019  1.03                             116    -0.2 6  270 256 
 HEL  HN ES   1   1019 32.58                             116     0.1 6  270 256 
 HEL  HZ I        1019 39.89       952.6 0.36                           270 256 
 VIL  SZ EP       1019  4.17                             113     0.1 7  298 190 
 GUY  SZ EP   2   1019  5.36                             113     0.8 4  298 235 
 GUY  SE ES   2   1019 38.38                             113     0.0 4  298 235 
 GUY  SZ I        1019 46.51       954.2 0.44                           298 235 
 DBB  SZ IP       1019  8.99                             110     0.5 7  338 275 
 TOL  SZ EP   1   1019  9.14                             110     0.0 5  340 225 
 HORQ SZ EP   1   1019 30.32                             102    -0.9 3  529 227 
 HORQ SZ I        1019 34.46        77.2 0.60                           529 227 
 PCON HZ EP       1019 41.05                             100    -0.1 3  609 216 
 PCON HZ I        1021 12.42        58.0 0.70                           609 216 
 POP2 HZ EP       1019 40.38                             100    -0.4 3  609 220 
                                                                                
