 2011  415 1754 55.9 L   7.252 -73.027146.0  RSN  6 0.4 1.9LRSN                1
 GAP=118        0.86       7.4    10.9  9.3 -0.3469E+02  0.3088E+02 -0.8261E+01E
 Epicentro: CHARTA - SANTANDER                                                 3
 ACTION:UP  11-06-22 15:31 OP:REBC STATUS:               ID:20110415175455 L   I
 2011-04-15-1752-17S.COL___140                                                 6
 STAT SP IPHASW D HRMM SECON CODA AMPLIT PERI AZIMU VELO SNR AR TRES W  DIS CAZ7
 PAM  SN ES   2   1755 31.82                             165    -0.4 5   37  75 
 GRA  SZ ES   1   1755 34.71                             152     0.4 7   74  19 
 BAR2 SZ EP   1   1755 18.17                             152     0.5 7   75 193 
 BAR2 SZ ES   1   1755 34.26                             152    -0.3 7   75 193 
 BAR2 SZ I        1755 35.94        16.7 0.15                            75 193 
 BRR  HZ EP       1755 17.20                             151    -0.210   77 258 
 BRR  HZ I        1755 17.81        20.3 0.16                            77 258 
 BRR  HN ES   1   1755 34.54                             151     0.3 7   77 258 
 OCA  SZ EP   1   1755 19.72                             140    -0.5 7  114 344 
 OCA  SZ I        1755 41.64         9.9 0.18                           114 344 
 NOR  SZ EP   2   1755 36.45                             114     0.3 4  276 228 
                                                                                
