 2014 1015 1013 22.2 L   6.809 -73.161139.9  RSN 13 0.5 1.8LRSN                1
 GAP=134        1.07       3.6     4.4  6.5 -0.1962E+01  0.8736E+01  0.1744E+01E
 Epicentro: LOS SANTOS - SANTANDER                                             3
 ACTION:UPD 14-11-29 23:50 OP:nd   STATUS:               ID:20141015101322 L   I
 OLDACT:REG 14-10-15 22:36 OP:fm   STATUS:               ID:20141015100744     3
 2014-10-15-1007-44M.COL___289                                                 6
 STAT SP IPHASW D HRMM SECON CODA AMPLIT PERI AZIMU VELO AIN AR TRES W  DIS CAZ7
 BAR2 SZ EP       1013 41.15                             170   -0.0010 24.0 186 
 BAR2 SZ ES   1   1013 56.07                             170    0.14 7 24.0 186 
 BAR2 SZ I        1013 57.18        39.1 0.20            169           24.0 186 
 BRR  HZ EP       1013 42.99                             152    0.3810 69.2 299 
 BRR  HN ES       1013 58.97                             152    0.4410 69.2 299 
 BRR  HZ I        1014  3.13        13.9 0.32            148           69.2 299 
 PAM  SZ EP       1013 43.94                             149    0.1110 77.8  41 
 PAM  SN ES       1014  0.79                             149    0.1010 77.8  41 
 PAM  SZ I        1014  3.35         7.3 0.64            152           77.8  41 
 RUS  HZ EP   1   1013 45.52                             142    0.05 7  102 175 
 RUS  HN ES       1014  3.60                             142   -0.0110  102 175 
 RUS  HZ I        1014  4.66         7.0 0.30            144            102 175 
 PTB  HZ EP       1013 47.84                             131   -0.72 9  146 258 
 PTB  HN ES       1014  8.59                             131   -0.53 9  146 258 
 PTB  HZ I        1014 10.41         5.6 0.18            129            146 258 
 SPBC HZ EP       1013 49.67                             128   -0.56 9  163 218 
 SPBC HN ES       1014 11.47                             128   -0.62 9  163 218 
 SPBC HZ I        1014 17.03         8.9 0.18            127            163 218 
 ZAR  HZ EP   1   1013 54.96                             121    0.89 6  202 292 
 ZAR  HN ES       1014 19.13                             121    0.20 9  202 292 
 ZAR  HZ I        1014 27.22         6.2 0.42            120            202 292 
 SML  HZ EP   1   1013 57.62                             116   -0.72 6  242 336 
 SML  HE ES   1   1014 26.14                             116   -0.38 6  242 336 
 SML  HZ I        1014 30.62         5.6 0.26            116            242 336 
 CHI  HZ EP   4   1014  6.78                             116    7.14 0  249 195 
 CHI  HN ES   4   1014 28.13                             116   -0.71 0  249 195 
 CHI  HZ I        1014 36.20         2.3 0.48            117            249 195 
 URE  HZ EP   4   1014  4.89                             113    2.11 0  282 292 
 URE  HN ES   4   1014 30.43                             113   -3.99 0  282 292 
 URE  HZ I        1014 46.02         4.2 0.20            112            282 292 
 GUY2CHZ EP   1   1014  6.80                             111    1.35 5  300 234 
 GUY2CHN ES       1014 39.89                             111    0.71 7  300 234 
 GUY2CHZ I        1014 45.82         2.1 0.48                           300 234 
 MON  HZ EP   4   1014  8.94                             108   -1.82 0  352 308 
 MON  HN ES   4   1014 46.58                             108   -2.05 0  352 308 
 MON  HZ I        1014 52.09         1.2 0.26            108            352 308 
 PRA  HZ EP   1   1014 15.43                             106   -0.10 4  392 209 
 PRA  HE ES       1014 57.42                             106    0.30 6  392 209 
 PRA  HZ I        1015  1.92         1.6 0.24            106            392 209 
                                                                                
