 2017  615 1126 12.3 L   6.768 -73.153149.9  RSN  4 0.4 1.7LRSN                1
 GAP=294        0.90       7.4     9.8  9.5 -0.1706E+02 -0.1328E+02  0.2938E+02E
 Epicentro: LOS SANTOS - SANTANDER                                             3
 ACTION:UPD 17-09-14 16:52 OP:jn   STATUS:               ID:20170615112612 L   I
 OLDACT:REG 17-06-15 20:43 OP:ar   STATUS:               ID:20170615111726     3
 2017-06-15-1118-00M.COL___359                                                 6
 STAT SP IPHASW D HRMM SECON CODA AMPLIT PERI AZIMU VELO AIN AR TRES W  DIS CAZ7
 BRR  HZ EP       1126 34.18                             153    0.2710 72.3 301 
 BRR  HN ES       1126 50.64                             153   -0.1610 72.3 301 
 BRR  HZ I        1126 51.26        14.5 0.34            141           72.3 301 
 PTB  HE EP       1126 39.72                             133    0.29 9  146 260 
 PTB  HZ EP       1126 39.79                             133            146 260 
 PTB  HN ES   2   1126 59.95                             133   -0.69 5  146 260 
 PTB  HZ I        1127  1.92         3.6 0.30            125            146 260 
 ZAR  HZ EP       1126 45.08                             123    0.05 9  205 293 
 ZAR  HN ES       1127 10.58                             123   -0.02 9  205 293 
 ZAR  HZ I        1127 18.70         4.0 0.26            117            205 293 
 NOR  HZ EP       1126 47.10                             120   -0.84 8  232 235 
 NOR  HN ES       1127 16.27                             120    0.49 8  232 235 
 NOR  HZ I        1127 21.47         3.7 0.42            115            232 235 
                                                                                
