 2017 1115 1931 28.5 L   5.950 -73.964101.5  RSN  5 0.3 1.1LRSN                1
 GAP=134        0.82       4.8     2.7  9.3 -0.1004E+01 -0.6137E-01  0.2214E+02E
 Epicentro: LA BELLEZA - SANTANDER                                             3
 ACTION:UPD 17-12-12 19:55 OP:rebc STATUS:               ID:20171115193128 L   I
 OLDACT:REG 17-11-15 21:49 OP:lv   STATUS:               ID:20171115192744     3
 2017-11-15-1928-00M.COL___441                                                 6
 STAT SP IPHASW D HRMM SECON CODA AMPLIT PERI AZIMU VELO AIN AR TRES W  DIS CAZ7
 PTB  HZ EP       1931 45.96                             137   -0.2110 84.9 320 
 PTB  HN ES       1931 59.99                             137    0.0010 84.9 320 
 PTB  HZ I        1932  4.68         2.6 0.05            139           84.9 320 
 RUS  HZ EP       1931 48.29                             133    0.3510 97.8  94 
 RUS  HN ES       1932  3.19                             133    0.0710 97.8  94 
 RUS  HZ I        1932  5.15         1.8 0.18            137           97.8  94 
 NOR  HZ EP       1931 48.17                             129   -0.2110  109 247 
 NOR  HE ES       1932  3.67                             129   -0.2410  109 247 
 CHI  HZ EP       1931 52.35                             120   -0.47 9  148 170 
 GUY2CHZ EP   1   1931 56.12                             115    0.35 7  175 243 
 GUY2CHE ES       1932 17.68                             115    0.61 9  175 243 
 GUY2CHZ I        1932 22.45         2.6 0.36                           175 243 
                                                                                
