 2016  215 1258 41.6 L   6.791 -73.163142.0  RSN 11 0.4 1.9LRSN                1
 GAP=135        1.02       3.6     3.9  6.1 -0.2100E+01  0.5857E+01  0.6478E+01E
 Epicentro: LOS SANTOS - SANTANDER                                             3
 ACTION:UPD 16-03-04 21:26 OP:rebc STATUS:               ID:20160215125841 L   I
 OLDACT:REG 16-02-15 21:16 OP:ak   STATUS:               ID:20160215124750     3
 2016-02-15-1247-50M.COL___295                                                 6
 STAT SP IPHASW D HRMM SECON CODA AMPLIT PERI AZIMU VELO AIN AR TRES W  DIS CAZ7
 BAR2 EZ EP       1259  0.43                             171   -0.2910 22.1 185 
 BAR2 EZ ES       1259 15.45                             171   -0.2010 22.1 185 
 BAR2 EZ I        1259 17.26        29.4 0.24            171           22.1 185 
 BRR  HZ IP     C 1259  2.30                             152    0.0610 70.0 300 
 BRR  HN ES       1259 19.32                             152    0.9610 70.0 300 
 PAM  EZ EP       1259  3.44                             150   -0.0610 79.4  40 
 PAM  EN ES       1259 20.72                             150    0.1110 79.4  40 
 PAM  EZ I        1259 23.01        19.2 0.62            152           79.4  40 
 RUS  HZ EP       1259  4.63                             143   -0.2610 99.8 175 
 RUS  HN ES       1259 23.21                             143    0.1310 99.8 175 
 RUS  HZ I        1259 24.03         7.5 0.28            145           99.8 175 
 PTB  HZ EP   4   1259  4.36                             132   -3.67 0  146 259 
 PTB  HN ES       1259 27.93                             132   -0.75 9  146 259 
 PTB  HZ I        1259 33.88        11.6 0.26            131            146 259 
 SPBC HZ EP       1259  9.82                             129    0.23 9  161 219 
 SPBC HN ES       1259 31.32                             129   -0.12 9  161 219 
 ZAR  HZ EP   2   1259 13.96                             122    0.34 4  203 293 
 ZAR  HN ES       1259 38.00                             122   -0.62 9  203 293 
 ZAR  HZ I        1259 45.33        12.8 0.41            122            203 293 
 NOR  HZ EP       1259 16.89                             118    0.05 8  233 234 
 NOR  HE ES       1259 44.07                             118   -0.29 8  233 234 
 NOR  HZ I        1259 50.47         5.3 0.22            119            233 234 
 CHI  HZ EP       1259 18.70                             117   -0.20 8  247 195 
 CHI  HN ES       1259 47.91                             117   -0.11 8  247 195 
 CHI  HZ I        1259 51.56         4.9 0.62            118            247 195 
 GUY2CHZ EP   2   1259 25.29                             112    0.54 4  299 235 
 GUY2CHN ES       1259 59.30                             112    0.86 7  299 235 
 GUY2CHZ I        13 0  4.59         2.6 0.36                           299 235 
 ANIL HN ES       13 0 10.36                             108    0.83 6  355 224 
                                                                                
