 2017 1115 1012 41.8 L   6.455 -73.777 72.7  RSN  4 0.4 1.0LRSN                1
 GAP=148        1.11       7.0     4.1 13.4  0.1641E+02  0.9547E+01  0.3150E+01E
 Epicentro: SANTA HELENA DEL OPON - SANTANDER                                  3
 ACTION:UPD 17-12-12 19:55 OP:rebc STATUS:               ID:20171115101241 L   I
 OLDACT:REG 17-11-15 20:39 OP:lv   STATUS:               ID:20171115100739     3
 2017-11-15-1008-00M.COL___426                                                 6
 STAT SP IPHASW D HRMM SECON CODA AMPLIT PERI AZIMU VELO AIN AR TRES W  DIS CAZ7
 BAR2 EZ EP       1012 55.48                             133   -0.2410 67.5  77 
 BAR2 EZ ES       1013  6.42                             133   -0.2010 67.5  77 
 BAR2 EZ I        1013  8.28         7.2 0.62            134           67.5  77 
 PTB  HZ EP       1012 55.68                             129   -0.5110 75.7 277 
 PTB  HE ES       1013  7.39                             129   -0.0710 75.7 277 
 PTB  HZ I        1013  8.78         2.6 0.08            131           75.7 277 
 RUS  HZ EP       1012 58.93                             121   -0.2210 98.8 129 
 RUS  HN ES       1013 13.38                             121    0.6610 98.8 129 
 RUS  HZ I        1013 16.11         1.5 0.28            123           98.8 129 
 ZAR  HE ES       1013 25.79                             107    0.70 9  166 314 
 ZAR  HN I        1013 28.18         3.7 0.30            109            166 314 
                                                                                
