 2016  815 1535 29.2 L   6.777 -73.154144.0  RSN  8 0.4 1.9LRSN                1
 GAP= 98        0.93       4.2     3.7  5.5 -0.5161E+01  0.8135E+00  0.4321E+01E
 Epicentro: LOS SANTOS - SANTANDER                                             3
 ACTION:UPD 16-10-29 15:35 OP:rebc STATUS:               ID:20160815153529 L   I
 OLDACT:REG 16-08-15 23:35 OP:ar   STATUS:               ID:20160815152759     3
 2016-08-15-1527-59S.COL___346                                                 6
 STAT SP IPHASW D HRMM SECON CODA AMPLIT PERI AZIMU VELO AIN AR TRES W  DIS CAZ7
 BAR2 EZ EP       1535 48.42                             171   -0.1310 20.7 189 
 BAR2 EZ ES       1536  3.10                             171   -0.5610 20.7 189 
 BAR2 EZ I        1536  5.53        12.6 0.21                          20.7 189 
 BRR  HZ EP       1535 50.45                             152    0.2810 71.6 301 
 BRR  HN ES       1536  7.23                             152    0.7010 71.6 301 
 BRR  HZ I        1536 12.12        12.7 0.20                          71.6 301 
 PAM  EZ EP       1535 51.36                             150   -0.0110 80.0  39 
 PAM  EE ES       1536  8.40                             150   -0.2710 80.0  39 
 PAM  EZ I        1536 10.44        18.8 0.54                          80.0  39 
 RUS  HZ EP       1535 52.93                             144    0.3510 98.1 175 
 RUS  HN ES       1536 11.21                             144    0.3810 98.1 175 
 RUS  HZ I        1536 11.89         9.0 0.28                          98.1 175 
 PTB  HZ EP       1535 55.33                             132   -0.55 9  146 260 
 PTB  HE ES       1536 16.57                             132   -0.13 9  146 260 
 PTB  HZ I        1536 21.50         9.3 0.16                           146 260 
 TAM  HZ EP       1535 56.63                             130   -0.12 9  155 104 
 SPBC HZ EP       1535 57.57                             129    0.27 9  161 219 
 SPBC HN ES       1536 19.18                             129   -0.06 9  161 219 
 SPBC HZ I        1536 25.24        13.6 0.10                           161 219 
 NOR  HZ EP       1536  4.71                             118    0.14 8  232 235 
 NOR  HE ES       1536 31.72                             118   -0.45 8  232 235 
 NOR  HZ I        1536 39.43         7.5 0.16                           232 235 
                                                                                
