 2013  115 1439  1.4 L   6.768 -73.133149.3  RSN  9 0.4 2.1LRSN                1
 GAP=184        0.76       3.4     4.7  6.2  0.2992E+00  0.3221E+01  0.2376E+01E
 Epicentro: LOS SANTOS - SANTANDER                                             3
 ACTION:UPD 13-02-15 09:14 OP:ep   STATUS:               ID:20130115143901 L   I
 2013-01-15-1437-36M.COL___190                                                 6
 STAT SP IPHASW D HRMM SECON CODA AMPLIT PERI AZIMU VELO AIN AR TRES W  DIS CAZ7
 BAR2 SZ EP       1439 21.41                             172   -0.0310 20.2 196 
 BAR2 SZ ES   1   1439 36.81                             172   -0.23 7 20.2 196 
 BAR2 SZ I        1439 38.15        32.8 0.36            167           20.2 196 
 BRR  HZ IP       1439 23.37                             152    0.2310 74.2 300 
 BRR  HN ES   1   1439 40.67                             152    0.60 7 74.2 300 
 BRR  HZ I        1439 44.28        18.9 0.14            148           74.2 300 
 RUS  HZ EP   1   1439 25.33                             146    0.04 7 96.9 177 
 RUS  HN ES   2   1439 43.67                             146   -0.22 5 96.9 177 
 RUS  HZ I        1439 46.78         6.3 0.16            147           96.9 177 
 PTB  HZ EP   1   1439 28.11                             133   -0.65 7  149 260 
 PTB  HN ES   1   1439 49.28                             133   -0.80 7  149 260 
 PTB  HZ I        1439 56.70        28.2 0.28            131            149 260 
 OCA  HZ EP   1   1439 30.19                             130   -0.18 7  164 353 
 OCA  HN ES   1   1439 52.70                             130   -0.24 7  164 353 
 OCA  HZ I        1439 56.31        17.9 0.32            132            164 353 
 ZAR  HZ EP   1   1439 34.21                             123   -0.18 6  207 293 
 ZAR  HN ES   1   1440  0.88                             123    0.79 6  207 293 
 ZAR  HZ I        1440  7.56        15.1 0.44            123            207 293 
 NOR  HZ EP   1   1439 37.22                             119   -0.06 6  234 235 
 NOR  HN ES   1   1440  5.15                             119   -0.09 6  234 235 
 NOR  HZ I        1440  9.09        11.3 0.16            120            234 235 
 CHI  HZ EP   1   1439 39.46                             118    0.45 6  246 196 
 CHI  HN ES   1   1440  8.80                             118    0.49 6  246 196 
 CHI  HZ I        1440 14.00         4.0 0.56            120            246 196 
 HEL  HN ES   2   1440 13.38                             115   -0.06 4  273 257 
 HEL  HZ I        1440 20.59         7.9 0.30            116            273 257 
 SJC  HN ES   4   1440 36.69                             106   -4.64 0  413 327 
                                                                                
