 2014  915 1150 51.3 L   6.772 -73.106152.4  RSN  6 0.3 1.5LRSN                1
 GAP=204        0.74       4.8     5.2  6.4  0.1249E+02 -0.6951E+01 -0.1184E+02E
 Epicentro: LOS SANTOS - SANTANDER                                             3
 ACTION:UPD 14-10-03 23:05 OP:nd   STATUS:               ID:20140915115051 L   I
 OLDACT:REG 14-09-15 20:33 OP:spq  STATUS:               ID:20140915114818     3
 2014-09-15-1148-18M.COL___293                                                 6
 STAT SP IPHASW D HRMM SECON CODA AMPLIT PERI AZIMU VELO AIN AR TRES W  DIS CAZ7
 BAR2 SZ EP       1151 11.57                             172   -0.1210 21.6 203 
 BAR2 SZ ES   1   1151 27.60                             172    0.00 7 21.6 203 
 BAR2 SZ I        1151 28.31        13.1 0.22            171           21.6 203 
 BRR  HZ EP       1151 13.45                             152   -0.0110 76.5 299 
 BRR  HE ES       1151 30.96                             152    0.2110 76.5 299 
 BRR  HZ I        1151 33.95         6.7 0.38            150           76.5 299 
 RUS  HZ EP       1151 15.93                             146    0.4610 97.3 179 
 RUS  HN ES   1   1151 34.04                             146   -0.30 7 97.3 179 
 RUS  HZ I        1151 35.23         1.7 0.32            148           97.3 179 
 PTB  HN ES       1151 40.40                             133   -0.47 9  152 260 
 PTB  HZ I        1151 43.18         3.5 0.10            133            152 260 
 ZAR  HZ EP   1   1151 24.97                             123    0.26 6  209 292 
 ZAR  HN ES       1151 51.17                             123    0.39 8  209 292 
 ZAR  HZ I        1151 55.20         2.8 0.40            123            209 292 
 SML  HZ EP       1151 28.30                             118   -0.50 8  248 335 
 SML  HN ES   1   1151 57.90                             118   -0.15 6  248 335 
 SML  HZ I        1151 59.60         3.4 0.10            119            248 335 
                                                                                
