 2011  615 1616 16.9 L   6.789 -73.116138.8  RSN  9 0.4 2.5LRSN                1
 GAP=159        0.92       5.2     6.8  6.5 -0.1342E+02  0.9424E+01  0.3410E+01E
 Epicentro: LOS SANTOS - SANTANDER                                             3
 ACTION:UP  11-07-14 19:05 OP:ep   STATUS:               ID:20110615161616 L   I
 2011-06-15-1614-42S.COL___138                                                 6
 STAT SP IPHASW D HRMM SECON CODA AMPLIT PERI AZIMU VELO SNR AR TRES W  DIS CAZ7
 BAR2 SZ IP       1616 35.54                             170    -0.110   23 199 
 BAR2 SZ ES   1   1616 49.90                             170    -0.4 7   23 199 
 BAR2 SZ I        1616 51.46       100.2 0.21                            23 199 
 BRR  HZ EP       1616 37.49                             150     0.010   75 298 
 BRR  HN ES   1   1616 54.13                             150     0.6 7   75 298 
 BRR  HZ I        1616 55.58       100.1 0.16                            75 298 
 PAM  SZ EP       1616 38.58                             150     0.310   76  37 
 PAM  SE ES       1616 54.96                             150     0.010   76  37 
 BRI  SZ EP       1616 40.22                             140     0.110  109  19 
 BRI  SZ I        1617  3.66        52.5 0.28                           109  19 
 GRA  SZ EP       1616 41.55                             135     0.010  126  16 
 GRA  SZ ES   1   1617  1.17                             135     0.4 7  126  16 
 GRA  SZ I        1617  2.05        47.6 0.38                           126  16 
 OCA  SZ EP   1   1616 44.51                             128    -0.3 7  162 352 
 OCA  SZ ES   1   1617  5.86                             128    -0.8 7  162 352 
 OCA  SZ I        1617 10.48        56.4 0.44                           162 352 
 CHI  HZ EP   1   1616 53.70                             116    -0.5 6  248 196 
 CHI  HZ I        1617 28.99         8.9 0.42                           248 196 
 DBB  SZ EP       1617  4.23                             108    -0.2 7  343 274 
 TOL  SZ EP   1   1617  6.01                             108     1.0 5  345 225 
                                                                                
