 2017  115 1020 28.2 L   6.721 -73.610116.0  RSN  8 0.6 1.5LRSN                1
 GAP=110        1.19       5.3     4.6  8.9  0.4597E+00 -0.6287E+01  0.2449E+01E
 Epicentro: EL CARMEN - SANTANDER                                              3
 ACTION:UPD 17-05-22 15:59 OP:jn   STATUS:               ID:20170115102028 L   I
 OLDACT:UP  17-01-15 21:12 OP:dani STATUS:               ID:20170115101741     3
 OLDACT:UP  17-01-15 21:12 OP:dani STATUS:               ID:20170115101741     3
 OLDACT:REG 17-01-15 20:00 OP:dani STATUS:               ID:20170115101741     3
 2017-01-15-1018-00M.COL___335                                                 6
 STAT SP IPHASW D HRMM SECON CODA AMPLIT PERI AZIMU VELO AIN AR TRES W  DIS CAZ7
 BRR  HZ EP       1020 45.33                             157    0.6310 44.2 345 
 BRR  HN ES       1020 58.09                             157    0.5610 44.2 345 
 BRR  HZ I        1020 58.79        13.9 0.13            155           44.2 345 
 BAR2 EZ EP       1020 45.62                             155    0.3210 49.4 107 
 BAR2 EZ I        1020 58.86        12.3 0.62            153           49.4 107 
 PTB  HZ EP       1020 48.32                             137    0.1910 95.7 258 
 PTB  HN ES       1021  2.89                             137   -0.7510 95.7 258 
 PTB  HZ I        1021  4.42         6.6 0.19            136           95.7 258 
 RUS  HZ EP       1020 50.26                             134    0.3810  109 147 
 RUS  HN ES       1021  6.43                             134   -0.3310  109 147 
 RUS  HZ I        1021  8.18         5.6 0.24            132            109 147 
 PAM  EZ EP       1020 50.97                             130   -0.0910  122  56 
 PAM  EN ES       1021  7.99                             130   -0.8710  122  56 
 PAM  EZ I        1021 11.95         3.4 0.16            127            122  56 
 ZAR  HZ EP   9   1020 57.82                             121    3.40 0  162 302 
 ZAR  HN ES       1021 18.07                             120   -0.17 9  162 302 
 ZAR  HZ I        1021 19.43         3.9 0.30            119            162 302 
 URE  HN ES   3   1021 28.52                             110   -1.76 2  241 298 
 SJC  HZ EP       1021 20.82                             100   -0.03 6  391 334 
 SJC  HN ES   3   1022  0.96                             100   -0.93 1  391 334 
                                                                                
