 2013  615 1038 27.8 L   6.496 -73.404125.4  RSN  4 0.4 1.7LRSN                1
 GAP=288        0.80       7.4    11.3  9.8 -0.3751E+02 -0.8582E+01 -0.4564E+01E
 Epicentro: SIMACOTA - SANTANDER                                               3
 ACTION:UPD 14-01-08 09:54 OP:ep   STATUS:               ID:20130615103827 L   I
 OLDACT:REG 13-06-15 15:10 OP:mh   STATUS:               ID:20130615103752     3
 2013-06-15-1037-52M.COL___217                                                 6
 STAT SP IPHASW D HRMM SECON CODA AMPLIT PERI AZIMU VELO AIN AR TRES W  DIS CAZ7
 BRR  HZ EP   1   1038 47.15                             147    0.04 9 75.6 333 
 BRR  HN ES   1   1039  2.47                             147    0.32 9 75.6 333 
 BRR  HN I        1039  3.12        29.7 0.18            133           75.6 333 
 PTB  HZ EP   1   1038 50.01                             134   -0.31 8  116 272 
 PTB  HN ES   1   1039  7.44                             134   -0.41 8  116 272 
 PTB  HN I        1039 14.53         4.5 0.26            122            116 272 
 ZAR  HZ EP       1038 58.54                             119    0.4910  195 305 
 ZAR  HN ES   2   1039 22.25                             119    0.64 5  195 305 
 ZAR  HZ I        1039 28.31         1.9 0.10            112            195 305 
 SML  HN ES       1039 34.99                             111   -0.52 9  265 344 
 SML  HN I        1039 39.29         5.2 0.10            108            265 344 
                                                                                
