 2015  515 1635 34.1 L   6.833 -73.136140.1  RSN 19 0.4 2.8LRSN                1
 GAP= 70        0.98       2.3     2.8  4.5 -0.5656E+00  0.4128E+01  0.1304E+01E
 Epicentro: LOS SANTOS - SANTANDER                                             3
 ACTION:UPD 15-09-10 22:04 OP:cam  STATUS:               ID:20150515163534 L   I
 OLDACT:UP  15-05-15 23:51 OP:drio STATUS:               ID:20150515162750     3
 OLDACT:UP  15-05-15 23:49 OP:drio STATUS:               ID:20150515162750     3
 OLDACT:REG 15-05-15 20:37 OP:drio STATUS:               ID:20150515162750     3
 2015-05-15-1627-50M.COL___276                                                 6
 STAT SP IPHASW D HRMM SECON CODA AMPLIT PERI AZIMU VELO AIN AR TRES W  DIS CAZ7
 BAR2 EZ IP     C 1635 53.34                             169    0.1810 27.1 191 
 BAR2 EZ ES       1636  7.69                             169   -0.3210 27.1 191 
 BAR2 EZ I        1636 10.76       102.8 0.26            168           27.1 191 
 BRR  HZ EP       1635 55.08                             152    0.4610 70.5 295 
 BRR  HN ES       1636 11.09                             152    0.4710 70.5 295 
 BRR  HZ I        1636 16.63        56.0 0.62            145           70.5 295 
 PAM  SZ EP       1635 56.07                             151    0.5410 73.9  41 
 PAM  SN ES       1636 12.42                             151    0.2010 73.9  41 
 PAM  SZ I        1636 15.44       103.3 0.60            149           73.9  41 
 RUS  HZ EP       1635 57.34                             142   -0.2510  104 177 
 RUS  HN ES       1636 16.27                             142    0.3810  104 177 
 RUS  HZ I        1636 17.60        69.4 0.38            141            104 177 
 TAM  HZ EP       1636  1.63                             129    0.28 9  155 106 
 TAM  HZ I        1636  1.74        73.1 0.34            129            155 106 
 TAM  HN ES       1636 21.86                             129   -0.73 9  155 106 
 OCA  HZ EP       1636  2.15                             129    0.48 9  157 353 
 OCA  HN ES       1636 22.65                             129   -0.50 9  157 353 
 OCA  HZ I        1636 28.28       171.5 0.28            125            157 353 
 SPBC HZ EP       1636  2.38                             127   -0.16 9  167 218 
 SPBC HN ES       1636 24.14                             127   -0.56 9  167 218 
 SPBC HZ I        1636 31.67       125.7 0.40            124            167 218 
 ZAR  HZ EP       1636  6.01                             121   -0.16 9  204 291 
 ZAR  HN ES       1636 31.01                             121   -0.16 9  204 291 
 ZAR  HZ I        1636 36.97        84.8 0.48            117            204 291 
 NOR  HZ EP       1636  9.51                             117   -0.35 8  238 234 
 NOR  HN ES       1636 37.34                             117   -0.40 8  238 234 
 NOR  HZ I        1636 42.30        50.3 0.58            114            238 234 
 SML  HZ EP       1636  9.78                             117   -0.35 8  241 335 
 SML  HN ES       1636 37.85                             117   -0.36 8  241 335 
 SML  HZ I        1636 40.31        79.4 0.28            113            241 335 
 CHI  HZ EP       1636 11.67                             116   -0.26 8  252 195 
 CHI  HN ES       1636 41.57                             116    0.15 8  252 195 
 CHI  HZ I        1636 51.49        34.4 0.54            113            252 195 
 ROSC BZ EP       1636 12.23                             115   -0.12 8  256 211 
 ROSC BZ I        1636 14.78        80.8 0.25            113            256 211 
 HEL  HZ EP       1636 14.29                             113    0.01 8  274 255 
 HEL  HN ES       1636 46.30                             113    0.70 8  274 255 
 HEL  HZ I        1636 53.94        37.4 0.54            110            274 255 
 URE  HZ EP       1636 14.04                             112   -0.85 7  284 291 
 URE  HZ I        1636 46.55        28.6 0.10            109            284 291 
 GUY2CHZ EP       1636 18.52                             111    0.70 7  304 234 
 GUY2CHN ES       1636 51.82                             111   -0.08 7  304 234 
 GUY2CHZ I        1636 59.57        41.1 0.64                           304 234 
 MON  HZ EP   4   1636 20.50                             108   -2.25 0  352 308 
 MON  HN ES   4   1636 58.84                             108   -1.84 0  352 308 
 MON  HZ I        1637  5.23        12.6 0.42            105            352 308 
 ANIL HZ EP       1636 24.91                             107    0.80 6  361 224 
 ANIL HN ES       1637  3.07                             107   -0.03 6  361 224 
 ORTC HZ EP       1636 28.71                             105    0.43 6  399 216 
 ORTC HN ES       1637 10.35                             105   -0.17 6  399 216 
 ORTC HZ I        1637 17.82        25.9 0.42            103            399 216 
 SJC  HZ EP   4   1636 27.07                             105   -2.15 0  407 327 
 SJC  HZ I        1637 11.76        10.6 0.28            102            407 327 
                                                                                
