 2012  715 1434 54.4 L   6.674 -73.219146.8  RSN  5 0.2 1.5LRSN                1
 GAP=204        0.44       5.7     5.2  6.2  0.1959E+02  0.1369E+01 -0.2733E+01E
 Epicentro: BARICHARA - SANTANDER                                              3
 ACTION:UPD 12-08-14 11:45 OP:ep   STATUS:               ID:20120715143454 L   I
 2012-07-15-1430-00M.COL___197                                                 6
 STAT SP IPHASW D HRMM SECON CODA AMPLIT PERI AZIMU VELO AIN AR TRES W  DIS CAZ7
 BAR2 SZ EP   2   1435 13.63                             176    -0.3 5   10 156 
 BAR2 SZ ES   2   1435 28.88                             176    -0.3 5   10 156 
 BAR2 SZ I        1435 30.76         5.7 0.21            177             10 156 
 BRR  HZ EP       1435 15.86                             152     0.110   73 311 
 BRR  HZ I        1435 27.91         8.2 0.36            146             73 311 
 BRR  HE ES   2   1435 32.49                             152     0.1 5   73 311 
 RUS  HZ EP   1   1435 17.42                             148     0.1 7   88 170 
 RUS  HN ES   2   1435 35.51                             148     0.2 5   88 170 
 RUS  HZ I        1435 37.97         3.8 0.18            148             88 170 
 PTB  HZ EP   2   1435 20.23                             134    -0.3 5  138 264 
 PTB  HN ES   2   1435 40.84                             134    -0.1 5  138 264 
 PTB  HZ I        1435 44.81         4.0 0.13            130            138 264 
 ZAR  HN ES   1   1435 52.01                             123     0.0 6  202 297 
 ZAR  HZ I        1435 57.99         3.6 0.41            118            202 297 
