 2010  615 1251 14.7 L   6.759 -72.975149.8  RSN  8 0.5 1.7LRSN                1
 GAP=177        0.92       5.9    16.3  9.1 -0.5660E+02  0.1915E+02  0.4553E+01E
 Epicentro: CEPITA - SANTANDER                                                 3
 ACTION:UP  10-08-24 10:10 OP:vdl  STATUS:               ID:20100615125114 L   I
 2010-06-15-1247-25S.COL___114                                                 6
 STAT SP IPHASW D HRMM SECON CODA AMPLIT PERI AZIMU VELO SNR AR TRES W  DIS CAZ7
 BAR2 SZ EP   1   1251 34.60                             168    -0.3 7   30 231 
 BAR2 SZ ES   2   1251 49.77                             168    -1.0 5   30 231 
 GIR2 SZ EP   1   1251 36.13                             163     0.9 7   43 326 
 GIR2 SZ ES   2   1251 51.78                             163     0.6 5   43 326 
 RUS  HZ EP   1   1251 38.53                             146     0.0 7   97 187 
 RUS  HE ES   2   1251 57.21                             146     0.0 5   97 187 
 RUS  HZ I        1251 58.09         5.3 0.33                            97 187 
 BRI  SZ EP   1   1251 38.58                             142    -0.3 7  108  10 
 BRI  SZ ES   2   1251 57.06                             142    -0.7 5  108  10 
 GUE  SZ EP   1   1251 39.92                             140     0.0 7  119   3 
 GUE  SZ ES   2   1252  0.38                             140     0.7 5  119   3 
 GRA  SZ EP   1   1251 40.36                             138     0.1 7  126   9 
 GRA  SZ ES   2   1252  0.17                             138    -0.1 5  126   9 
 CHI  HZ EP   1   1251 52.65                             118    -0.1 6  250 200 
 CHI  HZ I        1251 53.84         2.6 0.51                           250 200 
 CHI  HN ES   2   1252 23.34                             118     0.9 4  250 200 
 HEL  HZ EP   1   1251 56.52                             114    -0.5 5  289 258 
 HEL  HZ I        1252 34.23         5.3 0.41                           289 258 
                                                                                
