 2016  115 1435  2.4 L   6.815 -73.267140.5  RSN  5 0.3 1.6LRSN                1
 GAP=169        0.73       3.5     8.4  7.2  0.6876E+01  0.1467E+02 -0.6076E+01E
 Epicentro: ZAPATOCA - SANTANDER                                               3
 ACTION:UPD 16-03-09 23:25 OP:cam  STATUS:               ID:20160115143503 L   I
 OLDACT:UP  16-02-23 20:52 OP:AR   STATUS:               ID:20160115143503 L   3
 OLDACT:UP  16-01-15 23:14 OP:mh   STATUS:               ID:20160115142750     3
 OLDACT:UP  16-01-15 23:14 OP:mh   STATUS:               ID:20160115142750     3
 OLDACT:REG 16-01-15 20:40 OP:mh   STATUS:               ID:20160115142750     3
 2016-01-15-1427-50M.COL___337                                                 6
 STAT SP IPHASW D HRMM SECON CODA AMPLIT PERI AZIMU VELO AIN AR TRES W  DIS CAZ7
 BAR2 EZ EP       1435 21.24                             169   -0.2210 26.3 159 
 BAR2 EZ ES       1435 36.04                             169   -0.2910 26.3 159 
 BAR2 EZ I        1435 39.80         6.2 0.21            170           26.3 159 
 PAM  EZ EP       1435 24.73                             147    0.1610 85.4  47 
 PAM  EN ES   1   1435 41.83                             147   -0.03 7 85.4  47 
 PAM  EZ I        1435 43.83         5.1 0.66            153           85.4  47 
 RUS  HZ EP       1435 25.62                             142   -0.2710  104 169 
 RUS  HN ES       1435 44.71                             142    0.5010  104 169 
 RUS  HZ I        1435 46.35         4.9 0.30            148            104 169 
 SML  HE ES       1436  5.95                             117    0.19 8  237 338 
 SML  HZ I        1436 17.24         6.1 0.24            117            237 338 
 GUY2CHZ EP   4   1435 46.51                             112    1.86 0  291 233 
 GUY2CHN ES   4   1436 23.29                             112    5.68 0  291 233 
 GUY2CHZ I        1436 29.89         2.5 0.64                           291 233 
                                                                                
