 2013  515 1712 12.5 L   6.779 -73.164142.5  RSN  7 0.5 1.9LRSN                1
 GAP=135        1.20       5.7     6.0  7.4 -0.5323E+01  0.6477E+01  0.1064E+02E
 Epicentro: LOS SANTOS - SANTANDER                                             3
 ACTION:UPD 13-06-20 09:50 OP:ep   STATUS:               ID:20130515171212 L   I
 2013-05-15-1710-00M.COL___256                                                 6
 STAT SP IPHASW D HRMM SECON CODA AMPLIT PERI AZIMU VELO AIN AR TRES W  DIS CAZ7
 BAR2 SZ EP       1712 31.74                             171    0.0910 20.7 186 
 BAR2 SZ ES       1712 46.27                             171   -0.3510 20.7 186 
 BAR2 SZ I        1712 48.26        22.0 0.26            170           20.7 186 
 GIR2 SZ EP       1712 31.80                             166   -0.0110 33.3 354 
 GIR2 SZ ES       1712 46.50                             166   -0.3910 33.3 354 
 GIR2 SZ I        1712 48.06        10.1 0.58            168           33.3 354 
 BRR  HZ EP       1712 33.66                             152    0.4310 70.6 301 
 BRR  HN ES       1712 50.55                             152    1.1310 70.6 301 
 BRR  HZ I        1712 51.87        14.9 0.30            153           70.6 301 
 PAM  SZ EP       1712 34.60                             149    0.0710 80.5  40 
 PAM  SN ES       1712 51.35                             149   -0.3810 80.5  40 
 PAM  SZ I        1712 54.45         8.2 0.64            152           80.5  40 
 RUS  HZ EP       1712 35.65                             144   -0.0910 98.4 175 
 RUS  HN ES       1712 54.34                             144    0.4510 98.4 175 
 RUS  HZ I        1712 55.81         8.3 0.20            144           98.4 175 
 PTB  HZ EP       1712 38.63                             132   -0.32 9  145 260 
 PTB  HN ES       1712 58.79                             132   -0.81 9  145 260 
 PTB  HZ I        1713  2.08        10.0 0.12            132            145 260 
 PRA  HZ EP       1713  5.52                             106    0.00 6  389 209 
 PRA  HN ES   1   1713 47.04                             106    0.14 4  389 209 
 PRA  HZ I        1713 54.01         5.1 0.36            107            389 209 
                                                                                
