 2015  615 1720  3.4 L   6.816 -73.119146.9  RSN 22 0.5 2.6LRSN                1
 GAP=121        1.11       2.6     4.0  5.0 -0.2601E+01  0.5402E+01  0.2025E+01E
 Epicentro: LOS SANTOS - SANTANDER                                             3
 ACTION:UPD 15-09-10 22:12 OP:cam  STATUS:               ID:20150615172003 L   I
 OLDACT:UP  15-06-18 07:47 OP:AK   STATUS:               ID:20150615172003 L   3
 OLDACT:REG 15-06-15 20:54 OP:stll STATUS:               ID:20150615171748     3
 2015-06-15-1717-48M.COL___315                                                 6
 STAT SP IPHASW D HRMM SECON CODA AMPLIT PERI AZIMU VELO AIN AR TRES W  DIS CAZ7
 BAR2 EZ IP     D 1720 23.48                             170    0.2110 25.8 196 
 BAR2 EZ I        1720 23.87        69.4 0.38            167           25.8 196 
 BAR2 EZ ES       1720 38.50                             170   -0.2310 25.8 196 
 BRR  HZ IP     D 1720 25.34                             152    0.5210 73.0 296 
 BRR  HZ I        1720 25.60        61.8 0.24            148           73.0 296 
 BRR  HN ES       1720 42.22                             152    0.7210 73.0 296 
 PAM  SZ EP       1720 26.31                             152    0.7210 74.1  39 
 PAM  SN ES       1720 43.13                             152    0.2610 74.1  39 
 PAM  SZ I        1720 45.53        77.7 0.48            156           74.1  39 
 RUS  HZ EP     D 1720 27.38                             144   -0.0510  102 178 
 RUS  HN ES       1720 45.81                             144   -0.3310  102 178 
 RUS  HZ I        1720 48.89        26.2 0.50            145            102 178 
 OCA  HZ EP       1720 31.56                             130   -0.15 9  159 352 
 OCA  HE ES       1720 52.93                             130   -0.83 9  159 352 
 OCA  HZ I        1721  3.35        59.7 0.48            131            159 352 
 ZAR  HZ EP       1720 35.75                             122   -0.43 8  206 291 
 ZAR  HN ES       1721  1.58                             122   -0.14 8  206 291 
 ZAR  HZ I        1721  7.55        61.8 0.32            122            206 291 
 NOR  HZ EP       1720 39.35                             118   -0.27 8  238 235 
 NOR  HE ES       1721  7.08                             118   -0.75 8  238 235 
 NOR  HZ I        1721 12.98        39.1 0.34            118            238 235 
 SML  HZ EP       1720 39.65                             118   -0.45 8  243 334 
 SML  HN ES       1721  8.11                             118   -0.57 8  243 334 
 SML  HZ I        1721 11.59        34.7 0.10            118            243 334 
 CHI  HZ EP       1720 40.85                             117   -0.64 8  251 196 
 CHI  HN ES       1721 10.56                             117   -0.59 8  251 196 
 ROSC BZ EP       1720 42.35                             117    0.38 8  256 211 
 ROSC BN ES       1721 12.15                             117    0.14 8  256 211 
 ROSC BZ I        1721 20.92        48.5 0.40            117            256 211 
 HEL  HZ EP       1720 44.86                             115    0.77 7  275 256 
 HEL  HN ES   4   1721 14.54                             115   -1.25 0  275 256 
 HEL  HZ I        1721 22.11        22.7 0.32            115            275 256 
 SOCV BZ EP       1720 46.01                             113   -0.14 7  298  57 
 SOCV BN ES   4   1721 17.48                             113   -1.98 0  298  57 
 GUY2CHZ EP   4   1720 48.60                             112    1.10 0  305 235 
 GUY2CHN ES       1721 21.47                             112   -0.39 7  305 235 
 GUY2CHZ I        1721 30.41        23.3 0.66                           305 235 
 PTGC HZ EP   4 D 1720 46.35                             112   -1.08 0  309 159 
 PTGC HZ I        1720 46.89        25.8 0.10            114            309 159 
 PTGC HN ES   4   1721 18.94                             112   -2.79 0  309 159 
 RREF HZ EP   4   1720 51.34                             111    1.31 0  325 229 
 RREF HE ES       1721 26.60                             111    0.23 7  325 229 
 RREF HZ I        1721 36.20        10.8 0.34            111            325 229 
 CBOC HZ EP       1720 51.65                             110    0.85 7  337 252 
 CBOC HN ES   4   1721 25.53                             110   -2.20 0  337 252 
 CBOC HZ I        1721 32.56         8.8 0.46            110            337 252 
 TOL  SZ EP       1720 53.28                             109    1.14 6  347 225 
 TOL  SN ES       1721 30.11                             109   -0.01 6  347 225 
 TOL  SZ I        1721 34.59        21.9 0.42            110            347 225 
 MON  HZ EP   9   1720 50.44                             109   -2.19 0  355 308 
 MON  HN ES       1721 29.62                                    0.82 6  355 308 
 MON  HZ I        1721 44.67        10.6 0.36            109            355 308 
 ANIL HZ EP       1720 53.97                             108    0.28 6  361 225 
 ANIL HN ES       1721 32.97                             108    0.10 6  361 225 
 ANIL HZ I        1721 41.87        43.9 0.28            109            361 225 
 PRA  HZ EP       1720 57.25                             107   -0.11 6  395 210 
 PRA  HN ES   4   1721 38.13                             107   -1.29 0  395 210 
 PRA  HZ I        1721 47.17        13.2 0.34            107            395 210 
 ORTC HZ EP       1720 57.39                             106   -0.39 6  399 216 
 ORTC HE ES       1721 40.29                             106    0.13 6  399 216 
 ORTC HZ I        1721 47.85        11.7 0.72            107            399 216 
 SJC  HZ EP   4   1720 57.67                             106   -1.39 0  409 326 
 SJC  HZ I        1720 59.58         7.0 0.28            107            409 326 
 SJC  HE ES   4   1721 37.41                             106   -5.03 0  409 326 
                                                                                
