 2015  415 1825 37.5 L   6.789 -73.096146.0  RSN  4 0.3 1.7LRSN                1
 GAP=143        0.61       4.1     5.6  6.2  0.5689E+00 -0.8576E+01  0.1033E+01E
 Epicentro: LOS SANTOS - SANTANDER                                             3
 ACTION:UPD 15-06-03 16:55 OP:cam  STATUS:               ID:20150415182537 L   I
 OLDACT:REG 15-04-15 21:19 OP:spq  STATUS:               ID:20150415181749     3
 2015-04-15-1817-49M.COL___275                                                 6
 STAT SP IPHASW D HRMM SECON CODA AMPLIT PERI AZIMU VELO AIN AR TRES W  DIS CAZ7
 BAR2 EZ EP       1825 56.93                             170   -0.2610 23.8 204 
 BAR2 EZ ES   1   1826 12.07                             170   -0.46 7 23.8 204 
 BAR2 EZ I        1826 14.51        12.9 0.24            171           23.8 204 
 PAM  SZ EP       1825 59.66                             152    0.0410 75.0  36 
 PAM  SE ES   1   1826 17.02                             152    0.16 7 75.0  36 
 PAM  SZ I        1826 18.97         8.7 0.44            154           75.0  36 
 BRR  HZ EP   1   1825 58.77                             151   -0.24 7 76.6 297 
 BRR  HE ES       1826 15.99                             151    0.2210 76.6 297 
 BRR  HZ I        1826 19.64         8.5 0.40            151           76.6 297 
 RUS  HZ EP   1   1826  1.49                             144    0.30 7 99.1 179 
 RUS  HN ES   1   1826 19.91                             144    0.25 7 99.1 179 
 RUS  HZ I        1826 20.72         5.3 0.32            148           99.1 179 
                                                                                
