 2012 1215 1240 26.0 L   5.932 -73.620121.4  RSN  7 0.2 1.8LRSN                1
 GAP= 96        0.59       2.1     3.0  4.9 -0.5646E+00  0.5319E+01  0.2537E+01E
 Epicentro: BARBOSA - SANTANDER                                                3
 ACTION:UPD 13-01-04 14:28 OP:ep   STATUS:               ID:20121215124026 L   I
 2012-12-15-1239-55M.COL___198                                                 6
 STAT SP IPHASW D HRMM SECON CODA AMPLIT PERI AZIMU VELO AIN AR TRES W  DIS CAZ7
 RUS  HZ IP     D 1240 44.38                             153   -0.1510 59.6  94 
 RUS  HN ES       1240 58.80                             153   -0.2210 59.6  94 
 RUS  HN I        1240 59.63        26.1 0.22                          59.6  94 
 BAR2 SZ EP       1240 45.95                             142   -0.0710 87.6  34 
 BAR2 SZ ES       1241  1.91                             142    0.2410 87.6  34 
 BAR2 SZ I        1241  3.41        31.1 0.34                          87.6  34 
 PTB  HZ EP       1240 47.67                             134   -0.2410  114 306 
 PTB  HN ES       1241  5.16                             134    0.1210  114 306 
 PTB  HN I        1241  8.86         5.9 0.22                           114 306 
 GIR2 SZ EP       1240 50.01                             129    0.00 9  135  20 
 CHI  HZ EP       1240 51.43                             127    0.16 9  145 185 
 CHI  HN ES       1241 11.24                             127    0.22 9  145 185 
 CHI  HN I        1241 13.82        10.6 0.42                           145 185 
 HEL  HN I        1241 31.12         5.2 0.34                           213 278 
 PRA  HZ EP       1241  6.29                             108    0.43 7  283 210 
 PRA  HN ES       1241 36.53                             108   -0.46 7  283 210 
 PRA  HN I        1241 41.99         2.4 0.40                           283 210 
                                                                                
