 2012  115 1120 34.9 L   5.997 -73.637115.5  RSN  4 0.1 1.3LRSN                1
 GAP=175        0.37       3.2     3.0  8.0 -0.1217E+01  0.1585E+02  0.4304E+01E
 Epicentro: VELEZ - SANTANDER                                                  3
 ACTION:UP  12-02-03 08:17 OP:REBC STATUS:               ID:20120115112034 L   I
 2012-01-15-1120-00M.COL___187                                                 6
 STAT SP IPHASW D HRMM SECON CODA AMPLIT PERI AZIMU VELO SNR AR TRES W  DIS CAZ7
 RUS  HZ EP   1   1120 53.11                             150     0.1 8   62 101 
 RUS  HZ I        1120 53.68         2.9 0.36                            62 101 
 RUS  HE ES   2   1121  7.24                             150     0.1 5   62 101 
 BAR2 SZ EP   2   1120 54.08                             142     0.0 5   83  37 
 BAR2 SZ ES   1   1121  8.80                             142    -0.2 8   83  37 
 BAR2 SZ I        1121 10.47         7.2 0.47                            83  37 
 GIR2 SZ ES       1121 16.03                             128     0.110  129  22 
 HEL  HZ EP   2   1121  6.58                             114    -0.2 4  211 276 
 HEL  HZ I        1121  7.55         2.5 0.58                           211 276 
 HEL  HN ES   1   1121 31.70                             114     0.1 7  211 276 
                                                                                
