 2015  215 1102 59.8 L   6.782 -73.162138.6  RSN 10 0.4 1.6LRSN                1
 GAP=135        1.06       3.8     4.8  6.4 -0.6297E+01  0.1245E+02  0.5709E+00E
 Epicentro: LOS SANTOS - SANTANDER                                             3
 ACTION:UPD 15-04-30 21:26 OP:nd   STATUS:               ID:20150215110259 L   I
 OLDACT:REG 15-02-15 22:02 OP:fm   STATUS:               ID:20150215105742     3
 2015-02-15-1057-42M.COL___292                                                 6
 STAT SP IPHASW D HRMM SECON CODA AMPLIT PERI AZIMU VELO AIN AR TRES W  DIS CAZ7
 BAR2 EZ EP       11 3 18.61                             171    0.0910 21.1 186 
 BAR2 EZ ES       11 3 33.78                             171    0.6510 21.1 186 
 BAR2 EZ I        11 3 34.98        10.0 0.14            172           21.1 186 
 BRR  HZ EP       11 3 20.44                             151    0.3010 70.6 301 
 BRR  HZ I        11 3 35.56         8.0 0.38            147           70.6 301 
 BRR  HN ES       11 3 36.48                             151    0.4710 70.6 301 
 PAM  SZ EP     D 11 3 21.65                             149    0.2310 80.1  40 
 PAM  SE ES       11 3 37.72                             149   -0.5710 80.1  40 
 PAM  SZ I        11 3 40.91         3.8 0.58            148           80.1  40 
 RUS  HE ES       11 3 39.96                             143   -0.6310 98.8 175 
 RUS  HZ I        11 3 42.59         4.8 0.22            144           98.8 175 
 PTB  HZ EP       11 3 25.52                             131   -0.47 9  146 259 
 PTB  HN ES       11 3 45.83                             131   -0.59 9  146 259 
 PTB  HZ I        11 3 51.59         4.4 0.18            129            146 259 
 SPBC HZ EP       11 3 27.69                             128    0.20 9  160 219 
 SPBC HE ES       11 3 49.55                             128    0.45 9  160 219 
 SPBC HZ I        11 3 57.39         8.7 0.54            127            160 219 
 NOR  HZ EP       11 3 34.76                             117   -0.07 8  232 235 
 NOR  HN ES       11 4  1.72                             117   -0.44 8  232 235 
 NOR  HZ I        11 4  7.22         3.1 0.38            116            232 235 
 SML  HE ES       11 4  4.30                             116   -0.20 8  245 336 
 SML  HZ I        11 4 11.79         6.8 0.10            114            245 336 
 GUY2CHZ EP       11 3 43.35                             111    0.57 7  299 235 
 GUY2CHE ES       11 4 16.24                             111   -0.07 7  299 235 
 GUY2CHZ I        11 4 22.89         1.9 0.30                           299 235 
 TOL  SE ES       11 4 24.76                             108    0.12 7  341 225 
 TOL  SZ I        11 4 30.85         1.7 0.22            108            341 225 
                                                                                
