 2012  215 1615  3.2 L   6.988 -73.194130.5  RSN  6 0.2 1.7LRSN                1
 GAP=120        0.51       3.4     3.4  4.6  0.2243E+01  0.2008E+01  0.1785E+01E
 ACTION:UP  12-03-07 16:30 OP:epov STATUS:               ID:20120215161503 L   I
 2012-02-15-1610-00M.COL___188                                                 6
 STAT SP IPHASW D HRMM SECON CODA AMPLIT PERI AZIMU VELO AIN AR TRES W  DIS CAZ7
 GIR2 SZ EP       1615 20.48                             175   -0.1210 10.0   0 
 GIR2 SZ ES   1   1615 34.24                             175    0.04 7 10.0   0 
 BAR2 SZ EP       1615 21.59                             160   -0.0210 43.8 178 
 BAR2 SZ ES   1   1615 35.48                             160   -0.52 7 43.8 178 
 BAR2 SZ I        1615 37.38        28.2 0.38                          43.8 178 
 BRR  HZ EP   1   1615 21.92                             154   -0.04 7 58.7 283 
 BRR  HN ES   1   1615 37.06                             154    0.43 7 58.7 283 
 BRR  HZ I        1615 37.91        16.1 0.18                          58.7 283 
 PAM  SZ EP   1   1615 23.24                             151    0.10 7 67.0  55 
 PAM  SZ I        1615 23.79         5.6 0.18                          67.0  55 
 PAM  SE ES   1   1615 38.76                             151    0.04 7 67.0  55 
 RUS  HZ EP   1   1615 27.30                             135    0.11 7  122 174 
 RUS  HZ I        1615 45.85         4.7 0.66                           122 174 
 RUS  HN ES   1   1615 46.18                             135    0.25 7  122 174 
 ZAR  HN ES   1   1615 56.77                             120   -0.19 7  192 287 
 ZAR  HZ I        1616  1.06         7.1 0.12                           192 287 
                                                                                
