 2013  215 1421  1.2 L   6.792 -73.131144.0  RSN  7 0.5 2.2LRSN                1
 GAP=139        1.01       5.0     5.8  8.1  0.6416E+01  0.1128E+02  0.1190E+02E
 Epicentro: LOS SANTOS - SANTANDER                                             3
 ACTION:UPD 13-03-12 09:33 OP:ep   STATUS:               ID:20130215142101 L   I
 2013-02-15-1420-00M.COL___238                                                 6
 STAT SP IPHASW D HRMM SECON CODA AMPLIT PERI AZIMU VELO AIN AR TRES W  DIS CAZ7
 BAR2 SZ EP       1421 20.50                             171   -0.0810 22.8 195 
 BAR2 SZ ES   1   1421 35.55                             171   -0.16 7 22.8 195 
 BAR2 SZ I        1421 37.19        30.3 0.38            169           22.8 195 
 BRR  HZ IP     C 1421 22.34                             152    0.1010 73.1 299 
 BRR  HN ES       1421 39.36                             152    0.6910 73.1 299 
 BRR  HN I        1421 40.02        44.1 0.30            150           73.1 299 
 PAM  SN ES   1   1421 39.87                             151   -0.47 7 77.1  38 
 PAM  SN I        1421 42.52        17.0 0.52            153           77.1  38 
 RUS  HZ EP   1   1421 24.71                             144    0.04 7 99.6 177 
 RUS  HN ES   1   1421 43.06                             144    0.06 7 99.6 177 
 RUS  HN I        1421 43.49        20.7 0.34            145           99.6 177 
 PTB  HZ EP   1   1421 27.28                             131   -0.85 7  149 259 
 PTB  HN ES       1421 48.50                             131   -0.65 9  149 259 
 PTB  HN I        1421 53.41        17.3 0.22            131            149 259 
 ZAR  HZ EP   1   1421 34.52                             122    0.83 6  206 292 
 ZAR  HN ES   1   1421 59.02                             122   -0.04 6  206 292 
 ZAR  HN I        1422  3.76        25.7 0.42            122            206 292 
 CHI  HZ EP   1   1421 38.55                             117   -0.17 6  248 196 
 CHI  HN ES       1422  8.49                             117    0.48 8  248 196 
 CHI  HN I        1422 12.12         9.2 0.52            117            248 196 
                                                                                
