 2010  115 1536 33.3 L   6.769 -73.035137.9  RSN  4 0.4 2.0LRSN                1
 GAP=323        0.74      12.6    24.8 10.4 -0.1090E+03  0.9951E+02  0.3185E+02E
 Epicentro: CEPITA - SANTANDER                                                 3
 ACTION:UP  10-08-24 09:44 OP:vdl  STATUS:               ID:20100115153633 L   I
 2010-01-15-1533-35S.COL___096                                                 6
 STAT SP IPHASW D HRMM SECON CODA AMPLIT PERI AZIMU VELO SNR AR TRES W  DIS CAZ7
 BAR2 SZ EP   1   1536 52.24                             170     0.210   26 220 
 BAR2 SZ ES   2   1537  6.32                             170    -0.3 6   26 220 
 RUS  BZ EP   1   1536 56.54                             143     0.510   97 183 
 RUS  BZ I        1536 57.10         9.0 0.32                            97 183 
 RUS  BE ES   2   1537 13.63                             143    -0.1 6   97 183 
 CHI  HZ EP       1537 10.09                             115    -0.510  249 198 
 PRA  HZ EP   1   1537 26.90                             105    -0.1 6  395 211 
 PRA  HN ES   2   1538  9.41                             105     0.6 4  395 211 
 PRA  HZ I        1538 15.73         4.8 0.42                           395 211 
                                                                                
