 2014 1015 1341 14.4 L   6.550 -73.584113.2  RSN  4 0.2 1.9LRSN                1
 GAP=127        0.59       3.6     3.0  5.3  0.4519E+01  0.4107E+01  0.5036E+01E
 Epicentro: EL CARMEN - SANTANDER                                              3
 ACTION:UPD 14-11-29 23:50 OP:nd   STATUS:               ID:20141015134114 L   I
 OLDACT:REG 14-10-15 23:11 OP:fm   STATUS:               ID:20141015133744     3
 2014-10-15-1337-44M.COL___294                                                 6
 STAT SP IPHASW D HRMM SECON CODA AMPLIT PERI AZIMU VELO AIN AR TRES W  DIS CAZ7
 BAR2 SZ EP       1341 30.84                             157   -0.1210 44.7  84 
 BAR2 SZ ES       1341 43.55                             157   -0.3010 44.7  84 
 BAR2 SZ I        1341 44.62        70.5 0.36            159           44.7  84 
 BRR  HZ EP       1341 31.79                             149    0.1510 63.2 347 
 BRR  HN ES       1341 45.26                             149    0.1910 63.2 347 
 RUS  HZ EP       1341 34.20                             139   -0.1810 91.4 143 
 RUS  HZ I        1341 35.09         7.4 0.12            139           91.4 143 
 RUS  HN ES       1341 50.29                             139    0.3410 91.4 143 
 PTB  HZ EP       1341 34.20                             136    0.0610 96.4 269 
 PTB  HN ES       1341 49.37                             136   -0.1410 96.4 269 
 PTB  HZ I        1341 50.84        12.8 0.18            137           96.4 269 
                                                                                
