 2015  415 1405  3.3 L   6.814 -73.119150.8  RSN  7 0.4 1.9LRSN                1
 GAP=139        0.87       5.2     4.7  6.8 -0.1661E+01  0.7753E+01 -0.1746E+01E
 Epicentro: LOS SANTOS - SANTANDER                                             3
 ACTION:UPD 15-06-03 16:55 OP:cam  STATUS:               ID:20150415140503 L   I
 OLDACT:REG 15-04-15 20:50 OP:spq  STATUS:               ID:20150415135749     3
 2015-04-15-1357-49M.COL___278                                                 6
 STAT SP IPHASW D HRMM SECON CODA AMPLIT PERI AZIMU VELO AIN AR TRES W  DIS CAZ7
 BAR2 EZ EP       14 5 23.59                             170    0.0410 25.5 196 
 BAR2 EZ ES   1   14 5 38.67                             170   -0.70 7 25.5 196 
 BAR2 EZ I        14 5 40.28        13.5 0.18            168           25.5 196 
 BRR  HZ EP   1   14 5 25.42                             153    0.35 7 73.0 296 
 BRR  HE ES   1   14 5 42.72                             153    0.65 7 73.0 296 
 BRR  HZ I        14 5 49.36        14.5 0.38            149           73.0 296 
 PAM  SZ EP       14 5 26.30                             153    0.4510 74.3  39 
 PAM  SN ES       14 5 43.33                             153   -0.1310 74.3  39 
 PAM  SZ I        14 5 45.38        17.5 0.54            158           74.3  39 
 RUS  HZ EP   1   14 5 27.68                             144    0.05 7  102 178 
 PTB  HZ EP       14 5 30.97                             132    0.03 9  151 258 
 PTB  HE ES   1   14 5 52.20                             132   -0.32 7  151 258 
 PTB  HZ I        14 5 59.87         7.4 0.29            133            151 258 
 ZAR  HN ES   1   14 6  2.21                             123    0.21 6  206 291 
 ZAR  HZ I        14 6  7.54         9.6 0.62            124            206 291 
 SML  HZ EP       14 5 39.44                             118   -0.73 8  243 335 
 SML  HN ES   1   14 6  8.81                             118   -0.13 6  243 335 
                                                                                
