 2010  815 1125 12.0 L   6.799 -73.061135.3  RSN  6 0.3 1.7LRSN                1
 GAP=168        0.72       3.6     8.4  7.3  0.4311E+01 -0.2466E+02 -0.1055E+02E
 Epicentro: LOS SANTOS - SANTANDER                                             3
 ACTION:UP  10-09-07 10:55 OP:vdl  STATUS:               ID:20100815112511 L   I
 2010-08-15-1122-25S.COL___111                                                 6
 STAT SP IPHASW D HRMM SECON CODA AMPLIT PERI AZIMU VELO SNR AR TRES W  DIS CAZ7
 BAR2 SZ EP       1125 30.52                             169     0.110   27 211 
 BAR2 SZ ES   1   1125 45.08                             169     0.2 7   27 211 
 BRR  HZ EP       1125 32.47                             148    -0.110   80 295 
 BRR  HN ES   1   1125 48.78                             148     0.2 7   80 295 
 BRR  HZ I        1125 54.67        12.8 0.11                            80 295 
 RUS  HZ EP       1125 34.48                             142    -0.210  100 181 
 RUS  HN ES   1   1125 52.27                             142    -0.2 7  100 181 
 GUE  SZ EP       1125 35.68                             137     0.110  115   8 
 GRA  SZ EP       1125 36.58                             135     0.510  123  13 
 GRA  SZ I        1125 37.81         5.8 0.34                           123  13 
 GRA  SZ ES   2   1125 54.51                             135    -0.4 5  123  13 
 OCA  SZ EP       1125 39.51                             127    -0.1 9  162 350 
 OCA  SZ ES   2   1126  0.27                             127    -1.0 5  162 350 
 OCA  SZ I        1126  6.19         8.4 0.47                           162 350 
                                                                                
