 2012  715 1926 28.1 L   6.701 -73.189144.1  RSN  5 0.3 1.6LRSN                1
 GAP=225        0.82       7.3     7.2  8.1  0.3022E+02  0.3081E+01  0.6771E+01E
 Epicentro: VILLANUEVA - SANTANDER                                             3
 ACTION:UPD 12-08-14 11:45 OP:ep   STATUS:               ID:20120715192628 L   I
 2012-07-15-1920-00M.COL___197                                                 6
 STAT SP IPHASW D HRMM SECON CODA AMPLIT PERI AZIMU VELO AIN AR TRES W  DIS CAZ7
 BAR2 SZ EP       1926 47.38                             175     0.010   12 176 
 BAR2 SZ ES   2   1927  1.81                             175    -0.6 5   12 176 
 BAR2 SZ I        1927  3.50        11.4 0.42            170             12 176 
 BRR  HZ EP       1926 49.08                             152    -0.110   73 308 
 BRR  HZ I        1926 49.62        12.7 0.11            149             73 308 
 BRR  HN ES       1927  5.85                             152     0.210   73 308 
 RUS  HZ EP       1926 51.43                             147     0.510   90 173 
 RUS  HE ES   1   1927  8.56                             147    -0.2 7   90 173 
 RUS  HZ I        1927 11.01         6.3 0.22            146             90 173 
 PTB  HZ EP       1926 53.99                             133    -0.4 9  141 263 
 PTB  HN ES   1   1927 15.05                             133     0.2 7  141 263 
 PTB  HZ I        1927 18.36         2.9 0.23            130            141 263 
 ZAR  HN ES   2   1927 25.57                             122    -0.1 4  204 295 
 ZAR  HZ I        1927 31.30         5.3 0.17            121            204 295 
