 2017  915 1546 18.1 L   6.788 -73.136146.0  RSN  8 0.4 1.8LRSN                1
 GAP=138        0.90       3.8     4.1  6.1 -0.1695E+01  0.8393E+01  0.5737E+01E
 Epicentro: LOS SANTOS - SANTANDER                                             3
 ACTION:UPD 17-10-05 19:12 OP:rebc STATUS:               ID:20170915154618 L   I
 OLDACT:REG 17-09-15 22:11 OP:dnl  STATUS:               ID:20170915153749     3
 2017-09-15-1538-00M.COL___456                                                 6
 STAT SP IPHASW D HRMM SECON CODA AMPLIT PERI AZIMU VELO AIN AR TRES W  DIS CAZ7
 BAR2 EZ EP       1546 37.62                             171   -0.0810 22.2 193 
 BAR2 EZ ES       1546 53.38                             171    0.3610 22.2 193 
 BAR2 EZ I        1546 55.41        23.1 0.28            168           22.2 193 
 BRR  HZ EP       1546 39.10                             152   -0.2310 72.8 299 
 BRR  HN ES       1546 56.44                             152    0.5310 72.8 299 
 BRR  HZ I        1547  1.24        17.3 0.28            149           72.8 299 
 PAM  EZ EP       1546 40.59                             151    0.2610 77.8  38 
 PAM  EN ES       1546 57.48                             151   -0.2110 77.8  38 
 PAM  EZ I        1546 58.37         7.7 0.18            156           77.8  38 
 RUS  HZ EP       1546 41.84                             144    0.1010 99.2 177 
 RUS  HN ES       1546 59.69                             144   -0.5110 99.2 177 
 RUS  HZ I        1547  1.70         4.4 0.26            146           99.2 177 
 ZAR  HZ EP   2   1546 50.04                             122   -0.64 4  206 292 
 ZAR  HN ES       1547 15.65                             122   -0.47 8  206 292 
 ZAR  HZ I        1547 21.80         7.7 0.24            123            206 292 
 NOR  HZ EP   2   1546 53.44                             119   -0.38 4  235 235 
 NOR  HE ES       1547 21.13                             119   -0.57 8  235 235 
 NOR  HZ I        1547 30.12         3.5 0.14            119            235 235 
 GUY2CHZ EP   2   1547  2.59                             112    0.90 4  301 235 
 GUY2CHE ES       1547 36.44                             112    0.71 7  301 235 
 GUY2CHZ I        1547 44.08         3.7 0.60                           301 235 
 PRA  HZ EP       1547 11.74                             107    0.22 6  391 210 
 PRA  HE ES       1547 53.55                             107    0.34 6  391 210 
 PRA  HZ I        1547 57.92         4.4 0.32            108            391 210 
                                                                                
