 2010  515 1103 53.4 L   6.809 -73.037142.6  RSN  5 0.3 1.7LRSN                1
 GAP=171        0.51       3.4     8.0  6.9 -0.6080E+01 -0.1457E+02 -0.8033E+00E
 Epicentro: CEPITA - SANTANDER                                                 3
 ACTION:UP  10-08-24 10:05 OP:vdl  STATUS:               ID:20100515110353 L   I
 2010-05-15-1059-03S.COL___108                                                 6
 STAT SP IPHASW D HRMM SECON CODA AMPLIT PERI AZIMU VELO AIN AR TRES W  DIS CAZ7
 BAR2 SZ EP   1   11 4 12.49                             168    -0.3 7   29 214 
 BAR2 SZ ES   2   11 4 27.29                             168    -0.6 5   29 214 
 BRR  HZ EP   1   11 4 14.89                             148     0.1 7   82 294 
 BRR  HE ES   2   11 4 31.71                             148     0.2 5   82 294 
 BRR  HZ I        11 4 32.45        14.0 0.27                            82 294 
 RUS  HZ EP   1   11 4 16.90                             143     0.0 7  101 183 
 RUS  HE ES   2   11 4 35.79                             143     0.6 5  101 183 
 RUS  HZ I        11 4 36.98         5.1 0.27                           101 183 
 GUE  SZ EP   1   11 4 17.51                             139    -0.1 7  114   6 
 GUE  SZ ES   2   11 4 36.37                             139    -0.1 5  114   6 
 GRA  SZ EP   1   11 4 18.01                             137     0.0 7  122  12 
 GRA  SZ ES   2   11 4 37.56                             137     0.4 5  122  12 
                                                                                
