 2017  415 1959 58.8 L   6.819 -73.136148.4  RSN 30 0.6 2.9LRSN                1
 GAP=112        0.92       2.2     2.7  3.9  0.4073E+00  0.2538E+01  0.1299E+01E
 Epicentro: LOS SANTOS - SANTANDER                                             3
 ACTION:UPD 17-05-30 21:12 OP:jn   STATUS:               ID:20170415195958 L   I
 OLDACT:UP  17-04-16 01:45 OP:and  STATUS:               ID:20170415195640     3
 OLDACT:UP  17-04-16 01:44 OP:and  STATUS:               ID:20170415195640     3
 OLDACT:UP  17-04-16 01:43 OP:and  STATUS:               ID:20170415195640     3
 OLDACT:UP  17-04-16 01:42 OP:and  STATUS:               ID:20170415195640     3
 OLDACT:UP  17-04-16 01:40 OP:and  STATUS:               ID:20170415195640     3
 OLDACT:UP  17-04-16 01:40 OP:and  STATUS:               ID:20170415195640     3
 OLDACT:UP  17-04-16 01:37 OP:and  STATUS:               ID:20170415195640     3
 OLDACT:UP  17-04-16 01:37 OP:and  STATUS:               ID:20170415195640     3
 OLDACT:UP  17-04-16 01:36 OP:and  STATUS:               ID:20170415195640     3
 OLDACT:UP  17-04-16 01:36 OP:and  STATUS:               ID:20170415195640     3
 OLDACT:UP  17-04-16 01:34 OP:and  STATUS:               ID:20170415195640     3
 OLDACT:REG 17-04-16 01:16 OP:and  STATUS:               ID:20170415195640     3
 2017-04-15-1958-00M.COL___374                                                 6
 STAT SP IPHASW D HRMM SECON CODA AMPLIT PERI AZIMU VELO AIN AR TRES W  DIS CAZ7
 BAR2 EZ IP     C 20 0 18.86                             170    0.0610 25.6 191 
 BAR2 EZ ES       20 0 34.24                             170   -0.1510 25.6 191 
 BAR2 EZ I        20 0 34.89       188.5 0.34            164           25.6 191 
 BRR  HZ IP     C 20 0 20.59                             153    0.3610 71.1 297 
 BRR  HN ES       20 0 37.67                             153    0.7310 71.1 297 
 BRR  HZ I        20 0 39.00        85.8 0.16            149           71.1 297 
 PAM  EZ IP     C 20 0 21.61                             152    0.4510 75.1  40 
 PAM  EN ES       20 0 38.59                             152   -0.0210 75.1  40 
 PAM  EZ I        20 0 41.00        89.4 0.56            159           75.1  40 
 RUS  HZ IP     D 20 0 22.71                             144   -0.2510  103 177 
 RUS  HN ES       20 0 41.29                             144   -0.5110  103 177 
 RUS  HZ I        20 0 42.45        49.7 0.26            143            103 177 
 PTB  HZ EP       20 0 25.44                             132   -0.67 9  149 258 
 PTB  HN ES       20 0 46.52                             132   -0.90 9  149 258 
 PTB  HZ I        20 0 49.50        37.4 0.13            130            149 258 
 SPBC HZ EP       20 0 27.79                             129    0.07 9  165 219 
 SPBC HN ES       20 0 50.38                             129    0.11 9  165 219 
 SPBC HZ I        20 0 54.63        97.6 0.22            127            165 219 
 YPLC HZ IP     D 20 0 29.21                             127    0.29 9  178 152 
 YPLC HN ES       20 0 52.16                             127   -0.26 9  178 152 
 YPLC HZ I        20 0 55.94        43.2 0.32            128            178 152 
 ZAR  HZ EP       20 0 31.29                             123   -0.15 9  204 291 
 ZAR  HN ES       20 0 56.87                             123   -0.02 9  204 291 
 ZAR  HZ I        20 1  2.19        85.2 0.40            122            204 291 
 TABC EZ EP   4   20 0 36.83                             119    1.87 0  232 211 
 TABC EZ ES   4   20 1  6.29                             119    3.13 0  232 211 
 TABC EZ I        20 1  9.43        65.2 0.46            119            232 211 
 NOR  HZ IP     D 20 0 34.89                             119   -0.02 8  237 234 
 NOR  HN ES   3   20 1  1.75                             119   -1.32 2  237 234 
 NOR  HZ I        20 1 12.57        28.4 0.29            118            237 234 
 CHI  HZ EP       20 0 36.99                             117    0.09 8  251 195 
 CHI  HN ES       20 1  6.18                             117   -0.43 8  251 195 
 CHI  HZ I        20 1  9.79        39.8 0.64            117            251 195 
 ROSC BZ EP       20 0 38.31                             117    0.99 8  255 211 
 ROSC BN ES       20 1  8.17                             117    0.80 8  255 211 
 ROSC BZ I        20 1 13.47        90.7 0.45            116            255 211 
 HEL  HZ EP   3   20 0 40.70                             115    1.38 2  274 255 
 HEL  HN ES       20 1 11.14                             115    0.22 8  274 255 
 HEL  HZ I        20 1 17.77        24.9 0.46            115            274 255 
 URE  HZ EP   9   20 0 38.52                             114   -1.50 0  284 291 
 URE  HN ES       20 1 10.57                             114   -0.10 7  284 291 
 URE  HZ I        20 1 22.73        35.8 0.18            114            284 291 
 VIL  EZ EP       20 0 42.66                             112    0.06 7  306 192 
 VIL  EN ES       20 1 16.43                             112   -0.33 7  306 192 
 VIL  EZ I        20 1 19.51        57.4 0.38            113            306 192 
 PTGC HZ EP   3   20 0 41.87                             112   -1.09 2  310 159 
 LL6C HN EP   9   20 0 24.07                             111   -20.3 0  323 357 
 LL6C HN ES       20 0 59.55                                   -0.07 7  323 357 
 LL6C HN I        20 1  1.26        20.5 0.36            113            323 357 
 ELA  HZ EP   4   20 0 48.64                             110    2.63 0  331 229 
 ELA  HN ES   4   20 1 26.31                             110    3.48 0  331 229 
 ELA  HZ I        20 1 31.52        23.5 0.50            110            331 229 
 CBOC HZ EP   3   20 0 47.08                             110    1.06 2  335 252 
 CBOC HE ES       20 1 23.50                             110    0.66 7  335 252 
 CBOC HZ I        20 1 28.98         8.3 0.40            110            335 252 
 DBB  EN ES   3   20 1 22.18                             110   -1.50 2  340 274 
 DBB  EZ I        20 1 23.56        15.0 0.24            110            340 274 
 ARGC HZ EP       20 0 48.88                             109    0.51 6  358 340 
 ARGC HN ES   3   20 1 28.30                             109    1.27 2  358 340 
 ARGC HZ I        20 1 36.32         8.1 0.22            110            358 340 
 ANIL HZ EP   3   20 0 50.88                             109    1.91 2  360 224 
 ANIL HE ES   4   20 1 31.54                             109    3.45 0  360 224 
 ANIL HZ I        20 1 38.87        88.9 0.34            109            360 224 
 PRA  HZ EP       20 0 52.55                             107   -0.14 6  394 210 
 PRA  HN ES       20 1 34.59                             107   -0.13 6  394 210 
 PRA  HZ I        20 1 41.24        32.5 0.27            107            394 210 
 ORTC HZ EP       20 0 52.88                             107   -0.20 6  398 216 
 ORTC HN ES       20 1 36.22                             107    0.80 6  398 216 
 ORTC HZ I        20 1 40.18        10.7 0.22            107            398 216 
 APAC HZ EP       20 0 52.49                             106   -0.63 6  399 288 
 APAC HN ES       20 1 34.80                             106   -0.69 6  399 288 
 APAC HZ I        20 1 44.33        10.7 0.38            107            399 288 
 PAL  HZ EP       20 0 54.34                             106    0.06 6  408 239 
 PAL  HN ES   3   20 1 35.65                             106   -1.91 1  408 239 
 PAL  HZ I        20 1 42.42         7.0 0.20            106            408 239 
 SJC  HZ EP   3   20 0 52.39                             106   -1.92 1  408 327 
 SJC  HN ES   4   20 1 34.24                             106   -3.36 0  408 327 
 SJC  HZ I        20 1 42.80        13.2 0.40            107            408 327 
 VALLCHZ EP   3   20 0 52.74                             106   -1.55 1  408 358 
 VALLCHE ES       20 1 36.86                             106   -0.71 6  408 358 
 VALLCHZ I        20 1 40.27     36188.9 0.10                           408 358 
 YOT  HZ EP       20 1  1.81                             103   -0.37 5  474 229 
 YOT  HN ES   4   20 1 55.78                             103    4.17 0  474 229 
 SMAR HZ EP       20 1  4.38                             103   -0.15 4  495 346 
 SMAR HN ES   4   20 1 51.98                             103   -3.81 0  495 346 
                                                                                
