 2011  615 1353 44.7 L   6.561 -73.519111.4  RSN 13 0.4 2.8LRSN                1
 GAP= 62        0.94       3.0     4.6  6.4 -0.6195E+01  0.1260E+02 -0.1298E+01E
 Epicentro: EL CARMEN DE CHUCURI - SANTANDER                                   3
 ACTION:UP  11-07-14 19:05 OP:ep   STATUS:               ID:20110615135344 L   I
 2011-06-15-1351-57S.COL___138                                                 6
 STAT SP IPHASW D HRMM SECON CODA AMPLIT PERI AZIMU VELO SNR AR TRES W  DIS CAZ7
 BAR2 SZ IP       1354  1.05                             160     0.310   37  85 
 BAR2 SZ ES   1   1354 13.42                             160     0.2 7   37  85 
 BAR2 SZ I        1354 15.13       990.4 0.50                            37  85 
 BRR  HZ EP       1354  1.83                             148     0.010   64 341 
 BRR  HZ I        1354  9.36       126.1 0.14                            64 341 
 BRR  HN ES   1   1354 15.52                             148     0.4 7   64 341 
 RUS  HZ EP       1354  4.10                             139    -0.210   88 147 
 RUS  HE ES       1354 19.41                             139    -0.110   88 147 
 RUS  HZ I        1354 21.16        54.0 0.22                            88 147 
 PAM  SZ EP   1   1354  7.52                             128     0.0 7  125  46 
 PAM  SN ES   1   1354 25.13                             128    -0.1 7  125  46 
 BRI  SZ EP   1   1354  9.80                             122     0.1 7  151  32 
 BRI  SZ ES   1   1354 28.15                             122    -0.9 7  151  32 
 BRI  SZ I        1354 32.41        48.0 0.41                           151  32 
 GRA  SZ EP       1354 11.23                             119     0.0 9  166  28 
 GRA  SZ ES   1   1354 32.46                             119     0.5 7  166  28 
 GRA  SZ I        1354 34.41        58.7 0.25                           166  28 
 NOR  SZ EP   1   1354 12.60                             116    -0.7 7  186 234 
 NOR  SN ES   1   1354 34.38                             116    -1.1 7  186 234 
 OCA  SZ EP   1   1354 13.36                             116    -0.1 7  187   7 
 OCA  SZ I        1354 41.90        82.9 0.23                           187   7 
 CHI  HZ EP   1   1354 16.97                             113     0.0 6  215 186 
 CHI  HE ES   1   1354 42.39                             113     0.3 6  215 186 
 RREF HN ES   1   1354 54.81                             107     0.3 6  273 228 
 RREF HZ I        1355  0.42        38.0 0.25                           273 228 
 TOL  SZ EP   1   1354 26.83                             105     0.6 5  296 223 
 DBB  SZ EP   1   1354 27.16                             105     0.6 5  302 280 
 PRA  HZ EP       1354 32.13                             102    -0.1 6  349 206 
 PRA  HE ES   1   1355  9.75                             102     0.5 5  349 206 
 PRA  HZ I        1355 15.89        83.1 0.28                           349 206 
                                                                                
