 2016  715 1552 29.3 L   6.978 -73.147156.7  RSN  4 0.2 1.3LRSN                1
 GAP=250        0.62       6.7     5.0  6.1  0.2264E+02 -0.3589E+01 -0.1705E+02E
 Epicentro: GIRON - SANTANDER                                                  3
 ACTION:UPD 17-03-29 16:51 OP:lp   STATUS:               ID:20160715155229 L   I
 OLDACT:REG 16-07-15 20:31 OP:dani STATUS:               ID:20160715154759     3
 2016-07-15-1547-59S.COL___331                                                 6
 STAT SP IPHASW D HRMM SECON CODA AMPLIT PERI AZIMU VELO AIN AR TRES W  DIS CAZ7
 BAR2 EZ EP       1552 50.62                             164   -0.1510 42.9 185 
 BAR2 EZ ES       1553  7.35                             164   -0.1510 42.9 185 
 BAR2 EZ I        1553  7.72         4.3 0.46            161           42.9 185 
 RUS  HZ EP       1552 55.69                             141    0.1110  120 177 
 RUS  HN ES       1553 16.38                             141    0.3110  120 177 
 RUS  HZ I        1553 18.18         0.8 0.11            141            120 177 
 PTB  HZ EP       1552 57.49                             133   -0.13 9  153 252 
 PTB  HN ES       1553 19.38                             133   -0.32 9  153 252 
 PTB  HZ I        1553 24.91         3.0 0.28            131            153 252 
 ZAR  HZ EP       1553  1.78                             126   -0.04 9  197 287 
 ZAR  HN ES       1553 27.61                             126    0.44 9  197 287 
 ZAR  HZ I        1553 36.62         3.0 0.30            124            197 287 
                                                                                
