 2015  715 1246 19.3 L   6.866 -73.115144.8  RSN  5 0.1 1.7LRSN                1
 GAP=204        0.33       2.2     2.7  4.6  0.2367E+01  0.3340E+01 -0.1770E+01E
 Epicentro: LOS SANTOS - SANTANDER                                             3
 ACTION:UPD 15-09-08 21:49 OP:cam  STATUS:               ID:20150715124619 L   I
 OLDACT:DUP 15-07-16 00:38 OP:spq  STATUS:               ID:20150715123752d    3
 2015-07-15-1237-50M.COL___337                                                 6
 STAT SP IPHASW D HRMM SECON CODA AMPLIT PERI AZIMU VELO AIN AR TRES W  DIS CAZ7
 BAR2 EZ EP       1246 38.99                             167    0.0210 31.1 194 
 BAR2 EZ ES   1   1246 54.41                             167    0.07 7 31.1 194 
 BAR2 EZ I        1246 56.67         7.6 0.30            166           31.1 194 
 RUS  HZ EP   1   1246 43.56                             142    0.11 7  108 178 
 RUS  HE ES   1   1247  2.17                             142   -0.15 7  108 178 
 RUS  HZ I        1247  3.52         5.3 0.28            144            108 178 
 ZAR  HN ES       1247 17.09                             122    0.08 9  205 290 
 ZAR  HZ I        1247 22.54         5.8 0.32            122            205 290 
 SML  HN ES   1   1247 23.22                             118   -0.17 6  239 334 
 SML  HZ I        1247 27.23         6.6 0.22            119            239 334 
 NOR  HE ES   1   1247 24.03                             117   -0.08 6  242 234 
 NOR  HZ I        1247 28.43         4.3 0.49            118            242 234 
                                                                                
