 2017  615 1000 28.0 L   6.881 -73.302121.0  RSN 23 0.6 2.6LRSN                1
 GAP=101        1.13       3.3     2.8  6.2  0.1631E+01  0.7557E+00  0.5507E-01E
 Epicentro: BETULIA - SANTANDER                                                3
 ACTION:UPD 17-09-14 16:52 OP:jn   STATUS:               ID:20170615100028 L   I
 OLDACT:UP  17-06-15 22:05 OP:ar   STATUS:               ID:20170615095742d    3
 OLDACT:DUP 17-06-15 21:36 OP:ar   STATUS:               ID:20170615095742d    3
 2017-06-15-0958-00M.COL___365                                                 6
 STAT SP IPHASW D HRMM SECON CODA AMPLIT PERI AZIMU VELO AIN AR TRES W  DIS CAZ7
 BRR  HZ IP     C 10 0 45.20                             155   -0.1510 51.7 299 
 BRR  HN ES       10 0 59.31                             155    0.4010 51.7 299 
 BRR  HZ I        10 0 59.75       249.6 0.14            155           51.7 299 
 PTB  HZ IP   9 C 10 0 50.10                             129   -1.51 0  133 254 
 PTB  HN ES       10 1  7.82                             128   -0.7210  133 254 
 PTB  HZ I        10 1 12.01        77.5 0.24            128            133 254 
 SPBC HZ EP       10 0 54.25                             123   -0.15 9  160 212 
 SPBC HN ES       10 1 14.66                             123   -0.36 9  160 212 
 SPBC HZ I        10 1 16.78        83.3 0.16            122            160 212 
 TAM  HZ IP     D 10 0 55.77                             121   -0.00 9  174 106 
 TAM  HN ES       10 1 17.54                             121    0.08 9  174 106 
 TAM  HZ I        10 1 23.74        46.5 0.42            120            174 106 
 ZAR  HZ EP       10 0 56.49                             119   -0.34 9  185 292 
 ZAR  HN ES       10 1 20.21                             119    0.87 9  185 292 
 ZAR  HZ I        10 1 22.29       103.3 0.30            118            185 292 
 YPLC HZ EP       10 0 57.85                             118    0.00 9  193 148 
 YPLC HE ES       10 1 20.60                             118   -0.55 9  193 148 
 YPLC HZ I        10 1 23.52        57.2 0.20            117            193 148 
 NOR  HZ EP       10 1  2.29                             114    0.83 8  226 230 
 NOR  HN ES       10 1 27.52                             114   -0.07 8  226 230 
 NOR  HZ I        10 1 34.18        28.1 0.16            113            226 230 
 ROSC BZ EP   4   10 1  7.95                             111    3.15 0  252 207 
 ROSC BN ES   4   10 1 38.65                             111    5.11 0  252 207 
 ROSC BZ I        10 1 43.51        14.0 0.45            110            252 207 
 CHI  HZ EP       10 1  4.87                             111   -0.10 8  253 191 
 CHI  HE ES       10 1 33.83                             111    0.00 8  253 191 
 CHI  HZ I        10 1 36.92        12.4 0.34            110            253 191 
 HEL  HZ EP       10 1  6.03                             110    0.63 8  258 253 
 HEL  HN ES       10 1 35.01                             110    0.40 8  258 253 
 HEL  HZ I        10 1 39.83        32.3 0.24            110            258 253 
 URE  HZ EP       10 1  4.44                             110   -1.28 8  264 291 
 URE  HN ES   4   10 1 32.83                             110   -2.33 0  264 291 
 URE  HZ I        10 1 35.75        53.2 0.12            109            264 291 
 VIL  EZ EP   2   10 1 11.89                             106    0.83 4  309 188 
 CBOC HZ EP       10 1 12.72                             106    0.33 7  320 250 
 CBOC HE ES       10 1 47.38                             106    0.33 7  320 250 
 CBOC HZ I        10 1 49.48        12.6 0.22            105            320 250 
 DBB  EZ EP   4   10 1 14.21                             106    1.76 0  322 273 
 DBB  EN ES       10 1 45.93                             106   -1.22 7  322 273 
 DBB  EZ I        10 1 51.06        14.7 0.46            105            322 273 
 ELA  HZ EP   9   10 1 15.70                             106    2.61 0  322 226 
 ELA  HE ES       10 1 50.75                             105   -0.14 7  322 226 
 ELA  HZ I        10 1 53.54        14.9 0.36            105            322 226 
 PTGC HZ EP   9   10 1 10.90                             105   -1.68 0  324 156 
 PTGC HN ES       10 1 45.12                             104   -0.58 7  324 156 
 ARGC HZ EP   9   10 1 17.71                             104    2.58 0  345 343 
 ARGC HN ES       10 1 54.52                             103    0.02 7  345 343 
 ARGC HZ I        10 2  5.23        14.3 0.28            104            345 343 
 APAC HZ EP       10 1 18.67                             102   -0.46 6  379 288 
 APAC HN ES       10 1 58.07                             102   -0.97 6  379 288 
 APAC HZ I        10 2  2.41        15.4 0.60            102            379 288 
 SJC  HZ EP   4   10 1 19.44                             102   -1.37 0  392 328 
 SJC  HN ES   4   10 1 58.11                             102   -3.91 0  392 328 
 SJC  HZ I        10 2  0.18        15.1 0.56            101            392 328 
 ORTC HZ EP       10 1 21.53                             102    0.68 6  393 213 
 ORTC HN ES   4   10 2  4.93                             102    2.83 0  393 213 
 ORTC HZ I        10 2  9.57         6.0 0.16            101            393 213 
 PAL  HZ EP   4   10 1 22.65                             102    1.42 0  396 237 
 PAL  HE ES       10 2  2.61                             102   -0.16 6  396 237 
 PAL  HZ I        10 2  6.65        11.4 0.42            101            396 237 
 CRJC HZ EP       10 1 28.98                              99    0.01 5  460   6 
 CRJC HE ES       10 2 16.92                              99    0.37 5  460   6 
 CRJC HZ I        10 2 22.63        17.7 0.38             99            460   6 
 CAP2 HZ EP       10 1 33.29                              98    1.04 4  488 294 
 CAP2 HN ES   4   10 2 17.58                              98   -4.81 0  488 294 
                                                                                
