 2013 1015 1923 24.4 L   6.811 -73.156149.6  RSN  9 0.4 2.3LRSN                1
 GAP=135        1.06       3.3     4.5  6.0  0.6896E+00  0.5970E+01  0.7544E+00E
 Epicentro: LOS SANTOS - SANTANDER                                             3
 ACTION:UPD 13-11-25 09:21 OP:ep   STATUS:               ID:20131015192324 L   I
 OLDACT:UP  13-10-15 16:54 OP:cam  STATUS:               ID:20131015191959     3
 OLDACT:REG 13-10-15 15:25 OP:cam  STATUS:               ID:20131015191959     3
 2013-10-15-1919-59M.COL___274                                                 6
 STAT SP IPHASW D HRMM SECON CODA AMPLIT PERI AZIMU VELO AIN AR TRES W  DIS CAZ7
 BAR2 SZ EP       1923 44.44                             170   -0.0910 24.4 187 
 BAR2 SZ ES       1924  0.13                             170   -0.0810 24.4 187 
 BAR2 SZ I        1924  0.93        71.6 0.28            170           24.4 187 
 BRR  HZ EP       1923 46.16                             154    0.2710 69.6 298 
 BRR  HE ES       1924  3.52                             154    0.8810 69.6 298 
 BRR  HZ I        1924  7.25        36.2 0.14            151           69.6 298 
 PAM  SZ EP       1923 47.36                             152    0.3310 77.2  41 
 PAM  SN ES       1924  4.67                             152    0.0110 77.2  41 
 PAM  SZ I        1924  7.23        30.1 0.82            155           77.2  41 
 RUS  HZ EP       1923 48.35                             144   -0.2910  102 175 
 RUS  HN ES       1924  7.01                             144   -0.5210  102 175 
 RUS  HZ I        1924  8.33        18.0 0.26            146            102 175 
 PTB  HZ EP       1923 51.09                             133   -0.52 9  147 258 
 PTB  HN ES       1924 12.34                             133   -0.49 9  147 258 
 PTB  HZ I        1924 17.03        28.2 0.32            132            147 258 
 SPBC HZ EP       1923 53.51                             130    0.28 9  163 218 
 SPBC HN ES       1924 15.69                             130   -0.02 9  163 218 
 SPBC HZ I        1924 20.81        31.5 0.18            130            163 218 
 ZAR  HZ EP       1923 57.42                             123    0.47 9  202 292 
 ZAR  HN ES       1924 22.42                             123    0.09 9  202 292 
 ZAR  HZ I        1924 28.06        22.1 0.26            123            202 292 
 SML  HZ EP   1   1924  0.77                             118   -0.31 6  242 335 
 SML  HN ES       1924 28.79                             118   -0.89 8  242 335 
 SML  HZ I        1924 36.43        22.5 0.24            119            242 335 
 CHI  HZ EP       1924  2.78                             118    0.36 8  250 195 
 CHI  HN ES       1924 32.39                             118    0.32 8  250 195 
 CHI  HZ I        1924 37.02        13.3 0.40            119            250 195 
                                                                                
