 2013  915 1046 50.4 L   6.743 -73.167151.6  RSN  5 0.3 1.5LRSN                1
 GAP=210        0.78       7.8     5.4  6.5  0.1088E+02  0.3827E+01 -0.9537E+01E
 Epicentro: VILLANUEVA - SANTANDER                                             3
 ACTION:UPD 13-10-22 09:22 OP:ep   STATUS:               ID:20130915104650 L   I
 OLDACT:UP  13-09-15 15:05 OP:cam  STATUS:               ID:20130915103959     3
 OLDACT:REG 13-09-15 14:31 OP:cam  STATUS:               ID:20130915103959     3
 2013-09-15-1039-59M.COL___269                                                 6
 STAT SP IPHASW D HRMM SECON CODA AMPLIT PERI AZIMU VELO AIN AR TRES W  DIS CAZ7
 BAR2 SZ EP       1047 10.85                             174    0.2210 16.8 186 
 BAR2 SZ ES       1047 26.05                             174   -0.3610 16.8 186 
 BAR2 SZ I        1047 27.97         4.1 0.20            175           16.8 186 
 BRR  HZ EP     C 1047 12.55                             153    0.2910 72.5 304 
 BRR  HZ I        1047 29.51         8.3 0.40            149           72.5 304 
 BRR  HN ES       1047 29.54                             153    0.2310 72.5 304 
 PTB  HZ EP       1047 17.71                             134    0.15 9  144 261 
 PTB  HE ES       1047 38.35                             134   -0.39 9  144 261 
 PTB  HZ I        1047 43.96         3.5 0.44            130            144 261 
 ZAR  HE ES       1047 49.03                             123    0.12 9  204 294 
 SML  HZ EP   1   1047 27.17                             118   -0.71 6  248 336 
                                                                                
