 2010  215 1719 56.3 L   6.654 -72.740135.5  RSN  4 0.5 1.9LRSN                1
 GAP=304        0.64      11.4    16.3 10.8 -0.9017E+02 -0.2855E+02  0.7334E+02E
 Epicentro: SAN JOSE DE MIRANDA - SANTANDER                                    3
 ACTION:UP  10-08-24 09:49 OP:vdl  STATUS:               ID:20100215171956 L   I
 2010-02-15-1720-00S.COL___094                                                 6
 STAT SP IPHASW D HRMM SECON CODA AMPLIT PERI AZIMU VELO SNR AR TRES W  DIS CAZ7
 BAR2 SZ EP   1   1720 15.53                             159    -0.1 7   50 262 
 BAR2 SZ ES   2   1720 30.68                             159     0.0 5   50 262 
 CHI  HZ EP   1   1720 33.47                             115    -0.1 6  249 206 
 CHI  HN ES   2   1721  3.07                             115     0.4 4  249 206 
 CHI  HZ I        1721 10.56         3.3 0.34                           249 206 
 RREF BZ EP   1   1720 45.96                             107     0.9 5  348 236 
 RREF BE ES   2   1721 22.41                             107    -0.7 3  348 236 
 PRA  HZ EP   1   1720 50.27                             104    -0.5 4  403 216 
 PRA  HN ES   2   1721 33.03                             104    -0.3 3  403 216 
 PRA  HZ I        1721 36.72         3.8 0.56                           403 216 
                                                                                
