 2010  715 1117 56.9 L   6.783 -73.071146.0  RSN  9 0.6 2.2LRSN                1
 GAP=164        1.45       4.9    10.0  9.4 -0.1703E+02  0.7329E+01  0.2876E+01E
 Epicentro: LOS SANTOS - SANTANDER                                             3
 ACTION:UPD 10-12-01 15:17 OP:pat  STATUS:               ID:20100715111756 L   I
 2010-07-15-1113-28S.COL___120                                                 6
 STAT SP IPHASW D HRMM SECON CODA AMPLIT PERI AZIMU VELO AIN AR TRES W  DIS CAZ7
 BAR2 SZ EP       1118 16.23                             170    -0.410   25 211 
 BAR2 SZ ES   1   1118 31.80                             170    -0.2 7   25 211 
 BAR2 SZ I        1118 34.22        44.7 0.11                            25 211 
 BRR  HZ EP       1118 18.18                             150    -0.410   79 297 
 BRR  HN ES       1118 35.71                             150     0.210   79 297 
 BRR  HZ I        1118 37.17        32.9 0.45                            79 297 
 RUS  HZ EP       1118 20.04                             145    -0.510   98 181 
 RUS  HN ES       1118 39.05                             145     0.110   98 181 
 RUS  HZ I        1118 40.14        10.8 0.04                            98 181 
 BRI  SZ EP       1118 21.75                             142     1.010  108  16 
 BRI  SZ ES   1   1118 40.26                             142     0.9 7  108  16 
 BRI  SZ I        1118 42.57        16.7 0.03                           108  16 
 GRA  SZ EP       1118 22.02                             137    -0.110  125  14 
 GRA  SZ ES   1   1118 41.68                             137    -0.2 7  125  14 
 GRA  SZ I        1118 42.97        19.5 0.46                           125  14 
 OCA  SZ EP       1118 24.74                             129    -0.8 9  163 350 
 OCA  SZ ES       1118 47.76                             129    -0.1 9  163 350 
 HEL  HZ EP   2   1118 38.26                             114     0.3 4  280 257 
 HEL  HZ I        1119 14.43         7.4 0.60                           280 257 
 RREF HZ EP   1   1118 44.78                             111     1.1 5  327 231 
 RREF HN ES   1   1119 19.78                             111    -0.3 5  327 231 
 RREF HZ I        1119 24.92        11.3 0.36                           327 231 
 PRA  HZ EP   1   1118 50.63                             106    -0.1 4  395 211 
 PRA  HN ES       1119 33.77                             106     1.0 6  395 211 
 PRA  HZ I        1119 37.80         9.6 0.47                           395 211 
                                                                                
