 2011 1215 1111 48.0 L   6.796 -73.055141.5  RSN 13 0.3 2.3LRSN                1
 GAP=149        0.49       2.4     4.4  4.1 -0.2147E+01  0.4488E+01 -0.1602E-01E
 Epicentro: LOS SANTOS - SANTANDER                                             3
 ACTION:UPD 12-07-13 16:16 OP:ep   STATUS:               ID:20111215111148 L   I
 2011-12-15-1110-00M.COL___185                                                 6
 STAT SP IPHASW D HRMM SECON CODA AMPLIT PERI AZIMU VELO AIN AR TRES W  DIS CAZ7
 BAR2 SZ IP       1112  7.26                             169    0.0610 26.5 212 
 BAR2 SZ ES   2   1112 21.76                             169   -0.40 5 26.5 212 
 BAR2 SZ I        1112 23.22        32.5 0.33                          26.5 212 
 GIR2 SZ EP   1   1112  7.34                             165    0.06 7 34.8 334 
 GIR2 SZ ES   2   1112 22.55                             165    0.25 5 34.8 334 
 PAM  SZ EP   1   1112  9.92                             151    0.48 7 71.8  33 
 PAM  SN ES   2   1112 26.53                             151    0.37 5 71.8  33 
 BRR  HZ IP       1112  8.99                             149   -0.2610 80.3 295 
 BRR  HE ES   2   1112 25.87                             149    0.05 5 80.3 295 
 BRR  HZ I        1112 27.98        41.2 0.15                          80.3 295 
 RUS  HZ EP       1112 11.29                             143    0.0010 99.9 182 
 RUS  HN ES   1   1112 29.15                             143   -0.30 7 99.9 182 
 RUS  HZ I        1112 32.37        22.5 0.30                          99.9 182 
 OCA  SZ EP   1   1112 16.30                             128    0.12 7  162 350 
 OCA  SZ I        1112 42.62        22.2 0.35                           162 350 
 NOR  SN ES   2   1112 52.69                             117   -0.02 4  243 236 
 CHI  HZ EP   1   1112 25.67                             116   -0.06 6  251 197 
 CHI  HN ES   2   1112 54.77                             116   -0.38 4  251 197 
 CHI  HZ I        1112 58.24         8.1 0.36                           251 197 
 HEL  HZ EP   2   1112 29.52                             113    0.44 4  282 256 
 HEL  HZ I        1113  7.30        10.4 0.35                           282 256 
 GUY  SZ EP   2   1112 33.24                             111    0.64 3  312 236 
 GUY  SZ I        1113 16.03        13.9 0.38                           312 236 
 RREF HZ EP   2   1112 35.08                             109    0.26 3  329 231 
 RREF HE ES   2   1113 11.76                             109    0.44 3  329 231 
 RREF HZ I        1113 17.42         7.6 0.24                           329 231 
 COD  HZ EP   2   1112 35.80                             108   -0.60 3  350 353 
 COD  HZ I        1112 53.44        17.5 0.68                           350 353 
 COD  HE ES   2   1113 13.47                             108   -0.68 3  350 353 
 SJA  SZ EP   2   1112 42.00                             105   -0.65 3  402 194 
 SJA  SZ I        1113 29.41        10.1 0.41                           402 194 
                                                                                
