 2011  515 1810 39.3 L   6.775 -73.141142.4  RSN  9 0.2 1.9LRSN                1
 GAP=138        0.37       2.1     2.7  3.2 -0.2837E+01  0.2390E+01 -0.2527E+00E
 Epicentro: LOS SANTOS - SANTANDER                                             3
 ACTION:UP  11-06-29 08:53 OP:tino STATUS:               ID:20110515181039 L   I
 2011-05-15-1807-44S.COL___139                                                 6
 STAT SP IPHASW D HRMM SECON CODA AMPLIT PERI AZIMU VELO SNR AR TRES W  DIS CAZ7
 BAR2 SZ EP   1   1810 58.46                             171     0.0 8   21 193 
 BAR2 SZ ES   1   1811 13.31                             171    -0.1 8   21 193 
 BAR2 SZ I        1811 14.34        22.6 0.40                            21 193 
 BRR  HZ EP   1   1811  0.38                             151     0.2 8   73 300 
 BRR  HZ I        1811  0.71        41.1 0.10                            73 300 
 BRR  HE ES   2   1811 16.88                             151     0.4 5   73 300 
 PAM  SZ EP   1   1811  1.36                             150     0.1 8   79  38 
 PAM  SN ES   2   1811 18.46                             150     0.1 5   79  38 
 RUS  HZ EP   1   1811  2.58                             144     0.1 8   98 176 
 RUS  HN ES   2   1811 20.58                             144    -0.1 5   98 176 
 RUS  HZ I        1811 21.79         6.9 0.24                            98 176 
 BRI  SZ EP   1   1811  2.96                             140    -0.1 8  111  20 
 BRI  SZ ES   1   1811 21.72                             140     0.1 8  111  20 
 BRI  SZ I        1811 23.31        11.3 0.46                           111  20 
 GRA  SZ IP       1811  4.39                             136    -0.110  128  17 
 GRA  SZ ES   1   1811 23.94                             136    -0.1 7  128  17 
 GRA  SZ I        1811 25.02         9.0 0.35                           128  17 
 OCA  SZ ES   2   1811 29.42                             128    -0.3 5  163 353 
 OCA  SZ I        1811 34.95        10.4 0.25                           163 353 
 NOR  SZ EP   2   1811 14.61                             118    -0.1 4  234 235 
 NOR  SN ES   2   1811 42.22                             118    -0.1 4  234 235 
 HEL  HZ EP   1   1811 19.62                             114     0.3 6  272 256 
 HEL  HN ES   1   1811 50.30                             114    -0.3 6  272 256 
 HEL  HZ I        1811 57.54         5.4 0.42                           272 256 
                                                                                
