 2012  815 1319 44.0 L   6.754 -73.135146.0  RSN 10 0.4 2.3LRSN                1
 GAP= 73        0.97       5.0     4.4  6.5  0.2298E+01 -0.1582E+01 -0.4308E+00E
 Epicentro: LOS SANTOS - SANTANDER                                             3
 ACTION:UPD 12-09-10 11:56 OP:ep   STATUS:               ID:20120815131944 L   I
 2012-08-15-1320-00M.COL___217                                                 6
 STAT SP IPHASW D HRMM SECON CODA AMPLIT PERI AZIMU VELO AIN AR TRES W  DIS CAZ7
 BAR2 SZ EP       1320  3.55                             172    0.0010 18.7 196 
 BAR2 SZ ES   1   1320 19.01                             172    0.19 7 18.7 196 
 BAR2 SZ I        1320 19.75        41.8 0.24                          18.7 196 
 GIR2 SZ EP       1320  3.83                             165    0.0010 36.5 350 
 BRR  HZ EP       1320  5.56                             152    0.2010 74.8 301 
 BRR  HN ES       1320 22.84                             152    0.8110 74.8 301 
 BRR  HZ I        1320 24.81        35.9 0.18                          74.8 301 
 PAM  SZ EP       1320  6.50                             150    0.0910 80.6  37 
 PAM  SZ I        1320  6.96        38.5 0.17                          80.6  37 
 PAM  SN ES   1   1320 22.94                             150   -0.97 7 80.6  37 
 RUS  HZ EP       1320  7.46                             146    0.0710 95.4 177 
 RUS  HN ES   1   1320 25.50                             146   -0.15 7 95.4 177 
 RUS  HZ I        1320 27.31        16.2 0.40                          95.4 177 
 PTB  HZ EP       1320 10.32                             132   -0.67 9  148 261 
 PTB  HE ES   1   1320 31.47                             132   -0.59 7  148 261 
 TAM  HZ EP       1320 11.78                             131    0.33 9  153 103 
 OCA  HZ EP       1320 12.63                             129   -0.17 9  165 353 
 OCA  HZ I        1320 40.05        34.4 0.35                           165 353 
 ZAR  HZ EP   1   1320 16.55                             122   -0.21 6  207 293 
 ZAR  HE ES   1   1320 42.52                             122    0.20 6  207 293 
 ZAR  HZ I        1320 49.09        12.9 0.29                           207 293 
 PRA  HZ EP   1   1320 37.47                             107    0.41 4  388 210 
 PRA  HZ I        1321 22.67         4.9 0.30                           388 210 
                                                                                
