 2012  215 1202 57.6 L   7.371 -73.183131.8  RSN  6 0.1 2.1LRSN                1
 GAP=262        0.30       2.7     2.2  2.6  0.3035E+01  0.2106E+00 -0.1102E+01E
 ACTION:UP  12-03-07 16:30 OP:epov STATUS:               ID:20120215120257 L   I
 2012-02-15-1200-00M.COL___188                                                 6
 STAT SP IPHASW D HRMM SECON CODA AMPLIT PERI AZIMU VELO AIN AR TRES W  DIS CAZ7
 GIR2 SZ EP   1   12 3 15.54                             165   -0.06 7 32.3 182 
 GIR2 SZ ES   1   12 3 29.73                             165    0.05 7 32.3 182 
 BRR  HZ EP       12 3 16.73                             152   -0.1310 65.3 244 
 BRR  HZ I        12 3 16.99        32.3 0.14                          65.3 244 
 BRR  HE ES   1   12 3 32.07                             152    0.15 7 65.3 244 
 BAR2 SZ EP       12 3 18.65                             145    0.1210 86.1 180 
 BAR2 SZ ES   1   12 3 34.73                             145   -0.16 7 86.1 180 
 BAR2 SZ I        12 3 37.04        17.7 0.36                          86.1 180 
 RUS  HZ EP   1   12 3 25.65                             126    0.03 7  164 176 
 RUS  HN ES   1   12 3 47.49                             126   -0.01 7  164 176 
 PTB  HZ EP   1   12 3 25.43                             125    0.02 7  168 237 
 PTB  HN ES   1   12 3 47.16                             125    0.02 7  168 237 
 ZAR  HZ EP   1   12 3 27.25                             122    0.08 7  185 274 
 ZAR  HN ES   1   12 3 50.18                             122   -0.09 7  185 274 
 ZAR  HZ I        12 3 53.35        13.5 0.36                           185 274 
                                                                                
