 2013  415 1339 41.3 L   6.542 -73.569111.5  RSN 16 0.5 2.8LRSN 3.1WRSN        1
 SPEC AVERAGE  MO 13.7 ST  8.6 OM  2.3 f0 4.13 R0.3816 AL 2.16 WI 25.4 MW  3.1 3
 SPEC SD       MO  0.3 ST  8.0 OM  0.4 f0 1.11 R0.0982 AL      WI      MW  0.2 3
 GAP= 62        1.17       3.0     3.1  5.2 -0.1526E+01  0.4176E+01 -0.3493E+00E
 Epicentro: EL CARMEN DE CHUCURI - SANTANDER                                   3
 SPEC PRA HH E MO 13.6 ST  1.2 OM  1.6 f0 2.89 R0.5087 AL 1.81 WI 32.9 MW  3.0 3
 SPEC PRA HH E T1341 5 K 0.000 GD  362 VS 4.20 DE 3.20 Q0300.0 QA 0.60 VS 4.20 3
 SPEC PTB HH E MO 13.7 ST  4.8 OM  2.1 f0 4.21 R0.3492 AL 1.18 WI 24.8 MW  3.1 3
 SPEC PTB HH E T134015 K 0.000 GD  148 VS 4.20 DE 3.20 Q0300.0 QA 0.60 VS 4.20 3
 SPEC RUS HH E MO 13.3 ST0.633 OM  1.7 f0 2.95 R0.4983 AL 2.07 WI 15.4 MW  2.8 3
 SPEC RUS HH E T134015 K 0.000 GD  143 VS 4.20 DE 3.20 Q0300.0 QA 0.60 VS 4.20 3
 SPEC HEL HH N MO 13.5 ST  1.2 OM  1.7 f0 3.02 R0.4868 AL 1.54 WI 27.9 MW  2.9 3
 SPEC HEL HH N T134039 K 0.000 GD  246 VS 4.20 DE 3.20 Q0300.0 QA 0.60 VS 4.20 3
 SPEC OCA HH N MO 14.2 ST 21.0 OM  2.5 f0 4.44 R0.3311 AL 2.23 WI 29.3 MW  3.4 3
 SPEC OCA HH N T134032 K 0.000 GD  220 VS 4.20 DE 3.20 Q0300.0 QA 0.60 VS 4.20 3
 SPEC NOR HH E MO 13.8 ST 17.0 OM  2.1 f0 5.70 R0.2579 AL 2.65 WI 33.0 MW  3.2 3
 SPEC NOR HH E T134031 K 0.000 GD  211 VS 4.20 DE 3.20 Q0300.0 QA 0.60 VS 4.20 3
 SPEC BRR HH N MO 13.8 ST 18.0 OM  2.3 f0 5.88 R0.2500 AL 4.12 WI 28.9 MW  3.1 3
 SPEC BRR HH N T134012 K 0.000 GD  128 VS 4.20 DE 3.20 Q0300.0 QA 0.60 VS 4.20 3
 SPEC BAR2SH Z MO 13.8 ST  5.1 OM  2.3 f0 3.96 R0.3712 AL 1.65 WI 11.3 MW  3.1 3
 SPEC BAR2SH Z T134010 K 0.000 GD  119 VS 4.20 DE 3.20 Q0300.0 QA 0.60 VS 4.20 3
 ACTION:UPD 13-05-22 14:38 OP:EP   STATUS:               ID:20130415133941 L   I
 2013-04-15-1338-49M.COL___208                                                 6
 STAT SP IPHASW D HRMM SECON CODA AMPLIT PERI AZIMU VELO AIN AR TRES W  DIS CAZ7
 BAR2 SZ IP     C 1339 57.79                             157    0.2210 43.1  83 
 BAR2 SZ ES       1340 10.42                             157    0.1810 43.1  83 
 BAR2 SZ I        1340 11.25       410.3 0.18            161           43.1  83 
 BRR  HZ EP       1339 58.73                             148    0.3010 64.4 346 
 BRR  HN ES       1340 12.46                             148    0.6910 64.4 346 
 BRR  HN I        1340 22.07       178.1 0.18            148           64.4 346 
 GIR2 SZ IP     D 1339 59.33                             145    0.1610 72.4  35 
 GIR2 SZ I        1339 59.44        78.9 0.12            147           72.4  35 
 GIR2 SZ ES       1340 13.34                             145    0.2510 72.4  35 
 RUS  HZ IP     D 1340  0.69                             139   -0.2810 89.7 143 
 RUS  HE ES       1340 16.11                             139   -0.1910 89.7 143 
 RUS  HE I        1340 19.14        81.7 0.38            143           89.7 143 
 PTB  HZ IP     C 1340  0.54                             136   -0.4810 98.2 270 
 PTB  HN ES       1340 15.35                             136   -1.0410 98.2 270 
 PTB  HE I        1340 17.37       214.3 0.10            137           98.2 270 
 NOR  HZ EP       1340  9.30                             117    0.09 9  180 233 
 NOR  HE ES       1340 30.73                             117   -0.23 9  180 233 
 NOR  HE I        1340 34.23       143.2 0.18            120            180 233 
 OCA  HZ EP       1340 10.37                             116   -0.01 9  190   8 
 OCA  HN ES       1340 33.06                             116    0.02 9  190   8 
 OCA  HN I        1340 37.65       208.8 0.16            118            190   8 
 TAM  HZ EP       1340 10.51                             115   -0.53 9  197  93 
 TAM  HZ I        1340 10.85        45.7 0.48            118            197  93 
 TAM  HN ES   4   1340 32.66                             115   -1.56 0  197  93 
 CAPV BZ EP       1340 11.98                             114    0.20 9  201  43 
 HEL  HZ EP       1340 15.08                             112    1.00 8  220 260 
 HEL  HN ES       1340 39.82                             112    0.19 8  220 260 
 HEL  HN I        1340 42.61        30.0 0.32            114            220 260 
 URE  HZ EP       1340 17.34                             108   -0.25 8  255 302 
 URE  HE ES       1340 45.15                             108   -0.73 8  255 302 
 SML  HZ EP       1340 17.82                             108    0.14 8  256 348 
 SML  HN ES       1340 45.84                             108   -0.21 8  256 348 
 SML  HN I        1340 48.79        79.2 0.28            110            256 348 
 DBB  SZ EP       1340 23.38                             105    0.82 7  297 280 
 PRA  HZ EP       1340 28.59                             102    0.32 7  345 205 
 PRA  HE ES       1341  5.52                             102    0.63 7  345 205 
 PRA  HE I        1341 11.91        23.3 0.32            104            345 205 
 SOCV BZ EP       1340 28.33                             101   -1.21 6  356  57 
 COD  HZ EP   4   1340 33.42                             100    1.59 0  375   2 
 COD  HN ES   4   1341 12.67                             100    1.44 0  375   2 
 COD  HN I        1341 18.25        13.2 0.50            103            375   2 
                                                                                
