 2010  615 1617 30.0 L   6.802 -73.005149.5  RSN  8 0.3 2.0LRSN                1
 GAP=172        0.69       3.7    11.3  7.4 -0.2146E+02  0.2503E+02 -0.1483E+01E
 Epicentro: CEPITA - SANTANDER                                                 3
 ACTION:UP  10-08-24 10:10 OP:vdl  STATUS:               ID:20100615161730 L   I
 2010-06-15-1613-26S.COL___114                                                 6
 STAT SP IPHASW D HRMM SECON CODA AMPLIT PERI AZIMU VELO SNR AR TRES W  DIS CAZ7
 BAR2 SZ IP     D 1617 50.09                             168    -0.110   31 220 
 BAR2 SZ ES   2   1618  5.97                             168     0.0 5   31 220 
 RUS  HZ EP   1   1617 54.29                             144     0.2 7  101 185 
 RUS  HE ES   2   1618 12.85                             144    -0.1 5  101 185 
 RUS  HZ I        1618 13.71         7.8 0.41                           101 185 
 BRI  SZ EP   1   1617 53.36                             143    -0.5 7  104  13 
 BRI  SZ ES   2   1618 12.48                             143     0.0 5  104  13 
 GUE  SZ EP   1   1617 54.97                             141     0.1 7  114   4 
 GUE  SZ ES   2   1618 14.45                             141     0.2 5  114   4 
 GRA  SZ IP     D 1617 55.65                             139     0.410  122  10 
 GRA  SZ ES   2   1618 15.13                             139     0.2 5  122  10 
 OCA  SZ EP   1   1617 58.43                             130    -0.3 7  163 348 
 OCA  SZ ES   2   1618 20.58                             130    -0.7 5  163 348 
 OCA  SZ I        1618 24.78        23.4 0.54                           163 348 
 CHI  HZ EP   1   1618  7.84                             117    -0.5 6  253 199 
 CHI  HN ES   2   1618 38.58                             117     0.2 4  253 199 
 CHI  HZ I        1618 46.33         4.1 0.35                           253 199 
 HEL  HZ EP   1   1618 12.56                             114     0.5 5  287 257 
 HEL  HZ I        1618 49.59        11.4 0.35                           287 257 
                                                                                
