 2011 1215 1352 47.4 L   6.805 -73.227143.0  RSN  4 0.2 1.5LRSN                1
 GAP=196        0.47       5.3    13.1  5.8 -0.3318E+02  0.2368E+01 -0.3673E+01E
 Epicentro: ZAPATOCA - SANTANDER                                               3
 ACTION:UPD 12-07-13 16:16 OP:ep   STATUS:               ID:20111215135247 L   I
 2011-12-15-1350-00M.COL___185                                                 6
 STAT SP IPHASW D HRMM SECON CODA AMPLIT PERI AZIMU VELO AIN AR TRES W  DIS CAZ7
 BAR2 SZ EP   1   1353  7.09                             170    0.35 7 24.0 168 
 BAR2 SZ ES   1   1353 21.63                             170   -0.17 7 24.0 168 
 BAR2 SZ I        1353 22.87        13.4 0.27                          24.0 168 
 GIR2 SZ EP   1   1353  6.44                             167   -0.31 7 30.5   7 
 GIR2 SZ ES   2   1353 22.04                             167    0.23 5 30.5   7 
 PAM  SZ EP   1   1353  9.84                             148    0.15 7 83.0  45 
 PAM  SN ES   2   1353 26.90                             148   -0.16 5 83.0  45 
 RUS  HZ EP   2   1353 10.79                             142   -0.23 5  102 171 
 RUS  HN ES   2   1353 29.52                             142    0.10 5  102 171 
 RUS  HZ I        1353 30.44         3.5 0.44                           102 171 
                                                                                
