 2015  715 1324 14.0 L   6.820 -73.118146.4  RSN  6 0.4 1.7LRSN                1
 GAP=203        0.69       3.6     4.9  6.8  0.3146E+01  0.1274E+02 -0.4669E+01E
 Epicentro: LOS SANTOS - SANTANDER                                             3
 ACTION:UPD 15-09-08 21:49 OP:cam  STATUS:               ID:20150715132414 L   I
 OLDACT:DUP 15-07-16 01:12 OP:spq  STATUS:               ID:20150715131751d    3
 OLDACT:REG 15-07-15 20:19 OP:spq  STATUS:               ID:20150715131750     3
 2015-07-15-1317-50M.COL___334                                                 6
 STAT SP IPHASW D HRMM SECON CODA AMPLIT PERI AZIMU VELO AIN AR TRES W  DIS CAZ7
 BAR2 EZ EP       1324 33.66                             169   -0.1110 26.2 196 
 BAR2 EZ ES   1   1324 49.56                             169    0.37 7 26.2 196 
 BAR2 EZ I        1324 50.56         8.8 0.20            165           26.2 196 
 RUS  HZ EP   1   1324 38.07                             143    0.11 7  103 178 
 RUS  HE ES   1   1324 56.34                             143   -0.31 7  103 178 
 RUS  HZ I        1324 57.80         4.2 0.18            145            103 178 
 ZAR  HZ EP       1324 46.29                             122   -0.40 8  206 291 
 ZAR  HE ES       1325 11.91                             122   -0.29 8  206 291 
 ZAR  HZ I        1325 19.78         4.6 0.54            122            206 291 
 NOR  HZ EP       1324 50.15                             118   -0.02 8  239 234 
 NOR  HE ES   1   1325 18.41                             118    0.02 6  239 234 
 NOR  HZ I        1325 25.27         4.3 0.14            119            239 234 
 SML  HZ EP   1   1324 51.23                             118    0.65 6  243 334 
 SML  HN ES   1   1325 19.28                             118    0.16 6  243 334 
 SML  HZ I        1325 21.49         7.9 0.10            119            243 334 
 GUY2CHE ES   1   1325 33.25                             112    0.81 5  305 235 
 GUY2CHZ I        1325 38.52         2.1 0.56                           305 235 
                                                                                
