 2017 1115 1233 37.9 L   6.408 -73.114150.0  RSN  4 0.5 1.1LRSN                1
 GAP=164        2.28      24.5    17.7 16.4  0.3068E+03  0.7180E+01 -0.5563E+00E
 Epicentro: VALLE DE SAN JOSE - SANTANDER                                      3
 ACTION:UPD 17-12-12 19:55 OP:rebc STATUS:               ID:20171115123337 L   I
 OLDACT:UP  17-11-15 22:47 OP:lv   STATUS:               ID:20171115122746d    3
 OLDACT:DUP 17-11-15 22:39 OP:lv   STATUS:               ID:20171115122746d    3
 2017-11-15-1228-00M.COL___435                                                 6
 STAT SP IPHASW D HRMM SECON CODA AMPLIT PERI AZIMU VELO AIN AR TRES W  DIS CAZ7
 BAR2 EZ EP       1233 58.90                             172    0.8810 21.7 340 
 BAR2 EZ ES       1234 13.74                             172    0.0410 21.7 340 
 BAR2 EZ I        1234 16.11         7.9 0.48            175           21.7 340 
 RUS  HZ EP   9   1234  3.19                             159    3.66 0 57.1 177 
 RUS  HN ES       1234 22.10                                    2.0510 57.1 177 
 RUS  HZ I        1234 23.43         1.1 0.44            156           57.1 177 
 YPLC HZ EP       1234  3.86                             137   -0.61 9  138 144 
 YPLC HN ES       1234 24.99                             137   -0.20 9  138 144 
 PTB  HZ EP       1234  5.56                             135    0.21 9  149 276 
 PTB  HN ES       1234 26.31                             135   -0.45 9  149 276 
 PTB  HZ I        1234 28.33         0.9 0.18            136            149 276 
                                                                                
