 2010 1115 1731 43.0 L   6.135 -73.620114.6  RSN  4 0.3 1.6LRSN                1
 GAP=120        0.66       7.6     9.5 16.8 -0.4980E+02  0.1220E+03 -0.6777E+02E
 Epicentro: LA PAZ - SANTANDER                                                 3
 ACTION:UP  10-12-17 16:52 OP:REBC STATUS:               ID:20101115173143 L   I
 2010-11-15-1728-03S.COL___129                                                 6
 STAT SP IPHASW D HRMM SECON CODA AMPLIT PERI AZIMU VELO SNR AR TRES W  DIS CAZ7
 RUS  HN ES   2   1732 14.92                             148    -0.5 5   65 114 
 RUS  HZ I        1732 16.74         4.9 0.23                            65 114 
 BAR2 SZ EP       1732  1.44                             146     0.310   70  44 
 BAR2 SZ ES   2   1732 15.60                             146     0.3 5   70  44 
 BAR2 SZ I        1732 17.26        23.2 0.08                            70  44 
 BRR  HZ EP       1732  3.57                             133    -0.310  108 355 
 BRR  HN ES   3   1732 20.18                             133     0.1 2  108 355 
 RREF HN ES   1   1732 45.14                             111     0.0 6  235 235 
 RREF HZ I        1732 49.59         2.6 1.27                           235 235 
                                                                                
