 2012  615 1248  7.3 L   6.816 -73.150145.6  RSN 13 0.5 2.7LRSN                1
 GAP=135        0.91       3.3     4.7  6.3 -0.3797E+01  0.1268E+02  0.1251E+01E
 Epicentro: LOS SANTOS - SANTANDER                                             3
 ACTION:UPD 12-08-06 17:49 OP:ep   STATUS:               ID:20120615124807 L   I
 2012-06-15-1246-48M.COL___172                                                 6
 STAT SP IPHASW D HRMM SECON CODA AMPLIT PERI AZIMU VELO AIN AR TRES W  DIS CAZ7
 BAR2 SZ EP       1248 26.94                             170    0.0410 25.0 188 
 BAR2 SZ ES   1   1248 42.11                             170   -0.11 7 25.0 188 
 BAR2 SZ I        1248 45.08       122.5 0.17                          25.0 188 
 PAM  SZ IP       1248 29.70                             151    0.3110 76.3  41 
 PAM  SN ES       1248 47.04                             151    0.3810 76.3  41 
 RUS  HZ EP   1   1248 30.69                             143   -0.43 7  102 176 
 RUS  HN ES   1   1248 49.11                             143   -0.63 7  102 176 
 RUS  HZ I        1248 50.88        57.5 0.30                           102 176 
 PTB  HZ EP   1   1248 33.50                             132   -0.70 7  148 258 
 PTB  HN ES   1   1248 54.99                             132   -0.22 7  148 258 
 PTB  HZ I        1248 56.61        47.6 0.34                           148 258 
 OCA  HZ EP   1   1248 35.50                             130    0.12 7  158 353 
 OCA  HN ES   1   1248 57.15                             130   -0.17 7  158 353 
 OCA  HZ I        1249  3.35       156.1 0.29                           158 353 
 ZAR  HZ EP   1   1248 39.18                             122   -0.40 6  203 292 
 ZAR  HN ES   1   1249  5.22                             122    0.44 6  203 292 
 ZAR  HZ I        1249 10.29        65.1 0.51                           203 292 
 NOR  SZ EP   1   1248 42.91                             118   -0.14 6  235 234 
 NOR  SN ES   1   1249 10.26                             118   -0.70 6  235 234 
 CHI  HZ EP   1   1248 44.74                             117   -0.38 6  250 195 
 CHI  HN ES   1   1249 15.67                             117    1.02 6  250 195 
 CHI  HZ I        1249 20.03        22.3 0.24                           250 195 
 HEL  HZ EP   1   1248 48.21                             115    0.75 6  272 255 
 HEL  HZ I        1249 24.25        22.5 0.26                           272 255 
 DBB  SZ EP   1   1248 55.15                             109    0.49 5  339 274 
 TOL  SZ EP   1   1248 56.28                             109    0.67 5  344 224 
 COD  HZ EP   1   1248 54.66                             109   -0.76 5  346 355 
 COD  HZ I        1249 37.84        16.8 0.23                           346 355 
 PRA  HZ EP   1   1249  0.20                             106   -0.73 4  393 209 
 PRA  HE ES       1249 43.55                             106    0.77 6  393 209 
                                                                                
