 2017  215 1425 21.9 L   6.693 -73.184138.0  RSN  5 0.5 1.4LRSN                1
 GAP=225        1.32       9.5     9.0  9.6  0.5286E+02  0.1698E+02 -0.4019E+01E
 Epicentro: VILLANUEVA - SANTANDER                                             3
 ACTION:UPD 17-05-24 15:36 OP:jn   STATUS:               ID:20170215142521 L   I
 OLDACT:DUP 17-02-15 23:01 OP:cog  STATUS:               ID:20170215141746d    3
 2017-02-15-1418-00M.COL___367                                                 6
 STAT SP IPHASW D HRMM SECON CODA AMPLIT PERI AZIMU VELO AIN AR TRES W  DIS CAZ7
 BAR2 EZ EP       1425 39.99                             175   -0.4210 11.1 179 
 BAR2 EZ ES       1425 54.54                             175   -0.3010 11.1 179 
 BAR2 EZ I        1425 56.03         5.0 0.14            171           11.1 179 
 BRR  HZ EP       1425 41.81                             150   -0.5910 74.2 308 
 BRR  HE ES       1425 58.91                             150    0.5310 74.2 308 
 BRR  HZ I        1426  1.55        11.6 0.44            152           74.2 308 
 RUS  HZ EP       1425 44.50                             146    0.4210 89.2 173 
 RUS  HN ES       1426  1.78                             146    0.4110 89.2 173 
 RUS  HZ I        1426  5.99         1.6 0.40            145           89.2 173 
 PTB  HZ EP       1425 46.96                             131   -0.73 9  142 263 
 PTB  HN ES       1426  7.53                             131   -0.27 9  142 263 
 PTB  HZ I        1426 11.42         3.8 0.18            132            142 263 
 ZAR  HZ EP       1425 54.91                             121    0.96 9  205 296 
 ZAR  HE ES       1426 19.16                             121    0.21 9  205 296 
                                                                                
