 2010  815 1910  0.9 L   6.813 -73.125141.5  RSN  5 0.3 1.6LRSN                1
 GAP=161        0.56       5.7     9.4  9.0  0.2348E+02 -0.4883E+02 -0.2441E+02E
 Epicentro: LOS SANTOS - SANTANDER                                             3
 ACTION:UP  10-09-07 10:55 OP:vdl  STATUS:               ID:20100815191000 L   I
 2010-08-15-1906-19S.COL___111                                                 6
 STAT SP IPHASW D HRMM SECON CODA AMPLIT PERI AZIMU VELO SNR AR TRES W  DIS CAZ7
 BAR2 SZ EP       1910 20.14                             169     0.110   25 195 
 BAR2 SZ ES   2   1910 34.77                             169    -0.2 5   25 195 
 BAR2 SZ I        1910 36.96         8.3 0.47                            25 195 
 BRR  HZ EP       1910 21.73                             151     0.110   73 297 
 BRR  HZ I        1910 21.93        16.6 0.09                            73 297 
 BRR  HE ES   1   1910 37.83                             151     0.0 7   73 297 
 RUS  HZ EP   2   1910 23.79                             142    -0.5 5  102 177 
 RUS  HN ES   2   1910 42.87                             142     0.3 5  102 177 
 RUS  HZ I        1910 44.32         3.3 0.74                           102 177 
 GUE  SZ EP   1   1910 24.81                             139    -0.2 7  115  11 
 GRA  SZ EP   2   1910 26.04                             137     0.5 5  124  17 
 GRA  SZ I        1910 46.92         5.4 0.20                           124  17 
                                                                                
