 2012  915 1305 46.0 L   6.758 -73.188143.4  RSN  7 0.4 1.9LRSN                1
 GAP=174        0.77       5.0     5.5  6.3  0.1058E+02  0.8792E+01  0.2292E+01E
 Epicentro: VILLANUEVA - SANTANDER                                             3
 ACTION:UPD 12-10-22 14:19 OP:ep   STATUS:               ID:20120915130546 L   I
 2012-09-15-1300-00M.COL___227                                                 6
 STAT SP IPHASW D HRMM SECON CODA AMPLIT PERI AZIMU VELO AIN AR TRES W  DIS CAZ7
 BAR2 SZ EP       13 6  5.43                             173    0.1410 18.3 178 
 BAR2 SZ ES   1   13 6 19.99                             173   -0.32 7 18.3 178 
 BAR2 SZ I        13 6 21.52        31.8 0.36                          18.3 178 
 GIR2 SZ EP   1   13 6  5.15                             165   -0.40 7 35.5 359 
 BRR  HZ EP       13 6  7.15                             153    0.3110 69.6 304 
 BRR  HZ I        13 6  7.64        26.0 0.12                          69.6 304 
 BRR  HN ES   1   13 6 23.68                             153    0.61 7 69.6 304 
 RUS  HZ EP   1   13 6  9.26                             145    0.00 7 96.4 173 
 RUS  HE ES   1   13 6 27.48                             145    0.12 7 96.4 173 
 RUS  HZ I        13 6 29.50        12.6 0.32                          96.4 173 
 PTB  HZ EP   1   13 6 11.58                             133   -0.74 7  142 260 
 PTB  HN ES   1   13 6 32.30                             133   -0.52 7  142 260 
 PTB  HZ I        13 6 35.75         4.7 0.23                           142 260 
 ZAR  HZ EP       13 6 17.96                             122   -0.11 9  202 294 
 ZAR  HN ES   1   13 6 43.26                             122    0.20 6  202 294 
 ZAR  HZ I        13 6 49.82         9.7 0.24                           202 294 
 PRA  HZ EP   1   13 6 39.29                             106    0.55 4  386 209 
 PRA  HN ES   1   13 7 20.18                             106    0.34 4  386 209 
                                                                                
