 2012  515 1227 36.1 L   6.759 -73.108144.3  RSN  4 0.1 2.2LRSN                1
 GAP=143        0.31       2.1     3.3  4.0  0.9718E+00 -0.3174E+01 -0.2733E+00E
 Epicentro: LOS SANTOS - SANTANDER                                             3
 ACTION:UP  12-07-05 12:05 OP:pat  STATUS:               ID:20120515122736 L   I
 2012-05-15-1220-00M.COL___195                                                 6
 STAT SP IPHASW D HRMM SECON CODA AMPLIT PERI AZIMU VELO SNR AR TRES W  DIS CAZ7
 BAR2 SZ EP       1227 55.55                             172     0.110   20 204 
 BAR2 SZ I        1228 12.01        44.2 0.24                            20 204 
 BRR  HZ IP     D 1227 57.34                             150    -0.110   77 300 
 BRR  HZ I        1227 57.52        53.3 0.14                            77 300 
 BRR  HE ES   1   1228 14.11                             150     0.0 7   77 300 
 PAM  SZ EP       1227 58.22                             150     0.010   78  35 
 PAM  SE ES   2   1228 15.45                             150     0.0 5   78  35 
 RUS  HZ EP       1227 59.37                             145     0.010   96 178 
 RUS  HN ES   1   1228 17.45                             145    -0.1 7   96 178 
 RUS  HZ I        1228 19.05        11.4 0.38                            96 178 
                                                                                
