 2017  715 1515 32.3 L   6.810 -73.256132.0  RSN  4 0.2 1.5LRSN                1
 GAP=149        0.61       3.8     5.6  5.7 -0.9253E+01  0.8081E+01 -0.2779E+01E
 Epicentro: ZAPATOCA - SANTANDER                                               3
 ACTION:UPD 17-08-30 15:33 OP:rebc STATUS:               ID:20170715151532 L   I
 OLDACT:REG 17-07-15 20:42 OP:dhb  STATUS:               ID:20170715150740     3
 2017-07-15-1508-00M.COL___383                                                 6
 STAT SP IPHASW D HRMM SECON CODA AMPLIT PERI AZIMU VELO AIN AR TRES W  DIS CAZ7
 BAR2 EZ EP       1515 49.84                             168   -0.4410 25.4 161 
 BAR2 EZ ES       1516  4.09                             168   -0.2510 25.4 161 
 BAR2 EZ I        1516  6.79        13.8 0.25            172           25.4 161 
 PAM  EZ EP       1515 53.61                             145    0.0810 84.9  46 
 PAM  EE ES       1516 10.31                             145    0.1910 84.9  46 
 PAM  EZ I        1516 12.96         7.4 0.52            150           84.9  46 
 RUS  HZ EP       1515 55.05                             139    0.1710  103 169 
 RUS  HN ES       1516 12.72                             139    0.1910  103 169 
 RUS  HZ I        1516 13.77         4.1 0.22            145            103 169 
 PTB  HZ EP   2   1515 57.26                             131    0.22 5  136 257 
 PTB  HN ES   2   1516 16.48                             131    0.10 5  136 257 
 PTB  HZ I        1516 20.51         4.6 0.18            132            136 257 
                                                                                
