 2013  115 1850  5.0 L   6.788 -73.133151.8  RSN  7 0.5 2.0LRSN                1
 GAP=238        0.92       6.4     6.7  8.0  0.1071E+02  0.9507E+01  0.1012E+02E
 Epicentro: LOS SANTOS - SANTANDER                                             3
 ACTION:UPD 13-02-15 09:14 OP:ep   STATUS:               ID:20130115185005 L   I
 2013-01-15-1850-00M.COL___241                                                 6
 STAT SP IPHASW D HRMM SECON CODA AMPLIT PERI AZIMU VELO AIN AR TRES W  DIS CAZ7
 BAR2 SZ EP       1850 25.09                             171   -0.2410 22.3 194 
 BAR2 SZ ES   1   1850 41.24                             171    0.05 7 22.3 194 
 BAR2 SZ I        1850 41.71       364.8 1.18            160           22.3 194 
 BRR  HZ EP       1850 27.09                             153    0.1910 73.1 299 
 BRR  HN ES   1   1850 44.55                             153    0.57 7 73.1 299 
 RUS  HZ EP   1   1850 29.19                             145   -0.05 7 99.1 177 
 RUS  HN ES   1   1850 48.14                             145   -0.01 7 99.1 177 
 RUS  HZ I        1850 50.74         4.2 0.32            138           99.1 177 
 PTB  HZ EP   1   1850 31.90                             133   -0.66 7  149 259 
 PTB  HN ES   1   1850 53.08                             133   -0.97 7  149 259 
 PTB  HZ I        1850 55.46         7.9 0.16            130            149 259 
 ZAR  HN ES   2   1851  3.66                             123   -0.12 4  206 292 
 NOR  HZ EP   1   1850 41.57                             120    0.46 6  235 235 
 NOR  HN ES   1   1851 10.24                             120    0.95 6  235 235 
 NOR  HZ I        1851 14.76         6.5 0.28            117            235 235 
 CHI  HZ EP   1   1850 43.30                             118    0.37 6  248 196 
 CHI  HN ES   2   1851 11.92                             118   -0.60 4  248 196 
 CHI  HZ I        1851 22.35         2.2 0.32            115            248 196 
                                                                                
