 2011  715 1642  5.0 L   7.516 -73.297132.0  RSN  4 0.4 1.4LRSN                1
 GAP=188        0.69      14.7    15.0 11.4 -0.1828E+03 -0.4375E+02  0.6969E+02E
 Epicentro: EL PLAYON - SANTANDER                                              3
 ACTION:UPD 12-07-25 14:01 OP:epov STATUS:               ID:20110715164205 L   I
 2011-07-15-1640-19S.COL___132                                                 6
 STAT SP IPHASW D HRMM SECON CODA AMPLIT PERI AZIMU VELO AIN AR TRES W  DIS CAZ7
 BRI  SZ EP   1   1642 24.11                             155   -0.12 7 59.5  68 
 BRR  HZ EP   1   1642 24.68                             153    0.44 7 64.3 225 
 BRR  HN ES   2   1642 38.78                             153   -0.49 5 64.3 225 
 GRA  SZ EP   1   1642 24.21                             152   -0.47 7 68.0  53 
 GRA  SZ ES   1   1642 40.41                             152    0.35 7 68.0  53 
 GRA  SZ I        1642 43.12         4.1 0.25                          68.0  53 
 BAR2 SZ EP   1   1642 27.23                             140    0.01 7  103 173 
 BAR2 SZ I        1642 27.57         5.1 0.10                           103 173 
                                                                                
