 2017 1115 1031  5.0 L   6.737 -73.183137.7  RSN  4 0.2 1.2LRSN                1
 GAP=239        0.51       5.0     3.8  4.8  0.1241E+02  0.3292E+01 -0.2856E+01E
 Epicentro: VILLANUEVA - SANTANDER                                             3
 ACTION:UPD 17-12-12 19:55 OP:rebc STATUS:               ID:20171115103105 L   I
 OLDACT:REG 17-11-15 20:41 OP:lv   STATUS:               ID:20171115102745     3
 2017-11-15-1028-00M.COL___426                                                 6
 STAT SP IPHASW D HRMM SECON CODA AMPLIT PERI AZIMU VELO AIN AR TRES W  DIS CAZ7
 BAR2 EZ EP       1031 23.44                             173   -0.0610 16.0 180 
 BAR2 EZ ES       1031 37.99                             173    0.0410 16.0 180 
 BAR2 EZ I        1031 38.66         9.1 0.64            170           16.0 180 
 RUS  HZ EP       1031 27.22                             144   -0.2310 94.1 173 
 RUS  HE ES       1031 45.11                             144    0.1210 94.1 173 
 RUS  HZ I        1031 46.65         1.6 0.34            143           94.1 173 
 PTB  HN EP       1031 31.14                             131    0.34 9  142 261 
 PTB  HZ ES       1031 50.77                             131   -0.17 9  142 261 
 PTB  HN I        1031 52.39         2.1 0.20            131            142 261 
 ZAR  HE ES       1032  1.58                             121   -0.02 9  203 294 
                                                                                
