 2010 1215 1129 51.9 L   5.995 -73.675115.3  RSN  5 0.2 1.6LRSN                1
 GAP=123        0.44       3.4     2.6  7.6 -0.2474E+01  0.6056E+01 -0.4529E+01E
 Epicentro: VELEZ - SANTANDER                                                  3
 ACTION:UP  11-01-14 15:25 OP:pat  STATUS:               ID:20101215112951 L   I
 2010-12-15-1127-01S.COL___137                                                 6
 STAT SP IPHASW D HRMM SECON CODA AMPLIT PERI AZIMU VELO SNR AR TRES W  DIS CAZ7
 RUS  HZ EP       1130 10.21                             148     0.010   67 100 
 RUS  HN ES   1   1130 24.63                             148     0.1 7   67 100 
 RUS  HZ I        1130 26.23         5.1 0.56                            67 100 
 BAR2 SZ EP   1   1130 11.05                             141    -0.1 7   85  40 
 BAR2 SZ I        1130 28.18        27.6 0.55                            85  40 
 NOR  SN ES   1   1130 34.43                             125    -0.2 7  141 250 
 CHI  HZ EP   2   1130 17.67                             124     0.3 5  151 182 
 CHI  HE ES   1   1130 37.24                             124    -0.1 7  151 182 
 CHI  HZ I        1130 40.71         4.3 0.16                           151 182 
 HEL  HN ES   2   1130 48.07                             115     0.4 4  206 276 
 HEL  HZ I        1130 52.71         3.3 0.39                           206 276 
                                                                                
