 2010  415 1510  9.4 L   6.791 -73.037149.3  RSN 13 0.5 3.7LRSN                1
 GAP=149        0.94       4.4     5.9  5.4 -0.1000E+02 -0.3654E+00  0.5686E+01E
 Epicentro: CEPITA - SANTANDER                                                 3
 ACTION:UPD 10-08-24 09:59 OP:vdl  STATUS:               ID:20100415151017 L   I
 2010-04-15-1507-27S.COL___100                                                 6
 STAT SP IPHASW D HRMM SECON CODA AMPLIT PERI AZIMU VELO AIN AR TRES W  DIS CAZ7
 BAR2 SZ IP       1510 29.73                             169     0.210   27 216 
 BAR2 SZ ES       1510 44.71                             169    -0.510   27 216 
 BRR  HZ IP     C 1510 32.01                             149     0.410   82 295 
 BRR  HZ I        1510 32.24      2103.2 0.14                            82 295 
 BRR  HE ES       1510 49.24                             149     0.410   82 295 
 OCA  SZ EP       1510 37.91                             130    -0.3 9  163 349 
 OCA  SZ ES   2   1511  0.24                             130    -0.5 5  163 349 
 CHI  HZ EP       1510 47.61                             117     0.1 8  251 198 
 CHI  HZ I        1510 50.21       159.5 0.42                           251 198 
 CHI  HE ES   1   1511 16.96                             117    -0.4 6  251 198 
 HEL  HZ EP   1   1510 51.03                             114     0.0 6  283 257 
 HEL  HN ES   1   1511 23.14                             114    -0.4 6  283 257 
 HEL  HZ I        1511 28.59       233.6 0.33                           283 257 
 RREF BZ EP       1510 56.74                             111     0.1 7  330 231 
 RREF BN ES       1511 34.50                             111     1.0 7  330 231 
 RREF BZ I        1511 41.16       265.9 0.37                           330 231 
 TOL  SZ EP       1510 59.06                             109     0.4 6  351 226 
 TOL  SZ ES   2   1511 36.32                             109    -0.8 3  351 226 
 DBB  SZ EP       1510 57.38                             109    -1.0 6  352 274 
 SDV  BZ EP       1510 59.04                             109     0.4 6  352  49 
 ANIL BZ EP       1511  0.34                             108     0.1 6  365 226 
 ANIL BN ES   2   1511 39.34                             108    -0.5 3  365 226 
 PRA  HZ EP   2   1511  3.07                             107    -0.6 3  397 211 
 PRA  HN ES   2   1511 44.92                             107    -1.0 3  397 211 
 PRA  HZ I        1511 50.17       124.9 0.43                           397 211 
 PCON HZ EP       1511 30.13                             100    -0.5 3  618 217 
 SOTA HZ EP   2   1511 34.38                              99     0.1 1  650 218 
                                                                                
