 2013  915 1431 42.2 L   6.644 -73.163144.0  RSN  4 0.3 1.6LRSN                1
 GAP=250        0.68       8.6     5.8  6.4  0.2375E+02  0.9902E+01  0.9562E+01E
 Epicentro: VILLANUEVA - SANTANDER                                             3
 ACTION:UPD 13-10-22 09:22 OP:ep   STATUS:               ID:20130915143142 L   I
 OLDACT:UP  13-09-15 15:53 OP:cam  STATUS:               ID:20130915142959     3
 OLDACT:REG 13-09-15 14:44 OP:cam  STATUS:               ID:20130915142959     3
 2013-09-15-1429-59M.COL___269                                                 6
 STAT SP IPHASW D HRMM SECON CODA AMPLIT PERI AZIMU VELO AIN AR TRES W  DIS CAZ7
 BAR2 SZ EP       1432  1.46                             177    0.0710 6.15 200 
 BAR2 SZ ES   1   1432 16.32                             177   -0.04 7 6.15 200 
 BAR2 SZ I        1432 17.53         8.9 0.20            165           6.15 200 
 BRR  HZ EP       1432  3.35                             149   -0.2910 79.4 310 
 BRR  HN ES       1432 20.50                             149    0.1410 79.4 310 
 PTB  HZ EP       1432  8.45                             132   -0.18 9  144 265 
 PTB  HN ES   1   1432 29.41                             132    0.16 7  144 265 
 PTB  HZ I        1432 35.52         4.1 0.24            129            144 265 
 ZAR  HZ EP   1   1432 15.94                             121    0.86 6  209 297 
 ZAR  HN ES       1432 40.49                             121   -0.24 8  209 297 
 ZAR  HZ I        1432 45.19         5.3 0.42            121            209 297 
                                                                                
