 2010  115 1005 43.7 L   6.769 -72.945143.2  RSN  8 0.4 1.8LRSN                1
 GAP=203        0.65       4.0    10.9  7.7 -0.1093E+02  0.4154E+02 -0.6307E+00E
 Epicentro: CEPITA - SANTANDER                                                 3
 ACTION:UP  10-08-24 09:44 OP:vdl  STATUS:               ID:20100115100543 L   I
 2010-01-15-1002-23S.COL___095                                                 6
 STAT SP IPHASW D HRMM SECON CODA AMPLIT PERI AZIMU VELO SNR AR TRES W  DIS CAZ7
 BAR2 SZ EP   1   10 6  3.22                             167     0.0 7   33 233 
 BAR2 SZ ES   2   10 6 17.82                             167    -0.6 5   33 233 
 RUS  BZ EP   1   10 6  7.17                             144     0.2 7   98 189 
 RUS  BZ I        10 6  8.23         7.7 0.18                            98 189 
 RUS  BN ES   2   10 6 25.68                             144     0.5 5   98 189 
 OCA  SZ EP   1   10 6 12.13                             128    -0.4 7  168 346 
 OCA  SZ ES   2   10 6 35.64                             128     0.7 5  168 346 
 CHI  HZ EP   1   10 6 21.55                             116     0.0 6  252 200 
 CHI  HE ES   2   10 6 50.67                             116    -0.5 4  252 200 
 CHI  HZ I        10 6 56.38         4.0 0.22                           252 200 
 HEL  HZ EP   1   10 6 25.64                             112    -0.4 5  293 258 
 RREF BZ EP   1   10 6 31.74                             109     0.3 5  337 232 
 RREF BZ I        10 7 11.54         4.7 0.30                           337 232 
 TOL  SZ EP   1   10 6 34.08                             108     0.7 5  357 228 
 TOL  SZ ES   2   10 7 12.45                             108     0.3 3  357 228 
 PRA  HZ EP   1   10 6 37.69                             106    -0.4 4  401 213 
 PRA  HE ES   2   10 7 20.38                             106    -0.2 3  401 213 
                                                                                
