 2013  215 1655 33.2 L   6.794 -73.159146.0  RSN  7 0.4 2.5LRSN                1
 GAP=146        0.87       4.4     4.6  7.1  0.5003E-01  0.6939E+01  0.1148E+02E
 Epicentro: LOS SANTOS - SANTANDER                                             3
 ACTION:UPD 13-03-12 09:33 OP:ep   STATUS:               ID:20130215165533 L   I
 2013-02-15-1650-00M.COL___238                                                 6
 STAT SP IPHASW D HRMM SECON CODA AMPLIT PERI AZIMU VELO AIN AR TRES W  DIS CAZ7
 BAR2 SZ EP   1   1655 52.68                             171   -0.15 7 22.4 187 
 BAR2 SZ ES   1   1656  7.51                             171   -0.63 7 22.4 187 
 BAR2 SZ I        1656  9.14        57.4 0.16            169           22.4 187 
 BRR  HZ EP   1   1655 54.55                             153    0.24 7 70.2 300 
 BRR  HN ES       1656 11.57                             153    0.7910 70.2 300 
 BRR  HN I        1656 12.25       112.2 0.22            151           70.2 300 
 PAM  SZ EP   1   1655 55.82                             150    0.30 7 78.9  40 
 PAM  SN ES   1   1656 12.51                             150   -0.42 7 78.9  40 
 PAM  SN I        1656 14.42        22.1 0.76            153           78.9  40 
 PTB  HZ EP   1   1655 59.48                             132   -0.55 7  146 259 
 PTB  HN ES   1   1656 20.74                             132   -0.22 7  146 259 
 ZAR  HZ EP   1   1656  5.58                             123    0.05 6  203 292 
 ZAR  HN ES       1656 30.38                             123   -0.38 9  203 292 
 ZAR  HN I        1656 36.04        32.5 0.28            122            203 292 
 NOR  HZ EP   1   1656  8.83                             119    0.08 6  233 234 
 NOR  HN ES   1   1656 36.30                             119   -0.19 6  233 234 
 NOR  HN I        1656 42.19        30.6 0.20            119            233 234 
 CHI  HZ EP   1   1656 10.99                             117    0.21 6  248 195 
 CHI  HN ES       1656 40.38                             117    0.28 8  248 195 
 CHI  HN I        1656 42.66        22.9 0.50            118            248 195 
                                                                                
