 2017  215 1848 39.6 L   6.802 -73.165149.3  RSN  8 0.3 1.7LRSN                1
 GAP=134        0.78       3.1     3.2  4.9 -0.1259E+00  0.3611E+01  0.4158E+01E
 Epicentro: LOS SANTOS - SANTANDER                                             3
 ACTION:UPD 17-05-24 15:36 OP:jn   STATUS:               ID:20170215184839 L   I
 OLDACT:UP  17-02-17 15:52 OP:nlst STATUS:               ID:20170215184839 L   3
 OLDACT:REG 17-02-15 21:46 OP:cog  STATUS:               ID:20170215184740     3
 2017-02-15-1848-00M.COL___358                                                 6
 STAT SP IPHASW D HRMM SECON CODA AMPLIT PERI AZIMU VELO AIN AR TRES W  DIS CAZ7
 BAR2 HZ EP       1848 59.38                             171   -0.3010 23.3 185 
 BAR2 HZ ES       1849 15.59                             171    0.2610 23.3 185 
 BAR2 HZ I        1849 16.47        12.8 0.28            169           23.3 185 
 BRR  HZ EP       1849  1.34                             154    0.2910 69.2 299 
 BRR  HN ES       1849 18.23                             154    0.4610 69.2 299 
 PAM  EZ EP       1849  2.36                             151    0.0710 78.5  41 
 PAM  EE ES       1849 19.78                             151   -0.1910 78.5  41 
 PAM  EZ I        1849 21.54        17.3 0.50            156           78.5  41 
 RUS  HZ EP       1849  3.64                             144   -0.1210  101 175 
 RUS  HE ES       1849 22.33                             144   -0.2510  101 175 
 RUS  HZ I        1849 23.22         9.1 0.32            146            101 175 
 PTB  HZ EP       1849  6.27                             133   -0.44 9  146 259 
 PTB  HN ES       1849 27.34                             133   -0.49 9  146 259 
 PTB  HZ I        1849 38.34         3.5 0.28            133            146 259 
 ZAR  HE ES       1849 37.30                             123   -0.12 9  202 292 
 NOR  HZ EP       1849 15.89                             119    0.49 8  233 234 
 NOR  HE ES       1849 43.41                             119    0.11 8  233 234 
 NOR  HZ I        1849 45.67         4.2 0.62            120            233 234 
 CHI  HZ EP       1849 17.73                             118    0.24 8  248 195 
 CHI  HE ES       1849 47.24                             118    0.21 8  248 195 
 CHI  HZ I        1849 50.35         3.2 0.40            119            248 195 
                                                                                
