 2016  715 1544 59.1 L   6.703 -73.185153.1  RSN  4 0.2 1.5LRSN                1
 GAP=237        0.57       5.9     4.4  5.4  0.1691E+02  0.2918E+01 -0.4299E+01E
 Epicentro: VILLANUEVA - SANTANDER                                             3
 ACTION:UPD 17-03-29 16:51 OP:lp   STATUS:               ID:20160715154459 L   I
 OLDACT:UP  16-07-15 23:55 OP:dani STATUS:               ID:20160715153760d    3
 OLDACT:UP  16-07-15 23:53 OP:dani STATUS:               ID:20160715153760d    3
 OLDACT:DUP 16-07-15 23:51 OP:dani STATUS:               ID:20160715153760d    3
 OLDACT:UP  16-07-15 23:50 OP:dani STATUS:               ID:20160715153759     3
 OLDACT:UP  16-07-15 23:50 OP:dani STATUS:               ID:20160715153759     3
 OLDACT:UP  16-07-15 23:50 OP:dani STATUS:               ID:20160715153759     3
 OLDACT:REG 16-07-15 20:29 OP:dani STATUS:               ID:20160715153759     3
 2016-07-15-1537-59S.COL___331                                                 6
 STAT SP IPHASW D HRMM SECON CODA AMPLIT PERI AZIMU VELO AIN AR TRES W  DIS CAZ7
 BAR2 EZ EP       1545 19.22                             175   -0.2110 12.3 178 
 BAR2 EZ ES       1545 35.23                             175   -0.0710 12.3 178 
 BAR2 EZ I        1545 36.54         8.1 0.18            176           12.3 178 
 RUS  HZ EP       1545 23.02                             148    0.1410 90.4 173 
 RUS  HE ES       1545 41.63                             148    0.1910 90.4 173 
 RUS  HZ I        1545 42.96         3.2 0.38            150           90.4 173 
 PTB  HZ EP       1545 26.02                             135   -0.11 9  142 263 
 PTB  HN ES       1545 46.97                             135   -0.25 9  142 263 
 PTB  HZ I        1545 48.02         3.8 0.10            136            142 263 
 ZAR  HZ EP   4   1545 33.86                             124    1.82 0  204 295 
 ZAR  HE ES       1545 58.11                             124    0.36 9  204 295 
 ZAR  HZ I        1546  0.09         4.5 0.14            125            204 295 
                                                                                
