 2014  415 1418 29.0 L   6.161 -73.825 91.8  RSN  5 0.4 1.6LRSN                1
 GAP=148        1.06       4.4     4.9  9.6  0.1143E+02 -0.4581E+01 -0.1335E+02E
 Epicentro: LANDAZURI - SANTANDER                                              3
 ACTION:UPD 14-05-13 23:08 OP:nd   STATUS:               ID:20140415141829 L   I
 OLDACT:DUP 14-04-15 22:52 OP:stll STATUS:               ID:20140415140806d    3
 2014-04-15-1408-05M.COL___259                                                 6
 STAT SP IPHASW D HRMM SECON CODA AMPLIT PERI AZIMU VELO AIN AR TRES W  DIS CAZ7
 SPBC HZ EP       1418 44.02                             143   -0.1610 62.6 206 
 SPBC HN ES       1418 55.84                             143   -0.1310 62.6 206 
 SPBC HZ I        1418 58.74         8.7 0.32            122           62.6 206 
 PTB  HZ EP       1418 44.81                             135   -0.7910 81.4 301 
 PTB  HZ I        1418 45.04         7.4 0.20            116           81.4 301 
 PTB  HE ES       1418 58.63                             135    0.1310 81.4 301 
 RUS  HZ I        1418 46.31        17.2 0.12            129           87.3 110 
 RUS  HZ EP       1418 46.40                             134   -0.3710 87.3 110 
 RUS  HN ES       1419  0.85                             134    0.2610 87.3 110 
 CHI  HN ES       1419 16.15                             114    0.54 9  170 176 
 ZAR  HZ EP       1418 56.80                             112    0.21 9  186 322 
 ZAR  HN ES       1419 18.68                             112    0.61 9  186 322 
 ZAR  HZ I        1419 23.19         5.1 0.28            102            186 322 
                                                                                
