 2011  615 1101  5.8 L   6.772 -73.097140.7  RSN 17 0.4 3.2LRSN                1
 GAP=144        0.90       3.4     5.8  5.0 -0.9949E+01  0.9127E+01  0.1656E+01E
 Epicentro: LOS SANTOS - SANTANDER                                             3
 ACTION:UP  11-07-14 19:05 OP:ep   STATUS:               ID:20110615110105 L   I
 2011-06-15-1058-54S.COL___138                                                 6
 STAT SP IPHASW D HRMM SECON CODA AMPLIT PERI AZIMU VELO SNR AR TRES W  DIS CAZ7
 BAR2 SZ IP       11 1 24.68                             171    -0.110   22 205 
 BAR2 SZ ES   1   11 1 38.95                             171    -0.6 7   22 205 
 BTL  SZ IP       11 1 25.09                             170     0.310   25 311 
 BTL  SZ ES   1   11 1 39.99                             170     0.3 7   25 311 
 GIR2 SZ IP       11 1 25.07                             165     0.110   36 343 
 PAM  SZ EP   1   11 1 27.63                             150     0.2 7   77  35 
 PAM  SE ES   1   11 1 44.36                             150     0.1 7   77  35 
 BRR  HZ IP     C 11 1 26.61                             149    -0.110   77 299 
 BRR  HN ES   1   11 1 43.05                             149    -0.1 7   77 299 
 BRR  HZ I        11 1 44.79       241.4 0.15                            77 299 
 RUS  HZ EP       11 1 28.60                             144    -0.210   97 179 
 RUS  HN ES   1   11 1 46.86                             144     0.1 7   97 179 
 RUS  HZ I        11 1 49.37       222.4 0.35                            97 179 
 BRI  SZ EP       11 1 29.46                             140     0.210  110  18 
 BRI  SZ ES   1   11 1 47.99                             140     0.4 7  110  18 
 BRI  SZ I        11 1 53.25       247.8 0.67                           110  18 
 GRA  SZ IP       11 1 30.73                             135     0.010  127  15 
 GRA  SZ ES   1   11 1 49.81                             135    -0.3 7  127  15 
 GRA  SZ I        11 1 52.44       275.0 0.32                           127  15 
 OCA  SZ EP       11 1 33.60                             128    -0.5 9  164 351 
 OCA  SZ I        11 1 58.59       158.8 0.29                           164 351 
 NOR  SZ EP       11 1 40.69                             117    -0.8 8  237 236 
 CHI  HZ EP   1   11 1 42.92                             116    -0.1 6  247 197 
 CHI  HE ES   1   11 2 11.75                             116    -0.3 6  247 197 
 CHI  HZ I        11 2 21.66        60.2 0.36                           247 197 
 ROSC BZ EP   1   11 1 44.50                             115     0.9 6  253 212 
 ROSC BZ I        11 2 21.10       182.2 0.41                           253 212 
 RREF HZ EP   1   11 1 52.01                             110     0.1 5  324 230 
 RREF HN ES   1   11 2 28.69                             110     0.7 5  324 230 
 TOL  SZ EP       11 1 54.95                             108     0.9 7  345 226 
 DBB  SZ EP       11 1 53.64                             108    -0.1 7  345 275 
 ANIL HZ EP   1   11 1 55.82                             107     0.2 5  359 225 
 ANIL HE ES   1   11 2 34.63                             107     0.2 5  359 225 
 ANIL HZ I        11 2 40.30       111.8 0.41                           359 225 
 PRA  HZ EP   1   11 1 58.22                             106    -0.9 4  392 210 
                                                                                
