 2010  315 1052 12.7 L   6.838 -73.052140.5  RSN 12 0.4 2.3LRSN                1
 GAP=132        0.70       3.3     5.0  4.9 -0.2529E+01 -0.7219E+00  0.4969E+00E
 Epicentro: LOS SANTOS - SANTANDER                                             3
 ACTION:UP  10-08-24 09:54 OP:vdl  STATUS:               ID:20100315105212 L   I
 2010-03-15-1049-20S.COL___095                                                 6
 STAT SP IPHASW D HRMM SECON CODA AMPLIT PERI AZIMU VELO SNR AR TRES W  DIS CAZ7
 BAR2 SZ IP       1052 31.95                             167     0.110   31 208 
 BAR2 SZ ES   1   1052 46.60                             167    -0.2 7   31 208 
 BRR  HZ IP       1052 33.77                             149     0.010   79 292 
 BRR  HZ I        1052 34.82        66.4 0.07                            79 292 
 BRR  HN ES   1   1052 50.60                             149     0.5 7   79 292 
 RUS  HZ IP       1052 36.32                             142     0.110  105 182 
 RUS  HN ES   1   1052 54.27                             142    -0.3 7  105 182 
 RUS  HZ I        1052 56.35        12.6 0.33                           105 182 
 OCA  SZ EP   1   1052 40.02                             129    -0.3 7  158 349 
 OCA  SZ ES   2   1053  1.56                             129    -0.4 5  158 349 
 OCA  SZ I        1053  5.27        64.2 0.30                           158 349 
 CHI  HZ EP   2   1052 50.83                             115     0.0 4  256 197 
 CHI  HN ES   2   1053 20.73                             115     0.1 4  256 197 
 CHI  HZ I        1053 27.45         4.1 0.35                           256 197 
 ROSC BZ EP   2   1052 51.87                             115     0.4 4  262 212 
 HEL  HZ EP   2   1052 54.10                             113     0.2 4  283 255 
 HEL  HN ES   2   1053 26.08                             113     0.1 4  283 255 
 HEL  HZ I        1053 31.20        11.9 0.24                           283 255 
 RREF BZ EP   2   1052 59.53                             109    -0.3 3  332 230 
 RREF BE ES   2   1053 37.70                             109     1.1 3  332 230 
 RREF BZ I        1053 40.94         8.3 0.21                           332 230 
 DBB  SZ EP   2   1053  0.03                             108    -1.1 3  349 273 
 SDV  BZ IP       1053  1.73                             108     0.4 6  350  50 
 SDV  BZ I        1053  2.67        18.4 0.10                           350  50 
 TOL  SZ EP   1   1053  0.99                             108    -0.9 5  354 225 
 PRA  HZ EP   1   1053  6.80                             105    -0.3 4  401 211 
 PRA  HE ES   1   1053 49.65                             105     0.2 4  401 211 
 PRA  HZ I        1053 54.11         6.0 0.48                           401 211 
                                                                                
