 2016 1015 1909 25.0 L   6.758 -73.173134.6  RSN  5 0.3 1.3LRSN                1
 GAP=135        0.71       3.9     3.5  6.8 -0.2176E+01  0.1034E+02 -0.6823E+01E
 Epicentro: LOS SANTOS - SANTANDER                                             3
 ACTION:UPD 16-11-09 19:19 OP:rebc STATUS:               ID:20161015190925 L   I
 OLDACT:DUP 16-10-15 21:49 OP:dnl  STATUS:               ID:20161015185410d    3
 2016-10-15-1858-00M.COL___368                                                 6
 STAT SP IPHASW D HRMM SECON CODA AMPLIT PERI AZIMU VELO AIN AR TRES W  DIS CAZ7
 BAR2 EZ ES       19 9 57.29                             172   -0.1410 18.3 183 
 BAR2 EZ I        19 9 59.17         8.1 0.40            172           18.3 183 
 PAM  EZ EP       19 9 46.28                             147   -0.1710 82.9  39 
 PAM  EE ES       1910  3.21                             147    0.0710 82.9  39 
 PAM  EZ I        1910  5.20         3.7 0.54            150           82.9  39 
 RUS  HZ EP   2   19 9 47.91                             143    0.52 5 96.2 174 
 RUS  HN ES       1910  5.03                             143    0.2210 96.2 174 
 RUS  HZ I        1910  7.50         3.4 0.38            146           96.2 174 
 PTB  HZ EP       19 9 50.47                             130   -0.30 9  144 260 
 PTB  HN ES       1910 10.56                             130   -0.27 9  144 260 
 PTB  HZ I        1910 15.64         2.3 0.44            131            144 260 
 ZAR  HN ES       1910 21.92                             120    0.55 9  203 294 
 ZAR  HZ I        1910 26.69         2.3 0.10            121            203 294 
                                                                                
