 2013  115 1545 42.6 L   6.218 -73.831 22.6  RSN  5 0.2 1.7LRSN                1
 GAP=156        0.50       2.2     1.5  4.6  0.1310E+01  0.3493E+01  0.3757E+01E
 Epicentro: LANDAZURI - SANTANDER                                              3
 ACTION:UPD 13-02-15 09:14 OP:ep   STATUS:               ID:20130115154542 L   I
 2013-01-15-1540-00M.COL___241                                                 6
 STAT SP IPHASW D HRMM SECON CODA AMPLIT PERI AZIMU VELO AIN AR TRES W  DIS CAZ7
 PTB  HZ EP       1545 55.53                             104    0.1510 77.8 297 
 PTB  HN ES   1   1546  5.12                             104   -0.20 7 77.8 297 
 PTB  HZ I        1546  7.61        20.3 0.10            105           77.8 297 
 BAR2 SZ EP       1545 56.50                             104    0.1310 82.9  60 
 BAR2 SZ ES   1   1546  7.06                             104   -0.02 7 82.9  60 
 BAR2 SZ I        1546  7.56        26.8 0.20            105           82.9  60 
 RUS  HZ EP       1545 57.90                             103    0.1710 90.3 113 
 RUS  HN ES   1   1546  9.11                             103   -0.40 7 90.3 113 
 RUS  HZ I        1546  9.81        18.1 0.38             71           90.3 113 
 BRR  HZ EP   1   1545 58.74                             101    0.20 7 99.2   8 
 BRR  HN ES   1   1546 10.66                             101   -0.28 7 99.2   8 
 BRR  HZ I        1546 12.42        20.8 0.10             56           99.2   8 
 HEL  HN ES   1   1546 31.61                              56   -0.15 7  188 269 
 HEL  HZ I        1546 32.38        10.6 0.22             56            188 269 
                                                                                
