 2010  815 1937 38.9 L   6.889 -73.250120.9  RSN  4 0.2 1.8LRSN                1
 GAP=170        0.55       4.1     8.9  6.3  0.2039E+02 -0.2392E+02 -0.1170E+02E
 Epicentro: BETULIA - SANTANDER                                                3
 ACTION:UP  10-09-07 10:55 OP:vdl  STATUS:               ID:20100815193738 L   I
 2010-08-15-1920-00S.COL___104                                                 6
 STAT SP IPHASW D HRMM SECON CODA AMPLIT PERI AZIMU VELO SNR AR TRES W  DIS CAZ7
 BAR2 SZ EP       1937 56.07                             164     0.210   34 167 
 BAR2 SZ ES   1   1938  9.16                             164     0.0 7   34 167 
 BAR2 SZ I        1938 10.26        26.2 0.31                            34 167 
 BRR  HZ EP       1937 56.35                             154    -0.210   57 295 
 BRR  HN ES   1   1938 10.46                             154     0.1 7   57 295 
 BRR  HZ I        1938 11.28        24.7 0.13                            57 295 
 RUS  HZ EP   1   1938  1.25                             135     0.0 7  112 171 
 RUS  HN ES   2   1938 18.27                             135    -0.4 5  112 171 
 RUS  HZ I        1938 19.70         4.2 0.24                           112 171 
 OCA  SZ EP       1938  4.52                             125     0.2 9  149 357 
 OCA  SZ ES   2   1938 23.78                             125    -0.4 5  149 357 
 OCA  SZ I        1938 28.02        10.3 0.78                           149 357 
                                                                                
