 2011  315 1927  6.4 L   6.753 -73.096146.1  RSN  6 0.3 2.1LRSN                1
 GAP=165        0.64       3.4     6.8  6.1 -0.1114E+02  0.1454E+02 -0.5165E+01E
 Epicentro: LOS SANTOS - SANTANDER                                             3
 ACTION:UP  11-06-16 14:33 OP:jfem STATUS:               ID:20110315192706 L   I
 2011-03-15-1924-48S.COL___138                                                 6
 STAT SP IPHASW D HRMM SECON CODA AMPLIT PERI AZIMU VELO SNR AR TRES W  DIS CAZ7
 BAR2 SZ EP   1   1927 26.11                             172     0.1 8   20 208 
 BAR2 SZ ES   1   1927 41.49                             172     0.1 8   20 208 
 BAR2 SZ I        1927 43.24        21.9 0.28                            20 208 
 RUS  HZ EP   1   1927 30.05                             145     0.2 8   95 179 
 RUS  HE ES   1   1927 47.75                             145    -0.3 8   95 179 
 RUS  HZ I        1927 52.58         5.2 0.35                            95 179 
 GRA  SZ EP       1927 32.26                             136     0.310  129  14 
 GRA  SZ I        1927 53.08        14.2 0.51                           129  14 
 OCA  SZ EP   1   1927 34.81                             129    -0.5 7  166 351 
 OCA  SZ ES   1   1927 57.66                             129    -0.2 7  166 351 
 OCA  SZ I        1928  1.39        15.9 0.46                           166 351 
 NOR  SZ EP   1   1927 42.30                             118    -0.1 6  236 236 
 NOR  SN ES   1   1928 10.69                             118     0.3 6  236 236 
 PRA  HZ EP   1   1927 59.91                             107     0.2 5  390 211 
 PRA  HZ I        1928  2.19        14.9 0.13                           390 211 
 PRA  HN ES   1   1928 40.84                             107    -0.5 5  390 211 
                                                                                
