 2011 1215 1154 40.0 L   6.776 -73.119141.5  RSN 12 0.3 2.1LRSN                1
 GAP=141        0.46       2.5     3.7  4.1 -0.2757E+01  0.3928E+01  0.2043E+01E
 Epicentro: LOS SANTOS - SANTANDER                                             3
 ACTION:UPD 12-07-13 16:16 OP:ep   STATUS:               ID:20111215115440 L   I
 2011-12-15-1150-00M.COL___185                                                 6
 STAT SP IPHASW D HRMM SECON CODA AMPLIT PERI AZIMU VELO AIN AR TRES W  DIS CAZ7
 BAR2 SZ EP   1   1154 58.80                             171   -0.31 7 21.5 199 
 BAR2 SZ ES   2   1155 14.10                             171    0.11 5 21.5 199 
 BAR2 SZ I        1155 15.82        37.3 0.41                          21.5 199 
 GIR2 SZ EP   1   1154 58.92                             166   -0.37 7 34.5 346 
 GIR2 SZ ES   2   1155 14.82                             166    0.51 5 34.5 346 
 BRR  HZ EP   1   1155  0.64                             150   -0.31 7 75.1 299 
 BRR  HN ES   2   1155 17.47                             150    0.21 5 75.1 299 
 BRR  HZ I        1155 21.09        46.5 0.11                          75.1 299 
 PAM  SZ IP       1155  1.75                             150   -0.0610 77.7  37 
 PAM  SN ES   2   1155 18.72                             150   -0.07 5 77.7  37 
 PAM  SZ I        1155 20.67        11.8 0.40                          77.7  37 
 RUS  HZ EP   1   1155  3.29                             144    0.14 7 97.7 178 
 RUS  HN ES   2   1155 21.35                             144    0.16 5 97.7 178 
 RUS  HZ I        1155 23.59        13.8 0.28                          97.7 178 
 OCA  SZ EP   1   1155  8.39                             128    0.09 7  163 352 
 OCA  SZ ES   2   1155 30.91                             128    0.56 5  163 352 
 OCA  SZ I        1155 35.77        18.3 0.41                           163 352 
 NOR  SZ EP   2   1155 15.63                             117    0.02 4  236 235 
 NOR  SN ES   2   1155 42.81                             117   -0.55 4  236 235 
 CHI  HZ EP   1   1155 17.53                             116    0.23 6  247 196 
 CHI  HE ES   2   1155 45.97                             116   -0.40 4  247 196 
 CHI  HZ I        1155 54.20         7.0 0.49                           247 196 
 HEL  HZ EP   1   1155 20.44                             114    0.16 6  274 257 
 HEL  HN ES   2   1155 51.57                             114   -0.10 4  274 257 
 HEL  HZ I        1155 57.41         9.3 0.39                           274 257 
 GUY  SZ EP   2   1155 23.90                             111    0.09 4  304 236 
 GUY  SZ I        1156 11.42        10.8 0.37                           304 236 
 RREF HZ EP   2   1155 26.03                             110   -0.02 3  322 230 
 RREF HZ I        1156 12.10         8.1 0.34                           322 230 
 PRA  HZ EP   1   1155 33.85                             106    0.54 4  391 210 
 PRA  HN ES   2   1156 15.65                             106    0.79 3  391 210 
                                                                                
