 2010  615 1624 58.2 L   7.393 -73.423108.3  RSN  7 0.4 2.1LRSN                1
 GAP=200        0.70       3.7    12.4 11.5 -0.9607E+01  0.7748E+02  0.7863E+01E
 Epicentro: SABANA DE TORRES - SANTANDER                                       3
 ACTION:UP  10-08-24 10:10 OP:vdl  STATUS:               ID:20100615162458 L   I
 2010-06-15-1622-57S.COL___114                                                 6
 STAT SP IPHASW D HRMM SECON CODA AMPLIT PERI AZIMU VELO SNR AR TRES W  DIS CAZ7
 GIR2 SZ EP   1   1625 14.10                             157     0.2 7   43 144 
 GUE  SZ EP   1   1625 15.90                             144    -0.1 7   73  49 
 GUE  SZ ES   2   1625 29.70                             144    -0.2 5   73  49 
 BRI  SZ EP   1   1625 15.52                             142    -0.6 7   78  63 
 BRI  SZ ES   2   1625 29.93                             142    -0.3 5   78  63 
 GRA  SZ EP   1   1625 17.37                             138     0.5 7   87  51 
 GRA  SZ ES   2   1625 32.12                             138     0.7 5   87  51 
 BAR2 SZ IP     C 1625 17.75                             137     0.310   92 163 
 BAR2 SZ ES   2   1625 32.20                             137    -0.2 5   92 163 
 OCA  SZ EP   1   1625 17.41                             136     0.0 7   94   7 
 OCA  SZ ES   2   1625 32.34                             136    -0.1 5   94   7 
 OCA  SZ I        1625 34.20        61.0 0.30                            94   7 
 RUS  HZ EP   1   1625 25.04                             118    -0.3 7  170 167 
 RUS  HN ES   2   1625 46.33                             118    -0.3 5  170 167 
 RUS  HZ I        1625 49.91         6.4 0.39                           170 167 
                                                                                
