 2013 1115 1342 14.9 L   6.841 -73.176138.3  RSN  9 0.6 1.8LRSN 2.8WRSN        1
 SPEC AVERAGE  MO 13.2 ST219.3 OM  1.6 f0 22.6 R1.0542 AL 0.00 WI 20.0 MW  2.8 3
 SPEC SD       MO  0.5 ST262.5 OM  0.6 f0 17.7 R1.6594 AL      WI      MW  0.3 3
 GAP=131        1.56       4.9     5.4  8.9 -0.5807E+01  0.1057E+02 -0.8217E+01E
 Epicentro: ZAPATOCA - SANTANDER                                               3
 SPEC BRR HH Z MO 13.0 ST  5.5 OM  1.1 f0 9.92 R0.1940 AL-0.00 WI 20.0 MW  2.6 3
 SPEC BRR HH Z T134249 K 0.050 GD  153 VS 5.20 DE 3.20 Q0750.0 QA 1.50 VS 5.20 3
 SPEC RUS HH Z MO 14.0 ST0.007 OM  2.1 f00.490 R3.9265 AL-0.00 WI 20.0 MW  3.3 3
 SPEC RUS HH Z T134254 K 0.050 GD  173 VS 5.20 DE 3.20 Q0750.0 QA 1.50 VS 5.20 3
 SPEC ZAR HH Z MO 12.8 ST226.3 OM  0.7 f0 40.0 R0.0481 AL-0.00 WI 20.0 MW  2.4 3
 SPEC ZAR HH Z T1343 9 K 0.050 GD  242 VS 5.20 DE 3.20 Q0750.0 QA 1.50 VS 5.20 3
 SPEC SML HH Z MO 13.2 ST645.6 OM  1.1 f0 40.0 R0.0481 AL-0.00 WI 20.0 MW  2.8 3
 SPEC SML HH Z T134316 K 0.050 GD  275 VS 5.20 DE 3.20 Q0750.0 QA 1.50 VS 5.20 3
 OLDACT:REG 13-11-15 16:09 OP:stll STATUS:               ID:20131115133819     3
 ACTION:UPD 14-01-09 16:28 OP:ep   STATUS:               ID:20131115134214 L   I
 OLDACT:UP  13-11-15 17:49 OP:stll STATUS:               ID:20131115133819     3
 2013-11-15-1338-19M.COL___235                                                 6
 STAT SP IPHASW D HRMM SECON CODA AMPLIT PERI AZIMU VELO AIN AR TRES W  DIS CAZ7
 BAR2 SZ EP       1342 33.65                             168   -0.0710 27.6 181 
 BAR2 SZ ES       1342 48.66                             168    0.2510 27.6 181 
 BAR2 SZ I        1342 55.23        13.2 0.84            170           27.6 181 
 BRR  HZ EP       1342 35.37                             153    0.4310 66.1 296 
 BRR  HZ I        1342 35.66        19.2 0.26            153           66.1 296 
 BRR  HN ES       1342 51.17                             153    0.5810 66.1 296 
 PAM  SZ EP       1342 36.56                             150    0.3210 76.2  44 
 PAM  SN ES       1342 53.42                             150    0.5210 76.2  44 
 PAM  SZ I        1342 55.18         9.5 0.40            153           76.2  44 
 RUS  HZ EP       1342 38.10                             141   -0.1810  105 174 
 RUS  HN ES       1342 56.19                             141   -0.3410  105 174 
 RUS  SZ I        1342 57.64         6.1 0.26            145            105 174 
 PTB  HZ EP       1342 40.22                             131   -0.82 9  145 257 
 PTB  HN ES       1343  1.03                             131   -0.41 9  145 257 
 PTB  SZ I        1343  3.59         7.6 1.60            133            145 257 
 CAPV BZ EP       1342 41.79                             130    0.24 9  148  40 
 CAPV BZ ES       1343  1.17                             130   -1.18 9  148  40 
 SPBC HZ EP       1342 44.51                             127    1.54 9  165 217 
 SPBC HN ES       1343  4.00                             127   -0.88 9  165 217 
 SPBC SZ I        1343  7.03         8.4 0.32            130            165 217 
 ZAR  HZ EP       1342 46.69                             121    0.34 9  199 291 
 ZAR  HN ES       1343 10.92                             121    0.03 9  199 291 
 ZAR  HZ I        1343 16.88         7.1 0.34            124            199 291 
 ZAR  SZ I        1343 22.51         5.8 0.42                           199 291 
 SML  HZ EP       1342 50.21                             116   -0.28 8  238 336 
 SML  HN ES       1343 17.87                             116   -0.40 8  238 336 
 SML  SZ I        1343 21.46        12.1 0.08            119            238 336 
                                                                                
