 2014  415 1141 13.8 L   6.744 -73.179126.9  RSN  7 0.4 1.5LRSN                1
 GAP=135        1.03       3.5     4.2  9.0 -0.2577E+01  0.1517E+02 -0.7432E+01E
 Epicentro: VILLANUEVA - SANTANDER                                             3
 ACTION:UPD 14-05-13 23:08 OP:nd   STATUS:               ID:20140415114113 L   I
 OLDACT:REG 14-04-15 20:56 OP:stll STATUS:               ID:20140415113811     3
 2014-04-15-1138-11M.COL___262                                                 6
 STAT SP IPHASW D HRMM SECON CODA AMPLIT PERI AZIMU VELO AIN AR TRES W  DIS CAZ7
 PAM  SZ EP       1141 34.17                             144   -0.4110 84.5  39 
 PAM  SZ I        1141 34.42         4.6 0.30            146           84.5  39 
 PAM  SN ES       1141 51.17                             144    0.4110 84.5  39 
 RUS  HZ EP   1   1141 34.91                             141   -0.43 7 94.8 174 
 RUS  HE EP       1141 35.38                             141    0.0410 94.8 174 
 RUS  HZ I        1141 35.87         2.9 0.44            143           94.8 174 
 RUS  HE ES       1141 52.16                             141    0.0510 94.8 174 
 PTB  HN ES       1141 57.75                             128   -0.67 9  143 261 
 PTB  HZ I        1141 59.78         3.8 0.10            127            143 261 
 SPBC HN ES   1   1142  1.09                             126    0.23 7  156 219 
 SPBC HZ I        1142  3.86         4.4 0.46            126            156 219 
 ZAR  HZ EP       1141 45.62                             118    0.59 9  203 294 
 ZAR  HE ES       1142  9.84                             118    0.49 9  203 294 
 ZAR  HZ I        1142 15.67         3.7 0.30            117            203 294 
 NOR  HZ EP       1141 48.55                             115    0.73 8  228 235 
 NOR  HN ES       1142 14.08                             115   -0.24 8  228 235 
 NOR  HZ I        1142 20.00         2.7 0.32            115            228 235 
 SML  HZ EP       1141 49.44                             113   -0.51 8  248 337 
 SML  HE ES       1142 17.86                             113   -0.25 8  248 337 
 SML  HZ I        1142 24.31         3.5 0.10            113            248 337 
                                                                                
