 2017 1015 1333 34.8 L   6.776 -73.153145.3  RSN 13 0.5 1.9LRSN                1
 GAP=112        0.91       3.6     3.7  5.8  0.3076E+00  0.1653E+01  0.8055E+01E
 Epicentro: LOS SANTOS - SANTANDER                                             3
 ACTION:UPD 17-11-07 19:32 OP:rebc STATUS:               ID:20171015133334 L   I
 OLDACT:UP  17-10-15 22:52 OP:mg   STATUS:               ID:20171015132548     3
 OLDACT:REG 17-10-15 20:14 OP:mg   STATUS:               ID:20171015132548     3
 2017-10-15-1328-00M.COL___438                                                 6
 STAT SP IPHASW D HRMM SECON CODA AMPLIT PERI AZIMU VELO AIN AR TRES W  DIS CAZ7
 BAR2 EZ EP       1333 54.12                             171   -0.2110 20.6 189 
 BAR2 EZ ES   1   1334  9.41                             171   -0.14 7 20.6 189 
 BAR2 EZ I        1334 10.63        24.1 0.32            167           20.6 189 
 BRR  HZ EP       1333 56.09                             152    0.1510 71.8 301 
 BRR  HN ES       1334 13.12                             152    0.7010 71.8 301 
 BRR  HZ I        1334 14.88        13.1 0.15            150           71.8 301 
 PAM  EZ IP     C 1333 57.19                             150    0.0710 79.9  39 
 PAM  EN ES       1334 14.29                             150   -0.2410 79.9  39 
 PAM  EZ I        1334 16.68        12.5 0.55            155           79.9  39 
 RUS  HZ EP       1333 58.09                             144   -0.2410 98.0 175 
 RUS  HN ES       1334 16.97                             144    0.3010 98.0 175 
 RUS  HZ I        1334 18.32         5.4 0.28            144           98.0 175 
 PTB  HZ EP       1334  1.35                             132   -0.27 9  147 260 
 PTB  HN ES       1334 21.63                             132   -0.91 9  147 260 
 PTB  HZ I        1334 29.12         5.1 0.20            130            147 260 
 YPLC HZ EP       1334  4.47                             127    0.09 9  175 151 
 ZAR  HZ EP   3   1334  8.41                             122    1.16 2  204 293 
 ZAR  HN ES   1   1334 32.36                             122   -0.20 6  204 293 
 ZAR  HZ I        1334 39.04         7.8 0.22            122            204 293 
 NOR  HZ EP   1   1334 10.33                             119    0.05 6  233 235 
 NOR  HN ES   1   1334 38.04                             119    0.10 6  233 235 
 NOR  HZ I        1334 44.70         2.3 0.21            118            233 235 
 CHI  HZ EP       1334 12.88                             117    0.70 8  246 195 
 CHI  HN ES       1334 41.60                             117    0.27 8  246 195 
 CHI  HZ I        1334 45.27         4.0 0.60            118            246 195 
 ROSC BZ EP   4   1334 21.49                             117    8.88 0  250 211 
 ROSC BN ES   4   1334 45.38                             117    3.28 0  250 211 
 ROSC BZ I        1334 48.32         9.9 0.44            117            250 211 
 GUY2CHZ EP   4   1334 21.83                             112    3.68 0  299 235 
 GUY2CHN ES   4   1334 56.88                             112    4.92 0  299 235 
 GUY2CHZ I        1335  0.64         2.3 0.33                           299 235 
 PTGC HZ EP   2   1334 17.40                             112   -1.00 4  307 158 
 PTGC HN ES   2   1334 51.39                             112   -1.01 4  307 158 
 PTGC HZ I        1334 53.50         7.1 0.34            113            307 158 
 PRA  HZ EP   1   1334 28.34                             107    0.34 4  389 210 
 PRA  HN ES   2   1335 10.21                             107    0.72 3  389 210 
 PRA  HZ I        1335 15.63         4.2 0.34            107            389 210 
                                                                                
