 2017 1015 1437 12.3 L   6.830 -73.134145.5  RSN  5 0.3 1.4LRSN                1
 GAP=241        0.75       5.5     5.5  6.0  0.8352E+01  0.8654E+01  0.9352E+00E
 Epicentro: LOS SANTOS - SANTANDER                                             3
 ACTION:UPD 17-11-07 19:32 OP:rebc STATUS:               ID:20171015143712 L   I
 OLDACT:UP  17-10-15 22:58 OP:mg   STATUS:               ID:20171015142710     3
 OLDACT:REG 17-10-15 20:21 OP:mg   STATUS:               ID:20171015142710     3
 2017-10-15-1428-00M.COL___435                                                 6
 STAT SP IPHASW D HRMM SECON CODA AMPLIT PERI AZIMU VELO AIN AR TRES W  DIS CAZ7
 BAR2 EZ EP       1437 31.86                             169   -0.0810 26.8 192 
 BAR2 EZ ES       1437 47.07                             169   -0.2210 26.8 192 
 BAR2 EZ I        1437 48.32         8.8 0.15            167           26.8 192 
 BRR  HZ EP       1437 33.94                             153    0.5710 70.9 296 
 BRR  HN ES   1   1437 49.93                             153    0.10 7 70.9 296 
 BRR  HZ I        1437 52.55         5.7 0.31            151           70.9 296 
 RUS  HZ EP       1437 36.09                             143   -0.1410  104 177 
 RUS  HN ES       1437 55.12                             143    0.2010  104 177 
 RUS  HZ I        1437 55.75         4.4 0.24            144            104 177 
 PTB  HZ EP       1437 38.86                             132   -0.53 9  150 258 
 PTB  HN ES   1   1438  0.39                             132   -0.16 7  150 258 
 PTB  HZ I        1438  1.97         1.6 0.21            131            150 258 
 NOR  HZ EP   1   1437 48.42                             118    0.11 6  238 234 
 NOR  HN ES   1   1438 16.73                             118    0.31 6  238 234 
 NOR  HZ I        1438 20.25         1.5 0.24            119            238 234 
                                                                                
