 2013  215 1900  7.7 L   6.787 -73.137138.7  RSN  7 0.5 2.0LRSN                1
 GAP=138        1.00       6.8     5.6 10.6 -0.1969E+01  0.2812E+01  0.2213E+02E
 Epicentro: LOS SANTOS - SANTANDER                                             3
 ACTION:UPD 13-03-12 09:33 OP:ep   STATUS:               ID:20130215190007 L   I
 2013-02-15-1858-48M.COL___204                                                 6
 STAT SP IPHASW D HRMM SECON CODA AMPLIT PERI AZIMU VELO AIN AR TRES W  DIS CAZ7
 BRR  HZ EP   1   19 0 28.51                             151    0.37 7 72.7 299 
 BRR  HN ES   1   19 0 44.91                             151    0.80 7 72.7 299 
 BRR  HN I        19 0 45.68        44.2 0.30             47           72.7 299 
 PAM  SZ IP     C 19 0 29.54                             149    0.3710 77.9  38 
 PAM  SN ES   1   19 0 45.19                             149   -0.75 7 77.9  38 
 PAM  SN I        19 0 47.29         9.8 0.50             47           77.9  38 
 RUS  HZ EP   1   19 0 30.63                             143    0.01 7 99.1 177 
 RUS  HN ES   2   19 0 48.16                             143   -0.36 5 99.1 177 
 RUS  HN I        19 0 52.59         4.8 0.36             47           99.1 177 
 PTB  HZ EP   1   19 0 33.54                             130   -0.58 7  148 259 
 PTB  HN ES   1   19 0 54.18                             130   -0.58 7  148 259 
 PTB  HN I        19 0 59.51        13.3 0.52             47            148 259 
 ZAR  HE ES   1   19 1  4.94                             120    0.07 6  205 292 
 ZAR  HE I        19 1 13.33        18.6 0.14             37            205 292 
 SML  HZ EP   2   19 0 43.04                             116   -1.05 4  245 335 
 SML  HN I        19 1 15.98        17.9 0.24             37            245 335 
 CHI  HZ EP   1   19 0 45.37                             116    0.52 6  247 195 
 CHI  HN I        19 1 18.17         3.5 0.26             37            247 195 
                                                                                
