 2010  615 1551 51.6 L   6.828 -73.016138.6  RSN  4 0.5 1.5LRSN                1
 GAP=179        0.79       9.1    39.4 11.2 -0.2562E+03  0.6870E+01 -0.5074E+01E
 Epicentro: CEPITA - SANTANDER                                                 3
 ACTION:UP  10-08-24 10:10 OP:vdl  STATUS:               ID:20100615155151 L   I
 2010-06-15-1547-05S.COL___114                                                 6
 STAT SP IPHASW D HRMM SECON CODA AMPLIT PERI AZIMU VELO SNR AR TRES W  DIS CAZ7
 BAR2 SZ EP   1   1552 10.51                             167    -0.1 7   32 215 
 BAR2 SZ ES   2   1552 24.99                             167    -0.4 5   32 215 
 RUS  HZ EP   1   1552 14.69                             142    -0.2 7  104 184 
 RUS  HZ I        1552 15.31         3.8 0.35                           104 184 
 RUS  HN ES   2   1552 33.25                             142     0.2 5  104 184 
 GUE  SZ EP   1   1552 15.74                             139     0.5 7  111   5 
 CHI  HZ EP   1   1552 29.11                             115    -0.6 6  256 198 
 CHI  HE ES   2   1553  0.34                             115     0.9 4  256 198 
 CHI  HZ I        1553  5.24         2.6 0.33                           256 198 
                                                                                
