 2016  415 1720  6.3 L   6.804 -73.135146.7  RSN  6 0.3 1.9LRSN                1
 GAP=138        0.74       3.4     3.4  5.4 -0.1485E+01  0.6709E+01 -0.1914E+01E
 Epicentro: LOS SANTOS - SANTANDER                                             3
 ACTION:UPD 16-05-05 14:21 OP:rebc STATUS:               ID:20160415172006 L   I
 OLDACT:REG 16-04-15 19:07 OP:ar   STATUS:               ID:20160415171743     3
 2016-04-15-1717-43M.COL___319                                                 6
 STAT SP IPHASW D HRMM SECON CODA AMPLIT PERI AZIMU VELO AIN AR TRES W  DIS CAZ7
 BAR2 EZ IP     C 1720 26.19                             170    0.1510 24.0 193 
 BAR2 EZ ES       1720 41.74                             170    0.2810 24.0 193 
 BAR2 EZ I        1720 42.44         7.0 0.40            169           24.0 193 
 PAM  EZ EP     C 1720 28.78                             151    0.2410 76.3  39 
 PAM  EZ I        1720 29.24        28.2 0.22            154           76.3  39 
 PAM  EN ES       1720 45.52                             151   -0.3810 76.3  39 
 RUS  HZ EP       1720 30.26                             144    0.1110  101 177 
 RUS  HN ES       1720 48.69                             144   -0.0810  101 177 
 RUS  HZ I        1720 50.12         8.7 0.24            145            101 177 
 PTB  HZ EP       1720 33.02                             132   -0.42 9  149 259 
 PTB  HN ES       1720 54.20                             132   -0.43 9  149 259 
 PTB  HZ I        1720 56.56         5.9 0.16            131            149 259 
 SPBC HZ EP       1720 34.71                             129   -0.25 9  164 219 
 SPBC HE ES       1720 57.59                             129    0.27 9  164 219 
 SPBC HZ I        1721  2.28        10.8 0.32            129            164 219 
 ZAR  HZ EP       1720 39.09                             122    0.20 9  205 292 
 ZAR  HN ES       1721  4.68                             122    0.35 9  205 292 
 ZAR  HZ I        1721 10.46        10.4 0.30            122            205 292 
                                                                                
