 2012 1015 1320 52.9 L   6.772 -73.123139.2  RSN 11 0.3 2.5LRSN                1
 GAP= 73        0.62       3.1     3.2  4.2  0.9014E+00  0.4065E+01  0.3496E+01E
 Epicentro: LOS SANTOS - SANTANDER                                             3
 ACTION:UPD 12-11-22 17:04 OP:ep   STATUS:               ID:20121015132052 L   I
 2012-10-15-1320-00M.COL___229                                                 6
 STAT SP IPHASW D HRMM SECON CODA AMPLIT PERI AZIMU VELO AIN AR TRES W  DIS CAZ7
 BAR2 SZ EP   1   1321 11.56                             171   -0.11 7 21.0 198 
 BAR2 SZ ES   1   1321 25.98                             171   -0.34 7 21.0 198 
 BAR2 SZ I        1321 27.55        82.2 0.12                          21.0 198 
 GIR2 SZ EP   1   1321 11.67                             165   -0.20 7 34.8 347 
 GIR2 SZ ES   1   1321 26.60                             165   -0.08 7 34.8 347 
 BRR  HZ EP   1   1321 13.65                             150    0.11 7 74.9 300 
 BRR  HN ES   1   1321 30.32                             150    0.67 7 74.9 300 
 BRR  HZ I        1321 31.61        55.8 0.14                          74.9 300 
 PAM  SZ EP   1   1321 14.46                             149    0.01 7 78.2  37 
 PAM  SZ I        1321 14.81        57.5 0.24                          78.2  37 
 PAM  SN ES   1   1321 31.21                             149   -0.06 7 78.2  37 
 RUS  HZ EP   1   1321 15.58                             143   -0.17 7 97.4 177 
 RUS  HN ES   1   1321 33.72                             143    0.13 7 97.4 177 
 RUS  HN I        1321 35.70        62.8 0.26                          97.4 177 
 TAM  HZ EP   1   1321 19.92                             130    0.18 7  152 104 
 TAM  HZ I        1321 20.08        53.2 0.20                           152 104 
 ZAR  HZ EP   1   1321 24.93                             120   -0.34 6  208 293 
 ZAR  HN ES   1   1321 50.62                             120    0.08 6  208 293 
 CHI  HZ EP   1   1321 30.01                             116    0.04 6  246 196 
 CHI  HN ES   1   1321 58.94                             116    0.04 6  246 196 
 CHI  HN I        1322  4.48        13.8 0.48                           246 196 
 HEL  HZ EP   1   1321 33.66                             113    0.70 6  274 257 
 HEL  HE ES   1   1322  3.51                             113   -0.71 6  274 257 
 HEL  HN I        1322  9.83        11.4 0.36                           274 257 
 RREF HZ EP   1   1321 39.32                             110    0.58 5  322 230 
 DBB  SZ EP   1   1321 39.84                             108   -0.58 5  342 275 
 DBB  SZ I        1322 19.15        12.9 0.59                           342 275 
                                                                                
