 2017 1115 1219 23.4 L   6.865 -73.116144.0  RSN  4 0.4 1.2LRSN                1
 GAP=248        1.02      10.8     8.0 10.0  0.5777E+02  0.4129E+01 -0.2349E+02E
 Epicentro: LOS SANTOS - SANTANDER                                             3
 ACTION:UPD 17-12-12 19:55 OP:rebc STATUS:               ID:20171115121923 L   I
 OLDACT:REG 17-11-15 21:12 OP:lv   STATUS:               ID:20171115121744     3
 2017-11-15-1218-00M.COL___435                                                 6
 STAT SP IPHASW D HRMM SECON CODA AMPLIT PERI AZIMU VELO AIN AR TRES W  DIS CAZ7
 BAR2 EZ EP       1219 42.64                             167   -0.3210 31.0 194 
 BAR2 EZ ES       1219 58.06                             167   -0.1810 31.0 194 
 BAR2 EZ I        1220  2.09         6.9 0.63            167           31.0 194 
 RUS  HZ EP       1219 47.54                             141    0.0810  108 178 
 RUS  HN ES       1220  6.78                             141    0.5310  108 178 
 RUS  HZ I        1220  8.56         1.3 0.44            144            108 178 
 PTB  HZ EP       1219 50.51                             131   -0.11 9  152 256 
 PTB  HN ES       1220 11.30                             131   -0.58 9  152 256 
 PTB  HZ I        1220 14.36         1.7 0.40            133            152 256 
 ZAR  HN ES       1220 21.68                             122    0.69 9  205 290 
                                                                                
