 2010  415 1400 29.1 L   6.942 -73.061159.9  RSN  4 0.4 2.1LRSN                1
 GAP=254        0.84       8.4     9.7 12.5  0.3187E+02  0.3027E+02  0.2033E+02E
 Epicentro: PIEDECUESTA - SANTANDER                                            3
 ACTION:UPD 10-08-24 09:59 OP:vdl  STATUS:               ID:20100415140029 L   I
 2010-04-15-1359-21S.COL___100                                                 6
 STAT SP IPHASW D HRMM SECON CODA AMPLIT PERI AZIMU VELO AIN AR TRES W  DIS CAZ7
 BAR2 SZ EP       14 0 50.56                             165    -0.310   41 199 
 BRR  HZ EP   1   14 0 52.65                             154     0.7 7   74 284 
 BRR  HZ I        14 0 52.97        23.5 0.32                            74 284 
 BRR  HN ES   1   14 1  9.83                             154     0.0 7   74 284 
 RREF BZ EP   2   14 1 18.00                             112     0.2 3  339 228 
 RREF BE ES   1   14 1 55.83                             112     0.0 5  339 228 
 RREF BZ I        14 2  0.34         6.1 0.25                           339 228 
 MON  HE ES       14 1 56.66                             111    -0.3 6  351 305 
 MON  HZ I        14 2 11.60         4.1 0.61                           351 305 
                                                                                
