 2011 1015 1049  2.4 L   6.753 -73.088135.4  RSN  4 0.1 1.6LRSN                1
 GAP=146        0.39       2.6     3.8  4.1  0.1945E+00  0.2485E+00 -0.1692E+00E
 Epicentro: LOS SANTOS - SANTANDER                                             3
 ACTION:UPD 12-07-13 16:04 OP:ep   STATUS:               ID:20111015104902 L   I
 2011-10-15-1046-24S.COL___168                                                 6
 STAT SP IPHASW D HRMM SECON CODA AMPLIT PERI AZIMU VELO AIN AR TRES W  DIS CAZ7
 BAR2 SZ EP   1   1049 20.71                             171   -0.06 7 20.7 210 
 BAR2 SZ ES   1   1049 35.09                             171    0.03 7 20.7 210 
 BAR2 SZ I        1049 37.56        15.2 0.20                          20.7 210 
 PAM  SZ EP   1   1049 23.74                             149    0.16 7 77.7  33 
 PAM  SN ES   1   1049 39.99                             149   -0.08 7 77.7  33 
 BRR  HZ EP       1049 22.80                             148   -0.1810 79.3 300 
 BRR  HN ES   1   1049 39.17                             148    0.17 7 79.3 300 
 BRR  HZ I        1049 44.43         9.3 0.13                          79.3 300 
 RUS  HZ EP   1   1049 25.01                             143    0.23 7 95.2 180 
 RUS  HN ES   1   1049 42.09                             143   -0.12 7 95.2 180 
 RUS  HZ I        1049 44.85         3.7 0.49                          95.2 180 
                                                                                
