 2017  415 1315 19.4 L   6.847 -73.147150.0  RSN  4 0.4 1.4LRSN                1
 GAP=257        0.92       8.5     6.3  8.8  0.8338E+01  0.2027E+02  0.7592E+01E
 Epicentro: LOS SANTOS - SANTANDER                                             3
 ACTION:UPD 17-05-30 21:12 OP:jn   STATUS:               ID:20170415131519 L   I
 OLDACT:REG 17-04-15 17:35 OP:cog  STATUS:               ID:20170415130739     3
 2017-04-15-1308-00M.COL___374                                                 6
 STAT SP IPHASW D HRMM SECON CODA AMPLIT PERI AZIMU VELO AIN AR TRES W  DIS CAZ7
 BAR2 EZ EP       1315 39.38                             169   -0.2310 28.4 188 
 BAR2 EZ ES       1315 55.68                             169    0.2810 28.4 188 
 BAR2 EZ I        1316  0.32         5.0 0.46            163           28.4 188 
 PTB  HZ EP       1315 46.34                             133   -0.42 9  149 257 
 PTB  HN ES       1316  7.62                             133   -0.51 9  149 257 
 PTB  HZ I        1316 10.20         2.4 0.22            134            149 257 
 ZAR  HE ES       1316 17.63                             124    0.39 9  202 291 
 NOR  HZ EP       1315 56.20                             119    0.55 8  238 233 
 NOR  HN ES       1316 24.14                             119    0.18 8  238 233 
 NOR  HZ I        1316 29.69         2.5 0.14            121            238 233 
                                                                                
