 2011  415 1656 57.4 L   6.916 -73.113140.0  RSN  8 0.2 2.2LRSN                1
 GAP=138        0.54       3.1     4.5  4.6 -0.2385E+01  0.9939E+00  0.4351E+00E
 Epicentro: PIEDECUESTA - SANTANDER                                            3
 ACTION:UP  11-06-22 15:31 OP:REBC STATUS:               ID:20110415165657 L   I
 2011-04-15-1653-45S.COL___139                                                 6
 STAT SP IPHASW D HRMM SECON CODA AMPLIT PERI AZIMU VELO SNR AR TRES W  DIS CAZ7
 BTL  SZ IP       1657 16.30                             173     0.010   17 271 
 BAR2 SZ EP       1657 16.47                             165    -0.310   37 192 
 BAR2 SZ I        1657 16.79        28.2 0.10                            37 192 
 BAR2 SZ ES   1   1657 32.04                             165     0.3 7   37 192 
 BRR  HZ EP       1657 17.60                             152    -0.310   69 288 
 BRR  HE ES   1   1657 33.91                             152     0.1 7   69 288 
 BRR  HZ I        1657 36.37        24.9 0.14                            69 288 
 GRA  SZ EP       1657 21.24                             139     0.210  112  18 
 GRA  SZ ES   1   1657 39.58                             139     0.1 7  112  18 
 GRA  SZ I        1657 41.29        28.8 0.36                           112  18 
 OCA  SZ EP   1   1657 24.06                             131    -0.1 7  148 351 
 YOP  SZ EP   2   1657 28.17                             123     0.1 4  189 156 
 YOP  SN ES   2   1657 52.07                             123     0.1 4  189 156 
 YOP  SZ I        1657 57.69        10.5 0.45                           189 156 
 HEL  HZ EP   1   1657 38.56                             113     0.4 6  279 253 
 HEL  HZ I        1658 14.87         7.6 0.30                           279 253 
 GUY  SZ EP   1   1657 42.35                             110     0.1 5  314 234 
 GUY  SZ I        1658 22.58        11.9 0.43                           314 234 
                                                                                
