 2012 1015 1141 44.9 L   6.726 -73.113150.0  RSN  4 0.2 1.3LRSN                1
 GAP=235        0.42       7.0     9.5  5.2  0.5615E+02 -0.2648E+01 -0.3375E+01E
 Epicentro: JORDAN - SANTANDER                                                 3
 ACTION:UPD 12-11-22 17:04 OP:ep   STATUS:               ID:20121015114144 L   I
 2012-10-15-1140-00M.COL___230                                                 6
 STAT SP IPHASW D HRMM SECON CODA AMPLIT PERI AZIMU VELO AIN AR TRES W  DIS CAZ7
 BAR2 SZ EP   2   1142  4.42                             173   -0.53 5 16.7 207 
 BAR2 SZ ES   1   1142 20.50                             173   -0.07 7 16.7 207 
 BRR  HZ EP   1   1142  7.09                             151    0.14 7 78.5 302 
 BRR  HZ I        1142  7.53         3.8 0.28                          78.5 302 
 BRR  HE ES   1   1142 24.22                             151    0.09 7 78.5 302 
 RUS  HZ EP   1   1142  8.68                             147    0.16 7 92.2 178 
 RUS  HE ES   1   1142 26.91                             147   -0.02 7 92.2 178 
 RUS  HE I        1142 27.91         3.2 0.22                          92.2 178 
 ZAR  HE ES   2   1142 44.12                             122   -0.25 4  211 294 
                                                                                
