 2016  215 1913 57.3 L   6.824 -73.139152.0  RSN  8 0.5 1.8LRSN                1
 GAP=136        0.94       4.7     4.7  7.2 -0.8743E+00  0.1608E+02  0.7685E+01E
 Epicentro: LOS SANTOS - SANTANDER                                             3
 ACTION:UPD 16-03-04 21:26 OP:rebc STATUS:               ID:20160215191357 L   I
 OLDACT:UP  16-02-16 00:07 OP:ak   STATUS:               ID:20160215190750     3
 OLDACT:REG 16-02-15 21:34 OP:ak   STATUS:               ID:20160215190750     3
 2016-02-15-1907-50M.COL___304                                                 6
 STAT SP IPHASW D HRMM SECON CODA AMPLIT PERI AZIMU VELO AIN AR TRES W  DIS CAZ7
 BAR2 EZ EP   2   1914 17.90                             170    0.19 5 26.0 191 
 BAR2 EZ ES       1914 33.76                             170    0.1110 26.0 191 
 BAR2 EZ I        1914 36.27        12.9 0.20            168           26.0 191 
 BRR  HZ EP   2   1914 19.96                             154    0.88 5 70.7 296 
 BRR  HN ES       1914 36.64                             154    0.5610 70.7 296 
 PAM  EZ EP   2   1914 20.81                             153    0.79 5 74.9  40 
 PAM  EN ES       1914 37.30                             153   -0.4610 74.9  40 
 PAM  EZ I        1914 40.68        11.7 0.52            156           74.9  40 
 RUS  HZ EP   2   1914 22.24                             145    0.41 5  103 177 
 RUS  HN ES       1914 40.94                             145   -0.0310  103 177 
 RUS  HZ I        1914 42.22         7.1 0.22            145            103 177 
 PTB  HZ EP       1914 24.76                             133   -0.11 9  149 258 
 PTB  HN ES       1914 46.35                             133   -0.05 9  149 258 
 PTB  HZ I        1914 47.97         5.3 0.12            134            149 258 
 ZAR  HE ES       1914 55.37                             124   -0.35 9  204 291 
 NOR  HZ EP       1914 32.82                             120   -0.78 8  237 234 
 NOR  HN ES       1915  1.58                             120   -0.36 8  237 234 
 NOR  HZ I        1915 10.40         5.7 0.14            120            237 234 
 GUY2CHZ EP   2   1914 42.27                             114    0.85 4  303 234 
 GUY2CHN ES       1915 16.39                             114    0.54 7  303 234 
 GUY2CHZ I        1915 28.69         3.2 0.46                           303 234 
                                                                                
