 2016  115 1202  6.1 L   6.794 -73.178142.0  RSN  9 0.3 1.9LRSN                1
 GAP=133        0.65       2.4     2.7  4.0 -0.8319E+00  0.3887E+01  0.7348E+00E
 Epicentro: LOS SANTOS - SANTANDER                                             3
 ACTION:UPD 16-03-09 23:25 OP:cam  STATUS:               ID:20160115120206 L   I
 OLDACT:UP  16-01-15 22:16 OP:mh   STATUS:               ID:20160115115747     3
 OLDACT:REG 16-01-15 20:15 OP:mh   STATUS:               ID:20160115115747     3
 2016-01-15-1157-47M.COL___334                                                 6
 STAT SP IPHASW D HRMM SECON CODA AMPLIT PERI AZIMU VELO AIN AR TRES W  DIS CAZ7
 BAR2 EZ EP       12 2 25.25                             171    0.0410 22.3 181 
 BAR2 EZ ES       12 2 40.35                             171    0.2010 22.3 181 
 PAM  EZ EP       12 2 28.15                             149    0.1010 80.3  41 
 PAM  EN ES       12 2 45.16                             149   -0.0410 80.3  41 
 PAM  EZ I        12 2 47.52         9.1 0.46            154           80.3  41 
 RUS  HZ EP       12 2 29.18                             143   -0.2310  100 174 
 RUS  HN ES       12 2 47.69                             143    0.0610  100 174 
 RUS  HZ I        12 2 48.69         7.8 0.18            146            100 174 
 PTB  HZ EP       12 2 31.97                             132   -0.41 9  144 259 
 PTB  HN ES       12 2 52.62                             132   -0.29 9  144 259 
 PTB  HZ I        12 2 59.85        13.6 0.30            132            144 259 
 SPBC HZ EP       12 2 34.09                             129    0.09 9  160 218 
 SPBC HN ES       12 2 55.64                             129   -0.15 9  160 218 
 SPBC HZ I        12 2 58.39        16.6 0.38            130            160 218 
 ZAR  HZ EP       12 2 37.72                             122   -0.22 9  201 293 
 ZAR  HN ES       12 3  3.09                             122    0.29 9  201 293 
 ZAR  HZ I        12 3 10.54         8.9 0.26            123            201 293 
 NOR  HZ EP   1   12 2 40.85                             118   -0.36 6  231 234 
 NOR  HE ES       12 3  9.01                             118    0.39 8  231 234 
 NOR  HZ I        12 3 11.47         8.0 0.16            120            231 234 
 CHI  HZ EP       12 2 43.45                             116    0.08 8  247 194 
 CHI  HE ES       12 3 12.35                             116   -0.13 8  247 194 
 CHI  HZ I        12 3 17.73         3.9 0.32            119            247 194 
 GUY2CHZ EP       12 2 49.88                             112    0.77 7  298 234 
 GUY2CHN ES   4   12 3 24.83                             112    2.14 0  298 234 
 GUY2CHZ I        12 3 35.17         3.3 0.34                           298 234 
                                                                                
