 2016  515 1420 31.9 L   6.742 -73.155138.0  RSN  8 0.4 1.6LRSN                1
 GAP=232        0.89       4.8     6.3  9.0 -0.4656E+00 -0.4111E+01  0.1553E+02E
 Epicentro: LOS SANTOS - SANTANDER                                             3
 ACTION:UPD 16-08-18 17:46 OP:cam  STATUS:               ID:20160515142031 L   I
 OLDACT:REG 16-05-15 20:31 OP:ak   STATUS:               ID:20160515141749     3
 2016-05-15-1417-49M.COL___289                                                 6
 STAT SP IPHASW D HRMM SECON CODA AMPLIT PERI AZIMU VELO AIN AR TRES W  DIS CAZ7
 BAR2 EZ EP       1420 50.17                             173   -0.3210 16.8 190 
 BRR  HZ EP       1420 52.18                             150   -0.1910 73.7 303 
 BRR  HN ES       1421  8.97                             150    0.6410 73.7 303 
 BRR  HZ I        1421 11.28         5.7 0.47            146           73.7 303 
 RUS  HE ES   2   1421 11.84                             144   -0.17 5 94.2 175 
 PTB  HZ EP   4   1420 56.75                             131   -1.31 0  146 261 
 PTB  HN ES       1421 17.68                             131   -0.78 9  146 261 
 PTB  HZ I        1421 19.93         3.0 0.14            128            146 261 
 SPBC HZ EP   2   1420 59.27                             128   -0.01 5  158 220 
 SPBC HE ES       1421 20.84                             128    0.21 9  158 220 
 SPBC HZ I        1421 24.21         6.5 0.18            127            158 220 
 ZAR  HZ EP   2   1421  4.39                             121    0.36 4  206 294 
 ZAR  HN ES   1   1421 29.26                             121    0.18 6  206 294 
 ZAR  HZ I        1421 35.35         4.1 0.28            118            206 294 
 NOR  HE ES   2   1421 33.87                             117    0.02 4  230 236 
 PRA  HZ EP       1421 24.71                             106    0.25 6  386 210 
 PRA  HE ES       1422  5.99                             106    0.55 6  386 210 
 PRA  HZ I        1422  9.81         1.1 0.42            105            386 210 
                                                                                
