 2013 1015 1223 44.5 L   6.801 -73.153150.2  RSN 21 0.4 3.6LRSN 3.8WRSN        1
 SPEC AVERAGE  MO 14.8 ST240.3 OM  3.3 f0 5.95 R0.4294 AL 0.00 WI 29.0 MW  3.8 3
 SPEC SD       MO  0.2 ST265.6 OM  0.4 f0 3.37 R0.3448 AL      WI      MW  0.1 3
 GAP= 65        0.97       2.5     2.9  4.6 -0.6492E+00  0.1715E+01  0.2070E+01E
 Epicentro: LOS SANTOS - SANTANDER                                             3
 SPEC SJC HH N MO 14.7 ST 40.1 OM  2.7 f0 3.98 R0.3905 AL 0.00 WI 29.4 MW  3.8 3
 SPEC SJC HH N T122518 K 0.000 GD  435 VS 4.20 DE 3.20 Q0300.0 QA 0.60 VS 4.20 3
 SPEC ORTCHH E MO 15.0 ST 35.2 OM  3.0 f0 3.06 R0.5078 AL 0.00 WI 43.4 MW  4.0 3
 SPEC ORTCHH E T122521 K 0.000 GD  422 VS 4.20 DE 3.20 Q0300.0 QA 0.60 VS 4.20 3
 SPEC CHI HH N MO 14.9 ST 28.8 OM  3.0 f0 3.24 R0.4796 AL 0.00 WI 29.4 MW  3.9 3
 SPEC CHI HH N T122450 K 0.000 GD  290 VS 4.20 DE 3.20 Q0300.0 QA 0.60 VS 4.20 3
 SPEC SML HH N MO 14.6 ST416.8 OM  2.7 f0 10.0 R0.1554 AL 0.00 WI 29.9 MW  3.6 3
 SPEC SML HH N T122450 K 0.000 GD  285 VS 4.20 DE 3.20 Q0300.0 QA 0.60 VS 4.20 3
 SPEC NOR HH N MO 14.7 ST642.9 OM  2.9 f0 10.0 R0.1554 AL 0.00 WI 28.2 MW  3.8 3
 SPEC NOR HH N T122447 K 0.000 GD  278 VS 4.20 DE 3.20 Q0300.0 QA 0.60 VS 4.20 3
 SPEC ZAR HH E MO 14.8 ST469.2 OM  3.0 f0 8.61 R0.1805 AL 0.00 WI 37.0 MW  3.8 3
 SPEC ZAR HH E T122438 K 0.000 GD  252 VS 4.20 DE 3.20 Q0300.0 QA 0.60 VS 4.20 3
 SPEC SPBCHH N MO 14.8 ST812.3 OM  3.1 f0 10.0 R0.1554 AL 0.00 WI 31.1 MW  3.8 3
 SPEC SPBCHH N T122434 K 0.000 GD  221 VS 4.20 DE 3.20 Q0300.0 QA 0.60 VS 4.20 3
 SPEC OCA HH N MO 14.5 ST403.1 OM  2.8 f0 10.0 R0.1554 AL 0.00 WI 46.4 MW  3.6 3
 SPEC OCA HH N T122435 K 0.000 GD  219 VS 4.20 DE 3.20 Q0300.0 QA 0.60 VS 4.20 3
 SPEC TAM HH N MO 15.2 ST  3.7 OM  3.5 f0 1.23 R1.2634 AL 0.00 WI 22.9 MW  4.1 3
 SPEC TAM HH N T122432 K 0.000 GD  216 VS 4.20 DE 3.20 Q0300.0 QA 0.60 VS 4.20 3
 SPEC PTB HH N MO 14.5 ST110.0 OM  2.8 f0 6.58 R0.2362 AL 0.00 WI 29.4 MW  3.6 3
 SPEC PTB HH N T122431 K 0.000 GD  210 VS 4.20 DE 3.20 Q0300.0 QA 0.60 VS 4.20 3
 SPEC RUS HH N MO 14.7 ST  7.2 OM  3.0 f0 2.39 R0.6502 AL 0.00 WI 23.5 MW  3.7 3
 SPEC RUS HH N T122426 K 0.000 GD  181 VS 4.20 DE 3.20 Q0300.0 QA 0.60 VS 4.20 3
 SPEC PAM SH N MO 15.0 ST  4.3 OM  3.4 f0 1.52 R1.0224 AL 0.00 WI 10.0 MW  4.0 3
 SPEC PAM SH N T122424 K 0.000 GD  169 VS 4.20 DE 3.20 Q0300.0 QA 0.60 VS 4.20 3
 SPEC BRR HH E MO 14.6 ST149.8 OM  3.0 f0 6.77 R0.2295 AL 0.00 WI 17.0 MW  3.7 3
 SPEC BRR HH E T122421 K 0.000 GD  165 VS 4.20 DE 3.20 Q0300.0 QA 0.60 VS 4.20 3
 ACTION:UPD 13-11-25 09:21 OP:ep   STATUS:               ID:20131015122344 L   I
 OLDACT:UP  13-10-15 15:55 OP:cam  STATUS:               ID:20131015121959     3
 OLDACT:REG 13-10-15 15:07 OP:cam  STATUS:               ID:20131015121959     3
 2013-10-15-1219-59M.COL___274                                                 6
 STAT SP IPHASW D HRMM SECON CODA AMPLIT PERI AZIMU VELO AIN AR TRES W  DIS CAZ7
 BAR2 SZ IP     C 1224  4.73                             171    0.0210 23.3 188 
 BAR2 SZ ES       1224 20.03                             171   -0.4010 23.3 188 
 BAR2 SZ I        1224 22.48      1670.4 0.26            168           23.3 188 
 BRR  HZ IP     C 1224  6.60                             153    0.4710 70.4 299 
 BRR  HE ES       1224 24.02                             153    1.0510 70.4 299 
 BRR  HZ I        1224 27.97       736.0 0.22            154           70.4 299 
 PAM  SZ IP     C 1224  7.49                             151    0.2310 77.8  40 
 PAM  SN ES       1224 24.81                             151   -0.1610 77.8  40 
 PAM  SZ I        1224 26.95       768.0 0.52            147           77.8  40 
 RUS  HZ IP     D 1224  8.59                             145   -0.1610  101 176 
 RUS  HN ES       1224 27.26                             145   -0.3610  101 176 
 RUS  HZ I        1224 28.62       368.5 0.24            139            101 176 
 PTB  HZ EP       1224 11.25                             133   -0.56 9  147 259 
 PTB  HN ES       1224 32.63                             133   -0.45 9  147 259 
 PTB  HZ I        1224 36.17       376.5 0.36            131            147 259 
 TAM  HZ IP     D 1224 12.91                             131    0.26 9  156 105 
 TAM  HZ I        1224 33.79       313.2 0.38            125            156 105 
 TAM  HN ES       1224 34.75                             131    0.18 9  156 105 
 OCA  HZ EP       1224 12.79                             131   -0.39 9  160 353 
 OCA  HN ES       1224 34.96                             131   -0.56 9  160 353 
 OCA  HZ I        1224 39.84       487.1 0.42            127            160 353 
 SPBC HZ EP       1224 13.54                             130    0.19 9  163 219 
 SPBC HN ES       1224 35.91                             130    0.09 9  163 219 
 SPBC HZ I        1224 42.60       788.0 0.30            126            163 219 
 YOP  SZ IP     D 1224 15.19                             127    0.23 9  179 153 
 YOP  SZ I        1224 44.53       144.6 0.38            122            179 153 
 ZAR  HZ EP   2   1224 17.43                             123    0.23 4  203 292 
 ZAR  HE ES   1   1224 42.83                             123    0.15 6  203 292 
 ZAR  HZ I        1224 48.17       358.8 0.34            121            203 292 
 AGZ  SZ EP   4   1224 18.66                             121   -0.26 0  220 160 
 NOR  HZ EP       1224 20.53                             119    0.05 8  234 234 
 NOR  HN ES       1224 48.29                             119   -0.21 8  234 234 
 NOR  HZ I        1224 52.48       316.0 0.60            116            234 234 
 SML  HZ EP   1   1224 20.95                             118   -0.43 6  243 335 
 SML  HN ES   1   1224 51.00                             118    0.90 6  243 335 
 SML  HZ I        1224 54.96       479.9 0.26            115            243 335 
 CHI  HZ EP       1224 22.29                             118   -0.19 8  249 195 
 CHI  HN ES       1224 52.08                             118    0.00 8  249 195 
 CHI  HZ I        1224 55.89       216.4 0.42            114            249 195 
 ROSC BZ EP   4   1224 24.37                             118    1.49 0  252 211 
 HEL  HZ EP   4   1224 26.38                             116    1.47 0  271 256 
 HEL  HE ES   4   1224 58.58                             116    2.19 0  271 256 
 HEL  HZ I        1225  3.01       202.4 0.34            113            271 256 
 URE  HZ EP   2   1224 24.58                             114   -1.17 4  283 292 
 GUY2CHZ EP   4   1224 28.67                             113    0.37 0  301 235 
 GUY2CHN ES   4   1225  3.55                             113    1.13 0  301 235 
 GUY2CHZ I        1225 11.27       276.5 0.32                           301 235 
 VIL  SN EP   2   1224 28.54                             113    0.38 4  303 191 
 RREF HZ EP   1   1224 30.66                             112   -0.16 5  321 229 
 CBOC HZ EP   4   1224 32.37                             111    0.80 0  333 252 
 COD  HZ EP   4   1224 31.94                             110   -1.14 0  348 355 
 ARGC HZ EP   4   1224 34.81                             109    0.48 0  359 340 
 PRA  HZ EP   1   1224 37.65                             107   -0.54 4  392 209 
 ORTC HZ EP       1224 38.78                             107    0.20 6  395 216 
 ORTC HE ES       1225 21.75                             107    1.03 6  395 216 
 ORTC HZ I        1225 28.13       225.7 0.42            104            395 216 
 SJC  HZ EP   4   1224 38.34                             106   -1.85 0  409 327 
 SJC  HN ES   4   1225 20.11                             106   -3.49 0  409 327 
 SJC  HZ I        1225 24.50        65.3 0.44            104            409 327 
                                                                                
