 2016  715 1541 39.2 L   6.544 -73.578102.0  RSN  6 0.5 1.6LRSN                1
 GAP= 96        1.37       7.0     6.1 11.7 -0.3945E+01  0.1947E+02 -0.7728E+01E
 Epicentro: EL CARMEN - SANTANDER                                              3
 ACTION:UPD 17-03-29 16:51 OP:lp   STATUS:               ID:20160715154139 L   I
 OLDACT:UP  16-07-15 23:57 OP:dani STATUS:               ID:20160715153759     3
 OLDACT:UP  16-07-15 23:57 OP:dani STATUS:               ID:20160715153759     3
 OLDACT:UP  16-07-15 23:51 OP:dani STATUS:               ID:20160715153759     3
 OLDACT:UP  16-07-15 23:50 OP:dani STATUS:               ID:20160715153759     3
 OLDACT:UP  16-07-15 23:50 OP:dani STATUS:               ID:20160715153759     3
 OLDACT:UP  16-07-15 23:50 OP:dani STATUS:               ID:20160715153759     3
 OLDACT:REG 16-07-15 20:29 OP:dani STATUS:               ID:20160715153759     3
 2016-07-15-1537-59S.COL___331                                                 6
 STAT SP IPHASW D HRMM SECON CODA AMPLIT PERI AZIMU VELO AIN AR TRES W  DIS CAZ7
 BAR2 EZ EP       1541 54.45                             155   -0.0410 44.0  83 
 BAR2 EZ ES       1542  6.67                             155    0.2910 44.0  83 
 BAR2 EZ I        1542  8.37        36.5 0.50            159           44.0  83 
 BRR  HZ EP       1541 55.36                             145   -0.0110 64.1 347 
 RUS  HZ EP       1541 57.48                             135   -0.6410 90.4 143 
 RUS  HN ES   4   1542  9.62                             135   -3.22 0 90.4 143 
 PTB  HZ EP       1541 57.24                             133   -0.8210 97.2 270 
 PTB  HN ES       1542 12.37                             133   -0.3710 97.2 270 
 PTB  HZ I        1542 13.32         7.0 0.28            134           97.2 270 
 SPBC HZ EP       1541 59.98                             128    0.3710  113 209 
 SPBC HE ES       1542 15.97                             128    0.4710  113 209 
 SPBC HZ I        1542 18.81         7.3 0.10            131            113 209 
 ZAR  HZ EP       1542  7.12                             115    0.98 9  176 307 
 ZAR  HE ES   4   1542 29.17                             115    2.06 0  176 307 
 ZAR  HZ I        1542 31.06         4.3 0.50            117            176 307 
                                                                                
