 2011  915 1905 19.1 L   6.788 -73.098141.3  RSN  5 0.2 1.6LRSN                1
 GAP=143        0.56       3.6     5.3  5.9 -0.3769E+00 -0.1855E+01  0.1325E+01E
 Epicentro: LOS SANTOS - SANTANDER                                             3
 ACTION:UPD 12-07-13 15:57 OP:ep   STATUS:               ID:20110915190519 L   I
 2011-09-15-1902-05S.COL___169                                                 6
 STAT SP IPHASW D HRMM SECON CODA AMPLIT PERI AZIMU VELO AIN AR TRES W  DIS CAZ7
 BAR2 SZ EP       19 5 38.21                             170    0.0010 23.6 203 
 BAR2 SZ I        19 5 38.54        14.1 0.36                          23.6 203 
 BAR2 SZ ES   2   19 5 52.69                             170   -0.42 5 23.6 203 
 GIR2 SZ EP       19 5 38.05                             166   -0.2810 33.8 342 
 PAM  SZ EP       19 5 41.05                             151    0.3310 75.2  36 
 PAM  SN ES   1   19 5 57.49                             151   -0.09 7 75.2  36 
 BRR  HZ EP       19 5 39.90                             150   -0.1910 76.5 298 
 BRR  HN ES   1   19 5 56.78                             150    0.32 7 76.5 298 
 RUS  HZ EP       19 5 42.38                             143    0.0710 99.0 179 
 RUS  HE ES   1   19 6  0.52                             143    0.11 7 99.0 179 
 RUS  HZ I        19 6  2.32         4.5 0.28                          99.0 179 
                                                                                
