 2016  415 1739 16.5 L   6.793 -73.159145.0  RSN 11 0.3 2.1LRSN                1
 GAP=135        0.73       2.1     2.9  4.3 -0.1524E+01  0.4345E+01  0.1682E+00E
 Epicentro: LOS SANTOS - SANTANDER                                             3
 ACTION:UPD 16-05-05 14:21 OP:rebc STATUS:               ID:20160415173916 L   I
 OLDACT:REG 16-04-15 19:07 OP:ar   STATUS:               ID:20160415173745     3
 2016-04-15-1737-45M.COL___316                                                 6
 STAT SP IPHASW D HRMM SECON CODA AMPLIT PERI AZIMU VELO AIN AR TRES W  DIS CAZ7
 BAR2 EZ IP       1739 35.99                             171   -0.0710 22.4 187 
 BAR2 EZ ES       1739 51.46                             171    0.1810 22.4 187 
 BAR2 EZ I        1739 53.36        22.2 0.20            170           22.4 187 
 PAM  EZ EP     C 1739 38.62                             150   -0.1410 78.9  40 
 PAM  EN ES       1739 56.17                             150    0.0810 78.9  40 
 PAM  EZ I        1739 58.39        19.1 0.64            154           78.9  40 
 RUS  HZ EP       1739 39.92                             144   -0.2510 99.9 175 
 RUS  HN ES       1739 58.43                             144   -0.1710 99.9 175 
 RUS  HZ I        1740  0.13         9.5 0.18            148           99.9 175 
 PTB  HZ EP     C 1739 43.02                             132   -0.28 9  146 259 
 PTB  HN ES       1740  3.99                             132   -0.19 9  146 259 
 PTB  HZ I        1740 11.21        25.0 0.42            132            146 259 
 OCA  HZ EP       1739 45.13                             129    0.29 9  161 354 
 OCA  HN ES       1740  6.97                             129    0.05 9  161 354 
 OCA  HZ I        1740 13.67        29.9 0.16            131            161 354 
 SPBC HZ EP       1739 44.89                             129    0.05 9  162 219 
 SPBC HN ES       1740  7.02                             129    0.11 9  162 219 
 SPBC HZ I        1740 10.88        25.9 0.28            131            162 219 
 ZAR  HZ EP       1739 48.13                             122   -0.70 9  203 292 
 ZAR  HN ES       1740 14.44                             122    0.43 9  203 292 
 ZAR  HZ I        1740 22.01        15.7 0.46            123            203 292 
 NOR  HZ EP       1739 52.00                             118   -0.05 8  233 234 
 NOR  HN ES       1740 19.29                             118   -0.46 8  233 234 
 NOR  HZ I        1740 24.63         8.0 0.22            120            233 234 
 CHI  HZ IP       1739 54.34                             117    0.26 8  248 195 
 CHI  HE ES       1740 23.67                             117    0.32 8  248 195 
 CHI  HZ I        1740 31.34         4.2 0.34            120            248 195 
 URE  HZ EP   4   1739 59.09                             113    1.64 0  283 292 
 URE  HN ES   4   1740 27.85                             113   -1.52 0  283 292 
 URE  HZ I        1740 37.17         7.6 0.18            115            283 292 
 GUY2CHZ EP       1740  0.61                             112    0.68 7  300 235 
 GUY2CHE ES       1740 34.12                             112    0.34 7  300 235 
 GUY2CHZ I        1740 40.87         5.1 0.30                           300 235 
                                                                                
