 2010 1215 1202 44.5 L   6.800 -73.140140.6  RSN 16 0.5 3.5LRSN                1
 GAP=103        1.04       3.5     5.0  6.1 -0.4974E+01  0.7246E+01  0.2575E+01E
 Epicentro: LOS SANTOS - SANTANDER                                             3
 ACTION:UP  11-01-14 15:25 OP:pat  STATUS:               ID:20101215120244 L   I
 2010-12-15-1201-01S.COL___137                                                 6
 STAT SP IPHASW D HRMM SECON CODA AMPLIT PERI AZIMU VELO SNR AR TRES W  DIS CAZ7
 BTL  SZ IP       12 3  3.54                             172     0.110   19 313 
 BAR2 SZ IP       12 3  3.54                             170     0.110   24 192 
 BAR2 SZ ES   1   12 3 18.12                             170    -0.2 7   24 192 
 BAR2 SZ I        12 3 20.89       847.5 0.36                            24 192 
 GIR2 SZ IP       12 3  3.65                             167     0.110   31 349 
 GIR2 SZ ES   1   12 3 17.99                             167    -0.4 7   31 349 
 RUS  HZ EP   1   12 3  7.47                             143    -0.2 7  101 176 
 RUS  HE ES   1   12 3 25.94                             143     0.1 7  101 176 
 RUS  HZ I        12 3 27.54       463.7 0.37                           101 176 
 GRA  SZ IP       12 3  9.55                             136     0.310  126  17 
 GRA  SZ ES   1   12 3 29.20                             136     0.6 7  126  17 
 GRA  SZ I        12 3 31.21       275.6 0.72                           126  17 
 OCA  SZ EP       12 3 12.28                             128    -0.1 9  160 353 
 OCA  SZ ES   1   12 3 33.57                             128    -0.6 7  160 353 
 OCA  SZ I        12 3 41.69       271.8 0.38                           160 353 
 YOP  SZ EP       12 3 14.28                             125     0.2 9  179 153 
 YOP  SZ I        12 3 38.80       250.1 0.39                           179 153 
 NOR  SZ EP   1   12 3 19.52                             117    -0.4 6  235 235 
 NOR  SE ES   1   12 3 47.39                             117    -0.3 6  235 235 
 CHI  HZ EP   1   12 3 21.93                             116     0.0 6  249 195 
 CHI  HE ES   1   12 3 50.33                             116    -0.8 6  249 195 
 CHI  HZ I        12 4  0.51       125.7 0.44                           249 195 
 ROSC BZ EP   1   12 3 23.39                             115     1.0 6  253 211 
 ROSC BZ I        12 4  0.01       268.7 0.47                           253 211 
 HEL  HZ EP   1   12 3 24.07                             114    -0.4 6  273 256 
 HEL  HN ES   1   12 3 56.23                             114     0.5 6  273 256 
 HEL  HZ I        12 4  2.66       157.0 0.27                           273 256 
 RREF HZ EP       12 3 30.89                             110     0.5 7  322 229 
 RREF HZ I        12 4 15.71       109.5 0.49                           322 229 
 DBB  SZ EP       12 3 32.11                             108     0.3 7  340 274 
 DBB  SZ ES   1   12 4  8.09                             108    -0.6 5  340 274 
 DBB  SZ I        12 4 12.33        43.5 0.39                           340 274 
 SDV  BZ EP       12 3 33.60                             107    -0.7 6  360  50 
 SDV  BZ I        12 4 15.44       124.8 0.76                           360  50 
 PRA  HZ EP   1   12 3 37.14                             106    -0.7 4  392 210 
 PRA  HN ES   1   12 4 20.54                             106     1.1 4  392 210 
 PRA  HZ I        12 4 26.70       168.5 0.47                           392 210 
 SJA  SZ EP   1   12 3 37.76                             105    -1.1 4  400 193 
 SJA  SZ I        12 4 24.36       203.7 0.58                           400 193 
                                                                                
