 2010 1015 1325  1.2 L   6.774 -73.158144.6  RSN  7 0.3 1.7LRSN                1
 GAP=157        0.57       3.9     9.8  7.0 -0.3030E+01 -0.4138E+01 -0.1421E+02E
 Epicentro: LOS SANTOS - SANTANDER                                             3
 ACTION:UP  11-02-18 11:09 OP:tino STATUS:               ID:20101015132501 L   I
 2010-10-15-1321-41S.COL___125                                                 6
 STAT SP IPHASW D HRMM SECON CODA AMPLIT PERI AZIMU VELO SNR AR TRES W  DIS CAZ7
 BTL  SZ EP   2   1325 21.05                             171     0.4 5   20 323 
 BAR2 SZ EP       1325 20.44                             171    -0.210   20 188 
 BAR2 SZ ES   1   1325 35.60                             171    -0.2 7   20 188 
 BRR  HZ EP       1325 22.36                             152     0.110   71 301 
 BRR  HZ I        1325 27.66        20.9 0.04                            71 301 
 RUS  HZ EP       1325 24.66                             144     0.010   98 175 
 RUS  HN ES   1   1325 43.13                             144     0.2 7   98 175 
 RUS  HZ I        1325 44.58         4.9 0.37                            98 175 
 GUE  SZ EP       1325 26.18                             138     0.110  120  12 
 GRA  SZ EP       1325 26.31                             136    -0.310  129  18 
 GRA  SZ I        1325 47.04         4.3 0.37                           129  18 
 CHI  HZ EP   3   1325 38.47                             117     0.0 2  246 195 
 CHI  HZ I        1325 39.54         3.2 0.40                           246 195 
 CHI  HE ES   3   1326  6.43                             117    -1.1 2  246 195 
                                                                                
