 2015  515 1514  7.3 L   6.541 -73.526109.5  RSN  7 0.4 2.0LRSN                1
 GAP=100        0.94       3.2     4.0  6.9  0.1098E+01  0.1620E+02  0.4070E+01E
 Epicentro: EL CARMEN - SANTANDER                                              3
 ACTION:UPD 15-09-10 22:04 OP:cam  STATUS:               ID:20150515151407 L   I
 OLDACT:REG 15-05-15 20:31 OP:drio STATUS:               ID:20150515150748     3
 2015-05-15-1507-48M.COL___282                                                 6
 STAT SP IPHASW D HRMM SECON CODA AMPLIT PERI AZIMU VELO AIN AR TRES W  DIS CAZ7
 BAR2 EZ EP       1514 22.80                             159   -0.3210 38.4  81 
 BAR2 EZ ES       1514 35.31                             159   -0.1510 38.4  81 
 BRR  HZ EP       1514 24.24                             147   -0.0710 65.9 342 
 BRR  HN ES       1514 37.95                             147    0.3810 65.9 342 
 RUS  HZ EP       1514 26.00                             139   -0.5410 86.8 146 
 RUS  HE ES       1514 41.73                             139    0.1810 86.8 146 
 RUS  HZ I        1514 42.98        26.7 0.28            146           86.8 146 
 SPBC HZ EP       1514 29.05                             130    0.5710  115 212 
 SPBC HE ES       1514 45.14                             130    0.1310  115 212 
 SPBC HZ I        1514 53.52        18.7 0.20            132            115 212 
 ZAR  HZ EP       1514 35.32                             116    0.21 9  181 306 
 ZAR  HN ES       1514 56.44                             116   -0.37 9  181 306 
 ZAR  HZ I        1515  3.53         9.9 0.22            120            181 306 
 NOR  HZ EP       1514 35.61                             116    0.13 9  184 234 
 NOR  HE ES       1514 57.28                             116   -0.19 9  184 234 
 NOR  HZ I        1515  3.67        13.5 0.16            119            184 234 
 GUY2CHZ EP       1514 44.23                             108    0.69 8  250 235 
 GUY2CHN ES       1515 11.18                             108   -0.64 8  250 235 
 GUY2CHZ I        1515 20.55         5.3 0.26                           250 235 
                                                                                
