 2014  615 1053 26.9 L   6.787 -73.159133.7  RSN  7 0.5 1.5LRSN                1
 GAP=147        1.06       4.6     5.5  9.7 -0.7153E+01  0.2508E+02 -0.4416E+01E
 Epicentro: LOS SANTOS - SANTANDER                                             3
 ACTION:UPD 14-07-01 22:54 OP:nd   STATUS:               ID:20140615105326 L   I
 OLDACT:DUP 14-06-15 21:23 OP:spq  STATUS:               ID:20140615104820d    3
 2014-06-15-1048-19M.COL___253                                                 6
 STAT SP IPHASW D HRMM SECON CODA AMPLIT PERI AZIMU VELO AIN AR TRES W  DIS CAZ7
 BAR2 SZ EP       1053 45.34                             170    0.3010 21.7 187 
 BAR2 SZ ES   1   1053 58.35                             170   -0.84 7 21.7 187 
 BAR2 SZ I        1054  1.24         8.1 0.20            172           21.7 187 
 PAM  SZ EP   1   1053 48.24                             148    0.27 7 79.4  40 
 PAM  SN ES       1054  4.90                             148    0.4910 79.4  40 
 PAM  SZ I        1054  7.84         6.3 0.66            151           79.4  40 
 PTB  HZ EP       1053 52.36                             129   -0.38 9  146 259 
 PTB  HN ES       1054 13.00                             129    0.10 9  146 259 
 PTB  HZ I        1054 16.50         3.8 0.16            131            146 259 
 SPBC HZ EP   1   1053 54.36                             126    0.07 7  161 219 
 SPBC HE ES   1   1054 15.51                             126   -0.16 7  161 219 
 SPBC HZ I        1054 18.35         3.2 0.16            130            161 219 
 OCA  HN ES       1054 15.32                             126   -0.56 9  162 354 
 OCA  HZ I        1054 17.76         3.9 0.25            129            162 354 
 ZAR  HZ EP       1053 58.28                             120   -0.21 9  203 293 
 ZAR  HE ES       1054 23.99                             120    0.84 9  203 293 
 ZAR  HZ I        1054 26.38         2.6 0.10            122            203 293 
 SML  HN ES   1   1054 30.56                             115   -0.51 6  244 336 
 SML  HZ I        1054 36.77         3.4 0.24            117            244 336 
                                                                                
