 2013 1115 1637 16.8 L   6.822 -73.132145.1  RSN 14 0.5 2.2LRSN 2.7WRSN        1
 SPEC AVERAGE  MO 13.2 ST200.2 OM  1.3 f0 18.4 R0.2371 AL 0.00 WI 20.0 MW  2.7 3
 SPEC SD       MO  0.3 ST337.9 OM  0.3 f0 13.3 R0.1822 AL      WI      MW  0.2 3
 GAP=120        1.22       3.9     4.2  5.8 -0.8271E+01  0.5738E+01 -0.6262E+00E
 Epicentro: LOS SANTOS - SANTANDER                                             3
 SPEC BAR2SH Z MO 13.2 ST 61.8 OM  1.4 f0 17.9 R0.1075 AL-0.00 WI 20.0 MW  2.8 3
 SPEC BAR2SH Z T163749 K 0.050 GD  147 VS 5.20 DE 3.20 Q0750.0 QA 1.50 VS 5.20 3
 SPEC BRR HH Z MO 13.2 ST 15.4 OM  1.3 f0 11.8 R0.1631 AL-0.00 WI 20.0 MW  2.7 3
 SPEC BRR HH Z T163753 K 0.050 GD  161 VS 5.20 DE 3.20 Q0750.0 QA 1.50 VS 5.20 3
 SPEC PAM SH Z MO 13.3 ST0.995 OM  1.4 f0 4.37 R0.4403 AL-0.00 WI 20.0 MW  2.8 3
 SPEC PAM SH Z T163754 K 0.050 GD  163 VS 5.20 DE 3.20 Q0750.0 QA 1.50 VS 5.20 3
 SPEC RUS HH Z MO 12.6 ST 27.3 OM  0.7 f0 21.9 R0.0879 AL-0.00 WI 20.0 MW  2.4 3
 SPEC RUS HH Z T163757 K 0.050 GD  177 VS 5.20 DE 3.20 Q0750.0 QA 1.50 VS 5.20 3
 SPEC PTB HH Z MO 13.2 ST616.2 OM  1.2 f0 40.0 R0.0481 AL-0.00 WI 20.0 MW  2.7 3
 SPEC PTB HH Z T1638 3 K 0.050 GD  208 VS 5.20 DE 3.20 Q0750.0 QA 1.50 VS 5.20 3
 SPEC NOR HH Z MO 13.0 ST 79.2 OM  0.9 f0 23.1 R0.0833 AL-0.00 WI 20.0 MW  2.6 3
 SPEC NOR HH Z T163819 K 0.050 GD  277 VS 5.20 DE 3.20 Q0750.0 QA 1.50 VS 5.20 3
 SPEC SML HH Z MO 13.5 ST999.9 OM  1.4 f0 40.0 R0.0481 AL-0.00 WI 20.0 MW  3.0 3
 SPEC SML HH Z T163819 K 0.050 GD  282 VS 5.20 DE 3.20 Q0750.0 QA 1.50 VS 5.20 3
 SPEC HEL HH Z MO 13.3 ST0.420 OM  1.1 f0 3.33 R0.5778 AL-0.00 WI 20.0 MW  2.8 3
 SPEC HEL HH Z T163827 K 0.050 GD  310 VS 5.20 DE 3.20 Q0750.0 QA 1.50 VS 5.20 3
 SPECGUY2CHH Z MO 13.5 ST  0.2 OM  1.3 f0 2.41 R 0.799 AL-0.00 WI 20.0 MW  2.9 3
 SPECGUY2CHH Z T163834 K 0.050 GD336.9 VS 5.20 DE 3.20 Q0750.0 QA 1.50 VS 5.20 3
 SPEC RREFHH Z MO 13.2 ST0.383 OM  1.0 f0 3.33 R0.5778 AL-0.00 WI 20.0 MW  2.8 3
 SPEC RREFHH Z T163837 K 0.050 GD  355 VS 5.20 DE 3.20 Q0750.0 QA 1.50 VS 5.20 3
 OLDACT:REG 13-11-15 16:16 OP:stll STATUS:               ID:20131115162818     3
 ACTION:UPD 14-01-09 16:28 OP:ep   STATUS:               ID:20131115163716 L   I
 OLDACT:UP  13-11-15 18:36 OP:stll STATUS:               ID:20131115162818     3
 2013-11-15-1628-18M.COL___241                                                 6
 STAT SP IPHASW D HRMM SECON CODA AMPLIT PERI AZIMU VELO AIN AR TRES W  DIS CAZ7
 BAR2 SZ IP     D 1637 36.70                             169    0.2710 26.0 192 
 BAR2 SZ ES       1637 51.11                             169   -0.6210 26.0 192 
 BAR2 SZ I        1637 52.92        39.0 0.22            165           26.0 192 
 BRR  HZ IP     C 1637 38.47                             152    0.5510 71.5 296 
 BRR  HN ES       1637 55.00                             152    0.6310 71.5 296 
 BRR  SZ I        1637 56.08        24.3 0.14            149           71.5 296 
 PAM  SZ EP       1637 39.49                             152    0.6910 74.5  40 
 PAM  SN ES       1637 56.46                             152    0.5110 74.5  40 
 PAM  SZ I        1637 58.72        20.4 0.30            152           74.5  40 
 RUS  HZ IP     C 1637 40.73                             143    0.0510  103 177 
 RUS  HE ES       1637 59.02                             143   -0.2610  103 177 
 RUS  SZ I        1638  1.57        13.2 0.98            138            103 177 
 CAPV BZ EP       1637 44.35                             132    0.44 9  146  38 
 CAPV BZ ES       1638  4.40                             132   -0.63 9  146  38 
 PTB  HZ EP       1637 43.15                             131   -0.77 9  150 258 
 PTB  HE ES       1638  4.79                             131   -0.27 9  150 258 
 PTB  SZ I        1638  7.18        22.6 0.08            127            150 258 
 SPBC HZ EP       1637 45.58                             128    0.04 9  166 219 
 SPBC HN ES       1638  7.85                             128   -0.09 9  166 219 
 SPBC SZ I        1638 14.64        20.0 0.28            124            166 219 
 NOR  HZ EP       1637 52.68                             118   -0.12 8  237 234 
 NOR  HN ES       1638 20.56                             118   -0.30 8  237 234 
 NOR  SZ I        1638 27.82        11.0 0.18            114            237 234 
 SML  HZ EP       1637 52.98                             117   -0.27 8  242 335 
 SML  HN ES       1638 20.76                             117   -0.90 8  242 335 
 SML  SZ I        1638 25.31        22.3 0.10            115            242 335 
 HEL  HZ EP       1637 57.91                             114    0.68 8  274 255 
 HEL  HE ES       1638 28.96                             114    0.20 8  274 255 
 HEL  SZ I        1638 34.65        10.1 0.48            111            274 255 
 SOCV BZ EP       1637 58.96                             112   -0.58 7  299  57 
 GUY2CHZ EP       1638  1.59                             112    0.89 7  304 235 
 GUY2CHE ES       1638 35.56                             112    0.64 7  304 235 
 GUY2CSZ I        1638 45.04         6.5 0.82                           304 235 
 RREF HZ EP       1638  3.02                             110   -0.23 7  325 229 
 RREF HE ES       1638 39.00                             110   -0.46 7  325 229 
 RREF SZ I        1638 48.08         6.9 0.52            107            325 229 
 TOL  SZ EP       1638  4.53                             109   -0.84 6  346 225 
 TOL  SZ I        1638 49.93         6.8 1.10            106            346 225 
                                                                                
