 2012 1215 1302 10.0 L   6.804 -73.201142.7  RSN  5 0.1 1.6LRSN                1
 GAP=130        0.31       1.9     1.7  3.2  0.8659E-01  0.8970E+00  0.2323E+01E
 Epicentro: ZAPATOCA - SANTANDER                                               3
 ACTION:UPD 13-01-04 14:28 OP:ep   STATUS:               ID:20121215130210 L   I
 2012-12-15-1300-44M.COL___210                                                 6
 STAT SP IPHASW D HRMM SECON CODA AMPLIT PERI AZIMU VELO AIN AR TRES W  DIS CAZ7
 BAR2 SZ EP       13 2 29.33                             170    0.0510 23.5 175 
 BAR2 SZ I        13 2 45.66         7.4 0.20                          23.5 175 
 BRR  HN ES       13 2 46.59                             154    0.0610 65.7 301 
 BRR  HN I        13 2 53.24        11.9 0.22                          65.7 301 
 PAM  SN ES       13 2 49.34                             149   -0.0510 81.1  43 
 RUS  HZ EP       13 2 33.48                             143   -0.0610  102 173 
 RUS  HN ES       13 2 51.92                             143    0.0310  102 173 
 RUS  HN I        13 2 53.09         5.1 0.18                           102 173 
 PTB  HZ EP       13 2 36.26                             132    0.06 9  142 258 
 PTB  HN ES       13 2 56.53                             132   -0.09 9  142 258 
 PTB  HN I        13 3  2.48         8.2 0.58                           142 258 
                                                                                
