 2014  615 1649 38.1 L   6.525 -73.569101.0  RSN  7 0.5 1.7LRSN                1
 GAP= 92        1.21       4.0     5.1  8.8 -0.1777E+01  0.1769E+02  0.6114E+00E
 Epicentro: EL CARMEN DE CHUCURI - SANTANDER                                   3
 ACTION:UPD 14-07-01 22:54 OP:nd   STATUS:               ID:20140615164938 L   I
 OLDACT:REG 14-06-15 20:50 OP:spq  STATUS:               ID:20140615164820     3
 2014-06-15-1648-20M.COL___265                                                 6
 STAT SP IPHASW D HRMM SECON CODA AMPLIT PERI AZIMU VELO AIN AR TRES W  DIS CAZ7
 BAR2 SZ IP     C 1649 53.46                             155    0.2410 43.4  80 
 BAR2 SZ ES   1   1650  5.25                             155    0.25 7 43.4  80 
 BAR2 SZ I        1650  7.63        31.9 0.34            159           43.4  80 
 BRR  HZ IP     D 1649 54.36                             143    0.0610 66.3 346 
 BRR  HN ES       1650  7.61                             143    0.6910 66.3 346 
 BRR  HZ I        1650 14.14        11.4 0.32            146           66.3 346 
 RUS  HN ES       1650 10.61                             136   -0.6010 88.2 142 
 PTB  HZ IP     D 1649 56.20                             132   -0.7410 98.2 271 
 PTB  HN ES       1650 11.10                             132   -0.5210 98.2 271 
 PTB  HZ I        1650 12.45        10.1 0.08            136           98.2 271 
 SPBC HZ EP       1649 58.78                             128    0.5010  111 210 
 SPBC HN ES       1650 13.85                             128   -0.1610  111 210 
 SPBC HZ I        1650 17.86         5.6 0.19            134            111 210 
 GUY2CHZ EP       1650 14.01                             106    0.52 8  245 234 
 GUY2CHE ES       1650 41.67                             106    0.59 8  245 234 
 GUY2CHZ I        1650 45.91         2.5 0.32                           245 234 
 SML  HZ EP   1   1650 13.56                             105   -0.78 6  258 348 
 SML  HN ES   1   1650 42.52                             105   -0.07 6  258 348 
 SML  HZ I        1650 45.43         4.8 0.26            109            258 348 
                                                                                
