 2010  315 1956 24.3 L   6.822 -73.110151.6  RSN  7 0.3 2.1LRSN                1
 GAP=187        0.53       2.9     6.9  6.2 -0.2396E+01 -0.3447E+01  0.5464E+01E
 Epicentro: LOS SANTOS - SANTANDER                                             3
 ACTION:UP  10-08-24 09:54 OP:vdl  STATUS:               ID:20100315195624 L   I
 2010-03-15-1952-05S.COL___095                                                 6
 STAT SP IPHASW D HRMM SECON CODA AMPLIT PERI AZIMU VELO SNR AR TRES W  DIS CAZ7
 BRR  HZ IP       1956 46.35                             153     0.110   74 295 
 BRR  HN ES   1   1957  3.37                             153     0.0 7   74 295 
 BRR  HZ I        1957  4.00        41.2 0.11                            74 295 
 RUS  HZ EP   1   1956 48.77                             144     0.0 7  103 178 
 RUS  HN ES   2   1957  7.63                             144    -0.3 5  103 178 
 RUS  HZ I        1957  8.61         7.6 0.30                           103 178 
 OCA  SZ EP   1   1956 52.66                             131    -0.3 7  158 352 
 OCA  SZ ES   1   1957 15.32                             131     0.1 7  158 352 
 OCA  SZ I        1957 18.49        37.6 0.17                           158 352 
 CHI  HZ EP   2   1957  3.11                             118     0.4 4  252 196 
 CHI  HN ES   2   1957 33.18                             118     0.5 4  252 196 
 CHI  HZ I        1957 40.24         3.5 0.40                           252 196 
 HEL  HZ EP   2   1957  5.78                             115     0.4 4  276 256 
 HEL  HZ I        1957 42.86         6.6 0.49                           276 256 
 RREF BZ EP   2   1957 10.60                             112    -0.6 3  326 230 
 RREF BE ES   2   1957 47.08                             112    -0.8 3  326 230 
 RREF BZ I        1957 57.07         5.8 0.60                           326 230 
 PRA  HZ EP   2   1957 18.85                             107     0.3 3  396 210 
 PRA  HN ES   2   1958  0.75                             107     0.0 3  396 210 
 PRA  HZ I        1958  8.58         3.3 0.25                           396 210 
                                                                                
