 2010  315 1016 20.8 L   6.791 -73.049142.6  RSN 10 0.3 2.3LRSN                1
 GAP=133        0.60       2.6     5.1  4.7 -0.5090E+00 -0.3241E+01 -0.2437E+00E
 Epicentro: LOS SANTOS - SANTANDER                                             3
 ACTION:UP  10-08-24 09:54 OP:vdl  STATUS:               ID:20100315101620 L   I
 2010-03-15-1011-48S.COL___095                                                 6
 STAT SP IPHASW D HRMM SECON CODA AMPLIT PERI AZIMU VELO SNR AR TRES W  DIS CAZ7
 BAR2 SZ IP       1016 40.35                             169     0.210   27 214 
 BAR2 SZ ES   2   1016 55.36                             169     0.1 5   27 214 
 BRR  HZ IP       1016 42.27                             148     0.010   81 296 
 BRR  HE ES   1   1016 59.18                             148     0.2 7   81 296 
 BRR  HZ I        1017  3.74        48.7 0.12                            81 296 
 RUS  HZ IP       1016 44.37                             143     0.210   99 182 
 RUS  HE ES   1   1017  1.88                             143    -0.5 7   99 182 
 RUS  HZ I        1017  3.84        16.6 0.41                            99 182 
 OCA  SZ IP       1016 49.08                             128    -0.1 9  163 349 
 OCA  SZ ES   1   1017 10.86                             128    -0.4 7  163 349 
 OCA  SZ I        1017 15.30        53.9 0.21                           163 349 
 CHI  HZ EP   2   1016 58.25                             116    -0.3 4  251 198 
 CHI  HN ES   2   1017 27.88                             116    -0.1 4  251 198 
 HEL  HZ EP   2   1017  2.52                             113     0.5 4  282 257 
 HEL  HZ I        1017 39.57         5.0 0.45                           282 257 
 TOL  SZ EP   2   1017  8.92                             108    -0.8 3  350 226 
 DBB  SZ EP   1   1017  9.07                             108    -0.3 5  350 274 
 SDV  BZ IP       1017 10.02                             108     0.1 6  353  49 
 SDV  BZ I        1017 11.11        17.9 0.10                           353  49 
 PRA  HZ IP       1017 14.90                             106     0.1 6  397 211 
 PRA  HE ES   2   1017 57.40                             106     0.6 3  397 211 
 PRA  HZ I        1018  2.06         5.8 0.36                           397 211 
                                                                                
