 2014  515 1229 29.4 L   6.812 -73.153148.8  RSN 13 0.4 2.5LRSN                1
 GAP=135        0.99       2.6     3.9  5.7 -0.1412E+01  0.4788E+01  0.2743E+01E
 Epicentro: LOS SANTOS - SANTANDER                                             3
 ACTION:UPD 15-03-16 16:57 OP:nd   STATUS:               ID:20140515122929 L   I
 OLDACT:REG 14-05-15 22:06 OP:carl STATUS:               ID:20140515122812     3
 2014-05-15-1228-12M.COL___257                                                 6
 STAT SP IPHASW D HRMM SECON CODA AMPLIT PERI AZIMU VELO AIN AR TRES W  DIS CAZ7
 BRR  HZ EP       1229 51.37                             153    0.5810 69.9 298 
 BRR  HN ES       1230  8.25                             153    0.7610 69.9 298 
 BRR  HZ I        1230 12.05        30.9 0.46            151           69.9 298 
 PAM  SZ IP     C 1229 52.25                             152    0.3510 76.9  41 
 PAM  SN ES       1230  9.50                             152    0.0510 76.9  41 
 PAM  SZ I        1230 11.66        40.4 0.20            157           76.9  41 
 RUS  HZ EP       1229 53.34                             144   -0.2010  102 176 
 RUS  HN ES       1230 12.00                             144   -0.3710  102 176 
 PTB  HZ EP       1229 56.20                             133   -0.36 9  147 258 
 PTB  HN ES       1230 17.17                             133   -0.58 9  147 258 
 PTB  HZ I        1230 23.26        33.0 0.22            133            147 258 
 OCA  HN ES       1230 19.31                             131   -0.66 9  159 353 
 OCA  HZ I        1230 27.91        27.5 0.34            133            159 353 
 SPBC HZ EP       1229 58.44                             130    0.26 9  164 218 
 SPBC HN ES       1230 20.92                             130    0.29 9  164 218 
 SPBC HZ I        1230 25.49        42.4 0.40            131            164 218 
 ZAR  HZ EP       1230  2.19                             123    0.28 9  203 292 
 ZAR  HN ES       1230 27.19                             123   -0.08 9  203 292 
 ZAR  HZ I        1230 38.44        28.9 0.38            124            203 292 
 NOR  HZ EP       1230  5.82                             119    0.51 8  235 234 
 NOR  HN ES       1230 33.51                             119    0.18 8  235 234 
 NOR  HZ I        1230 41.70        18.8 0.14            121            235 234 
 SML  HZ EP       1230  5.42                             118   -0.60 8  242 335 
 SML  HN ES       1230 34.39                             118   -0.20 8  242 335 
 SML  HZ I        1230 38.08        41.1 0.10            120            242 335 
 CHI  HZ EP       1230  7.45                             118    0.07 8  250 195 
 CHI  HN ES       1230 36.39                             118   -0.61 8  250 195 
 CHI  HZ I        1230 42.86         8.9 0.28            120            250 195 
 ROSC BZ EP   4   1230  9.09                             117    1.33 0  254 211 
 ROSC BE ES   4   1230 38.95                             117    1.27 0  254 211 
 ROSC BZ I        1230 45.53        23.0 0.50            119            254 211 
 GUY2CHZ EP       1230 13.35                             113    0.19 7  301 234 
 GUY2CHN ES       1230 47.02                             113   -0.27 7  301 234 
 GUY2CHZ I        1230 56.32        21.4 0.76                           301 234 
 CBOC HZ EP   4   1230 17.38                             110    0.99 0  333 252 
 CBOC HN ES   4   1230 48.41                             110   -4.65 0  333 252 
 ANIL HN ES   4   1231  0.33                             109    1.99 0  358 224 
 PRA  HZ EP       1230 23.50                             107    0.39 6  393 209 
 PRA  HE ES       1231  4.71                             107   -0.30 6  393 209 
 PRA  HZ I        1231 11.27        13.8 0.34            109            393 209 
                                                                                
