 2017 1115 1001 11.1 L   6.632 -72.884137.2  RSN  4 0.3 1.1LRSN                1
 GAP=181        0.89       4.6     7.8  8.7 -0.4868E+01 -0.1990E+02  0.3496E+01E
 Epicentro: MOLAGAVITA - SANTANDER                                             3
 ACTION:UPD 17-12-12 19:55 OP:rebc STATUS:               ID:20171115100111 L   I
 OLDACT:REG 17-11-15 20:33 OP:lv   STATUS:               ID:20171115095737     3
 2017-11-15-0958-00M.COL___426                                                 6
 STAT SP IPHASW D HRMM SECON CODA AMPLIT PERI AZIMU VELO AIN AR TRES W  DIS CAZ7
 BAR2 EZ EP       10 1 29.53                             166   -0.4310 33.3 262 
 BAR2 EZ ES       10 1 44.95                             166    0.2810 33.3 262 
 BAR2 EZ I        10 1 49.31         9.2 0.50            168           33.3 262 
 PAM  EZ EP       10 1 32.48                             148   -0.1510 80.9  15 
 PAM  EN ES       10 1 49.50                             148    0.0710 80.9  15 
 PAM  EZ I        10 1 50.86         1.3 0.18            154           80.9  15 
 RUS  HZ EP       10 1 33.48                             147    0.6010 84.7 195 
 RUS  HN ES       10 1 49.52                             147   -0.3610 84.7 195 
 RUS  HZ I        10 1 55.12         1.0 0.44            148           84.7 195 
 BRR  HZ EP   4   10 1 31.52                             140   -2.19 0  106 300 
 BRR  HN ES       10 1 51.33                             140   -0.0210  106 300 
 BRR  HZ I        10 1 51.62         3.0 0.42            147            106 300 
                                                                                
