 2013  815 1026  4.7 L   6.793 -73.135158.0  RSN  9 0.4 2.2LRSN                1
 GAP=201        0.88       4.0     5.3  6.6 -0.7634E+01  0.1841E+01 -0.1316E+01E
 Epicentro: LOS SANTOS - SANTANDER                                             3
 ACTION:UPD 14-01-14 09:03 OP:ep   STATUS:               ID:20130815102605dL   I
 OLDACT:UP  13-08-15 16:31 OP:mh   STATUS:               ID:20130815101959     3
 OLDACT:REG 13-08-15 14:44 OP:mh   STATUS:               ID:20130815101959     3
 2013-08-15-1019-59M.COL___270                                                 6
 STAT SP IPHASW D HRMM SECON CODA AMPLIT PERI AZIMU VELO AIN AR TRES W  DIS CAZ7
 BAR2 SZ EP   1   1026 25.81                             171    0.05 7 22.8 193 
 BAR2 SZ ES   1   1026 41.67                             171   -0.54 7 22.8 193 
 BAR2 SZ I        1026 43.66        10.0 0.24            169           22.8 193 
 BRR  HZ EP   1   1026 27.56                             154    0.34 7 72.6 299 
 BRR  HN ES       1026 45.45                             154    0.6310 72.6 299 
 BRR  HN I        1026 46.33        28.3 0.22            148           72.6 299 
 PTB  HZ EP   1   1026 32.62                             135   -0.12 7  149 259 
 PTB  HN ES       1026 54.13                             135   -0.52 9  149 259 
 PTB  HN I        1026 59.35        32.8 0.24            132            149 259 
 OCA  HZ EP       1026 34.02                             132   -0.02 9  161 353 
 OCA  HN ES   1   1026 57.13                             132    0.18 7  161 353 
 OCA  HN I        1026 59.73        34.8 0.20            131            161 353 
 ZAR  HZ EP   1   1026 37.78                             125   -0.30 6  205 292 
 ZAR  HN ES       1027  4.70                             125    0.56 8  205 292 
 ZAR  HN I        1027 11.74        16.6 0.14            123            205 292 
 NOR  HN ES       1027  9.67                             121   -0.00 8  235 235 
 NOR  HN I        1027 14.63        19.5 0.18            120            235 235 
 SML  HZ EP   1   1026 42.30                             120    0.17 6  245 335 
 SML  HN ES       1027 10.61                             120   -0.75 8  245 335 
 SML  HN I        1027 16.95        21.8 0.10            119            245 335 
 HEL  HN ES       1027 17.34                             117   -0.25 8  273 256 
 HEL  HN I        1027 25.13         3.6 0.40            116            273 256 
 PRA  HZ EP   1   1026 59.24                             109    0.62 4  392 210 
 PRA  HN ES   2   1027 41.10                             109    0.39 3  392 210 
                                                                                
