 2010  215 1146 29.2 L   6.821 -72.869144.7  RSN  6 0.4 1.9LRSN                1
 GAP=219        0.62       4.7    12.0  8.1 -0.2727E+02  0.2237E+02  0.6532E+01E
 Epicentro: SAN ANDRES - SANTANDER                                             3
 ACTION:UP  10-08-24 09:49 OP:vdl  STATUS:               ID:20100215114629 L   I
 2010-02-15-1145-20S.COL___093                                                 6
 STAT SP IPHASW D HRMM SECON CODA AMPLIT PERI AZIMU VELO SNR AR TRES W  DIS CAZ7
 BAR2 SZ IP       1146 49.53                             163     0.210   43 234 
 BAR2 SZ ES   2   1147  4.44                             163    -0.5 5   43 234 
 OCA  SZ EP   1   1146 57.63                             129    -0.2 7  165 342 
 OCA  SZ ES   2   1147 20.46                             129     0.3 5  165 342 
 CHI  HZ EP   1   1147  7.71                             116    -0.4 6  260 202 
 CHI  HZ I        1147  9.16         2.8 0.37                           260 202 
 CHI  HE ES   2   1147 39.21                             116     0.7 4  260 202 
 RREF BZ EP   1   1147 17.79                             109    -0.4 5  347 232 
 RREF BE ES   2   1147 55.97                             109    -0.4 3  347 232 
 RREF BZ I        1147 59.49         4.2 0.34                           347 232 
 TOL  SZ EP   1   1147 20.80                             108     0.6 5  367 228 
 TOL  SZ ES   2   1148  0.34                             108     0.4 3  367 228 
 PRA  HZ EP   1   1147 24.59                             105    -0.2 4  410 213 
 PRA  HN ES   2   1148  7.96                             105    -0.2 3  410 213 
 PRA  HZ I        1148 12.08         2.7 0.22                           410 213 
                                                                                
