 2013  115 1126 34.4 L   6.712 -73.163151.5  RSN  5 0.4 1.7LRSN                1
 GAP=229        0.87       8.5     7.6  8.5  0.3627E+02  0.7397E+01 -0.3611E+01E
 Epicentro: VILLANUEVA - SANTANDER                                             3
 ACTION:UPD 13-02-15 09:14 OP:ep   STATUS:               ID:20130115112634 L   I
 2013-01-15-1120-00M.COL___241                                                 6
 STAT SP IPHASW D HRMM SECON CODA AMPLIT PERI AZIMU VELO AIN AR TRES W  DIS CAZ7
 BAR2 SZ EP       1126 54.49                             175   -0.1310 13.5 189 
 BAR2 SZ ES   1   1127  9.75                             175   -0.61 7 13.5 189 
 BAR2 SZ I        1127 11.35        17.0 0.20            169           13.5 189 
 BRR  HZ EP       1126 56.59                             152    0.1710 74.8 306 
 BRR  HN ES   1   1127 13.81                             152    0.25 7 74.8 306 
 BRR  HZ I        1127 17.52         8.5 0.16            149           74.8 306 
 RUS  HZ EP   1   1126 58.38                             148    0.25 7 91.1 174 
 RUS  HN ES   1   1127 17.19                             148    0.59 7 91.1 174 
 RUS  HZ I        1127 18.47         4.6 0.22            149           91.1 174 
 PTB  HZ EP       1127  1.11                             134   -0.48 9  144 262 
 PTB  HN ES   1   1127 22.47                             134   -0.29 7  144 262 
 PTB  HZ I        1127 27.99         6.4 0.40            132            144 262 
 ZAR  HN ES   1   1127 33.89                             123    0.62 6  206 295 
 ZAR  HZ I        1127 39.86         5.3 0.40            123            206 295 
                                                                                
