 2016  915 1442 21.0 L   6.796 -73.145143.2  RSN 19 0.4 2.6LRSN                1
 GAP= 71        0.99       2.7     2.6  4.7 -0.7921E+00  0.3053E+01  0.2169E+01E
 Epicentro: LOS SANTOS - SANTANDER                                             3
 ACTION:UPD 17-08-17 21:12 OP:lp   STATUS:               ID:20160915144221 L   I
 OLDACT:UP  16-09-16 17:16 OP:ar   STATUS:               ID:20160915143737     3
 OLDACT:REG 16-09-15 22:30 OP:lv   STATUS:               ID:20160915143737     3
 2016-09-15-1438-00M.COL___330                                                 6
 STAT SP IPHASW D HRMM SECON CODA AMPLIT PERI AZIMU VELO AIN AR TRES W  DIS CAZ7
 BAR2 EZ EP       1442 40.30                             170    0.0110 22.9 190 
 BAR2 EZ ES       1442 55.26                             170   -0.0910 22.9 190 
 BAR2 EZ I        1442 58.11       161.2 0.30            167           22.9 190 
 BRR  HZ EP       1442 42.05                             152    0.1910 71.5 299 
 BRR  HN ES       1442 58.85                             152    0.7010 71.5 299 
 BRR  HZ I        1443  3.14        76.4 0.24            150           71.5 299 
 PAM  EZ EP       1442 43.20                             150    0.2610 77.7  39 
 PAM  EZ ES       1443  0.41                             150    0.3510 77.7  39 
 PAM  EZ I        1443  2.65        65.5 0.70            156           77.7  39 
 RUS  HZ EP       1442 44.29                             143   -0.1510  100 176 
 RUS  HN ES       1443  2.60                             143   -0.1410  100 176 
 RUS  HZ I        1443  4.06        66.9 0.30            144            100 176 
 PTB  HZ EP       1442 46.74                             131   -0.99 9  148 259 
 PTB  HE ES       1443  8.26                             131   -0.34 9  148 259 
 PTB  HZ I        1443 14.89        31.1 0.52            131            148 259 
 TAM  HZ EP       1442 48.66                             130    0.23 9  155 105 
 TAM  HN ES       1443  9.36                             130   -0.49 9  155 105 
 TAM  HZ I        1443 11.79        30.2 0.46            134            155 105 
 OCA  HZ EP       1442 49.06                             129   -0.07 9  161 353 
 OCA  HE ES       1443 10.73                             129   -0.36 9  161 353 
 OCA  HZ I        1443 13.73        88.9 0.14            131            161 353 
 SPBC HZ EP       1442 49.21                             128   -0.04 9  163 219 
 SPBC HZ ES       1443 11.04                             128   -0.26 9  163 219 
 SPBC HZ I        1443 16.05        75.0 0.16            128            163 219 
 ZAR  HZ EP       1442 52.72                             122   -0.56 9  204 292 
 ZAR  HN ES       1443 18.40                             122   -0.08 9  204 292 
 ZAR  HZ I        1443 23.32        39.3 0.20            122            204 292 
 NOR  HZ EP       1442 56.43                             118   -0.11 8  234 235 
 NOR  HE ES       1443 24.19                             118   -0.08 8  234 235 
 NOR  HZ I        1443 29.76        38.5 0.16            118            234 235 
 CHI  HZ EP       1442 58.58                             117    0.09 8  248 195 
 CHI  HN ES       1443 28.41                             117    0.66 8  248 195 
 CHI  HZ I        1443 37.76        22.5 0.44            117            248 195 
 ROSC BZ EP   4   1443  0.58                             116    1.66 0  252 211 
 ROSC BN ES   4   1443 31.58                             116    3.07 0  252 211 
 ROSC BZ I        1443 34.87        57.3 0.45            117            252 211 
 HEL  HZ EP       1443  1.78                             114    0.73 8  272 256 
 HEL  HN ES       1443 32.37                             114    0.05 8  272 256 
 HEL  HZ I        1443 40.46        22.9 0.38            115            272 256 
 URE  HZ EP   4   1443  0.49                             113   -1.46 0  284 292 
 URE  HN ES   4   1443 30.55                             113   -3.36 0  284 292 
 URE  HZ I        1443 38.56        21.0 0.14            114            284 292 
 GUY2CHZ EP       1443  5.42                             112    0.98 7  301 235 
 GUY2CHN ES       1443 37.84                             112   -0.51 7  301 235 
 GUY2CHZ I        1443 46.34        25.8 0.38                           301 235 
 VIL  EZ EP       1443  4.16                             112   -0.07 7  303 192 
 ELA  HZ EP   4   1443 10.55                             110    2.86 0  329 230 
 ELA  HN ES   4   1443 45.97                             110    1.84 0  329 230 
 ELA  HZ I        1443 59.54        23.2 0.46            110            329 230 
 CBOC HZ EP       1443  8.16                             109    0.38 7  334 252 
 CBOC HN ES       1443 44.64                             109    0.36 7  334 252 
 CBOC HZ I        1443 57.89         7.5 0.26            110            334 252 
 CRJC HZ EP   4   1443 20.86                             103   -2.60 0  468   4 
 CRJC HN ES   4   1444  7.03                             103   -5.16 0  468   4 
 CRJC HZ I        1444 15.68        10.3 0.18            104            468   4 
                                                                                
