 2013  115 1522 22.3 L   6.792 -73.149144.8  RSN  9 0.4 1.9LRSN                1
 GAP=182        0.84       3.9     5.3  7.2  0.2570E+01  0.9770E+01  0.7086E+01E
 Epicentro: LOS SANTOS - SANTANDER                                             3
 ACTION:UPD 13-02-15 09:14 OP:ep   STATUS:               ID:20130115152222 L   I
 2013-01-15-1520-00M.COL___241                                                 6
 STAT SP IPHASW D HRMM SECON CODA AMPLIT PERI AZIMU VELO AIN AR TRES W  DIS CAZ7
 BAR2 SZ EP       1522 41.88                             171    0.0910 22.4 189 
 BAR2 SZ ES   1   1522 56.75                             171   -0.24 7 22.4 189 
 BAR2 SZ I        1522 58.89        22.9 0.40            165           22.4 189 
 BRR  HZ EP   1   1522 43.31                             152   -0.03 7 71.3 299 
 BRR  HE ES   1   1523  0.52                             152    0.76 7 71.3 299 
 BRR  HZ I        1523  5.05        16.3 0.12            148           71.3 299 
 RUS  HZ EP   1   1522 45.96                             144    0.07 7 99.8 176 
 RUS  HE ES   1   1523  4.51                             144    0.22 7 99.8 176 
 RUS  HZ I        1523  6.03         8.6 0.42            145           99.8 176 
 PTB  HZ EP       1522 48.64                             132   -0.49 9  147 259 
 PTB  HN ES   1   1523  9.30                             132   -0.76 7  147 259 
 PTB  HZ I        1523 13.59         8.6 0.14            130            147 259 
 OCA  HN ES   1   1523 12.19                             129   -0.50 7  161 353 
 ZAR  HN ES   1   1523 20.60                             122    0.68 6  204 292 
 ZAR  HZ I        1523 26.74         8.9 0.34            122            204 292 
 NOR  HZ EP   1   1522 58.29                             118    0.41 6  234 235 
 NOR  HN ES   1   1523 25.38                             118   -0.25 6  234 235 
 NOR  HZ I        1523 33.21         6.1 0.22            119            234 235 
 CHI  HZ EP   1   1523  0.36                             117    0.52 6  248 195 
 CHI  HN ES   1   1523 28.90                             117   -0.22 6  248 195 
 CHI  HZ I        1523 32.61         3.3 0.30            119            248 195 
 RREF HN ES   1   1523 44.42                             111    0.24 5  321 229 
 RREF HZ I        1523 50.47         4.7 0.78            112            321 229 
 SJC  HN ES   4   1523 59.12                             106   -2.12 0  410 327 
                                                                                
