 2014  915 1435 29.9 L   6.343 -74.001 29.7  RSN  6 0.2 1.3LRSN                1
 GAP= 87        0.55       1.5     1.6  3.1 -0.4900E+00 -0.2851E+01  0.1625E+01E
 Epicentro: CIMITARRA - SANTANDER                                              3
 ACTION:UPD 14-10-03 23:05 OP:nd   STATUS:               ID:20140915143529 L   I
 OLDACT:DUP 14-09-16 00:13 OP:spq  STATUS:               ID:20140915142819d    3
 2014-09-15-1428-18M.COL___290                                                 6
 STAT SP IPHASW D HRMM SECON CODA AMPLIT PERI AZIMU VELO AIN AR TRES W  DIS CAZ7
 PTB  HZ EP     D 1435 39.40                             111   -0.2310 54.9 293 
 PTB  HE ES       1435 47.31                             111    0.0710 54.9 293 
 PTB  HZ I        1435 47.95        14.7 0.12            110           54.9 293 
 SPBC HZ EP       1435 42.83                              61    0.1110 76.8 186 
 SPBC HE ES       1435 52.92                              61    0.1810 76.8 186 
 SPBC HZ I        1435 53.68        11.2 0.12            102           76.8 186 
 BRR  HZ EP       1435 44.33                              61    0.0310 90.3  21 
 BRR  HE ES       1435 55.89                              61    0.3510 90.3  21 
 BRR  HZ I        1435 58.90        10.2 0.32             61           90.3  21 
 BAR2 SZ EP       1435 45.14                              61    0.0210 94.6  73 
 BAR2 SZ ES   1   1435 56.49                              61   -0.52 7 94.6  73 
 BAR2 SZ I        1435 59.67         8.8 0.38             61           94.6  73 
 RUS  HZ EP       1435 47.83                              61    0.0910  113 116 
 RUS  HE ES   1   1436  1.50                              61   -0.18 7  113 116 
 RUS  HZ I        1436  2.77         4.3 0.24             61            113 116 
 HEL  HZ EP   1   1435 54.44                              61   -0.26 7  170 264 
 HEL  HN ES       1436 13.93                              61   -0.13 9  170 264 
 HEL  HZ I        1436 14.55         6.4 0.26             61            170 264 
                                                                                
