 2016  415 1158 23.3 L   6.807 -73.137137.4  RSN  6 0.4 1.7LRSN                1
 GAP=137        0.90       3.9     4.0  6.6 -0.2190E+01  0.1023E+02 -0.2627E+01E
 Epicentro: LOS SANTOS - SANTANDER                                             3
 ACTION:UPD 16-05-05 14:21 OP:rebc STATUS:               ID:20160415115823 L   I
 OLDACT:REG 16-04-15 18:30 OP:ar   STATUS:               ID:20160415115741     3
 2016-04-15-1157-41M.COL___312                                                 6
 STAT SP IPHASW D HRMM SECON CODA AMPLIT PERI AZIMU VELO AIN AR TRES W  DIS CAZ7
 BAR2 EZ EP       1158 41.92                             169   -0.0410 24.3 192 
 BAR2 EZ ES       1158 56.35                             169   -0.1510 24.3 192 
 BAR2 EZ I        1158 58.67        11.3 0.24            167           24.3 192 
 PAM  EZ EP       1158 44.74                             150    0.1710 76.1  39 
 PAM  EN ES       1159  1.06                             150   -0.0910 76.1  39 
 PAM  EZ I        1159  3.45        14.4 0.48            156           76.1  39 
 RUS  HZ EP       1158 46.44                             142    0.1310  101 177 
 RUS  HN ES       1159  4.30                             142    0.0610  101 177 
 RUS  HZ I        1159  9.26         3.7 0.32            144            101 177 
 PTB  HZ EP   1   1158 48.74                             130   -0.98 7  149 259 
 PTB  HN ES       1159 10.48                             130    0.17 9  149 259 
 PTB  HZ I        1159 14.93         5.8 0.20            131            149 259 
 SPBC HZ EP       1158 50.80                             127   -0.51 9  164 219 
 SPBC HN ES       1159 13.46                             127    0.32 9  164 219 
 SPBC HZ I        1159 20.85        10.4 0.24            129            164 219 
 ZAR  HZ EP       1158 56.04                             120    0.75 9  205 292 
 ZAR  HN ES       1159 20.04                             120   -0.19 9  205 292 
 ZAR  HZ I        1159 27.34         7.2 0.24            122            205 292 
                                                                                
