 2013  515 1006 19.4 L   6.532 -73.544110.2  RSN  8 0.5 1.3LRSN                1
 GAP= 90        1.03       5.0     5.2  9.9 -0.3983E+01  0.2101E+02 -0.1221E+02E
 Epicentro: EL CARMEN DE CHUCURI - SANTANDER                                   3
 ACTION:UPD 13-06-20 09:50 OP:ep   STATUS:               ID:20130515100619 L   I
 2013-05-15-1000-00M.COL___256                                                 6
 STAT SP IPHASW D HRMM SECON CODA AMPLIT PERI AZIMU VELO AIN AR TRES W  DIS CAZ7
 BAR2 SZ EP       10 6 35.78                             158    0.4110 40.5  81 
 BAR2 SZ ES       10 6 48.15                             158    0.3110 40.5  81 
 BAR2 SZ I        10 6 49.95        23.5 0.42            151           40.5  81 
 BRR  HZ EP     C 10 6 36.59                             147    0.1210 66.2 344 
 BRR  HN ES   1   10 6 49.90                             147    0.09 7 66.2 344 
 BRR  HZ I        10 7  0.07         4.5 0.26            140           66.2 344 
 GIR2 SZ EP       10 6 37.19                             144    0.1310 71.8  33 
 GIR2 SZ I        10 6 51.62         4.8 0.16            136           71.8  33 
 RUS  HE ES   1   10 6 52.98                             139   -0.81 7 87.2 144 
 RUS  HZ I        10 6 55.66         2.3 0.66            141           87.2 144 
 PTB  HZ EP       10 6 38.65                             134   -0.5610  101 271 
 PTB  HE ES   1   10 6 54.16                             134   -0.51 7  101 271 
 PTB  HZ I        10 6 55.10         4.4 0.15            136            101 271 
 NOR  HN ES   1   10 7 10.17                             117    0.98 7  182 234 
 OCA  HN ES   2   10 7 10.70                             115   -0.43 4  190   7 
 SML  HN ES   1   10 7 24.17                             108   -0.20 6  258 347 
                                                                                
