 2015  415 1857 32.1 L   6.812 -73.170144.9  RSN  9 0.5 2.0LRSN                1
 GAP=133        1.05       4.1     5.3  7.4 -0.2497E+01  0.1448E+02  0.9022E+00E
 Epicentro: LOS SANTOS - SANTANDER                                             3
 ACTION:UPD 15-06-03 16:55 OP:cam  STATUS:               ID:20150415185732 L   I
 OLDACT:REG 15-04-15 21:20 OP:spq  STATUS:               ID:20150415184750     3
 2015-04-15-1847-50M.COL___275                                                 6
 STAT SP IPHASW D HRMM SECON CODA AMPLIT PERI AZIMU VELO AIN AR TRES W  DIS CAZ7
 BAR2 EZ EP       1857 51.70                             170    0.0810 24.4 183 
 BAR2 EZ ES   1   1858  6.46                             170   -0.40 7 24.4 183 
 BAR2 EZ I        1858  7.53        22.2 0.14            168           24.4 183 
 BRR  HZ EP       1857 53.58                             153    0.6210 68.2 299 
 BRR  HN ES       1858  9.91                             153    0.6610 68.2 299 
 BRR  HZ I        1858 13.51        14.2 0.24            150           68.2 299 
 PAM  SZ EP       1857 54.56                             150    0.3210 78.1  42 
 PAM  SE ES       1858 11.41                             150   -0.1110 78.1  42 
 PAM  SZ I        1858 13.61        29.6 0.48            156           78.1  42 
 RUS  HZ EP   1   1857 55.64                             143   -0.21 7  102 175 
 RUS  HE ES       1858 14.05                             143   -0.3510  102 175 
 RUS  HZ I        1858 15.42        15.3 0.43            146            102 175 
 PTB  HZ EP       1857 58.44                             132   -0.31 9  145 258 
 PTB  HN ES   1   1858 19.34                             132   -0.22 7  145 258 
 PTB  HZ I        1858 23.36        11.4 0.52            132            145 258 
 OCA  HN ES       1858 21.53                             130   -0.53 9  159 354 
 OCA  HZ I        1858 23.16        25.5 0.16            132            159 354 
 ZAR  HZ EP   1   1858  3.36                             122   -0.79 6  201 292 
 ZAR  HN ES   4   1858 30.72                             122    1.55 0  201 292 
 ZAR  HZ I        1858 38.02         8.8 0.30            123            201 292 
 NOR  HZ EP       1858  8.32                             118    0.72 8  233 234 
 NOR  HN ES   1   1858 35.14                             118   -0.17 6  233 234 
 NOR  HZ I        1858 43.02         6.4 0.20            120            233 234 
 GUY2CHZ EP   4   1858 17.60                             112    2.12 0  300 234 
 MON  HZ EP   4   1858 19.58                             108   -1.11 0  351 308 
 MON  HN ES   1   1858 57.95                             108   -0.67 5  351 308 
 MON  HZ I        1858 58.83         2.8 0.20            110            351 308 
                                                                                
