 2010  815 1158 24.1 L   6.785 -73.045146.6  RSN  5 0.3 1.7LRSN                1
 GAP=176        0.58       8.5    15.2  7.6  0.1067E+03 -0.6329E+02 -0.3215E+02E
 Epicentro: LOS SANTOS - SANTANDER                                             3
 ACTION:UP  10-09-07 10:55 OP:vdl  STATUS:               ID:20100815115824 L   I
 2010-08-15-1155-35S.COL___111                                                 6
 STAT SP IPHASW D HRMM SECON CODA AMPLIT PERI AZIMU VELO SNR AR TRES W  DIS CAZ7
 BAR2 SZ EP       1158 43.83                             172    -0.110   26 216 
 BAR2 SZ ES   1   1158 58.98                             172    -0.4 7   26 216 
 BAR2 SZ I        1159  0.95        11.0 0.39                            26 216 
 GIR2 SZ EP   3   1158 44.23                             165     0.2 2   36 333 
 BRR  HZ EP       1158 45.80                             150    -0.210   82 296 
 BRR  HZ I        1158 46.01        12.8 0.14                            82 296 
 BRR  HN ES   1   1159  3.32                             150     0.3 7   82 296 
 RUS  HZ EP       1158 47.95                             145     0.110   99 182 
 RUS  HN ES   1   1159  6.41                             145     0.1 7   99 182 
 RUS  HZ I        1159  8.25         4.1 0.31                            99 182 
 GUE  SZ EP   3   1158 49.86                             139     1.0 2  116   7 
                                                                                
