 2012  215 1648 53.0 L   6.755 -73.096134.9  RSN  4 0.2 1.4LRSN                1
 GAP=145        0.45       3.1     4.5  6.0 -0.2085E+00 -0.1379E+01  0.1732E+01E
 ACTION:UP  12-03-07 16:30 OP:epov STATUS:               ID:20120215164853 L   I
 2012-02-15-1646-49S.COL___170                                                 6
 STAT SP IPHASW D HRMM SECON CODA AMPLIT PERI AZIMU VELO AIN AR TRES W  DIS CAZ7
 GIR2 SZ EP   1   1649 11.66                             164    0.12 7 37.4 343 
 PAM  SZ EP   1   1649 14.18                             148    0.11 7 78.1  34 
 PAM  SZ I        1649 14.57         2.7 0.17                          78.1  34 
 PAM  SN ES   1   1649 30.45                             148   -0.10 7 78.1  34 
 BRR  HZ EP   1   1649 13.02                             148   -0.38 7 78.5 300 
 BRR  HZ I        1649 18.58        16.3 0.31                          78.5 300 
 BRR  HN ES   1   1649 29.52                             148    0.18 7 78.5 300 
 RUS  HZ EP   1   1649 15.43                             143    0.17 7 95.3 179 
 RUS  HN ES   1   1649 32.56                             143   -0.10 7 95.3 179 
 RUS  HZ I        1649 34.50         2.8 0.30                          95.3 179 
                                                                                
