 2014 1215 1937 48.5 L   6.800 -73.144148.7  RSN 13 0.5 2.3LRSN                1
 GAP=137        1.08       3.5     4.2  5.6 -0.1370E+01  0.7300E+01  0.2579E+01E
 Epicentro: LOS SANTOS - SANTANDER                                             3
 ACTION:UPD 15-02-10 17:04 OP:nd   STATUS:               ID:20141215193748 L   I
 OLDACT:REG 14-12-15 20:40 OP:mh   STATUS:               ID:20141215192748     3
 2014-12-15-1927-48M.COL___288                                                 6
 STAT SP IPHASW D HRMM SECON CODA AMPLIT PERI AZIMU VELO AIN AR TRES W  DIS CAZ7
 BAR2 EZ EP       1938  8.73                             171    0.2410 23.3 191 
 BAR2 EZ ES       1938 24.16                             171    0.0810 23.3 191 
 BAR2 EZ I        1938 26.43        34.0 0.22            167           23.3 191 
 BRR  HZ EP       1938  9.39                             153   -0.5910 71.4 298 
 BRR  HN ES       1938 27.66                             153    0.9210 71.4 298 
 BRR  HZ I        1938 32.44        21.0 0.23            151           71.4 298 
 PAM  SZ EP       1938 11.41                             151    0.3810 77.3  39 
 PAM  SN ES       1938 28.54                             151   -0.0610 77.3  39 
 PAM  SZ I        1938 30.82        26.4 0.20            159           77.3  39 
 RUS  HZ EP       1938 12.52                             144   -0.0210  101 176 
 RUS  HN ES       1938 30.78                             144   -0.5110  101 176 
 PTB  HZ EP       1938 15.20                             133   -0.53 9  148 259 
 PTB  HN ES       1938 36.64                             133   -0.32 9  148 259 
 PTB  HZ I        1938 43.89        29.1 0.50            132            148 259 
 SPBC HZ EP       1938 17.59                             130    0.36 9  163 219 
 SPBC HN ES   1   1938 39.62                             130   -0.03 7  163 219 
 SPBC HZ I        1938 45.55        46.3 0.24            130            163 219 
 ZAR  HZ EP       1938 21.02                             123   -0.14 9  204 292 
 ZAR  HN ES   1   1938 45.95                             123   -0.68 6  204 292 
 ZAR  HZ I        1938 57.12        20.4 0.62            124            204 292 
 NOR  HZ EP   1   1938 23.40                             119   -1.02 6  235 234 
 NOR  HN ES       1938 52.45                             119    0.02 8  235 234 
 NOR  HZ I        1938 56.14        21.0 0.30            120            235 234 
 SML  HZ EP   1   1938 25.62                             118    0.31 6  244 335 
 SML  HN ES   1   1938 53.03                             118   -0.99 6  244 335 
 CHI  HZ EP       1938 26.62                             118    0.26 8  249 195 
 CHI  HN ES       1938 55.41                             118   -0.49 8  249 195 
 CHI  HZ I        1939  4.76         7.0 0.58            120            249 195 
 ROSC BZ EP   1   1938 27.47                             117    0.68 6  253 211 
 ROSC BN ES   4   1938 59.60                             117    2.95 0  253 211 
 ROSC BZ I        1939  4.80                             119            253 211 
 HEL  HZ EP       1938 29.35                             115    0.47 8  272 256 
 HEL  HN ES       1939  0.96                             115    0.58 8  272 256 
 TOL  SZ EP       1938 37.36                             110    0.47 7  344 225 
 TOL  SN ES   1   1939 14.98                             110    0.35 5  344 225 
 TOL  SZ I        1939 21.02        24.6 0.37            112            344 225 
 MON  HZ EP   4   1938 27.26                             109   -10.4 0  354 308 
 MON  HN ES   4   1939 12.42                             109   -3.54 0  354 308 
                                                                                
