 2011  415 1612 41.4 L   6.748 -73.060145.2  RSN  7 0.3 2.0LRSN                1
 GAP=187        0.58       4.9     6.1  5.9 -0.1043E+02 -0.2135E+01 -0.1876E+01E
 Epicentro: LOS SANTOS - SANTANDER                                             3
 ACTION:UP  11-06-22 15:31 OP:REBC STATUS:               ID:20110415161241 L   I
 2011-04-15-1610-23S.COL___140                                                 6
 STAT SP IPHASW D HRMM SECON CODA AMPLIT PERI AZIMU VELO SNR AR TRES W  DIS CAZ7
 BAR2 SZ EP   1   1613  1.10                             171     0.1 7   22 218 
 BAR2 SZ ES   1   1613 16.18                             171     0.0 7   22 218 
 BAR2 SZ I        1613 17.86        39.5 0.26                            22 218 
 BTL  SZ EP   1   1613  1.25                             168     0.1 7   30 309 
 GIR2 SZ EP   2   1613  1.47                             164     0.2 5   39 338 
 PAM  SZ EP   1   1613  3.91                             151     0.4 7   77  31 
 PAM  SE ES   1   1613 20.61                             151    -0.2 7   77  31 
 BRR  HZ EP   1   1613  2.88                             149    -0.3 7   82 299 
 BRR  HZ I        1613 11.89        20.1 0.24                            82 299 
 BRR  HN ES   1   1613 20.12                             149     0.0 7   82 299 
 GRA  SZ EP   1   1613  6.64                             136    -0.2 7  129  13 
 GRA  SZ ES   1   1613 26.52                             136    -0.2 7  129  13 
 GRA  SZ I        1613 28.12        10.7 0.37                           129  13 
 OCA  SZ EP   2   1613  9.90                             128    -0.5 5  167 350 
 OCA  SZ ES   2   1613 33.66                             128     0.7 5  167 350 
 OCA  SZ I        1613 38.11         9.3 0.20                           167 350 
                                                                                
