 2015  515 1450 52.7 L   6.819 -73.136136.0  RSN  9 0.4 2.2LRSN                1
 GAP=137        0.94       3.3     4.2  5.6 -0.4150E+00  0.7957E+01  0.4012E+01E
 Epicentro: LOS SANTOS - SANTANDER                                             3
 ACTION:UPD 15-09-10 22:04 OP:cam  STATUS:               ID:20150515145052 L   I
 OLDACT:REG 15-05-15 20:30 OP:drio STATUS:               ID:20150515144749     3
 2015-05-15-1447-49M.COL___282                                                 6
 STAT SP IPHASW D HRMM SECON CODA AMPLIT PERI AZIMU VELO AIN AR TRES W  DIS CAZ7
 BAR2 EZ EP     C 1451 11.09                             169   -0.0910 25.6 192 
 BAR2 EZ ES       1451 25.74                             169    0.1210 25.6 192 
 BAR2 EZ I        1451 26.98        42.4 0.30            170           25.6 192 
 BRR  HZ EP     C 1451 12.80                             151    0.0210 71.2 297 
 BRR  HN ES       1451 28.66                             151    0.2010 71.2 297 
 BRR  HN IS       1451 28.66                                           71.2 297 
 BRR  HZ I        1451 30.49        29.6 0.20            147           71.2 297 
 PAM  SZ EP       1451 14.11                             150    0.3910 75.1  40 
 PAM  SN ES       1451 29.77                             150   -0.3710 75.1  40 
 PAM  SZ I        1451 32.66        17.5 0.16            150           75.1  40 
 RUS  HZ EP       1451 15.17                             141   -0.4610  103 177 
 RUS  HN ES       1451 34.11                             141    0.5710  103 177 
 RUS  HZ I        1451 35.25        16.1 0.24            143            103 177 
 SPBC HZ EP       1451 20.32                             126   -0.35 9  165 219 
 SPBC HN ES       1451 41.96                             126   -0.54 9  165 219 
 SPBC HZ I        1451 43.38        26.2 0.20            126            165 219 
 ZAR  HZ EP       1451 24.93                             120    0.40 9  204 291 
 ZAR  HN ES       1451 48.91                             120   -0.47 9  204 291 
 ZAR  HZ I        1451 54.30        22.6 0.54            119            204 291 
 CHI  HZ EP       1451 30.26                             115    0.16 8  251 195 
 CHI  HN ES       1451 58.95                             115   -0.35 8  251 195 
 CHI  HZ I        1452  3.52         6.9 0.24            115            251 195 
 GUY2CHZ EP       1451 36.45                             110    0.36 7  303 235 
 GUY2CHE ES       1452 10.61                             110    0.66 7  303 235 
 MON  HZ EP   4   1451 39.45                             107   -1.81 0  353 308 
 MON  HN ES   4   1452 16.68                             107   -2.49 0  353 308 
 MON  HZ I        1452 31.35         7.8 0.56            106            353 308 
                                                                                
