 2011 1215 1341 56.2 L   6.746 -73.121151.6  RSN  5 0.2 1.7LRSN                1
 GAP=142        0.44       5.4     9.1  6.1  0.1937E+02 -0.1313E+02 -0.5833E+01E
 Epicentro: JORDAN - SANTANDER                                                 3
 ACTION:UPD 12-07-13 16:16 OP:ep   STATUS:               ID:20111215134156 L   I
 2011-12-15-1340-00M.COL___184                                                 6
 STAT SP IPHASW D HRMM SECON CODA AMPLIT PERI AZIMU VELO AIN AR TRES W  DIS CAZ7
 BAR2 SZ EP   1   1342 16.08                             173   -0.32 7 18.3 202 
 BAR2 SZ ES   2   1342 32.40                             173    0.21 5 18.3 202 
 BAR2 SZ I        1342 40.24        12.8 0.55                          18.3 202 
 GIR2 SZ EP   1   1342 16.91                             165    0.20 7 37.6 348 
 GIR2 SZ ES   2   1342 32.61                             165   -0.12 5 37.6 348 
 BRR  HZ EP   1   1342 18.13                             152   -0.11 7 76.6 301 
 BRR  HE ES   2   1342 35.59                             152    0.12 5 76.6 301 
 BRR  HZ I        1342 37.93        18.5 0.43                          76.6 301 
 PAM  SZ EP   2   1342 19.19                             151    0.02 5 80.4  35 
 RUS  HZ EP   2   1342 20.55                             147    0.48 5 94.5 177 
 RUS  HE ES   2   1342 38.53                             147   -0.19 5 94.5 177 
 RUS  HZ I        1342 40.20         4.1 0.38                          94.5 177 
                                                                                
