 2017  215 1932 51.1 L   6.734 -73.503113.3  RSN  8 0.6 1.6LRSN                1
 GAP= 82        1.45       4.9     5.8  9.6  0.2757E+01  0.2318E+02  0.1330E+02E
 Epicentro: EL CARMEN - SANTANDER                                              3
 ACTION:UPD 17-05-24 15:36 OP:jn   STATUS:               ID:20170215193251 L   I
 OLDACT:UP  17-02-17 15:52 OP:nlst STATUS:               ID:20170215193251 L   3
 OLDACT:REG 17-02-15 21:53 OP:cog  STATUS:               ID:20170215192750     3
 2017-02-15-1928-00M.COL___358                                                 6
 STAT SP IPHASW D HRMM SECON CODA AMPLIT PERI AZIMU VELO AIN AR TRES W  DIS CAZ7
 BAR2 EZ EP       1933  7.48                             159    0.1110 38.8 114 
 BAR2 EZ ES       1933 20.06                             159   -0.0010 38.8 114 
 BRR  HZ EP       1933  7.32                             155   -0.0910 47.3 331 
 BRR  HE ES       1933 20.06                             155   -0.0710 47.3 331 
 BRR  HZ I        1933 20.67        15.4 0.10            158           47.3 331 
 RUS  HZ EP       1933 11.98                             134   -0.1310  104 153 
 RUS  HN ES       1933 27.92                             134   -0.5810  104 153 
 PTB  HZ IP     C 1933 10.50                             133   -1.2710  108 259 
 PTB  HN ES   4   1933 25.08                             133   -2.82 0  108 259 
 PAM  EZ EP       1933 12.90                             132    0.1510  111  53 
 PAM  EE ES       1933 30.19                             132    0.5510  111  53 
 PAM  EZ I        1933 33.18         7.2 0.16            133            111  53 
 ZAR  HZ EP       1933 18.03                             119   -0.08 9  172 299 
 ZAR  HN ES   1   1933 40.29                             119    1.11 7  172 299 
 NOR  HZ EP       1933 20.45                             115   -0.70 9  199 230 
 NOR  HN ES   1   1933 45.58                             115    0.98 6  199 230 
 NOR  HZ I        1933 46.68         3.7 0.11            115            199 230 
 CHI  HZ EP       1933 26.29                             111    0.74 8  234 186 
 CHI  HZ ES       1933 53.18                             111    0.75 8  234 186 
 CHI  HZ I        1933 59.55         2.5 0.24            110            234 186 
                                                                                
