 2016  215 1917 58.2 L   6.741 -73.133140.6  RSN  8 0.4 1.6LRSN                1
 GAP=141        0.95       3.9     3.8  6.3 -0.2693E+01  0.6213E+01  0.1396E+01E
 Epicentro: LOS SANTOS - SANTANDER                                             3
 ACTION:UPD 16-03-04 21:26 OP:rebc STATUS:               ID:20160215191758 L   I
 OLDACT:UP  16-02-16 00:12 OP:ak   STATUS:               ID:20160215190751d    3
 OLDACT:DUP 16-02-16 00:09 OP:ak   STATUS:               ID:20160215190751d    3
 OLDACT:UP  16-02-16 00:07 OP:ak   STATUS:               ID:20160215190750     3
 OLDACT:REG 16-02-15 21:34 OP:ak   STATUS:               ID:20160215190750     3
 2016-02-15-1907-50M.COL___304                                                 6
 STAT SP IPHASW D HRMM SECON CODA AMPLIT PERI AZIMU VELO AIN AR TRES W  DIS CAZ7
 BAR2 EZ EP       1918 17.04                             173   -0.0910 17.4 198 
 BAR2 EZ ES       1918 31.75                             173   -0.1210 17.4 198 
 BAR2 EZ I        1918 32.95         6.8 0.13            171           17.4 198 
 BRR  HZ EP       1918 19.45                             150    0.3610 75.7 302 
 BRR  HN ES       1918 36.01                             150    0.6510 75.7 302 
 PAM  EZ EP   2   1918 20.21                             148    0.04 5 81.7  36 
 PAM  EZ IPg      1918 20.52                             148    0.3510 81.7  36 
 PAM  EN ES       1918 36.94                             148   -0.3310 81.7  36 
 PAM  EZ I        1918 39.25        11.4 0.42            151           81.7  36 
 RUS  HZ EP       1918 20.92                             145   -0.0810 94.0 177 
 RUS  HN ES       1918 38.74                             145   -0.0210 94.0 177 
 RUS  HZ I        1918 40.56         6.4 0.24            145           94.0 177 
 PTB  HZ EP       1918 24.11                             131   -0.70 9  148 261 
 PTB  HN ES       1918 45.01                             131   -0.53 9  148 261 
 PTB  HZ I        1918 47.53         6.0 0.26            131            148 261 
 SPBC HN ES       1918 47.54                             129   -0.02 9  159 221 
 ZAR  HN ES       1918 55.82                             121   -0.29 8  208 294 
 NOR  HZ EP       1918 33.62                             118    0.23 8  232 236 
 NOR  HE ES       1919  1.43                             118    0.61 8  232 236 
 NOR  HZ I        1919  7.21         3.9 0.16            118            232 236 
                                                                                
