 2017 1215 1504 42.1 L   6.776 -73.151142.5  RSN  5 0.4 1.9LRSN                1
 GAP=151        0.98       5.5     4.9  7.7 -0.9520E+01  0.1455E+02 -0.3983E+01E
 Epicentro: LOS SANTOS - SANTANDER                                             3
 ACTION:UPD 18-01-04 13:20 OP:rebc STATUS:               ID:20171215150442 L   I
 OLDACT:REG 17-12-15 20:45 OP:leo  STATUS:               ID:20171215145719     3
 2017-12-15-1458-00M.COL___479                                                 6
 STAT SP IPHASW D HRMM SECON CODA AMPLIT PERI AZIMU VELO AIN AR TRES W  DIS CAZ7
 BAR2 EZ EP       15 5  1.28                             171   -0.0510 20.7 190 
 BAR2 EZ ES       15 5 16.11                             171   -0.1910 20.7 190 
 BAR2 EZ I        15 5 16.93        16.5 0.30            167           20.7 190 
 PAM  EZ EP       15 5  4.15                             149   -0.0110 79.8  39 
 PAM  EN ES       15 5 21.51                             149    0.1810 79.8  39 
 PAM  EZ I        15 5 23.69        15.8 0.64            157           79.8  39 
 PTB  HZ EP       15 5  8.15                             131   -0.60 9  147 260 
 PTB  HE ES       15 5 29.00                             131   -0.51 9  147 260 
 PTB  HZ I        15 5 35.46         5.6 0.18            131            147 260 
 SPBC HZ EP       15 5 10.62                             129    0.45 9  161 219 
 SPBC HN ES       15 5 32.43                             129    0.40 9  161 219 
 SPBC HZ I        15 5 44.85        11.5 0.10            129            161 219 
 ZAR  HZ EP       15 5 14.20                             122   -0.23 9  205 293 
 ZAR  HN ES       15 5 40.31                             122    0.70 9  205 293 
 ZAR  HZ I        15 5 48.07        12.0 0.50            123            205 293 
                                                                                
