 2017 1015 1817  4.2 L   6.788 -73.151140.0  RSN 10 0.4 1.9LRSN                1
 GAP=112        0.86       3.1     3.1  4.9  0.2439E+01  0.3889E+01  0.3752E+01E
 Epicentro: LOS SANTOS - SANTANDER                                             3
 ACTION:UPD 17-11-07 19:32 OP:rebc STATUS:               ID:20171015181704 L   I
 OLDACT:UP  17-10-16 00:24 OP:mg   STATUS:               ID:20171015180738     3
 OLDACT:UP  17-10-16 00:23 OP:mg   STATUS:               ID:20171015180738     3
 OLDACT:REG 17-10-15 20:54 OP:mg   STATUS:               ID:20171015180738     3
 2017-10-15-1808-00M.COL___444                                                 6
 STAT SP IPHASW D HRMM SECON CODA AMPLIT PERI AZIMU VELO AIN AR TRES W  DIS CAZ7
 BAR2 EZ IP     C 1817 23.11                             171    0.0110 21.9 189 
 BAR2 EZ ES       1817 37.56                             171   -0.2910 21.9 189 
 BAR2 EZ I        1817 40.26        29.2 0.22            169           21.9 189 
 BRR  HZ IP     C 1817 24.89                             151    0.1610 71.3 300 
 BRR  HN ES       1817 41.61                             151    0.8610 71.3 300 
 BRR  HZ I        1817 42.80        14.4 0.09            152           71.3 300 
 PAM  EZ EP     D 1817 25.93                             149    0.0410 78.8  39 
 PAM  EN ES       1817 42.35                             149   -0.4610 78.8  39 
 PAM  EZ I        1817 45.38        16.5 0.48            153           78.8  39 
 RUS  HZ EP       1817 27.38                             143    0.0910 99.3 176 
 RUS  HN ES       1817 45.33                             143    0.0310 99.3 176 
 RUS  HZ I        1817 47.40        14.2 0.38            143           99.3 176 
 PTB  HZ EP       1817 30.02                             131   -0.60 9  147 259 
 PTB  HN ES       1817 50.72                             131   -0.51 9  147 259 
 PTB  HZ I        1817 52.97         7.6 0.18            132            147 259 
 YPLC HZ EP       1817 33.95                             125    0.46 9  176 151 
 YPLC HN ES       1817 56.42                             125    0.08 9  176 151 
 YPLC HZ I        1818  0.20         9.2 0.26            127            176 151 
 ZAR  HZ EP       1817 36.49                             121    0.23 9  204 293 
 ZAR  HN ES       1818  1.37                             121    0.10 9  204 293 
 ZAR  HZ I        1818  7.20        11.1 0.50            123            204 293 
 NOR  HZ EP       1817 39.19                             117   -0.27 8  233 235 
 NOR  HN ES   1   1818  7.09                             117    0.13 6  233 235 
 NOR  HZ I        1818 10.02         8.5 0.23            118            233 235 
 CHI  HZ EP   1   1817 41.43                             116    0.01 6  247 195 
 CHI  HN ES   1   1818 10.48                             116    0.02 6  247 195 
 CHI  HZ I        1818 16.76         2.3 0.24            117            247 195 
 GUY2CHZ EP   1   1817 47.20                             111   -0.20 5  300 235 
 GUY2CHN ES   3   1818 22.10                             111    1.01 2  300 235 
 GUY2CHZ I        1818 28.65         4.7 0.25                           300 235 
                                                                                
