 2012  315 1629  2.0 L   6.776 -73.153142.9  RSN  5 0.3 1.7LRSN                1
 GAP=137        0.64       4.6     4.4  7.5 -0.2037E+01  0.2403E+01  0.5090E+01E
 ACTION:UP  12-03-31 23:20 OP:EP   STATUS:               ID:20120315162902 L   I
 2012-03-15-1627-37M.COL___181                                                 6
 STAT SP IPHASW D HRMM SECON CODA AMPLIT PERI AZIMU VELO SNR AR TRES W  DIS CAZ7
 BAR2 SZ EP   1   1629 21.28                             171     0.0 7   21 189 
 BAR2 SZ I        1629 37.17        10.5 0.18                            21 189 
 BRR  HZ EP   1   1629 23.22                             152     0.3 7   72 301 
 BRR  HZ I        1629 23.78        21.1 0.10                            72 301 
 BRR  HN ES   1   1629 39.39                             152     0.2 7   72 301 
 PAM  SZ EP   1   1629 24.36                             149     0.3 7   80  39 
 PAM  SN ES   1   1629 40.92                             149    -0.4 7   80  39 
 RUS  HZ EP   1   1629 25.30                             144     0.0 7   98 175 
 RUS  HE ES   1   1629 43.54                             144     0.1 7   98 175 
 RUS  HZ I        1629 45.88         5.0 0.26                            98 175 
 PTB  HZ EP   1   1629 28.17                             132    -0.5 7  146 260 
 PTB  HN ES   1   1629 49.30                             132    -0.1 7  146 260 
 PTB  HZ I        1629 51.84         6.9 0.17                           146 260 
                                                                                
