 2012 1015 1005 15.0 L   7.415 -73.215133.8  RSN  4 0.0 1.2LRSN                1
 GAP=220        0.29      11.7     3.7  3.7 -0.3154E+02 -0.8615E+00 -0.2185E+01E
 Epicentro: EL PLAYON - SANTANDER                                              3
 ACTION:UPD 12-11-22 17:04 OP:ep   STATUS:               ID:20121015100515 L   I
 2012-10-15-1000-00M.COL___230                                                 6
 STAT SP IPHASW D HRMM SECON CODA AMPLIT PERI AZIMU VELO AIN AR TRES W  DIS CAZ7
 GIR2 SZ EP   1   10 5 33.44                             164   -0.02 7 37.2 176 
 PAM  SZ EP   1   10 5 34.83                             156   -0.01 7 57.5  98 
 PAM  SN ES   1   10 5 50.31                             156    0.01 7 57.5  98 
 PAM  SN I        10 5 50.81         4.0 0.21                          57.5  98 
 BRR  HZ EP   1   10 5 34.53                             153    0.03 7 64.6 238 
 BRR  HZ I        10 5 34.81         2.5 0.14                          64.6 238 
 BRR  HE ES       10 5 49.69                             153   -0.0110 64.6 238 
 BAR2 SZ EP   2   10 5 36.56                             144    0.01 5 91.0 178 
                                                                                
