 2012 1115 1637 21.2 L   6.781 -73.150143.1  RSN  6 0.4 1.6LRSN                1
 GAP=137        0.98       5.1     5.0  7.1 -0.2868E+01  0.3889E+01  0.4245E+00E
 Epicentro: LOS SANTOS - SANTANDER                                             3
 ACTION:UPD 12-12-05 15:33 OP:}ep  STATUS:               ID:20121115163721 L   I
 2012-11-15-1630-00M.COL___230                                                 6
 STAT SP IPHASW D HRMM SECON CODA AMPLIT PERI AZIMU VELO AIN AR TRES W  DIS CAZ7
 BAR2 SZ EP       1637 40.42                             171   -0.0210 21.2 190 
 BAR2 SZ ES       1637 54.75                             171   -0.7210 21.2 190 
 BAR2 SZ I        1637 57.10        21.6 0.18                          21.2 190 
 GIR2 SZ EP       1637 40.82                             166    0.2410 33.2 352 
 BRR  HZ EP       1637 42.27                             152    0.2010 71.8 300 
 BRR  HN ES       1637 58.79                             152    0.4210 71.8 300 
 PAM  SZ EP       1637 43.37                             150    0.1510 79.3  39 
 PAM  SZ I        1637 43.58         6.8 0.22                          79.3  39 
 PAM  SE ES       1638  0.23                             150   -0.1910 79.3  39 
 RUS  HZ EP       1637 44.37                             144   -0.1410 98.5 176 
 RUS  HZ I        1637 44.99         2.8 0.28                          98.5 176 
 RUS  HN ES       1638  3.26                             144    0.5410 98.5 176 
 PTB  HZ EP       1637 47.27                             131   -0.57 9  147 260 
 PTB  HE ES       1638  8.65                             131    0.00 9  147 260 
 PTB  HN I        1638 13.72         7.6 0.22                           147 260 
                                                                                
