 2011  915 1215 49.3 L   6.809 -73.117144.0  RSN 15 0.5 2.9LRSN                1
 GAP=116        0.91       3.1     5.4  5.0  0.3055E+00  0.8009E+01  0.3183E+01E
 Epicentro: LOS SANTOS - SANTANDER                                             3
 ACTION:UPD 12-07-13 15:57 OP:ep   STATUS:               ID:20110915121549 L   I
 2011-09-15-1213-48S.COL___169                                                 6
 STAT SP IPHASW D HRMM SECON CODA AMPLIT PERI AZIMU VELO AIN AR TRES W  DIS CAZ7
 BAR2 SZ IP       1216  8.77                             170    0.0310 25.1 197 
 BAR2 SZ ES   1   1216 23.44                             170   -0.47 7 25.1 197 
 BAR2 SZ I        1216 24.73       239.8 0.28                          25.1 197 
 GIR2 SZ IP       1216  8.72                             167   -0.0210 31.0 344 
 GIR2 SZ ES   1   1216 24.24                             167    0.33 7 31.0 344 
 BRR  HZ IP     C 1216 10.46                             151    0.0810 73.5 297 
 BRR  HZ I        1216 10.64       396.9 0.14                          73.5 297 
 BRR  HN ES   1   1216 27.62                             151    0.79 7 73.5 297 
 PAM  SN ES   2   1216 28.47                             151    0.27 5 74.6  38 
 RUS  HZ EP       1216 12.74                             143   -0.1810  101 178 
 RUS  HE ES   1   1216 30.81                             143   -0.55 7  101 178 
 RUS  HZ I        1216 33.00        47.8 0.34                           101 178 
 OCA  SZ EP       1216 17.21                             129   -0.19 9  160 352 
 OCA  SZ ES   2   1216 39.61                             129    0.28 5  160 352 
 OCA  SZ I        1216 47.24        74.7 0.30                           160 352 
 YOP  SZ EP       1216 19.50                             126    0.35 9  178 154 
 YOP  SE ES   3   1216 42.97                             126    0.52 2  178 154 
 ZAR  HZ EP       1216 21.52                             122   -0.36 8  207 292 
 ZAR  HE ES   2   1216 46.48                             122   -0.83 4  207 292 
 ZAR  HZ I        1216 51.86        67.9 0.58                           207 292 
 NOR  SZ EP       1216 24.94                             118   -0.31 8  238 235 
 CHI  HZ EP       1216 26.84                             117   -0.25 8  250 196 
 CHI  HE ES   1   1216 56.39                             117   -0.18 6  250 196 
 CHI  HZ I        1216 58.77        26.4 0.36                           250 196 
 ROSC BZ EP       1216 28.59                             116    1.01 8  255 212 
 ROSC BE ES   1   1216 56.76                             116   -0.70 6  255 212 
 ROSC BZ I        1217  2.83        50.6 0.30                           255 212 
 HEL  HZ EP       1216 30.33                             114    0.55 7  275 256 
 HEL  HN ES   3   1217  1.13                             114   -0.23 2  275 256 
 HEL  HZ I        1217  7.04        31.7 0.26                           275 256 
 RREF HZ EP       1216 36.69                             110    0.99 7  325 230 
 RREF HN ES   3   1217 12.14                             110    0.23 2  325 230 
 RREF HZ I        1217 18.47        32.9 0.28                           325 230 
 COD  HZ EP       1216 36.67                             109   -0.84 6  348 354 
 COD  HN ES   3   1217 14.25                             109   -0.87 2  348 354 
 COD  HZ I        1217 23.34        31.3 0.46                           348 354 
 PRA  HZ EP       1216 42.80                             106   -0.23 6  394 210 
 PRA  HN ES   1   1217 24.48                             106   -0.48 4  394 210 
                                                                                
