 2010 1215 1536 59.9 L   6.791 -73.006140.0  RSN  5 0.4 1.8LRSN                1
 GAP=174        0.78       4.3    11.7  8.2 -0.1519E+02  0.1465E+02 -0.1003E+02E
 Epicentro: CEPITA - SANTANDER                                                 3
 ACTION:UP  11-01-14 15:25 OP:pat  STATUS:               ID:20101215153659 L   I
 2010-12-15-1532-40S.COL___134                                                 6
 STAT SP IPHASW D HRMM SECON CODA AMPLIT PERI AZIMU VELO SNR AR TRES W  DIS CAZ7
 BAR2 SZ EP       1537 18.80                             167    -0.210   30 222 
 BAR2 SZ ES   1   1537 34.02                             167     0.1 7   30 222 
 BAR2 SZ I        1537 36.79        22.3 0.49                            30 222 
 RUS  HZ EP   1   1537 22.70                             143    -0.3 7  100 185 
 RUS  HN ES   1   1537 41.26                             143     0.2 7  100 185 
 RUS  HZ I        1537 42.65         5.6 0.27                           100 185 
 GRA  SZ EP       1537 24.60                             136     0.210  123  10 
 GRA  SZ I        1537 47.47         8.4 0.41                           123  10 
 OCA  SZ EP   2   1537 27.65                             128    -0.5 5  164 348 
 OCA  SZ ES   1   1537 50.14                             128     0.0 7  164 348 
 OCA  SZ I        1537 59.06         8.1 0.56                           164 348 
 RREF HZ EP   1   1537 47.99                             109     0.9 5  333 231 
 RREF HN ES   2   1538 23.18                             109    -0.7 3  333 231 
 RREF HZ I        1538 31.07         4.5 0.22                           333 231 
                                                                                
