 2017 1015 1706 56.2 L   6.752 -73.112139.1  RSN  5 0.1 1.4LRSN                1
 GAP=143        0.39       2.3     2.7  2.9 -0.4148E+00  0.1162E+01  0.8176E+00E
 Epicentro: LOS SANTOS - SANTANDER                                             3
 ACTION:UPD 17-11-07 19:32 OP:rebc STATUS:               ID:20171015170656 L   I
 OLDACT:UP  17-10-15 23:51 OP:mg   STATUS:               ID:20171015165741d    3
 OLDACT:UP  17-10-15 23:51 OP:mg   STATUS:               ID:20171015165741d    3
 OLDACT:UP  17-10-15 23:51 OP:mg   STATUS:               ID:20171015165741d    3
 OLDACT:UP  17-10-15 23:50 OP:mg   STATUS:               ID:20171015165741d    3
 OLDACT:UP  17-10-15 23:50 OP:mg   STATUS:               ID:20171015165741d    3
 OLDACT:UP  17-10-15 23:49 OP:mg   STATUS:               ID:20171015165741d    3
 OLDACT:DUP 17-10-15 23:42 OP:mg   STATUS:               ID:20171015165741d    3
 2017-10-15-1658-00M.COL___438                                                 6
 STAT SP IPHASW D HRMM SECON CODA AMPLIT PERI AZIMU VELO AIN AR TRES W  DIS CAZ7
 BAR2 EZ IP     D 17 7 14.94                             172   -0.0410 19.3 204 
 BAR2 EZ ES       17 7 29.54                             172   -0.0610 19.3 204 
 BAR2 EZ I        17 7 31.03         7.3 0.18            160           19.3 204 
 BRR  HZ IP     D 17 7 16.86                             149   -0.1610 77.1 301 
 BRR  HN ES       17 7 33.20                             149   -0.0310 77.1 301 
 BRR  HZ I        17 7 38.69         4.8 0.11            134           77.1 301 
 BRR  HZ I        17 7 43.55         7.9 0.40                          77.1 301 
 PAM  EZ EP       17 7 17.86                             149    0.0010 79.4  35 
 PAM  EN ES       17 7 34.84                             149    0.1110 79.4  35 
 PAM  EZ I        17 7 36.89         6.6 0.28            146           79.4  35 
 RUS  HZ EP       17 7 18.80                             144   -0.1210 95.0 178 
 RUS  HN ES   1   17 7 36.77                             144    0.15 7 95.0 178 
 RUS  HZ I        17 7 38.22         2.2 0.25            138           95.0 178 
 PTB  HZ EP       17 7 23.17                             130    0.25 9  151 261 
 PTB  HZ I        17 7 44.55         3.3 0.16            118            151 261 
                                                                                
