 2011  715 1508 27.6 L   6.839 -73.050162.6  RSN  5 0.3 1.7LRSN                1
 GAP=147        0.63       3.8     6.6  6.7 -0.5158E+01 -0.8830E+00  0.5021E+01E
 Epicentro: LOS SANTOS - SANTANDER                                             3
 ACTION:UPD 12-07-25 14:00 OP:epov STATUS:               ID:20110715150827 L   I
 2011-07-15-1507-06S.COL___132                                                 6
 STAT SP IPHASW D HRMM SECON CODA AMPLIT PERI AZIMU VELO AIN AR TRES W  DIS CAZ7
 BAR2 SZ EP       15 8 49.48                             169    0.0410 31.0 208 
 BAR2 SZ I        15 8 49.96        10.5 0.15                          31.0 208 
 PAM  SZ EP   1   15 8 51.11                             157   -0.03 7 67.5  35 
 PAM  SN ES   1   15 9  9.59                             157    0.10 7 67.5  35 
 PAM  SZ I        15 9 10.33         3.0 0.35                          67.5  35 
 BRR  HZ EP       15 8 51.37                             153    0.3510 78.9 292 
 BRR  HN ES   1   15 9  8.94                             153   -0.34 7 78.9 292 
 BRR  HZ I        15 9 11.11        18.5 0.13                          78.9 292 
 RUS  HZ EP       15 8 53.36                             146    0.0210  105 182 
 RUS  HZ I        15 8 54.16         3.1 0.17                           105 182 
 RUS  HN ES   1   15 9 13.31                             146   -0.09 7  105 182 
 GRA  SZ EP   1   15 8 53.24                             142   -0.63 7  119  13 
 GRA  SZ ES   1   15 9 14.60                             142    0.25 7  119  13 
 GRA  SZ I        15 9 16.08         9.6 0.33                           119  13 
                                                                                
