 2012  415 1303 44.1 L   6.783 -73.111147.8  RSN  7 0.4 2.0LRSN                1
 GAP=142        0.79       4.6     5.6  6.7  0.2710E+01  0.1082E+02 -0.3159E+01E
 Epicentro: LOS SANTOS - SANTANDER                                             3
 ACTION:UPD 12-07-05 11:53 OP:tino STATUS:               ID:20120415130344 L   I
 2012-04-15-1300-00M.COL___181                                                 6
 STAT SP IPHASW D HRMM SECON CODA AMPLIT PERI AZIMU VELO AIN AR TRES W  DIS CAZ7
 BAR2 SZ EP   1   13 4  3.76                             171    -0.2 7   23 200 
 BAR2 SZ ES   1   13 4 19.27                             171    -0.2 7   23 200 
 BAR2 SZ I        13 4 20.04        27.7 0.42                            23 200 
 BRR  HZ EP       13 4  5.66                             151    -0.110   75 298 
 BRR  HN ES   1   13 4 23.20                             151     0.6 7   75 298 
 PAM  SZ EP   1   13 4  6.56                             151     0.1 7   77  36 
 PAM  SZ I        13 4  6.83        15.7 0.19                            77  36 
 PAM  SN ES   1   13 4 23.94                             151     0.0 7   77  36 
 RUS  HZ EP   1   13 4  7.90                             145     0.0 7   99 178 
 RUS  HN ES   1   13 4 26.49                             145     0.0 7   99 178 
 RUS  HZ I        13 4 27.64        10.9 0.35                            99 178 
 OCA  SZ EP   1   13 4 12.55                             130    -0.3 7  163 352 
 OCA  SZ ES   2   13 4 35.24                             130     0.1 5  163 352 
 ZAR  HZ EP   1   13 4 17.81                             122     0.7 6  208 292 
 ZAR  HE ES   1   13 4 42.06                             122    -0.8 6  208 292 
 ZAR  HZ I        13 4 48.84        14.0 0.31                           208 292 
 HEL  HZ EP   1   13 4 25.07                             115     0.3 6  275 256 
 HEL  HZ I        13 5  2.13         3.5 0.39                           275 256 
                                                                                
