 2016  915 1706 37.0 L   6.811 -73.150136.0  RSN  5 0.5 1.6LRSN                1
 GAP=135        0.86       4.8     6.2  9.3  0.2153E+01  0.3018E+02 -0.1169E+02E
 Epicentro: LOS SANTOS - SANTANDER                                             3
 ACTION:UPD 17-08-17 21:12 OP:lp   STATUS:               ID:20160915170637 L   I
 OLDACT:DUP 16-09-16 19:27 OP:lv   STATUS:               ID:20160915165730d    3
 2016-09-15-1658-00M.COL___330                                                 6
 STAT SP IPHASW D HRMM SECON CODA AMPLIT PERI AZIMU VELO AIN AR TRES W  DIS CAZ7
 BAR2 EZ EP   2   17 6 54.83                             169   -0.66 5 24.4 188 
 BAR2 EZ ES       17 7  9.99                             169    0.0910 24.4 188 
 BAR2 EZ I        17 7 13.33         8.7 0.44            172           24.4 188 
 PAM  EZ EP   2   17 6 57.59                             149   -0.56 5 76.8  40 
 PAM  EN ES   2   17 7 14.67                             149    0.02 5 76.8  40 
 PAM  EZ I        17 7 17.18        11.3 0.56            151           76.8  40 
 RUS  HZ EP   2   17 6 59.81                             141   -0.09 5  102 176 
 RUS  HE ES       17 7 17.78                             141    0.0210  102 176 
 RUS  HZ I        17 7 19.21         4.9 0.22            146            102 176 
 SPBC HZ EP   3   17 7  3.87                             126   -0.96 2  164 219 
 SPBC HE ES       17 7 26.51                             126   -0.03 9  164 219 
 SPBC HZ I        17 7 27.77         7.8 0.18            130            164 219 
 ZAR  HZ EP       17 7  9.62                             120    0.88 9  203 292 
 ZAR  HE ES       17 7 32.99                             120   -0.49 9  203 292 
 ZAR  HZ I        17 7 36.14         3.4 0.28            123            203 292 
                                                                                
