 2011  215 1718 33.0 L   7.282 -74.027 14.0  RSN  4 0.2 2.1LRSN                1
 GAP=278        0.37       3.2     7.9  3.8 -0.6201E+01 -0.5954E+01 -0.4923E+01E
 Epicentro: PUERTO WILCHES - SANTANDER                                         3
 ACTION:UP  11-03-28 15:08 OP:jfem STATUS:               ID:20110215171833 L   I
 2011-02-15-1718-05S.COL___136                                                 6
 STAT SP IPHASW D HRMM SECON CODA AMPLIT PERI AZIMU VELO SNR AR TRES W  DIS CAZ7
 BTL  SZ EP       1718 48.10                              97     0.110   93 116 
 GIR2 SZ EP   3   1718 47.43                                    -0.8 2   95 104 
 GRA  SZ EP       1718 56.41                              56     0.0 9  151  64 
 GRA  SZ ES   1   1719 14.67                              56     0.0 7  151  64 
 GRA  SZ I        1719 17.36        27.6 0.47                           151  64 
 RUS  HZ EP   3   1719  1.12                              56    -0.1 2  186 146 
 RUS  HN ES   2   1719 23.15                              56    -0.1 4  186 146 
                                                                                
