 2013  315 1045 14.6 L   6.864 -73.488116.8  RSN  4 0.4 1.4LRSN                1
 GAP=148        0.83       7.5     6.4  7.3 -0.1397E+01  0.9998E+01 -0.4782E+01E
 Epicentro: SAN VICENTE DE CHUCURI - SANTANDER                                 3
 ACTION:UPD 13-04-09 14:02 OP:ep   STATUS:               ID:20130315104514 L   I
 2013-03-15-1040-00M.COL___244                                                 6
 STAT SP IPHASW D HRMM SECON CODA AMPLIT PERI AZIMU VELO AIN AR TRES W  DIS CAZ7
 BRR  HZ IP     C 1045 31.05                             161    0.2310 36.5 317 
 BRR  HN ES       1045 43.66                             161    0.1810 36.5 317 
 BRR  HN I        1045 44.12        10.8 0.13             47           36.5 317 
 BAR2 SZ EP   1   1045 31.95                             157    0.40 7 45.3 132 
 BAR2 SZ ES   1   1045 44.22                             157   -0.56 7 45.3 132 
 BAR2 SZ I        1045 45.54        10.2 0.29             47           45.3 132 
 PTB  HZ IP     C 1045 36.21                             133    0.1710  113 252 
 PTB  HN ES   1   1045 52.37                             133   -0.39 7  113 252 
 PTB  HZ I        1045 53.06         2.7 0.20             47            113 252 
 SML  HZ EP   1   1045 46.77                             113   -0.73 6  224 343 
 SML  HZ I        1046 16.10         2.4 0.12             37            224 343 
                                                                                
