 2013  515 1044 14.6 L   6.791 -73.179142.1  RSN  7 0.4 1.6LRSN                1
 GAP=133        0.87       3.9     4.2  6.6 -0.2559E+01  0.7442E+01 -0.2004E+01E
 Epicentro: LOS SANTOS - SANTANDER                                             3
 ACTION:UPD 13-06-20 09:50 OP:ep   STATUS:               ID:20130515104414 L   I
 2013-05-15-1040-00M.COL___256                                                 6
 STAT SP IPHASW D HRMM SECON CODA AMPLIT PERI AZIMU VELO AIN AR TRES W  DIS CAZ7
 BAR2 SZ EP       1044 33.90                             171    0.0910 22.0 181 
 BAR2 SZ ES       1044 48.32                             171   -0.4410 22.0 181 
 BAR2 SZ I        1044 50.29        11.4 0.24            173           22.0 181 
 BRR  HZ EP       1044 35.72                             153    0.4810 68.4 301 
 BRR  HN ES   1   1044 52.12                             153    0.81 7 68.4 301 
 BRR  HZ I        1044 57.75         8.9 0.16            152           68.4 301 
 PAM  SZ EP       1044 36.86                             149    0.2010 80.5  41 
 PAM  SN ES       1044 53.72                             149   -0.1210 80.5  41 
 PAM  SZ I        1044 55.37         6.1 0.48            152           80.5  41 
 RUS  HZ EP       1044 38.04                             143    0.0510100.0 174 
 RUS  HN ES       1044 56.15                             143   -0.0510100.0 174 
 RUS  HZ I        1044 57.07         3.9 0.46            148          100.0 174 
 PTB  HZ EP       1044 40.53                             132   -0.43 9  144 259 
 PTB  HN ES       1045  1.51                             132    0.01 9  144 259 
 PTB  HZ I        1045  3.67         6.0 0.14            134            144 259 
 NOR  HE ES   1   1045 17.12                             118   -0.06 6  231 234 
 SML  HE ES   1   1045 18.60                             117   -0.75 6  243 336 
                                                                                
