 2013  515 1151  2.2 L   6.187 -73.768 25.3  RSN  5 0.3 1.6LRSN                1
 GAP=157        0.69       2.7     1.6  5.2  0.6111E+00  0.2195E+01 -0.4742E+01E
 Epicentro: LANDAZURI - SANTANDER                                              3
 ACTION:UPD 13-06-20 09:50 OP:ep   STATUS:               ID:20130515115102 L   I
 2013-05-15-1150-00M.COL___256                                                 6
 STAT SP IPHASW D HRMM SECON CODA AMPLIT PERI AZIMU VELO AIN AR TRES W  DIS CAZ7
 BAR2 SZ EP   1   1151 15.58                              91    0.23 7 78.7  55 
 BAR2 SZ ES       1151 25.48                              91   -0.1710 78.7  55 
 BAR2 SZ I        1151 26.58        12.8 0.22            104           78.7  55 
 RUS  HZ EP       1151 16.63                              91    0.4710 82.4 113 
 RUS  HE ES       1151 26.67                              91   -0.4210 82.4 113 
 RUS  HZ I        1151 28.59        30.2 0.18            104           82.4 113 
 PTB  HZ EP       1151 16.21                              91    0.1210 85.6 297 
 PTB  HN ES       1151 26.74                              91   -0.2210 85.6 297 
 PTB  HZ I        1151 27.56        17.8 0.17            103           85.6 297 
 BRR  HZ EP       1151 18.53                              61    0.2010  102   3 
 BRR  HE ES       1151 30.92                              61   -0.0410  102   3 
 BRR  HZ I        1151 33.18        13.6 0.22             56            102   3 
 HEL  HN ES       1151 52.34                              61   -0.10 9  195 270 
                                                                                
