 2011  715 1108 45.1 L   6.385 -73.646106.4  RSN 17 0.5 2.8LRSN                1
 GAP= 71        0.96       2.7     3.4  7.0 -0.2924E+01  0.9646E+01  0.2632E+01E
 Epicentro: SANTA HELENA DEL OPON - SANTANDER                                  3
 ACTION:UPD 12-07-25 14:00 OP:epov STATUS:               ID:20110715110845 L   I
 2011-07-15-1106-58S.COL___131                                                 6
 STAT SP IPHASW D HRMM SECON CODA AMPLIT PERI AZIMU VELO AIN AR TRES W  DIS CAZ7
 BAR2 SZ IP     C 11 9  1.63                             150    0.1210 56.1  66 
 BAR2 SZ ES   1   11 9 14.59                             150    0.29 7 56.1  66 
 BAR2 SZ I        11 9 15.56       612.0 0.10                          56.1  66 
 BTL  SZ EP       11 9  3.20                             143    0.6010 72.3  35 
 BRR  HZ EP       11 9  2.62                             140   -0.2410 80.1 355 
 BRR  HZ I        11 9 10.96       117.5 0.12                          80.1 355 
 BRR  HN ES   1   11 9 16.71                             140    0.02 7 80.1 355 
 RUS  HZ IP     D 11 9  3.42                             139   -0.3310 82.7 131 
 RUS  HZ I        11 9  3.73       120.0 0.20                          82.7 131 
 RUS  HN ES   1   11 9 17.33                             139   -0.95 7 82.7 131 
 PAM  SZ EP   1   11 9  9.51                             121   -0.40 7  149  45 
 PAM  SN ES   1   11 9 28.70                             121   -0.54 7  149  45 
 NOR  SZ EP       11 9  9.91                             118   -0.97 9  163 236 
 NOR  SN ES   1   11 9 31.21                             118    0.23 7  163 236 
 NOR  SZ I        11 9 33.22        15.1 0.17                           163 236 
 BRI  SZ EP   1   11 9 12.40                             116    0.12 7  175  32 
 BRI  SZ ES   1   11 9 34.44                             116    0.97 7  175  32 
 BRI  SZ I        11 9 36.53        85.5 0.32                           175  32 
 ROSC BZ EP   1   11 9 14.34                             115    0.47 7  186 204 
 ROSC BZ I        11 9 45.12        61.6 0.33                           186 204 
 GRA  SZ EP       11 9 13.94                             114   -0.03 9  190  29 
 GRA  SZ ES   1   11 9 36.86                             114    0.38 7  190  29 
 GRA  SZ I        11 9 45.47        80.3 0.27                           190  29 
 CHI  HZ EP   1   11 9 14.47                             113   -0.31 6  194 183 
 CHI  HN ES   1   11 9 38.68                             113    0.77 6  194 183 
 CHI  HZ I        11 9 41.59        29.0 0.26                           194 183 
 HEL  HZ EP       11 9 16.18                             112   -0.24 8  209 264 
 HEL  HN ES   1   11 9 40.96                             112    0.13 6  209 264 
 HEL  HZ I        11 9 43.61       131.3 0.31                           209 264 
 GUY  SZ EP   1   11 9 19.48                             109    0.35 6  232 236 
 VIL  SZ EP   1   11 9 20.84                             107   -0.11 6  251 181 
 VIL  SN ES   1   11 9 49.74                             107    0.84 6  251 181 
 VIL  SZ I        11 9 52.57        51.1 0.31                           251 181 
 TOL  SZ EP   1   11 9 23.49                             105   -0.14 6  272 223 
 DBB  SZ EP   1   11 9 25.91                             104    0.25 5  292 284 
 DBB  SZ ES   1   11 9 57.04                             104   -0.23 5  292 284 
 PRA  HZ EP   1   11 9 29.27                             102   -0.36 5  326 205 
 PRA  HN ES   1   1110  4.90                             102    0.55 5  326 205 
 PRA  HZ I        1110 11.48       113.4 0.17                           326 205 
 SJA  SZ EP   1   11 9 32.38                             100    0.27 5  346 186 
                                                                                
