 2015  215 1140 25.3 L   6.810 -73.122141.2  RSN 23 0.5 2.6LRSN                1
 GAP= 72        1.07       2.2     2.7  4.9 -0.1598E+01  0.2205E+01  0.1453E+01E
 Epicentro: LOS SANTOS - SANTANDER                                             3
 ACTION:UPD 15-04-30 21:26 OP:nd   STATUS:               ID:20150215114025 L   I
 OLDACT:REG 15-02-15 22:03 OP:fm   STATUS:               ID:20150215113749     3
 2015-02-15-1137-49M.COL___298                                                 6
 STAT SP IPHASW D HRMM SECON CODA AMPLIT PERI AZIMU VELO AIN AR TRES W  DIS CAZ7
 BAR2 EZ EP       1140 44.74                             170    0.3410 25.0 196 
 BAR2 EZ I        1141  0.56        94.3 0.36            169           25.0 196 
 BRR  HZ EP       1140 46.23                             151    0.1810 73.1 297 
 BRR  HE ES       1141  3.38                             151    1.1310 73.1 297 
 BRR  HZ I        1141  8.51        79.7 0.52            151           73.1 297 
 PAM  SZ EP     C 1140 47.58                             151    0.7210 74.9  38 
 PAM  SE ES       1141  3.71                             151    0.0110 74.9  38 
 PAM  SZ I        1141  6.58        44.6 0.54            154           74.9  38 
 RUS  HZ EP       1140 48.76                             143    0.1010  102 178 
 RUS  HE ES       1141  6.33                             143   -0.5610  102 178 
 RUS  HZ I        1141  8.03        41.2 0.24            145            102 178 
 PTB  HZ EP       1140 51.70                             130   -0.45 9  151 259 
 PTB  HN ES       1141 12.92                             130   -0.18 9  151 259 
 PTB  HZ I        1141 16.49        43.5 0.16            132            151 259 
 TAM  HZ EP     D 1140 53.09                             130    0.70 9  153 106 
 TAM  HE ES       1141 13.34                             130   -0.19 9  153 106 
 TAM  HZ I        1141 15.72        18.4 0.32            135            153 106 
 OCA  HZ EP       1140 53.05                             129   -0.13 9  160 352 
 OCA  HE ES       1141 14.27                             129   -0.66 9  160 352 
 OCA  HZ I        1141 20.75        39.1 0.22            131            160 352 
 SPBC HZ EP       1140 53.81                             128    0.13 9  166 219 
 SPBC HE ES       1141 14.86                             128   -0.97 9  166 219 
 SPBC HZ I        1141 20.49        39.6 0.22            130            166 219 
 ZAR  HZ EP       1140 57.87                             121    0.22 8  206 292 
 ZAR  HE ES       1141 23.28                             121    0.38 8  206 292 
 ZAR  HZ I        1141 29.61        59.3 0.36            123            206 292 
 NOR  HZ EP       1141  1.40                             117    0.34 8  237 235 
 NOR  HN ES       1141 28.78                             117   -0.18 8  237 235 
 NOR  HZ I        1141 34.57        29.7 0.20            119            237 235 
 SML  HZ EP       1141  1.03                             116   -0.65 8  244 335 
 SML  HN ES       1141 29.68                             116   -0.38 8  244 335 
 SML  HZ I        1141 37.03        63.5 0.10            119            244 335 
 CHI  HZ EP       1141  2.97                             116    0.04 8  250 196 
 CHI  HE ES       1141 32.30                             116    0.01 8  250 196 
 CHI  HZ I        1141 35.57        12.8 0.62            118            250 196 
 ROSC BZ EP       1141  3.69                             115    0.28 8  255 211 
 ROSC BE ES       1141 33.03                             115   -0.12 8  255 211 
 ROSC BZ I        1141 41.41        33.7 0.35            118            255 211 
 URE  HN ES   4   1141 36.28                             112   -2.14 0  286 292 
 URE  HZ I        1141 44.59        20.9 0.14            114            286 292 
 GUY2CHZ EP       1141  8.77                             111   -0.24 7  304 235 
 GUY2CHE ES       1141 42.12                             111   -0.99 7  304 235 
 GUY2CHZ I        1141 49.95        14.5 0.36                           304 235 
 RREF HZ EP       1141 11.65                             110    0.10 7  325 230 
 RREF HN ES       1141 48.30                             110    0.67 7  325 230 
 RREF HZ I        1141 55.22        20.3 0.26            112            325 230 
 TOL  SZ EP       1141 13.90                             108    0.23 6  346 225 
 TOL  SN ES       1141 51.74                             108    0.33 6  346 225 
 TOL  SZ I        1142  4.42        12.2 0.42            110            346 225 
 SDV  BZ EP       1141 14.37                             108   -0.47 6  358  50 
 SDV  BE ES       1141 52.81                             108   -0.68 6  358  50 
 SDV  BZ I        1141 54.53         6.2 0.50            110            358  50 
 ARGC HZ EP   1   1141 14.64                             107   -0.12 5  359 340 
 ARGC HN ES       1141 53.30                             107   -0.05 6  359 340 
 ARGC HZ I        1141 57.79        14.5 0.36            109            359 340 
 ANIL HZ EP       1141 16.08                             107    0.85 6  360 225 
 ANIL HE ES       1141 53.60                             107   -0.58 6  360 225 
 PRA  HZ EP       1141 18.64                             106   -0.28 6  394 210 
 PRA  HE ES       1142  0.43                             106   -0.32 6  394 210 
 PRA  HZ I        1142  6.57        17.5 0.46            108            394 210 
 ORTC HZ EP       1141 19.92                             105    0.58 6  398 216 
 ORTC HE ES       1142  1.34                             105   -0.16 6  398 216 
 ORTC HZ I        1142  8.07        13.0 0.22            107            398 216 
 PAL  HZ EP       1141 20.76                             105    0.13 6  409 239 
 PAL  HN ES       1142  3.64                             105   -0.16 6  409 239 
 PAL  HZ I        1142  8.01         7.5 0.40            107            409 239 
                                                                                
