 2011  515 1009  1.4 L   6.783 -73.072140.7  RSN  9 0.3 1.8LRSN                1
 GAP=147        0.57       3.1     5.0  4.9 -0.5473E+01  0.2706E+01  0.9029E-01E
 Epicentro: LOS SANTOS - SANTANDER                                             3
 ACTION:UP  11-06-29 08:53 OP:tino STATUS:               ID:20110515100901 L   I
 2011-05-15-1004-18S.COL___139                                                 6
 STAT SP IPHASW D HRMM SECON CODA AMPLIT PERI AZIMU VELO SNR AR TRES W  DIS CAZ7
 BAR2 SZ EP   1   10 9 20.23                             170    -0.2 7   24 210 
 BAR2 SZ ES   1   10 9 35.73                             170     0.5 7   24 210 
 BAR2 SZ I        10 9 37.48        14.5 0.26                            24 210 
 PAM  SZ EP   2   10 9 22.78                             151    -0.1 5   74  34 
 PAM  SE ES   2   10 9 39.74                             151     0.1 5   74  34 
 BRR  HZ EP   1   10 9 22.19                             149    -0.3 7   79 297 
 BRR  HZ I        10 9 23.48        29.2 0.14                            79 297 
 BRR  HN ES   1   10 9 38.91                             149     0.0 7   79 297 
 RUS  HZ EP   1   10 9 24.27                             143    -0.2 7   98 181 
 RUS  HE ES   2   10 9 42.39                             143    -0.1 5   98 181 
 RUS  HZ I        10 9 45.30         5.0 0.30                            98 181 
 GRA  SZ EP   1   10 9 26.37                             136     0.2 7  125  14 
 GRA  SZ ES   1   10 9 45.16                             136    -0.3 7  125  14 
 GRA  SZ I        10 9 47.95         6.6 0.58                           125  14 
 OCA  SZ EP   1   10 9 30.06                             128     0.5 7  163 350 
 OCA  SZ ES   2   10 9 51.36                             128    -0.2 5  163 350 
 OCA  SZ I        1010  0.16         5.4 0.26                           163 350 
 NOR  SZ EP   2   10 9 37.84                             117     0.4 4  240 236 
 NOR  SN ES   2   1010  5.30                             117    -0.2 4  240 236 
 HEL  HZ EP   2   10 9 42.26                             113     0.1 4  280 257 
 HEL  HZ I        1010 19.95         2.9 0.43                           280 257 
 RREF HZ EP   2   10 9 48.03                             110     0.1 3  327 231 
 RREF HZ I        1010 31.08         2.7 0.40                           327 231 
                                                                                
