 2011  615 1032 49.4 L   6.751 -73.079144.6  RSN  5 0.3 1.5LRSN                1
 GAP=167        0.86       4.9    10.3 10.9  0.1245E+01 -0.2669E+02 -0.1033E+02E
 Epicentro: LOS SANTOS - SANTANDER                                             3
 ACTION:UP  11-07-14 19:05 OP:ep   STATUS:               ID:20110615103249 L   I
 2011-06-15-1031-06S.COL___138                                                 6
 STAT SP IPHASW D HRMM SECON CODA AMPLIT PERI AZIMU VELO SNR AR TRES W  DIS CAZ7
 BAR2 SZ EP       1033  9.00                             171     0.110   21 213 
 BAR2 SZ I        1033 24.32         4.0 0.43                            21 213 
 BRR  HZ EP       1033 11.06                             149     0.110   80 299 
 BRR  HE ES   1   1033 27.87                             149     0.1 7   80 299 
 BRR  HZ I        1033 30.68        14.6 0.15                            80 299 
 RUS  HZ EP   1   1033 13.08                             145     0.4 7   95 180 
 RUS  HN ES   1   1033 30.32                             145    -0.5 7   95 180 
 RUS  HZ I        1033 32.68         2.7 0.30                            95 180 
 GRA  SZ EP   1   1033 14.90                             136     0.1 7  129  14 
 GRA  SZ ES   1   1033 34.80                             136     0.1 7  129  14 
 GRA  SZ I        1033 36.77         5.3 0.30                           129  14 
 OCA  SZ EP   1   1033 17.53                             128    -0.7 7  167 351 
 OCA  SZ I        1033 43.98         5.0 0.30                           167 351 
                                                                                
