 2012  515 1848 44.3 L   6.769 -73.104139.7  RSN  4 0.2 1.9LRSN                1
 GAP=143        0.70       6.4     6.7  8.8 -0.5994E+01 -0.8518E+01  0.2453E+02E
 Epicentro: LOS SANTOS - SANTANDER                                             3
 ACTION:UP  12-07-05 12:05 OP:pat  STATUS:               ID:20120515184844 L   I
 2012-05-15-1847-48M.COL___190                                                 6
 STAT SP IPHASW D HRMM SECON CODA AMPLIT PERI AZIMU VELO SNR AR TRES W  DIS CAZ7
 BAR2 SZ EP       1849  3.21                             171     0.010   21 204 
 BAR2 SZ I        1849  3.28        23.3 0.40                            21 204 
 BAR2 SZ ES   2   1849 17.57                             171    -0.3 5   21 204 
 PAM  SZ EP       1849  6.10                             150     0.210   77  35 
 PAM  SN ES   1   1849 22.54                             150    -0.2 7   77  35 
 BRR  HZ EP       1849  4.81                             150    -0.410   77 299 
 BRR  HZ I        1849  5.34        28.5 0.12                            77 299 
 BRR  HN ES   1   1849 21.80                             150     0.4 7   77 299 
 RUS  HZ EP       1849  7.35                             143     0.110   97 179 
 RUS  HZ I        1849 27.65         6.3 0.30                            97 179 
                                                                                
