 2013  615 1052 11.0 L   6.709 -73.182144.1  RSN  7 0.4 2.0LRSN                1
 GAP=175        1.09       4.5     7.0  8.9  0.5784E+01  0.1614E+01 -0.1141E+02E
 Epicentro: VILLANUEVA - SANTANDER                                             3
 ACTION:UPD 14-01-08 09:54 OP:ep   STATUS:               ID:20130615105211 L   I
 OLDACT:REG 13-06-15 07:38 OP:mh   STATUS:               ID:20130615104959     3
 2013-06-15-1049-59M.COL___261                                                 6
 STAT SP IPHASW D HRMM SECON CODA AMPLIT PERI AZIMU VELO AIN AR TRES W  DIS CAZ7
 BAR2 SZ EP       1052 30.55                             175    0.2810 12.9 180 
 BAR2 SZ ES   1   1052 45.38                             175    0.08 7 12.9 180 
 BAR2 SZ I        1052 46.46         9.6 0.20            177           12.9 180 
 GIR2 SZ EP       1052 30.80                             163    0.0210 40.9 358 
 BRR  HZ EP       1052 32.65                             151    0.5610 73.3 307 
 BRR  HN ES       1052 49.24                             151    0.6910 73.3 307 
 BRR  HN I        1052 49.98        31.7 0.18            151           73.3 307 
 RUS  HZ EP   1   1052 34.32                             146    0.40 7 90.9 173 
 RUS  HN ES       1052 51.16                             146   -0.6310 90.9 173 
 RUS  HZ I        1052 53.71         9.2 0.32            149           90.9 173 
 PTB  HZ EP       1052 37.30                             133   -0.03 9  142 262 
 PTB  HN ES       1052 57.39                             133   -0.48 9  142 262 
 PTB  HZ I        1052 58.48         4.7 0.14            134            142 262 
 OCA  HN ES       1053  2.16                             127   -0.64 9  170 355 
 OCA  HN I        1053  4.48        38.9 0.24            128            170 355 
 SML  HZ EP   1   1052 48.14                             116   -0.22 6  251 337 
 SML  HN ES       1053 17.27                             116   -0.23 8  251 337 
 SML  HN I        1053 23.94        18.2 0.10            117            251 337 
                                                                                
