 2014  815 1435 54.7 L   6.724 -72.914137.4  RSN  4 0.3 1.5LRSN                1
 GAP=292        0.86       6.4     9.8  7.1 -0.7258E+01  0.2818E+01  0.9444E+01E
 Epicentro: CEPITA - SANTANDER                                                 3
 ACTION:UPD 14-09-15 21:50 OP:nd   STATUS:               ID:20140815143554 L   I
 OLDACT:UP  14-08-15 21:25 OP:cam  STATUS:               ID:20140815143000     3
 OLDACT:REG 14-08-15 20:04 OP:cam  STATUS:               ID:20140815143000     3
 2014-08-15-1430-00M.COL___285                                                 6
 STAT SP IPHASW D HRMM SECON CODA AMPLIT PERI AZIMU VELO AIN AR TRES W  DIS CAZ7
 BAR2 SZ EP       1436 13.88                             166    0.2810 33.0 244 
 BAR2 SZ ES       1436 27.96                             166   -0.3610 33.0 244 
 BAR2 SZ I        1436 31.29         7.0 0.28            159           33.0 244 
 BRR  HZ EP       1436 16.93                             142    0.1710 97.8 296 
 BRR  HN ES       1436 34.15                             142    0.2010 97.8 296 
 BRR  HN I        1436 36.84        10.6 0.40            141           97.8 296 
 PTB  HZ EP       1436 22.64                             125   -0.70 9  172 263 
 PTB  HN ES   4   1436 43.04                             125   -2.61 0  172 263 
 PTB  HZ I        1436 48.99         2.8 0.22            125            172 263 
 SPBC HZ EP       1436 23.85                             125    0.13 9  175 227 
 SPBC HN ES       1436 46.54                             125    0.21 9  175 227 
 SPBC HZ I        1436 51.21         3.6 0.14            125            175 227 
                                                                                
