 2015  115 1428 54.9 L   6.802 -73.146147.2  RSN 18 0.4 2.9LRSN                1
 GAP= 71        0.93       2.7     2.7  4.9 -0.6511E+00  0.4251E+01 -0.2582E+00E
 Epicentro: LOS SANTOS - SANTANDER                                             3
 ACTION:UPD 15-03-02 15:39 OP:nd   STATUS:               ID:20150115142854 L   I
 OLDACT:UP  15-01-16 00:42 OP:mh   STATUS:               ID:20150115142745     3
 OLDACT:REG 15-01-15 20:37 OP:mh   STATUS:               ID:20150115142745     3
 2015-01-15-1427-45M.COL___243                                                 6
 STAT SP IPHASW D HRMM SECON CODA AMPLIT PERI AZIMU VELO AIN AR TRES W  DIS CAZ7
 BAR2 EZ EP       1429 14.66                             170   -0.0710 23.6 190 
 BAR2 EZ ES       1429 30.02                             170   -0.1610 23.6 190 
 BAR2 EZ I        1429 31.36       118.3 0.26            168           23.6 190 
 BRR  HZ EP     C 1429 16.66                             153    0.4410 71.0 298 
 BRR  HN ES   1   1429 33.80                             153    0.97 7 71.0 298 
 BRR  HZ I        1429 38.75       107.3 0.16            150           71.0 298 
 PAM  SZ EP     D 1429 17.50                             151    0.2210 77.2  40 
 PAM  SN ES       1429 34.70                             151   -0.0210 77.2  40 
 PAM  SZ I        1429 36.80       123.5 0.54            157           77.2  40 
 RUS  HZ EP       1429 18.46                             144   -0.3810  101 176 
 RUS  HN ES       1429 37.18                             144   -0.3110  101 176 
 RUS  HZ I        1429 39.79        65.3 0.60            146            101 176 
 PTB  HZ EP   1   1429 21.30                             132   -0.71 7  148 259 
 PTB  HN ES   1   1429 42.27                             132   -0.86 7  148 259 
 PTB  HZ I        1429 48.54       113.6 0.62            132            148 259 
 TAM  HZ IP     D 1429 22.84                             131    0.11 9  155 105 
 TAM  HN ES       1429 44.80                             131    0.39 9  155 105 
 OCA  HZ EP   1   1429 23.08                             130   -0.24 7  160 353 
 OCA  HN ES   1   1429 45.27                             130   -0.20 7  160 353 
 OCA  HZ I        1429 49.55        85.1 0.48            133            160 353 
 SPBC HZ EP       1429 23.51                             129   -0.04 9  163 219 
 SPBC HN ES       1429 45.91                             129    0.04 9  163 219 
 SPBC HZ I        1429 52.58       153.8 0.24            130            163 219 
 ZAR  HZ EP   1   1429 27.12                             123   -0.33 6  204 292 
 ZAR  HN ES       1429 53.17                             123    0.35 9  204 292 
 ZAR  HZ I        1429 59.02       125.1 0.50            123            204 292 
 NOR  HZ EP       1429 30.44                             119   -0.31 8  235 234 
 NOR  HN ES   1   1429 58.02                             119   -0.67 6  235 234 
 NOR  HZ I        1430  5.97        62.7 0.26            120            235 234 
 SML  HZ EP       1429 31.12                             118   -0.48 8  243 335 
 SML  HN ES       1429 59.89                             118   -0.32 8  243 335 
 HEL  HZ EP       1429 35.72                             115    0.51 8  272 256 
 HEL  HN ES       1430  7.27                             115    0.64 8  272 256 
 HEL  HZ I        1430 13.16        45.9 0.32            116            272 256 
 URE  HZ EP   4   1429 34.07                             114   -1.98 0  284 292 
 URE  HN ES   4   1430  6.38                             114   -1.74 0  284 292 
 URE  HZ I        1430 16.51        46.3 0.20            115            284 292 
 PTGC HZ EP   4   1429 37.49                             112   -1.38 0  309 159 
 PTGC HN ES   4   1430 10.61                             112   -2.54 0  309 159 
 CBOC HZ EP   1   1429 42.40                             110    0.50 5  334 252 
 CBOC HN ES       1430 18.49                             110   -0.05 7  334 252 
 TOL  SZ EP   1   1429 43.95                             109    0.70 5  344 225 
 TOL  SN ES   4   1430 22.08                             109    1.13 0  344 225 
 TOL  SZ I        1430 27.93        89.6 0.44            111            344 225 
 MON  HZ EP   4   1429 41.82                             109   -2.14 0  353 308 
 MON  HN ES   4   1430 20.53                             109   -1.67 0  353 308 
 MON  HZ I        1430 24.28        16.1 0.32            110            353 308 
 SDV  BZ EP   4   1429 43.44                             108   -1.57 0  360  50 
 SDV  BN ES   4   1430 20.95                             108   -3.12 0  360  50 
 ORTC HZ EP   4   1429 48.64                             107   -0.27 0  396 216 
 ORTC HN ES   1   1430 32.08                             107    1.06 4  396 216 
 ORTC HZ I        1430 35.94        17.8 0.68            108            396 216 
 PAL  HZ EP   4   1429 49.74                             106   -0.40 0  406 239 
 PAL  HN ES   4   1430 31.12                             106   -2.09 0  406 239 
 PAL  HZ I        1430 38.87        12.7 0.50            107            406 239 
 SJC  HZ EP   4   1429 48.30                             106   -2.20 0  409 327 
 SJC  HN ES   4   1430 29.49                             106   -4.37 0  409 327 
                                                                                
