 2011  815 1135 59.9 L   6.772 -73.129148.7  RSN 13 0.4 3.0LRSN                1
 GAP=140        0.76       2.6     5.2  5.0 -0.4659E+01  0.7134E+01  0.2687E+00E
 Epicentro: LOS SANTOS - SANTANDER                                             3
 ACTION:UPD 12-07-13 15:52 OP:ep   STATUS:               ID:20110815113559 L   I
 2011-08-15-1133-41S.COL___150                                                 6
 STAT SP IPHASW D HRMM SECON CODA AMPLIT PERI AZIMU VELO AIN AR TRES W  DIS CAZ7
 BAR2 SZ IP       1136 20.00                             172    0.1310 20.7 196 
 BAR2 SZ ES   1   1136 34.91                             172   -0.51 7 20.7 196 
 BAR2 SZ I        1136 36.33       231.6 0.35                          20.7 196 
 BRR  HZ IP     C 1136 21.91                             152    0.3310 74.3 300 
 BRR  HE ES   1   1136 38.99                             152    0.54 7 74.3 300 
 BRR  HZ I        1136 41.58       258.0 0.15                          74.3 300 
 PAM  SZ EP       1136 22.82                             151    0.2810 78.7  37 
 PAM  SN ES   1   1136 39.95                             151   -0.22 7 78.7  37 
 RUS  HZ EP       1136 23.87                             145    0.1210 97.4 177 
 RUS  HN ES   1   1136 42.20                             145   -0.13 7 97.4 177 
 RUS  HZ I        1136 43.93       101.1 0.38                          97.4 177 
 OCA  SZ EP       1136 28.60                             130   -0.18 9  164 353 
 OCA  SZ ES   1   1136 51.33                             130    0.05 7  164 353 
 OCA  SZ I        1136 56.51       162.2 0.29                           164 353 
 NOR  SZ EP   1   1136 35.79                             119   -0.02 6  234 235 
 NOR  SN ES   1   1137  2.92                             119   -0.86 6  234 235 
 CHI  HZ EP   1   1136 37.58                             118    0.05 6  246 196 
 CHI  HN ES   1   1137  7.18                             118    0.33 6  246 196 
 CHI  HZ I        1137 11.52        22.8 0.38                           246 196 
 ROSC BN ES   1   1137  7.32                             117   -0.43 6  251 212 
 ROSC BZ I        1137 15.01        68.8 0.38                           251 212 
 DBB  SZ EP   1   1136 48.29                             110    0.52 5  342 275 
 TOL  SZ EP   1   1136 49.07                             110    0.86 5  343 225 
 COD  HZ EP   1   1136 48.00                             109   -0.80 5  352 354 
 COD  HN ES   1   1137 26.01                             109   -0.91 5  352 354 
 COD  HZ I        1137 39.20        32.1 0.42                           352 354 
 PRA  HZ EP   1   1136 53.34                             107   -0.01 4  390 210 
 PRA  HN ES   1   1137 34.92                             107   -0.10 4  390 210 
 SJA  SZ EP   1   1136 53.52                             107   -0.77 4  398 193 
                                                                                
