 2014  915 1039 57.0 L   6.740 -73.091156.5  RSN  7 0.3 1.4LRSN                1
 GAP=205        0.69       4.0     5.0  5.7  0.4691E+01  0.1120E+01 -0.8135E+01E
 Epicentro: JORDAN - SANTANDER                                                 3
 ACTION:UPD 14-10-03 23:05 OP:nd   STATUS:               ID:20140915103957 L   I
 OLDACT:REG 14-09-15 20:25 OP:spq  STATUS:               ID:20140915103818     3
 2014-09-15-1038-18M.COL___293                                                 6
 STAT SP IPHASW D HRMM SECON CODA AMPLIT PERI AZIMU VELO AIN AR TRES W  DIS CAZ7
 BAR2 SZ EP       1040 18.08                             173    0.2210 19.2 212 
 BAR2 SZ ES   1   1040 33.95                             173   -0.17 7 19.2 212 
 BAR2 SZ I        1040 35.00         4.0 0.24            169           19.2 212 
 BRR  HZ EP       1040 19.93                             152    0.1210 79.8 301 
 BRR  HN ES       1040 37.69                             152    0.1010 79.8 301 
 BRR  HZ I        1040 43.98         5.8 0.45            150           79.8 301 
 RUS  HE ES   1   1040 40.35                             148   -0.02 7 93.7 180 
 RUS  HZ I        1040 44.14         1.3 0.26            150           93.7 180 
 PTB  HZ EP       1040 24.72                             133   -0.58 9  153 262 
 PTB  HE ES   1   1040 47.08                             133   -0.29 7  153 262 
 PTB  HZ I        1040 53.34         2.3 0.30            133            153 262 
 SPBC HE ES   1   1040 49.16                             132    0.10 7  162 222 
 SPBC HZ I        1040 52.43         4.8 0.11            133            162 222 
 ZAR  HZ EP   1   1040 31.74                             124    0.73 6  212 293 
 ZAR  HE ES       1040 57.77                             124    0.25 8  212 293 
 ZAR  HZ I        1041  3.17         2.6 0.28            125            212 293 
 SML  HZ EP       1040 35.01                             119   -0.17 8  252 335 
 SML  HE ES   1   1041  4.65                             119   -0.30 6  252 335 
 SML  HZ I        1041  8.16         2.3 0.10            121            252 335 
                                                                                
