 2015  315 1011 38.3 L   6.778 -73.151148.3  RSN 12 0.4 1.9LRSN                1
 GAP= 72        1.10       3.7     3.5  5.6 -0.1710E+01  0.4798E+01 -0.2947E-01E
 Epicentro: LOS SANTOS - SANTANDER                                             3
 ACTION:UPD 15-04-30 16:26 OP:nd   STATUS:               ID:20150315101138 L   I
 OLDACT:REG 15-03-15 20:38 OP:cam  STATUS:               ID:20150315100746     3
 2015-03-15-1007-46M.COL___260                                                 6
 STAT SP IPHASW D HRMM SECON CODA AMPLIT PERI AZIMU VELO AIN AR TRES W  DIS CAZ7
 BAR2 EZ EP     C 1011 58.12                             172   -0.1110 20.8 189 
 BAR2 EZ ES       1012 13.15                             172   -0.5910 20.8 189 
 BAR2 EZ I        1012 14.42        23.7 0.20            171           20.8 189 
 BRR  HZ EP       1011 59.94                             153    0.1410 71.9 301 
 BRR  HN ES       1012 17.45                             153    0.9110 71.9 301 
 BRR  HN I        1012 20.04        36.6 0.18            144           71.9 301 
 PAM  SZ EP       1012  1.04                             151    0.0810 79.7  39 
 PAM  SN ES       1012 18.15                             151   -0.4610 79.7  39 
 PAM  SZ I        1012 19.98         6.5 0.40            146           79.7  39 
 RUS  HZ EP       1012  2.11                             145   -0.0610 98.2 176 
 RUS  HN ES       1012 20.99                             145    0.2310 98.2 176 
 RUS  HZ I        1012 22.63         4.3 0.26            141           98.2 176 
 PTB  HZ EP       1012  4.97                             133   -0.45 9  147 260 
 PTB  HN ES       1012 25.89                             133   -0.65 9  147 260 
 PTB  HZ I        1012 28.09        10.0 0.18            125            147 260 
 TAM  HZ IP     C 1012  6.38                             131    0.16 9  155 104 
 TAM  HN ES       1012 28.35                             131    0.39 9  155 104 
 TAM  HZ I        1012 28.67         6.1 0.58            127            155 104 
 SPBC HZ EP       1012  6.26                             130   -0.55 9  161 219 
 SPBC HE ES       1012 29.24                             130    0.21 9  161 219 
 NOR  HZ EP     C 1012 14.48                             119    0.47 8  233 235 
 NOR  HN ES       1012 42.20                             119    0.37 8  233 235 
 NOR  HZ I        1012 47.13         8.3 0.16            113            233 235 
 SML  HZ EP       1012 14.59                             118   -0.73 8  246 336 
 SML  HN ES       1012 44.81                             118    0.64 8  246 336 
 SML  HZ I        1012 55.98         6.5 0.10            111            246 336 
 HEL  HZ EP       1012 18.35                             115   -0.20 8  271 256 
 GUY2CHZ EP       1012 21.97                             113    0.13 7  299 235 
 CBOC HZ EP       1012 25.59                             110    0.39 7  332 252 
 CBOC HZ I        1013 15.83         2.0 0.56            105            332 252 
                                                                                
