 2016 1115 1815  8.5 L   6.781 -73.141139.2  RSN  6 0.3 1.9LRSN                1
 GAP=154        0.81       5.7     4.2  6.9 -0.1121E+02  0.1422E+02 -0.8268E+01E
 Epicentro: LOS SANTOS - SANTANDER                                             3
 ACTION:UPD 17-10-26 21:08 OP:lp   STATUS:               ID:20161115181508 L   I
 OLDACT:UP  16-11-15 23:18 OP:and  STATUS:               ID:20161115180733     3
 OLDACT:REG 16-11-15 20:12 OP:and  STATUS:               ID:20161115180733     3
 2016-11-15-1808-00M.COL___341                                                 6
 STAT SP IPHASW D HRMM SECON CODA AMPLIT PERI AZIMU VELO AIN AR TRES W  DIS CAZ7
 BAR2 EZ EP       1815 27.30                             171   -0.0010 21.4 192 
 BAR2 EZ ES       1815 42.05                             171    0.0810 21.4 192 
 BAR2 EZ I        1815 45.33        14.4 0.29            171           21.4 192 
 BRR  HZ EP       1815 29.20                             151    0.1710 72.7 300 
 BRR  HN ES   4   1815 46.38                             151    1.33 0 72.7 300 
 BRR  HZ I        1815 47.31        19.0 0.18            150           72.7 300 
 PAM  EZ EP       1815 30.13                             149    0.0310 78.6  38 
 PAM  EN ES       1815 46.92                             149   -0.0310 78.6  38 
 PAM  EZ I        1815 49.35        12.8 0.58            153           78.6  38 
 PTB  HZ EP       1815 34.35                             130   -0.60 9  148 260 
 PTB  HN ES       1815 55.09                             130   -0.50 9  148 260 
 PTB  HZ I        1815 56.38         8.1 0.17            132            148 260 
 ZAR  HZ EP       1815 40.81                             121    0.15 8  205 293 
 ZAR  HN ES       1816  6.04                             121    0.29 8  205 293 
 ZAR  HZ I        1816 12.07         9.4 0.30            122            205 293 
 NOR  HN ES       1816 11.88                             117    0.59 8  234 235 
 NOR  HZ I        1816 16.58         5.3 0.26            119            234 235 
 SJC  HZ EP   4   1816  1.68                             104   -2.41 0  411 327 
 SJC  HE ES   4   1816 43.51                             104   -3.94 0  411 327 
                                                                                
