 2017  415 1602 35.3 L   6.776 -73.116140.1  RSN  6 0.4 1.7LRSN                1
 GAP=213        1.06       6.2     5.4  7.6  0.1636E+02  0.2236E+01  0.7555E+01E
 Epicentro: LOS SANTOS - SANTANDER                                             3
 ACTION:UPD 17-05-30 21:12 OP:jn   STATUS:               ID:20170415160235 L   I
 OLDACT:REG 17-04-15 17:51 OP:cog  STATUS:               ID:20170415155737     3
 2017-04-15-1558-00M.COL___374                                                 6
 STAT SP IPHASW D HRMM SECON CODA AMPLIT PERI AZIMU VELO AIN AR TRES W  DIS CAZ7
 BAR2 EZ EP       16 2 53.98                             171   -0.2310 21.6 200 
 BAR2 EZ ES       16 3  8.44                             171   -0.5210 21.6 200 
 BAR2 EZ I        16 3 10.17         8.3 0.20            174           21.6 200 
 BRR  HZ EP       16 2 56.18                             150    0.1110 75.3 299 
 BRR  HN ES       16 3 12.85                             150    0.5710 75.3 299 
 BRR  HZ I        16 3 19.40        24.7 0.54            150           75.3 299 
 RUS  HZ EP       16 2 58.73                             143    0.4410 97.8 178 
 RUS  HN ES       16 3 16.68                             143    0.4610 97.8 178 
 RUS  HZ I        16 3 17.35         4.2 0.38            148           97.8 178 
 PTB  HZ EP       16 3  1.55                             130   -0.51 9  150 260 
 PTB  HN ES       16 3 22.47                             130   -0.46 9  150 260 
 PTB  HZ I        16 3 24.80         8.0 0.12            133            150 260 
 YPLC HZ EP       16 3  4.47                             126    0.17 9  173 152 
 YPLC HN ES       16 3 26.50                             126   -0.42 9  173 152 
 NOR  HE ES       16 3 38.84                             117    0.30 8  236 235 
                                                                                
