 2016  315 1642 15.5 L   6.788 -73.162149.0  RSN  4 0.1 1.4LRSN                1
 GAP=141        0.34       2.1     2.0  2.8 -0.1299E+01  0.1476E+01 -0.5507E+00E
 Epicentro: LOS SANTOS - SANTANDER                                             3
 ACTION:UPD 16-05-13 21:24 OP:cam  STATUS:               ID:20160315164215 L   I
 OLDACT:REG 16-03-15 21:28 OP:cara STATUS:               ID:20160315163748     3
 2016-03-15-1637-48M.COL___298                                                 6
 STAT SP IPHASW D HRMM SECON CODA AMPLIT PERI AZIMU VELO AIN AR TRES W  DIS CAZ7
 BAR2 EZ IP       1642 35.44                             171   -0.0510 21.7 186 
 BAR2 EZ ES       1642 51.00                             171   -0.0910 21.7 186 
 BAR2 EZ I        1642 53.06         5.7 0.28            163           21.7 186 
 PAM  EZ IP       1642 38.28                             151    0.0910 79.6  40 
 PAM  EN ES       1642 55.90                             151    0.0010 79.6  40 
 PAM  EZ I        1642 57.38         3.4 0.22            149           79.6  40 
 RUS  HZ EP       1642 39.35                             145   -0.1410 99.4 175 
 RUS  HZ I        1642 54.72         3.5 0.42            135           99.4 175 
 RUS  HE ES       1642 58.33                             145    0.1310 99.4 175 
 PTB  HZ EP       1642 42.60                             133    0.05 9  146 259 
 PTB  HE ES       1643  3.66                             133    0.01 9  146 259 
 PTB  HZ I        1643  9.22         3.8 0.54            127            146 259 
                                                                                
