 2015  315 1454 25.7 L   6.794 -73.168142.0  RSN 16 0.5 2.5LRSN                1
 GAP= 70        1.11       3.4     3.3  5.1 -0.2472E+01  0.4796E+01  0.2362E+01E
 Epicentro: LOS SANTOS - SANTANDER                                             3
 ACTION:UPD 15-04-30 16:26 OP:nd   STATUS:               ID:20150315145425 L   I
 OLDACT:REG 15-03-15 20:51 OP:cam  STATUS:               ID:20150315144749     3
 2015-03-15-1447-49M.COL___260                                                 6
 STAT SP IPHASW D HRMM SECON CODA AMPLIT PERI AZIMU VELO AIN AR TRES W  DIS CAZ7
 BAR2 EZ IP     C 1454 44.91                             171    0.1010 22.4 184 
 BAR2 EZ ES       1454 59.13                             171   -0.6310 22.4 184 
 BAR2 EZ I        1455  2.24        48.8 0.20            171           22.4 184 
 BRR  HZ EP       1454 46.82                             152    0.5310 69.4 300 
 BRR  HN ES       1455  3.17                             152    0.7810 69.4 300 
 BRR  HZ I        1455  5.59        39.2 0.14            152           69.4 300 
 PAM  SZ EP       1454 47.66                             149    0.0610 79.5  41 
 PAM  SN ES       1455  4.82                             149    0.1010 79.5  41 
 PAM  SZ I        1455  9.51        29.8 0.52            152           79.5  41 
 RUS  HZ EP       1454 48.80                             143   -0.2010  100 175 
 RUS  HE ES       1455  7.54                             143    0.3310  100 175 
 RUS  HZ I        1455  8.67        20.2 0.22            145            100 175 
 PTB  HZ EP       1454 51.52                             132   -0.57 9  145 259 
 PTB  HN ES       1455 12.45                             132   -0.25 9  145 259 
 PTB  HZ I        1455 14.64        43.5 0.42            132            145 259 
 TAM  HZ EP       1454 53.11                             129   -0.14 9  157 105 
 TAM  HN ES       1455 14.77                             129    0.00 9  157 105 
 TAM  HN I        1455 15.55        59.2 0.34            132            157 105 
 SPBC HZ EP       1454 53.85                             129    0.18 9  161 218 
 SPBC HN ES       1455 15.02                             129   -0.50 9  161 218 
 NOR  HZ EP       1455  0.80                             118   -0.11 8  232 234 
 NOR  HN ES       1455 29.36                             118    0.95 8  232 234 
 NOR  HZ I        1455 37.12        30.0 0.16            119            232 234 
 SML  HZ EP       1455  1.27                             117   -0.76 8  243 336 
 SML  HN ES       1455 29.94                             117   -0.46 8  243 336 
 SML  HZ I        1455 35.88        20.6 0.28            118            243 336 
 GUY2CHZ EP       1455  9.08                             112    0.26 7  299 235 
 GUY2CHN ES       1455 41.88                             112   -0.61 7  299 235 
 GUY2CHZ I        1455 51.12        21.4 0.62                           299 235 
 RREF HZ EP       1455 11.91                             110    0.54 7  319 229 
 RREF HE ES       1455 46.04                             110   -0.99 7  319 229 
 RREF HZ I        1455 57.00        21.0 0.24            111            319 229 
 CBOC HZ EP       1455 12.87                             109    0.75 7  331 252 
 TOL  SZ EP       1455 14.07                             109    0.56 7  341 224 
 ANIL HZ EP       1455 15.52                             108    0.46 6  355 224 
 PRA  HZ EP       1455 18.34                             106   -0.50 6  390 209 
 PRA  HN ES       1456  0.15                             106   -0.17 6  390 209 
 PRA  HZ I        1456  7.14        12.6 0.26            107            390 209 
 PAL  HZ EP       1455 20.74                             105    0.34 6  403 239 
 PAL  HN ES   4   1456  4.65                             105    1.55 0  403 239 
                                                                                
