 2012  415 1114 35.1 L   6.822 -73.122150.0  RSN  5 0.4 1.2LRSN                1
 GAP=138        0.88       6.9     8.5 10.3  0.1493E+02  0.1852E+02  0.1234E+02E
 Epicentro: LOS SANTOS - SANTANDER                                             3
 ACTION:UPD 12-07-05 11:53 OP:tino STATUS:               ID:20120415111435 L   I
 2012-04-15-1110-04M.COL___172                                                 6
 STAT SP IPHASW D HRMM SECON CODA AMPLIT PERI AZIMU VELO AIN AR TRES W  DIS CAZ7
 BAR2 SZ EP   1   1114 54.96                             170    -0.3 7   26 195 
 BAR2 SZ I        1114 55.24         3.5 0.18                            26 195 
 BAR2 SZ ES   1   1115 10.32                             170    -0.7 7   26 195 
 BRR  HZ EP   1   1114 56.92                             153     0.2 7   72 296 
 BRR  HZ I        1114 57.05         3.8 0.16                            72 296 
 BRR  HE ES   1   1115 14.09                             153     0.5 7   72 296 
 PAM  SN ES   1   1115 15.16                             153     0.1 7   74  39 
 RUS  HZ EP   1   1114 59.34                             144     0.0 7  103 178 
 RUS  HZ I        1114 59.46         1.7 0.24                           103 178 
 RUS  HE ES   1   1115 18.81                             144     0.4 7  103 178 
 ZAR  HN ES   2   1115 33.06                             123    -0.5 4  206 291 
                                                                                
