 2016 1115 1520 26.1 L   6.844 -73.145152.4  RSN 10 0.4 2.1LRSN                1
 GAP=147        0.93       3.6     3.9  5.0 -0.5384E+00  0.5308E+01  0.3479E+01E
 Epicentro: LOS SANTOS - SANTANDER                                             3
 ACTION:UPD 17-10-26 21:08 OP:lp   STATUS:               ID:20161115152026 L   I
 OLDACT:UP  16-11-15 21:39 OP:and  STATUS:               ID:20161115151747     3
 OLDACT:UP  16-11-15 21:37 OP:and  STATUS:               ID:20161115151747     3
 OLDACT:UP  16-11-15 21:36 OP:and  STATUS:               ID:20161115151747     3
 OLDACT:REG 16-11-15 20:00 OP:and  STATUS:               ID:20161115151747     3
 2016-11-15-1518-00M.COL___347                                                 6
 STAT SP IPHASW D HRMM SECON CODA AMPLIT PERI AZIMU VELO AIN AR TRES W  DIS CAZ7
 BAR2 EZ IP     C 1520 46.29                             169   -0.3210 28.1 188 
 BAR2 EZ ES       1521  2.42                             169   -0.2010 28.1 188 
 BAR2 EZ I        1521  2.80        27.5 0.24            167           28.1 188 
 BRR  HZ EP       1520 47.95                             154    0.1110 69.1 295 
 BRR  HN ES       1521  5.29                             154    0.4810 69.1 295 
 BRR  HZ I        1521  9.31        16.2 0.12            153           69.1 295 
 PAM  EZ EP       1520 49.19                             153    0.3910 73.7  42 
 PAM  EN ES       1521  6.19                             153   -0.3310 73.7  42 
 PAM  EZ I        1521  6.89        14.1 0.22            158           73.7  42 
 PTB  HZ EP   9   1520 53.03                             133   -0.66 0  149 257 
 PTB  HN ES       1521 14.41                                   -0.16 9  149 257 
 PTB  HZ I        1521 20.01        11.9 0.15            133            149 257 
 ZAR  HZ EP       1520 59.16                             124    0.37 9  202 291 
 ZAR  HN ES       1521 24.71                             124    0.40 9  202 291 
 ZAR  HZ I        1521 30.99        11.8 0.26            124            202 291 
 NOR  HZ EP       1521  3.02                             119    0.51 8  238 234 
 NOR  HN ES       1521 31.00                             119    0.07 8  238 234 
 NOR  HZ I        1521 34.52         9.7 0.26            120            238 234 
 CHI  HZ EP       1521  4.86                             118    0.21 8  253 195 
 CHI  HN ES       1521 34.59                             118   -0.16 8  253 195 
 CHI  HZ I        1521 40.12         6.1 0.30            119            253 195 
 URE  HZ EP       1521  7.06                             115   -0.23 7  282 291 
 URE  HN ES       1521 38.47                             115   -0.97 7  282 291 
 URE  HZ I        1521 39.66         9.2 0.14            116            282 291 
 LL6C HZ EP   9   1520 51.98                             112   -19.5 0  320 358 
 ORTC HZ EP       1521 20.89                             107    0.20 6  399 216 
 ORTC HE ES       1522  2.56                             107   -0.73 6  399 216 
 ORTC HZ I        1522  7.87         3.1 0.28            108            399 216 
 SJC  HZ EP       1521 20.54                             107   -0.86 6  405 327 
 SJC  HN ES   4   1522  0.45                             107   -4.10 0  405 327 
                                                                                
