 2015  515 1028 28.9 L   6.778 -73.177141.5  RSN  9 0.4 1.7LRSN                1
 GAP=134        0.91       2.6     4.4  5.9  0.1581E+00  0.7045E+01 -0.1717E+01E
 Epicentro: LOS SANTOS - SANTANDER                                             3
 ACTION:UPD 15-09-10 22:04 OP:cam  STATUS:               ID:20150515102828 L   I
 OLDACT:REG 15-05-15 20:07 OP:drio STATUS:               ID:20150515102748     3
 2015-05-15-1027-48M.COL___277                                                 6
 STAT SP IPHASW D HRMM SECON CODA AMPLIT PERI AZIMU VELO AIN AR TRES W  DIS CAZ7
 BAR2 EZ EP       1028 48.22                             171    0.2210 20.6 182 
 BAR2 EZ ES       1029  3.26                             171    0.3910 20.6 182 
 BRR  HN ES       1029  5.49                             152   -0.0910 69.4 302 
 PAM  SZ EP       1028 51.10                             149    0.1410 81.5  40 
 PAM  SN ES       1029  7.64                             149   -0.4910 81.5  40 
 RUS  HZ EP       1028 52.03                             143   -0.0910 98.5 174 
 RUS  HN ES       1029 10.52                             143    0.3210 98.5 174 
 RUS  HZ I        1029 11.72         3.5 0.24            145           98.5 174 
 SPBC HN ES       1029 18.12                             129   -0.28 9  159 219 
 OCA  HN ES       1029 18.73                             128   -0.37 9  162 354 
 ZAR  HZ EP       1029  1.22                             122    0.34 9  202 293 
 ZAR  HN ES       1029 25.49                             122   -0.30 9  202 293 
 ZAR  HZ I        1029 31.27         5.1 0.22            121            202 293 
 CHI  HN ES       1029 34.66                             117   -0.34 8  245 195 
 SML  HZ EP       1029  5.05                             116   -0.37 8  245 336 
 SML  HE ES       1029 34.75                             116    0.88 8  245 336 
 SML  HZ I        1029 40.11         5.6 0.10            116            245 336 
                                                                                
