 2016  615 1741 52.0 L   6.843 -73.130146.1  RSN 13 0.4 2.5LRSN                1
 GAP= 70        1.03       3.3     3.0  6.1 -0.1324E+01  0.4155E+01  0.2161E+01E
 Epicentro: LOS SANTOS - SANTANDER                                             3
 ACTION:UPD 16-07-21 22:19 OP:rebc STATUS:               ID:20160615174152 L   I
 OLDACT:UP  16-06-16 00:01 OP:mh   STATUS:               ID:20160615173744     3
 OLDACT:UP  16-06-16 00:01 OP:mh   STATUS:               ID:20160615173744     3
 OLDACT:REG 16-06-15 21:47 OP:dnl  STATUS:               ID:20160615173744     3
 2016-06-15-1737-44M.COL___343                                                 6
 STAT SP IPHASW D HRMM SECON CODA AMPLIT PERI AZIMU VELO AIN AR TRES W  DIS CAZ7
 BAR2 EZ EP     C 1742 11.87                             169    0.0910 28.4 192 
 BAR2 EZ I        1742 27.96        46.0 0.24                          28.4 192 
 BRR  HZ IP     C 1742 13.49                             153    0.3410 70.6 294 
 BRR  HN ES       1742 29.83                             153    0.1810 70.6 294 
 BRR  HZ I        1742 34.74        51.4 0.20                          70.6 294 
 PAM  EZ EP       1742 14.33                             152    0.3510 72.6  41 
 PAM  EN ES       1742 31.69                             152    0.5710 72.6  41 
 PAM  EZ I        1742 33.44        56.8 0.17                          72.6  41 
 RUS  HZ EP       1742 16.08                             143   -0.0510  105 177 
 RUS  HN ES       1742 34.68                             143   -0.2710  105 177 
 RUS  HZ I        1742 35.88        20.0 0.40                           105 177 
 PTB  HZ EP     C 1742 18.41                             132   -0.83 9  150 257 
 PTB  HN ES       1742 40.10                             132   -0.38 9  150 257 
 PTB  HZ I        1742 42.22        63.9 0.24                           150 257 
 TAM  HZ EP       1742 20.08                             131    0.40 9  155 107 
 TAM  HN ES       1742 40.88                             131   -0.38 9  155 107 
 TAM  HZ I        1742 49.12        18.3 0.52                           155 107 
 OCA  HZ EP       1742 19.41                             131   -0.50 9  156 352 
 OCA  HN ES       1742 40.92                             131   -0.77 9  156 352 
 OCA  HZ I        1742 44.90        85.5 0.20                           156 352 
 SPBC HZ EP       1742 20.99                             128    0.01 9  168 218 
 SPBC HN ES       1742 43.46                             128   -0.13 9  168 218 
 SPBC HZ I        1742 46.40        27.0 0.28                           168 218 
 ZAR  HZ EP       1742 24.56                             122    0.11 9  204 291 
 ZAR  HN ES   1   1742 50.57                             122    0.81 6  204 291 
 ZAR  HZ I        1742 55.33        75.9 0.32                           204 291 
 NOR  HZ EP       1742 28.25                             118    0.05 8  239 234 
 NOR  HN ES       1742 56.73                             118    0.30 8  239 234 
 NOR  HZ I        1743  1.70        17.5 0.26                           239 234 
 HEL  HZ EP       1742 33.05                             115    0.50 8  275 255 
 HEL  HN ES       1743  4.56                             115    0.39 8  275 255 
 HEL  HZ I        1743 11.63        16.5 0.46                           275 255 
 URE  HZ EP   4   1742 32.00                             114   -1.07 0  284 291 
 URE  HN ES   4   1743  4.59                             114   -0.51 0  284 291 
 GUY2CHZ EP   4   1742 37.37                             112    1.27 0  305 234 
 GUY2CHE ES   4   1743 11.70                             112    1.21 0  305 234 
 GUY2CHZ I        1743 20.18        19.4 0.72                           305 234 
 CBOC HZ EP   1   1742 39.62                             110    0.33 5  337 251 
 CBOC HN ES   1   1743 15.21                             110   -0.96 5  337 251 
 CBOC HZ I        1743 27.29         5.7 0.56                           337 251 
 DBB  SZ EP   4   1742 37.24                             109   -2.41 0  341 273 
                                                                                
