 2017  615 1003 34.6 L   6.762 -73.128146.2  RSN  4 0.2 1.7LRSN                1
 GAP=280        0.68       4.2     7.2  7.5  0.1305E+01 -0.2437E+02  0.4323E+01E
 Epicentro: LOS SANTOS - SANTANDER                                             3
 ACTION:UPD 17-09-14 16:52 OP:jn   STATUS:               ID:20170615100334 L   I
 OLDACT:DUP 17-06-15 22:05 OP:ar   STATUS:               ID:20170615095743d    3
 OLDACT:DUP 17-06-15 21:36 OP:ar   STATUS:               ID:20170615095742d    3
 2017-06-15-0958-00M.COL___365                                                 6
 STAT SP IPHASW D HRMM SECON CODA AMPLIT PERI AZIMU VELO AIN AR TRES W  DIS CAZ7
 BRR  HZ EP       10 3 55.96                             151   -0.0310 75.0 301 
 BRR  HN ES       10 4 12.56                             151   -0.1310 75.0 301 
 PTB  HZ EP   9   10 4  0.72                             131   -0.97 0  149 261 
 PTB  HN ES       10 4 21.25                             128   -0.62 9  149 261 
 PTB  HZ I        10 4 24.36         5.8 0.12            125            149 261 
 SPBC HZ EP       10 4  2.98                             129    0.05 9  161 220 
 SPBC HN ES       10 4 25.06                             129    0.02 9  161 220 
 SPBC HZ I        10 4 32.26         3.6 0.26            123            161 220 
 ZAR  HZ EP   2   10 4  6.99                             121   -0.41 4  207 293 
 ZAR  HN ES       10 4 33.24                             121    0.23 8  207 293 
 ZAR  HZ I        10 4 38.05         5.8 0.34            117            207 293 
                                                                                
