 2012 1115 1531  1.0 L   7.070 -73.321120.0  RSN  6 0.2 1.9LRSN                1
 GAP=151        0.50       2.6     2.8  3.7 -0.3264E+00  0.1476E+01  0.1202E+01E
 Epicentro: LEBRIJA - SANTANDER                                                3
 ACTION:UPD 12-12-05 15:33 OP:}ep  STATUS:               ID:20121115153101 L   I
 2012-11-15-1530-00M.COL___230                                                 6
 STAT SP IPHASW D HRMM SECON CODA AMPLIT PERI AZIMU VELO AIN AR TRES W  DIS CAZ7
 GIR2 SZ EP       1531 17.03                             173   -0.2110 14.2  86 
 BRR  HZ EP       1531 17.69                             159   -0.2210 43.3 275 
 BRR  HN ES       1531 31.08                             159    0.0110 43.3 275 
 BRR  HN I        1531 31.76        17.8 0.16                          43.3 275 
 BAR2 SZ I        1531 18.80        47.3 0.10                          55.1 164 
 BAR2 SZ EP       1531 18.93                             154    0.1010 55.1 164 
 BAR2 SZ ES       1531 32.68                             154   -0.0410 55.1 164 
 PAM  SZ EP       1531 20.57                             146    0.1710 74.9  67 
 PAM  SN ES       1531 35.59                             146    0.0710 74.9  67 
 PAM  SN I        1531 36.47         7.4 0.26                          74.9  67 
 RUS  HZ EP       1531 24.96                             129   -0.2610  133 169 
 RUS  HN ES       1531 44.20                             129    0.1210  133 169 
 PTB  HZ EP       1531 25.42                             127    0.30 9  139 245 
                                                                                
