 2014  315 1109 46.1 L   6.809 -73.185145.3  RSN  4 0.2 1.4LRSN                1
 GAP=144        0.60       3.7     3.6  5.1 -0.4099E+01  0.4915E+01 -0.1811E+01E
 Epicentro: ZAPATOCA - SANTANDER                                               3
 ACTION:UPD 14-04-09 23:17 OP:nd   STATUS:               ID:20140315110946 L   I
 OLDACT:DUP 14-03-15 17:03 OP:nd   STATUS:               ID:20140315110050d    3
 2014-03-15-1100-49M.COL___248                                                 6
 STAT SP IPHASW D HRMM SECON CODA AMPLIT PERI AZIMU VELO AIN AR TRES W  DIS CAZ7
 BAR2 SZ EP       1110  5.73                             170   -0.0010 24.0 179 
 BAR2 SZ ES       1110 21.26                             170    0.2510 24.0 179 
 BAR2 SZ I        1110 22.21        11.4 0.20            171           24.0 179 
 PAM  SZ EP       1110  8.75                             150    0.3210 79.5  42 
 PAM  SN ES       1110 25.53                             150   -0.2910 79.5  42 
 PAM  SZ I        1110 27.82         4.0 0.56            152           79.5  42 
 RUS  HZ EP       1110 10.03                             143    0.0810  102 174 
 RUS  HN ES       1110 28.35                             143   -0.1710  102 174 
 RUS  HZ I        1110 30.35         3.0 0.42            145            102 174 
 PTB  HZ EP       1110 12.42                             133   -0.29 9  144 258 
 PTB  HN ES       1110 33.52                             133    0.09 9  144 258 
 PTB  HZ I        1110 35.62         2.7 0.30            134            144 258 
                                                                                
