 2015  115 1722 26.1 L   6.390 -73.661106.3  RSN  9 0.4 2.0LRSN                1
 GAP= 64        0.89       2.7     3.0  6.4  0.3885E+00  0.6210E+01  0.5025E+01E
 Epicentro: SANTA HELENA DEL OPON - SANTANDER                                  3
 ACTION:UPD 15-03-02 15:39 OP:nd   STATUS:               ID:20150115172226 L   I
 OLDACT:UP  15-01-16 01:35 OP:mh   STATUS:               ID:20150115171750     3
 OLDACT:REG 15-01-15 20:43 OP:mh   STATUS:               ID:20150115171750     3
 2015-01-15-1717-50M.COL___244                                                 6
 STAT SP IPHASW D HRMM SECON CODA AMPLIT PERI AZIMU VELO AIN AR TRES W  DIS CAZ7
 BAR2 EZ EP       1722 42.99                             149    0.4310 57.4  67 
 BAR2 EZ ES   1   1722 55.94                             149    0.54 7 57.4  67 
 BAR2 EZ I        1722 56.43        76.6 0.18            157           57.4  67 
 BRR  HZ EP       1722 43.48                             140   -0.2910 79.5 356 
 BRR  HN ES       1722 57.91                             140    0.3510 79.5 356 
 BRR  HZ I        1723  5.61        13.9 0.48            145           79.5 356 
 RUS  HZ EP       1722 44.76                             139   -0.0810 84.3 131 
 RUS  HN ES       1722 59.05                             139   -0.4110 84.3 131 
 RUS  HZ I        1723  2.42        10.5 0.36            145           84.3 131 
 PTB  HZ EP       1722 44.22                             137   -0.3910 89.5 281 
 PTB  HN ES   1   1722 58.31                             137   -0.74 7 89.5 281 
 PTB  HZ I        1723  1.09        31.5 0.26            139           89.5 281 
 PAM  SZ EP       1722 51.10                             121    0.14 9  149  45 
 PAM  SN ES   1   1723 10.06                             121   -0.30 7  149  45 
 PAM  SZ I        1723 14.09         6.2 0.18            128            149  45 
 NOR  HZ EP       1722 51.26                             118   -0.47 9  162 236 
 NOR  HN ES   1   1723 12.52                             118    0.78 7  162 236 
 NOR  HZ I        1723 18.54        12.7 0.12            122            162 236 
 ZAR  HZ EP   1   1722 53.99                             115    0.37 7  180 313 
 ZAR  HN ES       1723 15.15                             115    0.05 9  180 313 
 ZAR  HZ I        1723 20.96        22.0 0.44            120            180 313 
 CHI  HZ EP       1722 55.92                             113    0.13 9  195 182 
 CHI  HN ES   1   1723 19.15                             113    0.19 6  195 182 
 CHI  HZ I        1723 24.80         8.3 0.34            118            195 182 
 TOL  SZ EP       1723  4.57                             105    0.07 8  271 223 
 TOL  SN ES   1   1723 34.90                             105    0.43 6  271 223 
 TOL  SZ I        1723 40.02        10.0 0.16            109            271 223 
                                                                                
