 2014  315 1256 40.4 L   6.855 -73.147140.0  RSN  4 0.3 1.5LRSN                1
 GAP=201        0.59       3.6     4.8  8.3  0.6722E+01 -0.6724E+01 -0.1743E+02E
 Epicentro: LOS SANTOS - SANTANDER                                             3
 ACTION:UPD 14-04-09 23:17 OP:nd   STATUS:               ID:20140315125640 L   I
 OLDACT:REG 14-03-15 15:32 OP:nd   STATUS:               ID:20140315125046     3
 2014-03-15-1250-46M.COL___251                                                 6
 STAT SP IPHASW D HRMM SECON CODA AMPLIT PERI AZIMU VELO AIN AR TRES W  DIS CAZ7
 RUS  HZ EP       1257  3.98                             141   -0.1010  107 176 
 RUS  HN ES       1257 22.65                             141    0.1310  107 176 
 RUS  HZ I        1257 23.39         2.7 0.26            147            107 176 
 PTB  HZ EP       1257  6.61                             131   -0.43 9  149 257 
 PTB  HN ES       1257 27.93                             131    0.14 9  149 257 
 PTB  HZ I        1257 32.41         3.9 0.14            133            149 257 
 SML  HZ EP       1257 16.33                             117    0.19 8  238 335 
 SML  HN ES       1257 43.99                             117    0.01 8  238 335 
 SML  HZ I        1257 48.02         3.5 0.10            120            238 335 
 GUY2CHZ EP   2   1257 24.95                             111    0.78 4  305 234 
 GUY2CHZ I        1258  9.39         1.3 0.54                           305 234 
                                                                                
