 2012  415 1909 44.8 L   6.796 -73.127145.5  RSN  5 0.3 1.7LRSN                1
 GAP=139        0.86       6.0     6.4  9.0  0.7983E+01  0.9409E+01 -0.2657E+01E
 Epicentro: LOS SANTOS - SANTANDER                                             3
 ACTION:UPD 12-07-05 11:53 OP:tino STATUS:               ID:20120415190944 L   I
 2012-04-15-1907-42M.COL___172                                                 6
 STAT SP IPHASW D HRMM SECON CODA AMPLIT PERI AZIMU VELO AIN AR TRES W  DIS CAZ7
 BAR2 SZ ES   1   1910 19.91                             170     0.2 7   23 195 
 BAR2 SZ I        1910 21.85         8.0 0.51                            23 195 
 BRR  HZ EP       1910  6.04                             152     0.010   73 298 
 BRR  HZ I        1910  6.19        12.4 0.16                            73 298 
 BRR  HE ES   1   1910 23.12                             152     0.5 7   73 298 
 PAM  SZ EP   1   1910  7.22                             151     0.3 7   76  38 
 PAM  SZ I        1910  7.41         9.7 0.16                            76  38 
 PAM  SN ES   1   1910 23.81                             151    -0.4 7   76  38 
 RUS  HZ EP   1   1910  8.76                             144     0.2 7  100 177 
 RUS  HN ES   1   1910 26.59                             144    -0.4 7  100 177 
 RUS  HZ I        1910 28.40         5.7 0.39                           100 177 
 ZAR  HN ES   1   1910 42.47                             122    -0.5 6  206 292 
 ZAR  HZ I        1910 48.16         5.1 0.31                           206 292 
                                                                                
