 2014  615 1523  4.0 L   6.601 -73.194140.7  RSN  4 0.4 1.3LRSN                1
 GAP=174        0.86       9.7     7.3  7.6  0.8640E+01  0.1537E+02  0.2354E+01E
 Epicentro: BARICHARA - SANTANDER                                              3
 ACTION:UPD 14-07-01 22:54 OP:nd   STATUS:               ID:20140615152304 L   I
 OLDACT:DUP 14-06-15 22:56 OP:spq  STATUS:               ID:20140615151816d    3
 OLDACT:DUP 14-06-15 22:39 OP:spq  STATUS:               ID:20140615151815d    3
 2014-06-15-1518-14M.COL___262                                                 6
 STAT SP IPHASW D HRMM SECON CODA AMPLIT PERI AZIMU VELO AIN AR TRES W  DIS CAZ7
 BAR2 SZ ES   1   1523 36.80                             179   -0.62 7 1.61 128 
 BAR2 SZ I        1523 39.89         5.1 0.26            173           1.61 128 
 BRR  HZ EP       1523 25.42                             149    0.2910 80.1 314 
 BRR  HN ES       1523 42.00                             149    0.3710 80.1 314 
 BRR  HZ I        1523 52.17         4.3 0.36            148           80.1 314 
 PTB  HZ EP       1523 30.00                             133    0.18 9  140 267 
 PTB  HN ES       1523 50.10                             133    0.12 9  140 267 
 PTB  HZ I        1523 54.97         2.4 0.16            137            140 267 
 ZAR  HZ EP       1523 36.24                             121   -0.35 8  209 298 
 ZAR  HE ES       1524  1.55                             121   -0.46 8  209 298 
 ZAR  HZ I        1524  4.02         2.2 0.20            125            209 298 
                                                                                
