 2012  115 1850 47.1 L   6.840 -73.081147.5  RSN  8 0.4 2.0LRSN                1
 GAP=143        0.56       4.4     4.4  6.6  0.2394E+01  0.7307E+01  0.5650E+01E
 Epicentro: LOS SANTOS - SANTANDER                                             3
 ACTION:UP  12-02-03 08:17 OP:REBC STATUS:               ID:20120115185047 L   I
 2012-01-15-1850-00M.COL___187                                                 6
 STAT SP IPHASW D HRMM SECON CODA AMPLIT PERI AZIMU VELO SNR AR TRES W  DIS CAZ7
 BAR2 SZ EP   1   1851  7.07                             168     0.0 7   30 202 
 BAR2 SZ ES   2   1851 22.51                             168    -0.1 5   30 202 
 BAR2 SZ I        1851 23.32        44.0 0.20                            30 202 
 PAM  SZ EP   2   1851  9.65                             154     0.6 5   69  37 
 PAM  SN ES   2   1851 26.29                             154     0.1 5   69  37 
 BRR  HZ EP   1   1851  8.32                             151    -0.4 7   76 293 
 BRR  HE ES   2   1851 25.95                             151     0.4 5   76 293 
 BRR  HZ I        1851 29.36        18.9 0.17                            76 293 
 RUS  HZ EP   1   1851 11.10                             143    -0.2 7  105 180 
 RUS  HE ES   2   1851 30.05                             143    -0.2 5  105 180 
 RUS  HZ I        1851 31.60        10.1 0.41                           105 180 
 PTB  HE ES   2   1851 36.37                             131    -0.2 5  156 258 
 ZAR  HZ EP   2   1851 19.79                             122    -0.4 4  209 290 
 ZAR  HN ES   2   1851 45.70                             122    -0.3 4  209 290 
 ZAR  HZ I        1851 51.40         9.0 0.21                           209 290 
 CHI  HZ EP   2   1851 25.48                             117    -0.1 4  255 196 
 CHI  HN ES   2   1851 56.15                             117     0.6 4  255 196 
 HEL  HZ EP   2   1851 28.81                             114     0.5 4  280 255 
 HEL  HN ES   2   1852  1.04                             114     0.6 4  280 255 
                                                                                
