 2016  615 1001 25.3 L   6.807 -73.143144.9  RSN 25 0.5 2.8LRSN                1
 GAP= 71        1.07       2.6     3.0  4.6 -0.8237E+00  0.4143E+01  0.1250E+01E
 Epicentro: LOS SANTOS - SANTANDER                                             3
 ACTION:UPD 16-07-21 22:19 OP:rebc STATUS:               ID:20160615100125 L   I
 OLDACT:REG 16-06-15 21:18 OP:ndl  STATUS:               ID:20160615095745     3
 2016-06-15-0957-45M.COL___314                                                 6
 STAT SP IPHASW D HRMM SECON CODA AMPLIT PERI AZIMU VELO AIN AR TRES W  DIS CAZ7
 BAR2 EZ EP     D 10 1 44.80                             170   -0.0910 24.1 190 
 BAR2 EZ ES       10 1 59.90                             170   -0.2410 24.1 190 
 BAR2 EZ I        10 2  1.08       177.0 0.34                          24.1 190 
 BRR  HZ IP     D 10 1 46.65                             152    0.2510 71.1 298 
 BRR  HE ES       10 2  3.53                             152    0.7110 71.1 298 
 BRR  HZ I        10 2  7.71        88.4 0.14                          71.1 298 
 PAM  EZ IP     D 10 1 47.54                             151    0.1110 76.6  40 
 PAM  EN ES       10 2  4.78                             151    0.1310 76.6  40 
 PAM  EZ I        10 2  6.52        60.4 0.19                          76.6  40 
 RUS  HZ EP     C 10 1 48.74                             143   -0.3310  101 176 
 RUS  HN ES       10 2  7.28                             143   -0.2910  101 176 
 RUS  HZ I        10 2  8.66        65.3 0.34                           101 176 
 PTB  HZ EP       10 1 51.38                             132   -0.91 9  148 259 
 PTB  HN ES       10 2 12.51                             132   -0.79 9  148 259 
 PTB  HZ I        10 2 20.01        96.1 0.40                           148 259 
 TAM  HZ EP       10 1 53.01                             130    0.06 9  155 105 
 TAM  HN ES       10 2 14.63                             130    0.16 9  155 105 
 TAM  HZ I        10 2 16.02        42.3 0.50                           155 105 
 OCA  HZ EP       10 1 52.81                             130   -0.72 9  160 353 
 OCA  HE ES       10 2 16.06                             130    0.55 9  160 353 
 OCA  HZ I        10 2 21.30       251.9 0.32                           160 353 
 SPBC HZ EP       10 1 53.69                             129   -0.16 9  164 219 
 SPBC HE ES       10 2 16.17                             129    0.08 9  164 219 
 SPBC HZ I        10 2 17.77       106.1 0.22                           164 219 
 ZAR  HZ EP       10 1 57.50                             122   -0.24 9  204 292 
 ZAR  HE ES       10 2 23.18                             122    0.17 9  204 292 
 ZAR  HZ I        10 2 29.79        73.8 0.42                           204 292 
 NOR  HZ EP       10 2  0.56                             118   -0.54 8  235 234 
 NOR  HN ES       10 2 28.91                             118   -0.08 8  235 234 
 NOR  HZ I        10 2 33.40        51.2 0.24                           235 234 
 CHI  HZ EP       10 2  2.89                             117   -0.19 8  249 195 
 CHI  HE ES       10 2 32.51                             117   -0.01 8  249 195 
 CHI  HZ I        10 2 39.41        19.3 0.28                           249 195 
 ROSC BZ EP       10 2  4.54                             116    1.03 8  254 211 
 ROSC BN ES   4   10 2 35.56                             116    2.29 0  254 211 
 ROSC BZ I        10 2 42.72        68.6 0.40                           254 211 
 HEL  HZ EP   4   10 2  6.96                             115    1.39 0  273 256 
 HEL  HN ES   4   10 2 39.18                             115    2.23 0  273 256 
 HEL  HZ I        10 2 45.51        29.2 0.30                           273 256 
 URE  HZ EP       10 2  5.64                             113   -0.74 7  284 292 
 URE  HE ES   4   10 2 35.62                             113   -2.76 0  284 292 
 URE  HZ I        10 2 48.13        47.5 0.18                           284 292 
 GUY2CHZ EP       10 2  9.86                             112    0.87 7  302 235 
 GUY2CHN ES   4   10 2 46.00                             112    2.96 0  302 235 
 GUY2CHZ I        10 2 52.68        30.8 0.26                           302 235 
 CBOC HZ EP       10 2 12.87                             110    0.58 7  334 252 
 CBOC HN ES       10 2 49.12                             110    0.22 7  334 252 
 CBOC HZ I        10 2 58.03        13.5 0.44                           334 252 
 DBB  SZ EP       10 2 13.37                             109    0.55 7  340 274 
 DBB  SZ ES   4   10 2 48.38                             109   -1.47 0  340 274 
 DBB  SZ I        10 2 53.59        55.9 0.48                           340 274 
 ANIL HZ EP   3   10 2 16.12                             108    0.91 2  358 224 
 ANIL HE ES   4   10 2 57.19                             108    3.09 0  358 224 
 ANIL HZ I        10 3  3.62        80.4 0.34                           358 224 
 ARGC HZ EP       10 2 14.99                             108    0.09 6  359 340 
 ARGC HN ES       10 2 53.50                             108   -0.06 6  359 340 
 ARGC HZ I        10 3  3.01        18.9 0.34                           359 340 
 PRA  HZ EP       10 2 18.35                             106   -0.58 6  393 210 
 PRA  HN ES       10 3  1.89                             106    1.16 6  393 210 
 PRA  HZ I        10 3  7.34        32.6 0.24                           393 210 
 ORTC HZ EP       10 2 19.37                             106    0.04 6  396 216 
 ORTC HN ES       10 3  2.26                             106    0.82 6  396 216 
 ORTC HZ I        10 3  8.75        24.3 0.56                           396 216 
 PAL  HZ EP       10 2 20.61                             106    0.05 6  406 239 
 PAL  HE ES       10 3  3.68                             106    0.06 6  406 239 
 PAL  HZ I        10 3 14.56         8.2 0.32                           406 239 
 SJC  HZ EP   4   10 2 18.62                             106   -2.21 0  409 327 
 SJC  HE ES   4   10 3  1.29                             106   -2.82 0  409 327 
 SJC  HZ I        10 3  4.49        18.3 0.52                           409 327 
 CRJC HZ EP   4   10 2 25.10                             103   -2.63 0  467   4 
 CRJC HN ES   4   10 3 12.22                             103   -4.17 0  467   4 
 CRJC HZ I        10 3 19.38        20.4 0.40                           467   4 
 MACC HZ EP   4   10 2 31.65                             101   -2.48 0  521 189 
 MACC HN ES   4   10 3 23.46                             101   -4.32 0  521 189 
 MACC HZ I        10 3 30.32         3.7 0.20                           521 189 
                                                                                
