 2011  915 1956  2.0 L   6.769 -73.133138.0  RSN  5 0.4 1.7LRSN                1
 GAP=140        0.72       6.4     8.4  9.5 -0.3185E+01 -0.7996E+01  0.1293E+02E
 Epicentro: LOS SANTOS - SANTANDER                                             3
 ACTION:UPD 12-07-13 15:57 OP:ep   STATUS:               ID:20110915195602 L   I
 2011-09-15-1955-46S.COL___169                                                 6
 STAT SP IPHASW D HRMM SECON CODA AMPLIT PERI AZIMU VELO AIN AR TRES W  DIS CAZ7
 BAR2 SZ EP       1956 20.02                             171   -0.6010 20.3 196 
 BAR2 SZ ES   2   1956 34.90                             171   -0.25 5 20.3 196 
 BAR2 SZ I        1956 37.23        14.7 0.18                          20.3 196 
 GIR2 SZ ES   3   1956 35.05                             165   -0.50 2 34.9 349 
 BRR  HZ EP       1956 22.51                             150    0.0410 74.1 300 
 BRR  HZ I        1956 29.45        12.3 0.34                          74.1 300 
 BRR  HE ES   2   1956 38.95                             150    0.50 5 74.1 300 
 PAM  SZ EP       1956 23.56                             149    0.0710 79.2  37 
 PAM  SN ES   2   1956 40.57                             149    0.31 5 79.2  37 
 RUS  HZ EP       1956 25.05                             143    0.3310 97.1 177 
 RUS  HZ I        1956 39.25         6.1 0.96                          97.1 177 
 RUS  HE ES   3   1956 43.10                             143    0.65 2 97.1 177 
                                                                                
