 2017  915 1605 32.5 L   6.725 -73.151146.0  RSN  4 0.3 1.5LRSN                1
 GAP=231        0.79       8.8    10.0  7.9  0.7046E+02  0.4355E+01 -0.8928E+01E
 Epicentro: JORDAN - SANTANDER                                                 3
 ACTION:UPD 17-10-05 19:12 OP:rebc STATUS:               ID:20170915160532 L   I
 OLDACT:UP  17-09-15 23:22 OP:dnl  STATUS:               ID:20170915155736     3
 OLDACT:REG 17-09-15 22:11 OP:dnl  STATUS:               ID:20170915155736     3
 2017-09-15-1558-00M.COL___456                                                 6
 STAT SP IPHASW D HRMM SECON CODA AMPLIT PERI AZIMU VELO AIN AR TRES W  DIS CAZ7
 BAR2 EZ EP       16 5 52.00                             174   -0.0610 15.1 193 
 BAR2 EZ ES       16 6  6.80                             174   -0.4910 15.1 193 
 BAR2 EZ I        16 6  9.80         5.7 0.32            166           15.1 193 
 BRR  HZ EP       16 5 54.04                             151    0.1010 75.0 304 
 BRR  HN ES       16 6 11.09                             151    0.4710 75.0 304 
 BRR  HZ I        16 6 17.05        11.9 0.28            149           75.0 304 
 RUS  HZ EP   2   16 5 55.72                             146   -0.02 5 92.4 175 
 RUS  HN ES       16 6 14.05                             146    0.2110 92.4 175 
 RUS  HZ I        16 6 18.01         2.7 0.42            146           92.4 175 
 ZAR  HZ EP   4   16 6  7.78                             122    2.49 0  207 294 
 ZAR  HE ES       16 6 30.50                             122   -0.33 8  207 294 
 ZAR  HZ I        16 6 35.61         5.2 0.36            123            207 294 
                                                                                
