 2017 1115 1624 57.4 L   6.736 -73.194140.3  RSN  4 0.1 1.2LRSN                1
 GAP=238        0.45       4.5     3.4  4.3  0.9815E+01  0.2423E+01 -0.2297E+01E
 Epicentro: VILLANUEVA - SANTANDER                                             3
 ACTION:UPD 17-12-12 19:55 OP:rebc STATUS:               ID:20171115162457 L   I
 OLDACT:REG 17-11-15 21:38 OP:lv   STATUS:               ID:20171115161744     3
 2017-11-15-1618-00M.COL___447                                                 6
 STAT SP IPHASW D HRMM SECON CODA AMPLIT PERI AZIMU VELO AIN AR TRES W  DIS CAZ7
 BAR2 EZ EP       1625 16.16                             173   -0.0510 15.9 175 
 BAR2 EZ ES       1625 31.01                             173    0.1110 15.9 175 
 BAR2 EZ I        1625 32.54         7.2 0.48            167           15.9 175 
 RUS  HZ EP       1625 19.98                             145   -0.1310 94.0 173 
 RUS  HN ES       1625 37.81                             145   -0.0410 94.0 173 
 RUS  HZ I        1625 39.28         3.2 0.22            143           94.0 173 
 PTB  HZ EP       1625 23.62                             132    0.31 9  141 261 
 PTB  HN ES       1625 43.49                             132   -0.04 9  141 261 
 PTB  HZ I        1625 50.32         1.2 0.34            130            141 261 
 ZAR  HN ES       1625 53.95                             121   -0.17 9  202 295 
                                                                                
