 2013  715 1006 42.5 L   6.817 -73.150145.9  RSN 12 0.4 2.5LRSN                1
 GAP=135        0.90       2.8     4.5  4.9 -0.4958E+00  0.6694E+01  0.6466E+00E
 Epicentro: LOS SANTOS - SANTANDER                                             3
 ACTION:UPD 13-08-12 10:37 OP:ep   STATUS:               ID:20130715100642 L   I
 OLDACT:UP  13-07-15 18:14 OP:cam  STATUS:               ID:20130715100450     3
 OLDACT:UP  13-07-15 18:11 OP:cam  STATUS:               ID:20130715100450     3
 OLDACT:UP  13-07-15 18:11 OP:cam  STATUS:               ID:20130715100450     3
 OLDACT:REG 13-07-15 17:46 OP:cam  STATUS:               ID:20130715100450     3
 2013-07-15-1004-50M.COL___222                                                 6
 STAT SP IPHASW D HRMM SECON CODA AMPLIT PERI AZIMU VELO AIN AR TRES W  DIS CAZ7
 BAR2 SZ IP     C 10 7  2.09                             170   -0.0710 25.1 188 
 BAR2 SZ ES       10 7 17.09                             170   -0.4310 25.1 188 
 BAR2 SZ I        10 7 18.66        56.7 0.27            167           25.1 188 
 GIR2 SZ IP     C 10 7  2.16                             168    0.0510 29.3 351 
 GIR2 SZ ES   2   10 7 18.04                             168    0.60 5 29.3 351 
 BRR  HZ EP       10 7  3.83                             153    0.2610 69.9 297 
 BRR  HZ I        10 7  4.13        63.1 0.28            149           69.9 297 
 BRR  HN ES       10 7 20.70                             153    0.6810 69.9 297 
 PAM  SZ EP       10 7  4.91                             151    0.2710 76.3  41 
 PAM  SZ I        10 7  5.25        75.9 0.20            155           76.3  41 
 PAM  SN ES       10 7 22.13                             151    0.2010 76.3  41 
 RUS  HZ EP       10 7  6.37                             143   -0.0110  102 176 
 RUS  HN ES       10 7 24.80                             143   -0.2310  102 176 
 RUS  HZ I        10 7 26.08        43.0 0.28            144            102 176 
 PTB  HZ EP       10 7  8.94                             132   -0.50 9  148 258 
 PTB  HN ES   1   10 7 29.69                             132   -0.79 7  148 258 
 PTB  HZ I        10 7 35.26        32.2 0.32            130            148 258 
 OCA  HZ EP   1   10 7 10.61                             130   -0.01 7  158 353 
 OCA  HN ES       10 7 31.99                             130   -0.58 9  158 353 
 OCA  HZ I        10 7 35.13        29.2 0.18            130            158 353 
 ZAR  HZ EP   1   10 7 15.72                             123    0.91 6  203 292 
 ZAR  HE ES   2   10 7 40.71                             123    0.68 4  203 292 
 ZAR  HZ I        10 7 46.00        34.2 0.38            121            203 292 
 NOR  HZ EP       10 7 18.45                             118    0.16 8  235 234 
 SML  HZ EP       10 7 18.58                             118   -0.32 8  242 335 
 SML  HE ES   1   10 7 46.91                             118   -0.40 6  242 335 
 SML  HZ I        10 7 51.41        30.6 0.10            117            242 335 
 CHI  HZ EP   1   10 7 20.50                             117    0.14 6  250 195 
 CHI  HN ES   2   10 7 50.21                             117    0.29 4  250 195 
 CHI  HZ I        10 7 53.19        11.9 0.36            117            250 195 
 HEL  HZ EP   4   10 7 24.22                             115    1.53 0  272 255 
 HEL  HN ES   4   10 7 58.49                             115    4.43 0  272 255 
 PRA  HZ EP   1   10 7 36.07                             106   -0.09 4  393 209 
 PRA  HN ES   1   10 8 18.58                             106    0.54 4  393 209 
 PRA  HZ I        10 8 24.82         7.6 0.68            106            393 209 
 SJC  HZ EP   4   10 7 36.40                             106   -1.42 0  407 327 
 SJC  HN ES   4   10 8 17.40                             106   -3.60 0  407 327 
                                                                                
