 2017 1215 1638 17.4 L   6.694 -73.122141.7  RSN  5 0.4 1.9LRSN                1
 GAP=110        1.02       7.7     3.5  7.5  0.3087E+01  0.5129E+01  0.1714E+01E
 Epicentro: JORDAN - SANTANDER                                                 3
 ACTION:UPD 18-01-04 13:20 OP:rebc STATUS:               ID:20171215163817 L   I
 OLDACT:DUP 17-12-15 23:37 OP:leo  STATUS:               ID:20171215162632d    3
 2017-12-15-1628-00M.COL___482                                                 6
 STAT SP IPHASW D HRMM SECON CODA AMPLIT PERI AZIMU VELO AIN AR TRES W  DIS CAZ7
 BAR2 EZ EP       1638 36.67                             174    0.2710 13.1 211 
 BAR2 EZ ES       1638 51.62                             174    0.4210 13.1 211 
 BAR2 EZ I        1638 52.80        16.5 0.40            173           13.1 211 
 PAM  EZ EP       1638 39.57                             148   -0.1310 85.3  33 
 PAM  EN ES       1638 57.04                             148   -0.0510 85.3  33 
 PAM  EZ I        1638 58.75        12.2 0.56            150           85.3  33 
 PTB  HZ EP       1638 43.60                             131   -0.53 9  149 263 
 PTB  HN ES       1639  4.78                             131   -0.19 9  149 263 
 PTB  HZ I        1639 10.37         7.6 0.22            131            149 263 
 TAM  HZ EP       1638 44.90                             131    0.61 9  150 101 
 TAM  HN ES       1639  4.57                             131   -0.68 9  150 101 
 ZAR  HZ EP       1638 50.78                             120    0.43 8  211 295 
 ZAR  HE ES       1639 15.85                             120   -0.18 8  211 295 
 ZAR  HZ I        1639 20.75        10.7 0.44            121            211 295 
                                                                                
