 2013  915 1608 35.0 L   6.787 -73.157153.3  RSN  4 0.3 1.5LRSN                1
 GAP=212        0.76       6.5     6.3  7.8  0.2847E+01  0.6627E+01 -0.1375E+02E
 Epicentro: LOS SANTOS - SANTANDER                                             3
 ACTION:UPD 13-10-22 09:22 OP:ep   STATUS:               ID:20130915160835 L   I
 OLDACT:UP  13-09-15 16:03 OP:cam  STATUS:               ID:20130915160000     3
 OLDACT:REG 13-09-15 14:48 OP:cam  STATUS:               ID:20130915160000     3
 2013-09-15-1600-00M.COL___268                                                 6
 STAT SP IPHASW D HRMM SECON CODA AMPLIT PERI AZIMU VELO AIN AR TRES W  DIS CAZ7
 BAR2 SZ EP       16 8 55.40                             172   -0.0810 21.8 187 
 BAR2 SZ ES       16 9 11.21                             172   -0.2710 21.8 187 
 BAR2 SZ I        16 9 13.04         6.6 0.36            167           21.8 187 
 BRR  HZ EP       16 8 57.31                             154    0.3910 70.8 300 
 BRR  HN ES   1   16 9 14.59                             154    0.55 7 70.8 300 
 PTB  HZ EP   1   16 9  2.50                             134    0.07 7  146 259 
 PTB  HN ES       16 9 23.59                             134   -0.26 9  146 259 
 PTB  HZ I        16 9 29.25         3.3 0.16            132            146 259 
 SML  HE ES   1   16 9 40.61                             119   -0.47 6  244 336 
                                                                                
