 2017  115 1702 14.9 L   6.782 -73.146141.3  RSN  4 0.2 1.4LRSN                1
 GAP=137        0.49       2.6     3.8  4.0 -0.1191E+00 -0.9709E+00  0.3865E+00E
 Epicentro: LOS SANTOS - SANTANDER                                             3
 ACTION:UPD 17-05-22 15:59 OP:jn   STATUS:               ID:20170115170214 L   I
 OLDACT:DUP 17-01-15 23:57 OP:dani STATUS:               ID:20170115165746d    3
 OLDACT:UP  17-01-15 23:56 OP:dani STATUS:               ID:20170115165745     3
 OLDACT:REG 17-01-15 20:40 OP:dani STATUS:               ID:20170115165745     3
 2017-01-15-1658-00M.COL___338                                                 6
 STAT SP IPHASW D HRMM SECON CODA AMPLIT PERI AZIMU VELO AIN AR TRES W  DIS CAZ7
 BAR2 EZ EP       17 2 33.91                             171   -0.0410 21.3 191 
 BAR2 EZ ES       17 2 48.60                             171   -0.2210 21.3 191 
 BAR2 EZ I        17 2 50.56         9.2 0.41            172           21.3 191 
 BRR  HZ EP       17 2 35.78                             151    0.1610 72.1 300 
 BRR  HN ES       17 2 51.78                             151   -0.0110 72.1 300 
 BRR  HZ I        17 2 56.26        10.3 0.31            152           72.1 300 
 PAM  EZ EP       17 2 36.76                             149    0.0210 79.0  39 
 PAM  EN ES       17 2 53.83                             149    0.0510 79.0  39 
 PAM  EZ I        17 2 55.96         4.7 0.52            153           79.0  39 
 RUS  HZ EP       17 2 37.83                             143   -0.2410 98.6 176 
 RUS  HE ES       17 2 56.41                             143    0.2710 98.6 176 
 RUS  HZ I        17 2 58.49         2.0 0.12            147           98.6 176 
                                                                                
