 2016 1215 1542 23.6 L   6.803 -73.196145.7  RSN  4 0.2 1.4LRSN                1
 GAP=144        0.57       3.5     3.3  4.8 -0.3553E+01  0.4233E+01 -0.1643E+01E
 Epicentro: ZAPATOCA - SANTANDER                                               3
 ACTION:UPD 17-01-11 20:15 OP:rebc STATUS:               ID:20161215154223 L   I
 OLDACT:UP  16-12-16 01:51 OP:ar   STATUS:               ID:20161215153859d    3
 OLDACT:DUP 16-12-16 01:49 OP:ar   STATUS:               ID:20161215153859d    3
 OLDACT:REG 16-12-15 22:30 OP:ar   STATUS:               ID:20161215153858     3
 2016-12-15-1539-10M.COL___352                                                 6
 STAT SP IPHASW D HRMM SECON CODA AMPLIT PERI AZIMU VELO AIN AR TRES W  DIS CAZ7
 BAR2 EZ EP       1542 43.32                             170    0.0510 23.3 176 
 BAR2 EZ ES       1542 58.90                             170    0.3210 23.3 176 
 BAR2 EZ I        1542 59.47         8.3 0.22            170           23.3 176 
 PAM  EZ EP       1542 46.33                             150    0.2710 80.8  43 
 PAM  EN ES       1543  3.24                             150   -0.3110 80.8  43 
 PAM  EZ I        1543  4.15         3.3 0.48            152           80.8  43 
 RUS  HZ EP       1542 47.41                             144   -0.0410  101 173 
 RUS  HN ES       1543  5.87                             144   -0.1510  101 173 
 RUS  HZ I        1543  7.55         3.6 0.40            144            101 173 
 PTB  HZ EP       1542 50.03                             133   -0.10 9  142 258 
 PTB  HN ES       1543 10.74                             133   -0.04 9  142 258 
 PTB  HZ I        1543 12.94         4.1 0.38            134            142 258 
                                                                                
