 2013  515 1244 47.4 L   6.820 -73.139148.0  RSN  7 0.5 1.6LRSN                1
 GAP=136        1.37       5.8     7.0  8.9  0.1297E+01  0.1193E+02 -0.1075E-01E
 Epicentro: LOS SANTOS - SANTANDER                                             3
 ACTION:UPD 13-06-20 09:50 OP:ep   STATUS:               ID:20130515124447 L   I
 2013-05-15-1240-00M.COL___256                                                 6
 STAT SP IPHASW D HRMM SECON CODA AMPLIT PERI AZIMU VELO AIN AR TRES W  DIS CAZ7
 BAR2 SZ EP       1245  7.56                             170    0.2010 25.6 191 
 BAR2 SZ ES       1245 22.68                             170   -0.2410 25.6 191 
 BAR2 SZ I        1245 24.04        19.4 0.16            171           25.6 191 
 GIR2 SZ ES       1245 22.52                             168   -0.2910 29.2 348 
 BRR  HZ EP       1245  8.24                             153   -0.5410 70.8 297 
 BRR  HN ES       1245 26.71                             153    1.2610 70.8 297 
 BRR  HZ I        1245 29.91        10.3 0.38            154           70.8 297 
 PAM  SZ EP       1245 10.40                             152    0.6610 75.2  40 
 PAM  SE ES       1245 26.79                             152   -0.3710 75.2  40 
 PAM  SZ I        1245 29.72         5.8 0.52            154           75.2  40 
 RUS  HZ EP       1245 11.49                             144   -0.0510  103 177 
 RUS  HN ES       1245 30.30                             144   -0.0610  103 177 
 RUS  HZ I        1245 31.92         3.5 0.28            146            103 177 
 PTB  HZ EP       1245 14.90                             132    0.24 9  149 258 
 PTB  HN ES       1245 35.37                             132   -0.55 9  149 258 
 PTB  HZ I        1245 37.34         3.8 0.10            134            149 258 
 SML  HN ES       1245 51.99                             118   -0.51 8  242 335 
                                                                                
