 2011  815 1732 14.1 L   7.184 -73.043146.3  RSN  4 0.2 1.3LRSN                1
 GAP=196        0.41       4.0    13.3 12.2 -0.4888E+01 -0.1178E+03  0.1015E+02E
 Epicentro: BUCARAMANGA - SANTANDER                                            3
 ACTION:UPD 12-07-13 15:52 OP:ep   STATUS:               ID:20110815173214 L   I
 2011-08-15-1730-37S.COL___150                                                 6
 STAT SP IPHASW D HRMM SECON CODA AMPLIT PERI AZIMU VELO AIN AR TRES W  DIS CAZ7
 BAR2 SZ EP   1   1732 35.22                             154   -0.17 7 67.2 193 
 BAR2 SZ I        1732 53.64         4.1 0.23                          67.2 193 
 BRR  HZ EP   1   1732 35.30                             151   -0.14 7 74.3 263 
 BRR  HZ I        1732 36.81         7.8 0.12                          74.3 263 
 BRR  HN ES   2   1732 52.32                             151    0.20 5 74.3 263 
 OCA  SZ EP   1   1732 39.04                             138    0.12 7  121 345 
 OCA  SZ ES   2   1732 58.24                             138   -0.07 5  121 345 
 OCA  SZ I        1733  0.40         4.9 0.17                           121 345 
 RUS  HZ EP   2   1732 41.66                             133    0.38 5  143 182 
 RUS  HZ I        1732 43.36         1.0 0.16                           143 182 
                                                                                
