 2013 1115 1151 59.7 L   6.762 -73.152135.6  RSN  8 0.5 2.0LRSN                1
 GAP= 96        1.26       5.5     4.9  7.5 -0.8412E+01  0.1987E+01  0.7804E+01E
 Epicentro: LOS SANTOS - SANTANDER                                             3
 ACTION:UPD 14-01-09 16:28 OP:ep   STATUS:               ID:20131115115159 L   I
 OLDACT:REG 13-11-15 16:05 OP:stll STATUS:               ID:20131115114818     3
 2013-11-15-1148-18M.COL___231                                                 6
 STAT SP IPHASW D HRMM SECON CODA AMPLIT PERI AZIMU VELO AIN AR TRES W  DIS CAZ7
 BAR2 SZ IP     D 1152 18.25                             172    0.2410 19.1 190 
 BAR2 SZ I        1152 18.35        37.1 0.40            167           19.1 190 
 BAR2 SZ ES       1152 31.49                             172   -0.8210 19.1 190 
 BRR  HZ IP     C 1152 20.10                             150    0.2710 72.6 302 
 BRR  HZ I        1152 20.31        21.6 0.24            150           72.6 302 
 BRR  HN ES       1152 36.58                             150    1.0310 72.6 302 
 PAM  SZ EP       1152 21.01                             148   -0.0610 81.1  38 
 PAM  SN ES       1152 37.26                             148   -0.4910 81.1  38 
 RUS  HZ EP       1152 22.29                             143    0.1410 96.5 175 
 RUS  HN ES       1152 40.19                             143    0.5310 96.5 175 
 RUS  HZ I        1152 42.48        12.9 0.36            142           96.5 175 
 PTB  HZ EP       1152 24.97                             130   -0.74 9  146 260 
 PTB  HE ES       1152 45.81                             130   -0.19 9  146 260 
 PTB  HZ I        1152 51.17        14.3 0.30            129            146 260 
 TAM  HZ EP       1152 26.62                             128    0.07 9  155 103 
 SPBC HZ EP       1152 27.28                             127    0.21 9  159 220 
 SPBC HN ES       1152 48.42                             127   -0.00 9  159 220 
 SPBC HZ I        1152 55.50        12.2 0.34            127            159 220 
 NOR  HZ EP       1152 34.72                             117    0.20 8  232 235 
 NOR  HN ES       1153  1.07                             117   -0.62 8  232 235 
 NOR  HZ I        1153  6.02         6.0 0.44            117            232 235 
                                                                                
