 2011  415 1436 15.7 L   6.786 -73.121145.2  RSN 11 0.3 2.4LRSN                1
 GAP=117        0.59       3.6     4.2  4.8 -0.4608E+01  0.2620E+01  0.5914E+01E
 Epicentro: LOS SANTOS - SANTANDER                                             3
 ACTION:UP  11-06-22 15:31 OP:REBC STATUS:               ID:20110415143616dL   I
 2011-04-15-1433-52S.COL___138                                                 6
 STAT SP IPHASW D HRMM SECON CODA AMPLIT PERI AZIMU VELO SNR AR TRES W  DIS CAZ7
 BTL  SZ EP       1436 35.48                             171     0.210   22 312 
 BAR2 SZ EP   1   1436 35.36                             171     0.1 7   22 198 
 BAR2 SZ ES   1   1436 50.34                             171    -0.1 7   22 198 
 BAR2 SZ I        1436 53.36        70.6 0.40                            22 198 
 GIR2 SZ EP       1436 35.42                             166     0.110   33 346 
 BRR  HZ IP     C 1436 37.19                             151     0.210   74 299 
 BRR  HE ES   1   1436 53.63                             151     0.1 7   74 299 
 BRR  HZ I        1436 58.37        43.7 0.12                            74 299 
 PAM  SZ EP   1   1436 37.92                             151     0.1 7   77  37 
 PAM  SN ES   1   1436 55.02                             151    -0.1 7   77  37 
 OCA  SZ EP   1   1436 43.82                             129    -0.3 7  162 352 
 OCA  SZ ES   2   1437  5.45                             129    -0.9 5  162 352 
 OCA  SZ I        1437 11.96        26.7 0.43                           162 352 
 YOP  SZ EP   1   1436 45.23                             127    -0.2 7  176 154 
 YOP  SZ I        1437 13.53        12.5 0.30                           176 154 
 NOR  SZ EP   1   1436 51.29                             118    -0.3 6  236 235 
 NOR  SN ES   2   1437 19.61                             118     0.1 4  236 235 
 HEL  HZ EP   2   1436 56.82                             114     0.7 4  274 256 
 HEL  HN ES   2   1437 27.50                             114    -0.2 4  274 256 
 HEL  HZ I        1437 34.32        18.4 0.37                           274 256 
 TOL  SZ EP   1   1437  4.10                             109     0.1 5  344 225 
 PRA  HZ EP   2   1437  9.33                             106     0.1 3  392 210 
 PRA  HE ES   1   1437 50.09                             106    -0.8 4  392 210 
                                                                                
