 2011  515 1115 25.7 L   6.800 -73.092145.1  RSN 11 0.2 2.3LRSN                1
 GAP=144        0.46       2.5     3.4  4.0 -0.4019E+01  0.1922E+01  0.2523E+01E
 Epicentro: LOS SANTOS - SANTANDER                                             3
 ACTION:UP  11-06-29 08:53 OP:tino STATUS:               ID:20110515111525 L   I
 2011-05-15-1100-00M.COL___139                                                 6
 STAT SP IPHASW D HRMM SECON CODA AMPLIT PERI AZIMU VELO SNR AR TRES W  DIS CAZ7
 BAR2 SZ IP       1115 45.30                             170     0.010   25 204 
 BAR2 SZ I        1115 45.84        40.2 0.36                            25 204 
 BAR2 SZ ES   2   1116  0.93                             170     0.4 5   25 204 
 PAM  SZ EP   1   1115 47.84                             152     0.2 7   74  36 
 PAM  SE ES   2   1116  4.78                             152     0.0 5   74  36 
 BRR  HZ IP     C 1115 46.91                             151    -0.210   77 296 
 BRR  HE ES   1   1116  3.92                             151     0.2 7   77 296 
 BRR  HZ I        1116  4.92        46.3 0.17                            77 296 
 RUS  HZ EP   1   1115 49.44                             144     0.1 7  100 179 
 RUS  HE ES   2   1116  7.63                             144    -0.2 5  100 179 
 RUS  HZ I        1116 11.87        11.2 0.51                           100 179 
 BRI  SZ EP   1   1115 49.42                             142     0.0 7  106  18 
 BRI  SZ ES   1   1116  7.88                             142     0.0 7  106  18 
 BRI  SZ I        1116 14.70        28.6 0.36                           106  18 
 GRA  SZ EP   1   1115 50.68                             137    -0.1 7  124  15 
 GRA  SZ ES   1   1116  9.74                             137    -0.5 7  124  15 
 GRA  SZ I        1116 11.08        74.7 0.26                           124  15 
 OCA  SZ EP   2   1115 54.35                             129     0.3 5  161 351 
 OCA  SZ ES   2   1116 16.47                             129     0.3 5  161 351 
 OCA  SZ I        1116 17.92        26.6 0.23                           161 351 
 NOR  SZ EP   1   1116  1.96                             118     0.0 6  240 235 
 NOR  SN ES   2   1116 29.80                             118    -0.4 4  240 235 
 HEL  HZ EP   2   1116  6.48                             114     0.0 4  278 256 
 HEL  HN ES   2   1116 38.09                             114    -0.3 4  278 256 
 HEL  HZ I        1116 43.95        15.9 0.31                           278 256 
 RREF HZ EP   1   1116 12.53                             110     0.2 5  326 230 
 RREF HN ES   2   1116 49.28                             110     0.6 3  326 230 
 PRA  HZ EP   2   1116 19.73                             106     0.2 3  395 210 
 PRA  HE ES   2   1117  1.06                             106    -0.5 3  395 210 
                                                                                
