 2012 1215 1611 27.1 L   6.770 -73.217144.0  RSN  4 0.4 1.7LRSN                1
 GAP=269        1.02       8.7     8.0  8.6  0.3164E+02  0.2292E+02  0.2289E+02E
 Epicentro: ZAPATOCA - SANTANDER                                               3
 ACTION:UPD 13-01-04 14:28 OP:ep   STATUS:               ID:20121215161127 L   I
 2012-12-15-1610-00M.COL___238                                                 6
 STAT SP IPHASW D HRMM SECON CODA AMPLIT PERI AZIMU VELO AIN AR TRES W  DIS CAZ7
 BAR2 SZ ES       1612  1.50                             172   -0.0910 20.0 169 
 BAR2 SZ I        1612  3.98         9.7 0.40                          20.0 169 
 RUS  HZ EP       1611 50.66                             144    0.1110 98.2 171 
 RUS  HN ES       1612  8.93                             144    0.1310 98.2 171 
 RUS  HN I        1612 10.59         9.1 0.36                          98.2 171 
 PTB  HZ EP       1611 52.55                             133   -0.66 9  139 260 
 PTB  HN ES       1612 13.98                             133    0.43 9  139 260 
 PTB  HN I        1612 19.22         9.6 0.20                           139 260 
 CHI  HZ EP       1612  4.82                             117    0.64 8  243 194 
 CHI  HE ES       1612 32.52                             117   -0.55 8  243 194 
 CHI  HE I        1612 40.43         3.5 0.38                           243 194 
                                                                                
