 2014  915 1923 22.3 L   6.813 -73.124144.1  RSN  9 0.4 1.9LRSN                1
 GAP=203        0.87       3.6     5.4  6.7  0.2300E+01 -0.1641E+01 -0.9022E+00E
 Epicentro: LOS SANTOS - SANTANDER                                             3
 ACTION:UPD 14-10-03 23:05 OP:nd   STATUS:               ID:20140915192322 L   I
 OLDACT:UP  14-09-16 03:16 OP:mh   STATUS:               ID:20140915191818     3
 OLDACT:REG 14-09-15 21:34 OP:spq  STATUS:               ID:20140915191818     3
 2014-09-15-1918-18M.COL___287                                                 6
 STAT SP IPHASW D HRMM SECON CODA AMPLIT PERI AZIMU VELO AIN AR TRES W  DIS CAZ7
 BAR2 SZ EP       1923 42.08                             170    0.3010 25.3 195 
 BAR2 SZ I        1923 59.87        28.5 0.22            171           25.3 195 
 BRR  HZ EP       1923 43.81                             152    0.4510 72.6 297 
 BRR  HN ES       1924  0.06                             152    0.2810 72.6 297 
 BRR  HZ I        1924  3.58        13.7 0.07            155           72.6 297 
 RUS  HZ EP       1923 46.00                             143    0.0010  102 177 
 RUS  HN ES   1   1924  4.03                             143   -0.44 7  102 177 
 RUS  HZ I        1924  6.48         3.7 0.28            146            102 177 
 PTB  HZ EP       1923 48.79                             131   -0.60 9  150 258 
 PTB  HN ES   1   1924  9.93                             131   -0.57 7  150 258 
 PTB  HZ I        1924 16.04         7.3 0.20            135            150 258 
 SPBC HZ EP       1923 50.98                             128    0.04 9  166 219 
 SPBC HN ES       1924 13.08                             128   -0.19 9  166 219 
 SPBC HZ I        1924 21.30        12.2 0.30            132            166 219 
 ZAR  HE ES   1   1924 20.35                             122    0.17 6  206 292 
 ZAR  HZ I        1924 26.21         9.4 0.28            125            206 292 
 NOR  HZ EP   1   1923 58.08                             118   -0.17 6  238 235 
 NOR  HN ES   1   1924 26.59                             118    0.31 6  238 235 
 NOR  HZ I        1924 29.77         5.2 0.20            121            238 235 
 SML  HZ EP       1923 58.39                             117   -0.42 8  243 335 
 SML  HN ES   1   1924 26.92                             117   -0.36 6  243 335 
 SML  HZ I        1924 31.39         7.2 0.32            120            243 335 
 GUY2CHZ EP       1924  6.97                             112    0.81 7  304 235 
 GUY2CHN ES   4   1924 42.74                             112    2.38 0  304 235 
 GUY2CHZ I        1924 51.90         2.7 0.34                           304 235 
                                                                                
