 2011 1215 1955  2.1 L   6.772 -73.090150.3  RSN  6 0.2 2.0LRSN                1
 GAP=145        0.37       2.8     5.0  4.1 -0.3886E+01 -0.2062E+01  0.3435E+01E
 Epicentro: LOS SANTOS - SANTANDER                                             3
 ACTION:UPD 12-07-13 16:16 OP:ep   STATUS:               ID:20111215195502 L   I
 2011-12-15-1950-00M.COL___188                                                 6
 STAT SP IPHASW D HRMM SECON CODA AMPLIT PERI AZIMU VELO AIN AR TRES W  DIS CAZ7
 BAR2 SZ EP   1   1955 22.10                             171   -0.20 7 22.4 207 
 BAR2 SZ ES   2   1955 38.07                             171    0.04 5 22.4 207 
 BAR2 SZ I        1955 40.18        25.5 0.34                          22.4 207 
 GIR2 SZ EP   2   1955 22.14                             166   -0.35 5 35.8 341 
 GIR2 SZ ES   2   1955 38.25                             166   -0.10 5 35.8 341 
 PAM  SZ EP       1955 24.96                             152    0.1910 76.1  34 
 PAM  SN ES   2   1955 42.39                             152   -0.04 5 76.1  34 
 BRR  HZ EP   1   1955 24.03                             151   -0.15 7 78.1 298 
 BRR  HZ I        1955 24.35        31.8 0.16                          78.1 298 
 BRR  HE ES   2   1955 41.64                             151    0.27 5 78.1 298 
 RUS  HZ EP   1   1955 26.03                             146   -0.08 7 97.2 180 
 RUS  HN ES   2   1955 44.85                             146    0.04 5 97.2 180 
 RUS  HZ I        1955 47.39         7.0 0.18                          97.2 180 
 CHI  HZ EP   1   1955 40.27                             118    0.31 6  247 197 
 CHI  HN ES   2   1956  9.39                             118   -0.07 4  247 197 
 CHI  HZ I        1956 15.18         6.4 0.37                           247 197 
                                                                                
