 2011  315 1510  2.3 L   6.798 -73.134137.7  RSN 12 0.4 2.6LRSN                1
 GAP=104        0.93       3.3     5.1  7.0 -0.4089E+01  0.7887E+01  0.3055E+00E
 Epicentro: LOS SANTOS - SANTANDER                                             3
 ACTION:UP  11-06-16 14:33 OP:jfem STATUS:               ID:20110315151002 L   I
 2011-03-15-1507-58S.COL___138                                                 6
 STAT SP IPHASW D HRMM SECON CODA AMPLIT PERI AZIMU VELO SNR AR TRES W  DIS CAZ7
 BTL  SZ IP       1510 21.29                             171     0.410   20 312 
 BAR2 SZ EP   1   1510 20.95                             170     0.0 7   23 193 
 BAR2 SZ ES   1   1510 35.39                             170    -0.1 7   23 193 
 BAR2 SZ I        1510 37.28       129.8 0.31                            23 193 
 GIR2 SZ EP       1510 21.25                             166     0.210   32 348 
 RUS  HZ EP       1510 25.18                             142     0.010  100 177 
 RUS  HN ES   1   1510 43.13                             142     0.0 7  100 177 
 RUS  HZ I        1510 45.44        47.6 0.34                           100 177 
 GRA  SZ IP       1510 27.15                             135     0.410  126  17 
 GRA  SZ ES       1510 45.63                             135    -0.310  126  17 
 GRA  SZ I        1510 48.78        60.7 0.29                           126  17 
 OCA  SZ EP       1510 29.58                             128    -0.4 9  161 353 
 OCA  SZ I        1510 55.61        86.5 0.40                           161 353 
 YOP  SZ EP       1510 31.92                             124     0.2 9  178 154 
 YOP  SN ES   1   1510 54.27                             124    -0.3 7  178 154 
 YOP  SZ I        1510 56.26        34.2 0.31                           178 154 
 NOR  SZ EP   1   1510 37.83                             116     0.2 6  236 235 
 NOR  SE ES   1   1511  4.67                             116    -0.6 6  236 235 
 CHI  HZ EP   1   1510 39.60                             115     0.1 6  249 195 
 CHI  HZ I        1511 11.99        24.1 0.30                           249 195 
 HEL  HZ EP   1   1510 43.08                             113     0.9 6  273 256 
 HEL  HN ES   1   1511 12.86                             113    -0.5 6  273 256 
 HEL  HZ I        1511 18.36        20.6 0.37                           273 256 
 SDV  BZ EP   1   1510 50.92                             107    -1.0 5  360  50 
 SDV  BZ I        1510 52.63         6.6 0.15                           360  50 
 PRA  HN ES   1   1511 36.63                             105    -0.5 4  392 210 
                                                                                
