 2016  615 1223  1.1 L   6.812 -73.163145.6  RSN 18 0.4 2.8LRSN                1
 GAP=111        0.99       2.6     3.0  5.0  0.4950E-01  0.2382E+01  0.1681E+01E
 Epicentro: LOS SANTOS - SANTANDER                                             3
 ACTION:UPD 16-07-21 22:19 OP:rebc STATUS:               ID:20160615122301 L   I
 OLDACT:REG 16-06-15 21:23 OP:dnl  STATUS:               ID:20160615121747     3
 2016-06-15-1217-47M.COL___328                                                 6
 STAT SP IPHASW D HRMM SECON CODA AMPLIT PERI AZIMU VELO AIN AR TRES W  DIS CAZ7
 BAR2 EZ IP     D 1223 20.67                             170   -0.1010 24.4 185 
 BAR2 EZ ES       1223 35.47                             170   -0.6110 24.4 185 
 BAR2 EZ I        1223 37.40       175.7 0.20                          24.4 185 
 BRR  HZ EP       1223 22.48                             153    0.3410 68.9 298 
 BRR  HN ES       1223 39.53                             153    1.0110 68.9 298 
 BRR  HZ I        1223 42.70       160.1 0.32                          68.9 298 
 RUS  HZ EP       1223 24.64                             143   -0.3410  102 175 
 RUS  HE ES       1223 43.59                             143    0.0210  102 175 
 RUS  HZ I        1223 44.44        39.6 0.36                           102 175 
 PTB  HZ EP       1223 27.45                             132   -0.49 9  146 258 
 PTB  HN ES       1223 48.52                             132   -0.33 9  146 258 
 PTB  HZ I        1223 55.67        90.9 0.44                           146 258 
 TAM  HZ IP     D 1223 29.11                             130    0.10 9  157 105 
 TAM  HE ES       1223 51.20                             130    0.45 9  157 105 
 OCA  HZ EP       1223 28.84                             130   -0.45 9  159 354 
 OCA  HE ES       1223 51.12                             130   -0.13 9  159 354 
 OCA  HZ I        1223 55.90       153.4 0.20                           159 354 
 SPBC HZ EP       1223 29.54                             129   -0.07 9  163 218 
 SPBC HN ES       1223 51.82                             129    0.01 9  163 218 
 SPBC HZ I        1223 56.56        64.4 0.34                           163 218 
 ZAR  HZ EP       1223 33.11                             123   -0.23 9  202 292 
 ZAR  HE ES       1223 58.37                             123   -0.08 9  202 292 
 ZAR  HZ I        1224  4.77        74.0 0.30                           202 292 
 NOR  HZ EP       1223 37.20                             119    0.43 8  234 234 
 NOR  HE ES       1224  4.50                             119   -0.06 8  234 234 
 NOR  HZ I        1224 10.05        31.7 0.18                           234 234 
 CHI  HZ EP       1223 39.00                             117    0.09 8  249 195 
 CHI  HE ES       1224  8.04                             117   -0.33 8  249 195 
 CHI  HZ I        1224 11.76        30.2 0.38                           249 195 
 ROSC BZ EP   4   1223 40.89                             117    1.63 0  253 210 
 ROSC BE ES       1224  9.47                             117    0.47 8  253 210 
 ROSC BZ I        1224 14.37        43.8 0.30                           253 210 
 URE  HZ EP   4   1223 43.60                             114    1.66 0  282 292 
 URE  HN ES   4   1224 11.43                             114   -2.34 0  282 292 
 URE  HZ I        1224 21.74       117.3 0.12                           282 292 
 GUY2CHZ EP   4   1223 46.13                             112    1.48 0  300 234 
 GUY2CHN ES   4   1224 22.08                             112    3.50 0  300 234 
 GUY2CHZ I        1224 29.00        17.5 0.36                           300 234 
 VIL  SE ES       1224 18.44                             112   -0.15 7  304 191 
 CBOC HZ EP       1223 49.11                             110    1.23 7  332 252 
 CBOC HN ES   2   1224 24.33                             110   -0.01 3  332 252 
 CBOC HZ I        1224 31.22         7.3 0.52                           332 252 
 DBB  SZ EP       1223 47.94                             110   -0.43 7  337 274 
 DBB  SZ ES   4   1224 22.90                             110   -2.32 0  337 274 
 DBB  SZ I        1224 32.04        79.3 0.80                           337 274 
 PRA  HZ EP       1223 54.56                             106   -0.12 6  392 209 
 PRA  HN ES       1224 36.62                             106    0.19 6  392 209 
 PRA  HZ I        1224 41.68        32.5 0.52                           392 209 
 SJC  HZ EP   4   1223 54.90                             106   -1.54 0  407 327 
 SJC  HN ES   4   1224 36.00                             106   -3.58 0  407 327 
 SJC  HZ I        1224 40.57        10.4 0.32                           407 327 
                                                                                
