 2016 1015 1622  4.8 L   6.752 -73.102148.0  RSN  9 0.5 2.0LRSN                1
 GAP=238        1.00       5.9     6.2  7.2  0.6244E+01  0.1330E+02  0.7459E+01E
 Epicentro: LOS SANTOS - SANTANDER                                             3
 ACTION:UPD 16-11-09 19:19 OP:rebc STATUS:               ID:20161015162204 L   I
 OLDACT:UP  16-10-15 20:56 OP:dnl  STATUS:               ID:20161015161736     3
 OLDACT:UP  16-10-15 20:56 OP:dnl  STATUS:               ID:20161015161736     3
 OLDACT:REG 16-10-15 20:33 OP:dnl  STATUS:               ID:20161015161736     3
 2016-10-15-1618-00M.COL___374                                                 6
 STAT SP IPHASW D HRMM SECON CODA AMPLIT PERI AZIMU VELO AIN AR TRES W  DIS CAZ7
 BAR2 EZ EP       1622 24.61                             172   -0.0510 19.8 207 
 BAR2 EZ ES       1622 39.95                             172   -0.1810 19.8 207 
 BAR2 EZ I        1622 41.27        22.2 0.40            163           19.8 207 
 BRR  HZ EP   3   1622 26.73                             151    0.12 2 78.0 300 
 BRR  HN ES       1622 44.32                             151    0.7210 78.0 300 
 RUS  HZ EP   2   1622 28.54                             146    0.13 5 95.0 179 
 RUS  HN ES       1622 46.55                             146   -0.2610 95.0 179 
 RUS  HZ I        1622 48.22         5.3 0.26            143           95.0 179 
 PTB  HZ EP       1622 31.53                             132   -0.79 9  152 261 
 PTB  HE ES       1622 53.42                             132   -0.35 9  152 261 
 PTB  HZ I        1622 59.84        13.2 0.40            129            152 261 
 SPBC HZ EP       1622 33.64                             130    0.23 9  162 222 
 SPBC HN ES       1622 56.43                             130    0.73 9  162 222 
 SPBC HZ I        1623  1.22        18.6 0.22            127            162 222 
 ZAR  HZ EP   2   1622 38.64                             122    0.55 4  211 293 
 ZAR  HE ES   2   1623  3.17                             122   -0.86 4  211 293 
 ZAR  HZ I        1623  8.30        10.7 0.24            121            211 293 
 NOR  HZ EP   2   1622 40.45                             119   -0.34 4  236 236 
 NOR  HN ES       1623  8.59                             119   -0.25 8  236 236 
 NOR  HZ I        1623 14.03         7.2 0.32            117            236 236 
 CHI  HZ EP   2   1622 42.64                             118    0.40 4  245 197 
 CHI  HN ES   4   1623 13.36                             118    1.94 0  245 197 
 CHI  HZ I        1623 18.25         2.9 0.72            117            245 197 
 GUY2CHZ EP   2   1622 49.67                             113    1.02 4  302 236 
 GUY2CHN ES   4   1623 26.41                             113    3.58 0  302 236 
 GUY2CHZ I        1623 31.56         8.6 0.74                           302 236 
                                                                                
