 2014 1015 1508 53.1 L   6.735 -73.131152.7  RSN  6 0.6 1.7LRSN                1
 GAP=234        1.38       7.7     8.7 12.1  0.2907E+02 -0.9202E+01 -0.1489E+02E
 Epicentro: JORDAN - SANTANDER                                                 3
 ACTION:UPD 14-11-29 23:50 OP:nd   STATUS:               ID:20141015150853 L   I
 OLDACT:REG 14-10-15 23:17 OP:fm   STATUS:               ID:20141015150746     3
 2014-10-15-1507-46M.COL___293                                                 6
 STAT SP IPHASW D HRMM SECON CODA AMPLIT PERI AZIMU VELO AIN AR TRES W  DIS CAZ7
 BAR2 SZ EP       15 9 13.24                             173   -0.2610 16.8 200 
 BAR2 SZ I        15 9 13.55        11.1 0.38            176           16.8 200 
 BRR  HZ EP       15 9 15.16                             152   -0.1710 76.3 303 
 BRR  HN ES       15 9 32.33                             152   -0.3110 76.3 303 
 BRR  HZ I        15 9 40.96        10.2 0.20            153           76.3 303 
 RUS  HZ EP       15 9 17.29                             147    0.2010 93.3 177 
 RUS  HN ES       15 9 36.26                             147    0.4910 93.3 177 
 RUS  HZ I        15 9 37.78         2.8 0.46            154           93.3 177 
 PTB  HN ES       15 9 41.47                             133   -0.76 9  148 262 
 PTB  HZ I        15 9 43.17         8.5 0.14            138            148 262 
 SPBC HZ EP       15 9 21.91                             131    0.14 9  159 221 
 SPBC HN ES       15 9 43.93                             131   -0.17 9  159 221 
 SPBC HZ I        15 9 47.60         9.1 0.18            137            159 221 
 ZAR  HZ EP       15 9 26.04                             123   -0.45 8  208 294 
 ZAR  HN ES       15 9 53.96                             123    1.46 8  208 294 
 ZAR  HZ I        15 9 58.12         4.3 0.24            127            208 294 
                                                                                
