 2015  115 1811 19.7 L   6.814 -73.154133.0  RSN  7 0.6 1.9LRSN                1
 GAP=135        1.23       6.8     6.1 12.9 -0.1212E+02  0.3266E+02  0.5597E+01E
 Epicentro: LOS SANTOS - SANTANDER                                             3
 ACTION:UPD 15-03-02 15:39 OP:nd   STATUS:               ID:20150115181119 L   I
 OLDACT:UP  15-01-16 01:48 OP:mh   STATUS:               ID:20150115180746     3
 OLDACT:UP  15-01-16 01:45 OP:mh   STATUS:               ID:20150115180746     3
 OLDACT:REG 15-01-15 21:04 OP:mh   STATUS:               ID:20150115180746     3
 2015-01-15-1807-46M.COL___239                                                 6
 STAT SP IPHASW D HRMM SECON CODA AMPLIT PERI AZIMU VELO AIN AR TRES W  DIS CAZ7
 BAR2 EZ EP   1   1811 37.54                             169   -0.26 7 24.7 187 
 BAR2 EZ I        1811 53.78        43.1 0.05            167           24.7 187 
 PAM  SZ EP       1811 40.31                             148   -0.2010 76.8  41 
 PAM  SN ES       1811 56.92                             148    0.1610 76.8  41 
 PAM  SZ I        1811 59.00         9.0 0.46            150           76.8  41 
 RUS  HZ EP   1   1811 41.60                             140   -0.71 7  102 176 
 RUS  HN ES   1   1812  0.71                             140    0.74 7  102 176 
 PTB  HZ EP       1811 45.51                             129   -0.06 9  147 258 
 PTB  HN ES       1812  5.01                             129   -0.75 9  147 258 
 PTB  HZ I        1812 11.22         5.6 0.18            128            147 258 
 ZAR  HZ EP   1   1811 52.63                             120    1.47 6  203 292 
 ZAR  HN ES   1   1812 15.84                             120    0.12 6  203 292 
 ZAR  HZ I        1812 23.34         7.2 0.30            119            203 292 
 NOR  HN ES       1812 22.55                             116    0.52 8  235 234 
 TOL  SZ EP   1   1812  7.01                             107   -0.49 5  344 224 
 TOL  SN ES   4   1812 44.82                             107    0.03 0  344 224 
 TOL  SZ I        1812 53.11         6.2 0.51            107            344 224 
                                                                                
