 2014  915 1118 32.2 L   7.460 -73.386112.6  RSN  5 0.4 1.3LRSN                1
 GAP=194        0.91       4.5     5.5  8.4  0.4195E+01  0.1746E+01 -0.1527E+02E
 Epicentro: SABANA DE TORRES - SANTANDER                                       3
 ACTION:UPD 14-10-03 23:05 OP:nd   STATUS:               ID:20140915111832 L   I
 OLDACT:REG 14-09-15 20:28 OP:spq  STATUS:               ID:20140915110818     3
 2014-09-15-1108-18M.COL___293                                                 6
 STAT SP IPHASW D HRMM SECON CODA AMPLIT PERI AZIMU VELO AIN AR TRES W  DIS CAZ7
 BRR  HZ EP       1118 49.08                             153    0.2910 53.1 223 
 BRR  HE ES       1119  1.65                             153   -0.0410 53.1 223 
 BRR  HZ I        1119  2.44         4.4 0.14            157           53.1 223 
 BAR2 SZ EP   1   1118 52.99                             136    0.60 7 98.6 167 
 BAR2 SZ ES   1   1119  7.90                             136   -0.19 7 98.6 167 
 BAR2 SZ I        1119  9.38         4.2 0.28            142           98.6 167 
 PTB  HZ EP       1118 56.94                             122   -0.65 9  156 229 
 PTB  HE ES       1119 17.02                             122   -0.34 9  156 229 
 PTB  HZ I        1119 19.67         2.7 0.36            125            156 229 
 ZAR  HZ EP       1118 58.53                             120    0.27 9  163 271 
 ZAR  HN ES       1119 19.01                             120    0.46 9  163 271 
 ZAR  HZ I        1119 21.30         3.7 0.26            123            163 271 
 SML  HZ EP       1118 58.65                             120   -0.01 9  166 333 
 SML  HN ES   1   1119 18.74                             120   -0.52 7  166 333 
 SML  HZ I        1119 25.42         3.9 0.07            121            166 333 
                                                                                
