 2011 1015 1953 22.3 L   6.779 -73.162140.4  RSN 10 0.4 2.1LRSN                1
 GAP=135        0.71       3.1     3.8  5.5 -0.2359E+01  0.6930E+01  0.4389E+00E
 Epicentro: LOS SANTOS - SANTANDER                                             3
 ACTION:UPD 12-07-13 16:04 OP:ep   STATUS:               ID:20111015195322 L   I
 2011-10-15-1951-49S.COL___168                                                 6
 STAT SP IPHASW D HRMM SECON CODA AMPLIT PERI AZIMU VELO AIN AR TRES W  DIS CAZ7
 BAR2 SZ EP   1   1953 41.34                             171    0.11 7 20.7 186 
 BAR2 SZ ES   1   1953 55.54                             171   -0.45 7 20.7 186 
 BAR2 SZ I        1953 57.35        18.9 0.17                          20.7 186 
 BRR  HZ EP   1   1953 43.17                             152    0.33 7 70.8 301 
 BRR  HE ES   1   1953 59.80                             152    0.94 7 70.8 301 
 BRR  HZ I        1954  2.46        24.9 0.12                          70.8 301 
 PAM  SZ EP       1953 44.26                             149    0.1410 80.3  39 
 PAM  SN ES   1   1954  1.19                             149    0.04 7 80.3  39 
 RUS  HZ EP   1   1953 45.27                             143   -0.09 7 98.4 175 
 RUS  HN ES   1   1954  3.08                             143   -0.27 7 98.4 175 
 RUS  HZ I        1954  5.17        10.5 0.26                          98.4 175 
 OCA  SZ EP   1   1953 49.98                             128   -0.42 7  162 354 
 OCA  SZ ES   1   1954 11.97                             128   -0.34 7  162 354 
 OCA  SZ I        1954 16.54        15.9 0.29                           162 354 
 ZAR  HZ EP   1   1953 54.04                             121   -0.27 6  203 293 
 ZAR  HN ES   1   1954 18.91                             121   -0.38 6  203 293 
 ZAR  HZ I        1954 25.82        22.4 0.56                           203 293 
 NOR  SZ EP   1   1953 57.68                             118    0.27 6  232 235 
 NOR  SN ES   1   1954 24.87                             118    0.07 6  232 235 
 HEL  HN ES   2   1954 32.57                             114   -0.36 4  270 256 
 HEL  HZ I        1954 40.37         6.0 0.38                           270 256 
 RREF HN ES   1   1954 43.26                             110   -0.17 5  319 229 
 RREF HZ I        1954 55.30         9.0 0.36                           319 229 
 PRA  HZ EP   1   1954 15.88                             106    0.59 4  389 210 
                                                                                
