 2014  915 1012 21.0 L   6.758 -73.121147.0  RSN  8 0.4 1.7LRSN                1
 GAP=142        0.80       4.1     3.8  5.8  0.1036E+01  0.2096E+01 -0.5464E+01E
 Epicentro: LOS SANTOS - SANTANDER                                             3
 ACTION:UPD 14-10-03 23:05 OP:nd   STATUS:               ID:20140915101221 L   I
 OLDACT:REG 14-09-15 20:19 OP:spq  STATUS:               ID:20140915100818     3
 2014-09-15-1008-18M.COL___293                                                 6
 STAT SP IPHASW D HRMM SECON CODA AMPLIT PERI AZIMU VELO AIN AR TRES W  DIS CAZ7
 BAR2 SZ EP       1012 40.77                             172    0.0510 19.5 200 
 BAR2 SZ ES   1   1012 55.47                             172   -0.62 7 19.5 200 
 BAR2 SZ I        1012 57.70        17.5 0.28            173           19.5 200 
 BRR  HZ EP       1012 42.50                             151   -0.0610 75.9 301 
 BRR  HE ES       1012 59.57                             151    0.2010 75.9 301 
 BRR  HZ I        1013  3.51         6.5 0.12            151           75.9 301 
 PAM  SZ EP       1012 43.80                             150    0.3310 79.4  36 
 PAM  SN ES   1   1013  0.62                             150   -0.38 7 79.4  36 
 PAM  SZ I        1013  2.86        10.7 0.54            153           79.4  36 
 RUS  HZ EP   1   1012 44.66                             145    0.12 7 95.8 178 
 RUS  HN ES   1   1013  3.28                             145    0.38 7 95.8 178 
 RUS  HZ I        1013  4.08         3.4 0.14            149           95.8 178 
 PTB  HZ EP       1012 47.65                             132   -0.60 9  150 261 
 PTB  HE ES       1013  9.55                             132    0.06 9  150 261 
 PTB  HZ I        1013 11.90         5.4 0.14            134            150 261 
 OCA  HZ EP   1   1012 50.56                             129    0.68 7  165 352 
 ZAR  HZ EP   1   1012 53.79                             122   -0.19 6  208 293 
 ZAR  HN ES       1013 20.02                             122    0.32 8  208 293 
 ZAR  HZ I        1013 22.35         3.6 0.12            124            208 293 
 SML  HZ EP   1   1012 57.72                             117   -0.57 6  249 335 
 SML  HN ES   1   1013 27.25                             117   -0.11 6  249 335 
 SML  HZ I        1013 28.99         4.1 0.09            119            249 335 
                                                                                
