 2010  315 1352 38.8 L   6.793 -73.073151.7  RSN 11 0.3 2.9LRSN                1
 GAP=190        0.56       2.6     4.7  4.1 -0.1290E+01  0.6367E+01  0.6549E+00E
 Epicentro: LOS SANTOS - SANTANDER                                             3
 ACTION:UP  10-08-24 09:54 OP:vdl  STATUS:               ID:20100315135238 L   I
 2010-03-15-1349-29S.COL___095                                                 6
 STAT SP IPHASW D HRMM SECON CODA AMPLIT PERI AZIMU VELO SNR AR TRES W  DIS CAZ7
 BAR2 SZ IP       1352 59.13                             170     0.010   25 209 
 BAR2 SZ ES   1   1353 15.33                             170     0.3 7   25 209 
 BRR  HZ IP       1353  1.06                             151     0.110   79 296 
 BRR  HE ES   1   1353 18.43                             151     0.1 7   79 296 
 BRR  HZ I        1353 20.60       142.2 0.13                            79 296 
 RUS  HZ EP   1   1353  2.91                             145    -0.1 7  100 181 
 RUS  HE ES   1   1353 21.77                             145    -0.2 7  100 181 
 RUS  HZ I        1353 22.79        45.8 0.28                           100 181 
 OCA  SZ IP       1353  7.66                             131    -0.1 9  162 350 
 OCA  SZ ES   2   1353 30.04                             131    -0.3 5  162 350 
 OCA  SZ I        1353 34.63       101.3 0.16                           162 350 
 CHI  HZ EP   1   1353 17.11                             118     0.2 6  250 197 
 CHI  HE ES   2   1353 46.61                             118    -0.1 4  250 197 
 CHI  HZ I        1353 52.23        26.9 0.46                           250 197 
 HEL  HZ EP   2   1353 20.72                             115     0.6 4  280 256 
 HEL  HN ES   2   1353 51.86                             115    -0.5 4  280 256 
 HEL  HZ I        1353 57.45        30.6 0.24                           280 256 
 RREF BZ EP   1   1353 26.25                             112     0.4 5  327 230 
 RREF BE ES   2   1354  2.38                             112    -0.1 3  327 230 
 RREF BZ I        1354 11.39        38.0 0.38                           327 230 
 DBB  SZ IP       1353 27.01                             110    -0.4 6  348 274 
 TOL  SZ EP   2   1353 28.51                             110     0.7 3  349 226 
 TOL  SZ ES   2   1354  5.88                             110    -0.3 3  349 226 
 ANIL BZ EP   2   1353 30.16                             109     0.8 3  363 226 
 ANIL BN ES   2   1354  9.76                             109     0.9 3  363 226 
 ANIL BZ I        1354 16.58        50.3 0.44                           363 226 
 PRA  HZ EP   1   1353 32.43                             107    -0.5 4  395 211 
 PRA  HN ES   1   1354 14.61                             107    -0.5 4  395 211 
 PRA  HZ I        1354 19.14        36.1 0.47                           395 211 
                                                                                
