 2016  615 1555 40.9 L   6.774 -73.166143.9  RSN  6 0.5 1.8LRSN                1
 GAP=233        1.12       6.4     6.2  8.0  0.1489E+02  0.1296E+02  0.2890E+00E
 Epicentro: LOS SANTOS - SANTANDER                                             3
 ACTION:UPD 16-07-21 22:19 OP:rebc STATUS:               ID:20160615155540 L   I
 OLDACT:REG 16-06-15 21:42 OP:dnl  STATUS:               ID:20160615154748     3
 2016-06-15-1547-48M.COL___337                                                 6
 STAT SP IPHASW D HRMM SECON CODA AMPLIT PERI AZIMU VELO AIN AR TRES W  DIS CAZ7
 BAR2 EZ EP       1555 59.94                             172   -0.3210 20.2 185 
 BAR2 EZ ES       1556 15.03                             172   -0.3210 20.2 185 
 BAR2 EZ I        1556 16.43        13.4 0.22                          20.2 185 
 BRR  HZ EP       1556  1.96                             152    0.1310 70.7 301 
 BRR  HE ES       1556 18.84                             152    0.6910 70.7 301 
 BRR  HZ I        1556 19.33        18.9 0.10                          70.7 301 
 RUS  HZ EP       1556  4.38                             144    0.0910 97.9 175 
 RUS  HE ES       1556 22.73                             144    0.2110 97.9 175 
 RUS  HZ I        1556 24.63         5.4 0.32                          97.9 175 
 PTB  HZ EP       1556  6.74                             132   -0.74 9  145 260 
 PTB  HN ES       1556 27.71                             132   -0.50 9  145 260 
 PTB  HZ I        1556 34.91         8.0 0.40                           145 260 
 ZAR  HZ EP       1556 13.81                             122    0.68 9  203 293 
 ZAR  HN ES       1556 37.89                             122   -0.38 9  203 293 
 ZAR  HZ I        1556 43.50         7.8 0.36                           203 293 
 NOR  HZ EP   2   1556 16.39                             119    0.23 4  231 235 
 NOR  HE ES       1556 44.18                             119    0.52 8  231 235 
 NOR  HZ I        1556 53.00         5.0 0.18                           231 235 
                                                                                
