 2017  715 1248 22.1 L   6.786 -73.125152.4  RSN  7 0.4 1.2LRSN                1
 GAP=140        0.96       4.6     4.7  6.6 -0.5766E+00  0.1024E+02  0.4080E+01E
 Epicentro: LOS SANTOS - SANTANDER                                             3
 ACTION:UPD 17-08-30 15:33 OP:rebc STATUS:               ID:20170715124822 L   I
 OLDACT:REG 17-07-15 20:27 OP:dhb  STATUS:               ID:20170715124743     3
 2017-07-15-1248-00M.COL___374                                                 6
 STAT SP IPHASW D HRMM SECON CODA AMPLIT PERI AZIMU VELO AIN AR TRES W  DIS CAZ7
 BAR2 EZ IP     C 1248 42.47                             171   -0.0010 22.3 196 
 BAR2 EZ ES       1248 57.77                             171   -0.6310 22.3 196 
 BAR2 EZ I        1248 59.15         3.6 0.26            171           22.3 196 
 BRR  HZ EP       1248 43.88                             153   -0.2010 73.9 299 
 BRR  HN ES       1249  1.47                             153    0.2110 73.9 299 
 BRR  HZ I        1249  6.15         3.3 0.26            146           73.9 299 
 PAM  EZ IP     C 1248 45.43                             152    0.4510 77.2  38 
 PAM  EE ES       1249  2.64                             152   -0.2210 77.2  38 
 PAM  EZ I        1249  8.07         1.8 0.40            149           77.2  38 
 RUS  HZ EP       1248 46.60                             145    0.2410 98.9 177 
 RUS  HN ES       1249  5.76                             145    0.4610 98.9 177 
 RUS  HZ I        1249  6.65         2.2 0.23            144           98.9 177 
 PTB  HZ EP       1248 49.59                             133   -0.16 9  150 260 
 PTB  HZ I        1249 12.19         1.2 0.17            128            150 260 
 ZAR  HE ES       1249 21.44                             123    0.35 8  207 292 
 NOR  HZ EP       1248 57.52                             120   -0.76 8  236 235 
 NOR  HN ES       1249 26.65                             120    0.11 8  236 235 
 NOR  HZ I        1249 31.38         1.6 0.20            116            236 235 
                                                                                
