 2017  115 1956 36.9 L   6.772 -73.135152.1  RSN  8 0.4 1.5LRSN                1
 GAP=139        0.93       3.7     4.0  5.9 -0.1620E+00  0.5684E+01  0.5855E+01E
 Epicentro: LOS SANTOS - SANTANDER                                             3
 ACTION:UPD 17-05-22 15:59 OP:jn   STATUS:               ID:20170115195636 L   I
 OLDACT:UP  17-01-15 23:12 OP:ar   STATUS:               ID:20170115194741     3
 OLDACT:UP  17-01-15 23:11 OP:ar   STATUS:               ID:20170115194741     3
 OLDACT:REG 17-01-15 20:57 OP:dani STATUS:               ID:20170115194741     3
 2017-01-15-1947-59M.COL___361                                                 6
 STAT SP IPHASW D HRMM SECON CODA AMPLIT PERI AZIMU VELO AIN AR TRES W  DIS CAZ7
 BAR2 EZ ES       1957 12.43                             172   -0.7010 20.5 195 
 BAR2 EZ I        1957 13.69        11.3 0.18            171           20.5 195 
 BRR  HZ EP       1956 58.97                             153    0.0710 73.8 300 
 BRR  HN ES       1957 16.84                             153    0.7910 73.8 300 
 BRR  HZ I        1957 19.79         3.9 0.22            152           73.8 300 
 PAM  EZ EP       1957  0.00                             151    0.0910 79.1  37 
 PAM  EE ES       1957 17.79                             151   -0.0510 79.1  37 
 PAM  EZ I        1957 20.19         3.1 0.42            154           79.1  37 
 RUS  HZ EP       1957  1.09                             146    0.0110 97.4 177 
 RUS  HN ES       1957 20.05                             146    0.1310 97.4 177 
 RUS  HZ I        1957 20.98         3.8 0.22            147           97.4 177 
 PTB  HZ EP       1957  4.14                             133   -0.33 9  148 260 
 PTB  HE ES       1957 25.94                             133   -0.02 9  148 260 
 PTB  HZ I        1957 27.87         2.6 0.16            133            148 260 
 ZAR  HZ EP   4   1957  7.59                             123   -2.44 0  206 293 
 ZAR  HN ES       1957 35.60                             123   -0.25 8  206 293 
 ZAR  HZ I        1957 41.48         4.2 0.44            124            206 293 
 NOR  HZ EP       1957 12.48                             120   -0.47 8  234 235 
 NOR  HN ES       1957 41.08                             120    0.04 8  234 235 
 NOR  HZ I        1957 44.57         2.2 0.24            120            234 235 
 CHI  HZ EP       1957 15.21                             119    0.52 8  246 196 
 CHI  HN ES       1957 44.32                             119    0.17 8  246 196 
 CHI  HZ I        1957 50.10         2.0 0.44            119            246 196 
                                                                                
