 2012  515 1751 59.0 L   6.797 -73.166146.7  RSN  6 0.4 2.0LRSN                1
 GAP=134        1.14       6.6     8.3  8.9  0.1015E+02  0.1996E+02  0.9571E+01E
 Epicentro: LOS SANTOS - SANTANDER                                             3
 ACTION:UP  12-07-05 12:05 OP:pat  STATUS:               ID:20120515175159 L   I
 2012-05-15-1750-00M.COL___195                                                 6
 STAT SP IPHASW D HRMM SECON CODA AMPLIT PERI AZIMU VELO SNR AR TRES W  DIS CAZ7
 BAR2 SZ EP       1752 18.58                             171    -0.110   23 184 
 BAR2 SZ ES   1   1752 33.45                             171    -0.6 7   23 184 
 BAR2 SZ I        1752 35.01        30.1 0.34                            23 184 
 BRR  HZ EP       1752 20.46                             153     0.310   69 300 
 BRR  HN ES   1   1752 37.35                             153     0.7 7   69 300 
 BRR  HZ I        1752 41.38        21.3 0.32                            69 300 
 PAM  SZ EP       1752 21.61                             150     0.210   79  41 
 PAM  SN ES   1   1752 38.68                             150    -0.2 7   79  41 
 RUS  HZ EP       1752 22.78                             144     0.010  100 175 
 RUS  HN ES   1   1752 41.37                             144     0.0 7  100 175 
 RUS  HZ I        1752 42.44         7.5 0.42                           100 175 
 ZAR  HZ EP       1752 30.43                             123    -0.8 9  202 292 
 ZAR  HN ES   2   1752 56.53                             123     0.1 4  202 292 
 ZAR  HZ I        1753  1.65        10.2 0.24                           202 292 
 CHI  HZ EP       1752 37.02                             117     0.4 8  248 195 
 CHI  HZ I        1753  9.48         7.0 0.52                           248 195 
                                                                                
