 2013  815 1648  3.8 L   6.814 -73.091151.7  RSN 12 0.4 2.6LRSN                1
 GAP=143        0.83       2.5     3.8  5.0 -0.7327E+00  0.6129E+01  0.1610E+01E
 Epicentro: LOS SANTOS - SANTANDER                                             3
 ACTION:UPD 14-01-14 09:03 OP:ep   STATUS:               ID:20130815164803 L   I
 OLDACT:REG 13-08-15 15:34 OP:mh   STATUS:               ID:20130815164649     3
 2013-08-15-1646-49M.COL___222                                                 6
 STAT SP IPHASW D HRMM SECON CODA AMPLIT PERI AZIMU VELO AIN AR TRES W  DIS CAZ7
 BAR2 SZ EP       1648 24.24                             170   -0.0110 26.5 202 
 BAR2 SZ ES   1   1648 39.14                             170   -1.03 7 26.5 202 
 BAR2 SZ I        1648 40.33        34.4 0.26            168           26.5 202 
 PAM  SZ EP   1   1648 27.13                             153    0.72 7 72.4  37 
 PAM  SN ES       1648 44.35                             153    0.3410 72.4  37 
 PAM  SN I        1648 45.45        60.3 0.54            154           72.4  37 
 BRR  HZ EP   1   1648 26.16                             152    0.26 7 75.9 295 
 BRR  HN ES       1648 43.55                             152    0.4510 75.9 295 
 BRR  HN I        1648 44.61        77.6 0.18            148           75.9 295 
 RUS  HZ EP       1648 28.07                             145   -0.2010  102 180 
 RUS  HN ES       1648 47.03                             145   -0.3010  102 180 
 RUS  HN I        1648 49.30        19.7 0.36            146            102 180 
 OCA  HZ EP   1   1648 32.21                             131   -0.34 7  160 351 
 OCA  HN ES   1   1648 54.95                             131    0.00 7  160 351 
 OCA  HN I        1648 59.38       131.5 0.44            130            160 351 
 SPBC HZ EP   1   1648 33.29                             129    0.01 7  168 220 
 SPBC HN ES   1   1648 56.18                             129   -0.05 7  168 220 
 SPBC HN I        1648 59.46        90.1 0.40            129            168 220 
 ZAR  HZ EP   1   1648 36.93                             123   -0.27 6  209 291 
 ZAR  HN ES       1649  3.17                             123   -0.04 8  209 291 
 ZAR  HN I        1649  7.64        56.4 0.44            121            209 291 
 NOR  HZ EP   1   1648 40.25                             119   -0.29 6  241 235 
 NOR  HE ES       1649  9.13                             119   -0.04 8  241 235 
 NOR  HE I        1649 13.71        51.0 0.20            118            241 235 
 SML  HZ EP   1   1648 40.94                             118    0.01 6  245 334 
 SML  HN ES   1   1649  8.99                             118   -0.87 6  245 334 
 SML  HN I        1649 19.36        54.4 0.30            117            245 334 
 CHI  HZ EP   1   1648 42.38                             118    0.17 6  252 196 
 CHI  HN ES   1   1649 12.96                             118    0.82 6  252 196 
 CHI  HN I        1649 14.04        18.4 0.32            118            252 196 
 HEL  HZ EP   1   1648 44.95                             115   -0.10 6  278 256 
 HEL  HN ES   1   1649 17.66                             115    0.47 6  278 256 
 HEL  HN I        1649 23.19        16.7 0.26            114            278 256 
 GUY2CHZ EP   4   1648 48.94                             113    0.55 0  307 235 
 GUY2CHN ES   4   1649 25.94                             113    2.81 0  307 235 
 PRA  HZ EP   1   1648 57.69                             107   -0.39 4  396 210 
 PRA  HN ES       1649 40.71                             107    0.32 6  396 210 
 PRA  HN I        1649 45.36         6.7 0.72            107            396 210 
                                                                                
