 2017  515 1556 55.5 L   6.720 -73.097143.8  RSN  5 0.3 1.4LRSN                1
 GAP=190        0.73       5.9     4.3  9.9 -0.1236E+02  0.1146E+02  0.6057E+01E
 Epicentro: JORDAN - SANTANDER                                                 3
 ACTION:UPD 17-06-16 13:36 OP:jn   STATUS:               ID:20170515155655 L   I
 OLDACT:UP  17-05-16 13:40 OP:nlst STATUS:               ID:20170515155655 L   3
 OLDACT:REG 17-05-15 20:52 OP:lv   STATUS:               ID:20170515154731     3
 2017-05-15-1548-00M.COL___359                                                 6
 STAT SP IPHASW D HRMM SECON CODA AMPLIT PERI AZIMU VELO AIN AR TRES W  DIS CAZ7
 PAM  EZ EP       1557 17.45                             149   -0.3410 81.4  33 
 PAM  EN ES       1557 35.35                             149    0.2010 81.4  33 
 PTB  HZ EP       1557 23.20                             131    0.50 9  152 263 
 PTB  HN ES       1557 43.93                             131    0.05 9  152 263 
 PTB  HZ I        1557 45.14         3.4 0.33            129            152 263 
 SPBC HN ES   1   1557 45.08                             129   -0.37 7  160 222 
 ZAR  HN ES       1557 54.37                             121   -0.25 8  212 294 
 ZAR  HZ I        1557 58.65         2.3 0.37            119            212 294 
 NOR  HN ES   3   1557 59.39                             118    0.57 2  234 237 
                                                                                
