 2010  915 1221 55.2 L   6.771 -73.095137.2  RSN  9 0.5 2.3LRSN                1
 GAP=165        1.00       6.7    10.6 10.9 -0.2675E+02  0.2941E+02 -0.5212E+01E
 Epicentro: LOS SANTOS - SANTANDER                                             3
 ACTION:UP  11-02-18 11:02 OP:tino STATUS:               ID:20100915122155 L   I
 2010-09-15-1218-34S.COL___119                                                 6
 STAT SP IPHASW D HRMM SECON CODA AMPLIT PERI AZIMU VELO SNR AR TRES W  DIS CAZ7
 BAR2 SZ IP     D 1222 13.77                             170     0.010   22 206 
 BAR2 SZ ES   2   1222 28.00                             170    -0.3 5   22 206 
 BAR2 SZ I        1222 32.12        61.2 0.66                            22 206 
 BTL  SZ EP   1   1222 13.08                             169    -0.8 7   25 311 
 GIR2 SZ EP   1   1222 13.78                             165    -0.2 7   36 342 
 BRR  HZ EP   1   1222 15.57                             149    -0.3 7   78 299 
 BRR  HE ES   2   1222 32.45                             149     0.5 5   78 299 
 BRR  HZ I        1222 35.78        49.2 0.13                            78 299 
 RUS  HZ EP   1   1222 17.88                             143     0.0 7   97 179 
 RUS  HN ES   2   1222 36.05                             143     0.5 5   97 179 
 RUS  HZ I        1222 38.17        38.3 0.27                            97 179 
 GUE  SZ EP   1   1222 18.78                             137    -0.5 7  119   9 
 GRA  SZ EP   1   1222 20.59                             134     0.8 7  127  15 
 GRA  SZ ES   2   1222 39.74                             134     0.7 5  127  15 
 GRA  SZ I        1222 41.20        25.6 0.25                           127  15 
 HEL  HZ EP   1   1222 35.42                             112    -0.1 6  277 257 
 HEL  HZ I        1223 11.57         8.9 0.46                           277 257 
 RREF HZ EP   1   1222 42.13                             109     0.9 5  324 230 
 RREF HN ES   2   1223 17.00                             109    -0.1 3  324 230 
 RREF HZ I        1223 26.13         9.7 0.30                           324 230 
                                                                                
