 2017  515 1741 12.6 L   6.765 -73.164142.1  RSN  6 0.4 1.6LRSN                1
 GAP=180        0.85       6.5     4.4  7.1 -0.1456E+02  0.2943E+00  0.1678E+02E
 Epicentro: LOS SANTOS - SANTANDER                                             3
 ACTION:UPD 17-06-16 13:36 OP:jn   STATUS:               ID:20170515174112 L   I
 OLDACT:REG 17-05-15 20:59 OP:lv   STATUS:               ID:20170515173738     3
 2017-05-15-1738-00M.COL___358                                                 6
 STAT SP IPHASW D HRMM SECON CODA AMPLIT PERI AZIMU VELO AIN AR TRES W  DIS CAZ7
 BRR  HZ EP       1741 33.65                             152    0.3310 71.4 302 
 BRR  HN ES       1741 49.82                             152    0.3110 71.4 302 
 PAM  EZ EP       1741 34.75                             149    0.1010 81.7  39 
 PAM  EN ES       1741 51.55                             149   -0.3310 81.7  39 
 PAM  EZ I        1741 54.38         5.2 0.27            156           81.7  39 
 PTB  HZ EP       1741 38.62                             132   -0.36 9  145 260 
 PTB  HN ES       1741 59.56                             132   -0.02 9  145 260 
 PTB  HZ I        1742  4.74         3.5 0.65            135            145 260 
 SPBC HZ EP   9   1741 42.16                             129    1.79 0  159 219 
 SPBC HN ES   2   1742  3.31                                   -0.54 5  159 219 
 SPBC HZ I        1742  7.91         8.3 0.20            130            159 219 
 ZAR  HZ EP       1741 44.27                             121   -0.45 9  204 293 
 ZAR  HN ES       1742  9.85                             121    0.04 9  204 293 
 NOR  HZ EP       1741 48.35                             118    0.70 8  231 235 
 NOR  HN ES       1742 14.65                             118   -0.38 8  231 235 
 NOR  HZ I        1742 20.81         2.9 0.10            120            231 235 
                                                                                
