 2014 1215 1945 45.8 L   6.827 -73.174141.1  RSN  8 0.4 2.2LRSN                1
 GAP=132        0.95       3.8     4.1  6.5 -0.3093E+01  0.1103E+02  0.7254E+00E
 Epicentro: ZAPATOCA - SANTANDER                                               3
 ACTION:UPD 15-02-10 17:04 OP:nd   STATUS:               ID:20141215194545 L   I
 OLDACT:REG 14-12-15 20:41 OP:mh   STATUS:               ID:20141215193744     3
 2014-12-15-1937-44M.COL___288                                                 6
 STAT SP IPHASW D HRMM SECON CODA AMPLIT PERI AZIMU VELO AIN AR TRES W  DIS CAZ7
 BAR2 EZ EP   1   1946  4.90                             169   -0.06 7 26.0 182 
 BAR2 EZ ES       1946 19.46                             169   -0.4210 26.0 182 
 PAM  SZ EP       1946  7.94                             150    0.3910 77.2  43 
 PAM  SN ES       1946 24.92                             150    0.4410 77.2  43 
 PAM  SZ I        1946 27.54        18.8 0.32            150           77.2  43 
 RUS  HZ EP       1946  9.15                             142   -0.2210  104 174 
 RUS  HN ES   1   1946 27.78                             142    0.05 7  104 174 
 RUS  HZ I        1946 29.42         9.5 0.63            145            104 174 
 PTB  HZ EP       1946 11.38                             131   -0.82 9  145 257 
 PTB  HN ES       1946 32.55                             131   -0.21 9  145 257 
 PTB  HZ I        1946 34.74        15.3 0.16            130            145 257 
 ZAR  HZ EP   4   1946 20.34                             122    2.78 0  200 292 
 ZAR  HN ES       1946 42.48                             122    0.18 9  200 292 
 ZAR  HZ I        1946 48.00        16.4 0.38            120            200 292 
 NOR  HZ EP       1946 21.26                             117    0.05 8  234 233 
 NOR  HN ES       1946 49.35                             117    0.55 8  234 233 
 SML  HZ EP   1   1946 21.85                             117    0.08 6  240 336 
 SML  HN ES   1   1946 49.56                             117   -0.23 6  240 336 
 SML  HZ I        1946 59.56        22.1 0.10            116            240 336 
 TOL  SZ EP       1946 33.57                             108   -0.33 7  343 224 
 TOL  SN ES       1947 12.27                             108    0.88 7  343 224 
 TOL  SZ I        1947 21.58        14.2 0.39            109            343 224 
                                                                                
