 2014  115 1924  7.1 L   6.846 -73.155144.3  RSN 11 0.5 2.3LRSN                1
 GAP=133        1.17       3.2     4.6  6.2 -0.3032E+01  0.8692E+01 -0.9898E+00E
 Epicentro: LOS SANTOS - SANTANDER                                             3
 ACTION:UPD 14-03-13 09:55 OP:ep   STATUS:               ID:20140115192407 L   I
 OLDACT:REG 14-01-15 15:26 OP:carl STATUS:               ID:20140115192000     3
 2014-01-15-1920-00M.COL___285                                                 6
 STAT SP IPHASW D HRMM SECON CODA AMPLIT PERI AZIMU VELO AIN AR TRES W  DIS CAZ7
 BAR2 SZ EP       1924 26.79                             168    0.1210 28.3 186 
 BAR2 SZ ES       1924 41.99                             168    0.0610 28.3 186 
 BAR2 SZ I        1924 43.48        57.5 0.56            168           28.3 186 
 BRR  HZ EP       1924 28.57                             153    0.6510 68.0 295 
 BRR  HN ES       1924 44.94                             153    0.7910 68.0 295 
 BRR  HZ I        1924 50.32        24.4 0.44            151           68.0 295 
 PAM  SZ EP       1924 29.27                             152    0.2910 74.2  43 
 PAM  SN ES       1924 46.21                             152    0.1810 74.2  43 
 PAM  SZ I        1924 48.30        70.8 0.46            157           74.2  43 
 RUS  HZ EP       1924 30.98                             142   -0.1210  106 176 
 RUS  HN ES       1924 49.23                             142   -0.5810  106 176 
 RUS  HZ I        1924 51.44        14.2 0.48            146            106 176 
 PTB  HZ EP       1924 33.35                             132   -0.61 9  148 257 
 PTB  HN ES       1924 54.30                             132   -0.61 9  148 257 
 PTB  HZ I        1924 59.62        29.2 0.24            132            148 257 
 OCA  HZ EP       1924 35.17                             130    0.36 9  155 353 
 OCA  HN ES       1924 55.65                             130   -0.78 9  155 353 
 OCA  HZ I        1925  1.29        17.6 0.24            133            155 353 
 SPBC HZ EP       1924 36.14                             128    0.32 9  167 218 
 SPBC HN ES       1924 57.90                             128   -0.31 9  167 218 
 SPBC HZ I        1925  6.18        21.8 0.32            130            167 218 
 ZAR  HZ EP       1924 39.55                             122    0.38 9  201 291 
 ZAR  HN ES       1925  4.58                             122    0.41 9  201 291 
 ZAR  HZ I        1925 10.13        30.5 0.36            124            201 291 
 NOR  HZ EP       1924 43.05                             118    0.06 8  237 233 
 NOR  HN ES       1925 10.97                             118   -0.01 8  237 233 
 NOR  HZ I        1925 17.68        18.6 0.56            120            237 233 
 SML  HZ EP       1924 42.18                             118   -0.92 8  239 335 
 SML  HE ES       1925 10.69                             118   -0.48 8  239 335 
 SML  HZ I        1925 15.01        33.5 0.10            120            239 335 
 RREF HZ EP       1924 53.94                             110    0.46 7  324 229 
 RREF HE ES       1925 29.85                             110    0.19 7  324 229 
 RREF HZ I        1925 36.55         8.1 0.28            112            324 229 
                                                                                
