 2017  615 1130 45.6 L   6.865 -73.281119.1  RSN  7 0.3 1.9LRSN                1
 GAP=252        0.86       4.0     6.8  7.0 -0.6629E+00 -0.8878E+01  0.7606E+01E
 Epicentro: BETULIA - SANTANDER                                                3
 ACTION:UPD 17-09-14 16:52 OP:jn   STATUS:               ID:20170615113045 L   I
 OLDACT:UP  17-06-15 22:58 OP:ar   STATUS:               ID:20170615112737     3
 OLDACT:REG 17-06-15 20:43 OP:ar   STATUS:               ID:20170615112737     3
 2017-06-15-1128-00M.COL___359                                                 6
 STAT SP IPHASW D HRMM SECON CODA AMPLIT PERI AZIMU VELO AIN AR TRES W  DIS CAZ7
 BRR  HZ EP       1131  2.64                             154   -0.3110 54.6 299 
 BRR  HN ES       1131 16.71                             154    0.2410 54.6 299 
 BRR  HZ I        1131 17.60        34.1 0.12            157           54.6 299 
 PTB  HZ IP   9 C 1131  7.48                             128   -1.81 0  135 255 
 PTB  HN ES       1131 25.28                             130   -0.6610  135 255 
 PTB  HZ I        1131 29.25         5.5 0.07            128            135 255 
 SPBC HZ EP       1131 11.67                             123   -0.25 9  160 213 
 SPBC HN ES       1131 32.30                             123   -0.13 9  160 213 
 SPBC HZ I        1131 38.09         8.8 0.24            122            160 213 
 ZAR  HZ EP       1131 14.82                             118    0.14 9  187 292 
 ZAR  HN ES       1131 37.61                             118    0.27 9  187 292 
 ZAR  HZ I        1131 39.40        12.3 0.24            120            187 292 
 NOR  HZ EP       1131 19.45                             113    0.34 8  227 231 
 NOR  HN ES       1131 44.81                             113   -0.42 8  227 231 
 NOR  HZ I        1131 48.43         4.5 0.14            113            227 231 
 CHI  HZ EP   4   1131 20.84                             110   -1.56 0  252 191 
 CHI  HN ES   2   1131 51.98                             110    0.89 4  252 191 
 CHI  HZ I        1131 58.10         4.1 0.32            111            252 191 
 URE  HN ES   4   1131 50.88                             109   -2.38 0  267 292 
 URE  HZ I        1131 52.28         8.4 0.12            111            267 292 
                                                                                
