 2012  315 1730 36.1 L   6.768 -73.153147.4  RSN  6 0.4 1.8LRSN                1
 GAP=137        0.80       5.4     5.1  7.2 -0.6965E+01  0.8099E+01  0.4911E+01E
 ACTION:UP  12-03-31 23:20 OP:EP   STATUS:               ID:20120315173036 L   I
 2012-03-15-1730-00M.COL___202                                                 6
 STAT SP IPHASW D HRMM SECON CODA AMPLIT PERI AZIMU VELO SNR AR TRES W  DIS CAZ7
 BAR2 SZ EP   1   1730 55.95                             172     0.1 7   20 189 
 BAR2 SZ ES   1   1731 11.23                             172    -0.1 7   20 189 
 BAR2 SZ I        1731 12.66        39.6 0.19                            20 189 
 BRR  HZ EP   1   1730 57.76                             152     0.2 7   72 301 
 BRR  HN ES   1   1731 14.76                             152     0.6 7   72 301 
 BRR  HZ I        1731 15.63        13.1 0.17                            72 301 
 PAM  SZ EP   1   1730 58.75                             150     0.0 7   81  38 
 PAM  SN ES   1   1731 16.09                             150    -0.2 7   81  38 
 PAM  SZ I        1731 17.72         3.8 0.17                            81  38 
 RUS  HZ EP   1   1730 59.79                             145     0.0 7   97 175 
 RUS  HN ES   1   1731 18.25                             145     0.0 7   97 175 
 RUS  HZ I        1731 19.82         8.0 0.34                            97 175 
 PTB  HZ EP   1   1731  2.49                             133    -0.6 7  146 260 
 PTB  HN ES   1   1731 23.47                             133    -0.7 7  146 260 
 NOR  SZ EP   1   1731 12.05                             119     0.4 6  232 235 
 NOR  SE ES   1   1731 39.76                             119     0.4 6  232 235 
                                                                                
