 2011  515 1818 26.5 L   6.783 -73.071140.7  RSN  8 0.4 1.9LRSN                1
 GAP=147        0.85       4.9     8.8  8.3 -0.1720E+02  0.6178E-01 -0.5344E+01E
 Epicentro: LOS SANTOS - SANTANDER                                             3
 ACTION:UP  11-06-29 08:53 OP:tino STATUS:               ID:20110515181826 L   I
 2011-05-15-1816-03S.COL___139                                                 6
 STAT SP IPHASW D HRMM SECON CODA AMPLIT PERI AZIMU VELO SNR AR TRES W  DIS CAZ7
 BAR2 SZ EP   1   1818 45.38                             170    -0.1 8   24 210 
 BAR2 SZ ES   1   1819  0.85                             170     0.5 8   24 210 
 BAR2 SZ I        1819  1.45        22.8 0.28                            24 210 
 PAM  SZ EP   2   1818 48.48                             151     0.6 5   74  34 
 PAM  SN ES   2   1819  4.01                             151    -0.7 5   74  34 
 BRR  HZ EP   1   1818 47.42                             149    -0.1 8   79 297 
 BRR  HN ES   2   1819  4.64                             149     0.6 5   79 297 
 BRR  HZ I        1819  5.62        24.7 0.35                            79 297 
 RUS  HZ EP   1   1818 49.51                             143     0.0 8   98 181 
 RUS  HN ES   2   1819  7.07                             143    -0.5 5   98 181 
 RUS  HZ I        1819  9.11         6.2 0.43                            98 181 
 BRI  SZ EP   1   1818 50.20                             141     0.4 8  108  16 
 BRI  SZ I        1818 50.88        11.2 0.08                           108  16 
 GRA  SZ IP       1818 51.45                             136     0.210  125  14 
 GRA  SZ I        1818 52.74        11.7 0.20                           125  14 
 GRA  SZ ES   1   1819 10.00                             136    -0.5 7  125  14 
 OCA  SZ EP   2   1818 54.37                             128    -0.3 5  163 350 
 OCA  SZ ES   2   1819 16.30                             128    -0.4 5  163 350 
 OCA  SZ I        1819 25.08        13.7 0.37                           163 350 
 NOR  SN ES   2   1819 29.90                             117    -0.7 4  240 236 
                                                                                
