 2013  515 1339 54.4 L   6.799 -73.171146.0  RSN 14 0.4 2.5LRSN                1
 GAP= 70        0.88       2.7     2.9  4.1  0.2046E+00  0.2353E+01  0.1390E+01E
 Epicentro: LOS SANTOS - SANTANDER                                             3
 ACTION:UPD 13-06-20 09:50 OP:ep   STATUS:               ID:20130515133954 L   I
 2013-05-15-1338-49M.COL___228                                                 6
 STAT SP IPHASW D HRMM SECON CODA AMPLIT PERI AZIMU VELO AIN AR TRES W  DIS CAZ7
 BAR2 SZ IP     C 1340 14.07                             171   -0.0310 22.8 183 
 BAR2 SZ ES       1340 28.95                             171   -0.4810 22.8 183 
 BAR2 SZ I        1340 30.70        71.4 0.20            164           22.8 183 
 GIR2 SZ EP       1340 14.13                             167   -0.0110 31.1 355 
 GIR2 SZ ES       1340 29.43                             167   -0.0810 31.1 355 
 GIR2 SZ I        1340 30.88        81.1 0.50            170           31.1 355 
 BRR  HZ EP       1340 15.90                             153    0.4110 68.9 300 
 BRR  HN ES       1340 32.93                             153    1.0210 68.9 300 
 BRR  HZ I        1340 36.26        87.6 0.42            150           68.9 300 
 PAM  SZ EP       1340 17.10                             150    0.3010 79.3  41 
 PAM  SN ES       1340 34.15                             150   -0.0910 79.3  41 
 PAM  SZ I        1340 34.86        48.1 0.18            152           79.3  41 
 RUS  HZ EP       1340 18.17                             144   -0.0610  101 174 
 RUS  HN ES       1340 36.74                             144   -0.0410  101 174 
 RUS  HZ I        1340 37.87        34.3 0.28            137            101 174 
 PTB  HZ EP       1340 20.82                             133   -0.37 9  145 259 
 PTB  HN ES       1340 41.74                             133   -0.30 9  145 259 
 PTB  HZ I        1340 47.68        36.2 0.34            127            145 259 
 TAM  HZ EP       1340 22.50                             130    0.11 9  158 105 
 TAM  HE ES   1   1340 44.24                             130    0.06 7  158 105 
 TAM  HZ I        1340 50.61        18.4 0.34            127            158 105 
 OCA  HN ES   1   1340 43.91                             130   -0.94 7  160 354 
 ZAR  HZ EP       1340 26.49                             123   -0.16 9  202 292 
 ZAR  HN ES   1   1340 51.36                             123   -0.41 6  202 292 
 ZAR  HZ I        1340 58.27        52.4 0.26            119            202 292 
 NOR  HZ EP       1340 30.13                             119    0.19 8  232 234 
 NOR  HN ES       1340 57.79                             119    0.17 8  232 234 
 NOR  HZ I        1341  7.69        22.2 0.16            114            232 234 
 SML  HZ EP       1340 30.93                             118   -0.05 8  243 336 
 SML  HE ES       1340 59.58                             118    0.11 8  243 336 
 CHI  HZ EP       1340 32.01                             117   -0.05 8  248 195 
 PRA  HZ EP       1340 47.82                             107    0.02 6  391 209 
 PRA  HZ I        1341 35.86        15.9 0.44            104            391 209 
 POP2 HN E        1339 10.83                                            611 220 
                                                                                
