 2012  815 1227 11.5 L   6.135 -73.678111.8  RSN  5 0.2 1.5LRSN                1
 GAP=132        0.48       3.2     2.2  5.4  0.2618E+00  0.5253E+01 -0.1508E+01E
 Epicentro: CHIPATA - SANTANDER                                                3
 ACTION:UPD 12-09-10 11:56 OP:ep   STATUS:               ID:20120815122711 L   I
 2012-08-15-1220-00M.COL___217                                                 6
 STAT SP IPHASW D HRMM SECON CODA AMPLIT PERI AZIMU VELO AIN AR TRES W  DIS CAZ7
 RUS  HZ EP   1   1227 29.98                             145    0.21 7 71.1 112 
 RUS  HN ES   1   1227 43.78                             145   -0.26 7 71.1 112 
 BAR2 SZ EP       1227 29.76                             144    0.1010 74.6  47 
 BAR2 SZ ES       1227 43.96                             144    0.1210 74.6  47 
 BAR2 SZ I        1227 45.50        23.7 0.43                          74.6  47 
 PTB  HZ EP       1227 30.89                             136   -0.2310 97.1 297 
 PTB  HE ES   1   1227 46.26                             136   -0.18 7 97.1 297 
 PTB  HZ I        1227 49.62         3.1 0.19                          97.1 297 
 NOR  SN ES   1   1227 55.04                             123    0.23 7  146 244 
 NOR  SZ I        1227 57.65         4.4 0.27                           146 244 
 ZAR  HZ EP   1   1227 41.21                             114   -0.19 6  199 319 
 ZAR  HN ES   1   1228  4.97                             114    0.24 6  199 319 
 ZAR  HZ I        1228  6.92         3.0 0.19                           199 319 
                                                                                
