 2012  415 1746 10.1 L   6.192 -74.233 69.4  RSN  6 0.3 1.8LRSN                1
 GAP=126        0.78       4.0     2.8 17.8 -0.1774E-01  0.9043E+01  0.1585E+02E
 Epicentro: CIMITARRA - SANTANDER                                              3
 ACTION:UPD 12-07-05 11:53 OP:tino STATUS:               ID:20120415174610 L   I
 2012-04-15-1740-10M.COL___172                                                 6
 STAT SP IPHASW D HRMM SECON CODA AMPLIT PERI AZIMU VELO AIN AR TRES W  DIS CAZ7
 BRR  HZ EP   1   1746 28.29                             114    -0.3 7  116  30 
 BRR  HN ES   1   1746 43.15                             114     0.2 7  116  30 
 RUS  HZ EP   1   1746 30.64                             112    -0.3 7  132 105 
 RUS  HZ I        1746 31.47         6.8 0.16                           132 105 
 RUS  HN ES   1   1746 47.12                             112     0.0 7  132 105 
 HEL  HZ EP   1   1746 31.70                             109    -0.4 7  143 270 
 HEL  HN ES   1   1746 49.30                             109     0.0 7  143 270 
 HEL  HZ I        1746 51.53        17.2 0.31                           143 270 
 ZAR  HZ EP   1   1746 33.11                             107    -0.4 7  160 334 
 ZAR  HN ES   1   1746 52.17                             107     0.3 7  160 334 
 ZAR  HZ I        1746 54.15        18.6 0.22                           160 334 
 GUY  SZ EP   1   1746 35.70                             106     0.7 7  167 230 
 GUY  SZ I        1746 59.68        18.7 0.48                           167 230 
 PAM  SZ EP   1   1746 40.90                             102     0.5 6  212  53 
 PAM  SN ES   2   1747  4.09                             102     0.0 4  212  53 
 PAM  SZ I        1747  5.50         3.8 0.35                           212  53 
                                                                                
