 2016 1115 1159 11.9 L   6.771 -73.141146.5  RSN 12 0.4 2.1LRSN                1
 GAP=121        1.02       3.9     3.7  6.2  0.6598E+00  0.3826E+01  0.1147E+02E
 Epicentro: LOS SANTOS - SANTANDER                                             3
 ACTION:UPD 17-10-26 21:08 OP:lp   STATUS:               ID:20161115115911 L   I
 OLDACT:UP  16-11-15 21:13 OP:and  STATUS:               ID:20161115115744     3
 OLDACT:UP  16-11-15 21:11 OP:and  STATUS:               ID:20161115115744     3
 OLDACT:UP  16-11-15 21:07 OP:and  STATUS:               ID:20161115115744     3
 OLDACT:REG 16-11-15 19:42 OP:and  STATUS:               ID:20161115115744     3
 2016-11-15-1158-00M.COL___347                                                 6
 STAT SP IPHASW D HRMM SECON CODA AMPLIT PERI AZIMU VELO AIN AR TRES W  DIS CAZ7
 BAR2 EZ EP       1159 31.69                             172    0.0910 20.3 193 
 BAR2 EZ ES       1159 46.65                             172   -0.2910 20.3 193 
 BAR2 EZ I        1159 47.99        26.9 0.20            166           20.3 193 
 BRR  HZ EP     C 1159 33.52                             152    0.2410 73.3 301 
 BRR  HE ES       1159 50.76                             152    0.8310 73.3 301 
 BRR  HZ I        1159 54.52        15.6 0.22            150           73.3 301 
 PAM  EZ IP     D 1159 34.66                             150    0.3010 79.6  38 
 PAM  EN ES       1159 51.53                             150   -0.3310 79.6  38 
 PAM  EZ I        1159 52.51        13.8 0.20            157           79.6  38 
 PTB  HZ EP       1159 38.48                             132   -0.48 9  148 260 
 PTB  HN ES       1159 59.43                             132   -0.61 9  148 260 
 PTB  HZ I        12 0  1.50        12.0 0.13            130            148 260 
 ZAR  HZ EP       1159 44.47                             122   -0.14 8  206 293 
 ZAR  HN ES       12 0  9.77                             122   -0.32 8  206 293 
 ZAR  HZ I        12 0 14.92        13.4 0.36            122            206 293 
 NOR  HZ EP       1159 47.93                             119    0.37 8  233 235 
 NOR  HN ES       12 0 15.35                             119    0.01 8  233 235 
 NOR  HZ I        12 0 25.08         5.8 0.16            118            233 235 
 CHI  HZ EP       1159 49.78                             118    0.42 8  246 195 
 CHI  HN ES       12 0 19.34                             118    0.80 8  246 195 
 CHI  HZ I        12 0 23.30         8.0 0.49            118            246 195 
 ROSC BZ EP   4   1159 55.94                             117    6.11 0  250 212 
 ROSC BE ES   4   12 0 21.72                             117    2.34 0  250 212 
 ROSC BZ I        12 0 26.39        19.9 0.45            117            250 212 
 PTGC HZ EP       1159 54.91                             112   -0.55 7  305 159 
 PTGC HN ES       12 0 28.92                             112   -0.50 7  305 159 
 CBOC HZ EP   4   12 0  0.11                             110    1.28 0  333 253 
 CBOC HN ES       12 0 35.32                             110   -0.08 7  333 253 
 CBOC HZ I        12 0 50.31         1.8 0.15            110            333 253 
 PRA  HZ EP       12 0  5.55                             107    0.36 6  389 210 
 PRA  HN ES       12 0 46.33                             107   -0.39 6  389 210 
 PRA  HZ I        12 0 54.19         5.5 0.28            107            389 210 
 ORTC HZ EP   4   12 0  9.06                             107    3.44 0  393 217 
 ORTC HN ES   4   12 0 49.40                             107    1.92 0  393 217 
 ORTC HZ I        12 0 53.15         4.2 0.22            107            393 217 
                                                                                
