 2010  515 1946 27.3 L   6.781 -72.928147.1  RSN  8 0.4 2.5LRSN                1
 GAP=257        0.69       5.2     7.6  7.3  0.2798E+01  0.1488E+02  0.1170E+02E
 Epicentro: CEPITA - SANTANDER                                                 3
 ACTION:UP  10-08-24 10:05 OP:vdl  STATUS:               ID:20100515194627 L   I
 2010-05-15-1940-00S.COL___106                                                 6
 STAT SP IPHASW D HRMM SECON CODA AMPLIT PERI AZIMU VELO AIN AR TRES W  DIS CAZ7
 BAR2 SZ IP     C 1946 47.33                             166    -0.110   35 234 
 BAR2 SZ ES   2   1947  2.69                             166    -0.4 5   35 234 
 BRR  HZ IP     C 1946 50.04                             145     0.010   94 293 
 BRR  HZ I        1946 50.30        84.1 0.14                            94 293 
 BRR  HN ES   2   1947  7.77                             145     0.0 5   94 293 
 RUS  HZ EP   1   1946 51.22                             144     0.1 7  100 190 
 RUS  HN ES   2   1947 10.09                             144     0.4 5  100 190 
 RUS  HZ I        1947 11.72        28.8 0.67                           100 190 
 CHI  HZ EP   1   1947  5.32                             117    -0.3 6  254 201 
 CHI  HN ES   2   1947 35.00                             117    -0.6 4  254 201 
 CHI  HZ I        1947 40.62        13.6 0.36                           254 201 
 ROSC BZ EP   1   1947  7.29                             116     0.5 6  264 216 
 ROSC BN ES   2   1947 37.85                             116     0.3 4  264 216 
 ROSC BZ I        1947 40.69        20.4 0.30                           264 216 
 HEL  HZ EP   1   1947  9.45                             113    -0.7 5  295 257 
 HEL  HE ES   2   1947 43.97                             113     0.4 4  295 257 
 HEL  HZ I        1947 46.36        14.5 0.42                           295 257 
 RREF BZ EP   1   1947 16.32                             110     0.8 5  339 232 
 RREF BN ES   2   1947 52.81                             110    -0.2 3  339 232 
 RREF BZ I        1947 58.90        19.2 0.27                           339 232 
 PRA  HZ EP   1   1947 21.78                             106    -0.3 4  403 213 
 PRA  HN ES   2   1948  4.19                             106    -0.7 3  403 213 
 PRA  HZ I        1948  9.07        13.4 0.25                           403 213 
                                                                                
