 2010  815 1108 39.3 L   6.808 -73.087141.0  RSN  9 0.3 2.2LRSN                1
 GAP=165        0.63       2.7     5.9  4.8 -0.3630E+01 -0.2496E+01 -0.1198E+01E
 Epicentro: LOS SANTOS - SANTANDER                                             3
 ACTION:UP  10-09-07 10:55 OP:vdl  STATUS:               ID:20100815110839 L   I
 2010-08-15-1106-37S.COL___111                                                 6
 STAT SP IPHASW D HRMM SECON CODA AMPLIT PERI AZIMU VELO SNR AR TRES W  DIS CAZ7
 BAR2 SZ IP       11 8 58.54                             169     0.110   26 204 
 BAR2 SZ I        11 8 59.07        30.5 0.16                            26 204 
 BAR2 SZ ES   1   11 9 13.07                             169    -0.3 7   26 204 
 GIR2 SZ EP   1   11 8 58.51                             167     0.1 7   32 338 
 GIR2 SZ ES   2   11 9 13.31                             167    -0.1 5   32 338 
 BRR  HZ IP     C 11 9  0.30                             150     0.010   77 296 
 BRR  HZ I        11 9  0.77        25.6 0.13                            77 296 
 BRR  HE ES   1   11 9 16.95                             150     0.3 7   77 296 
 RUS  HZ IP     C 11 9  2.58                             143    -0.110  101 180 
 RUS  HN ES   1   11 9 20.78                             143    -0.1 7  101 180 
 RUS  HZ I        11 9 22.78        12.9 0.30                           101 180 
 GUE  SZ EP       11 9  3.46                             139     0.010  114   9 
 GRA  SZ IP       11 9  4.25                             137     0.310  123  15 
 GRA  SZ ES   1   11 9 23.36                             137     0.2 7  123  15 
 GRA  SZ I        11 9 24.87        28.9 0.29                           123  15 
 OCA  SZ EP       11 9  6.88                             129    -0.4 9  160 351 
 OCA  SZ ES   2   11 9 28.15                             129    -0.9 5  160 351 
 OCA  SZ I        11 9 34.49        16.1 0.18                           160 351 
 RREF HZ EP   3   11 9 25.11                             110    -0.8 2  327 230 
 RREF HE ES   2   1110  2.62                             110     0.4 3  327 230 
 RREF HZ I        1110  6.58         6.0 0.20                           327 230 
 PRA  HZ EP   1   11 9 33.22                             106     0.1 4  396 210 
 PRA  HN ES   3   1110 15.00                             106    -0.1 1  396 210 
 PRA  HZ I        1110 21.96         6.6 0.53                           396 210 
                                                                                
