 2011 1215 1018 36.1 L   6.796 -73.126138.0  RSN 17 0.3 2.7LRSN                1
 GAP=116        0.51       2.0     3.1  3.5 -0.1677E+01  0.3984E+01  0.1333E+01E
 Epicentro: LOS SANTOS - SANTANDER                                             3
 ACTION:UPD 12-07-13 16:16 OP:ep   STATUS:               ID:20111215101836 L   I
 2011-12-15-1017-59S.COL___186                                                 6
 STAT SP IPHASW D HRMM SECON CODA AMPLIT PERI AZIMU VELO AIN AR TRES W  DIS CAZ7
 BAR2 SZ IP       1018 54.82                             170   -0.0110 23.4 196 
 BAR2 SZ ES   1   1019  9.21                             170   -0.21 7 23.4 196 
 BAR2 SZ I        1019 12.21       137.8 0.36                          23.4 196 
 GIR2 SZ IP       1018 54.94                             166    0.0310 32.2 347 
 GIR2 SZ ES   2   1019  9.10                             166   -0.46 5 32.2 347 
 BRR  HZ IP     C 1018 56.75                             150    0.1710 73.4 298 
 BRR  HE ES   2   1019 13.41                             150    0.88 5 73.4 298 
 BRR  HZ I        1019 14.81       125.2 0.34                          73.4 298 
 PAM  SZ IP       1018 57.71                             150    0.2510 76.4  38 
 PAM  SN ES   1   1019 14.23                             150    0.13 7 76.4  38 
 RUS  HZ EP       1018 58.83                             142   -0.2510100.0 177 
 RUS  HN ES   2   1019 16.58                             142   -0.41 5100.0 177 
 RUS  HZ I        1019 18.97        78.5 0.32                         100.0 177 
 OCA  SZ EP       1019  3.79                             127   -0.13 9  161 352 
 OCA  SZ ES   2   1019 25.20                             127   -0.40 5  161 352 
 OCA  SZ I        1019 27.80        65.4 0.58                           161 352 
 YOP  SZ EP   2   1019  5.71                             125    0.23 4  178 154 
 YOP  SN ES   2   1019 28.86                             125    0.48 4  178 154 
 YOP  SZ I        1019 29.82        34.5 0.33                           178 154 
 NOR  SZ EP       1019 11.45                             117   -0.14 8  236 235 
 NOR  SE ES   2   1019 39.15                             117   -0.10 4  236 235 
 CHI  HZ EP   1   1019 13.27                             115   -0.15 6  249 196 
 CHI  HN ES   2   1019 41.65                             115   -0.87 4  249 196 
 CHI  HZ I        1019 45.55        22.6 0.38                           249 196 
 ROSC BZ EP   2   1019 14.32                             115    0.40 4  254 212 
 ROSC BE ES   2   1019 43.53                             115    0.13 4  254 212 
 ROSC BZ I        1019 48.54        31.8 0.34                           254 212 
 HEL  HZ EP   2   1019 16.14                             113   -0.05 4  274 256 
 HEL  HE ES   2   1019 47.09                             113   -0.34 4  274 256 
 HEL  HZ I        1019 54.26        36.0 0.34                           274 256 
 VIL  SN ES   2   1019 52.63                             110   -0.17 4  303 192 
 VIL  SZ I        1020  3.96        12.7 0.42                           303 192 
 GUY  SZ EP   1   1019 20.32                             110    0.49 5  305 235 
 GUY  SN ES   2   1019 54.36                             110    0.44 4  305 235 
 GUY  SZ I        1020  0.29        31.8 0.37                           305 235 
 RREF HZ EP   1   1019 21.86                             109   -0.25 5  323 230 
 RREF HN ES   2   1019 57.97                             109    0.00 3  323 230 
 RREF HZ I        1020  2.94        22.9 0.35                           323 230 
 TOL  SZ EP   1   1019 24.70                             108    0.47 5  345 225 
 COD  HZ EP   2   1019 23.44                             107   -0.85 3  349 354 
 COD  HZ I        1020 18.23        19.9 0.53                           349 354 
 PRA  HZ EP   1   1019 29.53                             105    0.06 4  393 210 
 PRA  HE ES   2   1020 11.45                             105    0.37 3  393 210 
                                                                                
