 2017  715 1107 58.8 L   6.529 -73.553108.9  RSN 11 0.4 1.6LRSN                1
 GAP= 67        1.06       3.3     3.1  6.5 -0.1696E+01  0.4305E+01 -0.5181E+00E
 Epicentro: EL CARMEN - SANTANDER                                              3
 ACTION:UPD 17-08-30 15:33 OP:rebc STATUS:               ID:20170715110758 L   I
 OLDACT:REG 17-07-15 20:13 OP:dhb  STATUS:               ID:20170715105741     3
 2017-07-15-1058-00M.COL___359                                                 6
 STAT SP IPHASW D HRMM SECON CODA AMPLIT PERI AZIMU VELO AIN AR TRES W  DIS CAZ7
 BAR2 EZ IP     D 11 8 15.06                             158    0.3710 41.6  80 
 BAR2 EZ ES       11 8 27.40                             158    0.3210 41.6  80 
 BRR  HZ EP       11 8 15.63                             146   -0.1410 66.3 345 
 BRR  HE ES       11 8 29.33                             146    0.3310 66.3 345 
 BRR  HZ I        11 8 35.97         7.1 0.17            146           66.3 345 
 RUS  HZ EP       11 8 18.14                             139    0.1010 87.5 144 
 RUS  HN ES       11 8 32.47                             139   -0.5710 87.5 144 
 PTB  HZ IP       11 8 17.84                             134   -0.5910 99.9 271 
 PTB  HN ES       11 8 32.97                             134   -0.7710 99.9 271 
 PTB  HZ I        11 8 34.03         5.3 0.11            134           99.9 271 
 SPBC HZ EP       11 8 20.31                             130    0.6210  113 211 
 SPBC HN ES       11 8 36.46                             130    0.4810  113 211 
 SPBC HZ I        11 8 38.54        10.2 0.12            132            113 211 
 PAM  EZ EP       11 8 21.64                             126   -0.2510  130  46 
 PAM  EN ES       11 8 39.67                             126   -0.2310  130  46 
 PAM  EZ I        11 8 41.19         7.8 0.28            129            130  46 
 ZAR  HZ EP       11 8 26.79                             116    0.39 9  179 307 
 ZAR  HN ES       11 8 48.29                             116    0.36 9  179 307 
 ZAR  HZ I        11 8 51.92         4.9 0.15            117            179 307 
 YPLC HZ EP   4   11 8 23.61                             116   -2.99 0  180 134 
 YPLC HE ES   4   11 8 46.44                             116   -1.85 0  180 134 
 YPLC HZ I        11 8 51.24         8.8 0.30            119            180 134 
 NOR  HZ EP       11 8 26.37                             116   -0.23 9  181 234 
 NOR  HN ES       11 8 48.18                             116   -0.11 9  181 234 
 NOR  HZ I        11 8 50.63         4.2 0.16            118            181 234 
 HEL  HZ EP   9   11 8 32.97                             111    1.36 0  222 260 
 HEL  HN ES       11 8 58.51                                   -0.05 8  222 260 
 HEL  HZ I        11 9  4.47         2.7 0.16            112            222 260 
 GUY2CHZ EP   9   11 8 37.23                             108    2.58 0  247 234 
 GUY2CHN ES       11 9  5.59                                    0.39 8  247 234 
 GUY2CHZ I        11 9  7.53         3.3 0.32                           247 234 
                                                                                
