 2017  315 1852 31.9 L   6.813 -73.201140.0  RSN  5 0.2 1.5LRSN                1
 GAP=129        0.60       3.8     3.6  5.8 -0.5244E+01  0.9336E+01 -0.6984E+01E
 Epicentro: ZAPATOCA - SANTANDER                                               3
 ACTION:UPD 17-05-25 18:40 OP:jn   STATUS:               ID:20170315185231 L   I
 OLDACT:REG 17-03-15 21:46 OP:dnl  STATUS:               ID:20170315184744     3
 2017-03-15-1848-00M.COL___412                                                 6
 STAT SP IPHASW D HRMM SECON CODA AMPLIT PERI AZIMU VELO AIN AR TRES W  DIS CAZ7
 BAR2 EZ EP   4   1852 42.39                             170   -8.43 0 24.5 175 
 BAR2 EZ ES       1853  5.63                             170    0.0210 24.5 175 
 BAR2 EZ I        1853  7.78        10.3 0.28            175           24.5 175 
 BRR  HZ EP       1852 52.56                             154    0.5110 65.2 300 
 BRR  HE ES   4   1853  9.35                             154    1.56 0 65.2 300 
 BRR  HZ I        1853 14.31        17.7 0.46            153           65.2 300 
 PAM  EZ IP     C 1852 53.55                             149   -0.1010 80.4  44 
 PAM  EN ES       1853 10.51                             149   -0.1410 80.4  44 
 PAM  EZ I        1853 14.90         4.2 0.40            152           80.4  44 
 RUS  HZ EP   2   1852 55.06                             142   -0.14 5  103 173 
 RUS  HN ES       1853 13.47                             142    0.0610  103 173 
 RUS  HZ I        1853 14.65         2.2 0.40            151            103 173 
 PTB  HZ EP       1852 57.63                             132   -0.21 9  142 258 
 PTB  HN ES       1853 17.95                             132   -0.15 9  142 258 
 PTB  HZ I        1853 20.89         5.3 0.16            136            142 258 
                                                                                
