 2011  615 1016 59.3 L   6.465 -73.683106.0  RSN  4 0.2 1.2LRSN                1
 GAP=125        0.45       3.8     4.5  8.3 -0.1883E+01  0.2673E+02 -0.2871E+00E
 Epicentro: SANTA HELENA DEL OPON - SANTANDER                                  3
 ACTION:UP  11-07-14 19:05 OP:ep   STATUS:               ID:20110615101659 L   I
 2011-06-15-1000-00M.COL___125                                                 6
 STAT SP IPHASW D HRMM SECON CODA AMPLIT PERI AZIMU VELO SNR AR TRES W  DIS CAZ7
 BAR2 SZ EP   1   1017 15.91                             150     0.2 7   57  76 
 BAR2 SZ ES   1   1017 28.38                             150    -0.2 7   57  76 
 BAR2 SZ I        1017 29.61         4.2 0.20                            57  76 
 BRR  HZ EP   1   1017 16.42                             143     0.1 7   71 357 
 RUS  HZ EP   1   1017 18.36                             136    -0.3 7   92 134 
 RUS  HE ES   1   1017 33.94                             136     0.2 7   92 134 
 RUS  HZ I        1017 35.07         4.8 0.28                            92 134 
 NOR  SZ EP   1   1017 25.31                             118     0.1 7  165 233 
 NOR  SN ES   2   1017 45.41                             118    -0.1 5  165 233 
                                                                                
