 2013  515 1034 46.7 L   7.236 -73.714 99.4  RSN  4 0.5 1.2LRSN                1
 GAP=155        1.04       7.0     8.0  9.7 -0.3091E+02  0.9809E+01  0.1412E+00E
 Epicentro: PUERTO WILCHES - SANTANDER                                         3
 ACTION:UPD 13-06-20 09:50 OP:ep   STATUS:               ID:20130515103446 L   I
 2013-05-15-1030-00M.COL___256                                                 6
 STAT SP IPHASW D HRMM SECON CODA AMPLIT PERI AZIMU VELO AIN AR TRES W  DIS CAZ7
 BRR  HZ EP       1035  0.70                             171    0.4910 14.2 179 
 BRR  HN ES       1035 10.99                             171    0.2410 14.2 179 
 BRR  HZ I        1035 11.85         9.9 0.12            174           14.2 179 
 BAR2 SZ EP   1   1035  4.73                             134   -0.43 7 92.3 140 
 BAR2 SZ ES   2   1035 19.32                             134   -0.24 5 92.3 140 
 BAR2 SZ I        1035 20.20         5.3 0.28            137           92.3 140 
 PTB  HZ EP       1035  7.19                             128    0.4410  113 227 
 PTB  HN ES       1035 21.80                             128   -0.5810  113 227 
 PTB  HZ I        1035 26.32         1.5 0.32            127            113 227 
 OCA  HN ES   1   1035 23.33                             126   -0.54 7  119  21 
 OCA  HZ I        1035 27.39         4.9 0.48            125            119  21 
                                                                                
