 2011  815 1712  0.9 L   6.813 -73.082138.0  RSN  5 0.4 1.6LRSN                1
 GAP=189        0.69       5.3     9.0  8.4  0.2241E+01 -0.4244E+01 -0.1511E+02E
 Epicentro: LOS SANTOS - SANTANDER                                             3
 ACTION:UPD 12-07-13 15:52 OP:ep   STATUS:               ID:20110815171200 L   I
 2011-08-15-1709-11S.COL___149                                                 6
 STAT SP IPHASW D HRMM SECON CODA AMPLIT PERI AZIMU VELO AIN AR TRES W  DIS CAZ7
 BAR2 SZ EP   1   1712 19.64                             168   -0.02 7 26.8 204 
 BAR2 SZ ES   1   1712 33.81                             168   -0.49 7 26.8 204 
 BAR2 SZ I        1712 35.36         6.6 0.35                          26.8 204 
 BRR  HZ EP   1   1712 21.72                             149    0.18 7 76.8 295 
 BRR  HN ES   1   1712 38.13                             149    0.48 7 76.8 295 
 BRR  HZ I        1712 42.46        25.6 0.44                          76.8 295 
 RUS  HN ES   2   1712 42.29                             142    0.32 5  102 180 
 RUS  HZ I        1712 43.99         4.0 0.29                           102 180 
 OCA  SZ EP   1   1712 28.73                             128    0.17 7  160 351 
 OCA  SZ ES   2   1712 49.39                             128   -0.76 5  160 351 
 OCA  SZ I        1712 56.31         5.4 0.23                           160 351 
 NOR  SN ES   2   1713  4.39                             116   -0.58 4  241 235 
                                                                                
