 2012 1215 1039 16.4 L   7.108 -73.244132.1  RSN 10 0.4 2.9LRSN 3.0WRSN        1
 SPEC AVERAGE  MO 13.6 ST  4.4 OM  2.7 f0 4.28 R0.3704 AL 2.82 WI 11.8 MW  3.0 3
 SPEC SD       MO  0.2 ST  2.2 OM  0.8 f0 1.02 R0.1166 AL      WI      MW  0.1 3
 GAP= 73        0.97       3.3     2.9  5.5  0.9807E+00 -0.2824E+00 -0.1243E+01E
 Epicentro: LEBRIJA - SANTANDER                                                3
 SPEC PTB HH N MO 13.4 ST  5.5 OM  1.7 f0 5.43 R0.2707 AL 2.82 WI 13.6 MW  2.9 3
 SPEC PTB HH N T1040 1 K 0.000 GD  198 VS 4.20 DE 3.20 Q0300.0 QA 0.60 VS 4.20 3
 SPEC OCA HH N MO 13.8 ST  5.2 OM  2.1 f0 4.03 R0.3648 AL 1.83 WI 16.4 MW  3.1 3
 SPEC OCA HH N T103957 K 0.000 GD  181 VS 4.20 DE 3.20 Q0300.0 QA 0.60 VS 4.20 3
 SPEC PAM SH N MO 13.3 ST  2.4 OM  1.7 f0 4.54 R0.3238 AL 3.89 WI 12.0 MW  2.8 3
 SPEC PAM SH N T103950 K 0.000 GD  147 VS 4.20 DE 3.20 Q0300.0 QA 0.60 VS 4.20 3
 SPEC BAR2SH Z MO 13.9 ST  1.5 OM  2.3 f0 2.47 R0.5951 AL 2.17 WI  6.3 MW  3.2 3
 SPEC BAR2SH Z T103949 K 0.000 GD  144 VS 4.20 DE 3.20 Q0300.0 QA 0.60 VS 4.20 3
 SPEC BRR HH N MO 13.6 ST  7.4 OM  2.1 f0 4.94 R0.2976 AL 3.40 WI 10.5 MW  3.0 3
 SPEC BRR HH N T103949 K 0.000 GD  141 VS 4.20 DE 3.20 Q0300.0 QA 0.60 VS 4.20 3
 ACTION:UP  13-01-04 14:28 OP:ep   STATUS:               ID:20121215103916 L   I
 2012-12-15-1037-48M.COL___195                                                 6
 STAT SP IPHASW D HRMM SECON CODA AMPLIT PERI AZIMU VELO AIN AR TRES W  DIS CAZ7
 GIR2 SZ EP       1039 34.24                             177    0.2010 6.47 120 
 BRR  HZ EP     D 1039 35.44                             157    0.3710 51.7 270 
 BRR  HN ES       1039 50.08                             157    0.4810 51.7 270 
 BRR  HN I        1039 50.69       244.6 0.24                          51.7 270 
 BAR2 SZ EP       1039 36.08                             155    0.3810 57.5 173 
 BAR2 SZ ES       1039 50.28                             155   -0.4510 57.5 173 
 BAR2 SZ I        1039 52.24       247.5 0.32                          57.5 173 
 PAM  SZ EP       1039 36.74                             152    0.2510 65.4  67 
 PAM  SN ES       1039 51.84                             152   -0.3010 65.4  67 
 OCA  HZ EP       1039 39.72                             134   -0.7410  125 356 
 OCA  HN ES       1039 59.16                             134   -0.0310  125 356 
 OCA  HN I        1040  0.74       186.9 0.24                           125 356 
 RUS  HZ EP       1039 41.55                             132   -0.29 9  136 172 
 RUS  HN ES       1040  1.55                             132   -0.10 9  136 172 
 PTB  HZ EP       1039 41.97                             129   -0.38 9  148 245 
 PTB  HN ES       1040  2.11                             129   -0.46 9  148 245 
 PTB  HN I        1040  3.35        83.3 0.20                           148 245 
 TAM  HZ EP       1039 45.78                             123    0.52 9  177 115 
 TAM  HN ES       1040  7.97                             123    0.24 9  177 115 
 TAM  HN I        1040  9.52        45.8 0.50                           177 115 
 ZAR  HZ EP       1039 46.01                             122    0.17 9  183 284 
 ZAR  HN ES       1040  9.18                             122    0.40 9  183 284 
 ZAR  HN I        1040 14.74        67.0 0.26                           183 284 
 SDV  BZ EP       1040  4.19                             106   -0.41 6  349  56 
                                                                                
