 2013  915 1135 55.5 L   6.941 -72.940  4.0  RSN  6 0.5 1.2LRSN                1
 GAP=157        1.16       3.8     3.8  7.1 -0.7814E+01  0.9505E+01 -0.7866E+01E
 Epicentro: SANTA BARBARA - SANTANDER                                          3
 ACTION:UPD 13-10-22 09:22 OP:ep   STATUS:               ID:20130915113555 L   I
 OLDACT:UP  13-09-15 15:27 OP:cam  STATUS:               ID:20130915112959     3
 OLDACT:UP  13-09-15 15:22 OP:cam  STATUS:               ID:20130915112959     3
 OLDACT:REG 13-09-15 14:33 OP:cam  STATUS:               ID:20130915112959     3
 2013-09-15-1129-59M.COL___269                                                 6
 STAT SP IPHASW D HRMM SECON CODA AMPLIT PERI AZIMU VELO AIN AR TRES W  DIS CAZ7
 BAR2 SZ EP       1136  2.60                              47   -0.8910 46.9 215 
 BAR2 SZ I        1136  9.02        23.8 0.40            100           46.9 215 
 PAM  SZ EP       1136  4.57                              47    0.1310 51.5  31 
 PAM  SN ES       1136 11.19                              47   -0.1910 51.5  31 
 PAM  SZ I        1136 12.22        20.5 0.12            107           51.5  31 
 BRR  HZ EP       1136  9.81                              47    0.4510 87.3 282 
 BRR  HN ES       1136 19.92                              47   -0.2210 87.3 282 
 RUS  HZ EP       1136 14.49                              47    0.1310  117 188 
 RUS  HZ I        1136 35.10         3.1 0.18             56            117 188 
 PTB  HZ EP       1136 23.03                              47    0.60 9  173 255 
 PTB  HE ES       1136 43.03                              47   -0.37 9  173 255 
 PTB  HZ I        1136 46.11         1.9 0.12             56            173 255 
 SPBC HN ES       1136 47.83                              37    0.52 9  190 221 
                                                                                
