 2010  215 1602 41.2 L   5.760 -73.890100.8  RSN  5 0.4 1.6LRSN                1
 GAP=132        0.65       3.9     4.7 14.8 -0.4110E+01  0.2981E+02  0.3134E+01E
 Epicentro: ALBANIA - SANTANDER                                                3
 ACTION:UP  10-08-24 09:49 OP:vdl  STATUS:               ID:20100215160241 L   I
 2010-02-15-1600-00S.COL___092                                                 6
 STAT SP IPHASW D HRMM SECON CODA AMPLIT PERI AZIMU VELO SNR AR TRES W  DIS CAZ7
 BAR2 SZ EP   1   16 3  2.58                             125     0.1 7  121  40 
 BAR2 SZ ES   2   16 3 19.30                             125     0.3 5  121  40 
 CHI  HZ EP   1   16 3  2.93                             124    -0.3 7  126 172 
 CHI  HN ES   2   16 3 20.10                             124    -0.3 5  126 172 
 CHI  HZ I        16 3 24.15         5.1 0.29                           126 172 
 RREF BZ EP   1   16 3  9.78                             113    -0.3 7  187 240 
 RREF BE ES   2   16 3 33.50                             113     0.9 4  187 240 
 RREF BZ I        16 3 36.75         6.2 0.30                           187 240 
 HEL  HZ EP   1   16 3  9.64                             113    -0.1 7  188 285 
 HEL  HN ES   2   16 3 31.66                             113    -0.4 4  188 285 
 PRA  HZ EP   1   16 3 17.18                             105     0.4 6  252 206 
 PRA  HN ES   2   16 3 44.91                             105     0.4 4  252 206 
 PRA  HZ I        16 3 47.80         4.3 0.25                           252 206 
                                                                                
