 2015 1015 1232 37.5 L   7.444 -73.452101.1  RSN 10 0.6 1.9LRSN                1
 GAP= 88        1.37       3.4     4.8  8.5  0.9356E+00  0.1771E+02  0.6651E+01E
 Epicentro: SABANA DE TORRES - SANTANDER                                       3
 ACTION:UPD 15-12-22 20:40 OP:cam  STATUS:               ID:20151015123237 L   I
 OLDACT:REG 15-10-15 22:01 OP:stll STATUS:               ID:20151015122747     3
 2015-10-15-1227-47M.COL___340                                                 6
 STAT SP IPHASW D HRMM SECON CODA AMPLIT PERI AZIMU VELO AIN AR TRES W  DIS CAZ7
 BRR  HZ EP     D 1232 52.11                             153   -0.3810 47.0 218 
 BRR  HE ES       1233  4.23                             153    0.0810 47.0 218 
 BRR  HZ I        1233  5.01        25.8 0.38            153           47.0 218 
 PAM  EZ EP       1232 56.40                             137    0.6310 83.8  98 
 PAM  EN ES       1233 10.16                             137    0.1810 83.8  98 
 PAM  EZ I        1233 13.37        18.2 0.26            138           83.8  98 
 OCA  HN ES       1233 10.71                             135    0.7510 89.1   9 
 BAR2 EZ EP     D 1232 56.32                             132   -0.4010 98.8 162 
 BAR2 EZ ES       1233 10.84                             132   -0.8410 98.8 162 
 BAR2 EZ I        1233 11.94        24.3 0.36            133           98.8 162 
 ZAR  HZ EP       1233  1.81                             118   -0.29 9  155 272 
 ZAR  HN ES       1233 21.91                             118    0.65 9  155 272 
 ZAR  HZ I        1233 23.84        21.2 0.42            118            155 272 
 SML  HZ EP       1233  2.32                             116   -0.81 9  165 336 
 SML  HN ES       1233 22.39                             116   -0.69 9  165 336 
 SML  HZ I        1233 33.43        19.7 0.26            116            165 336 
 SPBC HZ EP       1233  9.33                             110    1.05 8  210 199 
 SPBC HN ES       1233 32.07                             110   -0.19 8  210 199 
 SPBC HZ I        1233 37.35         9.8 0.24            111            210 199 
 NOR  HZ EP       1233 13.78                             105   -0.36 8  260 217 
 NOR  HN ES       1233 42.50                             105   -0.20 8  260 217 
 NOR  HZ I        1233 46.49         4.8 0.16            107            260 217 
 CHI  HZ EP   4   1233 21.47                             101    0.66 0  313 186 
 CHI  HN ES       1233 54.88                             101    0.31 7  313 186 
 CHI  HZ I        1233 59.29         2.5 0.36            104            313 186 
 GUY2CHZ EP       1233 22.87                             100    0.62 7  324 221 
 GUY2CHN ES       1233 57.51                             100    0.38 7  324 221 
 GUY2CHZ I        1234  3.41         2.5 0.36                           324 221 
                                                                                
