 2014  915 1019  0.5 L   6.788 -73.915 21.1  RSN  5 0.2 1.2LRSN                1
 GAP=108        0.60       1.8     1.3  2.3 -0.3266E-01  0.5984E+00  0.5049E+00E
 Epicentro: PUERTO PARRA - SANTANDER                                           3
 ACTION:UPD 14-10-03 23:05 OP:nd   STATUS:               ID:20140915101900 L   I
 OLDACT:REG 14-09-15 20:19 OP:spq  STATUS:               ID:20140915101818     3
 2014-09-15-1018-18M.COL___293                                                 6
 STAT SP IPHASW D HRMM SECON CODA AMPLIT PERI AZIMU VELO AIN AR TRES W  DIS CAZ7
 BRR  HZ EP       1019  7.79                             114   -0.1810 41.8  32 
 BRR  HE ES       1019 14.12                             114    0.3110 41.8  32 
 BRR  HZ I        1019 14.62        20.4 0.11             47           41.8  32 
 PTB  HZ IP     D 1019 11.25                             105   -0.1810 65.9 245 
 PTB  HN ES       1019 20.18                             105    0.2110 65.9 245 
 PTB  HZ I        1019 21.15        21.1 0.12             47           65.9 245 
 BAR2 SZ EP       1019 14.02                             102   -0.2810 83.8 105 
 BAR2 SZ ES   1   1019 25.05                             102   -0.03 7 83.8 105 
 BAR2 SZ I        1019 27.75         5.0 0.38             47           83.8 105 
 ZAR  HZ EP       1019 20.28                              56   -0.2710  130 307 
 ZAR  HE ES       1019 36.27                              56    0.0710  130 307 
 ZAR  HZ I        1019 39.41         2.2 0.15             47            130 307 
 RUS  HZ EP       1019 22.07                              56    0.31 9  135 137 
 RUS  HE ES   1   1019 38.45                              56    0.09 7  135 137 
 RUS  HZ I        1019 40.13         7.1 0.20             47            135 137 
                                                                                
