 2011  415 1828 54.3 L   7.376 -73.174125.3  RSN  7 0.2 2.0LRSN                1
 GAP=152        0.58       4.9     5.5  5.8 -0.1394E+02  0.5465E+01  0.1265E+01E
 Epicentro: RIONEGRO - SANTANDER                                               3
 ACTION:UP  11-06-22 15:31 OP:REBC STATUS:               ID:20110415182854 L   I
 2011-04-15-1824-14S.COL___140                                                 6
 STAT SP IPHASW D HRMM SECON CODA AMPLIT PERI AZIMU VELO SNR AR TRES W  DIS CAZ7
 GIR2 SZ EP   1   1829 11.61                             164     0.0 7   33 184 
 BTL  SZ EP       1829 12.61                             156     0.110   52 192 
 PAM  SZ EP   1   1829 12.59                             156    -0.4 7   53  94 
 PAM  SE ES   2   1829 27.37                             156    -0.1 5   53  94 
 BRR  HZ EP       1829 12.72                             150    -0.310   66 243 
 BRR  HZ I        1829 12.88        28.5 0.20                            66 243 
 BRR  HE ES   1   1829 27.57                             150     0.0 7   66 243 
 GRA  SZ EP   1   1829 13.42                             149     0.0 7   70  36 
 GRA  SZ ES   1   1829 28.67                             149     0.3 7   70  36 
 GRA  SZ I        1829 31.92        48.3 0.23                            70  36 
 BAR2 SZ EP   1   1829 14.82                             143     0.1 7   87 181 
 BAR2 SZ ES   1   1829 30.63                             143     0.0 7   87 181 
 BAR2 SZ I        1829 32.20        10.2 0.23                            87 181 
 NOR  SZ EP   1   1829 34.08                             110     0.6 6  274 223 
                                                                                
