 2015  815 1011  9.6 L   6.814 -73.118145.2  RSN  9 0.4 2.0LRSN                1
 GAP=242        1.00       5.1     6.3  8.0  0.7639E+01  0.6018E+01  0.5747E+01E
 Epicentro: LOS SANTOS - SANTANDER                                             3
 ACTION:UPD 15-09-15 23:02 OP:cam  STATUS:               ID:20150815101109 L   I
 OLDACT:REG 15-08-15 22:05 OP:mher STATUS:               ID:20150815100748     3
 2015-08-15-1007-48M.COL___334                                                 6
 STAT SP IPHASW D HRMM SECON CODA AMPLIT PERI AZIMU VELO AIN AR TRES W  DIS CAZ7
 BAR2 EZ EP       1011 29.09                             170   -0.0810 25.5 196 
 BAR2 EZ I        1011 44.84        19.7 0.34            174           25.5 196 
 BRR  HZ EP       1011 30.80                             152    0.0310 73.2 296 
 BRR  HN ES       1011 47.81                             152    0.5110 73.2 296 
 BRR  HZ I        1011 50.54        20.0 0.44            154           73.2 296 
 RUS  HZ EP       1011 33.26                             143   -0.1010  102 178 
 RUS  HN ES   1   1011 51.89                             143   -0.03 7  102 178 
 RUS  HZ I        1011 53.25         9.3 0.18            147            102 178 
 SPBC HZ EP       1011 38.08                             128   -0.24 9  166 219 
 SPBC HN ES       1012  0.21                             128   -0.54 9  166 219 
 SPBC HZ I        1012  5.54        13.4 0.64            133            166 219 
 ZAR  HZ EP       1011 42.25                             122    0.04 8  206 291 
 ZAR  HN ES       1012  6.93                             122   -0.74 8  206 291 
 ZAR  HZ I        1012 12.15        10.9 0.34            124            206 291 
 NOR  HZ EP       1011 45.54                             118   -0.09 8  238 235 
 NOR  HN ES       1012 14.32                             118    0.57 8  238 235 
 NOR  HZ I        1012 15.33         6.4 0.18            121            238 235 
 SML  HZ EP   4   1011 45.53                             117   -0.62 0  244 334 
 SML  HN ES   4   1012 13.90                             117   -0.78 0  244 334 
 SML  HZ I        1012 23.95         9.8 0.24            118            244 334 
 URE  HZ EP   4   1011 52.82                             113    1.96 0  286 291 
 URE  HN ES   4   1012 18.72                             113   -4.35 0  286 291 
 GUY2CHZ EP       1011 54.50                             112    0.97 7  305 235 
 GUY2CHN ES   4   1012 30.86                             112    3.03 0  305 235 
 GUY2CHZ I        1012 34.78         3.4 0.28                           305 235 
 SJC  HZ EP   4   1012  2.25                             106   -2.90 0  410 326 
 SJC  HN ES   4   1012 43.17                             106   -5.34 0  410 326 
 SJC  HZ I        1012 47.60         2.5 0.68            106            410 326 
                                                                                
