 2013  515 1254 19.5 L   6.774 -73.151150.2  RSN  5 0.3 1.2LRSN                1
 GAP=235        0.63       6.0     5.3  9.2  0.1826E+02 -0.1651E+02 -0.1303E+02E
 Epicentro: LOS SANTOS - SANTANDER                                             3
 ACTION:UPD 13-06-20 09:50 OP:ep   STATUS:               ID:20130515125419 L   I
 2013-05-15-1250-00M.COL___256                                                 6
 STAT SP IPHASW D HRMM SECON CODA AMPLIT PERI AZIMU VELO AIN AR TRES W  DIS CAZ7
 BAR2 SZ EP       1254 39.66                             172    0.0310 20.4 190 
 BAR2 SZ I        1254 57.91         2.2 0.16            164           20.4 190 
 BRR  HZ EP       1254 40.89                             153   -0.3110 72.1 301 
 BRR  HN ES   1   1254 58.42                             153    0.31 7 72.1 301 
 BRR  HZ I        1255  5.52         7.4 0.44            152           72.1 301 
 RUS  HZ EP       1254 43.84                             145    0.3210 97.8 176 
 RUS  HN ES   1   1255  1.84                             145   -0.39 7 97.8 176 
 RUS  HZ I        1255  5.05         1.1 0.29            152           97.8 176 
 PTB  HN ES       1255  8.04                             133    0.05 9  147 260 
 ZAR  HN ES   1   1255 17.78                             123   -0.11 6  205 293 
                                                                                
