 2014 1115 1141 36.4 L   7.478 -73.118143.3  RSN  4 0.1 2.1LRSN                1
 GAP=230        0.37       4.2     2.5  3.3 -0.5088E+01  0.2945E+01 -0.3444E+01E
 Epicentro: EL PLAYON - SANTANDER                                              3
 ACTION:UPD 14-12-19 15:43 OP:nd   STATUS:               ID:20141115114136 L   I
 OLDACT:UP  14-11-15 23:27 OP:cam  STATUS:               ID:20141115113818     3
 OLDACT:REG 14-11-15 21:02 OP:cam  STATUS:               ID:20141115113818     3
 2014-11-15-1138-18M.COL___280                                                 6
 STAT SP IPHASW D HRMM SECON CODA AMPLIT PERI AZIMU VELO AIN AR TRES W  DIS CAZ7
 PAM  SZ EP       1141 56.95                             160    0.1010 48.7 108 
 PAM  SE ES       1142 12.75                             160   -0.0810 48.7 108 
 PAM  SZ I        1142 13.99        29.5 0.40            163           48.7 108 
 BRR  HZ EP       1141 57.63                             150    0.0210 77.3 238 
 BRR  HN ES       1142 14.20                             150    0.0210 77.3 238 
 BRR  HN I        1142 16.14        21.9 0.18            150           77.3 238 
 BAR2 SZ EP       1141 59.46                             144    0.1210 98.2 184 
 BAR2 SZ ES       1142 17.21                             144   -0.0510 98.2 184 
 BAR2 SZ I        1142 18.62        36.3 0.30            145           98.2 184 
 PTB  HZ EP       1142  6.03                             125   -0.25 9  181 235 
 PTB  HN ES       1142 29.70                             125    0.09 9  181 235 
 PTB  HZ I        1142 32.80         5.4 0.16            126            181 235 
                                                                                
