 2012 1015 1609 49.5 L   6.817 -73.114133.8  RSN  5 0.1 1.4LRSN                1
 GAP=140        0.37       2.5     3.1  4.6  0.3649E+00  0.4920E+01 -0.1421E+01E
 Epicentro: LOS SANTOS - SANTANDER                                             3
 ACTION:UPD 12-11-22 17:04 OP:ep   STATUS:               ID:20121015160949 L   I
 2012-10-15-1608-59S.COL___229                                                 6
 STAT SP IPHASW D HRMM SECON CODA AMPLIT PERI AZIMU VELO AIN AR TRES W  DIS CAZ7
 BAR2 SZ ES   1   1610 22.12                             168    0.15 7 26.0 197 
 BAR2 SZ I        1610 23.35         8.4 0.40                          26.0 197 
 BRR  HZ EP   1   1610  9.43                             149   -0.05 7 73.4 296 
 BRR  HZ I        1610 12.77        10.8 0.32                          73.4 296 
 PAM  SZ EP   1   1610 10.43                             150    0.23 7 73.7  38 
 PAM  SZ I        1610 10.68         5.0 0.20                          73.7  38 
 PAM  SE ES   1   1610 26.18                             150   -0.18 7 73.7  38 
 RUS  HZ EP   1   1610 12.10                             141   -0.10 7  102 178 
 RUS  HN ES   1   1610 29.89                             141   -0.04 7  102 178 
 RUS  HN I        1610 31.81         2.6 0.36                           102 178 
 ZAR  HN ES   1   1610 46.35                             119   -0.02 6  207 291 
                                                                                
