 2014  315 1201  5.8 L   6.786 -73.147145.7  RSN  8 0.5 2.0LRSN                1
 GAP=137        1.27       4.4     5.5  8.7 -0.4294E+01  0.1950E+02 -0.8849E+01E
 Epicentro: LOS SANTOS - SANTANDER                                             3
 ACTION:UPD 14-04-09 23:17 OP:nd   STATUS:               ID:20140315120105 L   I
 OLDACT:REG 14-03-15 15:31 OP:nd   STATUS:               ID:20140315120047     3
 2014-03-15-1200-47M.COL___248                                                 6
 STAT SP IPHASW D HRMM SECON CODA AMPLIT PERI AZIMU VELO AIN AR TRES W  DIS CAZ7
 BAR2 SZ EP       12 1 25.54                             171    0.1110 21.7 190 
 BAR2 SZ ES       12 1 40.70                             171   -0.0210 21.7 190 
 BAR2 SZ I        12 1 41.75        28.2 0.38            172           21.7 190 
 PAM  SZ EP       12 1 28.49                             150    0.3610 78.7  39 
 PAM  SN ES       12 1 44.97                             150   -0.5510 78.7  39 
 PAM  SZ I        12 1 47.97        17.5 0.72            153           78.7  39 
 RUS  HZ EP       12 1 29.58                             144    0.1010 99.0 176 
 RUS  HN ES       12 1 48.26                             144    0.3510 99.0 176 
 RUS  HZ I        12 1 49.74        11.5 0.42            149           99.0 176 
 PTB  HZ EP       12 1 32.26                             132   -0.50 9  147 259 
 PTB  HN ES       12 1 53.35                             132   -0.41 9  147 259 
 PTB  HZ I        12 1 58.75        11.3 0.22            133            147 259 
 SPBC HZ EP       12 1 34.56                             129    0.35 9  162 219 
 SPBC HN ES       12 1 56.23                             129   -0.11 9  162 219 
 SPBC HZ I        12 1 59.19        15.9 0.28            132            162 219 
 ZAR  HZ EP       12 1 39.14                             122    0.81 9  204 293 
 ZAR  HN ES       12 2  4.73                             122    1.06 9  204 293 
 ZAR  HZ I        12 2 10.82         9.0 0.30            123            204 293 
 SML  HZ EP       12 1 41.83                             117   -0.78 8  245 335 
 SML  HN ES       12 2 11.13                             117   -0.16 8  245 335 
 SML  HZ I        12 2 19.82         9.9 0.24            118            245 335 
 GUY2CHZ EP   4   12 1 50.50                             112    1.17 0  300 235 
 GUY2CHN ES       12 2 22.20                             112   -1.05 7  300 235 
 GUY2CHZ I        12 2 30.70         4.7 0.28                           300 235 
                                                                                
