 2011  815 1915 40.3 L   6.800 -73.153141.4  RSN  5 0.4 1.6LRSN                1
 GAP=136        0.79       5.7     7.5  8.7 -0.7960E+00 -0.3001E+01  0.6517E+00E
 Epicentro: LOS SANTOS - SANTANDER                                             3
 ACTION:UPD 12-07-13 15:52 OP:ep   STATUS:               ID:20110815191540 L   I
 2011-08-15-1900-00M.COL___151                                                 6
 STAT SP IPHASW D HRMM SECON CODA AMPLIT PERI AZIMU VELO AIN AR TRES W  DIS CAZ7
 BAR2 SZ EP   1   1915 59.28                             170   -0.14 7 23.2 188 
 BAR2 SZ ES   1   1916 13.61                             170   -0.72 7 23.2 188 
 BAR2 SZ I        1916 15.56         9.0 0.20                          23.2 188 
 BRR  HZ EP   1   1916  0.71                             152   -0.25 7 70.5 299 
 BRR  HN ES   1   1916 17.70                             152    0.64 7 70.5 299 
 BRR  HZ I        1916 20.46         7.1 0.13                          70.5 299 
 PAM  SZ EP   1   1916  2.18                             150    0.08 7 77.9  40 
 PAM  SN ES   2   1916 18.88                             150   -0.22 5 77.9  40 
 RUS  HZ EP   1   1916  3.82                             143    0.17 7  101 176 
 RUS  HE ES   1   1916 22.31                             143    0.46 7  101 176 
 RUS  HZ I        1916 23.97         5.7 0.22                           101 176 
 NOR  SN ES   2   1916 42.84                             117   -0.51 4  234 234 
                                                                                
