 2012  415 1503 48.6 L   6.771 -73.107140.7  RSN  6 0.2 1.5LRSN                1
 GAP=143        0.56       3.8     4.3  6.6  0.3735E+01  0.1012E+02  0.4345E+01E
 Epicentro: LOS SANTOS - SANTANDER                                             3
 ACTION:UPD 12-07-05 11:53 OP:tino STATUS:               ID:20120415150348 L   I
 2012-04-15-1500-05M.COL___172                                                 6
 STAT SP IPHASW D HRMM SECON CODA AMPLIT PERI AZIMU VELO AIN AR TRES W  DIS CAZ7
 BAR2 SZ EP   1   15 4  7.63                             171     0.0 7   21 203 
 BAR2 SZ I        15 4  7.94        10.3 0.11                            21 203 
 BAR2 SZ ES   1   15 4 21.99                             171    -0.4 7   21 203 
 BRR  HZ EP   1   15 4  9.51                             150     0.0 7   77 299 
 BRR  HZ I        15 4  9.91        15.9 0.12                            77 299 
 BRR  HE ES   1   15 4 26.26                             150     0.4 7   77 299 
 PAM  SE ES   1   15 4 27.28                             150     0.1 7   77  36 
 PAM  SZ I        15 4 28.58         3.5 0.26                            77  36 
 RUS  HZ EP   1   15 4 11.64                             144     0.0 7   97 178 
 RUS  HZ I        15 4 12.78         2.5 0.22                            97 178 
 RUS  HE ES   1   15 4 29.74                             144     0.2 7   97 178 
 ZAR  HN ES   1   15 4 46.53                             120    -0.2 6  209 293 
 NOR  SN ES   2   15 4 52.18                             117     0.1 4  236 236 
                                                                                
