 2011  815 1206 21.2 L   6.779 -73.013139.1  RSN  4 0.2 1.9LRSN                1
 GAP=196        0.43       2.9     7.6  5.1  0.1293E+02 -0.1639E+02 -0.7513E+01E
 Epicentro: CEPITA - SANTANDER                                                 3
 ACTION:UPD 12-07-13 15:52 OP:ep   STATUS:               ID:20110815120621 L   I
 2011-08-15-1203-34S.COL___149                                                 6
 STAT SP IPHASW D HRMM SECON CODA AMPLIT PERI AZIMU VELO AIN AR TRES W  DIS CAZ7
 BAR2 SZ EP       12 6 40.17                             168    0.0710 27.9 222 
 BAR2 SZ ES   1   12 6 54.88                             168    0.00 7 27.9 222 
 BAR2 SZ I        12 6 56.24        10.9 0.17                          27.9 222 
 BRR  HZ EP       12 6 42.25                             147   -0.2410 85.3 295 
 BRR  HE ES   1   12 6 59.35                             147    0.23 7 85.3 295 
 BRR  HZ I        12 7  4.27        18.6 0.16                          85.3 295 
 RUS  HZ EP   1   12 6 44.33                             143    0.23 7 98.4 185 
 RUS  HN ES       12 7  1.89                             143   -0.1110 98.4 185 
 RUS  HZ I        12 7  3.43        10.6 0.25                          98.4 185 
 OCA  SZ EP   1   12 6 49.57                             127    0.15 7  165 348 
 OCA  SZ ES   1   12 7 11.34                             127   -0.11 7  165 348 
 OCA  SZ I        12 7 15.89        13.6 0.31                           165 348 
                                                                                
