 2016 1015 1823 11.1 L   6.817 -73.143148.0  RSN  7 0.4 1.8LRSN                1
 GAP=136        1.02       4.8     4.8  7.7  0.1320E+01  0.1058E+02  0.4616E+01E
 Epicentro: LOS SANTOS - SANTANDER                                             3
 OLDACT:UP  16-10-15 21:24 OP:dnl  STATUS:               ID:20161015181741     3
 OLDACT:UP  16-10-15 21:23 OP:dnl  STATUS:               ID:20161015181741     3
 OLDACT:UP  16-10-15 21:22 OP:dnl  STATUS:               ID:20161015181741     3
 OLDACT:REG 16-10-15 20:38 OP:dnl  STATUS:               ID:20161015181741     3
 ACTION:UPD 16-11-09 19:19 OP:rebc STATUS:               ID:20161015182311 L   I
 OLDACT:DUP 16-10-15 21:30 OP:dnl  STATUS:               ID:20161015181743d    3
 OLDACT:UP  16-10-15 21:25 OP:dnl  STATUS:               ID:20161015181741     3
 2016-10-15-1818-00M.COL___364                                                 6
 STAT SP IPHASW D HRMM SECON CODA AMPLIT PERI AZIMU VELO AIN AR TRES W  DIS CAZ7
 BAR2 EZ EP       1823 31.02                             170   -0.0410 25.2 190 
 BAR2 EZ ES       1823 46.22                             170   -0.4010 25.2 190 
 BAR2 EZ I        1823 47.65        12.4 0.20            171           25.2 190 
 BRR  HZ EP   2   1823 33.00                             153    0.52 5 70.6 297 
 BRR  HE ES       1823 50.11                             153    0.9710 70.6 297 
 BRR  HZ I        1823 53.12        19.5 0.26            152           70.6 297 
 PAM  EZ EP   2   1823 33.82                             152    0.33 5 75.8  40 
 PAM  EN ES       1823 50.82                             152   -0.1010 75.8  40 
 PAM  EZ I        1823 54.02         7.2 0.58            154           75.8  40 
 RUS  HZ EP       1823 35.31                             144    0.0810  102 176 
 RUS  HN ES       1823 53.91                             144   -0.1210  102 176 
 RUS  HZ I        1823 56.31         4.1 0.30            147            102 176 
 PTB  HZ EP       1823 37.83                             133   -0.51 9  148 258 
 PTB  HE ES       1823 59.59                             133    0.03 9  148 258 
 PTB  HZ I        1824  4.01         7.3 0.26            133            148 258 
 SPBC HZ EP   2   1823 40.29                             130    0.34 5  165 219 
 SPBC HE ES       1824  2.75                             130    0.31 9  165 219 
 SPBC HZ I        1824  4.59         9.3 0.26            131            165 219 
 ZAR  HZ EP   2   1823 43.88                             123    0.20 4  204 292 
 ZAR  HE ES       1824  8.31                             123   -0.75 9  204 292 
 ZAR  HZ I        1824 13.97         6.7 0.24            124            204 292 
                                                                                
