 2016  315 1235 34.2 L   6.827 -73.354122.1  RSN  6 0.2 1.7LRSN                1
 GAP=118        0.59       2.4     2.2  4.5 -0.5245E+00  0.3887E+01 -0.1348E+01E
 Epicentro: SAN VICENTE DE CHUCURI - SANTANDER                                 3
 ACTION:UPD 16-05-13 21:24 OP:cam  STATUS:               ID:20160315122751 L   I
 OLDACT:UPD 16-03-15 21:00 OP:AR   STATUS:               ID:20160315122751 L   3
 2016-03-15-1227-51M.COL___297                                                 6
 STAT SP IPHASW D HRMM SECON CODA AMPLIT PERI AZIMU VELO AIN AR TRES W  DIS CAZ7
 BAR2 EZ EP       1235 51.52                             164    0.2410 32.2 144 
 BAR2 EZ ES       1236  4.61                             164    0.0410 32.2 144 
 PAM  EZ EP       1235 54.97                             141   -0.0810 91.9  52 
 PAM  EN ES       1236 11.12                             141   -0.1610 91.9  52 
 PAM  EZ I        1236 13.23        13.5 0.24            146           91.9  52 
 RUS  HZ EP       1235 56.58                             136    0.2610  108 164 
 RUS  HE ES       1236 13.58                             136    0.0310  108 164 
 RUS  HZ I        1236 15.10         3.9 0.28            139            108 164 
 PTB  HZ EP     C 1235 56.78                             131   -0.5210  126 255 
 PTB  HN ES       1236 15.19                             131   -0.1010  126 255 
 PTB  HZ I        1236 18.44        13.7 0.40            132            126 255 
 SPBC HZ EP       1235 59.83                             125   -0.11 9  152 211 
 SPBC HN ES       1236 19.96                             125   -0.02 9  152 211 
 SPBC HZ I        1236 25.15         6.1 0.52            127            152 211 
 ZAR  HZ EP       1236  3.05                             120    0.20 9  182 294 
 ZAR  HE ES       1236 25.44                             120    0.27 9  182 294 
 ZAR  HZ I        1236 28.39         9.1 0.24            122            182 294 
                                                                                
