 2014  315 1542  6.5 L   6.673 -73.399121.8  RSN  4 0.4 1.5LRSN                1
 GAP=128        0.98       5.1     5.6  8.6  0.7445E+01  0.8175E+01 -0.1924E+02E
 Epicentro: EL CARMEN DE CHUCURI - SANTANDER                                   3
 ACTION:UPD 14-04-09 23:17 OP:nd   STATUS:               ID:20140315154206 L   I
 OLDACT:REG 14-03-15 15:45 OP:nd   STATUS:               ID:20140315154045     3
 2014-03-15-1540-45M.COL___257                                                 6
 STAT SP IPHASW D HRMM SECON CODA AMPLIT PERI AZIMU VELO AIN AR TRES W  DIS CAZ7
 BAR2 SZ EP       1542 23.70                             167    0.3810 25.6 110 
 BAR2 SZ ES       1542 36.70                             167    0.2610 25.6 110 
 BAR2 SZ I        1542 38.18        17.8 0.20            174           25.6 110 
 RUS  HZ EP       1542 27.18                             141   -0.2110 93.1 158 
 RUS  HN ES       1542 43.29                             141   -0.3910 93.1 158 
 RUS  HZ I        1542 45.32         2.1 0.22            145           93.1 158 
 PTB  HZ EP       1542 28.76                             133   -0.0510  118 263 
 PTB  HN ES       1542 46.28                             133    0.0810  118 263 
 PTB  HZ I        1542 53.38         3.7 0.24            132            118 263 
 SML  HZ EP       1542 42.93                             112    0.67 8  247 343 
 SML  HN ES       1543  9.37                             112   -0.77 8  247 343 
 SML  HZ I        1543 11.33         4.7 0.26            115            247 343 
                                                                                
