 2017  615 1137 58.3 L   7.176 -73.326110.3  RSN  6 0.5 2.1LRSN                1
 GAP=299        1.04       6.6     7.0  7.6  0.6787E+00  0.6545E+01  0.4672E+01E
 Epicentro: LEBRIJA - SANTANDER                                                3
 ACTION:UPD 17-09-14 16:52 OP:jn   STATUS:               ID:20170615113758 L   I
 OLDACT:UP  17-06-15 23:06 OP:ar   STATUS:               ID:20170615112738d    3
 OLDACT:DUP 17-06-15 22:59 OP:ar   STATUS:               ID:20170615112738d    3
 OLDACT:UP  17-06-15 22:58 OP:ar   STATUS:               ID:20170615112737     3
 OLDACT:REG 17-06-15 20:43 OP:ar   STATUS:               ID:20170615112737     3
 2017-06-15-1128-00M.COL___359                                                 6
 STAT SP IPHASW D HRMM SECON CODA AMPLIT PERI AZIMU VELO AIN AR TRES W  DIS CAZ7
 BRR  HZ EP       1138 13.53                             157   -0.5110 43.3 260 
 BRR  HN ES       1138 26.69                             157    0.3510 43.3 260 
 BRR  HZ I        1138 27.10        68.1 0.18            151           43.3 260 
 PTB  HZ EP   9   1138 20.29                             123   -1.86 0  143 241 
 PTB  HN ES       1138 38.45                             130   -0.48 9  143 241 
 PTB  HZ I        1138 40.42        10.8 0.10            121            143 241 
 ZAR  HZ EP       1138 24.82                             118   -0.40 9  173 282 
 ZAR  HN ES       1138 46.48                             118    0.22 9  173 282 
 ZAR  HZ I        1138 49.08        15.8 0.20            115            173 282 
 NOR  HZ EP       1138 34.49                             109    0.88 8  247 224 
 NOR  HN ES       1139  0.54                             109   -0.64 8  247 224 
 NOR  HZ I        1139  3.46         6.7 0.18            107            247 224 
 URE  HZ EP   2   1138 34.46                             108    0.33 4  252 285 
 URE  HE ES       1139  1.87                             108   -0.23 8  252 285 
 URE  HZ I        1139  6.02        13.5 0.22            106            252 285 
 HEL  HZ EP   2   1138 36.36                             107    0.04 4  267 246 
 HEL  HN ES       1139  6.42                             107    0.41 8  267 246 
 HEL  HZ I        1139 10.50         5.7 0.40            105            267 246 
                                                                                
