 2010 1115 1026 16.2 L   6.796 -73.142144.4  RSN  9 0.3 2.3LRSN                1
 GAP=159        0.69       2.8     4.8  5.9 -0.5158E+01  0.5551E+01 -0.1520E+01E
 Epicentro: ZAPATOCA - SANTANDER                                               3
 ACTION:UP  10-12-17 16:52 OP:REBC STATUS:               ID:20101115102617 L   I
 2010-11-15-1024-44S.COL___128                                                 6
 STAT SP IPHASW D HRMM SECON CODA AMPLIT PERI AZIMU VELO SNR AR TRES W  DIS CAZ7
 BTL  SZ EP       1026 35.84                             172     0.210   19 314 
 BAR2 SZ EP       1026 35.60                             171    -0.110   23 192 
 BAR2 SZ ES   3   1026 50.09                             171    -0.8 2   23 192 
 BAR2 SZ I        1026 52.89        48.7 0.13                            23 192 
 BRR  HZ EP       1026 37.37                             152     0.110   72 299 
 BRR  HN ES   1   1026 54.14                             152     0.5 7   72 299 
 BRR  HZ I        1026 55.38        80.7 0.46                            72 299 
 RUS  HZ EP       1026 39.75                             144     0.010  100 176 
 RUS  HN ES       1026 58.07                             144    -0.110  100 176 
 RUS  HZ I        1027  0.15        24.3 0.23                           100 176 
 GRA  SZ EP       1026 41.37                             137     0.010  126  17 
 GRA  SZ ES   1   1027  1.21                             137     0.2 7  126  17 
 GRA  SZ I        1027  1.81        24.1 0.38                           126  17 
 OCA  SZ EP       1026 43.96                             130    -0.5 9  161 353 
 OCA  SZ ES   2   1027  5.96                             130    -0.5 5  161 353 
 OCA  SZ I        1027 10.84        25.6 0.57                           161 353 
 NOR  SZ EP       1026 51.96                             118     0.1 8  235 235 
 NOR  SN ES       1027 19.44                             118    -0.3 8  235 235 
 NOR  SZ I        1027 21.27         2.2 0.60                           235 235 
 ROSC BN ES   2   1027 24.04                             117     0.1 4  253 211 
 ROSC BZ I        1027 31.05        13.1 0.30                           253 211 
 PRA  HZ EP   2   1027 10.15                             107     0.5 3  392 210 
 PRA  HE ES   2   1027 51.77                             107     0.4 3  392 210 
 PRA  HZ I        1027 55.25        22.7 0.69                           392 210 
                                                                                
