 2014  215 1222 58.6 L   6.803 -73.154150.8  RSN  5 0.1 1.7LRSN                1
 GAP=200        0.31       2.3     2.3  3.5  0.2668E+01  0.2718E+00 -0.2411E+01E
 Epicentro: LOS SANTOS - SANTANDER                                             3
 ACTION:UPD 14-03-10 08:10 OP:ep   STATUS:               ID:20140215122258 L   I
 OLDACT:REG 14-02-15 15:59 OP:mh   STATUS:               ID:20140215122000     3
 2014-02-15-1220-00M.COL___206                                                 6
 STAT SP IPHASW D HRMM SECON CODA AMPLIT PERI AZIMU VELO AIN AR TRES W  DIS CAZ7
 BAR2 SZ EP   1   1223 18.83                             171    0.01 8 23.5 188 
 BAR2 SZ ES   1   1223 34.70                             171    0.09 8 23.5 188 
 BAR2 SZ I        1223 36.24         8.3 0.28            170           23.5 188 
 RUS  HZ EP       1223 22.93                             145    0.0710  101 176 
 RUS  HN ES       1223 41.68                             145   -0.1210  101 176 
 RUS  HZ I        1223 43.17         2.8 0.18            149            101 176 
 PTB  HZ EP       1223 25.87                             133   -0.02 9  147 259 
 PTB  HN ES       1223 47.27                             133    0.08 9  147 259 
 PTB  HZ I        1223 54.40         7.4 0.23            133            147 259 
 ZAR  HE ES   1   1223 56.60                             124   -0.15 6  203 292 
 ZAR  HZ I        1224  3.30         4.4 0.20            124            203 292 
 SML  HN ES   1   1224  4.13                             119   -0.02 6  243 335 
 SML  HZ I        1224  9.47         6.9 0.10            120            243 335 
                                                                                
