 2010  815 1325 13.2 L   6.792 -73.047144.0  RSN  5 0.2 1.7LRSN                1
 GAP=170        0.56       3.5     7.1  6.7  0.9645E+00 -0.9543E+01  0.1648E+01E
 Epicentro: LOS SANTOS - SANTANDER                                             3
 ACTION:UP  10-09-07 10:55 OP:vdl  STATUS:               ID:20100815132513 L   I
 2010-08-15-1323-30S.COL___111                                                 6
 STAT SP IPHASW D HRMM SECON CODA AMPLIT PERI AZIMU VELO SNR AR TRES W  DIS CAZ7
 BAR2 SZ EP       1325 32.62                             169    -0.110   27 214 
 BAR2 SZ ES   2   1325 47.37                             169    -0.5 5   27 214 
 BAR2 SZ I        1325 50.76        11.8 0.31                            27 214 
 BRR  HZ EP       1325 34.61                             149    -0.210   81 295 
 BRR  HZ I        1325 35.11        12.8 0.10                            81 295 
 BRR  HN ES   1   1325 51.89                             149     0.3 7   81 295 
 RUS  HZ EP       1325 36.83                             144     0.110  100 182 
 RUS  HN ES   2   1325 55.32                             144     0.3 5  100 182 
 GRA  SZ ES   1   1325 57.72                             137     0.2 7  124  13 
 GRA  SZ I        1326  0.22         5.2 0.18                           124  13 
 OCA  SZ EP   1   1325 41.53                             129    -0.1 7  163 349 
 OCA  SZ I        1325 49.01         6.3 0.53                           163 349 
                                                                                
