 2010  315 1420 12.2 L   6.831 -72.979145.8  RSN  5 0.2 1.8LRSN                1
 GAP=200        0.50       4.9    10.5  6.1  0.2991E+02 -0.1779E+02 -0.5186E+01E
 Epicentro: CEPITA - SANTANDER                                                 3
 ACTION:UP  10-08-24 09:54 OP:vdl  STATUS:               ID:20100315142012 L   I
 2010-03-15-1417-58S.COL___095                                                 6
 STAT SP IPHASW D HRMM SECON CODA AMPLIT PERI AZIMU VELO SNR AR TRES W  DIS CAZ7
 BAR2 SZ EP   1   1420 32.32                             166     0.2 7   35 220 
 BAR2 SZ ES   1   1420 47.47                             166    -0.2 7   35 220 
 BRR  HZ IP       1420 34.21                             147    -0.110   87 291 
 BRR  HZ I        1420 34.31        21.3 0.15                            87 291 
 BRR  HE ES   1   1420 51.70                             147     0.2 7   87 291 
 RUS  HZ EP   2   1420 36.68                             143     0.4 5  104 186 
 RUS  HN ES   2   1420 54.97                             143     0.0 5  104 186 
 RUS  HZ I        1420 56.23         4.8 0.35                           104 186 
 OCA  SZ ES   2   1421  2.44                             130    -0.1 5  160 346 
 OCA  SZ I        1421  4.12        11.3 0.21                           160 346 
 CHI  HZ EP   2   1420 50.42                             116    -0.4 4  257 199 
 CHI  HZ I        1421  7.21         3.1 0.73                           257 199 
                                                                                
