 2014 1115 1551 46.4 L   6.787 -73.145142.7  RSN  6 0.5 1.4LRSN                1
 GAP=137        1.38       6.5     6.8 10.1 -0.1074E+02  0.8847E+01  0.2796E+01E
 Epicentro: LOS SANTOS - SANTANDER                                             3
 ACTION:UPD 14-12-19 15:43 OP:nd   STATUS:               ID:20141115155146 L   I
 OLDACT:UP  14-11-15 23:56 OP:cam  STATUS:               ID:20141115154820     3
 OLDACT:REG 14-11-15 22:16 OP:cam  STATUS:               ID:20141115154820     3
 2014-11-15-1548-20M.COL___289                                                 6
 STAT SP IPHASW D HRMM SECON CODA AMPLIT PERI AZIMU VELO AIN AR TRES W  DIS CAZ7
 BAR2 SZ EP       1552  5.74                             171    0.0610 21.9 191 
 BAR2 SZ ES       1552 19.73                             171   -0.9510 21.9 191 
 BAR2 SZ I        1552 21.67         7.6 0.30            170           21.9 191 
 BRR  HZ EP       1552  7.51                             152    0.2010 72.0 300 
 BRR  HN ES       1552 24.60                             152    1.0210 72.0 300 
 PAM  SZ EP       1552  8.58                             150    0.1810 78.5  39 
 PAM  SN ES       1552 25.25                             150   -0.2710 78.5  39 
 PAM  SZ I        1552 26.51         4.1 0.20            152           78.5  39 
 RUS  HZ EP       1552  9.78                             144   -0.0110 99.1 176 
 RUS  HE ES       1552 28.52                             144    0.5310 99.1 176 
 RUS  HZ I        1552 29.48         3.3 0.18            145           99.1 176 
 PTB  HZ EP       1552 12.59                             131   -0.56 9  148 259 
 PTB  HN ES       1552 33.41                             131   -0.57 9  148 259 
 PTB  HZ I        1552 38.14         5.1 0.44            132            148 259 
 SPBC HN ES       1552 36.83                             128    0.26 9  162 219 
                                                                                
