 2012  815 1355 44.2 L   6.708 -73.238146.0  RSN  5 0.3 1.7LRSN                1
 GAP=219        0.59       5.3     5.7  6.0  0.1818E+02  0.3457E+01  0.1233E+01E
 Epicentro: VILLANUEVA - SANTANDER                                             3
 ACTION:UPD 12-09-10 11:56 OP:ep   STATUS:               ID:20120815135544 L   I
 2012-08-15-1350-00M.COL___217                                                 6
 STAT SP IPHASW D HRMM SECON CODA AMPLIT PERI AZIMU VELO AIN AR TRES W  DIS CAZ7
 BRR  HZ EP       1356  5.26                             154    0.0010 68.4 310 
 BRR  HZ I        1356  8.09        17.8 0.29                          68.4 310 
 BRR  HN ES   1   1356 22.05                             154    0.40 7 68.4 310 
 RUS  HZ EP   1   1356  7.06                             146   -0.34 7 91.8 169 
 RUS  HE ES   1   1356 25.43                             146   -0.03 7 91.8 169 
 RUS  HZ I        1356 27.11         3.9 0.48                          91.8 169 
 PTB  HZ EP       1356 10.11                             135   -0.07 9  136 262 
 PTB  HN ES   1   1356 30.45                             135    0.04 7  136 262 
 PTB  HZ I        1356 37.17         4.1 0.21                           136 262 
 ZAR  HZ EP   1   1356 16.29                             123    0.13 6  199 296 
 ZAR  HE ES   1   1356 40.59                             123   -0.47 6  199 296 
 ZAR  HZ I        1356 47.70         5.6 0.22                           199 296 
 PRA  HZ EP   1   1356 36.92                             107    0.77 5  378 209 
                                                                                
