 2014  215 1025 38.1 L   6.790 -73.171143.4  RSN 10 0.4 1.7LRSN                1
 GAP=134        0.83       3.5     4.0  5.6  0.1067E+01  0.5483E+01  0.1203E+01E
 Epicentro: LOS SANTOS - SANTANDER                                             3
 ACTION:UPD 14-03-10 08:10 OP:ep   STATUS:               ID:20140215102538 L   I
 OLDACT:REG 14-02-15 15:55 OP:mh   STATUS:               ID:20140215102000     3
 2014-02-15-1020-00M.COL___206                                                 6
 STAT SP IPHASW D HRMM SECON CODA AMPLIT PERI AZIMU VELO AIN AR TRES W  DIS CAZ7
 BAR2 SZ EP       1025 57.18                             171   -0.2110 21.9 183 
 BAR2 SZ ES       1026 12.13                             171   -0.3310 21.9 183 
 BAR2 SZ I        1026 13.82        11.7 0.08            160           21.9 183 
 PAM  SZ EP       1026  0.46                             149    0.2610 80.0  41 
 PAM  SN ES   1   1026 17.92                             149    0.46 7 80.0  41 
 PAM  SZ I        1026 19.95        11.1 0.55            141           80.0  41 
 RUS  HZ EP       1026  1.38                             143   -0.1510 99.7 174 
 RUS  HN ES   1   1026 20.16                             143    0.33 7 99.7 174 
 RUS  HZ I        1026 21.93         5.2 0.23            127           99.7 174 
 PTB  HZ EP   1   1026  4.43                             132   -0.15 7  145 259 
 PTB  HN ES       1026 25.16                             132   -0.10 9  145 259 
 PTB  HZ I        1026 28.22         7.3 0.08            117            145 259 
 SPBC HZ EP   1   1026  6.54                             129    0.39 7  161 218 
 SPBC HZ I        1026 31.40        11.5 0.27            114            161 218 
 ZAR  HN ES       1026 35.81                             122    0.65 9  202 293 
 ZAR  HZ I        1026 42.86         4.1 0.08            110            202 293 
 NOR  HZ EP   1   1026 13.25                             118   -0.11 6  232 234 
 NOR  HZ I        1026 48.41         3.9 0.21            107            232 234 
 SML  HZ EP   1   1026 14.26                             117   -0.30 6  244 336 
 SML  HN ES   1   1026 41.97                             117   -1.04 6  244 336 
 SML  HZ I        1026 49.03         7.9 0.09            107            244 336 
 CHI  HZ EP   1   1026 15.65                             117    0.20 6  247 195 
 CHI  HN ES   2   1026 43.59                             117   -1.01 4  247 195 
 CHI  HZ I        1026 50.43         2.4 0.17            106            247 195 
 PRA  HZ EP       1026 31.49                             106    0.25 6  390 209 
 SJC  HZ EP   4   1026 31.23                             105   -2.26 0  409 327 
 SJC  HN ES   4   1027 14.41                             105   -2.31 0  409 327 
                                                                                
