 2014  815 1506 34.6 L   6.808 -73.156143.3  RSN  7 0.3 2.2LRSN                1
 GAP=200        0.78       2.9     4.4  4.8  0.6583E+00  0.4373E+01 -0.1428E+01E
 Epicentro: LOS SANTOS - SANTANDER                                             3
 ACTION:UPD 14-09-15 21:50 OP:nd   STATUS:               ID:20140815150634 L   I
 OLDACT:UP  14-08-15 21:28 OP:cam  STATUS:               ID:20140815150000     3
 OLDACT:REG 14-08-15 20:04 OP:cam  STATUS:               ID:20140815150000     3
 2014-08-15-1500-00M.COL___285                                                 6
 STAT SP IPHASW D HRMM SECON CODA AMPLIT PERI AZIMU VELO AIN AR TRES W  DIS CAZ7
 BAR2 SZ EP     C 15 6 54.15                             170    0.2410 24.0 187 
 BAR2 SZ ES       15 7  8.67                             170   -0.3310 24.0 187 
 BAR2 SZ I        15 7 11.20        45.5 0.28            170           24.0 187 
 BRR  HZ EP       15 6 55.90                             152    0.5310 69.8 298 
 BRR  HE ES       15 7 11.98                             152    0.3810 69.8 298 
 BRR  HZ I        15 7 16.06        26.4 0.30            152           69.8 298 
 RUS  HZ EP       15 6 58.10                             143   -0.0410  102 175 
 RUS  HN ES       15 7 16.27                             143   -0.2610  102 175 
 RUS  HZ I        15 7 18.03        18.5 0.36            146            102 175 
 PTB  HZ EP       15 7  0.94                             132   -0.30 9  147 258 
 PTB  HN ES       15 7 22.02                             132   -0.04 9  147 258 
 PTB  HZ I        15 7 23.92        15.7 0.60            133            147 258 
 SPBC HZ EP       15 7  3.11                             128    0.24 9  163 219 
 SPBC HN ES       15 7 25.08                             128    0.13 9  163 219 
 SPBC HZ I        15 7 31.21        24.8 0.24            130            163 219 
 SML  HZ EP       15 7 10.69                             117   -0.23 8  242 335 
 SML  HN ES       15 7 38.81                             117   -0.46 8  242 335 
 SML  HZ I        15 7 43.48        21.1 0.10            119            242 335 
 GUY2CHZ EP       15 7 18.25                             112    0.24 7  301 235 
 GUY2CHN ES       15 7 51.45                             112   -0.45 7  301 235 
 GUY2CHZ I        15 8  4.41         7.3 0.46                           301 235 
                                                                                
