 2017  915 1725 34.0 L   6.756 -73.130140.3  RSN  5 0.2 1.7LRSN                1
 GAP=141        0.60       3.0     3.3  4.6  0.2133E+01  0.2478E+01 -0.4543E+00E
 Epicentro: LOS SANTOS - SANTANDER                                             3
 ACTION:UPD 17-10-05 19:12 OP:rebc STATUS:               ID:20170915172534 L   I
 OLDACT:DUP 17-09-15 23:24 OP:dnl  STATUS:               ID:20170915171742d    3
 2017-09-15-1718-00M.COL___456                                                 6
 STAT SP IPHASW D HRMM SECON CODA AMPLIT PERI AZIMU VELO AIN AR TRES W  DIS CAZ7
 BAR2 EZ EP       1725 52.88                             172   -0.0110 19.0 198 
 BAR2 EZ ES       1726  7.40                             172   -0.2310 19.0 198 
 BAR2 EZ I        1726  8.51        16.9 0.18            172           19.0 198 
 BRR  HZ EP       1725 54.73                             150   -0.0710 75.2 301 
 BRR  HN ES       1726 11.44                             150    0.4210 75.2 301 
 BRR  HZ I        1726 14.86         9.0 0.10            150           75.2 301 
 PAM  EZ EP       1725 55.87                             149    0.0610 80.1  36 
 PAM  EN ES       1726 12.73                             149   -0.0910 80.1  36 
 PAM  EZ I        1726 14.71        15.4 0.54            151           80.1  36 
 RUS  HZ EP       1725 57.18                             144    0.3210 95.6 177 
 RUS  HN ES       1726 14.55                             144   -0.1410 95.6 177 
 RUS  HZ I        1726 16.91         4.6 0.42            146           95.6 177 
 ZAR  HZ EP   2   1726  6.02                             121   -0.44 4  208 293 
 ZAR  HN ES       1726 31.53                             121   -0.25 8  208 293 
 ZAR  HZ I        1726 34.82         5.7 0.64            122            208 293 
                                                                                
