 2017  915 1454 27.3 L   6.809 -73.121143.2  RSN  5 0.5 1.6LRSN                1
 GAP=241        1.04       6.9     7.3  8.3  0.2537E+02  0.2310E+02  0.1483E+02E
 Epicentro: LOS SANTOS - SANTANDER                                             3
 ACTION:UPD 17-10-05 19:12 OP:rebc STATUS:               ID:20170915145427 L   I
 OLDACT:REG 17-09-15 22:10 OP:dnl  STATUS:               ID:20170915144741     3
 2017-09-15-1448-00M.COL___450                                                 6
 STAT SP IPHASW D HRMM SECON CODA AMPLIT PERI AZIMU VELO AIN AR TRES W  DIS CAZ7
 BAR2 EZ IP     C 1454 46.43                             170   -0.2510 24.9 196 
 BAR2 EZ ES       1455  1.35                             170   -0.4210 24.9 196 
 BAR2 EZ I        1455  2.93         8.6 0.48            168           24.9 196 
 BRR  HZ EP   2   1454 48.33                             151    0.02 5 73.2 297 
 BRR  HE ES       1455  5.22                             151    0.5410 73.2 297 
 BRR  HZ I        1455  9.14        13.4 0.46            149           73.2 297 
 RUS  HZ EP       1454 50.64                             143   -0.2410  101 178 
 RUS  HN ES       1455  9.64                             143    0.3910  101 178 
 RUS  HZ I        1455 11.15         3.4 0.28            145            101 178 
 ZAR  HZ EP   2   1454 59.48                             121   -0.35 4  206 292 
 ZAR  HE ES       1455 24.91                             121   -0.27 8  206 292 
 ZAR  HZ I        1455 30.60         5.3 0.30            122            206 292 
 NOR  HZ EP       1455  4.09                             118    0.89 8  237 235 
 NOR  HN ES       1455 30.66                             118   -0.53 8  237 235 
 NOR  HZ I        1455 34.26         3.8 0.28            119            237 235 
                                                                                
