 2014  615 1237 48.9 L   6.748 -73.161145.2  RSN  7 0.4 1.7LRSN                1
 GAP=211        0.97       5.2     6.2  8.2 -0.8740E+00  0.9880E+01 -0.6071E+01E
 Epicentro: LOS SANTOS - SANTANDER                                             3
 ACTION:UPD 14-07-01 22:54 OP:nd   STATUS:               ID:20140615123748 L   I
 OLDACT:UP  14-06-15 22:09 OP:spq  STATUS:               ID:20140615122812     3
 OLDACT:REG 14-06-15 20:21 OP:spq  STATUS:               ID:20140615122812     3
 2014-06-15-1228-12M.COL___262                                                 6
 STAT SP IPHASW D HRMM SECON CODA AMPLIT PERI AZIMU VELO AIN AR TRES W  DIS CAZ7
 BAR2 SZ EP       1238  8.53                             173    0.1910 17.3 188 
 BAR2 SZ ES   1   1238 23.06                             173   -0.46 7 17.3 188 
 BAR2 SZ I        1238 24.83         6.1 0.23            169           17.3 188 
 BRR  HZ IP     C 1238 10.21                             152    0.1510 72.7 303 
 BRR  HN ES       1238 26.79                             152    0.2210 72.7 303 
 BRR  HZ I        1238 31.28         6.7 0.26            149           72.7 303 
 PTB  HZ EP       1238 14.77                             132   -0.79 9  145 261 
 PTB  HN ES       1238 36.47                             132    0.11 9  145 261 
 PTB  HZ I        1238 38.70         7.3 0.11            131            145 261 
 SPBC HN ES       1238 38.75                             130    0.15 9  158 220 
 SPBC HZ I        1238 45.31         3.7 0.48            129            158 220 
 ZAR  HZ EP       1238 22.09                             122    0.73 9  205 294 
 ZAR  HN ES       1238 46.71                             122    0.02 9  205 294 
 ZAR  HZ I        1238 52.26         7.8 0.26            122            205 294 
 SML  HN ES   1   1238 54.25                             117   -0.65 6  248 336 
 SML  HZ I        1238 57.06         4.5 0.06            118            248 336 
 HEL  HN ES   1   1238 59.33                             115   -0.48 6  269 257 
 HEL  HZ I        1239  7.48         3.4 0.54            115            269 257 
                                                                                
