 2011  915 1218  1.2 L   6.778 -73.129146.6  RSN  7 0.3 2.4LRSN                1
 GAP=140        0.60       3.1     4.9  4.5 -0.2350E+01  0.2903E+01  0.5000E+00E
 Epicentro: LOS SANTOS - SANTANDER                                             3
 ACTION:UPD 12-07-13 15:57 OP:ep   STATUS:               ID:20110915121801 L   I
 2011-09-15-1213-48S.COL___169                                                 6
 STAT SP IPHASW D HRMM SECON CODA AMPLIT PERI AZIMU VELO AIN AR TRES W  DIS CAZ7
 BAR2 SZ IP       1218 20.83                             171   -0.0310 21.4 196 
 BAR2 SZ ES   1   1218 35.79                             171   -0.43 7 21.4 196 
 BAR2 SZ I        1218 37.16        60.8 0.60                          21.4 196 
 BRR  HZ IP       1218 22.75                             152    0.1810 74.0 299 
 BRR  HE ES   1   1218 39.75                             152    0.50 7 74.0 299 
 BRR  HZ I        1218 42.64        44.9 0.34                          74.0 299 
 PAM  SZ EP       1218 23.58                             151    0.0610 78.1  37 
 PAM  SE ES   2   1218 40.56                             151   -0.39 5 78.1  37 
 RUS  HZ EP       1218 24.76                             145   -0.0610 98.1 177 
 RUS  HE ES   1   1218 43.58                             145    0.31 7 98.1 177 
 RUS  HZ I        1218 44.87        29.9 0.54                          98.1 177 
 OCA  SZ EP       1218 29.58                             129   -0.21 9  163 353 
 OCA  SZ I        1218 55.27        49.2 0.20                           163 353 
 NOR  SZ EP       1218 36.91                             119   -0.05 8  235 235 
 NOR  SN ES   2   1219  4.06                             119   -0.82 4  235 235 
 CHI  HZ EP       1218 38.84                             117    0.12 8  247 196 
 CHI  HZ I        1219 14.22        11.3 0.46                           247 196 
                                                                                
