 2011  815 1016 58.9 L   6.900 -73.080146.2  RSN  5 0.4 1.5LRSN                1
 GAP=190        0.70       7.3     7.9  9.8 -0.2390E+02 -0.8206E+01  0.1858E+02E
 Epicentro: PIEDECUESTA - SANTANDER                                            3
 ACTION:UPD 12-07-13 15:52 OP:ep   STATUS:               ID:20110815101658 L   I
 2011-08-15-1013-05S.COL___149                                                 6
 STAT SP IPHASW D HRMM SECON CODA AMPLIT PERI AZIMU VELO AIN AR TRES W  DIS CAZ7
 BAR2 SZ EP   1   1017 18.79                             166   -0.07 9 35.9 198 
 BAR2 SZ ES   2   1017 33.93                             166   -0.53 6 35.9 198 
 BAR2 SZ I        1017 35.28         5.5 0.55                          35.9 198 
 BRR  HZ EP   1   1017 20.67                             151    0.48 9 73.5 288 
 BRR  HN ES   1   1017 37.07                             151    0.25 9 73.5 288 
 BRR  HZ I        1017 41.23         8.5 0.18                          73.5 288 
 RUS  HZ EP   2   1017 23.81                             141    0.35 6  111 180 
 RUS  HZ I        1017 44.08         2.0 0.62                           111 180 
 OCA  SZ EP   2   1017 25.47                             131   -0.82 6  150 350 
 OCA  SZ I        1017 53.14         6.2 0.24                           150 350 
 NOR  SN ES       1018  4.65                             117   -0.2410  247 233 
                                                                                
