 2017  915 1412 11.5 L   6.325 -73.646109.4  RSN  5 0.2 1.5LRSN                1
 GAP=111        0.46       1.9     2.2  4.9  0.8074E+00  0.5984E+01  0.1270E+01E
 Epicentro: SANTA HELENA DEL OPON - SANTANDER                                  3
 ACTION:UPD 17-10-05 19:12 OP:rebc STATUS:               ID:20170915141211 L   I
 OLDACT:REG 17-09-15 22:09 OP:dnl  STATUS:               ID:20170915140744     3
 2017-09-15-1408-00M.COL___449                                                 6
 STAT SP IPHASW D HRMM SECON CODA AMPLIT PERI AZIMU VELO AIN AR TRES W  DIS CAZ7
 BAR2 EZ EP       1412 28.55                             150    0.1910 59.3  60 
 BAR2 EZ ES       1412 41.64                             150    0.0910 59.3  60 
 BAR2 EZ I        1412 43.06        31.4 0.46            156           59.3  60 
 RUS  HZ EP       1412 30.11                             142    0.0710 78.5 127 
 RUS  HN ES       1412 44.31                             142   -0.2410 78.5 127 
 RUS  HZ I        1412 47.14         1.7 0.20            148           78.5 127 
 BRR  HZ EP       1412 29.90                             138   -0.1010 86.8 355 
 BRR  HN ES       1412 44.42                             138   -0.0510 86.8 355 
 BRR  HZ I        1412 47.31        20.8 0.36            143           86.8 355 
 NOR  HZ EP   2   1412 36.48                             120   -0.52 5  159 238 
 NOR  HE ES       1412 57.15                             120    0.22 9  159 238 
 NOR  HZ I        1413  0.06         3.1 0.26            123            159 238 
 ZAR  HZ EP   2   1412 40.01                             115    0.19 4  186 314 
 ZAR  HN ES       1413  1.86                             115   -0.08 9  186 314 
 ZAR  HZ I        1413  4.79         3.8 0.24            119            186 314 
                                                                                
