 2012  415 1737 18.3 L   6.795 -73.155136.0  RSN  4 0.2 1.3LRSN                1
 GAP=136        0.60       4.7     9.3  6.5 -0.1704E+02  0.1506E+02 -0.6061E+01E
 Epicentro: LOS SANTOS - SANTANDER                                             3
 ACTION:UP  12-07-05 11:53 OP:tino STATUS:               ID:20120415173718 L   I
 2012-04-15-1730-09M.COL___172                                                 6
 STAT SP IPHASW D HRMM SECON CODA AMPLIT PERI AZIMU VELO AIN AR TRES W  DIS CAZ7
 BAR2 SZ EP   1   1737 36.54                             170    -0.2 7   23 188 
 BAR2 SZ ES       1737 51.24                             170     0.110   23 188 
 BAR2 SZ I        1737 52.15        11.6 0.35                            23 188 
 BRR  HZ EP   1   1737 38.31                             151    -0.1 7   71 299 
 PAM  SZ EP   1   1737 39.38                             149    -0.2 7   78  40 
 PAM  SN ES   1   1737 56.20                             149     0.1 7   78  40 
 PAM  SZ I        1737 58.65         3.8 0.59                            78  40 
 RUS  HZ EP   1   1737 41.51                             142     0.4 7  100 175 
 RUS  HN ES   1   1737 58.52                             142    -0.3 7  100 175 
 RUS  HZ I        1738  0.61         2.0 0.37                           100 175 
                                                                                
