 2011  115 1040  4.6 L   6.803 -73.057140.0  RSN  4 0.2 1.4LRSN                1
 GAP=168        0.43       5.0    21.0  6.7 -0.8569E+02 -0.1154E+02  0.6188E+00E
 Epicentro: LOS SANTOS - SANTANDER                                             3
 ACTION:UP  11-02-08 08:40 OP:pat  STATUS:               ID:20110115104004 L   I
 2011-01-15-1037-29S.COL___135                                                 6
 STAT SP IPHASW D HRMM SECON CODA AMPLIT PERI AZIMU VELO SNR AR TRES W  DIS CAZ7
 BAR2 SZ IP       1040 23.40                             169    -0.210   27 211 
 BAR2 SZ I        1040 23.72         6.8 0.10                            27 211 
 BAR2 SZ ES   2   1040 38.48                             169     0.1 5   27 211 
 RUS  HZ EP   1   1040 27.73                             142     0.0 7  101 182 
 RUS  HN ES   2   1040 45.93                             142     0.1 5  101 182 
 RUS  HZ I        1040 47.56         2.6 0.56                           101 182 
 GRA  SZ EP   1   1040 29.23                             136     0.2 7  123  13 
 GRA  SZ ES   2   1040 48.20                             136     0.1 5  123  13 
 GRA  SZ I        1040 49.90         6.0 0.54                           123  13 
 CHI  HE ES   2   1041 12.12                             115     0.4 4  252 197 
                                                                                
