 2016  215 1121 24.3 L   6.805 -73.194138.0  RSN  5 0.3 1.5LRSN                1
 GAP=241        0.79       5.3     4.7  6.6  0.1045E+02  0.6784E+01 -0.3604E+01E
 Epicentro: ZAPATOCA - SANTANDER                                               3
 ACTION:UPD 16-03-04 21:26 OP:rebc STATUS:               ID:20160215112124 L   I
 OLDACT:UP  16-02-15 22:16 OP:ak   STATUS:               ID:20160215111749     3
 OLDACT:REG 16-02-15 21:12 OP:ak   STATUS:               ID:20160215111749     3
 2016-02-15-1117-49M.COL___286                                                 6
 STAT SP IPHASW D HRMM SECON CODA AMPLIT PERI AZIMU VELO AIN AR TRES W  DIS CAZ7
 BAR2 EZ EP       1121 42.96                             170   -0.0910 23.6 177 
 BAR2 EZ ES       1121 57.87                             170    0.2410 23.6 177 
 BAR2 EZ I        1121 59.82         5.1 0.22            170           23.6 177 
 RUS  HZ EP       1121 47.51                             142    0.0910  102 173 
 RUS  HE ES       1122  5.22                             142   -0.2010  102 173 
 RUS  HZ I        1122  7.76         5.3 0.40            145            102 173 
 PTB  HZ EP       1121 49.76                             131   -0.45 9  143 258 
 PTB  HN ES       1122 10.00                             131   -0.39 9  143 258 
 PTB  HZ I        1122 13.19         3.4 0.14            132            143 258 
 SPBC HZ EP       1121 51.90                             128   -0.08 9  160 217 
 SPBC HN ES       1122 14.05                             128    0.51 9  160 217 
 SPBC HZ I        1122 17.18         5.3 0.10            130            160 217 
 ZAR  HZ EP   2   1121 56.60                             122    0.85 4  199 293 
 ZAR  HN ES       1122 20.52                             122    0.27 9  199 293 
 ZAR  HZ I        1122 27.39         6.0 0.16            123            199 293 
                                                                                
