 2015  315 1150 23.0 L   6.788 -73.147144.4  RSN 10 0.4 2.1LRSN                1
 GAP=137        1.11       3.8     4.9  6.3 -0.5100E+01  0.9062E+01 -0.1760E+01E
 Epicentro: LOS SANTOS - SANTANDER                                             3
 ACTION:UPD 15-04-30 16:26 OP:nd   STATUS:               ID:20150315115023 L   I
 OLDACT:UP  15-03-15 21:45 OP:cam  STATUS:               ID:20150315114748     3
 OLDACT:REG 15-03-15 20:43 OP:cam  STATUS:               ID:20150315114748     3
 2015-03-15-1147-48M.COL___260                                                 6
 STAT SP IPHASW D HRMM SECON CODA AMPLIT PERI AZIMU VELO AIN AR TRES W  DIS CAZ7
 BAR2 EZ IP     C 1150 42.39                             171   -0.0210 22.0 190 
 BAR2 EZ ES       1150 57.10                             171   -0.4710 22.0 190 
 BAR2 EZ I        1150 58.28        25.9 0.36            172           22.0 190 
 BRR  HZ EP       1150 44.39                             152    0.3910 71.7 299 
 BRR  HE ES       1151  1.23                             152    0.8210 71.7 299 
 BRR  HE I        1151  1.77        66.0 0.22            150           71.7 299 
 PAM  SZ EP       1150 45.39                             150    0.2910 78.5  39 
 PAM  SN ES       1151  2.37                             150   -0.0010 78.5  39 
 PAM  SZ I        1151  4.21        24.8 0.54            151           78.5  39 
 RUS  HZ EP       1150 46.44                             144   -0.0510 99.3 176 
 RUS  HE ES       1151  4.87                             144    0.0310 99.3 176 
 RUS  HZ I        1151  5.78         9.4 0.36            146           99.3 176 
 PTB  HZ EP       1150 49.01                             132   -0.78 9  147 259 
 PTB  HN ES       1151 10.00                             132   -0.71 9  147 259 
 PTB  HZ I        1151 12.41         9.0 0.16            132            147 259 
 SPBC HZ EP       1150 51.36                             129    0.10 9  162 219 
 SPBC HN ES       1151 13.44                             129    0.12 9  162 219 
 SPBC HZ I        1151 15.65        13.3 0.62            130            162 219 
 OCA  HZ EP       1150 50.79                             129   -0.50 9  162 353 
 OCA  HN ES   4   1151 15.03                             129    1.64 0  162 353 
 OCA  HZ I        1151 17.79        12.6 0.32            129            162 353 
 NOR  HZ EP       1150 58.43                             118   -0.09 8  234 235 
 NOR  HN ES       1151 26.58                             118    0.32 8  234 235 
 NOR  HZ I        1151 31.44         7.2 0.20            119            234 235 
 SML  HZ EP   4   1150 58.87                             117   -0.77 0  245 335 
 SML  HN ES       1151 28.13                             117   -0.12 8  245 335 
 SML  HZ I        1151 32.06        17.2 0.10            117            245 335 
 HEL  HZ EP       1151  3.87                             115    0.81 8  272 256 
 GUY2CHZ EP   4   1151  8.35                             112    1.94 0  300 235 
                                                                                
