 2013  515 1351 21.5 L   6.519 -73.587105.4  RSN  6 0.3 1.5LRSN                1
 GAP= 92        0.77       4.4     3.5  8.2  0.2484E+01  0.8605E+01 -0.2252E+01E
 Epicentro: EL CARMEN DE CHUCURI - SANTANDER                                   3
 ACTION:UPD 13-06-20 09:50 OP:ep   STATUS:               ID:20130515135121 L   I
 2013-05-15-1350-00M.COL___256                                                 6
 STAT SP IPHASW D HRMM SECON CODA AMPLIT PERI AZIMU VELO AIN AR TRES W  DIS CAZ7
 BAR2 SZ EP       1351 37.17                             155   -0.0010 45.5  80 
 BAR2 SZ ES       1351 49.37                             155   -0.0510 45.5  80 
 BAR2 SZ I        1351 50.89        24.2 0.40            160           45.5  80 
 GIR2 SZ EP       1351 38.69                             141   -0.2910 75.7  35 
 RUS  HZ EP       1351 40.52                             137    0.0010 88.9 141 
 RUS  HN ES       1351 55.69                             137    0.3110 88.9 141 
 RUS  HZ I        1351 57.11         3.8 0.40            142           88.9 141 
 PTB  HN ES   1   1351 54.78                             134   -0.53 7 96.1 271 
 PTB  HZ I        1351 58.41         6.6 0.10            135           96.1 271 
 NOR  HN ES   1   1352  9.80                             116   -0.11 7  177 233 
 ZAR  HN ES   1   1352 10.63                             116    0.82 7  177 308 
 ZAR  HZ I        1352 14.48         5.5 0.28            117            177 308 
                                                                                
