 2012  615 1125 57.4 L   6.807 -73.157148.6  RSN 12 0.4 2.4LRSN                1
 GAP=135        0.74       2.6     3.9  5.3 -0.1858E+01  0.7395E+01 -0.1333E+00E
 Epicentro: LOS SANTOS - SANTANDER                                             3
 ACTION:UP  12-08-06 17:49 OP:ep   STATUS:               ID:20120615112557 L   I
 2012-06-15-1120-00M.COL___200                                                 6
 STAT SP IPHASW D HRMM SECON CODA AMPLIT PERI AZIMU VELO AIN AR TRES W  DIS CAZ7
 BAR2 SZ IP       1126 17.48                             170    0.1110 24.0 187 
 BAR2 SZ ES   1   1126 33.50                             170    0.54 7 24.0 187 
 BAR2 SZ I        1126 35.34        49.3 0.22                          24.0 187 
 PAM  SZ EP   1   1126 20.34                             151    0.42 7 77.6  41 
 PAM  SN ES   1   1126 37.73                             151    0.24 7 77.6  41 
 RUS  HZ EP       1126 21.21                             144   -0.2710  102 175 
 RUS  HN ES   1   1126 39.81                             144   -0.47 7  102 175 
 RUS  HZ I        1126 41.46        24.5 0.24                           102 175 
 PTB  HZ EP       1126 24.37                             133   -0.12 9  147 258 
 PTB  HN ES   1   1126 44.99                             133   -0.64 7  147 258 
 PTB  HZ I        1126 48.51        26.7 0.14                           147 258 
 OCA  HZ EP   1   1126 25.71                             130   -0.12 7  159 354 
 OCA  HN ES   1   1126 47.88                             130   -0.13 7  159 354 
 OCA  HZ I        1126 51.08        39.3 0.21                           159 354 
 ZAR  HZ EP   1   1126 29.93                             123    0.06 6  203 292 
 ZAR  HN ES   1   1126 55.58                             123    0.38 6  203 292 
 ZAR  HZ I        1127  2.07        40.9 0.43                           203 292 
 NOR  SZ EP   1   1126 33.29                             119    0.07 6  234 234 
 NOR  SE ES   1   1127  0.69                             119   -0.49 6  234 234 
 CHI  HZ EP   1   1126 35.28                             118   -0.01 6  249 195 
 CHI  HN ES   1   1127  4.86                             118    0.00 6  249 195 
 CHI  HZ I        1127 10.80        12.6 0.32                           249 195 
 HEL  HZ EP   1   1126 38.72                             115    1.09 6  271 256 
 HEL  HZ I        1127 15.71        11.6 0.19                           271 256 
 GUY  SZ EP   1   1126 41.55                             113    0.22 5  303 235 
 GUY  SZ I        1127 22.78        17.2 0.43                           303 235 
 COD  HZ EP   1   1126 45.33                             109   -0.44 5  347 355 
 COD  HN ES   1   1127 22.83                             109   -0.67 5  347 355 
 COD  HZ I        1127 39.23         8.5 0.54                           347 355 
 PRA  HZ EP   1   1126 50.89                             107   -0.13 4  392 209 
 PRA  HN ES   1   1127 33.57                             107    0.72 4  392 209 
                                                                                
