 2011  115 1350 37.1 L   6.743 -73.126146.8  RSN  4 0.3 1.9LRSN                1
 GAP=216        0.54       7.1     8.1  7.2 -0.1071E+02  0.1998E+02  0.7943E+01E
 Epicentro: JORDAN - SANTANDER                                                 3
 ACTION:UP  11-02-08 08:40 OP:pat  STATUS:               ID:20110115135037 L   I
 2011-01-15-1345-01S.COL___135                                                 6
 STAT SP IPHASW D HRMM SECON CODA AMPLIT PERI AZIMU VELO SNR AR TRES W  DIS CAZ7
 BAR2 SZ EP   1   1350 56.42                             173    -0.4 7   18 201 
 BAR2 SZ ES   2   1351 11.58                             173    -0.5 5   18 201 
 BAR2 SZ I        1351 14.09        15.8 0.30                            18 201 
 BTL  SZ EP   1   1350 57.19                             170     0.3 7   25 321 
 BTL  SZ ES   2   1351 12.67                             170     0.3 5   25 321 
 RUS  HZ EP   1   1351  0.54                             146     0.0 7   94 177 
 RUS  HE ES   2   1351 19.10                             146     0.3 5   94 177 
 NOR  SZ EP   1   1351 12.71                             119     0.0 6  233 236 
 NOR  SE ES   2   1351 40.49                             119     0.0 4  233 236 
                                                                                
