 2013  615 1548 16.8 L   6.759 -73.169148.9  RSN  8 0.3 2.3LRSN                1
 GAP=179        0.65       3.5     3.7  5.6  0.7537E+00  0.3395E+01 -0.4567E+01E
 Epicentro: LOS SANTOS - SANTANDER                                             3
 ACTION:UPD 14-01-08 09:54 OP:ep   STATUS:               ID:20130615154816 L   I
 OLDACT:UP  13-06-15 19:06 OP:mh   STATUS:               ID:20130615154752     3
 OLDACT:REG 13-06-15 18:54 OP:mh   STATUS:               ID:20130615154752     3
 2013-06-15-1547-52M.COL___222                                                 6
 STAT SP IPHASW D HRMM SECON CODA AMPLIT PERI AZIMU VELO AIN AR TRES W  DIS CAZ7
 BAR2 SZ EP       1548 36.75                             173    0.0110 18.5 185 
 BAR2 SZ ES   1   1548 51.89                             173   -0.38 7 18.5 185 
 BAR2 SZ I        1548 53.47        20.0 0.26            170           18.5 185 
 GIR2 SZ EP   1   1548 37.17                             166    0.19 7 35.4 356 
 BRR  HZ EP       1548 38.58                             153    0.2710 71.3 303 
 BRR  HN ES   1   1548 55.57                             153    0.50 7 71.3 303 
 BRR  HN I        1548 56.35        48.3 0.28            149           71.3 303 
 RUS  HZ EP   1   1548 40.73                             146    0.15 7 96.3 174 
 RUS  HN ES       1548 58.91                             146   -0.2010 96.3 174 
 RUS  HN I        1549  0.96        23.8 0.40            146           96.3 174 
 PTB  HN ES       1549  4.71                             133   -0.03 9  144 260 
 PTB  HN I        1549  8.21        28.6 0.20            131            144 260 
 ZAR  HZ EP   2   1548 49.27                             123   -0.13 4  203 294 
 ZAR  HN ES   2   1549 14.53                             123   -0.29 4  203 294 
 ZAR  HZ I        1549 21.49        14.9 0.34            122            203 294 
 NOR  HZ EP   1   1548 52.87                             120    0.64 6  230 235 
 NOR  HN ES       1549 19.55                             120   -0.30 8  230 235 
 NOR  HN I        1549 25.65        22.1 0.14            119            230 235 
 SML  HZ EP   1   1548 53.48                             118   -0.47 6  247 336 
 SML  HE ES   2   1549 22.20                             118   -0.71 4  247 336 
 SML  HE I        1549 25.04        24.9 0.10            118            247 336 
                                                                                
