 2012  415 1837 32.9 L   6.785 -73.123148.1  RSN  5 0.2 1.6LRSN                1
 GAP=140        0.54       4.2     4.7  6.5  0.1270E+01  0.2431E+01 -0.5117E+01E
 Epicentro: LOS SANTOS - SANTANDER                                             3
 ACTION:UPD 12-07-05 11:53 OP:tino STATUS:               ID:20120415183732 L   I
 2012-04-15-1830-10M.COL___166                                                 6
 STAT SP IPHASW D HRMM SECON CODA AMPLIT PERI AZIMU VELO AIN AR TRES W  DIS CAZ7
 BAR2 SZ EP   1   1837 52.79                             171     0.0 7   22 197 
 BAR2 SZ ES   1   1838  8.35                             171     0.1 7   22 197 
 BAR2 SZ I        1838 10.46        10.1 0.35                            22 197 
 BRR  HZ EP   1   1837 54.21                             152    -0.2 7   74 299 
 BRR  HN ES   1   1838 11.47                             152     0.2 7   74 299 
 BRR  HZ I        1838 12.26         8.0 0.11                            74 299 
 PAM  SZ EP   1   1837 55.61                             151     0.3 7   77  37 
 PAM  SZ I        1837 55.80         8.9 0.18                            77  37 
 PAM  SN ES   1   1838 12.53                             151    -0.3 7   77  37 
 RUS  HN ES   1   1838 15.20                             145    -0.1 7   99 177 
 RUS  HZ I        1838 16.92         5.6 0.27                            99 177 
 ZAR  HN ES   2   1838 31.12                             122    -0.3 4  207 292 
                                                                                
