 2016 1215 1830 44.5 L   6.785 -73.144145.1  RSN 12 0.5 2.1LRSN                1
 GAP=137        1.13       4.1     4.4  6.1  0.9428E-01  0.1019E+02  0.4314E+01E
 Epicentro: LOS SANTOS - SANTANDER                                             3
 ACTION:UPD 17-01-11 20:15 OP:rebc STATUS:               ID:20161215183044 L   I
 OLDACT:UP  16-12-16 02:29 OP:ar   STATUS:               ID:20161215182644     3
 OLDACT:REG 16-12-15 22:46 OP:ar   STATUS:               ID:20161215182644     3
 2016-12-15-1827-00M.COL___357                                                 6
 STAT SP IPHASW D HRMM SECON CODA AMPLIT PERI AZIMU VELO AIN AR TRES W  DIS CAZ7
 BAR2 EZ EP       1831  3.89                             171   -0.1010 21.7 191 
 BAR2 EZ ES       1831 18.89                             171   -0.3210 21.7 191 
 BAR2 EZ I        1831 20.31        31.8 0.20            165           21.7 191 
 BRR  HZ EP       1831  5.87                             152    0.2710 72.1 300 
 BRR  HE ES       1831 22.93                             152    0.8510 72.1 300 
 BRR  HZ I        1831 25.59        25.6 0.30            148           72.1 300 
 PAM  EZ EP       1831  6.80                             150    0.1110 78.6  39 
 PAM  EN ES       1831 23.91                             150   -0.1010 78.6  39 
 PAM  EZ I        1831 26.23        15.1 0.62            158           78.6  39 
 RUS  HZ EP       1831  7.78                             144   -0.2510 98.9 176 
 RUS  HN ES       1831 26.43                             144    0.0110 98.9 176 
 RUS  HZ I        1831 27.50        12.4 0.34            144           98.9 176 
 PTB  HZ EP       1831 10.73                             132   -0.64 9  148 259 
 PTB  HN ES       1831 31.45                             132   -0.90 9  148 259 
 PTB  HZ I        1831 39.05        16.9 0.22            129            148 259 
 ZAR  HZ EP       1831 17.08                             122    0.13 9  205 293 
 ZAR  HN ES       1831 42.61                             122    0.33 9  205 293 
 ZAR  HZ I        1831 50.93        13.8 0.46            121            205 293 
 NOR  HZ EP       1831 20.05                             118   -0.02 8  234 235 
 NOR  HN ES       1831 47.80                             118   -0.04 8  234 235 
 NOR  HZ I        1831 53.99        15.1 0.28            118            234 235 
 CHI  HZ EP       1831 21.93                             117   -0.03 8  247 195 
 CHI  HN ES       1831 51.78                             117    0.58 8  247 195 
 CHI  HZ I        1832  1.83         4.6 0.62            118            247 195 
 URE  HZ EP       1831 24.67                             113   -0.92 7  285 292 
 URE  HN ES   4   1831 54.66                             113   -3.01 0  285 292 
 URE  HZ I        1832  6.31        11.6 0.22            113            285 292 
 GUY2CHZ EP       1831 29.00                             112    1.05 7  300 235 
 GUY2CHN ES   4   1832  3.58                             112    1.71 0  300 235 
 GUY2CHZ I        1832 10.15        13.6 0.32                           300 235 
 ELA  HZ EP   4   1831 33.12                             110    1.94 0  328 230 
 ELA  HE ES   4   1832 10.32                             110    2.71 0  328 230 
 ELA  HZ I        1832 23.51         7.0 0.48            110            328 230 
 CBOC HZ EP       1831 31.69                             110    0.38 7  333 252 
 CBOC HN ES       1832  7.89                             110    0.04 7  333 252 
 CBOC HZ I        1832 17.13         3.1 0.62            110            333 252 
                                                                                
