 2012  115 1504 46.4 L   6.391 -73.629109.8  RSN 18 0.3 3.0LRSN                1
 GAP= 65        0.54       1.8     2.0  4.5 -0.3603E+00  0.2800E+01  0.2303E+01E
 Epicentro: SANTA HELENA DEL OPON - SANTANDER                                  3
 ACTION:UP  12-02-03 08:17 OP:REBC STATUS:               ID:20120115150446 L   I
 2012-01-15-1500-00M.COL___188                                                 6
 STAT SP IPHASW D HRMM SECON CODA AMPLIT PERI AZIMU VELO SNR AR TRES W  DIS CAZ7
 BAR2 SZ IP       15 5  3.20                             152     0.110   54  66 
 BAR2 SZ ES   2   15 5 15.95                             152    -0.1 5   54  66 
 BRR  HZ EP       15 5  4.21                             141    -0.210   80 353 
 BRR  HN ES   2   15 5 18.57                             141     0.1 5   80 353 
 RUS  HZ EP       15 5  4.96                             141    -0.310   82 132 
 RUS  HZ I        15 5  5.55       222.8 0.31                            82 132 
 RUS  HN ES   2   15 5 19.83                             141    -0.2 5   82 132 
 GIR2 SZ EP       15 5  5.62                             138     0.110   90  32 
 PTB  HE ES   2   15 5 20.33                             136    -0.1 5   93 280 
 PAM  SZ EP   1   15 5 11.37                             123     0.1 7  147  44 
 PAM  SN ES   2   15 5 30.82                             123     0.2 5  147  44 
 NOR  SZ EP   1   15 5 12.67                             119     0.1 7  165 236 
 NOR  SN ES   2   15 5 32.88                             119    -0.1 5  165 236 
 YOP  SZ EP   1   15 5 14.51                             117     0.6 7  176 131 
 YOP  SN ES   2   15 5 35.75                             117     0.5 4  176 131 
 YOP  SZ I        15 5 37.36       114.3 0.34                           176 131 
 ZAR  HZ EP       15 5 14.18                             116    -0.2 9  182 312 
 ZAR  HN ES   2   15 5 36.11                             116    -0.1 4  182 312 
 ZAR  HZ I        15 5 40.89        97.2 0.34                           182 312 
 CHI  HZ EP       15 5 16.12                             114    -0.2 9  195 183 
 CHI  HN ES   2   15 5 39.90                             114     0.2 4  195 183 
 CHI  HZ I        15 5 43.15        63.5 0.32                           195 183 
 HEL  HZ EP   1   15 5 18.28                             112     0.2 6  211 264 
 HEL  HN ES   2   15 5 43.53                             112     0.7 4  211 264 
 HEL  HZ I        15 5 45.17       111.4 0.26                           211 264 
 GUY  SZ EP   1   15 5 21.15                             110     0.4 6  234 237 
 GUY  SN ES   2   15 5 48.20                             110     0.6 4  234 237 
 GUY  SZ I        15 5 52.05        99.3 0.34                           234 237 
 VIL  SZ I        15 5 54.13        82.2 0.37                           252 182 
 RREF HZ EP       15 5 22.96                             108    -0.1 8  252 229 
 RREF HN ES   1   15 5 51.87                             108     0.3 6  252 229 
 VIL  SZ EP   1   15 5 22.55                             108     0.1 6  252 182 
 VIL  SN ES   2   15 5 50.40                             108    -0.2 4  252 182 
 RREF HZ I        15 5 58.02        62.6 0.40                           252 229 
 TOL  SZ EP       15 5 25.03                             106    -0.2 8  274 223 
 TOL  SZ ES   2   15 5 55.63                             106     0.1 4  274 223 
 PRA  HZ EP   1   15 5 30.87                             102    -0.3 5  327 205 
 PRA  HN ES   2   15 6  6.13                             102     0.0 3  327 205 
 SJA  SZ EP   2   15 5 32.91                             101    -0.7 3  347 186 
 SJA  SZ ES   2   15 6 10.12                             101    -0.3 3  347 186 
 SJA  SZ I        15 6 13.18       139.6 0.36                           347 186 
 COD  HZ EP   1   15 5 39.16                              99     0.2 4  392   3 
 COD  HE ES   2   15 6 20.16                              99     0.2 3  392   3 
 COD  HZ I        15 6 29.17        51.3 0.67                           392   3 
                                                                                
