 2011  515 1838 42.6 L   7.448 -72.934152.2  RSN  6 0.5 1.9LRSN                1
 GAP= 88        1.00       7.6    12.3 10.8 -0.1104E+02  0.2003E+02  0.2677E+02E
 Epicentro: CALIFORNIA - SANTANDER                                             3
 ACTION:UP  11-06-29 08:53 OP:tino STATUS:               ID:20110515183842 L   I
 2011-05-15-1820-00M.COL___140                                                 6
 STAT SP IPHASW D HRMM SECON CODA AMPLIT PERI AZIMU VELO SNR AR TRES W  DIS CAZ7
 PAM  SZ EP   1   1839  3.51                             169     0.0 7   28 115 
 PAM  SN ES   2   1839 20.03                             169     0.2 5   28 115 
 BRI  SZ EP   1   1839  3.14                             167     0.0 7   33  27 
 BRI  SZ ES   2   1839 19.67                             167     0.5 5   33  27 
 BRI  SZ I        1839 25.84        12.3 0.42                            33  27 
 GRA  SZ EP   1   1839  3.02                             161    -0.7 7   50  17 
 GRA  SZ ES   1   1839 19.78                             161    -0.4 7   50  17 
 GRA  SZ I        1839 21.11        30.3 0.26                            50  17 
 BRR  HZ EP   1   1839  5.25                             146    -0.6 7   94 246 
 BRR  HE ES   2   1839 23.77                             146    -0.2 5   94 246 
 BRR  HZ I        1839 26.16        18.8 0.13                            94 246 
 OCA  SZ EP   1   1839  7.04                             146     0.7 7   97 334 
 OCA  SZ ES   2   1839 25.42                             146     0.6 5   97 334 
 OCA  SZ I        1839 26.69        20.5 0.16                            97 334 
 RUS  HZ EP   1   1839 13.53                             129     0.5 7  173 186 
 RUS  HN ES   2   1839 37.03                             129     0.2 4  173 186 
 RUS  HZ I        1839 39.73         1.6 0.37                           173 186 
                                                                                
