 2011  415 1220 44.7 L   6.817 -73.133142.7  RSN  7 0.4 2.0LRSN                1
 GAP=137        0.96       5.8     8.5  9.0 -0.1073E+02 -0.4642E+01  0.1039E+02E
 Epicentro: LOS SANTOS - SANTANDER                                             3
 ACTION:UP  11-06-22 15:31 OP:REBC STATUS:               ID:20110415122044 L   I
 2011-04-15-1218-48S.COL___139                                                 6
 STAT SP IPHASW D HRMM SECON CODA AMPLIT PERI AZIMU VELO SNR AR TRES W  DIS CAZ7
 BTL  SZ EP   1   1221  3.99                             172     0.1 7   19 307 
 BAR2 SZ EP   1   1221  3.82                             169    -0.2 7   25 192 
 BAR2 SZ ES   1   1221 19.04                             169     0.0 7   25 192 
 BAR2 SZ I        1221 20.58        29.5 0.22                            25 192 
 BRR  HZ EP       1221  5.47                             152    -0.110   72 297 
 BRR  HZ I        1221  7.21        20.6 0.09                            72 297 
 BRR  HE ES   2   1221 22.67                             152     0.9 5   72 297 
 GRA  SZ EP   1   1221  9.58                             137     0.1 7  124  17 
 GRA  SZ ES   1   1221 27.96                             137    -0.9 7  124  17 
 GRA  SZ I        1221 30.80         8.8 0.32                           124  17 
 OCA  SZ EP   1   1221 13.23                             129     0.6 7  159 353 
 OCA  SZ I        1221 37.35        10.7 0.12                           159 353 
 YOP  SZ EP       1221 14.92                             125     0.3 9  180 154 
 YOP  SZ I        1221 17.22         9.1 0.35                           180 154 
 NOR  SZ EP   1   1221 20.14                             117    -0.4 6  237 234 
 NOR  SN ES   2   1221 47.89                             117    -0.5 4  237 234 
                                                                                
