 2011  615 1848 20.3 L   6.466 -73.874 20.3  RSN  5 0.3 2.2LRSN                1
 GAP=248        0.76       3.4     5.7  4.9  0.1201E+02 -0.1684E+01 -0.3142E+01E
 Epicentro: CIMITARRA - SANTANDER                                              3
 ACTION:UP  11-07-14 19:05 OP:ep   STATUS:               ID:20110615184820 L   I
 2011-06-15-1844-49S.COL___137                                                 6
 STAT SP IPHASW D HRMM SECON CODA AMPLIT PERI AZIMU VELO SNR AR TRES W  DIS CAZ7
 BRR  HZ EP       1848 31.98                             103    -0.310   73  14 
 BRR  HN ES   1   1848 41.55                             103     0.0 7   73  14 
 BRR  HZ I        1848 43.38       191.3 0.12                            73  14 
 BAR2 SZ EP       1848 33.36                             103     0.210   78  80 
 BAR2 SZ ES   1   1848 43.51                             103     0.2 7   78  80 
 BAR2 SZ I        1848 45.77        49.1 0.14                            78  80 
 RUS  HZ EP   1   1848 38.06                              99     0.1 7  108 126 
 RUS  HE ES       1848 51.62                              99    -0.210  108 126 
 RUS  HZ I        1848 53.24        44.2 0.50                           108 126 
 PAM  SZ EP   1   1848 44.98                              56     0.0 7  162  53 
 PAM  SN ES   1   1849  3.79                              56    -0.4 7  162  53 
 BRI  SZ EP   1   1848 47.97                              56     0.8 7  182  41 
                                                                                
