 2014  915 1513 21.7 L   6.758 -73.129152.1  RSN  7 0.4 1.7LRSN                1
 GAP=202        0.87       4.6     5.1  6.7  0.6996E+01  0.1628E+01 -0.2101E+01E
 Epicentro: LOS SANTOS - SANTANDER                                             3
 ACTION:UPD 14-10-03 23:05 OP:nd   STATUS:               ID:20140915151321 L   I
 OLDACT:REG 14-09-15 21:04 OP:spq  STATUS:               ID:20140915150818     3
 2014-09-15-1508-18M.COL___287                                                 6
 STAT SP IPHASW D HRMM SECON CODA AMPLIT PERI AZIMU VELO AIN AR TRES W  DIS CAZ7
 BAR2 SZ EP       1513 41.94                             173   -0.1010 19.3 198 
 BAR2 SZ ES   1   1513 57.57                             173   -0.32 7 19.3 198 
 BAR2 SZ I        1513 58.81        10.1 0.33            168           19.3 198 
 BRR  HZ EP       1513 43.98                             153    0.2110 75.1 301 
 BRR  HE ES       1514  1.32                             153    0.3410 75.1 301 
 BRR  HZ I        1514  6.19        10.1 0.10            149           75.1 301 
 RUS  HZ EP       1513 46.31                             146    0.5410 95.9 177 
 RUS  HN ES   1   1514  4.37                             146   -0.17 7 95.9 177 
 RUS  HZ I        1514  5.98         2.4 0.35            147           95.9 177 
 PTB  HZ EP       1513 48.56                             133   -0.74 9  149 261 
 PTB  HE ES       1514 10.46                             133   -0.36 9  149 261 
 PTB  HZ I        1514 15.81         5.5 0.22            131            149 261 
 ZAR  HN ES       1514 20.97                             123    0.12 8  208 293 
 ZAR  HZ I        1514 26.45         5.0 0.11            123            208 293 
 NOR  HZ EP   1   1513 57.67                             120   -0.04 6  234 236 
 NOR  HE ES   1   1514 26.43                             120    0.65 6  234 236 
 NOR  HZ I        1514 33.11         3.2 0.22            120            234 236 
 SML  HZ EP   1   1513 58.96                             118   -0.28 6  249 335 
 SML  HE ES   1   1514 28.57                             118    0.06 6  249 335 
 SML  HZ I        1514 31.67         6.2 0.10            119            249 335 
                                                                                
