 2010  715 1447 36.4 L   6.842 -72.990140.0  RSN  5 0.3 1.9LRSN                1
 GAP=173        0.66       4.9     7.5  6.8  0.1314E+02 -0.6917E+00 -0.2423E+01E
 Epicentro: CEPITA - SANTANDER                                                 3
 ACTION:UPD 10-12-01 15:17 OP:pat  STATUS:               ID:20100715144736 L   I
 2010-07-15-1443-42S.COL___120                                                 6
 STAT SP IPHASW D HRMM SECON CODA AMPLIT PERI AZIMU VELO AIN AR TRES W  DIS CAZ7
 BAR2 SZ EP       1447 55.73                             165     0.110   35 218 
 BAR2 SZ ES   1   1448 10.76                             165     0.1 7   35 218 
 BAR2 SZ I        1448 12.31        24.2 0.26                            35 218 
 BRR  HZ EP       1447 57.58                             147    -0.210   85 290 
 BRR  HN ES   1   1448 14.53                             147     0.1 7   85 290 
 BRR  HZ I        1448 18.27        21.7 0.07                            85 290 
 BRI  SZ EP   3   1448  0.43                             143     1.4 2   99  12 
 BRI  SZ I        1448 23.97         7.3 0.28                            99  12 
 RUS  HZ EP       1447 59.70                             141    -0.310  105 186 
 RUS  HN ES       1448 18.44                             141     0.110  105 186 
 RUS  HZ I        1448 20.10         9.8 0.42                           105 186 
 RREF HN ES   1   1449  1.65                             109     0.3 5  338 231 
 RREF HZ I        1449  7.34         5.8 0.58                           338 231 
                                                                                
