 2010  715 1135 56.2 L   6.753 -73.019133.4  RSN  6 0.7 1.4LRSN                1
 GAP=171        1.94      15.1    27.3 37.1 -0.1810E+03 -0.7961E+03  0.2138E+03E
 Epicentro: CEPITA - SANTANDER                                                 3
 ACTION:UPD 10-12-01 15:17 OP:pat  STATUS:               ID:20100715113556 L   I
 2010-07-15-1136-03S.COL___120                                                 6
 STAT SP IPHASW D HRMM SECON CODA AMPLIT PERI AZIMU VELO AIN AR TRES W  DIS CAZ7
 BRR  HZ EP       1136 15.97                             149    -1.010   86 297 
 BRR  HZ I        1136 16.28        11.6 0.25                            86 297 
 BRR  HN ES       1136 33.48                             149     0.310   86 297 
 RUS  HZ EP       1136 18.49                             144     0.110   95 184 
 RUS  HZ I        1136 38.17         3.0 0.29                            95 184 
 BRI  SZ EP       1136 19.70                             140     0.710  109  13 
 BRI  SZ I        1136 20.81         4.3 0.45                           109  13 
 GUE  SZ EP       1136 20.51                             138     0.410  120   5 
 GUE  SZ I        1136 20.73         2.2 0.12                           120   5 
 GRA  SZ EP       1136 19.90                             136    -0.610  127  11 
 GRA  SZ I        1136 21.04         6.5 0.23                           127  11 
 RREF HN ES   2   1137 20.23                             110     1.3 3  329 232 
                                                                                
