 2015 1215 1218 16.0 L   6.843 -73.139148.5  RSN 18 0.5 2.6LRSN                1
 GAP=119        1.05       2.9     3.9  5.5 -0.3030E+01  0.2796E+01  0.3780E+00E
 Epicentro: LOS SANTOS - SANTANDER                                             3
 ACTION:UPD 16-02-04 15:05 OP:cam  STATUS:               ID:20151215121816 L   I
 OLDACT:UP  15-12-15 21:49 OP:ar   STATUS:               ID:20151215120743d    3
 OLDACT:DUP 15-12-15 21:32 OP:ar   STATUS:               ID:20151215120743d    3
 2015-12-15-1207-42M.COL___330                                                 6
 STAT SP IPHASW D HRMM SECON CODA AMPLIT PERI AZIMU VELO AIN AR TRES W  DIS CAZ7
 BAR2 EZ IP     C 1218 35.90                             169   -0.1210 28.2 190 
 BAR2 EZ I        1218 51.78        61.3 0.32            165           28.2 190 
 BRR  HZ EP       1218 37.71                             153    0.3910 69.7 295 
 BRR  HN ES       1218 54.45                             153    0.4710 69.7 295 
 BRR  HZ I        1218 57.53        71.9 0.28            155           69.7 295 
 PAM  EZ EP       1218 38.73                             153    0.5110 73.2  41 
 PAM  EN ES       1218 55.74                             153    0.1410 73.2  41 
 PAM  EZ I        1218 57.75       109.3 0.48            154           73.2  41 
 RUS  HZ EP       1218 40.00                             143   -0.3210  105 177 
 RUS  HN ES       1218 59.17                             143   -0.1510  105 177 
 RUS  HZ I        1219  0.47        17.7 0.34            140            105 177 
 PTB  HZ EP       1218 42.75                             132   -0.55 9  149 257 
 PTB  HN ES       1219  3.66                             132   -0.97 9  149 257 
 PTB  HZ I        1219  4.99        28.2 0.20            132            149 257 
 OCA  HZ EP       1218 43.91                             131   -0.13 9  156 353 
 OCA  HE ES       1219  5.77                             131   -0.19 9  156 353 
 OCA  HZ I        1219  8.87        63.5 0.18            132            156 353 
 SPBC HZ EP       1218 45.17                             129    0.11 9  167 218 
 SPBC HE ES       1219  7.92                             129    0.15 9  167 218 
 SPBC HZ I        1219 14.02        33.7 0.24            128            167 218 
 ZAR  HZ EP   4   1218 50.58                             123    2.11 0  203 291 
 ZAR  HN ES   2   1219 13.75                             123   -0.08 4  203 291 
 ZAR  HZ I        1219 20.25        45.3 0.46            124            203 291 
 NOR  HZ EP       1218 52.01                             119   -0.20 8  238 234 
 NOR  HN ES   4   1219 18.70                             119   -1.79 0  238 234 
 NOR  HZ I        1219 24.46        11.4 0.48            118            238 234 
 SML  HZ EP       1218 52.95                             118    0.65 8  240 335 
 SML  HN ES       1219 20.73                             118    0.08 8  240 335 
 SML  HZ I        1219 25.18        44.5 0.10            119            240 335 
 ROSC BZ EP   9   1218 56.51                             117    1.80 0  257 211 
 ROSC BN ES       1219 26.36                             116   -0.38 8  257 211 
 ROSC BZ I        1219 31.22        33.4 0.40            116            257 211 
 HEL  HZ EP       1218 57.15                             115    0.63 8  274 255 
 HEL  HN ES       1219 28.53                             115    0.37 8  274 255 
 HEL  HZ I        1219 34.17        16.0 0.32            115            274 255 
 URE  HZ EP   4   1218 59.97                             114    2.93 0  283 291 
 URE  HE ES   2   1219 28.00                             114   -1.08 4  283 291 
 URE  HZ I        1219 36.16        20.3 0.14            114            283 291 
 SOCV BZ EP       1218 57.72                             113   -1.04 7  298  58 
 SOCV BE ES   4   1219 29.60                             113   -2.56 0  298  58 
 PTGC HZ EP   4   1218 59.15                             112   -1.26 0  313 159 
 PTGC HE ES   4   1219 31.67                             112   -3.42 0  313 159 
 PTGC HZ I        1219 55.38        19.6 0.36            111            313 159 
 PRA  HZ EP   2   1219 11.27                             107    1.17 3  397 209 
 PRA  HN ES       1219 52.72                             107    0.39 6  397 209 
 PRA  HZ I        1219 59.61        16.5 0.36            106            397 209 
 ORTC HZ EP       1219 11.23                             107    0.76 6  400 216 
 ORTC HE ES       1219 53.00                             107    0.00 6  400 216 
 ORTC HZ I        1219 58.40        10.1 0.46            106            400 216 
 SJC  HZ EP       1219 10.43                             106   -0.75 6  406 326 
 SJC  HN ES   4   1219 50.50                             106   -3.76 0  406 326 
 SJC  HZ I        1219 55.34        10.0 0.50            106            406 326 
                                                                                
