 2014 1015 1541 37.5 L   6.811 -73.154145.6  RSN 30 0.4 3.1LRSN                1
 GAP= 70        0.84       1.9     2.2  3.6 -0.3154E+00  0.1938E+01  0.1197E+01E
 Epicentro: LOS SANTOS - SANTANDER                                             3
 ACTION:UPD 14-11-29 23:50 OP:nd   STATUS:               ID:20141015154137 L   I
 OLDACT:REG 14-10-15 23:18 OP:fm   STATUS:               ID:20141015153749     3
 2014-10-15-1537-49M.COL___291                                                 6
 STAT SP IPHASW D HRMM SECON CODA AMPLIT PERI AZIMU VELO AIN AR TRES W  DIS CAZ7
 BAR2 SZ IP     D 1541 57.28                             170    0.1410 24.4 187 
 BAR2 SZ ES   1   1542 12.41                             170   -0.05 7 24.4 187 
 BAR2 SZ I        1542 13.73       587.2 0.14            168           24.4 187 
 BRR  HZ EP     C 1541 59.14                             153    0.5810 69.8 298 
 BRR  HN ES       1542 15.36                             153    0.3810 69.8 298 
 BRR  HZ I        1542 20.25       163.2 0.16            151           69.8 298 
 PAM  SZ EP       1542  0.06                             151    0.3810 77.0  41 
 PAM  SN ES       1542 16.90                             151   -0.0810 77.0  41 
 PAM  SZ I        1542 19.36       123.1 0.44            155           77.0  41 
 RUS  HZ EP     C 1542  1.09                             143   -0.2410  102 176 
 RUS  HE ES       1542 19.68                             143   -0.2410  102 176 
 RUS  HZ I        1542 21.01        70.3 0.38            144            102 176 
 PTB  HZ EP       1542  3.73                             132   -0.67 9  147 258 
 PTB  HN ES       1542 24.80                             132   -0.57 9  147 258 
 PTB  HZ I        1542 31.07       221.2 0.58            132            147 258 
 TAM  HZ EP       1542  5.50                             130    0.22 9  156 105 
 TAM  HN ES       1542 26.90                             130   -0.05 9  156 105 
 TAM  HZ I        1542 33.43        56.9 0.34            134            156 105 
 OCA  HZ EP       1542  5.86                             130    0.19 9  159 353 
 OCA  HE ES       1542 27.37                             130   -0.28 9  159 353 
 OCA  HZ I        1542 30.72       126.3 0.20            132            159 353 
 SPBC HZ EP       1542  6.16                             129    0.14 9  164 218 
 SPBC HE ES       1542 28.30                             129    0.03 9  164 218 
 SPBC HZ I        1542 32.60       219.8 0.24            129            164 218 
 ZAR  HZ EP       1542  9.94                             122    0.14 9  203 292 
 ZAR  HN ES       1542 35.20                             122    0.21 9  203 292 
 ZAR  HZ I        1542 43.76       155.9 0.36            123            203 292 
 SML  HZ EP       1542 13.73                             117   -0.22 8  242 335 
 SML  HN ES       1542 42.33                             117   -0.06 8  242 335 
 SML  HZ I        1542 44.19       113.3 0.50            119            242 335 
 CHI  HZ EP       1542 15.29                             117   -0.00 8  250 195 
 CHI  HE ES       1542 44.78                             117    0.01 8  250 195 
 CHI  HZ I        1542 50.27        66.0 0.42            118            250 195 
 ROSC BZ EP   4   1542 16.83                             116    1.15 0  253 211 
 ROSC BN ES   4   1542 46.94                             116    1.49 0  253 211 
 ROSC BZ I        1542 55.07       214.2 0.35            117            253 211 
 URE  HE ES   4   1542 47.37                             114   -2.95 0  282 292 
 URE  HZ I        1542 59.91        74.0 0.32            114            282 292 
 GUY2CHZ EP       1542 21.44                             112    0.34 7  301 234 
 GUY2CHN ES   4   1542 58.93                             112    3.83 0  301 234 
 GUY2CHZ I        1543  3.77       122.0 0.46                           301 234 
 VIL  SZ EP       1542 20.62                             112   -0.41 7  304 191 
 VIL  SN ES   1   1542 54.86                             112   -0.12 5  304 191 
 VIL  SZ I        1542 58.80        67.8 0.36            113            304 191 
 PTGC HZ EP   4   1542 20.19                             111   -1.33 0  310 159 
 PTGC HN ES   4   1542 52.70                             111   -3.16 0  310 159 
 PTGC HZ I        1542 57.21        46.2 0.40            113            310 159 
 CBOC HZ EP       1542 24.89                             110    0.54 7  333 252 
 CBOC HN ES       1543  0.29                             110   -0.60 7  333 252 
 CBOC HZ I        1543  9.51        25.0 0.42            110            333 252 
 DBB  SZ EP       1542 24.65                             109   -0.20 7  338 274 
 DBB  SZ ES   1   1543  0.94                             109   -0.84 5  338 274 
 DBB  SZ I        1543  4.02       146.9 0.58            110            338 274 
 TOL  SZ EP       1542 26.45                             109    0.67 7  344 224 
 TOL  SN ES   4   1543  4.66                             109    1.23 0  344 224 
 MON  HZ EP   4   1542 21.88                             109   -4.44 0  352 308 
 MON  HN ES   4   1543  3.06                             109   -1.34 0  352 308 
 MON  HZ I        1543  6.36        23.2 0.24            110            352 308 
 ANIL HZ EP       1542 27.88                             108    0.56 6  358 224 
 ANIL HE ES       1543  6.90                             108    0.71 6  358 224 
 ANIL HZ I        1543 18.21        15.8 0.30            109            358 224 
 SDV  BZ EP       1542 26.64                             108   -0.89 6  360  50 
 SDV  BE ES   4   1543  2.94                             108   -3.61 0  360  50 
 PRA  HZ EP       1542 30.72                             106   -0.37 6  393 209 
 PRA  HN ES       1543 12.14                             106   -0.74 6  393 209 
 PRA  HZ I        1543 19.70        90.7 0.26            107            393 209 
 ORTC HZ EP       1542 31.33                             106   -0.14 6  396 216 
 ORTC HN ES       1543 14.18                             106    0.62 6  396 216 
 ORTC HZ I        1543 21.13        55.2 0.50            107            396 216 
 PAL  HZ EP       1542 32.89                             106    0.26 6  406 239 
 PAL  HN ES   4   1543 14.16                             106   -1.48 0  406 239 
 PAL  HZ I        1543 21.64        30.8 0.36            107            406 239 
 SJC  HZ EP   4   1542 31.49                             106   -1.38 0  408 327 
 SJC  HN ES   4   1543 11.74                             106   -4.33 0  408 327 
 SJC  HZ I        1543 27.33        13.3 0.58            107            408 327 
 SOL  SN ES   4   1543  6.97                             103   -23.1 0  475 262 
 SMAR HZ EP   4   1542 41.73                             102   -1.47 0  496 346 
 SMAR HN ES   4   1543 29.90                             102   -4.54 0  496 346 
 SMAR HZ I        1543 36.95        14.8 0.20            103            496 346 
 CAP2 HZ EP   1   1542 44.40                             102   -0.10 3  506 294 
 CAP2 HE ES   4   1543 28.67                             102   -8.08 0  506 294 
 CAP2 HZ I        1543 40.93         8.0 0.60            103            506 294 
 MACC HZ EP   4   1542 44.14                             101   -2.20 0  522 189 
 MACC HN ES   4   1543 35.66                             101   -4.37 0  522 189 
 MACC HZ I        1543 42.53        11.8 0.66            102            522 189 
 GARC HZ EP   4   1542 50.45                             100   -2.38 0  573 207 
 GARC HE ES   4   1543 46.27                             100   -5.32 0  573 207 
 GARC HZ I        1543 50.11        14.9 0.20            101            573 207 
                                                                                
