 2017  115 1132 39.4 L   6.764 -73.108142.7  RSN  4 0.1 0.9LRSN                1
 GAP=143        0.37       2.0     2.9  3.1 -0.9922E-01 -0.6246E+00  0.7052E-01E
 Epicentro: LOS SANTOS - SANTANDER                                             3
 ACTION:UPD 17-05-22 15:59 OP:jn   STATUS:               ID:20170115113239 L   I
 OLDACT:REG 17-01-15 20:08 OP:dani STATUS:               ID:20170115112741     3
 2017-01-15-1128-00M.COL___335                                                 6
 STAT SP IPHASW D HRMM SECON CODA AMPLIT PERI AZIMU VELO AIN AR TRES W  DIS CAZ7
 BAR2 EZ ES       1133 13.59                             171    0.0110 20.6 203 
 BRR  HZ EP       1133  0.43                             150   -0.1010 76.8 300 
 BRR  HN ES     D 1133 17.08                             150    0.0510 76.8 300 
 PAM  EZ EP       1133  1.24                             150   -0.0810 78.1  35 
 PAM  EE ES       1133 18.46                             150    0.0410 78.1  35 
 PAM  EZ I        1133 20.18         2.1 0.39            150           78.1  35 
 RUS  HZ EP       1133  2.72                             144    0.1910 96.4 178 
 RUS  HN ES       1133 20.47                             144   -0.1110 96.4 178 
 RUS  HZ I        1133 21.60         1.1 0.27            145           96.4 178 
                                                                                
