 2017 1115 1659 25.6 L   6.857 -73.304112.9  RSN  9 0.4 1.6LRSN                1
 GAP=110        0.91       3.3     3.0  5.3  0.1906E+01  0.8406E+00  0.1520E+01E
 Epicentro: BETULIA - SANTANDER                                                3
 ACTION:UPD 17-12-12 19:55 OP:rebc STATUS:               ID:20171115165925 L   I
 OLDACT:REG 17-11-15 21:40 OP:lv   STATUS:               ID:20171115165737     3
 2017-11-15-1658-00M.COL___453                                                 6
 STAT SP IPHASW D HRMM SECON CODA AMPLIT PERI AZIMU VELO AIN AR TRES W  DIS CAZ7
 BAR2 EZ IP     C 1659 41.40                             163   -0.1510 32.3 155 
 BAR2 EZ ES       1659 54.03                             163    0.0210 32.3 155 
 BRR  HZ EP       1659 41.80                             153   -0.3410 52.8 302 
 BRR  HN ES       1659 54.93                             153   -0.1310 52.8 302 
 BRR  HZ I        1659 56.84        19.2 0.10            151           52.8 302 
 PAM  EZ EP       1659 44.82                             140   -0.2110 85.5  51 
 PAM  EN ES       17 0  0.55                             140    0.3510 85.5  51 
 PAM  EZ I        17 0  3.33        11.0 0.32            142           85.5  51 
 RUS  HZ EP       1659 46.44                             133   -0.6110  109 167 
 RUS  HN ES       17 0  3.79                             133    0.0010  109 167 
 RUS  HZ I        17 0  5.00         2.9 0.72            135            109 167 
 PTB  HZ EP   9   1659 46.68                             127   -1.85 0  132 255 
 PTB  HN ES       17 0  4.20                                   -0.3810  132 255 
 PTB  HZ I        17 0  9.85         5.7 0.12            127            132 255 
 TAM  HZ EP       1659 53.37                             118    0.52 9  174 105 
 ZAR  HZ EP       1659 53.74                             117   -0.33 9  185 292 
 ZAR  HN ES       17 0 16.93                             117    0.64 9  185 292 
 ZAR  HZ I        17 0 21.20        11.0 0.44            117            185 292 
 YPLC HZ ES       17 0 17.79                             116    0.22 9  191 148 
 NOR  HN ES       17 0 24.52                             112    0.35 8  225 231 
 NOR  HZ I        17 0 25.79         3.1 0.74            112            225 231 
                                                                                
