 2016 1015 1830  0.5 L   6.779 -73.123142.9  RSN  9 0.5 1.5LRSN                1
 GAP=140        1.19       5.0     4.8  8.0 -0.4138E+01  0.1083E+02  0.7286E+01E
 Epicentro: LOS SANTOS - SANTANDER                                             3
 ACTION:UPD 16-11-09 19:19 OP:rebc STATUS:               ID:20161015183000 L   I
 OLDACT:UP  16-10-15 21:38 OP:dnl  STATUS:               ID:20161015182735     3
 OLDACT:REG 16-10-15 20:38 OP:dnl  STATUS:               ID:20161015182735     3
 2016-10-15-1828-00M.COL___364                                                 6
 STAT SP IPHASW D HRMM SECON CODA AMPLIT PERI AZIMU VELO AIN AR TRES W  DIS CAZ7
 BAR2 EZ EP       1830 19.73                             171   -0.0110 21.7 197 
 BAR2 EZ ES       1830 35.06                             171    0.3010 21.7 197 
 BAR2 EZ I        1830 38.76         4.3 0.18            168           21.7 197 
 BRR  HZ EP   3   1830 21.61                             151    0.09 2 74.5 299 
 BRR  HN ES       1830 38.33                             151    0.4110 74.5 299 
 PAM  EZ EP       1830 22.58                             150    0.1610 77.6  37 
 PAM  EN ES       1830 39.59                             150    0.0810 77.6  37 
 PAM  EZ I        1830 40.12         5.3 0.20            157           77.6  37 
 RUS  HZ EP       1830 23.90                             144    0.1210 98.2 177 
 RUS  HE ES       1830 41.14                             144   -0.8110 98.2 177 
 RUS  HZ I        1830 45.24         1.6 0.40            145           98.2 177 
 PTB  HZ EP       1830 26.55                             131   -0.86 9  150 260 
 PTB  HN ES       1830 47.52                             131   -0.88 9  150 260 
 PTB  HZ I        1830 50.06         4.4 0.12            132            150 260 
 SPBC HZ EP       1830 29.12                             128    0.37 9  163 220 
 SPBC HE ES       1830 51.39                             128    0.59 9  163 220 
 SPBC HZ I        1831  1.91         5.5 0.12            129            163 220 
 ZAR  HE ES       1830 58.37                             121   -0.12 8  207 292 
 ZAR  HZ I        1831  5.00         5.1 0.28            123            207 292 
 NOR  HZ EP   2   1830 36.29                             118    0.16 4  235 235 
 NOR  HN ES       1831  4.08                             118    0.15 8  235 235 
 NOR  HZ I        1831  7.74         3.5 0.18            119            235 235 
 GUY2CHZ EP   4   1830 45.57                             112    1.52 0  302 235 
 GUY2CHN ES       1831 18.85                             112    0.83 7  302 235 
 GUY2CHZ I        1831 28.21         1.9 0.62                           302 235 
                                                                                
