 2013  915 1757  4.5 L   6.819 -73.160148.9  RSN 14 0.4 3.0LRSN 3.3WRSN        1
 SPEC AVERAGE  MO 14.1 ST 88.9 OM  2.6 f0 7.47 R0.2790 AL 0.00 WI 32.7 MW  3.3 3
 SPEC SD       MO  0.1 ST 65.4 OM  0.3 f0 3.02 R0.1918 AL      WI      MW  0.1 3
 GAP= 70        0.97       2.9     3.4  4.7 -0.1467E+01  0.1744E+01  0.1188E+01E
 Epicentro: LOS SANTOS - SANTANDER                                             3
 SPEC NOR HH N MO 14.0 ST128.3 OM  2.2 f0 10.0 R0.1554 AL 0.00 WI 29.9 MW  3.3 3
 SPEC NOR HH N T1758 7 K 0.000 GD  278 VS 4.20 DE 3.20 Q0300.0 QA 0.60 VS 4.20 3
 SPEC ZAR HH N MO 14.1 ST145.8 OM  2.3 f0 10.0 R0.1554 AL 0.00 WI 31.1 MW  3.3 3
 SPEC ZAR HH N T1758 1 K 0.000 GD  250 VS 4.20 DE 3.20 Q0300.0 QA 0.60 VS 4.20 3
 SPEC SPBCHH N MO 14.1 ST162.0 OM  2.4 f0 10.0 R0.1554 AL 0.00 WI 27.6 MW  3.4 3
 SPEC SPBCHH N T175754 K 0.000 GD  221 VS 4.20 DE 3.20 Q0300.0 QA 0.60 VS 4.20 3
 SPEC OCA HH N MO 14.3 ST155.1 OM  2.6 f0 8.51 R0.1826 AL 0.00 WI 38.7 MW  3.5 3
 SPEC OCA HH N T175753 K 0.000 GD  217 VS 4.20 DE 3.20 Q0300.0 QA 0.60 VS 4.20 3
 SPEC PTB HH N MO 14.0 ST 16.0 OM  2.3 f0 5.09 R0.3053 AL 0.00 WI 35.2 MW  3.3 3
 SPEC PTB HH N T175749 K 0.000 GD  209 VS 4.20 DE 3.20 Q0300.0 QA 0.60 VS 4.20 3
 SPEC RUS HH N MO 14.0 ST  7.0 OM  2.3 f0 4.06 R0.3828 AL 0.00 WI 29.4 MW  3.2 3
 SPEC RUS HH N T175747 K 0.000 GD  181 VS 4.20 DE 3.20 Q0300.0 QA 0.60 VS 4.20 3
 SPEC PAM SH N MO 14.1 ST  1.4 OM  2.5 f0 2.10 R0.7400 AL 0.00 WI 31.7 MW  3.4 3
 SPEC PAM SH N T175743 K 0.000 GD  167 VS 4.20 DE 3.20 Q0300.0 QA 0.60 VS 4.20 3
 SPEC BRR HH N MO 13.9 ST 95.3 OM  2.3 f0 10.0 R0.1554 AL 0.00 WI 38.2 MW  3.2 3
 SPEC BRR HH N T175742 K 0.000 GD  164 VS 4.20 DE 3.20 Q0300.0 QA 0.60 VS 4.20 3
 ACTION:UPD 13-10-22 09:22 OP:ep   STATUS:               ID:20130915175704 L   I
 OLDACT:UP  13-09-15 16:14 OP:cam  STATUS:               ID:20130915174959     3
 OLDACT:REG 13-09-15 14:51 OP:cam  STATUS:               ID:20130915174959     3
 2013-09-15-1749-59M.COL___269                                                 6
 STAT SP IPHASW D HRMM SECON CODA AMPLIT PERI AZIMU VELO AIN AR TRES W  DIS CAZ7
 BAR2 SZ EP     C 1757 24.49                             170   -0.0810 25.2 186 
 BAR2 SZ ES       1757 39.92                             170   -0.2910 25.2 186 
 BAR2 SZ I        1757 40.64       228.2 0.22            174           25.2 186 
 BRR  HZ EP       1757 26.24                             154    0.3610 68.8 298 
 BRR  HN ES       1757 43.51                             154    0.9710 68.8 298 
 BRR  HZ I        1757 44.31       121.4 0.16            146           68.8 298 
 PAM  SZ EP       1757 27.31                             152    0.2710 76.8  41 
 PAM  SN ES       1757 44.61                             152    0.0010 76.8  41 
 PAM  SZ I        1757 46.51       196.4 0.46            145           76.8  41 
 RUS  HZ EP       1757 28.42                             144   -0.3310  103 175 
 RUS  HN ES       1757 47.57                             144   -0.0710  103 175 
 RUS  HZ I        1757 48.11       146.7 0.26            145            103 175 
 PTB  HZ EP       1757 30.93                             133   -0.72 9  147 258 
 PTB  HN ES       1757 52.13                             133   -0.68 9  147 258 
 PTB  HZ I        1757 59.06       120.2 0.50            128            147 258 
 TAM  HZ IP     D 1757 32.85                             131    0.20 9  157 106 
 OCA  HZ EP       1757 32.62                             131   -0.25 9  158 354 
 OCA  HN ES       1757 54.50                             131   -0.48 9  158 354 
 OCA  HZ I        1757 57.77        83.3 0.18            124            158 354 
 SPBC HZ EP       1757 33.41                             130    0.08 9  164 218 
 SPBC HN ES       1757 55.71                             130   -0.08 9  164 218 
 ZAR  HZ EP   1   1757 37.08                             123    0.14 6  202 292 
 ZAR  HN ES       1758  2.13                             123   -0.10 9  202 292 
 ZAR  HZ I        1758  7.72        86.1 0.36            117            202 292 
 NOR  HZ EP       1757 40.54                             119    0.11 8  235 234 
 NOR  HN ES       1758  9.07                             119    0.63 8  235 234 
 NOR  HZ I        1758 10.97        70.1 0.16            115            235 234 
 SML  HZ EP       1757 41.33                             118    0.28 8  241 335 
 SML  HZ I        1758 16.57       117.5 0.10            113            241 335 
 CHI  HZ EP       1757 42.69                             118    0.12 8  250 195 
 URE  HZ EP   4   1757 45.09                             114   -0.40 0  282 292 
 GUY2CHZ EP       1757 48.40                             113    0.13 7  301 234 
 VIL  SZ EP   1   1757 48.41                             112    0.13 5  305 191 
                                                                                
