 2016 1215 1350  2.3 L   6.780 -73.165144.3  RSN  8 0.4 1.8LRSN                1
 GAP=135        1.04       4.5     5.1  6.6 -0.2908E+01  0.5869E+01  0.8135E+01E
 Epicentro: LOS SANTOS - SANTANDER                                             3
 ACTION:UPD 17-01-11 20:15 OP:rebc STATUS:               ID:20161215135002 L   I
 OLDACT:REG 16-12-15 22:16 OP:ar   STATUS:               ID:20161215134644     3
 2016-12-15-1347-00M.COL___349                                                 6
 STAT SP IPHASW D HRMM SECON CODA AMPLIT PERI AZIMU VELO AIN AR TRES W  DIS CAZ7
 BAR2 EZ EP       1350 21.51                             171   -0.2010 20.9 185 
 BAR2 EZ ES       1350 36.19                             171   -0.6610 20.9 185 
 BAR2 EZ I        1350 37.36        16.3 0.38            170           20.9 185 
 BRR  HZ EP       1350 23.41                             153    0.1610 70.4 301 
 BRR  HE ES       1350 40.43                             153    0.8410 70.4 301 
 PAM  HZ EP       1350 24.57                             150    0.0210 80.4  40 
 PAM  HN ES       1350 41.85                             150   -0.0510 80.4  40 
 PAM  HZ I        1350 43.72        10.4 0.50            152           80.4  40 
 RUS  HZ EP       1350 25.58                             144   -0.1910 98.6 175 
 RUS  HN ES       1350 44.31                             144    0.2410 98.6 175 
 RUS  HZ I        1350 45.16         6.4 0.28            143           98.6 175 
 PTB  HZ EP       1350 28.68                             132   -0.24 9  145 260 
 PTB  HN ES       1350 49.37                             132   -0.31 9  145 260 
 PTB  HZ I        1350 51.03         9.2 0.40            132            145 260 
 NOR  HZ EP       1350 37.14                             118   -0.48 8  232 235 
 NOR  HN ES   2   1351  4.84                             118   -0.33 4  232 235 
 NOR  HZ I        1351 10.16         4.3 0.24            118            232 235 
 CHI  HZ EP       1350 40.38                             117    0.75 8  246 195 
 CHI  HN ES       1351  9.11                             117    0.36 8  246 195 
 CHI  HZ I        1351 12.40         5.2 0.56            117            246 195 
 GUY2CHZ EP   4   1350 47.06                             112    1.56 0  298 235 
 GUY2CHN ES   4   1351 21.98                             112    2.78 0  298 235 
 GUY2CHZ I        1351 27.60         4.3 0.36                           298 235 
                                                                                
