 2013 1215 1425 39.4 L   6.802 -73.137147.7  RSN  7 0.4 1.9LRSN                1
 GAP=137        0.88       4.5     6.4  6.4 -0.4222E+01  0.1207E+02 -0.2926E+01E
 Epicentro: LOS SANTOS - SANTANDER                                             3
 ACTION:UPD 14-01-13 10:18 OP:ep   STATUS:               ID:20131215142539 L   I
 OLDACT:UP  13-12-15 18:44 OP:cam  STATUS:               ID:20131215142000     3
 OLDACT:REG 13-12-15 14:35 OP:cam  STATUS:               ID:20131215142000     3
 2013-12-15-1420-00M.COL___285                                                 6
 STAT SP IPHASW D HRMM SECON CODA AMPLIT PERI AZIMU VELO AIN AR TRES W  DIS CAZ7
 BAR2 SZ EP       1425 59.09                             170   -0.1810 23.8 192 
 BAR2 SZ ES       1426 14.24                             170   -0.5310 23.8 192 
 BAR2 SZ I        1426 15.57        37.1 0.20            171           23.8 192 
 BRR  HZ EP       1426  1.03                             152    0.2410 71.9 298 
 BRR  HE ES       1426 18.16                             152    0.6810 71.9 298 
 BRR  HZ I        1426 21.24        15.8 0.30            152           71.9 298 
 PAM  SN ES   2   1426 19.24                             151    0.02 5 76.6  39 
 RUS  HZ EP   2   1426  3.56                             144    0.21 5  101 177 
 RUS  HN ES   2   1426 22.07                             144    0.03 5  101 177 
 RUS  HZ I        1426 22.65         5.5 0.22            147            101 177 
 PTB  HN ES   2   1426 27.08                             132   -0.75 5  149 259 
 NOR  HZ EP       1426 15.67                             119    0.34 8  236 235 
 NOR  HE ES       1426 43.22                             119   -0.15 8  236 235 
 SML  HZ EP       1426 16.18                             118    0.04 8  244 335 
 SML  HN ES   1   1426 44.06                             118   -0.75 6  244 335 
                                                                                
