 2017 1015 1824 52.7 L   6.623 -73.249143.0  RSN  4 0.2 1.0LRSN                1
 GAP=158        0.57       4.3     4.1  4.6  0.8340E+01  0.3486E+01  0.1661E+01E
 Epicentro: BARICHARA - SANTANDER                                              3
 ACTION:UPD 17-11-07 19:32 OP:rebc STATUS:               ID:20171015182452 L   I
 OLDACT:UP  17-10-16 00:39 OP:mg   STATUS:               ID:20171015181205     3
 OLDACT:UP  17-10-16 00:38 OP:mg   STATUS:               ID:20171015181205     3
 OLDACT:REG 17-10-15 20:57 OP:mg   STATUS:               ID:20171015181205     3
 2017-10-15-1818-00M.COL___435                                                 6
 STAT SP IPHASW D HRMM SECON CODA AMPLIT PERI AZIMU VELO AIN AR TRES W  DIS CAZ7
 BAR2 EZ EP       1825 11.51                             177   -0.3110 8.14 115 
 BAR2 EZ ES       1825 26.84                             177    0.1310 8.14 115 
 BAR2 EZ I        1825 27.66         2.6 0.17            174           8.14 115 
 BRR  HZ EP       1825 13.60                             151   -0.1510 74.0 316 
 BRR  HN ES       1825 30.26                             151    0.1210 74.0 316 
 BRR  HZ I        1825 34.61         2.6 0.26            150           74.0 316 
 RUS  HZ EP       1825 15.14                             149    0.1410 82.8 167 
 RUS  HN ES       1825 32.31                             149   -0.0510 82.8 167 
 RUS  HZ I        1825 34.97         1.8 0.31            150           82.8 167 
 PTB  HZ EP       1825 18.57                             134    0.3410  134 266 
 PTB  HN ES       1825 37.91                             134   -0.2110  134 266 
 PTB  HZ I        1825 44.62         1.4 0.23            133            134 266 
                                                                                
