 2010  315 1009 24.0 L   6.328 -73.602110.0  RSN  4 0.3 1.2LRSN                1
 GAP=136        0.60       4.9     5.8  9.1  0.9010E+01  0.3416E+02  0.6484E+01E
 Epicentro: SANTA HELENA DEL OPON - SANTANDER                                  3
 ACTION:UP  10-08-24 09:54 OP:vdl  STATUS:               ID:20100315100924 L   I
 2010-03-15-1005-04S.COL___095                                                 6
 STAT SP IPHASW D HRMM SECON CODA AMPLIT PERI AZIMU VELO SNR AR TRES W  DIS CAZ7
 BAR2 SZ IP       10 9 40.79                             152     0.110   55  58 
 BAR2 SZ ES   1   10 9 54.04                             152     0.3 7   55  58 
 RUS  HZ EP   1   10 9 42.16                             144    -0.2 7   75 130 
 RUS  HE ES   1   10 9 56.55                             144    -0.1 7   75 130 
 RUS  HZ I        10 9 58.95         1.6 0.28                            75 130 
 BRR  HZ IP       10 9 42.44                             139    -0.210   87 352 
 BRR  HZ I        10 9 42.64         5.8 0.12                            87 352 
 BRR  HN ES   2   10 9 56.76                             139    -0.4 5   87 352 
 HEL  HZ EP   2   10 9 56.61                             112     0.7 4  214 266 
 HEL  HZ I        10 9 57.49         1.9 0.56                           214 266 
 HEL  HN ES   2   1010 20.79                             112     0.0 4  214 266 
                                                                                
