 2015  515 1722 28.4 L   6.820 -73.134146.1  RSN 13 0.3 2.6LRSN                1
 GAP=137        0.62       1.6     2.6  3.2 -0.1038E+01  0.3207E+01  0.1442E+00E
 Epicentro: LOS SANTOS - SANTANDER                                             3
 ACTION:UPD 15-09-10 22:04 OP:cam  STATUS:               ID:20150515172228 L   I
 OLDACT:UP  15-05-16 00:05 OP:drio STATUS:               ID:20150515171748     3
 OLDACT:UP  15-05-16 00:04 OP:drio STATUS:               ID:20150515171748     3
 OLDACT:REG 15-05-15 20:40 OP:drio STATUS:               ID:20150515171748     3
 2015-05-15-1717-48M.COL___282                                                 6
 STAT SP IPHASW D HRMM SECON CODA AMPLIT PERI AZIMU VELO AIN AR TRES W  DIS CAZ7
 BAR2 EZ EP       1722 48.08                             170   -0.0810 25.8 192 
 BAR2 EZ ES       1723  3.47                             170   -0.0710 25.8 192 
 BAR2 EZ I        1723  5.65        63.2 0.28            167           25.8 192 
 BRR  HZ EP       1722 49.93                             153    0.3010 71.3 296 
 BRR  HZ I        1722 50.05        28.9 0.26            148           71.3 296 
 BRR  HN ES       1723  6.24                             153    0.0910 71.3 296 
 PAM  SZ EP       1722 51.01                             152    0.4810 74.8  40 
 PAM  SZ I        1722 51.14        87.2 0.22            156           74.8  40 
 PAM  SN ES       1723  7.72                             152   -0.0510 74.8  40 
 RUS  HZ EP       1722 52.12                             143   -0.2510  103 177 
 RUS  HN ES       1723 10.90                             143   -0.1410  103 177 
 RUS  HZ I        1723 11.90        18.1 0.42            146            103 177 
 OCA  HZ EP       1722 56.52                             130   -0.06 9  158 353 
 OCA  HN ES       1723 18.78                             130    0.25 9  158 353 
 OCA  HZ I        1723 23.37        60.8 0.36            131            158 353 
 SPBC HZ EP       1722 57.18                             129   -0.02 9  166 219 
 SPBC HN ES       1723 19.58                             129   -0.06 9  166 219 
 SPBC HZ I        1723 26.12        53.5 0.36            129            166 219 
 ZAR  HZ EP       1723  0.84                             122   -0.10 9  204 291 
 ZAR  HN ES       1723 26.34                             122    0.04 9  204 291 
 ZAR  HZ I        1723 36.65        29.5 0.36            122            204 291 
 NOR  HZ EP       1723  4.42                             118   -0.02 8  237 234 
 NOR  HN ES       1723 32.13                             118   -0.39 8  237 234 
 NOR  HZ I        1723 35.72        23.6 0.36            119            237 234 
 SML  HZ EP       1723  4.60                             118   -0.32 8  242 335 
 SML  HN ES       1723 32.88                             118   -0.50 8  242 335 
 SML  HZ I        1723 40.67        44.6 0.26            118            242 335 
 HEL  HN ES   4   1723 42.15                             115    1.75 0  274 255 
 HEL  HZ I        1723 46.73        13.2 0.36            115            274 255 
 GUY2CHZ EP       1723 12.50                             112    0.17 7  304 235 
 GUY2CHN ES       1723 46.90                             112    0.34 7  304 235 
 GUY2CHZ I        1723 54.95        22.5 0.76                           304 235 
 ANIL HZ EP       1723 18.82                             108    0.27 6  360 224 
 ANIL HE ES       1723 57.90                             108    0.27 6  360 224 
 ANIL HZ I        1724  2.00        33.0 0.42            109            360 224 
 ORTC HZ EP       1723 22.07                             106   -0.60 6  398 216 
 ORTC HN ES       1724  5.51                             106    0.54 6  398 216 
 ORTC HZ I        1724 11.32         9.8 0.38            107            398 216 
                                                                                
