 2010  715 1733 12.9 L   6.783 -73.153145.1  RSN  6 0.4 1.6LRSN                1
 GAP=155        1.09      12.2    22.8 33.2 -0.4173E+02  0.1316E+02 -0.3307E+03E
 Epicentro: LOS SANTOS - SANTANDER                                             3
 ACTION:UPD 10-12-01 15:17 OP:pat  STATUS:               ID:20100715173312 L   I
 2010-07-15-1729-27S.COL___119                                                 6
 STAT SP IPHASW D HRMM SECON CODA AMPLIT PERI AZIMU VELO AIN AR TRES W  DIS CAZ7
 BAR2 SZ EP   2   1733 33.12                             171     0.7 5   21 189 
 BAR2 SZ I        1733 50.08        11.9 1.16                            21 189 
 BRR  HZ EP   1   1733 33.99                             152     0.0 8   71 300 
 BRR  HZ I        1733 34.38        23.5 0.43                            71 300 
 RUS  HZ EP   1   1733 36.36                             144    -0.1 8   99 176 
 RUS  HN ES   1   1733 54.80                             144     0.0 8   99 176 
 RUS  HZ I        1733 55.94         2.2 0.14                            99 176 
 BRI  SZ EP       1733 36.79                             141    -0.110  110  21 
 BRI  SZ I        1733 37.41         7.0 1.30                           110  21 
 GUE  SZ EP       1733 37.27                             139    -0.410  118  12 
 GUE  SZ I        1733 37.80         3.6 0.13                           118  12 
 GRA  SZ EP   1   1733 39.05                             136     0.8 7  128  18 
 GRA  SZ I        1733 40.34         8.1 0.21                           128  18 
                                                                                
