 2015  615 1226 19.8 L   6.786 -73.120147.8  RSN 20 0.6 2.5LRSN                1
 GAP=140        1.18       2.7     4.4  5.4 -0.2626E+01  0.7975E+01  0.2303E+01E
 Epicentro: LOS SANTOS - SANTANDER                                             3
 ACTION:UPD 15-09-10 22:12 OP:cam  STATUS:               ID:20150615122619 L   I
 OLDACT:REG 15-06-15 20:31 OP:stll STATUS:               ID:20150615121749     3
 2015-06-15-1217-49M.COL___312                                                 6
 STAT SP IPHASW D HRMM SECON CODA AMPLIT PERI AZIMU VELO AIN AR TRES W  DIS CAZ7
 BAR2 EZ IP     D 1226 39.73                             171    0.1110 22.6 198 
 BAR2 EZ ES       1226 54.84                             171   -0.2710 22.6 198 
 BAR2 EZ I        1226 57.67        46.3 0.24            168           22.6 198 
 BRR  HZ IP     D 1226 41.80                             152    0.4910 74.4 299 
 BRR  HZ I        1226 41.85        51.9 0.20            148           74.4 299 
 BRR  HE ES       1226 58.87                             152    0.7510 74.4 299 
 PAM  SZ EP     C 1226 42.69                             151    0.5310 76.8  37 
 PAM  SN ES       1226 59.28                             151   -0.3510 76.8  37 
 PAM  SZ I        1227  1.95        55.1 0.56            155           76.8  37 
 RUS  HZ EP     D 1226 43.56                             145   -0.0310 98.9 178 
 RUS  HZ I        1226 44.69        15.8 0.48            146           98.9 178 
 RUS  HE ES       1227  2.07                             145   -0.1110 98.9 178 
 OCA  HZ EP       1226 48.11                             130   -0.29 9  162 352 
 OCA  HN ES       1227 10.84                             130    0.10 9  162 352 
 OCA  HZ I        1227 15.35        65.3 0.68            130            162 352 
 SPBC HZ EP       1226 48.54                             129    0.07 9  164 220 
 SPBC HN ES       1227 10.67                             129   -0.20 9  164 220 
 SPBC HZ I        1227 14.09        57.3 0.12            129            164 220 
 ZAR  HZ EP       1226 52.24                             122   -0.42 8  207 292 
 ZAR  HN ES       1227 18.61                             122    0.28 8  207 292 
 NOR  HZ EP       1226 55.55                             119   -0.21 8  236 235 
 NOR  HN ES       1227 23.56                             119   -0.28 8  236 235 
 NOR  HZ I        1227 28.56        19.7 0.24            118            236 235 
 SML  HZ EP       1226 55.98                             118   -0.79 8  246 335 
 SML  HN ES       1227 24.76                             118   -0.88 8  246 335 
 SML  HZ I        1227 36.17        35.2 0.22            118            246 335 
 CHI  HZ EP       1226 57.20                             118   -0.29 8  248 196 
 CHI  HN ES       1227 26.80                             118   -0.13 8  248 196 
 CHI  HZ I        1227 34.80        13.3 0.60            118            248 196 
 ROSC BZ EP       1226 58.28                             117    0.27 8  253 212 
 ROSC BE ES       1227 28.34                             117    0.49 8  253 212 
 ROSC BZ I        1227 37.30        22.2 0.40            117            253 212 
 HEL  HZ EP       1227  0.27                             115   -0.07 8  274 256 
 HEL  HE ES       1227 32.43                             115    0.44 8  274 256 
 HEL  HZ I        1227 39.39        16.0 0.24            115            274 256 
 URE  HZ EP   4   1226 59.79                             114   -1.49 0  287 292 
 URE  HN ES   4   1227 31.19                             114   -2.48 0  287 292 
 URE  HZ I        1227 44.09        18.8 0.16            113            287 292 
 GUY2CHZ EP       1227  4.49                             113    0.87 7  303 235 
 GUY2CHE ES       1227 37.68                             113   -0.16 7  303 235 
 GUY2CHZ I        1227 44.61        16.0 0.32                           303 235 
 CBOC HZ EP       1227  6.62                             110   -0.39 7  336 252 
 CBOC HN ES   4   1227 40.65                             110   -3.22 0  336 252 
 CBOC HZ I        1227 49.10         5.5 0.22            110            336 252 
 TOL  SZ EP       1227  9.28                             110    1.08 7  344 225 
 TOL  SN ES       1227 44.59                             110   -1.40 7  344 225 
 TOL  SZ I        1227 51.62        12.1 0.74            110            344 225 
 MON  HZ EP   9   1227  6.79                             109   -2.41 0  357 308 
 MON  HZ I        1227 14.39         6.9 0.36            109            357 308 
 MON  HN ES       1227 45.28                                   -0.08 6  357 308 
 ANIL HZ EP       1227 11.27                             109    1.52 6  358 225 
 ANIL HE ES       1227 49.08                             109    0.34 6  358 225 
 ANIL HZ I        1228  4.09        25.9 0.34            109            358 225 
 PRA  HZ EP     C 1227 13.33                             107   -0.03 6  392 210 
 PRA  HN ES       1227 54.36                             107   -0.81 6  392 210 
 PRA  HZ I        1227 58.74         8.8 0.60            107            392 210 
 ORTC HZ EP       1227 14.21                             107    0.41 6  396 217 
 ORTC HE ES       1227 54.58                             107   -1.38 6  396 217 
 ORTC HZ I        1228  2.99         8.3 0.60            107            396 217 
                                                                                
