 2013  515 1413 25.2 L   6.835 -73.139143.6  RSN  6 0.5 1.6LRSN                1
 GAP=202        1.05       5.1     7.2 10.6  0.9874E+01 -0.2099E+01 -0.8683E+00E
 Epicentro: LOS SANTOS - SANTANDER                                             3
 ACTION:UPD 13-06-20 09:50 OP:ep   STATUS:               ID:20130515141325 L   I
 2013-05-15-1410-00M.COL___256                                                 6
 STAT SP IPHASW D HRMM SECON CODA AMPLIT PERI AZIMU VELO AIN AR TRES W  DIS CAZ7
 BRR  HZ EP       1413 46.93                             153    0.8410 70.1 295 
 BRR  HN ES   1   1414  2.68                             153    0.33 7 70.1 295 
 BRR  HZ I        1414  7.76        12.4 0.32            151           70.1 295 
 RUS  HZ EP       1413 48.94                             142   -0.1210  104 177 
 RUS  HN ES   1   1414  7.30                             142   -0.34 7  104 177 
 RUS  HZ I        1414  9.05         2.0 0.16            144            104 177 
 PTB  HZ EP       1413 52.05                             131   -0.12 9  149 257 
 PTB  HN ES       1414 12.63                             131   -0.54 9  149 257 
 PTB  HZ I        1414 18.86         6.0 0.32            132            149 257 
 ZAR  HN ES   1   1414 22.90                             122    0.30 6  203 291 
 NOR  HZ EP       1414  1.00                             118   -0.15 8  238 234 
 NOR  HE ES   1   1414 29.73                             118    0.57 6  238 234 
 NOR  HZ I        1414 36.20         3.2 0.26            120            238 234 
 SML  HE ES       1414 28.98                             117   -0.61 8  240 335 
                                                                                
