 2012  215 1130 57.7 L   6.855 -73.210140.7  RSN  4 0.1 1.2LRSN                1
 GAP=190        0.34       3.0     8.0  4.4 -0.1280E+02  0.8390E+01 -0.6110E+00E
 ACTION:UP  12-03-07 16:30 OP:epov STATUS:               ID:20120215113057 L   I
 2012-02-15-1130-00M.COL___188                                                 6
 STAT SP IPHASW D HRMM SECON CODA AMPLIT PERI AZIMU VELO AIN AR TRES W  DIS CAZ7
 GIR2 SZ EP   1   1131 16.68                             169    0.05 7 24.8   4 
 GIR2 SZ ES   2   1131 31.11                             169   -0.27 5 24.8   4 
 BAR2 SZ EP   1   1131 16.84                             168   -0.04 7 29.2 174 
 BAR2 SZ I        1131 17.12         3.0 0.10                          29.2 174 
 BAR2 SZ ES   2   1131 32.21                             168    0.38 5 29.2 174 
 PAM  SZ EP   1   1131 19.49                             150    0.07 7 77.7  46 
 PAM  SZ I        1131 19.59         3.9 0.17                          77.7  46 
 PAM  SN ES   1   1131 36.32                             150   -0.03 7 77.7  46 
 RUS  HZ EP   1   1131 21.47                             141   -0.02 7  107 173 
 RUS  HN ES   1   1131 39.95                             141   -0.08 7  107 173 
                                                                                
