 2015  515 1235 11.8 L   6.659 -72.966119.0  RSN  4 0.4 1.7LRSN                1
 GAP=206        1.09       7.3     8.2 10.1 -0.3467E+02 -0.1329E+01  0.9317E+01E
 Epicentro: ARATOCA - SANTANDER                                                3
 ACTION:UPD 15-09-10 22:04 OP:cam  STATUS:               ID:20150515123511 L   I
 OLDACT:UP  15-05-19 15:07 OP:cam  STATUS:               ID:20150515123511 L   3
 OLDACT:UP  15-05-19 07:19 OP:DRIO STATUS:               ID:20150515123511 L   3
 OLDACT:DUP 15-05-15 21:57 OP:drio STATUS:               ID:20150515122752d    3
 2015-05-15-1227-51M.COL___283                                                 6
 STAT SP IPHASW D HRMM SECON CODA AMPLIT PERI AZIMU VELO AIN AR TRES W  DIS CAZ7
 BAR2 EZ EP       1235 28.82                             167    0.5610 25.1 253 
 BAR2 EZ ES       1235 40.86                             167   -0.2510 25.1 253 
 BAR2 EZ I        1235 45.32         7.8 0.26            169           25.1 253 
 PAM  SZ EP       1235 31.74                             144    0.2610 80.8  21 
 PAM  SZ I        1235 31.93        12.3 0.24            148           80.8  21 
 PAM  SN ES       1235 46.64                             144   -0.2010 80.8  21 
 BRR  HZ EP       1235 31.24                             138   -0.7410 96.2 301 
 BRR  HN ES       1235 48.16                             138    0.4310 96.2 301 
 BRR  HN I        1235 48.45        18.3 0.44            143           96.2 301 
 SPBC HN ES       1235 59.51                             122   -0.06 9  166 228 
                                                                                
