 2017  915 1856 46.3 L   6.806 -73.158144.6  RSN  6 0.4 1.8LRSN                1
 GAP=135        0.91       4.3     5.2  9.4  0.9148E+00  0.1966E+02  0.4493E+01E
 Epicentro: LOS SANTOS - SANTANDER                                             3
 ACTION:UPD 17-10-05 19:12 OP:rebc STATUS:               ID:20170915185646 L   I
 OLDACT:REG 17-09-15 22:23 OP:dnl  STATUS:               ID:20170915184746     3
 2017-09-15-1848-00M.COL___450                                                 6
 STAT SP IPHASW D HRMM SECON CODA AMPLIT PERI AZIMU VELO AIN AR TRES W  DIS CAZ7
 BAR2 EZ EP   2   1857  5.89                             170    0.14 5 23.8 187 
 BAR2 EZ ES       1857 20.67                             170   -0.2910 23.8 187 
 BAR2 EZ I        1857 21.94        11.7 0.36            170           23.8 187 
 BRR  HZ EP   2   1857  7.63                             153    0.44 5 69.7 299 
 BRR  HN ES       1857 24.33                             153    0.8110 69.7 299 
 BRR  HZ I        1857 31.44        19.2 0.26            151           69.7 299 
 PAM  EZ EP   2   1857  8.50                             151    0.13 5 77.7  41 
 PAM  EN ES       1857 25.33                             151   -0.2810 77.7  41 
 PAM  EZ I        1857 28.11        11.6 0.44            155           77.7  41 
 RUS  HZ EP   2   1857 10.19                             144    0.25 5  101 175 
 RUS  HN ES       1857 28.49                             144    0.0710  101 175 
 RUS  HZ I        1857 29.60         6.2 0.26            147            101 175 
 SPBC HZ EP   2   1857 14.76                             129    0.13 5  163 218 
 SPBC HE ES       1857 36.65                             129   -0.11 9  163 218 
 SPBC HZ I        1857 42.61         8.0 0.22            131            163 218 
 ZAR  HZ EP   4   1857 15.52                             123   -2.95 0  203 292 
 ZAR  HN ES       1857 42.94                             123   -0.66 9  203 292 
 ZAR  HZ I        1857 46.23         4.0 0.24            124            203 292 
                                                                                
