 2013 1115 1533 58.7 L   6.252 -73.493  4.0  RSN  5 0.3 1.6LRSN 2.2WRSN        1
 SPEC AVERAGE  MO 12.3 ST0.631 OM  1.5 f0 5.72 R0.3168 AL 0.00 WI 20.0 MW  2.2 3
 SPEC SD       MO  0.1 ST0.595 OM  0.4 f0 2.11 R0.1289 AL      WI      MW  0.1 3
 GAP=155        0.90       2.3     2.0  5.3  0.1005E+01 -0.1142E+01 -0.2479E+01E
 Epicentro: EL GUACAMAYO - SANTANDER                                           3
 SPEC BAR2SH Z MO 12.2 ST0.207 OM  1.1 f0 4.80 R0.3237 AL-0.00 WI 20.0 MW  2.1 3
 SPEC BAR2SH Z T153411 K 0.000 GD 51.2 VS 4.20 DE 3.20 Q0300.0 QA 0.60 VS 4.20 3
 SPEC RUS HH Z MO 12.6 ST0.117 OM  1.4 f0 2.98 R0.5215 AL-0.00 WI 20.0 MW  2.3 3
 SPEC RUS HH Z T153415 K 0.000 GD 60.4 VS 4.20 DE 3.20 Q0300.0 QA 0.60 VS 4.20 3
 SPEC BRR HH Z MO 12.3 ST0.584 OM  0.9 f0 6.37 R0.2440 AL-0.00 WI 20.0 MW  2.1 3
 SPEC BRR HH Z T153424 K 0.000 GD 97.7 VS 4.20 DE 3.20 Q0300.0 QA 0.60 VS 4.20 3
 SPEC PTB HH Z MO 12.3 ST  1.6 OM  0.9 f0 8.72 R0.1782 AL-0.00 WI 20.0 MW  2.2 3
 SPEC PTB HH Z T153427 K 0.000 GD  105 VS 4.20 DE 3.20 Q0300.0 QA 0.60 VS 4.20 3
 OLDACT:REG 13-11-15 16:12 OP:stll STATUS:               ID:20131115152819     3
 ACTION:UPD 14-01-09 16:28 OP:ep   STATUS:               ID:20131115153358 L   I
 OLDACT:UP  13-11-15 18:16 OP:stll STATUS:               ID:20131115152819     3
 2013-11-15-1528-19M.COL___238                                                 6
 STAT SP IPHASW D HRMM SECON CODA AMPLIT PERI AZIMU VELO AIN AR TRES W  DIS CAZ7
 BAR2 SZ EP       1534  7.34                              47    0.1210 51.0  42 
 BAR2 SZ ES       1534 13.44                              47   -0.4510 51.0  42 
 BAR2 SZ I        1534 15.64        24.8 0.14            102           51.0  42 
 RUS  HZ IP     D 1534  9.13                              47    0.2410 60.3 131 
 RUS  HN ES       1534 16.72                              47   -0.1510 60.3 131 
 RUS  SZ I        1534 17.69        25.9 0.44            101           60.3 131 
 BRR  HZ EP       1534 14.69                              47    0.6510 97.6 346 
 BRR  HN ES       1534 26.23                              47    0.1810 97.6 346 
 BRR  SZ I        1534 27.54        12.0 0.66             96           97.6 346 
 PTB  HZ IP     C 1534 16.14                              47    0.0210  111 287 
 PTB  HN ES       1534 29.20                              47   -0.5410  111 287 
 PTB  SZ I        1534 30.22        23.6 0.30             95            111 287 
 PAM  SZ EP       1534 22.43                              47    0.12 9  149  36 
 PAM  SE ES       1534 40.53                              47   -0.23 9  149  36 
 PAM  SZ I        1534 41.85         6.6 0.40             56            149  36 
                                                                                
