 2012  615 1243 10.2 L   6.437 -73.250136.3  RSN  8 0.5 2.1LRSN                1
 GAP=139        0.84       3.4     5.0  6.8 -0.4381E+00  0.1117E+02  0.6479E+00E
 Epicentro: SOCORRO - SANTANDER                                                3
 ACTION:UP  12-08-06 17:49 OP:ep   STATUS:               ID:20120615124310 L   I
 2012-06-15-1240-00M.COL___200                                                 6
 STAT SP IPHASW D HRMM SECON CODA AMPLIT PERI AZIMU VELO AIN AR TRES W  DIS CAZ7
 BAR2 SZ EP       1243 28.66                             172    0.0310 18.8  24 
 BAR2 SZ ES   1   1243 43.21                             172    0.23 7 18.8  24 
 BAR2 SZ I        1243 44.38        50.8 0.16                          18.8  24 
 RUS  HZ EP   1   1243 30.60                             154   -0.01 7 62.9 163 
 RUS  HN ES   1   1243 46.64                             154    0.14 7 62.9 163 
 RUS  HZ I        1243 48.62        22.9 0.27                          62.9 163 
 PTB  HZ EP   1   1243 34.63                             133   -0.54 7  134 275 
 PTB  HE ES   1   1243 53.91                             133   -0.71 7  134 275 
 PTB  HZ I        1243 56.51         7.6 0.15                           134 275 
 OCA  HZ EP   1   1243 41.81                             121    0.02 6  199 358 
 OCA  HN ES   1   1244  6.59                             121    0.19 6  199 358 
 OCA  HZ I        1244 10.15        49.5 0.21                           199 358 
 NOR  SZ EP   1   1243 43.10                             120    1.01 6  204 242 
 NOR  SN ES   1   1244  7.28                             120    0.35 6  204 242 
 CHI  HZ EP   1   1243 42.51                             120   -0.39 6  207 195 
 CHI  HN ES   1   1244  7.83                             120   -0.54 6  207 195 
 CHI  HZ I        1244 13.31         5.9 0.23                           207 195 
 ZAR  HZ EP   1   1243 42.74                             119   -0.24 6  213 303 
 ZAR  HN ES   1   1244  8.76                             119    0.23 6  213 303 
 ZAR  HZ I        1244 14.54        13.1 0.57                           213 303 
 PRA  HZ EP   1   1243 58.24                             107   -0.45 5  351 211 
 PRA  HN ES   1   1244 37.56                             107    1.08 5  351 211 
                                                                                
