 2012  815 1836  8.6 L   6.764 -73.211144.8  RSN  6 0.3 1.7LRSN                1
 GAP=226        0.62       5.8     5.1  6.7  0.1142E+02  0.8954E+01  0.1820E+02E
 Epicentro: VILLANUEVA - SANTANDER                                             3
 ACTION:UPD 12-09-10 11:56 OP:ep   STATUS:               ID:20120815183608 L   I
 2012-08-15-1830-00M.COL___217                                                 6
 STAT SP IPHASW D HRMM SECON CODA AMPLIT PERI AZIMU VELO AIN AR TRES W  DIS CAZ7
 BAR2 SZ EP   1   1836 27.78                             172   -0.21 7 19.2 171 
 BAR2 SZ ES   1   1836 43.62                             172    0.47 7 19.2 171 
 BAR2 SZ I        1836 45.96         7.5 0.19                          19.2 171 
 BRR  HZ EP   1   1836 29.45                             154    0.08 7 67.2 304 
 BRR  HZ I        1836 44.78        14.1 0.43                          67.2 304 
 BRR  HN ES   1   1836 45.37                             154   -0.24 7 67.2 304 
 RUS  HZ EP   1   1836 31.65                             144   -0.32 7 97.3 172 
 PTB  HZ EP   1   1836 34.82                             133    0.08 7  140 260 
 PTB  HN ES   1   1836 54.69                             133   -0.47 7  140 260 
 ZAR  HE ES   1   1837  5.69                             123    0.42 6  199 294 
 ZAR  HZ I        1837 12.17         4.6 0.36                           199 294 
 PRA  HZ EP   1   1837  1.55                             107    0.33 4  385 209 
 PRA  HN ES   1   1837 42.65                             107    0.36 4  385 209 
                                                                                
