 2012  115 1350 44.7 L   6.375 -73.640108.5  RSN 11 0.3 3.2LRSN                1
 GAP=105        0.50       2.2     2.5  5.8 -0.1191E+01  0.5636E+01  0.1762E+01E
 Epicentro: SANTA HELENA DEL OPON - SANTANDER                                  3
 ACTION:UP  12-02-03 08:17 OP:REBC STATUS:               ID:20120115135044 L   I
 2012-01-15-1349-59S.COL___188                                                 6
 STAT SP IPHASW D HRMM SECON CODA AMPLIT PERI AZIMU VELO SNR AR TRES W  DIS CAZ7
 BAR2 SZ IP       1351  1.27                             151     0.010   56  65 
 BAR2 SZ ES   2   1351 14.49                             151     0.3 5   56  65 
 BAR2 SZ I        1351 15.51       506.0 0.38                            56  65 
 RUS  HZ IP       1351  3.06                             141    -0.310   82 131 
 RUS  HN ES   2   1351 18.04                             141     0.0 5   82 131 
 GIR2 SZ EP       1351  3.78                             136     0.010   92  32 
 PAM  SZ EP   1   1351  9.49                             122    -0.1 7  149  44 
 PAM  SN ES   2   1351 28.91                             122    -0.2 5  149  44 
 NOR  SZ EP   2   1351 10.52                             119     0.0 5  163 237 
 NOR  SN ES   2   1351 30.98                             119     0.2 5  163 237 
 YOP  SZ EP   1   1351 12.52                             117     0.5 7  176 130 
 YOP  SZ I        1351 13.02       110.9 0.35                           176 130 
 YOP  SN ES   2   1351 33.55                             117     0.2 4  176 130 
 CHI  HZ EP       1351 14.04                             114    -0.3 9  193 183 
 OCA  SZ EP   2   1351 15.65                             112    -0.1 4  209  10 
 OCA  SZ ES   2   1351 40.37                             112     0.4 4  209  10 
 OCA  SZ I        1351 46.91       283.5 0.35                           209  10 
 HEL  HZ EP   1   1351 16.20                             112     0.1 6  210 265 
 HEL  HN ES   2   1351 40.77                             112     0.1 4  210 265 
 GUY  SZ EP   2   1351 19.17                             110     0.4 4  232 237 
 GUY  SE ES   2   1351 44.99                             110    -0.4 4  232 237 
 GUY  SZ I        1351 50.76       155.2 0.31                           232 237 
 VIL  SZ EP   1   1351 20.85                             108     0.4 6  250 181 
 VIL  SE ES   2   1351 48.41                             108     0.1 4  250 181 
 VIL  SZ I        1351 55.48        83.5 0.40                           250 181 
                                                                                
