 2015  415 1807 41.0 L   6.573 -73.396123.9  RSN  8 0.3 1.6LRSN                1
 GAP= 80        0.62       2.4     2.7  4.3  0.3927E+00  0.3447E+01 -0.1268E+01E
 Epicentro: HATO - SANTANDER                                                   3
 ACTION:UPD 15-06-03 16:55 OP:cam  STATUS:               ID:20150415180741 L   I
 OLDACT:DUP 15-04-16 00:19 OP:spq  STATUS:               ID:20150415175755d    3
 2015-04-15-1757-49M.COL___275                                                 6
 STAT SP IPHASW D HRMM SECON CODA AMPLIT PERI AZIMU VELO AIN AR TRES W  DIS CAZ7
 BAR2 EZ EP       18 7 58.10                             168    0.0610 23.7  85 
 BAR2 EZ ES   1   18 8 11.28                             168   -0.03 7 23.7  85 
 BAR2 EZ I        18 8 13.82         7.6 0.12            171           23.7  85 
 BRR  HZ EP       18 7 59.65                             149   -0.0410 68.6 329 
 BRR  HN ES       18 8 14.01                             149   -0.2410 68.6 329 
 BRR  HZ I        18 8 15.10        15.5 0.20            149           68.6 329 
 RUS  HZ EP       18 8  1.32                             144   -0.0210 82.8 155 
 RUS  HE ES       18 8 17.26                             144    0.0710 82.8 155 
 RUS  HZ I        18 8 18.53         5.0 0.40            148           82.8 155 
 PAM  SZ EP   1   18 8  4.21                             135    0.35 7  115  42 
 PAM  SE ES   1   18 8 21.78                             135    0.12 7  115  42 
 PAM  SZ I        18 8 25.45         3.8 0.28            137            115  42 
 PTB  HZ EP       18 8  3.03                             134   -0.4210  117 268 
 PTB  HE ES   1   18 8 21.00                             134    0.06 7  117 268 
 PTB  HZ I        18 8 22.63         8.9 0.10            135            117 268 
 ZAR  HZ EP   1   18 8 10.87                             119    0.15 7  191 302 
 ZAR  HE ES   1   18 8 34.40                             119    0.51 7  191 302 
 ZAR  HZ I        18 8 40.87         6.0 0.24            120            191 302 
 NOR  HZ EP   1   18 8 11.93                             118    0.43 6  198 236 
 NOR  HE ES   1   18 8 35.32                             118    0.04 6  198 236 
 NOR  HZ I        18 8 37.20         2.9 0.30            120            198 236 
 SML  HZ EP       18 8 17.52                             111   -0.56 8  257 343 
 SML  HE ES   1   18 8 47.46                             111    0.48 6  257 343 
                                                                                
