 2014  815 1114 41.4 L   6.773 -72.988153.9  RSN  4 0.5 1.6LRSN                1
 GAP=255        1.21      10.0    18.2 10.1  0.8665E+02 -0.1698E+02 -0.3582E+02E
 Epicentro: CEPITA - SANTANDER                                                 3
 ACTION:UPD 14-09-15 21:50 OP:nd   STATUS:               ID:20140815111441 L   I
 OLDACT:UP  14-08-15 20:43 OP:cam  STATUS:               ID:20140815111000     3
 OLDACT:UP  14-08-15 20:43 OP:cam  STATUS:               ID:20140815111000     3
 OLDACT:UP  14-08-15 20:42 OP:cam  STATUS:               ID:20140815111000     3
 OLDACT:REG 14-08-15 19:54 OP:cam  STATUS:               ID:20140815111000     3
 2014-08-15-1110-00M.COL___285                                                 6
 STAT SP IPHASW D HRMM SECON CODA AMPLIT PERI AZIMU VELO AIN AR TRES W  DIS CAZ7
 BAR2 SZ EP       1115  1.58                             169   -0.6110 29.3 227 
 BAR2 SZ ES       1115 18.46                             169    0.1010 29.3 227 
 BAR2 SZ I        1115 19.67         7.8 0.22            169           29.3 227 
 BRR  HZ EP     D 1115  5.25                             149    0.7710 88.2 295 
 BRR  HN ES       1115 22.52                             149    0.0810 88.2 295 
 BRR  HN I        1115 25.78         7.6 0.14            147           88.2 295 
 PTB  HZ EP       1115 10.26                             130   -0.34 9  164 261 
 SML  HZ EP       1115 20.21                             118    0.55 8  254 332 
 SML  HE ES       1115 48.82                             118   -0.65 8  254 332 
 SML  HZ I        1115 54.44         2.4 0.10            118            254 332 
                                                                                
