 2015  115 1104 14.2 L   6.824 -73.154138.5  RSN 22 0.5 2.7LRSN                1
 GAP= 70        1.12       3.1     3.1  5.3 -0.1153E+01  0.3225E+01  0.1841E+01E
 Epicentro: LOS SANTOS - SANTANDER                                             3
 ACTION:UPD 15-03-02 15:39 OP:nd   STATUS:               ID:20150115110414 L   I
 OLDACT:UP  15-01-15 23:44 OP:mh   STATUS:               ID:20150115105745     3
 OLDACT:REG 15-01-15 20:34 OP:mh   STATUS:               ID:20150115105745     3
 2015-01-15-1057-45M.COL___247                                                 6
 STAT SP IPHASW D HRMM SECON CODA AMPLIT PERI AZIMU VELO AIN AR TRES W  DIS CAZ7
 BAR2 EZ EP     C 11 4 33.22                             169    0.2210 25.8 187 
 BAR2 EZ ES       11 4 47.24                             169   -0.4410 25.8 187 
 BAR2 EZ I        11 4 48.85       108.7 0.14            166           25.8 187 
 BRR  HZ IP     C 11 4 35.16                             152    0.7210 69.2 297 
 BRR  HE ES       11 4 50.76                             152    0.5310 69.2 297 
 BRR  HZ I        11 4 56.21        77.3 0.12            146           69.2 297 
 PAM  SZ EP     C 11 4 36.11                             150    0.5610 75.9  41 
 PAM  SN ES       11 4 52.94                             150    0.7310 75.9  41 
 PAM  SZ I        11 4 54.91       169.7 0.48            151           75.9  41 
 RUS  HZ EP       11 4 37.21                             142   -0.2310  103 176 
 RUS  HN ES       11 4 55.81                             142    0.2410  103 176 
 RUS  HZ I        11 4 56.57        85.6 0.34            139            103 176 
 PTB  HZ EP       11 4 39.79                             130   -0.75 9  147 258 
 PTB  HN ES       11 5  0.16                             130   -0.94 9  147 258 
 PTB  HZ I        11 5  4.76        56.8 0.48            125            147 258 
 TAM  HZ EP     C 11 4 41.62                             128    0.17 9  157 106 
 TAM  HN ES       11 5  2.00                             128   -0.72 9  157 106 
 OCA  HZ EP   1   11 4 41.45                             128   -0.23 7  158 353 
 OCA  HN ES   1   11 5  2.70                             128   -0.43 7  158 353 
 OCA  HZ I        11 5  8.46        58.7 0.26            126            158 353 
 SPBC HZ EP   1   11 4 42.22                             127   -0.07 7  165 218 
 SPBC HN ES       11 5  3.91                             127   -0.30 9  165 218 
 SPBC HZ I        11 5  7.34       101.3 0.18            123            165 218 
 ZAR  HZ EP   1   11 4 46.11                             121    0.13 6  202 292 
 ZAR  HN ES   1   11 5 10.20                             121   -0.58 6  202 292 
 ZAR  HZ I        11 5 19.39        53.5 0.18            117            202 292 
 NOR  HZ EP       11 4 49.75                             117    0.15 8  236 234 
 NOR  HN ES   1   11 5 16.52                             117   -0.70 6  236 234 
 NOR  HZ I        11 5 24.27        34.7 0.20            113            236 234 
 SML  HZ EP   1   11 4 49.52                             116   -0.59 6  241 335 
 SML  HN ES   1   11 5 18.09                             116   -0.04 6  241 335 
 SML  HZ I        11 5 23.19        64.2 0.10            113            241 335 
 CHI  HZ EP       11 4 51.48                             115   -0.27 8  251 195 
 CHI  HE ES   1   11 5 21.80                             115    0.75 6  251 195 
 CHI  HZ I        11 5 23.54        19.4 0.26            113            251 195 
 ROSC BZ EP       11 4 52.61                             115    0.49 8  255 211 
 ROSC BN ES   4   11 5 22.78                             115    1.07 0  255 211 
 ROSC BZ I        11 5 32.36        37.5 0.50            112            255 211 
 HEL  HZ EP   1   11 4 54.15                             113    0.13 6  272 255 
 HEL  HN ES       11 5 25.48                             113    0.39 8  272 255 
 HEL  HZ I        11 5 34.58        16.7 0.28            110            272 255 
 PTGC HZ EP   4   11 4 55.61                             110   -2.44 0  311 159 
 PTGC HN ES   4   11 5 29.31                             110   -2.95 0  311 159 
 PTGC HZ I        11 5 31.93        39.4 0.26            108            311 159 
 CBOC HZ EP   1   11 5  1.22                             109    0.41 5  334 252 
 CBOC HE ES   4   11 5 38.65                             109    1.48 0  334 252 
 TOL  SZ EP   1   11 5  2.69                             108    0.38 5  345 224 
 TOL  SN ES   1   11 5 40.39                             108    0.55 5  345 224 
 MON  HZ EP   4   11 4 59.83                             107   -2.81 0  351 308 
 MON  HN ES   4   11 5 38.30                             107   -2.14 0  351 308 
 MON  HZ I        11 5 40.25        18.2 0.20            105            351 308 
 SDV  BZ EP   1   11 5  2.77                             107   -1.08 5  359  51 
 SDV  BN ES   4   11 5 39.71                             107   -2.87 0  359  51 
 ANIL HZ EP   4   11 5  4.34                             107    0.47 0  359 224 
 ANIL HN ES   4   11 5 42.94                             107    0.32 0  359 224 
 ANIL HZ I        11 5 49.10         5.2 0.34            105            359 224 
 SDV  BZ I        11 5 43.95        12.9 0.50            106            359  51 
 ORTC HZ EP   4   11 5  4.56                             105   -3.50 0  397 216 
 ORTC HN ES   1   11 5 50.22                             105    0.14 4  397 216 
 ORTC HZ I        11 5 56.01        13.5 0.48            103            397 216 
 SJC  HZ EP   4   11 5  8.01                             105   -1.19 0  407 327 
 SJC  HN ES   4   11 5 48.97                             105   -3.14 0  407 327 
 SJC  HZ I        11 5 52.85        15.6 0.52            102            407 327 
                                                                                
