 2012  315 1704 18.0 L   6.110 -73.796100.7  RSN  4 0.4 1.0LRSN                1
 GAP=136        0.79       9.9     4.6 14.5  0.6698E+01  0.2084E+02  0.8002E+02E
 ACTION:UP  12-03-31 23:20 OP:EP   STATUS:               ID:20120315170418 L   I
 2012-03-15-1700-00M.COL___202                                                 6
 STAT SP IPHASW D HRMM SECON CODA AMPLIT PERI AZIMU VELO SNR AR TRES W  DIS CAZ7
 RUS  HZ EP   2   17 4 35.18                             138    -0.9 5   82 107 
 RUS  HN ES   2   17 4 50.05                             138    -0.1 5   82 107 
 RUS  HZ I        17 4 50.58         3.9 0.16                            82 107 
 BAR2 SZ EP   1   17 4 36.03                             136     0.0 7   86  52 
 BAR2 SZ ES   1   17 4 50.45                             136     0.3 7   86  52 
 PTB  HZ EP   1   17 4 35.53                             136    -0.3 7   87 303 
 PTB  HZ I        17 4 35.79         2.0 0.20                            87 303 
 PTB  HN ES   1   17 4 49.54                             136    -0.2 7   87 303 
 NOR  SZ EP   1   17 4 40.80                             122     0.6 7  133 243 
                                                                                
