 2015  115 1601  6.7 L   6.839 -73.205138.0  RSN  5 0.3 1.9LRSN                1
 GAP=127        0.65       3.1     3.6  7.1 -0.8482E+00  0.1177E+02 -0.5737E+01E
 Epicentro: ZAPATOCA - SANTANDER                                               3
 ACTION:UPD 15-03-02 15:39 OP:nd   STATUS:               ID:20150115160106 L   I
 OLDACT:UP  15-01-16 01:25 OP:mh   STATUS:               ID:20150115155745     3
 OLDACT:REG 15-01-15 20:40 OP:mh   STATUS:               ID:20150115155745     3
 2015-01-15-1557-45M.COL___254                                                 6
 STAT SP IPHASW D HRMM SECON CODA AMPLIT PERI AZIMU VELO AIN AR TRES W  DIS CAZ7
 PAM  SZ EP       16 1 28.14                             149   -0.0510 78.6  45 
 PAM  SN ES       16 1 44.95                             149    0.0210 78.6  45 
 PAM  SZ I        16 1 47.57        14.8 0.48            157           78.6  45 
 RUS  HZ EP   1   16 1 29.53                             141   -0.56 7  106 173 
 RUS  HN ES       16 1 48.54                             141    0.2310  106 173 
 RUS  HZ I        16 1 49.40         5.1 0.28            148            106 173 
 PTB  HZ EP   1   16 1 32.29                             131   -0.27 7  142 257 
 PTB  HN ES   1   16 1 52.69                             131   -0.02 7  142 257 
 PTB  HZ I        16 2  0.47        12.5 0.42            133            142 257 
 ZAR  HZ EP   1   16 1 38.56                             122    0.69 6  196 292 
 ZAR  HN ES   1   16 2  1.98                             122   -0.19 6  196 292 
 ZAR  HZ I        16 2  9.04        14.6 0.70            125            196 292 
 SML  HZ EP   1   16 1 42.52                             117    0.33 6  237 336 
 SML  HN ES   1   16 2  9.66                             117   -0.21 6  237 336 
                                                                                
