 2010  215 1211  3.9 L   7.450 -72.860120.1  RSN  5 0.5 2.0LRSN                1
 GAP=227        0.65       4.6    16.2 10.2 -0.5363E+01  0.1599E+02  0.1966E+02E
 Epicentro: CALIFORNIA - SANTANDER                                             3
 ACTION:UP  10-08-24 09:49 OP:vdl  STATUS:               ID:20100215121103 L   I
 2010-02-15-1209-53S.COL___093                                                 6
 STAT SP IPHASW D HRMM SECON CODA AMPLIT PERI AZIMU VELO SNR AR TRES W  DIS CAZ7
 OCA  SZ EP   1   1211 25.11                             137     0.3 7  101 330 
 BAR2 SZ EP   1   1211 24.79                             137    -0.2 7  101 201 
 OCA  SZ ES   2   1211 40.91                             137    -0.2 5  101 330 
 BAR2 SZ ES   2   1211 41.20                             137    -0.2 5  101 201 
 CHI  HZ EP   1   1211 49.88                             105     0.5 5  326 197 
 CHI  HN ES   2   1212 25.26                             105     0.5 3  326 197 
 CHI  HZ I        1212 30.48         2.2 0.75                           326 197 
 RREF BZ EP   1   1211 56.89                             102    -0.7 4  394 224 
 RREF BN ES   2   1212 40.42                             102     0.9 3  394 224 
 RREF BZ I        1212 41.96         3.9 0.39                           394 224 
 PRA  HZ EP   1   1212  5.49                              99    -0.6 4  470 209 
 PRA  HN ES   2   1212 53.80                              99    -0.7 2  470 209 
 PRA  HZ I        1213  1.53         2.5 0.49                           470 209 
                                                                                
