 2016  715 1652 53.3 L   6.800 -73.142148.3  RSN  7 0.3 1.8LRSN                1
 GAP=119        0.69       3.2     2.9  4.7 -0.2347E+01  0.1793E+01 -0.1751E+01E
 Epicentro: LOS SANTOS - SANTANDER                                             3
 ACTION:UPD 17-03-29 16:51 OP:lp   STATUS:               ID:20160715165253 L   I
 OLDACT:UP  16-07-16 00:19 OP:dani STATUS:               ID:20160715164759     3
 OLDACT:REG 16-07-15 20:49 OP:dani STATUS:               ID:20160715164759     3
 2016-07-15-1647-59S.COL___331                                                 6
 STAT SP IPHASW D HRMM SECON CODA AMPLIT PERI AZIMU VELO AIN AR TRES W  DIS CAZ7
 BAR2 EZ EP       1653 13.19                             171   -0.0310 23.4 191 
 BAR2 EZ ES       1653 28.53                             171   -0.2410 23.4 191 
 BAR2 EZ I        1653 30.98        10.9 0.44            171           23.4 191 
 PAM  EZ EP       1653 16.00                             151    0.2410 77.2  39 
 PAM  EE ES       1653 33.49                             151    0.2010 77.2  39 
 PAM  EZ I        1653 35.30        11.8 0.48            153           77.2  39 
 RUS  HZ EP       1653 17.45                             144    0.1610  101 176 
 RUS  HN ES       1653 36.00                             144   -0.0010  101 176 
 RUS  HZ I        1653 36.47         6.8 0.30            146            101 176 
 PTB  HZ EP       1653 20.15                             132   -0.35 9  148 259 
 PTB  HN ES       1653 41.28                             132   -0.44 9  148 259 
 PTB  HZ I        1653 42.07         5.8 0.14            133            148 259 
 SPBC HZ EP       1653 22.26                             130    0.26 9  163 219 
 SPBC HN ES       1653 44.58                             130    0.18 9  163 219 
 SPBC HZ I        1653 50.12        16.4 0.36            131            163 219 
 ZAR  HZ EP   4   1653 27.20                             123    1.26 0  204 292 
 ZAR  HE ES       1653 51.74                             123    0.34 9  204 292 
 ZAR  HZ I        1653 57.24         7.0 0.24            123            204 292 
 SOCV BZ EP       1653 35.93                             113   -0.49 7  301  57 
 SOCV BN ES   4   1654  8.02                             113   -2.04 0  301  57 
                                                                                
