 2017 1015 1326 58.5 L   6.784 -73.110138.0  RSN 10 0.4 1.4LRSN                1
 GAP=142        0.74       4.1     4.4  6.1  0.6518E+00  0.4391E+01 -0.5277E+01E
 Epicentro: LOS SANTOS - SANTANDER                                             3
 ACTION:UPD 17-11-07 19:32 OP:rebc STATUS:               ID:20171015132658 L   I
 OLDACT:UP  17-10-15 22:41 OP:mg   STATUS:               ID:20171015131730     3
 OLDACT:UP  17-10-15 22:40 OP:mg   STATUS:               ID:20171015131730     3
 OLDACT:UP  17-10-15 22:40 OP:mg   STATUS:               ID:20171015131730     3
 OLDACT:UP  17-10-15 22:39 OP:mg   STATUS:               ID:20171015131730     3
 OLDACT:UP  17-10-15 22:37 OP:mg   STATUS:               ID:20171015131730     3
 OLDACT:REG 17-10-15 20:12 OP:mg   STATUS:               ID:20171015131730     3
 2017-10-15-1318-00M.COL___429                                                 6
 STAT SP IPHASW D HRMM SECON CODA AMPLIT PERI AZIMU VELO AIN AR TRES W  DIS CAZ7
 BAR2 EZ EP       1327 16.93                             170   -0.2810 22.6 201 
 BAR2 EZ ES   1   1327 31.52                             170   -0.26 7 22.6 201 
 BAR2 EZ I        1327 33.49        11.7 0.21            173           22.6 201 
 BRR  HZ EP       1327 19.04                             150   -0.0610 75.5 298 
 BRR  HN ES   1   1327 35.54                             150    0.40 7 75.5 298 
 BRR  HZ I        1327 38.94         8.8 0.28            148           75.5 298 
 PAM  EZ EP       1327 19.93                             150    0.0710 76.4  36 
 PAM  EZ I        1327 38.86         6.8 0.40            138           76.4  36 
 RUS  HZ EP       1327 21.44                             143    0.0710 98.6 178 
 RUS  HN ES       1327 39.47                             143    0.2810 98.6 178 
 RUS  HZ I        1327 40.57         2.7 0.32            140           98.6 178 
 PTB  HZ EP   4   1327 24.22                             129   -0.98 0  151 260 
 PTB  HN ES   1   1327 45.79                             129   -0.21 7  151 260 
 PTB  HZ I        1327 47.48         1.9 0.13            128            151 260 
 ZAR  HZ EP   1   1327 30.20                             120   -0.73 6  208 292 
 ZAR  HN ES   4   1327 54.88                             120   -1.32 0  208 292 
 NOR  HZ EP   3   1327 34.85                             117    0.80 2  237 235 
 NOR  HN ES   1   1328  1.77                             117    0.01 6  237 235 
 NOR  HZ I        1328  5.00         2.5 0.18            114            237 235 
 CHI  HN ES   2   1328  3.90                             116   -0.85 4  248 196 
 CHI  HZ I        1328 11.10         1.7 0.34            112            248 196 
 GUY2CHZ EP   4   1327 43.46                             111    1.43 0  303 235 
 GUY2CHN ES   4   1328 18.97                             111    3.00 0  303 235 
 GUY2CHZ I        1328 22.73         0.9 0.39                           303 235 
 DBB  EZ EP       1327 46.95                             108    0.79 7  344 274 
                                                                                
