 2015 1215 1427  8.1 L   7.476 -73.428114.2  RSN  8 0.4 2.0LRSN                1
 GAP= 93        1.11       3.6     4.3  7.6  0.1865E+01  0.1087E+02 -0.4177E+01E
 Epicentro: SABANA DE TORRES - SANTANDER                                       3
 ACTION:UPD 16-02-04 15:05 OP:cam  STATUS:               ID:20151215142708 L   I
 OLDACT:REG 15-12-15 20:21 OP:ar   STATUS:               ID:20151215141743     3
 2015-12-15-1417-43M.COL___328                                                 6
 STAT SP IPHASW D HRMM SECON CODA AMPLIT PERI AZIMU VELO AIN AR TRES W  DIS CAZ7
 BRR  HZ EP       1427 24.67                             154   -0.0210 51.5 218 
 BRR  HN ES       1427 37.20                             154   -0.4510 51.5 218 
 BRR  HZ I        1427 39.35        39.0 0.24            157           51.5 218 
 PAM  EZ EP     D 1427 27.85                             142    0.5010 81.8 101 
 PAM  EN ES       1427 42.83                             142    0.4410 81.8 101 
 PAM  EZ I        1427 45.05        19.6 0.28            146           81.8 101 
 OCA  HZ EP       1427 27.18                             140    0.0410 85.2   8 
 OCA  HN ES       1427 41.80                             140   -0.2310 85.2   8 
 OCA  HZ I        1427 43.98        36.6 0.34            143           85.2   8 
 BAR2 EZ EP       1427 28.56                             135   -0.0210  101 164 
 BAR2 EZ ES       1427 44.30                             135   -0.2810  101 164 
 BAR2 EZ I        1427 45.22        11.6 0.36            140            101 164 
 PTB  HZ EP       1427 32.58                             122   -0.69 9  154 228 
 PTB  HN ES   4   1427 51.55                             122   -1.39 0  154 228 
 ZAR  HZ EP       1427 34.30                             121    0.61 9  158 271 
 ZAR  HE ES       1427 54.55                             121    0.87 9  158 271 
 ZAR  HZ I        1427 56.77        14.4 0.14            125            158 271 
 SML  HZ EP       1427 34.01                             121   -0.18 9  163 334 
 SML  HE ES       1427 54.28                             121   -0.29 9  163 334 
 SML  HZ I        1427 59.37        22.3 0.10            123            163 334 
 SJC  HZ EP       1427 52.76                             103   -0.53 7  330 324 
 SJC  HN ES   4   1428 25.89                             103   -2.68 0  330 324 
 SJC  HZ I        1428 26.71         3.4 0.28            106            330 324 
                                                                                
