 2010 1015 1239  4.2 L   6.775 -73.183141.5  RSN  6 0.3 1.6LRSN                1
 GAP=155        0.76       5.6    13.0 16.2  0.1909E+02 -0.1271E+03 -0.4029E+02E
 Epicentro: LOS SANTOS - SANTANDER                                             3
 ACTION:UP  11-02-18 11:09 OP:tino STATUS:               ID:20101015123904 L   I
 2010-10-15-1237-44S.COL___125                                                 6
 STAT SP IPHASW D HRMM SECON CODA AMPLIT PERI AZIMU VELO SNR AR TRES W  DIS CAZ7
 BTL  SZ EP       1239 23.10                             172    -0.110   18 330 
 BAR2 SZ EP       1239 22.91                             171    -0.310   20 180 
 BAR2 SZ I        1239 40.66         7.9 0.52                            20 180 
 BRR  HZ EP       1239 24.62                             152    -0.110   69 302 
 BRR  HZ I        1239 25.14        10.6 0.06                            69 302 
 BRR  HN ES   2   1239 41.27                             152     0.5 5   69 302 
 RUS  HZ EP       1239 27.67                             143     0.310   98 174 
 RUS  HN ES   2   1239 45.15                             143    -0.2 5   98 174 
 GUE  SZ EP       1239 28.57                             137    -0.210  120  14 
 GRA  SZ EP       1239 29.75                             135     0.410  130  19 
                                                                                
