 2011 1115 1727 31.9 L   6.741 -73.474111.5  RSN  5 0.2 1.5LRSN                1
 GAP=143        0.41       2.7     2.8  5.2  0.3298E+01  0.5133E+01  0.2972E+01E
 Epicentro: EL CARMEN DE CHUCURI - SANTANDER                                   3
 ACTION:UPD 12-07-13 16:10 OP:ep   STATUS:               ID:20111115172731 L   I
 2011-11-15-1725-04S.COL___186                                                 6
 STAT SP IPHASW D HRMM SECON CODA AMPLIT PERI AZIMU VELO AIN AR TRES W  DIS CAZ7
 BAR2 SZ ES   2   1728  0.42                             161    0.15 5 36.2 117 
 BAR2 SZ I        1728  1.15        21.2 0.29                          36.2 117 
 BRR  HZ EP   1   1727 47.85                             155   -0.18 7 48.3 327 
 BRR  HE ES   1   1728  0.50                             155   -0.13 7 48.3 327 
 RUS  HZ EP   1   1727 52.89                             134    0.22 7  103 155 
 RUS  HZ I        1727 53.62         4.0 0.16                           103 155 
 RUS  HN ES   1   1728  8.77                             134   -0.13 7  103 155 
 PAM  SN ES   1   1728  9.71                             133    0.07 7  108  52 
 ZAR  HZ EP   2   1727 58.70                             118   -0.34 4  174 299 
 ZAR  HE ES   1   1728 20.49                             118    0.26 7  174 299 
 ZAR  HZ I        1728 24.67         3.4 0.19                           174 299 
                                                                                
