 2012 1115 1759 19.2 L   6.805 -73.158141.6  RSN 10 0.5 2.3LRSN 3.0WRSN        1
 SPEC AVERAGE  MO 13.6 ST 16.7 OM  2.5 f0 6.64 R0.2266 AL 3.23 WI 22.7 MW  3.0 3
 SPEC SD       MO  0.1 ST  5.6 OM  0.6 f0 1.05 R0.0325 AL      WI      MW  0.1 3
 GAP=135        1.26       4.0     5.0  6.9 -0.8840E+00  0.1016E+02  0.6175E+01E
 Epicentro: LOS SANTOS - SANTANDER                                             3
 SPEC ZAR HH N MO 13.5 ST 23.5 OM  1.7 f0 8.37 R0.1756 AL 2.95 WI 18.5 MW  2.9 3
 SPEC ZAR HH N T18 015 K 0.000 GD  247 VS 4.20 DE 3.00 Q0230.0 QA 0.60 VS 4.20 3
 SPEC NOR HH N MO 13.8 ST 21.0 OM  2.0 f0 6.20 R0.2371 AL 3.29 WI 20.8 MW  3.1 3
 SPEC NOR HH N T18 022 K 0.000 GD  273 VS 4.20 DE 3.00 Q0230.0 QA 0.60 VS 4.20 3
 SPEC OCA HH N MO 13.7 ST 11.7 OM  2.0 f0 5.54 R0.2653 AL 2.92 WI 24.9 MW  3.1 3
 SPEC OCA HH N T18 0 7 K 0.000 GD  213 VS 4.20 DE 3.00 Q0230.0 QA 0.60 VS 4.20 3
 SPEC BRR HH N MO 13.5 ST 10.8 OM  1.9 f0 6.44 R0.2283 AL 3.76 WI 26.5 MW  2.9 3
 SPEC BRR HH N T175956 K 0.000 GD  157 VS 4.20 DE 3.00 Q0230.0 QA 0.60 VS 4.20 3
 ACTION:UPD 12-12-05 15:33 OP:}ep  STATUS:               ID:20121115175919 L   I
 2012-11-15-1758-15M.COL___206                                                 6
 STAT SP IPHASW D HRMM SECON CODA AMPLIT PERI AZIMU VELO AIN AR TRES W  DIS CAZ7
 BAR2 SZ IP     D 1759 38.37                             170    0.0510 23.7 186 
 BAR2 SZ I        1759 38.67        48.0 0.32                          23.7 186 
 BAR2 SZ ES       1759 52.82                             170   -0.4210 23.7 186 
 GIR2 SZ IP     C 1759 38.36                             167    0.0210 30.5 353 
 GIR2 SZ ES       1759 53.42                             167    0.1410 30.5 353 
 BRR  HZ IP     C 1759 40.22                             152    0.4210 69.7 299 
 BRR  HZ I        1759 40.35        43.5 0.28                          69.7 299 
 BRR  HN ES       1759 56.94                             152    1.0710 69.7 299 
 PAM  SZ EP       1759 41.18                             150    0.2010 77.9  41 
 PAM  SN ES       1759 58.27                             150    0.2810 77.9  41 
 PAM  SN I        1759 59.18        57.1 0.48                          77.9  41 
 PAM  SZ I        1759 59.69        19.4 0.42                          77.9  41 
 RUS  HZ EP       1759 42.43                             143   -0.1410  101 175 
 RUS  HN ES       18 0  0.56                             143   -0.2510  101 175 
 RUS  HN I        18 0  2.00        18.2 0.18                           101 175 
 PTB  HZ EP       1759 45.01                             131   -0.68 9  146 259 
 PTB  HN ES       18 0  5.66                             131   -0.71 9  146 259 
 PTB  HN I        18 0 11.40        32.3 0.30                           146 259 
 OCA  HN ES       18 0  7.73                             129   -1.15 9  160 354 
 OCA  HN I        18 0 12.33        42.8 0.20                           160 354 
 ZAR  HZ EP       1759 51.83                             122    0.63 9  203 292 
 ZAR  HN ES       18 0 16.14                             122   -0.04 9  203 292 
 ZAR  HN I        18 0 24.52        17.7 0.16                           203 292 
 NOR  HZ EP       1759 54.85                             118    0.27 8  234 234 
 NOR  HN ES       18 0 22.38                             118    0.19 8  234 234 
 NOR  HN I        18 0 29.84        18.4 0.16                           234 234 
 CHI  HZ EP       1759 56.67                             116    0.00 8  249 195 
 CHI  HN ES       18 0 26.06                             116    0.15 8  249 195 
 CHI  HN I        18 0 28.76         9.7 0.36                           249 195 
                                                                                
