 2016  915 1951 19.0 L   6.849 -73.171143.9  RSN  5 0.2 1.6LRSN                1
 GAP=278        0.63       6.1     3.9  5.3  0.2267E+01  0.7146E+01 -0.2764E+01E
 Epicentro: ZAPATOCA - SANTANDER                                               3
 ACTION:UPD 17-08-17 21:12 OP:lp   STATUS:               ID:20160915195119 L   I
 OLDACT:REG 16-09-15 22:56 OP:lv   STATUS:               ID:20160915194742     3
 2016-09-15-1948-00M.COL___360                                                 6
 STAT SP IPHASW D HRMM SECON CODA AMPLIT PERI AZIMU VELO AIN AR TRES W  DIS CAZ7
 BAR2 EZ EP       1951 38.48                             168   -0.0310 28.5 183 
 BAR2 EZ ES       1951 54.04                             168    0.3010 28.5 183 
 BAR2 EZ I        1951 56.07         9.5 0.09            167           28.5 183 
 RUS  HZ EP       1951 43.04                             142    0.0610  106 175 
 RUS  HE ES       1952  1.39                             142   -0.3010  106 175 
 RUS  HZ I        1952  2.17         4.4 0.28            144            106 175 
 PTB  HZ EP       1951 45.38                             132   -0.28 9  146 257 
 PTB  HN ES       1952  6.27                             132   -0.19 9  146 257 
 PTB  HZ I        1952 10.38         4.1 0.09            132            146 257 
 NOR  HZ EP       1951 55.06                             118    0.34 8  236 233 
 NOR  HN ES       1952 22.81                             118    0.23 8  236 233 
 NOR  HZ I        1952 27.16         3.3 0.14            119            236 233 
 GUY2CHZ EP   4   1952  4.57                             112    1.95 0  302 234 
 GUY2CHN ES   4   1952 40.02                             112    3.37 0  302 234 
 GUY2CHZ I        1952 47.31         2.2 0.31                           302 234 
                                                                                
