 2016 1115 1722  3.8 L   6.789 -73.138147.2  RSN 10 0.4 2.0LRSN                1
 GAP=120        0.79       3.3     3.2  4.8 -0.7294E+00  0.1891E+01  0.7544E+01E
 Epicentro: LOS SANTOS - SANTANDER                                             3
 ACTION:UPD 17-10-26 21:08 OP:lp   STATUS:               ID:20161115172203 L   I
 OLDACT:UP  16-11-15 22:41 OP:and  STATUS:               ID:20161115171659d    3
 OLDACT:UP  16-11-15 22:38 OP:and  STATUS:               ID:20161115171659d    3
 OLDACT:DUP 16-11-15 22:36 OP:and  STATUS:               ID:20161115171659d    3
 2016-11-15-1718-00M.COL___341                                                 6
 STAT SP IPHASW D HRMM SECON CODA AMPLIT PERI AZIMU VELO AIN AR TRES W  DIS CAZ7
 BAR2 EZ EP       1722 23.61                             171    0.0410 22.3 193 
 BAR2 EZ ES       1722 38.90                             171   -0.1010 22.3 193 
 BAR2 EZ I        1722 41.44        32.7 0.30            168           22.3 193 
 BRR  HN ES       1722 42.16                             152    0.3210 72.5 299 
 BRR  HZ I        1722 42.90        28.7 0.32            152           72.5 299 
 PAM  EZ EP       1722 26.38                             151    0.1910 77.8  39 
 PAM  EN ES       1722 43.63                             151   -0.0210 77.8  39 
 PAM  EZ I        1722 46.05        11.5 0.22            156           77.8  39 
 PTB  HZ EP       1722 30.64                             132   -0.29 9  148 259 
 PTB  HN ES       1722 51.56                             132   -0.53 9  148 259 
 PTB  HZ I        1722 54.00        10.7 0.16            132            148 259 
 ZAR  HZ EP       1722 36.79                             122    0.34 8  205 292 
 ZAR  HN ES       1723  1.76                             122   -0.17 8  205 292 
 ZAR  HZ I        1723  6.85        11.0 0.26            124            205 292 
 NOR  HZ EP       1722 39.82                             119    0.22 8  235 235 
 NOR  HE ES       1723  7.61                             119    0.08 8  235 235 
 NOR  HZ I        1723 16.89         4.0 0.19            119            235 235 
 CHI  HZ EP       1722 40.89                             117   -0.58 8  248 195 
 CHI  HN ES       1723 11.23                             117    0.38 8  248 195 
 CHI  HZ I        1723 14.97         5.9 0.38            118            248 195 
 PTGC HZ EP       1722 46.88                             112   -0.67 7  307 159 
 PTGC HN ES   4   1723 19.70                             112   -1.98 0  307 159 
 PRA  HZ EP       1722 57.86                             107    0.57 6  391 210 
 PRA  HN ES       1723 39.63                             107    0.62 6  391 210 
 PRA  HZ I        1723 45.93         5.9 0.36            108            391 210 
 SJC  HZ EP   9   1722 57.81                             106   -1.76 0  411 327 
 SJC  HN ES       1723 41.30                                   -0.02 6  411 327 
                                                                                
