 2016  615 1129 51.0 L   6.840 -73.161149.0  RSN 30 0.5 3.3LRSN                1
 GAP= 69        1.06       2.4     2.8  4.5 -0.1409E+01  0.3522E+01  0.3834E+00E
 Epicentro: LOS SANTOS - SANTANDER                                             3
 ACTION:UPD 16-07-21 22:19 OP:rebc STATUS:               ID:20160615112951 L   I
 OLDACT:REG 16-06-15 21:22 OP:dnl  STATUS:               ID:20160615112745     3
 2016-06-15-1127-45M.COL___322                                                 6
 STAT SP IPHASW D HRMM SECON CODA AMPLIT PERI AZIMU VELO AIN AR TRES W  DIS CAZ7
 BAR2 EZ EP     D 1130 11.12                             169    0.0610 27.5 185 
 BAR2 EZ ES       1130 26.13                             169   -0.6210 27.5 185 
 BAR2 EZ I        1130 28.24       352.5 0.28                          27.5 185 
 BRR  HZ IP     D 1130 12.92                             154    0.6610 67.7 296 
 BRR  HN ES       1130 29.84                             154    0.9610 67.7 296 
 BRR  HZ I        1130 33.83       318.2 0.46                          67.7 296 
 PAM  EZ IP     D 1130 13.98                             152    0.5910 75.1  43 
 PAM  EN ES       1130 30.86                             152   -0.0210 75.1  43 
 PAM  EZ I        1130 33.36       617.1 0.48                          75.1  43 
 RUS  HZ EP     D 1130 15.10                             143   -0.2510  105 175 
 RUS  HE ES       1130 33.82                             143   -0.5610  105 175 
 RUS  HZ I        1130 35.02       306.7 0.36                           105 175 
 PTB  HZ EP       1130 17.62                             133   -0.50 9  147 257 
 PTB  HE ES       1130 38.86                             133   -0.46 9  147 257 
 PTB  HZ I        1130 40.93       165.5 0.14                           147 257 
 OCA  HZ EP       1130 19.13                             131    0.04 9  156 354 
 OCA  HE ES       1130 41.04                             131   -0.00 9  156 354 
 OCA  HZ I        1130 45.18       454.9 0.18                           156 354 
 TAM  HZ IP     D 1130 19.59                             131    0.44 9  158 106 
 TAM  HE ES       1130 41.47                             131    0.33 9  158 106 
 SPBC HZ EP       1130 20.01                             129    0.08 9  166 218 
 SPBC HN ES       1130 42.08                             129   -0.45 9  166 218 
 SPBC HZ I        1130 44.72       463.3 0.36                           166 218 
 ZAR  HZ EP       1130 23.75                             123    0.46 9  201 291 
 ZAR  HE ES       1130 48.86                             123    0.35 9  201 291 
 ZAR  HZ I        1130 55.25       235.1 0.26                           201 291 
 NOR  HZ EP       1130 27.11                             119    0.10 8  236 233 
 NOR  HN ES       1130 55.43                             119    0.30 8  236 233 
 NOR  HZ I        1131  0.78       154.6 0.16                           236 233 
 CHI  HZ EP       1130 29.06                             117   -0.19 8  252 195 
 CHI  HE ES       1130 58.53                             117   -0.59 8  252 195 
 CHI  HZ I        1131  2.20       123.7 0.36                           252 195 
 ROSC BZ EP   4   1130 30.89                             117    1.32 0  256 210 
 ROSC BN ES       1130 59.78                             117    0.09 8  256 210 
 ROSC BZ I        1131  4.78       211.1 0.35                           256 210 
 HEL  HZ EP   4   1130 32.35                             115    1.07 0  272 255 
 HEL  HN ES       1131  3.00                             115    0.27 8  272 255 
 HEL  HZ I        1131  8.59        60.6 0.26                           272 255 
 URE  HZ EP       1130 31.17                             114   -0.66 7  281 291 
 URE  HN ES   4   1131  2.07                             114   -1.64 0  281 291 
 URE  HZ I        1131 13.01       111.8 0.18                           281 291 
 GUY2CHZ EP   2   1130 35.71                             113    0.86 4  302 234 
 GUY2CHN ES       1131  9.39                             113    0.30 7  302 234 
 GUY2CHZ I        1131 21.38        96.0 0.44                           302 234 
 PTGC HZ EP   4   1130 34.32                             112   -1.17 0  313 159 
 PTGC HE ES   4   1131  7.68                             112   -2.55 0  313 159 
 PTGC HZ I        1131 10.40       166.9 0.30                           313 159 
 LL6C HZ EP       1130 35.70                             111   -0.58 7  320 358 
 LL6C HE ES       1131 10.79                             111   -0.85 7  320 358 
 LL6C HZ I        1131 18.12        51.2 0.34                           320 358 
 CBOC HZ EP   4   1130 39.08                             110    1.10 0  333 251 
 CBOC HN ES       1131 13.64                             110   -1.02 7  333 251 
 CBOC HZ I        1131 26.44        25.3 0.50                           333 251 
 DBB  SZ EP       1130 38.53                             110    0.19 7  338 274 
 DBB  SZ ES   4   1131 13.84                             110   -1.46 0  338 274 
 DBB  SZ I        1131 18.75       223.6 0.72                           338 274 
 ARGC HZ EP   4   1130 41.17                             109    0.98 0  354 340 
 ARGC HN ES   2   1131 19.13                             109    0.54 3  354 340 
 ARGC HZ I        1131 26.47        29.3 0.50                           354 340 
 ANIL HZ EP   4   1130 42.63                             109    1.51 0  359 224 
 ANIL HN ES   2   1131 21.17                             109    0.93 3  359 224 
 ANIL HZ I        1131 28.19       214.2 0.24                           359 224 
 PRA  HZ EP       1130 44.46                             107   -0.48 6  395 209 
 PRA  HN ES       1131 27.17                             107    0.12 6  395 209 
 PRA  HZ I        1131 31.95        71.0 0.36                           395 209 
 ORTC HZ EP       1130 45.41                             107    0.12 6  398 216 
 ORTC HN ES       1131 28.74                             107    1.07 6  398 216 
 ORTC HZ I        1131 35.04        49.7 0.34                           398 216 
 SJC  HZ EP       1130 45.33                             106   -0.75 6  405 327 
 SJC  HN ES   4   1131 26.55                             106   -2.53 0  405 327 
 SJC  HZ I        1131 30.01        31.7 0.44                           405 327 
 PAL  HZ EP       1130 46.78                             106    0.46 6  407 238 
 PAL  HN ES       1131 29.23                             106   -0.28 6  407 238 
 PAL  HZ I        1131 32.75        25.1 0.20                           407 238 
 CRJC HZ EP   4   1130 51.33                             104   -1.71 0  463   4 
 CRJC HN ES   4   1131 38.95                             104   -2.51 0  463   4 
 CRJC HZ I        1131 42.33        40.5 0.14                           463   4 
 YOT  HZ EP       1130 54.10                             104   -0.19 5  474 228 
 YOT  HE ES   2   1131 43.86                             104    0.18 2  474 228 
 GUA  SZ EP   4   1130 53.58                             103   -1.16 0  479 173 
 GUA  SN ES   4   1131 41.94                             103   -2.56 0  479 173 
 GUA  SZ I        1131 48.37        91.8 0.16                           479 173 
 MACC HZ EP   4   1130 58.16                             102   -2.08 0  525 188 
 MACC HE ES   4   1131 49.65                             102   -4.63 0  525 188 
 MACC HZ I        1131 55.09        18.7 0.22                           525 188 
 GARC HZ EP   4   1131  5.19                             101   -1.47 0  576 207 
 GARC HN ES   4   1132  1.21                             101   -4.50 0  576 207 
 GARC HZ I        1132  7.52        28.2 0.26                           576 207 
                                                                                
