 2012  115 1821 34.1 L   6.769 -73.141145.1  RSN  7 0.3 1.6LRSN                1
 GAP=138        0.58       5.2     4.5  6.4  0.1082E+01  0.9569E-01  0.2191E+01E
 Epicentro: LOS SANTOS - SANTANDER                                             3
 ACTION:UP  12-02-03 08:17 OP:REBC STATUS:               ID:20120115182134 L   I
 2012-01-15-1820-00M.COL___187                                                 6
 STAT SP IPHASW D HRMM SECON CODA AMPLIT PERI AZIMU VELO SNR AR TRES W  DIS CAZ7
 BAR2 SZ EP   1   1821 53.59                             172     0.0 7   20 193 
 BAR2 SZ I        1821 54.06         6.6 0.18                            20 193 
 BAR2 SZ ES   2   1822  8.46                             172    -0.3 5   20 193 
 GIR2 SZ EP   1   1821 53.53                             166    -0.2 7   35 350 
 GIR2 SZ ES   2   1822  8.49                             166    -0.6 5   35 350 
 BRR  HZ EP   1   1821 55.44                             152     0.2 7   73 301 
 BRR  HZ I        1821 55.66         9.0 0.11                            73 301 
 BRR  HE ES   1   1822 12.32                             152     0.5 7   73 301 
 PAM  SZ EP   1   1821 56.48                             150     0.1 7   80  38 
 PAM  SN ES   2   1822 13.76                             150     0.0 5   80  38 
 RUS  HZ EP   2   1821 57.78                             145     0.3 5   97 176 
 RUS  HN ES   2   1822 15.97                             145     0.2 5   97 176 
 RUS  HZ I        1822 18.52         4.4 0.35                            97 176 
 PTB  HZ EP   2   1822  0.63                             132    -0.4 5  148 260 
 PTB  HN ES   2   1822 21.70                             132    -0.3 5  148 260 
 ZAR  HN ES   2   1822 31.81                             122    -0.3 4  206 293 
 ZAR  HZ I        1822 38.03         5.5 0.35                           206 293 
                                                                                
