 2013  315 1854 21.6 L   6.784 -73.160138.2  RSN 12 0.4 2.8LRSN                1
 GAP= 71        0.93       3.5     3.7  5.3 -0.1880E+01  0.4420E+01  0.9863E+00E
 Epicentro: LOS SANTOS - SANTANDER                                             3
 ACTION:UPD 13-04-09 14:02 OP:ep   STATUS:               ID:20130315185421 L   I
 2013-03-15-1850-00M.COL___244                                                 6
 STAT SP IPHASW D HRMM SECON CODA AMPLIT PERI AZIMU VELO AIN AR TRES W  DIS CAZ7
 BAR2 SZ EP       1854 40.55                             171    0.3110 21.3 187 
 BAR2 SZ ES       1854 54.32                             171   -0.4910 21.3 187 
 BAR2 SZ I        1854 57.52       309.1 0.23            168           21.3 187 
 BRR  HZ IP     C 1854 42.45                             151    0.5810 70.7 300 
 BRR  HZ I        1854 42.83       143.5 0.10            145           70.7 300 
 BRR  HE ES   1   1854 58.10                             151    0.40 7 70.7 300 
 PAM  SZ IP     D 1854 43.46                             149    0.3310 79.8  40 
 PAM  SN ES       1855  0.08                             149    0.1310 79.8  40 
 PAM  SZ I        1855  2.54       201.4 0.37            147           79.8  40 
 RUS  HZ EP       1854 44.58                             143    0.1210 98.9 175 
 RUS  HE ES   1   1855  2.14                             143   -0.17 7 98.9 175 
 RUS  HE I        1855  4.80        81.7 0.30            139           98.9 175 
 PTB  HZ EP       1854 47.20                             131   -0.55 9  146 259 
 PTB  HN ES   1   1855  7.86                             131   -0.30 7  146 259 
 PTB  HZ I        1855 11.09       112.9 0.15            124            146 259 
 TAM  HZ IP     D 1854 48.88                             128    0.12 9  156 104 
 OCA  HZ EP       1854 48.88                             127   -0.57 9  162 354 
 OCA  HN ES   1   1855 10.72                             127   -0.48 7  162 354 
 OCA  HZ I        1855 15.75        86.5 0.30            123            162 354 
 ZAR  HZ EP   1   1854 53.57                             121    0.13 6  203 293 
 ZAR  HN ES   1   1855 19.07                             121    0.76 6  203 293 
 ZAR  HZ I        1855 21.90        52.0 0.17            115            203 293 
 NOR  HZ EP       1854 56.55                             117   -0.06 8  232 235 
 NOR  HN ES   1   1855 24.02                             117    0.08 6  232 235 
 NOR  HZ I        1855 26.47        27.9 0.10            112            232 235 
 SML  HZ EP   1   1854 56.94                             116   -0.95 6  245 336 
 HEL  HZ EP   1   1855  1.94                             113    0.76 6  270 256 
 HEL  HZ I        1855 39.56        25.3 0.31            109            270 256 
 PRA  HZ EP   1   1855 14.21                             105   -0.35 4  390 209 
 PRA  HE ES   1   1855 55.53                             105   -0.36 4  390 209 
 PRA  HZ I        1856  1.26        16.0 0.31            102            390 209 
 SJC  HN EP   4   1855 15.16                             104   -1.80 0  410 327 
                                                                                
