 2013  215 1446 41.6 L   6.828 -73.151140.0  RSN 13 0.6 2.8LRSN                1
 GAP= 70        1.08       3.4     4.2  7.2 -0.1046E+00  0.5364E+01  0.3856E+00E
 Epicentro: LOS SANTOS - SANTANDER                                             3
 ACTION:UPD 13-03-12 09:33 OP:ep   STATUS:               ID:20130215144641 L   I
 2013-02-15-1438-48M.COL___192                                                 6
 STAT SP IPHASW D HRMM SECON CODA AMPLIT PERI AZIMU VELO AIN AR TRES W  DIS CAZ7
 BAR2 SZ EP       1447  0.63                             169    0.0310 26.3 188 
 BAR2 SZ ES   1   1447 14.83                             169   -0.59 7 26.3 188 
 BAR2 SZ I        1447 16.63       122.8 0.42            169           26.3 188 
 BRR  HZ IP     C 1447  2.37                             152    0.3610 69.2 297 
 BRR  HN ES   1   1447 19.08                             152    1.15 7 69.2 297 
 BRR  HN I        1447 19.39       238.9 0.46            151           69.2 297 
 PAM  SZ EP       1447  3.38                             150    0.3010 75.4  41 
 PAM  SN ES   1   1447 20.47                             150    0.63 7 75.4  41 
 PAM  SN I        1447 21.57        34.2 0.50            153           75.4  41 
 RUS  HZ EP   1   1447  5.04                             142    0.02 7  104 176 
 RUS  HN ES   1   1447 22.61                             142   -0.68 7  104 176 
 RUS  HN I        1447 26.01        76.0 0.66            143            104 176 
 PTB  HZ EP   1   1447  7.43                             131   -0.67 7  148 258 
 PTB  HN ES   1   1447 28.05                             131   -0.73 7  148 258 
 PTB  HN I        1447 33.30        54.1 0.68            131            148 258 
 TAM  HZ EP   1   1447  8.93                             129   -0.02 7  156 106 
 TAM  HN ES   1   1447 30.15                             129   -0.14 7  156 106 
 TAM  HN I        1447 31.01        72.8 0.54            132            156 106 
 OCA  HZ EP   1   1447  8.43                             129   -0.73 7  157 353 
 OCA  HN ES   1   1447 30.07                             129   -0.59 7  157 353 
 OCA  HN I        1447 35.20       324.7 0.24            131            157 353 
 ZAR  HZ EP   1   1447 14.06                             121    0.57 6  202 291 
 ZAR  HN ES   1   1447 38.59                             121    0.22 6  202 291 
 ZAR  HN I        1447 44.15        82.6 0.34            122            202 291 
 SML  HZ EP   1   1447 16.94                             117   -0.63 6  241 335 
 SML  HN ES   1   1447 44.90                             117   -0.73 6  241 335 
 SML  HN I        1447 47.47       108.0 0.28            118            241 335 
 CHI  HZ EP   1   1447 19.12                             116   -0.17 6  251 195 
 CHI  HN ES   1   1447 48.53                             116   -0.16 6  251 195 
 CHI  HN I        1447 53.89        36.0 0.36            117            251 195 
 ROSC BZ EP   1   1447 20.64                             115    0.98 6  255 211 
 ROSC BN ES   1   1447 50.20                             115    0.84 6  255 211 
 RREF HN ES   1   1448  3.29                             110   -0.32 5  323 229 
 COD  HN ES   1   1448  7.21                             108    0.55 5  345 355 
                                                                                
