 2015  615 1439 43.4 L   6.817 -73.132139.6  RSN  7 0.6 2.0LRSN                1
 GAP=218        1.36       7.3     8.2  8.7 -0.1015E+02  0.2554E+02  0.2119E+01E
 Epicentro: LOS SANTOS - SANTANDER                                             3
 ACTION:UPD 15-09-10 22:12 OP:cam  STATUS:               ID:20150615143943 L   I
 OLDACT:REG 15-06-15 20:35 OP:stll STATUS:               ID:20150615143748     3
 2015-06-15-1437-48M.COL___315                                                 6
 STAT SP IPHASW D HRMM SECON CODA AMPLIT PERI AZIMU VELO AIN AR TRES W  DIS CAZ7
 BAR2 EZ EP       1440  2.57                             169    0.2210 25.5 193 
 BAR2 EZ ES       1440 16.33                             169   -0.8010 25.5 193 
 BAR2 EZ I        1440 21.16        12.7 0.34            152           25.5 193 
 BRR  HZ EP       1440  4.25                             151    0.3210 71.7 297 
 BRR  HN ES       1440 20.99                             151    1.0610 71.7 297 
 BRR  HZ I        1440 24.88        19.8 0.14            159           71.7 297 
 ZAR  HZ EP       1440 14.84                             121   -0.70 9  205 291 
 ZAR  HN ES       1440 40.11                             121   -0.49 9  205 291 
 ZAR  HZ I        1440 46.57        13.1 0.38            118            205 291 
 NOR  HZ EP       1440 18.94                             117   -0.11 8  237 234 
 NOR  HE ES       1440 46.44                             117   -0.41 8  237 234 
 NOR  HZ I        1440 50.29         8.9 0.38            112            237 234 
 SML  HZ EP       1440 19.09                             116   -0.49 8  243 335 
 SML  HZ I        1440 50.15        14.0 0.10            109            243 335 
 HEL  HZ EP       1440 24.17                             113    0.63 8  274 255 
 HEL  HE ES       1440 54.55                             113   -0.29 8  274 255 
 HEL  HZ I        1441  0.78         5.0 0.36            109            274 255 
 GUY2CHZ EP       1440 27.83                             111    0.82 7  304 235 
 GUY2CHN ES       1441  1.21                             111    0.19 7  304 235 
 GUY2CHZ I        1441  8.72         5.0 0.58                           304 235 
                                                                                
