 2013  115 1655 41.4 L   6.740 -73.113146.1  RSN  9 0.4 2.2LRSN                1
 GAP=236        0.81       5.0     5.1  6.2  0.5553E+01  0.7816E+01  0.8640E+01E
 Epicentro: JORDAN - SANTANDER                                                 3
 ACTION:UPD 13-02-15 09:14 OP:ep   STATUS:               ID:20130115165541 L   I
 2013-01-15-1650-00M.COL___241                                                 6
 STAT SP IPHASW D HRMM SECON CODA AMPLIT PERI AZIMU VELO AIN AR TRES W  DIS CAZ7
 BAR2 SZ EP       1656  0.90                             173   -0.0510 18.0 205 
 BAR2 SZ ES   1   1656 16.09                             173   -0.12 7 18.0 205 
 BAR2 SZ I        1656 17.55        42.2 0.32            163           18.0 205 
 BRR  HZ EP     C 1656  2.77                             150   -0.1610 77.6 302 
 BRR  HN ES   1   1656 20.37                             150    0.62 7 77.6 302 
 BRR  HZ I        1656 25.13        24.9 0.14            147           77.6 302 
 RUS  HZ EP       1656  4.58                             146   -0.0910 93.7 178 
 RUS  HN ES   1   1656 23.09                             146    0.24 7 93.7 178 
 RUS  HZ I        1656 24.73        10.8 0.40            144           93.7 178 
 PTB  HZ EP   1   1656  7.85                             132   -0.73 7  150 262 
 PTB  HN ES   1   1656 29.23                             132   -0.58 7  150 262 
 PTB  HZ I        1656 34.22        25.4 0.26            129            150 262 
 CTAB SZ EP   1   1656 17.42                             120    0.68 6  226 212 
 NOR  HZ EP   1   1656 16.79                             119   -0.24 6  234 236 
 NOR  HE ES   1   1656 45.08                             119    0.24 6  234 236 
 NOR  HZ I        1656 52.21        18.8 0.16            118            234 236 
 CHI  HZ EP       1656 18.88                             118    0.38 8  243 196 
 CHI  HN ES   1   1656 46.78                             118   -0.68 6  243 196 
 CHI  HZ I        1656 55.91         6.4 0.24            118            243 196 
 HEL  HZ EP   1   1656 22.40                             115    0.58 6  274 257 
 HEL  HE ES   1   1656 53.75                             115    0.39 6  274 257 
 HEL  HZ I        1657  0.60        11.7 0.26            115            274 257 
 DBB  SZ EP   2   1656 28.90                             109   -0.44 3  344 275 
                                                                                
