 2013  115 1743 28.9 L   6.774 -73.146142.4  RSN  8 0.4 2.2LRSN                1
 GAP=183        0.86       3.6     5.2  6.7  0.2437E+01  0.4691E+01  0.1486E+01E
 Epicentro: LOS SANTOS - SANTANDER                                             3
 ACTION:UPD 13-02-15 09:14 OP:ep   STATUS:               ID:20130115174328 L   I
 2013-01-15-1740-00M.COL___241                                                 6
 STAT SP IPHASW D HRMM SECON CODA AMPLIT PERI AZIMU VELO AIN AR TRES W  DIS CAZ7
 BAR2 SZ EP       1743 48.03                             171   -0.0610 20.5 191 
 BAR2 SZ ES   1   1744  2.78                             171   -0.26 7 20.5 191 
 BAR2 SZ I        1744  3.82        90.5 0.26            168           20.5 191 
 BRR  HZ IP     C 1743 49.89                             151    0.1010 72.6 301 
 BRR  HN ES   1   1744  6.78                             151    0.72 7 72.6 301 
 BRR  HZ I        1744  9.75        25.3 0.20            148           72.6 301 
 RUS  HZ EP       1743 52.01                             144   -0.1210 97.7 176 
 RUS  HN ES   1   1744 10.35                             144    0.11 7 97.7 176 
 RUS  HZ I        1744 11.47        15.2 0.20            144           97.7 176 
 PTB  HZ EP   1   1743 55.52                             131   -0.04 7  147 260 
 PTB  HN ES   1   1744 15.58                             131   -0.76 7  147 260 
 PTB  HZ I        1744 20.72        13.0 0.44            129            147 260 
 OCA  HZ EP   1   1743 56.31                             128   -0.93 7  163 353 
 OCA  HE ES   1   1744 19.63                             128    0.30 7  163 353 
 OCA  HZ I        1744 22.82        23.5 0.28            130            163 353 
 ZAR  HZ EP   1   1744  1.34                             122    0.08 6  205 293 
 ZAR  HN ES   1   1744 26.67                             122    0.19 6  205 293 
 ZAR  HZ I        1744 31.75        14.7 0.32            121            205 293 
 NOR  HZ EP   1   1744  5.12                             118    0.85 6  233 235 
 NOR  HN ES   1   1744 31.34                             118   -0.51 6  233 235 
 NOR  HZ I        1744 37.40         9.2 0.26            117            233 235 
 CHI  HZ EP   1   1744  6.33                             117    0.20 6  246 195 
 CHI  HN ES   1   1744 35.56                             117    0.41 6  246 195 
 CHI  HZ I        1744 42.20         6.6 0.28            117            246 195 
 SJC  HN ES   4   1745  3.66                             105   -4.47 0  412 327 
                                                                                
