 2012  415 1233 49.2 L   6.914 -73.445109.6  RSN  5 0.3 1.3LRSN                1
 GAP=132        0.59       4.9     4.8  6.2  0.1522E+02  0.1077E+02  0.6512E+01E
 Epicentro: SAN VICENTE DE CHUCURI - SANTANDER                                 3
 ACTION:UPD 12-07-05 11:53 OP:tino STATUS:               ID:20120415123349 L   I
 2012-04-15-1230-00M.COL___181                                                 6
 STAT SP IPHASW D HRMM SECON CODA AMPLIT PERI AZIMU VELO AIN AR TRES W  DIS CAZ7
 BRR  HZ EP   1   1234  4.52                             160    -0.1 7   36 306 
 BRR  HZ I        1234  4.85        10.4 0.16                            36 306 
 BRR  HE ES   1   1234 16.65                             160     0.0 7   36 306 
 BAR2 SZ EP   1   1234  5.79                             156     0.4 7   46 141 
 BAR2 SZ ES   1   1234 17.93                             156    -0.1 7   46 141 
 PAM  SN ES   2   1234 24.50                             136    -0.1 5   95  60 
 RUS  HZ EP   1   1234 11.62                             129     0.3 7  120 160 
 RUS  HN ES   1   1234 28.36                             129    -0.3 7  120 160 
 RUS  HZ I        1234 29.68         2.8 0.32                           120 160 
 ZAR  HZ EP   1   1234 15.20                             118    -0.5 7  169 292 
 ZAR  HN ES   1   1234 36.60                             118     0.2 7  169 292 
                                                                                
