 2015  515 1554 19.9 L   6.711 -73.081138.5  RSN  6 0.4 1.9LRSN                1
 GAP=278        0.93       4.8     6.3  6.5 -0.2352E+01  0.1352E+02  0.6124E+01E
 Epicentro: JORDAN - SANTANDER                                                 3
 ACTION:UPD 15-09-10 22:04 OP:cam  STATUS:               ID:20150515155419 L   I
 OLDACT:REG 15-05-15 20:34 OP:drio STATUS:               ID:20150515154749     3
 2015-05-15-1547-49M.COL___279                                                 6
 STAT SP IPHASW D HRMM SECON CODA AMPLIT PERI AZIMU VELO AIN AR TRES W  DIS CAZ7
 BAR2 EZ EP       1554 38.71                             173    0.2010 17.3 220 
 BAR2 EZ ES       1554 52.50                             173   -0.5610 17.3 220 
 BAR2 EZ I        1554 55.36         8.9 0.26            171           17.3 220 
 BRR  HZ EP       1554 40.73                             147   -0.2010 82.3 302 
 BRR  HN ES       1554 58.04                             147    0.6810 82.3 302 
 SPBC HZ EP       1554 47.59                             128    0.03 9  160 223 
 SPBC HN ES       1555  9.55                             128    0.40 9  160 223 
 ZAR  HZ EP       1554 52.99                             119    0.04 8  214 294 
 ZAR  HN ES       1555 18.28                             119   -0.47 8  214 294 
 ZAR  HZ I        1555 23.19         9.8 0.60            120            214 294 
 NOR  HZ EP       1554 54.91                             117   -0.32 8  235 237 
 NOR  HN ES       1555 22.57                             117   -0.24 8  235 237 
 NOR  HZ I        1555 24.97         7.2 0.26            118            235 237 
 GUY2CHZ EP       1555  3.73                             111    0.53 7  302 237 
 GUY2CHN ES       1555 36.81                             111   -0.18 7  302 237 
 GUY2CHZ I        1555 45.91         4.2 0.60                           302 237 
                                                                                
