 2017  415 1149  1.2 L   6.744 -73.120146.9  RSN  8 0.4 1.6LRSN                1
 GAP=142        0.99       3.6     4.7  7.6 -0.1699E+01  0.1065E+02  0.2903E+01E
 Epicentro: LOS SANTOS - SANTANDER                                             3
 ACTION:UPD 17-05-30 21:12 OP:jn   STATUS:               ID:20170415114901 L   I
 OLDACT:UP  17-04-15 18:52 OP:cog  STATUS:               ID:20170415114208     3
 OLDACT:REG 17-04-15 17:30 OP:cog  STATUS:               ID:20170415114208     3
 2017-04-15-1148-00M.COL___368                                                 6
 STAT SP IPHASW D HRMM SECON CODA AMPLIT PERI AZIMU VELO AIN AR TRES W  DIS CAZ7
 BRR  HZ EP       1149 23.02                             151    0.2610 76.7 302 
 BRR  HN ES       1149 40.29                             151    0.6910 76.7 302 
 BRR  HZ I        1149 41.22         7.0 0.18            151           76.7 302 
 PAM  EZ EP       1149 24.11                             150    0.4110 80.6  35 
 PAM  EN ES       1149 40.61                             150   -0.6710 80.6  35 
 RUS  HZ EP       1149 24.29                             146   -0.3010 94.2 177 
 RUS  HE ES       1149 43.10                             146    0.2410 94.2 177 
 RUS  HZ I        1149 44.44        10.9 0.28            146           94.2 177 
 PTB  HZ EP       1149 27.98                             132   -0.40 9  149 261 
 PTB  HN ES   3   1149 47.94                             132   -1.67 2  149 261 
 PTB  HZ I        1149 52.79         6.5 0.12            133            149 261 
 SPBC HZ EP       1149 29.59                             130    0.11 9  160 221 
 SPBC HN ES       1149 51.18                             130   -0.38 9  160 221 
 ZAR  HZ EP       1149 34.23                             122    0.03 8  209 293 
 ZAR  HN ES       1149 59.81                             122   -0.16 8  209 293 
 NOR  HN ES       1150  4.45                             119   -0.20 8  233 236 
 NOR  HZ I        1150  6.48         3.5 0.38            120            233 236 
 CHI  HN ES       1150  7.78                             118    0.40 8  243 196 
 CHI  HZ I        1150 10.81         1.9 0.24            119            243 196 
                                                                                
