 2016  615 1706  7.3 L   6.788 -73.068141.0  RSN  5 0.4 1.7LRSN                1
 GAP=274        0.74       6.9     7.3  6.3 -0.3713E+01  0.1589E+02  0.1353E+02E
 Epicentro: LOS SANTOS - SANTANDER                                             3
 ACTION:UPD 16-07-21 22:19 OP:rebc STATUS:               ID:20160615170607 L   I
 OLDACT:DUP 16-06-16 01:35 OP:dnl  STATUS:               ID:20160615165747d    3
 OLDACT:REG 16-06-15 21:45 OP:dnl  STATUS:               ID:20160615165746     3
 2016-06-15-1657-46M.COL___340                                                 6
 STAT SP IPHASW D HRMM SECON CODA AMPLIT PERI AZIMU VELO AIN AR TRES W  DIS CAZ7
 BAR2 EZ EP       17 6 26.43                             169    0.0510 25.1 210 
 BAR2 EZ ES       17 6 41.23                             169   -0.0510 25.1 210 
 BAR2 EZ I        17 6 42.57        12.6 0.24                          25.1 210 
 BRR  HZ EP       17 6 28.12                             149   -0.3010 79.5 296 
 BRR  HE ES       17 6 45.09                             149    0.1810 79.5 296 
 BRR  HZ I        17 6 45.41        12.7 0.38                          79.5 296 
 ZAR  HZ EP   2   17 6 40.20                             120   -0.11 4  213 292 
 ZAR  HN ES   4   17 7  4.15                             120   -1.93 0  213 292 
 ZAR  HZ I        17 7  9.82         4.2 0.16                           213 292 
 NOR  HZ EP   2   17 6 42.76                             117   -0.67 4  241 236 
 NOR  HN ES   4   17 7  8.91                             117   -2.71 0  241 236 
 NOR  HZ I        17 7 16.66         3.1 0.14                           241 236 
 GUY2CHZ EP       17 6 52.21                             111    0.82 7  308 236 
 GUY2CHN ES       17 7 25.49                             111   -0.31 7  308 236 
 GUY2CHZ I        17 7 32.63         2.1 0.34                           308 236 
                                                                                
