 2012  915 1951 55.5 L   6.694 -73.116155.2  RSN  4 0.4 1.6LRSN                1
 GAP=189        0.78      11.8    20.5 10.7  0.1974E+03 -0.7019E+02 -0.3765E+02E
 Epicentro: VILLANUEVA - SANTANDER                                             3
 ACTION:UPD 12-10-22 14:19 OP:ep   STATUS:               ID:20120915195155 L   I
 2012-09-15-1950-00M.COL___227                                                 6
 STAT SP IPHASW D HRMM SECON CODA AMPLIT PERI AZIMU VELO AIN AR TRES W  DIS CAZ7
 GIR2 SZ EP   2   1952 16.09                             163   -0.61 5 43.4 349 
 BRR  HZ EP       1952 18.74                             151    0.5210 80.1 305 
 BRR  HN ES       1952 35.73                             151   -0.1810 80.1 305 
 BRR  HZ I        1952 39.02        20.6 0.24                          80.1 305 
 RUS  HZ EP   2   1952 19.09                             149   -0.36 5 88.7 178 
 RUS  HN ES   1   1952 38.15                             149    0.05 7 88.7 178 
 RUS  HZ I        1952 41.35         2.4 0.23                          88.7 178 
 PTB  HZ EP   2   1952 22.86                             134   -0.56 5  149 263 
                                                                                
