 2012  115 1028 12.7 L   6.739 -73.079145.8  RSN 15 0.4 2.6LRSN                1
 GAP=148        0.85       3.8     4.3  5.3 -0.3081E+01  0.5448E+01  0.6501E+01E
 Epicentro: JORDAN - SANTANDER                                                 3
 ACTION:UP  12-02-03 08:17 OP:REBC STATUS:               ID:20120115102812 L   I
 2012-01-15-1020-00M.COL___187                                                 6
 STAT SP IPHASW D HRMM SECON CODA AMPLIT PERI AZIMU VELO SNR AR TRES W  DIS CAZ7
 BAR2 SZ IP       1028 32.19                             172    -0.110   20 215 
 BAR2 SZ I        1028 32.37        79.2 0.22                            20 215 
 BAR2 SZ ES   1   1028 48.00                             172     0.5 7   20 215 
 GIR2 SZ IP       1028 32.33                             164    -0.310   40 341 
 GIR2 SZ ES       1028 47.48                             164    -0.710   40 341 
 PAM  SZ EP       1028 35.18                             150     0.210   79  32 
 PAM  SN ES   1   1028 52.58                             150     0.2 7   79  32 
 BRR  HZ IP     C 1028 34.21                             149    -0.210   81 300 
 BRR  HZ I        1028 34.67       178.6 0.12                            81 300 
 BRR  HE ES   1   1028 51.81                             149     0.5 7   81 300 
 RUS  HZ EP       1028 35.98                             146     0.010   94 180 
 RUS  HN ES   2   1028 54.31                             146     0.2 5   94 180 
 RUS  HZ I        1028 55.38        49.1 0.34                            94 180 
 PTB  HE ES   2   1029  1.55                             131    -0.1 5  154 262 
 OCA  SZ EP   1   1028 42.51                             128     0.8 7  168 351 
 OCA  SZ ES   2   1029  4.82                             128     0.4 5  168 351 
 OCA  SZ I        1029  9.48        39.8 0.29                           168 351 
 ZAR  HZ EP   1   1028 45.21                             121    -0.9 6  213 293 
 ZAR  HE ES   1   1029 12.02                             121    -0.1 6  213 293 
 ZAR  HZ I        1029 16.14        71.6 0.33                           213 293 
 NOR  SZ EP   1   1028 48.27                             118    -0.4 6  237 237 
 NOR  SN ES   1   1029 16.84                             118     0.1 6  237 237 
 CHI  HZ EP   1   1028 49.67                             117    -0.2 6  244 197 
 CHI  HN ES   2   1029 18.84                             117    -0.1 4  244 197 
 CHI  HZ I        1029 26.11         9.7 0.31                           244 197 
 ROSC BZ EP   2   1028 51.05                             117     0.4 4  251 213 
 ROSC BZ I        1029 26.59        20.3 0.48                           251 213 
 HEL  HZ EP   1   1028 53.53                             114     0.0 6  278 258 
 HEL  HE ES   2   1029 26.15                             114     0.8 4  278 258 
 HEL  HZ I        1029 31.14        23.1 0.40                           278 258 
 GUY  SZ EP   1   1028 57.08                             112     0.3 5  306 237 
 GUY  SN ES   2   1029 31.68                             112     0.4 4  306 237 
 GUY  SZ I        1029 39.94        33.3 0.39                           306 237 
 RREF HZ EP   1   1028 59.43                             111     0.4 5  323 231 
 RREF HN ES   2   1029 35.26                             111     0.2 3  323 231 
 RREF HZ I        1029 41.62        22.6 0.20                           323 231 
 PRA  HZ EP   1   1029  5.83                             107    -0.1 4  390 211 
                                                                                
