 2016  915 1811 41.2 L   6.782 -73.161142.4  RSN  9 0.3 1.8LRSN                1
 GAP=242        0.64       3.0     3.1  4.2  0.2327E+01  0.2569E+01 -0.5521E+00E
 Epicentro: LOS SANTOS - SANTANDER                                             3
 ACTION:UPD 17-08-17 21:12 OP:lp   STATUS:               ID:20160915181141 L   I
 OLDACT:REG 16-09-15 22:52 OP:lv   STATUS:               ID:20160915180739     3
 2016-09-15-1808-00M.COL___324                                                 6
 STAT SP IPHASW D HRMM SECON CODA AMPLIT PERI AZIMU VELO AIN AR TRES W  DIS CAZ7
 BAR2 EZ EP       1812  0.12                             171   -0.3010 21.1 186 
 BAR2 EZ ES       1812 15.30                             171   -0.0810 21.1 186 
 BAR2 EZ I        1812 18.58        13.3 0.21            170           21.1 186 
 RUS  HZ EP       1812  4.74                             144    0.2210 98.7 175 
 RUS  HE ES       1812 22.82                             144    0.1310 98.7 175 
 RUS  HZ I        1812 24.56         7.3 0.22            147           98.7 175 
 PTB  HZ EP       1812  7.23                             132   -0.52 9  146 259 
 PTB  HN ES       1812 28.45                             132    0.03 9  146 259 
 PTB  HZ I        1812 34.20         7.3 0.27            132            146 259 
 SPBC HZ EP       1812  9.26                             129    0.03 9  161 219 
 SPBC HN ES       1812 31.07                             129    0.01 9  161 219 
 SPBC HZ I        1812 34.04        13.2 0.18            131            161 219 
 ZAR  HZ EP       1812 13.47                             122    0.09 9  203 293 
 ZAR  HN ES       1812 38.98                             122    0.52 9  203 293 
 ZAR  HZ I        1812 44.65         6.1 0.26            123            203 293 
 NOR  HZ EP       1812 16.43                             118   -0.07 8  232 235 
 NOR  HE ES       1812 43.62                             118   -0.38 8  232 235 
 NOR  HZ I        1812 49.48         5.9 0.27            120            232 235 
 CHI  HZ EP       1812 18.78                             117    0.29 8  246 195 
 CHI  HE ES       1812 47.72                             117    0.17 8  246 195 
 CHI  HZ I        1812 48.07         4.1 0.06            119            246 195 
 GUY2CHZ EP   9   1812 25.77                             112    1.37 0  299 235 
 GUY2CHN ES       1812 59.49                                    0.05 7  299 235 
 GUY2CHZ I        1813  6.90         3.5 0.25                           299 235 
 SJC  HZ EP   4   1812 34.62                             105   -2.16 0  410 327 
 SJC  HN ES   4   1813 16.04                             105   -4.07 0  410 327 
 SJC  HZ I        1813 22.62         1.4 0.29            107            410 327 
                                                                                
