 2014  915 1056 15.6 L   6.793 -73.103158.3  RSN  9 0.4 1.6LRSN                1
 GAP=204        0.83       3.9     5.1  5.9  0.5893E+01 -0.2249E+01 -0.5442E+01E
 Epicentro: LOS SANTOS - SANTANDER                                             3
 ACTION:UPD 14-10-03 23:05 OP:nd   STATUS:               ID:20140915105615 L   I
 OLDACT:DUP 14-09-15 22:17 OP:spq  STATUS:               ID:20140915104818d    3
 OLDACT:REG 14-09-15 20:25 OP:spq  STATUS:               ID:20140915104817     3
 2014-09-15-1048-17M.COL___293                                                 6
 STAT SP IPHASW D HRMM SECON CODA AMPLIT PERI AZIMU VELO AIN AR TRES W  DIS CAZ7
 BAR2 SZ EP       1056 36.59                             171   -0.2010 23.9 202 
 BAR2 SZ ES   1   1056 53.79                             171    0.50 7 23.9 202 
 BAR2 SZ I        1056 55.90         7.6 0.20            168           23.9 202 
 BRR  HZ EP   1   1056 38.05                             153   -0.35 7 75.8 297 
 BRR  HE ES       1056 56.01                             153   -0.1510 75.8 297 
 BRR  HZ I        1056 56.88        12.3 0.34            150           75.8 297 
 RUS  HZ EP       1056 41.01                             146    0.4410 99.6 179 
 RUS  HN ES   1   1056 59.39                             146   -0.63 7 99.6 179 
 RUS  HZ I        1057  0.37         2.1 0.40            147           99.6 179 
 PTB  HZ EP       1056 43.33                             134   -0.72 9  152 259 
 PTB  HE ES       1057  6.54                             134    0.33 9  152 259 
 PTB  HZ I        1057  9.27         6.6 0.14            132            152 259 
 SPBC HZ EP       1056 45.67                             131    0.32 9  166 220 
 SPBC HE ES       1057  8.60                             131    0.07 9  166 220 
 SPBC HZ I        1057 15.21         4.1 0.21            131            166 220 
 ZAR  HZ EP   1   1056 49.32                             124   -0.08 6  209 292 
 ZAR  HN ES       1057 15.72                             124   -0.02 8  209 292 
 ZAR  HZ I        1057 20.74         6.6 0.26            124            209 292 
 SML  HZ EP       1056 53.57                             120    0.28 8  246 334 
 SML  HE ES   1   1057 22.83                             120    0.17 6  246 334 
 SML  HZ I        1057 26.64         4.7 0.07            120            246 334 
 GUY2CHZ EP   4   1057  2.43                             114    2.20 0  305 235 
 GUY2CHN ES   4   1057 39.19                             114    4.17 0  305 235 
 GUY2CHZ I        1057 43.91         1.9 0.60                           305 235 
 MON  HZ EP   1   1057  5.68                             110    0.05 5  358 308 
 MON  HN ES   4   1057 41.85                             110   -2.78 0  358 308 
 MON  HZ I        1057 48.85         0.9 0.23            111            358 308 
                                                                                
