 2011  915 1830  8.0 L   6.802 -73.120148.8  RSN 18 0.5 3.1LRSN                1
 GAP=116        0.90       2.8     4.9  5.0 -0.1533E+01  0.9154E+01  0.2352E+01E
 Epicentro: LOS SANTOS - SANTANDER                                             3
 ACTION:UPD 12-07-13 15:57 OP:ep   STATUS:               ID:20110915183008 L   I
 2011-09-15-1828-35S.COL___168                                                 6
 STAT SP IPHASW D HRMM SECON CODA AMPLIT PERI AZIMU VELO AIN AR TRES W  DIS CAZ7
 BAR2 SZ IP       1830 27.92                             170   -0.0610 24.2 197 
 BAR2 SZ I        1830 28.10       233.6 0.40                          24.2 197 
 BAR2 SZ ES   1   1830 42.85                             170   -0.73 7 24.2 197 
 GIR2 SZ EP       1830 27.95                             167   -0.0610 31.7 345 
 GIR2 SZ ES   1   1830 43.33                             167   -0.31 7 31.7 345 
 BRR  HZ EP       1830 30.02                             152    0.4410 73.7 297 
 BRR  HN ES   2   1830 47.26                             152    0.82 5 73.7 297 
 BRR  HZ I        1830 49.53       218.2 0.14                          73.7 297 
 PAM  SZ IP       1830 30.73                             152    0.3410 75.4  38 
 PAM  SN ES   1   1830 48.05                             152    0.17 7 75.4  38 
 RUS  HZ IP     D 1830 31.81                             144   -0.2110  101 178 
 RUS  HN ES   1   1830 50.55                             144   -0.23 7  101 178 
 RUS  HZ I        1830 53.30       100.1 0.48                           101 178 
 OCA  SZ EP       1830 36.49                             130   -0.04 9  160 352 
 OCA  SZ ES   1   1830 59.13                             130    0.32 7  160 352 
 OCA  SZ I        1831  3.25       198.6 0.47                           160 352 
 YOP  SZ EP       1830 38.38                             127    0.26 9  178 154 
 YOP  SE ES   2   1831  2.47                             127    0.83 4  178 154 
 ZAR  HZ EP       1830 40.74                             123   -0.13 8  207 292 
 NOR  SZ EP       1830 43.86                             119   -0.27 8  237 235 
 NOR  SN ES   1   1831 11.55                             119   -0.80 6  237 235 
 CHI  HZ EP       1830 45.97                             117    0.03 8  250 196 
 CHI  HZ I        1830 47.76        44.5 0.10                           250 196 
 CHI  HN ES   1   1831 15.53                             117   -0.02 6  250 196 
 HEL  HN ES   3   1831 20.62                             115    0.24 2  275 256 
 HEL  HZ I        1831 28.21        33.9 0.20                           275 256 
 VIL  SZ EP       1830 51.37                             112   -0.24 7  304 192 
 RREF HZ EP       1830 54.84                             111    0.34 7  324 230 
 RREF HN ES   2   1831 32.67                             111    1.87 3  324 230 
 RREF HZ I        1831 39.39        82.0 0.30                           324 230 
 DBB  SZ EP       1830 56.03                             110    0.14 7  342 274 
 TOL  SZ EP       1830 57.61                             110    1.02 6  346 225 
 COD  HZ EP       1830 55.25                             109   -1.22 6  348 354 
 COD  HZ I        1830 58.09        59.9 0.28                           348 354 
 COD  HN ES   2   1831 34.24                             109   -0.06 3  348 354 
 ANIL HZ EP   2   1830 58.83                             109    0.69 3  360 225 
 ANIL HN ES   3   1831 38.12                             109    0.85 2  360 225 
 ANIL HZ I        1831 42.50       108.8 0.42                           360 225 
 PRA  HZ EP       1831  1.17                             107   -0.61 6  394 210 
 PRA  HN ES   1   1831 43.18                             107   -0.57 4  394 210 
                                                                                
