 2010 1115 1656 32.2 L   6.789 -73.105144.0  RSN 11 0.5 2.2LRSN                1
 GAP=187        1.08       4.1     8.2  7.1 -0.1703E+01  0.1050E+02  0.4043E+01E
 Epicentro: LOS SANTOS - SANTANDER                                             3
 ACTION:UP  10-12-17 16:52 OP:REBC STATUS:               ID:20101115165632 L   I
 2010-11-15-1653-01S.COL___129                                                 6
 STAT SP IPHASW D HRMM SECON CODA AMPLIT PERI AZIMU VELO SNR AR TRES W  DIS CAZ7
 BTL  SZ EP       1656 52.52                             170     0.910   23 308 
 BAR2 SZ EP       1656 51.54                             170    -0.110   24 202 
 BAR2 SZ ES   1   1657  5.99                             170    -0.8 7   24 202 
 BAR2 SZ I        1657  7.90        54.4 0.11                            24 202 
 BRR  HZ EP       1656 53.38                             151    -0.110   76 298 
 BRR  HN ES       1657 10.35                             151     0.410   76 298 
 BRR  HZ I        1657 12.90        36.1 0.45                            76 298 
 RUS  HZ EP       1656 55.47                             144    -0.210   99 179 
 RUS  HN ES       1657 14.08                             144     0.110   99 179 
 RUS  HZ I        1657 15.25        11.6 0.16                            99 179 
 OCA  SZ EP       1657  0.40                             129    -0.2 9  162 352 
 OCA  SZ ES   1   1657 22.14                             129    -0.5 7  162 352 
 OCA  SZ I        1657 25.08        18.8 0.00                           162 352 
 NOR  SZ EP       1657  8.11                             118    -0.1 8  238 235 
 NOR  SN ES   2   1657 34.93                             118    -1.3 4  238 235 
 NOR  SZ I        1657 40.85         2.8 0.39                           238 235 
 CHI  HZ EP   1   1657  9.71                             117    -0.1 6  249 196 
 CHI  HN ES   2   1657 40.10                             117     0.9 4  249 196 
 CHI  HZ I        1657 45.14         6.3 0.72                           249 196 
 ROSC BN ES   2   1657 39.81                             116    -0.3 4  254 212 
 ROSC BZ I        1657 46.64        10.2 0.78                           254 212 
 GUY  SN ES   2   1657 50.54                             112     0.2 4  304 236 
 GUY  SZ I        1657 58.82        11.8 0.32                           304 236 
 RREF HZ EP   1   1657 18.46                             110    -0.1 5  324 230 
 RREF HN ES   2   1657 54.89                             110     0.1 3  324 230 
 RREF HZ I        1658  1.00         7.6 0.30                           324 230 
 PRA  HZ EP       1657 25.84                             106     0.0 6  393 210 
 PRA  HN ES   2   1658  7.67                             106     0.1 3  393 210 
 PRA  HZ I        1658 11.22        19.7 0.33                           393 210 
                                                                                
