 2013 1115 1359 59.2 L   6.807 -73.127145.3  RSN  9 0.4 1.9LRSN                1
 GAP=120        1.11       4.1     5.1  6.2 -0.4749E+01  0.4254E+01 -0.4407E+01E
 Epicentro: LOS SANTOS - SANTANDER                                             3
 ACTION:UPD 14-01-09 16:28 OP:ep   STATUS:               ID:20131115135958 L   I
 OLDACT:UP  13-12-03 10:13 OP:ep   STATUS:               ID:20131115135958 L   3
 OLDACT:REG 13-11-15 16:09 OP:stll STATUS:               ID:20131115135817     3
 2013-11-15-1358-17M.COL___235                                                 6
 STAT SP IPHASW D HRMM SECON CODA AMPLIT PERI AZIMU VELO AIN AR TRES W  DIS CAZ7
 BAR2 SZ EP       14 0 19.00                             170    0.2310 24.5 194 
 BAR2 SZ ES       14 0 33.49                             170   -0.5610 24.5 194 
 BAR2 SZ I        14 0 34.95        46.1 0.36            169           24.5 194 
 BRR  HZ EP       14 0 20.89                             152    0.5410 72.7 297 
 BRR  HZ I        14 0 21.15        11.2 0.20            149           72.7 297 
 BRR  HN ES       14 0 37.54                             152    0.6710 72.7 297 
 PAM  SZ EP       14 0 21.77                             151    0.5510 75.5  39 
 PAM  SZ I        14 0 22.13        19.7 0.22            153           75.5  39 
 PAM  SN ES       14 0 38.21                             151   -0.2210 75.5  39 
 RUS  HZ EP       14 0 22.88                             144   -0.0410  101 177 
 RUS  HZ I        14 0 23.74         4.5 0.10            145            101 177 
 RUS  HN ES       14 0 41.21                             144   -0.2310  101 177 
 CAPV BZ EP       14 0 26.76                             132    0.40 9  147  37 
 PTB  HZ EP       14 0 25.90                             131   -0.39 9  150 259 
 PTB  HN ES   4   14 0 46.38                             131   -1.07 0  150 259 
 PTB  HZ I        14 0 54.07         7.7 0.44            130            150 259 
 NOR  HZ EP       14 0 35.37                             118    0.28 8  237 235 
 NOR  HN ES       14 1  2.99                             118   -0.13 8  237 235 
 NOR  HZ I        14 1  4.46         4.1 0.18            118            237 235 
 SML  HZ EP       14 0 35.12                             117   -0.66 8  244 335 
 SML  HN ES       14 1  3.70                             117   -0.65 8  244 335 
 SML  HZ I        14 1  8.42        12.0 0.10            117            244 335 
 SOCV BZ EP       14 0 41.51                             112   -0.44 7  299  57 
 SOCV BZ ES   4   14 1 12.24                             112   -3.08 0  299  57 
                                                                                
