 2010  915 1542 15.6 L   6.870 -73.308122.0  RSN  8 0.4 2.3LRSN                1
 GAP=133        0.73       4.9    12.3 10.5  0.1876E+02 -0.5678E+02 -0.2239E+02E
 Epicentro: BETULIA - SANTANDER                                                3
 ACTION:UP  11-02-18 11:02 OP:tino STATUS:               ID:20100915154215 L   I
 2010-09-15-1539-11S.COL___119                                                 6
 STAT SP IPHASW D HRMM SECON CODA AMPLIT PERI AZIMU VELO SNR AR TRES W  DIS CAZ7
 BTL  SZ EP   1   1542 31.43                             176    -0.7 7    7  39 
 GIR2 SZ EP   1   1542 32.29                             167     0.0 7   26  29 
 BAR2 SZ EP   1   1542 32.73                             164     0.0 7   34 156 
 BAR2 SZ ES   2   1542 45.84                             164    -0.2 5   34 156 
 BAR2 SZ I        1542 47.20        98.0 0.40                            34 156 
 BRR  HZ EP   1   1542 33.21                             156     0.1 7   52 301 
 BRR  HE ES   2   1542 47.24                             156     0.5 5   52 301 
 BRR  HZ I        1542 47.89        40.5 0.14                            52 301 
 RUS  HZ EP   1   1542 38.06                             135     0.1 7  111 167 
 RUS  HE ES   2   1542 55.58                             135     0.2 5  111 167 
 GUE  SZ EP   1   1542 38.68                             134     0.6 7  114  22 
 GRA  SZ EP   1   1542 38.93                             131     0.1 7  125  26 
 OCA  SZ EP   1   1542 40.90                             125    -0.4 7  151 360 
 OCA  SZ ES   2   1543  1.23                             125    -0.1 5  151 360 
 OCA  SZ I        1543  8.15        17.9 0.17                           151 360 
                                                                                
