 2016 1115 1340 19.7 L   5.953 -73.778113.2  RSN  9 0.4 1.9LRSN                1
 GAP=135        0.92       2.3     3.2  6.8 -0.2616E+01 -0.8002E+00  0.4980E+01E
 Epicentro: SUCRE - SANTANDER                                                  3
 ACTION:UPD 17-10-26 21:08 OP:lp   STATUS:               ID:20161115134019 L   I
 OLDACT:UP  16-11-15 21:22 OP:and  STATUS:               ID:20161115133746     3
 OLDACT:UP  16-11-15 21:21 OP:and  STATUS:               ID:20161115133746     3
 OLDACT:UP  16-11-15 21:21 OP:and  STATUS:               ID:20161115133746     3
 OLDACT:UP  16-11-15 21:19 OP:and  STATUS:               ID:20161115133746     3
 OLDACT:REG 16-11-15 19:50 OP:and  STATUS:               ID:20161115133746     3
 2016-11-15-1338-00M.COL___347                                                 6
 STAT SP IPHASW D HRMM SECON CODA AMPLIT PERI AZIMU VELO AIN AR TRES W  DIS CAZ7
 BAR2 EZ IP     D 1340 39.83                             137    0.0610 96.6  43 
 BAR2 EZ ES       1340 55.55                             137    0.1510 96.6  43 
 BAR2 EZ I        1340 57.00        56.0 0.28            136           96.6  43 
 PTB  HZ EP       1340 39.18                             136   -0.5010 99.2 311 
 PTB  HN ES       1340 55.04                             136   -0.2010 99.2 311 
 PTB  HZ I        1340 56.68         9.9 0.17            135           99.2 311 
 NOR  HN ES       1341  0.48                             128    0.4210  128 250 
 NOR  HZ I        1341  1.82        24.1 0.16            127            128 250 
 BRR  HZ EP       1340 42.55                             128    0.2810  128   3 
 BRR  HE ES       1340 59.56                             128   -0.2910  128   3 
 BRR  HZ I        1341  3.55        16.0 0.14            127            128   3 
 NOR  HZ EP       1340 42.80                             128    0.4010  128 250 
 CHI  HZ EP       1340 44.74                             124    0.07 9  146 178 
 CHI  HN ES       1341  3.59                             124   -0.52 9  146 178 
 CHI  HZ I        1341  5.65         5.8 0.18            124            146 178 
 PAM  EZ EP       1340 49.89                             116    0.06 9  194  38 
 PAM  EE ES       1341 13.66                             116    0.37 9  194  38 
 PAM  EZ I        1341 19.54         4.3 0.16            115            194  38 
 ZAR  HZ EP       1340 50.12                             114   -0.61 8  208 325 
 ZAR  HN ES       1341 15.14                             114    0.24 8  208 325 
 ZAR  HZ I        1341 21.38         7.0 0.20            113            208 325 
 PRA  HZ EP       1340 57.85                             107   -0.77 7  276 206 
 PRA  HE ES       1341 29.49                             107    0.54 7  276 206 
 PRA  HZ I        1341 34.67         5.0 0.26            107            276 206 
 ORTC HZ EP       1340 59.24                             107    0.37 7  279 216 
 ORTC HN ES       1341 29.38                             107   -0.01 7  279 216 
 ORTC HZ I        1341 35.31         3.9 0.48            106            279 216 
                                                                                
