 2017  215 1517 33.4 L   6.796 -73.124144.0  RSN 12 0.4 2.3LRSN                1
 GAP=139        0.89       3.1     3.5  4.9 -0.7739E+00  0.4743E+01  0.4303E+01E
 Epicentro: LOS SANTOS - SANTANDER                                             3
 ACTION:UPD 17-05-24 15:36 OP:jn   STATUS:               ID:20170215151733 L   I
 OLDACT:UP  17-02-15 23:26 OP:cog  STATUS:               ID:20170215150741     3
 OLDACT:REG 17-02-15 21:07 OP:cog  STATUS:               ID:20170215150741     3
 2017-02-15-1508-00M.COL___361                                                 6
 STAT SP IPHASW D HRMM SECON CODA AMPLIT PERI AZIMU VELO AIN AR TRES W  DIS CAZ7
 BAR2 EZ EP       1517 52.68                             170   -0.1610 23.5 196 
 BAR2 EZ ES       1518  7.95                             170   -0.0410 23.5 196 
 BAR2 EZ I        1518  8.76        51.8 0.16            167           23.5 196 
 BRR  HZ EP       1517 54.60                             151    0.0910 73.5 298 
 BRR  HN ES       1518 11.32                             151    0.3610 73.5 298 
 BRR  HZ I        1518 15.59        49.1 0.10            149           73.5 298 
 PAM  EZ EP       1517 55.59                             151    0.2110 76.2  38 
 PAM  EN ES       1518 12.57                             151    0.0710 76.2  38 
 PAM  EZ I        1518 14.63        57.8 0.50            156           76.2  38 
 RUS  HZ EP       1517 56.73                             144   -0.2310  100 177 
 RUS  HN ES       1518 15.01                             144   -0.3110  100 177 
 RUS  HZ I        1518 15.95        23.7 0.22            144            100 177 
 PTB  HZ EP       1517 59.76                             131   -0.69 9  150 259 
 PTB  HN ES       1518 21.24                             131   -0.30 9  150 259 
 PTB  HZ I        1518 25.54        19.3 0.14            130            150 259 
 ZAR  HZ EP       1518  6.15                             122    0.15 8  206 292 
 ZAR  HE ES       1518 31.70                             122    0.29 8  206 292 
 ZAR  HZ I        1518 37.00        35.0 0.60            121            206 292 
 NOR  HZ EP       1518  9.43                             118    0.20 8  236 235 
 NOR  HN ES       1518 36.98                             118   -0.19 8  236 235 
 NOR  HZ I        1518 41.76        10.9 0.36            118            236 235 
 CHI  HZ EP       1518 11.03                             117   -0.02 8  249 196 
 CHI  HE ES       1518 41.44                             117    1.05 8  249 196 
 CHI  HZ I        1518 44.52         6.6 0.44            117            249 196 
 ELA  HZ EP   4   1518 15.36                             110   -5.02 0  331 230 
 ELA  HN ES       1518 56.33                             110   -0.67 7  331 230 
 ELA  HZ I        1519  6.16         6.9 0.42            110            331 230 
 ANIL HZ EP   9   1518 25.41                             108    2.09 0  359 225 
 ANIL HE ES       1519  5.10                             108    0.77 6  359 225 
 ANIL HZ I        1519  8.73        19.5 0.32            108            359 225 
 PRA  HZ EP       1518 26.73                             106   -0.25 6  393 210 
 PRA  HE ES       1519  9.36                             106    0.61 6  393 210 
 PRA  HZ I        1519 15.68         8.2 0.28            107            393 210 
 ORTC HZ EP       1518 27.52                             106    0.11 6  397 216 
 ORTC HN ES   3   1519 11.18                             106    1.66 1  397 216 
 ORTC HZ I        1519 15.75         5.9 0.26            106            397 216 
                                                                                
