 2015 1015 1540 42.8 L   6.817 -73.150143.6  RSN 10 0.6 2.1LRSN                1
 GAP=135        1.41       3.6     6.2  7.6 -0.1729E+01  0.1481E+02  0.4082E+00E
 Epicentro: LOS SANTOS - SANTANDER                                             3
 ACTION:UPD 15-12-22 20:40 OP:cam  STATUS:               ID:20151015154042 L   I
 OLDACT:REG 15-10-15 22:18 OP:stll STATUS:               ID:20151015153748     3
 2015-10-15-1537-48M.COL___343                                                 6
 STAT SP IPHASW D HRMM SECON CODA AMPLIT PERI AZIMU VELO AIN AR TRES W  DIS CAZ7
 BAR2 EZ EP       1541  2.49                             170    0.2910 25.1 188 
 BAR2 EZ ES       1541 17.26                             170   -0.0810 25.1 188 
 BAR2 EZ I        1541 18.96        31.8 0.32            168           25.1 188 
 BRR  HZ EP       1541  4.31                             153    0.6810 69.9 297 
 BRR  HN ES       1541 20.66                             153    0.7710 69.9 297 
 PAM  EZ EP       1541  5.21                             151    0.5110 76.2  41 
 PAM  EZ I        1541  5.55        55.6 0.20            154           76.2  41 
 PAM  EN ES       1541 21.91                             151    0.1110 76.2  41 
 RUS  HZ EP       1541  6.06                             143   -0.4110  103 176 
 RUS  HN ES       1541 24.57                             143   -0.3710  103 176 
 RUS  HZ I        1541 26.03         7.7 0.28            144            103 176 
 OCA  HZ EP       1541 10.29                             130   -0.46 9  158 353 
 OCA  HN ES       1541 31.73                             130   -0.83 9  158 353 
 SPBC HZ EP       1541 11.43                             128    0.20 9  164 218 
 SPBC HN ES       1541 33.17                             128   -0.25 9  164 218 
 SPBC HZ I        1541 37.89        16.3 0.66            128            164 218 
 ZAR  HZ EP       1541 16.51                             122    1.54 9  203 292 
 ZAR  HN ES       1541 39.38                             122   -0.69 9  203 292 
 ZAR  HZ I        1541 47.10        12.8 0.36            122            203 292 
 SML  HZ EP       1541 18.80                             117   -0.28 8  242 335 
 SML  HN ES       1541 46.77                             117   -0.62 8  242 335 
 SML  HZ I        1541 49.59        15.1 0.26            118            242 335 
 CHI  HZ EP       1541 19.94                             116   -0.61 8  250 195 
 CHI  HN ES       1541 49.98                             116   -0.03 8  250 195 
 CHI  HZ I        1541 53.47         6.1 0.58            117            250 195 
 GUY2CHZ EP       1541 26.74                             112    0.37 7  302 234 
 GUY2CHN ES       1541 59.93                             112   -0.44 7  302 234 
 GUY2CHZ I        1542  6.57         3.6 0.34                           302 234 
                                                                                
