 2017 1115 1524 27.1 L   6.799 -73.166141.8  RSN  6 0.3 1.5LRSN                1
 GAP=134        0.84       4.3     3.8  6.4 -0.8501E+00  0.7931E+01 -0.5557E+01E
 Epicentro: LOS SANTOS - SANTANDER                                             3
 ACTION:UPD 17-12-12 19:55 OP:rebc STATUS:               ID:20171115152427 L   I
 OLDACT:REG 17-11-15 21:36 OP:lv   STATUS:               ID:20171115151737     3
 2017-11-15-1518-00M.COL___447                                                 6
 STAT SP IPHASW D HRMM SECON CODA AMPLIT PERI AZIMU VELO AIN AR TRES W  DIS CAZ7
 BAR2 EZ EP       1524 46.32                             170    0.0310 22.9 185 
 BAR2 EZ ES       1525  1.17                             170   -0.0610 22.9 185 
 BAR2 EZ I        1525  2.16        13.8 0.36            171           22.9 185 
 PAM  EZ EP       1524 49.25                             150    0.2110 78.9  41 
 PAM  EN ES       1525  6.03                             150   -0.0810 78.9  41 
 PAM  EZ I        1525  8.24         8.0 0.46            153           78.9  41 
 RUS  HZ EP       1524 50.42                             143   -0.0910  101 175 
 RUS  HN ES       1525  8.90                             143    0.1610  101 175 
 RUS  HZ I        1525  9.97         3.8 0.30            146            101 175 
 PTB  HZ EP       1524 53.00                             132   -0.59 9  146 259 
 PTB  HN ES       1525 14.03                             132   -0.19 9  146 259 
 PTB  HZ I        1525 21.07         2.9 0.28            132            146 259 
 ZAR  HZ EP       1524 59.66                             122    0.53 9  202 292 
 ZAR  HN ES       1525 24.26                             122    0.18 9  202 292 
 ZAR  HZ I        1525 27.18         5.1 0.20            123            202 292 
 GUY2CHZ EP   9   1525 13.07                             112    2.71 0  299 235 
 GUY2CHN ES       1525 47.65                                    0.88 7  299 235 
 GUY2CHZ I        1525 51.61         1.2 0.44                           299 235 
                                                                                
