 2016 1115 1819 26.5 L   6.821 -73.160146.3  RSN  8 0.4 1.8LRSN                1
 GAP=104        1.03       4.9     3.9  6.8 -0.3502E+01  0.2040E+00  0.1372E+02E
 Epicentro: LOS SANTOS - SANTANDER                                             3
 ACTION:UPD 17-10-26 21:08 OP:lp   STATUS:               ID:20161115181926 L   I
 OLDACT:UP  16-11-15 23:30 OP:and  STATUS:               ID:20161115181744     3
 OLDACT:REG 16-11-15 20:13 OP:and  STATUS:               ID:20161115181744     3
 2016-11-15-1818-00M.COL___341                                                 6
 STAT SP IPHASW D HRMM SECON CODA AMPLIT PERI AZIMU VELO AIN AR TRES W  DIS CAZ7
 BAR2 EZ EP       1819 46.08                             170   -0.1610 25.4 186 
 BAR2 EZ ES       1820  1.46                             170   -0.1710 25.4 186 
 BAR2 EZ I        1820  2.28        18.1 0.22            169           25.4 186 
 BRR  HZ EP       1819 47.84                             153    0.2710 68.7 297 
 BRR  HN ES       1820  4.91                             153    0.9110 68.7 297 
 PAM  EZ EP       1819 48.91                             151    0.1810 76.7  42 
 PAM  EN ES       1820  5.72                             151   -0.3510 76.7  42 
 PAM  EZ I        1820  8.22        12.0 0.48            153           76.7  42 
 PTB  HZ EP       1819 52.81                             132   -0.60 9  147 258 
 PTB  HN ES       1820 13.85                             132   -0.55 9  147 258 
 PTB  HZ I        1820 20.98         6.9 0.30            130            147 258 
 TAM  HZ EP       1819 54.42                             130    0.00 9  157 106 
 ZAR  HN ES       1820 23.54                             123   -0.35 9  202 292 
 ZAR  HZ I        1820 34.60         5.1 0.20            121            202 292 
 NOR  HZ EP       1820  2.70                             119    0.43 8  235 234 
 NOR  HN ES       1820 30.47                             119    0.31 8  235 234 
 NOR  HZ I        1820 34.73         5.1 0.31            118            235 234 
 CHI  HZ EP       1820  4.67                             117    0.25 8  250 195 
 CHI  HN ES       1820 33.91                             117   -0.09 8  250 195 
 CHI  HZ I        1820 36.86         4.2 0.40            117            250 195 
 SJC  HZ EP   4   1820 20.26                             106   -1.50 0  406 327 
 SJC  HN ES   4   1821  2.18                             106   -2.67 0  406 327 
                                                                                
