 2012  815 1248 50.6 L   6.781 -73.157141.9  RSN  8 0.4 2.0LRSN                1
 GAP=113        0.87       5.0     4.5  6.1  0.5645E+01  0.9518E+00  0.5781E+01E
 Epicentro: LOS SANTOS - SANTANDER                                             3
 ACTION:UPD 12-09-10 11:56 OP:ep   STATUS:               ID:20120815124850 L   I
 2012-08-15-1240-00M.COL___217                                                 6
 STAT SP IPHASW D HRMM SECON CODA AMPLIT PERI AZIMU VELO AIN AR TRES W  DIS CAZ7
 BAR2 SZ EP       1249  9.82                             171    0.1010 21.1 188 
 BAR2 SZ ES       1249 24.10                             171   -0.5210 21.1 188 
 GIR2 SZ EP       1249  9.78                             166   -0.0810 33.2 353 
 BRR  HZ EP       1249 11.54                             152    0.2210 71.1 301 
 BRR  HN ES       1249 28.23                             152    0.7510 71.1 301 
 BRR  HZ I        1249 29.66        35.9 0.14                          71.1 301 
 PAM  SZ EP   1   1249 12.55                             149    0.00 7 79.8  39 
 PAM  SN ES   1   1249 29.29                             149   -0.38 7 79.8  39 
 PAM  SZ I        1249 31.70        23.5 0.56                          79.8  39 
 RUS  HZ EP       1249 13.90                             144    0.0810 98.6 175 
 RUS  HZ I        1249 15.07        13.4 0.15                          98.6 175 
 RUS  HE ES   1   1249 32.30                             144    0.36 7 98.6 175 
 PTB  HZ EP       1249 16.73                             131   -0.37 9  146 260 
 PTB  HE ES   1   1249 37.37                             131   -0.40 7  146 260 
 PTB  HZ I        1249 40.18        11.0 0.12                           146 260 
 YOP  SZ EP       1249 20.38                             126    0.14 9  178 153 
 ZAR  HE ES   1   1249 47.52                             122   -0.31 6  204 293 
 ZAR  HZ I        1249 52.87         9.0 0.19                           204 293 
                                                                                
