 2016 1215 1033 55.0 L   6.741 -73.139145.4  RSN  6 0.5 1.6LRSN                1
 GAP=140        1.28       6.4     5.7  8.7  0.3584E+01  0.1262E+02 -0.2843E+01E
 Epicentro: LOS SANTOS - SANTANDER                                             3
 ACTION:UPD 17-01-11 20:15 OP:rebc STATUS:               ID:20161215103355 L   I
 OLDACT:UP  16-12-15 23:09 OP:ar   STATUS:               ID:20161215102742     3
 OLDACT:REG 16-12-15 21:05 OP:ar   STATUS:               ID:20161215102742     3
 2016-12-15-1028-00M.COL___343                                                 6
 STAT SP IPHASW D HRMM SECON CODA AMPLIT PERI AZIMU VELO AIN AR TRES W  DIS CAZ7
 BAR2 EZ EP       1034 14.41                             173   -0.0210 17.1 196 
 BAR2 EZ ES       1034 29.16                             173   -0.4610 17.1 196 
 BAR2 EZ I        1034 33.13        22.1 0.92            173           17.1 196 
 BRR  HZ EP       1034 16.20                             151   -0.0910 75.1 303 
 BRR  HN ES       1034 33.72                             151    0.7910 75.1 303 
 BRR  HZ I        1034 43.61         9.6 0.38            150           75.1 303 
 PAM  EZ EP       1034 17.24                             149   -0.1810 82.1  36 
 PAM  EN ES       1034 34.66                             149   -0.2810 82.1  36 
 PAM  EZ I        1034 36.40         6.1 0.60            153           82.1  36 
 RUS  HZ EP       1034 18.68                             146    0.4810 94.0 176 
 RUS  HN ES       1034 36.75                             146    0.4210 94.0 176 
 RUS  HZ I        1034 37.98         3.4 0.30            152           94.0 176 
 PTB  HZ EP       1034 20.98                             132   -0.87 9  147 261 
 PTB  HN ES       1034 42.16                             132   -0.67 9  147 261 
 PTB  HZ I        1034 45.72         2.2 0.10            135            147 261 
 ZAR  HZ EP       1034 28.30                             122    0.59 8  207 294 
 ZAR  HN ES       1034 53.60                             122    0.35 8  207 294 
 ZAR  HZ I        1034 58.71         4.4 0.44            125            207 294 
                                                                                
