 2017  515 1745 26.2 L   6.518 -73.069130.5  RSN  4 0.1 1.8LRSN                1
 GAP=247        0.36       9.9     4.2  7.7 -0.3699E+02 -0.2382E+02  0.6528E+02E
 Epicentro: SAN GIL - SANTANDER                                                3
 ACTION:UPD 17-06-16 13:36 OP:jn   STATUS:               ID:20170515174526 L   I
 OLDACT:UP  17-05-16 13:40 OP:nlst STATUS:               ID:20170515174526 L   3
 OLDACT:DUP 17-05-15 23:19 OP:lv   STATUS:               ID:20170515173739d    3
 2017-05-15-1738-00M.COL___358                                                 6
 STAT SP IPHASW D HRMM SECON CODA AMPLIT PERI AZIMU VELO AIN AR TRES W  DIS CAZ7
 BRR  HZ EP       1745 47.31                             141   -0.1810 96.4 313 
 BRR  HN ES       1746  4.17                             141    0.0910 96.4 313 
 BRR  HZ I        1746  7.21        32.2 0.05            150           96.4 313 
 PAM  EZ EP       1745 48.46                             141    0.0510 99.6  24 
 PAM  EN ES       1746  5.71                             141   -0.0210 99.6  24 
 PAM  EZ I        1746  7.96         4.6 0.57            152           99.6  24 
 PTB  HZ EP       1745 52.67                             127    0.14 9  153 271 
 PTB  HN ES       1746 12.99                             127   -0.07 9  153 271 
 PTB  HZ I        1746 18.66         3.8 0.27            133            153 271 
 ZAR  HZ EP   2   1746  0.02                             116    0.03 4  225 299 
 ZAR  HN ES   4   1746 23.91                             116   -2.44 0  225 299 
 ZAR  HZ I        1746 26.24        15.6 0.04            123            225 299 
                                                                                
