 2015  115 1458  4.6 L   6.809 -73.160143.8  RSN  5 0.5 1.9LRSN                1
 GAP=134        1.16       4.7     6.8 11.0 -0.9151E+01  0.3900E+02 -0.1153E+02E
 Epicentro: LOS SANTOS - SANTANDER                                             3
 ACTION:UPD 15-03-02 15:39 OP:nd   STATUS:               ID:20150115145804 L   I
 OLDACT:REG 15-01-15 20:38 OP:mh   STATUS:               ID:20150115144747     3
 2015-01-15-1447-47M.COL___243                                                 6
 STAT SP IPHASW D HRMM SECON CODA AMPLIT PERI AZIMU VELO AIN AR TRES W  DIS CAZ7
 PAM  SZ EP       1458 27.13                             150    0.4610 77.7  41 
 PAM  SN ES       1458 43.75                             150   -0.0910 77.7  41 
 PAM  SZ I        1458 46.42        14.4 0.52            155           77.7  41 
 RUS  HZ EP       1458 27.45                             143   -0.8310  102 175 
 RUS  HN ES       1458 47.04                             143    0.3210  102 175 
 RUS  HZ I        1458 48.26         5.8 0.44            146            102 175 
 PTB  HZ EP       1458 31.38                             132    0.06 9  146 258 
 PTB  HN ES   1   1458 51.19                             132   -0.95 7  146 258 
 PTB  HZ I        1458 54.02         8.0 0.16            133            146 258 
 NOR  HZ EP       1458 40.42                             118    0.24 8  234 234 
 NOR  HN ES       1459  8.54                             118    0.64 8  234 234 
 NOR  HZ I        1459 16.24         6.1 0.14            120            234 234 
 SML  HZ EP       1458 40.67                             117   -0.32 8  242 336 
 SML  HN ES       1459  9.62                             117    0.28 8  242 336 
 SML  HZ I        1459 12.87         9.8 0.32            119            242 336 
                                                                                
