 2017  115 1027 13.2 L   7.041 -73.332117.8  RSN  7 0.5 1.2LRSN                1
 GAP=138        1.27       5.8     4.6  8.1  0.3445E+01  0.1132E+02  0.3863E+01E
 Epicentro: LEBRIJA - SANTANDER                                                3
 ACTION:UPD 17-05-22 15:59 OP:jn   STATUS:               ID:20170115102713 L   I
 OLDACT:UP  17-01-15 21:22 OP:dani STATUS:               ID:20170115101744d    3
 OLDACT:DUP 17-01-15 21:19 OP:dani STATUS:               ID:20170115101744d    3
 OLDACT:UP  17-01-15 21:12 OP:dani STATUS:               ID:20170115101741     3
 OLDACT:REG 17-01-15 20:00 OP:dani STATUS:               ID:20170115101741     3
 2017-01-15-1018-00M.COL___335                                                 6
 STAT SP IPHASW D HRMM SECON CODA AMPLIT PERI AZIMU VELO AIN AR TRES W  DIS CAZ7
 BRR  HZ IP     D 1027 29.59                             159   -0.2410 42.6 280 
 BRR  HN ES       1027 42.90                             159    0.1310 42.6 280 
 BRR  HZ I        1027 43.46         8.0 0.12            158           42.6 280 
 BAR2 EZ EP       1027 30.79                             154    0.1410 52.3 162 
 BAR2 EZ ES       1027 44.35                             154    0.1210 52.3 162 
 PAM  EZ EP       1027 32.11                             145   -0.4410 77.3  65 
 PAM  EE ES       1027 47.50                             145   -0.1210 77.3  65 
 PAM  EZ I        1027 49.57         2.6 0.39            147           77.3  65 
 RUS  HZ EP       1027 37.86                             129    0.8810  130 168 
 RUS  HE ES       1027 55.61                             129    0.1210  130 168 
 RUS  HZ I        1027 57.50         1.2 0.25            129            130 168 
 PTB  HZ EP       1027 36.18                             127   -0.75 9  136 246 
 PTB  HN ES       1027 54.62                             127   -0.78 9  136 246 
 PTB  HZ I        1027 57.79         3.4 0.28            127            136 246 
 ZAR  HZ EP       1027 41.14                             120    0.18 9  176 287 
 ZAR  HN ES       1028  3.56                             120    0.98 9  176 287 
 ZAR  HZ I        1028  5.22         4.0 0.19            120            176 287 
 NOR  HZ EP       1027 47.55                             112   -0.09 8  236 226 
 NOR  HN ES   4   1028 17.44                             112    2.97 0  236 226 
 NOR  HZ I        1028 20.42         1.4 0.26            112            236 226 
                                                                                
