 2014 1215 1651 52.6 L   6.811 -73.143144.0  RSN 15 0.5 2.3LRSN                1
 GAP= 71        1.05       2.8     3.0  5.1 -0.4385E+00  0.3296E+01  0.1205E+01E
 Epicentro: LOS SANTOS - SANTANDER                                             3
 ACTION:UPD 15-02-10 17:04 OP:nd   STATUS:               ID:20141215165152 L   I
 OLDACT:UP  14-12-15 23:49 OP:mh   STATUS:               ID:20141215164749     3
 OLDACT:UP  14-12-15 23:46 OP:mh   STATUS:               ID:20141215164749     3
 OLDACT:UP  14-12-15 23:46 OP:mh   STATUS:               ID:20141215164749     3
 OLDACT:UP  14-12-15 23:13 OP:mh   STATUS:               ID:20141215164749     3
 OLDACT:UP  14-12-15 23:12 OP:mh   STATUS:               ID:20141215164749     3
 OLDACT:REG 14-12-15 20:34 OP:mh   STATUS:               ID:20141215164749     3
 2014-12-15-1647-49M.COL___284                                                 6
 STAT SP IPHASW D HRMM SECON CODA AMPLIT PERI AZIMU VELO AIN AR TRES W  DIS CAZ7
 BAR2 EZ EP       1652 12.30                             170    0.2910 24.6 190 
 BAR2 EZ ES       1652 26.83                             170   -0.3410 24.6 190 
 BAR2 EZ I        1652 28.54        47.6 0.08            168           24.6 190 
 BRR  HZ EP       1652 14.11                             152    0.6010 70.9 298 
 BRR  HN ES       1652 30.34                             152    0.5010 70.9 298 
 BRR  HZ I        1652 34.63        38.6 0.12            151           70.9 298 
 PAM  SZ EP       1652 15.10                             151    0.5810 76.2  40 
 PAM  SN ES       1652 31.94                             151    0.2910 76.2  40 
 PAM  SZ I        1652 33.64        28.3 0.20            150           76.2  40 
 RUS  HZ EP       1652 16.24                             143    0.0110  102 176 
 RUS  HN ES       1652 34.91                             143    0.2310  102 176 
 RUS  HZ I        1652 35.83        10.2 0.18            141            102 176 
 PTB  HZ EP       1652 18.85                             132   -0.59 9  148 258 
 PTB  HN ES       1652 39.59                             132   -0.81 9  148 258 
 PTB  HZ I        1652 46.91        22.2 0.30            129            148 258 
 TAM  HZ EP       1652 19.44                             130   -0.66 9  155 105 
 TAM  HZ I        1652 40.96        15.5 0.42            128            155 105 
 TAM  HE ES       1652 41.60                             130    0.02 9  155 105 
 OCA  HZ EP       1652 20.27                             130   -0.36 9  159 353 
 OCA  HN ES       1652 42.15                             130   -0.37 9  159 353 
 OCA  HZ I        1652 46.80        24.8 0.30            128            159 353 
 SPBC HZ EP   1   1652 21.23                             129    0.19 7  164 219 
 SPBC HE ES   1   1652 43.33                             129    0.08 7  164 219 
 SPBC HZ I        1652 48.01        33.5 0.56            126            164 219 
 ZAR  HZ EP       1652 24.81                             122   -0.07 9  204 292 
 ZAR  HN ES       1652 50.36                             122    0.27 9  204 292 
 ZAR  HZ I        1652 57.05        30.3 0.36            120            204 292 
 NOR  HZ EP   1   1652 28.61                             118    0.31 6  236 234 
 NOR  HN ES       1652 56.38                             118    0.21 8  236 234 
 NOR  HZ I        1653  0.02        25.1 0.60            116            236 234 
 SML  HZ EP       1652 28.65                             117   -0.34 8  243 335 
 SML  HN ES   1   1652 56.98                             117   -0.42 6  243 335 
 SML  HZ I        1653  2.39        27.2 0.10            115            243 335 
 CHI  HZ EP       1652 29.49                             117   -0.81 8  250 195 
 CHI  HN ES       1652 59.35                             117   -0.38 8  250 195 
 CHI  HZ I        1653  5.69         8.5 0.26            115            250 195 
 HEL  HZ EP   1   1652 33.78                             114    1.02 6  273 256 
 HEL  HN ES       1653  4.01                             114   -0.10 8  273 256 
 HEL  HZ I        1653 10.27        13.1 0.32            112            273 256 
 TOL  SZ EP   1   1652 41.84                             109    0.97 5  345 225 
 TOL  SN ES   4   1653 20.80                             109    2.24 0  345 225 
 TOL  SZ I        1653 28.60        20.2 0.32            107            345 225 
 ORTC HZ EP       1652 47.09                             106    0.53 6  397 216 
 ORTC HN ES   1   1653 29.21                             106    0.53 4  397 216 
 ORTC HZ I        1653 35.19         7.2 0.38            104            397 216 
                                                                                
