 2011  615 1927 51.6 L   6.780 -73.126150.2  RSN  6 0.2 2.0LRSN                1
 GAP=140        0.46       2.8     3.7  4.8 -0.4485E+01  0.2483E+01  0.1964E+01E
 Epicentro: LOS SANTOS - SANTANDER                                             3
 ACTION:UP  11-07-14 19:05 OP:ep   STATUS:               ID:20110615192751 L   I
 2011-06-15-1925-29S.COL___138                                                 6
 STAT SP IPHASW D HRMM SECON CODA AMPLIT PERI AZIMU VELO SNR AR TRES W  DIS CAZ7
 BAR2 SZ EP   1   1928 11.72                             171     0.0 7   22 197 
 BAR2 SZ I        1928 28.39        28.2 0.15                            22 197 
 BRR  HZ EP   1   1928 13.61                             152     0.2 7   74 299 
 BRR  HE ES   1   1928 30.48                             152     0.0 7   74 299 
 BRR  HZ I        1928 32.98        22.7 0.14                            74 299 
 PAM  SZ EP   1   1928 14.48                             151     0.1 7   78  37 
 PAM  SE ES   1   1928 31.92                             151    -0.1 7   78  37 
 RUS  HZ EP   1   1928 15.71                             145     0.0 7   98 177 
 RUS  HN ES   1   1928 34.44                             145     0.0 7   98 177 
 RUS  HZ I        1928 35.68        13.9 0.27                            98 177 
 GRA  SZ EP   1   1928 17.02                             138    -0.4 7  127  16 
 GRA  SZ ES   1   1928 37.64                             138     0.1 7  127  16 
 GRA  SZ I        1928 38.14         6.4 0.38                           127  16 
 NOR  SZ EP   1   1928 27.94                             119     0.3 6  235 235 
 NOR  SN ES   1   1928 55.47                             119    -0.3 6  235 235 
                                                                                
