 2012  115 1315 28.8 L   6.803 -73.184147.7  RSN  5 0.2 1.6LRSN                1
 GAP=176        0.43       4.9     3.6  5.6  0.4553E+01  0.2843E+01  0.1441E+01E
 Epicentro: LOS SANTOS - SANTANDER                                             3
 ACTION:UP  12-02-03 08:17 OP:REBC STATUS:               ID:20120115131528 L   I
 2012-01-15-1310-00M.COL___187                                                 6
 STAT SP IPHASW D HRMM SECON CODA AMPLIT PERI AZIMU VELO SNR AR TRES W  DIS CAZ7
 BAR2 SZ EP   1   1315 48.57                             171    -0.1 7   23 180 
 BAR2 SZ ES   2   1316  4.08                             171    -0.1 5   23 180 
 BAR2 SZ I        1316  5.94        12.0 0.36                            23 180 
 GIR2 SZ EP   1   1315 48.59                             168    -0.1 7   30 358 
 GIR2 SZ ES   2   1316  4.21                             168     0.0 5   30 358 
 RUS  HZ EP   1   1315 52.91                             144     0.1 7  101 174 
 RUS  HN ES   2   1316 11.73                             144     0.2 5  101 174 
 RUS  HZ I        1316 12.90         3.7 0.27                           101 174 
 PTB  HZ EP   1   1315 55.46                             133    -0.1 7  144 258 
 PTB  HN ES   1   1316 16.16                             133    -0.3 7  144 258 
 ZAR  HN ES   2   1316 26.63                             123     0.6 4  200 292 
                                                                                
