 2016 1015 1737 47.6 L   6.100 -74.201 22.9  RSN  7 0.5 1.5LRSN                1
 GAP= 69        1.01       2.4     2.2  3.1  0.5865E+00 -0.6562E+00 -0.3971E+00E
 Epicentro: CIMITARRA - SANTANDER                                              3
 ACTION:UPD 16-11-09 19:19 OP:rebc STATUS:               ID:20161015173747 L   I
 OLDACT:REG 16-10-15 20:35 OP:dnl  STATUS:               ID:20161015172743     3
 2016-10-15-1728-00M.COL___370                                                 6
 STAT SP IPHASW D HRMM SECON CODA AMPLIT PERI AZIMU VELO AIN AR TRES W  DIS CAZ7
 SPBC HZ EP       1737 56.76                             112    0.1410 51.6 164 
 SPBC HE ES       1738  3.35                             112   -0.3310 51.6 164 
 SPBC HZ I        1738  4.22        15.1 0.18            111           51.6 164 
 PTB  HZ EP       1737 57.16                             110   -0.0310 56.2 330 
 PTB  HN ES       1738  4.71                             110    0.0110 56.2 330 
 PTB  HZ I        1738  5.36        62.6 0.24            109           56.2 330 
 BRR  HZ EP   2   1738  6.29                              56   -0.37 5  124  26 
 BRR  HE ES   2   1738 21.94                              56    0.38 5  124  26 
 BAR2 EZ EP   2   1738  8.11                              56    0.99 5  125  64 
 BAR2 EZ ES       1738 21.90                              56   -0.4810  125  64 
 BAR2 EZ I        1738 25.32        22.2 0.60             56            125  64 
 RUS  HZ EP   2   1738  7.97                              56    0.45 5  126 100 
 RUS  HE ES       1738 23.11                              56    0.0210  126 100 
 RUS  HZ I        1738 24.14         5.3 0.24             56            126 100 
 HEL  HZ EP       1738 10.08                              56    0.03 9  147 274 
 HEL  HN ES       1738 27.07                              56   -0.52 9  147 274 
 HEL  HZ I        1738 27.76         9.9 0.22             56            147 274 
 GUY2CHZ EP       1738 12.99                              56    1.07 9  161 233 
 GUY2CHN ES       1738 30.71                              56   -0.21 9  161 233 
 GUY2CHZ I        1738 32.01         2.2 0.20                           161 233 
                                                                                
