 2010  115 1416 50.9 L   6.801 -73.013146.1  RSN  8 0.4 2.0LRSN                1
 GAP=152        0.58       5.9     5.8  6.2 -0.1654E+02  0.1054E+02 -0.6165E+01E
 Epicentro: CEPITA - SANTANDER                                                 3
 ACTION:UP  10-08-24 09:44 OP:vdl  STATUS:               ID:20100115141650 L   I
 2010-01-15-1414-46S.COL___094                                                 6
 STAT SP IPHASW D HRMM SECON CODA AMPLIT PERI AZIMU VELO SNR AR TRES W  DIS CAZ7
 BAR2 SZ EP   1   1417 10.68                             168     0.0 7   30 219 
 BAR2 SZ ES   2   1417 26.00                             168    -0.1 5   30 219 
 RUS  BZ EP   1   1417 14.58                             144    -0.1 7  101 184 
 RUS  BN ES   2   1417 33.27                             144     0.0 5  101 184 
 RUS  BZ I        1417 35.00         7.2 0.63                           101 184 
 CHI  HZ EP   1   1417 28.59                             117    -0.5 6  253 198 
 CHI  HN ES   2   1417 59.55                             117     0.7 4  253 198 
 CHI  HZ I        1418  4.00         4.1 0.39                           253 198 
 HEL  HZ EP   1   1417 32.85                             113     0.2 6  286 257 
 HEL  HN ES   2   1418  4.81                             113    -0.5 4  286 257 
 HEL  HZ I        1418  9.11         4.8 0.29                           286 257 
 RREF BZ EP   1   1417 38.99                             110     0.7 5  333 231 
 RREF BN ES   2   1418 16.18                             110     0.8 3  333 231 
 RREF BZ I        1418 22.23         6.8 0.29                           333 231 
 SDV  BZ EP   1   1417 39.84                             109     0.2 5  349  49 
 TOL  SZ EP   1   1417 40.09                             109    -0.3 5  354 226 
 TOL  SZ ES   2   1418 18.78                             109    -0.2 3  354 226 
 PRA  HZ EP   1   1417 45.02                             106    -0.3 4  400 211 
 PRA  HN ES   2   1418 27.10                             106    -0.6 3  400 211 
 PRA  HZ I        1418 32.43         5.8 0.35                           400 211 
                                                                                
