 2015  315 1734 47.5 L   6.822 -73.138150.2  RSN 20 0.5 2.7LRSN                1
 GAP= 71        1.11       3.0     3.3  5.0 -0.2711E+01  0.3981E+01  0.8252E+00E
 Epicentro: LOS SANTOS - SANTANDER                                             3
 ACTION:UPD 15-04-30 16:26 OP:nd   STATUS:               ID:20150315173447 L   I
 OLDACT:UP  15-03-15 23:35 OP:cam  STATUS:               ID:20150315172748     3
 OLDACT:REG 15-03-15 21:07 OP:cam  STATUS:               ID:20150315172748     3
 2015-03-15-1727-48M.COL___260                                                 6
 STAT SP IPHASW D HRMM SECON CODA AMPLIT PERI AZIMU VELO AIN AR TRES W  DIS CAZ7
 BAR2 EZ IP     D 1735  7.55                             170   -0.1510 25.9 191 
 BAR2 EZ ES       1735 23.39                             170   -0.0710 25.9 191 
 BAR2 EZ I        1735 25.56        96.7 0.24            169           25.9 191 
 BRR  HZ EP       1735  9.42                             153    0.3310 70.8 296 
 BRR  HN ES       1735 26.45                             153    0.5110 70.8 296 
 BRR  HZ I        1735 29.30        77.7 0.12            149           70.8 296 
 PAM  SZ IP     D 1735 10.41                             152    0.3810 75.0  40 
 PAM  SN ES       1735 27.84                             152    0.2210 75.0  40 
 PAM  SZ I        1735 29.62        58.1 0.50            148           75.0  40 
 RUS  HZ EP     D 1735 11.39                             144   -0.4510  103 177 
 RUS  HN ES       1735 30.38                             144   -0.4610  103 177 
 RUS  HZ I        1735 32.74        45.7 0.48            140            103 177 
 PTB  HZ EP       1735 14.18                             133   -0.75 9  149 258 
 PTB  HN ES       1735 35.52                             133   -0.82 9  149 258 
 PTB  HZ I        1735 42.75       118.2 0.48            127            149 258 
 TAM  HZ EP   1   1735 15.83                             131    0.33 7  155 106 
 TAM  HZ I        1735 36.55        50.1 0.28            126            155 106 
 TAM  HN ES       1735 37.52                             131    0.17 9  155 106 
 OCA  HZ EP       1735 15.82                             131   -0.10 9  158 353 
 OCA  HN ES       1735 38.24                             131    0.13 9  158 353 
 OCA  HZ I        1735 42.38        59.7 0.32            125            158 353 
 SPBC HZ EP       1735 16.50                             130   -0.05 9  166 219 
 SPBC HN ES       1735 39.13                             130   -0.09 9  166 219 
 SPBC HZ I        1735 41.59       102.3 0.12            124            166 219 
 NOR  HZ EP       1735 23.29                             119   -0.41 8  237 234 
 NOR  HE ES       1735 52.07                             119    0.13 8  237 234 
 NOR  HZ I        1735 55.05        50.2 0.18            114            237 234 
 SML  HZ EP       1735 23.95                             118   -0.21 8  242 335 
 SML  HN ES       1735 52.66                             118   -0.10 8  242 335 
 SML  HZ I        1736  3.82        60.6 0.20            113            242 335 
 ROSC BZ EP   1   1735 27.03                             117    0.91 6  255 211 
 HEL  HZ EP       1735 28.10                             115    0.02 8  273 255 
 HEL  HE ES       1735 59.50                             115   -0.24 8  273 255 
 HEL  HZ I        1736  5.47        34.8 0.26            111            273 255 
 URE  HZ EP   4   1735 27.37                             114   -1.39 0  284 291 
 GUY2CHZ EP   4   1735 32.44                             113    0.90 0  303 234 
 GUY2CHE ES       1736  5.63                             113   -0.26 7  303 234 
 GUY2CHZ I        1736 12.43        37.8 0.36                           303 234 
 RREF HZ EP       1735 34.70                             111    0.63 7  324 229 
 RREF HN ES       1736 12.48                             111    2.07 7  324 229 
 RREF HZ I        1736 19.70        46.9 0.40            107            324 229 
 CBOC HZ EP       1735 35.08                             110    0.32 7  335 252 
 CBOC HZ I        1736 16.85        14.4 0.24            106            335 252 
 TOL  SZ EP   4   1735 37.21                             110    1.02 0  346 224 
 TOL  SN ES       1736 14.38                             110    0.20 6  346 224 
 TOL  SZ I        1736 19.77        19.9 0.44            106            346 224 
 SDV  BZ EP       1735 36.95                             109   -0.49 6  358  50 
 SDV  BN ES   4   1736 14.95                             109   -1.46 0  358  50 
 SDV  BZ I        1736 17.96         4.8 0.40            105            358  50 
 ANIL HZ EP   4   1735 35.66                             109   -2.07 0  360 224 
 ANIL HN ES   4   1736 18.09                             109    1.17 0  360 224 
 ANIL HZ I        1736 23.09         6.8 0.50            105            360 224 
 PRA  HZ EP       1735 41.03                             107   -0.43 6  395 209 
 PRA  HE ES   4   1736 22.41                             107   -1.14 0  395 209 
 PRA  HZ I        1736 26.33        26.0 0.66            103            395 209 
 ORTC HZ EP       1735 41.97                             107    0.12 6  398 216 
 ORTC HN ES   4   1736 25.26                             107    1.01 0  398 216 
 ORTC HZ I        1736 30.10        16.9 0.50            103            398 216 
                                                                                
