 2016  215 1359 39.2 L   6.802 -73.142146.7  RSN 15 0.4 2.3LRSN                1
 GAP=137        0.81       2.3     3.0  4.1 -0.1274E+01  0.3838E+01  0.1715E+01E
 Epicentro: LOS SANTOS - SANTANDER                                             3
 ACTION:UPD 16-03-04 21:26 OP:rebc STATUS:               ID:20160215135939 L   I
 OLDACT:REG 16-02-15 21:20 OP:ak   STATUS:               ID:20160215135750     3
 2016-02-15-1357-50M.COL___294                                                 6
 STAT SP IPHASW D HRMM SECON CODA AMPLIT PERI AZIMU VELO AIN AR TRES W  DIS CAZ7
 BAR2 EZ EP       1359 58.94                             170   -0.0410 23.7 191 
 BAR2 EZ ES       14 0 14.28                             170   -0.1010 23.7 191 
 BAR2 EZ I        14 0 16.58        57.2 0.20            167           23.7 191 
 BRR  HZ EP       14 0  0.84                             153    0.3410 71.4 298 
 BRR  HN ES       14 0 17.77                             153    0.6910 71.4 298 
 BRR  HZ I        14 0 18.89        23.6 0.49            150           71.4 298 
 PAM  EZ EP       14 0  1.71                             151    0.1910 76.9  39 
 PAM  EN ES       14 0 18.91                             151    0.0110 76.9  39 
 PAM  EZ I        14 0 19.64        14.2 0.18            156           76.9  39 
 RUS  HZ EP       14 0  2.96                             144   -0.1410  101 176 
 RUS  HE ES       14 0 21.32                             144   -0.3810  101 176 
 RUS  HZ I        14 0 23.15        14.6 0.22            144            101 176 
 PTB  HZ EP       14 0  5.99                             132   -0.33 9  148 259 
 PTB  HN ES       14 0 26.90                             132   -0.54 9  148 259 
 PTB  HZ I        14 0 34.17        30.6 0.40            131            148 259 
 OCA  HZ EP   4   14 0  4.29                             130   -3.31 0  160 353 
 OCA  HN ES       14 0 29.68                             130   -0.04 9  160 353 
 OCA  HZ I        14 0 32.33        40.3 0.18            131            160 353 
 SPBC HZ EP       14 0  7.88                             129    0.03 9  164 219 
 SPBC HE ES       14 0 30.13                             129   -0.03 9  164 219 
 ZAR  HZ EP       14 0 11.72                             122   -0.05 9  204 292 
 ZAR  HN ES       14 0 36.96                             122   -0.18 9  204 292 
 ZAR  HZ I        14 0 43.19        20.8 0.30            122            204 292 
 NOR  HZ EP       14 0 14.95                             119   -0.12 8  235 234 
 NOR  HN ES       14 0 42.86                             119   -0.16 8  235 234 
 NOR  HZ I        14 0 48.36        18.4 0.34            118            235 234 
 CHI  HZ EP       14 0 16.95                             117   -0.08 8  249 195 
 CHI  HN ES       14 0 46.68                             117    0.18 8  249 195 
 CHI  HZ I        14 0 51.83         8.1 0.22            118            249 195 
 URE  HZ EP       14 0 19.53                             114   -0.85 7  284 292 
 URE  HN ES   4   14 0 49.14                             114   -3.33 0  284 292 
 URE  HZ I        14 0 56.41        10.9 0.08            114            284 292 
 GUY2CHZ EP       14 0 23.30                             112    0.36 7  302 235 
 GUY2CHN ES       14 0 57.62                             112    0.59 7  302 235 
 GUY2CHZ I        14 1  5.31        16.2 0.30                           302 235 
 ELA  HZ EP   4   14 0 28.66                             110    2.48 0  330 229 
 ELA  HE ES       14 1  3.30                             110    0.51 7  330 229 
 ELA  HZ I        14 1 11.78        10.3 0.38            111            330 229 
 ANIL HZ EP   9   14 0 31.31                             109    2.18 0  358 225 
 ANIL HE ES       14 1 10.19                                   -0.03 6  358 225 
 ANIL HZ I        14 1 16.65        20.8 0.32            109            358 225 
 ORTC HZ EP       14 0 34.05                             106    0.81 6  396 216 
 ORTC HN ES       14 1 15.28                             106   -0.08 6  396 216 
 ORTC HZ I        14 1 25.25         3.7 0.30            107            396 216 
                                                                                
