 2014  515 1435 29.4 L   6.470 -74.175 23.5  RSN  6 0.5 2.0LRSN                1
 GAP=111        1.24       2.8     3.6  4.6  0.1823E+01 -0.6855E+01 -0.9346E+00E
 Epicentro: PUERTO PARRA - SANTANDER                                           3
 ACTION:UPD 15-03-16 16:58 OP:nd   STATUS:               ID:20140515143529 L   I
 OLDACT:REG 14-05-15 22:08 OP:carl STATUS:               ID:20140515142817     3
 2014-05-15-1428-17M.COL___257                                                 6
 STAT SP IPHASW D HRMM SECON CODA AMPLIT PERI AZIMU VELO AIN AR TRES W  DIS CAZ7
 PTB  HZ IP     D 1435 35.96                             124    0.1410 32.0 284 
 PTB  HN ES       1435 40.84                             124    0.0510 32.0 284 
 PTB  HZ I        1435 41.17       102.9 0.16            119           32.0 284 
 BRR  HZ EP       1435 43.43                             103   -0.1410 87.1  36 
 BRR  HN ES       1435 54.48                             103   -0.1210 87.1  36 
 BRR  HZ I        1435 55.13        43.2 0.46            100           87.1  36 
 SPBC HZ EP       1435 45.08                             103    0.8210 91.1 173 
 SPBC HN ES       1435 54.94                             103   -0.8810 91.1 173 
 SPBC HZ I        1435 55.90        20.7 0.10            100           91.1 173 
 ZAR  HE ES       1436  5.76                              56   -0.33 9  136 326 
 ZAR  HZ I        1436  7.49        23.6 0.28             56            136 326 
 RUS  HZ EP       1435 51.33                              56    0.62 9  137 118 
 RUS  HN ES       1436  7.16                              56   -0.14 9  137 118 
 RUS  HZ I        1436  9.81        17.3 0.32             56            137 118 
 PAM  SZ EP   4   1435 59.10                              56    1.81 0  189  59 
 PAM  SN ES   4   1436 20.62                              56    1.61 0  189  59 
 PAM  SZ I        1436 22.28        34.5 0.34             56            189  59 
                                                                                
