 2017  115 1239 13.8 L   6.863 -73.277118.7  RSN  4 0.2 1.2LRSN                1
 GAP=221        0.56       5.9     6.5  4.4  0.3311E+02  0.6867E+01  0.3136E+01E
 Epicentro: BETULIA - SANTANDER                                                3
 ACTION:UPD 17-05-22 15:59 OP:jn   STATUS:               ID:20170115123913 L   I
 OLDACT:REG 17-01-15 20:13 OP:dani STATUS:               ID:20170115123744     3
 2017-01-15-1238-00M.COL___341                                                 6
 STAT SP IPHASW D HRMM SECON CODA AMPLIT PERI AZIMU VELO AIN AR TRES W  DIS CAZ7
 BAR2 EZ EP       1239 30.51                             164    0.0510 31.7 161 
 BAR2 EZ ES       1239 43.17                             164   -0.2610 31.7 161 
 BAR2 EZ I        1239 44.84         9.2 0.28            159           31.7 161 
 BRR  HZ EP       1239 30.97                             153   -0.1810 55.1 299 
 BRR  HN ES       1239 44.99                             153    0.3310 55.1 299 
 BRR  HZ I        1239 47.80         4.1 0.35            146           55.1 299 
 RUS  HZ EP       1239 35.80                             135    0.0210  109 169 
 RUS  HN ES       1239 53.00                             135    0.1010  109 169 
 RUS  HZ I        1239 54.14         1.2 0.27            134            109 169 
 ZAR  HZ EP       1239 43.11                             118    0.19 9  188 292 
 ZAR  HE ES       1240  5.35                             118   -0.26 9  188 292 
 ZAR  HZ I        1240 12.77         1.9 0.17            117            188 292 
                                                                                
