 2012  715 1951 23.0 L   6.750 -73.145142.6  RSN 11 0.4 2.7LRSN                1
 GAP= 73        1.09       5.0     3.8  6.3 -0.1343E+01  0.5852E+01  0.8438E+00E
 Epicentro: LOS SANTOS - SANTANDER                                             3
 ACTION:UPD 12-08-14 11:45 OP:ep   STATUS:               ID:20120715195123 L   I
 2012-07-15-1950-00M.COL___197                                                 6
 STAT SP IPHASW D HRMM SECON CODA AMPLIT PERI AZIMU VELO AIN AR TRES W  DIS CAZ7
 BAR2 SZ IP       1951 42.58                             172     0.410   18 193 
 BAR2 SZ I        1951 42.78       129.3 0.16            175             18 193 
 BAR2 SZ ES       1951 56.90                             172    -0.210   18 193 
 BRR  HZ IP     C 1951 44.49                             151     0.510   74 302 
 BRR  HZ I        1951 45.02       145.5 0.16            141             74 302 
 BRR  HE ES       1952  1.02                             151     0.610   74 302 
 PAM  SZ EP       1951 45.33                             149     0.110   82  37 
 PAM  SN ES       1952  2.04                             149    -0.410   82  37 
 RUS  HZ EP       1951 46.47                             145     0.410   95 176 
 RUS  HN ES   1   1952  3.79                             145    -0.3 7   95 176 
 RUS  HZ I        1952  6.09        47.4 0.37            146             95 176 
 PTB  HZ EP       1951 49.32                             131    -0.4 9  147 261 
 PTB  HN ES   1   1952  9.71                             131    -0.7 7  147 261 
 PTB  HZ I        1952 12.58        57.3 0.20            125            147 261 
 TAM  HZ EP   1   1951 50.84                             130     0.5 7  154 103 
 TAM  HE ES   1   1952 11.18                             130    -0.4 7  154 103 
 OCA  HZ EP       1951 50.95                             128    -0.7 9  166 353 
 OCA  HZ I        1952 14.81        89.2 0.22            120            166 353 
 ZAR  HZ EP   1   1951 55.47                             121     0.0 6  206 294 
 ZAR  HN ES   1   1952 21.14                             121     0.3 6  206 294 
 ZAR  HZ I        1952 31.15        50.1 0.36            115            206 294 
 NOR  SZ EP   1   1951 58.04                             118    -0.2 6  232 236 
 NOR  SN ES   1   1952 25.97                             118     0.2 6  232 236 
 HEL  HZ EP   1   1952  3.07                             114     0.1 6  271 257 
 HEL  HE ES   1   1952 33.66                             114    -0.4 6  271 257 
 HEL  HZ I        1952 43.22        29.5 0.32            109            271 257 
 DBB  SZ EP   1   1952 10.31                             109    -0.1 5  340 275 
