 2015  615 1234 24.9 L   6.865 -73.139145.7  RSN  7 0.6 2.0LRSN                1
 GAP=146        1.43       6.3     7.5  9.1  0.9035E+00  0.1916E+02 -0.6226E+01E
 Epicentro: LOS SANTOS - SANTANDER                                             3
 ACTION:UPD 15-09-10 22:12 OP:cam  STATUS:               ID:20150615123424 L   I
 OLDACT:REG 15-06-15 20:31 OP:stll STATUS:               ID:20150615122748     3
 2015-06-15-1227-48M.COL___312                                                 6
 STAT SP IPHASW D HRMM SECON CODA AMPLIT PERI AZIMU VELO AIN AR TRES W  DIS CAZ7
 BAR2 EZ IP     C 1234 44.36                             168   -0.3510 30.6 189 
 BAR2 EZ I        1234 44.44        11.0 0.20            157           30.6 189 
 BAR2 EZ ES       1234 59.56                             168   -0.5810 30.6 189 
 BRR  HZ EP       1234 46.25                             153    0.3210 68.8 293 
 BRR  HZ I        1234 46.51        11.6 0.26            143           68.8 293 
 BRR  HN ES       1235  2.96                             153    0.6510 68.8 293 
 PAM  SZ EP       1234 47.16                             153    0.3810 71.4  43 
 PAM  SZ I        1234 47.29        13.9 0.22            153           71.4  43 
 PAM  SN ES       1235  4.10                             153    0.2710 71.4  43 
 OCA  HZ EP       1234 53.48                             131    0.91 9  153 353 
 OCA  HN ES       1235 13.51                             131   -0.62 9  153 353 
 OCA  HZ I        1235 19.44        21.8 0.40            124            153 353 
 SPBC HZ EP       1234 53.31                             128   -0.69 9  169 218 
 SPBC HZ I        1235 19.31        13.8 0.18            117            169 218 
 ZAR  HZ EP       1234 57.48                             123    0.31 9  202 290 
 ZAR  HN ES       1235 22.76                             123    0.44 9  202 290 
 ZAR  HZ I        1235 29.46         7.5 0.28            113            202 290 
 SML  HZ EP       1235  0.56                             118   -0.31 8  237 334 
 SML  HN ES       1235 27.82                             118   -1.09 8  237 334 
 SML  HZ I        1235 37.88         9.2 0.22            111            237 334 
                                                                                
