 2012  215 1652 10.5 L   6.798 -72.996158.2  RSN  4 0.1 1.5LRSN                1
 GAP=221        0.36       4.8    10.0  5.7  0.3241E+02  0.1246E+02  0.2051E+01E
 ACTION:UP  12-03-07 16:30 OP:epov STATUS:               ID:20120215165210 L   I
 2012-02-15-1650-00M.COL___188                                                 6
 STAT SP IPHASW D HRMM SECON CODA AMPLIT PERI AZIMU VELO AIN AR TRES W  DIS CAZ7
 BAR2 SZ ES   1   1652 48.60                             169    0.18 7 30.7 222 
 BAR2 SZ I        1652 49.12         5.1 0.27                          30.7 222 
 GIR2 SZ ES   1   1652 48.41                             166   -0.10 7 37.9 325 
 BRR  HZ EP   1   1652 33.92                             150    0.04 7 86.1 293 
 BRR  HZ I        1652 34.54        12.2 0.35                          86.1 293 
 BRR  HN ES   1   1652 52.07                             150   -0.03 7 86.1 293 
 RUS  HN ES   1   1652 54.93                             146   -0.09 7  101 185 
 RUS  HZ I        1652 55.81         2.8 0.38                           101 185 
                                                                                
