 2017  915 1527 11.4 L   6.771 -73.156152.0  RSN  6 0.5 1.8LRSN                1
 GAP=234        1.05       7.0     9.5  9.1  0.4367E+02  0.2669E+02  0.2388E+02E
 Epicentro: LOS SANTOS - SANTANDER                                             3
 ACTION:UPD 17-10-05 19:12 OP:rebc STATUS:               ID:20170915152711 L   I
 OLDACT:REG 17-09-15 22:10 OP:dnl  STATUS:               ID:20170915151739     3
 2017-09-15-1518-00M.COL___447                                                 6
 STAT SP IPHASW D HRMM SECON CODA AMPLIT PERI AZIMU VELO AIN AR TRES W  DIS CAZ7
 BAR2 EZ IP     C 1527 31.68                             172   -0.0810 20.0 188 
 BAR2 EZ ES       1527 47.51                             172   -0.1010 20.0 188 
 BAR2 EZ I        1527 48.37        13.1 0.36            161           20.0 188 
 BRR  HZ EP   2   1527 33.60                             153    0.30 5 71.8 301 
 BRR  HN ES   2   1527 50.30                             153   -0.05 5 71.8 301 
 BRR  HE ES       1527 51.18                             153    0.8310 71.8 301 
 BRR  HN I        1527 51.38        28.3 0.28            146           71.8 301 
 BRR  HZ I        1527 52.11        17.5 0.26                          71.8 301 
 RUS  HZ EP       1527 35.55                             146   -0.0510 97.5 175 
 RUS  HN ES       1527 53.93                             146   -0.5110 97.5 175 
 RUS  HZ I        1527 55.43         4.9 0.48            141           97.5 175 
 ZAR  HE ES       1528  9.17                             124   -0.80 9  204 293 
 ZAR  HZ I        1528 15.45         6.2 0.40            121            204 293 
 NOR  HZ EP   2   1527 47.37                             120    0.12 4  232 235 
 NOR  HN ES   4   1528 12.60                             120   -2.58 0  232 235 
 NOR  HZ I        1528 22.36         3.5 0.38            116            232 235 
 CHI  HZ EP   2   1527 49.56                             119    0.43 4  245 195 
 CHI  HN ES       1528 19.07                             119    0.54 8  245 195 
 CHI  HZ I        1528 23.06         3.2 0.46            116            245 195 
                                                                                
