 2017  915 1827 38.4 L   6.849 -73.122151.0  RSN 17 0.6 2.7LRSN                1
 GAP=112        1.08       2.8     4.1  6.5 -0.1330E+01  0.5231E+01  0.3697E+01E
 Epicentro: LOS SANTOS - SANTANDER                                             3
 ACTION:UPD 17-10-05 19:12 OP:rebc STATUS:               ID:20170915182738 L   I
 OLDACT:UP  17-09-16 00:10 OP:dnl  STATUS:               ID:20170915181740     3
 OLDACT:UP  17-09-16 00:10 OP:dnl  STATUS:               ID:20170915181740     3
 OLDACT:REG 17-09-15 22:21 OP:dnl  STATUS:               ID:20170915181740     3
 2017-09-15-1818-00M.COL___456                                                 6
 STAT SP IPHASW D HRMM SECON CODA AMPLIT PERI AZIMU VELO AIN AR TRES W  DIS CAZ7
 BRR  HZ EP       1828  0.35                             153    0.2010 71.1 294 
 BRR  HN ES       1828 17.53                             153    0.4510 71.1 294 
 BRR  HZ I        1828 21.55        43.6 0.20            150           71.1 294 
 PAM  EZ EP       1828  1.40                             153    0.5210 71.6  41 
 PAM  EN ES       1828 18.68                             153    0.2910 71.6  41 
 PAM  EZ I        1828 20.76        90.5 0.50            154           71.6  41 
 RUS  HZ EP       1828  2.82                             144   -0.2610  106 178 
 RUS  HN ES       1828 21.29                             144   -1.0110  106 178 
 RUS  HZ I        1828 22.45        58.7 0.34            144            106 178 
 SPBC HZ EP   2   1828  7.53                             129   -0.35 5  169 219 
 SPBC HN ES   4   1828 29.43                             129   -1.43 0  169 219 
 SPBC HZ I        1828 32.18        71.1 0.28            128            169 219 
 YPLC HZ EP       1828  9.00                             127    0.04 9  180 153 
 YPLC HE ES       1828 33.37                             127    0.61 9  180 153 
 YPLC HZ I        1828 33.95        64.8 0.28            128            180 153 
 ZAR  HZ EP   2   1828 11.82                             123    0.55 4  204 290 
 ZAR  HN ES       1828 36.84                             123   -0.04 9  204 290 
 ZAR  HZ I        1828 42.27        38.1 0.28            121            204 290 
 TABC EZ EP   2   1828 15.97                             120    0.84 4  236 211 
 TABC EZ ES       1828 44.15                             120    0.40 8  236 211 
 TABC EZ I        1828 47.60        31.4 0.76            119            236 211 
 NOR  HZ EP   2   1828 14.75                             119   -0.28 4  240 234 
 NOR  HE ES       1828 42.53                             119   -1.04 8  240 234 
 NOR  HZ I        1828 48.20        20.8 0.24            118            240 234 
 CHI  HZ EP       1828 16.85                             118   -0.21 8  255 195 
 CHI  HN ES       1828 46.74                             118   -0.45 8  255 195 
 CHI  HZ I        1828 55.99        17.2 0.40            117            255 195 
 ROSC BZ EP   4   1828 18.76                             117    1.27 0  259 211 
 ROSC BE ES       1828 47.88                             117   -0.07 8  259 211 
 ROSC BZ I        1828 53.22        44.2 0.40            116            259 211 
 GUY2CHZ EP   2   1828 23.86                             113    0.99 4  306 234 
 GUY2CHE ES   4   1828 59.65                             113    2.11 0  306 234 
 GUY2CHZ I        1829  8.78        21.0 0.42                           306 234 
 VIL  EZ EP   2   1828 22.46                             113   -0.29 4  309 192 
 VIL  EN ES   4   1828 55.59                             113   -1.72 0  309 192 
 VIL  EZ I        1829  1.62        22.1 0.54            112            309 192 
 LL6C HZ EP   2   1828 23.73                             112   -0.03 3  320 357 
 LL6C HE ES       1828 58.28                             112   -0.84 7  320 357 
 LL6C HZ I        1829 12.42        10.6 0.54            111            320 357 
 ANIL HZ EP   2   1828 29.62                             109    0.53 3  363 224 
 ANIL HE ES       1829  9.80                             109    1.19 6  363 224 
 ANIL HZ I        1829 14.79        46.7 0.28            108            363 224 
 PRA  HZ EP       1828 32.29                             107   -0.54 6  398 210 
 PRA  HN ES       1829 14.79                             107   -0.47 6  398 210 
 PRA  HZ I        1829 20.77        21.0 0.46            106            398 210 
 ORTC HZ EP   2   1828 33.69                             107    0.47 3  401 216 
 ORTC HN ES       1829 16.55                             107    0.60 6  401 216 
 ORTC HZ I        1829 22.43         8.4 0.36            106            401 216 
 CRJC HZ EP   4   1828 41.81                             104    1.38 0  462   3 
 CRJC HE ES       1829 28.54                             104   -0.24 5  462   3 
 CRJC HZ I        1829 30.64        14.6 0.82            104            462   3 
                                                                                
