 2014 1115 1019 43.4 L   6.786 -73.162158.0  RSN 10 0.5 1.9LRSN                1
 GAP=135        1.14       4.1     5.8  6.2 -0.6473E+01  0.7086E+01 -0.2600E+00E
 Epicentro: LOS SANTOS - SANTANDER                                             3
 ACTION:UPD 14-12-19 15:43 OP:nd   STATUS:               ID:20141115101943 L   I
 OLDACT:UP  14-11-15 22:45 OP:cam  STATUS:               ID:20141115101811     3
 OLDACT:UP  14-11-15 22:43 OP:cam  STATUS:               ID:20141115101811     3
 OLDACT:REG 14-11-15 20:57 OP:cam  STATUS:               ID:20141115101811     3
 2014-11-15-1018-11M.COL___280                                                 6
 STAT SP IPHASW D HRMM SECON CODA AMPLIT PERI AZIMU VELO AIN AR TRES W  DIS CAZ7
 BAR2 SZ EP       1020  4.57                             172    0.0710 21.5 186 
 BAR2 SZ ES       1020 20.62                             172   -0.3210 21.5 186 
 BAR2 SZ I        1020 22.35        12.2 0.28            171           21.5 186 
 BRR  HZ IP     D 1020  6.51                             155    0.6310 70.4 300 
 BRR  HN ES       1020 24.11                             155    0.7310 70.4 300 
 BRR  HN I        1020 24.75        27.3 0.20            153           70.4 300 
 PAM  SZ EP     D 1020  7.43                             152    0.3410 79.7  40 
 PAM  SN ES       1020 24.94                             152   -0.6110 79.7  40 
 RUS  HZ EP       1020  8.55                             146    0.2410 99.1 175 
 RUS  HN ES       1020 27.47                             146   -0.2410 99.1 175 
 RUS  HZ I        1020 28.28         7.0 0.28            148           99.1 175 
 PTB  HZ EP       1020 10.71                             135   -0.54 9  146 259 
 PTB  HN ES       1020 32.41                             135   -0.53 9  146 259 
 PTB  HZ I        1020 38.20         9.5 0.42            134            146 259 
 SPBC HZ EP       1020 13.40                             132    0.71 9  161 219 
 SPBC HN ES       1020 35.81                             132    0.31 9  161 219 
 SPBC HZ I        1020 38.19        12.3 0.18            132            161 219 
 OCA  HZ EP       1020 12.68                             132   -0.16 9  162 354 
 OCA  HN ES       1020 35.79                             132    0.01 9  162 354 
 NOR  HZ EP       1020 19.25                             121   -0.41 8  232 235 
 PRA  HZ EP       1020 36.56                             109   -0.58 6  390 209 
 SJC  HZ EP       1020 38.93                             108   -0.53 6  410 327 
                                                                                
