 2010 1215 1600 29.8 L   6.313 -73.745 96.0  RSN  6 0.3 1.7LRSN                1
 GAP=154        0.74       5.2     5.0  9.5 -0.1394E+02  0.1091E+02  0.3968E+01E
 Epicentro: LANDAZURI - SANTANDER                                              3
 ACTION:UP  11-01-14 15:25 OP:pat  STATUS:               ID:20101215160029 L   I
 2010-12-15-1554-41S.COL___137                                                 6
 STAT SP IPHASW D HRMM SECON CODA AMPLIT PERI AZIMU VELO SNR AR TRES W  DIS CAZ7
 BAR2 SZ EP   1   16 0 46.36                             142     0.3 7   69  64 
 BAR2 SZ ES   1   16 0 58.73                             142    -0.1 7   69  64 
 BAR2 SZ I        16 1  1.21        37.8 0.31                            69  64 
 NOR  SZ EP   1   16 0 54.01                             118     0.4 7  150 237 
 NOR  SN ES   1   16 1 11.65                             118    -0.4 7  150 237 
 NOR  SZ I        16 1 14.37         1.9 0.29                           150 237 
 YOP  SZ EP   1   16 0 56.63                             114    -0.5 7  181 126 
 CHI  HN ES   1   16 1 20.40                             113     0.3 7  186 180 
 CHI  HZ I        16 1 23.78         5.9 0.23                           186 180 
 GRA  SZ EP   1   16 0 59.60                             111     0.0 6  203  31 
 GRA  SZ I        16 1 28.69         8.8 0.44                           203  31 
 RREF HZ EP   1   16 1  4.10                             108    -0.1 6  236 229 
 RREF HZ I        16 1 35.74         5.9 0.54                           236 229 
                                                                                
