 2011  415 1042 14.0 L   6.858 -73.280125.2  RSN  9 0.3 2.0LRSN                1
 GAP=110        0.61       3.6     4.8  5.4 -0.7809E+01  0.8473E+01 -0.2170E+01E
 Epicentro: ZAPATOCA - SANTANDER                                               3
 ACTION:UP  11-06-22 15:31 OP:REBC STATUS:               ID:20110415104214 L   I
 2011-04-15-1040-00M.COL___140                                                 6
 STAT SP IPHASW D HRMM SECON CODA AMPLIT PERI AZIMU VELO SNR AR TRES W  DIS CAZ7
 BTL  SZ IP       1042 31.30                             177     0.310    7  12 
 GIR2 SZ EP   1   1042 31.17                             168     0.0 7   26  21 
 BAR2 SZ EP       1042 31.43                             165     0.010   31 160 
 BAR2 SZ I        1042 31.83        43.5 0.08                            31 160 
 BAR2 SZ ES   1   1042 44.86                             165    -0.1 7   31 160 
 BRR  HZ EP   1   1042 31.90                             155    -0.2 7   55 300 
 BRR  HZ I        1042 32.29        24.8 0.11                            55 300 
 BRR  HN ES   1   1042 46.36                             155     0.2 7   55 300 
 PAM  SE ES   1   1042 50.49                             145     0.0 7   83  50 
 GRA  SZ EP   1   1042 37.58                             132     0.1 7  125  25 
 GRA  SZ ES   1   1042 55.26                             132    -0.5 7  125  25 
 GRA  SZ I        1043  1.13        14.6 0.37                           125  25 
 OCA  SZ EP   1   1042 40.20                             126     0.1 7  153 358 
 OCA  SZ ES   1   1043  0.28                             126    -0.1 7  153 358 
 OCA  SZ I        1043  1.81        16.7 0.40                           153 358 
 NOR  SZ EP   2   1042 46.94                             115    -0.9 4  227 231 
 NOR  SN ES   2   1043 13.80                             115    -0.3 4  227 231 
 HEL  HZ EP   1   1042 52.17                             111     0.3 6  259 254 
 HEL  HZ I        1043 26.22         6.4 0.64                           259 254 
                                                                                
