 2013  315 1451 49.1 L   6.782 -73.135147.2  RSN  5 0.4 1.8LRSN                1
 GAP=139        0.78       5.3     5.1  7.0 -0.1108E+00  0.1530E+01  0.3528E+01E
 Epicentro: LOS SANTOS - SANTANDER                                             3
 ACTION:UPD 13-04-09 14:02 OP:ep   STATUS:               ID:20130315145149 L   I
 2013-03-15-1450-00M.COL___244                                                 6
 STAT SP IPHASW D HRMM SECON CODA AMPLIT PERI AZIMU VELO AIN AR TRES W  DIS CAZ7
 BAR2 SZ EP       1452  9.00                             171    0.1010 21.6 194 
 BAR2 SZ ES   1   1452 24.54                             171    0.22 7 21.6 194 
 BAR2 SZ I        1452 25.62        13.2 0.40            166           21.6 194 
 BRR  HZ IP     C 1452 10.84                             152    0.3010 73.2 299 
 BRR  HZ I        1452 11.11        15.6 0.18            149           73.2 299 
 BRR  HE ES       1452 27.59                             152    0.3410 73.2 299 
 PAM  SZ EP   1   1452 11.55                             151    0.01 7 78.2  38 
 PAM  SN ES   1   1452 28.36                             151   -0.67 7 78.2  38 
 RUS  HZ EP   1   1452 13.05                             145    0.18 7 98.5 177 
 RUS  HE ES   1   1452 31.28                             145   -0.11 7 98.5 177 
 RUS  HE I        1452 32.57         9.8 0.44            144           98.5 177 
 PTB  HZ EP   1   1452 15.81                             132   -0.47 7  149 260 
 PTB  HE ES   1   1452 36.86                             132   -0.60 7  149 260 
 PTB  HZ I        1452 44.19         8.3 0.26            130            149 260 
                                                                                
