 2010  915 1015 48.5 L   6.814 -73.115143.3  RSN  9 0.4 1.9LRSN                1
 GAP=162        0.69       3.6    10.3  7.5 -0.7790E+01 -0.1262E+02  0.1077E+01E
 Epicentro: LOS SANTOS - SANTANDER                                             3
 ACTION:UP  11-02-18 11:02 OP:tino STATUS:               ID:20100915101549dL   I
 2010-09-15-1016-02S.COL___119                                                 6
 STAT SP IPHASW D HRMM SECON CODA AMPLIT PERI AZIMU VELO SNR AR TRES W  DIS CAZ7
 BTL  SZ EP   1   1016  7.11                             171    -0.7 7   20 304 
 BAR2 SZ IP     D 1016  7.89                             169     0.010   26 197 
 BAR2 SZ ES   2   1016 22.82                             169    -0.2 5   26 197 
 BAR2 SZ I        1016 24.14        16.9 0.36                            26 197 
 GIR2 SZ EP   2   1016  7.90                             167     0.0 5   31 343 
 GIR2 SZ ES   3   1016 23.43                             167     0.4 2   31 343 
 BRR  HZ EP   1   1016  9.62                             151     0.1 7   74 296 
 BRR  HE ES   2   1016 26.51                             151     0.6 5   74 296 
 BRR  HZ I        1016 28.98        20.7 0.25                            74 296 
 RUS  HZ EP   1   1016 11.97                             143    -0.2 7  102 178 
 RUS  HZ I        1016 13.14         9.9 0.16                           102 178 
 RUS  HN ES   2   1016 30.77                             143     0.2 5  102 178 
 GUE  SZ EP   1   1016 13.18                             139     0.3 7  114  11 
 GRA  SZ EP   1   1016 13.59                             137     0.3 7  123  16 
 GRA  SZ ES   2   1016 32.92                             137     0.2 5  123  16 
 GRA  SZ I        1016 35.26         9.2 0.28                           123  16 
 OCA  SZ EP   1   1016 16.60                             129     0.1 7  159 352 
 OCA  SZ ES   2   1016 37.46                             129    -0.9 5  159 352 
 OCA  SZ I        1016 42.51        13.0 0.28                           159 352 
 CHI  HZ EP   1   1016 26.40                             116     0.1 6  251 196 
 CHI  HE ES   2   1016 56.10                             116     0.3 4  251 196 
 CHI  HZ I        1017  3.50         4.0 0.38                           251 196 
                                                                                
