 2017  115 1236 38.6 L   6.781 -73.159144.3  RSN  8 0.5 1.6LRSN                1
 GAP=136        1.24       4.7     5.1  7.4  0.3672E+00  0.1074E+02  0.6968E+01E
 Epicentro: LOS SANTOS - SANTANDER                                             3
 ACTION:UPD 17-05-22 15:59 OP:jn   STATUS:               ID:20170115123638 L   I
 OLDACT:UP  17-01-15 22:54 OP:dani STATUS:               ID:20170115122748d    3
 OLDACT:UP  17-01-15 22:54 OP:dani STATUS:               ID:20170115122748d    3
 OLDACT:DUP 17-01-15 22:51 OP:dani STATUS:               ID:20170115122748d    3
 2017-01-15-1228-00M.COL___341                                                 6
 STAT SP IPHASW D HRMM SECON CODA AMPLIT PERI AZIMU VELO AIN AR TRES W  DIS CAZ7
 BAR2 EZ EP       1236 58.43                             171    0.4510 21.0 187 
 BAR2 EZ ES       1237 13.25                             171    0.1310 21.0 187 
 BAR2 EZ I        1237 13.81        12.4 0.22            171           21.0 187 
 BRR  HZ EP       1236 59.77                             152    0.2210 70.9 301 
 BRR  HN ES       1237 16.49                             152    0.5810 70.9 301 
 BRR  HZ I        1237 20.17         7.6 0.38            151           70.9 301 
 PAM  EZ EP       1237  0.81                             150    0.0210 80.0  39 
 PAM  EE ES       1237 18.04                             150   -0.0810 80.0  39 
 PAM  EZ I        1237 20.85         4.8 0.39            152           80.0  39 
 RUS  HZ EP       1237  1.62                             144   -0.4210 98.6 175 
 RUS  HN ES       1237 19.65                             144   -0.6910 98.6 175 
 RUS  HZ I        1237 21.42         5.4 0.32            145           98.6 175 
 PTB  HZ EP       1237  4.54                             132   -0.71 9  146 260 
 PTB  HN ES       1237 25.32                             132   -0.74 9  146 260 
 PTB  HZ I        1237 26.75         4.8 0.16            132            146 260 
 ZAR  HZ EP       1237 10.32                             122   -0.55 9  203 293 
 ZAR  HN ES       1237 36.45                             122    0.40 9  203 293 
 ZAR  HZ I        1237 42.60         6.8 0.42            123            203 293 
 NOR  HZ EP       1237 13.95                             118   -0.01 8  232 235 
 NOR  HN ES       1237 41.79                             118    0.24 8  232 235 
 NOR  HZ I        1237 45.47         2.7 0.16            119            232 235 
 CHI  HZ EP       1237 16.76                             117    0.83 8  246 195 
 CHI  HN ES       1237 45.84                             117    0.78 8  246 195 
 CHI  HZ I        1237 51.11         1.1 0.33            118            246 195 
                                                                                
