 2013 1115 1508 40.8 L   6.765 -73.214153.9  RSN  5 0.5 1.7LRSN                1
 GAP=192        1.16       6.5     9.0  9.7  0.2830E+02 -0.1654E+02 -0.2455E+02E
 Epicentro: ZAPATOCA - SANTANDER                                               3
 ACTION:UPD 14-01-09 16:28 OP:ep   STATUS:               ID:20131115150840 L   I
 OLDACT:REG 13-11-15 16:12 OP:stll STATUS:               ID:20131115150819     3
 2013-11-15-1508-19M.COL___232                                                 6
 STAT SP IPHASW D HRMM SECON CODA AMPLIT PERI AZIMU VELO AIN AR TRES W  DIS CAZ7
 BAR2 SZ EP       15 9  1.82                             173    0.4810 19.4 170 
 BAR2 SZ ES       15 9 16.97                             173   -0.3910 19.4 170 
 BAR2 SZ I        15 9 18.06        19.8 0.74            175           19.4 170 
 BRR  HN ES       15 9 20.41                             155    0.8010 66.8 305 
 RUS  HZ EP       15 9  5.28                             146    0.1310 97.5 171 
 RUS  HN ES       15 9 23.79                             146   -0.3510 97.5 171 
 RUS  HZ I        15 9 25.96         2.5 0.48            149           97.5 171 
 PTB  HN ES       15 9 28.50                             136   -0.25 9  140 260 
 SML  HZ EP       15 9 17.98                             119    0.03 8  244 337 
 SML  HE ES       15 9 46.20                             119   -0.73 8  244 337 
 SML  HZ I        15 9 54.35         6.0 0.26            118            244 337 
                                                                                
