 2015 1115 1148 15.0 L   6.793 -73.183142.3  RSN 13 0.5 2.2LRSN                1
 GAP=132        1.05       2.5     4.1  5.3 -0.1390E+01  0.7578E+01  0.9279E+00E
 Epicentro: ZAPATOCA - SANTANDER                                               3
 ACTION:UPD 15-12-28 16:11 OP:cam  STATUS:               ID:20151115114815 L   I
 OLDACT:UP  15-11-19 06:52 OP:CARA STATUS:               ID:20151115114815 L   3
 OLDACT:REG 15-11-15 20:19 OP:cara STATUS:               ID:20151115114749     3
 2015-11-15-1147-49M.COL___322                                                 6
 STAT SP IPHASW D HRMM SECON CODA AMPLIT PERI AZIMU VELO AIN AR TRES W  DIS CAZ7
 BAR2 EZ IP     C 1148 34.28                             171    0.0510 22.3 180 
 BAR2 EZ ES       1148 48.74                             171   -0.4510 22.3 180 
 BAR2 EZ I        1148 52.02        24.8 0.30            170           22.3 180 
 BRR  HZ EP       1148 36.19                             153    0.5610 68.0 301 
 BRR  HE ES       1148 51.87                             153    0.1910 68.0 301 
 BRR  HZ I        1148 57.37        19.0 0.14            151           68.0 301 
 PAM  EZ IP     D 1148 37.14                             149    0.0610 80.6  41 
 PAM  EN ES       1148 54.47                             149    0.1910 80.6  41 
 PAM  EZ I        1148 55.20        13.0 0.19            154           80.6  41 
 RUS  HZ EP       1148 37.97                             143   -0.4510  100 174 
 RUS  HE ES       1148 56.83                             143    0.1710  100 174 
 RUS  HZ I        1148 58.05        13.6 0.24            146            100 174 
 SPBC HZ EP       1148 43.05                             129    0.08 9  160 218 
 SPBC HN ES       1149  4.26                             129   -0.50 9  160 218 
 SPBC HZ I        1149  7.48        27.9 0.14            130            160 218 
 OCA  HZ EP       1148 43.33                             129    0.22 9  161 355 
 OCA  HN ES       1149  5.15                             129    0.15 9  161 355 
 OCA  HZ I        1149  8.76        22.3 0.28            131            161 355 
 ZAR  HZ EP       1148 47.12                             122    0.23 9  201 293 
 ZAR  HN ES       1149 12.15                             122    0.42 9  201 293 
 ZAR  HZ I        1149 17.66        14.0 0.42            123            201 293 
 NOR  HZ EP       1148 49.58                             118   -0.58 8  231 234 
 NOR  HE ES       1149 17.64                             118    0.09 8  231 234 
 NOR  HZ I        1149 22.30        15.1 0.20            119            231 234 
 SML  HZ EP       1148 50.50                             117   -0.86 8  243 336 
 SML  HN ES       1149 19.04                             117   -0.64 8  243 336 
 SML  HZ I        1149 22.83        24.3 0.10            119            243 336 
 CHI  HZ EP       1148 51.80                             117   -0.55 8  247 194 
 CHI  HN ES       1149 21.99                             117    0.53 8  247 194 
 CHI  HZ I        1149 29.90         8.3 0.36            119            247 194 
 HEL  HZ EP       1148 55.47                             114    0.86 8  268 256 
 HEL  HN ES       1149 24.71                             114   -0.76 8  268 256 
 HEL  HZ I        1149 32.51         6.5 0.32            116            268 256 
 GUY2CHZ EP       1148 58.51                             112    0.45 7  297 234 
 GUY2CHN ES   4   1149 33.22                             112    1.61 0  297 234 
 GUY2CHZ I        1149 40.73         7.4 0.26                           297 234 
 PRA  HZ EP       1149  8.17                             106    0.04 6  389 209 
 PRA  HN ES       1149 50.20                             106    0.66 6  389 209 
 PRA  HZ I        1149 55.50         9.5 0.64            108            389 209 
                                                                                
