 2017  315 1040 37.3 L   6.788 -73.151148.0  RSN  5 0.3 1.5LRSN                1
 GAP=236        0.60       3.7     4.8  6.7  0.8031E+01  0.5787E+00 -0.3479E+01E
 Epicentro: LOS SANTOS - SANTANDER                                             3
 ACTION:UPD 17-05-25 18:40 OP:jn   STATUS:               ID:20170315104037 L   I
 OLDACT:REG 17-03-15 21:29 OP:dnl  STATUS:               ID:20170315103741     3
 2017-03-15-1038-00M.COL___382                                                 6
 STAT SP IPHASW D HRMM SECON CODA AMPLIT PERI AZIMU VELO AIN AR TRES W  DIS CAZ7
 BAR2 EZ EP       1040 57.13                             171   -0.0810 21.9 189 
 BRR  HZ EP       1040 58.36                             153   -0.3810 71.4 300 
 BRR  HN ES       1041 15.66                             153    0.2310 71.4 300 
 BRR  HZ I        1041 19.38        13.4 0.44            152           71.4 300 
 RUS  HZ EP   2   1041  1.16                             145   -0.06 5 99.3 176 
 RUS  HN ES       1041 20.05                             145    0.2110 99.3 176 
 RUS  HZ I        1041 22.46         2.3 0.40            148           99.3 176 
 SPBC HZ EP   2   1041  6.17                             130    0.29 5  162 219 
 SPBC HN ES       1041 27.94                             130   -0.20 9  162 219 
 SPBC HZ I        1041 31.03         4.4 0.12            132            162 219 
 ZAR  HZ EP   2   1041 10.68                             123    0.75 4  204 293 
 ZAR  HE ES       1041 35.37                             123    0.02 9  204 293 
 ZAR  HZ I        1041 40.77         2.1 0.28            125            204 293 
                                                                                
