 2016  415 1834 27.3 L   6.804 -73.173146.6  RSN  9 0.2 2.1LRSN                1
 GAP=133        0.54       2.1     2.2  3.4 -0.8914E+00  0.2427E+01  0.1150E+01E
 Epicentro: LOS SANTOS - SANTANDER                                             3
 ACTION:UPD 16-05-05 14:21 OP:rebc STATUS:               ID:20160415183427 L   I
 OLDACT:DUP 16-04-16 01:36 OP:cara STATUS:               ID:20160415182746d    3
 2016-04-15-1827-45M.COL___316                                                 6
 STAT SP IPHASW D HRMM SECON CODA AMPLIT PERI AZIMU VELO AIN AR TRES W  DIS CAZ7
 BAR2 EZ EP       1834 47.06                             170    0.0610 23.5 183 
 BAR2 EZ ES       1835  2.49                             170    0.0910 23.5 183 
 BAR2 EZ I        1835  3.56        23.8 0.46            168           23.5 183 
 PAM  EZ EP     D 1834 49.73                             150    0.0610 79.0  41 
 PAM  EN ES       1835  7.02                             150   -0.1210 79.0  41 
 PAM  EZ I        1835  9.19        28.9 0.48            156           79.0  41 
 RUS  HZ EP       1834 51.12                             144   -0.0410  101 174 
 RUS  HN ES       1835  9.73                             144   -0.0610  101 174 
 RUS  HZ I        1835 10.86        19.8 0.28            144            101 174 
 PTB  HZ EP       1834 53.55                             133   -0.50 9  145 258 
 PTB  HN ES       1835 14.96                             133    0.03 9  145 258 
 PTB  HZ I        1835 17.23         9.2 0.40            133            145 258 
 SPBC HZ EP       1834 55.85                             129    0.16 9  162 218 
 SPBC HN ES       1835 17.81                             129   -0.05 9  162 218 
 SPBC HZ I        1835 25.64        19.5 0.30            130            162 218 
 ZAR  HN ES       1835 24.96                             123    0.39 9  201 292 
 ZAR  HZ I        1835 30.75         7.8 0.36            124            201 292 
 NOR  HZ EP       1835  2.57                             119   -0.25 8  233 234 
 NOR  HN ES       1835 30.24                             119   -0.30 8  233 234 
 NOR  HZ I        1835 36.68        11.9 0.16            119            233 234 
 CHI  HZ EP       1835  5.15                             117    0.17 8  248 194 
 CHI  HN ES       1835 34.72                             117    0.32 8  248 194 
 CHI  HZ I        1835 44.39         5.7 0.44            118            248 194 
 GUY2CHZ EP       1835 10.91                             113    0.24 7  299 234 
 GUY2CHN ES       1835 44.49                             113   -0.04 7  299 234 
 GUY2CHZ I        1835 52.21         5.4 0.28                           299 234 
                                                                                
