 2013  615 1449  3.2 L   6.757 -73.165147.3  RSN  7 0.5 2.1LRSN                1
 GAP=180        0.81       7.6     6.5  8.4  0.1127E+02  0.8264E+01  0.7646E+01E
 Epicentro: LOS SANTOS - SANTANDER                                             3
 ACTION:UPD 14-01-08 09:54 OP:ep   STATUS:               ID:20130615144903 L   I
 OLDACT:UP  13-06-15 19:03 OP:mh   STATUS:               ID:20130615144751     3
 OLDACT:REG 13-06-15 18:54 OP:mh   STATUS:               ID:20130615144751     3
 2013-06-15-1447-51M.COL___222                                                 6
 STAT SP IPHASW D HRMM SECON CODA AMPLIT PERI AZIMU VELO AIN AR TRES W  DIS CAZ7
 BAR2 SZ EP       1449 23.12                             173    0.2310 18.3 186 
 BAR2 SZ ES   1   1449 37.62                             173   -0.66 7 18.3 186 
 BAR2 SZ I        1449 38.97        22.1 0.18            173           18.3 186 
 GIR2 SZ EP       1449 23.32                             165    0.1810 35.7 355 
 GIR2 SZ I        1449 39.47         7.2 0.18            159           35.7 355 
 BRR  HN ES   1   1449 41.68                             152    0.52 7 71.7 303 
 BRR  HN I        1449 42.28        57.4 0.26            146           71.7 303 
 RUS  HZ EP   1   1449 26.46                             146   -0.28 7 96.0 175 
 RUS  HN ES   2   1449 45.54                             146    0.40 5 96.0 175 
 RUS  HN I        1449 47.25        13.8 0.30            139           96.0 175 
 PTB  HZ EP       1449 29.75                             133   -0.23 9  145 260 
 PTB  HN ES   2   1449 50.13                             133   -0.78 5  145 260 
 PTB  HN I        1449 52.99        23.5 0.24            126            145 260 
 ZAR  HZ EP   4   1449 37.37                             123    1.68 0  204 294 
 ZAR  HN ES   2   1450  0.79                             123   -0.27 4  204 294 
 NOR  HN ES   2   1450  6.93                             119    0.87 4  230 235 
 NOR  HN I        1450 16.16        17.4 0.16            112            230 235 
                                                                                
