 2015 1015 1810 20.6 L   6.797 -73.126137.3  RSN  5 0.5 1.6LRSN                1
 GAP=139        1.15       5.7     6.1  8.2  0.7811E+01  0.1240E+02 -0.2072E+01E
 Epicentro: LOS SANTOS - SANTANDER                                             3
 ACTION:UPD 15-12-22 20:40 OP:cam  STATUS:               ID:20151015181020 L   I
 OLDACT:REG 15-10-15 22:29 OP:stll STATUS:               ID:20151015180748     3
 2015-10-15-1807-48M.COL___328                                                 6
 STAT SP IPHASW D HRMM SECON CODA AMPLIT PERI AZIMU VELO AIN AR TRES W  DIS CAZ7
 BAR2 EZ EP       1810 39.11                             170   -0.1110 23.5 195 
 BAR2 EZ ES       1810 53.62                             170   -0.1210 23.5 195 
 BAR2 EZ I        1810 55.21        11.5 0.20            168           23.5 195 
 BRR  HZ EP       1810 40.83                             150   -0.1410 73.2 298 
 BRR  HN ES       1810 57.75                             150    0.9010 73.2 298 
 PAM  EZ EP       1810 41.76                             150   -0.1010 76.3  38 
 PAM  EZ I        1810 41.96        12.3 0.18            152           76.3  38 
 PAM  EN ES       1810 58.26                             150   -0.1810 76.3  38 
 RUS  HZ EP       1810 43.85                             142    0.3510  100 177 
 RUS  HN ES       1811  1.07                             142   -0.2910  100 177 
 RUS  HZ I        1811  3.48         3.6 0.30            142            100 177 
 ZAR  HZ EP       1810 53.19                             120    0.46 8  206 292 
 ZAR  HN ES       1811 16.89                             120   -0.90 8  206 292 
 ZAR  HZ I        1811 19.35         5.9 0.10            121            206 292 
                                                                                
