 2017  115 1143  8.1 L   6.768 -73.102144.9  RSN  4 0.1 1.1LRSN                1
 GAP=144        0.38       2.0     3.0  3.1 -0.1284E+00 -0.6501E+00  0.2099E+00E
 Epicentro: LOS SANTOS - SANTANDER                                             3
 ACTION:UPD 17-05-22 15:59 OP:jn   STATUS:               ID:20170115114308 L   I
 OLDACT:REG 17-01-15 20:09 OP:dani STATUS:               ID:20170115113745     3
 2017-01-15-1138-00M.COL___335                                                 6
 STAT SP IPHASW D HRMM SECON CODA AMPLIT PERI AZIMU VELO AIN AR TRES W  DIS CAZ7
 BAR2 EZ EP       1143 27.50                             171   -0.0610 21.4 205 
 BAR2 HN ES       1143 42.69                             171   -0.0710 21.4 205 
 BAR2 EZ I        1143 44.09         3.9 0.68            170           21.4 205 
 PAM  EZ EP       1143 30.39                             151    0.2110 77.2  35 
 PAM  EE ES       1143 47.34                             151   -0.0910 77.2  35 
 PAM  EZ I        1143 48.05         1.7 0.09            153           77.2  35 
 BRR  HZ EP       1143 29.37                             150   -0.1010 77.2 299 
 BRR  HN ES       1143 46.26                             150    0.0910 77.2 299 
 BRR  HZ I        1143 47.52         7.0 0.36            152           77.2 299 
 RUS  HZ EP       1143 31.38                             145   -0.0910 96.9 179 
 RUS  HE ES       1143 49.83                             145    0.1110 96.9 179 
 RUS  HZ I        1143 52.38         0.9 0.40            145           96.9 179 
                                                                                
