 2017  215 1151 21.3 L   6.755 -73.161143.7  RSN  6 0.4 1.5LRSN                1
 GAP=137        0.80       3.9     3.7  5.9  0.3192E+00  0.6042E+01  0.2275E+01E
 Epicentro: LOS SANTOS - SANTANDER                                             3
 ACTION:UPD 17-05-24 15:36 OP:jn   STATUS:               ID:20170215115121 L   I
 OLDACT:UP  17-02-15 22:37 OP:cog  STATUS:               ID:20170215114741     3
 OLDACT:REG 17-02-15 20:19 OP:cog  STATUS:               ID:20170215114741     3
 2017-02-15-1148-00M.COL___352                                                 6
 STAT SP IPHASW D HRMM SECON CODA AMPLIT PERI AZIMU VELO AIN AR TRES W  DIS CAZ7
 BAR2 HZ EP       1151 40.61                             172    0.0710 18.2 187 
 BAR2 HZ ES       1151 56.03                             172    0.4510 18.2 187 
 BAR2 HZ I        1152  1.16         4.5 0.24            167           18.2 187 
 PAM  EZ EP       1151 43.66                             149    0.1110 82.3  38 
 PAM  EE ES       1152  0.64                             149   -0.3010 82.3  38 
 RUS  HZ EP       1151 44.36                             145   -0.1010 95.8 175 
 RUS  HN ES       1152  2.42                             145   -0.1410 95.8 175 
 RUS  HZ I        1152  3.88         5.2 0.32            144           95.8 175 
 PTB  HZ EP       1151 47.53                             132   -0.30 9  145 261 
 PTB  HN ES       1152  8.07                             132   -0.48 9  145 261 
 PTB  HZ I        1152 13.29         5.9 0.18            133            145 261 
 ZAR  HN ES       1152 19.33                             122    0.49 9  204 294 
 CHI  HZ EP       1151 58.56                             117    0.28 8  243 195 
 CHI  HE ES   3   1152 28.72                             117    1.57 2  243 195 
 CHI  HZ I        1152 35.21         2.0 0.52            118            243 195 
                                                                                
