 2012  615 1402 48.3 L   6.865 -73.369117.8  RSN  6 0.4 1.8LRSN                1
 GAP= 91        0.82       4.1     4.8  9.1 -0.3859E+01  0.2011E+02 -0.7117E+01E
 Epicentro: SAN VICENTE DE CHUCURI - SANTANDER                                 3
 ACTION:UPD 12-08-06 17:49 OP:ep   STATUS:               ID:20120615140248 L   I
 2012-06-15-1400-00M.COL___200                                                 6
 STAT SP IPHASW D HRMM SECON CODA AMPLIT PERI AZIMU VELO AIN AR TRES W  DIS CAZ7
 BAR2 SZ EP       14 3  5.17                             162    0.1510 36.5 146 
 BAR2 SZ ES   1   14 3 18.41                             162    0.37 7 36.5 146 
 BAR2 SZ I        14 3 19.73        52.5 0.34                          36.5 146 
 PAM  SZ EP   1   14 3  8.61                             140   -0.02 7 90.6  55 
 PAM  SE ES   1   14 3 24.39                             140   -0.08 7 90.6  55 
 RUS  HZ EP   1   14 3 10.39                             134   -0.04 7  112 164 
 RUS  HZ I        14 3 10.78         4.3 0.08                           112 164 
 RUS  HN ES   1   14 3 27.59                             134   -0.08 7  112 164 
 PTB  HZ EP       14 3 10.51                             130   -0.5010  126 253 
 PTB  HN ES   1   14 3 28.52                             130   -0.18 7  126 253 
 PTB  HZ I        14 3 34.04         4.8 0.07                           126 253 
 OCA  HE ES   1   14 3 33.32                             124   -0.31 7  152   2 
 OCA  HZ I        14 3 34.92        23.3 0.09                           152   2 
 ZAR  HZ EP   1   14 3 17.41                             119    1.07 7  179 293 
 ZAR  HZ I        14 3 43.05         8.4 0.33                           179 293 
                                                                                
