 2011  415 1922 13.9 L   6.765 -73.088144.4  RSN 10 0.3 2.2LRSN                1
 GAP=121        0.75       4.3     5.4  6.0 -0.6462E+01 -0.1076E+00  0.5060E+01E
 Epicentro: LOS SANTOS - SANTANDER                                             3
 ACTION:UP  11-06-22 15:31 OP:REBC STATUS:               ID:20110415192213 L   I
 2011-04-15-1919-33S.COL___140                                                 6
 STAT SP IPHASW D HRMM SECON CODA AMPLIT PERI AZIMU VELO SNR AR TRES W  DIS CAZ7
 BAR2 SZ EP   1   1922 33.68                             171     0.3 7   22 209 
 BAR2 SZ ES   1   1922 48.53                             171     0.0 7   22 209 
 BAR2 SZ I        1922 50.22        33.4 0.31                            22 209 
 BTL  SZ EP       1922 33.83                             169     0.410   26 311 
 PAM  SZ EP   1   1922 36.34                             151     0.4 7   77  34 
 PAM  SN ES   1   1922 52.43                             151    -0.7 7   77  34 
 BRR  HZ EP   1   1922 35.39                             150     0.0 7   79 299 
 BRR  HE ES   1   1922 52.31                             150     0.2 7   79 299 
 BRR  HZ I        1922 58.22        38.5 0.12                            79 299 
 GRA  SZ EP       1922 39.12                             136    -0.110  128  14 
 GRA  SZ I        1922 40.67        23.9 0.30                           128  14 
 OCA  SZ EP   1   1922 42.12                             128    -0.5 7  165 351 
 OCA  SZ ES   1   1923  5.26                             128     0.3 7  165 351 
 OCA  SZ I        1923 10.22        25.0 0.31                           165 351 
 YOP  SZ EP   1   1922 43.16                             127    -0.1 7  173 155 
 YOP  SZ I        1923 16.26        12.6 0.31                           173 155 
 NOR  SZ EP   2   1922 49.40                             118    -0.5 4  238 236 
 NOR  SE ES   2   1923 17.62                             118    -0.4 4  238 236 
 HEL  HZ EP   2   1922 54.85                             114     0.2 4  277 257 
 HEL  HN ES   2   1923 25.92                             114    -0.5 4  277 257 
 HEL  HZ I        1923 34.97         5.8 0.28                           277 257 
 PRA  HZ EP   1   1923  7.15                             106    -0.2 4  392 211 
                                                                                
