 2015 1215 1437 22.4 L   6.783 -73.118148.0  RSN  8 0.3 2.0LRSN                1
 GAP=141        0.66       3.3     4.5  5.0  0.1752E+01  0.2141E+01 -0.1065E+01E
 Epicentro: LOS SANTOS - SANTANDER                                             3
 ACTION:UPD 16-02-04 15:05 OP:cam  STATUS:               ID:20151215143722 L   I
 OLDACT:UP  15-12-15 22:17 OP:ar   STATUS:               ID:20151215142744     3
 OLDACT:REG 15-12-15 20:21 OP:ar   STATUS:               ID:20151215142744     3
 2015-12-15-1427-44M.COL___331                                                 6
 STAT SP IPHASW D HRMM SECON CODA AMPLIT PERI AZIMU VELO AIN AR TRES W  DIS CAZ7
 BAR2 EZ EP       1437 42.21                             171   -0.0610 22.3 199 
 BAR2 EZ ES       1437 57.39                             171   -0.3910 22.3 199 
 BAR2 EZ I        1437 58.50        25.4 0.18            171           22.3 199 
 BRR  HZ EP       1437 44.17                             151    0.1810 74.8 299 
 BRR  HN ES       1438  1.12                             151    0.2910 74.8 299 
 BRR  HZ I        1438  3.80        23.2 0.28            150           74.8 299 
 PAM  EZ EP       1437 45.11                             151    0.2810 77.0  37 
 PAM  EN ES       1438  2.23                             151   -0.0910 77.0  37 
 PAM  EZ I        1438  4.51        15.1 0.40            153           77.0  37 
 RUS  HZ EP       1437 46.45                             144    0.2310 98.5 178 
 RUS  HN ES       1438  4.67                             144   -0.1410 98.5 178 
 RUS  HZ I        1438  5.56         9.4 0.24            148           98.5 178 
 PTB  HZ EP   2   1437 49.92                             132    0.13 5  150 260 
 PTB  HN ES   4   1438  9.65                             132   -1.50 0  150 260 
 PTB  HZ I        1438 12.20         7.7 0.12            132            150 260 
 ZAR  HZ EP   4   1437 57.50                             122    2.15 0  208 292 
 ZAR  HN ES   2   1438 20.64                             122   -0.42 4  208 292 
 ZAR  HZ I        1438 26.53         9.9 0.24            123            208 292 
 SML  HZ EP   2   1437 58.56                             117   -0.91 4  247 335 
 SML  HE ES   2   1438 27.66                             117   -0.73 4  247 335 
 SJC  HZ EP   4   1438 16.95                             106   -1.46 0  412 327 
 SJC  HE ES   4   1438 58.70                             106   -3.41 0  412 327 
 SJC  HZ I        1439  2.25         2.4 0.48            107            412 327 
                                                                                
