 2016 1215 1105 38.2 L   6.767 -73.177149.7  RSN  6 0.4 1.4LRSN                1
 GAP=134        1.03       5.2     4.6  6.9  0.2654E+01  0.7600E+01 -0.1666E+01E
 Epicentro: LOS SANTOS - SANTANDER                                             3
 ACTION:UPD 17-01-11 20:15 OP:rebc STATUS:               ID:20161215110538 L   I
 OLDACT:REG 16-12-15 21:07 OP:ar   STATUS:               ID:20161215105746     3
 2016-12-15-1058-00M.COL___343                                                 6
 STAT SP IPHASW D HRMM SECON CODA AMPLIT PERI AZIMU VELO AIN AR TRES W  DIS CAZ7
 BAR2 EZ EP       11 5 58.17                             172   -0.0310 19.3 182 
 BAR2 EZ ES       11 6 13.42                             172   -0.4010 19.3 182 
 BAR2 EZ I        11 6 14.26         4.6 0.24            173           19.3 182 
 BRR  HZ EP       11 5 59.62                             154   -0.0610 70.1 302 
 BRR  HN ES       11 6 17.34                             154    0.8810 70.1 302 
 PAM  EZ EP       11 6  1.12                             150    0.0210 82.4  40 
 PAM  EN ES       11 6 18.67                             150   -0.3110 82.4  40 
 PAM  EZ I        11 6 20.31         4.1 0.58            151           82.4  40 
 RUS  HZ EP       11 6  2.31                             146    0.2410 97.3 174 
 RUS  HN ES       11 6 20.88                             146    0.1610 97.3 174 
 RUS  HZ I        11 6 21.77         2.4 0.26            148           97.3 174 
 PTB  HZ EP       11 6  5.43                             134    0.33 9  144 260 
 PTB  HN ES       11 6 25.43                             134   -0.67 9  144 260 
 PTB  HZ I        11 6 27.29         2.7 0.44            133            144 260 
 ZAR  HZ EP       11 6 10.32                             123   -0.37 9  202 293 
 ZAR  HE ES       11 6 36.15                             123    0.09 9  202 293 
 ZAR  HZ I        11 6 43.04         3.1 0.38            123            202 293 
                                                                                
