 2011  215 1015 42.0 L   6.788 -73.098140.5  RSN  9 0.4 1.9LRSN                1
 GAP=164        1.07       6.6    11.5 11.0 -0.4471E+02  0.6794E+02 -0.3209E+02E
 Epicentro: LOS SANTOS - SANTANDER                                             3
 ACTION:UP  11-03-28 15:08 OP:jfem STATUS:               ID:20110215101542 L   I
 2011-02-15-1011-40S.COL___137                                                 6
 STAT SP IPHASW D HRMM SECON CODA AMPLIT PERI AZIMU VELO SNR AR TRES W  DIS CAZ7
 BTL  SZ IP       1016  1.99                             170     0.910   24 308 
 BAR2 SZ EP       1016  0.90                             170    -0.110   24 204 
 BAR2 SZ I        1016  1.24        18.7 0.08                            24 204 
 BAR2 SZ ES   1   1016 15.54                             170    -0.3 7   24 204 
 GIR2 SZ EP       1016  1.01                             166    -0.210   34 342 
 RUS  HZ EP   2   1016  5.52                             143     0.4 5   99 179 
 RUS  HN ES   1   1016 23.11                             143    -0.1 7   99 179 
 RUS  HZ I        1016 24.45        12.9 0.17                            99 179 
 GRA  SZ EP       1016  6.77                             136     0.010  126  15 
 GRA  SZ ES   1   1016 26.20                             136     0.1 7  126  15 
 GRA  SZ I        1016 28.32        14.4 0.24                           126  15 
 OCA  SZ EP       1016  9.67                             128    -0.5 9  162 351 
 OCA  SZ I        1016 36.09        11.7 0.51                           162 351 
 NOR  SZ EP   1   1016 17.44                             117    -0.4 6  238 236 
 NOR  SN ES   2   1016 44.95                             117    -0.9 4  238 236 
 CHI  HZ EP   2   1016 19.44                             116     0.0 4  249 196 
 CHI  HZ I        1016 51.46         3.3 0.31                           249 196 
 HEL  HZ EP   1   1016 22.86                             113     0.3 6  277 256 
 HEL  HE ES   2   1016 54.90                             113     0.8 4  277 256 
 HEL  HZ I        1016 59.75         2.9 0.31                           277 256 
                                                                                
