 2010  815 1244 24.4 L   6.804 -73.150134.0  RSN  6 0.3 1.5LRSN                1
 GAP=158        0.69       3.4     7.9  9.5 -0.4732E+01 -0.3110E+02  0.6992E+01E
 Epicentro: LOS SANTOS - SANTANDER                                             3
 ACTION:UP  10-09-07 10:55 OP:vdl  STATUS:               ID:20100815124424 L   I
 2010-08-15-1242-46S.COL___111                                                 6
 STAT SP IPHASW D HRMM SECON CODA AMPLIT PERI AZIMU VELO SNR AR TRES W  DIS CAZ7
 BAR2 SZ EP       1244 42.59                             169     0.010   24 189 
 BAR2 SZ I        1244 42.80         6.1 0.14                            24 189 
 BRR  HZ EP       1244 44.60                             150     0.310   71 298 
 BRR  HE ES   1   1244 59.58                             150    -0.2 7   71 298 
 BRR  HZ I        1245  4.91        16.3 0.45                            71 298 
 RUS  HZ EP       1244 46.81                             141    -0.210  101 176 
 RUS  HE ES   2   1245  4.87                             141     0.2 5  101 176 
 RUS  HZ I        1245  6.81         3.2 0.25                           101 176 
 GUE  SZ EP       1244 48.26                             137     0.210  116  12 
 GUE  SZ ES   1   1245  6.45                             137     0.0 7  116  12 
 GRA  SZ EP   1   1244 48.39                             134    -0.2 7  125  18 
 GRA  SZ ES   2   1245  7.81                             134     0.4 5  125  18 
 OCA  SZ ES   1   1245 12.58                             127    -0.5 7  160 353 
 OCA  SZ I        1245 14.43         4.9 0.79                           160 353 
                                                                                
