 2016  815 1720 32.7 L   6.775 -73.144142.0  RSN 14 0.4 2.4LRSN                1
 GAP=138        1.01       3.6     3.7  5.3 -0.1642E+01  0.6121E+01  0.4292E+01E
 Epicentro: LOS SANTOS - SANTANDER                                             3
 ACTION:UPD 16-10-29 15:35 OP:rebc STATUS:               ID:20160815172032 L   I
 OLDACT:UP  16-08-16 00:39 OP:ar   STATUS:               ID:20160815171759     3
 OLDACT:REG 16-08-15 23:39 OP:ar   STATUS:               ID:20160815171759     3
 2016-08-15-1717-59S.COL___348                                                 6
 STAT SP IPHASW D HRMM SECON CODA AMPLIT PERI AZIMU VELO AIN AR TRES W  DIS CAZ7
 BAR2 EZ EP       1720 51.73                             171   -0.1110 20.7 192 
 BAR2 EZ ES       1721  6.50                             171   -0.2610 20.7 192 
 BAR2 EZ I        1721  7.66        92.0 0.24                          20.7 192 
 BRR  HZ IP     C 1720 53.66                             151    0.1110 72.7 300 
 BRR  HN ES       1721 10.72                             151    0.9310 72.7 300 
 BRR  HZ I        1721 13.55        36.3 0.16                          72.7 300 
 PAM  EZ IP       1720 54.59                             150   -0.0710 79.4  38 
 PAM  EN ES       1721 11.77                             150   -0.0010 79.4  38 
 PAM  EZ I        1721 13.45        26.5 0.56                          79.4  38 
 RUS  HZ EP       1720 55.66                             144   -0.2410 97.8 176 
 RUS  HN ES       1721 14.22                             144    0.2410 97.8 176 
 RUS  HZ I        1721 14.84        27.0 0.40                          97.8 176 
 PTB  HZ EP       1720 59.09                             131   -0.26 9  147 260 
 PTB  HN ES       1721 19.29                             131   -0.83 9  147 260 
 PTB  HZ I        1721 22.20        27.3 0.10                           147 260 
 SPBC HZ EP       1721  0.70                             129   -0.04 9  161 220 
 SPBC HE ES       1721 22.50                             129   -0.09 9  161 220 
 SPBC HZ I        1721 27.36        37.5 0.34                           161 220 
 ZAR  HZ EP       1721  4.57                             121   -0.47 8  205 293 
 ZAR  HN ES       1721 30.20                             121   -0.05 8  205 293 
 ZAR  HZ I        1721 35.86        35.6 0.28                           205 293 
 NOR  HZ EP       1721  8.28                             118    0.21 8  233 235 
 NOR  HN ES       1721 35.13                             118   -0.52 8  233 235 
 NOR  HZ I        1721 38.19        17.6 0.14                           233 235 
 CHI  HZ EP       1721 10.03                             117    0.10 8  246 195 
 CHI  HN ES   4   1721 40.99                             117    2.04 0  246 195 
 CHI  HZ I        1721 44.99        11.9 0.30                           246 195 
 HEL  HZ EP       1721 12.85                             114    0.17 8  272 256 
 HEL  HE ES       1721 43.83                             114   -0.02 8  272 256 
 HEL  HZ I        1721 52.23        10.2 0.24                           272 256 
 URE  HZ EP   4   1721 12.05                             113   -1.69 0  285 292 
 URE  HN ES   4   1721 44.00                             113   -1.73 0  285 292 
 URE  HZ I        1721 56.51        16.2 0.18                           285 292 
 GUY2CHZ EP       1721 16.78                             112    0.79 7  300 235 
 GUY2CHN ES       1721 50.83                             112    1.09 7  300 235 
 GUY2CHZ I        1721 58.24        10.8 0.44                           300 235 
 ELA  HZ EP   4   1721 21.09                             110    1.87 0  327 230 
 ELA  HN ES   4   1721 58.19                             110    2.70 0  327 230 
 ELA  HZ I        1722  5.62         8.3 0.28                           327 230 
 PRA  HZ EP       1721 25.48                             106   -0.36 6  390 210 
 PRA  HN ES       1722  7.41                             106    0.14 6  390 210 
 PRA  HZ I        1722 14.26        13.9 0.30                           390 210 
                                                                                
