 2010  815 1248 12.0 L   6.792 -73.048146.0  RSN  6 0.2 1.6LRSN                1
 GAP=170        0.58       3.1     6.9  6.7 -0.2188E+01 -0.1691E+02  0.6482E+00E
 Epicentro: LOS SANTOS - SANTANDER                                             3
 ACTION:UP  10-09-07 10:55 OP:vdl  STATUS:               ID:20100815124812 L   I
 2010-08-15-1246-46S.COL___111                                                 6
 STAT SP IPHASW D HRMM SECON CODA AMPLIT PERI AZIMU VELO SNR AR TRES W  DIS CAZ7
 BAR2 SZ ES   2   1248 46.86                             169    -0.3 5   27 214 
 BAR2 SZ I        1248 52.41         5.9 0.24                            27 214 
 BRR  HZ EP       1248 33.88                             149     0.110   81 295 
 BRR  HZ I        1248 42.57        14.7 0.27                            81 295 
 BRR  HE ES   1   1248 50.94                             149     0.2 7   81 295 
 RUS  HZ EP       1248 35.64                             144    -0.110  100 182 
 RUS  HN ES   2   1248 54.28                             144     0.1 5  100 182 
 RUS  HZ I        1248 55.38         2.5 0.86                           100 182 
 GUE  SZ EP       1248 36.51                             140    -0.210  116   7 
 GRA  SZ EP   1   1248 37.35                             138     0.2 7  124  13 
 GRA  SZ ES   1   1248 57.05                             138     0.4 7  124  13 
 GRA  SZ I        1248 59.78         5.7 0.47                           124  13 
 OCA  SZ EP   2   1248 40.56                             129     0.0 5  163 349 
 OCA  SZ ES   1   1249  2.39                             129    -0.5 7  163 349 
 OCA  SZ I        1249  5.59         5.6 0.37                           163 349 
                                                                                
