 2015  815 1916 15.2 L   6.548 -73.466115.1  RSN 11 0.5 2.2LRSN                1
 GAP= 76        1.13       2.9     5.0  6.8 -0.3135E+01  0.1730E+02 -0.2464E+01E
 Epicentro: EL CARMEN - SANTANDER                                              3
 ACTION:UPD 15-09-15 23:02 OP:cam  STATUS:               ID:20150815191615 L   I
 OLDACT:UP  15-08-16 00:44 OP:mh   STATUS:               ID:20150815190749     3
 OLDACT:REG 15-08-15 22:45 OP:mher STATUS:               ID:20150815190749     3
 2015-08-15-1907-49M.COL___343                                                 6
 STAT SP IPHASW D HRMM SECON CODA AMPLIT PERI AZIMU VELO AIN AR TRES W  DIS CAZ7
 BAR2 EZ IP     D 1916 31.68                             163    0.2810 31.7  81 
 BAR2 EZ ES       1916 44.08                             163    0.0410 31.7  81 
 BAR2 EZ I        1916 45.54        80.9 0.42            170           31.7  81 
 BRR  HZ EP       1916 32.84                             147   -0.0310 67.6 336 
 BRR  HE ES       1916 46.97                             147    0.3010 67.6 336 
 RUS  HZ EP       1916 35.37                             142    0.6410 83.9 150 
 RUS  HN ES       1916 49.73                             142   -0.2410 83.9 150 
 RUS  HZ I        1916 51.41        16.5 0.38            149           83.9 150 
 SPBC HZ EP       1916 36.43                             130   -0.7810  120 214 
 SPBC HN ES   1   1916 53.67                             130   -0.72 7  120 214 
 SPBC HZ I        1916 58.55        40.8 0.22            132            120 214 
 ZAR  HZ EP       1916 43.18                             117   -0.67 9  186 304 
 ZAR  HN ES   1   1917  6.33                             117    0.12 7  186 304 
 ZAR  HZ I        1917  7.90        24.1 0.28            117            186 304 
 OCA  HZ EP       1916 44.60                             117    0.37 9  188   5 
 OCA  HN ES       1917  6.47                             117   -0.42 9  188   5 
 OCA  HZ I        1917 13.29        32.5 0.32            118            188   5 
 NOR  HZ EP       1916 43.42                             117   -0.90 9  190 235 
 NOR  HN ES       1917  7.46                             117    0.42 9  190 235 
 NOR  HZ I        1917  8.80        18.1 0.12            118            190 235 
 GUY2CHZ EP       1916 52.62                             109    0.28 8  256 235 
 GUY2CHN ES   2   1917 21.78                             109    0.47 4  256 235 
 GUY2CHZ I        1917 29.55         7.8 0.52                           256 235 
 SML  HZ EP       1916 52.29                             109    0.35 8  258 345 
 SML  HN ES       1917 20.55                             109   -0.05 8  258 345 
 SML  HZ I        1917 30.34        15.5 0.22            110            258 345 
 URE  HZ EP   4   1916 50.06                             108   -2.63 0  264 300 
 URE  HN ES   4   1917 19.00                             108   -2.94 0  264 300 
 URE  HZ I        1917 36.40         9.1 0.22            109            264 300 
 TOL  SZ EP       1916 57.38                             106    0.26 7  299 224 
 TOL  SN ES       1917 30.69                             106    0.86 7  299 224 
 TOL  SZ I        1917 36.92         3.6 0.38            107            299 224 
                                                                                
