 2010 1015 1210 36.4 L   6.827 -73.014138.0  RSN  4 0.2 1.5LRSN                1
 GAP=252        0.60      11.0    16.5 10.0  0.1456E+03 -0.8655E+02 -0.3152E+02E
 Epicentro: CEPITA - SANTANDER                                                 3
 ACTION:UP  11-02-18 11:09 OP:tino STATUS:               ID:20101015121036 L   I
 2010-10-15-1208-30S.COL___125                                                 6
 STAT SP IPHASW D HRMM SECON CODA AMPLIT PERI AZIMU VELO SNR AR TRES W  DIS CAZ7
 BTL  SZ EP       1210 55.43                             167     0.110   30 290 
 BAR2 SZ EP       1210 55.25                             166    -0.110   32 216 
 BAR2 SZ I        1210 55.58         8.8 0.07                            32 216 
 BAR2 SZ ES   2   1211 10.15                             166     0.0 5   32 216 
 BRR  HZ EP       1210 57.20                             147    -0.310   83 292 
 BRR  HZ I        1210 57.52        12.5 0.10                            83 292 
 BRR  HE ES   1   1211 14.18                             147     0.3 7   83 292 
 RUS  HZ EP       1210 59.82                             141     0.210  104 184 
 RUS  HE ES   3   1211 17.04                             141    -0.7 2  104 184 
 RUS  HZ I        1211 19.07         2.1 0.37                           104 184 
                                                                                
