 2014  415 1847 54.8 L   6.810 -73.168145.5  RSN  8 0.5 1.9LRSN                1
 GAP=133        1.18       3.7     5.1  8.0 -0.1273E+01  0.8560E+01 -0.1821E+01E
 Epicentro: LOS SANTOS - SANTANDER                                             3
 ACTION:UPD 14-05-13 23:08 OP:nd   STATUS:               ID:20140415184754 L   I
 OLDACT:REG 14-04-15 21:10 OP:stll STATUS:               ID:20140415183820     3
 2014-04-15-1838-20M.COL___266                                                 6
 STAT SP IPHASW D HRMM SECON CODA AMPLIT PERI AZIMU VELO AIN AR TRES W  DIS CAZ7
 BRR  HZ EP       1848 16.28                             153    0.5110 68.5 299 
 BRR  HZ I        1848 16.57        20.3 0.26            152           68.5 299 
 BRR  HE ES       1848 32.78                             153    0.6610 68.5 299 
 PAM  SZ EP       1848 17.32                             151    0.2910 78.2  41 
 PAM  SZ I        1848 17.54        14.1 0.22            153           78.2  41 
 PAM  SN ES       1848 34.20                             151   -0.1710 78.2  41 
 RUS  HZ EP       1848 18.41                             143   -0.2110  102 175 
 RUS  HN ES       1848 36.71                             143   -0.4810  102 175 
 RUS  HZ I        1848 38.22         7.2 0.26            146            102 175 
 PTB  HZ EP       1848 21.28                             132   -0.26 9  146 258 
 PTB  HN ES       1848 42.59                             132    0.19 9  146 258 
 PTB  HZ I        1848 44.39         7.4 0.36            132            146 258 
 OCA  HN ES       1848 45.04                             130    0.12 9  159 354 
 OCA  HZ I        1848 49.48         9.4 0.24            131            159 354 
 SPBC HZ EP       1848 23.39                             129    0.18 9  162 218 
 SPBC HN ES       1848 45.29                             129   -0.08 9  162 218 
 SPBC HZ I        1848 49.43        11.0 0.22            130            162 218 
 ZAR  HZ EP       1848 27.84                             123    0.90 9  201 292 
 ZAR  HN ES       1848 51.07                             123   -0.95 9  201 292 
 ZAR  HZ I        1848 59.43         9.3 0.24            123            201 292 
 SML  HZ EP       1848 30.73                             118   -0.46 8  242 336 
 SML  HN ES       1848 58.95                             118   -0.62 8  242 336 
                                                                                
