 2012  815 1441 41.9 L   6.734 -73.161148.1  RSN  4 0.2 1.8LRSN                1
 GAP=230        0.54       5.7     5.4  6.1  0.1120E+02  0.3216E+01 -0.6558E+01E
 Epicentro: VILLANUEVA - SANTANDER                                             3
 ACTION:UPD 12-09-10 11:56 OP:ep   STATUS:               ID:20120815144141 L   I
 2012-08-15-1440-00M.COL___217                                                 6
 STAT SP IPHASW D HRMM SECON CODA AMPLIT PERI AZIMU VELO AIN AR TRES W  DIS CAZ7
 BAR2 SZ EP       1442  1.48                             174   -0.2110 15.8 188 
 BAR2 SZ I        1442  2.04         9.5 0.12                          15.8 188 
 BAR2 SZ ES   1   1442 16.90                             174   -0.22 7 15.8 188 
 BRR  HZ EP       1442  3.46                             152    0.0210 73.5 304 
 BRR  HN ES   1   1442 20.57                             152    0.34 7 73.5 304 
 BRR  HZ I        1442 24.08        10.3 0.56                          73.5 304 
 RUS  HN ES   1   1442 23.98                             146    0.27 7 93.4 175 
 PTB  HZ EP   1   1442  9.02                             133    0.22 7  145 262 
 PTB  HE ES   1   1442 29.50                             133   -0.28 7  145 262 
 PTB  HZ I        1442 35.54        16.4 1.02                           145 262 
                                                                                
