 2015  915 1435 56.3 L   6.773 -73.153139.8  RSN  5 0.4 1.7LRSN                1
 GAP=150        1.11       6.2     5.6  8.8 -0.1234E+02  0.1936E+02 -0.5425E+01E
 Epicentro: LOS SANTOS - SANTANDER                                             3
 ACTION:UPD 15-10-28 16:26 OP:cam  STATUS:               ID:20150915143556 L   I
 OLDACT:REG 15-09-15 21:00 OP:drio STATUS:               ID:20150915142750     3
 2015-09-15-1427-50M.COL___347                                                 6
 STAT SP IPHASW D HRMM SECON CODA AMPLIT PERI AZIMU VELO AIN AR TRES W  DIS CAZ7
 BAR2 EZ IP     C 1436 15.21                             171    0.0910 20.3 189 
 BAR2 EZ ES       1436 30.35                             171    0.5310 20.3 189 
 BAR2 EZ I        1436 31.23         5.9 0.24            171           20.3 189 
 PAM  EZ EP       1436 18.16                             149    0.1310 80.2  39 
 PAM  EE ES       1436 34.52                             149   -0.4810 80.2  39 
 PAM  EZ I        1436 37.19         9.1 0.22            152           80.2  39 
 PTB  HZ EP       1436 22.00                             131   -0.63 9  146 260 
 PTB  HE ES       1436 42.48                             131   -0.71 9  146 260 
 PTB  HZ I        1436 45.53         7.0 0.14            131            146 260 
 SPBC HZ EP       1436 24.37                             128    0.32 9  160 219 
 SPBC HN ES       1436 45.72                             128    0.01 9  160 219 
 SPBC HZ I        1436 50.76         8.4 0.10            130            160 219 
 ZAR  HZ EP       1436 28.55                             121    0.18 9  204 293 
 ZAR  HN ES       1436 54.06                             121    0.66 9  204 293 
 ZAR  HZ I        1436 59.30         7.1 0.54            122            204 293 
                                                                                
