 2016  115 1740  5.3 L   6.757 -73.157147.3  RSN  9 0.5 2.0LRSN                1
 GAP=137        1.26       4.1     5.1  7.3 -0.4568E+01  0.9529E+01 -0.1106E+01E
 Epicentro: LOS SANTOS - SANTANDER                                             3
 ACTION:UPD 16-03-09 23:25 OP:cam  STATUS:               ID:20160115174005 L   I
 OLDACT:REG 16-01-15 20:48 OP:mh   STATUS:               ID:20160115173748     3
 2016-01-15-1737-48M.COL___334                                                 6
 STAT SP IPHASW D HRMM SECON CODA AMPLIT PERI AZIMU VELO AIN AR TRES W  DIS CAZ7
 BAR2 EZ EP     C 1740 25.24                             173    0.1810 18.4 189 
 BAR2 EZ ES       1740 40.43                             173   -0.0210 18.4 189 
 BAR2 EZ I        1740 41.00        14.9 0.22            173           18.4 189 
 BRR  HZ IP     C 1740 27.36                             152    0.6310 72.6 302 
 BRR  HN ES       1740 44.29                             152    0.8710 72.6 302 
 BRR  HZ I        1740 45.02        17.3 0.32            150           72.6 302 
 PAM  EZ EP       1740 28.35                             150    0.3610 81.9  38 
 PAM  EN ES       1740 45.64                             150   -0.0210 81.9  38 
 PAM  EZ I        1740 47.29         9.1 0.68            151           81.9  38 
 RUS  HZ EP       1740 28.74                             145   -0.1710 95.9 175 
 RUS  HE ES       1740 47.25                             145   -0.0510 95.9 175 
 RUS  HZ I        1740 48.09        13.0 0.32            149           95.9 175 
 PTB  HZ EP       1740 31.95                             133   -0.30 9  146 261 
 PTB  HN ES       1740 52.26                             133   -0.97 9  146 261 
 PTB  HZ I        1740 57.72        10.4 0.48            133            146 261 
 SPBC HZ EP       1740 33.84                             130    0.31 9  159 220 
 SPBC HN ES       1740 54.97                             130   -0.56 9  159 220 
 SPBC HZ I        1741  2.40        14.8 0.36            132            159 220 
 OCA  HZ EP       1740 33.71                             129   -0.49 9  165 354 
 OCA  HN ES       1740 55.76                             129   -0.96 9  165 354 
 OCA  HZ I        1741  6.11        23.9 0.18            129            165 354 
 ZAR  HZ EP       1740 38.20                             123    0.24 9  205 294 
 ZAR  HN ES       1741  3.90                             123    0.50 9  205 294 
 ZAR  HZ I        1741  8.97        21.0 0.26            123            205 294 
 NOR  HZ EP       1740 40.69                             119   -0.06 8  231 235 
 NOR  HN ES       1741  8.75                             119    0.37 8  231 235 
 NOR  HZ I        1741 10.39         9.9 0.38            120            231 235 
                                                                                
