 2014  215 1835 49.3 L   6.742 -73.140144.1  RSN  7 0.5 1.8LRSN                1
 GAP=140        0.94       4.1     4.7  7.9 -0.2324E+01  0.1266E+02 -0.1530E+01E
 Epicentro: JORDAN - SANTANDER                                                 3
 ACTION:UPD 14-03-10 08:10 OP:ep   STATUS:               ID:20140215183549 L   I
 OLDACT:UP  14-02-15 19:42 OP:mh   STATUS:               ID:20140215183000     3
 OLDACT:UP  14-02-15 19:42 OP:mh   STATUS:               ID:20140215183000     3
 OLDACT:REG 14-02-15 16:22 OP:mh   STATUS:               ID:20140215183000     3
 2014-02-15-1830-00M.COL___209                                                 6
 STAT SP IPHASW D HRMM SECON CODA AMPLIT PERI AZIMU VELO AIN AR TRES W  DIS CAZ7
 BRR  HZ EP   1   1836 11.22                             151    0.71 7 74.9 303 
 BRR  HN ES   1   1836 27.39                             151    0.36 7 74.9 303 
 BRR  HZ I        1836 32.39         9.6 0.17            149           74.9 303 
 PAM  SZ EP   1   1836 12.06                             149    0.41 7 82.0  36 
 PAM  SN ES       1836 28.80                             149   -0.2610 82.0  36 
 PAM  SZ I        1836 31.57         8.0 0.61            151           82.0  36 
 RUS  HZ EP   1   1836 12.94                             145    0.48 7 94.2 176 
 RUS  HN ES       1836 30.31                             145   -0.1910 94.2 176 
 RUS  HZ I        1836 32.29         5.8 0.23            151           94.2 176 
 PTB  HZ EP   1   1836 16.15                             132    0.04 7  147 261 
 PTB  HN ES       1836 36.75                             132   -0.25 9  147 261 
 PTB  HZ I        1836 39.59         6.6 0.19            133            147 261 
 ZAR  HN ES   1   1836 48.01                             121    0.57 6  207 294 
 ZAR  HZ I        1836 53.98         5.0 0.16            123            207 294 
 NOR  HZ EP       1836 23.93                             118   -0.69 8  232 236 
 NOR  HN ES   1   1836 52.34                             118    0.19 6  232 236 
 NOR  HZ I        1836 55.21         4.4 0.14            121            232 236 
 SML  HZ EP   1   1836 26.60                             116    0.09 6  250 336 
 SML  HN ES   1   1836 54.54                             116   -0.98 6  250 336 
 SML  HZ I        1837  1.19        19.1 0.05            118            250 336 
                                                                                
