 2014  315 2227 45.4 L   6.770 -73.161148.3  RSN  6 0.2 1.4LRSN                1
 GAP=136        0.64       3.1     3.3  4.7 -0.2862E+01  0.4570E+00  0.2067E+01E
 Epicentro: LOS SANTOS - SANTANDER                                             3
 ACTION:UPD 14-04-09 23:17 OP:nd   STATUS:               ID:20140315222745 L   I
 OLDACT:DUP 14-03-16 03:12 OP:stll STATUS:               ID:20140315221817d    3
 2014-03-15-2218-16M.COL___254                                                 6
 STAT SP IPHASW D HRMM SECON CODA AMPLIT PERI AZIMU VELO AIN AR TRES W  DIS CAZ7
 BAR2 SZ EP       2228  5.40                             172    0.0810 19.8 187 
 BAR2 SZ ES       2228 21.21                             172    0.3910 19.8 187 
 BAR2 SZ I        2228 22.12        10.1 0.12            170           19.8 187 
 BRR  HZ EP       2228  6.80                             153   -0.0810 71.4 302 
 BRR  HN ES       2228 23.59                             153   -0.0110 71.4 302 
 PAM  SZ EP       2228  8.36                             150    0.2110 81.0  39 
 PAM  SN ES       2228 25.60                             150   -0.2610 81.0  39 
 PAM  SZ I        2228 26.56         2.1 0.20            153           81.0  39 
 RUS  HZ EP       2228  9.40                             145    0.1810 97.4 175 
 RUS  HN ES       2228 27.37                             145   -0.4010 97.4 175 
 RUS  HZ I        2228 29.86         2.5 0.32            144           97.4 175 
 PTB  HN ES       2228 33.34                             133   -0.12 9  146 260 
 SPBC HZ EP       2228 13.56                             130   -0.24 9  160 219 
 SPBC HN ES       2228 36.15                             130    0.23 9  160 219 
 SPBC HZ I        2228 40.83         5.9 0.34            130            160 219 
                                                                                
