 2012  815 2228 41.3 L   6.672 -73.240140.7  RSN  8 0.4 1.9LRSN                1
 GAP=105        0.81       5.1     4.8  6.9 -0.7461E+00  0.6939E+01  0.3417E+01E
 Epicentro: BARICHARA - SANTANDER                                              3
 ACTION:UPD 12-09-10 11:56 OP:ep   STATUS:               ID:20120815222841 L   I
 2012-08-15-2227-59S.COL___217                                                 6
 STAT SP IPHASW D HRMM SECON CODA AMPLIT PERI AZIMU VELO AIN AR TRES W  DIS CAZ7
 BAR2 SZ EP   1   2229  0.16                             175    0.03 7 10.9 144 
 BAR2 SZ ES   1   2229 14.81                             175    0.00 7 10.9 144 
 GIR2 SZ EP   1   2229  0.89                             161    0.05 7 45.3   7 
 GIR2 SZ ES   1   2229 15.65                             161   -0.43 7 45.3   7 
 BRR  HZ EP   1   2229  2.34                             152    0.45 7 71.0 313 
 BRR  HZ I        2229  3.89        37.7 0.11                          71.0 313 
 BRR  HN ES   1   2229 18.88                             152    0.93 7 71.0 313 
 RUS  HZ EP   1   2229  3.78                             146    0.12 7 87.9 169 
 RUS  HN ES   1   2229 21.17                             146    0.07 7 87.9 169 
 RUS  HZ I        2229 23.18        13.2 0.22                          87.9 169 
 PAM  SZ EP   1   2229  4.29                             144    0.15 7 94.9  39 
 PAM  SZ I        2229  5.20        12.9 0.22                          94.9  39 
 PAM  SN ES   1   2229 21.53                             144   -0.43 7 94.9  39 
 PTB  HZ EP   1   2229  6.07                             133   -0.66 7  135 264 
 PTB  HN ES   1   2229 26.19                             133   -0.38 7  135 264 
 PTB  HZ I        2229 27.57        10.4 0.14                           135 264 
 ZAR  HN ES   2   2229 37.34                             122   -0.46 4  200 297 
 HEL  HZ EP   2   2229 20.26                             115    0.49 4  259 258 
 HEL  HZ I        2229 56.42         4.1 0.26                           259 258 
                                                                                
