 2015  615 2232 20.5 L   6.766 -73.188119.7  RSN  5 0.3 1.6LRSN                1
 GAP=138        0.71       3.6     4.3  6.6 -0.6781E+01  0.1541E+02 -0.6430E+01E
 Epicentro: LOS SANTOS - SANTANDER                                             3
 ACTION:UPD 15-09-10 22:12 OP:cam  STATUS:               ID:20150615223220 L   I
 OLDACT:REG 15-06-16 05:14 OP:y    STATUS:               ID:20150615222750     3
 2015-06-15-2227-50M.COL___315                                                 6
 STAT SP IPHASW D HRMM SECON CODA AMPLIT PERI AZIMU VELO AIN AR TRES W  DIS CAZ7
 BAR2 EZ ES       2232 49.57                             170   -0.1410 19.2 178 
 PAM  SZ EP       2232 40.18                             143   -0.2510 83.2  40 
 PAM  SN ES   1   2232 56.62                             143    0.64 7 83.2  40 
 PAM  SZ I        2232 59.41         5.5 0.54            145           83.2  40 
 OCA  HZ EP   2   2232 46.71                             122   -0.54 5  164 355 
 OCA  HN ES       2233  7.94                             122   -0.19 9  164 355 
 OCA  HZ I        2233 12.12        10.8 0.26            123            164 355 
 ZAR  HZ EP   1   2232 51.34                             116    0.26 6  201 294 
 ZAR  HN ES       2233 15.08                             116    0.15 9  201 294 
 ZAR  HZ I        2233 23.60         3.4 0.39            117            201 294 
 NOR  HZ EP   1   2232 54.74                             113    0.56 6  229 235 
 NOR  HN ES       2233 20.26                             113   -0.20 8  229 235 
                                                                                
