 2013 1015 2343 16.1 L   6.797 -73.101145.1  RSN  9 0.3 1.9LRSN                1
 GAP=205        0.70       2.6     4.7  4.3  0.3675E+01  0.4163E+01 -0.2550E+00E
 Epicentro: LOS SANTOS - SANTANDER                                             3
 ACTION:UPD 13-11-25 09:21 OP:ep   STATUS:               ID:20131015234316 L   I
 OLDACT:REG 13-10-15 21:34 OP:nd   STATUS:               ID:20131015234000     3
 2013-10-15-2340-00M.COL___273                                                 6
 STAT SP IPHASW D HRMM SECON CODA AMPLIT PERI AZIMU VELO AIN AR TRES W  DIS CAZ7
 BAR2 SZ EP       2343 35.85                             170    0.1310 24.4 202 
 BAR2 SZ ES       2343 51.16                             170    0.1710 24.4 202 
 BAR2 SZ I        2343 53.55        27.4 0.50            164           24.4 202 
 BRR  HZ EP       2343 37.88                             151    0.4010 75.7 297 
 BRR  HN ES       2343 54.23                             151    0.1010 75.7 297 
 BRR  HZ I        2344  0.39        11.0 0.46            147           75.7 297 
 RUS  HZ EP       2343 39.86                             144    0.0710  100 179 
 RUS  HN ES       2343 58.01                             144   -0.2310  100 179 
 RUS  HZ I        2343 59.90         6.4 0.28            145            100 179 
 PTB  HZ EP       2343 42.80                             131   -0.70 9  153 259 
 PTB  HN ES   4   2344  3.50                             131   -1.33 0  153 259 
 PTB  HZ I        2344  8.41         8.4 0.10            129            153 259 
 SPBC HZ EP       2343 44.95                             129    0.08 9  166 220 
 SPBC HN ES       2344  6.97                             129   -0.31 9  166 220 
 SPBC HZ I        2344 12.19         7.8 0.12            128            166 220 
 ZAR  HZ EP   2   2343 49.45                             122    0.42 4  209 292 
 ZAR  HN ES       2344 14.88                             122    0.20 8  209 292 
 ZAR  HZ I        2344 21.04         8.1 0.24            122            209 292 
 SML  HZ EP       2343 52.81                             117   -0.18 8  246 334 
 SML  HN ES       2344 21.47                             117   -0.26 8  246 334 
 GUY2CHZ EP   4   2344  1.26                             112    1.10 0  305 235 
 GUY2CHN ES   4   2344 33.55                             112   -0.95 0  305 235 
 GUY2CHZ I        2344 42.64         4.6 0.38                           305 235 
 PRA  HZ EP       2344 10.18                             106    0.28 6  394 210 
 PRA  HN ES       2344 52.18                             106    0.35 6  394 210 
 PRA  HZ I        2344 58.56         4.2 0.28            108            394 210 
                                                                                
