 2013  415 2328 40.6 L   7.463 -73.178130.4  RSN  7 0.4 1.5LRSN                1
 GAP=265        0.80       7.7     6.1  6.6  0.2335E+02  0.1018E+01 -0.5630E+01E
 Epicentro: EL PLAYON - SANTANDER                                              3
 ACTION:UPD 13-05-22 14:38 OP:EP   STATUS:               ID:20130415232840 L   I
 2013-04-15-2318-48M.COL___211                                                 6
 STAT SP IPHASW D HRMM SECON CODA AMPLIT PERI AZIMU VELO AIN AR TRES W  DIS CAZ7
 GIR2 SZ EP   1   2328 58.78                             161   -0.08 7 42.5 182 
 GIR2 SZ ES   1   2329 13.23                             161    0.15 7 42.5 182 
 GIR2 SZ I        2329 14.16         6.8 0.28            131           42.5 182 
 BRR  HZ EP       2329  0.45                             150    0.3410 70.9 236 
 BRR  HN ES   1   2329 14.65                             150   -0.66 7 70.9 236 
 BAR2 SZ EP   1   2329  2.30                             142    0.10 7 96.3 180 
 BAR2 SZ ES       2329 19.03                             142   -0.0110 96.3 180 
 BAR2 SZ I        2329 19.85        10.5 0.32            111           96.3 180 
 RUS  HZ EP       2329  9.03                             124   -0.57 9  174 177 
 RUS  HN ES   1   2329 32.96                             124    0.76 7  174 177 
 PTB  HZ EP   1   2329  9.12                             123    0.11 7  174 234 
 PTB  HE ES   1   2329 30.90                             123   -0.25 7  174 234 
 PTB  HZ I        2329 33.59         1.9 0.20             99            174 234 
 ZAR  HN ES   1   2329 33.61                             121    0.42 7  186 271 
 NOR  HZ EP   1   2329 20.51                             111   -0.23 6  281 222 
 NOR  HZ I        2329 56.52         1.8 0.54             95            281 222 
                                                                                
