 2011  915 2300  6.1 L   6.767 -73.123140.0  RSN  4 0.2 1.4LRSN                1
 GAP=141        0.44       3.1     4.5  5.9 -0.1932E+00 -0.1568E+01  0.2068E+01E
 Epicentro: LOS SANTOS - SANTANDER                                             3
 ACTION:UPD 12-07-13 15:57 OP:ep   STATUS:               ID:20110915230006 L   I
 2011-09-15-2257-02S.COL___169                                                 6
 STAT SP IPHASW D HRMM SECON CODA AMPLIT PERI AZIMU VELO AIN AR TRES W  DIS CAZ7
 GIR2 SZ EP   2   23 0 25.36                             165    0.16 5 35.4 347 
 BRR  HZ EP   1   23 0 26.99                             150    0.13 7 75.2 300 
 BRR  HN ES   1   23 0 42.97                             150   -0.09 7 75.2 300 
 BRR  HZ I        23 0 46.33         9.1 0.23                          75.2 300 
 PAM  SZ EP   1   23 0 27.94                             149    0.16 7 78.7  36 
 PAM  SN ES   1   23 0 44.59                             149   -0.11 7 78.7  36 
 RUS  HZ EP   1   23 0 28.65                             144   -0.35 7 96.7 177 
 RUS  HN ES   1   23 0 47.06                             144    0.19 7 96.7 177 
 RUS  HZ I        23 0 49.66         2.2 0.34                          96.7 177 
                                                                                
