 2017  615 2317 53.2 L   6.878 -73.305159.9  RSN  6 0.2 1.6LRSN                1
 GAP=244        0.46       2.4     4.1  4.0 -0.9011E+00 -0.3254E+01  0.2208E+00E
 Epicentro: BETULIA - SANTANDER                                                3
 ACTION:UPD 17-09-14 16:52 OP:jn   STATUS:               ID:20170615231753 L   I
 OLDACT:UP  17-06-16 07:10 OP:edw  STATUS:               ID:20170615230731d    3
 OLDACT:DUP 17-06-16 07:05 OP:edw  STATUS:               ID:20170615230731d    3
 OLDACT:UP  17-06-16 07:05 OP:edw  STATUS:               ID:20170615230730     3
 OLDACT:UP  17-06-16 07:04 OP:edw  STATUS:               ID:20170615230730     3
 OLDACT:UP  17-06-16 07:02 OP:edw  STATUS:               ID:20170615230730     3
 OLDACT:REG 17-06-16 03:27 OP:edw  STATUS:               ID:20170615230730     3
 2017-06-15-2308-00M.COL___368                                                 6
 STAT SP IPHASW D HRMM SECON CODA AMPLIT PERI AZIMU VELO AIN AR TRES W  DIS CAZ7
 BRR  HZ EP     D 2318 15.06                             161    0.1010 51.7 299 
 BRR  HN ES       2318 32.07                             161    0.1110 51.7 299 
 BRR  HZ I        2318 41.39        11.0 0.42            170           51.7 299 
 PTB  HZ EP       2318 20.14                             138    0.0810  133 254 
 PTB  HN ES       2318 40.80                             138   -0.2410  133 254 
 PTB  HZ I        2318 42.89         2.2 0.36            149            133 254 
 SPBC HZ EP       2318 22.38                             133   -0.12 9  160 212 
 SPBC HN ES       2318 45.19                             133   -0.18 9  160 212 
 SPBC HZ I        2318 51.47         5.7 0.30            141            160 212 
 ZAR  HN ES       2318 49.26                             128    0.03 9  185 292 
 NOR  HE ES       2318 57.05                             122    0.35 8  226 230 
 SJC  HZ EP       2318 47.27                             109   -0.03 6  393 328 
 SJC  HN ES   2   2319 28.90                             109   -0.62 3  393 328 
                                                                                
