 2017  715 2021  0.5 L   6.817 -73.393124.8  RSN  5 0.4 1.2LRSN                1
 GAP=157        0.88       4.9     4.0  7.8 -0.8242E+01  0.1079E+02 -0.3965E+01E
 Epicentro: SAN VICENTE DE CHUCURI - SANTANDER                                 3
 ACTION:UPD 17-08-30 15:33 OP:rebc STATUS:               ID:20170715202100 L   I
 OLDACT:DUP 17-07-16 06:00 OP:osc  STATUS:               ID:20170715201744d    3
 2017-07-15-2018-00M.COL___386                                                 6
 STAT SP IPHASW D HRMM SECON CODA AMPLIT PERI AZIMU VELO AIN AR TRES W  DIS CAZ7
 BAR2 EZ EP   2   2021 17.64                             164   -0.24 5 34.0 137 
 BAR2 EZ ES       2021 31.84                             164    0.3710 34.0 137 
 PAM  EZ EP       2021 21.74                             140   -0.1010 95.9  53 
 PAM  EE ES       2021 38.64                             140    0.1310 95.9  53 
 RUS  HZ EP       2021 23.03                             137    0.2310  108 161 
 RUS  HE ES       2021 39.73                             137   -0.4910  108 161 
 PTB  HZ EP       2021 23.15                             133   -0.1910  122 255 
 PTB  HE ES       2021 40.79                             133   -0.4010  122 255 
 PTB  HZ I        2021 43.87         2.5 0.14            133            122 255 
 NOR  HN ES       2021 58.68                             116    0.65 8  214 230 
                                                                                
