 2014 1215 2323  0.9 L   6.762 -73.178141.8  RSN  4 0.5 1.1LRSN                1
 GAP=134        1.32       5.9     7.4 14.5 -0.5449E+01  0.3781E+02 -0.1632E+02E
 Epicentro: LOS SANTOS - SANTANDER                                             3
 ACTION:UPD 15-02-10 17:04 OP:nd   STATUS:               ID:20141215232300 L   I
 OLDACT:DUP 14-12-16 07:37 OP:cam  STATUS:               ID:20141215231817d    3
 2014-12-15-2318-16M.COL___284                                                 6
 STAT SP IPHASW D HRMM SECON CODA AMPLIT PERI AZIMU VELO AIN AR TRES W  DIS CAZ7
 PAM  SZ EP       2323 23.26                             148    0.2510 83.0  40 
 PAM  SN ES       2323 40.53                             148    0.2510 83.0  40 
 PAM  SZ I        2323 40.97         2.6 0.18            153           83.0  40 
 RUS  HZ EP       2323 24.40                             144    0.4610 96.7 174 
 RUS  HE ES       2323 41.17                             144   -0.7710 96.7 174 
 RUS  HE I        2323 46.26         2.2 0.38            145           96.7 174 
 PTB  HZ EP       2323 26.73                             132   -0.39 9  143 260 
 PTB  HN ES       2323 48.28                             132    0.69 9  143 260 
 PTB  HZ I        2323 50.45         1.9 0.28            134            143 260 
 SML  HE ES       2324  5.41                             116   -0.72 8  246 336 
                                                                                
