 2010  515 2231 28.8 L   6.751 -73.082136.0  RSN  5 0.3 1.4LRSN                1
 GAP=164        0.65       5.2     9.3  9.7  0.1994E+02 -0.4957E+02 -0.2639E+02E
 Epicentro: LOS SANTOS - SANTANDER                                             3
 ACTION:UP  10-08-24 10:05 OP:vdl  STATUS:               ID:20100515223128 L   I
 2010-05-15-2230-20S.COL___108                                                 6
 STAT SP IPHASW D HRMM SECON CODA AMPLIT PERI AZIMU VELO AIN AR TRES W  DIS CAZ7
 BAR2 SZ EP   1   2231 46.61                             171    -0.6 7   21 213 
 BAR2 SZ ES   2   2232  1.20                             171    -0.3 5   21 213 
 BRR  HZ EP       2231 49.24                             148    -0.210   80 300 
 BRR  HN ES   1   2232  5.83                             148     0.3 7   80 300 
 BRR  HZ I        2232  9.98         7.9 0.15                            80 300 
 RUS  HZ EP   1   2231 51.33                             144     0.2 7   95 180 
 RUS  HE ES   1   2232  8.81                             144     0.2 7   95 180 
 RUS  HZ I        2232 10.46         3.4 0.34                            95 180 
 BRI  SZ EP       2231 52.10                             139     0.110  111  16 
 GUE  SZ EP   2   2231 53.02                             136     0.1 5  121   8 
                                                                                
