 2017  515 2320  9.8 L   6.744 -73.134145.2  RSN  6 0.2 1.9LRSN                1
 GAP=200        0.82       9.6     4.5  6.7 -0.2454E+02 -0.2411E+01  0.1391E+02E
 Epicentro: LOS SANTOS - SANTANDER                                             3
 ACTION:UPD 17-06-16 13:36 OP:jn   STATUS:               ID:20170515232009 L   I
 OLDACT:REG 17-05-16 05:37 OP:osc  STATUS:               ID:20170515231745     3
 2017-05-15-2318-00M.COL___356                                                 6
 STAT SP IPHASW D HRMM SECON CODA AMPLIT PERI AZIMU VELO AIN AR TRES W  DIS CAZ7
 BRR  HZ EP       2320 31.59                             151    0.4910 75.4 302 
 BRR  HE ES       2320 47.88                             151    0.1410 75.4 302 
 PAM  EZ EP       2320 32.32                             150    0.1410 81.5  36 
 PAM  EN ES       2320 49.48                             150   -0.1710 81.5  36 
 PAM  EZ I        2320 51.48        15.7 0.50            149           81.5  36 
 PTB  HZ EP       2320 36.53                             132   -0.17 9  148 261 
 PTB  HN ES       2320 57.45                             132   -0.26 9  148 261 
 PTB  HZ I        2320 58.99         7.2 0.28            129            148 261 
 ZAR  HZ EP       2320 42.44                             122   -0.10 8  208 294 
 ZAR  HE ES       2321  7.89                             122   -0.22 8  208 294 
 ZAR  HZ I        2321 15.09        11.9 0.08            120            208 294 
 NOR  HZ EP   9   2320 46.02                             119    0.82 0  232 236 
 NOR  HN ES       2321 13.63                                   -0.02 8  232 236 
 NOR  HZ I        2321 15.37         7.0 0.18            117            232 236 
 HEL  HZ EP   9   2320 51.52                             115    1.59 0  272 257 
 HEL  HE ES       2321 23.75                                    0.91 8  272 257 
 HEL  HZ I        2321 28.34         4.5 0.44            113            272 257 
                                                                                
