 2014 1015 2044 33.2 L   6.809 -73.176137.0  RSN 28 0.6 2.8LRSN                1
 GAP= 53        1.81       4.0     4.4  7.5 -0.2105E+01  0.8512E+01  0.6725E+01E
 Epicentro: LOS SANTOS - SANTANDER                                             3
 ACTION:UPD 14-11-29 23:50 OP:nd   STATUS:               ID:20141015204433 L   I
 OLDACT:REG 14-10-16 07:07 OP:stll STATUS:               ID:20141015203746     3
 2014-10-15-2037-46M.COL___295                                                 6
 STAT SP IPHASW D HRMM SECON CODA AMPLIT PERI AZIMU VELO AIN AR TRES W  DIS CAZ7
 BAR2 SZ IP       2044 52.10                             169    0.2710 23.9 182 
 BAR2 SZ ES       2045  6.43                             169    0.1010 23.9 182 
 BAR2 SZ I        2045  7.96       194.6 0.26            164           23.9 182 
 BRR  HZ IP     C 2044 53.90                             152    0.6610 67.8 299 
 BRR  HN ES       2045  9.18                             152    0.3310 67.8 299 
 BRR  HZ I        2045 14.57        84.8 0.16            143           67.8 299 
 PAM  SZ EP     C 2044 54.89                             149    0.2710 78.9  42 
 PAM  SN ES       2045 11.54                             149    0.2410 78.9  42 
 PAM  SZ I        2045 13.95       111.6 0.52            152           78.9  42 
 RUS  HZ EP       2044 56.12                             141   -0.1110  102 174 
 RUS  HN ES       2045 14.15                             141   -0.0210  102 174 
 RUS  HZ I        2045 15.72        65.0 0.36            141            102 174 
 PTB  HZ EP       2044 58.54                             130   -0.67 9  145 258 
 PTB  HN ES       2045 19.81                             130    0.34 9  145 258 
 PTB  HZ I        2045 22.07        74.9 0.20            125            145 258 
 OCA  HZ EP       2045  0.19                             128   -0.56 9  159 354 
 OCA  HN ES       2045 21.53                             128   -0.68 9  159 354 
 OCA  HZ I        2045 25.17        71.1 0.22            126            159 354 
 TAM  HZ IP     C 2045  0.45                             127   -0.13 9  159 105 
 TAM  HZ I        2045  0.64       141.2 0.38            133            159 105 
 TAM  HN ES       2045 21.30                             127   -0.60 9  159 105 
 SPBC HZ EP       2045  0.93                             127   -0.02 9  162 218 
 SPBC HN ES       2045 22.52                             127   -0.04 9  162 218 
 SPBC HZ I        2045 29.02        84.4 0.24            124            162 218 
 ZAR  HZ EP       2045  4.90                             120    0.14 9  201 292 
 ZAR  HN ES       2045 29.15                             120   -0.19 9  201 292 
 ZAR  HZ I        2045 35.57        57.2 0.50            117            201 292 
 SML  HZ EP       2045  8.58                             115   -0.56 8  241 336 
 SML  HN ES   4   2045 35.77                             115   -1.37 0  241 336 
 SML  HZ I        2045 38.99        84.3 0.26            114            241 336 
 CHI  HZ EP       2045 10.37                             115   -0.10 8  249 194 
 CHI  HE ES       2045 39.13                             115   -0.39 8  249 194 
 CHI  HZ I        2045 46.68        23.2 0.48            114            249 194 
 ROSC BZ EP       2045 12.13                             114    1.33 8  252 210 
 ROSC BN ES       2045 40.45                             114    0.36 8  252 210 
 ROSC BZ I        2045 46.54        55.2 0.40            113            252 210 
 HEL  HZ EP       2045 13.98                             113    1.30 8  269 255 
 HEL  HN ES       2045 42.83                             113   -0.61 8  269 255 
 HEL  HZ I        2045 51.26        43.0 0.54            110            269 255 
 URE  HZ EP   9   2045 11.96                             112   -1.54 0  280 292 
 URE  HE ES       2045 42.30                                   -1.06 7  280 292 
 GUY2CHZ EP       2045 16.24                             110    0.04 7  299 234 
 GUY2CHN ES       2045 49.15                             110   -0.57 7  299 234 
 GUY2CHZ I        2045 59.86        31.9 0.64                           299 234 
 VIL  SZ EP       2045 15.50                             110   -0.80 7  304 191 
 VIL  SN ES       2045 50.38                             110    0.49 7  304 191 
 VIL  SZ I        2045 59.99        41.7 0.40            109            304 191 
 SOCV BZ EP   9   2045 14.72                             110   -1.44 0  304  57 
 SOCV BN ES       2045 46.44                                   -1.76 7  304  57 
 PTGC HZ IP   9 D 2045 15.35                             109   -1.61 0  311 158 
 PTGC HZ I        2045 15.73        51.1 0.26            110            311 158 
 PTGC HN ES       2045 47.05                                   -2.40 7  311 158 
 RREF HZ EP   9   2045 15.13                             109   -3.66 0  320 229 
 RREF HN ES       2045 50.43                                   -0.23 7  320 229 
 RREF HZ I        2045 59.29        27.0 0.34            107            320 229 
 CBOC HZ EP       2045 20.33                             108    0.86 7  331 252 
 CBOC HZ I        2045 22.96        15.9 0.16            106            331 252 
 CBOC HN ES       2045 54.03                             108   -1.49 7  331 252 
 DBB  SZ EP       2045 19.62                             108   -0.35 7  336 274 
 DBB  SZ I        2046  2.53        70.1 0.38            106            336 274 
 TOL  SZ EP       2045 21.99                             107    1.03 7  342 224 
 TOL  SE ES       2045 56.71                             107   -1.47 7  342 224 
 MON  HZ EP   9   2045 19.32                             107   -2.21 0  350 309 
 MON  HN ES       2045 57.76                                    0.77 6  350 309 
 MON  HZ I        2046 12.63        14.5 0.64            105            350 309 
 ANIL HZ EP       2045 23.64                             107    1.12 6  356 224 
 ANIL HN ES       2046  0.81                             107   -0.15 6  356 224 
 SDV  BZ EP   9   2045 21.58                             106   -1.61 0  362  51 
 SDV  BN ES       2045 57.02                                   -3.52 6  362  51 
 PRA  HZ EP       2045 25.86                             105   -0.51 6  391 209 
 PRA  HN ES       2046  7.97                             105    0.15 6  391 209 
 PRA  HZ I        2046 13.01        40.0 0.72            104            391 209 
 ORTC HZ EP       2045 26.62                             105   -0.11 6  394 216 
 ORTC HN ES       2046  9.43                             105    0.98 6  394 216 
 ORTC HZ I        2046 16.80        23.2 0.22            104            394 216 
 SJC  HZ EP   9   2045 25.96                             104   -2.25 0  407 327 
 SJC  HZ I        2045 26.52        13.0 0.26            103            407 327 
 SJC  HN ES       2046  7.15                                   -1.69 6  407 327 
                                                                                
