 2012  515 2325 18.4 L   6.749 -73.123144.0  RSN  6 0.3 1.8LRSN                1
 GAP=142        0.85       5.5     5.0  8.0  0.3590E+01  0.6684E+01  0.3464E+01E
 Epicentro: LOS SANTOS - SANTANDER                                             3
 ACTION:UP  12-07-05 12:05 OP:pat  STATUS:               ID:20120515232518 L   I
 2012-05-15-2320-00M.COL___195                                                 6
 STAT SP IPHASW D HRMM SECON CODA AMPLIT PERI AZIMU VELO SNR AR TRES W  DIS CAZ7
 BAR2 SZ EP   1   2325 37.25                             172    -0.5 7   18 201 
 BAR2 SZ ES   1   2325 52.40                             172    -0.4 7   18 201 
 BAR2 SZ I        2325 53.32        15.8 0.27                            18 201 
 BRR  HZ EP   1   2325 39.88                             151     0.2 7   76 301 
 BRR  HN ES   1   2325 56.65                             151     0.4 7   76 301 
 BRR  HZ I        2326  0.63        18.3 0.20                            76 301 
 PAM  SZ EP   1   2325 40.67                             150     0.0 7   80  36 
 PAM  SE ES   1   2325 57.84                             150    -0.1 7   80  36 
 RUS  HZ EP       2325 41.64                             145     0.110   95 177 
 RUS  HN ES   1   2326  0.20                             145     0.6 7   95 177 
 RUS  HZ I        2326  1.31         7.6 0.35                            95 177 
 PTB  HZ EP   1   2325 45.19                             131    -0.2 7  149 261 
 PTB  HE ES   1   2326  5.87                             131    -0.5 7  149 261 
 PTB  HZ I        2326  7.30         4.7 0.17                           149 261 
 ZAR  HE ES   1   2326 17.12                             121     0.3 6  209 293 
 ZAR  HZ I        2326 22.34         6.9 0.48                           209 293 
                                                                                
