 2016 1215 2136 57.8 L   6.802 -73.140156.7  RSN  6 0.4 1.7LRSN                1
 GAP=137        0.89       4.9     4.2  6.7 -0.7237E+00  0.7958E+01 -0.6296E+01E
 Epicentro: LOS SANTOS - SANTANDER                                             3
 ACTION:UPD 17-01-11 20:15 OP:rebc STATUS:               ID:20161215213657 L   I
 OLDACT:DUP 16-12-16 03:40 OP:lv   STATUS:               ID:20161215212748d    3
 2016-12-15-2128-00M.COL___387                                                 6
 STAT SP IPHASW D HRMM SECON CODA AMPLIT PERI AZIMU VELO AIN AR TRES W  DIS CAZ7
 BAR2 EZ EP       2137 18.81                             171    0.0410 23.6 191 
 BAR2 EZ ES       2137 35.39                             171    0.2810 23.6 191 
 BAR2 EZ I        2137 36.50         9.9 0.27            171           23.6 191 
 PAM  EZ EP       2137 21.67                             153    0.5010 76.8  39 
 PAM  EN ES       2137 39.01                             153   -0.3810 76.8  39 
 PAM  EZ I        2137 41.15        10.0 0.54            156           76.8  39 
 RUS  HZ EP       2137 22.77                             146    0.1010  101 176 
 RUS  HN ES       2137 41.71                             146   -0.3410  101 176 
 RUS  HZ I        2137 43.11         3.0 0.21            149            101 176 
 PTB  HZ EP       2137 26.00                             134    0.25 9  148 259 
 PTB  HE ES       2137 47.54                             134   -0.01 9  148 259 
 PTB  HZ I        2137 54.21         8.7 0.34            134            148 259 
 ZAR  HZ EP       2137 30.23                             125   -0.82 9  205 292 
 ZAR  HN ES       2137 57.23                             125    0.26 9  205 292 
 ZAR  HZ I        2138  2.81         5.4 0.22            125            205 292 
 GUY2CHZ EP   9   2137 44.19                             114    2.17 0  302 235 
 GUY2CHE ES       2138 18.71                                    0.04 7  302 235 
 GUY2CHZ I        2138 23.89         1.8 0.40                           302 235 
                                                                                
