 2014  615 2132 58.0 L   6.820 -73.156142.0  RSN 13 0.4 2.2LRSN                1
 GAP=134        0.93       2.4     3.4  4.7 -0.1774E+01  0.5287E+01  0.3029E+00E
 Epicentro: LOS SANTOS - SANTANDER                                             3
 ACTION:UPD 14-07-01 22:54 OP:nd   STATUS:               ID:20140615213258 L   I
 OLDACT:REG 14-06-16 05:16 OP:stll STATUS:               ID:20140615212816     3
 2014-06-15-2128-16M.COL___262                                                 6
 STAT SP IPHASW D HRMM SECON CODA AMPLIT PERI AZIMU VELO AIN AR TRES W  DIS CAZ7
 BAR2 SZ EP       2133 17.29                             169    0.0810 25.4 187 
 BAR2 SZ ES       2133 31.93                             169   -0.2710 25.4 187 
 BAR2 SZ I        2133 33.82        29.3 0.14            169           25.4 187 
 BRR  HZ EP       2133 19.17                             153    0.5610 69.1 297 
 BRR  HN ES       2133 35.60                             153    0.9010 69.1 297 
 BRR  HZ I        2133 39.37        28.2 0.32            150           69.1 297 
 PAM  SZ EP       2133 19.99                             150    0.2510 76.4  41 
 PAM  SN ES       2133 36.74                             150    0.0310 76.4  41 
 PAM  SZ I        2133 39.26        32.5 0.50            155           76.4  41 
 RUS  HZ EP       2133 21.39                             142   -0.1510  103 176 
 RUS  HN ES       2133 39.73                             142   -0.1810  103 176 
 RUS  HZ I        2133 40.98        14.0 0.32            145            103 176 
 PTB  HZ EP       2133 24.30                             131   -0.29 9  147 258 
 PTB  HE ES       2133 45.15                             131   -0.19 9  147 258 
 PTB  HZ I        2133 47.40        22.3 0.46            131            147 258 
 OCA  HZ EP       2133 25.69                             129   -0.09 9  158 353 
 OCA  HN ES       2133 46.84                             129   -0.62 9  158 353 
 OCA  HZ I        2133 50.62        13.7 0.26            131            158 353 
 SPBC HZ EP       2133 26.08                             128   -0.22 9  164 218 
 SPBC HN ES       2133 48.25                             128   -0.13 9  164 218 
 SPBC HZ I        2133 55.42        16.5 0.20            129            164 218 
 ZAR  HZ EP       2133 30.35                             122    0.36 9  202 292 
 ZAR  HN ES       2133 54.85                             122   -0.10 9  202 292 
 ZAR  HZ I        2134  1.92        28.7 0.32            122            202 292 
 SML  HZ EP       2133 33.99                             117   -0.14 8  241 335 
 SML  HN ES       2134  1.96                             117   -0.36 8  241 335 
 SML  HZ I        2134  7.16        18.9 0.10            118            241 335 
 HEL  HN ES       2134  8.52                             114   -0.60 8  272 255 
 HEL  HZ I        2134 15.43         6.0 0.42            115            272 255 
 GUY2CHZ EP       2133 41.44                             112   -0.03 7  302 234 
 GUY2CHN ES       2134 15.67                             112    0.29 7  302 234 
 GUY2CHZ I        2134 23.87         3.8 0.58                           302 234 
 RREF HZ EP       2133 45.08                             110    1.04 7  322 229 
 RREF HN ES       2134 20.10                             110    0.14 7  322 229 
 RREF HZ I        2134 29.20         5.5 0.36            111            322 229 
 PRA  HZ EP       2133 51.57                             106    0.03 6  393 209 
 PRA  HN ES       2134 32.80                             106   -0.52 6  393 209 
 PRA  HZ I        2134 35.01         3.9 0.28            107            393 209 
                                                                                
