 2015  615 2316 53.7 L   6.838 -73.139141.9  RSN 18 0.5 2.3LRSN                1
 GAP=135        1.05       2.5     4.1  5.2 -0.2789E+01  0.8549E+01  0.7338E+00E
 Epicentro: LOS SANTOS - SANTANDER                                             3
 ACTION:UPD 15-09-10 22:12 OP:cam  STATUS:               ID:20150615231653 L   I
 OLDACT:UP  15-06-16 07:40 OP:ak   STATUS:               ID:20150615230750     3
 OLDACT:REG 15-06-16 05:17 OP:y    STATUS:               ID:20150615230750     3
 2015-06-15-2307-50M.COL___315                                                 6
 STAT SP IPHASW D HRMM SECON CODA AMPLIT PERI AZIMU VELO AIN AR TRES W  DIS CAZ7
 BAR2 EZ EP       2317 12.87                             168   -0.1210 27.6 190 
 BAR2 EZ ES       2317 27.33                             168   -0.6810 27.6 190 
 BAR2 EZ I        2317 28.16        78.1 0.10            168           27.6 190 
 BRR  HZ EP     D 2317 14.59                             152    0.2010 69.9 295 
 BRR  HN ES       2317 31.03                             152    0.5210 69.9 295 
 BRR  HZ I        2317 35.15        25.1 0.14            147           69.9 295 
 PAM  SZ IP     D 2317 15.64                             151    0.3210 73.7  41 
 PAM  SN ES       2317 32.77                             151    0.6110 73.7  41 
 PAM  SZ I        2317 35.10        23.1 0.54            153           73.7  41 
 RUS  HZ EP       2317 17.44                             142    0.0310  105 177 
 RUS  HN ES       2317 35.64                             142   -0.2410  105 177 
 RUS  HZ I        2317 37.08        21.3 0.32            144            105 177 
 OCA  HZ EP       2317 20.42                             129   -0.94 9  156 353 
 OCA  HN ES       2317 42.78                             129   -0.13 9  156 353 
 OCA  HZ I        2317 48.25        48.1 0.20            129            156 353 
 ZAR  HZ EP   1   2317 26.44                             122    0.61 6  203 291 
 ZAR  HE ES       2317 50.88                             122    0.00 9  203 291 
 ZAR  HZ I        2317 53.32        15.2 0.14            120            203 291 
 NOR  HZ EP       2317 29.31                             117   -0.25 8  238 234 
 NOR  HN ES       2317 56.65                             117   -0.86 8  238 234 
 NOR  HZ I        2318  3.50        13.4 0.16            117            238 234 
 SML  HZ EP   1   2317 28.96                             117   -0.80 6  240 335 
 SML  HN ES       2317 57.37                             117   -0.50 8  240 335 
 SML  HZ I        2318  1.91        26.3 0.10            116            240 335 
 ROSC BZ EP   1   2317 33.07                             115    1.00 6  257 211 
 ROSC BN ES       2318  2.52                             115    0.54 8  257 211 
 HEL  HZ EP   1   2317 33.43                             114   -0.51 6  274 255 
 HEL  HN ES   1   2318  5.65                             114    0.34 6  274 255 
 HEL  HZ I        2318 12.48         9.8 0.56            113            274 255 
 LL2C HZ EP   1   2317 37.54                             111    0.87 5  302 354 
 LL2C HN ES       2318 10.31                             111    0.14 7  302 354 
 LL2C HZ I        2318 19.49        24.7 0.31            111            302 354 
 GUY2CHZ EP       2317 38.21                             111    0.71 7  304 234 
 GUY2CHN ES       2318 11.66                             111    0.02 7  304 234 
 GUY2CHZ I        2318 19.23         9.2 0.36                           304 234 
 PTGC HZ EP   4   2317 36.09                             110   -1.74 0  312 159 
 PTGC HN ES   4   2318  9.26                             110   -2.97 0  312 159 
 RREF HZ EP   1   2317 40.25                             110    0.17 5  325 229 
 RREF HN ES   1   2318 17.18                             110    0.95 5  325 229 
 RREF HZ I        2318 24.97         4.2 0.52            110            325 229 
 CBOC HZ EP   1   2317 40.68                             109   -0.03 5  336 251 
 CBOC HE ES   1   2318 17.58                             109    0.22 5  336 251 
 TOL  SZ EP       2317 42.70                             108    0.47 6  347 224 
 TOL  SN ES       2318 20.02                             108   -0.05 6  347 224 
 TOL  SZ I        2318 28.90         7.0 0.24            108            347 224 
 MON  HZ EP   4   2317 40.02                             108   -2.33 0  352 308 
 MON  HN ES   4   2318 15.94                             108   -4.33 0  352 308 
 MON  HZ I        2318 33.42         3.3 0.60            108            352 308 
 PRA  HZ EP       2317 46.82                             106   -0.76 6  396 209 
 PRA  HN ES   1   2318 28.89                             106   -0.70 4  396 209 
 PRA  HZ I        2318 35.45        10.9 0.46            106            396 209 
 ORTC HZ EP   1   2317 47.56                             105   -0.40 4  399 216 
 ORTC HN ES       2318 30.22                             105   -0.05 6  399 216 
 ORTC HZ I        2318 37.25         5.7 0.14            106            399 216 
                                                                                
