 2012 1215 2013 49.6 L   6.786 -73.140146.3  RSN 14 0.4 2.3LRSN                1
 GAP=138        0.70       2.6     3.2  4.4 -0.1655E+01  0.3706E+01  0.3055E+01E
 Epicentro: LOS SANTOS - SANTANDER                                             3
 ACTION:UPD 13-01-04 14:28 OP:ep   STATUS:               ID:20121215201349 L   I
 2012-12-15-2010-00M.COL___239                                                 6
 STAT SP IPHASW D HRMM SECON CODA AMPLIT PERI AZIMU VELO AIN AR TRES W  DIS CAZ7
 BAR2 SZ EP   1   2014  9.04                             171   -0.24 7 21.9 192 
 BAR2 SZ ES   1   2014 24.28                             171   -0.34 7 21.9 192 
 BAR2 SZ I        2014 27.61        71.5 0.56                          21.9 192 
 GIR2 SZ EP       2014  9.14                             167   -0.2510 32.9 350 
 GIR2 SZ ES   1   2014 24.81                             167   -0.01 7 32.9 350 
 GIR2 SZ I        2014 26.89        17.7 0.28                          32.9 350 
 BRR  HZ EP     C 2014 11.00                             152    0.1110 72.5 299 
 BRR  HN ES   1   2014 28.18                             152    0.69 7 72.5 299 
 BRR  HZ I        2014 31.54        33.0 0.10                          72.5 299 
 PAM  SZ IP       2014 11.91                             151   -0.0210 78.2  38 
 PAM  SN ES   1   2014 29.22                             151   -0.13 7 78.2  38 
 PAM  SZ I        2014 31.19        34.6 0.50                          78.2  38 
 RUS  HZ EP   1   2014 13.47                             144    0.17 7 99.0 176 
 RUS  HN ES   1   2014 32.15                             144    0.37 7 99.0 176 
 RUS  HZ I        2014 33.52        22.5 0.46                          99.0 176 
 PTB  HZ EP   1   2014 16.00                             132   -0.65 7  148 259 
 PTB  HN ES   1   2014 36.98                             132   -0.75 7  148 259 
 PTB  HZ I        2014 39.39        27.1 0.12                           148 259 
 OCA  HZ EP   2   2014 18.53                             129    0.41 5  162 353 
 OCA  HN ES   1   2014 40.85                             129    0.50 7  162 353 
 OCA  HZ I        2014 43.53        26.9 0.20                           162 353 
 ZAR  HZ EP   1   2014 21.70                             122   -0.51 6  205 292 
 ZAR  HN ES   1   2014 47.51                             122   -0.12 6  205 292 
 ZAR  HZ I        2014 49.85        24.4 0.28                           205 292 
 NOR  HZ EP   1   2014 25.07                             119   -0.25 6  234 235 
 NOR  HE ES   1   2014 53.50                             119    0.32 6  234 235 
 NOR  HZ I        2014 59.17        19.4 0.20                           234 235 
 CHI  HZ EP       2014 27.43                             117    0.24 8  247 195 
 CHI  HN ES   1   2014 56.24                             117   -0.26 6  247 195 
 CHI  HZ I        2015  6.39         7.0 0.46                           247 195 
 ROSC BN ES   1   2014 57.60                             117    0.29 6  252 211 
 ROSC BZ I        2015  5.19        20.9 0.40                           252 211 
 HEL  HZ EP   2   2014 30.65                             115    0.78 4  272 256 
 HEL  HN ES   1   2015  1.73                             115    0.46 6  272 256 
 HEL  HZ I        2015  8.63        14.0 0.32                           272 256 
 RREF HZ EP   1   2014 36.09                             111    0.38 5  321 230 
 RREF HN ES   1   2015 11.58                             111   -0.09 5  321 230 
 RREF HZ I        2015 20.21        11.1 0.24                           321 230 
 PRA  HZ EP   1   2014 42.61                             107   -0.41 4  391 210 
 PRA  HN ES   1   2015 24.97                             107    0.29 4  391 210 
 PRA  HZ I        2015 31.64         9.5 0.32                           391 210 
                                                                                
