 2016 1015 2048 17.6 L   6.436 -73.406 67.4  RSN  7 0.5 1.5LRSN                1
 GAP= 99        1.12       5.0     9.6 11.7  0.3738E+01  0.9296E+02  0.7705E+01E
 Epicentro: SIMACOTA - SANTANDER                                               3
 ACTION:UPD 16-11-09 19:19 OP:rebc STATUS:               ID:20161015204817 L   I
 OLDACT:UP  16-10-16 02:51 OP:drio STATUS:               ID:20161015203740     3
 OLDACT:UP  16-10-16 02:51 OP:drio STATUS:               ID:20161015203740     3
 OLDACT:UP  16-10-16 02:51 OP:drio STATUS:               ID:20161015203740     3
 OLDACT:REG 16-10-16 02:33 OP:drio STATUS:               ID:20161015203740     3
 2016-10-15-2038-00M.COL___374                                                 6
 STAT SP IPHASW D HRMM SECON CODA AMPLIT PERI AZIMU VELO AIN AR TRES W  DIS CAZ7
 BAR2 EZ EP       2048 28.38                             153    0.1610 30.1  55 
 BAR2 EZ ES       2048 36.66                             153    0.1310 30.1  55 
 BAR2 EZ I        2048 37.27        20.8 0.38            155           30.1  55 
 RUS  HZ EP       2048 32.44                             129    0.7710 69.9 149 
 RUS  HN ES       2048 42.00                             129   -0.6710 69.9 149 
 BRR  HZ EP   4   2048 30.15                             123   -2.03 0 81.6 335 
 BRR  HN ES   4   2048 47.12                             123    3.54 0 81.6 335 
 SPBC HZ EP   4   2048 37.35                             114    1.56 0  114 220 
 PTB  HZ EP   4   2048 35.14                             113   -0.90 0  117 276 
 NOR  HZ EP       2048 44.25                             103   -0.28 9  189 239 
 OCA  HZ EP       2048 45.57                             102   -0.42 9  200   3 
 CHI  HZ EP       2048 46.61                             102   -0.10 9  203 190 
 HEL  HZ EP       2048 50.42                             100   -0.30 8  236 264 
 GUY2CHZ EP       2048 53.76                              99    0.65 8  255 238 
 PTGC HZ EP   4   2048 51.60                              98   -4.55 0  285 150 
                                                                                
