 2013 1115 2310  3.8 L   6.803 -73.162149.1  RSN 10 0.5 1.8LRSN                1
 GAP=134        1.22       4.8     5.2  7.7  0.1142E+01  0.9810E+01 -0.7554E+01E
 Epicentro: LOS SANTOS - SANTANDER                                             3
 ACTION:UPD 14-01-09 16:28 OP:ep   STATUS:               ID:20131115231003 L   I
 OLDACT:REG 13-11-15 21:36 OP:jn   STATUS:               ID:20131115231000     3
 2013-11-15-2310-00M.COL___279                                                 6
 STAT SP IPHASW D HRMM SECON CODA AMPLIT PERI AZIMU VELO AIN AR TRES W  DIS CAZ7
 BAR2 SZ EP       2310 23.88                             171    0.0910 23.4 185 
 BAR2 SZ ES       2310 39.47                             171    0.0510 23.4 185 
 BAR2 SZ I        2310 39.76        40.7 0.30            171           23.4 185 
 BRR  HZ EP       2310 25.57                             154    0.4010 69.4 299 
 BRR  HN ES       2310 42.73                             154    0.8610 69.4 299 
 BRR  HZ I        2310 45.59        11.8 0.30            153           69.4 299 
 PAM  SZ EP       2310 26.74                             151    0.3610 78.3  41 
 PAM  SN ES       2310 43.61                             151   -0.4210 78.3  41 
 PAM  SZ I        2310 46.00        12.7 0.70            154           78.3  41 
 RUS  HZ EP       2310 28.09                             144    0.2110  101 175 
 RUS  HN ES       2310 46.30                             144   -0.3810  101 175 
 RUS  HZ I        2310 48.35         5.0 0.20            147            101 175 
 PTB  HZ EP       2310 30.34                             133   -0.51 9  146 259 
 PTB  HN ES       2310 51.46                             133   -0.52 9  146 259 
 PTB  HZ I        2310 57.14         8.7 0.16            134            146 259 
 SPBC HN ES   2   2310 54.26                             130   -0.54 5  162 218 
 ZAR  HZ EP       2310 37.17                             123    0.93 9  202 292 
 ZAR  HN ES       2311  1.67                             123    0.10 9  202 292 
 NOR  HN ES   2   2311  7.33                             119   -0.14 4  233 234 
 SML  HZ EP       2310 40.01                             118   -0.45 8  243 336 
 SML  HN ES       2311  8.15                             118   -0.93 8  243 336 
 GUY2CHN ES   4   2311 23.66                             113    2.25 0  300 235 
 GUY2CHZ I        2311 29.32         1.6 0.48                           300 235 
                                                                                
