 2013 1115 2240 35.7 L   6.776 -73.139150.1  RSN  9 0.4 1.7LRSN                1
 GAP=139        0.89       3.4     4.0  6.5 -0.3556E+01  0.2982E+01  0.1087E+01E
 Epicentro: LOS SANTOS - SANTANDER                                             3
 ACTION:UPD 14-01-09 16:28 OP:ep   STATUS:               ID:20131115224035 L   I
 OLDACT:REG 13-11-15 21:35 OP:jn   STATUS:               ID:20131115224000     3
 2013-11-15-2240-00M.COL___279                                                 6
 STAT SP IPHASW D HRMM SECON CODA AMPLIT PERI AZIMU VELO AIN AR TRES W  DIS CAZ7
 BAR2 SZ EP       2240 55.86                             172    0.0910 20.9 193 
 BAR2 SZ I        2241 14.33         9.1 0.34            172           20.9 193 
 BRR  HZ EP       2240 57.77                             153    0.3810 73.2 300 
 BRR  HE ES       2241 14.95                             153    0.6110 73.2 300 
 BRR  HZ I        2241 18.06        12.9 0.30            153           73.2 300 
 PAM  SZ EP       2240 58.76                             151    0.3310 78.9  38 
 PAM  SN ES       2241 15.87                             151   -0.3210 78.9  38 
 PAM  SZ I        2241 18.44         8.9 0.66            152           78.9  38 
 RUS  HZ EP       2240 59.65                             145   -0.0010 97.9 176 
 RUS  HN ES   2   2241 17.98                             145   -0.39 5 97.9 176 
 RUS  HZ I        2241 19.53         4.8 0.38            146           97.9 176 
 PTB  HZ EP       2241  2.66                             133   -0.35 9  148 260 
 PTB  HN ES       2241 24.00                             133   -0.34 9  148 260 
 PTB  HZ I        2241 29.78         6.8 0.38            134            148 260 
 SPBC HN ES       2241 26.40                             130   -0.33 9  162 220 
 ZAR  HN ES   1   2241 34.65                             123    0.41 6  206 293 
 ZAR  HZ I        2241 40.79         5.3 0.24            124            206 293 
 NOR  HZ EP       2241 12.00                             120    0.45 8  234 235 
 NOR  HN ES       2241 39.48                             120   -0.07 8  234 235 
 SML  HZ EP       2241 12.60                             118   -0.23 8  246 335 
 SML  HN ES       2241 41.18                             118   -0.63 8  246 335 
                                                                                
