 2011 1015 2120 40.0 L   6.731 -73.094137.6  RSN  5 0.3 1.5LRSN                1
 GAP=146        0.57       3.8     4.5  7.5 -0.4212E+01  0.3833E+01  0.5461E+01E
 Epicentro: JORDAN - SANTANDER                                                 3
 ACTION:UPD 12-07-13 16:04 OP:ep   STATUS:               ID:20111015212040 L   I
 2011-10-15-2118-33S.COL___168                                                 6
 STAT SP IPHASW D HRMM SECON CODA AMPLIT PERI AZIMU VELO AIN AR TRES W  DIS CAZ7
 BAR2 SZ EP   1   2120 58.23                             172   -0.37 7 18.2 212 
 BAR2 SZ I        2121 17.01        10.6 0.47                          18.2 212 
 BRR  HZ EP   1   2121  0.65                             148   -0.21 7 79.9 301 
 BRR  HE ES   1   2121 17.28                             148    0.18 7 79.9 301 
 BRR  HZ I        2121 19.09        14.7 0.18                          79.9 301 
 PAM  SZ EP   1   2121  1.52                             148   -0.06 7 80.2  33 
 PAM  SN ES   1   2121 18.47                             148    0.10 7 80.2  33 
 PAM  SZ I        2121 20.63         3.9 0.73                          80.2  33 
 RUS  HZ EP   1   2121  2.97                             144    0.54 7 92.7 179 
 RUS  HN ES   1   2121 19.70                             144   -0.19 7 92.7 179 
 RUS  HZ I        2121 22.93         2.7 0.43                          92.7 179 
 NOR  SN ES   1   2121 42.91                             117    0.01 6  235 237 
                                                                                
