 2011  415 2041 52.3 L   6.735 -73.100138.2  RSN  6 0.2 2.2LRSN                1
 GAP=177        0.49       4.1     4.6  4.3 -0.7680E+01  0.4209E+00  0.6145E-01E
 Epicentro: JORDAN - SANTANDER                                                 3
 ACTION:UP  11-06-22 15:31 OP:REBC STATUS:               ID:20110415204152 L   I
 2011-04-15-2040-18S.COL___140                                                 6
 STAT SP IPHASW D HRMM SECON CODA AMPLIT PERI AZIMU VELO SNR AR TRES W  DIS CAZ7
 BAR2 SZ EP   1   2042 11.28                             172     0.4 7   18 210 
 BAR2 SZ ES   1   2042 25.46                             172     0.0 7   18 210 
 BAR2 SZ I        2042 27.28        34.8 0.22                            18 210 
 BTL  SZ EP   1   2042 11.09                             168     0.0 7   28 318 
 BTL  SZ ES   2   2042 25.94                             168     0.1 5   28 318 
 BRR  HZ EP   1   2042 12.75                             148    -0.4 7   79 301 
 BRR  HE ES   1   2042 29.42                             148     0.1 7   79 301 
 BRR  HZ I        2042 33.84        37.2 0.15                            79 301 
 PAM  SZ EP       2042 13.83                             148    -0.110   80  33 
 PAM  SE ES   2   2042 30.33                             148    -0.4 5   80  33 
 OCA  SZ EP   1   2042 21.13                             126     0.3 7  168 352 
 OCA  SZ ES   2   2042 42.99                             126     0.0 5  168 352 
 OCA  SZ I        2042 44.10        19.6 0.21                           168 352 
 NOR  SZ EP   1   2042 27.43                             117    -0.2 6  235 237 
 NOR  SN ES   2   2042 55.15                             117     0.0 4  235 237 
                                                                                
