 2013  215 2246 29.1 L   6.778 -73.135145.9  RSN 11 0.3 2.3LRSN                1
 GAP= 72        0.82       2.7     2.8  4.5  0.4859E+00  0.2185E+01  0.8992E+00E
 Epicentro: LOS SANTOS - SANTANDER                                             3
 ACTION:UPD 13-03-12 09:33 OP:ep   STATUS:               ID:20130215224629 L   I
 2013-02-15-2240-00M.COL___238                                                 6
 STAT SP IPHASW D HRMM SECON CODA AMPLIT PERI AZIMU VELO AIN AR TRES W  DIS CAZ7
 BAR2 SZ EP       2246 48.72                             171    0.0410 21.2 194 
 BAR2 SZ ES       2247  3.66                             171   -0.3110 21.2 194 
 BAR2 SZ I        2247  6.33        77.3 0.28            173           21.2 194 
 BRR  HZ EP       2246 50.69                             152    0.3210 73.5 300 
 BRR  HE ES       2247  7.91                             152    0.9410 73.5 300 
 BRR  HE I        2247 11.47        63.8 0.16            145           73.5 300 
 PAM  SZ EP       2246 51.55                             150    0.1710 78.6  38 
 PAM  SZ I        2246 51.81        22.3 0.23            147           78.6  38 
 PAM  SE ES       2247  8.58                             150   -0.1910 78.6  38 
 RUS  HZ EP     C 2246 52.63                             145   -0.0310 98.0 177 
 RUS  HE ES       2247 10.89                             145   -0.1610 98.0 177 
 RUS  HE I        2247 12.56        39.9 0.16            146           98.0 177 
 PTB  HZ EP       2246 55.72                             132   -0.41 9  148 260 
 PTB  HN ES   1   2247 16.69                             132   -0.53 7  148 260 
 PTB  HZ I        2247 23.93        21.1 0.47            128            148 260 
 TAM  HZ IP       2246 56.92                             131    0.32 9  153 104 
 TAM  HN ES       2247 17.82                             131   -0.25 9  153 104 
 OCA  HZ EP   1   2246 57.53                             129   -0.12 7  163 353 
 OCA  HZ I        2247 23.76        19.0 0.36            124            163 353 
 ZAR  HZ EP   1   2247  1.13                             122   -0.62 6  206 293 
 ZAR  HN ES   1   2247 27.14                             122   -0.08 6  206 293 
 ZAR  HZ I        2247 32.86        15.6 0.19            118            206 293 
 SML  HZ EP   1   2247  5.76                             117   -0.25 6  246 335 
 SML  HE ES   1   2247 34.68                             117   -0.14 6  246 335 
 CHI  HZ EP       2247  6.84                             117    0.28 8  247 196 
 CHI  HZ I        2247  8.56         6.8 0.33            116            247 196 
 CHI  HE ES       2247 35.81                             117    0.01 8  247 196 
 RREF HZ EP   1   2247 15.18                             111    0.03 5  321 230 
 RREF HE ES   1   2247 51.35                             111    0.27 5  321 230 
 RREF HZ I        2247 58.73         9.0 0.45            109            321 230 
                                                                                
