 2012  915 2056 50.1 L   6.753 -73.145148.0  RSN  7 0.4 1.9LRSN                1
 GAP=139        0.68       5.3     4.8  7.4 -0.2777E+01  0.2688E+01  0.1133E+02E
 Epicentro: LOS SANTOS - SANTANDER                                             3
 ACTION:UPD 12-10-22 14:19 OP:ep   STATUS:               ID:20120915205650 L   I
 2012-09-15-2050-00M.COL___227                                                 6
 STAT SP IPHASW D HRMM SECON CODA AMPLIT PERI AZIMU VELO AIN AR TRES W  DIS CAZ7
 BAR2 SZ EP       2057  9.84                             173   -0.0610 18.3 193 
 BAR2 SZ ES   3   2057 25.07                             173   -0.29 2 18.3 193 
 BAR2 SZ I        2057 27.89        21.2 0.30                          18.3 193 
 GIR2 SZ EP       2057 10.39                             166    0.2110 36.4 352 
 GIR2 SZ ES   3   2057 25.85                             166    0.01 2 36.4 352 
 BRR  HZ EP       2057 11.93                             152    0.2910 73.8 302 
 BRR  HN ES   1   2057 28.97                             152    0.53 7 73.8 302 
 BRR  HN I        2057 29.90        37.3 0.22                          73.8 302 
 PAM  SZ EP       2057 12.77                             150   -0.0210 81.4  37 
 PAM  SZ I        2057 12.98        10.4 0.44                          81.4  37 
 PAM  SN ES   1   2057 29.94                             150   -0.55 7 81.4  37 
 RUS  HZ EP       2057 13.77                             146    0.0610 95.4 176 
 RUS  HN ES   2   2057 32.40                             146    0.28 5 95.4 176 
 RUS  HZ I        2057 33.61         4.9 0.46                          95.4 176 
 PTB  HZ EP       2057 16.80                             133   -0.37 9  147 261 
 PTB  HN ES   2   2057 37.43                             133   -0.85 5  147 261 
 PTB  HN I        2057 43.19        16.9 0.26                           147 261 
 ZAR  HN ES   3   2057 48.00                             123   -0.48 2  206 293 
                                                                                
