 2016 1215 2322 10.5 L   6.763 -73.128139.9  RSN 10 0.4 2.0LRSN                1
 GAP=122        1.05       3.8     4.0  5.8  0.3400E+00  0.4034E+01  0.5160E+01E
 Epicentro: LOS SANTOS - SANTANDER                                             3
 ACTION:UPD 17-01-11 20:15 OP:rebc STATUS:               ID:20161215232210 L   I
 OLDACT:REG 16-12-16 03:32 OP:lv   STATUS:               ID:20161215231744     3
 2016-12-15-2318-00M.COL___386                                                 6
 STAT SP IPHASW D HRMM SECON CODA AMPLIT PERI AZIMU VELO AIN AR TRES W  DIS CAZ7
 BAR2 EZ IP     C 2322 29.45                             172    0.1010 19.8 198 
 BAR2 EZ ES       2322 44.08                             172    0.0210 19.8 198 
 BAR2 EZ I        2322 45.30        31.3 0.18            171           19.8 198 
 BRR  HZ IP     C 2322 31.35                             150    0.1110 74.9 301 
 BRR  HN ES       2322 47.92                             150    0.5110 74.9 301 
 BRR  HZ I        2322 52.27        18.0 0.14            151           74.9 301 
 PAM  EZ EP       2322 32.50                             149    0.2910 79.4  37 
 PAM  EN ES       2322 49.03                             149   -0.1210 79.4  37 
 PAM  EZ I        2322 51.62        18.8 0.40            152           79.4  37 
 RUS  HZ EP       2322 33.46                             144    0.0910 96.4 177 
 RUS  HE ES       2322 50.80                             144   -0.4010 96.4 177 
 RUS  HZ I        2322 52.68         9.5 0.19            145           96.4 177 
 PTB  HZ EP       2322 36.16                             130   -0.94 9  149 261 
 PTB  HN ES       2322 57.11                             130   -0.75 9  149 261 
 PTB  HZ I        2322 59.43        21.4 0.16            131            149 261 
 ZAR  HZ EP       2322 42.93                             121    0.01 8  207 293 
 ZAR  HN ES       2323  8.34                             121    0.13 8  207 293 
 ZAR  HZ I        2323 11.73         9.8 0.15            122            207 293 
 NOR  HZ EP       2322 46.02                             117    0.21 8  234 236 
 NOR  HE ES       2323 13.74                             117    0.38 8  234 236 
 NOR  HZ I        2323 15.37        11.0 0.16            119            234 236 
 CHI  HZ EP       2322 47.97                             116    0.47 8  245 196 
 CHI  HN ES       2323 17.08                             116    0.72 8  245 196 
 CHI  HZ I        2323 23.01         3.4 0.24            118            245 196 
 GUY2CHZ EP   9   2322 55.10                             111    1.34 0  300 236 
 GUY2CHE ES       2323 28.75                                   -0.09 7  300 236 
 GUY2CHZ I        2323 34.85         5.2 0.28                           300 236 
 PTGC HZ EP       2322 52.87                             111   -0.71 7  304 159 
 PTGC HE ES   4   2323 25.73                             111   -1.45 0  304 159 
 SJC  HZ EP   4   2323  4.49                             104   -1.91 0  414 327 
 SJC  HN ES   4   2323 46.39                             104   -3.62 0  414 327 
                                                                                
