 2017  315 2155 44.7 L   6.744 -73.833 23.5  RSN  7 0.6 1.6LRSN                1
 GAP= 83        1.44       3.7     2.7  4.3 -0.2083E+00 -0.7467E-01  0.3015E+01E
 Epicentro: PUERTO PARRA - SANTANDER                                           3
 ACTION:UPD 17-05-25 18:40 OP:jn   STATUS:               ID:20170315215544 L   I
 OLDACT:UP  17-03-16 04:02 OP:and  STATUS:               ID:20170315214743     3
 OLDACT:REG 17-03-16 03:04 OP:and  STATUS:               ID:20170315214743     3
 2017-03-15-2148-00M.COL___417                                                 6
 STAT SP IPHASW D HRMM SECON CODA AMPLIT PERI AZIMU VELO AIN AR TRES W  DIS CAZ7
 BRR  HZ IP     C 2155 52.51                             117    0.0510 42.3  18 
 BRR  HN ES       2155 59.16                             117    0.6810 42.3  18 
 BRR  HZ I        2155 59.48        84.5 0.12             47           42.3  18 
 PTB  HZ EP       2155 56.35                             106   -0.4210 72.6 252 
 PTB  HN ES       2156  5.92                             106   -0.2310 72.6 252 
 PTB  HZ I        2156  6.62        13.8 0.08             47           72.6 252 
 BAR2 EZ IP     D 2155 56.99                             106   -0.2010 73.8 103 
 BAR2 EZ ES       2156  6.33                             106   -0.5710 73.8 103 
 BAR2 EZ I        2156  7.10        17.5 0.12             47           73.8 103 
 RUS  HZ EP       2156  4.83                              56    0.2210  125 139 
 RUS  HN ES       2156 20.02                              56   -0.0810  125 139 
 ZAR  HZ EP       2156  5.59                              56   -0.28 9  140 306 
 ZAR  HE ES       2156 21.70                              56   -0.65 9  140 306 
 ZAR  HZ I        2156 27.55         4.9 0.09             47            140 306 
 PAM  EZ IP     C 2156  6.87                              56    0.27 9  141  62 
 PAM  EN ES       2156 23.40                              56   -0.24 9  141  62 
 PAM  EZ I        2156 25.59        20.3 0.26             47            141  62 
 NOR  HZ EP       2156 11.82                              56    1.70 9  174 221 
 NOR  HN ES   2   2156 29.84                              56   -0.07 4  174 221 
 NOR  HZ I        2156 35.71         3.6 0.22             47            174 221 
                                                                                
