 2010 1115 2322 27.4 L   6.764 -73.084144.0  RSN 13 0.5 2.3LRSN                1
 GAP=166        0.92       4.0     7.1  6.1 -0.1419E+02  0.1719E+01  0.2052E+01E
 Epicentro: LOS SANTOS - SANTANDER                                             3
 ACTION:UP  10-12-17 16:52 OP:REBC STATUS:               ID:20101115232227 L   I
 2010-11-15-2317-44S.COL___129                                                 6
 STAT SP IPHASW D HRMM SECON CODA AMPLIT PERI AZIMU VELO SNR AR TRES W  DIS CAZ7
 BAR2 SZ EP       2322 46.88                             171     0.110   22 210 
 BAR2 SZ I        2322 47.51        36.5 0.12                            22 210 
 BAR2 SZ ES   1   2323  0.96                             171    -0.9 7   22 210 
 BTL  SZ EP       2322 47.24                             169     0.410   27 310 
 BTL  SZ ES   1   2323  2.44                             169     0.4 7   27 310 
 GIR2 SZ EP   1   2322 47.04                             165     0.0 7   37 341 
 BRR  HZ IP     C 2322 48.83                             150     0.010   79 299 
 BRR  HZ I        2322 49.12       105.1 0.14                            79 299 
 BRR  HE ES   1   2323  5.91                             150     0.4 7   79 299 
 RUS  HZ EP   1   2322 50.72                             145     0.1 7   96 180 
 RUS  HE ES   2   2323  8.73                             145    -0.1 5   96 180 
 RUS  HZ I        2323 10.81        24.8 0.39                            96 180 
 GUE  SZ EP       2322 52.01                             138    -0.110  119   8 
 GRA  SZ IP       2322 52.76                             136     0.110  128  14 
 GRA  SZ ES       2323 12.53                             136     0.210  128  14 
 GRA  SZ I        2323 13.39        34.2 0.38                           128  14 
 OCA  SZ EP       2322 55.33                             128    -0.7 9  165 351 
 OCA  SZ ES   2   2323 17.95                             128    -0.4 5  165 351 
 OCA  SZ I        2323 23.25        31.2 0.24                           165 351 
 NOR  SZ EP   1   2323  2.54                             118    -0.8 6  238 236 
 NOR  SE ES   2   2323 30.53                             118    -0.9 4  238 236 
 CHI  HZ EP   2   2323  4.61                             117    -0.1 4  247 197 
 CHI  HE ES   2   2323 34.16                             117     0.2 4  247 197 
 CHI  HZ I        2323 44.13        10.0 0.42                           247 197 
 ROSC BZ EP   2   2323  5.80                             116     0.4 4  253 213 
 ROSC BN ES   2   2323 35.93                             116     0.8 4  253 213 
 ROSC BZ I        2323 44.23        12.4 0.07                           253 213 
 HEL  HZ EP   2   2323  9.05                             114     0.9 4  278 257 
 HEL  HE ES   2   2323 40.22                             114     0.3 4  278 257 
 HEL  HZ I        2323 44.33        10.3 0.32                           278 257 
 PRA  HZ EP   2   2323 21.03                             106     0.2 3  392 211 
 PRA  HN ES   2   2324  2.16                             106    -0.3 3  392 211 
                                                                                
