 2012  915 2129 22.8 L   6.650 -73.094150.4  RSN  5 0.5 2.0LRSN                1
 GAP=207        1.11      11.1    11.9 11.6 -0.5047E+02 -0.1314E+02  0.1953E+02E
 Epicentro: CURITI - SANTANDER                                                 3
 ACTION:UPD 12-10-22 14:19 OP:ep   STATUS:               ID:20120915212922 L   I
 2012-09-15-2128-16M.COL___215                                                 6
 STAT SP IPHASW D HRMM SECON CODA AMPLIT PERI AZIMU VELO AIN AR TRES W  DIS CAZ7
 BAR2 SZ EP       2129 43.20                             175    0.3610 11.6 237 
 BAR2 SZ ES   1   2129 58.90                             175    0.45 7 11.6 237 
 BAR2 SZ I        2130  2.09        18.7 0.58                          11.6 237 
 GIR2 SZ EP       2129 43.40                             161   -0.2210 48.7 347 
 GIR2 SZ ES   3   2129 59.71                             161   -0.13 2 48.7 347 
 BRR  HZ EP       2129 45.14                             149   -0.1510 85.0 307 
 BRR  HZ I        2129 45.48        24.1 0.30                          85.0 307 
 BRR  HN ES   1   2130  2.55                             149   -0.26 7 85.0 307 
 PAM  SZ EP       2129 46.12                             148   -0.0610 87.9  30 
 PAM  SZ I        2129 46.36        18.3 0.20                          87.9  30 
 PAM  SN ES   1   2130  3.35                             148   -1.04 7 87.9  30 
 GRA  SZ ES   1   2130 11.79                             135    1.11 7  140  13 
 GRA  SZ I        2130 12.77         9.0 0.34                           140  13 
                                                                                
