 2014  215 2030 37.8 L   6.774 -73.112148.0  RSN 10 0.4 2.1LRSN                1
 GAP=142        0.82       2.5     3.6  4.7 -0.2436E+00  0.5314E+01  0.1045E+01E
 Epicentro: LOS SANTOS - SANTANDER                                             3
 ACTION:UPD 14-03-10 08:10 OP:ep   STATUS:               ID:20140215203037 L   I
 OLDACT:REG 14-02-15 22:32 OP:nd   STATUS:               ID:20140215203000     3
 2014-02-15-2030-00M.COL___212                                                 6
 STAT SP IPHASW D HRMM SECON CODA AMPLIT PERI AZIMU VELO AIN AR TRES W  DIS CAZ7
 BAR2 SZ EP       2030 57.30                             171   -0.4210 21.6 201 
 BAR2 SZ ES       2031 12.89                             171   -0.3210 21.6 201 
 BAR2 SZ I        2031 14.03        27.2 0.28            168           21.6 201 
 BRR  HZ EP     C 2030 59.77                             151    0.2710 75.8 299 
 BRR  HN ES       2031 17.08                             151    0.6810 75.8 299 
 BRR  HZ I        2031 20.15       216.5 1.14            149           75.8 299 
 PAM  SZ EP       2031  0.57                             151    0.2710 77.4  36 
 PAM  SN ES       2031 17.63                             151   -0.1910 77.4  36 
 PAM  SZ I        2031 20.02        17.8 0.48            156           77.4  36 
 RUS  HZ EP       2031  1.66                             145    0.0510 97.5 178 
 RUS  HN ES       2031 20.12                             145   -0.0210 97.5 178 
 RUS  HZ I        2031 21.91         6.4 0.40            146           97.5 178 
 PTB  HZ EP       2031  4.90                             132   -0.38 9  151 260 
 PTB  HN ES   2   2031 25.81                             132   -0.87 5  151 260 
 PTB  HZ I        2031 33.50        12.2 0.38            131            151 260 
 SPBC HZ EP       2031  6.71                             129    0.17 9  163 221 
 SPBC HN ES       2031 29.21                             129    0.30 9  163 221 
 SPBC HZ I        2031 33.93        16.8 0.40            130            163 221 
 ZAR  HZ EP       2031 11.33                             122    0.43 8  209 292 
 ZAR  HN ES       2031 36.45                             122   -0.24 8  209 292 
 ZAR  HZ I        2031 42.01         8.6 0.34            122            209 292 
 NOR  HZ EP       2031 13.63                             119   -0.23 8  236 236 
 NOR  HN ES       2031 41.83                             119   -0.11 8  236 236 
 NOR  HZ I        2031 45.71         8.4 0.24            119            236 236 
 CHI  HZ EP       2031 15.85                             118    0.37 8  247 196 
 CHI  HN ES       2031 44.70                             118   -0.14 8  247 196 
 CHI  HZ I        2031 54.21         2.8 0.36            119            247 196 
 SML  HZ EP   2   2031 14.14                             117   -0.91 4  248 335 
 SML  HN ES       2031 43.89                             117   -0.18 8  248 335 
 SML  HZ I        2031 49.86        17.8 0.10            119            248 335 
                                                                                
