 2017  815 2143 33.2 L   6.801 -73.123149.9  RSN  6 0.2 1.6LRSN                1
 GAP=139        0.64       2.6     3.5  4.2  0.1614E+01  0.3937E+01  0.2118E+01E
 Epicentro: LOS SANTOS - SANTANDER                                             3
 ACTION:UPD 17-09-04 20:20 OP:rebc STATUS:               ID:20170815214333 L   I
 OLDACT:UP  17-08-16 07:24 OP:dani STATUS:               ID:20170815213743d    3
 OLDACT:DUP 17-08-16 07:21 OP:dani STATUS:               ID:20170815213743d    3
 2017-08-15-2138-00M.COL___416                                                 6
 STAT SP IPHASW D HRMM SECON CODA AMPLIT PERI AZIMU VELO AIN AR TRES W  DIS CAZ7
 BAR2 EZ EP       2143 53.18                             171   -0.1810 23.9 196 
 BAR2 EZ ES       2144  9.08                             171    0.0110 23.9 196 
 BAR2 EZ I        2144 10.93        11.8 0.30            169           23.9 196 
 BRR  HZ EP       2143 55.08                             152    0.1410 73.4 298 
 BRR  HN ES       2144 12.22                             152    0.3410 73.4 298 
 BRR  HZ I        2144 15.12        10.7 0.30            151           73.4 298 
 PAM  EZ EP       2143 55.90                             152    0.1210 75.8  38 
 PAM  EN ES       2144 13.40                             152    0.0210 75.8  38 
 PAM  EZ I        2144 15.27         6.3 0.58            155           75.8  38 
 RUS  HZ EP       2143 57.36                             145   -0.0110  101 177 
 RUS  HN ES       2144 15.78                             145   -0.4310  101 177 
 RUS  HZ I        2144 17.18         4.4 0.28            146            101 177 
 ZAR  HZ EP       2144  5.94                             123   -0.23 8  206 292 
 ZAR  HE ES       2144 31.57                             123   -0.30 8  206 292 
 ZAR  HZ I        2144 36.96         4.8 0.28            123            206 292 
 CHI  HZ EP       2144 11.36                             118    0.13 8  249 196 
 CHI  HN ES       2144 41.33                             118    0.46 8  249 196 
 CHI  HZ I        2144 44.47         1.3 0.22            119            249 196 
                                                                                
