 2010  615 2124 53.5 L   6.766 -72.629145.8  RSN  5 0.3 1.6LRSN                1
 GAP=216        0.50       5.1    20.6  8.2 -0.7521E+02 -0.9299E+01 -0.7472E+01E
 Epicentro: CONCEPCION - SANTANDER                                             3
 ACTION:UP  10-08-24 10:10 OP:vdl  STATUS:               ID:20100615212453 L   I
 2010-06-15-2121-10S.COL___114                                                 6
 STAT SP IPHASW D HRMM SECON CODA AMPLIT PERI AZIMU VELO SNR AR TRES W  DIS CAZ7
 BRI  SZ EP   1   2125 17.45                             142     0.2 7  107 350 
 BRI  SZ ES   2   2125 35.40                             142    -0.4 5  107 350 
 RUS  HZ EP   2   2125 18.01                             141     0.2 5  109 208 
 RUS  HE ES   1   2125 36.89                             141     0.1 7  109 208 
 RUS  HZ I        2125 38.30         4.6 0.31                           109 208 
 GRA  SZ EP   1   2125 18.60                             137    -0.1 7  125 351 
 CHI  HZ EP   2   2125 32.41                             115    -0.7 4  266 207 
 CHI  HZ I        2125 51.62         2.2 0.64                           266 207 
 MON  HZ EP   2   2125 48.31                             106     0.2 3  401 304 
 MON  HZ I        2125 48.42         1.4 0.42                           401 304 
                                                                                
