 2012  615 2011 43.4 L   6.828 -73.118137.5  RSN  5 0.2 1.5LRSN                1
 GAP=186        0.49       2.8     4.5 12.1  0.1842E+01  0.2326E+02 -0.3338E+00E
 Epicentro: LOS SANTOS - SANTANDER                                             3
 ACTION:UPD 12-08-06 17:49 OP:ep   STATUS:               ID:20120615201143 L   I
 2012-06-15-2010-00M.COL___198                                                 6
 STAT SP IPHASW D HRMM SECON CODA AMPLIT PERI AZIMU VELO AIN AR TRES W  DIS CAZ7
 BAR2 SZ EP   1   2012  1.92                             168   -0.20 7 27.0 195 
 BAR2 SZ I        2012 19.05         6.9 0.16                          27.0 195 
 RUS  HZ EP   1   2012  6.55                             141   -0.02 7  103 178 
 RUS  HN ES   1   2012 24.64                             141    0.00 7  103 178 
 RUS  HZ I        2012 26.63         5.0 0.29                           103 178 
 OCA  HN ES   1   2012 32.48                             128    0.26 7  158 352 
 ZAR  HN ES   1   2012 40.20                             120   -0.33 6  206 291 
 NOR  SN ES   1   2012 47.37                             116    0.37 6  239 234 
                                                                                
