 2016  415 2044 36.5 L   6.785 -73.181138.0  RSN  5 0.2 1.5LRSN                1
 GAP=133        0.46       3.5     2.3  5.9 -0.1914E+01  0.4709E+01  0.1705E+01E
 Epicentro: LOS SANTOS - SANTANDER                                             3
 ACTION:UPD 16-05-05 14:21 OP:rebc STATUS:               ID:20160415204436 L   I
 OLDACT:REG 16-04-16 05:25 OP:dnl  STATUS:               ID:20160415203746     3
 2016-04-15-2037-46M.COL___322                                                 6
 STAT SP IPHASW D HRMM SECON CODA AMPLIT PERI AZIMU VELO AIN AR TRES W  DIS CAZ7
 BAR2 EZ EP   3   2044 55.31                             171    0.18 2 21.3 180 
 BAR2 EZ ES   3   2045 10.10                             171    0.42 2 21.3 180 
 BAR2 EZ I        2045 11.46         9.2 0.18            173           21.3 180 
 PAM  EZ EP       2044 58.30                             148    0.1910 81.2  41 
 PAM  EN ES       2045 14.78                             148   -0.2110 81.2  41 
 PAM  EZ I        2045 17.35         4.3 0.42            151           81.2  41 
 RUS  HZ EP   2   2044 59.50                             142    0.12 5 99.3 174 
 RUS  HE ES   2   2045 17.49                             142    0.26 5 99.3 174 
 PTB  HZ EP       2045  2.29                             131   -0.15 9  144 259 
 PTB  HN ES       2045 22.50                             131   -0.19 9  144 259 
 PTB  HZ I        2045 27.27         2.6 0.20            132            144 259 
 ZAR  HN ES       2045 33.05                             121    0.25 9  201 293 
 ZAR  HZ I        2045 39.41         4.7 0.50            122            201 293 
                                                                                
