 2017  115 2145 24.0 L   6.728 -73.142152.4  RSN  7 0.4 1.2LRSN                1
 GAP=140        0.93       4.4     3.9  7.7 -0.2280E+01  0.4282E+01  0.2361E+01E
 Epicentro: JORDAN - SANTANDER                                                 3
 ACTION:UPD 17-05-22 16:00 OP:jn   STATUS:               ID:20170115214524 L   I
 OLDACT:DUP 17-01-16 05:13 OP:lv   STATUS:               ID:20170115213749d    3
 2017-01-15-2138-00M.COL___338                                                 6
 STAT SP IPHASW D HRMM SECON CODA AMPLIT PERI AZIMU VELO AIN AR TRES W  DIS CAZ7
 BRR  HZ EP       2145 46.07                             152   -0.0410 75.6 304 
 BRR  HN ES       2146  3.87                             152    0.5210 75.6 304 
 PAM  EZ EP       2145 47.49                             150    0.2110 83.5  36 
 PAM  EE ES       2146  5.29                             150   -0.1410 83.5  36 
 RUS  HZ EP       2145 48.05                             147    0.1910 92.6 176 
 RUS  HE ES       2146  6.23                             147   -0.2410 92.6 176 
 RUS  HZ I        2146  8.26         1.5 0.27            146           92.6 176 
 PTB  HZ EP       2145 50.95                             134   -0.47 9  147 262 
 PTB  HN ES       2146 12.26                             134   -0.55 9  147 262 
 PTB  HZ I        2146 13.65         1.8 0.17            134            147 262 
 ZAR  HE ES       2146 23.02                             123   -0.13 8  208 294 
 NOR  HN ES       2146 28.23                             120    0.74 8  230 236 
 NOR  HZ I        2146 30.07         1.4 0.18            120            230 236 
 CHI  HE ES   4   2146 32.14                             119    1.82 0  241 196 
 GUY2CHZ EP   9   2146  9.64                             114    2.20 0  297 236 
 GUY2CHN ES       2146 43.34                                   -0.19 7  297 236 
 GUY2CHZ  IAML    2146 49.44         0.8 0.44                           297 236 
                                                                                
