 2017  315 2140  5.3 L   6.768 -73.117140.0  RSN  9 0.4 1.7LRSN                1
 GAP=142        0.87       3.4     3.7  6.1 -0.3992E+00  0.5802E+01  0.3820E+01E
 Epicentro: LOS SANTOS - SANTANDER                                             3
 ACTION:UPD 17-05-25 18:40 OP:jn   STATUS:               ID:20170315214005 L   I
 OLDACT:UP  17-03-16 03:57 OP:and  STATUS:               ID:20170315213746     3
 OLDACT:UP  17-03-16 03:57 OP:and  STATUS:               ID:20170315213746     3
 OLDACT:UP  17-03-16 03:56 OP:and  STATUS:               ID:20170315213746     3
 OLDACT:UP  17-03-16 03:55 OP:and  STATUS:               ID:20170315213746     3
 OLDACT:UP  17-03-16 03:55 OP:and  STATUS:               ID:20170315213746     3
 OLDACT:UP  17-03-16 03:54 OP:and  STATUS:               ID:20170315213746     3
 OLDACT:UP  17-03-16 03:54 OP:and  STATUS:               ID:20170315213746     3
 OLDACT:UP  17-03-16 03:54 OP:and  STATUS:               ID:20170315213746     3
 OLDACT:UP  17-03-16 03:52 OP:and  STATUS:               ID:20170315213746     3
 OLDACT:REG 17-03-16 03:04 OP:and  STATUS:               ID:20170315213746     3
 2017-03-15-2138-00M.COL___417                                                 6
 STAT SP IPHASW D HRMM SECON CODA AMPLIT PERI AZIMU VELO AIN AR TRES W  DIS CAZ7
 BAR2 EZ EP       2140 23.96                             171   -0.2110 20.7 200 
 BAR2 EZ ES       2140 38.59                             171   -0.3110 20.7 200 
 BAR2 EZ I        2140 39.86        16.5 0.32            168           20.7 200 
 BRR  HZ EP       2140 26.18                             150    0.1010 75.6 300 
 BRR  HN ES       2140 42.95                             150    0.6510 75.6 300 
 PAM  EZ EP       2140 27.11                             150    0.1710 78.2  36 
 PAM  EN ES       2140 43.53                             150   -0.3010 78.2  36 
 PAM  EZ I        2140 45.91        15.0 0.46            153           78.2  36 
 RUS  HZ EP       2140 28.36                             144    0.1610 96.9 178 
 RUS  HN ES       2140 46.49                             144    0.4110 96.9 178 
 RUS  HZ I        2140 48.53         6.0 0.28            142           96.9 178 
 PTB  HZ EP       2140 31.35                             130   -0.67 9  150 260 
 PTB  HN ES       2140 52.92                             130    0.05 9  150 260 
 PTB  HZ I        2140 54.85         4.9 0.12            129            150 260 
 ZAR  HZ EP   4   2140 39.77                             121    1.96 0  208 293 
 ZAR  HE ES       2141  3.25                             121    0.08 8  208 293 
 ZAR  HZ I        2141  5.14         4.9 0.16            120            208 293 
 NOR  HZ EP   4   2140 28.49                             117   -12.3 0  235 236 
 NOR  HN ES       2141  7.98                             117   -0.43 8  235 236 
 NOR  HZ I        2141 16.90         2.7 0.18            116            235 236 
 CHI  HN ES       2141 11.32                             116   -0.02 8  246 196 
 CHI  HZ I        2141 15.90         1.5 0.11            115            246 196 
 PRA  HZ EP   2   2140 59.35                             106    0.91 3  391 210 
 PRA  HN ES   3   2141 41.23                             106    1.33 1  391 210 
 PRA  HZ I        2141 45.14         2.0 0.26            105            391 210 
                                                                                
