 2013  415 2323 49.2 L   6.765 -73.156151.5  RSN  7 0.5 1.6LRSN                1
 GAP=182        1.05       6.6     6.3  8.9  0.1132E+02  0.1341E+02  0.6527E+01E
 Epicentro: LOS SANTOS - SANTANDER                                             3
 ACTION:UPD 13-05-22 14:38 OP:EP   STATUS:               ID:20130415232349 L   I
 2013-04-15-2318-48M.COL___211                                                 6
 STAT SP IPHASW D HRMM SECON CODA AMPLIT PERI AZIMU VELO AIN AR TRES W  DIS CAZ7
 BAR2 SZ EP   1   2324  9.14                             173   -0.33 7 19.3 189 
 BAR2 SZ ES   1   2324 25.22                             173   -0.04 7 19.3 189 
 BAR2 SZ I        2324 27.34         8.7 0.28            167           19.3 189 
 GIR2 SZ EP   1   2324 10.13                             166    0.46 7 35.0 353 
 GIR2 SZ ES   1   2324 24.90                             166   -0.73 7 35.0 353 
 GIR2 SZ I        2324 25.13         5.0 0.40            167           35.0 353 
 BRR  HZ EP   1   2324 11.46                             153    0.41 7 72.2 302 
 BRR  HE ES   1   2324 29.03                             153    0.96 7 72.2 302 
 BRR  HZ I        2324 30.41        10.2 0.50            151           72.2 302 
 RUS  HZ EP       2324 13.22                             146   -0.0610 96.8 175 
 RUS  HE ES       2324 32.28                             146    0.2410 96.8 175 
 RUS  HZ I        2324 32.79         2.7 0.62            146           96.8 175 
 PTB  HZ EP       2324 16.14                             134   -0.36 9  146 260 
 PTB  HN ES       2324 37.10                             134   -0.68 9  146 260 
 PTB  HZ I        2324 44.65         5.7 0.23            132            146 260 
 ZAR  HN ES   1   2324 48.00                             124    0.26 6  205 293 
 NOR  HE ES   1   2324 53.40                             120    0.57 6  232 235 
 NOR  HZ I        2324 57.04         3.8 0.18            120            232 235 
                                                                                
