 2017  215 2005 42.3 L   6.843 -73.215147.6  RSN  4 0.3 1.5LRSN                1
 GAP=150        0.76       5.1     4.7  7.4 -0.3408E+01  0.1358E+02  0.3632E+01E
 Epicentro: ZAPATOCA - SANTANDER                                               3
 ACTION:UPD 17-05-24 15:36 OP:jn   STATUS:               ID:20170215200542 L   I
 OLDACT:DUP 17-02-16 02:54 OP:ar   STATUS:               ID:20170215195744d    3
 OLDACT:REG 17-02-16 02:44 OP:ar   STATUS:               ID:20170215195743     3
 2017-02-15-1958-00M.COL___364                                                 6
 STAT SP IPHASW D HRMM SECON CODA AMPLIT PERI AZIMU VELO AIN AR TRES W  DIS CAZ7
 BAR2 EZ EP   2   20 6  1.76                             169   -0.51 5 28.0 173 
 BAR2 EZ ES       20 6 17.72                             169   -0.1110 28.0 173 
 BAR2 EZ I        20 6 18.13         8.0 0.18            169           28.0 173 
 PAM  EN ES       20 6 22.46                             150    0.0810 79.1  46 
 RUS  HZ EP       20 6  7.12                             143    0.4710  106 172 
 RUS  HN ES       20 6 25.46                             143   -0.1710  106 172 
 RUS  HZ I        20 6 25.65         4.4 0.24            144            106 172 
 PTB  HZ EP       20 6  8.45                             134   -0.41 9  141 256 
 PTB  HN ES       20 6 29.83                             134    0.27 9  141 256 
 PTB  HZ I        20 6 31.69         3.7 0.14            133            141 256 
                                                                                
