 2012  415 2351 46.6 L   6.780 -73.152143.6  RSN  8 0.4 2.1LRSN                1
 GAP=137        0.83       4.5     5.9  7.0  0.2180E+01  0.9850E+01 -0.2418E+01E
 Epicentro: LOS SANTOS - SANTANDER                                             3
 ACTION:UPD 12-07-05 11:53 OP:tino STATUS:               ID:20120415235146 L   I
 2012-04-15-2350-00M.COL___187                                                 6
 STAT SP IPHASW D HRMM SECON CODA AMPLIT PERI AZIMU VELO AIN AR TRES W  DIS CAZ7
 BAR2 SZ IP       2352  5.74                             171    -0.110   21 189 
 BAR2 SZ ES   2   2352 20.77                             171    -0.2 5   21 189 
 BAR2 SZ I        2352 22.28        32.9 0.20                            21 189 
 BRR  HZ IP     C 2352  7.58                             152     0.110   72 300 
 BRR  HE ES   1   2352 24.48                             152     0.6 7   72 300 
 BRR  HZ I        2352 25.98        21.5 0.14                            72 300 
 PAM  SZ EP       2352  8.58                             150    -0.110   80  39 
 PAM  SN ES   1   2352 25.68                             150    -0.3 7   80  39 
 RUS  HZ EP       2352  9.75                             144    -0.210   98 176 
 RUS  HN ES   1   2352 28.31                             144     0.1 7   98 176 
 OCA  SZ EP       2352 15.04                             129     0.1 9  162 353 
 ZAR  HZ EP       2352 19.20                             122     0.3 9  204 293 
 ZAR  HN ES   2   2352 42.61                             122    -1.5 4  204 293 
 ZAR  HZ I        2352 49.02        11.2 0.24                           204 293 
 NOR  SZ EP   2   2352 22.53                             118     0.6 4  233 235 
 CHI  HZ EP   2   2352 23.55                             117    -0.3 4  246 195 
 CHI  HZ I        2353  2.87         6.0 0.58                           246 195 
                                                                                
