 2015  915 2005 57.8 L   6.806 -73.142145.7  RSN 10 0.5 1.6LRSN                1
 GAP=137        1.19       3.5     5.0  6.5 -0.4454E+00  0.9912E+01  0.1076E+01E
 Epicentro: LOS SANTOS - SANTANDER                                             3
 ACTION:UPD 15-10-28 16:26 OP:cam  STATUS:               ID:20150915200557 L   I
 OLDACT:DUP 15-09-16 06:08 OP:estl STATUS:               ID:20150915195748d    3
 2015-09-15-1957-47M.COL___328                                                 6
 STAT SP IPHASW D HRMM SECON CODA AMPLIT PERI AZIMU VELO AIN AR TRES W  DIS CAZ7
 BAR2 EZ IP     D 20 6 17.65                             170    0.1810 24.1 191 
 BAR2 EZ ES       20 6 32.39                             170   -0.4010 24.1 191 
 BAR2 EZ I        20 6 35.25         7.2 0.16            170           24.1 191 
 BRR  HZ EP       20 6 19.60                             152    0.6210 71.2 298 
 BRR  HE ES       20 6 35.65                             152    0.1810 71.2 298 
 PAM  EZ EP       20 6 20.52                             151    0.5210 76.6  40 
 PAM  EN ES       20 6 36.71                             151   -0.5710 76.6  40 
 PAM  EZ I        20 6 39.70         4.2 0.52            155           76.6  40 
 RUS  HZ EP       20 6 21.83                             144    0.2010  101 176 
 RUS  HN ES       20 6 40.68                             144    0.5010  101 176 
 RUS  HZ I        20 6 43.14         2.9 0.32            146            101 176 
 PTB  HZ EP   1   20 6 24.67                             132   -0.18 7  148 259 
 PTB  HN ES   1   20 6 45.42                             132   -0.50 7  148 259 
 PTB  HZ I        20 6 52.81         9.9 0.40            133            148 259 
 SPBC HZ EP       20 6 26.58                             129    0.17 9  164 219 
 SPBC HE ES       20 6 48.45                             129   -0.24 9  164 219 
 ZAR  HZ EP       20 6 30.23                             122   -0.06 9  204 292 
 ZAR  HN ES       20 6 56.68                             122    1.07 9  204 292 
 ZAR  HZ I        20 7  1.56         6.8 0.44            124            204 292 
 SML  HZ EP       20 6 33.69                             117   -0.72 8  243 335 
 SML  HN ES       20 7  2.22                             117   -0.72 8  243 335 
 CHI  HZ EP       20 6 35.90                             117    0.28 8  249 195 
 CHI  HZ I        20 6 36.38         1.8 0.38            119            249 195 
 CHI  HN ES       20 7  4.18                             117   -0.90 8  249 195 
 GUY2CHZ EP       20 6 41.19                             112   -0.34 7  302 235 
 GUY2CHN ES       20 7 15.41                             112   -0.19 7  302 235 
 GUY2CHZ I        20 7 22.98         2.9 0.24                           302 235 
                                                                                
