 2011  415 2225  3.9 L   6.804 -73.144144.0  RSN  7 0.3 2.2LRSN                1
 GAP=151        0.62       4.1     5.6  5.4 -0.1125E+02  0.4483E+01  0.1304E-01E
 Epicentro: LOS SANTOS - SANTANDER                                             3
 ACTION:UP  11-06-22 15:31 OP:REBC STATUS:               ID:20110415222503 L   I
 2011-04-15-2220-41S.COL___140                                                 6
 STAT SP IPHASW D HRMM SECON CODA AMPLIT PERI AZIMU VELO SNR AR TRES W  DIS CAZ7
 BTL  SZ EP   1   2225 23.68                             172     0.4 7   19 313 
 BAR2 SZ EP   1   2225 23.27                             170    -0.1 7   24 190 
 BAR2 SZ ES   1   2225 38.13                             170    -0.4 7   24 190 
 BAR2 SZ I        2225 41.14        48.2 0.25                            24 190 
 BRR  HZ EP   1   2225 24.72                             152    -0.1 7   71 298 
 BRR  HE ES   1   2225 41.60                             152     0.4 7   71 298 
 BRR  HZ I        2225 44.58        32.7 0.23                            71 298 
 PAM  SZ EP   1   2225 26.22                             151     0.3 7   77  40 
 PAM  SZ I        2225 26.42        22.7 0.15                            77  40 
 PAM  SE ES   1   2225 43.05                             151     0.0 7   77  40 
 GRA  SZ EP   1   2225 29.08                             137     0.1 7  125  17 
 GRA  SZ ES   1   2225 48.13                             137    -0.3 7  125  17 
 GRA  SZ I        2225 49.66        15.4 0.42                           125  17 
 OCA  SZ EP   1   2225 31.81                             129    -0.2 7  160 353 
 OCA  SZ ES   1   2225 53.89                             129    -0.1 7  160 353 
 OCA  SZ I        2225 57.01        15.2 0.15                           160 353 
 NOR  SZ EP   1   2225 39.42                             118    -0.2 6  235 234 
 NOR  SN ES   2   2226  7.24                             118    -0.2 4  235 234 
                                                                                
