 2014 1015 2254 49.6 L   6.788 -73.118144.8  RSN  5 0.7 1.3LRSN                1
 GAP=141        1.72       9.1     8.9 12.6 -0.7841E+01  0.1431E+02  0.5265E+01E
 Epicentro: LOS SANTOS - SANTANDER                                             3
 ACTION:UPD 14-11-29 23:50 OP:nd   STATUS:               ID:20141015225449 L   I
 OLDACT:DUP 14-10-16 09:32 OP:stll STATUS:               ID:20141015224751d    3
 2014-10-15-2247-50M.COL___291                                                 6
 STAT SP IPHASW D HRMM SECON CODA AMPLIT PERI AZIMU VELO AIN AR TRES W  DIS CAZ7
 BAR2 SZ EP       2255  9.35                             171    0.2910 22.8 198 
 BAR2 SZ ES       2255 22.97                             171   -1.3110 22.8 198 
 BAR2 SZ I        2255 25.61         9.5 0.74            171           22.8 198 
 BRR  HZ EP       2255 11.04                             151    0.2410 74.5 298 
 BRR  HN ES       2255 28.10                             151    0.7410 74.5 298 
 PAM  SZ EP       2255 11.86                             151    0.2410 76.5  37 
 PAM  SN ES       2255 28.69                             151   -0.1410 76.5  37 
 PAM  SZ I        2255 31.54         2.7 0.50            152           76.5  37 
 RUS  HZ EP       2255 13.16                             144    0.0510 99.1 178 
 RUS  HZ I        2255 14.29         1.5 0.24            146           99.1 178 
 RUS  HN ES       2255 32.19                             144    0.7110 99.1 178 
 PTB  HZ EP       2255 15.52                             131   -1.18 9  151 260 
 PTB  HN ES       2255 38.10                             131    0.22 9  151 260 
 PTB  HZ I        2255 43.08         2.7 0.32            131            151 260 
                                                                                
