 2017  815 2253 31.2 L   6.724 -73.150146.0  RSN  4 0.1 1.6LRSN                1
 GAP=231        0.40       4.5     5.3  3.7  0.2038E+02  0.1855E+01  0.7007E-01E
 Epicentro: JORDAN - SANTANDER                                                 3
 ACTION:UPD 17-09-04 20:20 OP:rebc STATUS:               ID:20170815225331 L   I
 OLDACT:UP  17-08-16 07:46 OP:dani STATUS:               ID:20170815224743d    3
 OLDACT:DUP 17-08-16 07:43 OP:dani STATUS:               ID:20170815224743d    3
 OLDACT:UP  17-08-16 07:42 OP:dani STATUS:               ID:20170815224742     3
 OLDACT:UP  17-08-16 07:42 OP:dani STATUS:               ID:20170815224742     3
 OLDACT:UP  17-08-16 07:39 OP:dani STATUS:               ID:20170815224742     3
 OLDACT:REG 17-08-16 06:01 OP:dani STATUS:               ID:20170815224742     3
 2017-08-15-2248-00M.COL___416                                                 6
 STAT SP IPHASW D HRMM SECON CODA AMPLIT PERI AZIMU VELO AIN AR TRES W  DIS CAZ7
 BAR2 EZ EP   1   2253 51.06                             174    0.32 7 15.0 194 
 BAR2 EZ ES       2254  5.91                             174   -0.0510 15.0 194 
 BRR  HZ EP       2253 52.59                             151   -0.0310 75.2 304 
 BRR  HN ES       2254  9.30                             151   -0.0210 75.2 304 
 BRR  HZ I        2254 12.14        10.9 0.29            152           75.2 304 
 RUS  HZ EP       2253 54.24                             146   -0.1710 92.2 175 
 RUS  HN ES       2254 12.57                             146    0.0810 92.2 175 
 RUS  HZ I        2254 13.61         3.8 0.54            148           92.2 175 
 ZAR  HN ES       2254 29.56                             122    0.03 8  207 294 
                                                                                
