 2012  115 2322 35.8 L   6.548 -73.584109.0  RSN  6 0.3 1.6LRSN                1
 GAP=127        0.59       7.1     5.1  9.9 -0.3825E+01  0.1487E+02  0.2000E+02E
 Epicentro: EL CARMEN DE CHUCURI - SANTANDER                                   3
 ACTION:UP  12-02-03 08:17 OP:REBC STATUS:               ID:20120115232235 L   I
 2012-01-15-2320-00M.COL___187                                                 6
 STAT SP IPHASW D HRMM SECON CODA AMPLIT PERI AZIMU VELO SNR AR TRES W  DIS CAZ7
 BAR2 SZ EP   2   2322 52.04                             156     0.2 5   45  84 
 BAR2 SZ ES   2   2323  4.16                             156    -0.2 5   45  84 
 BAR2 SZ I        2323  5.57        50.3 0.44                            45  84 
 BRR  HZ EP       2322 52.81                             147     0.310   63 347 
 BRR  HZ I        2322 52.99        14.8 0.10                            63 347 
 BRR  HN ES   2   2323  6.11                             147     0.5 5   63 347 
 GIR2 SZ EP       2322 53.38                             143     0.010   73  36 
 GIR2 SZ ES   3   2323  6.59                             143    -0.6 2   73  36 
 RUS  HZ EP   2   2322 55.55                             138     0.2 5   91 143 
 RUS  HZ I        2323 12.15         2.9 0.22                            91 143 
 PTB  HZ EP       2322 54.85                             135    -0.310   96 269 
 PTB  HN ES   3   2323  9.68                             135    -0.5 2   96 269 
 PTB  HZ I        2323 10.86         4.7 0.26                            96 269 
 PAM  SN ES   3   2323 16.09                             126    -1.0 2  131  48 
                                                                                
