 2014 1115 2254 22.2 L   6.781 -73.104142.6  RSN  5 0.2 1.7LRSN                1
 GAP=143        0.48       2.1     3.7  3.4 -0.1381E+01  0.1220E+00  0.2169E+01E
 Epicentro: LOS SANTOS - SANTANDER                                             3
 ACTION:UPD 14-12-19 15:43 OP:nd   STATUS:               ID:20141115225422 L   I
 OLDACT:REG 14-11-16 09:56 OP:carl STATUS:               ID:20141115224750     3
 2014-11-15-2247-50M.COL___292                                                 6
 STAT SP IPHASW D HRMM SECON CODA AMPLIT PERI AZIMU VELO AIN AR TRES W  DIS CAZ7
 BAR2 SZ EP       2254 41.35                             171   -0.1210 22.6 203 
 BAR2 SZ ES       2254 56.50                             171    0.0310 22.6 203 
 BAR2 SZ I        2254 57.70        16.5 0.24            170           22.6 203 
 PAM  SZ EP       2254 44.25                             151    0.2110 76.2  36 
 PAM  SN ES       2255  0.98                             151   -0.0710 76.2  36 
 PAM  SZ I        2255  6.42         4.0 0.60            153           76.2  36 
 BRR  HZ EP       2254 43.24                             150   -0.1010 76.3 298 
 BRR  HN ES       2254 59.87                             150    0.0610 76.3 298 
 BRR  HZ I        2255  4.14        10.8 0.14            151           76.3 298 
 RUS  HZ EP       2254 45.71                             144    0.2010 98.3 179 
 RUS  HN ES       2255  3.51                             144   -0.1510 98.3 179 
 RUS  HZ I        2255  4.85         8.1 0.26            145           98.3 179 
 CHI  HZ EP       2254 59.34                             116   -0.34 8  248 196 
 CHI  HN ES       2255 29.15                             116    0.27 8  248 196 
 CHI  HZ I        2255 35.91         3.2 0.50            118            248 196 
                                                                                
