 2010  815 2024 37.3 L   6.768 -73.112149.6  RSN  6 0.4 1.8LRSN                1
 GAP=163        1.03       8.4    15.1 11.9  0.6364E+02 -0.1083E+03 -0.5317E+02E
 Epicentro: LOS SANTOS - SANTANDER                                             3
 ACTION:UP  10-09-07 10:55 OP:vdl  STATUS:               ID:20100815202437 L   I
 2010-08-15-2023-07S.COL___110                                                 6
 STAT SP IPHASW D HRMM SECON CODA AMPLIT PERI AZIMU VELO SNR AR TRES W  DIS CAZ7
 BAR2 SZ EP   1   2024 57.20                             171    -0.2 7   21 202 
 BAR2 SZ ES       2025 12.68                             171    -0.310   21 202 
 BAR2 SZ I        2025 15.20        21.7 0.35                            21 202 
 GIR2 SZ EP   1   2024 57.33                             166    -0.2 7   36 345 
 BRR  HZ EP   1   2024 59.09                             151    -0.1 7   76 300 
 BRR  HE ES       2025 16.42                             151     0.210   76 300 
 BRR  HZ I        2025 18.79        12.2 0.28                            76 300 
 RUS  HZ EP   1   2025  1.09                             145    -0.1 7   97 178 
 RUS  HN ES   1   2025 20.29                             145     0.5 7   97 178 
 RUS  HZ I        2025 21.72         5.9 0.35                            97 178 
 GUE  SZ EP   1   2025  1.96                             140    -0.6 7  119  10 
 GRA  SZ EP   1   2025  4.03                             137     0.9 7  128  15 
                                                                                
