 2017  615 2331 52.7 L   6.771 -73.156145.9  RSN 12 0.3 2.0LRSN                1
 GAP=163        0.86       3.6     3.9  6.5  0.2414E+01 -0.5551E+01  0.4696E+01E
 Epicentro: LOS SANTOS - SANTANDER                                             3
 ACTION:UPD 17-09-14 16:52 OP:jn   STATUS:               ID:20170615233152 L   I
 OLDACT:UP  17-06-16 07:22 OP:edw  STATUS:               ID:20170615232731     3
 OLDACT:UP  17-06-16 07:21 OP:edw  STATUS:               ID:20170615232731     3
 OLDACT:UP  17-06-16 07:19 OP:edw  STATUS:               ID:20170615232731     3
 OLDACT:REG 17-06-16 03:32 OP:edw  STATUS:               ID:20170615232731     3
 2017-06-15-2328-00M.COL___368                                                 6
 STAT SP IPHASW D HRMM SECON CODA AMPLIT PERI AZIMU VELO AIN AR TRES W  DIS CAZ7
 BRR  HZ IP     D 2332 13.85                             152   -0.0710 71.8 301 
 BRR  HE ES       2332 30.74                             152    0.2810 71.8 301 
 BRR  HZ I        2332 33.78        38.5 0.34            151           71.8 301 
 PTB  HZ EP       2332 18.90                             132   -0.64 9  146 260 
 PTB  HE ES       2332 39.96                             132   -0.51 9  146 260 
 PTB  HZ I        2332 44.90         7.1 0.54            131            146 260 
 TAM  HZ EP   2   2332 20.37                             130   -0.07 5  155 104 
 SPBC HZ EP       2332 20.56                             129   -0.37 9  160 219 
 SPBC HN ES       2332 42.84                             129   -0.09 9  160 219 
 SPBC HZ I        2332 45.51        14.7 0.18            129            160 219 
 YPLC HZ EP       2332 22.53                             127    0.23 9  175 150 
 YPLC HE ES   4   2332 43.50                             127   -1.88 0  175 150 
 YPLC HZ I        2332 48.87        13.9 0.36            129            175 150 
 ZAR  HZ EP       2332 25.18                             122   -0.01 9  204 293 
 ZAR  HN ES       2332 50.52                             122   -0.00 9  204 293 
 ZAR  HZ I        2332 55.91        19.8 0.56            122            204 293 
 NOR  HZ EP       2332 28.40                             119    0.24 8  232 235 
 NOR  HN ES       2332 56.26                             119    0.46 8  232 235 
 NOR  HZ I        2332 57.76         6.0 0.20            119            232 235 
 CHI  HZ EP       2332 30.31                             117    0.25 8  245 195 
 CHI  HE ES       2332 59.33                             117    0.15 8  245 195 
 CHI  HZ I        2333  3.30         3.7 0.60            118            245 195 
 HEL  HZ EP       2332 32.98                             115    0.25 8  270 256 
 HEL  HE ES       2333  4.55                             115    0.61 8  270 256 
 HEL  HZ I        2333 13.04         4.0 0.20            115            270 256 
 URE  HZ EP   9   2332 31.39                             113   -2.42 0  284 293 
 URE  HN ES       2333  3.61                             113    0.17 7  284 293 
 URE  HZ I        2333 10.68         8.4 0.14            114            284 293 
 PTGC HZ EP   9   2332 35.41                             112   -0.88 0  306 158 
 PTGC HE ES       2333  8.45                             112   -0.94 7  306 158 
 PTGC HZ I        2333 11.09        10.0 0.38            113            306 158 
 CBOC HZ EP   4   2332 40.95                             110    1.55 0  332 253 
 CBOC HE ES       2333 15.40                             110   -0.42 7  332 253 
 CBOC HZ I        2333 27.76         1.9 0.60            110            332 253 
                                                                                
