 2013  115 2105 56.9 L   6.831 -73.112139.7  RSN 13 0.4 2.9LRSN 3.2WRSN        1
 SPEC AVERAGE  MO 13.9 ST  7.1 OM  2.5 f0 3.65 R0.4294 AL 2.48 WI 23.9 MW  3.2 3
 SPEC SD       MO  0.2 ST  8.4 OM  0.4 f0 1.04 R0.1202 AL      WI      MW  0.1 3
 GAP=187        0.96       2.8     4.2  4.9  0.7018E+00  0.4959E+01  0.1977E+01E
 Epicentro: LOS SANTOS - SANTANDER                                             3
 SPEC PTB HH N MO 13.7 ST  8.6 OM  2.0 f0 4.95 R0.2970 AL 2.06 WI 23.8 MW  3.1 3
 SPEC PTB HH N T21 642 K 0.000 GD  206 VS 4.20 DE 3.20 Q0300.0 QA 0.60 VS 4.20 3
 SPEC RUS HH N MO 13.7 ST  1.9 OM  2.1 f0 2.95 R0.4983 AL 2.34 WI 16.6 MW  3.1 3
 SPEC RUS HH N T21 636 K 0.000 GD  174 VS 4.20 DE 3.20 Q0300.0 QA 0.60 VS 4.20 3
 SPEC HEL HH N MO 13.7 ST  2.7 OM  1.8 f0 3.41 R0.4311 AL 2.15 WI 20.8 MW  3.1 3
 SPEC HEL HH N T21 7 5 K 0.000 GD  310 VS 4.20 DE 3.20 Q0300.0 QA 0.60 VS 4.20 3
 SPEC NOR HH N MO 14.1 ST 26.6 OM  2.3 f0 5.19 R0.2832 AL 2.99 WI 24.8 MW  3.4 3
 SPEC NOR HH N T21 659 K 0.000 GD  277 VS 4.20 DE 3.20 Q0300.0 QA 0.60 VS 4.20 3
 SPEC ANILHH N MO  0.0 ST0.000 OM  2.3 f0 2.50 R0.6226 AL 1.67 WI 29.4 MW  0.0 3
 SPEC ANILHH N T21 724 K 0.000 GD  310 VS 4.20 DE 3.20 Q0300.0 QA 0.60 VS 4.20 3
 SPEC HEL HH Z MO 13.9 ST  3.9 OM  2.0 f0 3.33 R0.4414 AL 3.11 WI 35.9 MW  3.2 3
 SPEC HEL HH Z T21 7 7 K 0.000 GD  310 VS 4.20 DE 3.20 Q0300.0 QA 0.60 VS 4.20 3
 SPEC CHI HH N MO 14.1 ST  2.3 OM  2.2 f0 2.44 R0.6025 AL 2.64 WI 24.9 MW  3.3 3
 SPEC CHI HH N T21 7 2 K 0.000 GD  289 VS 4.20 DE 3.20 Q0300.0 QA 0.60 VS 4.20 3
 SPEC BRR HH N MO 13.9 ST  3.7 OM  2.3 f0 3.25 R0.4523 AL 2.04 WI 20.8 MW  3.2 3
 SPEC BRR HH N T21 632 K 0.000 GD  157 VS 4.20 DE 3.20 Q0300.0 QA 0.60 VS 4.20 3
 ACTION:UPD 13-02-15 09:14 OP:ep   STATUS:               ID:20130115210556 L   I
 2013-01-15-2100-00M.COL___241                                                 6
 STAT SP IPHASW D HRMM SECON CODA AMPLIT PERI AZIMU VELO AIN AR TRES W  DIS CAZ7
 BAR2 SZ EP       21 6 16.00                             168    0.1210 27.5 196 
 BAR2 SZ ES       21 6 31.04                             168    0.3410 27.5 196 
 BAR2 SZ I        21 6 32.19       115.2 0.22            164           27.5 196 
 BRR  HZ IP     D 21 6 17.75                             151    0.2710 73.0 295 
 BRR  HN ES       21 6 34.19                             151    0.6310 73.0 295 
 BRR  HN I        21 6 35.09       195.8 0.20            148           73.0 295 
 RUS  HZ EP       21 6 20.06                             142   -0.2310  104 178 
 RUS  HN ES       21 6 38.48                             142   -0.0610  104 178 
 RUS  HN I        21 6 40.43       131.4 0.34            142            104 178 
 PTB  HZ EP       21 6 23.92                             130    0.15 9  152 258 
 PTB  HN ES       21 6 44.19                             130   -0.55 9  152 258 
 PTB  HN I        21 6 49.86        99.9 0.50            128            152 258 
 OCA  HZ EP       21 6 24.31                             129   -0.14 9  157 352 
 OCA  HN ES       21 6 45.31                             129   -0.64 9  157 352 
 OCA  HN I        21 6 48.80       247.2 0.26            131            157 352 
 ZAR  HZ EP       21 6 29.16                             121   -0.01 8  206 291 
 ZAR  HN ES       21 6 54.02                             121   -0.34 8  206 291 
 ZAR  HN I        21 6 59.00       106.5 0.26            121            206 291 
 CTAB SZ EP   4   21 6 33.86                             117    1.06 0  235 211 
 NOR  HZ EP       21 6 32.35                             117   -0.46 8  240 234 
 NOR  HN ES       21 7  0.50                             117   -0.34 8  240 234 
 NOR  HN I        21 7  8.07        70.8 0.16            117            240 234 
 CHI  HZ EP       21 6 34.45                             115   -0.28 8  253 196 
 CHI  HN ES       21 7  3.53                             115   -0.71 8  253 196 
 CHI  HN I        21 7  8.61        46.7 0.26            116            253 196 
 ROSC BZ EP       21 6 35.85                             115    0.63 8  258 211 
 ROSC BN ES       21 7  5.08                             115   -0.04 8  258 211 
 ROSC BZ I        21 7 12.94        51.3 0.70            115            258 211 
 HEL  HZ EP       21 6 37.89                             113    0.60 7  277 255 
 HEL  HN ES       21 7  8.99                             113    0.17 7  277 255 
 HEL  HN I        21 7 15.75        27.8 0.66            113            277 255 
 RREF HZ EP       21 6 44.24                             109    0.89 7  327 229 
 DBB  SZ EP       21 6 44.60                             108    0.08 7  343 274 
 TOL  SZ EP       21 6 45.65                             108    0.16 6  349 225 
                                                                                
