 2017  815 2026 32.2 L   6.782 -73.132141.2  RSN  8 0.2 1.9LRSN                1
 GAP=139        0.55       2.1     2.6  3.4 -0.5955E+00  0.2979E+01  0.1042E+01E
 Epicentro: LOS SANTOS - SANTANDER                                             3
 ACTION:UPD 17-09-04 20:20 OP:rebc STATUS:               ID:20170815202632 L   I
 OLDACT:UP  17-08-16 06:12 OP:dani STATUS:               ID:20170815201742     3
 OLDACT:UP  17-08-16 06:12 OP:dani STATUS:               ID:20170815201742     3
 OLDACT:UP  17-08-16 06:11 OP:dani STATUS:               ID:20170815201742     3
 OLDACT:REG 17-08-16 05:06 OP:dani STATUS:               ID:20170815201742     3
 2017-08-15-2018-00M.COL___416                                                 6
 STAT SP IPHASW D HRMM SECON CODA AMPLIT PERI AZIMU VELO AIN AR TRES W  DIS CAZ7
 BAR2 EZ ES       2027  5.86                             171   -0.2210 21.7 195 
 BRR  HZ EP       2026 52.99                             151    0.0310 73.5 299 
 BRR  HN ES       2027  9.46                             151    0.2810 73.5 299 
 BRR  HZ I        2027 13.39        20.1 0.15            150           73.5 299 
 PAM  EZ EP       2026 53.95                             150    0.0110 78.0  38 
 PAM  EE ES       2027 10.94                             150    0.0110 78.0  38 
 PAM  EZ I        2027 13.18        11.5 0.48            155           78.0  38 
 RUS  HZ EP       2026 55.17                             143   -0.1510 98.5 177 
 RUS  HN ES       2027 13.61                             143    0.2310 98.5 177 
 RUS  HZ I        2027 15.04         7.7 0.26            145           98.5 177 
 SPBC HZ EP       2027  0.12                             128   -0.15 9  163 220 
 SPBC HN ES       2027 21.89                             128   -0.29 9  163 220 
 SPBC HZ I        2027 29.77         7.7 0.19            129            163 220 
 ZAR  HZ EP       2027  4.79                             121    0.24 8  206 293 
 ZAR  HE ES       2027 29.49                             121   -0.31 8  206 293 
 ZAR  HZ I        2027 34.40        10.4 0.40            122            206 293 
 NOR  HZ EP       2027  7.42                             117   -0.22 8  235 235 
 NOR  HN ES       2027 35.62                             117    0.30 8  235 235 
 NOR  HZ I        2027 37.14         4.8 0.24            119            235 235 
 PRA  HZ EP       2027 25.70                             106    0.28 6  391 210 
 PRA  HN ES   1   2028  7.39                             106    0.44 4  391 210 
 PRA  HZ I        2028 11.35         3.9 0.74            107            391 210 
                                                                                
