 2010 1015 2355 18.8 L   6.807 -73.060150.3  RSN 17 0.6 3.7LRSN                1
 GAP=107        1.34       4.8     7.8  7.5 -0.9684E+01  0.8753E+01  0.5455E+01E
 Epicentro: LOS SANTOS - SANTANDER                                             3
 ACTION:UP  11-02-18 11:09 OP:tino STATUS:               ID:20101015235518 L   I
 2010-10-15-2351-22S.COL___125                                                 6
 STAT SP IPHASW D HRMM SECON CODA AMPLIT PERI AZIMU VELO SNR AR TRES W  DIS CAZ7
 BTL  SZ IP       2355 39.08                             170     0.010   26 298 
 BTL  SZ ES   1   2355 55.03                             170     0.2 7   26 298 
 BAR2 SZ EP       2355 38.95                             169    -0.110   27 210 
 BAR2 SZ ES   1   2355 53.77                             169    -1.1 7   27 210 
 BAR2 SZ I        2355 55.27       917.8 0.28                            27 210 
 GIR2 SZ EP       2355 39.04                             166    -0.110   34 334 
 URB  SZ EP       2355 40.48                             158     0.610   56 328 
 URB  SZ ES   2   2355 57.91                             158     1.6 5   56 328 
 BRR  HZ IP     C 2355 40.88                             150    -0.110   79 295 
 BRR  HZ I        2355 41.18      2043.3 0.39                            79 295 
 RUS  HZ EP       2355 42.92                             144    -0.210  101 181 
 RUS  HN ES   1   2356  1.20                             144    -0.8 7  101 181 
 RUS  HZ I        2356  2.93       403.6 0.42                           101 181 
 OCA  SZ EP       2355 47.33                             130    -0.2 9  161 350 
 OCA  SZ ES   2   2356 10.43                             130     0.5 5  161 350 
 OCA  SZ I        2356 15.34       541.7 0.16                           161 350 
 YOP  SZ EP       2355 49.40                             128     0.5 9  176 156 
 YOP  SN ES   2   2356 13.60                             128     1.3 4  176 156 
 NOR  SZ EP       2355 54.85                             118    -0.9 8  243 236 
 CHI  HZ EP       2355 56.88                             117    -0.3 8  252 197 
 CHI  HZ I        2355 59.78       150.1 0.76                           252 197 
 ROSC BZ EP       2355 58.48                             117     0.7 8  258 213 
 ROSC BN ES       2356 27.93                             117    -0.3 8  258 213 
 ROSC BZ I        2356 36.80       220.6 0.59                           258 213 
 CVER SZ EP   1   2356  0.15                             115     0.2 6  277 204 
 CVER SZ I        2356  1.85       275.9 1.34                           277 204 
 CVER SZ ES   2   2356 33.86                             115     1.9 4  277 204 
 HEL  HZ EP       2356  0.76                             115     0.4 7  281 256 
 HEL  HZ I        2356 37.37       224.7 0.14                           281 256 
 DBB  SZ EP   1   2356  7.53                             109     0.0 5  349 274 
 SDV  BZ EP   1   2356  7.90                             109    -0.3 5  353  49 
 SDV  BN ES   1   2356 46.28                             109    -0.4 5  353  49 
 SDV  BZ I        2356 47.83        47.9 0.36                           353  49 
 ANIL HZ EP       2356 10.12                             109     0.5 6  365 226 
 ANIL HZ I        2356 58.90       369.0 0.79                           365 226 
 PRA  HZ EP       2356 12.45                             107    -0.7 6  397 211 
 PRA  HZ I        2356 14.67       543.1 0.21                           397 211 
 PRA  HN ES   1   2356 55.10                             107    -0.4 4  397 211 
                                                                                
