 2012 1215 2000 33.1 L   6.822 -73.129143.0  RSN 13 0.5 2.5LRSN                1
 GAP=138        0.94       3.3     4.4  5.8 -0.1811E+01  0.6421E+01  0.5427E+01E
 Epicentro: LOS SANTOS - SANTANDER                                             3
 ACTION:UPD 13-01-04 14:28 OP:ep   STATUS:               ID:20121215200033 L   I
 2012-12-15-2000-00M.COL___239                                                 6
 STAT SP IPHASW D HRMM SECON CODA AMPLIT PERI AZIMU VELO AIN AR TRES W  DIS CAZ7
 BAR2 SZ IP       20 0 52.47                             169    0.0610 26.0 193 
 BAR2 SZ ES   1   20 1  7.30                             169   -0.21 7 26.0 193 
 BAR2 SZ I        20 1  8.77       115.1 0.20                          26.0 193 
 GIR2 SZ IP     C 20 0 52.42                             168    0.0710 29.3 346 
 GIR2 SZ ES   1   20 1  7.22                             168   -0.17 7 29.3 346 
 GIR2 SZ I        20 1  9.19        59.9 0.38                          29.3 346 
 BRR  HZ IP     C 20 0 54.23                             152    0.2910 71.7 296 
 BRR  HN ES   1   20 1 11.08                             152    0.86 7 71.7 296 
 BRR  HZ I        20 1 15.06        61.0 0.12                          71.7 296 
 PAM  SZ EP       20 0 55.19                             151    0.3910 74.4  40 
 PAM  SN ES   1   20 1 12.23                             151    0.47 7 74.4  40 
 PAM  SZ I        20 1 14.23        55.8 0.48                          74.4  40 
 RUS  HZ IP     C 20 0 56.51                             143   -0.2010  103 177 
 RUS  HN ES   1   20 1 15.04                             143   -0.11 7  103 177 
 RUS  HZ I        20 1 16.79        30.1 0.36                           103 177 
 PTB  HZ EP   1   20 0 59.36                             131   -0.65 7  150 258 
 PTB  HN ES   1   20 1 20.02                             131   -1.01 7  150 258 
 PTB  HZ I        20 1 25.11        44.1 0.16                           150 258 
 OCA  HZ EP   1   20 1  0.06                             129   -0.89 7  158 352 
 OCA  HN ES   1   20 1 21.94                             129   -0.77 7  158 352 
 OCA  HZ I        20 1 26.89        29.1 0.34                           158 352 
 ZAR  HZ EP   1   20 1  5.34                             122   -0.07 6  205 291 
 ZAR  HN ES   1   20 1 30.78                             122    0.14 6  205 291 
 ZAR  HZ I        20 1 36.11        53.5 0.54                           205 291 
 CHI  HZ EP       20 1 10.84                             116   -0.07 8  251 195 
 CHI  HN ES   1   20 1 39.71                             116   -0.72 6  251 195 
 CHI  HZ I        20 1 45.27        15.0 0.38                           251 195 
 ROSC BZ EP   1   20 1 11.93                             116    0.57 6  256 211 
 ROSC BN ES   1   20 1 41.40                             116    0.17 6  256 211 
 ROSC BZ I        20 1 46.42        28.8 0.45                           256 211 
 HEL  HZ EP   1   20 1 13.79                             114    0.40 6  274 255 
 HEL  HE ES   1   20 1 45.12                             114    0.27 6  274 255 
 HEL  HZ I        20 1 51.54        18.6 0.54                           274 255 
 MON  HZ EP   4   20 1 19.99                             108   -1.96 0  354 308 
 MON  HE ES   4   20 1 58.01                             108   -2.07 0  354 308 
 ANIL HZ EP   1   20 1 23.94                             108    0.84 5  360 224 
 ANIL HN ES   1   20 2  3.10                             108    0.96 5  360 224 
 ANIL HZ I        20 2 11.31        12.7 0.42                           360 224 
 PRA  HZ EP   1   20 1 26.59                             106   -0.24 4  395 210 
 PRA  HN ES   1   20 2  8.49                             106   -0.29 4  395 210 
 PRA  HZ I        20 2 15.11        18.8 0.32                           395 210 
 SJC  HN ES   4   20 2  7.38                             105   -4.21 0  408 327 
                                                                                
