 2011  415 2209 35.3 L   6.719 -73.093137.9  RSN  4 0.2 1.8LRSN                1
 GAP=183        0.48       6.0     6.9  6.3 -0.2019E+02 -0.2343E+01  0.7431E-01E
 Epicentro: JORDAN - SANTANDER                                                 3
 ACTION:UP  11-06-22 15:31 OP:REBC STATUS:               ID:20110415220935 L   I
 2011-04-15-2204-56S.COL___140                                                 6
 STAT SP IPHASW D HRMM SECON CODA AMPLIT PERI AZIMU VELO SNR AR TRES W  DIS CAZ7
 BAR2 SZ EP   2   22 9 53.62                             172    -0.2 5   17 215 
 BAR2 SZ ES   2   2210  8.29                             172    -0.1 5   17 215 
 BAR2 SZ I        2210 10.26        13.5 0.25                            17 215 
 BRR  HZ EP   2   22 9 56.00                             148    -0.2 5   81 302 
 BRR  HN ES   2   2210 12.74                             148     0.3 5   81 302 
 BRR  HZ I        2210 20.45        15.7 0.43                            81 302 
 PAM  SZ EP   1   22 9 57.30                             148     0.4 7   81  32 
 PAM  SN ES   1   2210 13.78                             148     0.0 7   81  32 
 GRA  SZ EP   1   2210  0.34                             134    -0.1 7  133  14 
 GRA  SZ ES   1   2210 19.93                             134    -0.2 7  133  14 
 GRA  SZ I        2210 20.63         9.3 0.37                           133  14 
                                                                                
