 2014 1115 2005 25.7 L   6.797 -73.126147.5  RSN 13 0.5 2.3LRSN                1
 GAP=139        1.11       4.2     4.6  6.0 -0.5065E+01  0.6587E+01  0.7800E+01E
 Epicentro: LOS SANTOS - SANTANDER                                             3
 ACTION:UPD 14-12-19 15:43 OP:nd   STATUS:               ID:20141115200525 L   I
 OLDACT:REG 14-11-16 09:51 OP:carl STATUS:               ID:20141115195749     3
 2014-11-15-1957-49M.COL___288                                                 6
 STAT SP IPHASW D HRMM SECON CODA AMPLIT PERI AZIMU VELO AIN AR TRES W  DIS CAZ7
 BAR2 SZ IP     C 20 5 45.53                             171   -0.0410 23.5 195 
 BAR2 SZ ES       20 6  0.80                             171   -0.2410 23.5 195 
 BAR2 SZ I        20 6  3.19        55.1 0.26            167           23.5 195 
 BRR  HZ EP       20 5 47.61                             152    0.4310 73.3 298 
 BRR  HN ES       20 6  4.79                             152    0.8810 73.3 298 
 BRR  HZ I        20 6  9.50        36.0 0.44            147           73.3 298 
 PAM  SZ IP     C 20 5 48.26                             151    0.2010 76.3  38 
 PAM  SN ES       20 6  5.51                             151    0.0310 76.3  38 
 PAM  SZ I        20 6  7.65        51.0 0.48            155           76.3  38 
 RUS  HZ IP     D 20 5 49.38                             144   -0.2310  100 177 
 RUS  HN ES       20 6  8.00                             144   -0.2410  100 177 
 RUS  HZ I        20 6  9.55        15.7 0.36            146            100 177 
 PTB  HZ EP       20 5 52.27                             132   -0.75 9  150 259 
 PTB  HN ES       20 6 13.51                             132   -0.81 9  150 259 
 PTB  HZ I        20 6 21.08        35.0 0.40            130            150 259 
 SPBC HZ EP       20 5 54.47                             129    0.01 9  164 220 
 SPBC HN ES       20 6 16.95                             129    0.07 9  164 220 
 SPBC HZ I        20 6 22.37        53.2 0.22            129            164 220 
 NOR  HZ EP       20 6  1.51                             119   -0.22 8  236 235 
 NOR  HN ES       20 6 29.16                             119   -0.65 8  236 235 
 NOR  HZ I        20 6 33.34        19.4 0.22            118            236 235 
 CHI  HZ EP       20 6  3.53                             117   -0.02 8  249 196 
 CHI  HN ES       20 6 33.07                             117    0.02 8  249 196 
 CHI  HZ I        20 6 41.85         7.4 0.40            118            249 196 
 HEL  HZ EP       20 6  6.24                             115   -0.02 8  274 256 
 HEL  HN ES       20 6 37.82                             115   -0.05 8  274 256 
 HEL  HZ I        20 6 44.19        13.3 0.36            115            274 256 
 MON  HZ EP   4   20 6 13.33                             109   -1.69 0  356 308 
 MON  HN ES   4   20 6 50.95                             109   -2.52 0  356 308 
 MON  HZ I        20 7  7.79         4.5 0.58            109            356 308 
 ANIL HN ES       20 6 55.64                             109    0.87 6  359 225 
 ANIL HZ I        20 7  3.84         3.2 0.32            109            359 225 
 PRA  HZ EP       20 6 19.21                             107   -0.19 6  393 210 
 PRA  HN ES       20 7  2.50                             107    1.24 6  393 210 
 PRA  HZ I        20 7  7.00        12.0 0.62            107            393 210 
 ORTC HZ EP       20 6 19.88                             106    0.05 6  396 216 
 ORTC HN ES       20 7  3.13                             106    1.11 6  396 216 
 ORTC HZ I        20 7 10.19        10.2 0.26            107            396 216 
                                                                                
