 2017 1215 2026 48.7 L   6.840 -73.154146.0  RSN 15 0.3 2.5LRSN                1
 GAP= 64        0.72       2.7     2.1  5.1  0.3486E+00  0.2761E+01  0.2764E+01E
 Epicentro: LOS SANTOS - SANTANDER                                             3
 ACTION:UPD 18-01-04 13:20 OP:rebc STATUS:               ID:20171215202648 L   I
 OLDACT:UP  17-12-16 06:39 OP:dnl  STATUS:               ID:20171215201741     3
 OLDACT:REG 17-12-16 06:23 OP:dnl  STATUS:               ID:20171215201741     3
 2017-12-15-2018-00M.COL___476                                                 6
 STAT SP IPHASW D HRMM SECON CODA AMPLIT PERI AZIMU VELO AIN AR TRES W  DIS CAZ7
 BAR2 EZ EP       2027  8.31                             169   -0.1510 27.5 187 
 BAR2 EZ I        2027 25.85        58.3 0.42            165           27.5 187 
 PAM  EZ EP       2027 11.04                             152    0.2510 74.7  42 
 PAM  EN ES       2027 28.09                             152    0.0810 74.7  42 
 PAM  EZ I        2027 30.40        37.2 0.50            158           74.7  42 
 PTB  HZ EP       2027 14.95                             132   -0.75 9  148 257 
 PTB  HE ES       2027 36.76                             132    0.01 9  148 257 
 PTB  HZ I        2027 38.61        28.2 0.14            132            148 257 
 TAM  HZ EP       2027 16.67                             130    0.07 9  157 106 
 TAM  HN ES       2027 38.21                             130   -0.14 9  157 106 
 TAM  HZ I        2027 38.85        25.0 0.34            134            157 106 
 SPBC HZ EP       2027 17.31                             129   -0.19 9  166 218 
 SPBC HE ES       2027 39.83                             129   -0.12 9  166 218 
 SPBC HZ I        2027 46.74        47.1 0.22            129            166 218 
 YPLC HZ IP     C 2027 18.84                             126   -0.10 9  181 152 
 YPLC HN ES       2027 42.86                             126    0.34 9  181 152 
 YPLC HZ I        2027 46.50        23.5 0.36            128            181 152 
 ZAR  HZ EP       2027 20.99                             123    0.07 9  202 291 
 ZAR  HE ES       2027 46.54                             123    0.50 9  202 291 
 ZAR  HZ I        2027 52.67        38.9 0.46            125            202 291 
 ROSC BZ EP   9   2027 28.91                             116    1.71 0  256 210 
 ROSC BE ES       2027 59.24                             116    0.31 8  256 210 
 ROSC BZ I        2028  5.36        26.7 0.70            117            256 210 
 URE  HZ EP       2027 28.99                             114   -0.52 7  281 291 
 URE  HE ES   4   2027 59.09                             114   -2.25 0  281 291 
 URE  HZ I        2028  3.69        19.5 0.16            116            281 291 
 DRL03HZ EP   9   2027 30.28                             114    0.45 0  284 353 
 DRL03HE ES       2028  2.64                             114    0.29 7  284 353 
 GUY2CHZ EP   4   2027 34.00                             112    1.47 0  303 234 
 GUY2CHE ES   4   2028 10.75                             112    4.04 0  303 234 
 GUY2CHZ I        2028 19.13        17.4 0.40                           303 234 
 CBOC HZ EP   2   2027 36.52                             110    0.83 3  334 251 
 CBOC HE ES       2028 12.55                             110    0.21 7  334 251 
 CBOC HZ I        2028 24.37         6.2 0.46            111            334 251 
 PRA  HZ EP       2027 42.96                             106    0.33 6  395 209 
 PRA  HE ES       2028 24.93                             106    0.24 6  395 209 
 PRA  HZ I        2028 31.23        20.0 0.42            108            395 209 
 ORTC HZ EP   2   2027 43.86                             106    0.87 3  398 216 
 ORTC HE ES   4   2028 27.53                             106    2.20 0  398 216 
 ORTC HZ I        2028 32.87        12.0 0.40            108            398 216 
 SJC  HZ EP   4   2027 42.43                             106   -1.36 0  405 327 
 SJC  HN ES   4   2028 23.31                             106   -3.44 0  405 327 
 SJC  HZ I        2028 26.59         4.2 0.58            108            405 327 
                                                                                
