 2012  815 2144  6.7 L   6.766 -73.146149.5  RSN  6 0.4 1.4LRSN                1
 GAP=138        0.72       5.2     5.3  6.6 -0.5329E+01  0.5236E+01  0.2783E+01E
 Epicentro: LOS SANTOS - SANTANDER                                             3
 ACTION:UPD 12-09-10 11:56 OP:ep   STATUS:               ID:20120815214406 L   I
 2012-08-15-2140-00M.COL___217                                                 6
 STAT SP IPHASW D HRMM SECON CODA AMPLIT PERI AZIMU VELO AIN AR TRES W  DIS CAZ7
 BAR2 SZ EP   1   2144 26.42                             172   -0.27 7 19.6 192 
 BAR2 SZ ES   1   2144 42.04                             172   -0.27 7 19.6 192 
 BAR2 SZ I        2144 43.37         8.2 0.10                          19.6 192 
 GIR2 SZ EP   1   2144 27.07                             166    0.17 7 35.0 351 
 GIR2 SZ ES   1   2144 42.77                             166    0.10 7 35.0 351 
 BRR  HZ EP   2   2144 29.17                             153    0.84 5 73.0 301 
 BRR  HZ I        2144 30.20         9.5 0.09                          73.0 301 
 BRR  HN ES   2   2144 46.21                             153    0.98 5 73.0 301 
 PAM  SZ EP   1   2144 29.55                             151    0.08 7 80.4  38 
 PAM  SN ES   1   2144 46.86                             151   -0.39 7 80.4  38 
 PAM  SZ I        2144 47.88         4.4 0.17                          80.4  38 
 RUS  HZ EP   1   2144 30.54                             146    0.00 7 96.9 176 
 RUS  HN ES   1   2144 49.53                             146    0.38 7 96.9 176 
 RUS  HZ I        2144 50.82         1.6 0.19                          96.9 176 
 PTB  HZ EP   1   2144 33.61                             133   -0.28 7  147 260 
 PTB  HN ES   1   2144 54.69                             133   -0.42 7  147 260 
                                                                                
