 2017  515 2233 29.3 L   6.767 -73.156147.3  RSN  8 0.4 2.2LRSN                1
 GAP=181        0.98       5.1     4.5  7.2 -0.9285E+01  0.3060E+01  0.1148E+02E
 Epicentro: LOS SANTOS - SANTANDER                                             3
 ACTION:UPD 17-06-16 13:36 OP:jn   STATUS:               ID:20170515223329 L   I
 OLDACT:REG 17-05-16 04:06 OP:osc  STATUS:               ID:20170515222729     3
 2017-05-15-2228-00M.COL___355                                                 6
 STAT SP IPHASW D HRMM SECON CODA AMPLIT PERI AZIMU VELO AIN AR TRES W  DIS CAZ7
 BRR  HZ IP     C 2233 50.94                             153    0.2310 72.1 302 
 BRR  HE ES       2234  8.14                             153    0.7710 72.1 302 
 BRR  HZ I        2234 10.64        33.3 0.10            151           72.1 302 
 PAM  EZ IP       2233 51.92                             150   -0.0210 81.0  38 
 PAM  EN ES       2234  9.20                             150   -0.3610 81.0  38 
 PAM  EZ I        2234 11.70        20.2 0.46            153           81.0  38 
 PTB  HZ EP       2233 55.93                             133   -0.34 9  146 260 
 PTB  HN ES       2234 16.73                             133   -0.55 9  146 260 
 PTB  HZ I        2234 21.82        15.7 0.18            134            146 260 
 SPBC HZ EP       2233 57.75                             130    0.13 9  160 220 
 SPBC HN ES       2234 19.53                             130   -0.15 9  160 220 
 ZAR  HZ EP       2234  1.51                             123   -0.42 9  204 293 
 ZAR  HE ES       2234 27.43                             123    0.09 9  204 293 
 ZAR  HZ I        2234 33.30        27.3 0.30            124            204 293 
 NOR  HZ EP       2234  5.05                             119    0.22 8  232 235 
 NOR  HE ES       2234 32.59                             119    0.07 8  232 235 
 NOR  HZ I        2234 38.25        14.2 0.14            121            232 235 
 HEL  HZ EP       2234 10.06                             115    0.65 8  270 257 
 HEL  HE ES       2234 40.43                             115   -0.24 8  270 257 
 SJC  HZ EP   9   2234 23.53                             106   -1.71 0  412 327 
 SJC  HN ES       2235  6.14                                   -1.00 6  412 327 
                                                                                
