 2015  315 2159 14.4 L   6.776 -73.146152.5  RSN  4 0.6 1.4LRSN                1
 GAP=138        1.48       8.4     8.0 12.9 -0.7719E+01  0.8303E+01  0.1330E+02E
 Epicentro: LOS SANTOS - SANTANDER                                             3
 ACTION:UPD 15-04-30 16:26 OP:nd   STATUS:               ID:20150315215914 L   I
 OLDACT:DUP 15-03-16 08:18 OP:carl STATUS:               ID:20150315215748d    3
 2015-03-15-2157-47M.COL___263                                                 6
 STAT SP IPHASW D HRMM SECON CODA AMPLIT PERI AZIMU VELO AIN AR TRES W  DIS CAZ7
 BRR  HZ EP       2159 36.65                             153    0.3410 72.5 300 
 BRR  HN ES       2159 54.38                             153    0.9410 72.5 300 
 BRR  HZ I        2159 57.99         8.6 0.38            155           72.5 300 
 PAM  SZ EP       2159 37.58                             151    0.1610 79.5  38 
 PAM  SN ES       2159 54.64                             151   -0.7710 79.5  38 
 RUS  HZ EP       2159 39.09                             146    0.4910 97.9 176 
 RUS  HE ES       2159 57.44                             146   -0.0610 97.9 176 
 RUS  HZ I        22 0  1.05         2.2 0.32            148           97.9 176 
 PTB  HZ EP       2159 41.26                             134   -0.58 9  147 260 
 PTB  HN ES       22 0  2.59                             134   -0.68 9  147 260 
 PTB  HZ I        22 0  4.70         3.3 0.10            136            147 260 
                                                                                
