 2013  415 2009 26.6 L   6.760 -73.165143.8  RSN  6 0.3 1.6LRSN                1
 GAP=136        0.68       4.3     3.8  5.3 -0.2589E+01  0.1907E+01  0.2374E+01E
 Epicentro: LOS SANTOS - SANTANDER                                             3
 ACTION:UPD 13-05-22 14:38 OP:EP   STATUS:               ID:20130415200926 L   I
 2013-04-15-2007-50M.COL___211                                                 6
 STAT SP IPHASW D HRMM SECON CODA AMPLIT PERI AZIMU VELO AIN AR TRES W  DIS CAZ7
 BAR2 SZ ES   1   2010  0.88                             172   -0.09 7 18.6 186 
 BAR2 SZ I        2010  1.88        17.9 0.36            173           18.6 186 
 GIR2 SZ EP   1   20 9 46.38                             165    0.21 7 35.4 355 
 GIR2 SZ ES   1   2010  1.61                             165    0.19 7 35.4 355 
 GIR2 SZ I        2010  3.21         7.5 0.40            166           35.4 355 
 BRR  HZ EP       20 9 47.86                             152    0.2910 71.6 302 
 BRR  HN ES   1   2010  4.38                             152    0.46 7 71.6 302 
 BRR  HZ I        2010  7.59        12.0 0.52            152           71.6 302 
 PAM  SZ EP       20 9 48.87                             149   -0.0510 82.2  39 
 PAM  SE ES   1   2010  5.75                             149   -0.56 7 82.2  39 
 PAM  SZ I        2010  7.93         7.0 0.48            152           82.2  39 
 RUS  HZ EP       20 9 50.06                             145    0.2010 96.3 175 
 RUS  HN ES   1   2010  8.02                             145    0.02 7 96.3 175 
 RUS  HZ I        2010  9.72         3.9 0.34            147           96.3 175 
 PTB  HZ EP       20 9 52.80                             132   -0.35 9  145 260 
 PTB  HN ES       2010 13.56                             132   -0.29 9  145 260 
 PTB  HZ I        2010 16.23         5.4 0.16            134            145 260 
                                                                                
