 2014  815 2032  6.7 L   6.763 -73.054148.4  RSN  9 0.4 1.9LRSN                1
 GAP=150        0.90       3.8     5.0  5.4 -0.7281E+01  0.6115E+01  0.5407E+01E
 Epicentro: LOS SANTOS - SANTANDER                                             3
 ACTION:UPD 14-09-15 21:50 OP:nd   STATUS:               ID:20140815203206 L   I
 OLDACT:REG 14-08-16 03:45 OP:carl STATUS:               ID:20140815202818     3
 2014-08-15-2028-18M.COL___269                                                 6
 STAT SP IPHASW D HRMM SECON CODA AMPLIT PERI AZIMU VELO AIN AR TRES W  DIS CAZ7
 BAR2 SZ EP       2032 26.25                             171   -0.3510 23.6 217 
 BAR2 SZ ES       2032 41.75                             171   -0.4210 23.6 217 
 BAR2 SZ I        2032 43.23        25.5 0.28            167           23.6 217 
 PAM  SZ EP       2032 29.46                             152    0.4610 74.8  32 
 PAM  SN ES       2032 46.56                             152    0.1310 74.8  32 
 PAM  SZ I        2032 48.72         9.3 0.22            157           74.8  32 
 BRR  HZ EP       2032 28.51                             149   -0.2110 82.0 298 
 BRR  HN ES       2032 45.96                             149    0.0210 82.0 298 
 BRR  HZ I        2032 49.27        10.8 0.50            150           82.0 298 
 RUS  HZ EP       2032 30.40                             145    0.0410 96.3 182 
 RUS  HN ES       2032 49.26                             145    0.4010 96.3 182 
 RUS  HZ I        2032 52.43         5.1 0.18            146           96.3 182 
 PTB  HZ EP   4   2032 33.45                             131   -1.23 0  157 261 
 PTB  HN ES   4   2032 54.60                             131   -1.93 0  157 261 
 PTB  HZ I        2033  0.49        12.9 0.40            132            157 261 
 SPBC HZ EP       2032 35.29                             129   -0.39 9  167 223 
 SPBC HN ES       2032 58.27                             129   -0.06 9  167 223 
 SPBC HZ I        2033  4.65        18.4 0.32            130            167 223 
 CHI  HZ EP       2032 44.52                             118    0.14 8  248 198 
 CHI  HN ES       2033 13.56                             118   -0.25 8  248 198 
 CHI  HZ I        2033 19.82         3.9 0.30            120            248 198 
 GUY2CHZ EP       2032 51.63                             112    0.57 7  307 236 
 GUY2CHN ES       2033 26.59                             112    0.89 7  307 236 
 GUY2CHZ I        2033 33.37         7.6 0.80                           307 236 
 RREF HZ EP       2032 52.77                             111   -0.72 7  327 231 
 RREF HN ES       2033 29.99                             111   -0.04 7  327 231 
 RREF HZ I        2033 33.42         5.6 0.26            113            327 231 
                                                                                
