 2015  415 2335 43.6 L   6.814 -73.216150.7  RSN  5 0.5 1.7LRSN                1
 GAP=195        1.17       7.6    10.6  8.7  0.5606E+02 -0.4833E+01 -0.2060E+02E
 Epicentro: ZAPATOCA - SANTANDER                                               3
 ACTION:UPD 15-06-03 16:55 OP:cam  STATUS:               ID:20150415233543 L   I
 OLDACT:UP  15-04-16 06:56 OP:mh   STATUS:               ID:20150415232749d    3
 OLDACT:DUP 15-04-16 06:56 OP:mh   STATUS:               ID:20150415232749d    3
 2015-04-15-2327-48M.COL___275                                                 6
 STAT SP IPHASW D HRMM SECON CODA AMPLIT PERI AZIMU VELO AIN AR TRES W  DIS CAZ7
 BAR2 EZ EP       2336  4.05                             170    0.2410 24.8 171 
 BAR2 EZ ES       2336 19.35                             170   -0.2610 24.8 171 
 BAR2 EZ I        2336 20.65        11.9 0.13            174           24.8 171 
 BRR  HZ EP       2336  5.54                             156    0.6910 63.7 301 
 BRR  HN ES       2336 21.89                             156    0.4310 63.7 301 
 BRR  HZ I        2336 42.62        11.4 0.34            154           63.7 301 
 RUS  HZ EP       2336  8.14                             144    0.1710  103 172 
 RUS  HN ES       2336 26.52                             144   -0.4810  103 172 
 RUS  HZ I        2336 27.54         5.8 0.24            155            103 172 
 ZAR  HZ EP       2336 14.79                             125   -0.76 9  196 293 
 ZAR  HN ES       2336 40.57                             125    0.08 9  196 293 
 SML  HZ EP       2336 20.29                             119    0.31 8  239 337 
 SML  HN ES       2336 47.62                             119   -0.76 8  239 337 
 SML  HZ I        2336 52.82         4.7 0.10            124            239 337 
                                                                                
