 2010  215 2233  5.4 L   6.806 -73.008148.5  RSN 10 0.5 2.9LRSN                1
 GAP=150        0.85       4.3     7.7  6.3 -0.1474E+02  0.7913E+01  0.3116E+01E
 Epicentro: CEPITA - SANTANDER                                                 3
 ACTION:UP  10-08-24 09:49 OP:vdl  STATUS:               ID:20100215223305 L   I
 2010-02-15-2231-26S.COL___094                                                 6
 STAT SP IPHASW D HRMM SECON CODA AMPLIT PERI AZIMU VELO SNR AR TRES W  DIS CAZ7
 BAR2 SZ IP       2233 25.66                             168     0.110   31 219 
 BAR2 SZ ES   1   2233 40.80                             168    -0.5 7   31 219 
 GIR2 SZ EP       2233 25.71                             166     0.110   36 326 
 GIR2 SZ ES   1   2233 41.76                             166     0.5 7   36 326 
 OCA  SZ EP       2233 33.93                             130    -0.2 9  162 348 
 OCA  SZ ES   1   2233 56.15                             130    -0.4 7  162 348 
 CHI  HZ EP   1   2233 43.53                             117    -0.3 6  254 198 
 CHI  HE ES   1   2234 13.92                             117     0.1 6  254 198 
 CHI  HZ I        2234 23.08        15.7 0.37                           254 198 
 HEL  HZ EP   1   2233 47.53                             114     0.1 6  287 256 
 HEL  HN ES   2   2234 21.06                             114     0.9 4  287 256 
 RREF BZ EP   2   2233 54.04                             111     1.0 3  334 231 
 RREF BE ES   1   2234 30.95                             111     0.7 5  334 231 
 RREF BZ I        2234 35.32        32.2 0.27                           334 231 
 SDV  BZ EP   1   2233 55.02                             109     0.8 5  348  49 
 DBB  SZ EP   1   2233 53.90                             109    -0.9 5  355 274 
 ANIL BN ES   3   2234 36.52                             108    -0.1 2  369 226 
 ANIL BZ I        2234 47.26        68.8 0.32                           369 226 
 PRA  HZ EP   1   2233 59.36                             107    -0.7 4  400 211 
 PRA  HE ES   1   2234 41.66                             107    -0.9 4  400 211 
 PRA  HZ I        2234 45.62        23.9 0.70                           400 211 
                                                                                
