 2013  815 2143 31.4 L   6.800 -73.153147.8  RSN 10 0.4 2.2LRSN                1
 GAP=136        0.87       2.9     3.7  6.5 -0.6979E+00  0.5451E+01 -0.3363E+01E
 Epicentro: LOS SANTOS - SANTANDER                                             3
 ACTION:UPD 14-01-14 09:03 OP:ep   STATUS:               ID:20130815214331 L   I
 OLDACT:REG 13-08-16 03:33 OP:carl STATUS:               ID:20130815213959     3
 2013-08-15-2139-59M.COL___269                                                 6
 STAT SP IPHASW D HRMM SECON CODA AMPLIT PERI AZIMU VELO AIN AR TRES W  DIS CAZ7
 BAR2 SZ EP   1   2143 51.31                             171    0.01 7 23.2 188 
 BAR2 SZ ES   1   2144  6.35                             171   -0.45 7 23.2 188 
 BAR2 SZ I        2144  7.77        26.0 0.42            169           23.2 188 
 BRR  HZ EP   1   2143 53.30                             153    0.54 7 70.5 299 
 BRR  HN ES   1   2144 10.18                             153    0.78 7 70.5 299 
 BRR  HN I        2144 10.60        52.8 0.30            150           70.5 299 
 PAM  SZ EP       2143 54.22                             151    0.3310 77.9  40 
 PAM  SN ES   1   2144 11.35                             151   -0.06 7 77.9  40 
 PAM  SZ I        2144 13.35        29.0 0.54            153           77.9  40 
 RUS  HZ EP       2143 55.26                             144   -0.1210  101 176 
 RUS  HN ES       2144 13.97                             144   -0.1010  101 176 
 RUS  HZ I        2144 14.76         8.7 0.34            144            101 176 
 PTB  HZ EP       2143 58.26                             133   -0.23 9  147 259 
 PTB  HN ES       2144 18.96                             133   -0.64 9  147 259 
 PTB  HZ I        2144 21.33         9.0 0.18            130            147 259 
 SPBC HN ES       2144 22.62                             130    0.27 9  163 219 
 SPBC HN I        2144 29.52        34.2 0.12            128            163 219 
 ZAR  HZ EP   1   2144  4.12                             123    0.19 6  203 292 
 ZAR  HN ES       2144 29.12                             123   -0.16 9  203 292 
 ZAR  HZ I        2144 36.34        13.1 0.44            121            203 292 
 NOR  HE ES       2144 35.69                             119    0.58 8  234 234 
 NOR  HE I        2144 40.40        17.7 0.22            118            234 234 
 SML  HZ EP   1   2144  7.45                             118   -0.68 6  243 335 
 SML  HE ES       2144 36.75                             118   -0.01 8  243 335 
 SML  HZ I        2144 43.66        22.6 0.10            117            243 335 
 CHI  HN ES   1   2144 38.36                             118   -0.33 6  248 195 
 CHI  HN I        2144 44.39        14.6 0.80            117            248 195 
                                                                                
