 2011 1015 2149  6.6 L   6.794 -73.118150.0  RSN  7 0.4 1.8LRSN                1
 GAP=140        0.84       4.1     5.3  7.0 -0.1833E+01  0.1166E+02 -0.1298E+01E
 Epicentro: LOS SANTOS - SANTANDER                                             3
 ACTION:UPD 12-07-13 16:04 OP:ep   STATUS:               ID:20111015214906 L   I
 2011-10-15-2146-43S.COL___168                                                 6
 STAT SP IPHASW D HRMM SECON CODA AMPLIT PERI AZIMU VELO AIN AR TRES W  DIS CAZ7
 BAR2 SZ EP   1   2149 26.67                             171   -0.02 7 23.4 198 
 BAR2 SZ ES   1   2149 41.77                             171   -0.63 7 23.4 198 
 BAR2 SZ I        2149 43.55        27.2 0.22                          23.4 198 
 BRR  HZ EP       2149 28.70                             152    0.3710 74.2 298 
 BRR  HZ I        2149 28.93        24.4 0.12                          74.2 298 
 BRR  HN ES   1   2149 46.10                             152    0.79 7 74.2 298 
 PAM  SZ EP   1   2149 29.65                             152    0.51 7 76.0  37 
 PAM  SN ES   1   2149 46.73                             152   -0.03 7 76.0  37 
 PAM  SZ I        2149 49.73         3.5 0.28                          76.0  37 
 RUS  HZ EP   1   2149 30.83                             145    0.17 7 99.7 178 
 RUS  HN ES   1   2149 49.18                             145   -0.28 7 99.7 178 
 RUS  HZ I        2149 50.45         6.0 0.20                          99.7 178 
 OCA  SZ EP   1   2149 34.63                             130   -0.66 7  161 352 
 OCA  SZ ES   1   2149 57.51                             130   -0.20 7  161 352 
 ZAR  HZ EP   1   2149 39.37                             123   -0.22 6  207 292 
 ZAR  HN ES   1   2150  4.83                             123   -0.53 6  207 292 
 ZAR  HZ I        2150  9.82         8.5 0.18                           207 292 
 NOR  SZ EP   1   2149 42.65                             119   -0.10 6  237 235 
 NOR  SN ES   1   2150 11.21                             119    0.23 6  237 235 
                                                                                
