 2010  315 2126 40.1 L   6.841 -72.944145.6  RSN  6 0.3 1.6LRSN                1
 GAP=259        0.50       4.0     6.0  6.2 -0.3763E-02  0.6085E+01  0.4989E+01E
 Epicentro: CEPITA - SANTANDER                                                 3
 ACTION:UP  10-08-24 09:54 OP:vdl  STATUS:               ID:20100315212640 L   I
 2010-03-15-2124-21S.COL___095                                                 6
 STAT SP IPHASW D HRMM SECON CODA AMPLIT PERI AZIMU VELO SNR AR TRES W  DIS CAZ7
 BAR2 SZ EP       2127  0.27                             165     0.210   38 224 
 BAR2 SZ ES   2   2127 15.71                             165     0.1 5   38 224 
 BRR  HZ EP   1   2127  2.10                             147    -0.2 7   90 289 
 BRR  HN ES   2   2127 19.43                             147    -0.3 5   90 289 
 RUS  HZ EP       2127  4.25                             142     0.110  106 188 
 RUS  HN ES   1   2127 22.92                             142    -0.1 7  106 188 
 RUS  HZ I        2127 23.54         4.2 0.15                           106 188 
 CHI  HZ EP   2   2127 18.50                             116    -0.4 4  260 200 
 CHI  HN ES   2   2127 48.73                             116    -0.5 4  260 200 
 CHI  HZ I        2127 53.57         2.2 0.76                           260 200 
 RREF BN ES   1   2128  6.67                             109     0.4 5  342 231 
 RREF BZ I        2128  8.42         3.0 0.26                           342 231 
 PRA  HN ES   1   2128 18.40                             106    -0.1 4  407 212 
                                                                                
