 2016  415 2308  1.1 L   6.794 -73.170142.0  RSN 11 0.4 2.0LRSN                1
 GAP=134        0.78       3.3     3.4  5.9 -0.2651E+01  0.8420E+01 -0.8977E+00E
 Epicentro: LOS SANTOS - SANTANDER                                             3
 ACTION:UPD 16-05-05 14:21 OP:rebc STATUS:               ID:20160415230801 L   I
 OLDACT:REG 16-04-16 05:28 OP:dnl  STATUS:               ID:20160415225747     3
 2016-04-15-2257-47M.COL___319                                                 6
 STAT SP IPHASW D HRMM SECON CODA AMPLIT PERI AZIMU VELO AIN AR TRES W  DIS CAZ7
 BAR2 EZ EP       23 8 20.15                             171   -0.1410 22.3 184 
 BAR2 EZ ES   2   23 8 34.25                             171   -0.98 5 22.3 184 
 BAR2 EZ I        23 8 36.44        13.1 0.14            170           22.3 184 
 PAM  EZ EP       23 8 22.98                             150   -0.1110 79.6  41 
 PAM  EN ES       23 8 40.52                             150    0.3110 79.6  41 
 PAM  EZ I        23 8 42.49        19.9 0.60            155           79.6  41 
 RUS  HZ EP   2   23 8 24.13                             144   -0.35 5  100 175 
 RUS  HN ES       23 8 43.07                             144    0.3810  100 175 
 RUS  HZ I        23 8 44.33        14.9 0.42            147            100 175 
 PTB  HZ EP       23 8 26.93                             132   -0.62 9  145 259 
 PTB  HN ES       23 8 48.19                             132    0.04 9  145 259 
 PTB  HZ I        23 8 51.34        13.5 0.14            132            145 259 
 SPBC HZ EP       23 8 29.13                             129   -0.01 9  161 218 
 SPBC HN ES       23 8 51.29                             129    0.31 9  161 218 
 SPBC HZ I        23 8 53.56        15.3 0.11            131            161 218 
 ZAR  HZ EP       23 8 33.15                             122    0.04 9  202 293 
 ZAR  HE ES       23 8 58.37                             122    0.32 9  202 293 
 ZAR  HZ I        23 9  4.79        13.7 0.24            123            202 293 
 NOR  HZ EP       23 8 36.08                             118   -0.29 8  232 234 
 NOR  HN ES       23 9  3.85                             118   -0.00 8  232 234 
 NOR  HZ I        23 9 11.16         8.1 0.20            120            232 234 
 CHI  HZ EP   2   23 8 38.15                             117   -0.33 4  247 195 
 CHI  HN ES   2   23 9  6.94                             117   -0.66 4  247 195 
 HEL  HZ EP   2   23 8 41.63                             115    0.78 4  269 256 
 HEL  HE ES   2   23 9 10.95                             115   -0.88 4  269 256 
 HEL  HZ I        23 9 19.36         6.2 0.46            116            269 256 
 URE  HZ EP   4   23 8 40.38                             113   -1.40 0  282 292 
 URE  HE ES   4   23 9 10.92                             113   -2.56 0  282 292 
 URE  HZ I        23 9 13.52         6.9 0.12            115            282 292 
 GUY2CHZ EP   2   23 8 45.14                             112    0.86 4  299 235 
 GUY2CHN ES   2   23 9 18.89                             112    0.96 4  299 235 
 GUY2CHZ I        23 9 26.92         5.3 0.28                           299 235 
 SOCV BZ EP   4   23 8 41.73                             112   -2.58 0  304  57 
 SOCV BN ES   4   23 9 14.57                             112   -3.41 0  304  57 
                                                                                
