 2011  415 2352  2.9 L   6.766 -73.106150.2  RSN  8 0.2 2.1LRSN                1
 GAP=169        0.49       4.5     4.8  3.6 -0.1423E+02  0.1345E+01  0.3984E+00E
 Epicentro: LOS SANTOS - SANTANDER                                             3
 ACTION:UP  11-06-22 15:31 OP:REBC STATUS:               ID:20110415235202 L   I
 2011-04-15-2350-39S.COL___140                                                 6
 STAT SP IPHASW D HRMM SECON CODA AMPLIT PERI AZIMU VELO SNR AR TRES W  DIS CAZ7
 BAR2 SZ EP   1   2352 23.09                             172     0.0 7   21 204 
 BAR2 SZ ES   1   2352 38.51                             172    -0.2 7   21 204 
 BAR2 SZ I        2352 39.83        36.5 0.15                            21 204 
 BTL  SZ EP   1   2352 23.39                             170     0.3 7   25 313 
 BTL  SZ ES   1   2352 38.89                             170     0.0 7   25 313 
 GIR2 SZ EP   1   2352 23.15                             166    -0.1 7   36 344 
 GIR2 SZ ES   2   2352 39.31                             166     0.2 5   36 344 
 BRR  HZ EP   1   2352 24.95                             151     0.1 7   77 299 
 BRR  HZ I        2352 25.18        53.5 0.15                            77 299 
 BRR  HN ES   1   2352 42.16                             151     0.2 7   77 299 
 PAM  SZ EP   1   2352 25.99                             151     0.4 7   78  35 
 PAM  SZ I        2352 26.14        10.0 0.16                            78  35 
 PAM  SN ES   1   2352 43.06                             151    -0.3 7   78  35 
 GRA  SZ EP   1   2352 28.86                             137     0.1 7  128  15 
 GRA  SZ I        2352 30.00        14.2 0.33                           128  15 
 GRA  SZ ES   2   2352 48.89                             137     0.0 5  128  15 
 OCA  SZ EP   1   2352 31.58                             130    -0.4 7  165 352 
 OCA  SZ I        2352 56.47         7.3 0.24                           165 352 
 NOR  SZ EP   1   2352 38.98                             119    -0.1 6  236 236 
 NOR  SN ES   1   2353  7.15                             119    -0.1 6  236 236 
                                                                                
