 2011  715 2040 40.8 L   6.020 -73.746109.4  RSN  4 0.1 1.5LRSN                1
 GAP=147        0.31       2.2     2.5  5.8 -0.2713E+00  0.7014E+01  0.2791E+00E
 Epicentro: BOLIVAR - SANTANDER                                                3
 ACTION:UPD 12-07-25 14:01 OP:epov STATUS:               ID:20110715204040 L   I
 2011-07-15-2039-15S.COL___132                                                 6
 STAT SP IPHASW D HRMM SECON CODA AMPLIT PERI AZIMU VELO AIN AR TRES W  DIS CAZ7
 RUS  HZ EP   1   2040 59.22                             143    0.08 7 74.7 101 
 RUS  HZ I        2040 59.57         2.9 0.09                          74.7 101 
 RUS  HN ES   1   2041 13.39                             143   -0.02 7 74.7 101 
 BAR2 SZ EP   2   2040 59.99                             138    0.12 5 88.8  45 
 BAR2 SZ ES   2   2041 14.53                             138   -0.19 5 88.8  45 
 BAR2 SZ I        2041 16.76        20.1 0.35                          88.8  45 
 BRR  HZ EP   2   2041  2.24                             128   -0.11 5  120   2 
 BRR  HN ES   1   2041 19.20                             128    0.07 7  120   2 
 BRR  HZ I        2041 20.83         7.8 0.40                           120   2 
 NOR  SZ EP   2   2041  3.59                             125   -0.20 5  134 248 
 NOR  SE ES   2   2041 21.78                             125    0.08 5  134 248 
                                                                                
