 2017  915 2352 22.5 L   6.811 -73.098152.9  RSN 17 0.8 2.3LRSN                1
 GAP=116        1.54       4.6     5.0  7.3  0.5423E+01  0.1043E+02  0.6413E+01E
 Epicentro: LOS SANTOS - SANTANDER                                             3
 ACTION:UPD 17-10-05 19:12 OP:rebc STATUS:               ID:20170915235222 L   I
 OLDACT:UP  17-09-16 07:00 OP:dani STATUS:               ID:20170915234744     3
 OLDACT:UP  17-09-16 06:59 OP:dani STATUS:               ID:20170915234744     3
 OLDACT:REG 17-09-16 06:16 OP:dani STATUS:               ID:20170915234744     3
 2017-09-15-2348-00M.COL___459                                                 6
 STAT SP IPHASW D HRMM SECON CODA AMPLIT PERI AZIMU VELO AIN AR TRES W  DIS CAZ7
 BAR2 EZ EP       2352 43.01                             170    0.0210 25.9 201 
 BAR2 EZ ES       2352 58.90                             170   -0.1010 25.9 201 
 BAR2 EZ I        2352 59.26        34.8 0.30            166           25.9 201 
 PAM  EZ EP       2352 45.70                             153    0.5110 73.2  37 
 PAM  EN ES       2353  2.75                             153   -0.1810 73.2  37 
 PAM  EZ I        2353  5.04        58.1 0.72            158           73.2  37 
 BRR  HZ EP       2352 45.02                             152    0.4210 75.3 296 
 BRR  HE ES       2353  1.84                             152   -0.0310 75.3 296 
 RUS  HZ EP       2352 46.91                             145   -0.0610  102 179 
 RUS  HN ES       2353  5.88                             145   -0.2210  102 179 
 RUS  HZ I        2353  6.95        17.6 0.34            144            102 179 
 SPBC HZ EP       2352 51.98                             130    0.08 9  167 220 
 SPBC HN ES       2353 14.36                             130   -0.51 9  167 220 
 SPBC HZ I        2353 18.38        25.9 0.10            129            167 220 
 YPLC HZ EP       2352 53.16                             128    0.52 9  175 153 
 YPLC HE ES       2353 17.40                             128    1.22 9  175 153 
 YPLC HZ I        2353 19.24        26.1 0.28            129            175 153 
 ZAR  HZ EP       2352 55.34                             123   -0.48 8  208 291 
 ZAR  HE ES       2353 21.47                             123   -0.37 8  208 291 
 ZAR  HZ I        2353 27.13        44.1 0.42            123            208 291 
 NOR  HZ EP   3   2352 57.65                             119   -1.48 2  240 235 
 NOR  HN ES       2353 28.02                             119    0.29 8  240 235 
 NOR  HZ I        2353 33.38         7.9 0.18            119            240 235 
 CHI  HZ EP       2353  1.28                             118    0.45 8  251 196 
 CHI  HN ES       2353 30.41                             118   -0.35 8  251 196 
 CHI  HZ I        2353 38.72         5.8 0.19            118            251 196 
 HEL  HZ EP       2353  5.42                             116    1.80 7  277 256 
 HEL  HN ES       2353 36.52                             116    0.78 7  277 256 
 HEL  HZ I        2353 43.26         9.9 0.36            115            277 256 
 URE  HZ EP       2353  3.08                             114   -1.28 7  288 291 
 URE  HN ES   4   2353 34.20                             114   -2.86 0  288 291 
 URE  HZ I        2353 37.07        28.7 0.14            115            288 291 
 GUY2CHZ EP   3   2353  8.35                             113    1.40 2  306 235 
 GUY2CHN ES   4   2353 44.85                             113    3.19 0  306 235 
 GUY2CHZ I        2353 50.24        10.7 0.48                           306 235 
 PTGC HZ EP       2353  5.97                             113   -0.58 7  308 160 
 PTGC HN ES       2353 38.57                             113   -2.38 7  308 160 
 PTGC HZ I        2353 40.01        12.2 0.40            114            308 160 
 CBOC HZ EP   3   2353 11.56                             111    1.28 2  339 252 
 CBOC HN ES   3   2353 46.32                             111   -1.26 2  339 252 
 CBOC HZ I        2354  1.30         3.1 0.50            111            339 252 
 DBB  EZ EP       2353 10.50                             110   -0.31 7  345 274 
 DBB  EE ES       2353 48.49                             110   -0.04 7  345 274 
 DBB  EZ I        2353 49.80         4.9 0.14            111            345 274 
 PRA  HZ EP       2353 17.58                             107    0.93 6  396 210 
 PRA  HN ES       2353 58.64                             107   -0.28 6  396 210 
 PRA  HZ I        2354  3.18         9.0 0.28            108            396 210 
 SJC  HZ EP       2353 17.25                             107   -1.22 6  411 326 
 SJC  HN ES   4   2353 58.65                             107   -3.52 0  411 326 
 SJC  HZ I        2354  3.03         4.6 0.44            107            411 326 
                                                                                
