 2017  115 2209  3.8 L   6.796 -73.151141.7  RSN  9 0.5 1.3LRSN                1
 GAP=136        1.18       4.5     5.0  7.0  0.1499E+01  0.6882E+01  0.3924E+01E
 Epicentro: LOS SANTOS - SANTANDER                                             3
 ACTION:UPD 17-05-22 16:00 OP:jn   STATUS:               ID:20170115220903 L   I
 OLDACT:REG 17-01-16 04:04 OP:lv   STATUS:               ID:20170115220746     3
 2017-01-15-2208-00M.COL___338                                                 6
 STAT SP IPHASW D HRMM SECON CODA AMPLIT PERI AZIMU VELO AIN AR TRES W  DIS CAZ7
 BAR2 EZ ES       22 9 37.25                             170   -0.5910 22.8 189 
 BAR2 EZ I        22 9 39.07         7.9 0.26            167           22.8 189 
 BRR  HZ EP       22 9 24.57                             152    0.0910 70.8 299 
 BRR  HN ES       22 9 41.40                             152    0.7810 70.8 299 
 PAM  EZ EP       22 9 25.46                             150   -0.1610 78.1  40 
 PAM  EN ES       22 9 42.74                             150    0.1010 78.1  40 
 RUS  HZ EP       22 9 26.90                             143   -0.2110  100 176 
 RUS  HN ES       22 9 45.52                             143    0.2110  100 176 
 RUS  HZ I        22 9 47.17         2.5 0.34            142            100 176 
 PTB  HZ EP       22 9 29.53                             131   -0.83 9  147 259 
 PTB  HN ES       22 9 50.74                             131   -0.35 9  147 259 
 PTB  HZ I        22 9 53.93         2.6 0.20            130            147 259 
 ZAR  HZ EP       22 9 36.71                             122    0.78 9  204 292 
 ZAR  HN ES       2210  0.72                             122   -0.27 9  204 292 
 ZAR  HZ I        2210  3.71         2.4 0.08            121            204 292 
 NOR  HZ EP   9   22 9 38.55                             118   -0.65 0  234 234 
 NOR  HN ES       2210  6.38                                    0.21 8  234 234 
 NOR  HZ I        2210 11.95         1.5 0.19            117            234 234 
 CHI  HZ EP       22 9 41.20                             116   -0.00 8  248 195 
 CHI  HN ES       2210 11.10                             116    0.71 8  248 195 
 CHI  HZ I        2210 13.45         1.0 0.22            116            248 195 
 GUY2CHZ EP   4   22 9 48.85                             112    1.72 0  300 235 
 GUY2CHN ES   4   2210 25.68                             112    4.75 0  300 235 
 GUY2CHZ  IAML    2210 28.90         1.0 0.25                           300 235 
                                                                                
