 2010  515 2210 29.6 L   6.788 -72.991147.7  RSN 10 0.5 2.9LRSN                1
 GAP=138        1.09       4.6     7.3  7.6 -0.9900E+01 -0.9226E+01  0.2021E+01E
 Epicentro: CEPITA - SANTANDER                                                 3
 ACTION:UP  10-08-24 10:05 OP:vdl  STATUS:               ID:20100515221029 L   I
 2010-05-15-2208-25S.COL___108                                                 6
 STAT SP IPHASW D HRMM SECON CODA AMPLIT PERI AZIMU VELO AIN AR TRES W  DIS CAZ7
 BAR2 SZ IP       2210 49.74                             168     0.110   30 224 
 BAR2 SZ ES   1   2211  4.65                             168    -0.6 7   30 224 
 BRR  HZ IP       2210 52.40                             148     0.510   87 294 
 BRR  HN ES   1   2211  9.69                             148     0.4 7   87 294 
 BRR  HZ I        2211 12.05       261.3 0.20                            87 294 
 RUS  HZ EP       2210 53.62                             145     0.210  100 186 
 RUS  HE ES   1   2211 12.29                             145     0.2 7  100 186 
 RUS  HZ I        2211 13.65       103.7 0.29                           100 186 
 OCA  SZ EP       2210 58.05                             129    -0.4 9  164 347 
 OCA  SZ ES   1   2211 20.74                             129    -0.2 7  164 347 
 OCA  SZ I        2211 26.05       150.8 0.28                           164 347 
 CHI  HZ EP   1   2211  7.43                             117    -0.4 6  252 199 
 CHI  HN ES   2   2211 37.44                             117    -0.2 4  252 199 
 CHI  HZ I        2211 46.94        33.0 0.39                           252 199 
 CVER SZ EP   1   2211 11.42                             115     0.7 6  278 206 
 HEL  HZ EP   1   2211 11.58                             114    -0.1 5  288 257 
 HEL  HZ I        2211 48.15        37.7 0.30                           288 257 
 RREF BZ EP   2   2211 18.13                             110     0.9 3  334 231 
 RREF BE ES   1   2211 53.65                             110    -0.7 5  334 231 
 RREF BZ I        2212  0.99        67.5 0.37                           334 231 
 SDV  BZ EP       2211 19.03                             109     0.7 6  348  48 
 SDV  BN ES   1   2211 55.52                             109    -0.8 5  348  48 
 SDV  BZ I        2212  2.83         8.9 0.36                           348  48 
 PRA  HZ EP       2211 23.10                             107    -1.0 6  400 212 
 PRA  HZ I        2212 11.55        27.8 0.27                           400 212 
                                                                                
