 2017  115 2128 39.9 L   6.774 -73.146146.0  RSN 23 0.4 2.9LRSN                1
 GAP= 66        0.97       3.1     2.8  4.5 -0.5101E+00  0.3355E+01  0.1473E+01E
 Epicentro: LOS SANTOS - SANTANDER                                             3
 ACTION:UPD 17-05-22 16:00 OP:jn   STATUS:               ID:20170115212839 L   I
 OLDACT:REG 17-01-16 04:02 OP:lv   STATUS:               ID:20170115212746     3
 2017-01-15-2128-00M.COL___338                                                 6
 STAT SP IPHASW D HRMM SECON CODA AMPLIT PERI AZIMU VELO AIN AR TRES W  DIS CAZ7
 BAR2 EZ IP     C 2128 59.27                             172   -0.2110 20.5 191 
 BAR2 EZ ES       2129 14.85                             172    0.0710 20.5 191 
 BAR2 EZ I        2129 16.37       169.5 0.29            167           20.5 191 
 BRR  HZ IP     C 2129  1.18                             152    0.0510 72.6 301 
 BRR  HE ES       2129 18.50                             152    0.7910 72.6 301 
 BRR  HZ I        2129 21.42       126.7 0.16            152           72.6 301 
 PAM  EZ IP     D 2129  2.14                             150   -0.1110 79.6  38 
 PAM  EN ES       2129 19.48                             150   -0.2310 79.6  38 
 PAM  EZ I        2129 21.52        80.1 0.44            152           79.6  38 
 RUS  HZ IP     C 2129  3.14                             145   -0.3110 97.7 176 
 RUS  HN ES       2129 21.91                             145    0.0810 97.7 176 
 RUS  HZ I        2129 22.91        80.6 0.32            141           97.7 176 
 PTB  HZ EP   4   2129  5.75                             132   -1.07 0  147 260 
 PTB  HN ES       2129 27.36                             132   -0.47 9  147 260 
 PTB  HZ I        2129 31.94       117.6 0.24            130            147 260 
 TAM  HZ EP       2129  7.42                             131   -0.09 9  154 104 
 TAM  HZ I        2129 28.33        55.7 0.30            130            154 104 
 TAM  HN ES       2129 29.46                             131    0.40 9  154 104 
 ZAR  HZ EP       2129 11.68                             122   -0.77 9  205 293 
 ZAR  HE ES       2129 37.23                             122   -0.63 9  205 293 
 ZAR  HZ I        2129 44.24       172.5 0.37            122            205 293 
 NOR  HZ EP       2129 15.10                             119   -0.34 8  233 235 
 NOR  HE ES       2129 43.97                             119    0.79 8  233 235 
 NOR  HZ I        2129 47.62        79.9 0.18            117            233 235 
 CHI  HZ EP       2129 17.21                             117   -0.08 8  246 195 
 CHI  HE ES       2129 45.88                             117   -0.59 8  246 195 
 ROSC BZ EP   9   2129 18.95                             117    1.21 0  250 211 
 ROSC BN ES       2129 48.37                                   -0.11 8  250 211 
 ROSC BZ I        2129 56.56        92.2 0.50            115            250 211 
 URE  HZ EP   4   2129 19.22                             113   -1.86 0  285 292 
 URE  HN ES   4   2129 50.37                             113   -2.85 0  285 292 
 URE  HZ I        2130  0.24        78.2 0.29            113            285 292 
 GUY2CHZ EP       2129 24.09                             112    0.78 7  300 235 
 GUY2CHN ES   4   2129 58.20                             112    1.01 0  300 235 
 GUY2CHZ  IAML    2130  4.48        44.2 0.39                           300 235 
 PTGC HZ EP   9   2129 22.18                             112   -1.26 0  306 158 
 PTGC HN ES       2129 55.56                                   -0.60 7  306 158 
 PTGC HZ I        2129 56.52        39.4 0.33            111            306 158 
 LL1C HZ EP       2129 24.18                             112    0.37 7  309 352 
 LL1C HN ES   4   2130  0.01                             112    1.94 0  309 352 
 ELA  HZ EP   4   2129 29.25                             110    2.72 0  327 230 
 ELA  HE ES   4   2130  6.29                             110    3.38 0  327 230 
 ELA  HZ I        2130 11.79        41.5 0.44            109            327 230 
 LL6C HZ EP   9   2129  5.19                             110   -20.7 0  328 358 
 LL6C HE ES       2129 40.80                                   -0.30 7  328 358 
 LL6C HZ I        2129 49.57        16.6 0.52            110            328 358 
 CBOC HZ EP       2129 27.26                             110    0.56 7  333 253 
 CBOC HN ES       2130  3.48                             110    0.26 7  333 253 
 CBOC HZ I        2130  8.52        15.7 0.42            109            333 253 
 DBB  EZ EP       2129 27.87                             109    0.48 7  340 275 
 DBB  HN ES   4   2130  2.89                             109   -1.56 0  340 275 
 DBB  EZ I        2130  7.63        22.1 0.20            109            340 275 
 ORTC HZ EP       2129 33.64                             106    0.11 6  393 216 
 ORTC HN ES   4   2130 16.77                             106    1.38 0  393 216 
 ORTC HZ I        2130 22.87        17.3 0.27            105            393 216 
 PAL  HZ EP       2129 34.96                             106    0.09 6  404 239 
 PAL  HN ES       2130 17.63                             106   -0.14 6  404 239 
 PAL  HZ I        2130 24.51        15.8 0.20            105            404 239 
 SJC  HZ EP   4   2129 33.49                             106   -2.24 0  412 327 
 SJC  HN ES   4   2130 14.77                             106   -4.52 0  412 327 
 SJC  HZ I        2130 19.68        13.3 0.22            105            412 327 
 CRJC HZ EP   4   2129 39.51                             103   -3.21 0  470   4 
 CRJC HN ES   4   2130 26.93                             103   -4.81 0  470   4 
 CRJC HZ I        2130 31.93        20.5 0.21            103            470   4 
 SMAR HZ EP   4   2129 44.59                             102   -1.50 0  500 346 
 SMAR HE ES   4   2130 31.35                             102   -6.38 0  500 346 
 SMAR HZ I        2130 36.88        15.0 0.18            102            500 346 
                                                                                
