 2013  315 2124 53.6 L   6.780 -73.076145.8  RSN  4 0.3 1.8LRSN                1
 GAP=147        0.78       4.5     7.6  7.1 -0.4736E+01 -0.2047E+00  0.2749E+01E
 Epicentro: LOS SANTOS - SANTANDER                                             3
 ACTION:UPD 13-04-09 14:02 OP:ep   STATUS:               ID:20130315212454 L   I
 2013-03-15-2118-49M.COL___210                                                 6
 STAT SP IPHASW D HRMM SECON CODA AMPLIT PERI AZIMU VELO AIN AR TRES W  DIS CAZ7
 BAR2 SZ EP   1   2125 13.03                             170   -0.21 7 23.8 209 
 BAR2 SZ I        2125 13.29        14.5 0.10            172           23.8 209 
 BAR2 SZ ES       2125 28.97                             170    0.4110 23.8 209 
 PAM  SZ EP   1   2125 15.91                             152    0.26 7 74.6  34 
 PAM  SE ES       2125 32.63                             152   -0.2210 74.6  34 
 PAM  SE I        2125 35.02         7.6 0.42            151           74.6  34 
 BRR  HZ EP   1   2125 14.82                             150   -0.39 7 79.0 297 
 BRR  HE ES   1   2125 32.12                             150    0.06 7 79.0 297 
 BRR  HE I        2125 32.62        22.8 0.30            151           79.0 297 
 RUS  HZ EP       2125 17.54                             144    0.3710 98.1 180 
 RUS  HN ES       2125 35.16                             144   -0.4010 98.1 180 
                                                                                
