 2013  315 2005 24.2 L   5.863 -73.645123.5  RSN  7 0.3 1.8LRSN                1
 GAP= 97        0.87       4.0     3.4  7.0 -0.2418E+01  0.4837E+01  0.3122E+01E
 Epicentro: PUENTE NACIONAL - SANTANDER                                        3
 ACTION:UPD 13-04-09 14:02 OP:ep   STATUS:               ID:20130315200524 L   I
 2013-03-15-1958-49M.COL___208                                                 6
 STAT SP IPHASW D HRMM SECON CODA AMPLIT PERI AZIMU VELO AIN AR TRES W  DIS CAZ7
 RUS  HZ IP     C 20 5 43.15                             152   -0.0310 62.2  87 
 RUS  HZ I        20 5 43.48        12.6 0.12            153           62.2  87 
 RUS  HN ES       20 5 57.89                             152   -0.0810 62.2  87 
 BAR2 SZ I        20 5 45.39        25.0 0.32            139           95.5  32 
 BAR2 SZ EP       20 5 45.45                             140    0.3410 95.5  32 
 BAR2 SZ ES       20 6  1.20                             140   -0.1910 95.5  32 
 PTB  HZ EP       20 5 45.68                             134   -0.9110  117 310 
 PTB  HN ES       20 6  4.04                             134    0.0010  117 310 
 PTB  HN I        20 6  7.56        13.0 0.60            125            117 310 
 CHI  HZ EP   1   20 5 49.00                             129    0.06 7  137 184 
 CHI  HZ I        20 5 49.37        11.6 0.26            120            137 184 
 BRR  HZ EP       20 5 48.48                             128   -0.01 9  138 357 
 BRR  HN ES       20 6  7.83                             128    0.41 9  138 357 
 NOR  HZ IP     D 20 5 49.08                             128    0.34 9  140 256 
 NOR  HE ES       20 6  7.98                             128    0.12 9  140 256 
 NOR  HZ I        20 6 10.98         7.5 0.16            118            140 256 
 GIR2 SZ IP       20 5 49.25                             127    0.03 9  143  20 
 GIR2 SZ I        20 5 49.32         6.7 0.12            124            143  20 
                                                                                
