 2010 1015 2347 46.8 L   6.778 -73.094152.0  RSN  6 0.3 2.0LRSN                1
 GAP=165        0.70       5.6    11.4 11.7  0.3824E+02 -0.9635E+02 -0.4416E+02E
 Epicentro: LOS SANTOS - SANTANDER                                             3
 ACTION:UP  11-02-18 11:09 OP:tino STATUS:               ID:20101015234746 L   I
 2010-10-15-2341-39S.COL___125                                                 6
 STAT SP IPHASW D HRMM SECON CODA AMPLIT PERI AZIMU VELO SNR AR TRES W  DIS CAZ7
 BTL  SZ EP       2348  7.60                             170     0.410   25 309 
 GIR2 SZ EP   1   2348  7.05                             166    -0.3 7   35 342 
 BRR  HZ EP       2348  8.63                             152    -0.310   77 298 
 BRR  HN ES       2348 26.41                             152     0.110   77 298 
 RUS  HZ EP   1   2348 11.38                             146     0.4 7   98 179 
 RUS  HN ES       2348 29.68                             146    -0.210   98 179 
 RUS  HZ I        2348 30.83        15.6 0.27                            98 179 
 GUE  SZ EP       2348 12.09                             140    -0.110  118   9 
 GRA  SZ EP   1   2348 12.75                             138     0.1 7  126  15 
                                                                                
