 2011  515 2231 12.5 L   6.777 -73.086150.1  RSN  8 0.3 1.8LRSN                1
 GAP=145        0.81       4.0     6.3  6.4 -0.1052E+02  0.8404E+01 -0.4787E+01E
 Epicentro: LOS SANTOS - SANTANDER                                             3
 ACTION:UP  11-06-29 08:53 OP:tino STATUS:               ID:20110515223112 L   I
 2011-05-15-2227-43S.COL___138                                                 6
 STAT SP IPHASW D HRMM SECON CODA AMPLIT PERI AZIMU VELO SNR AR TRES W  DIS CAZ7
 BAR2 SZ EP   1   2231 32.51                             171    -0.1 7   23 208 
 BAR2 SZ ES   1   2231 48.95                             171     0.6 7   23 208 
 BAR2 SZ I        2231 50.50        12.9 0.18                            23 208 
 PAM  SZ EP   1   2231 35.37                             152     0.4 7   75  34 
 PAM  SN ES   1   2231 52.49                             152    -0.1 7   75  34 
 BRR  HZ EP   1   2231 34.37                             151    -0.1 7   78 298 
 BRR  HN ES   1   2231 51.68                             151     0.0 7   78 298 
 BRR  HZ I        2231 54.15        24.3 0.16                            78 298 
 RUS  HZ EP   1   2231 35.99                             145    -0.5 7   98 180 
 RUS  HN ES       2231 55.06                             145    -0.110   98 180 
 RUS  HZ I        2231 56.19         3.7 0.44                            98 180 
 BRI  SZ EP   1   2231 37.11                             142     0.3 7  109  17 
 BRI  SZ I        2231 59.04         6.4 0.38                           109  17 
 GRA  SZ EP   1   2231 38.32                             138     0.2 7  126  14 
 GRA  SZ ES   1   2231 57.45                             138    -0.7 7  126  14 
 GRA  SZ I        2232  0.85        10.3 0.30                           126  14 
 OCA  SZ EP   1   2231 41.56                             130     0.1 7  164 351 
 OCA  SZ I        2232  7.83         7.9 0.25                           164 351 
 NOR  SZ EP   1   2231 49.06                             119     0.2 6  239 236 
 NOR  SN ES   1   2232 16.99                             119    -0.3 6  239 236 
                                                                                
