 2011  115 2209 16.9 L   6.796 -73.129133.5  RSN  8 0.4 1.7LRSN                1
 GAP=161        0.79       4.8    12.4 10.8 -0.2883E+02  0.3342E+02 -0.1128E+02E
 Epicentro: LOS SANTOS - SANTANDER                                             3
 ACTION:UP  11-02-08 08:40 OP:pat  STATUS:               ID:20110115220916 L   I
 2011-01-15-2204-32S.COL___136                                                 6
 STAT SP IPHASW D HRMM SECON CODA AMPLIT PERI AZIMU VELO SNR AR TRES W  DIS CAZ7
 BTL  SZ EP       22 9 35.07                             171     0.110   20 311 
 BAR2 SZ EP   2   22 9 34.33                             170    -0.7 5   23 195 
 BAR2 SZ ES   2   22 9 49.70                             170     0.5 5   23 195 
 BAR2 SZ I        22 9 50.53        21.7 0.23                            23 195 
 GIR2 SZ EP   2   22 9 34.97                             166    -0.2 5   32 347 
 RUS  HZ EP   2   22 9 38.93                             141    -0.5 5  100 177 
 RUS  HE ES   2   22 9 56.78                             141    -0.2 5  100 177 
 RUS  HZ I        22 9 59.50         3.6 0.57                           100 177 
 GRA  SZ EP   1   22 9 41.70                             134     0.6 7  126  17 
 GRA  SZ I        22 9 43.06        17.0 0.14                           126  17 
 GRA  SZ ES   2   22 9 59.26                             134    -0.6 5  126  17 
 OCA  SZ EP   1   22 9 43.93                             126    -0.4 7  161 353 
 OCA  SZ ES   2   2210  6.18                             126     0.4 5  161 353 
 OCA  SZ I        2210 10.34        12.3 0.25                           161 353 
 NOR  SN ES   2   2210 19.28                             116    -0.3 4  236 235 
 CHI  HZ EP   2   22 9 54.52                             114     0.6 4  249 196 
 CHI  HN ES   2   2210 23.14                             114     0.3 4  249 196 
 CHI  HZ I        2210 35.58         1.8 0.48                           249 196 
                                                                                
