 2013  415 2354 11.2 L   6.759 -73.129139.2  RSN  6 0.4 1.6LRSN                1
 GAP=188        0.87       7.5     6.0  7.3 -0.4066E+01  0.6033E+01  0.2123E+02E
 Epicentro: LOS SANTOS - SANTANDER                                             3
 ACTION:UPD 13-05-22 14:38 OP:EP   STATUS:               ID:20130415235411 L   I
 2013-04-15-2348-39M.COL___211                                                 6
 STAT SP IPHASW D HRMM SECON CODA AMPLIT PERI AZIMU VELO AIN AR TRES W  DIS CAZ7
 BAR2 SZ EP       2354 30.14                             172    0.1710 19.4 198 
 BAR2 SZ ES       2354 44.43                             172   -0.1810 19.4 198 
 BAR2 SZ I        2354 46.07        11.1 0.26            159           19.4 198 
 GIR2 SZ EP       2354 30.28                             165    0.0310 36.1 349 
 GIR2 SZ ES   1   2354 44.73                             165   -0.37 7 36.1 349 
 GIR2 SZ I        2354 46.29         7.1 0.36            175           36.1 349 
 BRR  HZ EP   1   2354 32.03                             150    0.15 7 75.1 301 
 BRR  HN ES   1   2354 48.82                             150    0.81 7 75.1 301 
 BRR  HZ I        2354 52.43        13.9 0.34            156           75.1 301 
 RUS  HZ EP       2354 34.06                             144    0.0810 95.9 177 
 RUS  HZ I        2354 54.93         2.8 0.32            133           95.9 177 
 PTB  HZ EP   1   2354 37.02                             130   -0.72 7  149 261 
 PTB  HN ES   1   2354 57.80                             130   -0.64 7  149 261 
 PTB  HZ I        2355  0.75         4.4 0.11            128            149 261 
 NOR  HZ EP   1   2354 46.48                             117    0.03 6  234 236 
 NOR  HE ES   1   2355 14.58                             117    0.64 6  234 236 
 NOR  HZ I        2355 19.64         3.8 0.22            113            234 236 
                                                                                
