 2016  815 2333 50.4 L   6.795 -73.140145.8  RSN 10 0.2 2.0LRSN                1
 GAP=137        0.56       2.0     2.2  3.4 -0.5486E+00  0.1067E+01  0.1530E+01E
 Epicentro: LOS SANTOS - SANTANDER                                             3
 ACTION:UPD 16-10-29 15:35 OP:rebc STATUS:               ID:20160815233350 L   I
 OLDACT:REG 16-08-16 04:41 OP:cara STATUS:               ID:20160815232759     3
 2016-08-15-2327-59S.COL___349                                                 6
 STAT SP IPHASW D HRMM SECON CODA AMPLIT PERI AZIMU VELO AIN AR TRES W  DIS CAZ7
 BAR2 EZ EP       2334  9.90                             171   -0.1610 22.9 192 
 BAR2 HN ES       2334 25.25                             171   -0.1210 22.9 192 
 BAR2 EZ I        2334 27.41        26.6 0.26                          22.9 192 
 BRR  HZ EP       2334 11.79                             152    0.1610 72.0 299 
 BRR  HN ES       2334 27.88                             152   -0.2910 72.0 299 
 BRR  HZ I        2334 32.01        16.8 0.30                          72.0 299 
 PAM  EZ EP       2334 12.90                             151    0.2410 77.4  39 
 PAM  EE ES       2334 30.10                             151    0.1110 77.4  39 
 PAM  EZ I        2334 31.92        22.4 0.50                          77.4  39 
 RUS  HZ EP       2334 14.35                             144    0.2010  100 176 
 RUS  HN ES       2334 32.60                             144   -0.0510  100 176 
 RUS  HZ I        2334 33.64        14.3 0.34                           100 176 
 PTB  HZ EP       2334 17.07                             132   -0.38 9  148 259 
 PTB  HE ES       2334 38.57                             132    0.05 9  148 259 
 PTB  HZ I        2334 39.98        12.7 0.26                           148 259 
 SPBC HZ EP       2334 18.81                             129   -0.12 9  163 219 
 SPBC HE ES       2334 41.41                             129    0.25 9  163 219 
 SPBC HZ I        2334 46.61        20.2 0.44                           163 219 
 ZAR  HN ES       2334 48.56                             122    0.23 9  205 292 
 ZAR  HZ I        2334 54.09         8.1 0.32                           205 292 
 NOR  HE ES       2334 54.14                             118    0.07 8  235 235 
 NOR  HZ I        2334 55.34         8.0 0.16                           235 235 
 CHI  HZ EP       2334 27.77                             117   -0.33 8  248 195 
 CHI  HN ES       2334 57.63                             117    0.15 8  248 195 
 CHI  HZ I        2335  5.61         3.6 0.58                           248 195 
 GUY2CHZ EP   9   2334 34.76                             112    0.69 0  301 235 
 GUY2CHE ES       2335  9.16                                    0.37 7  301 235 
 GUY2CHZ I        2335 14.45         4.0 0.36                           301 235 
                                                                                
