 2013  915 2147 47.3 L   6.799 -73.130150.0  RSN 12 0.4 2.1LRSN                1
 GAP=185        0.82       2.7     5.5  5.4  0.1155E+01  0.3237E+01  0.5754E+00E
 Epicentro: LOS SANTOS - SANTANDER                                             3
 ACTION:UPD 13-10-22 09:22 OP:ep   STATUS:               ID:20130915214747 L   I
 OLDACT:REG 13-09-15 22:07 OP:mh   STATUS:               ID:20130915213959     3
 2013-09-15-2139-59M.COL___269                                                 6
 STAT SP IPHASW D HRMM SECON CODA AMPLIT PERI AZIMU VELO AIN AR TRES W  DIS CAZ7
 BAR2 SZ EP   1   2148  7.39                             171   -0.06 7 23.6 194 
 BAR2 SZ ES   1   2148 22.92                             171   -0.24 7 23.6 194 
 BAR2 SZ I        2148 23.81        24.2 0.34            168           23.6 194 
 BRR  HZ EP   1   2148  9.47                             153    0.47 7 72.8 298 
 BRR  HN ES       2148 26.67                             153    0.7510 72.8 298 
 BRR  HZ I        2148 30.74        13.8 0.40            149           72.8 298 
 RUS  HZ EP   1   2148 11.67                             145    0.21 7  100 177 
 RUS  HN ES       2148 29.85                             145   -0.4510  100 177 
 RUS  HZ I        2148 31.03        11.2 0.38            146            100 177 
 PTB  HZ EP   1   2148 14.38                             133   -0.39 7  149 259 
 PTB  HN ES   1   2148 35.33                             133   -0.86 7  149 259 
 PTB  HZ I        2148 41.44        15.4 0.38            131            149 259 
 OCA  HZ EP   1   2148 15.59                             131   -0.38 7  161 353 
 OCA  HN ES   1   2148 38.60                             131    0.27 7  161 353 
 OCA  HZ I        2148 42.75        15.3 0.14            131            161 353 
 SPBC HZ EP   1   2148 16.65                             130    0.42 7  164 219 
 SPBC HN ES   1   2148 39.09                             130    0.30 7  164 219 
 SPBC HZ I        2148 43.57        20.5 0.38            129            164 219 
 ZAR  HZ EP   2   2148 20.42                             123    0.23 4  206 292 
 ZAR  HN ES   2   2148 45.42                             123   -0.43 4  206 292 
 NOR  HZ EP   1   2148 23.31                             119   -0.12 6  236 235 
 NOR  HN ES   2   2148 51.17                             119   -0.43 4  236 235 
 NOR  HZ I        2148 55.36         8.9 0.22            119            236 235 
 SML  HZ EP   1   2148 23.80                             118   -0.45 6  244 335 
 SML  HN ES   1   2148 52.60                             118   -0.47 6  244 335 
 SML  HZ I        2148 56.70        22.8 0.10            119            244 335 
 CHI  HZ EP   1   2148 25.38                             118    0.10 6  249 196 
 CHI  HN ES       2148 55.06                             118    0.16 8  249 196 
 CHI  HZ I        2148 58.99         4.3 0.46            119            249 196 
 GUY2CHZ EP   4   2148 32.44                             113    1.18 0  303 235 
 GUY2CHN ES   4   2149  6.22                             113    0.67 0  303 235 
 GUY2CHZ I        2149 14.20         6.0 0.40                           303 235 
 PRA  HZ EP   1   2148 41.27                             107    0.21 4  393 210 
 PRA  HN ES   1   2149 23.57                             107    0.57 4  393 210 
 PRA  HZ I        2149 29.33         6.8 0.32            108            393 210 
 SJC  HZ EP   4   2148 41.22                             106   -1.90 0  410 327 
 SJC  HN ES   4   2149 22.65                             106   -4.01 0  410 327 
                                                                                
