 2015 1015 2054 48.0 L   6.783 -73.100153.8  RSN 10 0.3 1.8LRSN                1
 GAP=143        0.79       2.6     4.0  5.7  0.7160E-01  0.7293E+01  0.1854E+01E
 Epicentro: LOS SANTOS - SANTANDER                                             3
 ACTION:UPD 15-12-22 20:40 OP:cam  STATUS:               ID:20151015205448 L   I
 OLDACT:DUP 15-10-16 08:58 OP:spq  STATUS:               ID:20151015204749d    3
 OLDACT:REG 15-10-16 02:58 OP:spq  STATUS:               ID:20151015204748     3
 2015-10-15-2047-48M.COL___321                                                 6
 STAT SP IPHASW D HRMM SECON CODA AMPLIT PERI AZIMU VELO AIN AR TRES W  DIS CAZ7
 BAR2 EZ EP   1   2055  8.37                             171   -0.20 7 23.0 203 
 BAR2 EZ ES   1   2055 24.43                             171   -0.20 7 23.0 203 
 BAR2 EZ I        2055 26.50        10.4 0.38            169           23.0 203 
 PAM  EN ES       2055 28.77                             153   -0.1210 75.8  36 
 PAM  EZ I        2055 30.68         4.5 0.17            155           75.8  36 
 BRR  HZ EP   1   2055 10.46                             152    0.16 7 76.6 298 
 BRR  HN ES       2055 28.38                             152    0.6710 76.6 298 
 BRR  HZ I        2055 31.57        13.8 0.39            151           76.6 298 
 RUS  HZ EP       2055 12.25                             146   -0.1310 98.5 179 
 RUS  HE ES       2055 31.26                             146   -0.1610 98.5 179 
 RUS  HZ I        2055 33.60         4.3 0.54            147           98.5 179 
 SPBC HN ES       2055 39.83                             130   -0.29 9  165 221 
 SPBC HZ I        2055 42.83         9.6 0.12            130            165 221 
 ZAR  HE ES       2055 47.07                             123   -0.59 8  209 292 
 ZAR  HZ I        2055 53.28         6.9 0.42            123            209 292 
 NOR  HE ES       2055 53.39                             120    0.38 8  238 236 
 NOR  HZ I        2055 56.08         6.3 0.16            120            238 236 
 CHI  HZ EP       2055 26.66                             119    0.57 8  248 196 
 CHI  HE ES   1   2055 55.99                             119    0.18 6  248 196 
 CHI  HZ I        2056  3.53         2.5 0.56            119            248 196 
 SML  HZ EP   1   2055 25.39                             119   -0.09 6  248 334 
 SML  HE ES       2055 54.75                             119    0.02 8  248 334 
 SML  HZ I        2055 58.76        11.2 0.10            119            248 334 
 GUY2CHZ EP   4   2055 33.68                             114    1.36 0  304 236 
 GUY2CHE ES   1   2056  6.50                             114   -0.40 5  304 236 
 GUY2CHZ I        2056 13.36         2.9 0.34                           304 236 
                                                                                
