 2013  115 2342 12.0 L   6.765 -73.178145.6  RSN  6 0.3 2.0LRSN                1
 GAP=231        0.82       4.7     5.5  5.6  0.1533E+02  0.8540E+01  0.6431E+01E
 Epicentro: LOS SANTOS - SANTANDER                                             3
 ACTION:UPD 13-02-15 09:14 OP:ep   STATUS:               ID:20130115234212 L   I
 2013-01-15-2340-00M.COL___241                                                 6
 STAT SP IPHASW D HRMM SECON CODA AMPLIT PERI AZIMU VELO AIN AR TRES W  DIS CAZ7
 BAR2 SZ EP       2342 31.34                             172   -0.1610 19.1 181 
 BAR2 SZ ES       2342 46.71                             172   -0.0210 19.1 181 
 BAR2 SZ I        2342 50.06        14.6 0.16            168           19.1 181 
 BRR  HN ES       2342 50.00                             153    0.5310 70.1 303 
 BRR  HN I        2342 50.78        36.6 0.32            151           70.1 303 
 RUS  HZ EP       2342 35.52                             145    0.0710 97.0 174 
 RUS  HN ES       2342 53.41                             145   -0.3510 97.0 174 
 RUS  HN I        2342 55.63         7.8 0.30            145           97.0 174 
 PTB  HZ EP       2342 38.31                             133   -0.23 9  144 260 
 PTB  HN ES       2342 59.01                             133   -0.26 9  144 260 
 PTB  HN I        2343  4.45        15.5 0.36            131            144 260 
 ZAR  HZ EP       2342 43.85                             123   -0.37 9  202 294 
 ZAR  HN ES       2343  9.47                             123    0.10 9  202 294 
 ZAR  HN I        2343 15.53        11.5 0.20            123            202 294 
 CHI  HZ EP       2342 49.87                             118    0.72 8  244 195 
 CHI  HN ES       2343 18.33                             118    0.18 8  244 195 
 CHI  HN I        2343 21.88         6.1 0.62            118            244 195 
                                                                                
