 2012  315 2048 37.5 L   6.688 -73.204149.7  RSN  5 0.2 1.9LRSN                1
 GAP=218        0.63       5.0     4.8  5.5  0.1336E+02  0.2544E+01  0.4490E+00E
 ACTION:UP  12-03-31 23:20 OP:EP   STATUS:               ID:20120315204837 L   I
 2012-03-15-2040-00M.COL___202                                                 6
 STAT SP IPHASW D HRMM SECON CODA AMPLIT PERI AZIMU VELO SNR AR TRES W  DIS CAZ7
 BAR2 SZ EP   1   2048 57.13                             176    -0.3 7   11 168 
 BAR2 SZ ES   1   2049 12.90                             176    -0.1 7   11 168 
 BAR2 SZ I        2049 13.95        23.4 0.14                            11 168 
 BRR  HZ EP       2048 58.99                             153    -0.210   73 310 
 BRR  HZ I        2048 59.32        37.2 0.13                            73 310 
 BRR  HE ES       2049 16.30                             153     0.210   73 310 
 RUS  HZ EP       2049  1.22                             148     0.410   89 171 
 RUS  HE ES       2049 18.94                             148    -0.110   89 171 
 RUS  HZ I        2049 20.68         7.2 0.36                            89 171 
 PTB  HZ EP       2049  4.08                             135     0.0 9  140 263 
 PTB  HN ES       2049 24.75                             135     0.0 9  140 263 
 PTB  HZ I        2049 32.43         6.4 0.46                           140 263 
 ZAR  HN ES   2   2049 35.42                             123    -0.2 4  203 296 
 ZAR  HZ I        2049 42.18         6.5 0.37                           203 296 
                                                                                
