 2013  215 2008 34.6 L   6.791 -73.145142.4  RSN  4 0.3 1.6LRSN                1
 GAP=137        0.64       4.5     6.6  7.5 -0.1730E+01  0.4080E+00  0.1113E+02E
 Epicentro: LOS SANTOS - SANTANDER                                             3
 ACTION:UPD 13-03-12 09:33 OP:ep   STATUS:               ID:20130215200834 L   I
 2013-02-15-2000-00M.COL___238                                                 6
 STAT SP IPHASW D HRMM SECON CODA AMPLIT PERI AZIMU VELO AIN AR TRES W  DIS CAZ7
 BRR  HZ EP   1   20 8 55.92                             152    0.48 7 71.8 299 
 BRR  HN ES   1   20 9 11.41                             152   -0.27 7 71.8 299 
 BRR  HN I        20 9 14.69        16.5 0.40            139           71.8 299 
 PAM  SZ EP   1   20 8 56.72                             150    0.20 7 78.1  39 
 PAM  SE ES   1   20 9 13.38                             150   -0.22 7 78.1  39 
 PAM  SZ I        20 9 16.29         5.9 0.58            141           78.1  39 
 RUS  HZ EP   1   20 8 57.68                             143   -0.29 7 99.6 176 
 RUS  HN ES   1   20 9 16.50                             143    0.32 7 99.6 176 
 CHI  HZ EP   1   20 9 11.68                             116   -0.36 6  248 195 
 CHI  HZ I        20 9 29.32         1.2 0.69            105            248 195 
                                                                                
