 2013 1115 2137 16.7 L   6.777 -73.145149.6  RSN  4 0.2 1.4LRSN                1
 GAP=236        0.56       6.9     8.0  5.5  0.4297E+02  0.1816E+02  0.1528E+02E
 Epicentro: LOS SANTOS - SANTANDER                                             3
 ACTION:UPD 14-01-09 16:28 OP:ep   STATUS:               ID:20131115213716 L   I
 OLDACT:REG 13-11-15 21:35 OP:jn   STATUS:               ID:20131115213000     3
 2013-11-15-2130-00M.COL___279                                                 6
 STAT SP IPHASW D HRMM SECON CODA AMPLIT PERI AZIMU VELO AIN AR TRES W  DIS CAZ7
 BAR2 SZ ES       2137 52.20                             172   -0.1810 20.8 191 
 BAR2 SZ I        2137 53.17         9.8 0.16            161           20.8 191 
 BRR  HN ES       2137 55.37                             153    0.1510 72.5 300 
 RUS  HZ EP       2137 40.93                             145    0.2810 98.0 176 
 RUS  HN ES       2137 59.29                             145   -0.0510 98.0 176 
 RUS  HZ I        2138  0.50         2.2 0.22            141           98.0 176 
 PTB  HZ EP       2137 43.66                             133   -0.29 9  147 260 
 PTB  HN ES   2   2138  5.46                             133    0.26 5  147 260 
 PTB  HZ I        2138 10.29         2.4 0.26            128            147 260 
                                                                                
