 2017  415 2240 35.0 L   6.785 -73.107142.0  RSN 10 0.5 1.9LRSN                1
 GAP=142        0.85       3.5     3.6  5.3 -0.1116E+01  0.4775E+01 -0.3753E+00E
 Epicentro: LOS SANTOS - SANTANDER                                             3
 ACTION:UPD 17-05-30 21:12 OP:jn   STATUS:               ID:20170415224035 L   I
 OLDACT:UP  17-04-16 02:29 OP:and  STATUS:               ID:20170415223649     3
 OLDACT:UP  17-04-16 02:28 OP:and  STATUS:               ID:20170415223649     3
 OLDACT:UP  17-04-16 02:27 OP:and  STATUS:               ID:20170415223649     3
 OLDACT:UP  17-04-16 02:27 OP:and  STATUS:               ID:20170415223649     3
 OLDACT:UP  17-04-16 02:27 OP:and  STATUS:               ID:20170415223649     3
 OLDACT:REG 17-04-16 01:26 OP:and  STATUS:               ID:20170415223649     3
 2017-04-15-2238-00M.COL___374                                                 6
 STAT SP IPHASW D HRMM SECON CODA AMPLIT PERI AZIMU VELO AIN AR TRES W  DIS CAZ7
 BAR2 EZ ES       2241  8.66                             170   -0.4510 22.9 201 
 BAR2 EZ I        2241  9.92        24.8 0.18            169           22.9 201 
 BRR  HZ IP     C 2240 55.80                             150   -0.2010 75.7 298 
 BRR  HN ES       2241 12.82                             150    0.4310 75.7 298 
 BRR  HZ I        2241 14.40        18.8 0.14            148           75.7 298 
 PAM  EZ IP     D 2240 56.75                             150    0.0210 76.1  36 
 PAM  EN ES       2241 13.63                             150   -0.0510 76.1  36 
 PAM  EZ I        2241 16.19        15.2 0.50            152           76.1  36 
 RUS  HZ EP       2240 58.14                             143   -0.1010 98.7 178 
 RUS  HN ES       2241 16.64                             143    0.2610 98.7 178 
 RUS  HZ I        2241 17.41         5.9 0.34            144           98.7 178 
 PTB  HZ EP   9   2241  0.51                             130   -1.51 0  152 260 
 PTB  HN ES       2241 21.49                             132   -0.10 9  152 260 
 PTB  HZ I        2241 23.76         8.5 0.20            129            152 260 
 SPBC HN ES       2241 25.42                             128   -0.04 9  165 221 
 SPBC HZ I        2241 28.35        12.9 0.16            127            165 221 
 ZAR  HZ EP       2241  8.30                             121    0.63 8  209 292 
 ZAR  HN ES       2241 32.49                             121   -0.67 8  209 292 
 ZAR  HZ I        2241 38.72         9.8 0.26            120            209 292 
 NOR  HZ EP   2   2241 10.45                             117   -0.33 4  237 235 
 NOR  HN ES   3   2241 36.82                             117   -1.88 2  237 235 
 NOR  HZ I        2241 41.91         6.4 0.44            117            237 235 
 HEL  HN ES       2241 47.46                             113    0.48 7  276 256 
 HEL  HZ I        2241 52.74         3.7 0.48            113            276 256 
 PRA  HZ EP   3   2241 26.81                             106   -1.66 1  393 210 
 PRA  HN ES   2   2242 10.87                             106    0.69 3  393 210 
 PRA  HZ I        2242 13.47         2.7 0.38            106            393 210 
 SJC  HZ EP   4   2241 28.61                             105   -2.26 0  413 327 
 SJC  HN ES   4   2242 11.59                             105   -2.86 0  413 327 
                                                                                
