 2011 1015 2117 57.6 L   6.769 -73.127140.6  RSN  5 0.3 1.7LRSN                1
 GAP=140        0.61       5.6     4.4  5.9  0.5201E+01  0.6812E+01  0.4638E+01E
 Epicentro: LOS SANTOS - SANTANDER                                             3
 ACTION:UPD 12-07-13 16:04 OP:ep   STATUS:               ID:20111015211756 L   I
 2011-10-15-2116-28S.COL___168                                                 6
 STAT SP IPHASW D HRMM SECON CODA AMPLIT PERI AZIMU VELO AIN AR TRES W  DIS CAZ7
 BAR2 SZ EP   1   2118 16.23                             171   -0.29 7 20.5 197 
 BAR2 SZ ES   1   2118 30.93                             171   -0.38 7 20.5 197 
 BAR2 SZ I        2118 32.46        12.1 0.17                          20.5 197 
 BRR  HZ EP       2118 18.48                             150    0.1110 74.7 300 
 BRR  HN ES   1   2118 35.02                             150    0.42 7 74.7 300 
 BRR  HZ I        2118 36.30        14.9 0.15                          74.7 300 
 PAM  SZ EP   1   2118 19.38                             149    0.06 7 78.8  37 
 PAM  SZ I        2118 19.76        14.1 0.19                          78.8  37 
 PAM  SN ES   1   2118 36.27                             149   -0.03 7 78.8  37 
 RUS  HZ EP   1   2118 20.95                             144    0.40 7 97.0 177 
 RUS  HZ I        2118 40.59         5.1 0.18                          97.0 177 
 ZAR  HZ EP   1   2118 29.59                             121   -0.43 6  207 293 
 ZAR  HN ES   1   2118 55.24                             121   -0.10 6  207 293 
 ZAR  HZ I        2119  0.56         3.5 0.13                           207 293 
                                                                                
