 2017  215 2007 36.2 L   6.804 -73.116140.3  RSN  6 0.4 1.8LRSN                1
 GAP=140        0.98       4.6     4.5  7.1 -0.3104E+01  0.1488E+02 -0.2429E+01E
 Epicentro: LOS SANTOS - SANTANDER                                             3
 ACTION:UPD 17-05-24 15:36 OP:jn   STATUS:               ID:20170215200736 L   I
 OLDACT:UP  17-02-16 02:54 OP:ar   STATUS:               ID:20170215195743     3
 OLDACT:REG 17-02-16 02:44 OP:ar   STATUS:               ID:20170215195743     3
 2017-02-15-1958-00M.COL___364                                                 6
 STAT SP IPHASW D HRMM SECON CODA AMPLIT PERI AZIMU VELO AIN AR TRES W  DIS CAZ7
 BAR2 EZ ES       20 8  9.86                             170   -0.1910 24.5 197 
 PAM  EZ EP       20 7 57.90                             150    0.1710 75.0  38 
 PAM  EN ES       20 8 14.71                             150    0.2210 75.0  38 
 PAM  EZ I        20 8 16.72        15.1 0.48            153           75.0  38 
 RUS  HZ EP       20 7 59.52                             143    0.0510  101 178 
 RUS  HN ES       20 8 17.44                             143   -0.1510  101 178 
 RUS  HZ I        20 8 18.85         5.4 0.74            145            101 178 
 PTB  HZ EP       20 8  2.21                             130   -0.86 9  151 259 
 PTB  HN ES       20 8 24.01                             130    0.02 9  151 259 
 PTB  HZ I        20 8 25.44         6.0 0.18            130            151 259 
 ZAR  HZ EP       20 8  8.18                             121   -0.45 8  207 292 
 ZAR  HN ES       20 8 34.17                             121    0.27 8  207 292 
 ZAR  HZ I        20 8 39.15         6.9 0.10            121            207 292 
 NOR  HZ EP       20 8 12.74                             117    0.77 8  238 235 
 NOR  HN ES       20 8 40.22                             117    0.39 8  238 235 
 NOR  HZ I        20 8 44.82         5.6 0.16            118            238 235 
                                                                                
