 2016  515 2300 17.7 L   6.779 -73.154148.1  RSN  5 0.5 1.6LRSN                1
 GAP=235        1.28       9.9     9.1  9.4  0.5669E+02  0.9080E+01 -0.9583E+01E
 Epicentro: LOS SANTOS - SANTANDER                                             3
 ACTION:UPD 16-08-18 17:46 OP:cam  STATUS:               ID:20160515230017 L   I
 OLDACT:REG 16-05-16 03:28 OP:ar   STATUS:               ID:20160515225745     3
 2016-05-15-2257-45M.COL___289                                                 6
 STAT SP IPHASW D HRMM SECON CODA AMPLIT PERI AZIMU VELO AIN AR TRES W  DIS CAZ7
 BAR2 EZ EP       23 0 36.86                             172   -0.6610 20.8 189 
 BAR2 EZ ES       23 0 52.48                             172   -0.5310 20.8 189 
 BAR2 EZ I        23 0 53.56        10.6 0.32            166           20.8 189 
 BRR  HZ IP     C 23 0 39.52                             153    0.4410 71.6 301 
 BRR  HN ES       23 0 56.23                             153    0.4410 71.6 301 
 BRR  HZ I        23 1  0.97         7.8 0.44            149           71.6 301 
 RUS  HZ EP       23 0 42.31                             145    0.8410 98.3 175 
 RUS  HE ES       23 1  0.14                             145    0.0910 98.3 175 
 RUS  HZ I        23 1  2.18         3.9 0.30            145           98.3 175 
 PTB  HZ EP       23 0 44.43                             133   -0.26 9  146 260 
 PTB  HN ES       23 1  5.59                             133   -0.19 9  146 260 
 PTB  HZ I        23 1 12.49         3.3 0.22            131            146 260 
 ZAR  HZ EP       23 0 49.59                             123   -0.67 9  204 293 
 ZAR  HE ES       23 1 16.04                             123    0.35 9  204 293 
 ZAR  HZ I        23 1 21.24         4.0 0.10            123            204 293 
                                                                                
