 2011  615 2357 56.6 L   6.826 -73.134146.3  RSN  4 0.1 1.4LRSN                1
 GAP=137        0.36       2.8     4.8  5.3 -0.3126E+01 -0.2327E+01  0.1410E+01E
 Epicentro: LOS SANTOS - SANTANDER                                             3
 ACTION:UP  11-07-14 19:05 OP:ep   STATUS:               ID:20110615235756 L   I
 2011-06-15-2356-44S.COL___138                                                 6
 STAT SP IPHASW D HRMM SECON CODA AMPLIT PERI AZIMU VELO SNR AR TRES W  DIS CAZ7
 BRR  HZ EP   1   2358 17.82                             153     0.0 7   71 296 
 BRR  HZ I        2358 18.09         7.7 0.16                            71 296 
 BRR  HN ES   2   2358 34.36                             153     0.0 5   71 296 
 PAM  SZ EP   1   2358 18.92                             152     0.2 7   74  40 
 PAM  SN ES   2   2358 35.85                             152    -0.1 5   74  40 
 RUS  HZ EP   1   2358 20.45                             143    -0.2 7  103 177 
 RUS  HN ES   2   2358 39.45                             143     0.1 5  103 177 
 RUS  HZ I        2358 39.48         2.9 0.70                           103 177 
 GRA  SZ EP   1   2358 21.60                             138     0.0 7  123  17 
 GRA  SZ ES   2   2358 41.00                             138    -0.2 5  123  17 
 GRA  SZ I        2358 43.18         3.0 0.32                           123  17 
                                                                                
