 2013 1015 2012 41.0 L   6.660 -73.257140.9  RSN  4 0.5 1.6LRSN                1
 GAP=178        1.22       9.1     8.5  9.9  0.3737E+02  0.1519E+02  0.8126E+01E
 Epicentro: BARICHARA - SANTANDER                                              3
 ACTION:UPD 13-11-25 09:21 OP:ep   STATUS:               ID:20131015201241 L   I
 OLDACT:REG 13-10-15 21:23 OP:nd   STATUS:               ID:20131015200959     3
 2013-10-15-2009-59M.COL___274                                                 6
 STAT SP IPHASW D HRMM SECON CODA AMPLIT PERI AZIMU VELO AIN AR TRES W  DIS CAZ7
 BAR2 SZ EP       2013  0.72                             175    0.9010 11.2 132 
 BAR2 SZ ES       2013 14.65                             175    0.1210 11.2 132 
 BAR2 SZ I        2013 15.06        15.2 0.74            173           11.2 132 
 BRR  HZ EP       2013  0.70                             152   -0.8510 70.5 315 
 BRR  HN ES       2013 17.59                             152   -0.0110 70.5 315 
 BRR  HZ I        2013 34.17        15.4 0.42            149           70.5 315 
 RUS  HZ EP     C 2013  3.21                             147   -0.0810 87.1 167 
 RUS  HN ES       2013 20.35                             147   -0.3510 87.1 167 
 RUS  HZ I        2013 23.01         4.5 0.26            160           87.1 167 
 PTB  HZ EP       2013  6.40                             134    0.1710  133 264 
 PTB  HN ES       2013 26.08                             134    0.1410  133 264 
 PTB  HZ I        2013 29.92         2.8 0.44            138            133 264 
                                                                                
