 2014  715 2111 47.1 L   6.777 -73.176148.5  RSN  5 0.5 1.5LRSN                1
 GAP=198        1.14       6.6     8.2  8.6  0.2314E+02 -0.6155E+00 -0.1319E+02E
 Epicentro: LOS SANTOS - SANTANDER                                             3
 ACTION:UPD 15-03-16 20:44 OP:nd   STATUS:               ID:20140715211147 L   I
 OLDACT:UP  14-07-16 03:42 OP:cam  STATUS:               ID:20140715211000     3
 OLDACT:REG 14-07-16 02:49 OP:cam  STATUS:               ID:20140715211000     3
 2014-07-15-2110-00M.COL___282                                                 6
 STAT SP IPHASW D HRMM SECON CODA AMPLIT PERI AZIMU VELO AIN AR TRES W  DIS CAZ7
 BAR2 SZ EP       2112  6.66                             172   -0.3910 20.4 182 
 BAR2 SZ ES       2112 21.88                             172   -0.7010 20.4 182 
 BAR2 SZ I        2112 25.56        10.4 0.20            172           20.4 182 
 BRR  HZ EP       2112  8.96                             153    0.4610 69.6 302 
 BRR  HN ES       2112 25.87                             153    0.7110 69.6 302 
 RUS  HZ EP       2112 11.01                             145    0.0010 98.3 174 
 RUS  HN ES       2112 30.08                             145    0.4610 98.3 174 
 RUS  HZ I        2112 30.79         3.6 0.24            146           98.3 174 
 PTB  HZ EP       2112 14.05                             133    0.05 9  144 260 
 PTB  HN ES       2112 34.47                             133   -0.49 9  144 260 
 PTB  HZ I        2112 36.85         4.5 0.40            135            144 260 
 SML  HZ EP   1   2112 23.98                             118   -0.05 6  245 336 
 SML  HE ES   1   2112 52.42                             118   -0.38 6  245 336 
                                                                                
