 2013  115 2056 51.7 L   6.758 -73.156140.2  RSN  7 0.3 2.2LRSN                1
 GAP=233        0.86       4.2     4.7  5.8  0.7883E+01  0.8068E+01  0.7507E+01E
 Epicentro: LOS SANTOS - SANTANDER                                             3
 ACTION:UPD 13-02-15 09:14 OP:ep   STATUS:               ID:20130115205651 L   I
 2013-01-15-2050-00M.COL___241                                                 6
 STAT SP IPHASW D HRMM SECON CODA AMPLIT PERI AZIMU VELO AIN AR TRES W  DIS CAZ7
 BAR2 SZ EP       2057 10.33                             172   -0.2510 18.6 189 
 BAR2 SZ ES       2057 25.40                             172    0.1010 18.6 189 
 BAR2 SZ I        2057 26.80        25.7 0.38            165           18.6 189 
 BRR  HZ EP       2057 12.77                             151    0.4310 72.5 302 
 BRR  HN ES       2057 28.49                             151    0.0610 72.5 302 
 BRR  HN I        2057 29.55        57.3 0.18            148           72.5 302 
 RUS  HZ EP       2057 14.41                             144   -0.1810 96.1 175 
 RUS  HN ES       2057 32.52                             144    0.0910 96.1 175 
 RUS  HN I        2057 35.89         8.7 0.26            143           96.1 175 
 PTB  HZ EP       2057 17.32                             131   -0.73 9  146 261 
 PTB  HN ES       2057 38.10                             131   -0.49 9  146 261 
 PTB  HN I        2057 43.20        29.3 0.52            129            146 261 
 ZAR  HN ES       2057 49.31                             121    0.35 9  205 293 
 ZAR  HN I        2057 55.57        26.8 0.38            121            205 293 
 NOR  HZ EP       2057 26.76                             118    0.03 8  231 235 
 NOR  HN ES       2057 54.43                             118    0.39 8  231 235 
 NOR  HN I        2058  2.62        21.8 0.16            117            231 235 
 CHI  HZ EP       2057 29.02                             116    0.44 8  244 195 
 CHI  HN ES       2057 57.37                             116    0.03 8  244 195 
 CHI  HN I        2058  0.85         9.4 0.34            117            244 195 
                                                                                
