 2017  115 2109 58.5 L   6.781 -73.173139.0  RSN  8 0.5 1.3LRSN                1
 GAP=134        1.31       5.0     5.3  8.8  0.1361E+00  0.1113E+02  0.1145E+02E
 Epicentro: LOS SANTOS - SANTANDER                                             3
 ACTION:UPD 17-05-22 15:59 OP:jn   STATUS:               ID:20170115210958 L   I
 OLDACT:DUP 17-01-16 04:49 OP:lv   STATUS:               ID:20170115210744d    3
 2017-01-15-2108-00M.COL___338                                                 6
 STAT SP IPHASW D HRMM SECON CODA AMPLIT PERI AZIMU VELO AIN AR TRES W  DIS CAZ7
 BAR2 EZ ES       2110 31.28                             171   -0.6710 20.9 183 
 BAR2 EZ I        2110 33.88         8.8 0.08            170           20.9 183 
 BRR  HZ EP       2110 19.20                             152    0.3310 69.6 301 
 BRR  HE ES       2110 35.44                             152    0.7210 69.6 301 
 PAM  EZ EP       2110 20.22                             148   -0.0410 80.9  40 
 PAM  EN ES       2110 36.73                             148   -0.4710 80.9  40 
 PAM  EZ I        2110 39.41         4.5 0.36            151           80.9  40 
 RUS  HZ EP       2110 21.66                             143    0.1610 98.8 174 
 RUS  HE ES       2110 40.12                             143    0.7110 98.8 174 
 RUS  HZ I        2110 41.08         3.0 0.38            144           98.8 174 
 PTB  HZ EP       2110 24.30                             131   -0.35 9  144 259 
 PTB  HN ES       2110 44.37                             131   -0.65 9  144 259 
 PTB  HZ I        2110 47.54         2.1 0.16            132            144 259 
 ZAR  HE ES       2110 55.79                             121    0.65 9  202 293 
 NOR  HN ES       2111  0.09                             117   -0.65 8  231 234 
 NOR  HZ I        2111  6.37         1.8 0.38            118            231 234 
 CHI  HZ EP       2110 35.26                             116   -0.31 8  246 195 
 CHI  HN ES       2111  4.91                             116    0.46 8  246 195 
                                                                                
