 2011  815 2228 34.0 L   6.782 -73.089135.5  RSN  5 0.3 1.5LRSN                1
 GAP=145        0.62       4.9     7.6  7.2  0.1238E+02 -0.2333E+02 -0.9436E+01E
 Epicentro: LOS SANTOS - SANTANDER                                             3
 ACTION:UPD 12-07-13 15:52 OP:ep   STATUS:               ID:20110815222834 L   I
 2011-08-15-2223-39S.COL___149                                                 6
 STAT SP IPHASW D HRMM SECON CODA AMPLIT PERI AZIMU VELO AIN AR TRES W  DIS CAZ7
 BAR2 SZ EP       2228 52.72                             170    0.2910 23.4 206 
 BAR2 SZ ES   1   2229  6.36                             170   -0.42 7 23.4 206 
 BAR2 SZ I        2229  9.52         6.5 0.26                          23.4 206 
 PAM  SZ EP       2228 55.23                             149    0.2110 75.1  35 
 BRR  HZ EP       2228 54.36                             149   -0.1210 77.7 298 
 BRR  HN ES   1   2229 10.59                             149    0.16 7 77.7 298 
 BRR  HZ I        2229 15.34        13.1 0.16                          77.7 298 
 RUS  HZ EP       2228 56.50                             142   -0.1210 98.4 180 
 RUS  HE ES   2   2229 14.41                             142    0.17 5 98.4 180 
 RUS  HZ I        2229 16.03         3.0 0.36                          98.4 180 
 OCA  SZ EP   2   2229  1.13                             127   -0.71 5  163 351 
                                                                                
