 2016  215 2143 28.1 L   6.741 -73.154138.0  RSN 11 0.5 2.1LRSN                1
 GAP=138        0.91       4.6     3.9  7.3 -0.1756E+01  0.4642E+01  0.1169E+02E
 Epicentro: LOS SANTOS - SANTANDER                                             3
 ACTION:UPD 16-03-04 21:26 OP:rebc STATUS:               ID:20160215214328 L   I
 OLDACT:REG 16-02-16 04:01 OP:dnl  STATUS:               ID:20160215213748     3
 2016-02-15-2137-48M.COL___310                                                 6
 STAT SP IPHASW D HRMM SECON CODA AMPLIT PERI AZIMU VELO AIN AR TRES W  DIS CAZ7
 BAR2 EZ EP   2   2143 46.92                             173    0.20 5 16.7 191 
 BAR2 EZ ES   2   2144  0.99                             173   -0.21 5 16.7 191 
 BAR2 EZ I        2144  2.82        50.5 0.14            165           16.7 191 
 BRR  HZ EP   2   2143 48.77                             151    0.16 5 73.8 303 
 BRR  HN ES       2144  5.47                             151    0.8910 73.8 303 
 BRR  HZ I        2144  8.82        33.2 0.14            152           73.8 303 
 PAM  EZ EP     C 2143 49.73                             148   -0.1710 83.1  37 
 PAM  EN ES       2144  6.44                             148   -0.4310 83.1  37 
 PAM  EZ I        2144  8.78        35.2 0.46            158           83.1  37 
 RUS  HZ EP       2143 50.75                             144    0.0910 94.1 175 
 RUS  HN ES   2   2144  9.34                             144    1.11 5 94.1 175 
 RUS  HZ I        2144 11.45         6.9 0.28            142           94.1 175 
 PTB  HZ EP       2143 53.81                             131   -0.49 9  146 261 
 PTB  HN ES       2144 14.15                             131   -0.55 9  146 261 
 PTB  HZ I        2144 20.21        23.0 0.36            131            146 261 
 SPBC HZ EP   2   2143 55.88                             129    0.37 5  158 220 
 SPBC HN ES   2   2144 16.36                             129   -0.50 5  158 220 
 SPBC HZ I        2144 25.05        15.1 0.24            128            158 220 
 ZAR  HZ EP   2   2144  0.69                             121    0.42 4  206 294 
 ZAR  HN ES       2144 25.43                             121    0.09 8  206 294 
 ZAR  HZ I        2144 30.82        22.0 0.25            123            206 294 
 NOR  HZ EP   2   2144  2.75                             118   -0.19 4  230 236 
 NOR  HE ES   2   2144 29.80                             118   -0.29 4  230 236 
 NOR  HZ I        2144 39.79         7.7 0.12            118            230 236 
 CHI  HZ EP   2   2144  5.09                             116    0.39 4  242 195 
 CHI  HN ES   2   2144 33.57                             116    0.35 4  242 195 
 CHI  HZ I        2144 43.74         5.6 0.44            117            242 195 
 URE  HZ EP   2   2144  9.56                             112    0.53 4  286 293 
 URE  HN ES   4   2144 38.18                             112   -2.75 0  286 293 
 URE  HZ I        2144 41.11        11.0 0.14            115            286 293 
 GUY2CHZ EP   2   2144 11.81                             111    0.92 4  297 236 
 GUY2CHN ES   2   2144 43.21                             111   -1.03 4  297 236 
 GUY2CHZ I        2144 51.84         5.5 0.28                           297 236 
                                                                                
