 2013  315 2145 38.7 L   6.782 -73.179145.4  RSN  5 0.3 1.5LRSN                1
 GAP=133        0.60       3.7     3.4  5.9 -0.1936E+01  0.2777E+01 -0.1696E+01E
 Epicentro: LOS SANTOS - SANTANDER                                             3
 ACTION:UPD 13-04-09 14:02 OP:ep   STATUS:               ID:20130315214538 L   I
 2013-03-15-2138-49M.COL___210                                                 6
 STAT SP IPHASW D HRMM SECON CODA AMPLIT PERI AZIMU VELO AIN AR TRES W  DIS CAZ7
 BAR2 SZ EP   2   2145 57.88                             171   -0.39 5 20.9 181 
 BAR2 SZ ES   2   2146 13.68                             171    0.16 5 20.9 181 
 BRR  HN ES   2   2146 16.86                             153    0.76 5 69.1 301 
 PAM  SZ EP       2146  1.28                             149    0.1310 81.3  41 
 PAM  SN ES   1   2146 18.24                             149   -0.39 7 81.3  41 
 RUS  HZ EP       2146  2.49                             144    0.1610 98.9 174 
 RUS  HZ I        2146  3.63         3.2 0.16            144           98.9 174 
 RUS  HN ES       2146 20.68                             144   -0.0510 98.9 174 
 PTB  HZ EP       2146  5.40                             132    0.09 9  144 259 
 PTB  HN ES       2146 25.78                             132   -0.27 9  144 259 
 PTB  HN I        2146 31.57         6.9 0.48            131            144 259 
                                                                                
