 2011  915 2356 32.6 L   6.745 -73.191143.2  RSN  7 0.5 1.7LRSN                1
 GAP=173        0.77       5.6     5.7  9.7  0.6019E+01  0.1886E+02  0.1679E+02E
 Epicentro: VILLANUEVA - SANTANDER                                             3
 ACTION:UPD 12-07-13 15:57 OP:ep   STATUS:               ID:20110915235632 L   I
 2011-09-15-2354-39S.COL___139                                                 6
 STAT SP IPHASW D HRMM SECON CODA AMPLIT PERI AZIMU VELO AIN AR TRES W  DIS CAZ7
 GIR2 SZ EP   1   2356 51.99                             165   -0.14 7 36.9 360 
 GIR2 SZ ES   2   2357  7.25                             165   -0.11 5 36.9 360 
 RUS  HZ EP       2356 55.83                             145    0.1410 95.0 173 
 RUS  HN ES   1   2357 13.89                             145    0.19 7 95.0 173 
 RUS  HZ I        2357 15.67         9.7 0.38                          95.0 173 
 ZAR  HE ES   1   2357 29.81                             122    0.18 6  202 294 
 NOR  SN ES   1   2357 33.79                             119   -0.67 6  227 235 
 CHI  HZ EP   1   2357  8.56                             117   -0.81 6  241 194 
 CHI  HZ I        2357 45.10         3.1 0.26                           241 194 
 RREF HN ES   1   2357 53.48                             111    0.54 5  314 230 
 PRA  HZ EP   1   2357 26.00                             106    0.89 4  384 209 
                                                                                
