 2013  915 2203 54.8 L   6.431 -73.755 40.0  RSN  7 0.4 1.6LRSN                1
 GAP=158        0.97       3.9     3.9  8.0 -0.4161E+01  0.6038E+01 -0.1665E+01E
 Epicentro: SANTA HELENA DEL OPON - SANTANDER                                  3
 ACTION:UPD 13-10-22 09:22 OP:ep   STATUS:               ID:20130915220354 L   I
 OLDACT:REG 13-09-15 22:09 OP:mh   STATUS:               ID:20130915215959     3
 2013-09-15-2159-59M.COL___269                                                 6
 STAT SP IPHASW D HRMM SECON CODA AMPLIT PERI AZIMU VELO AIN AR TRES W  DIS CAZ7
 BAR2 SZ EP       22 4 10.44                             142   -0.0710 65.8  74 
 BAR2 SZ ES   1   22 4 23.17                             142    0.42 7 65.8  74 
 BAR2 SZ I        22 4 23.93        20.2 0.50            145           65.8  74 
 BRR  HZ EP   1   22 4 10.77                             138   -0.13 7 74.9   4 
 BRR  HN ES       22 4 23.54                             138    0.0810 74.9   4 
 BRR  HZ I        22 4 24.99        13.5 0.12            139           74.9   4 
 PTB  HZ EP   1   22 4 10.69                             137   -0.54 7 78.4 279 
 PTB  HN ES       22 4 23.66                             137   -0.3710 78.4 279 
 PTB  HZ I        22 4 26.87        13.1 0.26            135           78.4 279 
 NOR  HZ EP   1   22 4 19.85                             116    0.65 7  156 232 
 NOR  HN ES       22 4 38.13                             116   -0.10 9  156 232 
 NOR  HZ I        22 4 44.14         8.0 0.12            116            156 232 
 ZAR  HZ EP   1   22 4 20.68                             114    0.08 7  169 314 
 ZAR  HN ES       22 4 41.60                             114    0.88 9  169 314 
 ZAR  HZ I        22 4 43.50        11.8 0.54            114            169 314 
 GUY2CHZ EP   4   22 4 28.95                             108    1.52 0  223 233 
 GUY2CHN ES   4   22 4 54.65                             108    1.78 0  223 233 
 GUY2CHZ I        22 4 59.99         4.4 0.30                           223 233 
 SML  HZ EP   1   22 4 31.58                             105   -0.25 6  264 352 
 SML  HE ES       22 5  0.03                             105   -0.67 8  264 352 
 SML  HZ I        22 5  4.59         6.5 0.10            105            264 352 
                                                                                
