 2013  415 2253 22.9 L   6.784 -73.155138.5  RSN  6 0.5 1.4LRSN                1
 GAP=183        0.99       7.2     7.5  9.3  0.5725E+01  0.1736E+02  0.4883E+01E
 Epicentro: LOS SANTOS - SANTANDER                                             3
 ACTION:UPD 13-05-22 14:38 OP:EP   STATUS:               ID:20130415225322 L   I
 2013-04-15-2248-51M.COL___209                                                 6
 STAT SP IPHASW D HRMM SECON CODA AMPLIT PERI AZIMU VELO AIN AR TRES W  DIS CAZ7
 BAR2 SZ ES   1   2253 55.42                             171   -0.77 7 21.4 188 
 BAR2 SZ I        2253 57.93        15.7 0.16            173           21.4 188 
 GIR2 SZ EP   1   2253 41.72                             166    0.00 7 32.8 353 
 GIR2 SZ I        2253 58.69         5.2 0.50            155           32.8 353 
 BRR  HZ EP       2253 43.31                             151    0.0810 71.1 300 
 BRR  HN ES   1   2253 59.92                             151    0.81 7 71.1 300 
 BRR  HZ I        2254  1.34         4.3 0.18            146           71.1 300 
 RUS  HZ EP   1   2253 46.24                             143    0.45 7 98.9 175 
 RUS  HN ES   1   2254  3.83                             143    0.16 7 98.9 175 
 RUS  HZ I        2254  5.94         3.2 0.26            140           98.9 175 
 PTB  HZ EP   1   2253 48.46                             131   -0.66 7  146 259 
 PTB  HN ES   1   2254  9.10                             131   -0.50 7  146 259 
 PTB  HZ I        2254 13.28         3.9 0.28            127            146 259 
 NOR  HZ EP   1   2253 57.71                             117   -0.27 6  233 235 
 NOR  HE ES   1   2254 26.00                             117    0.63 6  233 235 
 NOR  HZ I        2254 31.27         2.0 0.22            113            233 235 
                                                                                
