 2011  615 2306 13.5 L   6.773 -73.098147.8  RSN  8 0.2 1.7LRSN                1
 GAP=144        0.48       3.2     6.3  4.2 -0.6933E+01 -0.3825E+01  0.9499E+00E
 Epicentro: LOS SANTOS - SANTANDER                                             3
 ACTION:UP  11-07-14 19:05 OP:ep   STATUS:               ID:20110615230613 L   I
 2011-06-15-2303-02S.COL___138                                                 6
 STAT SP IPHASW D HRMM SECON CODA AMPLIT PERI AZIMU VELO SNR AR TRES W  DIS CAZ7
 BAR2 SZ EP   1   23 6 33.16                             171    -0.2 7   22 205 
 BAR2 SZ ES   1   23 6 48.54                             171    -0.3 7   22 205 
 BAR2 SZ I        23 6 49.86        22.3 0.24                            22 205 
 BTL  SZ EP   1   23 6 33.66                             170     0.3 7   25 311 
 BTL  SZ ES   2   23 6 48.76                             170    -0.2 5   25 311 
 PAM  SZ EP   1   23 6 36.01                             151     0.1 7   77  35 
 PAM  SN ES   2   23 6 53.41                             151     0.1 5   77  35 
 BRR  HZ EP   1   23 6 34.98                             151    -0.2 7   77 299 
 BRR  HZ I        23 6 35.23        30.0 0.12                            77 299 
 BRR  HN ES   2   23 6 52.56                             151     0.4 5   77 299 
 RUS  HZ EP   1   23 6 37.19                             145     0.0 7   97 179 
 RUS  HN ES   2   23 6 56.03                             145     0.3 5   97 179 
 RUS  HZ I        23 6 56.57         5.0 0.39                            97 179 
 BRI  SZ EP   1   23 6 37.84                             141     0.2 7  110  18 
 BRI  SZ I        23 7  1.12         4.4 0.35                           110  18 
 GRA  SZ EP   1   23 6 38.92                             137    -0.1 7  127  15 
 GRA  SZ ES   2   23 6 58.69                             137    -0.3 5  127  15 
 GRA  SZ I        23 7  0.51         5.0 0.27                           127  15 
 CHI  HZ EP   1   23 6 51.12                             118     0.0 6  247 197 
 CHI  HZ I        23 6 51.78         1.5 0.21                           247 197 
                                                                                
