 2012  115 2349 48.7 L   6.725 -73.181144.0  RSN  4 0.4 1.5LRSN                1
 GAP=175        0.68       8.0     8.8  8.9  0.3882E+02  0.4656E+01  0.1718E+02E
 Epicentro: VILLANUEVA - SANTANDER                                             3
 ACTION:UP  12-02-03 08:17 OP:REBC STATUS:               ID:20120115234948 L   I
 2012-01-15-2350-00M.COL___187                                                 6
 STAT SP IPHASW D HRMM SECON CODA AMPLIT PERI AZIMU VELO SNR AR TRES W  DIS CAZ7
 GIR2 SZ ES   3   2350 22.34                             165    -1.4 2   39 358 
 BRR  HZ EP       2350  9.56                             152    -0.110   72 306 
 BRR  HN ES   1   2350 26.58                             152     0.5 7   72 306 
 BRR  HZ I        2350 30.48         8.3 0.12                            72 306 
 RUS  HZ EP       2350 11.82                             146     0.110   93 173 
 RUS  HN ES   2   2350 29.65                             146     0.0 5   93 173 
 RUS  HZ I        2350 30.95         3.7 0.18                            93 173 
 PTB  HZ EP       2350 14.83                             133    -0.2 9  143 262 
 PTB  HE ES   2   2350 35.60                             133     0.0 5  143 262 
                                                                                
