 2010 1215 2305 46.3 L   6.795 -73.178142.9  RSN 13 0.3 3.1LRSN                1
 GAP=133        0.61       2.0     3.2  4.5 -0.1223E+01  0.5040E+01  0.8075E+00E
 Epicentro: LOS SANTOS - SANTANDER                                             3
 ACTION:UP  11-01-14 15:25 OP:pat  STATUS:               ID:20101215230546 L   I
 2010-12-15-2300-00M.COL___131                                                 6
 STAT SP IPHASW D HRMM SECON CODA AMPLIT PERI AZIMU VELO SNR AR TRES W  DIS CAZ7
 BAR2 SZ IP       23 6  5.61                             171     0.110   22 181 
 BAR2 SZ ES   1   23 6 20.45                             171    -0.1 7   22 181 
 BAR2 SZ I        23 6 22.24       339.6 0.19                            22 181 
 RUS  HZ IP     D 23 6  9.57                             143    -0.110  100 174 
 RUS  HE ES   1   23 6 27.72                             143    -0.3 7  100 174 
 RUS  HZ I        23 6 30.00       133.5 0.36                           100 174 
 GRA  SZ IP       23 6 11.40                             136     0.010  127  19 
 GRA  SZ ES   1   23 6 30.95                             136     0.0 7  127  19 
 GRA  SZ I        23 6 32.44       147.4 0.28                           127  19 
 OCA  SZ EP       23 6 14.13                             129    -0.2 9  160 354 
 OCA  SZ ES   1   23 6 36.64                             129     0.4 7  160 354 
 OCA  SZ I        23 6 41.29       151.3 0.52                           160 354 
 YOP  SZ IP     D 23 6 16.29                             125     0.1 9  180 152 
 YOP  SN ES   1   23 6 39.77                             125     0.2 7  180 152 
 YOP  SZ I        23 6 44.68        64.4 0.25                           180 152 
 NOR  SZ EP   1   23 6 21.43                             118    -0.1 6  232 234 
 NOR  SE ES   1   23 6 48.94                             118     0.0 6  232 234 
 CHI  HZ EP       23 6 23.64                             117     0.0 8  247 194 
 CHI  HN ES   1   23 6 53.26                             117     0.5 6  247 194 
 CHI  HZ I        23 6 56.79        96.6 0.61                           247 194 
 HEL  HZ EP   1   23 6 26.71                             114     0.8 6  268 256 
 HEL  HE ES   1   23 6 56.81                             114     0.0 6  268 256 
 HEL  HZ I        23 7  3.79        68.3 0.34                           268 256 
 VIL  SZ EP   2   23 6 29.41                             112     0.2 4  300 189 
 VIL  SE ES   2   23 7  2.56                             112    -0.2 4  300 189 
 VIL  SZ I        23 7 13.44        66.6 0.67                           300 189 
 RREF HZ EP   1   23 6 32.40                             110     0.5 5  319 229 
 RREF HE ES   1   23 7  7.49                             110     0.0 5  319 229 
 RREF HZ I        23 7 17.65       106.2 0.50                           319 229 
 DBB  SZ EP   2   23 6 32.12                             109    -1.1 3  336 274 
 DBB  SZ I        23 7 11.24        14.5 0.24                           336 274 
 TOL  SZ EP   1   23 6 33.45                             109    -0.6 5  341 224 
 PRA  HZ EP   1   23 6 39.21                             106    -0.2 4  390 209 
 PRA  HE ES   1   23 7 20.77                             106    -0.1 4  390 209 
 PRA  HZ I        23 7 27.71       187.5 0.25                           390 209 
                                                                                
