 2013  215 2229 52.8 L   6.398 -73.604110.5  RSN 10 0.3 2.1LRSN                1
 GAP= 69        0.55       1.8     2.0  4.3 -0.2757E+00  0.3790E+01  0.7453E+00E
 Epicentro: SANTA HELENA DEL OPON - SANTANDER                                  3
 ACTION:UPD 13-03-12 09:33 OP:ep   STATUS:               ID:20130215222952 L   I
 2013-02-15-2224-48M.COL___192                                                 6
 STAT SP IPHASW D HRMM SECON CODA AMPLIT PERI AZIMU VELO AIN AR TRES W  DIS CAZ7
 BAR2 SZ IP       2230  9.68                             153    0.3510 51.3  65 
 BAR2 SZ ES   1   2230 22.40                             153    0.15 7 51.3  65 
 BRR  HZ IP     C 2230 10.71                             141   -0.1210 79.3 351 
 BRR  HE ES       2230 24.77                             141   -0.1510 79.3 351 
 BRR  HE I        2230 25.49        85.8 0.16            140           79.3 351 
 RUS  HZ EP       2230 11.57                             142   -0.0310 80.3 134 
 RUS  HE ES   1   2230 25.91                             142   -0.37 7 80.3 134 
 RUS  HE I        2230 29.48        21.8 0.35            142           80.3 134 
 PTB  HZ EP   4   2230 10.77                             136   -1.39 0 95.6 279 
 PTB  HZ I        2230 28.00        28.3 0.09                          95.6 279 
 PAM  SZ EP   1   2230 17.65                             123    0.26 7  144  44 
 PAM  SE ES       2230 36.73                             123    0.13 9  144  44 
 PAM  SZ I        2230 43.31         8.3 0.43            123            144  44 
 NOR  HZ EP   1   2230 18.91                             119   -0.36 7  168 237 
 NOR  HN ES   1   2230 40.57                             119    0.63 7  168 237 
 NOR  HZ I        2230 44.89        13.8 0.17            117            168 237 
 ZAR  HZ EP   1   2230 20.77                             116   -0.20 7  184 311 
 ZAR  HN ES   1   2230 42.83                             116   -0.14 7  184 311 
 ZAR  HZ I        2230 47.34        21.0 0.31            115            184 311 
 CHI  HZ EP   1   2230 23.00                             115    0.18 6  196 184 
 CHI  HN ES   1   2230 45.89                             115   -0.36 6  196 184 
 CHI  HZ I        2230 49.66        11.8 0.32            114            196 184 
 HEL  HZ EP       2230 24.79                             112    0.00 8  214 264 
 HEL  HN ES       2230 49.82                             112    0.05 8  214 264 
 HEL  HZ I        2230 52.22         9.0 0.27            111            214 264 
 SML  HZ EP   1   2230 30.52                             107   -0.31 6  271 349 
 SML  HE ES   1   2231  0.52                             107    0.01 6  271 349 
 SML  HZ I        2231  5.45        23.9 0.14            106            271 349 
                                                                                
