 2011  215 2255 23.5 L   6.741 -73.086144.0  RSN  7 0.3 1.8LRSN                1
 GAP=166        0.63       3.7     6.1  7.3 -0.1082E+02  0.1676E+02 -0.2760E+01E
 Epicentro: JORDAN - SANTANDER                                                 3
 ACTION:UP  11-03-28 15:08 OP:jfem STATUS:               ID:20110215225523 L   I
 2011-02-15-2253-26S.COL___136                                                 6
 STAT SP IPHASW D HRMM SECON CODA AMPLIT PERI AZIMU VELO SNR AR TRES W  DIS CAZ7
 BAR2 SZ EP   2   2255 42.78                             172    -0.1 5   20 213 
 BAR2 SZ ES   2   2255 57.86                             172    -0.1 5   20 213 
 BAR2 SZ I        2255 59.31        14.8 0.36                            20 213 
 BTL  SZ EP   1   2255 43.06                             168     0.0 7   28 314 
 RUS  HZ EP   1   2255 46.24                             145    -0.3 7   94 180 
 RUS  HN ES   1   2256  4.81                             145     0.2 7   94 180 
 RUS  HZ I        2256  6.41         5.4 0.20                            94 180 
 GRA  SZ EP   1   2255 49.44                             135     0.5 7  130  14 
 GRA  SZ ES   1   2256  8.57                             135    -0.3 7  130  14 
 GRA  SZ I        2256 10.33         9.3 0.30                           130  14 
 NOR  SZ EP   2   2255 58.65                             118    -0.7 4  237 237 
 NOR  SE ES   1   2256 27.10                             118    -0.2 6  237 237 
 CHI  HZ EP   1   2256  0.38                             117    -0.2 6  244 197 
 CHI  HZ I        2256  3.32         4.1 0.33                           244 197 
 CHI  HE ES   2   2256 30.16                             117     0.6 4  244 197 
 HEL  HZ EP   2   2256  4.77                             114     0.6 4  277 257 
 HEL  HN ES   2   2256 36.12                             114     0.2 4  277 257 
 HEL  HZ I        2256 41.83         4.7 0.29                           277 257 
                                                                                
