 2016 1015 2048 17.6 L   6.795 -73.161144.4  RSN  8 0.5 2.5LRSN                1
 GAP=135        1.16       5.3     5.8 11.1 -0.1024E+02  0.1084E+02  0.1742E+02E
 Epicentro: LOS SANTOS - SANTANDER                                             3
 ACTION:UPD 16-11-09 19:20 OP:rebc STATUS:               ID:20161015204818dL   I
 OLDACT:DUP 16-10-16 02:51 OP:drio STATUS:               ID:20161015203741d    3
 2016-10-15-2038-00M.COL___374                                                 6
 STAT SP IPHASW D HRMM SECON CODA AMPLIT PERI AZIMU VELO AIN AR TRES W  DIS CAZ7
 BAR2 EZ ES       2048 52.01                             171   -0.1710 22.5 186 
 BAR2 EZ I        2048 54.52        59.3 0.34            169           22.5 186 
 BRR  HN ES       2048 55.70                             153    0.8810 70.0 300 
 PAM  EZ EP       2048 39.73                             150    0.0210 78.9  40 
 PAM  HN ES       2048 56.69                             150   -0.3110 78.9  40 
 PAM  EZ I        2048 58.92        80.6 0.48            151           78.9  40 
 RUS  HN ES       2048 59.69                             144    0.1510  100 175 
 RUS  HZ I        2049  0.63        49.4 0.32            142            100 175 
 PTB  HN ES       2049  4.37                             132   -0.71 9  146 259 
 PTB  HZ I        2049  9.47        29.7 0.24            130            146 259 
 SPBC HN ES       2049  7.37                             129   -0.47 9  162 219 
 SPBC HZ I        2049 10.17        55.6 0.24            127            162 219 
 NOR  HN ES       2049 20.95                             118    0.26 8  233 234 
 NOR  HZ I        2049 26.32        25.3 0.18            117            233 234 
 CHI  HN ES       2049 24.77                             117    0.44 8  248 195 
 CHI  HZ I        2049 29.81        13.0 0.28            115            248 195 
                                                                                
