 2011  715 2051  6.7 L   6.783 -73.071145.4  RSN 12 0.3 2.4LRSN                1
 GAP=147        0.57       2.5     4.0  4.1 -0.4018E+01  0.3398E+01  0.1027E+01E
 Epicentro: LOS SANTOS - SANTANDER                                             3
 ACTION:UPD 12-07-25 14:01 OP:epov STATUS:               ID:20110715205106 L   I
 2011-07-15-2040-00M.COL___133                                                 6
 STAT SP IPHASW D HRMM SECON CODA AMPLIT PERI AZIMU VELO AIN AR TRES W  DIS CAZ7
 BAR2 SZ IP       2051 26.40                             170    0.0510 24.4 210 
 BAR2 SZ ES   1   2051 41.42                             170   -0.23 7 24.4 210 
 BAR2 SZ I        2051 44.40        67.2 0.32                          24.4 210 
 PAM  SZ EP       2051 29.27                             151    0.5510 73.9  34 
 PAM  SN ES   1   2051 45.76                             151   -0.10 7 73.9  34 
 BRR  HZ EP       2051 28.28                             150   -0.0610 79.4 297 
 BRR  HE ES   1   2051 45.25                             150    0.07 7 79.4 297 
 BRR  HZ I        2051 47.71        54.6 0.19                          79.4 297 
 RUS  HZ EP       2051 30.35                             144    0.0410 98.5 181 
 RUS  HE ES   1   2051 48.67                             144   -0.02 7 98.5 181 
 RUS  HZ I        2051 51.06        38.9 0.46                          98.5 181 
 BRI  SZ EP   2   2051 29.87                             141   -0.66 5  108  16 
 GRA  SZ EP       2051 32.11                             137    0.1910  125  14 
 GRA  SZ ES   1   2051 51.00                             137   -0.56 7  125  14 
 GRA  SZ I        2051 53.28        23.5 0.10                           125  14 
 NOR  SZ EP   2   2051 43.40                             117    0.33 4  240 236 
 NOR  SE ES   2   2052 11.67                             117    0.27 4  240 236 
 CHI  HZ EP   1   2051 44.49                             117    0.02 6  249 197 
 CHI  HN ES   1   2052 13.47                             117   -0.44 6  249 197 
 CHI  HZ I        2052 23.57        12.1 0.50                           249 197 
 HEL  HZ EP   2   2051 47.05                             114   -0.73 4  280 257 
 GUY  SZ EP   2   2051 51.44                             111    0.19 4  309 236 
 GUY  SE ES   2   2052 26.24                             111    0.27 4  309 236 
 GUY  SZ I        2052 32.72        25.5 0.26                           309 236 
 DBB  SZ EP   1   2051 55.15                             109   -0.02 5  348 274 
 PRA  HZ EP   2   2052  0.18                             106   -0.37 3  395 211 
 PRA  HN ES   2   2052 42.37                             106   -0.14 3  395 211 
                                                                                
