 2017  115 2114 11.6 L   6.809 -73.157147.7  RSN 12 0.5 2.1LRSN                1
 GAP=118        1.11       4.1     4.3  5.9  0.2650E+00  0.4331E+01  0.5633E+01E
 Epicentro: LOS SANTOS - SANTANDER                                             3
 ACTION:UPD 17-05-22 16:00 OP:jn   STATUS:               ID:20170115211411 L   I
 OLDACT:REG 17-01-16 04:01 OP:lv   STATUS:               ID:20170115210743     3
 2017-01-15-2108-00M.COL___338                                                 6
 STAT SP IPHASW D HRMM SECON CODA AMPLIT PERI AZIMU VELO AIN AR TRES W  DIS CAZ7
 BAR2 EZ EP       2114 31.34                             170   -0.1410 24.2 187 
 BAR2 EZ ES       2114 46.23                             170   -0.7510 24.2 187 
 BAR2 EZ I        2114 49.20        28.9 0.20            168           24.2 187 
 BRR  HZ EP       2114 33.08                             153    0.2110 69.6 298 
 BRR  HN ES       2114 50.24                             153    0.7810 69.6 298 
 BRR  HZ I        2114 53.40        26.9 0.26            154           69.6 298 
 PAM  EZ EP       2114 34.36                             151    0.3410 77.4  41 
 PAM  EN ES       2114 51.50                             151   -0.0110 77.4  41 
 PAM  EZ I        2114 54.58        18.8 0.27            156           77.4  41 
 RUS  HZ EP       2114 35.35                             144   -0.2710  102 175 
 RUS  HE ES       2114 54.67                             144    0.3210  102 175 
 RUS  HZ I        2114 56.08        12.3 0.23            144            102 175 
 PTB  HZ EP       2114 37.86                             133   -0.77 9  147 258 
 PTB  HN ES       2114 59.47                             133   -0.25 9  147 258 
 PTB  HZ I        2115  0.16        15.7 0.18            133            147 258 
 ZAR  HZ EP       2114 43.85                             123   -0.16 9  203 292 
 ZAR  HE ES       2115  9.29                             123   -0.00 9  203 292 
 ZAR  HZ I        2115 14.25        11.9 0.25            124            203 292 
 NOR  HZ EP       2114 47.63                             119    0.23 8  234 234 
 NOR  HE ES       2115 15.07                             119   -0.25 8  234 234 
 NOR  HZ I        2115 18.33         9.5 0.14            120            234 234 
 CHI  HZ EP       2114 49.67                             117    0.19 8  249 195 
 CHI  HE ES       2115 19.60                             117    0.58 8  249 195 
 CHI  HZ I        2115 25.14         4.8 0.30            118            249 195 
 ROSC BZ EP   9   2114 51.97                             117    2.12 0  253 211 
 ROSC BN ES       2115 22.48                                    0.68 8  253 211 
 ROSC BZ I        2115 27.59         9.2 0.20            118            253 211 
 GUY2CHZ EP   4   2114 56.75                             113    1.50 0  301 234 
 GUY2CHN ES   4   2115 28.76                             113   -0.54 0  301 234 
 GUY2CHZ  IAML    2115 36.58         7.4 0.54                           301 234 
 PTGC HZ EP       2114 55.16                             112   -0.54 7  310 159 
 PTGC HN ES   4   2115 27.35                             112   -2.75 0  310 159 
 ORTC HZ EP       2115  6.54                             107    0.94 6  396 216 
 ORTC HN ES   4   2115 45.88                             107   -1.83 0  396 216 
 ORTC HZ I        2115 55.31         4.2 0.20            107            396 216 
                                                                                
