 2010  815 2017 14.0 L   6.802 -73.114147.7  RSN  5 0.1 1.6LRSN                1
 GAP=168        0.33       2.1     4.6  4.1  0.4114E+01 -0.9046E+01 -0.2815E+01E
 Epicentro: LOS SANTOS - SANTANDER                                             3
 ACTION:UP  10-09-07 10:55 OP:vdl  STATUS:               ID:20100815201713 L   I
 2010-08-15-2012-21S.COL___110                                                 6
 STAT SP IPHASW D HRMM SECON CODA AMPLIT PERI AZIMU VELO SNR AR TRES W  DIS CAZ7
 BAR2 SZ EP   1   2017 33.71                             171    -0.1 7   24 198 
 BAR2 SZ I        2017 34.06        13.4 0.39                            24 198 
 BAR2 SZ ES   2   2017 49.07                             171    -0.3 5   24 198 
 GIR2 SZ EP   1   2017 33.81                             167    -0.1 7   32 344 
 GIR2 SZ ES   3   2017 49.52                             167     0.1 2   32 344 
 BRR  HZ EP   1   2017 35.52                             152     0.0 7   74 297 
 BRR  HZ I        2017 35.68        14.9 0.05                            74 297 
 BRR  HE ES       2017 52.31                             152     0.010   74 297 
 RUS  HZ EP   1   2017 38.01                             144     0.1 7  101 178 
 RUS  HN ES       2017 56.63                             144     0.110  101 178 
 RUS  HZ I        2017 58.63         3.9 0.30                           101 178 
 GUE  SZ EP   1   2017 38.75                             140     0.0 7  116  10 
 GUE  SZ ES   2   2017 58.37                             140     0.2 5  116  10 
 GUE  SZ I        2017 59.93         2.6 0.17                           116  10 
                                                                                
