 2016  615 2248 14.8 L   6.779 -73.136144.4  RSN  9 0.3 2.0LRSN                1
 GAP=139        0.78       3.0     3.1  4.5 -0.1651E+01  0.4702E+01  0.1405E+01E
 Epicentro: LOS SANTOS - SANTANDER                                             3
 ACTION:UPD 16-07-21 22:19 OP:rebc STATUS:               ID:20160615224814 L   I
 OLDACT:REG 16-06-16 03:45 OP:cara STATUS:               ID:20160615224745     3
 2016-06-15-2247-45M.COL___346                                                 6
 STAT SP IPHASW D HRMM SECON CODA AMPLIT PERI AZIMU VELO AIN AR TRES W  DIS CAZ7
 BAR2 EZ IP     C 2248 34.15                             171   -0.1210 21.2 194 
 BAR2 EZ ES       2248 49.15                             171   -0.2710 21.2 194 
 BAR2 EZ I        2248 49.87        16.3 0.20                          21.2 194 
 BRR  HZ EP       2248 36.05                             151    0.0810 73.3 300 
 BRR  HN ES       2248 53.10                             151    0.6610 73.3 300 
 BRR  HZ I        2248 57.35        22.5 0.46                          73.3 300 
 PAM  EZ IP       2248 37.19                             150    0.2010 78.5  38 
 PAM  EN ES       2248 53.93                             150   -0.3210 78.5  38 
 PAM  EZ I        2248 54.45        19.5 0.18                          78.5  38 
 RUS  HZ EP       2248 38.61                             144    0.3210 98.1 177 
 RUS  HN ES       2248 56.37                             144   -0.2010 98.1 177 
 RUS  HZ I        2248 57.62        11.1 0.30                          98.1 177 
 PTB  HZ EP       2248 41.61                             131   -0.15 9  148 260 
 PTB  HN ES       2249  2.62                             131   -0.13 9  148 260 
 PTB  HZ I        2249  4.13        17.9 0.14                           148 260 
 SPBC HZ EP       2248 43.20                             129    0.07 9  162 220 
 SPBC HE ES       2249  5.33                             129    0.14 9  162 220 
 SPBC HZ I        2249  7.48        15.4 0.26                           162 220 
 ZAR  HZ EP       2248 47.35                             122   -0.05 8  206 293 
 ZAR  HN ES       2249 12.41                             122   -0.38 8  206 293 
 ZAR  HZ I        2249 20.76        20.8 0.52                           206 293 
 NOR  HZ EP       2248 50.82                             118    0.38 8  234 235 
 NOR  HE ES       2249 18.64                             118    0.43 8  234 235 
 NOR  HZ I        2249 20.07         6.7 0.18                           234 235 
 GUY2CHZ EP       2248 57.85                             112   -0.49 7  301 235 
 GUY2CHN ES       2249 31.76                             112   -0.50 7  301 235 
 GUY2CHZ I        2249 41.25         5.4 0.52                           301 235 
                                                                                
