 2017 1115 2202 20.7 L   6.789 -73.171141.6  RSN  4 0.1 1.5LRSN                1
 GAP=141        0.41       2.8     2.5  4.3 -0.2452E+01  0.2370E+01  0.8653E+00E
 Epicentro: LOS SANTOS - SANTANDER                                             3
 ACTION:UPD 17-12-12 19:56 OP:rebc STATUS:               ID:20171115220220 L   I
 OLDACT:UP  17-11-16 05:07 OP:mg   STATUS:               ID:20171115215737     3
 OLDACT:UP  17-11-16 05:07 OP:mg   STATUS:               ID:20171115215737     3
 OLDACT:REG 17-11-16 02:49 OP:mg   STATUS:               ID:20171115215737     3
 2017-11-15-2158-00M.COL___471                                                 6
 STAT SP IPHASW D HRMM SECON CODA AMPLIT PERI AZIMU VELO AIN AR TRES W  DIS CAZ7
 BAR2 EZ EP       22 2 39.76                             171   -0.0210 21.8 183 
 BAR2 EZ ES   2   22 2 54.69                             171    0.01 5 21.8 183 
 BAR2 EZ I        22 2 56.38        14.2 0.18            171           21.8 183 
 PAM  EZ EP       22 2 42.63                             149    0.0010 80.1  41 
 PAM  EN ES       22 2 59.75                             149    0.0010 80.1  41 
 PAM  EZ I        22 3  1.93         7.7 0.50            153           80.1  41 
 RUS  HZ EP       22 2 43.76                             143   -0.2010 99.6 174 
 RUS  HN ES   1   22 3  2.31                             143    0.20 7 99.6 174 
 RUS  HZ I        22 3  4.43         3.0 0.28            146           99.6 174 
 PTB  HZ EP       22 2 47.28                             132    0.24 9  145 259 
 PTB  HN ES       22 3  7.47                             132   -0.13 9  145 259 
 PTB  HZ I        22 3 10.87         1.9 0.29            134            145 259 
                                                                                
