 2011 1015 2240 57.3 L   6.809 -73.129151.3  RSN  8 0.4 2.3LRSN                1
 GAP=138        0.82       4.0     5.0  7.6 -0.4228E+00  0.1287E+02  0.5464E+01E
 Epicentro: LOS SANTOS - SANTANDER                                             3
 ACTION:UPD 12-07-13 16:04 OP:ep   STATUS:               ID:20111015224057 L   I
 2011-10-15-2239-26S.COL___168                                                 6
 STAT SP IPHASW D HRMM SECON CODA AMPLIT PERI AZIMU VELO AIN AR TRES W  DIS CAZ7
 BAR2 SZ EP   1   2241 17.43                             170   -0.20 7 24.7 194 
 BRR  HZ EP   1   2241 19.57                             153    0.45 7 72.3 297 
 BRR  HZ I        2241 21.48        37.3 0.10                          72.3 297 
 BRR  HN ES   1   2241 37.00                             153    0.86 7 72.3 297 
 PAM  SZ EP   1   2241 20.27                             152    0.26 7 75.5  39 
 PAM  SN ES   1   2241 37.56                             152   -0.15 7 75.5  39 
 PAM  SZ I        2241 39.86        20.2 0.60                          75.5  39 
 RUS  HZ EP   1   2241 21.44                             145   -0.23 7  101 177 
 RUS  HN ES   1   2241 40.36                             145   -0.31 7  101 177 
 RUS  HZ I        2241 41.85        21.8 0.25                           101 177 
 OCA  SZ EP   1   2241 26.10                             131    0.12 7  160 352 
 OCA  SZ ES   1   2241 47.96                             131   -0.39 7  160 352 
 OCA  SZ I        2241 53.17        25.9 0.29                           160 352 
 ZAR  HZ EP   1   2241 29.87                             123   -0.38 6  205 292 
 ZAR  HN ES   1   2241 55.13                             123   -0.82 6  205 292 
 ZAR  HZ I        2242  2.40        14.1 0.27                           205 292 
 HEL  HZ EP   1   2241 38.87                             116    0.85 6  274 256 
 HEL  HN ES   1   2242  9.58                             116   -0.20 6  274 256 
 HEL  HZ I        2242 15.82         8.5 0.34                           274 256 
 PRA  HZ EP   1   2241 51.31                             107    0.09 4  394 210 
 PRA  HZ I        2241 53.33        33.0 0.15                           394 210 
 PRA  HN ES   1   2242 33.34                             107    0.06 4  394 210 
                                                                                
