 2014  515 2000 25.6 L   7.382 -73.174132.2  RSN 11 0.4 2.6LRSN                1
 GAP=156        0.78       5.0     2.8  4.8 -0.3822E+01  0.2307E+01  0.6790E+01E
 Epicentro: EL PLAYON - SANTANDER                                              3
 ACTION:UPD 15-03-16 16:58 OP:nd   STATUS:               ID:20140515200025 L   I
 OLDACT:UP  14-05-16 06:56 OP:mh   STATUS:               ID:20140515200000     3
 OLDACT:UP  14-05-16 06:55 OP:mh   STATUS:               ID:20140515200000     3
 OLDACT:UP  14-05-16 05:44 OP:mh   STATUS:               ID:20140515200000     3
 OLDACT:UP  14-05-16 05:44 OP:mh   STATUS:               ID:20140515200000     3
 OLDACT:UP  14-05-16 05:44 OP:mh   STATUS:               ID:20140515200000     3
 OLDACT:REG 14-05-16 02:17 OP:mh   STATUS:               ID:20140515200000     3
 2014-05-15-2000-00M.COL___249                                                 6
 STAT SP IPHASW D HRMM SECON CODA AMPLIT PERI AZIMU VELO AIN AR TRES W  DIS CAZ7
 PAM  SZ EP       20 0 45.21                             157    0.2610 52.6  95 
 PAM  SN ES       20 1  0.10                             157    0.0210 52.6  95 
 PAM  SZ I        20 1  3.10       136.4 0.29            161           52.6  95 
 BRR  HZ EP       20 0 44.98                             152   -0.0110 66.7 243 
 BRR  HN ES       20 1  0.00                             152   -0.1410 66.7 243 
 BRR  HZ I        20 1  1.19        98.4 0.11            150           66.7 243 
 PTB  HZ EP       20 0 53.02                             124   -0.57 9  170 237 
 PTB  HN ES   1   20 1 15.52                             124    0.07 7  170 237 
 PTB  HZ I        20 1 18.87        66.2 0.15            125            170 237 
 TAM  HZ EP   1   20 0 55.32                             122    0.10 7  185 124 
 TAM  HN ES       20 1 18.39                             122    0.04 9  185 124 
 NOR  HZ EP     C 20 1  5.41                             111    0.37 8  275 223 
 NOR  HN ES       20 1 36.21                             111    0.38 8  275 223 
 NOR  HZ I        20 1 40.93        28.4 0.18            112            275 223 
 HEL  HZ EP   1   20 1  7.89                             110    0.54 5  292 243 
 HEL  HN ES   1   20 1 40.18                             110    0.23 5  292 243 
 HEL  HZ I        20 1 48.29        15.8 0.15            111            292 243 
 CHI  HZ EP   1   20 1 10.29                             109    0.72 5  311 192 
 CHI  HN ES   1   20 1 43.26                             109   -0.64 5  311 192 
 SDV  BZ EP   1   20 1 10.22                             108   -0.84 5  326  59 
 SDV  BN ES   4   20 1 43.46                             108   -3.09 0  326  59 
 SDV  BZ I        20 1 44.78        13.5 0.32            110            326  59 
 DBB  SZ EP   1   20 1 11.89                             107   -0.42 5  338 263 
 DBB  SZ ES   4   20 1 45.78                             107   -3.00 0  338 263 
 GUY2CHZ EP   4   20 1 14.74                             107    1.66 0  340 226 
 GUY2CHN ES   4   20 1 51.79                             107    1.64 0  340 226 
 CBOC HZ EP   1   20 1 14.86                             106    0.31 5  356 242 
 CBOC HN ES   4   20 1 48.86                             106   -3.90 0  356 242 
 PRA  HZ EP       20 1 25.66                             102    0.39 5  448 205 
 PRA  HN ES       20 2 10.70                             102   -1.14 5  448 205 
                                                                                
