 2017 1015 2038 54.8 L   6.919 -73.056147.3  RSN  4 0.0 0.7LRSN                1
 GAP=141        0.30       1.8     2.5  2.6  0.4543E+00  0.6324E+00  0.1065E+01E
 Epicentro: PIEDECUESTA - SANTANDER                                            3
 ACTION:UPD 17-11-07 19:32 OP:rebc STATUS:               ID:20171015203854 L   I
 OLDACT:REG 17-10-16 04:15 OP:osc  STATUS:               ID:20171015203129     3
 2017-10-15-2038-00M.COL___427                                                 6
 STAT SP IPHASW D HRMM SECON CODA AMPLIT PERI AZIMU VELO AIN AR TRES W  DIS CAZ7
 BAR2 EZ EP       2039 15.04                             165    0.0110 38.8 201 
 BAR2 EZ ES       2039 30.80                             165   -0.0110 38.8 201 
 PAM  EN ES       2039 33.07                             157    0.0010 60.9  40 
 BRR  HZ EP       2039 16.44                             151    0.0710 75.4 286 
 BRR  HN ES       2039 33.14                             151   -0.0410 75.4 286 
 RUS  HZ EP       2039 19.60                             141   -0.0810  114 182 
 RUS  HN ES       2039 39.13                             141    0.0510  114 182 
 RUS  HZ I        2039 41.75         0.8 0.34            140            114 182 
                                                                                
