 2011 1115 2049 58.1 L   6.772 -73.113140.8  RSN  4 0.1 1.6LRSN                1
 GAP=142        0.31       2.1     3.1  3.8 -0.7086E+00 -0.1129E+01  0.1431E+01E
 Epicentro: LOS SANTOS - SANTANDER                                             3
 ACTION:UPD 12-07-13 16:10 OP:ep   STATUS:               ID:20111115204958 L   I
 2011-11-15-2046-20S.COL___178                                                 6
 STAT SP IPHASW D HRMM SECON CODA AMPLIT PERI AZIMU VELO AIN AR TRES W  DIS CAZ7
 BRR  HZ EP   1   2050 18.91                             150   -0.09 7 75.9 299 
 BRR  HN ES   1   2050 35.34                             150    0.05 7 75.9 299 
 BRR  HN I        2050 40.49        26.9 0.23                          75.9 299 
 PAM  SZ EP       2050 19.90                             150    0.0910 77.6  36 
 PAM  SN ES   1   2050 36.66                             150   -0.07 7 77.6  36 
 RUS  HZ EP   1   2050 21.02                             144   -0.11 7 97.3 178 
 RUS  HZ I        2050 22.26         2.8 0.14                          97.3 178 
 RUS  HE ES   1   2050 39.13                             144    0.04 7 97.3 178 
 CHI  HZ EP   2   2050 35.44                             116    0.12 4  247 196 
 CHI  HZ I        2051 12.00         2.0 0.29                           247 196 
                                                                                
