 2011  515 2303 44.4 L   6.691 -73.210167.5  RSN  5 0.2 1.6LRSN                1
 GAP=139        0.46       3.5     5.9  6.3  0.1217E+01 -0.7659E+01 -0.9118E+01E
 Epicentro: VILLANUEVA - SANTANDER                                             3
 ACTION:UP  11-06-29 08:53 OP:tino STATUS:               ID:20110515230344 L   I
 2011-05-15-2302-41S.COL___139                                                 6
 STAT SP IPHASW D HRMM SECON CODA AMPLIT PERI AZIMU VELO SNR AR TRES W  DIS CAZ7
 BAR2 SZ EP   3   23 4  6.76                             176     0.2 2   11 164 
 BRR  HZ EP   2   23 4  8.53                             156     0.5 5   72 310 
 BRR  HZ I        23 4  9.03        12.5 0.12                            72 310 
 BRR  HN ES   1   23 4 26.28                             156    -0.1 7   72 310 
 RUS  HE ES       23 4 29.33                             151     0.010   89 171 
 RUS  HZ I        23 4 30.75         2.5 0.23                            89 171 
 PAM  SZ EP   1   23 4  9.71                             150    -0.1 7   91  38 
 PAM  SN ES   1   23 4 29.68                             150     0.1 7   91  38 
 GRA  SZ EP   1   23 4 12.58                             138    -0.2 7  139  19 
 GRA  SZ I        23 4 33.76         4.4 0.45                           139  19 
                                                                                
