 2016  815 2135 59.0 L   6.785 -73.130142.0  RSN  9 0.3 1.9LRSN                1
 GAP=139        0.76       3.2     3.2  6.0 -0.2731E+01  0.6442E+01 -0.8799E+00E
 Epicentro: LOS SANTOS - SANTANDER                                             3
 ACTION:UPD 16-10-29 15:35 OP:rebc STATUS:               ID:20160815213559 L   I
 OLDACT:REG 16-08-16 04:37 OP:cara STATUS:               ID:20160815212759     3
 2016-08-15-2127-59S.COL___349                                                 6
 STAT SP IPHASW D HRMM SECON CODA AMPLIT PERI AZIMU VELO AIN AR TRES W  DIS CAZ7
 BRR  HZ IP     C 2136 19.78                             151   -0.0910 73.5 299 
 BRR  HN ES   4   2136 37.46                             151    1.30 0 73.5 299 
 BRR  HZ I        2136 42.04        12.0 0.14                          73.5 299 
 PAM  EZ IP       2136 20.81                             150   -0.0110 77.6  38 
 PAM  EE ES       2136 38.16                             150    0.3110 77.6  38 
 PAM  EZ I        2136 40.00        16.6 0.54                          77.6  38 
 RUS  HZ EP       2136 22.20                             144   -0.0510 98.8 177 
 RUS  HE ES       2136 40.32                             144   -0.0710 98.8 177 
 RUS  HZ I        2136 41.74         8.6 0.26                          98.8 177 
 PTB  HZ EP       2136 24.98                             131   -0.81 9  149 260 
 PTB  HE ES       2136 46.94                             131    0.26 9  149 260 
 PTB  HZ I        2136 52.74         7.4 0.32                           149 260 
 SPBC HZ IP       2136 27.33                             128    0.14 9  163 220 
 SPBC HN ES       2136 48.90                             128   -0.28 9  163 220 
 SPBC HZ I        2136 53.03        15.9 0.10                           163 220 
 ZAR  HZ EP       2136 31.70                             121    0.27 8  206 292 
 ZAR  HN ES       2136 56.44                             121   -0.29 8  206 292 
 ZAR  HZ I        2137  1.93        14.8 0.34                           206 292 
 NOR  HE ES       2137  2.58                             118    0.28 8  235 235 
 NOR  HZ I        2137  6.49         5.6 0.20                           235 235 
 HEL  HZ EP   9   2136 39.92                             114    0.76 0  273 256 
 HEL  HN ES       2137 11.54                                    0.29 8  273 256 
 HEL  HZ I        2137 20.10         3.5 0.30                           273 256 
 GUY2CHZ EP       2136 42.81                             112    0.32 7  302 235 
 GUY2CHE ES       2137 16.76                             112    0.35 7  302 235 
 GUY2CHZ I        2137 26.66         3.7 0.56                           302 235 
                                                                                
