 2011 1115 2306 38.1 L   6.757 -73.129143.1  RSN  5 0.1 1.7LRSN                1
 GAP=141        0.31       2.0     3.1  2.9 -0.8116E+00 -0.5910E+00  0.8620E+00E
 Epicentro: LOS SANTOS - SANTANDER                                             3
 ACTION:UPD 12-07-13 16:10 OP:ep   STATUS:               ID:20111115230638 L   I
 2011-11-15-2305-20S.COL___179                                                 6
 STAT SP IPHASW D HRMM SECON CODA AMPLIT PERI AZIMU VELO AIN AR TRES W  DIS CAZ7
 BAR2 SZ ES   1   23 7 12.33                             172    0.03 7 19.1 198 
 BAR2 SZ I        23 7 13.93        10.5 0.14                          19.1 198 
 BRR  HZ EP   1   23 6 59.14                             151   -0.02 7 75.2 301 
 BRR  HE ES   1   23 7 15.62                             151    0.00 7 75.2 301 
 BRR  HE I        23 7 16.76        24.0 0.15                          75.2 301 
 PAM  SZ EP       23 7  0.14                             149   -0.0210 80.0  36 
 PAM  SN ES   1   23 7 17.36                             149   -0.03 7 80.0  36 
 RUS  HZ EP   1   23 7  1.41                             145    0.21 7 95.7 177 
 RUS  HN ES   1   23 7 19.18                             145   -0.07 7 95.7 177 
 RUS  HZ I        23 7 21.21         5.2 0.22                          95.7 177 
 CHI  HZ EP   1   23 7 15.04                             117   -0.13 6  245 196 
 CHI  HZ I        23 7 50.27         2.0 0.13                           245 196 
                                                                                
