 2013  415 2342 39.6 L   6.767 -73.029146.4  RSN  5 0.4 1.4LRSN                1
 GAP=154        0.88       5.9     9.8  7.5  0.9242E+01  0.4469E+01  0.8103E+01E
 Epicentro: CEPITA - SANTANDER                                                 3
 ACTION:UPD 13-05-22 14:38 OP:EP   STATUS:               ID:20130415234239 L   I
 2013-04-15-2338-48M.COL___208                                                 6
 STAT SP IPHASW D HRMM SECON CODA AMPLIT PERI AZIMU VELO AIN AR TRES W  DIS CAZ7
 BAR2 SZ EP       2342 59.26                             170   -0.0810 25.7 221 
 BAR2 SZ ES       2343 15.04                             170    0.2910 25.7 221 
 BAR2 SZ I        2343 15.46         9.7 0.28            168           25.7 221 
 GIR2 SZ EP   1   2342 59.81                             164    0.25 7 39.0 332 
 GIR2 SZ ES   1   2343 14.15                             164   -1.00 7 39.0 332 
 PAM  SN ES   1   2343 19.10                             152    0.30 7 73.0  30 
 BRR  HZ EP       2343  1.36                             148   -0.2310 84.4 297 
 BRR  HN ES   1   2343 19.25                             148    0.49 7 84.4 297 
 RUS  HZ EP       2343  3.22                             145    0.0910 96.9 184 
 RUS  HE ES   1   2343 21.35                             145   -0.15 7 96.9 184 
 RUS  HZ I        2343 23.08         2.2 0.42            144           96.9 184 
                                                                                
