 2017  615 2203 18.7 L   6.755 -73.231159.0  RSN  8 0.3 1.7LRSN                1
 GAP=210        0.71       3.2     5.9  6.9  0.1647E+01 -0.8000E+01  0.2180E+01E
 Epicentro: ZAPATOCA - SANTANDER                                               3
 ACTION:UPD 17-09-14 16:52 OP:jn   STATUS:               ID:20170615220318 L   I
 OLDACT:UP  17-06-16 06:18 OP:edw  STATUS:               ID:20170615215741     3
 OLDACT:UP  17-06-16 06:17 OP:edw  STATUS:               ID:20170615215741     3
 OLDACT:UP  17-06-16 06:16 OP:edw  STATUS:               ID:20170615215741     3
 OLDACT:REG 17-06-16 03:24 OP:edw  STATUS:               ID:20170615215741     3
 2017-06-15-2158-00M.COL___368                                                 6
 STAT SP IPHASW D HRMM SECON CODA AMPLIT PERI AZIMU VELO AIN AR TRES W  DIS CAZ7
 BRR  HZ EP     C 22 3 41.25                             156    0.2210 65.9 306 
 BRR  HN ES       22 3 58.31                             156   -0.1310 65.9 306 
 BRR  HZ I        22 4  0.72        14.0 0.20            152           65.9 306 
 PTB  HZ EP       22 3 45.96                             137    0.04 9  138 260 
 PTB  HN ES       22 4  6.84                             137   -0.30 9  138 260 
 PTB  HZ I        22 4 12.51         3.1 0.12            134            138 260 
 SPBC HN ES       22 4  9.65                             134   -0.09 9  153 217 
 ZAR  HZ EP       22 3 51.04                             126   -0.35 9  197 295 
 ZAR  HN ES       22 4 17.41                             126    0.54 9  197 295 
 ZAR  HZ I        22 4 23.29         5.3 0.60            124            197 295 
 NOR  HN ES       22 4 21.59                             122   -0.19 8  224 234 
 CHI  HZ EP   4   22 3 57.87                             120    1.45 0  241 193 
 CHI  HE ES       22 4 26.29                             120    0.46 8  241 193 
 CHI  HZ I        22 4 28.96         2.6 0.32            120            241 193 
 PTGC HZ EP   2   22 4  2.49                             114   -0.58 4  308 157 
 PTGC HE ES   4   22 4 34.37                             114   -3.30 0  308 157 
 SJC  HZ EP   4   22 4 12.52                             108   -2.12 0  408 328 
 SJC  HE ES   4   22 4 53.90                             108   -4.37 0  408 328 
 SJC  HZ I        22 5  4.67         1.6 0.44            107            408 328 
                                                                                
