 2011  615 2254 53.7 L   6.379 -73.638107.2  RSN 15 0.3 2.4LRSN                1
 GAP=118        0.52       2.2     3.7  4.6 -0.3854E+01  0.6748E+01  0.1201E+00E
 Epicentro: SANTA HELENA DEL OPON - SANTANDER                                  3
 ACTION:UP  11-07-14 19:05 OP:ep   STATUS:               ID:20110615225453 L   I
 2011-06-15-2252-23S.COL___138                                                 6
 STAT SP IPHASW D HRMM SECON CODA AMPLIT PERI AZIMU VELO SNR AR TRES W  DIS CAZ7
 BAR2 SZ IP       2255 10.25                             150     0.010   56  65 
 BAR2 SZ ES   1   2255 23.07                             150     0.0 7   56  65 
 BAR2 SZ I        2255 25.10       233.7 0.25                            56  65 
 BRR  HZ EP   1   2255 11.31                             140    -0.3 7   81 354 
 BRR  HZ I        2255 19.74        37.8 0.12                            81 354 
 BRR  HN ES   2   2255 25.32                             140    -0.3 5   81 354 
 RUS  HZ EP   1   2255 12.10                             140    -0.3 7   82 131 
 RUS  HN ES   2   2255 26.76                             140    -0.1 5   82 131 
 RUS  HZ I        2255 28.03        32.9 0.33                            82 131 
 PAM  SZ EP   1   2255 18.57                             121     0.0 7  148  44 
 NOR  SN ES   2   2255 39.94                             118     0.2 5  163 237 
 BRI  SZ EP   1   2255 21.48                             116     0.5 7  175  32 
 BRI  SZ ES   2   2255 42.76                             116     0.6 4  175  32 
 BRI  SZ I        2255 50.27        32.4 0.41                           175  32 
 ROSC BZ EP   1   2255 22.89                             115     0.4 7  186 204 
 ROSC BZ I        2255 54.32        24.1 0.36                           186 204 
 GRA  SZ EP   1   2255 22.66                             114     0.0 7  190  29 
 GRA  SZ I        2255 54.04        33.8 0.28                           190  29 
 CHI  HZ EP   1   2255 23.20                             114    -0.2 6  194 183 
 CHI  HN ES   2   2255 47.01                             114     0.5 4  194 183 
 CHI  HZ I        2255 49.91        15.3 0.28                           194 183 
 OCA  SZ EP   1   2255 24.69                             112     0.0 6  209  10 
 OCA  SZ ES   2   2255 48.57                             112    -0.3 4  209  10 
 OCA  SZ I        2255 56.90        40.7 0.33                           209  10 
 RREF HZ EP   1   2255 29.84                             108    -0.2 6  250 229 
 RREF HN ES   2   2255 58.58                             108     0.1 4  250 229 
 RREF HZ I        2256  4.51        20.4 0.43                           250 229 
 VIL  SZ EP   2   2255 29.37                             107    -0.2 4  251 181 
 TOL  SZ EP   2   2255 32.59                             106     0.3 4  272 223 
 PRA  HZ EP   1   2255 38.03                             102    -0.2 5  326 205 
 PRA  HN ES   2   2256 13.41                             102     0.5 3  326 205 
 SJA  SZ EP   2   2255 40.34                             101    -0.3 3  345 186 
 SJA  SZ ES   2   2256 16.78                             101    -0.5 3  345 186 
 SJA  SZ I        2256 23.03        19.8 0.36                           345 186 
                                                                                
