 2012  615 2132 34.0 L   6.818 -73.183136.9  RSN  8 0.4 2.4LRSN                1
 GAP=131        0.81       3.0     3.9  6.5 -0.1985E+01  0.7413E+01  0.7614E+00E
 Epicentro: ZAPATOCA - SANTANDER                                               3
 ACTION:UPD 12-08-06 17:49 OP:ep   STATUS:               ID:20120615213234 L   I
 2012-06-15-2130-00M.COL___198                                                 6
 STAT SP IPHASW D HRMM SECON CODA AMPLIT PERI AZIMU VELO AIN AR TRES W  DIS CAZ7
 BAR2 SZ EP   1   2132 52.70                             169    0.09 7 25.0 180 
 BAR2 SZ ES   1   2133  7.75                             169    0.63 7 25.0 180 
 BAR2 SZ I        2133  9.18        59.5 0.09                          25.0 180 
 PAM  SZ EP       2132 55.54                             149    0.1810 78.6  43 
 PAM  SN ES   1   2133 12.30                             149    0.28 7 78.6  43 
 RUS  HZ EP   1   2132 56.99                             141   -0.09 7  103 174 
 RUS  HN ES   1   2133 14.82                             141   -0.25 7  103 174 
 RUS  HZ I        2133 16.93        44.5 0.26                           103 174 
 PTB  HZ EP   1   2132 59.87                             131   -0.06 7  144 258 
 PTB  HN ES       2133 19.75                             131   -0.40 9  144 258 
 PTB  HZ I        2133 23.27        14.9 0.14                           144 258 
 OCA  HZ EP   1   2133  0.94                             128   -0.47 7  158 355 
 OCA  HN ES       2133 22.27                             128   -0.51 9  158 355 
 OCA  HZ I        2133 26.00        58.6 0.17                           158 355 
 ZAR  HZ EP   1   2133  6.14                             121    0.73 6  199 292 
 ZAR  HN ES   1   2133 30.34                             121    0.43 6  199 292 
 ZAR  HZ I        2133 37.33        33.2 0.26                           199 292 
 CHI  HZ EP   1   2133 11.10                             115   -0.23 6  250 194 
 CHI  HN ES   1   2133 40.23                             115   -0.21 6  250 194 
 CHI  HZ I        2133 44.15         9.6 0.39                           250 194 
 GUY  SZ EP   1   2133 18.10                             111    0.86 5  301 234 
 GUY  SN ES   1   2133 50.68                             111   -0.27 5  301 234 
 GUY  SZ I        2133 58.14        12.1 0.38                           301 234 
                                                                                
