 2011  915 2141 17.3 L   6.457 -73.291154.6  RSN  7 0.3 2.1LRSN                1
 GAP=121        0.69       4.6     5.7  8.0 -0.2155E+01  0.6123E+00 -0.8884E+01E
 Epicentro: SOCORRO - SANTANDER                                                3
 ACTION:UPD 12-07-13 15:57 OP:ep   STATUS:               ID:20110915214117 L   I
 2011-09-15-2137-50S.COL___169                                                 6
 STAT SP IPHASW D HRMM SECON CODA AMPLIT PERI AZIMU VELO AIN AR TRES W  DIS CAZ7
 BAR2 SZ EP       2141 37.83                             173   -0.0910 19.1  39 
 BAR2 SZ I        2141 55.39        17.1 0.32                          19.1  39 
 RUS  HZ EP       2141 40.42                             156    0.5310 66.6 160 
 RUS  HN ES   1   2141 57.15                             156   -0.36 7 66.6 160 
 RUS  HZ I        2141 59.93         8.3 0.27                          66.6 160 
 GIR2 SZ EP       2141 39.34                             155   -0.1910 69.5   9 
 BRR  HZ EP       2141 40.40                             149    0.1610 85.6 327 
 BRR  HZ I        2141 41.26        50.5 0.10                          85.6 327 
 BRR  HN ES   1   2141 58.42                             149    0.28 7 85.6 327 
 PAM  SZ EP   2   2141 42.50                             141   -0.65 5  117  34 
 OCA  SZ EP   1   2141 49.71                             125   -0.12 6  197 359 
 OCA  SZ I        2142 17.87        12.2 0.15                           197 359 
 NOR  SZ EP   2   2141 49.83                             125   -0.23 4  201 241 
 NOR  SN ES   1   2142 15.34                             125   -0.28 6  201 241 
                                                                                
