 2017  215 2349 28.6 L   6.787 -73.155142.7  RSN  7 0.5 1.6LRSN                1
 GAP= 99        1.18       5.9     4.6  7.7  0.3371E+01  0.1129E+01  0.7451E+00E
 Epicentro: LOS SANTOS - SANTANDER                                             3
 ACTION:UPD 17-05-24 15:36 OP:jn   STATUS:               ID:20170215234928 L   I
 OLDACT:DUP 17-02-16 03:59 OP:ar   STATUS:               ID:20170215234746d    3
 2017-02-15-2348-00M.COL___358                                                 6
 STAT SP IPHASW D HRMM SECON CODA AMPLIT PERI AZIMU VELO AIN AR TRES W  DIS CAZ7
 BAR2 EZ EP       2349 48.79                             171    0.9310 21.7 188 
 BAR2 EZ ES       2350  2.57                             171   -0.2910 21.7 188 
 BAR2 EZ I        2350  3.49        12.5 0.26            172           21.7 188 
 BRR  HZ EP       2349 49.45                             152    0.0110 71.1 300 
 BRR  HN ES       2350  6.42                             152    0.7510 71.1 300 
 BRR  HZ I        2350 10.19         8.5 0.10            151           71.1 300 
 PAM  EZ EP       2349 50.46                             150   -0.1710 79.1  39 
 PAM  EN ES       2350  7.34                             150   -0.4510 79.1  39 
 PAM  EZ I        2350  9.17         5.2 0.11            151           79.1  39 
 RUS  HZ EP       2349 52.37                             144    0.3910 99.2 175 
 RUS  HN ES       2350 10.08                             144   -0.1110 99.2 175 
 RUS  HZ I        2350 12.07         4.6 0.28            146           99.2 175 
 PTB  HZ EP       2349 54.61                             131   -0.62 9  147 259 
 PTB  HN ES       2350 15.46                             131   -0.53 9  147 259 
 PTB  HZ I        2350 17.82         5.1 0.14            132            147 259 
 TAM  HZ EP       2349 56.00                             130   -0.12 9  156 104 
 ZAR  HZ EP   2   2350  0.87                             122    0.03 4  204 293 
 ZAR  HN ES       2350 26.03                             122    0.07 9  204 293 
 ZAR  HZ I        2350 30.88         5.4 0.34            122            204 293 
                                                                                
