 2012  515 2236 14.8 L   6.813 -73.063153.5  RSN  5 0.3 1.8LRSN                1
 GAP=247        0.69       5.7     9.6  6.4  0.3391E+02  0.1176E+02  0.6083E+01E
 Epicentro: LOS SANTOS - SANTANDER                                             3
 ACTION:UP  12-07-05 12:05 OP:pat  STATUS:               ID:20120515223614 L   I
 2012-05-15-2230-00M.COL___195                                                 6
 STAT SP IPHASW D HRMM SECON CODA AMPLIT PERI AZIMU VELO SNR AR TRES W  DIS CAZ7
 BAR2 SZ EP   1   2236 35.25                             169    -0.2 7   28 208 
 BAR2 SZ ES   1   2236 51.04                             169    -0.5 7   28 208 
 BAR2 SZ I        2236 52.29        19.1 0.28                            28 208 
 BRR  HZ EP   1   2236 37.45                             151     0.2 7   79 294 
 BRR  HZ I        2236 37.65        14.3 0.11                            79 294 
 BRR  HE ES   1   2236 55.11                             151     0.4 7   79 294 
 RUS  HZ EP   1   2236 39.56                             145     0.2 7  102 181 
 RUS  HZ I        2236 40.07         4.2 0.14                           102 181 
 RUS  HE ES   1   2236 58.77                             145     0.2 7  102 181 
 ZAR  HZ EP   1   2236 48.16                             123    -0.4 6  212 291 
 ZAR  HN ES   2   2237 14.69                             123    -0.2 4  212 291 
 ZAR  HZ I        2237 19.36         5.1 0.20                           212 291 
 CHI  HZ EP   1   2236 53.57                             118     0.2 6  253 197 
 CHI  HE ES   1   2237 23.29                             118    -0.1 6  253 197 
                                                                                
