 2017  815 2041 35.0 L   6.814 -73.142144.3  RSN  5 0.3 1.6LRSN                1
 GAP=136        0.74       3.3     5.6  6.0 -0.3097E+01 -0.2285E+00  0.4376E+01E
 Epicentro: LOS SANTOS - SANTANDER                                             3
 ACTION:UPD 17-09-04 20:20 OP:rebc STATUS:               ID:20170815204135 L   I
 OLDACT:REG 17-08-16 05:07 OP:dani STATUS:               ID:20170815203745     3
 2017-08-15-2038-00M.COL___416                                                 6
 STAT SP IPHASW D HRMM SECON CODA AMPLIT PERI AZIMU VELO AIN AR TRES W  DIS CAZ7
 BAR2 EZ ES       2042  9.65                             170   -0.0710 24.9 190 
 BRR  HZ EP       2041 56.12                             152    0.1110 70.8 297 
 BRR  HN ES       2042 12.27                             152   -0.0910 70.8 297 
 BRR  HZ I        2042 16.49        13.4 0.36            152           70.8 297 
 PAM  EZ EP     D 2041 57.20                             151    0.1910 75.9  40 
 PAM  EE ES       2042 14.29                             151    0.1410 75.9  40 
 PAM  EZ I        2042 16.56         9.2 0.37            153           75.9  40 
 RUS  HZ EP       2041 58.18                             143   -0.5810  102 176 
 RUS  HN ES       2042 17.24                             143   -0.0110  102 176 
 RUS  HZ I        2042 18.03         2.3 0.28            146            102 176 
 CHI  HN ES       2042 42.82                             117    0.52 8  250 195 
                                                                                
