 2015 1215 2219 33.3 L   6.535 -73.569104.3  RSN 17 0.5 2.7LRSN                1
 GAP= 62        1.55       3.7     4.2  7.9 -0.5886E+01  0.1391E+02 -0.1340E+01E
 Epicentro: EL CARMEN - SANTANDER                                              3
 ACTION:UPD 16-02-04 15:05 OP:cam  STATUS:               ID:20151215221933 L   I
 OLDACT:REG 15-12-16 09:20 OP:mh   STATUS:               ID:20151215221748     3
 2015-12-15-2217-48M.COL___334                                                 6
 STAT SP IPHASW D HRMM SECON CODA AMPLIT PERI AZIMU VELO AIN AR TRES W  DIS CAZ7
 BAR2 EZ IP     D 2219 48.99                             155    0.2010 43.2  82 
 BAR2 EZ ES       2220  1.40                             155    0.5510 43.2  82 
 BAR2 EZ I        2220  2.31       488.8 0.50            162           43.2  82 
 BRR  HZ EP       2219 49.84                             145    0.0710 65.2 346 
 BRR  HN ES       2220  2.99                             145    0.4010 65.2 346 
 BRR  HZ I        2220 11.32        78.4 0.12            144           65.2 346 
 RUS  HZ EP     C 2219 52.34                             136    0.0510 89.1 143 
 RUS  HN ES       2220  7.16                             136    0.0810 89.1 143 
 RUS  HZ I        2220  8.83        81.8 0.22            145           89.1 143 
 PTB  HZ EP       2219 51.81                             133   -0.6210 98.1 270 
 PTB  HN ES       2220  6.54                             133   -0.7810 98.1 270 
 PTB  HZ I        2220  7.85       108.6 0.16            134           98.1 270 
 SPBC HZ EP       2219 53.84                             129    0.0010  112 210 
 SPBC HN ES       2220 10.00                             129    0.1710  112 210 
 SPBC HZ I        2220 15.41       136.7 0.44            133            112 210 
 PAM  EZ IP       2219 55.42                             124   -0.7610  131  47 
 PAM  EN ES       2220 13.38                             124   -0.6310  131  47 
 PAM  EZ I        2220 14.67        73.4 0.20            129            131  47 
 ZAR  HZ EP       2220  0.98                             115    0.48 9  177 307 
 ZAR  HN ES   4   2220 23.16                             115    1.48 0  177 307 
 ZAR  HZ I        2220 28.48        80.2 0.36            117            177 307 
 NOR  HZ EP       2220  0.45                             115   -0.34 9  180 233 
 NOR  HN ES       2220 22.11                             115   -0.09 9  180 233 
 NOR  HZ I        2220 25.40        56.5 0.24            118            180 233 
 OCA  HZ EP   1   2220  1.29                             113   -0.83 7  190   8 
 OCA  HN ES       2220 24.18                             113   -0.40 9  190   8 
 OCA  HZ I        2220 29.76       175.8 0.32            116            190   8 
 ROSC BN ES   4   2220 30.28                             111    2.24 0  205 204 
 HEL  HZ EP       2220  5.96                             110    0.19 8  220 260 
 HEL  HN ES       2220 30.90                             110   -0.16 8  220 260 
 HEL  HZ I        2220 34.50        27.5 0.48            112            220 260 
 GUY2CHZ EP       2220  9.57                             107    0.67 8  246 234 
 GUY2CHN ES       2220 37.41                             107    0.77 8  246 234 
 GUY2CHZ I        2220 42.08        27.7 0.38                           246 234 
 URE  HZ EP   4   2220  8.40                             106   -1.00 0  255 302 
 URE  HN ES   4   2220 36.31                             106   -1.21 0  255 302 
 URE  HZ I        2220 44.39        30.4 0.18            108            255 302 
 SML  HZ EP   4   2220  8.60                             106   -0.94 0  257 348 
 SML  HN ES       2220 38.93                             106    1.15 8  257 348 
 SML  HZ I        2220 45.35        65.1 0.20            108            257 348 
 ELA  HZ EP   9   2220 13.94                             104    1.63 0  275 228 
 ELA  HN ES       2220 41.64                                   -2.70 8  275 228 
 CBOC HZ EP       2220 12.91                             104    0.36 7  280 255 
 CBOC HN ES       2220 42.53                             104   -0.61 7  280 255 
 CBOC HZ I        2220 47.43        22.5 0.36            107            280 255 
 PRA  HZ EP   1   2220 19.68                             100   -0.34 5  344 205 
 PRA  HN ES       2220 56.46                             100    0.02 7  344 205 
 PRA  HZ I        2220 59.98        23.2 0.20            103            344 205 
 PAL  HZ EP       2220 21.03                              99    0.24 6  350 239 
 PAL  HE ES       2220 58.36                              99    0.56 6  350 239 
 PAL  HZ I        2221  2.05        16.3 0.26            103            350 239 
                                                                                
