 2013  115 2215 49.9 L   6.658 -73.332137.2  RSN 14 0.5 3.9LRSN 3.8WRSN        1
 SPEC AVERAGE  MO 14.7 ST 93.7 OM  3.2 f0 4.17 R0.4134 AL 3.20 WI 19.6 MW  3.8 3
 SPEC SD       MO  0.2 ST116.0 OM  0.3 f0 1.43 R0.1997 AL      WI      MW  0.2 3
 GAP=113        1.24       3.4     4.7  6.2  0.2142E+01  0.8518E+01  0.3812E+01E
 Epicentro: GALAN - SANTANDER                                                  3
 SPEC VIL SH N MO 15.2 ST  7.8 OM  3.3 f0 1.53 R0.9608 AL 2.46 WI 27.4 MW  4.1 3
 SPEC VIL SH N T221659 K 0.000 GD  315 VS 4.20 DE 3.20 Q0300.0 QA 0.60 VS 4.20 3
 SPEC ZAR HH N MO 15.0 ST297.7 OM  3.2 f0 6.14 R0.2394 AL 2.63 WI 21.4 MW  3.9 3
 SPEC ZAR HH N T221644 K 0.000 GD  235 VS 4.20 DE 3.20 Q0300.0 QA 0.60 VS 4.20 3
 SPEC RREFHH Z MO 14.7 ST 35.9 OM  2.8 f0 3.70 R0.3973 AL 3.91 WI 20.5 MW  3.8 3
 SPEC RREFHH Z T2217 4 K 0.000 GD  326 VS 4.20 DE 3.20 Q0300.0 QA 0.60 VS 4.20 3
 SPEC ROSCBH Z MO 14.5 ST  7.4 OM  2.7 f0 2.52 R0.5833 AL 3.51 WI 16.9 MW  3.6 3
 SPEC ROSCBH Z T221654 K 0.000 GD  266 VS 4.20 DE 3.20 Q0300.0 QA 0.60 VS 4.20 3
 SPEC PTB HH N MO 14.8 ST 54.6 OM  3.1 f0 4.08 R0.3603 AL 2.11 WI 14.2 MW  3.8 3
 SPEC PTB HH N T221631 K 0.000 GD  185 VS 4.20 DE 3.20 Q0300.0 QA 0.60 VS 4.20 3
 SPEC RUS HH N MO 14.3 ST 24.5 OM  2.7 f0 4.43 R0.3318 AL 3.43 WI 19.6 MW  3.5 3
 SPEC RUS HH N T221627 K 0.000 GD  163 VS 4.20 DE 3.20 Q0300.0 QA 0.60 VS 4.20 3
 SPEC HEL HH E MO 14.6 ST 62.4 OM  2.8 f0 4.66 R0.3155 AL 3.53 WI 20.7 MW  3.7 3
 SPEC HEL HH E T221654 K 0.000 GD  284 VS 4.20 DE 3.20 Q0300.0 QA 0.60 VS 4.20 3
 SPEC NOR HH N MO 15.0 ST350.6 OM  3.2 f0 6.36 R0.2311 AL 4.05 WI 21.4 MW  3.9 3
 SPEC NOR HH N T221645 K 0.000 GD  250 VS 4.20 DE 3.20 Q0300.0 QA 0.60 VS 4.20 3
 SPEC HEL HH Z MO 14.4 ST 19.1 OM  2.6 f0 3.66 R0.4016 AL 2.86 WI 20.1 MW  3.6 3
 SPEC HEL HH Z T221654 K 0.000 GD  284 VS 4.20 DE 3.20 Q0300.0 QA 0.60 VS 4.20 3
 SPEC CHI HH N MO 14.6 ST 17.9 OM  2.8 f0 3.14 R0.4682 AL 2.98 WI 21.4 MW  3.7 3
 SPEC CHI HH N T221651 K 0.000 GD  266 VS 4.20 DE 3.20 Q0300.0 QA 0.60 VS 4.20 3
 SPEC BRR HH N MO 14.8 ST153.3 OM  3.2 f0 5.70 R0.2579 AL 3.74 WI 11.9 MW  3.8 3
 SPEC BRR HH N T221625 K 0.000 GD  151 VS 4.20 DE 3.20 Q0300.0 QA 0.60 VS 4.20 3
 ACTION:UPD 13-02-15 09:14 OP:ep   STATUS:               ID:20130115221550 L   I
 2013-01-15-2210-00M.COL___241                                                 6
 STAT SP IPHASW D HRMM SECON CODA AMPLIT PERI AZIMU VELO AIN AR TRES W  DIS CAZ7
 BAR2 SZ EP       2216  8.45                             172    0.0210 18.0 114 
 BAR2 SZ ES       2216 22.88                             172    0.0210 18.0 114 
 BAR2 SZ I        2216 24.69      1517.2 0.28            170           18.0 114 
 BRR  HZ IP     C 2216 10.32                             153    0.5210 65.1 320 
 BRR  HN ES       2216 25.88                             153    0.5710 65.1 320 
 BRR  HN I        2216 28.52      2275.6 0.46            145           65.1 320 
 RUS  HZ EP     C 2216 11.86                             145   -0.1410 89.0 162 
 RUS  HN ES       2216 28.79                             145   -0.4410 89.0 162 
 RUS  HN I        2216 29.74       625.9 0.32            136           89.0 162 
 PTB  HZ EP     C 2216 13.49                             135   -0.6810  125 264 
 PTB  HN ES       2216 32.70                             135   -0.3710  125 264 
 PTB  HN I        2216 32.98      2172.5 0.32            124            125 264 
 OCA  HZ EP     D 2216 18.81                             125   -0.21 9  175   0 
 OCA  HN ES       2216 41.60                             125   -0.11 9  175   0 
 OCA  HN I        2216 43.87      7769.7 0.18            116            175   0 
 ZAR  HZ EP     C 2216 20.27                             122   -0.32 9  192 299 
 ZAR  HN ES       2216 45.33                             122    0.81 9  192 299 
 ZAR  HN I        2216 49.36      1025.8 0.36            112            192 299 
 CTAB SZ EP   4   2216 24.57                             120    1.93 0  206 208 
 NOR  HZ EP       2216 22.36                             120   -0.03 8  209 235 
 NOR  HN ES       2216 47.24                             120   -0.47 8  209 235 
 NOR  HN I        2216 54.06      1436.1 0.18            110            209 235 
 CHI  HZ EP     D 2216 25.14                             117    0.17 8  229 191 
 CHI  HN ES       2216 52.10                             117   -0.21 8  229 191 
 CHI  HN I        2216 57.07       207.6 0.26            108            229 191 
 ROSC BZ EP     D 2216 26.24                             117    1.27 8  229 209 
 ROSC BZ I        2217  0.71       246.2 0.35            108            229 209 
 HEL  HZ EP   1   2216 28.08                             115    0.99 6  249 258 
 HEL  HE ES       2216 55.94                             115   -0.14 8  249 258 
 HEL  HE I        2217  3.17       435.6 0.68            106            249 258 
 URE  HZ EP     C 2216 27.90                             113   -1.31 8  272 297 
 URE  HN I        2217  7.82       481.5 0.26            104            272 297 
 VIL  SZ EP     D 2216 30.63                             112   -0.17 7  284 188 
 VIL  SN ES       2217  2.87                             112    0.19 7  284 188 
 VIL  SN I        2217 16.20       449.1 0.40            103            284 188 
 RREF HZ EP       2216 33.48                             111    0.73 7  296 229 
 DBB  SZ EP       2216 34.78                             109   -0.10 7  321 277 
 ANIL HZ EP   4   2216 37.15                             108    0.72 0  332 224 
 SDV  BZ EP   4   2216 41.79                             105   -0.89 0  386  50 
 SMAR HZ EP   4   2216 56.08                             101   -0.82 0  508 349 
 POP2 HZ EP   4   2217  6.31                              99   -0.42 0  587 219 
                                                                                
