 2017  515 2335  6.0 L   6.576 -73.556100.1  RSN 14 0.5 2.6LRSN                1
 GAP= 87        1.07       3.4     2.8  7.6 -0.2023E+01  0.4780E+01  0.1742E+00E
 Epicentro: EL CARMEN - SANTANDER                                              3
 ACTION:UPD 17-06-16 13:36 OP:jn   STATUS:               ID:20170515233506 L   I
 OLDACT:UP  17-05-16 08:41 OP:osc  STATUS:               ID:20170515232734     3
 OLDACT:UP  17-05-16 08:39 OP:osc  STATUS:               ID:20170515232734     3
 OLDACT:REG 17-05-16 05:43 OP:osc  STATUS:               ID:20170515232734     3
 2017-05-15-2328-00M.COL___356                                                 6
 STAT SP IPHASW D HRMM SECON CODA AMPLIT PERI AZIMU VELO AIN AR TRES W  DIS CAZ7
 BRR  HZ EP       2335 22.09                             146    0.3710 61.2 344 
 BRR  HE ES   4   2335 36.19                             146    2.19 0 61.2 344 
 BRR  HZ I        2335 36.80        61.8 0.12            150           61.2 344 
 PTB  HZ EP     D 2335 24.15                             131   -0.7210 99.6 268 
 PTB  HN ES       2335 39.18                             131   -0.4210 99.6 268 
 PTB  HZ I        2335 40.56        99.6 0.25            134           99.6 268 
 SPBC HZ EP       2335 26.32                             126   -0.3110  117 209 
 SPBC HN ES       2335 43.04                             126    0.3110  117 209 
 SPBC HZ I        2335 49.44       106.1 0.12            130            117 209 
 PAM  EZ EP       2335 27.91                             124   -0.2310  127  48 
 PAM  EN ES       2335 45.72                             124    0.3110  127  48 
 PAM  EZ I        2335 46.91        39.0 0.23            130            127  48 
 ZAR  HZ EP       2335 33.06                             114    0.29 9  176 305 
 ZAR  HN ES   4   2335 55.81                             114    2.15 0  176 305 
 ZAR  HZ I        2335 57.57        98.3 0.58            118            176 305 
 NOR  HZ EP       2335 33.14                             113   -0.52 9  183 232 
 NOR  HN ES       2335 54.97                             113   -0.28 9  183 232 
 NOR  HZ I        2335 57.41        65.6 0.14            117            183 232 
 YPLC HZ EP       2335 33.34                             113   -0.44 9  184 135 
 YPLC HN ES       2335 55.79                             113    0.33 9  184 135 
 YPLC HZ I        2335 57.52       113.4 0.40            118            184 135 
 HEL  HZ EP       2335 38.55                             108    0.04 8  222 259 
 HEL  HE ES       2336  4.82                             108    0.95 8  222 259 
 HEL  HZ I        2336 11.04        23.6 0.24            112            222 259 
 ELA  HZ EP       2335 46.28                             103    0.95 7  279 227 
 ELA  HN ES       2336 15.76                             103   -0.26 7  279 227 
 CBOC HZ EP       2335 45.90                             103    0.51 7  283 254 
 CBOC HE ES       2336 15.94                             103   -0.18 7  283 254 
 DBB  EZ EP       2335 46.56                             102   -0.44 7  297 280 
 DBB  EE ES   4   2336 19.96                             102    0.97 0  297 280 
 DBB  EZ I        2336 24.41        14.1 0.16            105            297 280 
 PAL  HZ EP       2335 53.72                              98   -0.07 6  354 239 
 PAL  HE ES       2336 31.77                              98    0.69 6  354 239 
 PAL  HZ I        2336 35.18        10.1 0.36            102            354 239 
 APAC HZ EP       2335 54.42                              97   -0.56 6  365 294 
 APAC HN ES       2336 33.54                              97    0.34 6  365 294 
 CAP2 HZ EP   4   2336  6.49                              97            478 299 
 CAP2 HE ES   4   2336 52.22                              97            478 299 
 CAP2 HZ I        2337  0.64         4.9 0.27             97            478 299 
                                                                                
