 2013  515 2356 56.4 L   6.798 -73.139151.6  RSN  6 0.4 1.5LRSN                1
 GAP=137        0.84       4.6     5.6  8.3  0.1790E+01  0.7222E+01  0.2722E+00E
 Epicentro: LOS SANTOS - SANTANDER                                             3
 ACTION:UPD 13-06-20 09:50 OP:ep   STATUS:               ID:20130515235656 L   I
 2013-05-15-2350-00M.COL___256                                                 6
 STAT SP IPHASW D HRMM SECON CODA AMPLIT PERI AZIMU VELO AIN AR TRES W  DIS CAZ7
 BAR2 SZ EP   1   2357 16.61                             171   -0.10 7 23.2 192 
 BRR  HZ EP       2357 18.39                             153    0.1910 71.9 298 
 BRR  HZ I        2357 18.74        11.5 0.24            153           71.9 298 
 BRR  HN ES   1   2357 36.07                             153    0.85 7 71.9 298 
 PAM  SZ EP   1   2357 19.52                             152    0.32 7 77.1  39 
 PAM  SZ I        2357 19.69         5.8 0.24            157           77.1  39 
 PAM  SN ES   1   2357 36.47                             152   -0.54 7 77.1  39 
 RUS  HZ EP       2357 20.99                             145    0.3010  100 176 
 RUS  HN ES   1   2357 39.29                             145   -0.36 7  100 176 
 RUS  HZ I        2357 42.61         3.4 0.46            145            100 176 
 PTB  HZ EP       2357 23.61                             133   -0.27 9  148 259 
 PTB  HN ES   1   2357 44.93                             133   -0.41 7  148 259 
 PTB  HZ I        2357 50.44         2.9 0.14            133            148 259 
 SML  HZ EP   2   2357 33.36                             119   -0.03 4  244 335 
 SML  HN ES   1   2358  1.84                             119   -0.42 6  244 335 
                                                                                
