 2013  815 2156 42.1 L   6.825 -73.140149.2  RSN 13 0.5 2.4LRSN                1
 GAP=136        0.96       2.7     4.1  5.5 -0.1017E+01  0.5558E+01 -0.2494E+00E
 Epicentro: LOS SANTOS - SANTANDER                                             3
 ACTION:UPD 14-01-14 09:03 OP:ep   STATUS:               ID:20130815215642 L   I
 OLDACT:REG 13-08-16 03:34 OP:carl STATUS:               ID:20130815214959     3
 2013-08-15-2149-59M.COL___269                                                 6
 STAT SP IPHASW D HRMM SECON CODA AMPLIT PERI AZIMU VELO AIN AR TRES W  DIS CAZ7
 BAR2 SZ IP       2157  2.20                             170   -0.0110 26.2 190 
 BAR2 SZ ES   1   2157 17.80                             170   -0.09 7 26.2 190 
 BAR2 SZ I        2157 18.93        34.0 0.18            169           26.2 190 
 BRR  HZ IP     C 2157  4.09                             153    0.5110 70.5 296 
 BRR  HN ES   1   2157 21.37                             153    1.03 7 70.5 296 
 BRR  HN I        2157 21.84       119.2 0.26            151           70.5 296 
 PAM  SZ EP       2157  5.06                             152    0.5210 74.9  41 
 PAM  SN ES   1   2157 22.38                             152    0.33 7 74.9  41 
 PAM  SZ I        2157 24.38        60.0 0.52            155           74.9  41 
 RUS  HZ IP     C 2157  6.05                             144   -0.3410  103 176 
 RUS  HN ES       2157 24.72                             144   -0.6110  103 176 
 RUS  HZ I        2157 27.66        22.5 0.44            146            103 176 
 PTB  HZ EP       2157  8.93                             132   -0.53 9  149 258 
 PTB  HN ES   1   2157 30.47                             132   -0.32 7  149 258 
 PTB  HZ I        2157 36.03        33.2 0.18            132            149 258 
 SPBC HZ EP       2157 11.26                             129    0.15 9  166 219 
 SPBC HN ES   1   2157 32.79                             129   -0.94 7  166 219 
 SPBC HZ I        2157 38.22        43.2 0.16            130            166 219 
 ZAR  HZ EP       2157 14.92                             123    0.19 9  204 291 
 ZAR  HN ES       2157 39.89                             123   -0.28 9  204 291 
 ZAR  HZ I        2157 46.50        23.9 0.14            123            204 291 
 NOR  HZ EP   1   2157 18.21                             119   -0.05 6  237 234 
 NOR  HN ES   1   2157 46.84                             119    0.38 6  237 234 
 NOR  HZ I        2157 48.69        21.9 0.20            120            237 234 
 SML  HZ EP   1   2157 18.43                             118   -0.25 6  241 335 
 SML  HN ES       2157 46.87                             118   -0.34 8  241 335 
 SML  HZ I        2157 50.35        31.9 0.22            119            241 335 
 CHI  HZ EP       2157 20.45                             117    0.15 8  251 195 
 CHI  HN ES   1   2157 49.75                             117   -0.34 6  251 195 
 CHI  HZ I        2157 53.30         6.2 0.32            119            251 195 
 GUY2CHZ EP   1   2157 26.75                             113    0.64 5  303 234 
 GUY2CHN ES       2158  0.65                             113    0.22 7  303 234 
 GUY2CHZ I        2158  8.79        16.4 0.44                           303 234 
 COD  HZ EP       2157 30.10                             110   -0.21 6  346 354 
 COD  HN ES   1   2158  7.41                             110   -0.50 5  346 354 
 COD  HZ I        2158 15.12         4.2 0.16            111            346 354 
 PRA  HZ EP       2157 36.12                             107    0.06 6  395 209 
 PRA  HN ES       2158 19.03                             107    0.89 6  395 209 
 PRA  HZ I        2158 24.61        11.1 0.24            108            395 209 
                                                                                
