 2011 1215 2119  4.0 L   5.731 -73.878107.7  RSN  6 0.4 1.7LRSN                1
 GAP=106        0.65       4.1     4.3 10.7 -0.5573E+01  0.1496E+02 -0.5535E+01E
 Epicentro: ALBANIA - SANTANDER                                                3
 ACTION:UPD 12-07-13 16:16 OP:ep   STATUS:               ID:20111215211904 L   I
 2011-12-15-2116-45S.COL___148                                                 6
 STAT SP IPHASW D HRMM SECON CODA AMPLIT PERI AZIMU VELO AIN AR TRES W  DIS CAZ7
 RUS  HN ES   2   2119 38.04                             137   -0.32 5 89.8  78 
 NOR  SZ EP   1   2119 24.61                             130    0.02 7  111 260 
 NOR  SZ I        2119 25.40         2.3 0.13                           111 260 
 NOR  SE ES   2   2119 40.56                             130   -0.11 5  111 260 
 CHI  HZ EP   1   2119 26.34                             128    0.18 7  123 172 
 CHI  HN ES   2   2119 43.71                             128    0.24 5  123 172 
 CHI  HZ I        2119 48.01         9.1 0.33                           123 172 
 BRR  HZ EP   1   2119 28.79                             120    0.09 7  153   7 
 BRR  HE ES   2   2119 48.05                             120    0.06 5  153   7 
 BRR  HZ I        2119 53.54        15.8 0.19                           153   7 
 GUY  SZ EP   1   2119 32.25                             117    0.43 7  177 252 
 GUY  SN ES   2   2119 54.30                             117    0.75 4  177 252 
 GUY  SZ I        2120  0.08        10.7 0.26                           177 252 
 RREF HZ EP   1   2119 32.38                             115   -0.77 7  187 241 
 RREF HN ES   2   2119 55.29                             115   -0.62 4  187 241 
                                                                                
