 2012  815 2022 12.1 L   6.815 -73.171152.1  RSN  4 0.3 1.3LRSN                1
 GAP=243        0.63       9.8     8.3  9.9  0.5275E+02  0.2208E+02 -0.1674E+02E
 Epicentro: LOS SANTOS - SANTANDER                                             3
 ACTION:UPD 12-09-10 11:56 OP:ep   STATUS:               ID:20120815202212 L   I
 2012-08-15-2020-00M.COL___217                                                 6
 STAT SP IPHASW D HRMM SECON CODA AMPLIT PERI AZIMU VELO AIN AR TRES W  DIS CAZ7
 BAR2 SZ EP   1   2022 32.63                             170    0.12 7 24.6 183 
 BAR2 SZ ES   1   2022 48.11                             170   -0.32 7 24.6 183 
 BAR2 SZ I        2022 48.92         6.1 0.17                          24.6 183 
 RUS  HN ES   1   2022 56.05                             144    0.34 7  102 175 
 RUS  HZ I        2022 57.17         2.6 0.38                           102 175 
 PTB  HZ EP   1   2022 38.98                             134   -0.39 7  145 258 
 PTB  HN ES   2   2023  0.33                             134   -0.31 5  145 258 
 ZAR  HE ES   1   2023 10.45                             124    0.44 6  201 292 
                                                                                
