 2017  715 2329 17.6 L   6.794 -73.169139.1  RSN  7 0.3 1.2LRSN                1
 GAP=134        0.73       3.1     3.1  5.9 -0.5380E+00  0.3245E+01 -0.6320E-02E
 Epicentro: LOS SANTOS - SANTANDER                                             3
 ACTION:UPD 17-08-30 15:33 OP:rebc STATUS:               ID:20170715232917 L   I
 OLDACT:REG 17-07-16 03:23 OP:osc  STATUS:               ID:20170715232110     3
 2017-07-15-2328-00M.COL___389                                                 6
 STAT SP IPHASW D HRMM SECON CODA AMPLIT PERI AZIMU VELO AIN AR TRES W  DIS CAZ7
 BAR2 EZ ES       2329 50.78                             170   -0.2810 22.3 184 
 BRR  HZ EP       2329 38.16                             152    0.2610 69.2 300 
 BRR  HE ES       2329 54.01                             152    0.2610 69.2 300 
 PAM  EZ EP       2329 38.98                             149   -0.2510 79.6  41 
 PAM  EN ES       2329 56.13                             149    0.0210 79.6  41 
 PAM  EZ I        2329 58.26         3.6 0.54            150           79.6  41 
 RUS  HZ EP       2329 40.57                             142   -0.0810  100 175 
 RUS  HE ES       2329 58.92                             142    0.2810  100 175 
 RUS  HZ I        2330  0.15         2.9 0.34            144            100 175 
 PTB  HE ES       2330  3.61                             131   -0.57 9  145 259 
 PTB  HZ I        2330  6.57         1.3 0.17            132            145 259 
 SPBC HE ES       2330  7.18                             128    0.14 9  161 218 
 ZAR  HN ES       2330 14.38                             121    0.21 9  202 293 
                                                                                
