 2010  115 2037 58.3 L   6.792 -73.070148.4  RSN  8 0.4 2.1LRSN                1
 GAP=191        0.74       3.6    10.0  8.0  0.7788E+00  0.4495E+02  0.8221E+01E
 Epicentro: LOS SANTOS - SANTANDER                                             3
 ACTION:UP  10-08-24 09:44 OP:vdl  STATUS:               ID:20100115203758 L   I
 2010-01-15-2036-46S.COL___096                                                 6
 STAT SP IPHASW D HRMM SECON CODA AMPLIT PERI AZIMU VELO SNR AR TRES W  DIS CAZ7
 BAR2 SZ EP   2   2038 18.29                             170     0.0 6   25 209 
 GIR2 SZ EP   1   2038 18.11                             166    -0.210   34 337 
 GIR2 SZ ES   1   2038 33.75                             166    -0.310   34 337 
 RUS  BZ EP   1   2038 22.10                             145    -0.110  100 181 
 RUS  BE ES   1   2038 40.84                             145     0.010  100 181 
 RUS  BZ I        2038 42.62        16.0 0.27                           100 181 
 OCA  SZ ES   1   2038 50.05                             130     0.7 9  162 350 
 CHI  HZ EP       2038 36.48                             117     0.210  250 197 
 CHI  HN ES   1   2039  5.91                             117     0.0 7  250 197 
 CHI  HZ I        2039  9.63        10.8 0.42                           250 197 
 DBB  SZ IP       2038 45.97                             109    -0.8 8  348 274 
 TOL  SZ EP   2   2038 48.10                             109     0.9 4  349 226 
 TOL  SZ ES   1   2039 26.14                             109     0.7 6  349 226 
 PRA  HZ EP   2   2038 52.34                             107     0.1 4  395 211 
 PRA  HE ES   2   2039 34.36                             107    -0.1 4  395 211 
                                                                                
