 2014  315 2220 32.0 L   6.779 -73.157136.6  RSN  5 0.6 1.3LRSN                1
 GAP=136        1.53       7.8     7.6 11.2 -0.5249E+01  0.1160E+02  0.4039E+01E
 Epicentro: LOS SANTOS - SANTANDER                                             3
 ACTION:UPD 14-04-09 23:17 OP:nd   STATUS:               ID:20140315222032 L   I
 OLDACT:REG 14-03-16 01:02 OP:stll STATUS:               ID:20140315221816     3
 2014-03-15-2218-16M.COL___254                                                 6
 STAT SP IPHASW D HRMM SECON CODA AMPLIT PERI AZIMU VELO AIN AR TRES W  DIS CAZ7
 BAR2 SZ EP       2220 50.46                             171   -0.0010 20.8 188 
 BAR2 SZ ES       2221  5.04                             171    0.1710 20.8 188 
 BAR2 SZ I        2221  6.32         8.8 0.16            170           20.8 188 
 BRR  HZ EP       2220 52.68                             151    0.5310 71.3 301 
 BRR  HN ES       2221  8.86                             151    0.9810 71.3 301 
 PAM  SZ EP       2220 53.61                             148    0.2110 80.0  39 
 PAM  SZ I        2220 53.80         7.2 0.20            149           80.0  39 
 PAM  SN ES       2221  9.12                             148   -0.9710 80.0  39 
 RUS  HZ EP       2220 55.03                             142    0.3510 98.4 175 
 RUS  HN ES       2221 12.31                             142   -0.0710 98.4 175 
 RUS  HZ I        2221 14.17         1.4 0.28            142           98.4 175 
 PTB  HZ EP       2220 57.66                             130   -0.41 9  146 260 
 PTB  HZ I        2220 58.73         2.8 0.32            131            146 260 
 PTB  HN ES       2221 17.45                             130   -0.96 9  146 260 
                                                                                
