 2013  615 2138 51.4 L   6.753 -73.204141.1  RSN  4 0.2 1.9LRSN                1
 GAP=227        0.47       3.6     3.4  3.8  0.6088E+01  0.1636E+01  0.7474E+00E
 Epicentro: VILLANUEVA - SANTANDER                                             3
 ACTION:UPD 14-01-08 09:54 OP:ep   STATUS:               ID:20130615213851 L   I
 OLDACT:REG 13-06-15 22:04 OP:nd   STATUS:               ID:20130615212959     3
 2013-06-15-2129-59M.COL___261                                                 6
 STAT SP IPHASW D HRMM SECON CODA AMPLIT PERI AZIMU VELO AIN AR TRES W  DIS CAZ7
 BAR2 SZ EP       2139 10.23                             172   -0.1110 17.9 172 
 BAR2 SZ ES       2139 25.05                             172   -0.0810 17.9 172 
 BAR2 SZ I        2139 26.61        28.8 0.18            173           17.9 172 
 BRR  HZ EP       2139 12.18                             153    0.3210 68.4 305 
 BRR  HN ES       2139 27.77                             153   -0.0710 68.4 305 
 BRR  HZ I        2139 32.62        24.8 0.38            153           68.4 305 
 RUS  HZ EP       2139 14.30                             144   -0.0410 96.0 172 
 RUS  HN ES       2139 32.36                             144    0.1110 96.0 172 
 RUS  HZ I        2139 34.28         7.0 0.24            147           96.0 172 
 PTB  HZ EP       2139 17.08                             132   -0.22 9  140 260 
 PTB  HN ES       2139 37.58                             132    0.07 9  140 260 
 PTB  HZ I        2139 40.40         6.6 0.18            134            140 260 
                                                                                
