 2017 1015 2248 41.8 L   6.794 -73.084151.7  RSN  7 0.4 1.0LRSN                1
 GAP=145        1.01       4.9     5.0  7.4 -0.5624E+00  0.1048E+02  0.2637E+01E
 Epicentro: LOS SANTOS - SANTANDER                                             3
 ACTION:UPD 17-11-07 19:32 OP:rebc STATUS:               ID:20171015224841 L   I
 OLDACT:REG 17-10-16 05:30 OP:osc  STATUS:               ID:20171015224740     3
 2017-10-15-2248-00M.COL___426                                                 6
 STAT SP IPHASW D HRMM SECON CODA AMPLIT PERI AZIMU VELO AIN AR TRES W  DIS CAZ7
 BAR2 EZ EP       2249  2.27                             170    0.0610 24.8 206 
 BAR2 EZ ES       2249 18.18                             170    0.0810 24.8 206 
 PAM  EZ EP       2249  5.12                             153    0.6410 73.8  35 
 PAM  EN ES       2249 21.58                             153   -0.5610 73.8  35 
 BRR  HZ EP       2249  4.33                             151    0.3510 77.5 297 
 BRR  HN ES       2249 21.52                             151    0.2710 77.5 297 
 RUS  HZ EP       2249  5.42                             145   -0.6910 99.7 180 
 RUS  HN ES       2249 25.20                             145    0.1510 99.7 180 
 RUS  HZ I        2249 26.29         2.1 0.34            145           99.7 180 
 PTB  HZ EP       2249  9.77                             132   -0.11 9  154 260 
 PTB  HE ES   3   2249 30.84                             132   -0.91 2  154 260 
 PTB  HZ I        2249 37.95         1.0 0.14            131            154 260 
 ZAR  HN ES       2249 41.02                             123   -0.45 8  211 292 
 NOR  HE ES       2249 47.27                             119    0.24 8  240 236 
                                                                                
