 2013  315 2121 23.2 L   6.773 -73.143145.9  RSN 10 0.5 2.3LRSN                1
 GAP=138        1.17       4.6     5.0  7.7 -0.1134E+02 -0.4489E-02  0.1114E+02E
 Epicentro: LOS SANTOS - SANTANDER                                             3
 ACTION:UPD 13-04-09 14:02 OP:ep   STATUS:               ID:20130315212123 L   I
 2013-03-15-2118-49M.COL___210                                                 6
 STAT SP IPHASW D HRMM SECON CODA AMPLIT PERI AZIMU VELO AIN AR TRES W  DIS CAZ7
 BAR2 SZ EP       2121 42.51                             172   -0.2410 20.4 192 
 BAR2 SZ I        2121 58.99        25.5 0.40            171           20.4 192 
 GIR2 SZ EP       2121 42.71                             166   -0.2210 34.3 351 
 BRR  HZ EP       2121 44.61                             152    0.1910 72.9 300 
 BRR  HN ES       2122  1.97                             152    0.9710 72.9 300 
 BRR  HN I        2122  6.25        45.9 0.18            153           72.9 300 
 PAM  SZ EP       2121 45.55                             150    0.0410 79.5  38 
 PAM  SN ES       2122  2.64                             150   -0.3210 79.5  38 
 PAM  SN I        2122  4.09        22.2 0.44            153           79.5  38 
 RUS  HZ EP       2121 47.03                             145    0.3310 97.6 176 
 RUS  HE ES       2122  5.33                             145    0.2610 97.6 176 
 PTB  HZ EP       2121 50.06                             132   -0.05 9  148 260 
 PTB  HN ES       2122 10.44                             132   -0.69 9  148 260 
 CAPV BZ EP       2121 51.55                             131    0.79 9  151  37 
 CAPV BZ ES       2122 11.53                             131   -0.76 9  151  37 
 NOR  HZ EP       2121 58.68                             119   -0.05 8  233 235 
 NOR  HN ES       2122 26.07        21.4 0.16            119   -0.41 8  233 235 
 NOR  HN I        2122 32.19        21.4 0.16            120            233 235 
 CHI  HZ EP       2122  0.48                             117   -0.07 8  246 195 
 CHI  HE ES   1   2122 29.04                             117   -0.69 6  246 195 
 PRA  HZ EP       2122 16.21                             107   -0.18 6  390 210 
 PRA  HN ES       2122 58.67                             107    0.76 6  390 210 
                                                                                
