 2012  115 2223 45.8 L   6.747 -73.106149.4  RSN  6 0.4 1.4LRSN                1
 GAP=144        0.62       6.1     6.1  7.4 -0.1051E+02  0.1500E+02  0.6977E+01E
 Epicentro: LOS SANTOS - SANTANDER                                             3
 ACTION:UP  12-02-03 08:17 OP:REBC STATUS:               ID:20120115222345 L   I
 2012-01-15-2220-00M.COL___187                                                 6
 STAT SP IPHASW D HRMM SECON CODA AMPLIT PERI AZIMU VELO SNR AR TRES W  DIS CAZ7
 BAR2 SZ EP   3   2224  4.15                             173    -1.6 2   19 206 
 GIR2 SZ EP       2224  6.06                             165     0.010   38 345 
 GIR2 SZ ES   2   2224 21.95                             165     0.0 5   38 345 
 BRR  HZ EP       2224  7.85                             151     0.110   78 301 
 BRR  HZ I        2224  8.11         5.9 0.28                            78 301 
 BRR  HN ES   2   2224 25.14                             151     0.3 5   78 301 
 PAM  SZ EP       2224  8.75                             151     0.210   79  34 
 PAM  SE ES   1   2224 25.89                             151    -0.3 7   79  34 
 RUS  HZ EP   2   2224  9.64                             146     0.2 5   95 178 
 RUS  HE ES   2   2224 28.02                             146     0.1 5   95 178 
 PTB  HZ EP       2224 13.09                             132    -0.3 9  151 261 
 PTB  HZ I        2224 39.77         2.3 0.28                           151 261 
                                                                                
