 2010  415 2059  6.1 L   6.796 -72.991138.8  RSN 10 0.4 3.1LRSN                1
 GAP=151        0.98       4.5     6.6  6.9 -0.1592E+02 -0.8373E+01  0.1002E+02E
 Epicentro: CEPITA - SANTANDER                                                 3
 ACTION:UPD 10-08-24 09:59 OP:vdl  STATUS:               ID:20100415205912 L   I
 2010-04-15-2056-54S.COL___100                                                 6
 STAT SP IPHASW D HRMM SECON CODA AMPLIT PERI AZIMU VELO AIN AR TRES W  DIS CAZ7
 BAR2 SZ IP       2059 25.67                             167     0.610   31 223 
 BAR2 SZ ES   1   2059 39.41                             167    -0.5 7   31 223 
 BRR  HZ IP     C 2059 27.73                             147     0.210   87 293 
 BRR  HN ES   1   2059 44.70                             147     0.5 7   87 293 
 BRR  HZ I        2059 46.67       203.3 0.17                            87 293 
 OCA  SZ EP       2059 33.73                             128    -0.5 9  164 347 
 OCA  SZ ES   1   2059 55.71                             128    -0.4 7  164 347 
 OCA  SZ I        2059 59.97       253.8 0.30                           164 347 
 CHI  HZ EP       2059 44.05                             115     0.1 8  253 199 
 CHI  HE ES   1   21 0 13.19                             115    -0.3 6  253 199 
 HEL  HZ EP       2059 47.94                             112     0.1 7  289 257 
 HEL  HZ I        21 0 25.38        30.0 0.24                           289 257 
 RREF BZ EP       2059 52.71                             109    -0.8 7  335 231 
 RREF BE ES   1   21 0 30.14                             109    -0.2 5  335 231 
 RREF BZ I        21 0 34.51        38.5 0.70                           335 231 
 SDV  BZ IP     D 2059 55.14                             108     0.7 6  348  48 
 SDV  BZ I        2059 55.88        37.9 0.14                           348  48 
 SDV  BE ES   1   21 0 31.50                             108    -0.6 5  348  48 
 TOL  SZ EP       2059 55.76                             107     0.3 6  355 227 
 ANIL BZ EP       2059 57.31                             107     0.2 6  369 226 
 ANIL BE ES   1   21 0 37.02                             107     0.2 5  369 226 
 ANIL BZ I        21 0 43.75        73.7 0.23                           369 226 
 PRA  HZ EP   1   2059 59.84                             105    -0.6 4  400 212 
 PRA  HN ES   1   21 0 42.52                             105    -0.2 4  400 212 
 PRA  HZ I        21 0 49.54        49.6 0.19                           400 212 
                                                                                
