 2013 1215 2108 24.9 L   6.787 -73.135142.3  RSN 11 0.5 2.1LRSN                1
 GAP= 72        1.17       3.5     3.7  6.2 -0.1305E+01  0.3294E+01  0.1472E+01E
 Epicentro: LOS SANTOS - SANTANDER                                             3
 ACTION:UPD 14-01-13 10:18 OP:ep   STATUS:               ID:20131215210825 L   I
 OLDACT:UP  13-12-16 03:55 OP:stll STATUS:               ID:20131215210825 L   3
 OLDACT:REG 13-12-15 23:39 OP:stll STATUS:               ID:20131215205806     3
 2013-12-15-2058-06M.COL___240                                                 6
 STAT SP IPHASW D HRMM SECON CODA AMPLIT PERI AZIMU VELO AIN AR TRES W  DIS CAZ7
 BAR2 SZ EP       21 8 43.83                             171   -0.2310 22.1 194 
 BAR2 SZ IP       21 8 44.04                             171           22.1 194 
 BAR2 SZ ES       21 8 59.37                             171    0.3510 22.1 194 
 BAR2 SZ I        21 9  1.50        37.3 0.28            170           22.1 194 
 BRR  HZ EP       21 8 46.25                             151    0.5010 72.9 299 
 BRR  HN ES       21 9  2.57                             151    0.5410 72.9 299 
 BRR  HZ I        21 9  7.43        23.7 0.14            151           72.9 299 
 PAM  SZ EP       21 8 47.21                             150    0.4710 77.8  38 
 PAM  SZ I        21 8 47.51        35.8 0.18            153           77.8  38 
 PAM  SN ES       21 9  3.72                             150   -0.0810 77.8  38 
 RUS  HZ EP       21 8 48.35                             144    0.1810 99.0 177 
 RUS  HN ES       21 9  6.18                             144   -0.1610 99.0 177 
 RUS  HZ I        21 9  7.57         9.8 0.20            145           99.0 177 
 PTB  HZ EP       21 8 51.59                             131   -0.05 9  149 259 
 PTB  HN ES       21 9 12.55                             131    0.04 9  149 259 
 PTB  HZ I        21 9 15.39        16.5 0.14            131            149 259 
 TAM  HZ IP     D 21 8 52.73                             130    0.60 9  154 105 
 TAM  HZ I        21 8 52.86        21.5 0.20            133            154 105 
 TAM  HE ES       21 9 12.67                             130   -0.73 9  154 105 
 SPBC HZ EP       21 8 53.20                             128    0.13 9  163 220 
 SPBC HN ES       21 9 14.47                             128   -0.59 9  163 220 
 ZAR  HZ EP   3   21 8 58.31                             121    1.05 2  206 292 
 ZAR  HN ES   3   21 9 21.81                             121   -0.72 2  206 292 
 NOR  HZ EP       21 9  1.10                             118    0.69 8  235 235 
 NOR  HN ES       21 9 27.99                             118   -0.14 8  235 235 
 NOR  HZ I        21 9 33.52         9.3 0.34            119            235 235 
 SML  HZ EP       21 9  0.71                             117   -0.79 8  246 335 
 SML  HE ES       21 9 29.01                             117   -1.07 8  246 335 
 CHI  HZ EP       21 9  2.56                             117    0.30 8  248 196 
 CHI  HZ I        21 9  5.22         2.8 0.20            118            248 196 
 CHI  HE ES       21 9 30.65                             117   -0.77 8  248 196 
                                                                                
