 2017  415 2358  3.1 L   6.550 -73.520110.6  RSN  7 0.4 1.4LRSN                1
 GAP= 88        0.85       3.9     4.3  6.5  0.8714E+00  0.3080E+01  0.1169E+00E
 Epicentro: EL CARMEN - SANTANDER                                              3
 ACTION:UPD 17-05-30 21:12 OP:jn   STATUS:               ID:20170415235803 L   I
 OLDACT:UP  17-04-16 03:08 OP:and  STATUS:               ID:20170415234736     3
 OLDACT:UP  17-04-16 03:08 OP:and  STATUS:               ID:20170415234736     3
 OLDACT:UP  17-04-16 03:08 OP:and  STATUS:               ID:20170415234736     3
 OLDACT:UP  17-04-16 03:08 OP:and  STATUS:               ID:20170415234736     3
 OLDACT:UP  17-04-16 03:08 OP:and  STATUS:               ID:20170415234736     3
 OLDACT:UP  17-04-16 03:07 OP:and  STATUS:               ID:20170415234736     3
 OLDACT:UP  17-04-16 03:07 OP:and  STATUS:               ID:20170415234736     3
 OLDACT:UP  17-04-16 03:05 OP:and  STATUS:               ID:20170415234736     3
 OLDACT:UP  17-04-16 03:05 OP:and  STATUS:               ID:20170415234736     3
 OLDACT:UP  17-04-16 03:05 OP:and  STATUS:               ID:20170415234736     3
 OLDACT:REG 17-04-16 01:30 OP:and  STATUS:               ID:20170415234736     3
 2017-04-15-2348-00M.COL___368                                                 6
 STAT SP IPHASW D HRMM SECON CODA AMPLIT PERI AZIMU VELO AIN AR TRES W  DIS CAZ7
 BAR2 EZ EP       2358 19.11                             159    0.0810 37.6  83 
 BAR2 EZ ES       2358 31.40                             159   -0.0410 37.6  83 
 BRR  HZ EP       2358 19.82                             147   -0.3710 65.2 341 
 BRR  HN ES       2358 33.85                             147    0.3510 65.2 341 
 RUS  HZ EP   2   2358 22.26                             139   -0.24 5 87.3 146 
 RUS  HE ES       2358 37.73                             139    0.1210 87.3 146 
 RUS  HZ I        2358 39.16         4.2 0.26            138           87.3 146 
 PTB  HZ IP   9 C 2358 21.89                             133   -1.33 0  104 269 
 PTB  HE ES       2358 36.92                             133   -0.6510  104 269 
 PTB  HZ I        2358 38.24         4.7 0.18            132            104 269 
 PAM  EZ EP   2   2358 27.00                             127    1.08 5  126  46 
 PAM  EN ES       2358 43.33                             127   -0.3710  126  46 
 PAM  EZ I        2358 44.62         3.1 0.42            126            126  46 
 ZAR  HZ EP   2   2358 31.26                             116    0.27 4  181 305 
 ZAR  HN ES   3   2358 54.01                             116    1.28 2  181 305 
 ZAR  HZ I        2358 55.58         6.9 0.34            115            181 305 
 NOR  HZ EP   2   2358 30.97                             116   -0.52 4  185 234 
 NOR  HN ES   2   2358 53.57                             116   -0.05 4  185 234 
 NOR  HZ I        2358 54.74         2.4 0.16            114            185 234 
                                                                                
