 2017  315 2300 39.9 L   6.777 -73.115147.8  RSN  9 0.3 1.5LRSN                1
 GAP=142        0.76       3.0     3.5  4.9  0.1822E-02  0.4875E+01  0.3910E+01E
 Epicentro: LOS SANTOS - SANTANDER                                             3
 ACTION:UPD 17-05-25 18:40 OP:jn   STATUS:               ID:20170315230039 L   I
 OLDACT:UP  17-03-16 04:48 OP:and  STATUS:               ID:20170315225744     3
 OLDACT:UP  17-03-16 04:47 OP:and  STATUS:               ID:20170315225744     3
 OLDACT:UP  17-03-16 04:46 OP:and  STATUS:               ID:20170315225744     3
 OLDACT:UP  17-03-16 04:45 OP:and  STATUS:               ID:20170315225744     3
 OLDACT:UP  17-03-16 04:45 OP:and  STATUS:               ID:20170315225744     3
 OLDACT:REG 17-03-16 03:09 OP:and  STATUS:               ID:20170315225744     3
 2017-03-15-2258-00M.COL___412                                                 6
 STAT SP IPHASW D HRMM SECON CODA AMPLIT PERI AZIMU VELO AIN AR TRES W  DIS CAZ7
 BAR2 EZ EP       23 0 59.62                             171   -0.1210 21.7 200 
 BAR2 EZ ES       23 1 14.77                             171   -0.4510 21.7 200 
 BAR2 EZ I        23 1 16.16         6.6 0.17            168           21.7 200 
 BRR  HZ EP       23 1  1.60                             151    0.0910 75.4 299 
 BRR  HN ES       23 1 19.02                             151    0.6610 75.4 299 
 PAM  EZ EP       23 1  2.41                             151    0.0910 77.3  36 
 PAM  EN ES       23 1 19.66                             151   -0.1610 77.3  36 
 PAM  EZ I        23 1 21.72         3.6 0.18            155           77.3  36 
 RUS  HZ EP       23 1  3.71                             145    0.0610 97.9 178 
 RUS  HN ES       23 1 22.42                             145    0.2310 97.9 178 
 RUS  HZ I        23 1 23.59         3.9 0.38            145           97.9 178 
 PTB  HZ EP       23 1  6.90                             132   -0.39 9  151 260 
 PTB  HN ES   2   23 1 27.82                             132   -0.84 5  151 260 
 PTB  HZ I        23 1 33.42         3.4 0.21            131            151 260 
 ZAR  HZ EP   4   23 1  9.77                             122   -3.13 0  208 292 
 ZAR  HN ES       23 1 38.47                             122   -0.17 8  208 292 
 ZAR  HZ I        23 1 43.93         3.7 0.23            122            208 292 
 NOR  HZ EP       23 1 16.21                             119    0.33 8  236 235 
 NOR  HN ES       23 1 43.99                             119    0.03 8  236 235 
 NOR  HZ I        23 1 47.75         2.4 0.09            119            236 235 
 CHI  HZ EP       23 1 17.57                             118    0.03 8  247 196 
 CHI  HN ES       23 1 46.89                             118   -0.01 8  247 196 
 CHI  HZ I        23 1 53.53         1.6 0.39            118            247 196 
 GUY2CHZ EP   4   23 1 25.92                             113    2.17 0  303 236 
 GUY2CHN ES   4   23 2  1.16                             113    3.20 0  303 236 
 GUY2CHZ  IAML    23 2  6.44         2.5 0.35                           303 236 
                                                                                
