 2016  315 2306 34.3 L   6.759 -73.190146.6  RSN  4 0.2 1.6LRSN                1
 GAP=133        0.60       3.3     2.9  6.6 -0.1795E+00  0.5591E+01 -0.9076E+00E
 Epicentro: LOS SANTOS - SANTANDER                                             3
 ACTION:UPD 16-05-13 21:24 OP:cam  STATUS:               ID:20160315230634 L   I
 OLDACT:REG 16-03-16 05:02 OP:ar   STATUS:               ID:20160315225749     3
 2016-03-15-2257-49M.COL___289                                                 6
 STAT SP IPHASW D HRMM SECON CODA AMPLIT PERI AZIMU VELO AIN AR TRES W  DIS CAZ7
 PAM  EZ EP       23 6 56.82                             149   -0.2210 84.0  40 
 PAM  EN ES       23 7 14.85                             149    0.1010 84.0  40 
 PAM  EZ I        23 7 16.58         3.7 0.54            151           84.0  40 
 RUS  HZ EP       23 6 58.28                             145    0.4110 96.5 173 
 RUS  HN ES       23 7 16.05                             145   -0.1810 96.5 173 
 RUS  HZ I        23 7 17.47         5.6 0.26            149           96.5 173 
 PTB  HZ EP       23 7  0.63                             133   -0.23 9  142 260 
 PTB  HN ES       23 7 21.59                             133    0.04 9  142 260 
 PTB  HZ I        23 7 23.87         4.6 0.12            134            142 260 
 ZAR  HE ES       23 7 31.78                             123    0.09 9  201 294 
 ZAR  HZ I        23 7 37.11         7.9 0.44            124            201 294 
                                                                                
