 2017 1015 2222  8.4 L   6.772 -73.141148.3  RSN  7 0.3 1.5LRSN                1
 GAP=138        0.80       4.0     3.6  5.6  0.1380E+01  0.3669E+01 -0.2445E+01E
 Epicentro: LOS SANTOS - SANTANDER                                             3
 ACTION:UPD 17-11-07 19:32 OP:rebc STATUS:               ID:20171015222208 L   I
 OLDACT:DUP 17-10-16 06:40 OP:psc  STATUS:               ID:20171015221734d    3
 2017-10-15-2218-00M.COL___426                                                 6
 STAT SP IPHASW D HRMM SECON CODA AMPLIT PERI AZIMU VELO AIN AR TRES W  DIS CAZ7
 BAR2 EZ EP       2222 28.03                             172   -0.2910 20.3 193 
 BAR2 EZ ES       2222 43.89                             172    0.0610 20.3 193 
 BAR2 EZ I        2222 44.48         8.1 0.17            173           20.3 193 
 BRR  HZ EP       2222 30.05                             152    0.0710 73.2 301 
 BRR  HN ES       2222 47.17                             152    0.4010 73.2 301 
 PAM  EZ EP       2222 31.14                             150    0.0810 79.5  38 
 PAM  EN ES   2   2222 47.90                             150   -0.79 5 79.5  38 
 PAM  EZ I        2222 50.71         6.6 0.28            152           79.5  38 
 RUS  HZ EP       2222 32.69                             145    0.4710 97.4 176 
 RUS  HN ES       2222 50.73                             145   -0.0410 97.4 176 
 RUS  HZ I        2222 52.32         2.7 0.26            148           97.4 176 
 PTB  HZ EP       2222 35.02                             133   -0.59 9  148 260 
 PTB  HE ES       2222 56.52                             133   -0.28 9  148 260 
 PTB  HZ I        2223  1.06         2.0 0.28            133            148 260 
 ZAR  HZ EP       2222 41.58                             123    0.35 8  206 293 
 ZAR  HN ES       2223  6.82                             123    0.02 8  206 293 
 ZAR  HZ I        2223 12.57         4.2 0.28            123            206 293 
 NOR  HE ES       2223 11.94                             119   -0.10 8  233 235 
                                                                                
