 2015 1215 2033 38.6 L   6.787 -73.158144.9  RSN  6 0.5 2.0LRSN                1
 GAP=136        1.30       6.8     6.2 13.8 -0.5621E+00  0.2771E+02 -0.4552E+01E
 Epicentro: LOS SANTOS - SANTANDER                                             3
 ACTION:UPD 16-02-04 15:05 OP:cam  STATUS:               ID:20151215203338 L   I
 OLDACT:REG 15-12-16 09:18 OP:mh   STATUS:               ID:20151215202748     3
 2015-12-15-2027-48M.COL___337                                                 6
 STAT SP IPHASW D HRMM SECON CODA AMPLIT PERI AZIMU VELO AIN AR TRES W  DIS CAZ7
 BAR2 EZ EP   1   2033 58.21                             171    0.17 7 21.7 187 
 BAR2 EZ I        2034 13.77        33.7 0.16            171           21.7 187 
 BRR  HZ EP       2034  0.10                             153    0.5210 70.7 300 
 BRR  HZ I        2034 20.90        15.8 0.26            145           70.7 300 
 PAM  EZ EP       2034  0.91                             150    0.1210 79.3  40 
 PAM  EN ES       2034 17.71                             150   -0.4310 79.3  40 
 PAM  EZ I        2034 18.27        10.9 0.34            141           79.3  40 
 RUS  HZ EP       2034  2.33                             144    0.2110 99.2 175 
 RUS  HN ES       2034 20.78                             144    0.2810 99.2 175 
 PTB  HZ EP       2034  4.21                             132   -1.09 9  146 259 
 PTB  HN ES       2034 25.76                             132   -0.41 9  146 259 
 PTB  HZ I        2034 28.23        12.9 0.16            124            146 259 
 ZAR  HN ES       2034 36.79                             122    0.71 9  203 293 
                                                                                
