 2013  415 2233 27.5 L   6.790 -73.150145.9  RSN  8 0.5 1.8LRSN                1
 GAP=136        1.05       5.1     5.8  7.4 -0.6449E+01  0.1299E+02  0.4665E+01E
 Epicentro: LOS SANTOS - SANTANDER                                             3
 ACTION:UPD 13-05-22 14:38 OP:EP   STATUS:               ID:20130415223327 L   I
 2013-04-15-2228-51M.COL___207                                                 6
 STAT SP IPHASW D HRMM SECON CODA AMPLIT PERI AZIMU VELO AIN AR TRES W  DIS CAZ7
 BAR2 SZ ES   1   2234  2.41                             171   -0.07 7 22.2 189 
 BAR2 SZ I        2234  3.44        24.7 0.14            170           22.2 189 
 GIR2 SZ EP       2233 47.41                             167    0.1510 32.3 352 
 GIR2 SZ ES   1   2234  2.15                             167   -0.49 7 32.3 352 
 GIR2 SZ I        2234  4.76         9.7 0.44            167           32.3 352 
 BRR  HZ EP       2233 49.25                             152    0.5410 71.3 299 
 BRR  HN ES   1   2234  6.38                             152    1.15 7 71.3 299 
 BRR  HZ I        2234  8.18        13.6 0.26            152           71.3 299 
 PAM  SZ EP       2233 50.22                             150    0.3710 78.6  39 
 PAM  SN ES       2234  6.91                             150   -0.3310 78.6  39 
 PAM  SZ I        2234  9.86         7.1 0.60            154           78.6  39 
 RUS  HZ EP       2233 51.08                             144   -0.1510 99.5 176 
 RUS  HN ES   1   2234  9.59                             144   -0.12 7 99.5 176 
 RUS  HZ I        2234 10.92         7.1 0.38            146           99.5 176 
 PTB  HZ EP       2233 54.02                             132   -0.44 9  147 259 
 PTB  HE ES   1   2234 15.11                             132   -0.34 7  147 259 
 PTB  HZ I        2234 17.60         9.3 0.12            133            147 259 
 NOR  HZ EP       2234  3.36                             119    0.19 8  234 235 
 NOR  HE ES   1   2234 30.77                             119   -0.18 6  234 235 
 NOR  HZ I        2234 36.51         6.8 0.42            120            234 235 
 SML  HE ES   1   2234 31.93                             117   -0.97 6  244 336 
                                                                                
