 2012  315 2034 24.4 L   6.770 -73.172137.5  RSN  8 0.3 2.0LRSN                1
 GAP=135        0.85       3.8     4.3  6.5 -0.1837E+01  0.6964E+01  0.4866E+00E
 ACTION:UP  12-03-31 23:20 OP:EP   STATUS:               ID:20120315203424 L   I
 2012-03-15-2030-00M.COL___202                                                 6
 STAT SP IPHASW D HRMM SECON CODA AMPLIT PERI AZIMU VELO SNR AR TRES W  DIS CAZ7
 BAR2 SZ ES   2   2034 57.08                             171    -0.3 5   20 183 
 BAR2 SZ I        2035  0.08        24.5 0.41                            20 183 
 BRR  HZ EP       2034 45.02                             151     0.410   70 302 
 BRR  HE ES   1   2035  0.85                             151     0.5 7   70 302 
 BRR  HZ I        2035  3.04        33.3 0.11                            70 302 
 PAM  SZ EP       2034 45.86                             148    -0.110   82  40 
 PAM  SN ES       2035  2.70                             148    -0.210   82  40 
 RUS  HZ EP   1   2034 47.18                             143     0.1 7   98 174 
 RUS  HN ES   1   2035  4.87                             143     0.1 7   98 174 
 RUS  HZ I        2035  6.67         7.5 0.31                            98 174 
 PTB  HZ EP       2034 49.89                             131    -0.5 9  144 260 
 PTB  HE ES   1   2035 10.36                             131    -0.2 7  144 260 
 PTB  HZ I        2035 13.40        14.4 0.21                           144 260 
 OCA  SZ EP       2034 52.76                             127     0.4 9  163 354 
 OCA  SZ ES   1   2035 13.68                             127    -0.5 7  163 354 
 ZAR  HZ EP   1   2034 55.70                             121    -0.4 6  203 293 
 ZAR  HN ES   1   2035 21.05                             121     0.1 6  203 293 
 ZAR  HZ I        2035 27.14        12.3 0.26                           203 293 
 CHI  HZ EP   1   2035  1.36                             116     0.2 6  245 195 
                                                                                
