 2013 1215 2333 15.0 L   6.579 -73.581104.9  RSN  6 0.3 1.5LRSN                1
 GAP=181        0.79       4.0     3.1  6.6  0.4092E+00  0.7398E+01  0.6964E+01E
 Epicentro: EL CARMEN DE CHUCURI - SANTANDER                                   3
 ACTION:UPD 14-01-13 10:18 OP:ep   STATUS:               ID:20131215233315 L   I
 OLDACT:REG 13-12-15 23:42 OP:stll STATUS:               ID:20131215232808     3
 2013-12-15-2328-08M.COL___241                                                 6
 STAT SP IPHASW D HRMM SECON CODA AMPLIT PERI AZIMU VELO AIN AR TRES W  DIS CAZ7
 BAR2 SZ EP       2333 30.88                             155    0.3210 44.2  88 
 BAR2 SZ ES       2333 43.06                             155    0.3510 44.2  88 
 RUS  HZ EP       2333 34.09                             135   -0.3210 93.8 144 
 RUS  HN ES       2333 49.23                             135   -0.3210 93.8 144 
 RUS  HZ I        2333 51.13         5.1 0.40            137           93.8 144 
 PTB  HZ EP       2333 33.81                             134   -0.2110 96.8 267 
 PTB  HN ES       2333 48.59                             134   -0.2710 96.8 267 
 SPBC HZ EP       2333 35.92                             128    0.0310  116 208 
 SPBC HN ES       2333 51.96                             128   -0.2210  116 208 
 SPBC HZ I        2333 58.05        10.9 0.24            129            116 208 
 NOR  HZ EP       2333 42.66                             115   -0.02 9  181 232 
 NOR  HN ES       2334  4.88                             115    0.60 9  181 232 
 CHI  HN ES       2334 12.31                             110    0.25 8  216 184 
                                                                                
