 2012  115 2107 49.2 L   6.783 -73.153142.0  RSN  6 0.3 1.7LRSN                1
 GAP=136        0.82       5.3     7.1  7.4 -0.5101E+01  0.1689E+02 -0.5152E+00E
 Epicentro: LOS SANTOS - SANTANDER                                             3
 ACTION:UP  12-02-03 08:17 OP:REBC STATUS:               ID:20120115210749 L   I
 2012-01-15-2100-00M.COL___188                                                 6
 STAT SP IPHASW D HRMM SECON CODA AMPLIT PERI AZIMU VELO SNR AR TRES W  DIS CAZ7
 BAR2 SZ ES   1   21 8 22.60                             171    -0.7 7   21 189 
 BAR2 SZ I        21 8 26.39        15.7 0.48                            21 189 
 GIR2 SZ EP       21 8  8.48                             166     0.010   33 352 
 GIR2 SZ ES   2   21 8 23.58                             166     0.0 5   33 352 
 BRR  HZ EP       21 8 10.29                             152     0.310   71 300 
 BRR  HE ES   2   21 8 26.78                             152     0.6 5   71 300 
 BRR  HZ I        21 8 28.63        17.4 0.14                            71 300 
 PAM  SZ EP       21 8 11.17                             149     0.010   79  39 
 PAM  SN ES   1   21 8 28.22                             149    -0.1 7   79  39 
 RUS  HZ EP       21 8 12.51                             143     0.010   99 176 
 RUS  HN ES   1   21 8 30.99                             143     0.4 7   99 176 
 RUS  HZ I        21 8 32.32         4.0 0.40                            99 176 
 PTB  HZ EP       21 8 15.43                             131    -0.4 9  147 260 
 PTB  HZ I        21 8 40.82         4.2 0.10                           147 260 
                                                                                
