 2013  515 2316 23.2 L   6.771 -73.103146.0  RSN  4 0.4 1.6LRSN                1
 GAP=143        0.88       5.1     7.8  8.0  0.4846E+01 -0.1093E+02 -0.1326E+01E
 Epicentro: LOS SANTOS - SANTANDER                                             3
 ACTION:UPD 13-06-20 09:50 OP:ep   STATUS:               ID:20130515231623 L   I
 2013-05-15-2310-00M.COL___256                                                 6
 STAT SP IPHASW D HRMM SECON CODA AMPLIT PERI AZIMU VELO AIN AR TRES W  DIS CAZ7
 BAR2 SZ EP       2316 42.56                             171   -0.2410 21.7 204 
 BAR2 SZ ES   1   2316 57.29                             171   -0.81 7 21.7 204 
 BAR2 SZ I        2316 58.87        14.3 0.14            171           21.7 204 
 BRR  HZ EP       2316 44.56                             151   -0.1110 76.9 299 
 BRR  HN ES       2317  1.73                             151    0.2810 76.9 299 
 PAM  SZ EP       2316 45.55                             151    0.1610 77.0  35 
 PAM  SZ I        2316 45.77         6.4 0.26            152           77.0  35 
 PAM  SN ES   1   2317  2.89                             151    0.17 7 77.0  35 
 RUS  HZ EP       2316 46.48                             145   -0.2210 97.2 179 
 RUS  HN ES       2317  5.55                             145    0.4910 97.2 179 
 RUS  HZ I        2317  6.11         4.7 0.26            145           97.2 179 
                                                                                
