 2013 1015 2108  0.6 L   6.652 -73.708 99.2  RSN  6 0.4 1.6LRSN                1
 GAP=121        1.05       4.7     3.8  8.1 -0.4328E+00 -0.2865E+01  0.4068E+01E
 Epicentro: EL CARMEN DE CHUCURI - SANTANDER                                   3
 ACTION:UPD 13-11-25 09:21 OP:ep   STATUS:               ID:20131015210800 L   I
 OLDACT:REG 13-10-15 21:24 OP:nd   STATUS:               ID:20131015205959     3
 2013-10-15-2059-59M.COL___274                                                 6
 STAT SP IPHASW D HRMM SECON CODA AMPLIT PERI AZIMU VELO AIN AR TRES W  DIS CAZ7
 BRR  HZ EP       21 8 15.69                             151    0.1910 50.3 360 
 BRR  HN ES       21 8 27.76                             151    0.6010 50.3 360 
 BRR  HZ I        21 8 28.45        23.1 0.42            153           50.3 360 
 BAR2 SZ EP       21 8 16.51                             148    0.1410 58.6  96 
 BAR2 SZ ES       21 8 28.69                             148   -0.0010 58.6  96 
 BAR2 SZ I        21 8 30.33        44.0 0.26            151           58.6  96 
 PTB  HZ EP       21 8 17.76                             137   -0.2010 83.6 261 
 PTB  HN ES       21 8 31.09                             137   -0.4310 83.6 261 
 PTB  HZ I        21 8 37.87        11.3 0.30            138           83.6 261 
 RUS  HZ EP       21 8 21.18                             129    0.3010  109 140 
 RUS  HN ES       21 8 36.67                             129   -0.0510  109 140 
 RUS  HZ I        21 8 38.41         5.2 0.22            132            109 140 
 PAM  SZ EP       21 8 23.75                             123    0.2810  135  56 
 PAM  SN ES       21 8 40.46                             123   -0.8910  135  56 
 PAM  SZ I        21 8 44.83         4.0 0.18            126            135  56 
 GUY2CHZ EP   4   21 8 38.24                             108    2.77 0  242 229 
 GUY2CHZ I        21 8 58.49         1.4 0.52                           242 229 
 GUY2CHN ES   4   21 9  4.62                             108    1.92 0  242 229 
                                                                                
