 2012  815 2123  6.4 L   6.777 -73.195155.9  RSN  4 0.1 1.2LRSN                1
 GAP=173        0.34       4.2     3.9  5.1  0.3366E+01  0.1045E+01  0.5426E+01E
 Epicentro: VILLANUEVA - SANTANDER                                             3
 ACTION:UPD 12-09-10 11:56 OP:ep   STATUS:               ID:20120815212306 L   I
 2012-08-15-2120-00M.COL___217                                                 6
 STAT SP IPHASW D HRMM SECON CODA AMPLIT PERI AZIMU VELO AIN AR TRES W  DIS CAZ7
 GIR2 SZ ES   2   2123 43.39                             167   -0.31 5 33.4   0 
 BRR  HZ EP   1   2123 28.58                             155    0.07 7 67.9 303 
 BRR  HN ES   1   2123 45.89                             155    0.16 7 67.9 303 
 RUS  HZ EP   2   2123 31.06                             146    0.00 5 98.5 173 
 RUS  HE ES   2   2123 50.30                             146    0.04 5 98.5 173 
 RUS  HZ I        2123 50.89         1.7 0.15                          98.5 173 
 PTB  HZ EP   2   2123 33.63                             135   -0.12 5  142 259 
 PTB  HN ES   1   2123 54.97                             135   -0.07 7  142 259 
 PTB  HZ I        2123 56.73         2.5 0.18                           142 259 
                                                                                
