 2010  715 2109 59.4 L   6.752 -73.142145.9  RSN  5 0.2 1.7LRSN                1
 GAP=165        0.64       4.6     9.0  6.0  0.2032E+02 -0.2645E+02 -0.9155E+01E
 Epicentro: LOS SANTOS - SANTANDER                                             3
 ACTION:UPD 10-12-01 15:17 OP:pat  STATUS:               ID:20100715210959 L   I
 2010-07-15-2107-33S.COL___119                                                 6
 STAT SP IPHASW D HRMM SECON CODA AMPLIT PERI AZIMU VELO AIN AR TRES W  DIS CAZ7
 BAR2 SZ EP       2110 18.77                             172    -0.210   18 195 
 BAR2 SZ ES       2110 34.03                             172    -0.210   18 195 
 BAR2 SZ I        2110 34.94        14.3 0.18                            18 195 
 GIR2 SZ EP   2   2110 19.24                             165     0.0 5   37 351 
 GIR2 SZ ES   2   2110 34.70                             165    -0.1 5   37 351 
 BRR  HZ EP   1   2110 20.39                             151    -0.4 7   74 302 
 BRR  HZ I        2110 20.71        24.9 0.14                            74 302 
 BRR  HE ES       2110 37.63                             151     0.210   74 302 
 RUS  HZ EP       2110 22.98                             145     0.210   95 176 
 RUS  HZ I        2110 23.43         4.6 0.35                            95 176 
 RUS  HN ES   1   2110 41.31                             145     0.2 7   95 176 
 GUE  SZ EP       2110 24.77                             138     0.210  122  11 
 GUE  SZ I        2110 27.86         2.8 0.14                           122  11 
                                                                                
