 2016 1115 2331 23.7 L   6.801 -73.155143.6  RSN 21 0.5 2.8LRSN                1
 GAP= 83        1.02       3.6     3.0  5.2 -0.1757E+01  0.2987E+01  0.6551E+01E
 Epicentro: LOS SANTOS - SANTANDER                                             3
 ACTION:UPD 17-10-26 21:08 OP:lp   STATUS:               ID:20161115233123 L   I
 OLDACT:UP  16-11-16 05:08 OP:dnl  STATUS:               ID:20161115232745     3
 OLDACT:UP  16-11-16 05:07 OP:dnl  STATUS:               ID:20161115232745     3
 OLDACT:UP  16-11-16 05:06 OP:dnl  STATUS:               ID:20161115232745     3
 OLDACT:REG 16-11-16 03:31 OP:dnl  STATUS:               ID:20161115232745     3
 2016-11-15-2328-00M.COL___344                                                 6
 STAT SP IPHASW D HRMM SECON CODA AMPLIT PERI AZIMU VELO AIN AR TRES W  DIS CAZ7
 BAR2 EZ IP     D 2331 42.90                             170   -0.1410 23.3 187 
 BAR2 EZ ES       2331 57.85                             170   -0.3010 23.3 187 
 BAR2 EZ I        2331 58.98       137.9 0.34            166           23.3 187 
 BRR  HZ IP     D 2331 44.69                             152    0.1610 70.3 299 
 BRR  HN ES       2332  1.71                             152    0.9010 70.3 299 
 BRR  HZ I        2332  5.60       105.2 0.44            152           70.3 299 
 PAM  EZ EP       2331 45.73                             150    0.0410 78.0  40 
 PAM  EN ES       2332  2.79                             150   -0.0810 78.0  40 
 PAM  EZ I        2332  5.09       209.5 0.52            158           78.0  40 
 PTB  HZ EP       2331 49.64                             132   -0.73 9  147 259 
 PTB  HN ES       2332 10.56                             132   -0.64 9  147 259 
 PTB  HZ I        2332 12.59        31.7 0.24            132            147 259 
 TAM  HZ IP     D 2331 51.34                             130    0.07 9  156 105 
 TAM  HN ES       2332 12.79                             130   -0.01 9  156 105 
 ZAR  HZ EP       2331 55.42                             122   -0.45 9  203 292 
 ZAR  HE ES       2332 20.92                             122   -0.07 9  203 292 
 ZAR  HZ I        2332 27.01        66.1 0.24            124            203 292 
 NOR  HZ EP       2331 58.99                             118   -0.20 8  234 234 
 NOR  HE ES       2332 27.25                             118    0.36 8  234 234 
 NOR  HZ I        2332 34.50        52.6 0.54            119            234 234 
 CHI  HZ EP       2332  1.09                             117   -0.14 8  248 195 
 CHI  HE ES       2332 30.37                             117   -0.15 8  248 195 
 CHI  HZ I        2332 33.91        49.2 0.42            118            248 195 
 ROSC BZ EP   4   2332  2.67                             116    1.05 0  252 211 
 ROSC BN ES   4   2332 33.40                             116    2.18 0  252 211 
 ROSC BZ I        2332 36.71        75.4 0.40            117            252 211 
 URE  HZ EP   4   2332  2.72                             113   -1.80 0  283 292 
 URE  HN ES   4   2332 33.80                             113   -2.59 0  283 292 
 URE  HZ I        2332 45.65        46.2 0.18            115            283 292 
 LL1C HZ EP       2332  7.42                             111    0.28 7  306 352 
 LL1C HE ES   4   2332 43.73                             111    2.68 0  306 352 
 PTGC HZ IP   4 C 2332  6.17                             111   -1.31 0  309 158 
 PTGC HN ES   4   2332 39.58                             111   -2.07 0  309 158 
 PTGC HZ I        2332 41.28        50.8 0.28            113            309 158 
 LL6C HZ EP   4   2331 48.12                             110   -21.1 0  325 358 
 LL6C HE ES   4   2332 23.34                             110   -21.5 0  325 358 
 LL6C HZ I        2332 30.54        17.9 0.34            113            325 358 
 ELA  HZ EP       2332 11.41                             110    1.07 7  328 229 
 ELA  HN ES       2332 47.41                             110    0.66 7  328 229 
 ELA  HZ I        2332 55.23        28.7 0.78            111            328 229 
 ANIL HZ EP       2332 14.19                             108    0.88 6  357 224 
 ANIL HE ES   4   2332 53.84                             108    1.80 0  357 224 
 PRA  HZ EP       2332 16.63                             106   -0.43 6  392 209 
 PRA  HE ES       2332 59.41                             106    0.70 6  392 209 
 PRA  HZ I        2333  4.15        26.8 0.32            108            392 209 
 ORTC HZ EP       2332 17.26                             106   -0.19 6  395 216 
 ORTC HN ES       2332 59.21                             106   -0.19 6  395 216 
 ORTC HZ I        2333  4.22        20.2 0.34            107            395 216 
 PAL  HZ EP       2332 18.60                             106   -0.06 6  405 239 
 PAL  HN ES       2333  0.87                             106   -0.68 6  405 239 
 PAL  HZ I        2333  6.88        10.3 0.74            107            405 239 
 SJC  HZ EP   4   2332 17.12                             105   -1.96 0  409 327 
 SJC  HN ES   4   2332 58.28                             105   -4.03 0  409 327 
 SJC  HZ I        2333  2.61        12.9 0.62            108            409 327 
 CRJC HZ EP   4   2332 23.16                             103   -2.94 0  468   4 
 CRJC HN ES   4   2333 10.95                             103   -3.85 0  468   4 
 CRJC HZ I        2333 14.51        16.5 0.22            105            468   4 
 URI  HZ EP   4   2332 33.59                             100   -3.05 0  557  13 
 URI  HE ES   4   2333 27.54                             100   -6.02 0  557  13 
 URI  HZ I        2333 33.95         2.9 0.36            103            557  13 
                                                                                
