 2017  815 2037 47.5 L   6.791 -73.128147.2  RSN  8 0.2 1.9LRSN                1
 GAP=139        0.59       2.2     2.8  3.8 -0.6180E+00  0.2563E+01  0.2283E+01E
 Epicentro: LOS SANTOS - SANTANDER                                             3
 ACTION:UPD 17-09-04 20:20 OP:rebc STATUS:               ID:20170815203747 L   I
 OLDACT:UP  17-08-16 06:19 OP:dani STATUS:               ID:20170815202744     3
 OLDACT:REG 17-08-16 05:07 OP:dani STATUS:               ID:20170815202744     3
 2017-08-15-2028-00M.COL___416                                                 6
 STAT SP IPHASW D HRMM SECON CODA AMPLIT PERI AZIMU VELO AIN AR TRES W  DIS CAZ7
 BAR2 EZ ES       2038 22.42                             171   -0.3110 22.8 195 
 BAR2 EZ I        2038 23.94        42.4 0.37            169           22.8 195 
 BRR  HZ EP       2038  8.99                             152    0.0610 73.4 298 
 BRR  HN ES       2038 26.04                             152    0.4010 73.4 298 
 BRR  HZ I        2038 27.76        12.5 0.30            152           73.4 298 
 PAM  EZ EP       2038  9.93                             151    0.0810 77.0  38 
 PAM  EE ES       2038 27.22                             151   -0.0510 77.0  38 
 PAM  EZ I        2038 29.42         9.1 0.28            154           77.0  38 
 RUS  HZ EP       2038 11.05                             144   -0.2710 99.5 177 
 RUS  HN ES       2038 29.94                             144    0.0510 99.5 177 
 RUS  HZ I        2038 30.88         7.1 0.44            145           99.5 177 
 SPBC HZ EP       2038 16.54                             129    0.39 9  164 220 
 SPBC HE ES       2038 38.64                             129    0.14 9  164 220 
 SPBC HZ I        2038 42.71        15.2 0.36            130            164 220 
 ZAR  HE ES       2038 45.44                             122   -0.38 8  206 292 
 NOR  HZ EP       2038 23.25                             119   -0.17 8  236 235 
 NOR  HE ES       2038 51.39                             119   -0.05 8  236 235 
 NOR  HZ I        2038 55.69         5.4 0.54            119            236 235 
 CHI  HZ EP       2038 25.34                             117    0.11 8  248 196 
 CHI  HN ES       2038 54.58                             117   -0.08 8  248 196 
 CHI  HZ I        2038 58.03         4.4 0.48            118            248 196 
                                                                                
