 2012  215 2351 51.6 L   6.766 -73.155146.0  RSN 12 0.5 2.7LRSN                1
 GAP=137        0.87       4.0     4.2  6.0 -0.2214E+00  0.7003E+01  0.7660E+01E
 ACTION:UP  12-03-07 16:30 OP:epov STATUS:               ID:20120215235151 L   I
 2012-02-15-2350-00M.COL___188                                                 6
 STAT SP IPHASW D HRMM SECON CODA AMPLIT PERI AZIMU VELO AIN AR TRES W  DIS CAZ7
 BAR2 SZ EP   1   2352 11.28                             172    0.05 7 19.5 189 
 BAR2 SZ ES   1   2352 25.88                             172   -0.63 7 19.5 189 
 BAR2 SZ I        2352 27.80       178.2 0.20                          19.5 189 
 GIR2 SZ EP   1   2352 11.39                             166   -0.05 7 34.8 353 
 BRR  HZ EP   1   2352 13.15                             152    0.28 7 72.2 302 
 BRR  HN ES       2352 30.29                             152    0.8610 72.2 302 
 BRR  HZ I        2352 33.01       111.8 0.15                          72.2 302 
 PAM  SZ EP   1   2352 14.14                             150    0.04 7 80.9  38 
 PAM  SN ES   1   2352 31.20                             150   -0.41 7 80.9  38 
 PAM  SZ I        2352 33.48        78.0 0.50                          80.9  38 
 RUS  HZ EP   1   2352 15.08                             145   -0.08 7 96.9 175 
 RUS  HN ES   1   2352 33.72                             145    0.22 7 96.9 175 
 RUS  HZ I        2352 36.78        68.8 0.28                          96.9 175 
 PTB  HZ EP   1   2352 18.00                             132   -0.48 7  146 260 
 PTB  HN ES   1   2352 39.16                             132   -0.25 7  146 260 
 ZAR  HZ EP   1   2352 23.48                             122   -0.68 6  205 293 
 ZAR  HN ES   1   2352 49.01                             122   -0.51 6  205 293 
 ZAR  HZ I        2352 56.18        39.2 0.16                           205 293 
 NOR  SZ EP   1   2352 27.06                             119   -0.01 6  232 235 
 NOR  SN ES   1   2352 54.46                             119   -0.23 6  232 235 
 CHI  HZ EP   1   2352 29.20                             118    0.27 6  245 195 
 CHI  HN ES   1   2352 57.88                             118   -0.14 6  245 195 
 CHI  HZ I        2353  2.14        32.2 0.52                           245 195 
 HEL  HZ EP   1   2352 32.69                             115    1.03 6  270 257 
 HEL  HN ES   1   2353  2.35                             115   -0.52 6  270 257 
 HEL  HZ I        2353  9.20        31.1 0.39                           270 257 
 RREF HZ EP   1   2352 38.11                             111    0.68 5  319 230 
 PRA  HZ EP   1   2352 44.64                             107   -0.09 4  388 210 
 PRA  HN ES   1   2353 26.28                             107    0.14 4  388 210 
                                                                                
