 2017  415 2120 34.4 L   6.826 -73.171142.6  RSN  6 0.3 1.5LRSN                1
 GAP=145        0.57       4.7     5.0  5.2 -0.5774E+01  0.9837E+01 -0.2307E+00E
 Epicentro: LOS SANTOS - SANTANDER                                             3
 ACTION:UPD 17-05-30 21:12 OP:jn   STATUS:               ID:20170415212034 L   I
 OLDACT:UP  17-04-16 02:10 OP:and  STATUS:               ID:20170415211648     3
 OLDACT:REG 17-04-16 02:07 OP:and  STATUS:               ID:20170415211648     3
 2017-04-15-2118-00M.COL___374                                                 6
 STAT SP IPHASW D HRMM SECON CODA AMPLIT PERI AZIMU VELO AIN AR TRES W  DIS CAZ7
 BAR2 EZ ES       2121  8.70                             169   -0.0910 25.8 183 
 BAR2 EZ I        2121 10.25         7.1 0.07            165           25.8 183 
 PAM  EZ EP   2   2120 56.62                             150    0.33 5 77.1  42 
 PAM  EN ES   2   2121 13.69                             150    0.35 5 77.1  42 
 RUS  HZ EP       2120 57.65                             142   -0.4510  104 175 
 RUS  HN ES       2121 16.67                             142    0.1110  104 175 
 RUS  HZ I        2121 17.49         3.9 0.28            141            104 175 
 PTB  HZ EP   2   2121  0.58                             132   -0.36 5  146 258 
 PTB  HN ES   2   2121 21.40                             132   -0.22 5  146 258 
 PTB  HZ I        2121 24.19         3.2 0.14            130            146 258 
 SPBC HZ EP       2121  3.05                             128    0.32 9  164 218 
 SPBC HN ES   2   2121 25.08                             128    0.27 5  164 218 
 SPBC HZ I        2121 31.00         6.8 0.24            127            164 218 
 NOR  HZ EP   3   2121 10.47                             118    0.56 2  234 233 
 NOR  HN ES   2   2121 37.79                             118    0.21 4  234 233 
 NOR  HZ I        2121 42.51         2.2 0.24            117            234 233 
                                                                                
