 2014  715 2054  1.1 L   6.781 -73.150143.1  RSN 10 0.5 2.1LRSN                1
 GAP=137        1.28       4.2     5.1  7.4 -0.2525E+01  0.1168E+02 -0.3669E+01E
 Epicentro: LOS SANTOS - SANTANDER                                             3
 ACTION:UPD 15-03-16 20:44 OP:nd   STATUS:               ID:20140715205401 L   I
 OLDACT:REG 14-07-16 02:48 OP:cam  STATUS:               ID:20140715205000     3
 2014-07-15-2050-00M.COL___282                                                 6
 STAT SP IPHASW D HRMM SECON CODA AMPLIT PERI AZIMU VELO AIN AR TRES W  DIS CAZ7
 BAR2 SZ EP       2054 20.54                             171    0.1310 21.2 190 
 BAR2 SZ ES       2054 35.23                             171   -0.2010 21.2 190 
 BAR2 SZ I        2054 36.14        22.2 0.14            172           21.2 190 
 BRR  HZ EP     C 2054 22.34                             152    0.3110 71.8 300 
 BRR  HN ES       2054 39.14                             152    0.8110 71.8 300 
 BRR  HN I        2054 39.49        59.4 0.26            145           71.8 300 
 PAM  SZ EP     D 2054 23.47                             150    0.2810 79.3  39 
 PAM  SE ES       2054 40.15                             150   -0.2410 79.3  39 
 PAM  SZ I        2054 42.54        28.2 0.46            144           79.3  39 
 RUS  HZ EP       2054 24.79                             144    0.3110 98.6 176 
 RUS  HE ES       2054 42.70                             144    0.0110 98.6 176 
 RUS  HZ I        2054 44.75         3.8 0.30            141           98.6 176 
 PTB  HZ EP     D 2054 27.51                             132   -0.30 9  147 260 
 PTB  HN ES       2054 47.80                             132   -0.81 9  147 260 
 PTB  HZ I        2054 52.52        15.3 0.14            126            147 260 
 SPBC HZ EP   1   2054 29.59                             129    0.34 7  161 219 
 SPBC HN ES       2054 50.14                             129   -1.04 9  161 219 
 SPBC HZ I        2054 54.84         7.8 0.26            124            161 219 
 ZAR  HZ EP       2054 33.78                             122    0.34 9  204 293 
 ZAR  HN ES       2054 59.28                             122    0.64 9  204 293 
 ZAR  HZ I        2055  4.46        14.8 0.26            116            204 293 
 NOR  HZ EP       2054 36.52                             118   -0.02 8  233 235 
 NOR  HN ES       2055  4.83                             118    0.68 8  233 235 
 NOR  HZ I        2055 10.21         6.7 0.16            113            233 235 
 SML  HZ EP       2054 37.02                             117   -0.78 8  245 336 
 SML  HN ES       2055  5.75                             117   -0.64 8  245 336 
 SML  HZ I        2055  9.95        14.1 0.20            111            245 336 
 SJC  HZ EP   4   2054 55.30                             105   -1.48 0  411 327 
 SJC  HZ I        2055 40.44         4.5 0.36            101            411 327 
                                                                                
