 2013 1215 2152 43.2 L   6.785 -73.172146.0  RSN  4 0.5 1.4LRSN                1
 GAP=233        0.62      13.6     7.9 10.8  0.8048E+02 -0.3211E+02 -0.8102E+02E
 Epicentro: LOS SANTOS - SANTANDER                                             3
 ACTION:UPD 14-01-13 10:18 OP:ep   STATUS:               ID:20131215215243 L   I
 OLDACT:UP  13-12-16 03:55 OP:stll STATUS:               ID:20131215215243 L   3
 OLDACT:REG 13-12-15 23:40 OP:stll STATUS:               ID:20131215214811     3
 2013-12-15-2148-11M.COL___240                                                 6
 STAT SP IPHASW D HRMM SECON CODA AMPLIT PERI AZIMU VELO AIN AR TRES W  DIS CAZ7
 BAR2 SZ ES   3   2153 16.80                             172   -1.37 3 21.3 183 
 BAR2 SZ I        2153 19.53        10.0 0.28            162           21.3 183 
 BRR  HZ EP   3   2153  4.59                             153    0.26 3 69.5 301 
 BRR  HN ES   3   2153 22.01                             153    1.24 3 69.5 301 
 RUS  HZ EP   1 D 2153  7.20                             145    0.28 8 99.1 174 
 RUS  HN ES   1   2153 25.34                             145   -0.04 8 99.1 174 
 RUS  HZ I        2153 28.11         2.1 0.48            142           99.1 174 
 PTB  HZ EP       2153  9.68                             133   -0.2710  145 259 
 PTB  HN ES       2153 30.88                             133    0.1110  145 259 
 PTB  HZ I        2153 38.58         3.7 0.46            130            145 259 
                                                                                
