 2017  915 2132 50.0 L   6.558 -73.538112.9  RSN  6 0.4 1.7LRSN                1
 GAP=109        1.13       4.1     4.4  7.8 -0.2149E+00  0.5465E+01  0.9639E+01E
 Epicentro: EL CARMEN - SANTANDER                                              3
 ACTION:UPD 17-10-05 19:12 OP:rebc STATUS:               ID:20170915213250 L   I
 OLDACT:REG 17-09-16 06:06 OP:dani STATUS:               ID:20170915212042     3
 2017-09-15-2128-00M.COL___447                                                 6
 STAT SP IPHASW D HRMM SECON CODA AMPLIT PERI AZIMU VELO AIN AR TRES W  DIS CAZ7
 BAR2 EZ EP     C 2133  6.14                             159   -0.1510 39.5  85 
 BAR2 EZ ES       2133 18.86                             159   -0.1110 39.5  85 
 BRR  HZ EP       2133  6.96                             148   -0.2910 63.7 342 
 BRR  HN ES       2133 21.36                             148    0.6910 63.7 342 
 BRR  HZ I        2133 29.72        14.4 0.29            151           63.7 342 
 RUS  HZ EP       2133  9.67                             139   -0.1110 89.2 146 
 RUS  HN ES       2133 24.53                             139   -0.6510 89.2 146 
 RUS  HZ I        2133 27.26         4.3 0.30            145           89.2 146 
 PAM  EZ EP       2133 13.34                             128    0.2510  127  47 
 PAM  EE ES       2133 30.75                             128   -0.3210  127  47 
 PAM  EZ I        2133 31.24         6.9 0.44            135            127  47 
 YPLC HZ EP       2133 18.20                             117    0.02 9  181 135 
 YPLC HE ES       2133 41.13                             117    1.00 9  181 135 
 YPLC HZ I        2133 42.78        11.2 0.28            123            181 135 
 NOR  HZ EP       2133 18.06                             117   -0.36 9  184 233 
 NOR  HN ES       2133 40.77                             117    0.21 9  184 233 
 NOR  HZ I        2133 43.24         5.9 0.20            121            184 233 
                                                                                
