 2012  815 2311 15.3 L   6.799 -73.161146.7  RSN 12 0.4 2.7LRSN 3.2WRSN        1
 SPEC AVERAGE  MO 13.9 ST 13.7 OM  3.4 f0 4.68 R0.3158 AL 3.00 WI  9.0 MW  3.2 3
 SPEC SD       MO  0.1 ST  6.7 OM  1.1 f00.356 R0.0229 AL      WI      MW  0.1 3
 GAP= 70        0.81       3.3     2.9  5.0  0.7663E+00  0.3130E+01  0.2382E+01E
 Epicentro: LOS SANTOS - SANTANDER                                             3
 SPEC BRR HH N MO 14.1 ST 23.0 OM  2.5 f0 5.18 R0.2838 AL 2.78 WI 11.6 MW  3.3 3
 SPEC BRR HH N T231153 K 0.000 GD  162 VS 4.20 DE 3.00 Q0230.0 QA 0.60 VS 4.20 3
 SPEC RUS HH E MO 13.9 ST 10.3 OM  2.3 f0 4.48 R0.3281 AL 2.84 WI  7.8 MW  3.2 3
 SPEC RUS HH E T231157 K 0.000 GD  178 VS 4.20 DE 3.00 Q0230.0 QA 0.60 VS 4.20 3
 SPEC CHI HH N MO 13.8 ST  7.8 OM  2.0 f0 4.38 R0.3356 AL 3.37 WI  7.6 MW  3.2 3
 SPEC CHI HH N T231222 K 0.000 GD  288 VS 4.20 DE 3.00 Q0230.0 QA 0.60 VS 4.20 3
 ACTION:UPD 12-09-10 11:56 OP:ep   STATUS:               ID:20120815231115 L   I
 2012-08-15-2310-00M.COL___217                                                 6
 STAT SP IPHASW D HRMM SECON CODA AMPLIT PERI AZIMU VELO AIN AR TRES W  DIS CAZ7
 BAR2 SZ EP       2311 34.88                             171   -0.1110 23.0 186 
 BAR2 SZ ES   1   2311 49.75                             171   -0.63 7 23.0 186 
 BAR2 SZ I        2311 50.90       182.8 0.35                          23.0 186 
 GIR2 SZ EP   1   2311 34.97                             167   -0.07 7 31.2 353 
 GIR2 SZ ES   1   2311 50.55                             167    0.09 7 31.2 353 
 BRR  HZ IP     C 2311 36.65                             153    0.2210 69.8 299 
 BRR  HZ I        2311 36.91       204.5 0.13                          69.8 299 
 BRR  HN ES   1   2311 53.79                             153    0.85 7 69.8 299 
 PAM  SZ EP   1   2311 37.83                             151    0.19 7 78.6  40 
 PAM  SZ I        2311 38.07        65.0 0.20                          78.6  40 
 PAM  SN ES   1   2311 54.97                             151   -0.13 7 78.6  40 
 RUS  HZ EP   1   2311 38.96                             144   -0.14 7  101 175 
 RUS  HE ES   1   2311 57.83                             144    0.14 7  101 175 
 RUS  HZ I        2311 58.67        52.0 0.24                           101 175 
 PTB  HZ EP   1   2311 41.59                             133   -0.56 7  146 259 
 PTB  HN ES   1   2312  2.65                             133   -0.47 7  146 259 
 TAM  HZ EP       2311 43.33                             130    0.17 9  157 105 
 TAM  HZ I        2311 43.48        54.6 0.20                           157 105 
 TAM  HN ES   1   2312  5.01                             130    0.09 7  157 105 
 OCA  HZ EP   1   2311 43.03                             130   -0.61 7  160 354 
 OCA  HN ES   1   2312  5.72                             130   -0.05 7  160 354 
 ZAR  HZ EP   1   2311 48.43                             123    0.82 6  203 292 
 ZAR  HN ES   1   2312 12.65                             123   -0.19 6  203 292 
 CHI  HZ EP   1   2311 53.09                             117    0.14 6  248 195 
 CHI  HN ES   1   2312 22.39                             117    0.05 6  248 195 
 CHI  HZ I        2312 24.90        26.1 0.43                           248 195 
 HEL  HZ EP   1   2311 55.91                             115    0.58 6  270 256 
 HEL  HN ES   1   2312 26.98                             115    0.39 6  270 256 
 HEL  HZ I        2312 33.33        29.3 0.30                           270 256 
 DBB  SZ EP   1   2312  1.38                             110   -1.20 5  338 274 
 DBB  SZ ES   1   2312 39.51                             110    0.02 5  338 274 
                                                                                
