 2011  515 2338 26.3 L   6.775 -73.097146.8  RSN 12 0.4 2.3LRSN                1
 GAP=144        0.90       3.9     6.2  6.1 -0.1043E+02  0.1104E+02  0.1473E+01E
 Epicentro: LOS SANTOS - SANTANDER                                             3
 ACTION:UP  11-06-29 08:53 OP:tino STATUS:               ID:20110515233826 L   I
 2011-05-15-2336-53S.COL___139                                                 6
 STAT SP IPHASW D HRMM SECON CODA AMPLIT PERI AZIMU VELO SNR AR TRES W  DIS CAZ7
 BAR2 SZ EP       2338 45.79                             171    -0.210   22 205 
 BAR2 SZ ES   1   2339  0.88                             171    -0.5 7   22 205 
 BAR2 SZ I        2339  3.77        38.2 0.31                            22 205 
 PAM  SZ EP       2338 48.69                             151     0.210   76  35 
 PAM  SN ES       2339  6.07                             151     0.210   76  35 
 BRR  HZ EP   1   2338 47.71                             151    -0.2 7   77 298 
 BRR  HN ES   1   2339  5.38                             151     0.7 7   77 298 
 BRR  HZ I        2339  7.43        44.1 0.15                            77 298 
 RUS  HZ EP   1   2338 49.68                             145    -0.2 7   98 179 
 RUS  HN ES   1   2339  8.39                             145     0.1 7   98 179 
 RUS  HZ I        2339 11.16        18.6 0.33                            98 179 
 BRI  SZ EP   1   2338 50.41                             141     0.1 7  109  18 
 BRI  SZ I        2339 14.36        14.1 0.20                           109  18 
 GRA  SZ EP   1   2338 51.69                             137     0.0 7  127  15 
 GRA  SZ ES   1   2339 11.34                             137    -0.2 7  127  15 
 GRA  SZ I        2339 14.15        32.7 0.32                           127  15 
 OCA  SZ EP   1   2338 54.76                             129    -0.2 7  164 351 
 OCA  SZ ES   1   2339 17.34                             129     0.0 7  164 351 
 OCA  SZ I        2339 21.32        47.0 0.30                           164 351 
 NOR  SZ EP   1   2339  1.57                             118    -0.8 6  237 236 
 NOR  SN ES   1   2339 30.34                             118    -0.2 6  237 236 
 ROSC BZ EP   1   2339  5.60                             117     1.1 6  253 212 
 ROSC BZ I        2339 43.64        27.1 0.31                           253 212 
 TOL  SZ EP   1   2339 15.62                             109     0.9 5  345 226 
 DBB  SZ EP   1   2339 13.89                             109    -0.5 5  345 275 
 PRA  HZ EP   1   2339 19.97                             107     0.1 4  392 210 
                                                                                
