 2014  215 2338 17.9 L   6.779 -73.113143.3  RSN  6 0.4 1.8LRSN                1
 GAP=142        1.02       4.7     4.6  7.4  0.1050E+01  0.7475E+01 -0.4325E+01E
 Epicentro: LOS SANTOS - SANTANDER                                             3
 ACTION:UPD 14-03-10 08:10 OP:ep   STATUS:               ID:20140215233817 L   I
 OLDACT:REG 14-02-15 23:04 OP:nd   STATUS:               ID:20140215233000     3
 2014-02-15-2330-00M.COL___212                                                 6
 STAT SP IPHASW D HRMM SECON CODA AMPLIT PERI AZIMU VELO AIN AR TRES W  DIS CAZ7
 BRR  HZ EP       2338 39.45                             151    0.4110 75.5 299 
 BRR  HN ES       2338 55.62                             151    0.1010 75.5 299 
 BRR  HZ I        2339  3.86         8.3 0.34            150           75.5 299 
 PAM  SZ EP       2338 40.42                             150    0.5810 77.0  36 
 PAM  SN ES       2338 56.90                             150   -0.0410 77.0  36 
 PAM  SZ I        2338 59.58        17.0 0.56            153           77.0  36 
 RUS  HZ EP       2338 41.38                             144    0.1510 98.0 178 
 RUS  HN ES       2338 58.85                             144   -0.5710 98.0 178 
 RUS  HZ I        2339  1.13         7.4 0.24            151           98.0 178 
 PTB  HZ EP       2338 45.28                             131    0.33 9  151 260 
 PTB  HN ES       2339  6.04                             131   -0.01 9  151 260 
 PTB  HZ I        2339  8.37         6.6 0.48            134            151 260 
 ZAR  HZ EP       2338 50.22                             121   -0.41 8  208 292 
 ZAR  HN ES       2339 16.23                             121    0.08 8  208 292 
 ZAR  HZ I        2339 21.55         6.9 0.30            124            208 292 
 SML  HZ EP       2338 53.83                             116   -0.96 8  247 335 
 SML  HN ES   2   2339 23.04                             116   -0.52 4  247 335 
 SML  HZ I        2339 29.98         7.4 0.28            119            247 335 
                                                                                
