 2011  915 2225 47.5 L   6.812 -73.081152.0  RSN  5 0.2 1.7LRSN                1
 GAP=144        0.41       3.1     4.7  5.1  0.2713E+00  0.1286E+01  0.4077E+01E
 Epicentro: LOS SANTOS - SANTANDER                                             3
 ACTION:UPD 12-07-13 15:57 OP:ep   STATUS:               ID:20110915222547 L   I
 2011-09-15-2223-11S.COL___169                                                 6
 STAT SP IPHASW D HRMM SECON CODA AMPLIT PERI AZIMU VELO AIN AR TRES W  DIS CAZ7
 GIR2 SZ EP   1   2226  7.90                             167    0.02 7 32.0 337 
 PAM  SZ EP   2   2226 10.53                             154    0.50 5 72.0  36 
 PAM  SN ES   1   2226 27.44                             154   -0.20 7 72.0  36 
 BRR  HZ EP   1   2226  9.68                             152    0.09 7 76.9 295 
 BRR  HZ I        2226 17.46        16.2 0.12                          76.9 295 
 BRR  HN ES   1   2226 26.82                             152   -0.05 7 76.9 295 
 RUS  HZ EP   1   2226 11.74                             145   -0.15 7  102 180 
 RUS  HE ES   1   2226 31.10                             145    0.14 7  102 180 
 RUS  HZ I        2226 31.72         3.1 0.15                           102 180 
 CHI  HZ EP   2   2226 25.58                             118   -0.27 4  252 197 
 CHI  HZ I        2227  2.99         3.6 0.27                           252 197 
                                                                                
