 2011  415 2357 50.5 L   6.759 -73.117146.6  RSN  5 0.2 1.8LRSN                1
 GAP=166        0.49       4.2     4.8  4.6 -0.9062E+01  0.4065E+01  0.2713E-01E
 Epicentro: LOS SANTOS - SANTANDER                                             3
 ACTION:UP  11-06-22 15:31 OP:REBC STATUS:               ID:20110415235750 L   I
 2011-04-15-2355-00S.COL___133                                                 6
 STAT SP IPHASW D HRMM SECON CODA AMPLIT PERI AZIMU VELO SNR AR TRES W  DIS CAZ7
 BAR2 SZ EP   1   2358 10.09                             172    -0.1 7   20 201 
 BAR2 SZ ES   1   2358 25.69                             172     0.2 7   20 201 
 BAR2 SZ I        2358 26.25        22.7 0.30                            20 201 
 BRR  HZ EP   1   2358 11.95                             151    -0.1 7   76 300 
 BRR  HE ES   1   2358 28.62                             151    -0.2 7   76 300 
 BRR  HZ I        2358 31.25        20.3 0.14                            76 300 
 PAM  SZ EP   1   2358 13.00                             150     0.1 7   79  36 
 PAM  SN ES   1   2358 30.25                             150    -0.1 7   79  36 
 PAM  SZ I        2358 32.37         4.8 0.55                            79  36 
 OCA  SZ EP   1   2358 19.06                             129    -0.3 7  165 352 
 OCA  SZ ES   2   2358 42.42                             129     0.6 5  165 352 
 OCA  SZ I        2358 43.77         8.8 0.17                           165 352 
 NOR  SZ EP   1   2358 26.53                             119     0.3 6  235 236 
 NOR  SN ES   2   2358 54.11                             119    -0.1 4  235 236 
                                                                                
