 2013  115 2024 15.7 L   6.783 -73.131142.4  RSN  8 0.4 2.3LRSN                1
 GAP=184        1.09       3.8     5.5  6.8  0.4502E+01  0.9344E+01  0.4445E+01E
 Epicentro: LOS SANTOS - SANTANDER                                             3
 ACTION:UPD 13-02-15 09:14 OP:ep   STATUS:               ID:20130115202415 L   I
 2013-01-15-2020-00M.COL___241                                                 6
 STAT SP IPHASW D HRMM SECON CODA AMPLIT PERI AZIMU VELO AIN AR TRES W  DIS CAZ7
 BAR2 SZ EP       2024 35.01                             171    0.1110 21.9 195 
 BAR2 SZ ES       2024 49.83                             171   -0.0410 21.9 195 
 BAR2 SZ I        2024 50.75        32.3 0.20            168           21.9 195 
 BRR  HZ IP     D 2024 37.04                             151    0.4110 73.6 299 
 BRR  HN ES       2024 53.51                             151    0.5610 73.6 299 
 BRR  HN I        2024 58.42        53.4 0.16            149           73.6 299 
 RUS  HZ EP       2024 39.04                             144    0.0510 98.6 177 
 RUS  HN ES       2024 57.10                             144   -0.0410 98.6 177 
 RUS  HN I        2024 59.21        16.5 0.24            145           98.6 177 
 PTB  HZ EP       2024 41.75                             131   -0.77 9  149 260 
 PTB  HN ES       2025  2.84                             131   -0.59 9  149 260 
 PTB  HN I        2025  7.69        28.5 0.36            130            149 260 
 OCA  HN ES       2025  5.21                             128   -0.78 9  162 353 
 OCA  HN I        2025  8.45        58.4 0.20            130            162 353 
 ZAR  HZ EP       2024 48.56                             121    0.39 8  206 292 
 ZAR  HN ES       2025 14.16                             121    0.67 8  206 292 
 ZAR  HN I        2025 20.15        28.8 0.14            122            206 292 
 NOR  HZ EP       2024 51.40                             118    0.12 8  235 235 
 NOR  HN ES       2025 18.59                             118   -0.43 8  235 235 
 NOR  HN I        2025 24.34        24.6 0.14            118            235 235 
 CHI  HZ EP       2024 53.28                             117    0.20 8  247 196 
 CHI  HN ES       2025 22.35                             117    0.13 8  247 196 
 CHI  HN I        2025 27.97         7.4 0.66            118            247 196 
                                                                                
