 2012  615 2327  7.8 L   6.765 -73.144149.6  RSN  5 0.4 1.8LRSN                1
 GAP=243        0.68       6.3     6.1  9.0  0.2444E+02 -0.8112E+01 -0.1403E+02E
 Epicentro: LOS SANTOS - SANTANDER                                             3
 ACTION:UPD 12-08-06 17:49 OP:ep   STATUS:               ID:20120615232707 L   I
 2012-06-15-2320-00M.COL___198                                                 6
 STAT SP IPHASW D HRMM SECON CODA AMPLIT PERI AZIMU VELO AIN AR TRES W  DIS CAZ7
 RUS  HZ EP   1   2327 32.08                             146    0.41 8 96.7 176 
 RUS  HN ES   1   2327 50.32                             146    0.05 8 96.7 176 
 RUS  HZ I        2327 53.77         5.2 0.42                          96.7 176 
 PTB  HZ EP   1   2327 34.96                             133   -0.08 7  147 260 
 PTB  HN ES       2327 56.07                             133   -0.2210  147 260 
 PTB  HZ I        2328  3.40        10.5 0.24                           147 260 
 ZAR  HZ EP   1   2327 40.06                             123   -0.61 7  206 293 
 ZAR  HN ES   1   2328  6.59                             123    0.28 7  206 293 
 ZAR  HZ I        2328 13.09         6.2 0.11                           206 293 
 CHI  HZ EP   1   2327 45.58                             118    0.25 6  245 195 
 CHI  HN ES   1   2328 14.11                             118   -0.48 6  245 195 
 HEL  HE ES   1   2328 20.18                             116    0.59 6  271 257 
                                                                                
