 2017  215 2022 13.3 L   6.794 -73.141147.7  RSN  7 0.3 1.7LRSN                1
 GAP=137        0.68       2.9     3.2  5.5 -0.1348E+01  0.1731E+01  0.5471E+01E
 Epicentro: LOS SANTOS - SANTANDER                                             3
 ACTION:UPD 17-05-24 15:36 OP:jn   STATUS:               ID:20170215202213 L   I
 OLDACT:UP  17-02-16 03:03 OP:ar   STATUS:               ID:20170215201742     3
 OLDACT:REG 17-02-16 02:45 OP:ar   STATUS:               ID:20170215201742     3
 2017-02-15-2018-00M.COL___364                                                 6
 STAT SP IPHASW D HRMM SECON CODA AMPLIT PERI AZIMU VELO AIN AR TRES W  DIS CAZ7
 BRR  HZ EP       2022 34.87                             153    0.1810 72.0 299 
 BRR  HN ES       2022 51.83                             153    0.4510 72.0 299 
 BRR  HZ I        2022 53.83         9.2 0.14            153           72.0 299 
 PAM  EZ EP       2022 35.95                             151    0.2310 77.6  39 
 PAM  EN ES       2022 52.96                             151   -0.2610 77.6  39 
 PAM  EZ I        2022 55.98         9.3 0.38            155           77.6  39 
 RUS  HZ EP       2022 37.09                             144   -0.0810 99.9 176 
 RUS  HE ES       2022 55.65                             144   -0.1610 99.9 176 
 RUS  HZ I        2022 56.73         7.7 0.42            144           99.9 176 
 PTB  HZ EP       2022 39.96                             132   -0.48 9  148 259 
 PTB  HE ES       2023  1.36                             132   -0.27 9  148 259 
 PTB  HZ I        2023  3.24         5.3 0.23            133            148 259 
 ZAR  HN ES   2   2023 11.23                             123   -0.17 4  205 292 
 NOR  HN ES       2023 17.16                             119    0.07 8  235 235 
 NOR  HZ I        2023 24.70         3.4 0.26            120            235 235 
 CHI  HZ EP       2022 51.24                             118    0.21 8  248 195 
 CHI  HN ES       2023 20.70                             118    0.22 8  248 195 
 CHI  HZ I        2023 26.63         3.0 0.30            118            248 195 
                                                                                
