 2016  115 2022 42.9 L   6.776 -73.151138.0  RSN 15 0.4 2.1LRSN                1
 GAP=137        0.91       2.9     3.2  4.7 -0.8747E+00  0.4896E+01  0.3847E+01E
 Epicentro: LOS SANTOS - SANTANDER                                             3
 ACTION:UPD 16-03-09 23:25 OP:cam  STATUS:               ID:20160115202242 L   I
 OLDACT:UP  16-02-23 20:52 OP:AR   STATUS:               ID:20160115202242 L   3
 OLDACT:REG 16-01-16 07:13 OP:ak   STATUS:               ID:20160115201750     3
 2016-01-15-2017-50M.COL___338                                                 6
 STAT SP IPHASW D HRMM SECON CODA AMPLIT PERI AZIMU VELO AIN AR TRES W  DIS CAZ7
 BAR2 EZ EP       2023  1.38                             171   -0.1710 20.6 190 
 BAR2 EZ ES       2023 16.19                             171    0.1010 20.6 190 
 BAR2 EZ I        2023 17.16        20.1 0.32            168           20.6 190 
 BRR  HZ EP       2023  3.25                             151   -0.0210 72.0 301 
 BRR  HN ES       2023 19.53                             151    0.3710 72.0 301 
 BRR  HZ I        2023 24.35        32.7 0.12            150           72.0 301 
 PAM  EZ EP       2023  4.47                             149    0.0110 79.8  39 
 PAM  EN ES       2023 21.02                             149   -0.2410 79.8  39 
 PAM  EZ I        2023 23.32        23.2 0.40            154           79.8  39 
 RUS  HZ EP       2023  6.00                             143    0.2910 98.0 176 
 RUS  HN ES       2023 23.67                             143    0.1710 98.0 176 
 RUS  HZ I        2023 24.66        12.6 0.14            143           98.0 176 
 PTB  HZ EP       2023  8.10                             131   -1.06 9  147 260 
 PTB  HN ES       2023 29.11                             131   -0.52 9  147 260 
 PTB  HZ I        2023 31.79        15.0 0.18            130            147 260 
 SPBC HZ EP       2023 10.56                             128   -0.03 9  161 219 
 SPBC HN ES       2023 32.34                             128    0.16 9  161 219 
 SPBC HZ I        2023 36.31        23.9 0.20            128            161 219 
 ZAR  HZ EP       2023 15.36                             121    0.44 9  205 293 
 ZAR  HN ES       2023 40.26                             121    0.38 9  205 293 
 ZAR  HZ I        2023 45.50        19.8 0.34            121            205 293 
 NOR  HZ EP       2023 17.87                             117   -0.12 8  233 235 
 NOR  HN ES       2023 45.38                             117    0.04 8  233 235 
 NOR  HZ I        2023 50.46         8.4 0.36            118            233 235 
 CHI  HZ EP       2023 20.03                             116    0.14 8  246 195 
 CHI  HN ES       2023 48.74                             116    0.00 8  246 195 
 CHI  HZ I        2023 57.30         4.4 0.30            117            246 195 
 SML  HZ EP   9   2023 17.19                             116   -2.16 0  246 336 
 SML  HN ES       2023 46.16                             116    0.55 8  246 336 
 SML  HZ I        2023 48.92        15.6 0.12            117            246 336 
 GUY2CHZ EP   1   2023 26.63                             111    0.68 5  299 235 
 GUY2CHN ES       2023 59.22                             111   -0.29 7  299 235 
 GUY2CHZ I        2024  6.81         5.5 0.24                           299 235 
 ELA  HE ES       2024  6.26                             109    0.96 7  327 230 
 ELA  HZ I        2024 21.41         5.7 0.44            110            327 230 
 CBOC HZ EP       2023 29.47                             109    0.11 7  332 252 
 CBOC HN ES       2024  5.05                             109   -0.54 7  332 252 
 PRA  HZ EP       2023 35.58                             105   -0.29 6  389 210 
 PRA  HN ES       2024 17.02                             105   -0.16 6  389 210 
 PRA  HZ I        2024 24.35         5.1 0.76            106            389 210 
 SJC  HZ EP   4   2023 35.85                             104   -2.61 0  411 327 
 SJC  HN ES   4   2024 17.05                             104   -4.73 0  411 327 
 SJC  HZ I        2024 20.97         3.3 0.34            106            411 327 
                                                                                
