 2013  315 2013 49.2 L   6.765 -73.147143.4  RSN  5 0.3 1.9LRSN                1
 GAP=235        0.73       4.6     4.3  5.3  0.4320E+01  0.6292E+01  0.4264E+01E
 Epicentro: LOS SANTOS - SANTANDER                                             3
 ACTION:UPD 13-04-09 14:02 OP:ep   STATUS:               ID:20130315201349 L   I
 2013-03-15-2008-49M.COL___208                                                 6
 STAT SP IPHASW D HRMM SECON CODA AMPLIT PERI AZIMU VELO AIN AR TRES W  DIS CAZ7
 BAR2 SZ EP       2014  8.61                             172    0.1410 19.5 192 
 BAR2 SZ I        2014  9.04        14.6 0.18            171           19.5 192 
 BAR2 SZ ES       2014 23.19                             172   -0.3110 19.5 192 
 BRR  HZ EP       2014 10.36                             151    0.1710 73.0 301 
 BRR  HN ES       2014 26.79                             151    0.2210 73.0 301 
 BRR  HN I        2014 31.01        36.8 0.18            149           73.0 301 
 RUS  HZ EP       2014 12.68                             144    0.2410 96.8 176 
 RUS  HZ I        2014 13.25         3.1 0.20            147           96.8 176 
 RUS  HN ES       2014 30.55                             144   -0.0210 96.8 176 
 PTB  HZ EP       2014 15.20                             132   -0.70 9  147 260 
 PTB  HN ES       2014 36.76                             132    0.04 9  147 260 
 PTB  HN I        2014 41.72         9.3 0.20            131            147 260 
 NOR  HZ EP       2014 24.56                             118    0.02 8  232 235 
 NOR  HE ES       2014 52.30                             118    0.19 8  232 235 
 NOR  HN I        2014 54.85        13.5 0.20            119            232 235 
                                                                                
