 2016  615 2152 40.4 L   6.833 -73.182140.6  RSN  5 0.1 1.8LRSN                1
 GAP=277        0.37       3.0     2.1  2.9 -0.3142E+00  0.2096E+01 -0.9191E+00E
 Epicentro: ZAPATOCA - SANTANDER                                               3
 ACTION:UPD 16-07-21 22:19 OP:rebc STATUS:               ID:20160615215240 L   I
 OLDACT:REG 16-06-16 03:39 OP:cara STATUS:               ID:20160615214749     3
 2016-06-15-2147-49M.COL___334                                                 6
 STAT SP IPHASW D HRMM SECON CODA AMPLIT PERI AZIMU VELO AIN AR TRES W  DIS CAZ7
 BAR2 EZ IP       2152 59.57                             169    0.0810 26.6 180 
 BAR2 EZ ES       2153 14.30                             169   -0.0810 26.6 180 
 BAR2 EZ I        2153 16.05        13.2 0.20                          26.6 180 
 RUS  HZ EP       2153  4.08                             142    0.1210  105 174 
 RUS  HE ES       2153 22.30                             142   -0.0210  105 174 
 RUS  HZ I        2153 24.15         6.3 0.26                           105 174 
 PTB  HZ EP       2153  6.41                             131   -0.26 9  145 257 
 PTB  HN ES       2153 27.33                             131    0.18 9  145 257 
 PTB  HZ I        2153 32.36         5.6 0.20                           145 257 
 SPBC HZ EP       2153  8.52                             128   -0.03 9  164 217 
 SPBC HN ES       2153 30.48                             128   -0.03 9  164 217 
 SPBC HZ I        2153 36.70        11.4 0.24                           164 217 
 NOR  HZ EP       2153 15.80                             117    0.08 8  234 233 
 NOR  HN ES       2153 43.22                             117   -0.05 8  234 233 
 NOR  HZ I        2153 49.05         5.7 0.18                           234 233 
                                                                                
