 2010  515 2116  4.2 L   7.099 -73.181106.1  RSN  4 0.3 1.2LRSN                1
 GAP=156        0.82       5.3     8.1 10.0 -0.1305E+02 -0.1691E+02 -0.4335E+01E
 Epicentro: GIRON - SANTANDER                                                  3
 ACTION:UP  10-08-24 10:05 OP:vdl  STATUS:               ID:20100515211604 L   I
 2010-05-15-2115-44S.COL___108                                                 6
 STAT SP IPHASW D HRMM SECON CODA AMPLIT PERI AZIMU VELO AIN AR TRES W  DIS CAZ7
 BAR2 SZ IP       2116 21.02                             150     0.510   56 180 
 BAR2 SZ ES   1   2116 32.82                             150    -0.5 7   56 180 
 BRR  HZ IP       2116 20.09                             149    -0.210   59 271 
 BRR  HE ES   1   2116 33.15                             149     0.2 7   59 271 
 BRR  HZ I        2116 33.98         9.6 0.11                            59 271 
 GUE  SZ EP       2116 22.57                             138    -0.210   86  19 
 GUE  SZ ES   1   2116 37.41                             138     0.2 7   86  19 
 RUS  HZ EP   3   2116 27.25                             124    -0.2 2  134 175 
 RUS  HZ I        2116 28.79         1.3 0.41                           134 175 
                                                                                
