 2013  816 0702  2.3 L   6.266 -73.742 98.8  RSN  5 0.5 1.3LRSN                1
 GAP=149        1.24       5.5     6.0 11.5 -0.8835E+01  0.7588E+01 -0.3114E+01E
 Epicentro: LANDAZURI - SANTANDER                                              3
 2013-08-16-0658-51M.COL___213                                                 6
 OLDACT:REG 13-08-16 08:08 OP:stll STATUS:               ID:20130816065851     3
 ACTION:UPD 14-01-14 09:03 OP:ep   STATUS:               ID:20130816070202 L   I
 OLDACT:UP  13-08-16 18:06 OP:stll STATUS:               ID:20130816065851     3
 STAT SP IPHASW D HRMM SECON CODA AMPLIT PERI AZIMU VELO AIN AR TRES W  DIS CAZ7
 BAR2 SZ EP        7 2 18.58                             142   -0.4310 71.6  60 
 BAR2 SZ ES        7 2 31.82                             142   -0.2110 71.6  60 
 BAR2 SZ I         7 2 35.79         5.0 1.34             47           71.6  60 
 SPBC HZ EP        7 2 19.12                             139   -0.1210 77.2 208 
 SPBC HN ES        7 2 32.98                             139    0.5410 77.2 208 
 SPBC SZ I         7 2 37.33         3.2 0.74             47           77.2 208 
 PTB  HE ES        7 2 32.64                             136   -0.7210 84.6 291 
 BRR  HN ES        7 2 35.29                             134    0.6710 93.0   2 
 ZAR  HZ EP        7 2 30.20                             114    0.35 9  183 318 
 ZAR  SZ I         7 2 56.09         5.3 0.28             37            183 318 
                                                                                
