 2013  316 0504 13.7 L   6.626 -73.142142.1  RSN  5 0.3 1.5LRSN                1
 GAP=235        0.60       8.2     6.5  9.3 -0.2949E+02  0.6737E+00  0.1204E+02E
 Epicentro: SAN GIL - SANTANDER                                                3
 ACTION:UPD 13-04-09 14:02 OP:ep   STATUS:               ID:20130316050413 L   I
 2013-03-16-0500-00M.COL___244                                                 6
 STAT SP IPHASW D HRMM SECON CODA AMPLIT PERI AZIMU VELO AIN AR TRES W  DIS CAZ7
 BRR  HZ EP   1    5 4 35.48                             148    0.36 7 82.5 310 
 BRR  HN ES        5 4 52.11                             148    0.2710 82.5 310 
 BRR  HN I         5 4 53.14         6.0 0.20            144           82.5 310 
 PAM  SN ES   2    5 4 53.75                             145   -0.57 5 92.8  32 
 PTB  HZ EP   2    5 4 40.06                             132   -0.09 5  146 266 
 PTB  HN ES        5 5  0.56                             132   -0.25 9  146 266 
 PTB  HN I         5 5  1.50         2.6 0.32            130            146 266 
 ZAR  HN ES   2    5 5 12.35                             121   -0.22 4  212 297 
 ZAR  HN I         5 5 14.89         3.0 0.44            119            212 297 
 SML  HN ES   2    5 5 21.59                             115   -0.40 4  262 337 
                                                                                
