 2011  616 0627 60.0 L   6.764 -73.108145.3  RSN  8 0.3 2.0LRSN                1
 GAP=168        0.88       8.7     9.1  9.4 -0.3584E+02 -0.1491E+02  0.1695E+02E
 Epicentro: LOS SANTOS - SANTANDER                                             3
 ACTION:UP  11-07-14 19:05 OP:ep   STATUS:               ID:20110616062760 L   I
 2011-06-16-0627-04S.COL___138                                                 6
 STAT SP IPHASW D HRMM SECON CODA AMPLIT PERI AZIMU VELO SNR AR TRES W  DIS CAZ7
 BAR2 SZ EP        628 18.85                             172    -0.610   21 203 
 BTL  SZ EP        628 19.88                             170     0.310   25 314 
 BRR  HZ EP        628 21.41                             150     0.010   77 300 
 BRR  HZ I         628 21.86        21.4 0.11                            77 300 
 BRR  HN ES   1    628 38.17                             150     0.1 7   77 300 
 PAM  SZ EP   1    628 22.44                             150     0.3 7   78  35 
 PAM  SN ES   1    628 39.45                             150     0.0 7   78  35 
 PAM  SZ I         628 41.85         7.0 0.38                            78  35 
 BRI  SZ EP        628 24.14                             140     0.210  111  18 
 GRA  SZ EP        628 25.33                             136     0.010  128  15 
 GRA  SZ I         628 26.59        10.8 0.28                           128  15 
 OCA  SZ EP   1    628 28.17                             128    -0.5 7  165 352 
 PRA  HZ EP   1    628 53.92                             106     0.6 4  391 210 
 PRA  HZ I         629 41.63         9.9 0.21                           391 210 
                                                                                
