 2017  216 0510 53.8 L   6.791 -73.142152.9  RSN  4 0.4 1.1LRSN                1
 GAP=137        0.98       5.6     5.3  8.6 -0.3465E+01  0.3682E+01  0.6156E+01E
 Epicentro: LOS SANTOS - SANTANDER                                             3
 ACTION:UPD 17-05-24 15:36 OP:jn   STATUS:               ID:20170216051053 L   I
 OLDACT:UP  17-02-16 16:22 OP:dani STATUS:               ID:20170216050743     3
 OLDACT:REG 17-02-16 13:25 OP:dani STATUS:               ID:20170216050743     3
 2017-02-16-0508-00M.COL___364                                                 6
 STAT SP IPHASW D HRMM SECON CODA AMPLIT PERI AZIMU VELO AIN AR TRES W  DIS CAZ7
 BRR  HZ EP        511 15.71                             153   -0.0910 72.1 299 
 BRR  HN ES        511 33.42                             153    0.4910 72.1 299 
 BRR  HZ I         511 36.05         2.9 0.33            152           72.1 299 
 PAM  EZ EP        511 17.41                             152    0.5710 77.9  39 
 PAM  EN ES        511 34.19                             152   -0.5910 77.9  39 
 PAM  EZ I         511 37.03         2.7 0.42            155           77.9  39 
 RUS  HZ EP        511 18.05                             145   -0.1610 99.5 176 
 RUS  HN ES        511 37.41                             145    0.1810 99.5 176 
 RUS  HZ I         511 37.80         0.7 0.20            149           99.5 176 
 PTB  HZ EP        511 21.24                             133   -0.16 9  148 259 
 PTB  HN ES        511 42.62                             133   -0.29 9  148 259 
 PTB  HZ I         511 48.97         2.6 0.44            134            148 259 
                                                                                
