 2010  716 0317 52.5 L   6.293 -73.858 97.5  RSN  4 0.3 1.6LRSN                1
 GAP=149        0.61       5.3     4.9 11.9  0.7056E+01  0.3578E+02  0.2398E+02E
 Epicentro: LANDAZURI - SANTANDER                                              3
 ACTION:UPD 10-12-01 15:18 OP:pat  STATUS:               ID:20100716031752 L   I
 2010-07-16-0316-25S.COL___119                                                 6
 STAT SP IPHASW D HRMM SECON CODA AMPLIT PERI AZIMU VELO AIN AR TRES W  DIS CAZ7
 BAR2 SZ EP   1    318 10.09                             137     0.2 7   82  66 
 BAR2 SZ ES   1    318 23.37                             137     0.0 7   82  66 
 BAR2 SZ I         318 24.62        22.1 0.36                            82  66 
 BRR  HZ IP     C  318 10.35                             133     0.010   91  10 
 BRR  HE ES   1    318 24.31                             133     0.0 7   91  10 
 BRR  HZ I         318 25.31        15.7 0.11                            91  10 
 RUS  HZ EP   2    318 11.82                             132     0.3 5   97 117 
 RUS  HN ES   2    318 26.03                             132    -0.3 5   97 117 
 RUS  HZ I         318 30.24         4.2 0.79                            97 117 
 HEL  HZ EP   2    318 19.83                             114    -0.8 4  185 267 
 HEL  HE ES   2    318 43.04                             114     0.5 4  185 267 
 HEL  HZ I         318 47.29         3.2 0.33                           185 267 
                                                                                
