 2010  116 0100  3.0 L   6.807 -73.097145.3  RSN 10 0.4 2.3LRSN                1
 GAP=129        0.73       2.7     5.8  4.7 -0.4591E+01  0.4843E+01 -0.7322E+00E
 Epicentro: LOS SANTOS - SANTANDER                                             3
 ACTION:UP  10-08-24 09:44 OP:vdl  STATUS:               ID:20100116010003 L   I
 2010-01-16-0058-24S.COL___096                                                 6
 STAT SP IPHASW D HRMM SECON CODA AMPLIT PERI AZIMU VELO SNR AR TRES W  DIS CAZ7
 BAR2 SZ IP        1 0 22.73                             169     0.110   26 202 
 BAR2 SZ ES        1 0 37.74                             169    -0.210   26 202 
 GIR2 SZ EP   1    1 0 22.77                             167     0.1 7   32 340 
 RUS  BZ IP        1 0 26.74                             144     0.010  101 179 
 RUS  BN ES        1 0 45.29                             144     0.010  101 179 
 RUS  BZ I         1 0 46.30        14.9 0.41                           101 179 
 OCA  SZ IP        1 0 30.96                             129    -0.3 9  160 351 
 OCA  SZ ES        1 0 53.64                             129     0.3 9  160 351 
 OCA  SZ I         1 0 56.15        56.5 0.18                           160 351 
 CHI  HZ IP        1 0 41.04                             117     0.1 8  251 196 
 CHI  HN ES   1    1 1 10.57                             117     0.1 6  251 196 
 CHI  HZ I         1 1 17.46         9.9 0.54                           251 196 
 HEL  HN ES   2    1 1 14.72                             114    -0.9 4  278 256 
 HEL  HZ I         1 1 21.88         9.6 0.45                           278 256 
 RREF BZ EP   2    1 0 50.22                             110     0.6 3  326 230 
 RREF BE ES   1    1 1 26.21                             110     0.2 5  326 230 
 RREF BZ I         1 1 35.42        11.4 0.34                           326 230 
 TOL  SZ EP   1    1 0 52.59                             109     0.8 5  348 225 
 SDV  BZ IP        1 0 52.24                             108    -0.2 6  356  50 
 SDV  BZ I         1 0 53.08         4.7 0.10                           356  50 
 PRA  HZ IP        1 0 56.18                             106    -0.7 6  395 210 
 PRA  HE ES   2    1 1 39.14                             106     0.2 3  395 210 
 PRA  HZ I         1 1 43.90        12.9 0.72                           395 210 
                                                                                
