 2014  216 0136 51.6 L   6.779 -73.173145.1  RSN  7 0.5 1.3LRSN                1
 GAP=233        1.22       5.8     6.7  8.2  0.4264E+01  0.7536E+01  0.1287E+02E
 Epicentro: LOS SANTOS - SANTANDER                                             3
 ACTION:UPD 14-03-10 08:10 OP:ep   STATUS:               ID:20140216013651 L   I
 OLDACT:REG 14-02-16 09:46 OP:carl STATUS:               ID:20140216013000     3
 2014-02-16-0130-00M.COL___212                                                 6
 STAT SP IPHASW D HRMM SECON CODA AMPLIT PERI AZIMU VELO AIN AR TRES W  DIS CAZ7
 BAR2 SZ EP        137 10.88                             172   -0.1910 20.7 183 
 BAR2 SZ ES        137 25.38                             172   -0.9010 20.7 183 
 BAR2 SZ I         137 27.43         7.7 0.22            165           20.7 183 
 BRR  HZ EP        137 12.70                             153    0.1410 69.7 301 
 BRR  HN ES        137 29.83                             153    0.8910 69.7 301 
 BRR  HZ I         137 32.31         5.7 0.30            154           69.7 301 
 RUS  HZ EP        137 15.09                             144   -0.0210 98.5 174 
 RUS  HN ES        137 34.00                             144    0.5410 98.5 174 
 RUS  HZ I         137 34.75         1.5 0.30            142           98.5 174 
 PTB  HZ EP        137 17.70                             132   -0.47 9  144 260 
 PTB  HN ES        137 38.83                             132   -0.09 9  144 260 
 PTB  HZ I         137 39.66         2.0 0.16            132            144 260 
 SPBC HZ EP        137 19.69                             130    0.02 9  159 219 
 SPBC HN ES        137 40.98                             130   -0.60 9  159 219 
 SPBC HZ I         137 49.69         3.4 0.20            128            159 219 
 NOR  HN ES        137 54.45                             119    0.08 8  231 234 
 CHI  HZ EP        137 29.08                             117    0.18 8  246 195 
 CHI  HN ES        137 58.57                             117    0.55 8  246 195 
 CHI  HZ I         138  8.51         1.1 0.54            117            246 195 
                                                                                
