 2013 1116 0801 35.8 L   6.793 -73.153144.8  RSN  9 0.5 1.8LRSN                1
 GAP=213        1.17       5.1     7.4  7.9  0.1930E+01  0.6732E+01 -0.8349E+01E
 Epicentro: LOS SANTOS - SANTANDER                                             3
 ACTION:UPD 14-01-09 16:28 OP:ep   STATUS:               ID:20131116080135 L   I
 OLDACT:REG 13-11-16 10:18 OP:nd   STATUS:               ID:20131116080000     3
 2013-11-16-0800-00M.COL___279                                                 6
 STAT SP IPHASW D HRMM SECON CODA AMPLIT PERI AZIMU VELO AIN AR TRES W  DIS CAZ7
 BAR2 SZ EP        8 1 55.48                             171    0.1910 22.5 188 
 BAR2 SZ ES        8 2 10.50                             171    0.0010 22.5 188 
 BAR2 SZ I         8 2 13.46        21.4 0.38            166           22.5 188 
 BRR  HZ IP     C  8 1 57.37                             152    0.5610 70.8 299 
 BRR  HN ES        8 2 13.09                             152   -0.1210 70.8 299 
 BRR  HZ I         8 2 17.19         5.3 0.22            148           70.8 299 
 PTB  HZ EP        8 2  2.26                             132   -0.33 9  147 259 
 PTB  HN ES        8 2 22.76                             132   -0.74 9  147 259 
 PTB  HZ I         8 2 30.87         8.3 0.54            130            147 259 
 SPBC HZ EP        8 2  4.40                             129    0.29 9  162 219 
 SPBC HN ES        8 2 26.08                             129   -0.12 9  162 219 
 SPBC HZ I         8 2 31.51         8.3 0.22            129            162 219 
 ZAR  HZ EP        8 2  8.25                             122    0.13 9  204 292 
 ZAR  HN ES        8 2 34.37                             122    1.03 9  204 292 
 ZAR  HZ I         8 2 39.94         5.6 0.50            122            204 292 
 NOR  HZ EP   4    8 2  9.49                             118   -1.85 0  234 234 
 NOR  HN ES   4    8 2 39.36                             118    0.28 0  234 234 
 NOR  HZ I         8 2 43.67         4.6 0.24            119            234 234 
 SML  HZ EP        8 2 11.58                             117   -0.82 8  244 336 
 SML  HN ES        8 2 40.69                             117   -0.26 8  244 336 
 SML  HZ I         8 2 44.01         6.6 0.10            119            244 336 
 GUY2CHZ EP   4 C  8 2 20.82                             112    1.59 0  300 235 
 GUY2CHN ES   4    8 2 54.37                             112    1.26 0  300 235 
 GUY2CHZ I         8 3  0.65         2.7 0.44                           300 235 
 SJC  HZ EP   4 D  8 2 29.43                             105   -1.91 0  409 327 
 SJC  HN ES   4    8 3 10.87                             105   -3.79 0  409 327 
 SJC  HZ I         8 3 16.87         2.2 0.82            107            409 327 
                                                                                
