 2014  516 0619 49.1 L   6.765 -73.151146.9  RSN  4 0.4 1.1LRSN                1
 GAP=137        0.96       5.3     5.0  8.5 -0.2974E+01  0.3710E+01  0.5546E+01E
 Epicentro: LOS SANTOS - SANTANDER                                             3
 ACTION:UPD 15-03-16 16:58 OP:nd   STATUS:               ID:20140516061949 L   I
 OLDACT:UP  14-05-16 18:56 OP:cam  STATUS:               ID:20140516061815     3
 OLDACT:REG 14-05-16 13:10 OP:spq  STATUS:               ID:20140516061815     3
 2014-05-16-0618-15M.COL___245                                                 6
 STAT SP IPHASW D HRMM SECON CODA AMPLIT PERI AZIMU VELO AIN AR TRES W  DIS CAZ7
 BRR  HZ EP        620 10.64                             152    0.2110 72.7 301 
 BRR  HE ES        620 27.69                             152    0.6110 72.7 301 
 BRR  HZ I         620 30.60         2.7 0.32            152           72.7 301 
 PAM  SZ EP        620 11.78                             150    0.1610 80.8  38 
 PAM  SN ES        620 28.67                             150   -0.5310 80.8  38 
 PAM  SZ I         620 29.61         2.0 0.28            153           80.8  38 
 RUS  HZ EP        620 12.73                             145    0.0710 96.7 176 
 RUS  HN ES        620 31.16                             145    0.1010 96.7 176 
 RUS  HZ I         620 32.15         1.5 0.32            147           96.7 176 
 PTB  HZ EP        620 15.86                             132   -0.16 9  146 260 
 PTB  HN ES        620 36.47                             132   -0.56 9  146 260 
 PTB  HZ I         620 40.31         2.5 0.16            133            146 260 
                                                                                
