 2015  316 0246 16.6 L   6.826 -73.162139.9  RSN  6 0.6 1.3LRSN                1
 GAP=133        1.58       6.4     8.0 11.8 -0.5489E+01  0.1477E+02 -0.3931E+00E
 Epicentro: LOS SANTOS - SANTANDER                                             3
 ACTION:UPD 15-04-30 16:26 OP:nd   STATUS:               ID:20150316024616 L   I
 OLDACT:REG 15-03-16 12:22 OP:stll STATUS:               ID:20150316023748     3
 2015-03-16-0237-48M.COL___260                                                 6
 STAT SP IPHASW D HRMM SECON CODA AMPLIT PERI AZIMU VELO AIN AR TRES W  DIS CAZ7
 BAR2 EZ ES        246 50.10                             169   -0.2410 25.9 185 
 BAR2 EZ I         246 51.18         6.0 0.28            171           25.9 185 
 BRR  HZ EP        246 37.47                             152    0.5710 68.3 297 
 BRR  HZ I         246 37.64         6.3 0.24            152           68.3 297 
 BRR  HE ES        246 53.93                             152    1.1510 68.3 297 
 PAM  SZ EP        246 38.56                             150    0.4810 76.4  42 
 PAM  SN ES        246 54.81                             150   -0.0710 76.4  42 
 PAM  SZ I         246 57.63         5.5 0.58            150           76.4  42 
 RUS  HZ EP        246 40.19                             142    0.2310  104 175 
 RUS  HN ES        246 57.76                             142   -0.4510  104 175 
 RUS  HZ I         246 58.62         1.6 0.26            144            104 175 
 PTB  HZ EP        246 42.64                             131   -0.30 9  147 258 
 PTB  HN ES        247  2.96                             131   -0.56 9  147 258 
 PTB  HZ I         247  5.43         3.4 0.20            132            147 258 
 OCA  HE ES        247  4.53                             129   -1.09 9  157 354 
 OCA  HZ I         247  9.18         2.7 0.44            129            157 354 
                                                                                
