 2017  816 0543  8.8 L   6.806 -73.150142.6  RSN 20 0.5 2.1LRSN                1
 GAP= 65        0.89       2.5     2.7  4.6  0.9201E-01  0.2018E+01  0.4545E-01E
 Epicentro: LOS SANTOS - SANTANDER                                             3
 ACTION:UPD 17-09-04 20:20 OP:rebc STATUS:               ID:20170816054308 L   I
 OLDACT:UP  17-08-16 14:55 OP:and  STATUS:               ID:20170816053739     3
 OLDACT:UP  17-08-16 14:55 OP:and  STATUS:               ID:20170816053739     3
 OLDACT:UP  17-08-16 14:54 OP:and  STATUS:               ID:20170816053739     3
 OLDACT:UP  17-08-16 14:52 OP:and  STATUS:               ID:20170816053739     3
 OLDACT:UP  17-08-16 14:52 OP:and  STATUS:               ID:20170816053739     3
 OLDACT:UP  17-08-16 14:51 OP:and  STATUS:               ID:20170816053739     3
 OLDACT:UP  17-08-16 14:51 OP:and  STATUS:               ID:20170816053739     3
 OLDACT:UP  17-08-16 14:49 OP:and  STATUS:               ID:20170816053739     3
 OLDACT:UP  17-08-16 14:49 OP:and  STATUS:               ID:20170816053739     3
 OLDACT:REG 17-08-16 13:00 OP:and  STATUS:               ID:20170816053739     3
 2017-08-16-0538-00M.COL___413                                                 6
 STAT SP IPHASW D HRMM SECON CODA AMPLIT PERI AZIMU VELO AIN AR TRES W  DIS CAZ7
 BAR2 EZ EP        543 27.91                             170   -0.1910 23.9 189 
 BAR2 EZ ES        543 42.76                             170   -0.3610 23.9 189 
 BAR2 EZ I         543 43.87        31.6 0.34            166           23.9 189 
 BRR  HZ IP     C  543 29.58                             152   -0.0210 70.5 298 
 BRR  HN ES   1    543 46.64                             152    0.84 7 70.5 298 
 BRR  HZ I         543 49.18        19.0 0.34            150           70.5 298 
 PAM  EZ IP     C  543 30.89                             150    0.1910 77.2  40 
 PAM  EN ES   2    543 47.34                             150   -0.42 5 77.2  40 
 PAM  EZ I         543 48.57        10.5 0.24            155           77.2  40 
 RUS  HZ EP        543 32.03                             143   -0.3010  101 176 
 RUS  HN ES        543 50.69                             143    0.0410  101 176 
 RUS  HZ I         543 51.56        11.8 0.28            142            101 176 
 TAM  HZ IP     D  543 36.28                             130   -0.04 9  156 105 
 TAM  HN ES   1    543 57.98                             130    0.22 7  156 105 
 SPBC HZ EP   1    543 36.84                             128   -0.27 7  163 219 
 SPBC HN ES        543 59.03                             128   -0.14 9  163 219 
 SPBC HZ I         544  3.18        15.6 0.24            126            163 219 
 YPLC HZ IP     D  543 38.29                             126   -0.19 9  178 151 
 YPLC HN ES        544  2.51                             126    0.91 9  178 151 
 YPLC HZ I         544  4.96         7.4 0.22            126            178 151 
 ZAR  HZ EP        543 41.84                             122    0.83 9  203 292 
 ZAR  HN ES        544  5.66                             122   -0.44 9  203 292 
 ZAR  HZ I         544 12.03        13.8 0.34            121            203 292 
 NOR  HZ EP        543 43.98                             118   -0.40 8  235 234 
 NOR  HN ES        544 12.05                             118   -0.06 8  235 234 
 NOR  HZ I         544 16.42         6.9 0.38            117            235 234 
 CHI  HZ EP        543 46.38                             116   -0.03 8  249 195 
 CHI  HN ES        544 15.34                             116   -0.39 8  249 195 
 CHI  HZ I         544 20.44         8.4 0.40            116            249 195 
 ROSC BZ EP   9    543 48.46                             116    1.64 0  253 211 
 ROSC BN ES        544 18.72                             116    0.63 8  253 211 
 ROSC BZ I         544 22.49        18.7 0.40            115            253 211 
 HEL  HZ EP   3    543 49.92                             114    1.06 2  272 256 
 HEL  HN ES        544 20.40                             114    0.33 8  272 256 
 HEL  HZ I         544 25.99         5.7 0.32            113            272 256 
 GUY2CHZ EP        543 52.78                             112    0.48 7  301 235 
 GUY2CHN ES   3    544 28.32                             112    2.12 2  301 235 
 GUY2CHZ I         544 34.04         4.7 0.32                           301 235 
 VIL  EN ES        544 25.69                             111   -0.28 7  304 191 
 VIL  EZ I         544 28.62         7.6 0.30            111            304 191 
 PTGC HZ IP   9 D  543 50.94                             111   -1.70 0  309 159 
 PTGC HN ES        544 24.75                             111   -0.36 7  309 159 
 PTGC HZ I         544 29.92         5.3 0.28            111            309 159 
 LL6C HZ EP   1    543 53.72                             110   -0.61 5  324 358 
 LL6C HN ES   1    544 29.86                             110    0.05 5  324 358 
 ELA  HZ EP   3    543 57.49                             110    1.93 2  329 229 
 ELA  HN ES   4    544 35.22                             110    3.21 0  329 229 
 ELA  HZ I         544 39.58         4.6 0.34            109            329 229 
 ANIL HE ES   4    544 39.97                             108    2.67 0  357 224 
 ANIL HZ I         544 47.89        14.7 0.26            107            357 224 
 ARGC HZ EP   4    543 59.51                             108    1.23 0  358 340 
 ARGC HN ES   4    544 39.72                             108    2.87 0  358 340 
 PRA  HZ EP        544  2.24                             106   -0.05 6  392 209 
 PRA  HN ES        544 43.66                             106   -0.32 6  392 209 
 PRA  HZ I         544 51.51         5.0 0.28            106            392 209 
 SJC  HZ EP   3    544  2.09                             105   -2.11 1  408 327 
 SJC  HN ES   4    544 43.33                             105   -4.06 0  408 327 
                                                                                
