 2013  316 0704 33.2 L   6.795 -73.119146.3  RSN 16 0.5 2.9LRSN 3.1WRSN        1
 SPEC AVERAGE  MO 13.7 ST  3.1 OM  2.4 f0 3.26 R0.4795 AL 2.63 WI 22.2 MW  3.1 3
 SPEC SD       MO  0.2 ST  2.0 OM  0.4 f00.788 R0.1245 AL      WI      MW  0.1 3
 GAP= 73        0.87       2.8     3.0  4.5  0.1040E+01  0.2459E+01  0.1105E+00E
 Epicentro: LOS SANTOS - SANTANDER                                             3
 SPEC TAM HH N MO 13.9 ST  1.4 OM  2.2 f0 2.29 R0.6419 AL 2.62 WI 22.4 MW  3.2 3
 SPEC TAM HH N T 7 520 K 0.000 GD  210 VS 4.20 DE 3.20 Q0300.0 QA 0.60 VS 4.20 3
 SPEC PTB HH E MO 13.8 ST0.831 OM  2.1 f0 2.09 R0.7033 AL 1.64 WI 16.9 MW  3.2 3
 SPEC PTB HH E T 7 519 K 0.000 GD  210 VS 4.20 DE 3.20 Q0300.0 QA 0.60 VS 4.20 3
 SPEC RUS HH N MO 13.4 ST  1.5 OM  1.8 f0 3.41 R0.4311 AL 2.84 WI 19.9 MW  2.9 3
 SPEC RUS HH N T 7 512 K 0.000 GD  177 VS 4.20 DE 3.20 Q0300.0 QA 0.60 VS 4.20 3
 SPEC PRA HH N MO 13.8 ST  4.1 OM  1.8 f0 3.57 R0.4118 AL 2.47 WI 19.4 MW  3.2 3
 SPEC PRA HH N T 7 6 7 K 0.000 GD  419 VS 4.20 DE 3.20 Q0300.0 QA 0.60 VS 4.20 3
 SPEC HEL HH N MO 13.6 ST  1.4 OM  1.7 f0 2.99 R0.4916 AL 2.06 WI 27.4 MW  3.0 3
 SPEC HEL HH N T 7 542 K 0.000 GD  311 VS 4.20 DE 3.20 Q0300.0 QA 0.60 VS 4.20 3
 SPEC PAM SH N MO 13.7 ST  5.4 OM  2.1 f0 4.23 R0.3475 AL 3.86 WI 24.2 MW  3.1 3
 SPEC PAM SH N T 7 511 K 0.000 GD  164 VS 4.20 DE 3.20 Q0300.0 QA 0.60 VS 4.20 3
 SPEC CHI HH N MO 14.0 ST  3.6 OM  2.1 f0 3.06 R0.4804 AL 2.37 WI 31.8 MW  3.2 3
 SPEC CHI HH N T 7 538 K 0.000 GD  288 VS 4.20 DE 3.20 Q0300.0 QA 0.60 VS 4.20 3
 SPEC BRR HH N MO 13.7 ST  6.4 OM  2.1 f0 4.48 R0.3281 AL 3.21 WI 15.8 MW  3.1 3
 SPEC BRR HH N T 7 511 K 0.000 GD  163 VS 4.20 DE 3.20 Q0300.0 QA 0.60 VS 4.20 3
 ACTION:UPD 13-04-09 14:02 OP:ep   STATUS:               ID:20130316070433 L   I
 2013-03-16-0700-00M.COL___244                                                 6
 STAT SP IPHASW D HRMM SECON CODA AMPLIT PERI AZIMU VELO AIN AR TRES W  DIS CAZ7
 BAR2 SZ IP        7 4 52.76                             171   -0.1110 23.4 197 
 BAR2 SZ ES        7 5  8.32                             171    0.0910 23.4 197 
 BAR2 SZ I         7 5 10.25       121.6 0.28            168           23.4 197 
 BRR  HZ EP        7 4 54.60                             152    0.0610 74.1 298 
 BRR  HN ES        7 5 11.89                             152    0.6810 74.1 298 
 BRR  HN I         7 5 12.33       194.1 0.28            149           74.1 298 
 PAM  SZ EP     C  7 4 55.52                             151    0.1610 76.0  38 
 PAM  SN ES   2    7 5 12.72                             151    0.05 5 76.0  38 
 PAM  SN I         7 5 13.61        98.4 0.24            154           76.0  38 
 RUS  HZ EP        7 4 56.61                             144   -0.3110 99.8 178 
 RUS  HN ES        7 5 15.03                             144   -0.4110 99.8 178 
 RUS  HN I         7 5 16.90        51.3 0.22            144           99.8 178 
 PTB  HZ EP   1    7 4 59.38                             132   -1.05 7  151 259 
 PTB  HN ES   2    7 5 20.71                             132   -0.98 5  151 259 
 PTB  HN I         7 5 26.17       117.1 0.30            130            151 259 
 TAM  HZ IP     D  7 5  0.91                             131    0.30 9  152 105 
 TAM  HN ES        7 5 22.02                             131    0.00 9  152 105 
 OCA  HZ EP   1    7 5  1.18                             130   -0.43 7  161 352 
 OCA  HN ES   2    7 5 22.99                             130   -0.81 5  161 352 
 OCA  HN I         7 5 28.07       177.3 0.24            130            161 352 
 ZAR  HZ EP   1    7 5  6.16                             122    0.21 6  207 292 
 ZAR  HN ES   2    7 5 30.93                             122   -0.59 4  207 292 
 ZAR  HN I         7 5 37.01        62.2 0.50            121            207 292 
 SML  HZ EP   1    7 5 10.10                             117    0.08 6  245 335 
 SML  HN ES        7 5 38.95                             117    0.19 8  245 335 
 SML  HN I         7 5 41.23        67.0 0.30            117            245 335 
 CHI  HZ EP   1    7 5 10.77                             117   -0.15 6  249 196 
 CHI  HN ES   2    7 5 40.35                             117   -0.01 4  249 196 
 CHI  HN I         7 5 43.86        42.6 0.26            117            249 196 
 ROSC BZ EP        7 5 12.29                             117    0.86 8  254 212 
 ROSC BN ES   4    7 5 43.25                             117    1.98 0  254 212 
 HEL  HZ EP        7 5 14.16                             115    0.45 8  275 256 
 HEL  HN ES        7 5 45.36                             115    0.04 8  275 256 
 HEL  HN I         7 5 53.52        21.8 0.42            114            275 256 
 VIL  SZ EP   1    7 5 16.50                             112   -0.11 5  303 192 
 VIL  SN ES   4    7 5 52.61                             112    2.11 0  303 192 
 VIL  SN I         7 5 57.40        80.7 0.46            112            303 192 
 COD  HZ EP   1    7 5 21.26                             109   -0.41 5  349 354 
 COD  HN ES   2    7 5 59.65                             109    0.16 3  349 354 
 COD  HN I         7 6  3.72        17.9 0.44            109            349 354 
 PRA  HZ EP        7 5 26.23                             107   -0.59 6  393 210 
 PRA  HN ES   2    7 6  9.67                             107    1.01 3  393 210 
 PRA  HN I         7 6 13.98        71.0 0.94            106            393 210 
 SJC  HN ES   4    7 6  8.33                             106   -4.21 0  411 327 
 SJC  HN I         7 6 13.90         9.6 0.20            106            411 327 
                                                                                
