 2017 1216 0914 31.0 L   6.746 -73.137144.0  RSN  4 0.4 1.0LRSN                1
 GAP=160        0.95       8.4     5.0  8.2 -0.1437E+02  0.1827E+02 -0.1535E+02E
 Epicentro: LOS SANTOS - SANTANDER                                             3
 ACTION:UPD 18-01-04 13:21 OP:rebc STATUS:               ID:20171216091431 L   I
 OLDACT:REG 17-12-16 12:44 OP:edw  STATUS:               ID:20171216090741     3
 2017-12-16-0908-00M.COL___446                                                 6
 STAT SP IPHASW D HRMM SECON CODA AMPLIT PERI AZIMU VELO AIN AR TRES W  DIS CAZ7
 BAR2 EZ EP        914 50.76                             173    0.4510 17.8 196 
 BAR2 EZ ES        915  5.69                             173    0.3210 17.8 196 
 BAR2 EZ I         915 13.79         2.6 0.62            171           17.8 196 
 PAM  EZ EP        914 53.18                             149   -0.0910 81.4  36 
 PAM  EN ES        915 10.29                             149   -0.3510 81.4  36 
 PAM  EZ I         915 12.08         1.5 0.38            156           81.4  36 
 PTB  HZ EP        914 57.52                             132   -0.29 9  148 261 
 PTB  HN ES        915 18.14                             132   -0.59 9  148 261 
 PTB  HZ I         915 21.04         1.0 0.18            136            148 261 
 ZAR  HZ EP        915  3.72                             121    0.07 8  207 294 
 ZAR  HE ES        915 29.66                             121    0.53 8  207 294 
 ZAR  HZ I         915 33.74         1.2 0.40            126            207 294 
                                                                                
