 2017  116 0839 52.4 L   6.954 -73.019144.4  RSN  4 0.4 1.0LRSN                1
 GAP=257        0.73       9.3     8.2  8.2  0.5831E+02 -0.6147E+01 -0.2222E+02E
 Epicentro: PIEDECUESTA - SANTANDER                                            3
 ACTION:UPD 17-05-22 16:00 OP:jn   STATUS:               ID:20170116083951 L   I
 OLDACT:UP  17-04-20 17:05 OP:nlst STATUS:               ID:20170116083951 L   3
 OLDACT:REG 17-01-16 13:29 OP:dani STATUS:               ID:20170116083739     3
 2017-01-16-0838-00M.COL___335                                                 6
 STAT SP IPHASW D HRMM SECON CODA AMPLIT PERI AZIMU VELO AIN AR TRES W  DIS CAZ7
 BAR2 EZ EP        840 12.12                             162   -0.3610 43.8 204 
 BAR2 EZ ES        840 28.13                             162   -0.0010 43.8 204 
 BAR2 EZ I         840 34.74         2.4 0.34            171           43.8 204 
 RUS  HZ EP        840 17.71                             139    0.3710  118 183 
 RUS  HN ES        840 36.81                             139    0.0410  118 183 
 PTB  HZ EP   2    840 20.41                             128   -0.51 5  165 254 
 PTB  HN ES   2    840 42.45                             128   -0.71 5  165 254 
 PTB  HZ I         840 43.36         1.1 0.20            137            165 254 
 ZAR  HN ES        840 51.75                             121    0.33 8  212 286 
                                                                                
