 2016  516 0024 18.6 L   6.804 -73.128146.5  RSN 22 0.6 2.6LRSN                1
 GAP=109        1.19       3.0     4.0  5.3 -0.2021E+01  0.4648E+01  0.2777E+01E
 Epicentro: LOS SANTOS - SANTANDER                                             3
 ACTION:UPD 16-08-18 17:46 OP:cam  STATUS:               ID:20160516002418 L   I
 OLDACT:UP  16-05-17 10:20 OP:ak   STATUS:               ID:20160516002418 L   3
 OLDACT:REG 16-05-16 12:34 OP:mh   STATUS:               ID:20160516001745     3
 2016-05-16-0017-45M.COL___291                                                 6
 STAT SP IPHASW D HRMM SECON CODA AMPLIT PERI AZIMU VELO AIN AR TRES W  DIS CAZ7
 BAR2 EZ IP     D  024 38.43                             170    0.1010 24.2 194 
 BAR2 EZ ES        024 53.25                             170   -0.4710 24.2 194 
 BAR2 EZ I         024 57.09        61.7 0.42            166           24.2 194 
 BRR  HZ IP     D  024 40.30                             152    0.4010 72.7 297 
 BRR  HN ES        024 57.12                             152    0.5910 72.7 297 
 BRR  HZ I         025  0.65        64.7 0.40            148           72.7 297 
 PAM  EZ EP        024 41.30                             151    0.5110 75.8  39 
 PAM  EN ES        024 58.71                             151    0.6110 75.8  39 
 PAM  EZ I         025  0.45       106.4 0.56            154           75.8  39 
 RUS  HZ EP     D  024 42.28                             144   -0.1610  101 177 
 RUS  HN ES        025  1.04                             144    0.0010  101 177 
 RUS  HZ I         025  3.68        46.1 0.40            142            101 177 
 PTB  HZ EP        024 44.92                             132   -0.88 9  150 259 
 PTB  HN ES        025  6.55                             132   -0.47 9  150 259 
 PTB  HZ I         025 11.74        30.1 0.12            128            150 259 
 OCA  HZ EP        024 46.70                             130   -0.24 9  160 352 
 OCA  HN ES        025  8.66                             130   -0.39 9  160 352 
 SPBC HN ES        025  9.14                             129   -0.55 9  165 219 
 ZAR  HZ EP        024 50.93                             122   -0.32 8  206 292 
 ZAR  HN ES        025 16.58                             122   -0.15 8  206 292 
 ZAR  HZ I         025 23.40        36.3 0.54            120            206 292 
 NOR  HZ EP        024 54.43                             118   -0.13 8  237 235 
 NOR  HZ I         025 30.09        39.5 0.42            116            237 235 
 CHI  HZ EP        024 56.49                             117    0.06 8  250 196 
 CHI  HN ES        025 25.64                             117   -0.31 8  250 196 
 CHI  HZ I         025 34.17        21.2 0.78            115            250 196 
 ROSC BZ EP        024 57.80                             117    0.90 8  254 211 
 ROSC BN ES        025 27.70                             117    0.91 8  254 211 
 ROSC BZ I         025 33.46        25.9 0.56            115            254 211 
 HEL  HZ EP        024 59.97                             115    0.91 8  274 256 
 HEL  HN ES        025 30.09                             115   -0.54 8  274 256 
 HEL  HZ I         025 36.42        18.0 0.35            113            274 256 
 URE  HZ EP   4    024 58.39                             114   -1.49 0  285 292 
 URE  HN ES   4    025 29.35                             114   -2.74 0  285 292 
 URE  HZ I         025 40.35        31.5 0.79            112            285 292 
 VIL  SZ EP        025  1.46                             112   -0.68 7  304 192 
 VIL  SN ES        025 35.39                             112   -0.71 7  304 192 
 PTGC HZ EP   9    025  0.01                             112   -2.44 0  308 159 
 PTGC HN ES        025 34.28                             112    0.06 7  308 159 
 PTGC HZ I         025 36.97        16.0 0.31            111            308 159 
 CBOC HZ EP        025  6.72                             110    0.96 7  336 252 
 CBOC HN ES        025 42.25                             110   -0.31 7  336 252 
 CBOC HZ I         025 48.58         9.8 0.44            108            336 252 
 ANIL HZ EP   1    025  9.62                             108    1.00 5  359 225 
 ANIL HN ES   1    025 48.66                             108    1.02 5  359 225 
 ANIL HZ I         025 58.34        42.9 0.34            107            359 225 
 SDV  BZ EP        025  7.71                             108   -0.74 6  359  50 
 SDV  BN ES   4    025 45.12                             108   -2.22 0  359  50 
 SDV  BZ I         025 47.02         7.9 0.35            108            359  50 
 ORTC HZ EP        025 12.37                             106   -0.34 6  397 216 
 ORTC HN ES        025 55.72                             106    0.79 6  397 216 
 ORTC HZ I         026  1.96        14.7 0.24            105            397 216 
 PAL  HZ EP        025 13.78                             106   -0.22 6  408 239 
 PAL  HE ES   4    025 58.31                             106    1.09 0  408 239 
 PAL  HZ I         026  0.70         8.8 0.22            105            408 239 
 SJC  HZ EP   4    025 12.66                             106   -1.60 0  410 327 
 SJC  HN ES   4    025 53.50                             106   -4.18 0  410 327 
 SJC  HZ I         025 58.40         8.4 0.28            105            410 327 
 CRJC HZ EP   9    025 18.52                             103   -2.52 0  467   3 
 CRJC HN ES        026  7.54                             103    0.31 5  467   3 
 CRJC HZ I         026 11.50        14.8 0.28            103            467   3 
                                                                                
