 2011  416 0806 55.1 L   6.799 -73.133145.2  RSN 10 0.4 2.0LRSN                1
 GAP=155        0.88       7.8    10.1  8.3 -0.5919E+02  0.2897E+02 -0.9338E+01E
 Epicentro: LOS SANTOS - SANTANDER                                             3
 ACTION:UP  11-06-22 15:31 OP:REBC STATUS:               ID:20110416080655 L   I
 2011-04-16-0804-41S.COL___140                                                 6
 STAT SP IPHASW D HRMM SECON CODA AMPLIT PERI AZIMU VELO SNR AR TRES W  DIS CAZ7
 BTL  SZ EP   1    8 7 15.59                             172     1.0 7   20 311 
 BAR2 SZ EP   1    8 7 14.71                             170     0.1 7   24 193 
 BAR2 SZ ES   1    8 7 29.44                             170    -0.5 7   24 193 
 GIR2 SZ EP   1    8 7 14.77                             167     0.1 7   32 348 
 BRR  HN ES   2    8 7 33.16                             152     0.4 5   72 298 
 PAM  SZ EP   1    8 7 17.27                             151     0.1 7   77  39 
 PAM  SZ I         8 7 17.79        19.5 0.14                            77  39 
 PAM  SN ES   1    8 7 34.39                             151     0.0 7   77  39 
 GRA  SZ EP   1    8 7 20.29                             137     0.1 7  125  17 
 GRA  SZ ES   1    8 7 39.71                             137    -0.1 7  125  17 
 GRA  SZ I         8 7 41.20        36.8 0.27                           125  17 
 OCA  SZ EP   1    8 7 22.55                             129    -0.8 7  160 353 
 NOR  SZ EP   1    8 7 30.62                             118    -0.3 6  236 235 
 NOR  SN ES   1    8 7 58.60                             118    -0.2 6  236 235 
 NOR  SZ I         8 8  3.66         2.0 0.35                           236 235 
 HEL  HZ EP   2    8 7 36.03                             114     0.6 4  273 256 
 PRA  HN ES   2    8 8 30.05                             106    -0.4 3  393 210 
                                                                                
