 2010  916 0315 21.2 L   6.780 -73.099135.8  RSN  9 0.5 2.0LRSN                1
 GAP=164        1.15       5.3     9.3  9.0 -0.1034E+02  0.5542E+01 -0.9799E+01E
 Epicentro: LOS SANTOS - SANTANDER                                             3
 ACTION:UP  11-02-18 11:03 OP:tino STATUS:               ID:20100916031521 L   I
 2010-09-16-0313-27S.COL___119                                                 6
 STAT SP IPHASW D HRMM SECON CODA AMPLIT PERI AZIMU VELO SNR AR TRES W  DIS CAZ7
 BAR2 SZ EP        315 39.38                             170    -0.310   23 204 
 BAR2 SZ ES   1    315 54.09                             170     0.1 7   23 204 
 BAR2 SZ I         315 55.69        34.3 0.19                            23 204 
 BTL  SZ EP   1    315 40.78                             169     1.1 7   24 309 
 BRR  HZ EP        315 41.31                             149    -0.410   77 298 
 BRR  HZ I         315 44.73        23.6 0.11                            77 298 
 BRR  HN ES   1    315 57.63                             149     0.0 7   77 298 
 RUS  HZ EP        315 43.28                             143    -0.610   98 179 
 RUS  HN ES   1    316  1.97                             143     0.5 7   98 179 
 RUS  HZ I         316  3.25         7.4 0.36                            98 179 
 GUE  SZ EP        315 45.51                             137     0.410  118   9 
 GRA  SZ EP        315 45.24                             135    -0.410  126  15 
 GRA  SZ ES   2    316  4.76                             135     0.0 5  126  15 
 GRA  SZ I         316  5.72        14.0 0.32                           126  15 
 OCA  SZ EP        315 49.52                             127     0.4 9  163 351 
 OCA  SZ ES   2    316 10.34                             127    -0.5 5  163 351 
 OCA  SZ I         316 14.22        11.7 0.18                           163 351 
 HEL  HZ EP   1    316  1.16                             112    -0.3 6  277 257 
 HEL  HN ES   3    316 32.57                             112    -0.3 2  277 257 
 HEL  HZ I         316 38.11         6.7 0.95                           277 257 
 RREF HZ EP   1    316  7.99                             109     0.7 5  324 230 
 RREF HN ES   2    316 43.17                             109     0.0 3  324 230 
 RREF HZ I         316 47.77         6.8 0.67                           324 230 
                                                                                
