 2017  416 0210  2.5 L   6.799 -73.150150.2  RSN  9 0.4 1.6LRSN                1
 GAP=136        0.99       3.6     4.0  5.7 -0.9059E+00  0.5526E+01  0.3534E+01E
 Epicentro: LOS SANTOS - SANTANDER                                             3
 ACTION:UPD 17-05-30 21:12 OP:jn   STATUS:               ID:20170416021002 L   I
 OLDACT:REG 17-04-16 13:59 OP:dani STATUS:               ID:20170416020737     3
 2017-04-16-0208-00M.COL___368                                                 6
 STAT SP IPHASW D HRMM SECON CODA AMPLIT PERI AZIMU VELO AIN AR TRES W  DIS CAZ7
 BAR2 EZ EP        210 22.46                             171   -0.1810 23.2 189 
 BAR2 EZ ES        210 38.54                             171    0.1810 23.2 189 
 BAR2 EZ I         210 40.24         6.6 0.34            168           23.2 189 
 BRR  HZ EP        210 24.57                             153    0.4810 70.8 299 
 BRR  HE ES        210 41.23                             153    0.2910 70.8 299 
 BRR  HZ I         210 45.11         6.2 0.60            152           70.8 299 
 PAM  EZ EP        210 25.50                             151    0.3110 77.7  40 
 PAM  EN ES        210 42.65                             151   -0.2510 77.7  40 
 PAM  EZ I         210 44.94         7.3 0.62            157           77.7  40 
 RUS  HZ EP        210 26.56                             145   -0.1010  101 176 
 RUS  HE ES        210 45.33                             145   -0.2010  101 176 
 RUS  HZ I         210 46.14         3.0 0.30            146            101 176 
 PTB  HZ EP        210 29.42                             133   -0.35 9  147 259 
 PTB  HN ES        210 50.63                             133   -0.43 9  147 259 
 PTB  HZ I         210 57.89         8.0 0.36            133            147 259 
 SPBC HZ EP        210 31.43                             130    0.14 9  163 219 
 SPBC HE ES        210 53.75                             130   -0.01 9  163 219 
 SPBC HZ I         210 57.56         5.5 0.32            130            163 219 
 ZAR  HZ EP        210 34.05                             123   -1.13 9  204 292 
 ZAR  HN ES        211  0.93                             123    0.25 9  204 292 
 ZAR  HZ I         211  6.59         7.4 0.30            124            204 292 
 NOR  HZ EP        210 39.08                             119    0.66 8  234 234 
 NOR  HN ES        211  6.80                             119    0.34 8  234 234 
 NOR  HZ I         211 12.58         4.1 0.16            120            234 234 
 CHI  HZ EP        210 40.79                             118    0.38 8  248 195 
 CHI  HN ES        211  9.66                             118   -0.33 8  248 195 
 CHI  HZ I         211 19.85         2.1 0.39            119            248 195 
                                                                                
