 2013  916 0911 56.1 L   6.826 -73.162147.2  RSN 19 0.5 2.8LRSN 3.2WRSN        1
 SPEC AVERAGE  MO 13.9 ST 39.7 OM  2.5 f0 6.78 R0.3272 AL 0.00 WI 21.4 MW  3.2 3
 SPEC SD       MO  0.2 ST 38.6 OM  0.4 f0 3.13 R0.2415 AL      WI      MW  0.2 3
 GAP= 69        1.04       2.3     3.2  4.6 -0.8643E+00  0.3621E+01  0.7872E+00E
 Epicentro: LOS SANTOS - SANTANDER                                             3
 SPEC ORTCHH N MO 14.2 ST 11.7 OM  2.2 f0 3.91 R0.3974 AL 0.00 WI 22.2 MW  3.4 3
 SPEC ORTCHH N T 91331 K 0.000 GD  423 VS 4.20 DE 3.20 Q0300.0 QA 0.60 VS 4.20 3
 SPEC PTB HH N MO 13.8 ST 26.5 OM  2.1 f0 7.03 R0.2211 AL 0.00 WI 15.4 MW  3.2 3
 SPEC PTB HH N T 91243 K 0.000 GD  208 VS 4.20 DE 3.20 Q0300.0 QA 0.60 VS 4.20 3
 SPEC SPBCHH N MO 13.9 ST101.7 OM  2.2 f0 10.0 R0.1554 AL 0.00 WI 30.2 MW  3.2 3
 SPEC SPBCHH N T 91246 K 0.000 GD  220 VS 4.20 DE 3.20 Q0300.0 QA 0.60 VS 4.20 3
 SPEC PAM SH N MO 14.1 ST0.846 OM  2.5 f0 1.77 R0.8780 AL 0.00 WI  8.1 MW  3.4 3
 SPEC PAM SH N T 91234 K 0.000 GD  165 VS 4.20 DE 3.20 Q0300.0 QA 0.60 VS 4.20 3
 SPEC CBOCHH N MO 13.7 ST  5.7 OM  1.7 f0 4.74 R0.3278 AL 0.00 WI 27.7 MW  3.0 3
 SPEC CBOCHH N T 91318 K 0.000 GD  364 VS 4.20 DE 3.20 Q0300.0 QA 0.60 VS 4.20 3
 SPEC BRR HH N MO 13.9 ST 94.2 OM  2.3 f0 10.0 R0.1554 AL 0.00 WI 22.5 MW  3.2 3
 SPEC BRR HH N T 91234 K 0.000 GD  162 VS 4.20 DE 3.20 Q0300.0 QA 0.60 VS 4.20 3
 SPEC BRR HH Z MO 13.5 ST 37.5 OM  1.9 f0 10.0 R0.1554 AL 0.00 WI 23.5 MW  2.9 3
 SPEC BRR HH Z T 91232 K 0.000 GD  162 VS 4.20 DE 3.20 Q0300.0 QA 0.60 VS 4.20 3
 ACTION:UPD 13-10-22 09:23 OP:ep   STATUS:               ID:20130916091156 L   I
 OLDACT:UP  13-09-16 11:49 OP:jn   STATUS:               ID:20130916090959     3
 OLDACT:UP  13-09-16 11:47 OP:jn   STATUS:               ID:20130916090959     3
 OLDACT:REG 13-09-16 08:19 OP:jn   STATUS:               ID:20130916090959     3
 2013-09-16-0909-59M.COL___269                                                 6
 STAT SP IPHASW D HRMM SECON CODA AMPLIT PERI AZIMU VELO AIN AR TRES W  DIS CAZ7
 BAR2 SZ EP        912 16.04                             170    0.1210 26.0 185 
 BAR2 SZ ES        912 31.01                             170   -0.4010 26.0 185 
 BAR2 SZ I         912 32.73       145.8 0.36            167           26.0 185 
 BRR  HZ EP     C  912 17.86                             154    0.6510 68.3 297 
 BRR  HN ES        912 34.73                             154    1.0310 68.3 297 
 BRR  HZ I         912 38.19       110.6 0.44            146           68.3 297 
 PAM  SZ EP        912 18.98                             151    0.6110 76.3  42 
 PAM  SN ES        912 35.50                             151   -0.2710 76.3  42 
 PAM  SZ I         912 38.20       120.9 0.48            150           76.3  42 
 RUS  HZ EP        912 20.03                             143   -0.1410  104 175 
 RUS  HN ES        912 38.81                             143   -0.1710  104 175 
 RUS  HZ I         912 41.60        40.4 0.48            139            104 175 
 PTB  HZ EP        912 22.75                             133   -0.30 9  147 258 
 PTB  HN ES   1    912 43.29                             133   -0.80 7  147 258 
 PTB  HZ I         912 45.88        86.4 0.16            126            147 258 
 OCA  HZ EP        912 24.06                             131   -0.14 9  157 354 
 OCA  HN ES        912 45.80                             131   -0.35 9  157 354 
 OCA  HZ I         912 54.52        83.8 0.22            125            157 354 
 TAM  HZ EP     D  912 24.48                             130    0.40 9  158 106 
 TAM  HN ES        912 45.97                             130    0.03 9  158 106 
 TAM  HZ I         912 47.58        36.0 0.46            128            158 106 
 SPBC HZ EP        912 24.83                             129    0.05 9  164 218 
 SPBC HE ES        912 47.16                             129   -0.02 9  164 218 
 SPBC HZ I         912 51.56       115.1 0.22            123            164 218 
 ZAR  HZ EP        912 28.27                             123   -0.05 9  201 292 
 ZAR  HN ES   1    912 53.67                             123    0.18 6  201 292 
 ZAR  HZ I         912 59.28        74.4 0.26            117            201 292 
 NOR  HZ EP        912 32.15                             119    0.25 8  235 234 
 NOR  HE ES        912 59.70                             119   -0.16 8  235 234 
 NOR  HZ I         913  5.58        45.3 0.20            113            235 234 
 SML  HZ EP        912 31.99                             118   -0.42 8  240 335 
 SML  HE ES        913  0.89                             118    0.13 8  240 335 
 CHI  HZ EP        912 34.17                             117    0.07 8  251 195 
 CHI  HN ES        913  3.23                             117   -0.53 8  251 195 
 CHI  HZ I         913  8.90        45.8 0.32            113            251 195 
 GUY2CHZ EP        912 40.15                             113    0.38 7  301 234 
 GUY2CHN ES   4    913 16.53                             113    2.68 0  301 234 
 GUY2CHZ I         913 22.33        40.9 0.34                           301 234 
 VIL  SZ EP   1    912 40.10                             112    0.27 5  306 191 
 VIL  SN ES   1    913 13.70                             112   -0.26 5  306 191 
 VIL  SZ I         913 16.81        77.4 0.40            108            306 191 
 RREF HZ EP        912 43.34                             111    1.01 7  322 229 
 RREF HZ I         913 28.08        50.6 0.40            107            322 229 
 CBOC HZ EP   1    912 43.66                             110    0.71 5  333 252 
 CBOC HZ I         913 25.96        10.5 0.22            106            333 252 
 COD  HZ EP        912 43.32                             109   -0.83 7  345 355 
 COD  HE ES        913 20.62                             109   -1.03 7  345 355 
 COD  HZ I         913 27.88        13.1 0.48            105            345 355 
 PRA  HZ EP        912 49.45                             107   -0.38 6  394 209 
 PRA  HN ES        913 30.92                             107   -0.84 6  394 209 
 PRA  HZ I         913 38.21        46.2 0.70            103            394 209 
 ORTC HZ EP        912 50.31                             106    0.13 6  397 216 
 ORTC HN ES        913 32.22                             106   -0.18 6  397 216 
 ORTC HZ I         913 37.46        30.2 0.30            103            397 216 
                                                                                
