 2015  116 0843 51.5 L   6.801 -73.174145.0  RSN  9 0.4 1.6LRSN                1
 GAP=133        1.13       3.4     4.7  6.3  0.5724E+00  0.6607E+01  0.3064E-01E
 Epicentro: LOS SANTOS - SANTANDER                                             3
 ACTION:UPD 15-03-02 15:39 OP:nd   STATUS:               ID:20150116084351 L   I
 OLDACT:REG 15-01-16 13:34 OP:carl STATUS:               ID:20150116083746     3
 2015-01-16-0837-46M.COL___253                                                 6
 STAT SP IPHASW D HRMM SECON CODA AMPLIT PERI AZIMU VELO AIN AR TRES W  DIS CAZ7
 BAR2 EZ EP        844 11.11                             170    0.0410 23.1 182 
 BAR2 EZ ES        844 25.60                             170   -0.7010 23.1 182 
 BAR2 EZ I         844 28.77         6.1 0.18            170           23.1 182 
 BRR  HZ EP        844 12.90                             153    0.4610 68.4 300 
 BRR  HN ES        844 29.59                             153    0.8410 68.4 300 
 PAM  SZ EP        844 14.00                             150    0.2210 79.3  41 
 PAM  SN ES        844 30.78                             150   -0.3510 79.3  41 
 PAM  SZ I         844 33.35         4.1 0.56            154           79.3  41 
 RUS  HZ EP        844 14.99                             143   -0.2510  101 174 
 RUS  HE ES        844 33.88                             143    0.1610  101 174 
 RUS  HZ I         844 35.84         3.7 0.28            145            101 174 
 PTB  HZ EP        844 17.53                             132   -0.63 9  145 259 
 PTB  HN ES        844 38.65                             132   -0.28 9  145 259 
 PTB  HZ I         844 40.88         5.3 0.10            132            145 259 
 SPBC HZ EP        844 19.99                             129    0.19 9  161 218 
 SPBC HN ES        844 42.37                             129    0.53 9  161 218 
 SPBC HZ I         844 48.95         7.2 0.32            129            161 218 
 ZAR  HZ EP        844 23.26                             123   -0.37 9  201 292 
 ZAR  HE ES        844 48.03                             123   -0.63 9  201 292 
 ZAR  HZ I         844 59.09         4.0 0.26            123            201 292 
 SML  HZ EP        844 27.78                             117   -0.18 8  242 336 
 SML  HN ES        844 57.06                             117    0.68 8  242 336 
 SML  HZ I         845  3.04         4.8 0.22            118            242 336 
 CHI  HZ EP        844 29.32                             117    0.20 8  248 194 
 CHI  HN ES        844 58.54                             117    0.11 8  248 194 
 CHI  HZ I         845  4.88         1.8 0.74            118            248 194 
                                                                                
