 2014  816 0541 14.1 L   6.036 -73.739112.2  RSN 11 0.4 1.9LRSN                1
 GAP= 77        1.01       2.7     3.2  5.7 -0.1976E+01  0.5178E+01 -0.2126E+01E
 Epicentro: BOLIVAR - SANTANDER                                                3
 ACTION:UPD 14-09-15 21:50 OP:nd   STATUS:               ID:20140816054114 L   I
 OLDACT:UP  14-08-16 16:31 OP:cam  STATUS:               ID:20140816054000     3
 OLDACT:REG 14-08-16 13:03 OP:cam  STATUS:               ID:20140816054000     3
 2014-08-16-0540-00M.COL___285                                                 6
 STAT SP IPHASW D HRMM SECON CODA AMPLIT PERI AZIMU VELO AIN AR TRES W  DIS CAZ7
 SPBC HZ EP     C  541 31.01                             151    0.1410 56.3 221 
 SPBC HN ES        541 44.36                             151    0.3810 56.3 221 
 SPBC HZ I         541 45.84        21.7 0.28            153           56.3 221 
 RUS  HZ EP        541 32.55                             144   -0.0610 74.3 102 
 RUS  HE ES        541 47.05                             144   -0.0310 74.3 102 
 RUS  HZ I         541 48.54        10.7 0.28            149           74.3 102 
 BAR2 SZ EP     D  541 33.51                             139    0.3010 87.0  45 
 BAR2 SZ ES        541 48.15                             139    0.0010 87.0  45 
 BAR2 SZ I         541 50.03        48.9 0.34            142           87.0  45 
 PTB  HZ EP        541 32.99                             136   -0.7310 96.9 305 
 PTB  HN ES        541 48.79                             136   -0.2610 96.9 305 
 PTB  HZ I         541 52.20        11.0 0.18            137           96.9 305 
 BRR  HZ EP        541 35.71                             130    0.0910  118   1 
 BRR  HN ES        541 52.86                             130    0.4210  118   1 
 BRR  HZ I         541 56.27        12.0 0.24            131            118   1 
 NOR  HZ EP        541 37.74                             126    0.38 9  136 247 
 NOR  HN ES        541 55.18                             126   -0.35 9  136 247 
 NOR  HZ I         541 58.10        26.0 0.16            127            136 247 
 CHI  HZ EP        541 39.63                             122   -0.22 9  156 180 
 CHI  HN ES        541 59.47                             122   -0.50 9  156 180 
 CHI  HZ I         542  3.09         3.6 0.28            125            156 180 
 HEL  HZ EP        541 44.92                             115    0.47 9  199 275 
 HEL  HN ES   4    542  9.34                             115    1.18 0  199 275 
 HEL  HZ I         542 12.92         6.0 0.30            116            199 275 
 GUY2CHZ EP        541 45.90                             114    1.04 9  201 244 
 GUY2CHN ES        542  8.69                             114   -0.19 9  201 244 
 GUY2CHZ I         542 15.63         6.7 0.32                           201 244 
 ZAR  HZ EP        541 44.23                             114   -0.23 9  203 323 
 ZAR  HN ES   4    542  7.04                             114   -1.12 0  203 323 
 ZAR  HZ I         542  9.92        13.2 0.28            116            203 323 
 CBOC HZ EP   4    541 50.95                             109    0.67 0  252 266 
 URE  HZ EP   4    541 51.70                             107   -0.93 0  274 314 
 PRA  HZ EP   4    541 53.33                             106   -0.77 0  287 206 
 SML  HZ EP        541 56.07                             104   -0.48 7  308 353 
 SML  HE ES        542 29.32                             104   -0.37 7  308 353 
 SML  HZ I         542 35.56         5.5 0.20            106            308 353 
 SJC  HZ EP   4    542 12.02                              98   -2.29 0  456 340 
                                                                                
