 2016 1116 0215 15.2 L   6.792 -73.137140.0  RSN 12 0.5 2.0LRSN                1
 GAP=100        1.15       4.7     3.3  6.6 -0.7064E+00  0.4736E+01  0.1221E+02E
 Epicentro: LOS SANTOS - SANTANDER                                             3
 ACTION:UPD 17-10-26 21:08 OP:lp   STATUS:               ID:20161116021515 L   I
 OLDACT:UP  16-11-16 14:34 OP:e    STATUS:               ID:20161116020746     3
 OLDACT:UP  16-11-16 14:32 OP:e    STATUS:               ID:20161116020746     3
 OLDACT:REG 16-11-16 12:20 OP:and  STATUS:               ID:20161116020746     3
 2016-11-16-0208-00M.COL___335                                                 6
 STAT SP IPHASW D HRMM SECON CODA AMPLIT PERI AZIMU VELO AIN AR TRES W  DIS CAZ7
 BAR2 EZ IP     C  215 33.96                             170   -0.1910 22.6 193 
 BAR2 EZ ES        215 49.16                             170    0.2510 22.6 193 
 BAR2 EZ I         215 49.62        38.0 0.30            169           22.6 193 
 BRR  HZ EP        215 35.80                             151   -0.0410 72.5 299 
 BRR  HN ES        215 52.54                             151    0.6310 72.5 299 
 BRR  HZ I         215 58.34        21.4 0.14            152           72.5 299 
 PAM  EZ EP     D  215 36.73                             150   -0.1110 77.5  39 
 PAM  EN ES        215 53.56                             150   -0.1410 77.5  39 
 PAM  EZ I         215 55.76        33.6 0.58            154           77.5  39 
 PTB  HZ EP        215 40.86                             131   -0.95 9  149 259 
 PTB  HN ES        216  1.58                             131   -0.96 9  149 259 
 PTB  HZ I         216  5.71         9.1 0.11            132            149 259 
 TAM  HZ IP     C  215 42.21                             130   -0.14 9  154 105 
 TAM  HN ES        216  3.69                             130    0.19 9  154 105 
 TAM  HZ I         216  9.20        12.3 0.44            133            154 105 
 ZAR  HZ EP        215 47.23                             121   -0.21 8  205 292 
 ZAR  HN ES        216 13.09                             121    0.53 8  205 292 
 ZAR  HZ I         216 18.79        14.1 0.36            123            205 292 
 NOR  HZ EP        215 51.63                             117    0.97 8  235 235 
 NOR  HN ES        216 18.03                             117   -0.27 8  235 235 
 NOR  HZ I         216 23.76         7.5 0.16            119            235 235 
 CHI  HZ EP        215 52.53                             116   -0.02 8  248 195 
 CHI  HN ES        216 21.46                             116   -0.19 8  248 195 
 CHI  HZ I         216 24.67         3.8 0.32            117            248 195 
 URE  HZ EP   4    215 58.55                             112    2.38 0  285 292 
 URE  HN ES   4    216 25.17                             112   -2.93 0  285 292 
 ELA  HN ES   4    216 40.06                             109    1.83 0  329 230 
 ELA  HZ I         216 45.16         5.3 0.40            111            329 230 
 CBOC HZ EP        216  2.53                             109    0.54 7  334 252 
 CBOC HN ES        216 38.72                             109    0.26 7  334 252 
 CBOC HZ I         216 41.79         2.0 0.30            110            334 252 
 PRA  HZ EP        216  8.46                             106   -0.06 6  392 210 
 PRA  HN ES        216 50.99                             106    0.90 6  392 210 
 PRA  HZ I         216 55.85         4.7 0.36            107            392 210 
 SJC  HZ EP   4    216  8.80                             105   -1.96 0  411 327 
 SJC  HN ES   4    216 50.05                             105   -4.03 0  411 327 
 SJC  HZ I         216 54.14         5.0 0.54            106            411 327 
                                                                                
