 2012  116 0400 15.4 L   6.790 -73.141137.0  RSN 12 0.3 1.8LRSN                1
 GAP=138        0.71       3.2     3.8  4.6 -0.2479E+01  0.2593E+01  0.3714E+01E
 Epicentro: LOS SANTOS - SANTANDER                                             3
 ACTION:UP  12-02-03 08:17 OP:REBC STATUS:               ID:20120116040015 L   I
 2012-01-16-0400-00M.COL___186                                                 6
 STAT SP IPHASW D HRMM SECON CODA AMPLIT PERI AZIMU VELO SNR AR TRES W  DIS CAZ7
 BAR2 SZ EP        4 0 33.95                             170     0.010   22 192 
 BAR2 SZ ES   1    4 0 47.92                             170    -0.5 7   22 192 
 BAR2 SZ I         4 0 50.87        11.4 0.17                            22 192 
 GIR2 SZ EP   2    4 0 34.02                             166     0.0 5   32 350 
 BRR  HZ EP        4 0 35.73                             151     0.110   72 299 
 BRR  HN ES        4 0 51.84                             151     0.410   72 299 
 BRR  HZ I         4 0 57.12        15.9 0.18                            72 299 
 PAM  SZ EP        4 0 36.65                             149    -0.110   78  39 
 PAM  SE ES   1    4 0 53.38                             149     0.0 7   78  39 
 RUS  HZ EP   1    4 0 38.26                             142     0.0 7   99 176 
 RUS  HN ES   1    4 0 56.33                             142     0.3 7   99 176 
 RUS  HZ I         4 0 58.94         5.7 0.34                            99 176 
 PTB  HZ EP        4 0 40.98                             130    -0.7 9  148 259 
 PTB  HN ES   1    4 1  2.17                             130     0.0 7  148 259 
 OCA  SZ EP   1    4 0 43.23                             127     0.1 7  161 353 
 OCA  SZ I         4 1  9.40         6.8 0.21                           161 353 
 NOR  SZ EP   1    4 0 50.49                             117    -0.1 6  234 235 
 NOR  SN ES   1    4 1 18.10                             117     0.0 6  234 235 
 CHI  HZ EP        4 0 52.89                             115     0.4 8  248 195 
 CHI  HE ES   1    4 1 21.38                             115    -0.1 6  248 195 
 CHI  HZ I         4 1 26.76         4.2 0.64                           248 195 
 HEL  HZ EP   1    4 0 55.64                             113     0.4 6  272 256 
 HEL  HZ I         4 1 33.15         5.6 0.56                           272 256 
 RREF HZ EP   1    4 1  1.14                             109     0.0 5  321 230 
 RREF HZ I         4 1 43.94         3.0 0.56                           321 230 
 PRA  HZ EP   1    4 1  8.69                             105     0.1 4  391 210 
 PRA  HN ES   2    4 1 50.23                             105     0.2 3  391 210 
                                                                                
