 2010 1116 0951  1.9 L   6.149 -73.781 93.2  RSN  6 0.3 1.8LRSN                1
 GAP=121        0.60       3.2     4.0  9.0 -0.8519E+00  0.2261E+02  0.4874E-01E
 Epicentro: LANDAZURI - SANTANDER                                              3
 ACTION:UP  10-12-17 16:53 OP:REBC STATUS:               ID:20101116095101 L   I
 2010-11-16-0946-04S.COL___129                                                 6
 STAT SP IPHASW D HRMM SECON CODA AMPLIT PERI AZIMU VELO SNR AR TRES W  DIS CAZ7
 BAR2 SZ IP        951 19.15                             136     0.210   82  53 
 BAR2 SZ ES   1    951 32.50                             136     0.2 7   82  53 
 BAR2 SZ I         951 34.31        29.2 0.22                            82  53 
 RUS  HZ EP   1    951 19.28                             136    -0.1 7   82 110 
 RUS  HE ES   1    951 32.60                             136    -0.3 7   82 110 
 RUS  HZ I         951 34.87         8.2 0.23                            82 110 
 BRR  HZ IP     D  951 20.66                             127    -0.210  106   4 
 BRR  HZ I         951 21.04        22.4 0.11                           106   4 
 BRR  HE ES   1    951 35.84                             127     0.2 7  106   4 
 HEL  HZ EP   2    951 30.92                             111     0.1 4  193 271 
 HEL  HN ES   2    951 52.73                             111    -0.6 4  193 271 
 HEL  HZ I         951 58.27         3.3 0.47                           193 271 
 RREF HZ EP   2    951 35.12                             109     0.7 4  222 232 
 RREF HE ES   2    952  0.10                             109     0.3 4  222 232 
 RREF HZ I         952  5.76         5.9 0.32                           222 232 
 OCA  SZ EP   2    951 35.37                             107    -0.2 4  237  12 
 OCA  SZ ES   2    952  1.69                             107    -0.1 4  237  12 
 OCA  SZ I         952  7.39         6.6 0.27                           237  12 
                                                                                
