 2017  116 0443 21.0 L   6.818 -73.163149.3  RSN  4 0.2 0.9LRSN                1
 GAP=133        0.61       7.1     4.0  7.5 -0.1213E+02 -0.7039E+01  0.3519E+02E
 Epicentro: LOS SANTOS - SANTANDER                                             3
 ACTION:UPD 17-05-22 16:00 OP:jn   STATUS:               ID:20170116044321 L   I
 OLDACT:DUP 17-01-16 16:01 OP:dani STATUS:               ID:20170116043746d    3
 OLDACT:UP  17-01-16 15:58 OP:dani STATUS:               ID:20170116043744     3
 OLDACT:REG 17-01-16 13:14 OP:dani STATUS:               ID:20170116043744     3
 2017-01-16-0438-00M.COL___341                                                 6
 STAT SP IPHASW D HRMM SECON CODA AMPLIT PERI AZIMU VELO AIN AR TRES W  DIS CAZ7
 BRR  HZ EP        443 42.67                             154    0.3210 68.5 298 
 BRR  HE ES        443 59.02                             154   -0.0110 68.5 298 
 BRR  HZ I         444  4.11         1.7 0.25            154           68.5 298 
 PAM  HZ EP        443 43.65                             151    0.1110 77.1  42 
 PAM  HE ES        444  0.98                             151   -0.1710 77.1  42 
 PAM  HZ I         444  1.51         1.1 0.19            155           77.1  42 
 RUS  HZ EP        443 45.28                             144    0.0610  103 175 
 PTB  HZ EP        443 47.65                             133   -0.44 9  146 258 
 PTB  HN ES   1    444  9.42                             133    0.17 7  146 258 
 PTB  HZ I         444 11.00         1.0 0.11            134            146 258 
                                                                                
