 2012  916 0444  8.6 L   6.775 -73.122145.1  RSN  7 0.3 1.8LRSN                1
 GAP=141        0.76       4.8     4.6  6.1  0.2392E+01  0.2126E+01  0.2183E+01E
 Epicentro: LOS SANTOS - SANTANDER                                             3
 ACTION:UPD 12-10-22 14:19 OP:ep   STATUS:               ID:20120916044408 L   I
 2012-09-16-0440-00M.COL___227                                                 6
 STAT SP IPHASW D HRMM SECON CODA AMPLIT PERI AZIMU VELO AIN AR TRES W  DIS CAZ7
 BAR2 SZ EP        444 28.21                             171    0.1510 21.3 198 
 BAR2 SZ ES        444 42.96                             171   -0.3210 21.3 198 
 BAR2 SZ I         444 44.30        29.1 0.22                          21.3 198 
 GIR2 SZ EP   2    444 27.97                             166   -0.27 5 34.5 347 
 BRR  HZ EP        444 30.08                             151    0.2410 74.8 299 
 BRR  HN ES        444 47.05                             151    0.6110 74.8 299 
 BRR  HZ I         444 49.45        10.6 0.23                          74.8 299 
 PAM  SZ EP   1    444 30.75                             150    0.02 7 78.0  37 
 PAM  SN ES   1    444 47.59                             150   -0.44 7 78.0  37 
 PAM  SZ I         444 50.22        11.7 0.58                          78.0  37 
 RUS  HZ EP        444 32.16                             145    0.1310 97.7 177 
 RUS  HN ES   1    444 50.34                             145    0.00 7 97.7 177 
 RUS  HZ I         444 51.99         4.7 0.31                          97.7 177 
 PTB  HZ EP   1    444 35.31                             131   -0.35 7  150 260 
 PTB  HE ES   1    444 56.27                             131   -0.52 7  150 260 
 PTB  HZ I         444 58.33         4.6 0.14                           150 260 
 ZAR  HE ES   2    445  6.45                             121   -0.42 4  208 293 
 ZAR  HZ I         445 12.90         6.8 0.20                           208 293 
                                                                                
