 2012 1116 0012 17.3 L   6.791 -73.209137.3  RSN  6 0.3 1.3LRSN                1
 GAP=129        0.69       4.8     5.3  7.0 -0.5993E+01  0.4956E+01  0.2401E+00E
 Epicentro: ZAPATOCA - SANTANDER                                               3
 ACTION:UPD 12-12-05 15:33 OP:}ep  STATUS:               ID:20121116001217 L   I
 2012-11-16-0010-00M.COL___233                                                 6
 STAT SP IPHASW D HRMM SECON CODA AMPLIT PERI AZIMU VELO AIN AR TRES W  DIS CAZ7
 BAR2 SZ EP   1    012 35.86                             170   -0.04 7 22.1 172 
 BAR2 SZ ES   1    012 49.75                             170   -0.65 7 22.1 172 
 BAR2 SZ I         012 51.92         7.5 0.20                          22.1 172 
 GIR2 SZ EP   1    012 35.84                             166   -0.16 7 31.9   3 
 GIR2 SZ ES   1    012 51.07                             166    0.50 7 31.9   3 
 BRR  HZ EP   1    012 37.64                             153    0.41 7 65.7 302 
 BRR  HZ I         012 58.96         5.4 0.25                          65.7 302 
 PAM  SZ EP   1    012 38.75                             147   -0.23 7 82.8  43 
 PAM  SN ES   1    012 55.86                             147   -0.02 7 82.8  43 
 PAM  SZ I         012 57.27         3.0 0.38                          82.8  43 
 RUS  HZ EP   1    012 40.16                             142   -0.06 7  100 172 
 RUS  HE ES   1    012 58.49                             142    0.41 7  100 172 
 RUS  HZ I         012 59.35         1.5 0.26                           100 172 
 PTB  HN ES   1    013  2.77                             131   -0.18 7  141 259 
                                                                                
