 2016 1216 0552 40.2 L   6.766 -73.181150.6  RSN  4 0.2 1.1LRSN                1
 GAP=231        0.47       3.8     3.6  3.8  0.6638E+01  0.1097E+01  0.2151E+00E
 Epicentro: LOS SANTOS - SANTANDER                                             3
 ACTION:UPD 17-01-11 20:15 OP:rebc STATUS:               ID:20161216055240 L   I
 OLDACT:REG 16-12-16 12:39 OP:and  STATUS:               ID:20161216054745     3
 2016-12-16-0548-00M.COL___378                                                 6
 STAT SP IPHASW D HRMM SECON CODA AMPLIT PERI AZIMU VELO AIN AR TRES W  DIS CAZ7
 BAR2 EZ EP        553  0.18                             172   -0.1410 19.2 180 
 BAR2 EZ ES        553 15.79                             172   -0.2410 19.2 180 
 BAR2 EZ I         553 17.77         3.5 0.34            168           19.2 180 
 BRR  HZ EP        553  1.96                             154    0.1810 69.7 303 
 BRR  HN ES        553 18.76                             154    0.1410 69.7 303 
 RUS  HZ EP        553  4.24                             146    0.0610 97.2 174 
 RUS  HN ES        553 23.06                             146    0.1710 97.2 174 
 RUS  HZ I         553 23.87         2.7 0.38            145           97.2 174 
 PTB  HZ EP        553  6.98                             134   -0.17 9  143 260 
 PTB  HN ES        553 28.15                             134   -0.03 9  143 260 
 PTB  HZ I         553 32.86         1.1 0.10            132            143 260 
                                                                                
