 2010  916 0910 18.0 L   6.746 -73.100143.4  RSN 10 0.4 2.0LRSN                1
 GAP=164        1.07       5.3     7.9  8.9 -0.8275E+01  0.7454E+01 -0.1323E+02E
 Epicentro: JORDAN - SANTANDER                                                 3
 ACTION:UP  11-02-18 11:03 OP:tino STATUS:               ID:20100916091018 L   I
 2010-09-16-0908-03S.COL___119                                                 6
 STAT SP IPHASW D HRMM SECON CODA AMPLIT PERI AZIMU VELO SNR AR TRES W  DIS CAZ7
 BAR2 SZ EP        910 37.29                             172     0.010   19 209 
 BAR2 SZ ES   1    910 52.16                             172    -0.1 7   19 209 
 BAR2 SZ I         910 54.14        30.6 0.18                            19 209 
 BTL  SZ EP        910 37.37                             169     0.010   27 316 
 BRR  HZ EP        910 39.26                             150    -0.110   79 301 
 BRR  HZ I         910 39.53        35.9 0.17                            79 301 
 BRR  HN ES   1    910 56.48                             150     0.5 7   79 301 
 RUS  HZ EP   1    910 41.49                             145     0.4 7   94 179 
 RUS  HN ES   1    910 58.70                             145    -0.4 7   94 179 
 RUS  HZ I         911  1.71        11.1 0.59                            94 179 
 GUE  SZ EP        910 43.54                             138     0.610  121   9 
 GRA  SZ EP   1    910 43.26                             135    -0.1 7  130  15 
 GRA  SZ I         911  5.71        11.5 0.24                           130  15 
 OCA  SZ EP        910 45.93                             128    -0.8 9  167 352 
 OCA  SZ I         911 13.63        12.5 0.31                           167 352 
 CHI  HE ES   1    911 23.97                             117     0.0 6  244 197 
 CHI  HZ I         911 30.60         5.8 0.41                           244 197 
 HEL  HZ EP   1    910 58.82                             114     0.3 6  276 257 
 HEL  HN ES   1    911 29.70                             114    -0.4 6  276 257 
 HEL  HZ I         911 36.00         5.2 0.30                           276 257 
 RREF HZ EP   2    911  4.25                             110     0.2 3  322 231 
 RREF HZ I         911 48.84         8.0 0.30                           322 231 
                                                                                
