 2017  316 0241 35.9 L   7.057 -73.327 15.1  RSN  6 0.4 1.1LRSN                1
 GAP=140        0.96       2.6     3.4  6.5 -0.1955E+01  0.1745E+02 -0.5448E+01E
 Epicentro: LEBRIJA - SANTANDER                                                3
 ACTION:UPD 17-05-25 18:40 OP:jn   STATUS:               ID:20170316024135 L   I
 OLDACT:REG 17-03-16 12:45 OP:cara STATUS:               ID:20170316022628     3
 2017-03-16-0238-00M.COL___400                                                 6
 STAT SP IPHASW D HRMM SECON CODA AMPLIT PERI AZIMU VELO AIN AR TRES W  DIS CAZ7
 BRR  HZ EP        241 42.96                             106   -0.2310 42.9 277 
 BAR2 EZ EP        241 45.35                             103    0.3010 53.8 163 
 BAR2 EZ ES        241 52.00                             103   -0.2110 53.8 163 
 BAR2 EZ I         241 52.91         7.6 0.24             98           53.8 163 
 PAM  EZ EP        241 48.97                              99    0.3610 76.0  66 
 PAM  EN ES        241 58.17                              99   -0.3810 76.0  66 
 PAM  EZ I         242  0.24         2.7 0.20             96           76.0  66 
 RUS  HZ EP        241 57.56                              95    0.5910  132 168 
 RUS  HN ES        242 12.91                              95   -0.5310  132 168 
 RUS  HZ I         242 14.95         2.1 0.48             93            132 168 
 PTB  HZ EP        241 57.86                              56    0.51 9  137 245 
 PTB  HN ES        242 14.04                              56   -0.08 9  137 245 
 PTB  HZ I         242 16.13         6.6 0.34             93            137 245 
 ZAR  HZ EP        242  2.16                              56    0.01 9  176 286 
 ZAR  HN ES        242 22.29                              56   -0.37 9  176 286 
 ZAR  HZ I         242 25.91         4.5 0.28             56            176 286 
                                                                                
