 2017 1016 0024 38.2 L   6.845 -73.140148.6  RSN 27 0.6 2.9LRSN                1
 GAP= 56        1.09       3.2     2.7  5.2  0.1847E+00  0.3595E+01  0.1878E+01E
 Epicentro: LOS SANTOS - SANTANDER                                             3
 ACTION:UPD 17-11-07 19:32 OP:rebc STATUS:               ID:20171016002438 L   I
 OLDACT:UP  17-10-16 13:40 OP:dani STATUS:               ID:20171016001112     3
 OLDACT:UP  17-10-16 13:40 OP:dani STATUS:               ID:20171016001112     3
 OLDACT:UP  17-10-16 13:38 OP:dani STATUS:               ID:20171016001112     3
 OLDACT:REG 17-10-16 12:10 OP:dani STATUS:               ID:20171016001112     3
 2017-10-16-0018-00M.COL___438                                                 6
 STAT SP IPHASW D HRMM SECON CODA AMPLIT PERI AZIMU VELO AIN AR TRES W  DIS CAZ7
 BAR2 EZ EP        024 58.24                             169   -0.0210 28.3 190 
 BAR2 EZ ES        025 13.21                             169   -0.7210 28.3 190 
 BAR2 EZ I         025 14.68       259.3 0.46            165           28.3 190 
 BRR  HZ IP     D  025  0.18                             153    0.6310 69.6 295 
 BRR  HN ES   3    025 17.31                             153    1.09 2 69.6 295 
 BRR  HZ I         025 19.01       134.5 0.16            152           69.6 295 
 PAM  EZ IP     D  025  1.08                             153    0.6210 73.2  42 
 PAM  EN ES        025 18.16                             153    0.3210 73.2  42 
 PAM  EZ I         025 20.30        60.1 0.22            155           73.2  42 
 RUS  HZ EP        025  2.18                             143   -0.3910  105 177 
 RUS  HN ES   3    025 20.38                             143   -1.21 2  105 177 
 RUS  HZ I         025 21.43       177.2 0.46            140            105 177 
 PTB  HZ EP        025  4.80                             132   -0.73 9  149 257 
 PTB  HN ES        025 26.18                             132   -0.69 9  149 257 
 PTB  HZ I         025 28.56        70.7 0.16            130            149 257 
 TAM  HZ EP     C  025  6.48                             131    0.33 9  156 107 
 TAM  HE ES        025 27.69                             131   -0.28 9  156 107 
 TAM  HZ I         025 29.17        59.4 0.28            130            156 107 
 YPLC HZ IP     C  025  8.52                             126   -0.06 9  181 152 
 YPLC HN ES        025 32.39                             126    0.10 9  181 152 
 YPLC HZ I         025 34.40        49.6 0.32            125            181 152 
 ZAR  HZ EP        025 11.07                             123    0.38 9  203 291 
 ZAR  HN ES        025 36.80                             123    0.75 9  203 291 
 ZAR  HZ I         025 42.93        74.9 0.14            122            203 291 
 TABC EZ EP   3    025 15.84                             119    1.25 2  235 210 
 TABC EZ ES        025 43.99                             119    1.00 8  235 210 
 TABC EZ I         025 49.87        78.8 0.44            117            235 210 
 NOR  HZ EP        025 14.25                             119   -0.19 8  238 234 
 NOR  HE ES        025 42.63                             119   -0.10 8  238 234 
 NOR  HZ I         025 44.66        69.3 0.38            117            238 234 
 CHI  HZ EP        025 16.36                             117   -0.21 8  254 195 
 CHI  HN ES   3    025 45.34                             117   -1.18 2  254 195 
 CHI  HZ I         025 51.64        43.1 0.28            115            254 195 
 ROSC BZ EP   9    025 17.92                             117    0.96 0  257 211 
 ROSC BE ES        025 49.10                             117    0.94 8  257 211 
 ROSC BZ I         025 54.50        74.7 0.45            115            257 211 
 URE  HN ES        025 50.47                             114   -0.83 7  283 291 
 GUY2CHZ EP        025 22.69                             112    0.38 7  305 234 
 GUY2CHN ES        025 57.28                             112    0.56 7  305 234 
 GUY2CHZ I         026  4.86        38.4 0.34                           305 234 
 VIL  EZ EP        025 21.86                             112   -0.43 7  308 192 
 VIL  EN ES   3    025 55.65                             112   -1.05 2  308 192 
 VIL  EZ I         026  7.44        43.7 0.30            111            308 192 
 PTGC HZ EP   3 C  025 21.21                             112   -1.45 2  313 159 
 PTGC HN ES   4    025 54.56                             112   -2.80 0  313 159 
 PTGC HZ I         025 56.19        24.2 0.58            111            313 159 
 DBB  EZ EP        025 26.44                             110    0.63 7  340 273 
 DBB  EN ES        026  2.44                             110   -0.52 7  340 273 
 DBB  EZ I         026  7.66        28.4 0.22            109            340 273 
 SDV  BZ EP        025 27.84                             109   -0.07 6  357  51 
 PRA  HZ EP        025 31.65                             107   -0.69 6  397 209 
 PRA  HN ES        026 15.18                             107    0.59 6  397 209 
 PRA  HZ I         026 20.83        42.0 0.28            106            397 209 
 ORTC HZ EP        025 32.77                             107    0.06 6  400 216 
 ORTC HN ES   3    026 16.42                             107    1.17 1  400 216 
 ORTC HZ I         026 22.45        28.5 0.34            105            400 216 
 SJC  HZ EP        025 32.32                             106   -1.07 6  405 326 
 SJC  HN ES   4    026 14.14                             106   -2.32 0  405 326 
 SJC  HZ I         026 18.41        34.6 0.50            106            405 326 
 PAL  HZ EP        025 34.16                             106    0.36 6  409 239 
 CRJC HZ EP   3    025 38.82                             104   -1.35 1  463   4 
 CRJC HN ES   4    026 25.98                             104   -2.54 0  463   4 
 CRJC HZ I         026 33.59        17.7 0.13            103            463   4 
 YOT  HZ EP        025 41.38                             103   -0.37 5  476 228 
 SMAR HZ EP        025 44.26                             103    0.69 4  492 346 
 SMAR HN ES   3    026 32.85                             103   -1.73 1  492 346 
 MACC HZ EP   4    025 45.20                             102   -2.36 0  526 189 
 MACC HZ I         026 43.60         8.6 0.68            101            526 189 
 FLO2 HZ EP        026  1.92                              99   -0.01 2  645 206 
                                                                                
