 2014 1116 0108  4.8 L   6.795 -73.166140.0  RSN 24 0.5 2.7LRSN                1
 GAP= 54        1.59       4.1     4.0  7.0 -0.2646E+01  0.7910E+01  0.6977E+01E
 Epicentro: LOS SANTOS - SANTANDER                                             3
 ACTION:UPD 14-12-19 15:43 OP:nd   STATUS:               ID:20141116010804 L   I
 OLDACT:DUP 14-11-16 15:00 OP:stll STATUS:               ID:20141116005751d    3
 OLDACT:DUP 14-11-16 14:57 OP:stll STATUS:               ID:20141116005750d    3
 2014-11-16-0057-48M.COL___289                                                 6
 STAT SP IPHASW D HRMM SECON CODA AMPLIT PERI AZIMU VELO AIN AR TRES W  DIS CAZ7
 BAR2 SZ IP        1 8 23.88                             170    0.2110 22.4 185 
 BAR2 SZ ES        1 8 38.59                             170    0.1610 22.4 185 
 BAR2 SZ I         1 8 40.09       175.0 0.20            169           22.4 185 
 BRR  HZ IP     D  1 8 25.87                             152    0.6810 69.5 300 
 BRR  HE ES        1 8 42.13                             152    1.0110 69.5 300 
 BRR  HZ I         1 8 44.55        85.4 0.16            149           69.5 300 
 PAM  SZ IP     D  1 8 26.76                             149    0.2810 79.3  41 
 PAM  SZ I         1 8 27.09       164.8 0.24            152           79.3  41 
 PAM  SN ES        1 8 43.58                             149    0.1610 79.3  41 
 RUS  HZ IP     C  1 8 27.71                             142   -0.2010  100 175 
 RUS  HE ES        1 8 45.46                             142   -0.5110  100 175 
 RUS  HZ I         1 8 47.46        66.6 0.30            144            100 175 
 PTB  HZ EP        1 8 30.49                             131   -0.55 9  145 259 
 PTB  HN ES        1 8 51.02                             131   -0.53 9  145 259 
 PTB  HZ I         1 8 54.25        82.2 0.16            129            145 259 
 TAM  HZ IP     D  1 8 32.16                             129   -0.01 9  157 105 
 TAM  HE ES        1 8 52.64                             129   -0.92 9  157 105 
 TAM  HZ I         1 8 52.95        43.3 0.28            132            157 105 
 OCA  HZ EP        1 8 32.52                             128   -0.13 9  161 354 
 OCA  HN ES        1 8 54.35                             128   -0.07 9  161 354 
 OCA  HZ I         1 8 59.15        73.3 0.32            128            161 354 
 SPBC HZ EP     C  1 8 32.69                             128    0.06 9  161 218 
 SPBC HN ES        1 8 54.63                             128    0.25 9  161 218 
 SPBC HZ I         1 8 59.06        88.4 0.28            127            161 218 
 NOR  HZ EP     D  1 8 39.84                             117   -0.08 8  233 234 
 NOR  HN ES        1 9  7.11                             117   -0.24 8  233 234 
 NOR  HZ I         1 9 14.06        72.5 0.18            117            233 234 
 CHI  HZ EP     D  1 8 41.94                             116   -0.07 8  247 195 
 CHI  HN ES        1 9 11.06                             116   -0.01 8  247 195 
 CHI  HZ I         1 9 17.00        28.2 0.26            116            247 195 
 HEL  HZ EP        1 8 44.50                             114    0.08 8  270 256 
 HEL  HN ES        1 9 15.07                             114   -0.29 8  270 256 
 HEL  HZ I         1 9 27.07        28.4 0.26            113            270 256 
 URE  HZ EP   9    1 8 44.19                             112   -1.15 0  282 292 
 URE  HN ES        1 9 15.10                                   -0.75 7  282 292 
 URE  HZ I         1 9 28.82        30.4 0.16            112            282 292 
 PTGC HZ IP   9 C  1 8 46.79                             110   -1.60 0  309 158 
 PTGC HZ I         1 8 47.29        58.0 0.18            112            309 158 
 PTGC HN ES        1 9 19.63                                   -1.19 7  309 158 
 CBOC HZ EP        1 8 51.89                             109    0.73 7  331 252 
 CBOC HN ES        1 9 26.27                             109   -1.10 7  331 252 
 CBOC HZ I         1 9 33.69        16.0 0.24            109            331 252 
 DBB  SZ EP     D  1 8 51.62                             108   -0.12 7  337 274 
 DBB  SZ ES        1 9 27.15                             108   -1.25 7  337 274 
 DBB  SZ I         1 9 32.04        68.8 0.40            108            337 274 
 TOL  SZ EP        1 8 53.10                             108    0.55 7  341 224 
 TOL  SE ES        1 9 31.05                             108    1.22 7  341 224 
 MON  HZ EP   9    1 8 51.45                             107   -1.92 0  352 309 
 MON  HN ES        1 9 30.01                                    0.63 6  352 309 
 MON  HZ I         1 9 32.66        11.1 0.24            108            352 309 
 ANIL HZ EP        1 8 54.64                             107    0.53 6  355 224 
 ANIL HN ES        1 9 32.25                             107   -0.35 6  355 224 
 ANIL HZ I         1 9 42.75         6.1 0.24            108            355 224 
 ARGC HZ EP   9    1 8 54.36                             107    0.19 0  359 341 
 ARGC HE ES        1 9 30.23                                   -2.68 6  359 341 
 ARGC HZ I         1 9 41.16        11.2 0.28            107            359 341 
 SDV  BZ EP   9    1 8 53.57                             107   -1.25 0  363  50 
 SDV  BN ES        1 9 30.56                                   -2.07 6  363  50 
 PRA  HZ EP     C  1 8 57.48                             105   -0.41 6  390 209 
 PRA  HN ES        1 9 40.48                             105    1.15 6  390 209 
 PRA  HZ I         1 9 46.18        41.3 0.30            106            390 209 
 ORTC HZ EP     D  1 8 58.02                             105   -0.25 6  394 216 
 ORTC HN ES        1 9 40.28                             105    0.27 6  394 216 
 ORTC HZ I         1 9 47.85        21.8 0.36            106            394 216 
 PAL  HZ EP     D  1 8 59.60                             105    0.14 6  403 239 
 PAL  HZ I         1 8 59.99        11.5 0.16            105            403 239 
 PAL  HN ES        1 9 41.69                             105   -0.44 6  403 239 
 SJC  HZ IP   9 D  1 8 58.50                             105   -1.54 0  409 327 
 SJC  HN ES        1 9 39.20                                   -2.43 6  409 327 
 SJC  HZ I         1 9 44.05        10.2 0.42            105            409 327 
                                                                                
