 2015  116 0925 40.9 L   6.797 -73.149150.2  RSN  4 0.6 1.4LRSN                1
 GAP=214        1.35      10.1    11.1 14.9 -0.1393E+02  0.5183E+02 -0.8423E+02E
 Epicentro: LOS SANTOS - SANTANDER                                             3
 ACTION:UPD 15-03-02 15:39 OP:nd   STATUS:               ID:20150116092540 L   I
 OLDACT:REG 15-01-16 13:35 OP:carl STATUS:               ID:20150116091736     3
 2015-01-16-0917-36M.COL___253                                                 6
 STAT SP IPHASW D HRMM SECON CODA AMPLIT PERI AZIMU VELO AIN AR TRES W  DIS CAZ7
 BAR2 EZ ES        926 16.89                             171    0.0910 22.9 189 
 PTB  HZ EP        926  8.98                             133    0.76 9  147 259 
 PTB  HN ES        926 28.75                             133   -0.76 9  147 259 
 PTB  HZ I         926 31.42         2.2 0.40            133            147 259 
 ZAR  HN ES        926 39.54                             123    0.38 9  204 292 
 ZAR  HZ I         926 47.55         1.7 0.28            123            204 292 
 SML  HZ EP        926 16.94                             118   -0.88 8  244 335 
 SML  HN ES        926 46.91                             118    0.31 8  244 335 
 SML  HZ I         926 56.58         3.2 0.22            118            244 335 
                                                                                
