 2011  616 0216 35.5 L   6.770 -73.094147.3  RSN  9 0.2 1.8LRSN                1
 GAP=145        0.48       3.1     5.7  5.2 -0.7314E+01  0.8309E+00 -0.1813E+01E
 Epicentro: LOS SANTOS - SANTANDER                                             3
 ACTION:UP  11-07-14 19:05 OP:ep   STATUS:               ID:20110616021635 L   I
 2011-06-16-0215-02S.COL___138                                                 6
 STAT SP IPHASW D HRMM SECON CODA AMPLIT PERI AZIMU VELO SNR AR TRES W  DIS CAZ7
 BAR2 SZ EP   1    216 55.01                             171    -0.3 7   22 207 
 BAR2 SZ ES   2    217 10.67                             171    -0.1 5   22 207 
 BAR2 SZ I         217 12.01        20.5 0.25                            22 207 
 BTL  SZ EP   1    216 55.55                             170     0.2 7   25 311 
 PAM  SZ EP   1    216 58.13                             151     0.3 7   77  35 
 PAM  SN ES   2    217 15.40                             151     0.1 5   77  35 
 BRR  HZ IP     C  216 57.11                             151    -0.110   78 299 
 BRR  HZ I         216 57.39        24.0 0.16                            78 299 
 BRR  HN ES   2    217 14.46                             151     0.3 5   78 299 
 RUS  HZ EP   2    216 59.06                             145    -0.1 5   97 179 
 RUS  HZ I         216 59.57        11.2 0.52                            97 179 
 RUS  HN ES   2    217 17.47                             145    -0.1 5   97 179 
 BRI  SZ EP   1    216 59.79                             141     0.1 7  110  17 
 BRI  SZ ES   2    217 18.15                             141    -0.3 5  110  17 
 BRI  SZ I         217 22.87         5.0 0.41                           110  17 
 GRA  SZ IP        217  1.07                             137     0.010  127  15 
 GRA  SZ I         217  2.16         5.4 0.25                           127  15 
 GRA  SZ ES   2    217 20.86                             137    -0.1 5  127  15 
 OCA  SZ EP   2    217  3.82                             129    -0.5 5  164 351 
 OCA  SZ I         217 19.06         5.2 0.60                           164 351 
 CHI  HE ES   2    217 42.79                             118     0.3 4  247 197 
 CHI  HZ I         217 45.47         4.8 0.63                           247 197 
                                                                                
