 2013  216 0739 15.9 L   6.753 -73.152152.6  RSN  7 0.4 1.9LRSN                1
 GAP=182        1.05       4.1     6.4  7.4  0.6811E+01  0.5577E+01  0.5586E+01E
 Epicentro: LOS SANTOS - SANTANDER                                             3
 ACTION:UPD 13-03-12 09:33 OP:ep   STATUS:               ID:20130216073915 L   I
 2013-02-16-0737-42M.COL___182                                                 6
 STAT SP IPHASW D HRMM SECON CODA AMPLIT PERI AZIMU VELO AIN AR TRES W  DIS CAZ7
 BAR2 SZ EP        739 35.83                             173   -0.4110 18.0 191 
 BAR2 SZ ES        739 51.92                             173   -0.2010 18.0 191 
 BAR2 SZ I         739 53.89        11.2 0.18            170           18.0 191 
 BRR  HZ EP        739 37.74                             153   -0.1510 73.3 302 
 BRR  HE ES        739 55.53                             153    0.4810 73.3 302 
 BRR  HE I         739 55.95        14.6 0.30            152           73.3 302 
 RUS  HZ EP        739 39.70                             147   -0.2510 95.4 175 
 RUS  HN ES        739 58.73                             147    0.0010 95.4 175 
 RUS  HN I         740  0.00        10.4 0.38            146           95.4 175 
 PTB  HZ EP        739 42.70                             134   -0.57 9  146 261 
 PTB  HN ES        740  4.25                             134   -0.39 9  146 261 
 PTB  HN I         740  9.15        18.7 0.46            133            146 261 
 OCA  HN ES        740  8.51                             130    0.43 9  165 354 
 ZAR  HN ES   1    740 14.97                             124    0.27 6  205 294 
 CHI  HZ EP        739 54.00                             119    0.59 8  243 195 
 CHI  HN ES        740 23.51                             119    0.83 8  243 195 
 CHI  HN I         740 26.68         3.6 0.46            119            243 195 
                                                                                
