 2012  216 0350 58.7 L   6.745 -73.174144.2  RSN  6 0.3 1.6LRSN                1
 GAP=230        0.67       6.3     4.8 12.7  0.8732E+01  0.3050E+01 -0.3106E+02E
 ACTION:UP  12-03-07 16:30 OP:epov STATUS:               ID:20120216035058 L   I
 2012-02-16-0350-00M.COL___188                                                 6
 STAT SP IPHASW D HRMM SECON CODA AMPLIT PERI AZIMU VELO AIN AR TRES W  DIS CAZ7
 BAR2 SZ EP        351 17.95                             173   -0.0610 16.9 183 
 BAR2 SZ I         351 34.21         6.9 0.17                          16.9 183 
 BRR  HZ EP   1    351 20.04                             152    0.35 7 71.7 304 
 BRR  HZ I         351 38.60         7.4 0.13                          71.7 304 
 RUS  HZ EP   1    351 21.69                             145   -0.17 7 94.8 174 
 RUS  HZ I         351 22.88         5.0 0.20                          94.8 174 
 RUS  HE ES   1    351 40.12                             145    0.18 7 94.8 174 
 PTB  HZ EP   1    351 24.83                             133   -0.32 7  144 261 
 PTB  HN ES   1    351 45.19                             133   -0.60 7  144 261 
 PTB  HZ I         351 46.83         0.0 0.10                           144 261 
 ZAR  HN ES   1    351 56.48                             122    0.31 6  204 294 
 ZAR  HZ I         352  2.09         5.7 0.38                           204 294 
 NOR  SN ES   1    352  1.44                             119    0.48 6  229 235 
                                                                                
