 2015  316 0231 56.0 L   6.528 -73.601106.2  RSN  4 0.1 1.1LRSN                1
 GAP=130        0.35       2.1     1.7  3.3  0.1500E+01  0.1582E+01  0.1943E+01E
 Epicentro: SANTA HELENA DEL OPON - SANTANDER                                  3
 ACTION:UPD 15-04-30 16:26 OP:nd   STATUS:               ID:20150316023156 L   I
 OLDACT:REG 15-03-16 12:22 OP:stll STATUS:               ID:20150316022748     3
 2015-03-16-0227-48M.COL___257                                                 6
 STAT SP IPHASW D HRMM SECON CODA AMPLIT PERI AZIMU VELO AIN AR TRES W  DIS CAZ7
 BAR2 EZ EP        232 11.84                             154   -0.0410 46.9  81 
 BAR2 EZ I         232 11.97         8.0 0.28            157           46.9  81 
 BAR2 EZ ES        232 24.27                             154    0.0310 46.9  81 
 BRR  HZ EP        232 12.51                             146   -0.1410 65.2 349 
 BRR  HN ES        232 25.69                             146    0.0810 65.2 349 
 BRR  HZ I         232 26.34         3.4 0.32            150           65.2 349 
 RUS  HZ EP        232 15.47                             137    0.1810 90.7 141 
 RUS  HE ES        232 30.21                             137   -0.1010 90.7 141 
 RUS  HZ I         232 32.43         0.8 0.34            138           90.7 141 
 PTB  HZ EP        232 14.97                             135    0.0010 94.6 271 
 PTB  HN ES        232 29.73                             135   -0.0010 94.6 271 
 PTB  HZ I         232 31.26         3.9 0.16            136           94.6 271 
                                                                                
