 2011  916 0135 39.8 L   6.729 -73.114145.6  RSN  9 0.5 2.1LRSN                1
 GAP=144        0.90       4.3     6.8  7.2 -0.6401E+01  0.1260E+02  0.1206E+01E
 Epicentro: JORDAN - SANTANDER                                                 3
 ACTION:UPD 12-07-13 15:57 OP:ep   STATUS:               ID:20110916013539 L   I
 2011-09-16-0120-00M.COL___171                                                 6
 STAT SP IPHASW D HRMM SECON CODA AMPLIT PERI AZIMU VELO AIN AR TRES W  DIS CAZ7
 BAR2 SZ IP     C  135 59.27                             173   -0.0510 16.9 206 
 BAR2 SZ ES   1    136 13.97                             173   -0.56 7 16.9 206 
 BAR2 SZ I         136 17.52        23.2 0.14                          16.9 206 
 GIR2 SZ EP   1    135 59.40                             164   -0.32 7 39.6 347 
 BRR  HZ EP        136  1.24                             150   -0.1110 78.1 302 
 BRR  HZ I         136  1.51        69.1 0.13                          78.1 302 
 BRR  HN ES   1    136 18.71                             150    0.55 7 78.1 302 
 PAM  SZ EP   1    136  2.06                             149   -0.21 7 81.6  34 
 PAM  SZ I         136  2.43        16.8 0.19                          81.6  34 
 PAM  SN ES   1    136 19.27                             149   -0.51 7 81.6  34 
 RUS  HZ EP   1    136  2.84                             146   -0.15 7 92.6 178 
 RUS  HN ES   1    136 22.00                             146    0.93 7 92.6 178 
 RUS  HZ I         136 23.60        10.0 0.21                          92.6 178 
 OCA  SZ EP   1    136  9.71                             128    0.82 7  168 352 
 OCA  SZ ES   1    136 31.85                             128    0.28 7  168 352 
 OCA  SZ I         136 36.48        30.1 0.29                           168 352 
 NOR  SZ EP   2    136 14.91                             119   -0.46 4  233 237 
 NOR  SN ES   1    136 42.54                             119   -0.56 6  233 237 
 CHI  HZ EP   1    136 17.15                             118    0.36 6  242 196 
 CHI  HZ I         136 50.91         4.4 0.31                           242 196 
 HEL  HZ EP   1    136 20.07                             114   -0.12 6  274 258 
 HEL  HZ I         136 59.00        11.3 0.31                           274 258 
                                                                                
