 2017 1216 0755 18.0 L   6.868 -73.186143.1  RSN  9 0.3 1.8LRSN                1
 GAP= 72        0.96       3.9     3.7  6.4 -0.2721E+01  0.4555E+01  0.3487E+01E
 Epicentro: ZAPATOCA - SANTANDER                                               3
 ACTION:UPD 18-01-04 13:21 OP:rebc STATUS:               ID:20171216075518 L   I
 OLDACT:UP  17-12-16 18:43 OP:edw  STATUS:               ID:20171216074118     3
 OLDACT:UP  17-12-16 18:41 OP:edw  STATUS:               ID:20171216074118     3
 OLDACT:REG 17-12-16 12:36 OP:edw  STATUS:               ID:20171216074118     3
 2017-12-16-0748-00M.COL___446                                                 6
 STAT SP IPHASW D HRMM SECON CODA AMPLIT PERI AZIMU VELO AIN AR TRES W  DIS CAZ7
 BAR2 EZ EP     C  755 37.50                             167   -0.0110 30.5 179 
 BAR2 EZ ES        755 52.94                             167    0.2310 30.5 179 
 BAR2 EZ I         755 53.58        12.5 0.22            168           30.5 179 
 PAM  EZ EP        755 39.99                             151    0.1810 74.8  46 
 PAM  EN ES        755 57.01                             151    0.2110 74.8  46 
 PAM  EZ I         755 59.02         9.1 0.44            155           74.8  46 
 PTB  HZ EP        755 44.32                             132   -0.22 9  145 256 
 PTB  HN ES        756  5.49                             132    0.27 9  145 256 
 PTB  HZ I         756  8.87         4.3 0.44            132            145 256 
 OCA  HZ EP   4    755 46.41                             131    1.03 0  152 354 
 OCA  HE ES        756  6.34                             131   -0.38 9  152 354 
 OCA  HZ I         756  9.97         9.4 0.44            133            152 354 
 TAM  HZ EP     C  755 45.79                             129   -0.31 9  161 107 
 SPBC HZ EP        755 46.39                             128   -0.25 9  166 216 
 SPBC HN ES        756  8.60                             128   -0.36 9  166 216 
 SPBC HZ I         756 15.73         7.3 0.10            129            166 216 
 ZAR  HZ EP        755 50.19                             123    0.60 9  197 291 
 ZAR  HN ES        756 13.88                             123   -0.33 9  197 291 
 ZAR  HZ I         756 21.13         9.1 0.40            124            197 291 
 URE  HN ES   4    756 28.09                             114   -1.44 0  277 291 
 GUY2CHZ EP        756  2.08                             112    0.46 7  302 233 
 GUY2CHE ES   4    756 37.47                             112    1.86 0  302 233 
 GUY2CHZ I         756 46.29         3.3 0.40                           302 233 
 SJC  HZ EP   9    756 11.65                             106   -0.83 0  400 327 
 SJC  HE ES        756 52.68                             106   -1.44 6  400 327 
 SJC  HZ I         756 54.61         4.0 0.44            107            400 327 
                                                                                
