 2016  316 0538 39.8 L   6.803 -73.173143.9  RSN  7 0.2 1.6LRSN                1
 GAP=141        0.40       2.1     1.9  3.0 -0.1043E+01  0.1241E+01  0.1453E+01E
 Epicentro: LOS SANTOS - SANTANDER                                             3
 ACTION:UPD 16-05-13 21:24 OP:cam  STATUS:               ID:20160316053839 L   I
 OLDACT:REG 16-03-16 14:22 OP:dnl  STATUS:               ID:20160316053748     3
 2016-03-16-0537-48M.COL___285                                                 6
 STAT SP IPHASW D HRMM SECON CODA AMPLIT PERI AZIMU VELO AIN AR TRES W  DIS CAZ7
 BAR2 EZ EP        538 59.14                             170   -0.0210 23.3 182 
 BAR2 EZ ES        539 14.43                             170    0.1310 23.3 182 
 BAR2 EZ I         539 16.83         7.2 0.28            169           23.3 182 
 PAM  EZ EP        539  1.99                             150    0.1110 79.1  41 
 PAM  EN ES        539 19.01                             150   -0.1210 79.1  41 
 PAM  EZ I         539 21.21        10.6 0.50            156           79.1  41 
 PTB  HZ EP        539  6.09                             132   -0.22 9  145 258 
 PTB  HN ES        539 27.15                             132    0.13 9  145 258 
 PTB  HZ I         539 32.99         3.8 0.19            133            145 258 
 SPBC HZ EP        539  8.04                             129    0.08 9  162 218 
 SPBC HN ES        539 29.93                             129   -0.03 9  162 218 
 SPBC HZ I         539 36.16         8.3 0.11            130            162 218 
 ZAR  HZ EP   4    539 14.48                             122    2.70 0  201 292 
 ZAR  HE ES        539 36.69                             122   -0.06 9  201 292 
 ZAR  HZ I         539 43.45         3.5 0.32            124            201 292 
 CHI  HZ EP        539 17.21                             117   -0.09 8  248 194 
 CHI  HE ES   2    539 46.27                             117   -0.32 4  248 194 
 CHI  HZ I         539 50.32         1.7 0.54            119            248 194 
 GUY2CHZ EP   2    539 23.75                             112    0.73 4  299 234 
 GUY2CHN ES   4    539 57.18                             112    0.41 0  299 234 
 GUY2CHZ I         540  6.04         3.2 0.70                           299 234 
                                                                                
