 2013  916 0255 30.1 L   6.778 -73.106145.0  RSN  5 0.2 1.5LRSN                1
 GAP=228        0.52       3.1     4.9  4.5  0.4382E+01  0.4127E+01  0.9096E+00E
 Epicentro: LOS SANTOS - SANTANDER                                             3
 ACTION:UPD 13-10-22 09:23 OP:ep   STATUS:               ID:20130916025530 L   I
 OLDACT:REG 13-09-16 07:37 OP:jn   STATUS:               ID:20130916024959     3
 2013-09-16-0249-59M.COL___269                                                 6
 STAT SP IPHASW D HRMM SECON CODA AMPLIT PERI AZIMU VELO AIN AR TRES W  DIS CAZ7
 BAR2 SZ EP        255 49.70                             171    0.0610 22.3 202 
 BAR2 SZ ES        256  4.57                             171   -0.2910 22.3 202 
 BAR2 SZ I         256  6.30        10.2 0.24            162           22.3 202 
 BRR  HZ EP        255 51.56                             151    0.0810 76.2 299 
 BRR  HN ES        256  8.42                             151    0.2810 76.2 299 
 BRR  HZ I         256 12.78         4.9 0.32            147           76.2 299 
 SPBC HZ EP        255 58.66                             129   -0.00 9  164 221 
 SPBC HE ES   1    256 21.01                             129    0.10 7  164 221 
 SPBC HZ I         256 28.41         3.7 0.16            127            164 221 
 ZAR  HN ES   1    256 28.31                             121   -0.40 6  209 292 
 SML  HE ES   1    256 35.97                             117   -0.05 6  248 335 
                                                                                
