 2012  716 0458  4.3 L   6.794 -73.155144.2  RSN 12 0.5 2.5LRSN                1
 GAP= 65        0.98       3.6     4.1  6.6  0.6934E+00  0.2549E+01  0.4650E+01E
 Epicentro: LOS SANTOS - SANTANDER                                             3
 ACTION:UPD 12-08-14 11:45 OP:ep   STATUS:               ID:20120716045804 L   I
 2012-07-16-0450-00M.COL___197                                                 6
 STAT SP IPHASW D HRMM SECON CODA AMPLIT PERI AZIMU VELO AIN AR TRES W  DIS CAZ7
 BAR2 SZ EP   1    458 23.74                             171     0.0 7   23 188 
 BAR2 SZ ES   1    458 38.28                             171    -0.6 7   23 188 
 BAR2 SZ I         458 39.64       127.4 0.18            169             23 188 
 BRR  HZ EP   1    458 25.67                             152     0.4 7   71 299 
 BRR  HN ES   1    458 42.42                             152     0.8 7   71 299 
 BRR  HZ I         458 43.82       103.6 0.24            149             71 299 
 PAM  SZ EP        458 26.67                             150     0.210   79  40 
 PAM  SN ES   1    458 43.62                             150    -0.1 7   79  40 
 RUS  HZ EP   1    458 27.56                             144    -0.3 7  100 175 
 RUS  HN ES   1    458 46.31                             144     0.1 7  100 175 
 RUS  HZ I         458 48.08        42.1 0.44            145            100 175 
 PTB  HZ EP   1    458 30.34                             132    -0.7 7  147 259 
 PTB  HZ I         458 33.24        28.5 0.32            130            147 259 
 PTB  HN ES   2    458 51.40                             132    -0.5 5  147 259 
 TAM  HZ IP     D  458 32.17                             130     0.2 9  156 105 
 TAM  HE ES   2    458 53.65                             130     0.2 5  156 105 
 OCA  HZ EP   1    458 32.20                             129    -0.4 7  161 354 
 OCA  HN ES   1    458 53.84                             129    -0.8 7  161 354 
 OCA  HZ I         459  1.45        80.5 0.47            130            161 354 
 YOP  SZ EP   1    458 34.61                             126     0.4 7  179 153 
 YOP  SN ES   2    458 58.25                             126     0.7 4  179 153 
 YOP  SZ I         458 58.94        21.9 0.24            128            179 153 
 ZAR  HZ EP   1    458 36.95                             122     0.3 6  203 292 
 ZAR  HN ES   1    459  2.22                             122     0.4 6  203 292 
 ZAR  HZ I         459  9.78        34.3 0.34            121            203 292 
 NOR  SZ EP   1    458 40.08                             118     0.2 6  233 234 
 NOR  SE ES   2    459  7.89                             118     0.4 4  233 234 
 CHI  HZ EP   1    458 40.90                             117    -0.9 6  248 195 
 CHI  HN ES   1    459 10.67                             117    -0.4 6  248 195 
 CHI  HZ I         459 14.66        10.8 0.42            117            248 195 
 ROSC BZ EP   1    458 42.44                             116     0.2 6  252 211 
 ROSC BE ES   2    459 12.19                             116     0.4 4  252 211 
 ROSC BZ I         459 20.12        21.5 0.41            117            252 211 
