 2015 1016 0310 36.2 L   6.759 -73.132137.7  RSN  8 0.4 1.7LRSN                1
 GAP= 96        0.89       3.6     4.2  5.2 -0.5474E+01  0.4531E+00  0.5789E+01E
 Epicentro: LOS SANTOS - SANTANDER                                             3
 ACTION:UPD 15-12-22 20:40 OP:cam  STATUS:               ID:20151016031036 L   I
 OLDACT:REG 15-10-16 12:31 OP:stll STATUS:               ID:20151016030747     3
 2015-10-16-0307-47M.COL___339                                                 6
 STAT SP IPHASW D HRMM SECON CODA AMPLIT PERI AZIMU VELO AIN AR TRES W  DIS CAZ7
 BAR2 EZ EP        310 54.65                             172   -0.1310 19.3 197 
 BAR2 EZ ES        311  9.20                             172   -0.0710 19.3 197 
 BAR2 EZ I         311 11.74        10.9 0.30            170           19.3 197 
 BRR  HZ EP        310 56.58                             150   -0.1210 74.7 301 
 BRR  HZ I         310 56.76         7.1 0.24            152           74.7 301 
 BRR  HE ES        311 13.27                             150    0.5910 74.7 301 
 PAM  EZ IP     D  310 57.73                             148   -0.0010 80.0  37 
 PAM  EZ I         310 57.84        17.3 0.20            151           80.0  37 
 PAM  EN ES        311 14.17                             148   -0.3510 80.0  37 
 RUS  HZ EP        310 58.97                             143    0.1410 96.0 177 
 RUS  HN ES        311 16.43                             143   -0.0410 96.0 177 
 RUS  HZ I         311 18.48         7.1 0.34            144           96.0 177 
 TAM  HZ IP     C  311  3.13                             129    0.12 9  153 103 
 SPBC HZ EP        311  3.67                             128   -0.18 9  161 220 
 SPBC HN ES        311 25.36                             128   -0.05 9  161 220 
 SPBC HZ I         311 28.19        10.5 0.34            129            161 220 
 CHI  HZ EP        311 13.04                             116    0.01 8  245 196 
 CHI  HE ES        311 42.22                             116    0.46 8  245 196 
 GUY2CHZ EP        311 19.99                             111    0.69 7  300 236 
 GUY2CHN ES        311 51.81                             111   -1.10 7  300 236 
 GUY2CHZ I         312  4.68         2.6 0.50                           300 236 
                                                                                
