 2013  416 0754 17.8 L   6.808 -73.165149.2  RSN  8 0.4 1.7LRSN                1
 GAP=181        0.85       3.8     5.3  5.9  0.3477E+01  0.4072E+01 -0.2510E+01E
 Epicentro: LOS SANTOS - SANTANDER                                             3
 ACTION:UPD 13-05-22 14:38 OP:EP   STATUS:               ID:20130416075417 L   I
 2013-04-16-0748-50M.COL___210                                                 6
 STAT SP IPHASW D HRMM SECON CODA AMPLIT PERI AZIMU VELO AIN AR TRES W  DIS CAZ7
 BAR2 SZ EP        754 37.78                             170   -0.0810 23.9 185 
 BAR2 SZ I         754 53.71        18.8 0.32            172           23.9 185 
 GIR2 SZ EP     C  754 37.74                             168   -0.1210 30.1 354 
 GIR2 SZ ES        754 53.49                             168    0.0010 30.1 354 
 GIR2 SZ I         754 54.76         9.3 0.46            167           30.1 354 
 BRR  HZ IP     D  754 39.60                             154    0.4010 68.9 299 
 BRR  HN ES   1    754 56.74                             154    0.85 7 68.9 299 
 BRR  HZ I         754 59.57         9.3 0.44            155           68.9 299 
 RUS  HZ EP        754 42.19                             144    0.2110  102 175 
 RUS  HN ES   1    755  0.32                             144   -0.50 7  102 175 
 RUS  HZ I         755  1.45         3.9 0.60            145            102 175 
 PTB  HZ EP        754 44.59                             133   -0.30 9  146 258 
 PTB  HN ES   1    755  5.52                             133   -0.48 7  146 258 
 PTB  HZ I         755  6.60         4.3 0.20            135            146 258 
 OCA  HZ EP        754 46.43                             131    0.15 9  159 354 
 OCA  HN ES   1    755  8.19                             131   -0.30 7  159 354 
 OCA  HZ I         755 12.51         5.5 0.36            130            159 354 
 ZAR  HZ EP        754 50.64                             123    0.40 9  202 292 
 ZAR  HE ES   1    755 15.56                             123    0.02 6  202 292 
 ZAR  HZ I         755 19.43         3.5 0.16            124            202 292 
 SML  HZ EP        754 54.35                             118   -0.10 8  242 336 
 SML  HN ES   1    755 22.10                             118   -0.92 6  242 336 
 SML  HZ I         755 27.60         5.2 0.08            118            242 336 
                                                                                
