 2013  516 0750 31.3 L   7.116 -73.077162.0  RSN  6 0.4 1.5LRSN                1
 GAP=258        0.87       8.2     6.7  7.9  0.1726E+02  0.7202E+01 -0.1436E+01E
 Epicentro: BUCARAMANGA - SANTANDER                                            3
 ACTION:UPD 13-06-20 09:50 OP:ep   STATUS:               ID:20130516075031 L   I
 2013-05-16-0750-00M.COL___256                                                 6
 STAT SP IPHASW D HRMM SECON CODA AMPLIT PERI AZIMU VELO AIN AR TRES W  DIS CAZ7
 GIR2 SZ EP   1    750 52.40                             175   -0.17 7 13.5 252 
 GIR2 SZ ES   1    751  8.49                             175   -0.70 7 13.5 252 
 BAR2 SZ EP   1    750 54.01                             159    0.04 7 59.0 191 
 BAR2 SZ ES   1    751 11.56                             159   -0.12 7 59.0 191 
 BAR2 SZ I         751 12.29         4.3 0.10            160           59.0 191 
 BRR  HZ EP   1    750 54.21                             156    0.06 7 70.1 269 
 BRR  HE ES        751 12.73                             156    0.7510 70.1 269 
 BRR  HZ I         751 14.77         5.1 0.12            154           70.1 269 
 RUS  HN ES   1    751 21.28                             139    0.25 7  135 180 
 PTB  HZ EP        751  1.18                             132    0.03 9  165 247 
 PTB  HN ES        751 24.10                             132   -0.35 9  165 247 
 PTB  HZ I         751 26.53         4.4 0.18            132            165 247 
 ZAR  HN ES   1    751 30.19                             126   -0.28 6  201 282 
 ZAR  HZ I         751 32.94         2.8 0.34            126            201 282 
                                                                                
