 2011  716 0407  6.7 L   6.768 -73.082149.1  RSN  8 0.3 1.8LRSN                1
 GAP=163        0.55       2.6     5.3  4.2 -0.3203E+01  0.4406E+00 -0.9427E+00E
 Epicentro: LOS SANTOS - SANTANDER                                             3
 ACTION:UPD 12-07-25 14:01 OP:epov STATUS:               ID:20110716040706 L   I
 2011-07-16-0400-00M.COL___133                                                 6
 STAT SP IPHASW D HRMM SECON CODA AMPLIT PERI AZIMU VELO AIN AR TRES W  DIS CAZ7
 BAR2 SZ EP   1    4 7 26.46                             171   -0.24 7 22.4 210 
 BAR2 SZ I         4 7 26.72        11.3 0.20                          22.4 210 
 BAR2 SZ ES   1    4 7 42.49                             171    0.18 7 22.4 210 
 BTL  SZ EP   1    4 7 26.64                             170   -0.14 7 26.4 309 
 BTL  SZ ES   1    4 7 42.46                             170    0.00 7 26.4 309 
 BRR  HZ EP   1    4 7 28.36                             151   -0.29 7 79.1 298 
 BRR  HN ES   1    4 7 45.55                             151   -0.23 7 79.1 298 
 BRR  HZ I         4 7 48.07        18.0 0.17                          79.1 298 
 RUS  HZ EP   1    4 7 30.33                             146   -0.17 7 96.8 180 
 RUS  HZ I         4 7 30.95         4.5 0.20                          96.8 180 
 RUS  HN ES   1    4 7 49.34                             146    0.26 7 96.8 180 
 BRI  SZ EP   1    4 7 31.14                             142    0.17 7  109  17 
 BRI  SZ ES   1    4 7 50.25                             142    0.33 7  109  17 
 BRI  SZ I         4 7 51.73         8.6 0.23                           109  17 
 GRA  SZ EP   1    4 7 32.04                             137   -0.31 7  127  14 
 GRA  SZ ES   1    4 7 51.99                             137   -0.37 7  127  14 
 GRA  SZ I         4 7 53.03        11.1 0.30                           127  14 
 OCA  SZ EP   1    4 7 36.15                             130    0.48 7  165 351 
 OCA  SZ ES   1    4 7 58.51                             130    0.23 7  165 351 
 OCA  SZ I         4 8  3.83         7.2 0.47                           165 351 
 HEL  HZ EP   1    4 7 48.10                             115    0.36 6  278 257 
                                                                                
