 2010  416 0826 52.2 L   6.792 -73.086140.2  RSN  6 0.2 2.1LRSN                1
 GAP=215        0.53       3.8     6.1  6.7 -0.1252E+02  0.1919E+02 -0.8096E+01E
 Epicentro: LOS SANTOS - SANTANDER                                             3
 ACTION:UP  10-08-24 09:59 OP:vdl  STATUS:               ID:20100416082701 L   I
 2010-04-16-0824-00S.COL___100                                                 6
 STAT SP IPHASW D HRMM SECON CODA AMPLIT PERI AZIMU VELO AIN AR TRES W  DIS CAZ7
 BAR2 SZ EP        827 11.10                             170    -0.110   25 206 
 BAR2 SZ ES   1    827 26.01                             170     0.0 7   25 206 
 BRR  HZ IP     D  827 13.41                             149     0.210   78 297 
 BRR  HZ I         827 13.81        23.5 0.22                            78 297 
 OCA  SZ EP        827 20.16                             128    -0.1 9  162 351 
 OCA  SZ ES   1    827 42.27                             128     0.1 7  162 351 
 OCA  SZ I         827 46.30        25.3 0.50                           162 351 
 HEL  HN ES   1    828  4.60                             113     0.0 6  278 256 
 HEL  HZ I         828  9.70         4.2 0.17                           278 256 
 RREF BN ES   1    828 14.52                             110    -0.3 5  326 230 
 RREF BZ I         828 18.50         4.1 1.16                           326 230 
 PRA  HZ I         827 47.28         3.1 0.15                           395 210 
 PRA  HN ES   2    828 28.36                             106     0.7 3  395 210 
                                                                                
