 2012  216 0453 11.9 L   6.771 -73.186144.0  RSN 10 0.3 1.7LRSN                1
 GAP=175        0.62       2.8     3.9  5.4  0.1456E+01  0.3207E+01  0.3093E+01E
 ACTION:UP  12-03-07 16:30 OP:epov STATUS:               ID:20120216045311 L   I
 2012-02-16-0450-00M.COL___188                                                 6
 STAT SP IPHASW D HRMM SECON CODA AMPLIT PERI AZIMU VELO AIN AR TRES W  DIS CAZ7
 BAR2 SZ EP   1    453 30.93                             172   -0.33 7 19.8 179 
 BAR2 SZ ES   1    453 46.19                             172   -0.16 7 19.8 179 
 BAR2 SZ I         453 48.68        10.9 0.34                          19.8 179 
 GIR2 SZ EP   1    453 31.00                             166   -0.45 7 34.0 359 
 BRR  HZ EP        453 32.80                             153    0.0610 69.0 303 
 BRR  HN ES   1    453 49.36                             153    0.37 7 69.0 303 
 BRR  HZ I         453 50.64        12.2 0.30                          69.0 303 
 RUS  HZ EP   1    453 35.13                             144   -0.16 7 97.8 173 
 RUS  HE ES   1    453 53.80                             144    0.28 7 97.8 173 
 RUS  HZ I         453 55.16         7.5 0.21                          97.8 173 
 PTB  HZ EP   1    453 37.81                             133   -0.47 7  143 260 
 PTB  HN ES   1    453 58.70                             133   -0.15 7  143 260 
 PTB  HZ I         454  1.00         0.0 0.10                           143 260 
 OCA  SZ ES   1    454  2.86                             129    0.34 7  163 355 
 ZAR  HN ES   1    454  9.15                             122    0.22 6  201 293 
 NOR  SN ES   1    454 13.94                             119   -0.34 6  229 234 
 CHI  HZ EP   1    453 49.46                             117    0.41 6  244 194 
 CHI  HN ES   1    454 18.42                             117    0.40 6  244 194 
 CHI  HZ I         454 22.20         3.2 0.27                           244 194 
 PRA  HZ EP   1    454  5.25                             107    0.46 4  387 209 
                                                                                
