 2013 1216 0733 14.0 L   6.802 -73.171148.4  RSN 10 0.4 1.7LRSN                1
 GAP=133        1.05       3.4     5.1  6.4 -0.3136E+01  0.5547E+01  0.4537E+01E
 Epicentro: LOS SANTOS - SANTANDER                                             3
 ACTION:UPD 14-01-13 10:18 OP:ep   STATUS:               ID:20131216073314 L   I
 OLDACT:REG 13-12-16 06:36 OP:jn   STATUS:               ID:20131216073000     3
 2013-12-16-0730-00M.COL___285                                                 6
 STAT SP IPHASW D HRMM SECON CODA AMPLIT PERI AZIMU VELO AIN AR TRES W  DIS CAZ7
 BAR2 SZ EP     C  733 34.02                             171    0.0510 23.2 183 
 BAR2 SZ ES        733 49.90                             171    0.3710 23.2 183 
 BAR2 SZ I         733 50.37        16.6 0.18            170           23.2 183 
 BRR  HZ EP     D  733 35.87                             154    0.5510 68.6 299 
 BRR  HN ES        733 52.71                             154    0.7810 68.6 299 
 BRR  HZ I         733 56.81         5.8 0.28            150           68.6 299 
 PAM  SZ EP        733 36.95                             151    0.3310 79.0  41 
 PAM  SN ES        733 53.86                             151   -0.3810 79.0  41 
 PAM  SZ I         733 55.94         7.6 0.38            153           79.0  41 
 RUS  HZ EP        733 37.74                             144   -0.3310  101 174 
 RUS  HN ES        733 56.32                             144   -0.5010  101 174 
 RUS  HZ I         733 57.80         4.6 0.32            145            101 174 
 PTB  HZ EP        733 40.85                             133   -0.12 9  145 259 
 PTB  HN ES        734  1.37                             133   -0.62 9  145 259 
 PTB  HZ I         734  7.82         8.6 0.24            131            145 259 
 OCA  HE ES   1    734  4.20                             130   -0.50 7  160 354 
 OCA  HZ I         734 12.97         2.9 0.16            130            160 354 
 SPBC HZ EP        733 42.99                             130    0.40 9  162 218 
 SPBC HN ES        734  4.68                             130   -0.18 9  162 218 
 SPBC HZ I         734  7.67        11.8 0.22            129            162 218 
 SML  HN ES   1    734 18.29                             118   -0.94 6  242 336 
 CHI  HZ EP   1    733 52.14                             118    0.32 6  248 195 
 CHI  HN ES        734 21.36                             118    0.06 8  248 195 
 CHI  HZ I         734 31.10         2.1 0.44            118            248 195 
 PRA  HZ EP   1    734  7.88                             107    0.37 4  391 209 
 PRA  HN ES        734 49.09                             107   -0.12 6  391 209 
 PRA  HZ I         734 58.40         1.9 0.42            107            391 209 
                                                                                
