 2012  916 0611 38.2 L   6.743 -73.139141.4  RSN 14 0.4 2.8LRSN 3.1WRSN        1
 SPEC AVERAGE  MO 13.7 ST  2.2 OM  3.6 f0 3.07 R0.4825 AL 2.31 WI 16.5 MW  3.1 3
 SPEC SD       MO  0.3 ST  1.1 OM  1.6 f00.274 R0.0414 AL      WI      MW  0.2 3
 GAP= 66        0.79       3.2     2.8  4.6  0.8886E+00  0.2330E+01  0.5204E+01E
 Epicentro: JORDAN - SANTANDER                                                 3
 SPEC RUS HH Z MO 13.4 ST  1.1 OM  1.8 f0 3.13 R0.4696 AL 2.46 WI 13.6 MW  2.9 3
 SPEC RUS HH Z T 61217 K 0.000 GD  169 VS 4.20 DE 3.00 Q0230.0 QA 0.60 VS 4.20 3
 SPEC PRA HH Z MO 14.1 ST  4.0 OM  2.1 f0 2.88 R0.5104 AL 2.37 WI 23.6 MW  3.3 3
 SPEC PRA HH Z T 61311 K 0.000 GD  412 VS 4.20 DE 3.00 Q0230.0 QA 0.60 VS 4.20 3
 SPEC ROSCBH Z MO 13.9 ST  2.5 OM  2.1 f0 2.78 R0.5288 AL 3.39 WI 17.2 MW  3.2 3
 SPEC ROSCBH Z T 61245 K 0.000 GD  285 VS 4.20 DE 3.00 Q0230.0 QA 0.60 VS 4.20 3
 SPEC PTB HH Z MO 13.4 ST  1.4 OM  1.7 f0 3.49 R0.4212 AL 1.01 WI 11.5 MW  2.9 3
 SPEC PTB HH Z T 61224 K 0.000 GD  203 VS 4.20 DE 3.00 Q0230.0 QA 0.60 VS 4.20 3
 ACTION:UP  12-10-22 14:19 OP:ep   STATUS:               ID:20120916061138 L   I
 2012-09-16-0610-00M.COL___227                                                 6
 STAT SP IPHASW D HRMM SECON CODA AMPLIT PERI AZIMU VELO AIN AR TRES W  DIS CAZ7
 BAR2 SZ EP        611 57.33                             173    0.1210 17.3 196 
 BAR2 SZ ES   1    612 12.00                             173   -0.03 7 17.3 196 
 BAR2 SZ I         612 15.63       178.6 0.38                          17.3 196 
 GIR2 SZ EP        611 57.46                             164   -0.1010 37.7 351 
 GIR2 SZ ES   1    612 12.74                             164    0.09 7 37.7 351 
 BRR  HZ IP     D  611 59.29                             150    0.1610 75.1 302 
 BRR  HN ES        612 16.17                             150    0.7410 75.1 302 
 BRR  HZ I         612 17.62       123.3 0.19                          75.1 302 
 PAM  SZ EP        612  0.19                             149   -0.0610 81.9  36 
 PAM  SN ES        612 16.85                             149   -0.5910 81.9  36 
 PAM  SZ I         612 19.77       154.5 0.68                          81.9  36 
 RUS  HZ EP   1    612  1.17                             145    0.09 7 94.2 176 
 RUS  HN ES   1    612 18.80                             145   -0.11 7 94.2 176 
 PTB  HZ EP        612  4.11                             131   -0.69 9  147 261 
 PTB  HE ES   1    612 25.24                             131   -0.30 7  147 261 
 PTB  HZ I         612 27.95        38.4 0.23                           147 261 
 TAM  HZ EP        612  5.57                             130    0.23 9  153 103 
 TAM  HN ES   1    612 26.39                             130   -0.10 7  153 103 
 YOP  SZ EP   1    612  8.06                             126    0.71 7  173 153 
 YOP  SN ES   2    612 30.22                             126    0.14 4  173 153 
 YOP  SZ I         612 32.52        48.0 0.68                           173 153 
 ZAR  HZ EP   1    612 11.01                             121    0.29 6  207 294 
 ZAR  HE ES   1    612 35.78                             121   -0.28 6  207 294 
 ZAR  HZ I         612 42.49       129.1 0.19                           207 294 
 CHI  HZ EP   1    612 14.82                             117   -0.21 6  243 196 
 CHI  HN ES   1    612 43.81                             117    0.06 6  243 196 
 CHI  HZ I         612 50.92        30.4 0.72                           243 196 
 ROSC BZ EP   9    612 17.08                             116    1.53 0  248 212 
 ROSC BE ES   9    612 45.79                                   -0.41 0  248 212 
 ROSC BZ I         612 53.19        45.3 0.44                           248 212 
 HEL  HZ EP   1    612 18.72                             114    0.59 6  271 257 
 HEL  HE ES   2    612 49.55                             114    0.29 4  271 257 
 HEL  HZ I         612 56.24        37.9 0.50                           271 257 
 DBB  SZ EP   1    612 25.23                             109   -0.44 5  341 275 
 PRA  HZ EP   1    612 30.92                             106   -0.07 4  387 210 
 PRA  HN ES   1    613 11.67                             106   -0.48 4  387 210 
                                                                                
