 2013 1116 0703 31.3 L   6.808 -73.134148.3  RSN  8 0.5 1.7LRSN                1
 GAP=202        1.10       4.2     6.2  6.9  0.8385E+01  0.2065E+01 -0.9612E+01E
 Epicentro: LOS SANTOS - SANTANDER                                             3
 ACTION:UPD 14-01-09 16:28 OP:ep   STATUS:               ID:20131116070331 L   I
 OLDACT:REG 13-11-16 10:17 OP:nd   STATUS:               ID:20131116070000     3
 2013-11-16-0700-00M.COL___279                                                 6
 STAT SP IPHASW D HRMM SECON CODA AMPLIT PERI AZIMU VELO AIN AR TRES W  DIS CAZ7
 BAR2 SZ EP        7 3 51.47                             170    0.2010 24.4 193 
 BAR2 SZ ES        7 4  7.07                             170    0.2410 24.4 193 
 BAR2 SZ I         7 4  8.53         9.4 0.26            167           24.4 193 
 BRR  HZ EP        7 3 53.35                             153    0.5810 71.9 297 
 BRR  HN ES        7 4  9.25                             153   -0.2610 71.9 297 
 BRR  HZ I         7 4 12.20         3.9 0.32            147           71.9 297 
 RUS  HZ EP        7 3 55.39                             144    0.0210  101 177 
 RUS  HN ES        7 4 13.57                             144   -0.5610  101 177 
 RUS  HZ I         7 4 16.73         2.9 0.52            143            101 177 
 PTB  HZ EP        7 3 58.44                             132   -0.17 9  149 259 
 PTB  HN ES        7 4 19.32                             132   -0.59 9  149 259 
 PTB  HZ I         7 4 27.17         5.7 0.36            128            149 259 
 SPBC HZ EP        7 4  0.08                             129   -0.06 9  165 219 
 SPBC HN ES        7 4 22.94                             129    0.31 9  165 219 
 SPBC HZ I         7 4 28.35        13.4 0.86            126            165 219 
 ZAR  HZ EP        7 4  3.90                             123   -0.11 9  205 292 
 ZAR  HN ES        7 4 30.25                             123    0.73 9  205 292 
 ZAR  HZ I         7 4 36.65         4.5 0.46            120            205 292 
 SML  HZ EP        7 4  8.02                             118   -0.03 8  243 335 
 SML  HN ES        7 4 37.07                             118    0.36 8  243 335 
 SML  HZ I         7 4 39.44         7.3 0.10            116            243 335 
 SJC  HZ EP        7 4 27.27                             106    0.32 6  409 327 
 SJC  HZ I         7 4 50.31         2.4 0.84            105            409 327 
 SJC  HN ES        7 5  8.68                             106   -1.67 6  409 327 
                                                                                
