 2012  116 0712 48.8 L   6.751 -73.153150.0  RSN  8 0.5 1.7LRSN                1
 GAP=138        1.15       6.0     6.6  9.1  0.5463E+01  0.4565E+00  0.9425E+01E
 Epicentro: LOS SANTOS - SANTANDER                                             3
 ACTION:UP  12-02-03 08:17 OP:REBC STATUS:               ID:20120116071248 L   I
 2012-01-16-0710-00M.COL___186                                                 6
 STAT SP IPHASW D HRMM SECON CODA AMPLIT PERI AZIMU VELO SNR AR TRES W  DIS CAZ7
 BAR2 SZ EP        713  8.69                             173    -0.210   18 190 
 BAR2 SZ ES   1    713 23.87                             173    -0.6 7   18 190 
 BAR2 SZ I         713 25.34        11.1 0.51                            18 190 
 GIR2 SZ EP   2    713  9.19                             166     0.1 5   37 353 
 BRR  HZ EP        713 10.69                             153     0.210   73 303 
 BRR  HZ I         713 11.30        12.2 0.07                            73 303 
 BRR  HN ES        713 28.35                             153     0.910   73 303 
 PAM  SZ EP        713 11.71                             150     0.010   82  38 
 PAM  SN ES   2    713 28.69                             150    -1.0 5   82  38 
 RUS  HZ EP        713 12.64                             146     0.010   95 175 
 RUS  HN ES   1    713 31.57                             146     0.4 7   95 175 
 RUS  HZ I         713 32.86         4.6 0.18                            95 175 
 PTB  HZ EP        713 15.69                             133    -0.3 9  146 261 
 PTB  HN ES   1    713 36.40                             133    -0.7 7  146 261 
 ZAR  HE ES   1    713 46.98                             123    -0.3 6  205 294 
 ZAR  HZ I         713 53.07         9.3 0.34                           205 294 
 CHI  HZ EP   1    713 26.70                             119     0.6 6  243 195 
 CHI  HE ES   1    713 55.18                             119    -0.1 6  243 195 
 CHI  HZ I         714  4.64         2.6 0.61                           243 195 
                                                                                
