 2013 1116 0541 12.6 L   6.840 -73.172139.7  RSN  8 0.4 1.7LRSN                1
 GAP=199        1.04       4.1     5.7  6.7  0.7340E+01  0.3255E+01 -0.6249E+01E
 Epicentro: LOS SANTOS - SANTANDER                                             3
 ACTION:UPD 14-01-09 16:28 OP:ep   STATUS:               ID:20131116054112 L   I
 OLDACT:REG 13-11-16 10:12 OP:nd   STATUS:               ID:20131116054000     3
 2013-11-16-0540-00M.COL___279                                                 6
 STAT SP IPHASW D HRMM SECON CODA AMPLIT PERI AZIMU VELO AIN AR TRES W  DIS CAZ7
 BAR2 SZ EP        541 31.57                             168    0.0210 27.5 182 
 BAR2 SZ ES        541 46.59                             168    0.2310 27.5 182 
 BAR2 SZ I         541 47.88        13.0 0.26            168           27.5 182 
 BRR  HZ EP        541 33.46                             153    0.6810 66.5 296 
 BRR  HN ES        541 48.69                             153    0.1310 66.5 296 
 BRR  HZ I         541 54.84         8.0 0.34            149           66.5 296 
 RUS  HZ EP     D  541 35.86                             141   -0.2110  105 175 
 RUS  HN ES        541 53.98                             141   -0.4210  105 175 
 RUS  HZ I         541 55.32         4.0 0.20            145            105 175 
 PTB  HZ EP        541 38.36                             131   -0.50 9  146 257 
 PTB  HN ES        541 58.95                             131   -0.42 9  146 257 
 PTB  HZ I         542  6.74         5.9 0.40            131            146 257 
 SPBC HZ EP        541 40.67                             127   -0.09 9  165 217 
 SPBC HN ES        542  3.20                             127    0.45 9  165 217 
 SPBC HZ I         542  6.94         7.0 0.46            129            165 217 
 ZAR  HZ EP        541 45.04                             122    0.88 9  200 291 
 ZAR  HN ES        542  8.59                             122   -0.21 9  200 291 
 ZAR  HZ I         542 15.02         5.4 0.40            122            200 291 
 SML  HZ EP        541 48.08                             117   -0.19 8  238 335 
 SML  HN ES        542 15.64                             117   -0.49 8  238 335 
 SML  HZ I         542 21.89         5.3 0.24            119            238 335 
 SJC  HZ EP   4    542  5.53                             105   -1.77 0  404 327 
 SJC  HN ES   4    542 47.86                             105   -2.13 0  404 327 
 SJC  HZ I         542 51.48         1.3 0.58            107            404 327 
                                                                                
