 2010 1116 0107  0.7 L   6.762 -73.076156.8  RSN  9 0.4 2.0LRSN                1
 GAP=190        0.73       3.8     8.2  7.6  0.3150E+00  0.5515E+01  0.3246E+01E
 Epicentro: LOS SANTOS - SANTANDER                                             3
 ACTION:UP  10-12-17 16:52 OP:REBC STATUS:               ID:20101116010700 L   I
 2010-11-16-0104-13S.COL___129                                                 6
 STAT SP IPHASW D HRMM SECON CODA AMPLIT PERI AZIMU VELO SNR AR TRES W  DIS CAZ7
 BAR2 SZ EP   1    1 7 21.29                             172    -0.3 7   22 212 
 BAR2 SZ I         1 7 39.98        12.2 0.23                            22 212 
 BRR  HZ IP     C  1 7 23.89                             151     0.410   80 299 
 BRR  HZ I         1 7 25.44        21.8 0.12                            80 299 
 BRR  HE ES   1    1 7 41.44                             151     0.1 7   80 299 
 RUS  HZ EP   1    1 7 24.91                             147    -0.3 7   96 180 
 RUS  HZ I         1 7 27.45         4.8 0.49                            96 180 
 RUS  HE ES   1    1 7 44.53                             147     0.1 7   96 180 
 OCA  SZ EP   1    1 7 30.71                             131     0.4 7  165 351 
 OCA  SZ ES   1    1 7 52.98                             131    -0.5 7  165 351 
 OCA  SZ I         1 8  0.32        12.9 0.31                           165 351 
 NOR  SZ EP   2    1 7 36.84                             120    -0.7 4  239 236 
 NOR  SN ES   2    1 8  5.59                             120    -0.6 4  239 236 
 CHI  HZ EP   2    1 7 38.83                             119     0.0 4  247 197 
 CHI  HZ I         1 8 17.66         3.4 0.46                           247 197 
 HEL  HZ EP   2    1 7 42.45                             116     0.3 4  279 257 
 HEL  HZ I         1 8 19.98         4.2 0.33                           279 257 
 RREF HZ EP   2    1 7 47.71                             112     0.0 3  325 231 
 RREF HZ I         1 8 34.16         4.4 0.20                           325 231 
 PRA  HZ EP   2    1 7 54.92                             108     0.3 3  392 211 
 PRA  HZ I         1 7 57.62         8.1 0.20                           392 211 
 PRA  HE ES   2    1 8 36.93                             108     0.2 3  392 211 
                                                                                
