 2017 1116 0842 42.9 L   6.841 -73.120148.6  RSN 34 1.3 3.2LRSN 3.6WRSN        1
 SPEC AVERAGE  MO 14.5 ST0.395 OM  2.6 f0 1.18 R1.7316 AL 0.00 WI 30.0 MW  3.6 3
 SPEC SD       MO  0.3 ST 28.5 OM  0.6 f00.711 R0.5583 AL      WI      MW  0.2 3
 GAP= 67        2.06       4.2     4.7  8.6  0.5139E+00  0.1399E+02 -0.1610E+01E
 Epicentro: LOS SANTOS - SANTANDER                                             3
 SPEC RUS HH Z MO 14.7 ST0.730 OM  2.7 f0 1.36 R1.4147 AL 0.00 WI 30.0 MW  3.7 3
 SPEC RUS HH Z T 84324 K 0.000 GD  181 VS 5.20 DE 3.50 Q0750.0 QA 1.50 VS 3.50 3
 SPECGUY2CHH Z MO 14.7 ST0.211 OM  2.5 f00.851 R2.2609 AL 0.00 WI 30.0 MW  3.8 3
 SPECGUY2CHH Z T 844 0 K 0.000 GD  340 VS 5.20 DE 3.50 Q0750.0 QA 1.50 Q1 0.00 3
 SPEC PTGCHH Z MO 14.6 ST0.771 OM  2.3 f0 1.52 R1.2658 AL 0.00 WI 30.0 MW  3.6 3
 SPEC PTGCHH Z T 84358 K 0.000 GD  345 VS 5.20 DE 3.50 Q0750.0 QA 1.50 VS 3.50 3
 SPEC ELA HH Z MO 14.7 ST0.157 OM  2.4 f00.812 R2.3695 AL 0.00 WI 30.0 MW  3.7 3
 SPEC ELA HH Z T 844 4 K 0.000 GD  365 VS 5.20 DE 3.50 Q0750.0 QA 1.50 VS 3.50 3
 SPEC CBOCHH Z MO 14.5 ST0.115 OM  2.2 f00.851 R2.2609 AL 0.00 WI 30.0 MW  3.6 3
 SPEC CBOCHH Z T 844 5 K 0.000 GD  369 VS 5.20 DE 3.50 Q0750.0 QA 1.50 VS 3.50 3
 SPEC ANILHH Z MO 14.4 ST0.917 OM  2.1 f0 1.80 R1.0689 AL 0.00 WI 30.0 MW  3.5 3
 SPEC ANILHH Z T 84412 K 0.000 GD  392 VS 5.20 DE 3.50 Q0750.0 QA 1.50 VS 3.50 3
 SPEC PRA HH Z MO 14.4 ST0.340 OM  2.1 f0 1.26 R1.5270 AL 0.00 WI 30.0 MW  3.6 3
 SPEC PRA HH Z T 84416 K 0.000 GD  423 VS 5.20 DE 3.50 Q0750.0 QA 1.50 VS 3.50 3
 SPEC ORTCHH Z MO 14.4 ST0.282 OM  2.1 f0 1.18 R1.6305 AL 0.00 WI 30.0 MW  3.6 3
 SPEC ORTCHH Z T 84419 K 0.000 GD  427 VS 5.20 DE 3.50 Q0750.0 QA 1.50 VS 3.50 3
 SPEC SJC HH Z MO 14.5 ST0.359 OM  2.2 f0 1.18 R1.6305 AL 0.00 WI 30.0 MW  3.6 3
 SPEC SJC HH Z T 84417 K 0.000 GD  433 VS 5.20 DE 3.50 Q0750.0 QA 1.50 VS 3.50 3
 SPEC PAL HH Z MO 14.4 ST0.136 OM  2.0 f00.992 R1.9395 AL 0.00 WI 30.0 MW  3.5 3
 SPEC PAL HH Z T 84422 K 0.000 GD  436 VS 5.20 DE 3.50 Q0750.0 QA 1.50 VS 3.50 3
 SPEC MACCHH Z MO 14.5 ST0.145 OM  2.1 f00.871 R2.2090 AL 0.00 WI 30.0 MW  3.6 3
 SPEC MACCHH Z T 84527 K 0.000 GD  545 VS 5.20 DE 3.50 Q0750.0 QA 1.50 VS 3.50 3
 OLDACT:REG 17-11-16 13:52 OP:y    STATUS:               ID:20171116083739     3
 ACTION:UPD 17-12-12 19:56 OP:rebc STATUS:               ID:20171116084242 L   I
 OLDACT:UP  17-11-16 19:35 OP:leo  STATUS:               ID:20171116083739     3
 2017-11-16-0838-00M.COL___411                                                 6
 STAT SP IPHASW D HRMM SECON CODA AMPLIT PERI AZIMU VELO AIN AR TRES W  DIS CAZ7
 BAR2 EZ IP     C  843  3.02                             169    0.0310 28.3 194 
 BAR2 HN ES        843 18.04                             169   -0.6110 28.3 194 
 BAR2 EZ I         843 18.85       540.1 0.22            166           28.3 194 
 PAM  EE EP        843  5.94                             152    0.8110 72.1  40 
 PAM  EN ES        843 22.93                             152    0.4810 72.1  40 
 RUS  HZ EP        843  7.04                             143   -0.2210  105 178 
 RUS  HN ES        843 25.75                             143   -0.4910  105 178 
 RUS  HZ I         843 27.17       366.6 0.42            141            105 178 
 PTB  HZ EP        843  9.91                             132   -0.54 9  151 257 
 PTB  HN ES        843 31.30                             132   -0.63 9  151 257 
 PTB  HZ I         843 32.98       148.1 0.74            128            151 257 
 TAM  HZ IP     C  843 11.42                             131    0.75 9  154 107 
 TAM  HN ES        843 33.20                             131    0.87 9  154 107 
 SPBC HZ EP        843 12.10                             129   -0.03 9  168 219 
 SPBC HN ES        843 34.33                             129   -0.59 9  168 219 
 SPBC HZ I         843 37.26       220.8 0.20            125            168 219 
 YPLC HZ IP     C  843 13.50                             126    0.33 9  179 153 
 YPLC HN ES        843 37.18                             126    0.41 9  179 153 
 YPLC HZ I         843 39.92       352.4 0.26            125            179 153 
 ZAR  HZ EP        843 16.02                             123    0.37 9  205 291 
 ZAR  HN ES        843 41.88                             123    0.70 9  205 291 
 ZAR  HZ I         843 49.79       195.0 0.48            120            205 291 
 NOR  HZ EP        843 19.63                             118    0.29 8  240 234 
 NOR  HN ES        843 48.07                             118    0.32 8  240 234 
 NOR  HZ I         843 52.06        91.5 0.26            116            240 234 
 CHI  HZ EP        843 21.35                             117    0.03 8  254 196 
 CHI  HN ES        843 50.06                             117   -1.22 8  254 196 
 CHI  HZ I         843 53.76        63.7 0.28            115            254 196 
 ROSC BZ EP   4    843 22.84                             116    1.07 0  258 211 
 ROSC BN ES   4    843 53.34                             116    1.27 0  258 211 
 ROSC BZ I         843 59.55       118.7 0.60            114            258 211 
 URE  HZ EP        843 23.31                             114   -0.92 7  285 291 
 URE  HN ES        843 55.88                             114   -0.59 7  285 291 
 URE  HZ I         843 57.05       163.6 0.12            112            285 291 
 GUY2CHZ EP        843 27.80                             112    0.59 7  306 234 
 GUY2CHE ES        844  2.04                             112    0.28 7  306 234 
 GUY2CHZ I         844 10.60        74.8 0.62                           306 234 
 PTGC HZ EP        843 26.37                             112   -0.88 7  312 159 
 PTGC HN ES        843 59.58                             112   -2.26 7  312 159 
 PTGC HZ I         844  1.86       131.6 0.34            110            312 159 
 ELA  HZ EP        843 32.73                             110    2.26 7  334 229 
 ELA  HN ES        844  5.91                             110   -1.65 7  334 229 
 ELA  HZ I         844 23.06        55.7 0.44            108            334 229 
 CBOC HZ EP        843 31.17                             110    0.75 7  338 252 
 CBOC HE ES        844  7.39                             110   -0.08 7  338 252 
 CBOC HZ I         844 12.02        24.5 0.18            108            338 252 
 DBB  EZ EP        843 31.21                             110    0.41 7  342 273 
 DBB  EN ES        844  7.05                             110   -1.10 7  342 273 
 DBB  EZ I         844 10.50        54.7 0.38            108            342 273 
 ARGC HZ EP        843 33.83                             109    1.53 6  356 340 
 ARGC HN ES        844 13.20                             109    2.38 6  356 340 
 ARGC HZ I         844 17.77        29.3 0.28            107            356 340 
 ANIL HZ EP        843 34.59                             108    1.16 6  363 224 
 ANIL HN ES        844 13.63                             108    0.80 6  363 224 
 ANIL HZ I         844 19.05       154.1 0.30            107            363 224 
 PRA  HZ EP        843 36.92                             106   -0.23 6  397 210 
 PRA  HN ES        844 18.33                             106   -1.13 6  397 210 
 PRA  HZ I         844 26.37        59.9 0.30            105            397 210 
 ORTC HZ EP        843 37.86                             106    0.31 6  401 216 
 ORTC HN ES        844 21.24                             106    1.07 6  401 216 
 ORTC HZ I         844 26.01        50.6 0.46            105            401 216 
 SJC  HZ EP        843 37.94                             106   -0.37 6  407 326 
 SJC  HN ES        844 19.09                             106   -2.43 6  407 326 
 SJC  HZ I         844 22.78        72.8 0.52            105            407 326 
 PAL  HZ EP        843 38.94                             106    0.21 6  410 239 
 PAL  HN ES        844 23.97                             106    1.71 6  410 239 
 PAL  HZ I         844 27.87        35.9 0.30            104            410 239 
 LCBC HZ EP        843 38.08                             105   -1.89 5  422 302 
 LCBC HN ES        844 26.85                             105    2.38 5  422 302 
 LCBC HZ I         844 37.71        37.3 0.72            104            422 302 
 CRJC HZ EP        843 43.79                             104   -1.15 5  463   3 
 CRJC HN ES        844 29.34                             104   -3.98 5  463   3 
 CRJC HZ I         844 40.16        35.2 0.18                           463   3 
 YOT  HZ EP        843 46.23                             103   -0.41 5  477 229 
 YOT  HZ I         844 43.34         8.3 0.52                           477 229 
 SMAR HZ EP        843 48.11                             103   -0.31 4  493 346 
 SMAR HN ES        844 37.67                             103   -1.84 4  493 346 
 SMAR HZ I         844 38.30        16.7 0.16            102            493 346 
 CAP2 HZ EP   4    843 48.96                             102   -1.28 0  509 293 
 CAP2 HN ES   4    844 40.84                             102   -1.92 0  509 293 
 CAP2 HZ I         844 42.88        18.5 0.34            101            509 293 
 MACC HZ EP   4    844 35.30                             102   43.03 0  525 189 
 MACC HN ES   4    845 29.42                             102   43.04 0  525 189 
 JAMC HZ EP        843 56.69                             101   -0.23 3  562 225 
 JAMC HE ES        844 58.96                             101    4.32 3  562 225 
 GARC HZ EP        843 57.51                             100   -1.35 3  578 207 
 GARC HE ES        844 54.12                             100   -3.99 3  578 207 
 POP2 HZ EP        844  3.64                              99    0.02 3  618 220 
 FLO2 HZ EP        844  6.18                              99   -0.55 2  646 206 
 SOTO HZ EP        844 10.18                              99    2.55 2  648 217 
 SOTO HN ES        845 18.39                              99    4.68 2  648 217 
 BBAC HZ EP        844 14.39                              98    0.58 1  703 221 
 BBAC HN ES        845 23.61                              98   -1.10 1  703 221 
                                                                                
