 2016  716 0835  6.4 L   6.772 -73.176148.0  RSN  7 0.4 1.4LRSN                1
 GAP=134        0.87       4.3     4.2  6.1  0.3489E+01  0.1212E+01 -0.1418E+01E
 Epicentro: LOS SANTOS - SANTANDER                                             3
 ACTION:UPD 17-03-29 16:51 OP:lp   STATUS:               ID:20160716083506 L   I
 OLDACT:REG 16-07-16 12:30 OP:lv   STATUS:               ID:20160716082759     3
 2016-07-16-0827-59S.COL___316                                                 6
 STAT SP IPHASW D HRMM SECON CODA AMPLIT PERI AZIMU VELO AIN AR TRES W  DIS CAZ7
 BAR2 EZ EP        835 25.99                             172   -0.2610 19.9 182 
 BAR2 EZ ES        835 41.44                             172   -0.2810 19.9 182 
 BAR2 EZ I         835 43.02         4.9 0.16            174           19.9 182 
 BRR  HZ EP   2    835 27.96                             153    0.23 5 69.8 302 
 BRR  HE ES        835 44.88                             153    0.5210 69.8 302 
 BRR  HZ I         835 47.25         4.9 0.24            148           69.8 302 
 PAM  EZ EP        835 28.95                             150   -0.2010 81.9  40 
 PAM  EZ I         835 48.00         4.3 0.56            138           81.9  40 
 RUS  HZ EP        835 30.32                             145    0.1310 97.8 174 
 RUS  HN ES        835 49.01                             145    0.2810 97.8 174 
 RUS  HZ I         835 49.81         3.1 0.22            145           97.8 174 
 PTB  HZ EP        835 32.67                             133   -0.55 9  144 260 
 PTB  HN ES        835 53.72                             133   -0.41 9  144 260 
 PTB  HZ I         835 55.35         2.9 0.34            131            144 260 
 SPBC HZ EP        835 35.18                             130    0.52 9  159 219 
 SPBC HE ES        835 56.60                             130   -0.10 9  159 219 
 SPBC HZ I         836  1.32         3.2 0.10            130            159 219 
 ZAR  HZ EP   2    835 39.51                             123    0.70 4  202 293 
 ZAR  HE ES        836  4.25                             123    0.17 9  202 293 
 ZAR  HZ I         836 12.19         2.3 0.50            118            202 293 
                                                                                
