 2012  916 0434 16.7 L   6.686 -73.163149.5  RSN  4 0.2 1.3LRSN                1
 GAP=179        0.49       5.2     7.1  6.6  0.2324E+02 -0.8822E+01 -0.1284E+01E
 Epicentro: VILLANUEVA - SANTANDER                                             3
 ACTION:UPD 12-10-22 14:19 OP:ep   STATUS:               ID:20120916043416 L   I
 2012-09-16-0430-00M.COL___227                                                 6
 STAT SP IPHASW D HRMM SECON CODA AMPLIT PERI AZIMU VELO AIN AR TRES W  DIS CAZ7
 GIR2 SZ EP   2    434 36.78                             163   -0.45 5 43.6 356 
 BRR  HZ EP   1    434 38.47                             151   -0.11 7 76.5 308 
 BRR  HZ I         434 39.22         7.3 0.16                          76.5 308 
 BRR  HN ES        434 55.76                             151    0.1310 76.5 308 
 RUS  HZ EP   1    434 40.38                             148    0.37 7 88.2 174 
 RUS  HE ES   1    434 57.99                             148   -0.18 7 88.2 174 
 RUS  HZ I         435  0.01         3.5 0.46                          88.2 174 
 PTB  HZ EP   2    434 43.61                             134   -0.06 5  144 264 
 PTB  HN ES   2    435  4.49                             134   -0.19 5  144 264 
 PTB  HZ I         435  8.54         1.3 0.10                           144 264 
                                                                                
