 2014 1216 0624 14.0 L   6.756 -73.150142.6  RSN  8 0.4 1.5LRSN                1
 GAP= 96        0.94       4.5     3.6  6.3 -0.7444E+00  0.1027E+01  0.4359E+01E
 Epicentro: LOS SANTOS - SANTANDER                                             3
 ACTION:UPD 15-02-10 17:04 OP:nd   STATUS:               ID:20141216062414 L   I
 OLDACT:REG 14-12-16 13:08 OP:spq  STATUS:               ID:20141216061742     3
 2014-12-16-0617-42M.COL___287                                                 6
 STAT SP IPHASW D HRMM SECON CODA AMPLIT PERI AZIMU VELO AIN AR TRES W  DIS CAZ7
 BAR2 EZ EP   1    624 33.20                             172    0.02 7 18.4 191 
 BAR2 EZ ES   1    624 47.92                             172   -0.21 7 18.4 191 
 BAR2 EZ I         624 48.95        10.3 0.20            172           18.4 191 
 BRR  HZ EP        624 35.26                             151    0.3110 73.3 302 
 BRR  HN ES        624 51.86                             151    0.5810 73.3 302 
 BRR  HZ I         624 52.43         5.0 0.38            150           73.3 302 
 PAM  SZ EP     C  624 36.27                             149    0.1110 81.5  38 
 PAM  SN ES        624 52.89                             149   -0.5310 81.5  38 
 PAM  SZ I         624 55.13         4.5 0.52            151           81.5  38 
 RUS  HZ EP   1    624 36.81                             144   -0.31 7 95.7 176 
 RUS  HN ES   1    624 55.62                             144    0.49 7 95.7 176 
 RUS  HZ I         624 57.25         4.2 0.40            146           95.7 176 
 PTB  HZ EP        624 40.03                             131   -0.59 9  146 261 
 PTB  HE ES        625  0.87                             131   -0.49 9  146 261 
 PTB  HZ I         625  3.98         3.8 0.14            132            146 261 
 TAM  HZ EP        624 41.54                             130    0.16 9  154 103 
 SPBC HZ EP        624 42.35                             129    0.45 9  159 220 
 SPBC HN ES   1    625  3.32                             129   -0.31 7  159 220 
 SPBC HZ I         625  5.49         4.7 0.10            130            159 220 
 ZAR  HZ EP   1    624 46.18                             121   -0.24 6  206 293 
 ZAR  HN ES        625 11.97                             121    0.28 8  206 293 
 ZAR  HZ I         625 18.10         2.7 0.40            122            206 293 
                                                                                
