 2017  416 0541  8.3 L   6.807 -73.171147.4  RSN 28 0.6 2.7LRSN                1
 GAP=109        1.14       2.8     3.1  4.9  0.8007E+00  0.4446E+01  0.2546E+01E
 Epicentro: LOS SANTOS - SANTANDER                                             3
 ACTION:UPD 17-05-30 21:12 OP:jn   STATUS:               ID:20170416054108 L   I
 OLDACT:UP  17-04-16 16:13 OP:dani STATUS:               ID:20170416053742     3
 OLDACT:UP  17-04-16 16:13 OP:dani STATUS:               ID:20170416053742     3
 OLDACT:UP  17-04-16 16:13 OP:dani STATUS:               ID:20170416053742     3
 OLDACT:UP  17-04-16 16:12 OP:dani STATUS:               ID:20170416053742     3
 OLDACT:UP  17-04-16 16:11 OP:dani STATUS:               ID:20170416053742     3
 OLDACT:UP  17-04-16 16:11 OP:dani STATUS:               ID:20170416053742     3
 OLDACT:REG 17-04-16 14:15 OP:dani STATUS:               ID:20170416053742     3
 2017-04-16-0538-00M.COL___368                                                 6
 STAT SP IPHASW D HRMM SECON CODA AMPLIT PERI AZIMU VELO AIN AR TRES W  DIS CAZ7
 BAR2 EZ EP        541 28.20                             171    0.0410 23.7 183 
 BAR2 EZ ES        541 43.22                             171   -0.4110 23.7 183 
 BAR2 EZ I         541 46.01       188.5 0.28            169           23.7 183 
 BRR  HZ IP     C  541 29.96                             154    0.4610 68.4 299 
 BRR  HN ES        541 47.10                             154    1.0910 68.4 299 
 BRR  HZ I         541 51.02        96.6 0.30            151           68.4 299 
 PAM  EZ EP     C  541 30.98                             150    0.1910 78.6  41 
 PAM  EN ES        541 48.39                             150    0.0810 78.6  41 
 PAM  EZ I         541 51.26        47.3 0.38            154           78.6  41 
 RUS  HZ EP        541 32.09                             144   -0.2210  102 175 
 RUS  HN ES        541 50.70                             144   -0.3110  102 175 
 RUS  HZ I         541 52.20        73.1 0.34            145            102 175 
 PTB  HZ EP        541 34.72                             133   -0.48 9  145 258 
 PTB  HN ES        541 55.90                             133   -0.25 9  145 258 
 PTB  HZ I         542  2.38        42.5 0.42            131            145 258 
 SPBC HZ EP        541 36.94                             130    0.10 9  162 218 
 SPBC HN ES        541 59.05                             130   -0.03 9  162 218 
 SPBC HZ I         542  1.57        85.7 0.66            129            162 218 
 YPLC HZ IP     D  541 38.56                             127    0.12 9  179 151 
 YPLC HE ES        542  1.77                             127   -0.15 9  179 151 
 YPLC HZ I         542  3.51        63.4 0.26            128            179 151 
 ZAR  HZ EP        541 40.74                             123    0.15 9  201 292 
 ZAR  HE ES        542  6.22                             123    0.47 9  201 292 
 ZAR  HZ I         542 12.01        60.4 0.36            122            201 292 
 TABC EZ EP   3    541 45.68                             120    1.59 2  229 210 
 TABC EZ ES        542 11.57                             120   -0.42 8  229 210 
 NOR  HZ EP        541 44.27                             119    0.31 8  233 234 
 NOR  HN ES        542 11.73                             119   -0.02 8  233 234 
 NOR  HZ I         542 17.88        27.3 0.11            119            233 234 
 CHI  HZ EP        541 46.42                             117    0.30 8  249 195 
 CHI  HN ES        542 15.56                             117   -0.03 8  249 195 
 CHI  HZ I         542 21.78        24.0 0.32            118            249 195 
 ROSC BZ EP   3    541 48.03                             117    1.58 2  252 210 
 ROSC BN ES        542 15.68                             117   -0.51 8  252 210 
 ROSC BZ I         542 22.81        76.5 0.45            117            252 210 
 HEL  HZ EP   3    541 49.77                             115    1.42 2  270 255 
 HEL  HN ES        542 20.35                             115    0.79 8  270 255 
 HEL  HZ I         542 28.46        16.9 0.34            115            270 255 
 URE  HZ EP        541 48.58                             114   -0.58 7  281 292 
 URE  HN ES        542 18.82                             114   -2.18 7  281 292 
 URE  HZ I         542 29.56        29.8 0.30            114            281 292 
 VIL  EZ EP        541 51.68                             112   -0.16 7  304 191 
 VIL  HN ES        542 25.70                             112   -0.08 7  304 191 
 VIL  EZ I         542 36.04        35.8 0.46            113            304 191 
 PTGC HZ IP   3 D  541 51.23                             112   -1.22 2  310 158 
 PTGC HN ES   4    542 24.55                             112   -2.32 0  310 158 
 PTGC HZ I         542 29.56        18.8 0.34            113            310 158 
 ELA  HZ EP   9    541 57.61                             111    2.55 0  327 229 
 ELA  HN ES        542 33.59                             111   -0.47 7  327 229 
 ELA  HZ I         542 40.83        20.7 0.56            111            327 229 
 CBOC HZ EP        541 55.76                             110    0.73 7  331 252 
 CBOC HN ES        542 31.81                             110    0.35 7  331 252 
 CBOC HZ I         542 42.89         6.4 0.48            110            331 252 
 DBB  EZ EP        541 56.36                             110    0.82 7  337 274 
 DBB  EN ES        542 31.44                             110   -0.93 7  337 274 
 DBB  EZ I         542 33.38        11.3 0.18            110            337 274 
 ANIL HZ EP   9    542  0.11                             109    2.08 0  356 224 
 ANIL HN ES        542 39.30                             109    0.42 6  356 224 
 ARGC HZ EP   9    541 59.50                             109    1.64 0  358 341 
 ARGC HE ES        542 37.97                             108   -0.16 6  358 341 
 ARGC HZ I         542 47.63         9.1 0.16            109            358 341 
 PRA  HZ EP        542  1.54                             107   -0.28 6  391 209 
 PRA  HN ES        542 43.07                             107   -0.47 6  391 209 
 PRA  HZ I         542 50.39        39.4 0.38            107            391 209 
 ORTC HZ EP        542  2.48                             107    0.30 6  394 216 
 ORTC HN ES        542 45.36                             107    1.17 6  394 216 
 ORTC HZ I         542 51.99         9.2 0.42            107            394 216 
 PAL  HZ EP        542  3.64                             106    0.33 6  404 239 
 PAL  HN ES        542 46.02                             106   -0.17 6  404 239 
 PAL  HZ I         542 50.08         5.4 0.40            106            404 239 
 SJC  HZ EP   3    542  1.79                             106   -1.90 1  407 327 
 SJC  HN ES   4    542 43.60                             106   -3.28 0  407 327 
 SJC  HZ I         542 57.91        10.6 0.74            106            407 327 
 SMAR HZ EP        542 13.41                             103   -0.67 4  496 347 
 SMAR HN ES   4    543  1.12                             103   -4.24 0  496 347 
 MACC HZ EP   3    542 15.19                             102   -1.93 1  521 188 
 FLO2 HZ EP        542 30.87                              99   -0.55 2  640 206 
                                                                                
