 2017  416 0246  8.5 L   6.829 -73.182142.9  RSN  4 0.2 1.2LRSN                1
 GAP=131        0.59       3.5     3.2  5.6 -0.2518E+01  0.3322E+01 -0.1462E+00E
 Epicentro: ZAPATOCA - SANTANDER                                               3
 ACTION:UPD 17-05-30 21:12 OP:jn   STATUS:               ID:20170416024608 L   I
 OLDACT:DUP 17-04-16 15:14 OP:dani STATUS:               ID:20170416023646d    3
 OLDACT:UP  17-04-16 15:14 OP:dani STATUS:               ID:20170416023645     3
 OLDACT:UP  17-04-16 15:14 OP:dani STATUS:               ID:20170416023645     3
 OLDACT:REG 17-04-16 14:01 OP:dani STATUS:               ID:20170416023645     3
 2017-04-16-0238-00M.COL___368                                                 6
 STAT SP IPHASW D HRMM SECON CODA AMPLIT PERI AZIMU VELO AIN AR TRES W  DIS CAZ7
 BRR  HZ EP        246 29.22                             154    0.1510 66.2 298 
 BRR  HE ES        246 45.36                             154    0.2610 66.2 298 
 BRR  HZ I         246 45.80         3.0 0.24            155           66.2 298 
 PAM  EZ EP        246 30.29                             150   -0.1410 77.6  43 
 PAM  HN ES        246 47.41                             150   -0.1210 77.6  43 
 PAM  EZ I         246 49.55         3.2 0.46            150           77.6  43 
 RUS  HN ES        246 50.82                             142    0.0710  104 174 
 PTB  HZ EP        246 35.12                             132    0.17 9  145 257 
 PTB  HN ES        246 55.17                             132   -0.40 9  145 257 
                                                                                
