 2017  816 0731  2.0 L   7.105 -73.403103.5  RSN  9 0.5 1.5LRSN                1
 GAP=147        0.85       3.6     2.9  4.9  0.1988E+01  0.2617E+01  0.2813E+01E
 Epicentro: LEBRIJA - SANTANDER                                                3
 ACTION:UPD 17-09-04 20:20 OP:rebc STATUS:               ID:20170816073102 L   I
 OLDACT:DUP 17-08-16 15:28 OP:mg   STATUS:               ID:20170816072737d    3
 OLDACT:UP  17-08-16 15:27 OP:mg   STATUS:               ID:20170816072736     3
 OLDACT:UP  17-08-16 15:27 OP:mg   STATUS:               ID:20170816072736     3
 OLDACT:UP  17-08-16 15:26 OP:mg   STATUS:               ID:20170816072736     3
 OLDACT:UP  17-08-16 15:26 OP:mg   STATUS:               ID:20170816072736     3
 OLDACT:REG 17-08-16 12:28 OP:mg   STATUS:               ID:20170816072736     3
 2017-08-16-0728-00M.COL___413                                                 6
 STAT SP IPHASW D HRMM SECON CODA AMPLIT PERI AZIMU VELO AIN AR TRES W  DIS CAZ7
 BRR  HZ EP        731 16.27                             160   -0.3510 34.2 270 
 BRR  HN ES        731 27.98                             160   -0.0410 34.2 270 
 BRR  HZ I         731 28.74        13.8 0.12            160           34.2 270 
 BAR2 EZ EP     D  731 18.42                             147   -0.0610 61.8 157 
 BAR2 EZ ES        731 31.74                             147    0.4210 61.8 157 
 BAR2 EZ I         731 32.73        12.3 0.30            147           61.8 157 
 PAM  EZ EP        731 20.60                             139    0.2910 81.9  72 
 PAM  EN ES   4    731 37.36                             139    2.78 0 81.9  72 
 PAM  EZ I         731 38.15         7.4 0.48            142           81.9  72 
 RUS  HZ EP        731 24.89                             122   -0.72 9  139 165 
 RUS  HN ES        731 43.79                             122   -0.22 9  139 165 
 RUS  HZ I         731 45.31         3.9 0.16            123            139 165 
 ZAR  HZ EP        731 27.65                             117   -0.26 9  166 285 
 ZAR  HN ES        731 48.14                             117    0.04 9  166 285 
 ZAR  HZ I         731 49.69         6.4 0.26            118            166 285 
 SPBC HZ EP        731 29.47                             115    0.28 9  177 205 
 SPBC HN ES   3    731 48.38                             115   -1.99 2  177 205 
 SPBC HZ I         731 56.15         4.1 0.10            116            177 205 
 TAM  HZ EP        731 31.18                             113    0.27 9  193 112 
 TAM  HN ES   3    731 51.91                             113   -1.53 2  193 112 
 NOR  HZ EP        731 35.95                             108    0.17 8  235 224 
 NOR  HE ES        732  2.00                             108   -0.11 8  235 224 
 NOR  HZ I         732  7.51         1.5 0.32            109            235 224 
 GUY2CHZ EP        731 44.44                             103    0.44 7  301 226 
 GUY2CHN ES        732 17.20                             103    0.46 7  301 226 
 GUY2CHZ I         732 19.30         1.2 0.52                           301 226 
                                                                                
