 2013  216 0614 10.2 L   6.760 -73.164146.1  RSN  5 0.5 1.6LRSN                1
 GAP=136        1.28       7.0     7.3 11.3 -0.3664E+01  0.8565E+01  0.1114E+02E
 Epicentro: LOS SANTOS - SANTANDER                                             3
 ACTION:UPD 13-03-12 09:33 OP:ep   STATUS:               ID:20130216061410 L   I
 2013-02-16-0610-00M.COL___241                                                 6
 STAT SP IPHASW D HRMM SECON CODA AMPLIT PERI AZIMU VELO AIN AR TRES W  DIS CAZ7
 BAR2 SZ EP        614 29.70                             172   -0.0710 18.6 186 
 BRR  HZ EP        614 31.60                             152    0.2010 71.7 302 
 BRR  HN ES        614 48.78                             152    0.8310 71.7 302 
 BRR  HN I         614 48.90        12.5 0.22            151           71.7 302 
 PAM  SZ EP        614 32.60                             149   -0.1310 82.1  39 
 PAM  SN ES        614 49.77                             149   -0.5410 82.1  39 
 RUS  HZ EP        614 34.19                             145    0.5210 96.3 175 
 RUS  HN ES        614 51.94                             145   -0.0510 96.3 175 
 RUS  HN I         614 53.54         3.5 0.36            145           96.3 175 
 PTB  HZ EP        614 36.76                             133   -0.17 9  145 260 
 PTB  HE ES   1    614 56.53                             133   -1.26 7  145 260 
 PTB  HN I         615  2.74         6.2 0.42            132            145 260 
                                                                                
