 2011  316 0942 42.3 L   6.802 -73.129135.6  RSN  6 0.4 1.7LRSN                1
 GAP=160        0.91       3.9     9.8  9.0 -0.1687E+02  0.2407E+02 -0.3494E+01E
 Epicentro: LOS SANTOS - SANTANDER                                             3
 ACTION:UP  11-06-16 14:34 OP:jfem STATUS:               ID:20110316094242 L   I
 2011-03-16-0939-53S.COL___138                                                 6
 STAT SP IPHASW D HRMM SECON CODA AMPLIT PERI AZIMU VELO SNR AR TRES W  DIS CAZ7
 BAR2 SZ EP        943  0.64                             169    -0.110   24 194 
 BAR2 SZ ES   1    943 14.92                             169    -0.1 7   24 194 
 BAR2 SZ I         943 17.71        17.5 0.30                            24 194 
 RUS  HZ EP   1    943  4.64                             141    -0.4 7  101 177 
 RUS  HN ES   1    943 23.01                             141     0.2 7  101 177 
 RUS  HZ I         943 24.04         4.4 0.17                           101 177 
 GRA  SZ EP   1    943  6.65                             135     0.1 7  125  17 
 GRA  SZ ES   1    943 26.09                             135     0.6 7  125  17 
 GRA  SZ I         943 27.19        10.7 0.40                           125  17 
 OCA  SZ EP   1    943 10.36                             127     0.5 7  160 352 
 OCA  SZ ES   1    943 30.49                             127    -0.8 7  160 352 
 OCA  SZ I         943 34.14         9.3 0.29                           160 352 
 NOR  SN ES   1    943 45.55                             116     0.3 6  236 235 
 CHI  HZ EP   1    943 19.19                             115    -0.3 6  249 196 
 CHI  HN ES   1    943 48.68                             115     0.1 6  249 196 
 CHI  HZ I         943 58.67         1.9 0.55                           249 196 
                                                                                
