 2013  416 0355 47.0 L   6.823 -73.200135.1  RSN 10 0.3 2.0LRSN                1
 GAP=129        0.77       3.0     4.1  5.4 -0.2905E+01  0.5783E+01 -0.2249E+01E
 Epicentro: ZAPATOCA - SANTANDER                                               3
 ACTION:UPD 13-05-22 14:38 OP:EP   STATUS:               ID:20130416035547 L   I
 2013-04-16-0348-40M.COL___210                                                 6
 STAT SP IPHASW D HRMM SECON CODA AMPLIT PERI AZIMU VELO AIN AR TRES W  DIS CAZ7
 BAR2 SZ IP        356  5.50                             169    0.0710 25.6 176 
 BAR2 SZ ES   1    356 19.83                             169    0.05 7 25.6 176 
 BAR2 SZ I         356 21.57        51.7 0.22            171           25.6 176 
 GIR2 SZ EP        356  5.55                             167    0.2010 28.3   1 
 GIR2 SZ I         356 21.43        18.3 0.14            165           28.3   1 
 BRR  HZ IP     C  356  7.37                             153    0.7110 64.7 299 
 BRR  HN ES   1    356 21.52                             153   -0.45 7 64.7 299 
 BRR  HZ I         356 24.64        16.0 0.11            149           64.7 299 
 PAM  SZ IP     C  356  8.46                             148    0.2110 79.5  44 
 PAM  SN ES   1    356 24.61                             148   -0.20 7 79.5  44 
 PAM  SZ I         356 27.59        13.9 0.54            149           79.5  44 
 RUS  HZ EP        356  9.57                             141   -0.4110  104 173 
 RUS  HN ES   1    356 27.85                             141   -0.04 7  104 173 
 RUS  HZ I         356 29.68        10.2 0.26            143            104 173 
 PTB  HZ EP     C  356 12.13                             131   -0.51 9  142 257 
 PTB  HN ES   1    356 33.05                             131    0.42 7  142 257 
 PTB  HZ I         356 36.18        16.5 0.24            129            142 257 
 OCA  HZ EP        356 14.06                             128   -0.17 9  157 355 
 OCA  HN ES   1    356 35.45                             128    0.01 7  157 355 
 OCA  HZ I         356 39.06         8.5 0.30            127            157 355 
 NOR  HZ EP        356 21.97                             117    0.18 8  231 233 
 NOR  HN ES   1    356 48.81                             117   -0.10 6  231 233 
 NOR  HZ I         356 55.26        10.2 0.18            117            231 233 
 SML  HZ EP        356 22.44                             116   -0.11 8  239 336 
 SML  HN ES   2    356 49.92                             116   -0.34 4  239 336 
 SML  HZ I         356 57.60         8.2 0.09            115            239 336 
 HEL  HZ EP   4    356 27.96                             113    1.83 0  267 255 
 HEL  HN ES   4    356 54.81                             113   -1.83 0  267 255 
 HEL  HZ I         357  4.63         6.3 0.42            113            267 255 
                                                                                
