 2016  916 0227  5.1 L   6.806 -73.130146.7  RSN  7 0.4 1.4LRSN                1
 GAP=138        0.64       4.4     4.0  5.7 -0.4349E+01  0.2461E+01  0.7760E+01E
 Epicentro: LOS SANTOS - SANTANDER                                             3
 ACTION:UPD 17-08-17 21:12 OP:lp   STATUS:               ID:20160916022705 L   I
 OLDACT:REG 16-09-16 12:49 OP:ar   STATUS:               ID:20160916021735     3
 2016-09-16-0218-00M.COL___360                                                 6
 STAT SP IPHASW D HRMM SECON CODA AMPLIT PERI AZIMU VELO AIN AR TRES W  DIS CAZ7
 BAR2 EZ EP   2    227 24.51                             170   -0.30 5 24.3 194 
 BAR2 EZ ES   2    227 39.59                             170   -0.64 5 24.3 194 
 BAR2 EZ I         227 43.85         5.6 0.12            169           24.3 194 
 BRR  HZ EP        227 26.37                             152    0.0010 72.4 297 
 BRR  HN ES        227 43.30                             152    0.3110 72.4 297 
 PAM  EZ EP        227 27.38                             151    0.1110 75.8  39 
 PAM  EE ES        227 44.48                             151   -0.1210 75.8  39 
 PAM  EZ I         227 46.31         9.7 0.50            156           75.8  39 
 RUS  HZ EP   2    227 28.99                             144    0.06 5  101 177 
 RUS  HN ES   2    227 47.95                             144    0.39 5  101 177 
 RUS  HZ I         227 49.04         2.0 0.12            146            101 177 
 PTB  HZ EP   2    227 31.53                             132   -0.73 5  150 259 
 PTB  HN ES   2    227 52.37                             132   -1.11 5  150 259 
 PTB  HZ I         227 54.54         2.4 0.11            133            150 259 
 SPBC HZ EP        227 33.84                             129    0.06 9  165 219 
 SPBC HE ES   2    227 56.68                             129    0.50 5  165 219 
 SPBC HZ I         228  0.79         3.0 0.20            130            165 219 
 ZAR  HZ EP   2    227 37.88                             122    0.18 4  205 292 
 ZAR  HN ES   2    228  3.36                             122    0.20 4  205 292 
 ZAR  HZ I         228  9.17         1.7 0.29            124            205 292 
                                                                                
