 2017  316 0621  1.2 L   6.524 -73.511112.0  RSN  5 0.2 1.4LRSN                1
 GAP=125        0.47       2.8     2.5  3.7  0.3237E+01  0.3426E+01  0.1500E+01E
 Epicentro: EL CARMEN - SANTANDER                                              3
 ACTION:UPD 17-05-25 18:41 OP:jn   STATUS:               ID:20170316062101 L   I
 OLDACT:REG 17-03-16 13:20 OP:cara STATUS:               ID:20170316061740     3
 2017-03-16-0618-00M.COL___387                                                 6
 STAT SP IPHASW D HRMM SECON CODA AMPLIT PERI AZIMU VELO AIN AR TRES W  DIS CAZ7
 BAR2 EZ EP        621 17.04                             161   -0.2310 37.1  78 
 BAR2 EZ ES        621 29.65                             161   -0.1410 37.1  78 
 BAR2 EZ I         621 31.44        25.1 0.58            164           37.1  78 
 BRR  HZ EP        621 18.63                             146   -0.0110 68.2 341 
 BRR  HN ES        621 32.39                             146    0.1710 68.2 341 
 BRR  HZ I         621 34.16         4.2 0.12            149           68.2 341 
 RUS  HZ EP        621 20.48                             141   -0.0210 84.3 146 
 RUS  HN ES        621 35.78                             141    0.2410 84.3 146 
 RUS  HZ I         621 39.24         2.3 0.28            143           84.3 146 
 PTB  HZ IP     D  621 21.44                             134   -0.0910  105 271 
 PTB  HN ES        621 37.27                             134   -0.1010  105 271 
 PTB  HZ I         621 39.16         5.0 0.16            135            105 271 
 ZAR  HZ EP        621 29.66                             117    0.22 9  183 306 
 ZAR  HN ES   4    621 52.77                             117    1.32 0  183 306 
 ZAR  HZ I         621 55.13         3.7 0.26            119            183 306 
                                                                                
