 2016  316 0238 39.5 L   6.808 -73.199142.8  RSN  5 0.3 1.1LRSN                1
 GAP=145        0.56       4.8     5.8  6.6 -0.1321E+02  0.6422E+01  0.7880E+01E
 Epicentro: ZAPATOCA - SANTANDER                                               3
 ACTION:UPD 16-05-13 21:24 OP:cam  STATUS:               ID:20160316023839 L   I
 OLDACT:REG 16-03-16 14:08 OP:dnl  STATUS:               ID:20160316023750     3
 2016-03-16-0237-50M.COL___292                                                 6
 STAT SP IPHASW D HRMM SECON CODA AMPLIT PERI AZIMU VELO AIN AR TRES W  DIS CAZ7
 BAR2 EZ EP   2    238 58.88                             170    0.05 5 23.9 175 
 BAR2 EZ ES   2    239 14.55                             170    0.68 5 23.9 175 
 BAR2 EZ I         239 15.23         3.4 0.20            168           23.9 175 
 PAM  EZ EP        239  1.73                             149    0.0910 80.6  43 
 PAM  EE ES        239 18.63                             149   -0.2510 80.6  43 
 PAM  EZ I         239 20.81         3.0 0.58            154           80.6  43 
 RUS  HZ EP        239  3.31                             142    0.2010  102 173 
 RUS  HE ES   2    239 20.94                             142   -0.55 5  102 173 
 PTB  HZ EP   2    239  5.40                             132   -0.35 5  142 258 
 PTB  HE ES   2    239 26.26                             132    0.06 5  142 258 
 PTB  HZ I         239 29.91         1.5 0.25            132            142 258 
 CHI  HZ EP   2    239 16.91                             116   -0.10 4  248 194 
 CHI  HE ES   4    239 44.59                             116   -1.64 0  248 194 
 CHI  HZ I         239 51.27         0.8 0.38            117            248 194 
                                                                                
