 2016 1216 0945 52.0 L   6.794 -73.168145.5  RSN  5 0.2 1.3LRSN                1
 GAP=134        0.50       2.9     2.9  5.3 -0.2216E+01  0.4988E+01 -0.1399E+01E
 Epicentro: LOS SANTOS - SANTANDER                                             3
 ACTION:UPD 17-01-11 20:15 OP:rebc STATUS:               ID:20161216094552 L   I
 OLDACT:UP  16-12-16 18:51 OP:e    STATUS:               ID:20161216093750     3
 OLDACT:REG 16-12-16 12:55 OP:and  STATUS:               ID:20161216093750     3
 2016-12-16-0938-00M.COL___332                                                 6
 STAT SP IPHASW D HRMM SECON CODA AMPLIT PERI AZIMU VELO AIN AR TRES W  DIS CAZ7
 BAR2 EZ EP        946 11.59                             171    0.0310 22.4 184 
 BAR2 EZ ES   4    946 28.75                             171    1.91 0 22.4 184 
 BAR2 EZ I         946 29.35         6.7 0.22            175           22.4 184 
 BRR  HZ EP        946 13.38                             153    0.3810 69.3 300 
 PAM  EZ EP        946 14.15                             150   -0.1510 79.5  41 
 PAM  EE ES        946 31.65                             150   -0.0510 79.5  41 
 PAM  EZ I         946 40.18         2.5 0.38            151           79.5  41 
 RUS  HZ EP        946 15.72                             144    0.0410  100 175 
 RUS  HE ES        946 34.17                             144    0.0110  100 175 
 RUS  HZ I         946 37.03         3.1 0.25            151            100 175 
 PTB  HZ EP        946 18.47                             132   -0.23 9  145 259 
 PTB  HN ES        946 39.46                             132   -0.07 9  145 259 
                                                                                
