 2017  416 0239 22.4 L   6.808 -73.176149.1  RSN  8 0.5 1.4LRSN                1
 GAP=132        1.16       4.4     4.9  7.6 -0.3687E+00  0.5514E+01  0.6618E+01E
 Epicentro: LOS SANTOS - SANTANDER                                             3
 ACTION:UPD 17-05-30 21:12 OP:jn   STATUS:               ID:20170416023922 L   I
 OLDACT:UP  17-04-16 15:14 OP:dani STATUS:               ID:20170416023645     3
 OLDACT:UP  17-04-16 15:14 OP:dani STATUS:               ID:20170416023645     3
 OLDACT:REG 17-04-16 14:01 OP:dani STATUS:               ID:20170416023645     3
 2017-04-16-0238-00M.COL___368                                                 6
 STAT SP IPHASW D HRMM SECON CODA AMPLIT PERI AZIMU VELO AIN AR TRES W  DIS CAZ7
 BAR2 EZ EP        239 42.32                             170   -0.1710 23.9 182 
 BAR2 EZ ES        239 57.66                             170   -0.4610 23.9 182 
 BAR2 EZ I         239 58.62         7.0 0.26            171           23.9 182 
 BRR  HZ EP        239 44.19                             154    0.4210 67.8 299 
 BRR  HE ES        240  1.40                             154    0.9910 67.8 299 
 BRR  HZ I         240  2.35         4.3 0.21            151           67.8 299 
 PAM  EZ EP        239 45.36                             151    0.2610 78.9  42 
 PAM  EN ES        240  2.46                             151   -0.3210 78.9  42 
 PAM  EZ I         240  4.54         3.8 0.42            153           78.9  42 
 RUS  HZ EP        239 46.75                             144    0.1410  102 174 
 RUS  HN ES        240  5.35                             144   -0.1110  102 174 
 RUS  HZ I         240  6.13         2.9 0.28            147            102 174 
 PTB  HZ EP        239 49.10                             133   -0.31 9  145 258 
 PTB  HN ES        240 10.01                             133   -0.43 9  145 258 
 PTB  HZ I         240 16.10         2.9 0.60            132            145 258 
 SPBC HN ES        240 13.46                             130    0.06 9  162 218 
 ZAR  HZ EP   3    239 56.21                             124    1.46 2  201 292 
 ZAR  HN ES        240 19.44                             124   -0.51 9  201 292 
 ZAR  HZ I         240 27.32         2.6 0.50            123            201 292 
 CHI  HZ EP        239 59.78                             118   -0.55 8  249 194 
 CHI  HE ES        240 30.68                             118    0.80 8  249 194 
                                                                                
