 2013  416 0954 33.5 L   6.792 -73.143128.3  RSN  7 0.4 1.5LRSN                1
 GAP=183        1.02       5.9     6.8  8.3  0.8095E+01  0.1943E+02  0.3192E+01E
 Epicentro: LOS SANTOS - SANTANDER                                             3
 ACTION:UPD 13-05-22 14:38 OP:EP   STATUS:               ID:20130416095433 L   I
 2013-04-16-0948-50M.COL___210                                                 6
 STAT SP IPHASW D HRMM SECON CODA AMPLIT PERI AZIMU VELO AIN AR TRES W  DIS CAZ7
 BAR2 SZ EP        954 51.53                             169    0.5010 22.5 191 
 BAR2 SZ ES        955  4.52                             169   -0.1610 22.5 191 
 BAR2 SZ I         955  8.77        11.2 0.26            174           22.5 191 
 GIR2 SZ EP        954 50.65                             165   -0.5010 32.2 350 
 GIR2 SZ I         955  8.45         6.4 0.56            161           32.2 350 
 RUS  HZ EP        954 55.99                             140    0.4710 99.6 176 
 RUS  HE ES   4    955 14.66                             140    1.98 0 99.6 176 
 RUS  HZ I         955 15.48         3.3 0.26            143           99.6 176 
 PTB  HZ EP        954 58.33                             128   -0.80 9  148 259 
 PTB  HN ES   1    955 19.32                             128    0.22 7  148 259 
 PTB  HZ I         955 21.52         4.5 0.18            130            148 259 
 OCA  HE ES   1    955 21.84                             125    0.07 7  161 353 
 ZAR  HZ EP        955  5.17                             118    0.22 9  205 292 
 ZAR  HN ES   1    955 29.84                             118    0.37 6  205 292 
 ZAR  HZ I         955 35.96         4.6 0.28            119            205 292 
 PRA  HZ EP        955 26.20                             103   -0.21 6  391 210 
 PRA  HN ES   4    956  7.46                             103   -0.20 0  391 210 
 PRA  HZ I         956 12.98         1.7 0.26            104            391 210 
                                                                                
