 2016  416 0957 56.0 L   6.774 -73.143144.4  RSN  5 0.4 1.1LRSN                1
 GAP=138        1.04       5.7     5.1  8.8  0.9862E+00  0.1680E+02 -0.2663E+01E
 Epicentro: LOS SANTOS - SANTANDER                                             3
 ACTION:UPD 16-05-05 14:22 OP:rebc STATUS:               ID:20160416095756 L   I
 OLDACT:DUP 16-04-16 19:48 OP:ak   STATUS:               ID:20160416094747d    3
 OLDACT:REG 16-04-16 14:34 OP:ak   STATUS:               ID:20160416094746     3
 2016-04-16-0947-46M.COL___312                                                 6
 STAT SP IPHASW D HRMM SECON CODA AMPLIT PERI AZIMU VELO AIN AR TRES W  DIS CAZ7
 BAR2 EZ IP        958 15.46                             171    0.0610 20.5 192 
 BAR2 EZ ES        958 31.26                             171    0.7210 20.5 192 
 PAM  EZ EP   1    958 18.00                             150   -0.18 7 79.5  38 
 PAM  EN ES        958 35.14                             150   -0.3610 79.5  38 
 PAM  EZ I         958 36.27         2.1 0.16            153           79.5  38 
 RUS  HZ EP        958 19.94                             144    0.5510 97.7 176 
 RUS  HE ES        958 37.16                             144   -0.4910 97.7 176 
 RUS  HZ I         958 38.47         1.2 0.48            146           97.7 176 
 PTB  HZ EP        958 22.49                             132   -0.33 9  147 260 
 PTB  HN ES        958 43.35                             132   -0.40 9  147 260 
 PTB  HZ I         958 48.44         2.5 0.12            132            147 260 
 ZAR  HZ EP   2    958 28.91                             122    0.43 4  205 293 
 ZAR  HE ES        958 54.08                             122    0.25 8  205 293 
                                                                                
