 2017 1116 0200 44.5 L   6.775 -73.133146.4  RSN  4 0.4 1.4LRSN                1
 GAP=139        0.94       5.8     5.7  7.8 -0.1019E+02  0.1185E+02 -0.4103E+01E
 Epicentro: LOS SANTOS - SANTANDER                                             3
 ACTION:UPD 17-12-12 19:56 OP:rebc STATUS:               ID:20171116020044 L   I
 OLDACT:UP  17-11-16 14:42 OP:leo  STATUS:               ID:20171116015740     3
 OLDACT:REG 17-11-16 12:51 OP:leo  STATUS:               ID:20171116015740     3
 2017-11-16-0158-00M.COL___462                                                 6
 STAT SP IPHASW D HRMM SECON CODA AMPLIT PERI AZIMU VELO AIN AR TRES W  DIS CAZ7
 BAR2 EZ EP        2 1  4.24                             171    0.0710 20.9 195 
 BAR2 EZ ES        2 1 19.02                             171   -0.4910 20.9 195 
 BAR2 EZ I         2 1 20.13         9.0 0.46            170           20.9 195 
 PAM  EZ EP        2 1  7.05                             150    0.1810 78.7  37 
 PAM  EN ES        2 1 24.41                             150    0.1010 78.7  37 
 RUS  HZ EP        2 1  8.28                             145    0.1610 97.7 177 
 RUS  HN ES     C  2 1 26.66                             145    0.1210 97.7 177 
 RUS  HZ I         2 1 28.66         3.5 0.18            144           97.7 177 
 PTB  HZ EP        2 1 10.90                             132   -0.70 9  149 260 
 PTB  HE ES        2 1 33.26                             132    0.52 9  149 260 
 PTB  HZ I         2 1 34.19         2.0 0.40            132            149 260 
                                                                                
