 2017  416 0131 17.3 L   6.803 -73.161141.8  RSN 13 0.5 1.8LRSN                1
 GAP=110        1.09       3.4     3.7  5.6  0.1573E+01  0.4147E+01  0.3483E+01E
 Epicentro: LOS SANTOS - SANTANDER                                             3
 ACTION:UPD 17-05-30 21:12 OP:jn   STATUS:               ID:20170416013117 L   I
 OLDACT:UP  17-04-16 14:57 OP:dani STATUS:               ID:20170416012727     3
 OLDACT:REG 17-04-16 13:16 OP:dani STATUS:               ID:20170416012727     3
 2017-04-16-0128-00M.COL___368                                                 6
 STAT SP IPHASW D HRMM SECON CODA AMPLIT PERI AZIMU VELO AIN AR TRES W  DIS CAZ7
 BAR2 EZ EP        131 36.30                             170   -0.2110 23.4 186 
 BAR2 EZ ES        131 51.17                             170   -0.2810 23.4 186 
 BAR2 EZ I         131 52.52        34.9 0.24            168           23.4 186 
 BRR  HZ EP        131 38.38                             152    0.4010 69.6 299 
 BRR  HN ES        131 55.16                             152    1.0910 69.6 299 
 BRR  HZ I         131 56.40        14.8 0.12            151           69.6 299 
 PAM  EZ EP     C  131 39.34                             150    0.1510 78.2  41 
 PAM  EN ES        131 56.01                             150   -0.2210 78.2  41 
 PAM  EZ I         131 58.30         8.3 0.66            154           78.2  41 
 RUS  HZ EP        131 40.44                             143   -0.3110  101 175 
 RUS  HN ES        131 58.61                             143   -0.3910  101 175 
 RUS  HZ I         132  0.12         6.3 0.26            143            101 175 
 PTB  HZ EP        131 43.59                             131   -0.26 9  146 259 
 PTB  HN ES        132  3.70                             131   -0.83 9  146 259 
 PTB  HZ I         132  7.34         9.9 0.10            131            146 259 
 SPBC HZ EP        131 45.46                             128   -0.01 9  162 218 
 SPBC HN ES        132  7.13                             128   -0.28 9  162 218 
 SPBC HZ I         132 11.08         8.2 0.34            128            162 218 
 YPLC HZ EP        131 46.89                             125   -0.08 9  178 151 
 YPLC HN ES        132 10.50                             125    0.43 9  178 151 
 YPLC HZ I         132 13.20         6.1 0.24            127            178 151 
 ZAR  HZ EP        131 49.95                             122    0.58 9  202 292 
 ZAR  HE ES        132 13.90                             122   -0.44 9  202 292 
 ZAR  HZ I         132 23.11         9.4 0.28            122            202 292 
 NOR  HZ EP        131 53.06                             118    0.33 8  234 234 
 NOR  HN ES        132 20.58                             118    0.26 8  234 234 
 NOR  HZ I         132 27.68         4.2 0.21            118            234 234 
 CHI  HZ EP        131 54.82                             116   -0.00 8  249 195 
 CHI  HE ES        132 24.78                             116    0.73 8  249 195 
 CHI  HZ I         132 34.34         2.5 0.36            117            249 195 
 PTGC HZ EP   3    131 59.66                             111   -1.48 2  310 158 
 PTGC HN ES   3    132 32.88                             111   -2.41 2  310 158 
 PTGC HZ I         132 34.84         4.7 0.25            112            310 158 
 PRA  HZ EP        132 10.93                             106    0.26 6  391 209 
 SJC  HZ EP        132 11.99                             105   -0.65 6  408 327 
 SJC  HN ES   3    132 54.48                             105   -1.29 1  408 327 
                                                                                
