 2017  416 0738 38.9 L   7.575 -73.210131.4  RSN  7 0.3 1.6LRSN                1
 GAP=208        0.67       4.2     2.9  5.0 -0.1636E+00  0.4143E+01 -0.1649E+01E
 Epicentro: EL PLAYON - SANTANDER                                              3
 ACTION:UPD 17-05-30 21:12 OP:jn   STATUS:               ID:20170416073838 L   I
 OLDACT:UP  17-04-16 17:34 OP:dani STATUS:               ID:20170416073529     3
 OLDACT:UP  17-04-16 17:34 OP:dani STATUS:               ID:20170416073529     3
 OLDACT:REG 17-04-16 14:25 OP:dani STATUS:               ID:20170416073529     3
 2017-04-16-0738-00M.COL___365                                                 6
 STAT SP IPHASW D HRMM SECON CODA AMPLIT PERI AZIMU VELO AIN AR TRES W  DIS CAZ7
 PAM  EZ EP        738 58.92                             153    0.2110 62.0 115 
 PAM  EN ES        739 14.11                             153   -0.0410 62.0 115 
 PAM  EZ I         739 16.08         5.6 0.13            156           62.0 115 
 BRR  HZ EP        738 58.82                             148   -0.0010 75.9 227 
 BRR  HN ES        739 14.28                             148   -0.0810 75.9 227 
 BRR  HZ I         739 15.93        12.7 0.12            150           75.9 227 
 BAR2 EZ EP        739  1.67                             138    0.0910  109 178 
 BAR2 EZ ES        739 19.20                             138   -0.0610  109 178 
 BAR2 EZ I         739 20.44         7.5 0.26            141            109 178 
 PTB  HZ EP        739  7.71                             123   -0.15 9  179 230 
 PTB  HN ES        739 29.95                             123   -0.50 9  179 230 
 PTB  HZ I         739 31.70         3.8 0.42            125            179 230 
 ZAR  HZ EP        739  8.05                             122   -0.11 9  182 267 
 ZAR  HE ES        739 31.34                             122    0.36 9  182 267 
 ZAR  HZ I         739 33.12         4.2 0.10            124            182 267 
 RUS  HZ EP        739  8.98                             122   -0.28 9  187 176 
 SPBC HE ES        739 41.49                             115    0.62 8  233 204 
                                                                                
