 2014  616 0101 31.2 L   6.796 -73.166146.9  RSN  9 0.4 1.8LRSN                1
 GAP=199        0.99       3.7     5.7  6.1  0.3825E+01  0.7239E+01 -0.3314E+01E
 Epicentro: LOS SANTOS - SANTANDER                                             3
 ACTION:UPD 14-07-01 22:54 OP:nd   STATUS:               ID:20140616010131 L   I
 OLDACT:UP  14-06-16 16:24 OP:mh   STATUS:               ID:20140616005818     3
 OLDACT:UP  14-06-16 16:24 OP:mh   STATUS:               ID:20140616005818     3
 OLDACT:UP  14-06-16 16:23 OP:mh   STATUS:               ID:20140616005818     3
 OLDACT:REG 14-06-16 11:57 OP:mh   STATUS:               ID:20140616005818     3
 2014-06-16-0058-18M.COL___259                                                 6
 STAT SP IPHASW D HRMM SECON CODA AMPLIT PERI AZIMU VELO AIN AR TRES W  DIS CAZ7
 BAR2 SZ EP        1 1 51.01                             171    0.1010 22.6 185 
 BAR2 SZ ES        1 2  5.96                             171   -0.3610 22.6 185 
 BAR2 SZ I         1 2  7.52        14.3 0.17            172           22.6 185 
 BRR  HZ IP        1 1 52.91                             153    0.5810 69.5 300 
 BRR  HN ES        1 2  9.44                             153    0.5910 69.5 300 
 BRR  HZ I         1 2 14.28         6.0 0.16            150           69.5 300 
 RUS  HZ EP        1 1 55.12                             144    0.1210  100 175 
 RUS  HN ES        1 2 13.48                             144   -0.1110  100 175 
 RUS  HZ I         1 2 15.45         7.8 0.29            149            100 175 
 PTB  HZ EP        1 1 57.45                             133   -0.56 9  145 259 
 PTB  HN ES   1    1 2 18.73                             133   -0.22 7  145 259 
 PTB  HZ I         1 2 20.94         8.2 0.16            133            145 259 
 SPBC HZ EP        1 1 59.92                             130    0.35 9  161 218 
 SPBC HN ES        1 2 21.35                             130   -0.39 9  161 218 
 ZAR  HZ EP        1 2  3.88                             123    0.40 9  202 293 
 ZAR  HN ES   1    1 2 28.63                             123   -0.06 6  202 293 
 ZAR  HZ I         1 2 35.15         5.8 0.32            123            202 293 
 NOR  HZ EP        1 2  7.01                             119    0.29 8  233 234 
 NOR  HE ES   1    1 2 34.41                             119   -0.06 6  233 234 
 NOR  HZ I         1 2 38.62         4.2 0.14            121            233 234 
 SML  HZ EP        1 2  6.90                             118   -0.89 8  243 336 
 SML  HN ES        1 2 36.09                             118   -0.28 8  243 336 
 SML  HZ I         1 2 43.36        13.5 0.05            119            243 336 
 GUY2CHZ EP   4    1 2  7.37                             113   -7.20 0  299 235 
 GUY2CHN ES   4    1 2 52.28                             113    3.83 0  299 235 
 GUY2CHZ I         1 2 57.09         2.6 0.06                           299 235 
 RREF HZ EP   4    1 2 19.00                             111    1.89 0  320 229 
 RREF HN ES   4    1 2 56.42                             111    3.46 0  320 229 
                                                                                
