 2014  416 0546 44.1 L   6.811 -73.161140.0  RSN 15 0.5 2.2LRSN                1
 GAP= 70        1.15       2.9     3.3  7.2 -0.5507E+00  0.8083E+01  0.2546E+01E
 Epicentro: LOS SANTOS - SANTANDER                                             3
 ACTION:UPD 14-05-13 23:08 OP:nd   STATUS:               ID:20140416054644 L   I
 OLDACT:REG 14-04-16 12:47 OP:nd   STATUS:               ID:20140416054042     3
 2014-04-16-0540-42M.COL___248                                                 6
 STAT SP IPHASW D HRMM SECON CODA AMPLIT PERI AZIMU VELO AIN AR TRES W  DIS CAZ7
 PAM  SZ IP     D  547  5.80                             150    0.1010 77.6  41 
 PAM  SN ES        547 23.09                             150    0.5310 77.6  41 
 PAM  SZ I         547 25.51        26.9 0.68            153           77.6  41 
 RUS  HZ EP        547  6.89                             142   -0.4810  102 175 
 RUS  HN ES        547 25.67                             142    0.1410  102 175 
 PTB  HZ EP        547  9.60                             131   -0.85 9  146 258 
 PTB  HN ES        547 30.99                             131   -0.03 9  146 258 
 PTB  HZ I         547 32.45        22.7 0.56            131            146 258 
 TAM  HZ IP     D  547 11.18                             129   -0.32 9  157 105 
 TAM  HN ES        547 32.68                             129   -0.20 9  157 105 
 OCA  HZ EP        547 12.18                             129    0.36 9  159 354 
 OCA  HN ES        547 33.18                             129   -0.27 9  159 354 
 OCA  HZ I         547 42.08        14.0 0.46            130            159 354 
 SPBC HZ EP        547 11.83                             128   -0.30 9  163 218 
 SPBC HN ES        547 33.90                             128   -0.11 9  163 218 
 SPBC HZ I         547 36.72        37.9 0.30            129            163 218 
 ZAR  HZ EP        547 15.67                             121   -0.27 9  202 292 
 ZAR  HN ES        547 41.51                             121    0.72 9  202 292 
 ZAR  HZ I         547 44.49        21.8 0.30            122            202 292 
 SML  HZ EP   2    547 19.92                             117   -0.27 4  242 336 
 SML  HN ES        547 48.10                             117   -0.26 8  242 336 
 SML  HZ I         547 56.85        24.6 0.24            118            242 336 
 CHI  HZ EP   2    547 21.17                             116   -0.37 4  249 195 
 CHI  HN ES        547 51.01                             116    0.24 8  249 195 
 CHI  HZ I         548  0.18         6.2 0.60            118            249 195 
 ROSC BZ EP        547 22.77                             116    0.86 8  253 211 
 ROSC BN ES   4    547 53.10                             116    1.69 0  253 211 
 ROSC BZ I         547 58.69        15.2 0.50            117            253 211 
 HEL  HZ EP        547 24.74                             114    0.89 8  271 255 
 HEL  HN ES        547 54.54                             114   -0.33 8  271 255 
 HEL  HZ I         548  2.23        10.1 0.26            115            271 255 
 RREF HZ EP        547 29.90                             110   -0.02 7  321 229 
 RREF HN ES   4    547 53.86                             110   -11.8 0  321 229 
 CBOC HZ EP        547 31.54                             109    0.92 7  332 252 
 CBOC HN ES        548  5.79                             109   -1.12 7  332 252 
 CBOC HZ I         548 17.82         3.9 0.50            110            332 252 
 PRA  HZ EP        547 36.89                             106   -0.54 6  392 209 
 PRA  HN ES        548 20.19                             106    1.15 6  392 209 
 PRA  HZ I         548 25.67         5.8 0.26            107            392 209 
 SJC  HZ EP   4    547 37.38                             105   -1.85 0  407 327 
 SJC  HN ES   4    548 18.32                             105   -3.92 0  407 327 
 SJC  HZ I         548 23.04         3.2 0.56            106            407 327 
                                                                                
