 2012  516 0651 37.8 L   6.782 -73.144134.6  RSN 10 0.4 2.0LRSN                1
 GAP=138        0.87       4.2     4.9  7.1 -0.1573E+01  0.1316E+02  0.5010E+00E
 Epicentro: LOS SANTOS - SANTANDER                                             3
 ACTION:UP  12-07-05 12:05 OP:pat  STATUS:               ID:20120516065137 L   I
 2012-05-16-0650-00M.COL___195                                                 6
 STAT SP IPHASW D HRMM SECON CODA AMPLIT PERI AZIMU VELO SNR AR TRES W  DIS CAZ7
 BAR2 SZ EP   1    651 55.94                             170    -0.1 7   21 191 
 BAR2 SZ ES   1    652  9.85                             170    -0.4 7   21 191 
 BAR2 SZ I         652 12.98        18.2 0.26                            21 191 
 BRR  HZ EP   1    651 58.06                             150     0.3 7   72 300 
 BRR  HZ I         652 19.58        23.3 0.16                            72 300 
 PAM  SZ EP   1    651 59.12                             148     0.2 7   79  38 
 PAM  SN ES   1    652 15.86                             148     0.5 7   79  38 
 RUS  HZ EP   1    652  0.49                             142     0.2 7   99 176 
 RUS  HN ES   1    652 17.96                             142     0.1 7   99 176 
 RUS  HZ I         652 20.06        16.5 0.35                            99 176 
 PTB  HZ EP   1    652  3.46                             129    -0.4 7  148 260 
 PTB  HN ES   1    652 23.93                             129    -0.2 7  148 260 
 PTB  HZ I         652 26.34         7.9 0.24                           148 260 
 OCA  HZ EP   1    652  4.48                             127    -1.0 7  162 353 
 OCA  HE ES   2    652 26.48                             127    -0.5 5  162 353 
 ZAR  HZ EP   2    652  9.88                             120     0.3 4  205 293 
 ZAR  HN ES   1    652 35.04                             120     0.6 6  205 293 
 ZAR  HZ I         652 40.84        11.9 0.36                           205 293 
 CHI  HZ EP   1    652 14.53                             115    -0.1 6  247 195 
 HEL  HZ EP   1    652 18.27                             112     0.9 6  272 256 
 HEL  HN ES   2    652 47.98                             112    -0.3 4  272 256 
 HEL  HZ I         652 54.99         5.7 0.48                           272 256 
 PRA  HZ EP   1    652 30.80                             105     0.1 4  390 210 
 PRA  HE ES   2    653 11.32                             105    -0.7 3  390 210 
                                                                                
