 2017 1116 0739 30.9 L   6.805 -73.177147.0  RSN  6 0.3 1.6LRSN                1
 GAP=109        0.75       4.0     3.0  5.2  0.7741E+00  0.2627E+01 -0.2562E+01E
 Epicentro: LOS SANTOS - SANTANDER                                             3
 ACTION:UPD 17-12-12 19:56 OP:rebc STATUS:               ID:20171116073930 L   I
 OLDACT:REG 17-11-16 13:48 OP:y    STATUS:               ID:20171116072738     3
 2017-11-16-0728-00M.COL___423                                                 6
 STAT SP IPHASW D HRMM SECON CODA AMPLIT PERI AZIMU VELO AIN AR TRES W  DIS CAZ7
 BAR2 EZ EP        739 50.53                             170   -0.1410 23.5 181 
 BAR2 EZ ES        740  5.89                             170   -0.2110 23.5 181 
 BAR2 EZ I         740  8.16        10.3 0.30            173           23.5 181 
 PAM  EZ EP        739 53.68                             150    0.3310 79.3  42 
 PAM  EN ES        740 10.68                             150   -0.1810 79.3  42 
 PAM  EZ I         740 13.03         5.3 0.62            152           79.3  42 
 RUS  HZ EP        739 54.69                             144   -0.1310  101 174 
 RUS  HN ES        740 13.94                             144    0.4510  101 174 
 RUS  HZ I         740 14.39         4.4 0.26            147            101 174 
 PTB  HZ EP        739 57.11                             133   -0.55 9  144 258 
 PTB  HN ES        740 18.46                             133   -0.07 9  144 258 
 PTB  HZ I         740 20.45         4.0 0.58            134            144 258 
 TAM  HZ EP        739 59.03                             130    0.04 9  159 105 
 ZAR  HZ EP        740  3.24                             123    0.18 9  201 292 
 ZAR  HN ES        740 28.52                             123    0.37 9  201 292 
 ZAR  HZ I         740 34.07         4.5 0.42            124            201 292 
 ROSC BZ EP   4    740 11.59                             117    2.66 0  251 210 
                                                                                
