 2012  216 0853 25.9 L   6.798 -73.168142.6  RSN 11 0.4 1.9LRSN                1
 GAP=134        0.84       3.3     4.2  6.0 -0.1768E+01  0.5314E+01  0.2257E+01E
 ACTION:UP  12-03-07 16:31 OP:epov STATUS:               ID:20120216085325 L   I
 2012-02-16-0850-00M.COL___188                                                 6
 STAT SP IPHASW D HRMM SECON CODA AMPLIT PERI AZIMU VELO AIN AR TRES W  DIS CAZ7
 BAR2 SZ EP   1    853 45.31                             170    0.15 7 22.8 184 
 BAR2 SZ ES   1    854  0.00                             170   -0.16 7 22.8 184 
 BAR2 SZ I         854  1.30        29.6 0.28                          22.8 184 
 GIR2 SZ EP   1    853 45.16                             167   -0.05 7 31.2 355 
 BRR  HZ IP     D  853 46.94                             153    0.3310 69.2 300 
 BRR  HN ES   1    854  3.92                             153    1.17 7 69.2 300 
 BRR  HZ I         854  4.94        28.8 0.19                          69.2 300 
 PAM  SZ EP        853 48.12                             150    0.2210 79.1  41 
 PAM  SN ES   1    854  4.87                             150   -0.18 7 79.1  41 
 RUS  HZ EP   1    853 49.27                             143   -0.09 7  101 175 
 RUS  HN ES   1    854  7.27                             143   -0.37 7  101 175 
 RUS  HZ I         854  9.35         9.2 0.20                           101 175 
 PTB  HZ EP   1    853 51.72                             132   -0.69 7  145 259 
 PTB  HN ES   1    854 12.46                             132   -0.61 7  145 259 
 OCA  SZ EP   1    853 53.81                             129   -0.17 7  160 354 
 OCA  SZ ES   1    854 15.13                             129   -0.73 7  160 354 
 ZAR  HZ EP   1    853 58.33                             122    0.40 6  202 292 
 ZAR  HE ES   1    854 22.73                             122   -0.17 6  202 292 
 NOR  SZ EP   1    854  1.13                             118   -0.11 6  233 234 
 NOR  SN ES   1    854 28.79                             118    0.00 6  233 234 
 CHI  HZ EP   1    854  3.56                             117    0.21 6  248 195 
 CHI  HN ES   1    854 32.76                             117    0.21 6  248 195 
 CHI  HZ I         854 38.04         2.1 0.19                           248 195 
 PRA  HZ EP   1    854 19.37                             106    0.20 4  391 209 
                                                                                
