 2013  816 0614 52.2 L   6.760 -73.089143.2  RSN  5 0.5 1.5LRSN                1
 GAP=188        1.21       4.5    10.8  8.9 -0.1007E+01 -0.2194E+01 -0.4745E+01E
 Epicentro: LOS SANTOS - SANTANDER                                             3
 2013-08-16-0608-37M.COL___228                                                 6
 OLDACT:REG 13-08-16 07:17 OP:stll STATUS:               ID:20130816060837     3
 ACTION:UPD 14-01-14 09:03 OP:ep   STATUS:               ID:20130816061452 L   I
 OLDACT:UP  13-08-16 17:47 OP:stll STATUS:               ID:20130816060837     3
 STAT SP IPHASW D HRMM SECON CODA AMPLIT PERI AZIMU VELO AIN AR TRES W  DIS CAZ7
 BAR2 SZ ES        615 26.32                             171   -0.1510 21.2 209 
 BAR2 HZ I         615 36.34         5.0 1.16            173           21.2 209 
 BAR2 SZ I         615 36.34         5.0 1.16                          21.2 209 
 BRR  HZ EP        615 13.40                             149   -0.0810 78.8 299 
 BRR  HN ES        615 30.58                             149    0.4710 78.8 299 
 BRR  HZ I         615 33.13         5.5 0.70            155           78.8 299 
 BRR  SZ I         615 33.13         5.5 0.70                          78.8 299 
 RUS  HZ EP        615 15.03                             145   -0.2910 95.9 180 
 RUS  HN ES        615 33.68                             145    0.3010 95.9 180 
 RUS  HZ I         615 37.72         5.1 2.82            149           95.9 180 
 RUS  SZ I         615 37.72         5.1 2.82                          95.9 180 
 SPBC HZ EP        615 20.33                             128   -0.19 9  164 222 
 SPBC HN ES        615 42.41                             128   -0.23 9  164 222 
 SPBC HZ I         615 47.43         5.6 0.78            135            164 222 
 SPBC SZ I         615 47.43         5.6 0.78                           164 222 
 OCA  HZ EP        615 21.74                             128    0.97 9  166 351 
 OCA  HN ES        615 42.22                             128   -0.87 9  166 351 
 OCA  HZ I         615 47.11         6.7 1.72            134            166 351 
 OCA  SZ I         615 47.11         6.7 1.72                           166 351 
                                                                                
