 2017 1016 0811 36.7 L   6.785 -73.163147.6  RSN  5 0.4 1.4LRSN                1
 GAP=234        1.01       7.9     7.2  8.1  0.3536E+02  0.6851E+01 -0.6652E+00E
 Epicentro: LOS SANTOS - SANTANDER                                             3
 ACTION:UPD 17-11-07 19:32 OP:rebc STATUS:               ID:20171016081136 L   I
 OLDACT:UP  17-10-16 17:58 OP:dani STATUS:               ID:20171016080444     3
 OLDACT:REG 17-10-16 13:12 OP:dani STATUS:               ID:20171016080444     3
 2017-10-16-0808-00M.COL___411                                                 6
 STAT SP IPHASW D HRMM SECON CODA AMPLIT PERI AZIMU VELO AIN AR TRES W  DIS CAZ7
 BAR2 EZ EP        811 56.28                             171   -0.2310 21.4 186 
 BAR2 EZ ES        812 11.33                             171   -0.6310 21.4 186 
 BAR2 EZ I         812 12.14         6.6 0.28            172           21.4 186 
 BRR  HZ EP     D  811 58.06                             153    0.0710 70.3 300 
 BRR  HN ES        812 15.02                             153    0.4210 70.3 300 
 BRR  HZ I         812 18.82         5.0 0.16            154           70.3 300 
 RUS  HZ EP        812  0.84                             145    0.3210 99.1 175 
 RUS  HE ES        812 19.55                             145    0.4510 99.1 175 
 RUS  HZ I         812 20.83         4.1 0.26            147           99.1 175 
 PTB  HZ EP        812  3.12                             133   -0.49 9  146 259 
 PTB  HN ES        812 24.36                             133   -0.24 9  146 259 
 PTB  HZ I         812 26.18         2.8 0.16            134            146 259 
 ZAR  HN ES        812 34.78                             123    0.33 9  203 293 
                                                                                
