 2017  816 0939 37.7 L   6.763 -73.154168.0  RSN  4 0.4 1.4LRSN                1
 GAP=234        0.75       5.9     8.3  7.4 -0.3662E+01 -0.1525E+02  0.8523E+01E
 Epicentro: LOS SANTOS - SANTANDER                                             3
 RUS-BRR-BAR2                                                                  3
 ACTION:UPD 17-09-04 20:20 OP:rebc STATUS:               ID:20170816093937 L   I
 OLDACT:UP  17-08-16 17:12 OP:and  STATUS:               ID:20170816093741     3
 OLDACT:UP  17-08-16 17:12 OP:and  STATUS:               ID:20170816093741     3
 OLDACT:UP  17-08-16 17:10 OP:mg   STATUS:               ID:20170816093741     3
 OLDACT:REG 17-08-16 12:59 OP:mg   STATUS:               ID:20170816093741     3
 2017-08-16-0938-00M.COL___413                                                 6
 STAT SP IPHASW D HRMM SECON CODA AMPLIT PERI AZIMU VELO AIN AR TRES W  DIS CAZ7
 BAR2 EZ EP        939 59.35                             173   -0.5910 19.2 189 
 BAR2 EZ ES        940 17.64                             173    0.3510 19.2 189 
 BAR2 EZ I         940 18.18         3.5 0.48            167           19.2 189 
 BRR  HZ EP        940  1.50                             156    0.1510 72.5 302 
 BRR  HE ES        940 19.77                             156   -0.0310 72.5 302 
 BRR  HZ I         940 22.45         8.2 0.32            152           72.5 302 
 RUS  HZ EP        940  3.62                             149    0.1810 96.6 175 
 RUS  HN ES   3    940 22.75                             149   -0.76 2 96.6 175 
 RUS  HZ I         940 24.68         1.9 0.25            147           96.6 175 
 SPBC HZ EP   3    940  8.53                             135    0.87 2  159 220 
 SPBC HN ES        940 30.96                             135   -0.07 9  159 220 
 SPBC HZ I         940 37.38         3.7 0.20            131            159 220 
                                                                                
