 2017  416 0901 47.9 L   6.787 -73.131155.2  RSN  5 0.2 1.2LRSN                1
 GAP=256        0.58       3.9     4.0  4.6  0.1625E+01  0.3625E+01 -0.2429E+01E
 Epicentro: LOS SANTOS - SANTANDER                                             3
 ACTION:UPD 17-05-30 21:12 OP:jn   STATUS:               ID:20170416090147 L   I
 OLDACT:UP  17-04-16 17:58 OP:dani STATUS:               ID:20170416085740     3
 OLDACT:UP  17-04-16 17:58 OP:dani STATUS:               ID:20170416085740     3
 OLDACT:UP  17-04-16 17:58 OP:dani STATUS:               ID:20170416085740     3
 OLDACT:UP  17-04-16 17:58 OP:dani STATUS:               ID:20170416085740     3
 OLDACT:UP  17-04-16 17:57 OP:dani STATUS:               ID:20170416085740     3
 OLDACT:UP  17-04-16 17:57 OP:dani STATUS:               ID:20170416085740     3
 OLDACT:REG 17-04-16 14:38 OP:dani STATUS:               ID:20170416085740     3
 2017-04-16-0858-00M.COL___365                                                 6
 STAT SP IPHASW D HRMM SECON CODA AMPLIT PERI AZIMU VELO AIN AR TRES W  DIS CAZ7
 BAR2 EZ EP        9 2  8.73                             171    0.1010 22.3 195 
 BAR2 EZ ES        9 2 24.59                             171   -0.2210 22.3 195 
 BAR2 EZ I         9 2 26.56         3.6 0.09            174           22.3 195 
 BRR  HZ EP        9 2 10.50                             153    0.3210 73.4 299 
 BRR  HN ES        9 2 27.61                             153    0.0510 73.4 299 
 BRR  HZ I         9 2 30.08         2.8 0.18            151           73.4 299 
 PTB  HZ EP        9 2 15.50                             134   -0.26 9  149 260 
 PTB  HE ES        9 2 37.33                             134   -0.17 9  149 260 
 PTB  HZ I         9 2 38.28         1.3 0.18            134            149 260 
 SPBC HE ES        9 2 40.15                             131    0.23 9  163 220 
 ZAR  HZ EP        9 2 20.90                             124   -0.28 8  206 292 
 ZAR  HN ES        9 2 47.31                             124    0.17 8  206 292 
 ZAR  HZ I         9 2 53.95         1.2 0.08            124            206 292 
                                                                                
