 2010  916 0311 55.2 L   6.812 -73.028140.5  RSN  7 0.2 2.1LRSN                1
 GAP=172        0.47       2.3     6.3  4.0  0.2118E+01 -0.3972E+01 -0.8016E+00E
 Epicentro: CEPITA - SANTANDER                                                 3
 ACTION:UP  11-02-18 11:03 OP:tino STATUS:               ID:20100916031155 L   I
 2010-09-16-0309-16S.COL___119                                                 6
 STAT SP IPHASW D HRMM SECON CODA AMPLIT PERI AZIMU VELO SNR AR TRES W  DIS CAZ7
 BAR2 SZ EP        312 14.57                             168     0.210   30 215 
 BAR2 SZ ES   1    312 29.28                             168     0.0 7   30 215 
 BAR2 SZ I         312 32.46        28.9 0.30                            30 215 
 BRR  HZ EP        312 16.30                             148    -0.210   82 293 
 BRR  HN ES   1    312 33.18                             148     0.1 7   82 293 
 BRR  HZ I         312 37.02        21.9 0.18                            82 293 
 RUS  HZ EP   2    312 18.57                             143     0.0 5  102 183 
 RUS  HN ES   1    312 36.89                             143     0.1 7  102 183 
 RUS  HZ I         312 38.54        14.3 0.23                           102 183 
 GRA  SZ EP   2    312 19.83                             137     0.2 5  121  12 
 OCA  SZ EP        312 23.12                             128    -0.1 9  161 349 
 OCA  SZ ES   1    312 45.14                             128     0.1 7  161 349 
 OCA  SZ I         312 49.61        16.8 0.37                           161 349 
 CHI  HZ EP        312 32.95                             116    -0.2 8  254 198 
 CHI  HN ES   3    313  2.09                             116    -0.7 2  254 198 
 CHI  HZ I         313  8.22         7.4 0.62                           254 198 
 RREF HZ EP   2    312 43.12                             109     0.7 3  333 231 
 RREF HN ES   3    313 19.52                             109     0.3 2  333 231 
 RREF HZ I         313 26.24         7.7 0.54                           333 231 
                                                                                
