 2013  816 0623 48.2 L   6.792 -73.117140.6  RSN  5 0.3 1.5LRSN                1
 GAP=240        0.75       4.5     5.3  6.7  0.3926E+01  0.9320E+01 -0.1364E+01E
 Epicentro: LOS SANTOS - SANTANDER                                             3
 2013-08-16-0618-37M.COL___231                                                 6
 OLDACT:DUP 13-08-16 17:48 OP:stll STATUS:               ID:20130816061838d    3
 ACTION:UPD 14-01-14 09:03 OP:ep   STATUS:               ID:20130816062348 L   I
 OLDACT:UP  13-08-16 17:55 OP:stll STATUS:               ID:20130816061838d    3
 STAT SP IPHASW D HRMM SECON CODA AMPLIT PERI AZIMU VELO AIN AR TRES W  DIS CAZ7
 BAR2 SZ EP        624  7.55                             170    0.3010 23.2 198 
 BAR2 SZ ES        624 21.87                             170   -0.2110 23.2 198 
 BAR2 SZ I         624 28.08         4.0 0.72            155           23.2 198 
 BRR  HZ EP        624  9.14                             150    0.1210 74.4 298 
 BRR  HN ES        624 25.42                             150    0.1810 74.4 298 
 BRR  SZ I         625  4.17         9.4 1.14            138           74.4 298 
 RUS  HN ES        624 29.30                             143   -0.1810 99.5 178 
 PTB  HZ EP        624 14.60                             130   -0.46 9  151 259 
 PTB  HN ES        624 35.79                             130   -0.20 9  151 259 
 PTB  SZ I         624 43.57         5.2 2.00            133            151 259 
 SPBC HN ES        624 38.94                             128    0.44 9  165 220 
                                                                                
