 2011 1216 0122 50.4 L   6.767 -73.067148.4  RSN  7 0.4 1.9LRSN                1
 GAP=148        0.76       3.4     7.7  6.4 -0.2325E+01  0.3356E+01  0.1764E+01E
 Epicentro: LOS SANTOS - SANTANDER                                             3
 ACTION:UPD 12-07-13 16:16 OP:ep   STATUS:               ID:20111216012250 L   I
 2011-12-16-0120-00M.COL___187                                                 6
 STAT SP IPHASW D HRMM SECON CODA AMPLIT PERI AZIMU VELO AIN AR TRES W  DIS CAZ7
 BAR2 SZ EP        123 10.39                             171    0.0310 23.2 213 
 BAR2 SZ ES   1    123 25.63                             171   -0.29 7 23.2 213 
 BAR2 SZ I         123 27.07        23.7 0.01                          23.2 213 
 GIR2 SZ EP   1    123 10.34                             165   -0.24 7 37.2 338 
 PAM  SZ EP   1    123 13.00                             152    0.21 7 75.2  33 
 PAM  SN ES   1    123 30.03                             152   -0.20 7 75.2  33 
 BRR  HZ EP        123 12.15                             150   -0.2510 80.6 298 
 BRR  HN ES   1    123 29.50                             150   -0.05 7 80.6 298 
 BRR  HZ I         123 33.30        21.0 0.10                          80.6 298 
 RUS  HZ EP   1    123 14.26                             145    0.10 7 96.7 181 
 RUS  HE ES   1    123 32.90                             145    0.22 7 96.7 181 
 RUS  HZ I         123 34.03         6.5 0.25                          96.7 181 
 OCA  SZ EP   1    123 18.80                             129   -0.59 7  165 350 
 OCA  SZ ES   1    123 43.07                             129    1.08 7  165 350 
 OCA  SZ I         123 45.17        20.2 0.21                           165 350 
 CHI  HZ EP   1    123 28.15                             118    0.00 6  248 197 
 CHI  HN ES   1    123 57.99                             118    0.41 6  248 197 
 CHI  HZ I         124  8.04         2.1 0.48                           248 197 
                                                                                
