 2017 1016 0201 14.9 L   6.828 -73.160151.4  RSN  8 0.5 1.6LRSN                1
 GAP=184        1.24       5.9     6.9  7.7  0.2606E+02 -0.2278E+01 -0.6976E+01E
 Epicentro: LOS SANTOS - SANTANDER                                             3
 ACTION:UPD 17-11-07 19:32 OP:rebc STATUS:               ID:20171016020114 L   I
 OLDACT:UP  17-10-16 14:18 OP:dani STATUS:               ID:20171016015742     3
 OLDACT:REG 17-10-16 12:39 OP:dani STATUS:               ID:20171016015742     3
 2017-10-16-0158-00M.COL___435                                                 6
 STAT SP IPHASW D HRMM SECON CODA AMPLIT PERI AZIMU VELO AIN AR TRES W  DIS CAZ7
 BAR2 EZ EP        2 1 35.15                             170   -0.1210 26.2 186 
 BAR2 EZ ES        2 1 50.87                             170   -0.2810 26.2 186 
 BAR2 EZ I         2 1 51.48         7.4 0.26            171           26.2 186 
 BRR  HZ EP     C  2 1 36.88                             154    0.3710 68.4 297 
 BRR  HZ IP     C  2 1 36.89                                           68.4 297 
 BRR  HN ES        2 1 53.84                             154    0.4810 68.4 297 
 BRR  HZ I         2 1 57.72         9.8 0.12            153           68.4 297 
 RUS  HZ EP        2 1 39.65                             144    0.2210  104 175 
 RUS  HE ES        2 1 57.80                             144   -0.7710  104 175 
 RUS  HZ I         2 1 59.36         9.9 0.24            146            104 175 
 PTB  HZ EP        2 1 41.82                             134   -0.44 9  147 258 
 PTB  HN ES        2 2  3.17                             134   -0.42 9  147 258 
 PTB  HZ I         2 2  5.43         3.1 0.50            134            147 258 
 YPLC HZ EP        2 1 45.74                             127    0.30 9  180 151 
 YPLC HN ES        2 2  9.84                             127    0.58 9  180 151 
 YPLC HZ I         2 2 11.74         4.1 0.29            129            180 151 
 ZAR  HZ EP        2 1 48.01                             124    0.55 9  201 291 
 ZAR  HE ES        2 2 13.65                             124    0.80 9  201 291 
 ZAR  HZ I         2 2 20.07         6.5 0.36            124            201 291 
 CHI  HN ES        2 2 22.73                             118   -0.33 8  251 195 
 SJC  HZ EP        2 2  9.49                             107   -0.76 6  406 327 
 SJC  HN ES        2 2 52.21                             107   -1.22 6  406 327 
 SJC  HZ I         2 2 56.03         0.6 0.37            107            406 327 
                                                                                
