 2012 1216 0840 40.8 L   7.285 -73.214131.8  RSN  6 0.4 1.1LRSN                1
 GAP=193        0.91       9.8     6.1  7.4 -0.2366E+02  0.9774E+01 -0.2300E+00E
 Epicentro: RIONEGRO - SANTANDER                                               3
 ACTION:UPD 13-01-04 14:28 OP:ep   STATUS:               ID:20121216084040 L   I
 2012-12-16-0840-00M.COL___239                                                 6
 STAT SP IPHASW D HRMM SECON CODA AMPLIT PERI AZIMU VELO AIN AR TRES W  DIS CAZ7
 GIR2 SZ ES   1    841 12.09                             170   -0.39 7 22.9 174 
 PAM  SZ EP        841  0.59                             155    0.2110 57.1  84 
 PAM  SN ES   1    841 15.53                             155   -0.12 7 57.1  84 
 PAM  SZ I         841 17.82         2.5 0.38                          57.1  84 
 BRR  HZ EP        840 59.83                             155    0.1010 58.4 250 
 BRR  HN ES   1    841 14.25                             155   -0.25 7 58.4 250 
 BRR  HZ I         841 17.14         2.7 0.60                          58.4 250 
 BAR2 SZ EP   1    841  1.96                             148    0.82 7 76.6 177 
 BAR2 SZ ES   1    841 17.34                             148    0.33 7 76.6 177 
 BAR2 SZ I         841 18.59         5.5 0.30                          76.6 177 
 RUS  HZ EP   1    841  7.01                             128   -0.95 7  155 175 
 PTB  HZ EP        841  7.62                             126   -0.25 9  160 239 
 PTB  HN ES   1    841 29.26                             126    0.28 7  160 239 
 PTB  HZ I         841 31.58         1.4 0.16                           160 239 
                                                                                
