 2010  116 0603  3.6 L   6.811 -73.316118.5  RSN  4 0.2 1.5LRSN                1
 GAP=158        0.47       5.0     5.2  6.5 -0.3975E-02  0.1370E+02 -0.1111E+02E
 Epicentro: ZAPATOCA - SANTANDER                                               3
 ACTION:UP  10-08-24 09:44 OP:vdl  STATUS:               ID:20100116060303 L   I
 2010-01-16-0600-00S.COL___108                                                 6
 STAT SP IPHASW D HRMM SECON CODA AMPLIT PERI AZIMU VELO SNR AR TRES W  DIS CAZ7
 BAR2 SZ IP        6 3 20.08                             165     0.010   28 149 
 BAR2 SZ ES   1    6 3 32.90                             165    -0.1 7   28 149 
 RUS  BZ EP   2    6 3 24.63                             136    -0.5 5  105 166 
 RUS  BN ES        6 3 42.03                             136     0.110  105 166 
 RUS  BZ I         6 3 43.37         3.4 0.29                           105 166 
 HEL  HZ EP   2    6 3 40.91                             110     0.4 4  254 254 
 HEL  HN ES   2    6 4  9.08                             110    -0.2 4  254 254 
 HEL  HZ I         6 4 14.35         3.0 0.50                           254 254 
 SDV  BZ EP   2    6 3 54.61                             102     0.2 3  374  52 
 SDV  BZ I         6 4  8.45         1.5 0.05                           374  52 
                                                                                
