 2017  816 0306  0.4 L   6.774 -73.081138.7  RSN  7 0.4 1.4LRSN                1
 GAP=167        0.62       4.1     3.4  6.0 -0.4308E+00 -0.4177E+01  0.4836E+01E
 Epicentro: LOS SANTOS - SANTANDER                                             3
 ACTION:UPD 17-09-04 20:20 OP:rebc STATUS:               ID:20170816030600 L   I
 OLDACT:UP  17-08-16 13:44 OP:and  STATUS:               ID:20170816025739     3
 OLDACT:UP  17-08-16 13:44 OP:and  STATUS:               ID:20170816025739     3
 OLDACT:REG 17-08-16 12:43 OP:and  STATUS:               ID:20170816025739     3
 2017-08-16-0258-00M.COL___413                                                 6
 STAT SP IPHASW D HRMM SECON CODA AMPLIT PERI AZIMU VELO AIN AR TRES W  DIS CAZ7
 BAR2 EZ EP   2    3 6 18.39                             170   -0.73 5 23.0 209 
 BAR2 EZ ES   3    3 6 33.78                             170    0.02 2 23.0 209 
 BAR2 EZ I         3 6 35.22         4.2 0.28            165           23.0 209 
 BRR  HZ EP   2    3 6 20.51                             148   -0.69 5 78.8 298 
 BRR  HN ES        3 6 37.65                             148    0.1910 78.8 298 
 RUS  HZ EP        3 6 23.17                             143   -0.0110 97.5 180 
 RUS  HN ES        3 6 40.91                             143   -0.0810 97.5 180 
 RUS  HZ I         3 6 44.31         2.6 0.32            141           97.5 180 
 TAM  HZ EP        3 6 27.04                             130    0.28 9  147 105 
 SPBC HZ EP   2    3 6 27.84                             127   -0.71 5  166 222 
 SPBC HN ES   2    3 6 50.33                             127   -0.22 5  166 222 
 SPBC HZ I         3 6 54.67         3.6 0.22            126            166 222 
 NOR  HN ES        3 7  4.14                             116    0.09 8  239 236 
 NOR  HZ I         3 7  7.93         2.3 0.26            117            239 236 
 GUY2CHZ EP   2    3 6 44.47                             111    0.35 4  305 236 
 GUY2CHN ES   2    3 7 19.07                             111    0.80 4  305 236 
 GUY2CHZ I         3 7 29.72         1.8 0.68                           305 236 
                                                                                
