 2013  916 0854  1.2 L   6.717 -73.216153.2  RSN  4 0.2 1.3LRSN                1
 GAP=217        0.55       5.7     6.0  7.8  0.1783E+02  0.8426E+00 -0.1153E+02E
 Epicentro: VILLANUEVA - SANTANDER                                             3
 ACTION:UPD 13-10-22 09:23 OP:ep   STATUS:               ID:20130916085401 L   I
 OLDACT:REG 13-09-16 08:10 OP:jn   STATUS:               ID:20130916084959     3
 2013-09-16-0849-59M.COL___269                                                 6
 STAT SP IPHASW D HRMM SECON CODA AMPLIT PERI AZIMU VELO AIN AR TRES W  DIS CAZ7
 BAR2 SZ EP   1    854 21.15                             174   -0.46 7 14.3 165 
 BAR2 SZ I         854 37.81         2.9 0.14            163           14.3 165 
 BRR  HZ EP   1    854 23.30                             154    0.19 7 69.8 308 
 BRR  HE ES   1    854 40.27                             154    0.09 7 69.8 308 
 RUS  HN ES        854 43.92                             148    0.0910 92.3 171 
 PTB  HZ EP   1    854 28.26                             136    0.25 7  139 262 
 PTB  HN ES   1    854 48.66                             136   -0.24 7  139 262 
 PTB  HZ I         854 51.00         2.9 0.32            132            139 262 
                                                                                
