 2014  416 0815 35.2 L   6.867 -73.345120.8  RSN  7 0.6 1.7LRSN                1
 GAP=111        1.28       4.2     5.0 12.1 -0.3327E+01  0.1891E+02 -0.7211E+01E
 Epicentro: BETULIA - SANTANDER                                                3
 ACTION:UPD 14-05-13 23:08 OP:nd   STATUS:               ID:20140416081535 L   I
 OLDACT:REG 14-04-16 12:54 OP:nd   STATUS:               ID:20140416081036     3
 2014-04-16-0810-36M.COL___245                                                 6
 STAT SP IPHASW D HRMM SECON CODA AMPLIT PERI AZIMU VELO AIN AR TRES W  DIS CAZ7
 PAM  SZ EP        815 55.86                             142    0.2210 88.4  54 
 PAM  SE ES        816 12.00                             142    0.4310 88.4  54 
 PAM  SZ I         816 14.11        10.6 0.28            148           88.4  54 
 RUS  HZ EP        815 57.48                             135   -0.0510  112 165 
 RUS  HN ES   1    816 14.82                             135   -0.12 7  112 165 
 RUS  HZ I         816 16.09         5.9 0.28            140            112 165 
 PTB  HZ EP        815 57.72                             130   -0.6610  128 254 
 PTB  HE ES        816 15.80                             130   -0.6410  128 254 
 PTB  HZ I         816 20.05         7.2 0.22            133            128 254 
 OCA  HZ EP   2    816  0.45                             125   -0.40 5  152   1 
 OCA  HN ES        816 20.32                             125   -0.53 9  152   1 
 OCA  HZ I         816 21.62         8.9 0.28            130            152   1 
 SPBC HZ EP   2    816  1.77                             124    0.51 5  157 211 
 SPBC HN ES   1    816 21.74                             124    0.17 7  157 211 
 SPBC HZ I         816 24.28         6.0 0.10            128            157 211 
 ZAR  HZ EP        816  4.64                             120    0.97 9  181 293 
 ZAR  HN ES        816 26.84                             120    0.98 9  181 293 
 ZAR  HZ I         816 30.90         8.6 0.34            123            181 293 
 SML  HZ EP        816  8.47                             113   -0.37 8  228 340 
 SML  HE ES   1    816 34.36                             113   -0.72 6  228 340 
                                                                                
