 2017  716 0007 28.8 L   6.691 -73.291138.0  RSN  4 0.2 0.7LRSN                1
 GAP=178        0.50       4.6     3.8  5.5  0.8815E+01 -0.1143E+00 -0.6137E+01E
 Epicentro: GALAN - SANTANDER                                                  3
 ACTION:UPD 17-08-30 15:33 OP:rebc STATUS:               ID:20170716000728 L   I
 OLDACT:DUP 17-07-16 12:57 OP:dhb  STATUS:               ID:20170716000001d    3
 OLDACT:REG 17-07-16 11:49 OP:dhb  STATUS:               ID:20170716000000     3
 2017-07-16-0000-15M.COL___386                                                 6
 STAT SP IPHASW D HRMM SECON CODA AMPLIT PERI AZIMU VELO AIN AR TRES W  DIS CAZ7
 BAR2 EZ EP   2    0 7 47.08                             173   -0.28 5 16.2 132 
 BAR2 EZ ES   2    0 8  1.74                             173   -0.11 5 16.2 132 
 BAR2 EZ I         0 8  4.24         1.7 0.07            169           16.2 132 
 BRR  HZ EP        0 7 48.94                             153    0.1610 65.4 315 
 BRR  HN ES   2    0 8  4.26                             153   -0.11 5 65.4 315 
 RUS  HZ EP        0 7 51.30                             145    0.1910 91.2 165 
 RUS  HN ES        0 8  8.45                             145   -0.0710 91.2 165 
 RUS  HZ I         0 8 15.15         0.7 0.23            144           91.2 165 
 PTB  HZ EP        0 7 53.19                             134   -0.3410  130 263 
 PTB  HN ES        0 8 12.98                             134    0.1610  130 263 
 PTB  HZ I         0 8 15.63         0.8 0.21            137            130 263 
                                                                                
