 2013  216 0422  3.2 L   6.729 -73.219156.4  RSN  4 0.5 1.3LRSN                1
 GAP=223        0.86       7.1     7.6  8.8  0.2740E+02  0.1091E+01 -0.1756E+01E
 Epicentro: VILLANUEVA - SANTANDER                                             3
 ACTION:UPD 13-03-12 09:33 OP:ep   STATUS:               ID:20130216042203 L   I
 2013-02-16-0420-00M.COL___241                                                 6
 STAT SP IPHASW D HRMM SECON CODA AMPLIT PERI AZIMU VELO AIN AR TRES W  DIS CAZ7
 BRR  HZ EP        422 25.26                             155   -0.0710 68.7 308 
 BRR  HN ES        422 42.94                             155    0.3110 68.7 308 
 BRR  HZ I         422 45.53         2.8 0.40            153           68.7 308 
 RUS  HZ EP   1    422 27.15                             148   -0.36 7 93.7 171 
 RUS  HN ES        422 46.50                             148    0.0010 93.7 171 
 RUS  HN I         422 47.18         1.6 0.21            149           93.7 171 
 PTB  HZ EP        422 30.61                             137    0.40 9  138 261 
 PTB  HN ES        422 50.77                             137   -0.54 9  138 261 
 PTB  HN I         422 57.02         4.8 0.30            135            138 261 
 CHI  HE ES   3    423 11.41                             121    1.88 2  239 194 
                                                                                
