 2015  216 0250  4.2 L   6.801 -73.169146.7  RSN 14 0.5 2.2LRSN                1
 GAP= 70        1.19       3.3     3.9  5.6 -0.2775E+01  0.3001E+01  0.1408E+01E
 Epicentro: LOS SANTOS - SANTANDER                                             3
 ACTION:UPD 15-04-30 21:26 OP:nd   STATUS:               ID:20150216025004 L   I
 OLDACT:UP  15-02-16 15:14 OP:mh   STATUS:               ID:20150216024743     3
 OLDACT:REG 15-02-16 13:23 OP:mh   STATUS:               ID:20150216024743     3
 2015-02-16-0247-43M.COL___302                                                 6
 STAT SP IPHASW D HRMM SECON CODA AMPLIT PERI AZIMU VELO AIN AR TRES W  DIS CAZ7
 BAR2 EZ EP        250 23.97                             171    0.0110 23.1 184 
 BAR2 EZ ES        250 38.48                             171   -0.8810 23.1 184 
 BAR2 EZ I         250 40.21        43.0 0.28            172           23.1 184 
 BRR  HZ EP        250 26.03                             153    0.6810 68.9 299 
 BRR  HN ISg       250 42.52                             153    0.7010 68.9 299 
 BRR  HN ES        250 42.52                             153    0.7010 68.9 299 
 BRR  HZ I         250 43.60        27.7 0.24            152           68.9 299 
 PAM  SZ EP     C  250 26.98                             150    0.3510 79.0  41 
 PAM  SN ES        250 44.19                             150    0.0810 79.0  41 
 PAM  SZ I         250 46.15        20.3 0.64            151           79.0  41 
 RUS  HZ EP        250 27.91                             144   -0.1810  101 175 
 RUS  HN ES   1    250 46.82                             144    0.11 7  101 175 
 RUS  HZ I         250 46.83        18.6 0.22            146            101 175 
 PTB  HZ EP        250 30.73                             133   -0.31 9  145 259 
 PTB  HN ES        250 51.16                             133   -0.80 9  145 259 
 PTB  HZ I         250 55.10        16.6 0.18            133            145 259 
 TAM  HZ EP     C  250 32.23                             130    0.02 9  158 105 
 OCA  HZ EP        250 32.23                             130   -0.34 9  160 354 
 OCA  HN ES        250 54.64                             130   -0.04 9  160 354 
 OCA  HZ I         250 57.52        12.5 0.44            130            160 354 
 SPBC HZ EP        250 32.88                             130    0.23 9  162 218 
 SPBC HN ES        250 54.43                             130   -0.39 9  162 218 
 SPBC HZ I         250 56.63        37.8 0.12            130            162 218 
 ZAR  HZ EP        250 36.85                             123    0.37 9  202 292 
 ZAR  HN ES        251  1.59                             123   -0.05 9  202 292 
 NOR  HZ EP        250 40.12                             119    0.33 8  233 234 
 NOR  HN ES        251  7.14                             119   -0.39 8  233 234 
 NOR  HZ I         251 11.89        12.0 0.18            119            233 234 
 SML  HZ EP        250 40.68                             118   -0.09 8  243 336 
 SML  HN ES        251  8.47                             118   -0.82 8  243 336 
 SML  HZ I         251 17.80        19.9 0.28            118            243 336 
 ROSC BN ES   4    251 14.18                             117    2.25 0  252 211 
 URE  HZ EP   1    250 44.29                             114   -0.78 6  281 292 
 URE  HN ES   4    251 15.47                             114   -1.46 0  281 292 
 GUY2CHZ EP        250 47.18                             113   -0.46 7  299 234 
 GUY2CHN ES        251 22.41                             113    0.90 7  299 234 
 GUY2CHZ I         251 30.28         8.8 0.36                           299 234 
 RREF HZ EP   4    250 51.44                             111    1.25 0  320 229 
 RREF HN ES        251 26.66                             111    0.61 7  320 229 
                                                                                
