 2013  916 0747  1.0 L   6.811 -73.154148.0  RSN 13 0.5 2.2LRSN                1
 GAP=135        1.08       3.0     4.4  5.4 -0.1820E+01  0.6426E+01  0.6740E+00E
 Epicentro: LOS SANTOS - SANTANDER                                             3
 ACTION:UPD 13-10-22 09:23 OP:ep   STATUS:               ID:20130916074701 L   I
 OLDACT:REG 13-09-16 08:05 OP:jn   STATUS:               ID:20130916073959     3
 2013-09-16-0739-59M.COL___269                                                 6
 STAT SP IPHASW D HRMM SECON CODA AMPLIT PERI AZIMU VELO AIN AR TRES W  DIS CAZ7
 BAR2 SZ EP        747 20.97                             170    0.0410 24.3 187 
 BAR2 SZ ES        747 36.80                             170    0.3310 24.3 187 
 BAR2 SZ I         747 37.24        34.1 0.34            166           24.3 187 
 BRR  HZ EP        747 22.81                             153    0.4810 69.9 298 
 BRR  HE ES        747 39.34                             153    0.3810 69.9 298 
 BRR  HZ I         747 44.52        19.8 0.12            146           69.9 298 
 PAM  SZ EP        747 23.78                             151    0.3410 77.1  41 
 PAM  SN ES        747 40.86                             151   -0.0910 77.1  41 
 PAM  SZ I         747 43.06        29.3 0.58            153           77.1  41 
 RUS  HZ EP        747 24.86                             144   -0.2110  102 176 
 RUS  HN ES        747 43.47                             144   -0.3710  102 176 
 RUS  HZ I         747 46.65        11.5 0.26            141            102 176 
 PTB  HZ EP        747 27.50                             133   -0.60 9  147 258 
 PTB  HN ES        747 48.70                             133   -0.53 9  147 258 
 PTB  HZ I         747 56.35        36.4 0.52            126            147 258 
 OCA  HZ EP   1    747 29.12                             130   -0.26 7  159 353 
 OCA  HN ES   1    747 51.84                             130    0.34 7  159 353 
 OCA  HZ I         747 58.61        20.2 0.26            127            159 353 
 SPBC HZ EP        747 29.87                             129    0.16 9  164 218 
 SPBC HE ES        747 51.38                             129   -0.72 9  164 218 
 SPBC HZ I         747 59.45        28.6 0.18            125            164 218 
 ZAR  HZ EP        747 33.53                             123    0.06 9  203 292 
 ZAR  HN ES   1    747 58.43                             123   -0.36 6  203 292 
 ZAR  HZ I         748  4.97        24.1 0.44            118            203 292 
 NOR  HZ EP        747 36.75                             119   -0.11 8  235 234 
 NOR  HN ES        748  6.10                             119    1.27 8  235 234 
 NOR  HZ I         748 11.03        20.9 0.16            115            235 234 
 SML  HZ EP        747 37.21                             118   -0.39 8  242 335 
 SML  HN ES        748  5.62                             118   -0.53 8  242 335 
 CHI  HZ EP        747 39.06                             117    0.13 8  250 195 
 CHI  HN ES   1    748  8.36                             117   -0.14 6  250 195 
 CHI  HZ I         748 18.13         7.1 0.30            114            250 195 
 CBOC HZ EP        747 49.02                             110    1.06 7  333 252 
 CBOC HZ I         748 38.86         3.8 0.48            107            333 252 
 PRA  HZ EP        747 54.47                             107   -0.20 6  393 209 
 PRA  HN ES   1    748 36.54                             107    0.01 4  393 209 
 PRA  HZ I         748 41.15         7.0 0.32            104            393 209 
                                                                                
