 2013  616 0452  8.6 L   6.806 -73.133142.7  RSN  8 0.5 2.0LRSN                1
 GAP=184        1.15       5.0     8.0 10.7 -0.1408E+01  0.2429E+02  0.1787E+01E
 Epicentro: LOS SANTOS - SANTANDER                                             3
 ACTION:UPD 14-01-08 09:55 OP:ep   STATUS:               ID:20130616045208 L   I
 OLDACT:REG 13-06-16 07:34 OP:cam  STATUS:               ID:20130616044959     3
 2013-06-16-0449-59M.COL___261                                                 6
 STAT SP IPHASW D HRMM SECON CODA AMPLIT PERI AZIMU VELO AIN AR TRES W  DIS CAZ7
 BAR2 SZ EP        452 27.80                             170   -0.0710 24.2 193 
 BAR2 SZ ES        452 42.79                             170   -0.1210 24.2 193 
 BAR2 SZ I         452 44.33        26.3 0.21            171           24.2 193 
 BRR  HZ EP   1    452 30.18                             152    0.72 7 72.1 298 
 BRR  HN ES        452 46.59                             152    0.8510 72.1 298 
 BRR  HZ I         452 47.45        14.8 0.48            153           72.1 298 
 RUS  HN ES   1    452 50.06                             143   -0.34 7  101 177 
 PTB  HN ES        452 55.73                             131   -0.66 9  149 259 
 OCA  HN ES   1    452 57.85                             129   -0.64 7  160 353 
 NOR  HN ES   1    453 11.89                             118   -0.27 6  236 235 
 SML  HN ES   1    453 13.16                             117   -0.33 6  244 335 
 PRA  HN ES        453 44.54                             106    0.61 6  393 210 
                                                                                
