 2012  316 0923 41.3 L   6.776 -73.180144.1  RSN  5 0.4 1.7LRSN                1
 GAP=232        0.91       9.3     8.5  9.7  0.4919E+02  0.1172E+02  0.7726E+00E
 ACTION:UP  12-03-31 23:20 OP:EP   STATUS:               ID:20120316092341 L   I
 2012-03-16-0920-00M.COL___202                                                 6
 STAT SP IPHASW D HRMM SECON CODA AMPLIT PERI AZIMU VELO SNR AR TRES W  DIS CAZ7
 BAR2 SZ EP   1    924  0.47                             172    -0.2 7   20 181 
 BAR2 SZ ES   1    924 15.10                             172    -0.7 7   20 181 
 BAR2 SZ I         924 16.09        12.7 0.25                            20 181 
 BRR  HZ EP   1    924  2.27                             153     0.1 7   69 302 
 BRR  HN ES   1    924 18.95                             153     0.5 7   69 302 
 BRR  HZ I         924 23.03        13.0 0.20                            69 302 
 RUS  HZ EP   1    924  4.91                             144     0.2 7   98 174 
 RUS  HN ES   1    924 23.44                             144     0.5 7   98 174 
 RUS  HZ I         924 24.65         8.7 0.26                            98 174 
 PTB  HZ EP   1    924  7.42                             132    -0.3 7  144 260 
 PTB  HN ES   1    924 28.18                             132    -0.2 7  144 260 
 PTB  HZ I         924 30.86         4.2 0.24                           144 260 
 ZAR  HN ES   1    924 38.53                             122     0.1 6  202 293 
 ZAR  HZ I         924 41.63         4.0 0.05                           202 293 
                                                                                
