 2012  716 0716  1.9 L   6.311 -73.707 97.9  RSN  7 0.3 1.5LRSN                1
 GAP=143        0.60       3.6     2.9  7.0  0.1202E+01  0.4346E+01 -0.1576E+00E
 Epicentro: SANTA HELENA DEL OPON - SANTANDER                                  3
 ACTION:UPD 12-08-14 11:45 OP:ep   STATUS:               ID:20120716071601 L   I
 2012-07-16-0710-00M.COL___197                                                 6
 STAT SP IPHASW D HRMM SECON CODA AMPLIT PERI AZIMU VELO AIN AR TRES W  DIS CAZ7
 BAR2 SZ EP   1    716 18.15                             144     0.1 7   66  62 
 BAR2 SZ ES   1    716 30.97                             144     0.3 7   66  62 
 BAR2 SZ I         716 32.03        37.4 0.16            149             66  62 
 RUS  HZ EP   1    716 20.11                             137     0.3 7   83 124 
 RUS  HZ I         716 20.37         4.3 0.13            142             83 124 
 RUS  HN ES   2    716 33.26                             137    -0.5 5   83 124 
 PTB  HZ EP   1    716 19.19                             135    -0.3 7   87 287 
 PTB  HE ES   1    716 33.00                             135    -0.1 7   87 287 
 PTB  HZ I         716 35.93         4.1 0.13            132             87 287 
 BRR  HZ EP   1    716 19.21                             135    -0.3 7   88 360 
 BRR  HZ I         716 19.47        13.1 0.17            135             88 360 
 BRR  HE ES   1    716 33.37                             135     0.1 7   88 360 
 ZAR  HZ EP   2    716 29.38                             114     0.1 4  182 316 
 ZAR  HN ES   2    716 50.77                             114     0.1 4  182 316 
 ZAR  HZ I         716 57.32         5.8 0.31            112            182 316 
 HEL  HN ES   2    716 56.12                             112     0.7 4  202 266 
 HEL  HZ I         717  0.57         1.5 0.48            110            202 266 
 OCA  HN ES   1    716 58.21                             110     0.1 6  217  11 
