 2013  216 0936 29.0 L   6.793 -73.156148.6  RSN  9 0.4 2.0LRSN                1
 GAP= 71        0.96       3.4     3.2  5.7  0.1423E+01  0.1900E+01  0.3013E+01E
 Epicentro: LOS SANTOS - SANTANDER                                             3
 ACTION:UPD 13-03-12 09:33 OP:ep   STATUS:               ID:20130216093629 L   I
 2013-02-16-0930-00M.COL___241                                                 6
 STAT SP IPHASW D HRMM SECON CODA AMPLIT PERI AZIMU VELO AIN AR TRES W  DIS CAZ7
 BAR2 SZ EP        936 48.83                             171   -0.1210 22.3 187 
 BAR2 SZ ES        937  4.19                             171   -0.3110 22.3 187 
 BAR2 SZ I         937  4.90        18.3 0.26            169           22.3 187 
 BRR  HN ES        937  7.73                             153    0.6110 70.5 300 
 BRR  HN I         937 11.44        18.4 0.18            152           70.5 300 
 PAM  SZ EP        936 51.72                             151    0.1310 78.8  40 
 PAM  SN ES        937  8.73                             151   -0.4910 78.8  40 
 PAM  SN I         937  9.60        17.4 0.46            154           78.8  40 
 RUS  HZ EP        936 52.91                             144   -0.0610 99.9 175 
 RUS  HN ES        937 12.10                             144    0.4310 99.9 175 
 RUS  HN I         937 13.19         9.6 0.30            145           99.9 175 
 PTB  HZ EP        936 55.60                             133   -0.48 9  146 259 
 PTB  HN ES        937 17.15                             133   -0.05 9  146 259 
 PTB  HN I         937 21.80        20.5 0.22            132            146 259 
 TAM  HZ EP        936 57.22                             131    0.23 9  156 105 
 TAM  HE ES        937 19.08                             131    0.27 9  156 105 
 OCA  HN ES        937 19.56                             130   -0.33 9  161 354 
 ZAR  HZ EP        937  1.65                             123    0.10 9  203 292 
 ZAR  HE ES        937 27.13                             123    0.20 9  203 292 
 ZAR  HN I         937 31.80         9.5 0.24            123            203 292 
 CHI  HZ EP        937  7.22                             118    0.49 8  248 195 
 CHI  HN ES   1    937 35.02                             118   -1.15 6  248 195 
 CHI  HN I         937 41.00         5.5 0.36            118            248 195 
                                                                                
