 2017 1016 0259 22.4 L   6.756 -73.222151.3  RSN  5 0.4 1.1LRSN                1
 GAP=221        0.95       7.3     6.6  6.9  0.2957E+02  0.6059E+01 -0.3421E+01E
 Epicentro: ZAPATOCA - SANTANDER                                               3
 ACTION:UPD 17-11-07 19:32 OP:rebc STATUS:               ID:20171016025922 L   I
 OLDACT:UP  17-10-16 14:34 OP:dani STATUS:               ID:20171016025742     3
 OLDACT:REG 17-10-16 12:44 OP:dani STATUS:               ID:20171016025742     3
 2017-10-16-0258-00M.COL___429                                                 6
 STAT SP IPHASW D HRMM SECON CODA AMPLIT PERI AZIMU VELO AIN AR TRES W  DIS CAZ7
 BAR2 EZ EP        259 42.51                             173   -0.1110 18.6 166 
 BAR2 EZ ES        259 57.93                             173   -0.4510 18.6 166 
 BRR  HZ EP        259 44.09                             155    0.1810 66.6 306 
 BRR  HN ES        3 0  0.95                             155    0.2710 66.6 306 
 BRR  HZ I         3 0  3.98         4.1 0.62            150           66.6 306 
 RUS  HZ EP        259 46.71                             146    0.2810 96.7 171 
 RUS  HN ES        3 0  5.35                             146    0.1710 96.7 171 
 RUS  HZ I         3 0  7.10         1.5 0.22            147           96.7 171 
 PTB  HZ EP        259 49.26                             135    0.23 9  139 260 
 PTB  HN ES        3 0  9.44                             135   -0.35 9  139 260 
 PTB  HZ I         3 0 15.08         1.0 0.22            132            139 260 
 ZAR  HZ EP        259 53.82                             124   -0.81 9  198 294 
 ZAR  HE ES        3 0 20.23                             124    0.47 9  198 294 
 ZAR  HZ I         3 0 30.51         1.5 0.46            123            198 294 
                                                                                
