 2015 1116 0319 58.8 L   6.781 -73.091141.4  RSN 10 0.5 1.7LRSN                1
 GAP=145        1.09       3.6     5.5  7.5  0.2666E+00  0.6432E+01 -0.6777E+01E
 Epicentro: LOS SANTOS - SANTANDER                                             3
 ACTION:UPD 15-12-28 16:11 OP:cam  STATUS:               ID:20151116031958 L   I
 OLDACT:UP  15-11-16 17:44 OP:dnl  STATUS:               ID:20151116031748     3
 OLDACT:UP  15-11-16 17:20 OP:dnl  STATUS:               ID:20151116031748     3
 OLDACT:REG 15-11-16 13:04 OP:dnl  STATUS:               ID:20151116031748     3
 2015-11-16-0317-48M.COL___319                                                 6
 STAT SP IPHASW D HRMM SECON CODA AMPLIT PERI AZIMU VELO AIN AR TRES W  DIS CAZ7
 BAR2 EZ EP        320 17.82                             170   -0.0610 23.2 206 
 BAR2 EZ ES        320 32.40                             170   -0.3810 23.2 206 
 BAR2 EZ I         320 34.02        14.0 0.20            172           23.2 206 
 PAM  EZ EP        320 20.90                             151    0.4910 75.4  35 
 PAM  EN ES   2    320 38.18                             151    0.89 5 75.4  35 
 PAM  EZ I         320 40.38         8.5 0.48            152           75.4  35 
 BRR  HZ EP        320 19.86                             150    0.0310 77.5 298 
 BRR  HN ES        320 37.12                             150    0.8610 77.5 298 
 BRR  HZ I         320 37.81        10.4 0.16            150           77.5 298 
 RUS  HZ EP        320 21.65                             144   -0.2710 98.2 179 
 RUS  HE ES        320 39.91                             144   -0.0710 98.2 179 
 RUS  HZ I         320 41.55         5.0 0.34            147           98.2 179 
 OCA  HZ EP        320 26.89                             128   -0.14 9  163 351 
 OCA  HN ES        320 48.60                             128   -0.47 9  163 351 
 OCA  HZ I         320 51.95        11.0 0.30            130            163 351 
 SPBC HE ES        320 48.82                             128   -0.48 9  165 221 
 SPBC HZ I         320 50.91         8.1 0.20            130            165 221 
 ZAR  HZ EP        320 32.16                             121    0.55 8  210 292 
 ZAR  HE ES        320 56.92                             121   -0.30 8  210 292 
 ZAR  HZ I         321  1.28         5.4 0.32            122            210 292 
 SML  HN ES        321  3.90                             116   -0.52 8  248 334 
 SML  HZ I         321  6.81         6.0 0.10            118            248 334 
 GUY2CHE ES   1    321 17.59                             111    0.79 5  305 236 
 GUY2CHZ I         321 22.76         2.2 0.48                           305 236 
 MON  HZ EP   4    320 52.82                             107    4.51 0  360 308 
 MON  HN ES   4    321 24.46                             107   -2.50 0  360 308 
 MON  HZ I         321 25.60         1.0 0.64            109            360 308 
 SJC  HZ EP   4    320 53.15                             105   -1.65 0  414 326 
 SJC  HE ES   4    321 34.89                             105   -3.60 0  414 326 
                                                                                
