 2017 1216 0012 29.7 L   6.841 -73.140151.3  RSN 28 0.4 2.6LRSN                1
 GAP= 56        0.87       2.0     2.3  4.0 -0.6046E+00  0.2065E+01  0.9897E-01E
 Epicentro: LOS SANTOS - SANTANDER                                             3
 ACTION:UPD 18-01-04 13:20 OP:rebc STATUS:               ID:20171216001229 L   I
 OLDACT:UP  17-12-16 13:45 OP:edw  STATUS:               ID:20171216000741d    3
 OLDACT:UP  17-12-16 13:43 OP:edw  STATUS:               ID:20171216000741d    3
 OLDACT:UP  17-12-16 13:38 OP:edw  STATUS:               ID:20171216000741d    3
 OLDACT:DUP 17-12-16 13:21 OP:edw  STATUS:               ID:20171216000741d    3
 OLDACT:UP  17-12-16 13:20 OP:edw  STATUS:               ID:20171216000740     3
 OLDACT:REG 17-12-16 11:41 OP:edw  STATUS:               ID:20171216000740     3
 2017-12-16-0008-00M.COL___476                                                 6
 STAT SP IPHASW D HRMM SECON CODA AMPLIT PERI AZIMU VELO AIN AR TRES W  DIS CAZ7
 BAR2 EZ EP     D  012 49.94                             169   -0.1110 27.9 190 
 BAR2 EZ ES        013  5.92                             169   -0.0410 27.9 190 
 BAR2 EZ I         013  6.64        59.3 0.50            167           27.9 190 
 PAM  EZ EP     C  012 52.79                             153    0.5410 73.6  41 
 PAM  EN ES        013 10.07                             153    0.2010 73.6  41 
 PAM  EZ I         013 12.27        54.7 0.50            157           73.6  41 
 PTB  HZ EP        012 56.87                             133   -0.35 9  149 257 
 PTB  HN ES        013 18.49                             133   -0.23 9  149 257 
 PTB  HZ I         013 23.47        28.3 0.20            131            149 257 
 OCA  HN ES        013 20.18                             132    0.07 9  156 353 
 OCA  HZ I         013 24.39        71.1 0.24            132            156 353 
 TAM  HZ IP     D  012 58.09                             132    0.25 9  156 107 
 TAM  HN ES        013 19.88                             132    0.06 9  156 107 
 TAM  HZ I         013 20.37        19.1 0.26            135            156 107 
 OCA  HZ EP        012 58.18                             132    0.17 9  156 353 
 SPBC HZ EP        012 58.75                             130   -0.21 9  167 218 
 SPBC HN ES        013 21.25                             130   -0.55 9  167 218 
 SPBC HZ I         013 25.58        77.3 0.12            129            167 218 
 YPLC HZ EP        012 59.88                             127   -0.34 9  180 152 
 YPLC HN ES        013 23.93                             127   -0.12 9  180 152 
 YPLC HZ I         013 24.91        19.5 0.24            129            180 152 
 ZAR  HZ EP        013  2.46                             124    0.10 9  203 291 
 ZAR  HN ES        013 28.03                             124    0.16 9  203 291 
 ZAR  HN I         013 33.97        69.7 0.14            123            203 291 
 ZAR  HZ I         013 35.54        37.4 0.40                           203 291 
 ROSC BZ EP   4    013  9.98                             117    1.44 0  257 211 
 ROSC BN ES   4    013 40.35                             117    1.48 0  257 211 
 ROSC BZ I         013 46.12        41.0 0.40            117            257 211 
 CVER HZ EP   4    013 12.19                             115    1.40 0  277 202 
 CVER HE ES   4    013 44.49                             115    1.61 0  277 202 
 CVER HZ I         013 50.50        21.8 0.46            116            277 202 
 URE  HZ EP        013 10.34                             115   -0.55 7  283 291 
 URE  HN ES   4    013 41.08                             115   -1.96 0  283 291 
 URE  HZ I         013 52.86        17.2 0.12            115            283 291 
 DRL03HZ EP        013 11.64                             115    0.59 7  285 353 
 DRL03HN ES   4    013 44.70                             115    1.36 0  285 353 
 GUY2CHZ EP        013 14.11                             113    0.23 7  304 234 
 GUY2CHN ES        013 48.78                             113    0.41 7  304 234 
 GUY2CHZ I         013 56.35        23.3 0.32                           304 234 
 VIL  EZ EP        013 13.69                             113   -0.16 7  308 192 
 VIL  EN ES        013 48.00                             113   -0.31 7  308 192 
 VIL  EZ I         013 57.17        18.9 0.32            113            308 192 
 PTGC HZ EP   9 D  013 12.70                             112   -1.52 0  313 159 
 PTGC HN ES        013 46.17                             112   -1.28 7  313 159 
 PTGC HZ I         013 47.48        16.8 0.38            113            313 159 
 DRL02HZ EP        013 15.25                             112    0.15 7  320 357 
 DRL02HN ES   4    013 51.31                             112    0.78 0  320 357 
 ELA  HZ EP   4    013 18.44                             111    1.30 0  333 229 
 ELA  HN ES   4    013 57.46                             111    3.29 0  333 229 
 ELA  HZ I         014  1.66        16.5 0.38            111            333 229 
 CBOC HZ EP   4    013 18.40                             111    1.36 0  336 251 
 CBOC HN ES        013 53.80                             111   -0.19 7  336 251 
 CBOC HZ I         014  1.54         6.2 0.48            111            336 251 
 DBB  EZ EP   9    013 16.43                             110   -0.98 0  340 273 
 DBB  HN ES        013 54.07                             110    0.40 7  340 273 
 DBB  EZ I         013 55.92        13.8 0.20            110            340 273 
 SDV  BZ EP        013 19.39                             109   -0.14 6  357  51 
 SDV  B1 ES   4    013 56.54                             109   -1.89 0  357  51 
 SDV  BZ I         013 58.73         5.2 0.35            111            357  51 
 ANIL HZ EP        013 20.94                             109    0.83 6  361 224 
 ANIL HE ES   4    014  1.15                             109    1.70 0  361 224 
 ANIL HZ I         014  6.21        45.8 0.32            109            361 224 
 PRA  HZ EP        013 23.58                             107   -0.29 6  396 209 
 PRA  HE ES        014  6.44                             107    0.29 6  396 209 
 PRA  HZ I         014 11.53        21.1 0.30            107            396 209 
 ORTC HZ EP        013 24.24                             107    0.00 6  399 216 
 ORTC HN ES        014  7.98                             107    1.16 6  399 216 
 ORTC HZ I         014 13.46        13.4 0.42            107            399 216 
 SJC  HZ EP        013 24.22                             107   -0.79 6  406 327 
 SJC  HN ES   4    014  5.51                             107   -2.67 0  406 327 
 SJC  HZ I         014 16.17         3.9 0.54            107            406 327 
 VALLCHZ EP   4    013 22.53                             107   -2.44 0  406 358 
 VALLCHN ES   2    014  7.68                             107   -0.43 3  406 358 
 PAL  HZ EP        013 25.41                             107    0.06 6  409 239 
 CRJC HZ EP   4    013 30.21                             104   -1.58 0  463   4 
 CRJC HE ES        014 19.29                             104   -0.95 5  463   4 
 CRJC HZ I         014 24.65        10.8 0.22            105            463   4 
 URI  HZ EP   9    013 40.19                             101   -2.06 0  552  13 
 URI  HN ES        014 36.92                             102    0.11 4  552  13 
                                                                                
