 2016  316 0051 39.9 L   6.820 -73.127141.3  RSN  7 0.4 1.5LRSN                1
 GAP=138        0.75       3.6     4.0  8.1 -0.6032E+00  0.1246E+02  0.9330E+01E
 Epicentro: LOS SANTOS - SANTANDER                                             3
 ACTION:UPD 16-05-13 21:24 OP:cam  STATUS:               ID:20160316005139 L   I
 OLDACT:REG 16-03-16 14:04 OP:dnl  STATUS:               ID:20160316004746     3
 2016-03-16-0047-46M.COL___295                                                 6
 STAT SP IPHASW D HRMM SECON CODA AMPLIT PERI AZIMU VELO AIN AR TRES W  DIS CAZ7
 BAR2 EZ EP   2    051 59.83                             169    0.75 5 25.9 194 
 BAR2 EZ ES   2    052 14.19                             169    0.17 5 25.9 194 
 BAR2 EZ I         052 15.94         6.6 0.20            170           25.9 194 
 PAM  EZ EP   2    052  2.28                             151    0.79 5 74.4  39 
 PAM  EN ES        052 17.78                             151   -0.5310 74.4  39 
 PAM  EZ I         052 21.16         4.3 0.30            152           74.4  39 
 RUS  HZ EP   2    052  3.72                             142    0.32 5  103 177 
 RUS  HN ES   2    052 22.36                             142    0.65 5  103 177 
 RUS  HZ I         052 23.48         3.4 0.26            145            103 177 
 PTB  HZ EP        052  6.47                             130   -0.29 9  150 258 
 PTB  HN ES        052 27.59                             130   -0.10 9  150 258 
 PTB  HZ I         052 29.41         3.5 0.10            131            150 258 
 SPBC HZ EP   1    052  8.64                             127    0.26 7  166 219 
 SPBC HN ES        052 30.67                             127    0.10 9  166 219 
 SPBC HZ I         052 31.66         5.2 0.06            129            166 219 
 ZAR  HE ES        052 37.65                             121    0.29 9  205 291 
 ZAR  HZ I         052 43.97         3.4 0.22            122            205 291 
 CHI  HZ EP   2    052 17.25                             116   -0.42 4  251 195 
 CHI  HN ES        052 46.85                             116   -0.27 8  251 195 
 CHI  HE I         052 49.50         3.8 0.34            118            251 195 
                                                                                
