 2014  416 0517 22.3 L   6.802 -73.149147.2  RSN  5 0.3 1.7LRSN                1
 GAP=136        0.86       3.9     4.0  7.7 -0.1973E+01  0.1073E+02 -0.2542E+01E
 Epicentro: LOS SANTOS - SANTANDER                                             3
 ACTION:UPD 14-05-13 23:08 OP:nd   STATUS:               ID:20140416051722 L   I
 OLDACT:REG 14-04-16 12:45 OP:nd   STATUS:               ID:20140416051043     3
 2014-04-16-0510-43M.COL___248                                                 6
 STAT SP IPHASW D HRMM SECON CODA AMPLIT PERI AZIMU VELO AIN AR TRES W  DIS CAZ7
 PAM  SZ EP        517 45.02                             151    0.3310 77.4  40 
 PAM  SN ES        518  2.12                             151   -0.0210 77.4  40 
 PAM  SZ I         518  4.31         5.2 0.20            157           77.4  40 
 RUS  HZ EP        517 46.11                             144   -0.1210  101 176 
 RUS  HN ES        518  4.60                             144   -0.2710  101 176 
 PTB  HZ EP        517 49.15                             132   -0.23 9  147 259 
 PTB  HN ES        518 10.06                             132   -0.42 9  147 259 
 PTB  HZ I         518 17.56         6.4 0.44            133            147 259 
 SPBC HZ EP        517 51.15                             129    0.23 9  163 219 
 SPBC HN ES        518 13.82                             129    0.59 9  163 219 
 SPBC HZ I         518 18.97         7.8 0.14            132            163 219 
 ZAR  HZ EP        517 54.36                             123   -0.46 9  204 292 
 ZAR  HN ES        518 20.58                             123    0.41 9  204 292 
 ZAR  HZ I         518 28.90         4.5 0.38            124            204 292 
                                                                                
