 2013  116 0840 51.6 L   6.480 -73.583106.6  RSN  5 0.1 1.0LRSN                1
 GAP=134        0.33       3.1     2.1  4.4  0.2977E+01  0.2502E+01 -0.7405E+00E
 Epicentro: SANTA HELENA DEL OPON - SANTANDER                                  3
 ACTION:UPD 13-02-15 09:14 OP:ep   STATUS:               ID:20130116084051 L   I
 2013-01-16-0840-00M.COL___239                                                 6
 STAT SP IPHASW D HRMM SECON CODA AMPLIT PERI AZIMU VELO AIN AR TRES W  DIS CAZ7
 BAR2 SZ EP   1    841  7.50                             155    0.00 7 46.0  74 
 BAR2 SZ ES   1    841 19.74                             155   -0.12 7 46.0  74 
 BRR  HZ EP   1    841  8.81                             144    0.11 7 70.8 348 
 RUS  HZ EP   1    841 10.43                             139   -0.07 7 85.3 140 
 RUS  HN ES   1    841 25.37                             139    0.16 7 85.3 140 
 RUS  HZ I         841 27.11         2.2 0.20            142           85.3 140 
 PTB  HZ EP   1    841 10.69                             134   -0.12 7 96.8 274 
 PTB  HN ES   1    841 25.74                             134   -0.02 7 96.8 274 
 PTB  HZ I         841 30.01         2.2 0.12            135           96.8 274 
 ZAR  HN ES   2    841 40.87                             115    0.18 4  180 309 
                                                                                
