 2014  316 0834  8.0 L   6.753 -73.185155.7  RSN  4 0.1 1.3LRSN                1
 GAP=196        0.39       3.4     3.4  5.3  0.7090E+01 -0.4038E+01 -0.9947E+01E
 Epicentro: VILLANUEVA - SANTANDER                                             3
 OLDACT:REG 14-03-16 07:45 OP:fm   STATUS:               ID:20140316082809     3
 ACTION:UPD 14-04-09 23:17 OP:nd   STATUS:               ID:20140316083409dL   I
 OLDACT:DUP 14-03-16 13:19 OP:fm   STATUS:               ID:20140316082810d    3
 2014-03-16-0828-09M.COL___236                                                 6
 STAT SP IPHASW D HRMM SECON CODA AMPLIT PERI AZIMU VELO AIN AR TRES W  DIS CAZ7
 RUS  HZ EP        834 32.42                             147   -0.0110 95.8 173 
 RUS  HN ES        834 51.52                             147    0.0510 95.8 173 
 RUS  HZ I         834 54.10         2.2 0.98            151           95.8 173 
 PTB  HZ EP        834 35.28                             135   -0.07 9  143 261 
 PTB  HN ES        834 56.52                             135   -0.15 9  143 261 
 PTB  HZ I         834 58.54         3.6 1.72            138            143 261 
 ZAR  HZ EP        834 40.98                             125    0.06 9  202 294 
 ZAR  HE ES   1    835  6.94                             125    0.35 6  202 294 
 ZAR  HZ I         835 10.49         1.2 0.60            128            202 294 
 SML  HN ES   1    835 14.66                             119   -0.13 6  247 337 
                                                                                
