 2016 1216 0042 37.0 L   6.572 -73.476111.7  RSN  4 0.3 1.5LRSN                1
 GAP=186        0.80       6.2     9.1  6.3  0.4090E+02 -0.1021E+02 -0.1437E+01E
 Epicentro: EL CARMEN - SANTANDER                                              3
 ACTION:UPD 17-01-11 20:15 OP:rebc STATUS:               ID:20161216004236 L   I
 OLDACT:UP  16-12-26 14:29 OP:nlst STATUS:               ID:20161216004236 L   3
 OLDACT:REG 16-12-16 12:15 OP:and  STATUS:               ID:20161216003749     3
 2016-12-16-0038-00M.COL___386                                                 6
 STAT SP IPHASW D HRMM SECON CODA AMPLIT PERI AZIMU VELO AIN AR TRES W  DIS CAZ7
 BAR2 EZ EP        042 52.78                             163   -0.0110 32.6  86 
 BAR2 EZ ES        043  5.08                             163   -0.0610 32.6  86 
 BAR2 EZ I         043  6.54        16.1 0.40            163           32.6  86 
 BRR  HZ EP        042 53.58                             148   -0.5110 64.6 336 
 BRR  HN ES        043  7.78                             148    0.3210 64.6 336 
 RUS  HZ EP        042 56.83                             140    0.4410 86.8 150 
 RUS  HN ES        043 11.34                             140   -0.2210 86.8 150 
 RUS  HZ I         043 13.32         4.3 0.18            140           86.8 150 
 TAM  HZ EP        043  5.63                             116    0.04 9  187  95 
                                                                                
