 2014  516 0541 38.7 L   6.826 -73.156146.1  RSN 16 0.5 2.1LRSN                1
 GAP=134        1.14       3.7     4.5  7.3 -0.4012E+01  0.6088E+01  0.6434E+01E
 Epicentro: LOS SANTOS - SANTANDER                                             3
 ACTION:UPD 15-03-16 16:58 OP:nd   STATUS:               ID:20140516054138 L   I
 OLDACT:REG 14-05-16 13:06 OP:spq  STATUS:               ID:20140516053818     3
 2014-05-16-0538-18M.COL___248                                                 6
 STAT SP IPHASW D HRMM SECON CODA AMPLIT PERI AZIMU VELO AIN AR TRES W  DIS CAZ7
 BRR  HZ IP     C  542  0.37                             153    0.6010 68.8 297 
 BRR  HN ES        542 16.89                             153    0.7010 68.8 297 
 BRR  HZ I         542 21.12        19.2 0.18            142           68.8 297 
 PAM  SZ EP        542  1.50                             151    0.6110 75.9  42 
 PAM  SN ES        542 18.00                             151   -0.1710 75.9  42 
 PAM  SZ I         542 20.82         9.2 0.18            140           75.9  42 
 RUS  HZ EP        542  2.66                             143   -0.0610  104 176 
 RUS  HE ES   1    542 21.01                             143   -0.43 7  104 176 
 RUS  HZ I         542 23.13        10.8 0.34            137            104 176 
 PTB  HZ EP        542  5.00                             132   -0.67 9  147 258 
 PTB  HE ES        542 26.51                             132   -0.17 9  147 258 
 PTB  HZ I         542 27.81        19.4 0.14            122            147 258 
 OCA  HN ES        542 27.63                             130   -1.02 9  157 353 
 OCA  HZ I         542 34.42        12.5 0.28            118            157 353 
 SPBC HN ES   1    542 29.01                             129   -0.75 7  165 218 
 SPBC HZ I         542 34.79        13.0 0.14            120            165 218 
 ZAR  HZ EP   1    542 11.10                             123    0.13 6  202 291 
 ZAR  HN ES        542 36.58                             123    0.47 9  202 291 
 ZAR  HZ I         542 41.93        13.7 0.24            112            202 291 
 NOR  HZ EP   1    542 14.81                             118    0.26 6  235 234 
 NOR  HZ E         542 14.81                                            235 234 
 NOR  HN ES        542 43.13                             118    0.63 8  235 234 
 NOR  HZ I         542 48.32         8.7 0.16            110            235 234 
 SML  HZ EP        542 14.85                             118   -0.18 8  241 335 
 SML  HZ I         542 55.10        18.7 0.10            108            241 335 
 CHI  HZ EP        542 16.99                             117    0.28 8  251 195 
 CHI  HN ES   1    542 46.44                             117    0.10 6  251 195 
 CHI  HZ I         542 49.61         6.7 0.36            109            251 195 
 ROSC BZ EP   4    542 18.73                             117    1.66 0  255 210 
 ROSC BN ES   4    542 49.05                             117    2.07 0  255 210 
 ROSC BZ I         542 53.46         9.2 0.40            109            255 210 
 HEL  HZ EP   1    542 18.81                             115   -0.10 6  272 255 
 HEL  HE ES   1    542 49.28                             115   -0.97 6  272 255 
 HEL  HZ I         542 57.62         9.6 0.54            106            272 255 
 URE  HZ EP   4    542 18.41                             114   -1.16 0  282 291 
 URE  HN ES   4    542 50.13                             114   -1.29 0  282 291 
 URE  HZ I         542 58.92         9.6 0.22            105            282 291 
 GUY2CHZ EP   1    542 22.43                             112    0.00 5  302 234 
 GUY2CHN ES        542 56.19                             112   -0.33 7  302 234 
 GUY2CHZ I         543  6.54         5.7 0.60                           302 234 
 RREF HN ES   1    543  1.19                             111    0.10 5  323 229 
 RREF HZ I         543  8.64         5.4 0.28            103            323 229 
 CBOC HZ EP   4    542 27.01                             110    1.38 0  333 252 
 CBOC HN ES   4    543  0.21                             110   -2.00 0  333 252 
 CBOC HZ I         543  5.53         2.2 0.22            102            333 252 
                                                                                
