 2010  516 0559 11.5 L   6.788 -72.975148.0  RSN  8 0.3 2.0LRSN                1
 GAP=176        0.72       3.6     6.8  7.6 -0.4387E+01 -0.6619E+01 -0.3156E+01E
 Epicentro: CEPITA - SANTANDER                                                 3
 ACTION:UP  10-08-24 10:05 OP:vdl  STATUS:               ID:20100516055911 L   I
 2010-05-16-0556-34S.COL___108                                                 6
 STAT SP IPHASW D HRMM SECON CODA AMPLIT PERI AZIMU VELO AIN AR TRES W  DIS CAZ7
 BRR  HZ EP        559 34.27                             147     0.310   89 294 
 BRR  HN ES   1    559 51.45                             147     0.0 7   89 294 
 BRR  HZ I         559 55.46        17.7 0.25                            89 294 
 RUS  HZ EP        559 35.65                             144     0.210  100 187 
 RUS  HN ES   1    559 53.73                             144    -0.3 7  100 187 
 RUS  HZ I         559 55.33         6.9 0.16                           100 187 
 BRI  SZ EP        559 35.08                             143    -0.310  105  11 
 GUE  SZ EP        559 36.72                             140     0.410  115   3 
 OCA  SZ EP        559 40.14                             129    -0.3 9  165 347 
 OCA  SZ ES   2    6 0  2.59                             129    -0.4 5  165 347 
 OCA  SZ I         6 0  6.59         6.0 0.31                           165 347 
 HEL  HZ EP   2    559 53.76                             114    -0.1 4  290 257 
 HEL  HZ I         6 0 30.65         5.9 0.18                           290 257 
 RREF BZ EP   1    559 59.50                             110     0.2 5  335 232 
 RREF BE ES   2    6 0 36.38                             110    -0.2 3  335 232 
 RREF BZ I         6 0 41.67         6.1 0.49                           335 232 
 PRA  HZ EP   2    6 0  5.34                             106    -0.8 3  400 212 
 PRA  HE ES   3    6 0 47.59                             106    -1.1 1  400 212 
 PRA  HZ I         6 0 52.00         3.3 0.68                           400 212 
                                                                                
