 2017 1016 0205  6.6 L   6.657 -73.171144.8  RSN  4 0.2 1.0LRSN                1
 GAP=240        0.55       7.0     4.7  5.1  0.1697E+02  0.8018E+01  0.5586E+01E
 Epicentro: VILLANUEVA - SANTANDER                                             3
 ACTION:UPD 17-11-07 19:32 OP:rebc STATUS:               ID:20171016020506 L   I
 OLDACT:UP  17-10-16 14:21 OP:dani STATUS:               ID:20171016015743d    3
 OLDACT:DUP 17-10-16 14:19 OP:dani STATUS:               ID:20171016015743d    3
 OLDACT:UP  17-10-16 14:18 OP:dani STATUS:               ID:20171016015742     3
 OLDACT:REG 17-10-16 12:39 OP:dani STATUS:               ID:20171016015742     3
 2017-10-16-0158-00M.COL___435                                                 6
 STAT SP IPHASW D HRMM SECON CODA AMPLIT PERI AZIMU VELO AIN AR TRES W  DIS CAZ7
 BAR2 EZ EP        2 5 25.89                             176   -0.0410 7.33 190 
 BAR2 EZ ES        2 5 41.08                             176    0.1010 7.33 190 
 BAR2 EZ I         2 5 42.28         2.8 0.20            174           7.33 190 
 BRR  HZ EP        2 5 27.74                             150   -0.3310 77.8 310 
 BRR  HN ES        2 5 44.80                             150    0.0210 77.8 310 
 BRR  HZ I         2 5 46.74         2.1 0.11            146           77.8 310 
 PTB  HZ EP        2 5 33.39                             133    0.32 9  143 265 
 PTB  HN ES   1    2 5 53.43                             133   -0.26 7  143 265 
 PTB  HZ I         2 5 55.92         0.7 0.21            131            143 265 
 ZAR  HE ES        2 6  5.14                             122    0.14 8  208 296 
 ZAR  HZ I         2 6 12.32         1.3 0.21            121            208 296 
                                                                                
