 2016 1216 0750 41.9 L   6.777 -73.158148.3  RSN  5 0.2 1.1LRSN                1
 GAP=136        0.63       3.4     3.3  4.6 -0.1056E+01  0.1766E+01  0.6367E+00E
 Epicentro: LOS SANTOS - SANTANDER                                             3
 ACTION:UPD 17-01-11 20:15 OP:rebc STATUS:               ID:20161216075041 L   I
 OLDACT:UP  16-12-16 18:02 OP:e    STATUS:               ID:20161216074751d    3
 OLDACT:DUP 16-12-16 18:01 OP:e    STATUS:               ID:20161216074751d    3
 2016-12-16-0748-00M.COL___334                                                 6
 STAT SP IPHASW D HRMM SECON CODA AMPLIT PERI AZIMU VELO AIN AR TRES W  DIS CAZ7
 BAR2 EZ EP        751  1.65                             172   -0.1510 20.6 188 
 BAR2 EZ ES        751 16.86                             172   -0.4510 20.6 188 
 BAR2 EZ I         751 19.18         3.4 0.26            167           20.6 188 
 BRR  HZ EP        751  3.48                             153    0.1310 71.3 301 
 BRR  HN ES        751 20.38                             153    0.3210 71.3 301 
 PAM  EZ IP     D  751  4.44                             150   -0.1310 80.2  39 
 PAM  HN ES        751 22.34                             150    0.1010 80.2  39 
 RUS  HZ EP        751  5.89                             145    0.1410 98.2 175 
 RUS  HN ES        751 24.61                             145    0.2710 98.2 175 
 RUS  HZ I         751 25.37         2.6 0.36            145           98.2 175 
 PTB  HZ EP        751  8.79                             133   -0.14 9  146 260 
 PTB  HN ES        751 29.89                             133   -0.11 9  146 260 
 PTB  HZ I         751 40.43         1.3 0.30            130            146 260 
                                                                                
