 2013  716 0404 49.9 L   6.757 -73.156146.0  RSN  8 0.4 2.0LRSN                1
 GAP=182        0.84       4.3     4.7  6.7 -0.2739E+01  0.2744E+01  0.5726E+01E
 Epicentro: LOS SANTOS - SANTANDER                                             3
 ACTION:UPD 13-08-12 10:38 OP:ep   STATUS:               ID:20130716040449 L   I
 OLDACT:UP  13-07-16 09:53 OP:mh   STATUS:               ID:20130716040000     3
 OLDACT:REG 13-07-16 07:53 OP:mh   STATUS:               ID:20130716040000     3
 2013-07-16-0400-00M.COL___263                                                 6
 STAT SP IPHASW D HRMM SECON CODA AMPLIT PERI AZIMU VELO AIN AR TRES W  DIS CAZ7
 BAR2 SZ EP        4 5  9.43                             172   -0.0210 18.4 189 
 BAR2 SZ I         4 5 25.62        13.1 0.10            172           18.4 189 
 GIR2 SZ EP        4 5  9.53                             166   -0.1810 35.9 353 
 GIR2 SZ ES   1    4 5 24.60                             166   -0.58 7 35.9 353 
 GIR2 SZ I         4 5 26.35        18.3 0.10            163           35.9 353 
 BRR  HZ EP        4 5 11.19                             152    0.0510 72.7 302 
 BRR  HN ES        4 5 28.38                             152    0.6610 72.7 302 
 BRR  HN I         4 5 30.31        21.6 0.14            149           72.7 302 
 RUS  HZ EP   1    4 5 13.26                             145   -0.06 7 95.9 175 
 RUS  HN ES        4 5 31.60                             145   -0.0110 95.9 175 
 RUS  HN I         4 5 33.70         9.6 0.22            143           95.9 175 
 PTB  HZ EP   1    4 5 16.26                             133   -0.43 7  146 261 
 PTB  HN ES        4 5 37.30                             133   -0.31 9  146 261 
 PTB  HN I         4 5 42.49        17.6 0.52            129            146 261 
 SPBC HZ EP        4 5 18.36                             130    0.38 9  159 220 
 SPBC HN ES        4 5 40.23                             130    0.33 9  159 220 
 NOR  HZ EP   1    4 5 25.48                             119    0.25 6  231 235 
 NOR  HE ES        4 5 52.31                             119   -0.50 8  231 235 
 NOR  HE I         4 5 58.70        18.6 0.20            116            231 235 
 HEL  HE ES   4    4 6  4.17                             115    3.12 0  270 257 
 HEL  HE I         4 6 10.28         5.3 0.38            112            270 257 
                                                                                
