 2017  416 0532  6.5 L   6.716 -73.195139.0  RSN  5 0.5 1.3LRSN                1
 GAP=225        1.23       9.2     8.7  9.8  0.4176E+02  0.2312E+02 -0.1215E+02E
 Epicentro: VILLANUEVA - SANTANDER                                             3
 ACTION:UPD 17-05-30 21:12 OP:jn   STATUS:               ID:20170416053206 L   I
 OLDACT:REG 17-04-16 14:15 OP:dani STATUS:               ID:20170416052742     3
 2017-04-16-0528-00M.COL___368                                                 6
 STAT SP IPHASW D HRMM SECON CODA AMPLIT PERI AZIMU VELO AIN AR TRES W  DIS CAZ7
 BAR2 EZ EP        532 24.70                             174   -0.4410 13.8 174 
 BAR2 EZ ES        532 39.38                             174   -0.3110 13.8 174 
 BAR2 EZ I         532 40.97         7.4 0.20            174           13.8 174 
 BRR  HZ EP        532 26.52                             151   -0.4110 71.6 307 
 BRR  HE ES        532 43.53                             151    0.6510 71.6 307 
 BRR  HZ I         532 47.06         3.6 0.26            149           71.6 307 
 RUS  HE ES        532 46.89                             145    0.4210 91.9 172 
 PTB  HZ EP        532 32.22                             132   -0.06 9  141 262 
 PTB  HN ES        532 52.10                             132   -0.29 9  141 262 
 PTB  HZ I         532 56.32         1.9 0.28            132            141 262 
 ZAR  HZ EP        532 39.34                             121    0.97 9  203 295 
 ZAR  HE ES        533  2.81                             121   -0.42 9  203 295 
 ZAR  HZ I         533  9.08         2.5 0.27            122            203 295 
                                                                                
