 2012  516 0957 48.1 L   6.626 -73.407130.2  RSN  5 0.4 1.2LRSN                1
 GAP=131        0.80       8.1     6.4  9.2  0.2493E+02  0.1589E+02  0.1889E+02E
 Epicentro: EL CARMEN DE CHUCURI - SANTANDER                                   3
 ACTION:UP  12-07-05 12:05 OP:pat  STATUS:               ID:20120516095748 L   I
 2012-05-16-0950-00M.COL___195                                                 6
 STAT SP IPHASW D HRMM SECON CODA AMPLIT PERI AZIMU VELO SNR AR TRES W  DIS CAZ7
 BAR2 SZ EP   1    958  6.08                             168     0.2 7   25  99 
 BAR2 SZ ES   1    958 19.18                             168    -0.6 7   25  99 
 BAR2 SZ I         958 20.81         6.6 0.40                            25  99 
 BRR  HZ EP   1    958  7.00                             152    -0.1 7   63 328 
 BRR  HE ES   1    958 22.23                             152     0.3 7   63 328 
 RUS  HZ EP   1    958  9.45                             144     0.0 7   89 156 
 RUS  HN ES   2    958 26.92                             144     0.8 5   89 156 
 RUS  HZ I         958 28.06         1.3 0.30                            89 156 
 PTB  HZ EP   1    958 10.67                             135    -0.3 7  116 265 
 PTB  HN ES   1    958 28.69                             135    -0.1 7  116 265 
 PTB  HZ I         958 29.60         1.8 0.23                           116 265 
 ZAR  HN ES   2    958 41.28                             121     0.4 4  187 301 
 ZAR  HZ I         958 46.60         3.9 0.24                           187 301 
                                                                                
