 2017  916 0457 46.9 L   7.496 -73.122126.0  RSN  7 0.3 1.7LRSN                1
 GAP=194        0.59       3.7     3.5  4.7  0.3245E+01  0.1654E+01 -0.2904E+01E
 Epicentro: EL PLAYON - SANTANDER                                              3
 ACTION:UPD 17-10-05 19:13 OP:rebc STATUS:               ID:20170916045746 L   I
 OLDACT:UP  17-09-16 16:46 OP:mg   STATUS:               ID:20170916044740     3
 OLDACT:UP  17-09-16 16:45 OP:mg   STATUS:               ID:20170916044740     3
 OLDACT:REG 17-09-16 13:09 OP:mg   STATUS:               ID:20170916044740     3
 2017-09-16-0448-00M.COL___450                                                 6
 STAT SP IPHASW D HRMM SECON CODA AMPLIT PERI AZIMU VELO AIN AR TRES W  DIS CAZ7
 PAM  EZ EP   1    458  5.43                             157   -0.06 7 49.7 110 
 PAM  EN ES   4    458 22.00                             157    2.03 0 49.7 110 
 PAM  EZ I         458 24.10        11.0 0.43            150           49.7 110 
 BRR  HZ IP     D  458  6.54                             146    0.1110 78.1 237 
 BRR  HN ES        458 21.98                             146    0.3510 78.1 237 
 BRR  HZ I         458 22.59        10.1 0.10            143           78.1 237 
 BAR2 EZ EP        458  8.49                             139    0.0910  100 184 
 BAR2 EZ ES        458 24.88                             139   -0.2710  100 184 
 BAR2 EZ I         458 26.19        14.6 0.14            136            100 184 
 ZAR  HZ EP        458 16.74                             119   -0.09 9  192 270 
 ZAR  HN ES        458 39.70                             119   -0.46 9  192 270 
 ZAR  HZ I         458 41.21         8.7 0.14            113            192 270 
 SPBC HZ EP        458 20.97                             115   -0.08 8  229 207 
 SPBC HE ES        458 47.72                             115    0.06 8  229 207 
 SPBC HZ I         458 54.50         4.1 0.22            110            229 207 
 URE  HZ EP   1    458 25.81                             111    0.56 6  268 276 
 URE  HZ I         458 55.26         3.2 0.16            106            268 276 
 NOR  HZ EP        458 27.54                             109   -0.12 7  288 222 
 NOR  HE ES   1    458 59.65                             109    0.22 5  288 222 
 NOR  HZ I         459  4.89         1.9 0.28            105            288 222 
                                                                                
