 2012  716 0336 32.5 L   7.378 -73.111 11.7  RSN  7 0.4 1.3LRSN                1
 GAP=109        0.82       2.5     2.7  5.8 -0.6584E-02  0.6592E+01  0.2969E+01E
 Epicentro: MATANZA - SANTANDER                                                3
 ACTION:UPD 12-08-14 11:45 OP:ep   STATUS:               ID:20120716033632 L   I
 2012-07-16-0330-00M.COL___197                                                 6
 STAT SP IPHASW D HRMM SECON CODA AMPLIT PERI AZIMU VELO AIN AR TRES W  DIS CAZ7
 PAM  SZ EP   1    336 40.49                             101    -0.1 7   46  95 
 PAM  SE ES   1    336 47.22                             101     0.3 7   46  95 
 BRR  HZ EP   1    336 44.42                              96     0.3 7   73 246 
 BRR  HE ES   1    336 53.38                              96     0.1 7   73 246 
 BRR  HZ I         336 55.72         6.6 0.16             97             73 246 
 BAR2 SZ ES   1    336 57.19                              95    -0.4 7   87 185 
 OCA  HZ EP   1    336 48.41                              95     0.3 7   98 346 
 OCA  HN ES   1    336 59.63                              95    -0.6 7   98 346 
 RUS  HN ES   2    337 17.92                              56    -0.3 5  164 179 
 PTB  HZ EP   1    336 59.33                              56     0.4 7  175 238 
 PTB  HE ES   1    337 19.26                              56    -0.4 7  175 238 
 PTB  HZ I         337 20.70         2.5 0.32             56            175 238 
 ZAR  HN ES   2    337 24.48                              56     0.8 4  193 274 
 ZAR  HZ I         337 25.51         6.3 0.30             56            193 274 
