 2010  416 0327 47.2 L   6.767 -72.951143.3  RSN  6 0.4 2.2LRSN                1
 GAP=214        0.94       4.9    11.2  7.8 -0.1402E+02 -0.1919E+02  0.1236E+02E
 Epicentro: CEPITA - SANTANDER                                                 3
 ACTION:UP  10-08-24 09:59 OP:vdl  STATUS:               ID:20100416032756 L   I
 2010-04-16-0324-14S.COL___100                                                 6
 STAT SP IPHASW D HRMM SECON CODA AMPLIT PERI AZIMU VELO AIN AR TRES W  DIS CAZ7
 BAR2 SZ EP        328  6.66                             167    -0.110   32 233 
 BAR2 SZ ES   1    328 22.39                             167     0.4 7   32 233 
 BRR  HZ EP        328  9.09                             145    -0.310   92 294 
 BRR  HN ES        328 26.58                             145    -0.210   92 294 
 BRR  HZ I         328 28.15        31.8 0.09                            92 294 
 OCA  SZ EP        328 16.45                             128     0.4 9  168 346 
 OCA  SZ ES        328 38.36                             128    -0.2 9  168 346 
 OCA  SZ I         328 42.08        17.9 0.16                           168 346 
 CHI  HZ EP   1    328 24.62                             116    -0.5 6  252 200 
 RREF BZ EP        328 35.88                             109     1.0 7  336 232 
 RREF BN ES   2    329 12.07                             109     0.0 3  336 232 
 RREF BZ I         329 16.10         7.2 0.13                           336 232 
 PRA  HZ EP   1    328 40.98                             106    -0.6 4  400 213 
 PRA  HE ES   2    329 23.66                             106    -0.3 3  400 213 
 PRA  HZ I         329 27.80         4.0 0.66                           400 213 
                                                                                
