 2017  416 0720 45.1 L   6.616 -73.187137.9  RSN  4 0.2 1.1LRSN                1
 GAP=215        0.55       6.0     3.9  5.0  0.8329E+01  0.6426E+01  0.3401E+01E
 Epicentro: BARICHARA - SANTANDER                                              3
 ACTION:UPD 17-05-30 21:12 OP:jn   STATUS:               ID:20170416072045 L   I
 OLDACT:REG 17-04-16 14:24 OP:dani STATUS:               ID:20170416071608     3
 2017-04-16-0718-00M.COL___368                                                 6
 STAT SP IPHASW D HRMM SECON CODA AMPLIT PERI AZIMU VELO AIN AR TRES W  DIS CAZ7
 BAR2 EZ EP        721  3.28                             179   -0.2610 2.68 168 
 BAR2 EZ ES        721 18.13                             179    0.2110 2.68 168 
 BRR  HN EP        721  6.18                             148    0.2610 79.5 313 
 BRR  HE ES        721 21.91                             148   -0.2410 79.5 313 
 BRR  HN I         721 22.48         5.9 0.25            148           79.5 313 
 PTB  HZ EP        721 10.74                             132   -0.04 9  141 267 
 PTB  HE ES        721 30.79                             132   -0.02 9  141 267 
 PTB  HZ I         721 38.24         0.9 0.32            128            141 267 
 ZAR  HE ES        721 42.89                             120    0.10 8  208 298 
                                                                                
