 2012  616 0722 59.8 L   6.806 -73.170139.6  RSN  5 0.4 1.5LRSN                1
 GAP=133        0.80       5.5     4.9  8.7 -0.4616E+00  0.1516E+02 -0.5732E+01E
 Epicentro: LOS SANTOS - SANTANDER                                             3
 ACTION:UPD 12-08-06 17:49 OP:ep   STATUS:               ID:20120616072259 L   I
 2012-06-16-0720-00M.COL___198                                                 6
 STAT SP IPHASW D HRMM SECON CODA AMPLIT PERI AZIMU VELO AIN AR TRES W  DIS CAZ7
 BAR2 SZ EP   1    723 18.50                             170   -0.16 7 23.7 183 
 BAR2 SZ ES   1    723 32.66                             170   -0.74 7 23.7 183 
 BAR2 SZ I         723 35.74         7.3 0.40                          23.7 183 
 PAM  SZ EP   1    723 21.50                             149    0.10 7 78.6  41 
 PAM  SN ES   1    723 38.49                             149    0.21 7 78.6  41 
 RUS  HZ EP   1    723 22.86                             142   -0.12 7  101 175 
 RUS  HN ES   1    723 41.82                             142    0.74 7  101 175 
 RUS  HZ I         723 43.70         4.0 0.20                           101 175 
 PTB  HZ EP   1    723 25.59                             131   -0.42 7  145 258 
 PTB  HE ES   1    723 46.49                             131    0.01 7  145 258 
 PTB  HZ I         723 49.12         4.9 0.15                           145 258 
 ZAR  HZ EP   2    723 31.39                             121   -0.14 4  201 292 
 ZAR  HE ES   1    723 56.83                             121    0.52 6  201 292 
 ZAR  HZ I         724  3.78         3.5 0.50                           201 292 
                                                                                
