 2011  716 0737 24.2 L   6.726 -73.248152.4  RSN  6 0.3 1.5LRSN                1
 GAP=130        0.70       3.5     5.8  6.2 -0.6438E+01  0.7292E+01 -0.1665E+01E
 Epicentro: VILLANUEVA - SANTANDER                                             3
 ACTION:UPD 12-07-25 14:01 OP:epov STATUS:               ID:20110716073724 L   I
 2011-07-16-0720-00M.COL___133                                                 6
 STAT SP IPHASW D HRMM SECON CODA AMPLIT PERI AZIMU VELO AIN AR TRES W  DIS CAZ7
 BAR2 SZ EP   1    737 44.29                             174   -0.20 7 16.4 154 
 BAR2 SZ ES   1    737 59.90                             174   -0.44 7 16.4 154 
 BAR2 SZ I         738  2.07        13.1 0.33                          16.4 154 
 BRR  HZ EP   1    737 46.01                             155    0.22 7 66.4 309 
 BRR  HN ES   1    738  2.74                             155    0.08 7 66.4 309 
 BRR  HZ I         738  3.76         6.8 0.11                          66.4 309 
 RUS  HZ EP   1    737 48.64                             147    0.51 7 93.9 169 
 RUS  HN ES   1    738  6.99                             147    0.17 7 93.9 169 
 RUS  HZ I         738  8.17         5.1 0.39                          93.9 169 
 BRI  SZ EP   1    737 48.79                             140   -0.82 7  120  24 
 BRI  SZ I         737 49.54         2.7 0.12                           120  24 
 BRI  SZ ES   1    738  9.75                             140    0.30 7  120  24 
 OCA  SZ EP   1    737 53.90                             130    0.22 7  167 357 
 OCA  SZ ES   1    738 16.82                             130    0.13 7  167 357 
 OCA  SZ I         738 18.86         4.0 0.29                           167 357 
 NOR  SZ EP   1    737 58.72                             122   -0.12 6  221 234 
 NOR  SN ES   1    738 25.79                             122   -0.08 6  221 234 
                                                                                
