 2010 1016 0608 51.1 L   6.815 -73.099143.1  RSN 15 0.4 2.6LRSN                1
 GAP=140        0.97       3.0     5.5  6.1 -0.2687E+01  0.6616E+01  0.3578E+01E
 Epicentro: LOS SANTOS - SANTANDER                                             3
 ACTION:UP  11-02-18 11:10 OP:tino STATUS:               ID:20101016060851 L   I
 2010-10-16-0605-17S.COL___125                                                 6
 STAT SP IPHASW D HRMM SECON CODA AMPLIT PERI AZIMU VELO SNR AR TRES W  DIS CAZ7
 BAR2 SZ EP        6 9 10.48                             169     0.010   26 201 
 BAR2 SZ ES   1    6 9 25.35                             169    -0.3 7   26 201 
 BAR2 SZ I         6 9 28.19       113.0 0.35                            26 201 
 GIR2 SZ EP        6 9 10.71                             167     0.210   31 340 
 BRR  HZ IP     D  6 9 12.34                             151     0.110   75 296 
 BRR  HN ES   1    6 9 29.38                             151     0.7 7   75 296 
 BRR  HZ I         6 9 31.72        39.1 0.38                            75 296 
 RUS  HZ EP        6 9 14.43                             143    -0.310  102 179 
 RUS  HN ES   1    6 9 32.62                             143    -0.5 7  102 179 
 RUS  HZ I         6 9 34.38        44.2 0.34                           102 179 
 GUE  SZ IP        6 9 15.35                                     0.010  114  10 
 GRA  SZ EP        6 9 16.23                             137     0.310  123  15 
 GRA  SZ ES   1    6 9 34.84                             137    -0.4 7  123  15 
 GRA  SZ I         6 9 37.49        41.2 0.65                           123  15 
 OCA  SZ EP        6 9 19.10                             129    -0.1 9  159 351 
 OCA  SZ ES   1    6 9 40.57                             129    -0.4 7  159 351 
 OCA  SZ I         6 9 46.21        50.8 0.42                           159 351 
 YOP  SZ EP        6 9 21.14                             126     0.2 9  178 155 
 YOP  SN ES   2    6 9 45.19                             126     1.0 4  178 155 
 NOR  SZ EP        6 9 27.07                             117    -0.2 8  240 235 
 NOR  SE ES   2    6 9 54.54                             117    -0.9 4  240 235 
 CHI  HZ EP        6 9 28.68                             116    -0.3 8  252 196 
 CHI  HZ I         6 9 30.25        17.6 0.45                           252 196 
 CHI  HN ES   1    6 9 58.58                             116     0.0 6  252 196 
 ROSC BZ EP        6 9 30.17                             116     0.6 8  257 212 
 ROSC BZ I         6 9 32.28        29.4 0.24                           257 212 
 HEL  HZ EP   2    6 9 32.43                             114     0.6 4  277 256 
 HEL  HN ES   2    610  4.31                             114     0.8 4  277 256 
 HEL  HZ I         610 10.14        27.6 0.45                           277 256 
 DBB  SZ EP        6 9 38.41                             109    -0.7 7  344 274 
 DBB  SZ I         610 30.57         3.7 0.38                           344 274 
 TOL  SZ EP        6 9 40.23                             108     0.4 6  348 225 
 PRA  HZ EP   1    6 9 44.02                             106    -1.0 4  396 210 
 PRA  HZ I         6 9 46.48        57.5 0.20                           396 210 
 PRA  HN ES   1    610 27.12                             106     0.1 4  396 210 
                                                                                
