 2012  516 0736  7.6 L   6.869 -73.160143.0  RSN  4 0.3 1.2LRSN                1
 GAP=242        0.71       8.6     8.3  8.9  0.2326E+02  0.8450E+01  0.1214E+02E
 Epicentro: LOS SANTOS - SANTANDER                                             3
 ACTION:UP  12-07-05 12:05 OP:pat  STATUS:               ID:20120516073607 L   I
 2012-05-16-0730-00M.COL___195                                                 6
 STAT SP IPHASW D HRMM SECON CODA AMPLIT PERI AZIMU VELO SNR AR TRES W  DIS CAZ7
 BAR2 SZ EP   2    736 27.73                             167     0.7 5   31 185 
 BAR2 SZ ES   2    736 42.19                             167     0.0 5   31 185 
 BAR2 SZ I         736 43.98         3.4 0.16                            31 185 
 BRR  HZ EP   1    736 28.29                             154     0.1 7   66 293 
 BRR  HN ES        736 44.12                             154    -0.110   66 293 
 BRR  HZ I         736 47.77         6.6 0.13                            66 293 
 RUS  HN ES   2    736 50.17                             141    -0.2 5  108 176 
 RUS  HZ I         736 51.95         2.0 0.28                           108 176 
 PTB  HZ EP   1    736 33.89                             131    -0.5 7  148 256 
 PTB  HN ES   1    736 55.53                             131     0.3 7  148 256 
 PTB  HZ I         736 57.39         1.8 0.10                           148 256 
                                                                                
