 2014  816 0210 57.7 L   6.733 -73.204155.8  RSN  4 0.4 1.4LRSN                1
 GAP=225        1.10       7.0     8.1 11.0  0.1682E+02 -0.8002E+01 -0.5436E+01E
 Epicentro: VILLANUEVA - SANTANDER                                             3
 ACTION:UPD 14-09-15 21:50 OP:nd   STATUS:               ID:20140816021057 L   I
 OLDACT:UP  14-08-16 15:41 OP:cam  STATUS:               ID:20140816021000     3
 OLDACT:REG 14-08-16 12:54 OP:cam  STATUS:               ID:20140816021000     3
 2014-08-16-0210-00M.COL___285                                                 6
 STAT SP IPHASW D HRMM SECON CODA AMPLIT PERI AZIMU VELO AIN AR TRES W  DIS CAZ7
 BRR  HZ EP        211 20.00                             155    0.1710 69.8 306 
 BRR  HN ES        211 37.25                             155    0.1310 69.8 306 
 BRR  HN I         211 40.68        11.5 0.18            155           69.8 306 
 RUS  HZ EP        211 22.49                             148    0.5210 93.9 172 
 RUS  HE ES        211 40.41                             148   -0.5110 93.9 172 
 RUS  HZ I         211 41.63         1.8 0.24            151           93.9 172 
 PTB  HZ EP        211 24.07                             136   -0.74 9  140 261 
 PTB  HN ES        211 45.97                             136   -0.01 9  140 261 
 PTB  HZ I         211 48.09         2.3 0.20            138            140 261 
 SPBC HN ES        211 48.64                             133    0.43 9  153 219 
                                                                                
