 2016 1116 0908 40.2 L   6.744 -73.163151.8  RSN  5 0.3 1.4LRSN                1
 GAP=149        0.87       7.5     4.2  7.0 -0.6766E+01  0.5631E+01  0.1981E+01E
 Epicentro: LOS SANTOS - SANTANDER                                             3
 ACTION:UPD 17-10-26 21:08 OP:lp   STATUS:               ID:20161116090840 L   I
 OLDACT:UP  16-11-16 18:26 OP:e    STATUS:               ID:20161116090745     3
 OLDACT:REG 16-11-16 12:59 OP:and  STATUS:               ID:20161116090745     3
 2016-11-16-0908-00M.COL___332                                                 6
 STAT SP IPHASW D HRMM SECON CODA AMPLIT PERI AZIMU VELO AIN AR TRES W  DIS CAZ7
 BAR2 EZ EP        9 9  0.94                             173    0.4510 16.9 187 
 BAR2 EZ ES        9 9 16.12                             173   -0.1710 16.9 187 
 BAR2 EZ I         9 9 16.59         8.8 0.32            173           16.9 187 
 BRR  HZ EP        9 9  2.32                             153    0.1910 72.7 304 
 BRR  HN ES        9 9 19.76                             153    0.5510 72.7 304 
 PAM  EZ EP        9 9  3.50                             150    0.0410 83.5  38 
 PAM  EN ES        9 9 21.14                             150   -0.4410 83.5  38 
 PAM  EZ I         9 9 22.97         2.8 0.72            150           83.5  38 
 PTB  HZ EP        9 9  7.10                             134   -0.34 9  145 261 
 PTB  HN ES        9 9 28.42                             134   -0.24 9  145 261 
 PTB  HZ I         9 9 33.88         2.3 0.12            132            145 261 
 ZAR  HZ EP   4    9 9 16.64                             124    3.49 0  205 294 
 ZAR  HN ES        9 9 38.66                             124   -0.16 9  205 294 
 ZAR  HZ I         9 9 45.17         1.8 0.24            122            205 294 
                                                                                
