 2017  116 0915 19.0 L   6.495 -73.680104.0  RSN  5 0.2 0.9LRSN                1
 GAP=138        0.61       4.4     4.2  5.0  0.1405E+02  0.9537E+01  0.7629E+01E
 Epicentro: SANTA HELENA DEL OPON - SANTANDER                                  3
 ACTION:UPD 17-05-22 16:00 OP:jn   STATUS:               ID:20170116091519 L   I
 OLDACT:UP  17-01-16 16:57 OP:edw  STATUS:               ID:20170116090742d    3
 OLDACT:DUP 17-01-16 16:51 OP:edw  STATUS:               ID:20170116090742d    3
 2017-01-16-0908-00M.COL___335                                                 6
 STAT SP IPHASW D HRMM SECON CODA AMPLIT PERI AZIMU VELO AIN AR TRES W  DIS CAZ7
 BAR2 EZ EP        915 34.99                             148   -0.1110 56.1  79 
 BAR2 EZ ES        915 48.03                             148    0.3410 56.1  79 
 BAR2 EZ I         915 49.06         3.8 0.16            149           56.1  79 
 BRR  HE ES        915 48.22                             143   -0.2510 67.8 357 
 PTB  HZ EP   9    915 35.59                             137   -1.38 0 86.0 273 
 PTB  HE ES        915 49.33                             138   -0.3110 86.0 273 
 PTB  HZ I         915 50.58         2.0 0.14            137           86.0 273 
 RUS  HZ EP        915 38.10                             134   -0.1910 93.9 135 
 RUS  HE ES        915 53.35                             134   -0.0310 93.9 135 
 RUS  HZ I         915 55.21         1.0 0.26            135           93.9 135 
 ZAR  HZ EP        915 45.57                             116    0.23 9  171 310 
 ZAR  HN ES        916  5.99                             116    0.07 9  171 310 
 ZAR  HZ I         916  9.17         1.9 0.14            116            171 310 
                                                                                
