 2015  716 0020 58.0 L   6.820 -73.147131.7  RSN 15 0.4 2.1LRSN                1
 GAP=183        0.96       2.3     4.2  5.7 -0.8701E+00  0.1053E+02  0.1170E+00E
 Epicentro: LOS SANTOS - SANTANDER                                             3
 ACTION:UPD 15-09-08 21:49 OP:cam  STATUS:               ID:20150716002058 L   I
 OLDACT:UP  15-07-16 13:57 OP:ak   STATUS:               ID:20150716001748     3
 OLDACT:REG 15-07-16 12:19 OP:ak   STATUS:               ID:20150716001748     3
 2015-07-16-0017-48M.COL___343                                                 6
 STAT SP IPHASW D HRMM SECON CODA AMPLIT PERI AZIMU VELO AIN AR TRES W  DIS CAZ7
 BAR2 EZ EP        021 16.51                             168    0.5610 25.5 189 
 BAR2 EZ ES        021 30.40                             168    0.4210 25.5 189 
 BAR2 EZ I         021 32.60        29.2 0.20            166           25.5 189 
 RUS  HZ EP        021 20.75                             140    0.2210  103 176 
 RUS  HE ES        021 37.73                             140   -0.4010  103 176 
 RUS  HZ I         021 40.15        18.1 0.24            144            103 176 
 OCA  HZ EP        021 24.91                             127   -0.09 9  158 353 
 OCA  HN ES        021 45.87                             127   -0.21 9  158 353 
 OCA  HZ I         021 49.88        24.1 0.16            129            158 353 
 ZAR  HZ EP        021 29.79                             119    0.37 9  203 292 
 ZAR  HE ES        021 53.93                             119   -0.03 9  203 292 
 ZAR  HZ I         022  0.80        11.1 0.16            120            203 292 
 NOR  HZ EP        021 32.60                             115   -0.44 8  236 234 
 NOR  HN ES        022  0.29                             115   -0.11 8  236 234 
 NOR  HZ I         022  5.10        11.6 0.24            117            236 234 
 SML  HZ EP        021 32.80                             115   -0.80 8  242 335 
 SML  HN ES        022  1.18                             115   -0.22 8  242 335 
 SML  HZ I         022  4.84        22.8 0.10            117            242 335 
 CHI  HZ EP        021 34.83                             114   -0.32 8  251 195 
 CHI  HE ES        022  3.30                             114   -0.86 8  251 195 
 CHI  HZ I         022  7.44         9.3 0.42            117            251 195 
 ROSC BZ EP        021 36.12                             113    0.57 8  255 211 
 ROSC BN ES        022  4.70                             113   -0.17 8  255 211 
 ROSC BZ I         022 10.75        17.5 0.45            116            255 211 
 HEL  HZ EP        021 38.24                             112    0.71 8  272 255 
 HEL  HN ES        022  8.45                             112    0.05 8  272 255 
 HEL  HZ I         022 14.58         9.0 0.34            113            272 255 
 URE  HE ES   4    022  6.94                             111   -2.77 0  283 292 
 URE  HZ I         022 19.11         8.9 0.14            112            283 292 
 GUY2CHZ EP        021 41.33                             109    0.24 7  302 234 
 GUY2CHN ES        022 13.90                             109   -0.82 7  302 234 
 GUY2CHZ I         022 20.59         5.7 0.34                           302 234 
 PTGC HZ EP   4    021 39.68                             109   -1.79 0  311 159 
 PTGC HN ES   4    022 13.69                             109   -1.72 0  311 159 
 CBOC HZ EP        021 44.80                             107    0.41 7  334 252 
 CBOC HE ES        022 20.50                             107   -0.10 7  334 252 
 CBOC HZ I         022 26.12         2.4 0.34            109            334 252 
 TOL  SZ EP        021 46.16                             107    0.30 7  345 224 
 TOL  SN ES        022 23.82                             107    0.61 7  345 224 
 TOL  SZ I         022 30.27         4.1 0.36            109            345 224 
 ORTC HZ EP        021 51.41                             104   -0.22 6  397 216 
 ORTC HN ES        022 33.85                             104    0.36 6  397 216 
 ORTC HZ I         022 37.94         4.3 0.29            106            397 216 
 SJC  HZ EP   4    021 49.97                             103   -2.89 0  407 327 
 SJC  HE ES   4    022 31.13                             103   -4.55 0  407 327 
 SJC  HZ I         022 37.30         2.1 0.47            105            407 327 
                                                                                
