 2016  616 0432 19.0 L   6.794 -73.130149.6  RSN 27 0.6 2.5LRSN                1
 GAP= 54        1.07       2.6     2.8  4.6 -0.1268E+01  0.1835E+01  0.7746E+00E
 Epicentro: LOS SANTOS - SANTANDER                                             3
 ACTION:UPD 16-07-21 22:19 OP:rebc STATUS:               ID:20160616043219 L   I
 OLDACT:UP  16-06-16 16:15 OP:dani STATUS:               ID:20160616042741     3
 OLDACT:UP  16-06-16 16:12 OP:dani STATUS:               ID:20160616042741     3
 OLDACT:UP  16-06-16 16:11 OP:dani STATUS:               ID:20160616042741     3
 OLDACT:REG 16-06-16 12:46 OP:dani STATUS:               ID:20160616042741     3
 2016-06-16-0427-41M.COL___334                                                 6
 STAT SP IPHASW D HRMM SECON CODA AMPLIT PERI AZIMU VELO AIN AR TRES W  DIS CAZ7
 BAR2 EZ EP     C  432 39.09                             171    0.0110 23.0 195 
 BAR2 EZ ES        432 54.37                             171   -0.3810 23.0 195 
 BAR2 EZ I         432 55.26        85.2 0.18                          23.0 195 
 BRR  HZ EP     C  432 40.97                             153    0.3110 73.0 298 
 BRR  HN ES        432 58.00                             153    0.4410 73.0 298 
 BRR  HZ I         432 59.86        44.6 0.16                          73.0 298 
 PAM  EZ EP        432 41.86                             151    0.2810 76.8  38 
 PAM  EN ES        432 59.31                             151    0.1010 76.8  38 
 PAM  EZ I         433  0.77        23.1 0.18                          76.8  38 
 RUS  HZ EP        432 43.30                             145    0.2410 99.8 177 
 RUS  HE ES        433  1.31                             145   -0.5410 99.8 177 
 RUS  HZ I         433  2.39        29.7 0.44                          99.8 177 
 PTB  HZ EP        432 45.75                             132   -0.66 9  149 259 
 PTB  HN ES        433  7.01                             132   -0.80 9  149 259 
 PTB  HZ I         433 14.45        30.5 0.18                           149 259 
 TAM  HZ EP     C  432 47.34                             132    0.54 9  153 105 
 TAM  HE ES        433  8.92                             132    0.42 9  153 105 
 TAM  HZ I         433 10.14        21.5 0.28                           153 105 
 OCA  HZ EP        432 47.16                             130   -0.52 9  161 353 
 OCA  HE ES        433 10.42                             130    0.36 9  161 353 
 OCA  HZ I         433 12.54        84.5 0.18                           161 353 
 SPBC HZ EP        432 48.05                             130    0.21 9  164 220 
 SPBC HE ES        433 10.12                             130   -0.22 9  164 220 
 SPBC HZ I         433 12.70        69.7 0.32                           164 220 
 ZAR  HZ EP        432 51.60                             123   -0.28 8  206 292 
 ZAR  HN ES        433 17.97                             123    0.44 8  206 292 
 ZAR  HZ I         433 23.41        34.3 0.28                           206 292 
 NOR  HZ EP   4    432 56.26                             119    1.21 0  236 235 
 NOR  HE ES   4    433 21.76                             119   -1.42 0  236 235 
 NOR  HZ I         433 28.30        24.1 0.18                           236 235 
 CHI  HZ EP   4    432 55.87                             118   -1.01 0  248 196 
 CHI  HN ES        433 26.28                             118   -0.16 8  248 196 
 CHI  HZ I         433 33.48        15.1 0.24                           248 196 
 HEL  HZ EP   4    433  1.16                             115    1.59 0  274 256 
 HEL  HZ I         433 37.87        13.8 0.42                           274 256 
 URE  HZ EP   9    432 59.05                             114   -1.40 0  286 292 
 URE  HN ES        433 31.10                             114   -0.29 7  286 292 
 URE  HZ I         433 41.74        23.8 0.22                           286 292 
 SOCV BZ EP        433  1.82                             113   -0.27 7  300  57 
 SOCV BN ES   4    433 34.11                             113   -1.60 0  300  57 
 GUY2CHZ EP   4    433  4.30                             113    1.41 0  302 235 
 GUY2CHE ES        433 37.88                             113    0.74 7  302 235 
 GUY2CHZ I         433 45.44         8.2 0.36                           302 235 
 PTGC HZ EP        433  2.12                             112   -0.76 7  307 159 
 PTGC HN ES   4    433 35.66                             112   -1.45 0  307 159 
 PTGC HZ I         433 37.02        22.6 0.42                           307 159 
 LL6C HZ EP        433  4.33                             111   -0.61 7  326 357 
 LL6C HE ES        433 40.59                             111   -0.19 7  326 357 
 LL6C HZ I         433 42.34         8.0 0.44                           326 357 
 ELA  HZ EP   4    433  9.79                             111    3.69 0  330 230 
 ELA  HN ES        433 42.44                             111   -0.42 7  330 230 
 ELA  HZ I         433 52.20        11.3 0.50                           330 230 
 CBOC HZ EP   4    433  7.39                             110    1.16 0  335 252 
 CBOC HN ES        433 43.86                             110    0.78 7  335 252 
 CBOC HZ I         433 47.61         4.4 0.42                           335 252 
 DBB  SZ EP        433  7.49                             110    0.66 7  341 274 
 DBB  SZ ES   4    433 43.11                             110   -1.03 0  341 274 
 DBB  SZ I         433 47.04        37.6 0.46                           341 274 
 PRA  HZ EP        433 12.93                             107    0.26 6  392 210 
 PRA  HN ES        433 54.44                             107   -0.11 6  392 210 
 PRA  HZ I         433 59.88        12.0 0.26                           392 210 
 ORTC HZ EP        433 13.67                             107    0.57 6  396 216 
 ORTC HN ES   4    433 56.71                             107    1.41 0  396 216 
 ORTC HZ I         434  2.98         7.2 0.52                           396 216 
 PAL  HZ EP        433 14.99                             106    0.58 6  407 239 
 PAL  HE ES        433 57.79                             106    0.15 6  407 239 
 PAL  HZ I         433 59.47         3.2 0.58                           407 239 
 SJC  HN ES   2    433 54.63                             106   -3.80 3  411 327 
 CRJC HZ EP   9    433 19.56                             104   -2.10 0  468   3 
 CRJC HN ES        434  8.45                             104    0.00 5  468   3 
 CRJC HZ I         434 15.47         5.8 0.16                           468   3 
 YOT  HZ EP        433 22.22                             104   -0.02 5  473 229 
 SMAR HZ EP   2    433 24.78                             103   -0.31 2  498 346 
 SMAR HN ES   4    434 12.84                             103   -3.80 0  498 346 
 SMAR HZ I         434 18.39        12.4 0.80                           498 346 
                                                                                
