 2012  916 0624 25.4 L   6.785 -73.162141.8  RSN 10 0.4 2.2LRSN                1
 GAP= 71        0.75       4.4     3.5  5.6  0.1692E+00 -0.1870E+01  0.2879E+01E
 Epicentro: LOS SANTOS - SANTANDER                                             3
 ACTION:UPD 12-10-22 14:19 OP:ep   STATUS:               ID:20120916062425 L   I
 2012-09-16-0620-00M.COL___227                                                 6
 STAT SP IPHASW D HRMM SECON CODA AMPLIT PERI AZIMU VELO AIN AR TRES W  DIS CAZ7
 BAR2 SZ EP        624 44.44                             171   -0.0610 21.4 186 
 BAR2 SZ ES   1    624 59.28                             171   -0.13 7 21.4 186 
 BAR2 SZ I         625  0.64        52.3 0.31                          21.4 186 
 GIR2 SZ EP   1    624 44.47                             166   -0.15 7 32.7 354 
 BRR  HZ IP     D  624 46.34                             152    0.2810 70.5 300 
 BRR  HN ES        625  2.75                             152    0.5610 70.5 300 
 BRR  HZ I         625  4.39        49.7 0.09                          70.5 300 
 PAM  SZ EP        624 47.41                             149    0.0810 79.8  40 
 PAM  SZ I         624 47.75        34.8 0.19                          79.8  40 
 PAM  SE ES   1    625  3.89                             149   -0.56 7 79.8  40 
 RUS  HZ EP        624 48.64                             143    0.0110 99.0 175 
 RUS  HZ I         624 49.83        12.1 0.14                          99.0 175 
 RUS  HN ES   1    625  6.84                             143    0.07 7 99.0 175 
 PTB  HZ EP   1    624 51.33                             131   -0.51 7  146 259 
 PTB  HN ES   1    625 11.84                             131   -0.63 7  146 259 
 PTB  HZ I         625 13.80         9.3 0.18                           146 259 
 TAM  HZ EP        624 52.95                             129    0.08 9  156 104 
 ZAR  HZ EP   2    624 57.52                             122    0.06 4  203 293 
 ZAR  HN ES   2    625 21.66                             122   -0.83 4  203 293 
 ZAR  HZ I         625 29.02        15.6 0.30                           203 293 
 NOR  SN ES   2    625 28.51                             118    0.41 4  232 235 
 HEL  HZ EP   2    625  5.96                             114    0.81 4  270 256 
 HEL  HZ I         625 42.89         8.5 0.49                           270 256 
                                                                                
