 2016  316 0405 38.3 L   6.811 -73.218140.1  RSN  5 0.2 1.1LRSN                1
 GAP=273        0.46       4.4     3.0  3.6  0.2781E+01  0.2032E+01  0.2841E+01E
 Epicentro: ZAPATOCA - SANTANDER                                               3
 ACTION:UPD 16-05-13 21:24 OP:cam  STATUS:               ID:20160316040538 L   I
 OLDACT:DUP 16-03-16 16:03 OP:dnl  STATUS:               ID:20160316035752d    3
 OLDACT:REG 16-03-16 14:13 OP:dnl  STATUS:               ID:20160316035751     3
 2016-03-16-0357-51M.COL___289                                                 6
 STAT SP IPHASW D HRMM SECON CODA AMPLIT PERI AZIMU VELO AIN AR TRES W  DIS CAZ7
 BAR2 EZ EP   2    4 5 56.94                             170   -0.36 5 24.5 171 
 BAR2 EZ ES        4 6 12.27                             170    0.1710 24.5 171 
 BAR2 EZ I         4 6 13.61         5.5 0.24            165           24.5 171 
 RUS  HZ EP        4 6  1.70                             142    0.0210  103 172 
 RUS  HN ES        4 6 19.76                             142   -0.1310  103 172 
 RUS  HZ I         4 6 20.69         0.9 0.13            142            103 172 
 PTB  HZ EP   2    4 6  3.96                             132   -0.19 5  140 258 
 PTB  HN ES        4 6 24.18                             132   -0.10 9  140 258 
 PTB  HZ I         4 6 32.39         1.8 0.24            129            140 258 
 SPBC HZ EP        4 6  6.35                             129    0.33 9  159 216 
 SPBC HN ES        4 6 27.57                             129   -0.04 9  159 216 
 SPBC HZ I         4 6 34.44         2.2 0.08            127            159 216 
 CHI  HZ EP        4 6 15.51                             116   -0.12 8  248 193 
                                                                                
