 2017  916 0210 42.3 L   6.799 -73.108145.9  RSN  9 0.2 1.5LRSN                1
 GAP=212        0.46       2.3     2.9  3.0  0.1349E+01  0.3078E+01  0.6164E+00E
 Epicentro: LOS SANTOS - SANTANDER                                             3
 ACTION:UPD 17-10-05 19:12 OP:rebc STATUS:               ID:20170916021042 L   I
 OLDACT:UP  17-09-16 14:33 OP:mg   STATUS:               ID:20170916020739     3
 OLDACT:REG 17-09-16 12:28 OP:mg   STATUS:               ID:20170916020739     3
 2017-09-16-0208-00M.COL___456                                                 6
 STAT SP IPHASW D HRMM SECON CODA AMPLIT PERI AZIMU VELO AIN AR TRES W  DIS CAZ7
 BAR2 EZ EP        211  1.82                             170   -0.1410 24.3 200 
 BAR2 EZ ES        211 17.27                             170   -0.0310 24.3 200 
 BAR2 EZ I         211 18.07        11.2 0.16            166           24.3 200 
 BRR  HZ EP        211  3.82                             151    0.1510 74.9 297 
 BRR  HN ES        211 20.51                             151    0.1710 74.9 297 
 BRR  HZ I         211 22.88         4.1 0.12            149           74.9 297 
 RUS  HZ EP        211  6.00                             144   -0.0410  100 178 
 RUS  HN ES        211 24.55                             144   -0.0110  100 178 
 RUS  HZ I         211 26.27         2.8 0.25            144            100 178 
 SPBC HZ EP   1    211 10.85                             129   -0.20 7  166 220 
 SPBC HN ES   2    211 33.83                             129    0.36 5  166 220 
 SPBC HZ I         211 37.53         5.6 0.11            128            166 220 
 ZAR  HZ EP        211 15.35                             122    0.21 8  208 292 
 ZAR  HN ES   1    211 40.53                             122   -0.23 6  208 292 
 ZAR  HZ I         211 46.83         3.9 0.38            122            208 292 
 NOR  HZ EP        211 18.31                             118   -0.08 8  238 235 
 NOR  HN ES        211 46.06                             118   -0.48 8  238 235 
 NOR  HZ I         211 47.69         2.4 0.16            118            238 235 
 GUY2CHZ EP   1    211 26.60                             112    0.32 5  305 235 
 GUY2CHN ES   1    212  0.87                             112    0.27 5  305 235 
 GUY2CHZ I         212  8.45         1.8 0.37                           305 235 
 PRA  HZ EP   2    211 36.61                             106    0.56 3  394 210 
 PRA  HN ES   2    212 18.24                             106    0.26 3  394 210 
 PRA  HZ I         212 24.74         1.8 0.28            107            394 210 
 SJC  HZ EP   1    211 37.93                             106   -0.20 4  412 326 
 SJC  HN ES   4    212 17.55                             106   -4.13 0  412 326 
 SJC  HZ I         212 19.81         0.6 0.26            107            412 326 
                                                                                
