 2012 1016 0842 40.5 L   6.750 -73.130144.1  RSN  6 0.3 2.0LRSN                1
 GAP=141        0.65       5.3     3.9  6.3  0.2816E+01  0.3956E+01  0.1352E+02E
 Epicentro: LOS SANTOS - SANTANDER                                             3
 ACTION:UPD 12-11-22 17:04 OP:ep   STATUS:               ID:20121016084240 L   I
 2012-10-16-0840-00M.COL___231                                                 6
 STAT SP IPHASW D HRMM SECON CODA AMPLIT PERI AZIMU VELO AIN AR TRES W  DIS CAZ7
 BAR2 SZ EP        842 59.96                             172    0.1010 18.4 198 
 BAR2 SZ ES   2    843 14.73                             172   -0.22 5 18.4 198 
 BAR2 SZ I         843 16.31        34.2 0.26                          18.4 198 
 GIR2 SZ EP        843  0.19                             165    0.0310 37.0 349 
 BRR  HZ EP        843  1.92                             151    0.1910 75.4 302 
 BRR  HN ES        843 18.55                             151    0.2710 75.4 302 
 BRR  HZ I         843 21.40        14.6 0.14                          75.4 302 
 PAM  SZ EP        843  3.09                             149    0.3310 80.7  36 
 PAM  SZ I         843  3.31        18.8 0.21                          80.7  36 
 PAM  SE ES        843 19.76                             149   -0.3510 80.7  36 
 RUS  HZ EP        843  3.56                             145   -0.1510 95.0 177 
 ZAR  HZ EP   1    843 12.73                             121   -0.51 6  208 293 
 ZAR  HE ES   1    843 38.40                             121   -0.36 6  208 293 
 ZAR  HZ I         843 44.56         4.9 0.13                           208 293 
                                                                                
