 2015  116 0553 26.1 L   6.785 -73.192137.9  RSN  7 0.4 1.2LRSN                1
 GAP= 77        1.07       3.5     4.7  8.8 -0.3626E+01  0.7618E+01 -0.5100E+01E
 Epicentro: ZAPATOCA - SANTANDER                                               3
 ACTION:UPD 15-03-02 15:39 OP:nd   STATUS:               ID:20150116055326 L   I
 OLDACT:DUP 15-01-16 16:02 OP:carl STATUS:               ID:20150116054741d    3
 2015-01-16-0547-39M.COL___253                                                 6
 STAT SP IPHASW D HRMM SECON CODA AMPLIT PERI AZIMU VELO AIN AR TRES W  DIS CAZ7
 PAM  SZ EP     C  553 48.13                             148    0.3810 82.0  42 
 PAM  SN ES        554  4.87                             148    0.2110 82.0  42 
 PAM  SZ I         554  5.72         4.5 0.18            153           82.0  42 
 RUS  HE ES        554  6.48                             142   -0.3610 99.4 173 
 RUS  HZ I         554  8.22         2.3 0.30            146           99.4 173 
 PTB  HZ EP        553 52.64                             131    0.73 9  142 259 
 PTB  HN ES        554 12.28                             131    0.21 9  142 259 
 PTB  HZ I         554 20.50         2.1 0.24            132            142 259 
 SPBC HZ EP        553 53.74                             128    0.19 9  159 218 
 SPBC HN ES        554 14.58                             128   -0.39 9  159 218 
 TAM  HZ EP        553 53.28                             128   -0.30 9  160 104 
 OCA  HN ES        554 15.80                             128    0.21 9  161 355 
 SML  HZ EP        554  1.86                             116   -0.34 8  243 337 
 SML  HN ES        554 29.43                             116   -0.95 8  243 337 
                                                                                
