 2017  716 0340 46.1 L   6.687 -73.263128.9  RSN  4 0.2 0.8LRSN                1
 GAP=187        0.52       3.7     3.6  4.5  0.6674E+01  0.2600E+01  0.1815E+01E
 Epicentro: GALAN - SANTANDER                                                  3
 ACTION:UPD 17-08-30 15:33 OP:rebc STATUS:               ID:20170716034046 L   I
 OLDACT:REG 17-07-16 12:16 OP:dhb  STATUS:               ID:20170716033741     3
 2017-07-16-0338-00M.COL___383                                                 6
 STAT SP IPHASW D HRMM SECON CODA AMPLIT PERI AZIMU VELO AIN AR TRES W  DIS CAZ7
 BAR2 EZ EP        341  3.70                             174    0.1210 13.7 140 
 BAR2 EZ ES        341 16.90                             174   -0.2710 13.7 140 
 BAR2 EZ I         341 17.43         1.5 0.26            172           13.7 140 
 BRR  HZ EP        341  5.27                             150   -0.0310 68.0 313 
 BRR  HN ES        341 20.43                             150    0.1910 68.0 313 
 BRR  HZ I         341 22.88         3.7 0.31            153           68.0 313 
 RUS  HZ EP        341  7.28                             143   -0.2010 90.1 167 
 RUS  HN ES        341 24.38                             143    0.2510 90.1 167 
 RUS  HZ I         341 28.51         0.8 0.26            143           90.1 167 
 PTB  HZ EP   1    341 10.52                             131    0.12 7  133 263 
 PTB  HN ES        341 29.20                             131   -0.1310  133 263 
 PTB  HZ I         341 31.10         0.6 0.22            132            133 263 
                                                                                
