 2017 1116 0905 54.0 L   6.540 -73.564109.6  RSN  6 0.5 1.6LRSN                1
 GAP=127        1.29       5.3     4.2  9.1  0.7924E+01  0.4293E+01 -0.1754E+01E
 Epicentro: EL CARMEN - SANTANDER                                              3
 ACTION:UPD 17-12-12 19:56 OP:rebc STATUS:               ID:20171116090554 L   I
 OLDACT:DUP 17-11-16 19:49 OP:leo  STATUS:               ID:20171116085742d    3
 2017-11-16-0858-00M.COL___402                                                 6
 STAT SP IPHASW D HRMM SECON CODA AMPLIT PERI AZIMU VELO AIN AR TRES W  DIS CAZ7
 BAR2 EZ EP        9 6 10.18                             157    0.1410 42.6  82 
 BAR2 HE ES        9 6 23.03                             157    0.4910 42.6  82 
 RUS  HZ EP        9 6 13.15                             138   -0.3110 89.1 143 
 RUS  HN ES        9 6 28.62                             138   -0.0110 89.1 143 
 RUS  HZ I         9 6 30.31         3.9 0.20            140           89.1 143 
 PTB  HZ EP        9 6 12.97                             135   -0.6410 98.7 270 
 PTB  HE ES        9 6 28.30                             135   -0.6010 98.7 270 
 PTB  HZ I         9 6 31.46         3.2 0.18            135           98.7 270 
 PAM  EZ EP        9 6 16.78                             126   -0.3910  130  47 
 PAM  EN ES        9 6 34.71                             126   -0.5110  130  47 
 PAM  EZ I         9 6 36.18         6.8 0.18            128            130  47 
 ZAR  HZ EP        9 6 22.09                             117    0.61 9  178 306 
 ZAR  HN ES        9 6 43.83                             117    0.93 9  178 306 
 ZAR  HZ I         9 6 47.63         6.7 0.30            118            178 306 
 YPLC HZ EP        9 6 22.12                             116    0.07 9  182 134 
 YPLC HN ES        9 6 44.52                             116    0.61 9  182 134 
 YPLC HZ I         9 6 46.11        14.2 0.40            118            182 134 
                                                                                
