 2013  216 0841 53.2 L   6.797 -73.136147.8  RSN  9 0.5 2.0LRSN                1
 GAP= 72        1.13       3.7     3.7  6.4  0.1484E+01  0.2672E+01  0.2568E+01E
 Epicentro: LOS SANTOS - SANTANDER                                             3
 ACTION:UPD 13-03-12 09:33 OP:ep   STATUS:               ID:20130216084153 L   I
 2013-02-16-0840-00M.COL___241                                                 6
 STAT SP IPHASW D HRMM SECON CODA AMPLIT PERI AZIMU VELO AIN AR TRES W  DIS CAZ7
 BAR2 SZ IP     C  842 12.83                             171   -0.2410 23.2 193 
 BAR2 SZ ES        842 28.37                             171   -0.2010 23.2 193 
 BAR2 SZ I         842 30.39        17.8 0.26            169           23.2 193 
 BRR  HZ IP        842 14.68                             152    0.0510 72.3 298 
 BRR  HN ES        842 32.31                             152    0.9610 72.3 298 
 BRR  HN I         842 32.72        21.1 0.18            151           72.3 298 
 PAM  SZ IP     C  842 15.59                             151   -0.0210 77.0  39 
 PAM  SN ES        842 32.96                             151   -0.1310 77.0  39 
 PAM  SN I         842 34.04        11.1 0.50            154           77.0  39 
 RUS  HZ EP        842 17.08                             144   -0.0410  100 177 
 RUS  HN ES        842 35.33                             144   -0.4510  100 177 
 RUS  HN I         842 36.95        10.8 0.44            144            100 177 
 PTB  HZ EP        842 19.89                             132   -0.53 9  149 259 
 PTB  HN ES        842 41.03                             132   -0.62 9  149 259 
 PTB  HN I         842 46.03        15.5 0.28            131            149 259 
 TAM  HZ EP        842 20.97                             131    0.03 9  154 105 
 TAM  HN ES        842 42.79                             131    0.21 9  154 105 
 TAM  HN I         842 43.26        15.5 0.50            133            154 105 
 OCA  HZ EP   1    842 22.43                             130    0.72 7  161 353 
 OCA  HN ES        842 43.70                             130   -0.26 9  161 353 
 OCA  HN I         842 47.19        41.0 0.32            131            161 353 
 ZAR  HZ EP        842 25.51                             123   -0.38 9  205 292 
 ZAR  HN ES        842 51.78                             123    0.39 9  205 292 
 ZAR  HN I         842 58.18        13.2 0.14            122            205 292 
 CHI  HZ EP        842 31.11                             118    0.11 8  249 195 
 CHI  HN ES        843  1.54                             118    1.05 8  249 195 
 CHI  HN I         843  7.75         4.4 0.40            118            249 195 
                                                                                
