 2016  616 0838 32.8 L   6.757 -73.176150.6  RSN  6 0.2 1.4LRSN                1
 GAP=231        0.49       2.9     3.3  4.7  0.3225E+01  0.8123E+00 -0.3612E+01E
 Epicentro: LOS SANTOS - SANTANDER                                             3
 ACTION:UPD 16-07-21 22:19 OP:rebc STATUS:               ID:20160616083832 L   I
 OLDACT:UP  16-06-16 17:56 OP:dani STATUS:               ID:20160616082745d    3
 OLDACT:DUP 16-06-16 17:53 OP:dani STATUS:               ID:20160616082745d    3
 2016-06-16-0827-44M.COL___330                                                 6
 STAT SP IPHASW D HRMM SECON CODA AMPLIT PERI AZIMU VELO AIN AR TRES W  DIS CAZ7
 BAR2 EZ EP        838 52.77                             173   -0.1410 18.2 182 
 BAR2 EZ I         839 10.33         2.6 0.24                          18.2 182 
 BRR  HZ EP        838 54.59                             153    0.1510 70.7 303 
 BRR  HE ES        839 11.32                             153    0.0010 70.7 303 
 BRR  HZ I         839 21.91         6.3 0.24                          70.7 303 
 RUS  HN ES        839 15.39                             146    0.0210 96.1 174 
 PTB  HZ EP        838 59.61                             134   -0.17 9  144 260 
 PTB  HE ES        839 21.07                             134    0.23 9  144 260 
 PTB  HZ I         839 23.25         3.2 0.10                           144 260 
 SPBC HE ES        839 23.15                             131   -0.07 9  157 219 
 ZAR  HZ EP        839  5.69                             124    0.26 9  203 294 
 ZAR  HN ES        839 30.57                             124   -0.31 9  203 294 
 ZAR  HZ I         839 36.31         2.1 0.16                           203 294 
                                                                                
