 2012  216 0250 18.2 L   6.789 -73.156139.3  RSN  5 0.3 1.4LRSN                1
 GAP=235        0.67       5.4     6.3  9.1  0.1790E+02  0.1038E+02  0.1312E+02E
 ACTION:UP  12-03-07 16:30 OP:epov STATUS:               ID:20120216025018 L   I
 2012-02-16-0250-00M.COL___188                                                 6
 STAT SP IPHASW D HRMM SECON CODA AMPLIT PERI AZIMU VELO AIN AR TRES W  DIS CAZ7
 BAR2 SZ EP   2    250 37.01                             171    0.02 5 21.9 188 
 BRR  HZ EP   1    250 38.63                             151    0.04 7 70.8 300 
 BRR  HN ES        250 54.79                             151    0.2710 70.8 300 
 BRR  HZ I         250 57.97         6.5 0.20                          70.8 300 
 RUS  HZ EP   1    250 41.37                             143    0.17 7 99.4 175 
 RUS  HN ES   1    250 58.69                             143   -0.48 7 99.4 175 
 RUS  HZ I         251  1.75         3.3 0.16                          99.4 175 
 ZAR  HN ES   1    251 14.46                             121   -0.60 6  203 293 
 ZAR  HZ I         251 17.11         2.5 0.11                           203 293 
 NOR  SE ES   1    251 21.12                             117    0.34 6  233 235 
                                                                                
