 2014  116 0200 22.2 L   6.814 -73.169143.7  RSN 10 0.5 1.8LRSN                1
 GAP=133        1.29       3.9     5.1  7.4 -0.1815E+01  0.9520E+01  0.5153E+01E
 Epicentro: LOS SANTOS - SANTANDER                                             3
 ACTION:UPD 14-03-13 09:55 OP:ep   STATUS:               ID:20140116020022 L   I
 OLDACT:REG 14-01-16 07:24 OP:carl STATUS:               ID:20140116020000     3
 2014-01-16-0200-00M.COL___285                                                 6
 STAT SP IPHASW D HRMM SECON CODA AMPLIT PERI AZIMU VELO AIN AR TRES W  DIS CAZ7
 BAR2 SZ IP     D  2 0 41.64                             170    0.0710 24.6 184 
 BAR2 SZ ES        2 0 56.42                             170   -0.2910 24.6 184 
 BAR2 SZ I         2 0 57.88        31.6 0.18            168           24.6 184 
 BRR  HZ IP     C  2 0 43.45                             153    0.5310 68.2 298 
 BRR  HN ES        2 1  0.17                             153    1.0610 68.2 298 
 BRR  HZ I         2 1  1.05        11.7 0.12            153           68.2 298 
 PAM  SZ EP        2 0 44.64                             150    0.4610 77.8  42 
 PAM  SN ES        2 1  1.31                             150   -0.0510 77.8  42 
 PAM  SZ I         2 1  3.43        13.1 0.42            154           77.8  42 
 RUS  HZ EP        2 0 45.69                             143   -0.1410  102 175 
 RUS  HN ES        2 1  4.22                             143   -0.0810  102 175 
 RUS  HZ I         2 1  6.01         5.6 0.20            143            102 175 
 PTB  HZ EP        2 0 48.55                             132   -0.21 9  146 258 
 PTB  HN ES        2 1  8.61                             132   -0.90 9  146 258 
 PTB  HZ I         2 1 11.42         8.1 0.20            132            146 258 
 OCA  HN ES        2 1 10.82                             129   -1.14 9  158 354 
 SPBC HZ EP        2 0 50.94                             129    0.48 9  163 218 
 SPBC HN ES        2 1 12.39                             129   -0.15 9  163 218 
 SPBC HZ I         2 1 18.31        11.1 0.22            129            163 218 
 ZAR  HZ EP        2 0 53.88                             122   -0.28 9  201 292 
 ZAR  HN ES        2 1 19.70                             122    0.57 9  201 292 
 ZAR  HZ I         2 1 25.44         7.8 0.48            123            201 292 
 NOR  HZ EP        2 0 57.28                             118   -0.36 8  234 234 
 NOR  HN ES        2 1 25.47                             118    0.15 8  234 234 
 NOR  HZ I         2 1 28.53         7.6 0.26            119            234 234 
 CHI  HZ EP        2 1  0.06                             117    0.23 8  249 195 
 CHI  HN ES        2 1 29.03                             117   -0.19 8  249 195 
 CHI  HZ I         2 1 37.01         2.4 0.32            117            249 195 
                                                                                
