 2011  616 0230 29.2 L   6.777 -73.046145.2  RSN  9 0.3 1.4LRSN                1
 GAP=151        0.61       4.5     5.9  6.9 -0.6611E+01 -0.8810E+01 -0.3277E+01E
 Epicentro: LOS SANTOS - SANTANDER                                             3
 ACTION:UP  11-07-14 19:05 OP:ep   STATUS:               ID:20110616023029 L   I
 2011-06-16-0225-03S.COL___138                                                 6
 STAT SP IPHASW D HRMM SECON CODA AMPLIT PERI AZIMU VELO SNR AR TRES W  DIS CAZ7
 BAR2 SZ ES   2    231  3.81                             170    -0.3 5   25 217 
 BAR2 SZ I         231  4.89         4.6 0.23                            25 217 
 BTL  SZ EP   1    230 49.25                             168     0.4 7   29 303 
 PAM  SZ EP   1    230 51.28                             152     0.2 7   73  32 
 PAM  SN ES   2    231  8.21                             152     0.0 5   73  32 
 BRR  HZ EP   1    230 50.39                             149    -0.5 7   82 296 
 BRR  HZ I         231  5.05         7.1 0.62                            82 296 
 BRR  HN ES   1    231  7.95                             149     0.1 7   82 296 
 RUS  HZ EP   1    230 52.53                             144    -0.2 7   98 182 
 RUS  HZ I         231  9.76         4.3 0.62                            98 182 
 RUS  HE ES   2    231 11.05                             144     0.0 5   98 182 
 BRI  SZ EP   1    230 53.04                             142     0.1 7  107  15 
 BRI  SZ I         231 16.86         3.2 0.46                           107  15 
 GRA  SZ EP   1    230 54.42                             137     0.1 7  125  12 
 GRA  SZ I         230 55.59         3.6 0.37                           125  12 
 OCA  SZ EP   2    230 57.56                             129    -0.3 5  164 349 
 OCA  SZ I         230 57.88         3.9 0.40                           164 349 
 NOR  SN ES   2    231 34.72                             118     0.5 4  242 236 
                                                                                
