 2011  716 0533 43.6 L   6.811 -73.127143.3  RSN 12 0.3 2.3LRSN                1
 GAP=138        0.53       2.3     3.7  3.5 -0.3216E+01  0.3647E+01  0.1384E+01E
 Epicentro: LOS SANTOS - SANTANDER                                             3
 ACTION:UPD 12-07-25 14:01 OP:epov STATUS:               ID:20110716053343 L   I
 2011-07-16-0532-09S.COL___131                                                 6
 STAT SP IPHASW D HRMM SECON CODA AMPLIT PERI AZIMU VELO AIN AR TRES W  DIS CAZ7
 BAR2 SZ EP   1    534  2.77                             170   -0.15 7 25.0 194 
 BAR2 SZ ES   1    534 17.98                             170   -0.05 7 25.0 194 
 BAR2 SZ I         534 20.47        34.1 0.23                          25.0 194 
 GIR2 SZ EP   1    534  2.72                             167   -0.19 7 30.5 346 
 GIR2 SZ ES   1    534 18.32                             167    0.31 7 30.5 346 
 BRR  HZ EP   1    534  4.47                             152   -0.04 7 72.5 297 
 BRR  HE ES   1    534 21.13                             152    0.28 7 72.5 297 
 BRR  HZ I         534 24.95        58.2 0.13                          72.5 297 
 PAM  SZ EP   1    534  5.59                             151    0.22 7 75.1  39 
 PAM  SE ES   1    534 22.38                             151    0.00 7 75.1  39 
 RUS  HZ EP   1    534  7.27                             143    0.13 7  102 177 
 RUS  HN ES   1    534 25.41                             143   -0.13 7  102 177 
 RUS  HZ I         534 27.45        18.9 0.32                           102 177 
 BRI  SZ EP   1    534  7.14                             141    0.07 7  107  20 
 BRI  SZ ES   1    534 25.27                             141   -0.13 7  107  20 
 BRI  SZ I         534 30.43        35.1 0.41                           107  20 
 OCA  SZ EP   1    534 11.30                             129   -0.28 7  159 352 
 OCA  SZ ES   1    534 33.17                             129   -0.27 7  159 352 
 OCA  SZ I         534 38.66        33.7 0.26                           159 352 
 NOR  SZ EP   1    534 19.39                             118   -0.02 6  237 235 
 NOR  SN ES   1    534 46.73                             118   -0.64 6  237 235 
 CHI  HZ EP   1    534 21.56                             116    0.25 6  250 196 
 CHI  HZ I         534 58.07        10.5 0.42                           250 196 
 HEL  HZ EP   1    534 24.38                             114    0.47 6  274 256 
 GUY  SZ EP   1    534 28.33                             111    0.74 5  306 235 
 PRA  HZ EP   1    534 36.64                             106   -0.60 4  394 210 
 PRA  HN ES   1    535 19.08                             106   -0.03 4  394 210 
                                                                                
