 2010  916 0640 46.8 L   6.781 -73.073144.0  RSN 13 0.4 2.9LRSN                1
 GAP=167        1.04       5.1     9.2  7.8 -0.1882E+02  0.9383E+01  0.1242E+02E
 Epicentro: LOS SANTOS - SANTANDER                                             3
 ACTION:UP  11-02-18 11:03 OP:tino STATUS:               ID:20100916064046 L   I
 2010-09-16-0639-15S.COL___119                                                 6
 STAT SP IPHASW D HRMM SECON CODA AMPLIT PERI AZIMU VELO SNR AR TRES W  DIS CAZ7
 BAR2 SZ IP        641  6.05                             170    -0.210   24 210 
 BAR2 SZ ES   1    641 21.35                             170     0.0 7   24 210 
 BAR2 SZ I         641 23.95       232.5 0.29                            24 210 
 BTL  SZ EP        641  7.25                             169     1.010   26 305 
 GIR2 SZ EP        641  6.13                             165    -0.210   36 338 
 BRR  HZ IP     C  641  7.89                             150    -0.310   79 297 
 BRR  HE ES   1    641 24.88                             150    -0.1 7   79 297 
 BRR  HZ I         641 27.33       123.0 0.24                            79 297 
 RUS  HZ EP        641  9.95                             144    -0.310   98 181 
 RUS  HZ I         641 30.04        93.3 0.27                            98 181 
 GRA  SZ IP     C  641 11.84                             137     0.010  126  14 
 GRA  SZ ES   1    641 31.82                             137     0.4 7  126  14 
 GRA  SZ I         641 32.84        87.8 0.36                           126  14 
 OCA  SZ EP   1    641 14.58                             129    -0.7 7  163 350 
 OCA  SZ I         641 41.10        82.6 0.44                           163 350 
 CHI  HZ EP        641 24.33                             117    -0.1 8  249 197 
 CHI  HE ES   1    641 53.74                             117     0.0 6  249 197 
 CHI  HZ I         641 59.71        46.1 0.39                           249 197 
 HEL  HZ EP   2    641 27.68                             114     0.0 4  279 257 
 HEL  HZ I         642  4.56        41.6 0.48                           279 257 
 GUY  SZ EP   1    641 31.24                             112     0.3 5  307 236 
 RREF HZ EP        641 33.58                             110     0.2 7  327 231 
 RREF HZ I         642 13.28        42.8 0.28                           327 231 
 TOL  SZ EP        641 35.24                             109    -0.2 6  348 226 
 ANIL HZ EP        641 37.72                             108     0.7 6  362 226 
 ANIL HE ES   2    642 15.80                             108    -0.4 3  362 226 
                                                                                
