 2016  416 0335 46.0 L   6.828 -73.139144.1  RSN 14 0.5 1.9LRSN                1
 GAP=136        0.97       2.8     3.5  5.4 -0.2302E+01  0.8209E+01 -0.9011E-01E
 Epicentro: LOS SANTOS - SANTANDER                                             3
 ACTION:UPD 16-05-05 14:21 OP:rebc STATUS:               ID:20160416033546 L   I
 OLDACT:REG 16-04-16 14:01 OP:ak   STATUS:               ID:20160416032749     3
 2016-04-16-0327-49M.COL___310                                                 6
 STAT SP IPHASW D HRMM SECON CODA AMPLIT PERI AZIMU VELO AIN AR TRES W  DIS CAZ7
 BAR2 EZ EP        336  5.65                             169    0.1410 26.5 190 
 BAR2 EZ ES        336 20.49                             169   -0.2310 26.5 190 
 BAR2 EZ I         336 21.76        19.2 0.22            170           26.5 190 
 PAM  EZ IP     C  336  8.61                             151    0.7210 74.6  41 
 PAM  EN ES        336 25.35                             151    0.4010 74.6  41 
 PAM  EZ I         336 27.01         9.2 0.20            153           74.6  41 
 RUS  HZ EP        336  9.89                             143    0.0710  104 177 
 RUS  HN ES        336 28.30                             143   -0.1010  104 177 
 RUS  HZ I         336 28.97         6.9 0.26            145            104 177 
 PTB  HZ EP        336 12.64                             131   -0.33 9  149 258 
 PTB  HN ES        336 33.50                             131   -0.49 9  149 258 
 PTB  HZ I         336 35.14         7.7 0.28            131            149 258 
 OCA  HZ EP        336 13.27                             130   -0.65 9  157 353 
 OCA  HN ES        336 35.76                             130    0.08 9  157 353 
 OCA  HZ I         336 40.38        24.1 0.30            130            157 353 
 SPBC HZ EP        336 14.61                             128   -0.05 9  166 219 
 SPBC HN ES        336 36.47                             128   -0.53 9  166 219 
 SPBC HZ I         336 38.75        10.4 0.18            129            166 219 
 ZAR  HZ EP   2    336 18.71                             122    0.41 4  204 291 
 ZAR  HN ES        336 43.78                             122    0.30 9  204 291 
 ZAR  HZ I         336 50.32        12.6 0.50            122            204 291 
 NOR  HZ EP        336 21.80                             118   -0.10 8  237 234 
 NOR  HN ES        336 50.23                             118    0.34 8  237 234 
 NOR  HZ I         336 51.62         7.6 0.20            118            237 234 
 CHI  HZ EP        336 23.56                             116   -0.40 8  252 195 
 CHI  HN ES        336 53.34                             116   -0.22 8  252 195 
 CHI  HZ I         336 59.22         4.5 0.28            118            252 195 
 URE  HE ES   4    336 57.03                             113   -1.85 0  283 291 
 GUY2CHZ EP   2    336 30.27                             112    0.46 4  304 234 
 GUY2CHN ES        337  4.93                             112    0.96 7  304 234 
 GUY2CHZ I         337 10.91         4.6 0.34                           304 234 
 CBOC HZ EP        336 33.54                             109    0.49 7  335 252 
 CBOC HE ES        337 10.32                             109    0.59 7  335 252 
 CBOC HZ I         337 19.73         1.6 0.52            110            335 252 
 DBB  SZ EP   2    336 33.08                             109   -0.40 3  340 274 
 DBB  SZ ES        337  9.74                             109   -0.76 7  340 274 
 DBB  SZ I         337 14.04         9.6 0.30            110            340 274 
 SJC  HZ EP        336 40.32                             105   -0.95 6  407 327 
 SJC  HE ES   4    337 21.28                             105   -3.08 0  407 327 
 SJC  HZ I         337 25.64         2.4 0.48            106            407 327 
 PAL  HZ EP        336 41.86                             105    0.49 6  408 239 
 PAL  HN ES        337 24.88                             105    0.33 6  408 239 
                                                                                
