 2013 1116 0810 46.1 L   6.800 -73.137137.4  RSN  6 0.4 1.7LRSN                1
 GAP=201        1.03       4.3     6.4  7.8  0.3380E+01  0.7953E+01 -0.1075E+02E
 Epicentro: LOS SANTOS - SANTANDER                                             3
 ACTION:UPD 14-01-09 16:28 OP:ep   STATUS:               ID:20131116081046 L   I
 OLDACT:REG 13-11-16 10:18 OP:nd   STATUS:               ID:20131116081000     3
 2013-11-16-0810-00M.COL___279                                                 6
 STAT SP IPHASW D HRMM SECON CODA AMPLIT PERI AZIMU VELO AIN AR TRES W  DIS CAZ7
 BAR2 SZ EP        811  5.14                             170    0.3710 23.5 192 
 BAR2 SZ ES        811 19.18                             170   -0.1210 23.5 192 
 BAR2 SZ I         811 21.39        15.3 0.24            169           23.5 192 
 BRR  HZ EP        811  6.96                             151    0.5210 72.0 298 
 BRR  HN ES   2    811 22.79                             151    0.52 5 72.0 298 
 BRR  HZ I         811 27.87         8.5 0.32            149           72.0 298 
 RUS  HZ EP        811  9.46                             142    0.3810  101 177 
 RUS  HN ES        811 26.38                             142   -0.5910  101 177 
 RUS  HZ I         811 29.30         6.1 0.26            146            101 177 
 PTB  HZ EP        811 12.49                             130   -0.03 9  149 259 
 PTB  HN ES        811 33.15                             130    0.05 9  149 259 
 PTB  HZ I         811 35.93         6.7 0.12            131            149 259 
 SPBC HZ EP        811 14.42                             127    0.35 9  164 219 
 SPBC HN ES        811 35.49                             127   -0.36 9  164 219 
 SPBC HZ I         811 42.14         5.8 0.30            129            164 219 
 SML  HZ EP        811 21.46                             115   -0.89 8  244 335 
 SML  HN ES        811 50.39                             115   -0.21 8  244 335 
 SML  HZ I         811 56.02         6.6 0.28            118            244 335 
                                                                                
