 2013  316 0039 24.0 L   6.826 -73.154146.3  RSN 17 0.5 3.5LRSN 3.7WRSN        1
 SPEC AVERAGE  MO 14.6 ST 24.8 OM  3.3 f0 2.96 R0.5878 AL 2.77 WI 23.7 MW  3.7 3
 SPEC SD       MO  0.5 ST 23.1 OM  0.6 f0 1.29 R0.2156 AL      WI      MW  0.3 3
 GAP= 70        1.12       2.9     4.0  5.4 -0.1800E+00  0.2422E+01  0.9713E+00E
 Epicentro: LOS SANTOS - SANTANDER                                             3
 SPEC VIL SH N MO 15.4 ST 23.4 OM  3.5 f0 1.85 R0.7946 AL 3.23 WI 29.6 MW  4.2 3
 SPEC VIL SH N T 04038 K 0.000 GD  339 VS 4.20 DE 3.20 Q0300.0 QA 0.60 VS 4.20 3
 SPEC TAM HH N MO 14.2 ST  1.2 OM  2.5 f0 1.72 R0.8547 AL 2.11 WI 19.9 MW  3.4 3
 SPEC TAM HH N T 04011 K 0.000 GD  214 VS 4.20 DE 3.20 Q0300.0 QA 0.60 VS 4.20 3
 SPEC PRA HH N MO 14.4 ST  4.4 OM  2.4 f0 2.29 R0.6419 AL 1.61 WI 36.5 MW  3.6 3
 SPEC PRA HH N T 04056 K 0.000 GD  420 VS 4.20 DE 3.20 Q0300.0 QA 0.60 VS 4.20 3
 SPEC ROSCBH N MO 15.8 ST 60.5 OM  3.9 f0 1.96 R0.7500 AL 3.01 WI 24.1 MW  4.5 3
 SPEC ROSCBH N T 04032 K 0.000 GD  293 VS 4.20 DE 3.20 Q0300.0 QA 0.60 VS 4.20 3
 SPEC OCA HH N MO 14.6 ST 59.3 OM  2.9 f0 4.66 R0.3155 AL 3.12 WI 25.5 MW  3.7 3
 SPEC OCA HH N T 04011 K 0.000 GD  214 VS 4.20 DE 3.20 Q0300.0 QA 0.60 VS 4.20 3
 SPEC RUS HH E MO 14.5 ST 17.4 OM  2.9 f0 3.29 R0.4468 AL 3.28 WI 19.5 MW  3.6 3
 SPEC RUS HH E T 040 4 K 0.000 GD  178 VS 4.20 DE 3.20 Q0300.0 QA 0.60 VS 4.20 3
 SPEC PAM SH N MO 14.2 ST  3.0 OM  2.6 f0 2.38 R0.6176 AL 2.55 WI 23.3 MW  3.4 3
 SPEC PAM SH N T 040 0 K 0.000 GD  164 VS 4.20 DE 3.20 Q0300.0 QA 0.60 VS 4.20 3
 SPEC HEL HH Z MO 14.3 ST 21.8 OM  2.4 f0 4.34 R0.3387 AL 3.53 WI 26.9 MW  3.5 3
 SPEC HEL HH Z T 04033 K 0.000 GD  308 VS 4.20 DE 3.20 Q0300.0 QA 0.60 VS 4.20 3
 SPEC CHI HH N MO 14.6 ST  2.6 OM  2.7 f0 1.74 R0.8448 AL 2.06 WI 21.5 MW  3.7 3
 SPEC CHI HH N T 04029 K 0.000 GD  290 VS 4.20 DE 3.20 Q0300.0 QA 0.60 VS 4.20 3
 SPEC BRR HH N MO 14.4 ST 54.4 OM  2.8 f0 5.37 R0.2737 AL 3.22 WI 10.2 MW  3.5 3
 SPEC BRR HH N T 040 1 K 0.000 GD  161 VS 4.20 DE 3.20 Q0300.0 QA 0.60 VS 4.20 3
 ACTION:UPD 13-04-09 14:02 OP:ep   STATUS:               ID:20130316003924 L   I
 2013-03-16-0038-49M.COL___202                                                 6
 STAT SP IPHASW D HRMM SECON CODA AMPLIT PERI AZIMU VELO AIN AR TRES W  DIS CAZ7
 BAR2 SZ EP        039 43.81                             169    0.1010 26.0 187 
 BAR2 SZ ES        039 58.55                             169   -0.5710 26.0 187 
 BAR2 SZ I         040  0.38       570.4 0.18            168           26.0 187 
 BRR  HZ IP     C  039 45.61                             153    0.5610 69.0 297 
 BRR  HN ES        040  2.25                             153    0.7510 69.0 297 
 BRR  HN I         040  3.36       973.1 0.22            148           69.0 297 
 PAM  SZ EP        039 46.66                             151    0.5210 75.8  41 
 PAM  SN ES   2    040  3.46                             151    0.01 5 75.8  41 
 PAM  SN I         040  5.08       349.8 0.30            150           75.8  41 
 RUS  HZ EP        039 47.84                             143   -0.1410  103 176 
 RUS  HN ES        040  6.77                             143    0.0610  103 176 
 RUS  HN I         040  7.99       494.5 0.40            141            103 176 
 PTB  HZ EP        039 50.20                             132   -0.74 9  147 258 
 PTB  HN ES        040 11.49                             132   -0.49 9  147 258 
 PTB  HN I         040 16.81       445.0 0.54            127            147 258 
 OCA  HZ EP        039 51.84                             130   -0.20 9  157 353 
 OCA  HN ES        040 13.40                             130   -0.54 9  157 353 
 OCA  HN I         040 22.46       487.7 0.20            126            157 353 
 TAM  HZ IP     D  039 52.19                             130    0.35 9  157 106 
 TAM  HE ES   2    040 13.36                             130   -0.22 5  157 106 
 TAM  HE I         040 14.55       123.0 0.20            129            157 106 
 ZAR  HZ EP        039 56.41                             123    0.17 9  202 291 
 ZAR  HN ES   2    040 21.50                             123    0.08 4  202 291 
 ZAR  HN I         040 27.04       325.5 0.16            118            202 291 
 CTAB SZ EP   4    040  1.38                             119    1.43 0  232 210 
 SML  HZ EP        040  0.26                             118   -0.04 8  241 335 
 SML  HN ES   2    040 28.40                             118   -0.24 4  241 335 
 SML  HN I         040 36.32       315.2 0.10            114            241 335 
 CHI  HZ EP        040  1.95                             117   -0.01 8  251 195 
 CHI  HN ES        040 31.19                             117   -0.41 8  251 195 
 CHI  HN I         040 33.67       249.3 0.54            114            251 195 
 ROSC BZ EP        040  3.59                             116    1.27 8  255 211 
 ROSC BZ I         040 38.16       193.0 0.40            113            255 211 
 HEL  HZ EP   1    040  4.99                             115    0.81 6  272 255 
 HEL  HN ES        040 36.06                             115    0.51 8  272 255 
 URE  HZ EP   4    040  3.70                             114   -1.14 0  282 291 
 URE  HN ES   4    040 35.16                             114   -1.57 0  282 291 
 URE  HN I         040 45.74       177.1 0.28            110            282 291 
 VIL  SZ EP        040  7.53                             112   -0.17 7  306 191 
 VIL  SN ES        040 41.58                             112   -0.23 7  306 191 
 DBB  SZ EP        040 11.25                             110   -0.08 7  338 274 
 COD  HZ EP        040 10.96                             109   -1.06 7  345 355 
 COD  HN ES   4    040 48.31                             109   -1.20 0  345 355 
 COD  HN I         040 52.81        55.5 0.34            106            345 355 
 PRA  HZ EP   2    040 17.62                             106   -0.11 3  394 209 
 PRA  HN ES        040 58.81                             106   -0.87 6  394 209 
 PRA  HN I         041  5.58        90.2 0.36            104            394 209 
                                                                                
