 2015 1116 0018 48.0 L   6.810 -73.126140.0  RSN 19 0.6 2.0LRSN                1
 GAP=139        1.08       3.1     5.0  6.3 -0.5609E+01  0.1074E+02  0.1633E+01E
 Epicentro: LOS SANTOS - SANTANDER                                             3
 ACTION:UPD 15-12-28 16:11 OP:cam  STATUS:               ID:20151116001848 L   I
 OLDACT:UP  15-11-16 17:11 OP:dnl  STATUS:               ID:20151116001746     3
 OLDACT:UP  15-11-16 16:54 OP:dnl  STATUS:               ID:20151116001746     3
 OLDACT:REG 15-11-16 12:50 OP:y    STATUS:               ID:20151116001746     3
 2015-11-16-0017-46M.COL___319                                                 6
 STAT SP IPHASW D HRMM SECON CODA AMPLIT PERI AZIMU VELO AIN AR TRES W  DIS CAZ7
 BAR2 EZ EP     C  019  6.92                             170   -0.0510 24.8 195 
 BAR2 EZ ES        019 21.77                             170    0.0010 24.8 195 
 BAR2 EZ I         019 22.99        25.7 0.20            167           24.8 195 
 BRR  HZ EP   2    019  8.94                             151    0.32 5 72.6 297 
 BRR  HN ES        019 25.58                             151    0.8910 72.6 297 
 BRR  HZ I         019 26.87        18.7 0.42            147           72.6 297 
 PAM  EZ EP     D  019  9.85                             151    0.3710 75.2  39 
 PAM  EN ES        019 26.61                             151    0.3910 75.2  39 
 PAM  EZ I         019 28.84        25.5 0.50            154           75.2  39 
 RUS  HZ EP        019 10.96                             143   -0.3010  102 177 
 RUS  HE ES   2    019 29.28                             143   -0.12 5  102 177 
 RUS  HZ I         019 30.51         7.4 0.28            143            102 177 
 OCA  HZ EP        019 15.26                             129   -0.54 9  159 352 
 OCA  HE ES        019 36.67                             129   -0.81 9  159 352 
 OCA  HZ I         019 42.82        23.1 0.30            129            159 352 
 SPBC HZ EP   2    019 16.04                             128   -0.24 5  165 219 
 SPBC HN ES        019 38.33                             128   -0.00 9  165 219 
 SPBC HZ I         019 43.76        14.4 0.10            126            165 219 
 ZAR  HZ EP   2    019 21.21                             121    0.96 4  206 292 
 ZAR  HN ES   4    019 46.74                             121    1.34 0  206 292 
 ZAR  HZ I         019 51.85        12.9 0.26            120            206 292 
 NOR  HZ EP   1    019 23.17                             117   -0.49 6  237 235 
 NOR  HN ES        019 50.90                             117   -0.58 8  237 235 
 NOR  HZ I         019 57.49         7.4 0.18            116            237 235 
 SML  HZ EP   2    019 23.45                             117   -0.86 4  244 335 
 SML  HE ES        019 52.78                             117    0.16 8  244 335 
 SML  HZ I         019 59.06        18.5 0.10            116            244 335 
 CHI  HZ EP   4    019 27.45                             116    1.88 0  250 196 
 CHI  HN ES        019 54.18                             116   -0.68 8  250 196 
 CHI  HZ I         020  1.03         4.4 0.40            116            250 196 
 HEL  HE ES   1    019 58.65                             114   -0.89 6  274 256 
 HEL  HZ I         020  5.94         5.5 0.30            113            274 256 
 URE  HZ EP   4    019 31.39                             113    2.41 0  285 292 
 URE  HE ES   4    019 59.65                             113   -1.29 0  285 292 
 URE  HZ I         020  9.04         6.2 0.32            112            285 292 
 GUY2CHZ EP   2    019 32.67                             111    1.05 4  304 235 
 GUY2CHE ES   2    020  6.70                             111    1.05 4  304 235 
 GUY2CHZ I         020 12.28         5.3 0.24                           304 235 
 ELA  HZ EP   4    019 36.97                             109    2.08 0  331 230 
 ELA  HN ES        020 11.85                             109    0.39 7  331 230 
 ELA  HZ I         020 18.27         5.0 0.58            109            331 230 
 CBOC HZ EP        019 34.91                             109   -0.05 7  336 252 
 CBOC HN ES   2    020 11.08                             109   -0.51 3  336 252 
 CBOC HZ I         020 14.78         1.8 0.24            108            336 252 
 MON  HZ EP   4    019 36.25                             108   -0.66 0  355 308 
 MON  HE ES   4    020 13.00                             108   -2.05 0  355 308 
 MON  HZ I         020 14.23         2.5 0.16            107            355 308 
 PRA  HZ EP   2    019 42.48                             106    0.91 3  394 210 
 PRA  HN ES   4    020 21.90                             106   -1.44 0  394 210 
 PRA  HZ I         020 31.50         5.5 0.42            106            394 210 
 ORTC HZ EP   1    019 42.77                             106    0.79 4  398 216 
 ORTC HE ES        020 25.20                             106    1.11 6  398 216 
 ORTC HZ I         020 30.26         4.4 0.32            106            398 216 
 SJC  HZ EP   4    019 42.08                             105   -1.34 0  410 327 
 SJC  HE ES   4    020 24.08                             105   -2.56 0  410 327 
 SJC  HZ I         020 26.93         4.2 0.46            105            410 327 
                                                                                
