 2017 1116 0446 41.0 L   6.796 -73.134144.6  RSN  4 0.3 0.9LRSN                1
 GAP=245        0.72       7.1     5.5  6.4  0.2517E+02  0.1344E+01 -0.1474E+02E
 Epicentro: LOS SANTOS - SANTANDER                                             3
 ACTION:UPD 17-12-12 19:56 OP:rebc STATUS:               ID:20171116044641 L   I
 OLDACT:REG 17-11-16 13:29 OP:y    STATUS:               ID:20171116043740     3
 2017-11-16-0438-00M.COL___429                                                 6
 STAT SP IPHASW D HRMM SECON CODA AMPLIT PERI AZIMU VELO AIN AR TRES W  DIS CAZ7
 BAR2 EZ EP        447  0.23                             170   -0.2810 23.1 193 
 BAR2 EZ ES        447 15.68                             170   -0.0210 23.1 193 
 RUS  HZ EP        447  4.53                             144   -0.0910  100 177 
 RUS  HN ES        447 23.33                             144    0.3110  100 177 
 RUS  HZ I         447 23.84         2.1 0.56            143            100 177 
 PTB  HZ EP        447  7.69                             131   -0.31 9  149 259 
 PTB  HN ES        447 28.91                             131   -0.13 9  149 259 
 PTB  HZ I         447 30.18         0.7 0.16            131            149 259 
 ZAR  HZ EP        447 14.14                             122    0.61 8  205 292 
 ZAR  HN ES        447 38.91                             122    0.03 8  205 292 
                                                                                
