 2014 1016 0930  8.1 L   6.814 -73.161144.0  RSN 11 0.3 1.9LRSN                1
 GAP=134        0.78       2.4     3.2  4.1 -0.3796E+00  0.4074E+01  0.5717E+00E
 Epicentro: LOS SANTOS - SANTANDER                                             3
 ACTION:UPD 14-11-29 23:50 OP:nd   STATUS:               ID:20141016093008 L   I
 OLDACT:REG 14-10-16 12:56 OP:fm   STATUS:               ID:20141016092735     3
 2014-10-16-0927-35M.COL___294                                                 6
 STAT SP IPHASW D HRMM SECON CODA AMPLIT PERI AZIMU VELO AIN AR TRES W  DIS CAZ7
 BAR2 SZ EP     C  930 27.68                             170    0.1110 24.6 185 
 BAR2 SZ ES        930 42.43                             170   -0.3110 24.6 185 
 BAR2 SZ I         930 44.41        19.1 0.25            168           24.6 185 
 BRR  HZ EP        930 29.56                             153    0.6010 68.9 298 
 BRR  HN ES        930 44.81                             153   -0.4010 68.9 298 
 BRR  HZ I         930 48.82         9.5 0.18            151           68.9 298 
 PAM  SZ EP        930 30.46                             150    0.3010 77.4  41 
 PAM  SN ES        930 47.54                             150    0.2010 77.4  41 
 PAM  SZ I         930 49.69        12.6 0.22            156           77.4  41 
 RUS  HZ EP        930 31.82                             143   -0.0110  102 175 
 RUS  HN ES        930 50.10                             143   -0.2110  102 175 
 RUS  HZ I         930 53.08         4.2 0.32            144            102 175 
 PTB  HZ EP        930 34.24                             132   -0.59 9  146 258 
 PTB  HN ES        930 55.95                             132    0.30 9  146 258 
 PTB  HZ I         931  1.43        12.6 0.38            131            146 258 
 SPBC HZ EP        930 36.36                             129   -0.14 9  163 218 
 SPBC HN ES        930 59.06                             129    0.43 9  163 218 
 SPBC HZ I         931  5.72        16.2 0.34            129            163 218 
 ZAR  HZ EP        930 40.31                             122    0.07 9  202 292 
 ZAR  HN ES        931  5.46                             122    0.18 9  202 292 
 ZAR  HZ I         931 11.92        11.7 0.56            123            202 292 
 SML  HZ EP        930 44.29                             117   -0.14 8  242 336 
 SML  HN ES        931 12.38                             117   -0.36 8  242 336 
 SML  HZ I         931 17.07        12.9 0.10            119            242 336 
 GUY2CHZ EP   1    930 51.65                             112    0.05 5  301 234 
 GUY2CHN ES   4    931 27.17                             112    1.67 0  301 234 
 GUY2CHZ I         931 34.74         4.8 0.44                           301 234 
 PRA  HZ EP        931  0.93                             106   -0.71 6  392 209 
 PRA  HN ES        931 43.52                             106    0.14 6  392 209 
 PRA  HZ I         931 51.85         3.8 0.48            107            392 209 
 ORTC HZ EP   1    931  2.23                             106    0.22 4  396 216 
 ORTC HN ES        931 44.00                             106   -0.04 6  396 216 
 ORTC HZ I         931 50.37         2.2 0.20            107            396 216 
                                                                                
