 2012  116 0607 31.4 L   6.715 -73.197147.7  RSN  5 0.2 1.5LRSN                1
 GAP=171        0.43       4.2     3.9  4.5  0.6846E+01  0.5958E+00 -0.7267E+00E
 Epicentro: VILLANUEVA - SANTANDER                                             3
 ACTION:UP  12-02-03 08:17 OP:REBC STATUS:               ID:20120116060731 L   I
 2012-01-16-0600-00M.COL___186                                                 6
 STAT SP IPHASW D HRMM SECON CODA AMPLIT PERI AZIMU VELO SNR AR TRES W  DIS CAZ7
 BAR2 SZ EP        6 7 50.90                             174    -0.210   14 173 
 BAR2 SZ ES   1    6 8  6.39                             174    -0.1 7   14 173 
 BAR2 SZ I         6 8  8.11         3.9 0.28                            14 173 
 GIR2 SZ EP   2    6 7 51.46                             164    -0.1 5   40   1 
 BRR  HZ EP   1    6 7 52.92                             153     0.2 7   72 307 
 BRR  HN ES   1    6 8  9.51                             153     0.1 7   72 307 
 BRR  HN I         6 8 10.97        17.7 0.21                            72 307 
 RUS  HZ EP   1    6 7 54.63                             147    -0.1 7   92 172 
 RUS  HZ I         6 7 56.01         2.4 0.20                            92 172 
 RUS  HE ES   1    6 8 13.08                             147     0.2 7   92 172 
 PTB  HZ EP   1    6 7 58.07                             134     0.2 7  141 262 
 PTB  HN ES   1    6 8 18.29                             134    -0.2 7  141 262 
                                                                                
