 2013  716 0305 45.9 L   6.742 -73.158138.6  RSN  5 0.3 1.8LRSN                1
 GAP=137        0.81       4.1     3.8  8.0  0.1926E+01  0.6763E+01  0.4425E+01E
 Epicentro: VILLANUEVA - SANTANDER                                             3
 ACTION:UPD 13-08-12 10:38 OP:ep   STATUS:               ID:20130716030545 L   I
 OLDACT:REG 13-07-16 07:51 OP:mh   STATUS:               ID:20130716030000     3
 2013-07-16-0300-00M.COL___263                                                 6
 STAT SP IPHASW D HRMM SECON CODA AMPLIT PERI AZIMU VELO AIN AR TRES W  DIS CAZ7
 BRR  HZ EP   1    3 6  6.76                             150    0.33 7 73.3 303 
 BRR  HN ES        3 6 22.87                             150    0.4510 73.3 303 
 BRR  HZ I         3 6 24.29         8.6 0.50            149           73.3 303 
 PAM  SZ EP   1    3 6  7.85                             148    0.09 7 83.2  37 
 PAM  SN ES        3 6 24.36                             148   -0.4210 83.2  37 
 PAM  SN I         3 6 25.65        18.5 0.52            151           83.2  37 
 RUS  HZ EP        3 6  8.61                             144    0.0910 94.3 175 
 RUS  HN ES        3 6 26.28                             144    0.1410 94.3 175 
 RUS  HN I         3 6 28.76         6.1 0.36            145           94.3 175 
 PTB  HZ EP   1    3 6 11.81                             131   -0.28 7  145 261 
 PTB  HN ES        3 6 31.94                             131   -0.55 9  145 261 
 PTB  HN I         3 6 37.67         8.3 0.28            130            145 261 
 ZAR  HE ES        3 6 43.26                             121    0.17 8  205 294 
 ZAR  HE I         3 6 49.65        14.7 0.20            121            205 294 
                                                                                
