 2011  416 0659 23.1 L   7.131 -73.498 36.2  RSN  7 0.4 1.4LRSN                1
 GAP=114        0.84       5.8     5.9 13.7  0.9038E+01 -0.6183E+02 -0.4490E+02E
 Epicentro: SAN VICENTE DE CHUCURI - SANTANDER                                 3
 ACTION:UP  11-06-22 15:31 OP:REBC STATUS:               ID:20110416065922 L   I
 2011-04-16-0654-49S.COL___140                                                 6
 STAT SP IPHASW D HRMM SECON CODA AMPLIT PERI AZIMU VELO SNR AR TRES W  DIS CAZ7
 BRR  HZ IP        659 29.67                             146    -0.110   24 264 
 BRR  HN ES   1    659 34.73                             146    -0.2 7   24 264 
 BRR  HZ I         659 36.07        23.0 0.15                            24 264 
 GIR2 SZ EP   1    659 30.69                             127    -0.2 7   34 100 
 BTL  SZ IP        659 31.42                             128     0.410   35 133 
 BAR2 SZ EP   2    659 35.09                             104     0.1 5   69 150 
 BAR2 SZ I         659 45.56        12.7 0.13                            69 150 
 PAM  SZ EP   2    659 37.78                                    -0.3 5   91  75 
 PAM  SE ES   2    659 48.61                                    -1.1 5   91  75 
 GRA  SZ EP   1    659 40.33                              96    -0.1 7  113  43 
 GRA  SZ ES   1    659 54.54                              96     0.6 7  113  43 
 GRA  SZ I         659 55.15        14.3 0.30                           113  43 
 OCA  SZ EP   1    659 41.66                              95    -0.1 7  124   9 
                                                                                
