 2013  716 0348  6.3 L   6.390 -73.722 95.0  RSN  9 0.4 1.9LRSN                1
 GAP= 78        0.94       3.5     3.2  7.8 -0.1002E+01  0.1093E+02  0.2446E+01E
 Epicentro: SANTA HELENA DEL OPON - SANTANDER                                  3
 ACTION:UPD 13-08-12 10:38 OP:ep   STATUS:               ID:20130716034806 L   I
 OLDACT:REG 13-07-16 12:07 OP:mh   STATUS:               ID:20130716034649     3
 2013-07-16-0346-49M.COL___229                                                 6
 STAT SP IPHASW D HRMM SECON CODA AMPLIT PERI AZIMU VELO AIN AR TRES W  DIS CAZ7
 BAR2 SZ EP        348 22.08                             144    0.0210 63.7  69 
 BAR2 SZ ES        348 34.64                             144    0.3010 63.7  69 
 BRR  HZ EP   1    348 22.73                             137   -0.22 7 79.3   1 
 BRR  HN ES        348 36.12                             137    0.2010 79.3   1 
 BRR  HN I         348 36.99        30.9 0.14            140           79.3   1 
 PTB  HZ EP   1    348 22.62                             136   -0.66 7 82.9 282 
 PTB  HN ES   1    348 35.70                             136   -0.80 7 82.9 282 
 PTB  HN I         348 37.42        42.4 0.36            136           82.9 282 
 RUS  HZ EP   1    348 24.36                             134   -0.16 7 89.6 128 
 RUS  HN ES        348 38.53                             134   -0.1810 89.6 128 
 RUS  HZ I         348 40.25         7.8 0.30            136           89.6 128 
 SPBC HZ EP        348 24.19                             133    0.1510 90.3 205 
 SPBC HN ES   1    348 38.41                             133    0.56 7 90.3 205 
 GIR2 SZ EP   1    348 24.35                             131   -0.27 7 96.0  37 
 NOR  HZ EP   1    348 30.65                             117   -0.07 7  156 234 
 NOR  HN ES   1    348 48.95                             117   -0.80 7  156 234 
 NOR  HN I         348 54.63        29.2 0.16            117            156 234 
 ZAR  HZ EP   1    348 32.81                             114    0.08 7  175 314 
 HEL  HZ EP   1    348 36.58                             111    0.41 6  201 264 
 HEL  HE ES        349  0.24                             111    0.80 9  201 264 
 HEL  HN I         349  4.97         6.6 0.28            110            201 264 
                                                                                
