 2013  916 0842 11.2 L   6.809 -73.135149.6  RSN 14 0.5 2.4LRSN                1
 GAP=113        1.13       2.9     3.5  5.6 -0.3703E+00  0.3476E+01  0.2946E+00E
 Epicentro: LOS SANTOS - SANTANDER                                             3
 ACTION:UPD 13-10-22 09:23 OP:ep   STATUS:               ID:20130916084211 L   I
 OLDACT:REG 13-09-16 08:09 OP:jn   STATUS:               ID:20130916083959     3
 2013-09-16-0839-59M.COL___269                                                 6
 STAT SP IPHASW D HRMM SECON CODA AMPLIT PERI AZIMU VELO AIN AR TRES W  DIS CAZ7
 BAR2 SZ IP     C  842 31.28                             170    0.0110 24.5 192 
 BAR2 SZ ES        842 46.88                             170   -0.0810 24.5 192 
 BAR2 SZ I         842 49.01        31.4 0.28            169           24.5 192 
 BRR  HZ EP        842 33.14                             153    0.3910 71.8 297 
 BRR  HN ES        842 50.49                             153    0.9010 71.8 297 
 BRR  HZ I         842 55.04        28.3 0.26            152           71.8 297 
 RUS  HZ EP        842 35.13                             144   -0.2210  101 177 
 RUS  HE ES        842 54.19                             144   -0.0310  101 177 
 RUS  HZ I         842 55.11        10.1 0.42            147            101 177 
 PTB  HZ EP        842 37.93                             133   -0.63 9  149 259 
 PTB  HN ES        842 59.28                             133   -0.65 9  149 259 
 PTB  HZ I         843  6.94        34.6 0.34            133            149 259 
 TAM  HZ EP        842 39.34                             132    0.28 9  154 105 
 TAM  HN ES        843  0.62                             132   -0.20 9  154 105 
 TAM  HZ I         843  1.66        19.4 0.30            137            154 105 
 OCA  HZ EP        842 40.31                             131    0.62 9  159 353 
 OCA  HN ES        843  1.72                             131   -0.22 9  159 353 
 OCA  HZ I         843  6.27        25.4 0.24            133            159 353 
 SPBC HZ EP        842 40.20                             130    0.11 9  165 219 
 SPBC HN ES        843  2.66                             130   -0.00 9  165 219 
 SPBC HZ I         843  9.42        56.9 0.30            131            165 219 
 ZAR  HZ EP        842 43.82                             123   -0.11 9  205 292 
 ZAR  HE ES   1    843  9.99                             123    0.50 6  205 292 
 ZAR  HZ I         843 15.74        33.9 0.18            124            205 292 
 NOR  HZ EP        842 46.67                             119   -0.60 8  236 234 
 NOR  HN ES        843 15.29                             119   -0.15 8  236 234 
 NOR  HZ I         843 19.00        31.7 0.16            121            236 234 
 SML  HZ EP        842 47.64                             118   -0.32 8  243 335 
 SML  HN ES        843 15.88                             118   -0.78 8  243 335 
 SML  HZ I         843 21.64        32.4 0.10            120            243 335 
 CHI  HZ EP        842 49.44                             118    0.24 8  250 195 
 CHI  HN ES        843 18.16                             118   -0.72 8  250 195 
 CHI  HZ I         843 26.44         7.9 0.30            120            250 195 
 GUY2CHZ EP        842 55.85                             113    0.73 7  303 235 
 GUY2CHN ES        843 30.54                             113    1.14 7  303 235 
 GUY2CHZ I         843 38.49        15.1 0.30                           303 235 
 CBOC HZ EP        842 58.93                             110    0.53 7  335 252 
 CBOC HE ES   1    843 34.23                             110   -1.01 5  335 252 
 CBOC HZ I         843 39.48         5.2 0.20            112            335 252 
 ORTC HZ EP   1    843  5.35                             107   -0.03 4  397 216 
 ORTC HN ES   1    843 48.12                             107    0.44 4  397 216 
 ORTC HZ I         843 54.19         7.3 0.44            109            397 216 
                                                                                
