 2011  116 0540 50.8 L   6.764 -73.102144.1  RSN  6 0.5 1.3LRSN                1
 GAP=164        1.05       7.1    22.5 11.8 -0.9341E+02  0.9563E+02 -0.2050E+02E
 Epicentro: LOS SANTOS - SANTANDER                                             3
 ACTION:UP  11-02-08 08:40 OP:pat  STATUS:               ID:20110116054050 L   I
 2011-01-16-0538-48S.COL___136                                                 6
 STAT SP IPHASW D HRMM SECON CODA AMPLIT PERI AZIMU VELO SNR AR TRES W  DIS CAZ7
 BAR2 SZ EP   1    541 10.01                             171    -0.2 7   21 205 
 BAR2 SZ ES   1    541 25.41                             171     0.1 7   21 205 
 BAR2 SZ I         541 27.99         5.6 0.37                            21 205 
 BTL  SZ EP   1    541 10.21                             170    -0.1 7   25 313 
 RUS  HZ EP   1    541 13.93                             144    -0.2 7   96 179 
 RUS  HN ES   1    541 32.73                             144     0.4 7   96 179 
 RUS  HZ I         541 35.39         1.8 0.37                            96 179 
 GRA  SZ EP   1    541 17.10                             136     1.0 7  128  15 
 GRA  SZ ES   1    541 35.16                             136    -0.7 7  128  15 
 GRA  SZ I         541 37.74         2.7 0.35                           128  15 
 CHI  HZ EP   2    541 28.04                             117    -0.1 4  246 197 
 CHI  HN ES   2    541 56.26                             117    -1.0 4  246 197 
 HEL  HZ EP   2    541 31.77                             114     0.4 4  276 257 
 HEL  HZ I         542  9.28         2.0 0.42                           276 257 
                                                                                
