 2013  316 0412 35.3 L   6.810 -73.153142.2  RSN 14 0.4 2.7LRSN 2.9WRSN        1
 SPEC AVERAGE  MO 13.5 ST  2.3 OM  2.0 f0 3.43 R0.4773 AL 2.23 WI 23.6 MW  2.9 3
 SPEC SD       MO  0.2 ST  1.9 OM  0.4 f0 1.10 R0.1546 AL      WI      MW  0.1 3
 GAP= 70        1.00       2.6     3.1  5.5  0.1901E+00  0.4210E+01  0.8761E+00E
 Epicentro: LOS SANTOS - SANTANDER                                             3
 SPEC TAM HH N MO 13.4 ST0.393 OM  1.7 f0 2.21 R0.6652 AL 2.13 WI 18.5 MW  2.9 3
 SPEC TAM HH N T 41322 K 0.000 GD  211 VS 4.20 DE 3.20 Q0300.0 QA 0.60 VS 4.20 3
 SPEC PTB HH E MO 13.3 ST  4.5 OM  1.6 f0 5.45 R0.2697 AL 3.07 WI 22.5 MW  2.8 3
 SPEC PTB HH E T 41321 K 0.000 GD  204 VS 4.20 DE 3.20 Q0300.0 QA 0.60 VS 4.20 3
 SPEC RUS HH N MO 13.1 ST0.866 OM  1.5 f0 3.57 R0.4118 AL 2.12 WI 18.9 MW  2.7 3
 SPEC RUS HH N T 41314 K 0.000 GD  174 VS 4.20 DE 3.20 Q0300.0 QA 0.60 VS 4.20 3
 SPEC PRA HH N MO 13.5 ST  3.0 OM  1.5 f0 4.03 R0.3648 AL 2.26 WI 29.9 MW  3.0 3
 SPEC PRA HH N T 414 7 K 0.000 GD  417 VS 4.20 DE 3.20 Q0300.0 QA 0.60 VS 4.20 3
 SPEC HEL HH N MO 13.5 ST0.566 OM  1.6 f0 2.38 R0.6176 AL 1.88 WI 31.6 MW  2.9 3
 SPEC HEL HH N T 41344 K 0.000 GD  306 VS 4.20 DE 3.20 Q0300.0 QA 0.60 VS 4.20 3
 SPEC OCA HH E MO 13.6 ST  4.4 OM  1.9 f0 4.23 R0.3475 AL 2.29 WI 22.4 MW  3.0 3
 SPEC OCA HH E T 41323 K 0.000 GD  213 VS 4.20 DE 3.20 Q0300.0 QA 0.60 VS 4.20 3
 SPEC PAM SH N MO 13.5 ST0.822 OM  1.9 f0 2.65 R0.5547 AL 2.14 WI 22.2 MW  2.9 3
 SPEC PAM SH N T 41312 K 0.000 GD  161 VS 4.20 DE 3.20 Q0300.0 QA 0.60 VS 4.20 3
 SPEC CHI HH N MO 13.8 ST0.665 OM  1.9 f0 2.04 R0.7206 AL 1.54 WI 22.9 MW  3.1 3
 SPEC CHI HH N T 41340 K 0.000 GD  286 VS 4.20 DE 3.20 Q0300.0 QA 0.60 VS 4.20 3
 SPEC BRR HH N MO 13.7 ST  5.4 OM  2.1 f0 4.28 R0.3435 AL 2.68 WI 23.7 MW  3.1 3
 SPEC BRR HH N T 41311 K 0.000 GD  158 VS 4.20 DE 3.20 Q0300.0 QA 0.60 VS 4.20 3
 ACTION:UPD 13-04-09 14:02 OP:ep   STATUS:               ID:20130316041235 L   I
 2013-03-16-0410-00M.COL___244                                                 6
 STAT SP IPHASW D HRMM SECON CODA AMPLIT PERI AZIMU VELO AIN AR TRES W  DIS CAZ7
 BAR2 SZ EP        412 54.58                             170    0.0910 24.2 188 
 BAR2 SZ ES   1    413  9.39                             170   -0.09 7 24.2 188 
 BAR2 SZ I         413 10.94       104.9 0.26            171           24.2 188 
 BRR  HZ EP     C  412 56.41                             152    0.4510 70.0 298 
 BRR  HN ES   1    413 12.65                             152    0.54 7 70.0 298 
 BRR  HN I         413 13.81       140.2 0.30            150           70.0 298 
 PAM  SZ EP        412 57.50                             150    0.4110 77.1  40 
 PAM  SN ES        413 14.32                             150    0.2210 77.1  40 
 PAM  SN I         413 16.55        69.0 0.54            151           77.1  40 
 RUS  HZ EP        412 58.53                             143   -0.2210  102 176 
 RUS  HN ES        413 16.99                             143   -0.0810  102 176 
 RUS  HN I         413 17.89        30.7 0.18            145            102 176 
 PTB  HZ EP        413  1.33                             131   -0.56 9  147 258 
 PTB  HN ES        413 22.24                             131   -0.42 9  147 258 
 PTB  HN I         413 27.32        54.0 0.28            131            147 258 
 TAM  HZ EP        413  2.93                             129    0.17 9  156 105 
 TAM  HE ES   1    413 23.66                             129   -0.55 7  156 105 
 TAM  HE I         413 26.18        32.7 0.46            132            156 105 
 OCA  HZ EP   1    413  3.53                             129    0.34 7  159 353 
 OCA  HN ES        413 24.70                             129   -0.28 9  159 353 
 OCA  HN I         413 29.71        94.5 0.34            129            159 353 
 ZAR  HZ EP        413  8.29                             122    0.92 9  203 292 
 ZAR  HN ES        413 32.29                             122   -0.11 9  203 292 
 ZAR  HN I         413 40.32        38.4 0.12            121            203 292 
 CTAB SZ EP   4    413 12.92                             118    2.06 0  230 210 
 SML  HZ EP        413 10.94                             117   -0.61 8  242 335 
 SML  HN ES        413 39.14                             117   -0.72 8  242 335 
 SML  HN I         413 46.84        66.0 0.10            117            242 335 
 CHI  HZ EP        413 12.75                             116   -0.11 8  249 195 
 CHI  HN ES        413 42.01                             116   -0.17 8  249 195 
 CHI  HN I         413 44.45        39.7 0.44            117            249 195 
 ROSC BZ EP   4    413 14.50                             116    1.25 0  253 211 
 HEL  HZ EP        413 16.17                             114    0.93 8  272 256 
 HEL  HN ES        413 46.68                             114    0.25 8  272 256 
 HEL  HN I         413 52.98        14.3 0.34            114            272 256 
 COD  HN ES   1    414  0.23                             108   -0.67 5  347 355 
 COD  HN I         414  7.16         7.7 0.56            109            347 355 
 PRA  HZ EP   1    413 28.34                             106   -0.39 4  393 209 
 PRA  HN ES        414 10.14                             106   -0.29 6  393 209 
 PRA  HN I         414 14.98        11.1 0.36            106            393 209 
 SJC  HE ES   4    414  8.92                             105   -4.77 0  408 327 
 SJC  HE I         414 17.38        60.0 0.58            105            408 327 
                                                                                
