 2017  316 0839 38.2 L   6.251 -73.731 96.9  RSN  7 0.3 1.5LRSN                1
 GAP= 91        0.91       3.0     2.8  6.6 -0.8144E-01  0.1691E+01 -0.5380E+01E
 Epicentro: LANDAZURI - SANTANDER                                              3
 ACTION:UPD 17-05-25 18:41 OP:jn   STATUS:               ID:20170316083938 L   I
 OLDACT:REG 17-03-16 13:26 OP:cara STATUS:               ID:20170316083746     3
 2017-03-16-0838-00M.COL___381                                                 6
 STAT SP IPHASW D HRMM SECON CODA AMPLIT PERI AZIMU VELO AIN AR TRES W  DIS CAZ7
 BAR2 EZ EP     D  839 54.93                             141    0.1910 71.5  58 
 BAR2 EZ ES        840  7.76                             141    0.1510 71.5  58 
 BAR2 EZ I         840  9.43        22.5 0.46            145           71.5  58 
 SPBC HZ EP        839 55.18                             139    0.2710 76.2 210 
 SPBC HN ES        840  8.13                             139    0.2110 76.2 210 
 SPBC HZ I         840 10.18         8.3 0.80            142           76.2 210 
 RUS  HZ EP        839 56.15                             137    0.2110 81.9 119 
 RUS  HN ES        840  9.37                             137   -0.3710 81.9 119 
 RUS  HZ I         840 11.20         3.8 0.30            142           81.9 119 
 PTB  HZ EP        839 55.15                             135   -0.5110 86.4 292 
 PTB  HE ES        840  8.91                             135   -0.3510 86.4 292 
 PTB  HZ I         840 12.45         3.5 0.14            136           86.4 292 
 BRR  HN EP        839 56.11                             132   -0.2810 94.7   1 
 BRR  HE ES        840 10.93                             132    0.3910 94.7   1 
 PAM  EZ EP        840  4.76                             116    0.43 9  166  43 
 PAM  EN ES        840 24.18                             116   -0.50 9  166  43 
 ZAR  HZ EP        840  5.63                             113   -0.29 9  185 318 
 ZAR  HN ES        840 27.98                             113    0.48 9  185 318 
 ZAR  HZ I         840 34.02         7.6 0.38            114            185 318 
                                                                                
