 2011  916 0221 47.6 L   6.727 -73.138142.7  RSN  7 0.4 2.0LRSN                1
 GAP=141        0.86       4.1     6.5  7.0 -0.5594E+01  0.5569E+01  0.3910E+00E
 Epicentro: JORDAN - SANTANDER                                                 3
 ACTION:UPD 12-07-13 15:57 OP:ep   STATUS:               ID:20110916022147 L   I
 2011-09-16-0219-08S.COL___169                                                 6
 STAT SP IPHASW D HRMM SECON CODA AMPLIT PERI AZIMU VELO AIN AR TRES W  DIS CAZ7
 BAR2 SZ EP   1    222  6.61                             173   -0.08 7 15.7 198 
 BAR2 SZ ES   1    222 21.07                             173   -0.54 7 15.7 198 
 BAR2 SZ I         222 23.05        33.2 0.18                          15.7 198 
 BRR  HZ EP        222  8.95                             150    0.2810 76.1 304 
 BRR  HN ES   1    222 25.94                             150    0.81 7 76.1 304 
 BRR  HZ I         222 31.08        36.6 0.12                          76.1 304 
 PAM  SZ EP        222 10.12                             148    0.3010 83.2  36 
 PAM  SZ I         222 10.43        17.1 0.15                          83.2  36 
 PAM  SE ES   2    222 26.58                             148   -0.59 5 83.2  36 
 RUS  HZ EP   1    222 10.43                             146   -0.01 7 92.5 176 
 RUS  HN ES   1    222 28.42                             146    0.14 7 92.5 176 
 RUS  HZ I         222 30.19        23.9 0.33                          92.5 176 
 OCA  SZ EP   1    222 15.96                             127   -0.45 7  168 353 
 OCA  SZ ES   1    222 38.53                             127   -0.38 7  168 353 
 OCA  SZ I         222 42.72        25.4 0.32                           168 353 
 NOR  SZ EP   1    222 22.13                             118   -0.57 6  231 236 
 NOR  SN ES   1    222 49.60                             118   -0.51 6  231 236 
 NOR  SZ I         222 55.97         1.0 0.30                           231 236 
 CHI  HZ EP   1    222 24.77                             117    0.49 6  241 196 
 CHI  HZ I         222 25.62         5.1 0.15                           241 196 
                                                                                
