 2010 1116 0638 31.8 L   6.347 -73.592114.0  RSN  6 0.3 1.3LRSN                1
 GAP= 99        0.53       3.7     4.9  8.0  0.4660E+01  0.2464E+02  0.9855E+01E
 Epicentro: SANTA HELENA DEL OPON - SANTANDER                                  3
 ACTION:UP  10-12-17 16:53 OP:REBC STATUS:               ID:20101116063831 L   I
 2010-11-16-0633-28S.COL___128                                                 6
 STAT SP IPHASW D HRMM SECON CODA AMPLIT PERI AZIMU VELO SNR AR TRES W  DIS CAZ7
 BAR2 SZ EP   2    638 49.20                             153     0.3 5   53  59 
 BAR2 SZ ES   2    639  1.92                             153    -0.2 5   53  59 
 BAR2 SZ I         639  3.93        12.3 0.39                            53  59 
 RUS  HZ EP   1    638 50.63                             144     0.0 7   75 132 
 RUS  HE ES   1    639  5.29                             144     0.0 7   75 132 
 RUS  HZ I         639  6.30         2.2 0.35                            75 132 
 BRR  HZ EP   1    638 50.88                             140     0.2 7   85 351 
 BRR  HZ I         638 59.16         3.7 0.11                            85 351 
 BRR  HE ES   1    639  5.34                             140    -0.1 7   85 351 
 NOR  SZ EP   2    638 58.19                             120    -0.2 5  166 239 
 NOR  SN ES   2    639 19.39                             120     0.3 5  166 239 
 HEL  HZ EP   2    639  3.33                             113    -0.8 4  215 266 
 HEL  HZ I         639  7.11         1.5 0.39                           215 266 
 RREF HZ EP   2    639  8.93                             109     0.3 4  252 231 
 RREF HZ I         639 43.83         1.9 0.23                           252 231 
                                                                                
