 2014  816 0437 22.9 L   6.816 -73.126145.6  RSN 12 0.4 2.1LRSN                1
 GAP=203        0.89       3.1     4.5  5.3  0.1144E+01  0.7096E+01 -0.1623E+01E
 Epicentro: LOS SANTOS - SANTANDER                                             3
 ACTION:UPD 14-09-15 21:50 OP:nd   STATUS:               ID:20140816043722 L   I
 OLDACT:UP  14-08-16 16:13 OP:cam  STATUS:               ID:20140816043000     3
 OLDACT:UP  14-08-16 16:12 OP:cam  STATUS:               ID:20140816043000     3
 OLDACT:REG 14-08-16 13:00 OP:cam  STATUS:               ID:20140816043000     3
 2014-08-16-0430-00M.COL___285                                                 6
 STAT SP IPHASW D HRMM SECON CODA AMPLIT PERI AZIMU VELO AIN AR TRES W  DIS CAZ7
 BAR2 SZ EP     C  437 42.70                             170    0.1110 25.5 194 
 BAR2 SZ ES        437 58.15                             170    0.2310 25.5 194 
 BAR2 SZ I         437 59.39        17.7 0.26            166           25.5 194 
 BRR  HZ EP     D  437 44.53                             152    0.4010 72.3 297 
 BRR  HN ES   4    438  2.16                             152    1.50 0 72.3 297 
 BRR  HZ I         438  6.87        10.6 0.14            150           72.3 297 
 RUS  HZ EP        437 46.68                             143   -0.1110  102 177 
 RUS  HN ES        438  5.47                             143    0.0810  102 177 
 RUS  HZ I         438  8.60         8.6 0.20            146            102 177 
 PTB  HZ EP        437 49.68                             131   -0.43 9  150 258 
 PTB  HN ES        438 10.70                             131   -0.61 9  150 258 
 PTB  HZ I         438 18.21        15.8 0.46            132            150 258 
 SPBC HZ EP     D  437 51.69                             129    0.01 9  166 219 
 SPBC HN ES        438 13.51                             129   -0.58 9  166 219 
 SPBC HZ I         438 20.74        19.2 0.38            130            166 219 
 ZAR  HN ES        438 21.70                             122    0.79 8  205 291 
 ZAR  HN I         438 24.61        14.2 0.10            124            205 291 
 NOR  HZ EP        437 59.04                             118    0.09 8  237 234 
 NOR  HE ES        438 27.27                             118    0.23 8  237 234 
 NOR  HZ I         438 33.97         9.7 0.30            120            237 234 
 SML  HZ EP        437 59.15                             117   -0.33 8  243 335 
 SML  HN ES        438 27.45                             117   -0.54 8  243 335 
 SML  HZ I         438 30.47        13.1 0.10            121            243 335 
 HEL  HZ EP        438  4.03                             114    0.61 8  275 256 
 GUY2CHZ EP        438  6.90                             112    0.05 7  304 235 
 CBOC HZ EP        438 10.27                             110    0.13 7  336 252 
 PRA  HZ EP        438 16.60                             106   -0.15 6  395 210 
 PRA  HN ES        438 58.80                             106    0.08 6  395 210 
 PRA  HZ I         439  4.45         5.8 0.32            109            395 210 
                                                                                
