 2011  216 0357 32.8 L   6.784 -73.151146.0  RSN  6 0.4 1.5LRSN                1
 GAP=158        0.77       3.4     9.9  9.2 -0.9896E+01  0.3116E+02 -0.9339E+00E
 Epicentro: LOS SANTOS - SANTANDER                                             3
 ACTION:UP  11-03-28 15:08 OP:jfem STATUS:               ID:20110216035732 L   I
 2011-02-16-0355-23S.COL___136                                                 6
 STAT SP IPHASW D HRMM SECON CODA AMPLIT PERI AZIMU VELO SNR AR TRES W  DIS CAZ7
 BAR2 SZ EP   1    357 52.01                             171    -0.4 7   22 190 
 BAR2 SZ ES   2    358  7.35                             171    -0.4 5   22 190 
 BAR2 SZ I         358  8.74         6.8 0.22                            22 190 
 RUS  HZ EP   1    357 56.26                             144    -0.2 7   99 176 
 RUS  HN ES   1    358 15.15                             144     0.3 7   99 176 
 RUS  HZ I         358 16.38         3.6 0.24                            99 176 
 GRA  SZ EP   2    357 58.78                             137     0.6 5  128  17 
 GRA  SZ ES   1    358 18.56                             137     0.5 7  128  17 
 GRA  SZ I         358 19.57         5.1 0.34                           128  17 
 OCA  SZ EP   1    358  1.24                             129     0.0 7  162 353 
 OCA  SZ ES   1    358 23.05                             129    -0.4 7  162 353 
 OCA  SZ I         358 27.61         4.0 0.37                           162 353 
 CHI  HZ EP   1    358 10.23                             117    -0.1 6  247 195 
 CHI  HE ES   1    358 39.67                             117     0.1 6  247 195 
 CHI  HZ I         358 45.41         1.6 0.50                           247 195 
 HEL  HE ES   2    358 44.96                             115     0.8 4  271 256 
                                                                                
