 2017  716 0725 19.8 L   6.763 -73.194153.0  RSN  5 0.4 1.0LRSN                1
 GAP=229        0.80       4.9     5.1  6.4  0.5231E+01  0.2716E+01  0.2476E+00E
 Epicentro: ZAPATOCA - SANTANDER                                               3
 ACTION:UPD 17-08-30 15:33 OP:rebc STATUS:               ID:20170716072519 L   I
 OLDACT:DUP 17-07-16 17:05 OP:dhb  STATUS:               ID:20170716071512d    3
 2017-07-16-0718-00M.COL___374                                                 6
 STAT SP IPHASW D HRMM SECON CODA AMPLIT PERI AZIMU VELO AIN AR TRES W  DIS CAZ7
 BAR2 EZ EP        725 39.73                             173   -0.5010 19.0 176 
 BAR2 EZ ES        725 55.73                             173   -0.4310 19.0 176 
 BAR2 EZ I         725 57.56         2.9 0.38            169           19.0 176 
 BRR  HZ EP        725 41.85                             154    0.2410 68.7 304 
 BRR  HN ES        725 58.90                             154    0.2910 68.7 304 
 BRR  HZ I         726  1.96         2.1 0.24            155           68.7 304 
 RUS  HZ EP        725 44.34                             146    0.3110 97.1 173 
 RUS  HN ES        726  3.23                             146    0.3110 97.1 173 
 RUS  HZ I         726  4.67         0.9 0.28            145           97.1 173 
 PTB  HZ EP        725 46.82                             135   -0.03 9  142 260 
 PTB  HN ES        726  7.83                             135   -0.11 9  142 260 
 PTB  HZ I         726  8.74         0.9 0.14            134            142 260 
 SPBC HZ EP   3    725 46.96                             132   -1.31 2  157 218 
 SPBC HN ES        726 10.44                             132   -0.04 9  157 218 
 SPBC HZ I         726 17.89         2.2 0.17            131            157 218 
                                                                                
