 2012  616 0608 46.5 L   6.834 -73.132146.7  RSN 16 0.5 3.0LRSN 3.3WRSN        1
 SPEC AVERAGE  MO 14.0 ST  2.0 OM  1.8 f0 4.62 R0.6263 AL 1.92 WI 24.2 MW  3.3 3
 SPEC SD       MO  0.2 ST  1.2 OM  0.4 f00.810 R0.1036 AL      WI      MW  0.1 3
 GAP=136        0.84       2.6     3.8  5.5 -0.2576E+01  0.6776E+01  0.1419E+01E
 Epicentro: LOS SANTOS - SANTANDER                                             3
 SPEC ZAR HH Z MO 13.9 ST  1.1 OM  1.4 f0 3.94 R0.7137 AL 1.04 WI 24.9 MW  3.2 3
 SPEC ZAR HH Z T 6 917 K 0.000 GD  251 VP 7.60 DE 3.00 Q0230.0 QA 0.60 VS 4.20 3
 SPEC OCA HH Z MO 14.0 ST  4.3 OM  1.5 f0 6.14 R0.4580 AL 2.51 WI 22.8 MW  3.3 3
 SPEC OCA HH Z T 6 913 K 0.000 GD  214 VP 7.60 DE 3.00 Q0230.0 QA 0.60 VS 4.20 3
 SPEC ROSCBH Z MO 14.3 ST  3.5 OM  1.7 f0 4.43 R0.6348 AL 3.08 WI 31.4 MW  3.5 3
 SPEC ROSCBH Z T 6 925 K 0.000 GD  295 VP 7.60 DE 3.00 Q0230.0 QA 0.60 VS 4.20 3
 SPEC PTB HH Z MO 13.8 ST  1.8 OM  1.3 f0 5.37 R0.5236 AL 1.81 WI 20.2 MW  3.1 3
 SPEC PTB HH Z T 6 912 K 0.000 GD  209 VP 7.60 DE 3.00 Q0230.0 QA 0.60 VS 4.20 3
 SPEC RUS HH Z MO 13.8 ST  1.2 OM  1.4 f0 4.54 R0.6194 AL 1.90 WI 16.7 MW  3.1 3
 SPEC RUS HH Z T 6 9 9 K 0.000 GD  179 VP 7.60 DE 3.00 Q0230.0 QA 0.60 VS 4.20 3
 SPEC HEL HH Z MO 13.9 ST0.751 OM  1.3 f0 3.54 R0.7944 AL 1.67 WI 27.0 MW  3.2 3
 SPEC HEL HH Z T 6 927 K 0.000 GD  310 VP 7.60 DE 3.00 Q0230.0 QA 0.60 VS 4.20 3
 SPEC CHI HH Z MO 14.0 ST  1.7 OM  1.4 f0 4.39 R0.6405 AL 1.45 WI 26.1 MW  3.3 3
 SPEC CHI HH Z T 6 924 K 0.000 GD  292 VP 7.60 DE 3.00 Q0230.0 QA 0.60 VS 4.20 3
 ACTION:UPD 12-08-06 17:49 OP:ep   STATUS:               ID:20120616060846 L   I
 2012-06-16-0607-35M.COL___175                                                 6
 STAT SP IPHASW D HRMM SECON CODA AMPLIT PERI AZIMU VELO AIN AR TRES W  DIS CAZ7
 BAR2 SZ IP        6 9  6.42                             169    0.1110 27.3 192 
 BAR2 SZ ES   1    6 9 21.84                             169    0.06 7 27.3 192 
 BAR2 SZ I         6 9 22.84       242.9 0.32                          27.3 192 
 PAM  SZ IP        6 9  9.09                             152    0.5110 73.6  41 
 PAM  SN ES   1    6 9 26.19                             152    0.38 7 73.6  41 
 RUS  HZ IP     C  6 9 10.39                             143   -0.2010  104 177 
 RUS  HN ES   1    6 9 28.64                             143   -0.75 7  104 177 
 RUS  HZ I         6 9 30.89        81.3 0.39                           104 177 
 PTB  HZ EP        6 9 12.98                             132   -0.74 9  150 258 
 PTB  HN ES   1    6 9 34.32                             132   -0.65 7  150 258 
 PTB  HZ I         6 9 37.60        84.6 0.24                           150 258 
 OCA  HZ EP   1    6 9 14.29                             130   -0.25 7  157 352 
 OCA  HN ES   1    6 9 36.44                             130    0.02 7  157 352 
 OCA  HZ I         6 9 41.82       272.5 0.30                           157 352 
 ZAR  HZ EP   1    6 9 18.69                             123   -0.30 6  204 291 
 ZAR  HN ES   1    6 9 45.10                             123    0.76 6  204 291 
 ZAR  HZ I         6 9 46.93        80.8 0.23                           204 291 
 NOR  SZ EP   1    6 9 22.51                             118   -0.12 6  238 234 
 NOR  SN ES   1    6 9 50.87                             118    0.05 6  238 234 
 CHI  HZ EP   1    6 9 24.69                             117    0.03 6  253 195 
 CHI  HN ES   1    6 9 54.36                             117   -0.08 6  253 195 
 CHI  HZ I         610  0.15        45.6 0.24                           253 195 
 ROSC BZ EP        6 9 25.91                             116    0.83 8  257 211 
 ROSC BN ES        6 9 55.92                             116    0.73 8  257 211 
 ROSC BZ I         610  1.63        85.1 0.48                           257 211 
 HEL  HZ EP   1    6 9 27.58                             115    0.58 6  274 255 
 HEL  HN ES   1    6 9 58.60                             115   -0.01 6  274 255 
 HEL  HZ I         610  7.12        60.2 0.55                           274 255 
 GUY  SZ EP   1    6 9 30.30                             112   -0.47 5  307 235 
 GUY  SE ES   1    610  5.24                             112   -0.08 5  307 235 
 GUY  SZ I         610 13.25       102.0 0.59                           307 235 
 VIL  SZ EP   1    6 9 29.85                             112   -0.54 5  307 192 
 VIL  SN ES   1    610  4.46                             112   -0.17 5  307 192 
 VIL  SZ I         610 14.34        34.0 0.38                           307 192 
 COD  HZ EP   1    6 9 34.48                             109    0.00 5  345 354 
 COD  HE ES   1    610 11.21                             109   -0.71 5  345 354 
 COD  HZ I         610 22.71        22.5 0.48                           345 354 
 TOL  SZ EP   1    6 9 35.88                             109    0.68 5  347 224 
 TOL  SZ ES   2    610 13.16                             109   -0.04 3  347 224 
 ANIL HZ EP   1    6 9 36.59                             108   -0.16 5  361 224 
 ANIL HN ES   1    610 16.04                             108    0.09 5  361 224 
 PRA  HZ EP   1    6 9 40.13                             106   -0.37 4  396 209 
 PRA  HE ES   1    610 22.57                             106   -0.06 4  396 209 
                                                                                
