 2016  216 0316 32.2 L   6.807 -73.158150.1  RSN  7 0.3 1.5LRSN                1
 GAP=135        0.87       3.6     4.4  5.5 -0.3580E+01  0.2027E+01  0.5088E+01E
 Epicentro: LOS SANTOS - SANTANDER                                             3
 ACTION:UPD 16-03-04 21:26 OP:rebc STATUS:               ID:20160216031632 L   I
 OLDACT:REG 16-02-16 12:22 OP:drio STATUS:               ID:20160216030748     3
 2016-02-16-0307-48M.COL___310                                                 6
 STAT SP IPHASW D HRMM SECON CODA AMPLIT PERI AZIMU VELO AIN AR TRES W  DIS CAZ7
 BAR2 EZ EP        316 52.23                             171   -0.1810 23.9 187 
 BAR2 EZ ES        317  7.91                             171   -0.2310 23.9 187 
 BAR2 EZ I         317  8.72         6.1 0.50            169           23.9 187 
 BRR  HZ EP        316 54.15                             154    0.3710 69.7 298 
 BRR  HE ES        317 11.25                             154    0.6710 69.7 298 
 BRR  HZ I         317 14.48         5.1 0.16            153           69.7 298 
 PAM  EZ EP        316 55.12                             151    0.1810 77.7  41 
 PAM  EN ES        317 12.36                             151   -0.2810 77.7  41 
 PAM  EZ I         317 13.65         3.9 0.40            156           77.7  41 
 RUS  HZ EP        316 56.63                             144    0.1510  101 175 
 RUS  HN ES        317 15.29                             144   -0.1010  101 175 
 RUS  HZ I         317 16.65         3.6 0.36            146            101 175 
 PTB  HZ EP        316 58.97                             133   -0.50 9  147 258 
 PTB  HN ES        317 20.17                             133   -0.53 9  147 258 
 PTB  HZ I         317 23.39         4.1 0.14            133            147 258 
 SPBC HZ EP        317  0.97                             130   -0.09 9  163 218 
 SPBC HN ES        317 23.72                             130    0.19 9  163 218 
 SPBC HZ I         317 30.52         6.4 0.32            130            163 218 
 CHI  HZ EP        317 10.20                             118   -0.03 8  249 195 
 CHI  HN ES        317 40.26                             118    0.41 8  249 195 
 CHI  HZ I         317 41.95         1.4 0.44            119            249 195 
                                                                                
