 2010 1016 0046 35.2 L   6.752 -73.123141.7  RSN  4 0.2 1.6LRSN                1
 GAP=185        0.39       2.2     4.8  6.5 -0.3083E+01  0.1268E+02 -0.4232E+01E
 Epicentro: LOS SANTOS - SANTANDER                                             3
 ACTION:UP  11-02-18 11:10 OP:tino STATUS:               ID:20101016004635 L   I
 2010-10-16-0043-52S.COL___125                                                 6
 STAT SP IPHASW D HRMM SECON CODA AMPLIT PERI AZIMU VELO SNR AR TRES W  DIS CAZ7
 RUS  HZ EP   1    046 57.99                             145    -0.2 7   95 177 
 RUS  HN ES   1    047 16.24                             145     0.1 7   95 177 
 RUS  HZ I         047 17.90         4.1 0.32                            95 177 
 OCA  SZ EP   1    047  3.97                             128     0.2 7  166 353 
 OCA  SZ ES   1    047 25.94                             128    -0.1 7  166 353 
 OCA  SZ I         047 29.20         7.8 0.35                           166 353 
 NOR  SZ EP   2    047 10.60                             118    -0.1 4  234 236 
 NOR  SN ES   1    047 38.26                             118     0.0 6  234 236 
 PRA  HZ EP   2    047 28.54                             106     0.3 3  389 210 
                                                                                
