 2010  416 0601 44.7 L   6.830 -74.145 91.9  RSN  4 0.5 2.3LRSN                1
 GAP=171        1.06       7.7     8.1 11.0  0.9674E+01  0.3230E+02 -0.5147E+00E
 Epicentro: PUERTO PARRA - SANTANDER                                           3
 ACTION:UPD 10-08-24 09:59 OP:vdl  STATUS:               ID:20100416060146 L   I
 2010-04-16-0558-22S.COL___100                                                 6
 STAT SP IPHASW D HRMM SECON CODA AMPLIT PERI AZIMU VELO AIN AR TRES W  DIS CAZ7
 BRR  HZ IP     D  6 1 59.60                             147     0.310   57  57 
 BRR  HZ I         6 2  0.28        90.4 0.10                            57  57 
 BRR  HN ES        6 2 10.79                             147     0.210   57  57 
 BAR2 SZ EP        6 2  4.39                             127     0.210  109 104 
 BAR2 SZ ES   1    6 2 18.55                             127    -0.8 7  109 104 
 OCA  SZ EP        6 2 11.91                             113     0.2 9  180  30 
 OCA  SZ ES   1    6 2 32.07                             113    -0.8 7  180  30 
 OCA  SZ I         6 2 36.79        24.3 0.18                           180  30 
 DBB  SZ ES   2    6 2 42.20                             107    -0.6 4  229 275 
                                                                                
