 2010 1016 0601 12.7 L   6.772 -73.117141.5  RSN  6 0.2 1.6LRSN                1
 GAP=162        0.40       3.7     5.3  6.3 -0.1212E+02  0.3738E+01  0.6003E+01E
 Epicentro: LOS SANTOS - SANTANDER                                             3
 ACTION:UP  11-02-18 11:10 OP:tino STATUS:               ID:20101016060112 L   I
 2010-10-16-0558-00S.COL___125                                                 6
 STAT SP IPHASW D HRMM SECON CODA AMPLIT PERI AZIMU VELO SNR AR TRES W  DIS CAZ7
 BAR2 SZ ES   2    6 1 46.57                             171     0.0 5   21 200 
 BAR2 SZ I         6 1 49.49        11.5 0.26                            21 200 
 BRR  HZ EP   1    6 1 33.53                             150    -0.1 7   76 299 
 BRR  HZ I         6 1 52.96         5.1 0.16                            76 299 
 RUS  HZ EP   1    6 1 35.72                             144     0.0 7   97 178 
 RUS  HZ I         6 1 56.30         4.1 0.69                            97 178 
 GRA  SZ EP   2    6 1 37.38                             136    -0.3 5  128  16 
 GRA  SZ ES   1    6 1 57.38                             136     0.2 7  128  16 
 GRA  SZ I         6 1 58.60         3.8 0.10                           128  16 
 NOR  SN ES   1    6 2 16.02                             117     0.0 6  236 236 
 PRA  HZ EP   1    6 2  6.20                             106     0.3 4  391 210 
 PRA  HZ I         6 2  7.95         5.2 0.08                           391 210 
                                                                                
