 2016 1216 0711 11.1 L   6.772 -73.136142.0  RSN 16 0.4 2.3LRSN                1
 GAP= 66        0.91       3.1     2.8  4.5 -0.3277E+00  0.2632E+01  0.2682E+01E
 Epicentro: LOS SANTOS - SANTANDER                                             3
 ACTION:UPD 17-01-11 20:15 OP:rebc STATUS:               ID:20161216071111 L   I
 OLDACT:UP  16-12-16 17:37 OP:e    STATUS:               ID:20161216070649     3
 OLDACT:UP  16-12-16 17:36 OP:e    STATUS:               ID:20161216070649     3
 OLDACT:UP  16-12-16 17:25 OP:e    STATUS:               ID:20161216070649     3
 OLDACT:UP  16-12-16 17:25 OP:e    STATUS:               ID:20161216070649     3
 OLDACT:UP  16-12-16 17:25 OP:e    STATUS:               ID:20161216070649     3
 OLDACT:UP  16-12-16 17:21 OP:e    STATUS:               ID:20161216070649     3
 OLDACT:REG 16-12-16 12:47 OP:and  STATUS:               ID:20161216070649     3
 2016-12-16-0707-00M.COL___344                                                 6
 STAT SP IPHASW D HRMM SECON CODA AMPLIT PERI AZIMU VELO AIN AR TRES W  DIS CAZ7
 BAR2 EZ IP     C  711 29.91                             171   -0.2810 20.5 194 
 BAR2 EZ ES        711 44.73                             171   -0.3810 20.5 194 
 BAR2 EZ I         711 47.78        47.8 0.32            167           20.5 194 
 BRR  HZ IP     C  711 31.76                             151   -0.2010 73.7 300 
 BRR  HN ES        711 48.92                             151    0.6710 73.7 300 
 BRR  HZ I         711 52.95        24.8 0.16            150           73.7 300 
 PAM  EZ IP     C  711 32.76                             150   -0.2310 79.1  38 
 PAM  EE ES        711 50.00                             150   -0.0910 79.1  38 
 PAM  EZ I         711 52.15        42.5 0.50            156           79.1  38 
 RUS  HZ EP        711 33.95                             144   -0.2710 97.4 177 
 RUS  HN ES        711 52.30                             144    0.0210 97.4 177 
 RUS  HZ I         711 53.86        47.6 0.34            143           97.4 177 
 PTB  HZ EP   9    711 36.48                             131   -1.30 0  148 260 
 PTB  HN ES        711 57.60                             133    0.29 9  148 260 
 PTB  HZ I         712  1.36        12.3 0.21            130            148 260 
 TAM  HZ IP     C  711 38.37                             130    0.09 9  153 104 
 TAM  HN ES        712  0.13                             130    0.63 9  153 104 
 ZAR  HZ EP        711 43.35                             121   -0.15 8  206 293 
 ZAR  HN ES        712  8.32                             121   -0.47 8  206 293 
 ZAR  HZ I         712 13.69        16.1 0.28            122            206 293 
 NOR  HZ I         712 21.82        11.0 0.18            118            234 235 
 CHI  HZ EP        711 48.19                             117   -0.08 8  246 196 
 CHI  HN ES        712 17.32                             117    0.04 8  246 196 
 CHI  HZ I         712 23.69         7.3 0.30            117            246 196 
 ROSC BZ EP   9    711 49.77                             116    1.01 0  251 212 
 ROSC BN ES        712 19.34                             117    0.17 8  251 212 
 ROSC BZ I         712 24.65        16.7 0.40            116            251 212 
 GUY2CHZ EP        711 55.26                             112    0.85 7  300 235 
 GUY2CHN ES        712 28.41                             112    0.20 7  300 235 
 GUY2CHZ I         712 35.98         8.9 0.34                           300 235 
 PTGC HZ EP   9    711 53.03                             111   -1.36 0  305 159 
 PTGC HN ES        712 26.57                             112   -0.25 7  305 159 
 PTGC HZ I         712 31.42        15.4 0.32            112            305 159 
 LL6C HZ EP   9    711 35.85                             109   -21.1 0  328 357 
 LL6C HE ES        712 12.86                                    1.21 7  328 357 
 ELA  HZ EP   3    711 59.01                             110    1.38 2  328 230 
 ELA  HN ES        712 33.97                             110    0.03 7  328 230 
 ELA  HZ I         712 49.25         7.3 0.40            110            328 230 
 CBOC HZ EP        711 58.11                             109    0.27 7  334 253 
 CBOC HN ES   4    712 32.42                             109   -1.90 0  334 253 
 ORTC HZ EP        712  4.26                             106   -0.39 6  394 217 
 ORTC HN ES   3    712 47.95                             106    1.52 1  394 217 
 CRJC HZ EP   4    712 10.28                             103   -3.54 0  471   3 
 CRJC HN ES   4    713  0.33                             103   -2.44 0  471   3 
 SMAR HZ EP   4    712 15.41                             102   -1.82 0  500 346 
                                                                                
