 2014 1216 0650 30.2 L   6.064 -73.678116.7  RSN 17 0.4 1.7LRSN                1
 GAP= 76        0.93       2.4     2.7  5.2 -0.1380E+01  0.2654E+00 -0.1172E+01E
 Epicentro: CHIPATA - SANTANDER                                                3
 ACTION:UPD 15-02-10 17:04 OP:nd   STATUS:               ID:20141216065030 L   I
 OLDACT:UP  14-12-16 16:33 OP:spq  STATUS:               ID:20141216064743d    3
 OLDACT:DUP 14-12-16 16:26 OP:spq  STATUS:               ID:20141216064743d    3
 2014-12-16-0647-41M.COL___287                                                 6
 STAT SP IPHASW D HRMM SECON CODA AMPLIT PERI AZIMU VELO AIN AR TRES W  DIS CAZ7
 SPBC HZ EP        650 47.82                             150   -0.0710 63.1 224 
 SPBC HN ES        651  2.07                             150    0.3710 63.1 224 
 SPBC HZ I         651  4.19        30.3 0.20            152           63.1 224 
 RUS  HZ EP        650 48.85                             148    0.0410 68.5 106 
 RUS  HE ES   1    651  2.82                             148   -0.51 7 68.5 106 
 RUS  HZ I         651  4.33         6.6 0.52            151           68.5 106 
 BAR2 EZ EP        650 49.46                             143    0.2110 80.1  43 
 BAR2 EZ ES   1    651  4.49                             143    0.37 7 80.1  43 
 BAR2 EZ I         651  7.58        13.6 0.40            145           80.1  43 
 PTB  HZ EP     D  650 49.96                             136   -0.6310  101 301 
 PTB  HE ES        651  5.78                             136   -0.7210  101 301 
 PTB  HZ I         651  8.38         8.5 0.20            137            101 301 
 BRR  HZ EP        650 52.10                             132    0.2610  115 358 
 BRR  HE ES        651  9.13                             132    0.4110  115 358 
 BRR  HZ I         651 13.18        14.2 0.66            133            115 358 
 NOR  HZ EP        650 55.06                             125    0.51 9  143 247 
 NOR  HN ES        651 13.35                             125   -0.20 9  143 247 
 NOR  HZ I         651 16.27        14.8 0.16            127            143 247 
 CHI  HZ EP        650 56.29                             122   -0.31 9  159 182 
 CHI  HN ES   1    651 17.62                             122    0.42 7  159 182 
 CHI  HZ I         651 20.01         4.9 0.32            125            159 182 
 PAM  SZ EP        650 58.59                             119   -0.10 9  178  37 
 PAM  SN ES        651 20.63                             119   -0.29 9  178  37 
 PAM  SZ I         651 24.75         4.2 0.20            121            178  37 
 ZAR  HZ EP        651  0.77                             115   -0.25 9  205 321 
 ZAR  HN ES        651 25.58                             115    0.51 9  205 321 
 ZAR  HZ I         651 27.90        14.1 0.26            116            205 321 
 HEL  HZ EP   1    651  2.32                             115    0.78 6  205 274 
 HEL  HN ES   1    651 25.44                             115   -0.54 6  205 274 
 HEL  HZ I         651 30.90         3.8 0.42            117            205 274 
 TAM  HZ EP   1    651  1.47                             114   -0.47 6  213  79 
 OCA  HZ EP   1    651  5.73                             111    0.16 6  244   9 
 OCA  HN ES   1    651 33.48                             111    0.31 6  244   9 
 OCA  HZ I         651 41.36         6.1 0.14            112            244   9 
 URE  HZ EP   4    651  8.12                             108   -1.14 0  277 312 
 URE  HE ES   4    651 37.42                             108   -2.31 0  277 312 
 URE  HZ I         651 41.45         3.5 0.36            109            277 312 
 ORTC HZ EP        651 11.67                             106    0.31 7  295 216 
 ORTC HE ES   4    651 44.79                             106    1.32 0  295 216 
 ORTC HZ I         651 47.56         1.4 0.24            108            295 216 
 SML  HE ES   1    651 45.66                             106    0.04 5  306 352 
 MON  HZ EP   4    651 18.98                             102   -1.41 0  372 324 
 MON  HN ES   4    651 57.81                             102   -1.74 0  372 324 
 MON  HZ I         652  0.86         1.6 0.50            103            372 324 
 SJC  HZ EP   1    651 29.64                              99   -0.83 4  455 339 
 SJC  HN ES   4    652 11.09                              99   -6.39 0  455 339 
 SJC  HZ I         652 18.55         0.9 0.24            100            455 339 
                                                                                
