 2017  316 0321 51.5 L   6.741 -73.175148.3  RSN  5 0.3 1.6LRSN                1
 GAP=229        0.67       5.0     4.3  5.4  0.2950E+01  0.4615E+01 -0.5625E+00E
 Epicentro: VILLANUEVA - SANTANDER                                             3
 ACTION:UPD 17-05-25 18:40 OP:jn   STATUS:               ID:20170316032151 L   I
 OLDACT:REG 17-03-16 12:48 OP:cara STATUS:               ID:20170316031745     3
 2017-03-16-0318-00M.COL___400                                                 6
 STAT SP IPHASW D HRMM SECON CODA AMPLIT PERI AZIMU VELO AIN AR TRES W  DIS CAZ7
 BAR2 EZ EP        322 11.36                             173    0.0610 16.4 183 
 BAR2 EZ ES        322 26.48                             173   -0.2810 16.4 183 
 BAR2 EZ I         322 27.77        14.7 0.44            170           16.4 183 
 BRR  HZ EP   2    322 13.14                             153    0.20 5 71.8 304 
 BRR  HN ES   2    322 30.50                             153    0.82 5 71.8 304 
 RUS  HZ EP        322 15.17                             146    0.1210 94.3 174 
 RUS  HN ES        322 33.30                             146   -0.1310 94.3 174 
 RUS  HZ I         322 35.19         4.0 0.26            145           94.3 174 
 PTB  HZ EP        322 18.27                             133   -0.00 9  143 261 
 PTB  HN ES        322 38.87                             133   -0.29 9  143 261 
 PTB  HZ I         322 41.38         4.1 0.18            133            143 261 
 SPBC HZ EP        322 19.32                             131   -0.19 9  156 220 
 SPBC HN ES        322 41.84                             131    0.46 9  156 220 
 SPBC HZ I         322 45.02         8.1 0.30            130            156 220 
                                                                                
