 2015  716 0104 56.3 L   6.769 -73.140141.5  RSN 19 0.5 2.2LRSN                1
 GAP=121        1.12       2.6     3.8  5.8 -0.1575E+01  0.1034E+02  0.1381E+01E
 Epicentro: LOS SANTOS - SANTANDER                                             3
 ACTION:UPD 15-09-08 21:49 OP:cam  STATUS:               ID:20150716010456 L   I
 OLDACT:REG 15-07-16 12:22 OP:ak   STATUS:               ID:20150716005749     3
 2015-07-16-0057-49M.COL___340                                                 6
 STAT SP IPHASW D HRMM SECON CODA AMPLIT PERI AZIMU VELO AIN AR TRES W  DIS CAZ7
 BAR2 EZ EP        1 5 15.42                             172    0.0510 20.1 194 
 BAR2 EZ ES        1 5 29.31                             172   -0.9210 20.1 194 
 BAR2 EZ I         1 5 32.30        51.7 0.20            169           20.1 194 
 PAM  EZ EP        1 5 18.56                             149    0.3510 79.7  38 
 PAM  EN ES        1 5 35.80                             149    0.5010 79.7  38 
 PAM  EZ I         1 5 40.40        19.1 0.42            155           79.7  38 
 RUS  HZ EP        1 5 19.47                             144    0.0810 97.1 176 
 RUS  HN ES        1 5 37.98                             144    0.5910 97.1 176 
 RUS  HZ I         1 5 39.41        27.7 0.24            148           97.1 176 
 OCA  HZ EP        1 5 24.41                             128   -0.22 9  164 353 
 OCA  HN ES        1 5 45.96                             128   -0.75 9  164 353 
 OCA  HZ I         1 5 51.42        25.6 0.18            131            164 353 
 ZAR  HZ EP        1 5 28.59                             121   -0.09 8  206 293 
 ZAR  HE ES        1 5 54.01                             121    0.08 8  206 293 
 ZAR  HZ I         1 6  2.01        19.1 0.47            122            206 293 
 NOR  HZ EP        1 5 31.63                             118   -0.01 8  233 235 
 NOR  HE ES        1 5 59.54                             118    0.35 8  233 235 
 NOR  HZ I         1 6  6.08        18.6 0.24            120            233 235 
 CHI  HZ EP        1 5 32.54                             117   -0.89 8  245 196 
 CHI  HN ES        1 6  2.26                             117   -0.13 8  245 196 
 CHI  HZ I         1 6  5.90         5.9 0.42            120            245 196 
 SML  HZ EP        1 5 32.83                             116   -0.24 8  247 335 
 SML  HE ES        1 6  2.59                             116    0.84 8  247 335 
 SML  HZ I         1 6  4.50        18.2 0.15            119            247 335 
 ROSC BZ EP        1 5 34.34                             116    0.43 8  250 212 
 ROSC BN ES        1 6  3.48                             116    0.23 8  250 212 
 ROSC BZ I         1 6 12.49        13.7 0.35            119            250 212 
 HEL  HZ EP        1 5 37.16                             114    0.87 8  272 257 
 HEL  HN ES        1 6  7.52                             114    0.05 8  272 257 
 HEL  HZ I         1 6 14.87        11.4 0.32            116            272 257 
 GUY2CHZ EP        1 5 40.15                             112    0.59 7  300 235 
 GUY2CHN ES        1 6 13.27                             112   -0.03 7  300 235 
 GUY2CHZ I         1 6 21.53        11.5 0.24                           300 235 
 PTGC HZ EP        1 5 38.63                             111   -0.96 7  305 159 
 PTGC HN ES   4    1 6 10.91                             111   -2.43 0  305 159 
 CBOC HZ EP        1 5 43.48                             109    0.48 7  333 253 
 CBOC HE ES        1 6 18.78                             109   -0.64 7  333 253 
 CBOC HZ I         1 6 31.38         3.2 0.40            111            333 253 
 DBB  SZ EP        1 5 42.95                             109   -0.77 7  340 275 
 DBB  SZ ES        1 6 20.42                             109   -0.28 7  340 275 
 TOL  SZ EP        1 5 44.78                             109    0.61 7  342 225 
 TOL  SN ES        1 6 21.76                             109    0.26 7  342 225 
 TOL  SZ I         1 6 28.85         5.1 0.49            111            342 225 
 MON  HZ EP   4    1 5 42.82                             108   -2.64 0  356 309 
 MON  HE ES   4    1 6 21.01                             108   -2.78 0  356 309 
 MON  HZ I         1 6 37.83         3.8 0.56            110            356 309 
 ORTC HZ EP        1 5 49.78                             106   -0.03 6  393 217 
 ORTC HN ES        1 6 31.39                             106   -0.14 6  393 217 
 ORTC HZ I         1 6 35.69         4.5 0.40            108            393 217 
 PAL  HZ EP        1 5 51.10                             105   -0.09 6  404 240 
 PAL  HE ES        1 6 33.06                             105   -0.94 6  404 240 
 PAL  HZ I         1 6 39.68         4.4 0.22            107            404 240 
 SJC  HZ EP   4    1 5 49.99                             105   -2.13 0  412 327 
 SJC  HN ES   4    1 6 31.07                             105   -4.58 0  412 327 
 SJC  HZ I         1 6 35.78         1.8 0.22            107            412 327 
                                                                                
