 2016  816 0549  8.7 L   6.776 -73.220146.0  RSN 19 0.5 2.2LRSN                1
 GAP= 54        0.95       2.5     2.5  4.4 -0.9143E+00  0.1492E+01 -0.1239E+01E
 Epicentro: ZAPATOCA - SANTANDER                                               3
 ACTION:UPD 16-10-29 15:36 OP:rebc STATUS:               ID:20160816054908 L   I
 OLDACT:REG 16-08-16 12:49 OP:ak   STATUS:               ID:20160816054759     3
 2016-08-16-0547-59S.COL___346                                                 6
 STAT SP IPHASW D HRMM SECON CODA AMPLIT PERI AZIMU VELO AIN AR TRES W  DIS CAZ7
 BAR2 EZ EP        549 28.20                             172   -0.1110 20.7 169 
 BAR2 EZ ES        549 43.73                             172    0.1310 20.7 169 
 BAR2 EZ I         549 45.08        40.0 0.12                          20.7 169 
 BRR  HZ IP     C  549 29.96                             155    0.3910 65.6 304 
 BRR  HN ES        549 46.50                             155    0.6510 65.6 304 
 BRR  HZ I         549 50.01        56.6 0.43                          65.6 304 
 PAM  EZ EP        549 31.48                             149    0.0910 84.8  43 
 PAM  EN ES        549 49.17                             149    0.0710 84.8  43 
 PAM  EZ I         549 50.44        18.0 0.21                          84.8  43 
 RUS  HZ EP        549 32.14                             145   -0.2110 98.8 171 
 RUS  HN ES        549 50.48                             145   -0.3110 98.8 171 
 PTB  HZ EP        549 34.41                             134   -0.52 9  139 259 
 PTB  HN ES        549 54.98                             134   -0.40 9  139 259 
 PTB  HZ I         549 55.95        20.2 0.20                           139 259 
 SPBC HZ EP        549 36.61                             131    0.06 9  156 217 
 SPBC HN ES        549 58.21                             131   -0.06 9  156 217 
 SPBC HZ I         550  1.90        18.6 0.24                           156 217 
 TAM  HZ EP        549 37.27                             129    0.19 9  162 103 
 TAM  HZ I         549 57.96        13.4 0.36                           162 103 
 TAM  HN ES        549 58.99                             129   -0.22 9  162 103 
 ZAR  HZ EP        549 40.25                             123   -0.25 9  198 294 
 ZAR  HN ES        550  5.29                             123   -0.01 9  198 294 
 ZAR  HZ I         550 12.10        23.1 0.24                           198 294 
 NOR  HZ EP        549 44.56                             120    0.99 8  227 234 
 NOR  HN ES        550 10.23                             120   -0.54 8  227 234 
 NOR  HZ I         550 15.78         7.7 0.19                           227 234 
 CHI  HZ EP   2    549 46.03                             118    0.12 4  244 193 
 CHI  HN ES        550 15.72                             118    0.78 8  244 193 
 ROSC BN ES   4    550 16.78                             118    1.45 0  246 210 
 HEL  HZ EP   2    549 48.79                             116    0.81 4  264 256 
 HEL  HN ES        550 17.93                             116   -0.68 8  264 256 
 HEL  HZ I         550 25.25         9.5 0.28                           264 256 
 URE  HZ EP        549 48.68                             114   -0.37 7  277 293 
 URE  HN ES   4    550 18.83                             114   -1.70 0  277 293 
 URE  HZ I         550 23.04        13.7 0.06                           277 293 
 GUY2CHZ EP   9    549 53.02                             113    1.62 0  293 234 
 GUY2CHN ES        550 26.98                                    0.66 7  293 234 
 GUY2CHZ I         550 31.71         5.7 0.36                           293 234 
 PTGC HZ EP   2    549 52.00                             112   -0.63 4  309 157 
 PTGC HN ES   4    550 24.64                             112   -2.26 0  309 157 
 PTGC HZ I         550 26.70         5.5 0.70                           309 157 
 SOCV BZ EP        549 52.11                             112   -0.59 7  310  57 
 SOCV BN ES   4    550 24.46                             112   -2.56 0  310  57 
 CBOC HZ EP   2    549 55.51                             111    0.87 3  325 252 
 CBOC HN ES   4    550 29.25                             111   -1.22 0  325 252 
 CBOC HZ I         550 42.23         8.6 0.04                           325 252 
 LL6C HZ EP        549 54.12                             110   -0.57 7  327 359 
 LL6C HE ES        550 30.75                             110    0.19 7  327 359 
 ARGC HZ EP   2    549 59.38                             108    1.03 3  359 342 
 ARGC HN ES        550 37.39                             108    0.32 6  359 342 
 ARGC HZ I         550 47.06         2.3 0.33                           359 342 
 PRA  HZ EP   2    550  2.41                             107    0.92 3  386 209 
 PRA  HN ES        550 42.98                             107    0.31 6  386 209 
 PRA  HZ I         550 48.78         3.5 0.27                           386 209 
                                                                                
