 2016  516 0416 26.5 L   6.717 -73.187135.2  RSN  4 0.4 1.2LRSN                1
 GAP=231        1.06       7.6     7.9  9.7 -0.9753E+01  0.1639E+02  0.5082E+01E
 Epicentro: VILLANUEVA - SANTANDER                                             3
 ACTION:UPD 16-08-18 17:46 OP:cam  STATUS:               ID:20160516041626 L   I
 OLDACT:UP  16-05-16 18:37 OP:mh   STATUS:               ID:20160516040743     3
 OLDACT:UP  16-05-16 18:36 OP:mh   STATUS:               ID:20160516040743     3
 OLDACT:REG 16-05-16 12:43 OP:mh   STATUS:               ID:20160516040743     3
 2016-05-16-0407-43M.COL___283                                                 6
 STAT SP IPHASW D HRMM SECON CODA AMPLIT PERI AZIMU VELO AIN AR TRES W  DIS CAZ7
 BAR2 EZ EP        416 44.73                             174   -0.0110 13.8 178 
 BAR2 EZ ES        416 58.52                             174   -0.4110 13.8 178 
 BAR2 EZ I         417  0.41         3.6 0.20            175           13.8 178 
 BRR  HZ EP        416 46.72                             150    0.1010 72.3 307 
 BRR  HN ES        417  2.85                             150    0.5710 72.3 307 
 BRR  HZ I         417  6.14         3.0 0.30            148           72.3 307 
 PTB  HE EP        416 51.93                             131   -0.17 9  142 262 
 PTB  HN ES        417 11.40                             131   -0.64 9  142 262 
 PTB  HE I         417 15.20         3.3 0.24            132            142 262 
 SPBC HN ES        417 14.69                             128    0.55 9  153 220 
                                                                                
