 2017  216 0921 25.7 L   6.833 -73.142149.8  RSN 21 0.6 2.5LRSN                1
 GAP= 65        1.19       3.5     3.8  5.4 -0.6874E+00  0.4419E+01  0.3618E+01E
 Epicentro: LOS SANTOS - SANTANDER                                             3
 ACTION:UPD 17-05-24 15:36 OP:jn   STATUS:               ID:20170216092125 L   I
 OLDACT:UP  17-02-16 18:59 OP:dani STATUS:               ID:20170216091738     3
 OLDACT:UP  17-02-16 18:59 OP:dani STATUS:               ID:20170216091738     3
 OLDACT:UP  17-02-16 18:59 OP:dani STATUS:               ID:20170216091738     3
 OLDACT:UP  17-02-16 18:57 OP:dani STATUS:               ID:20170216091738     3
 OLDACT:UP  17-02-16 18:56 OP:dani STATUS:               ID:20170216091738     3
 OLDACT:UP  17-02-16 18:56 OP:dani STATUS:               ID:20170216091738     3
 OLDACT:UP  17-02-16 18:56 OP:dani STATUS:               ID:20170216091738     3
 OLDACT:UP  17-02-16 18:55 OP:dani STATUS:               ID:20170216091738     3
 OLDACT:REG 17-02-16 13:44 OP:dani STATUS:               ID:20170216091738     3
 2017-02-16-0918-00M.COL___346                                                 6
 STAT SP IPHASW D HRMM SECON CODA AMPLIT PERI AZIMU VELO AIN AR TRES W  DIS CAZ7
 BAR2 EZ EP        921 45.97                             170    0.0610 27.0 189 
 BAR2 EZ ES        922  0.94                             170   -0.7210 27.0 189 
 BAR2 EZ I         922  3.08        70.2 0.28            168           27.0 189 
 BRR  HZ EP        921 47.90                             154    0.6610 69.9 296 
 BRR  HN ES        922  4.84                             154    0.8310 69.9 296 
 BRR  HZ I         922  6.74        35.6 0.32            151           69.9 296 
 PAM  EZ EP        921 48.94                             152    0.7410 74.4  41 
 PAM  EN ES        922  6.00                             152    0.2810 74.4  41 
 PAM  EZ I         922  8.17        83.5 0.52            155           74.4  41 
 RUS  HZ EP        921 50.04                             144   -0.0910  104 176 
 RUS  HE ES        922  8.72                             144   -0.4410  104 176 
 RUS  HZ I         922  9.87        47.1 0.32            145            104 176 
 PTB  HZ EP        921 52.74                             133   -0.38 9  149 257 
 PTB  HN ES        922 13.67                             133   -0.82 9  149 257 
 PTB  HZ I         922 20.76        32.0 0.66            131            149 257 
 TAM  HZ IP     D  921 54.39                             131    0.61 9  156 106 
 ZAR  HZ EP        921 58.19                             123   -0.14 9  203 291 
 ZAR  HN ES        922 23.22                             123   -0.55 9  203 291 
 ZAR  HZ I         922 32.80        22.6 0.24            123            203 291 
 NOR  HZ EP        922  2.05                             119    0.10 8  237 234 
 NOR  HN ES        922 30.41                             119    0.21 8  237 234 
 NOR  HZ I         922 32.51        21.1 0.20            119            237 234 
 CHI  HZ EP        922  4.17                             117    0.13 8  252 195 
 CHI  HN ES        922 33.08                             117   -0.84 8  252 195 
 CHI  HZ I         922 36.99        17.2 0.48            118            252 195 
 ROSC BZ EP   3    922  6.18                             117    1.76 2  256 211 
 ROSC BN ES        922 35.08                             117    0.47 8  256 211 
 ROSC BZ I         922 39.79        22.4 0.40            117            256 211 
 URE  HZ EP        922  5.75                             114   -1.13 7  283 291 
 URE  HN ES   4    922 36.45                             114   -2.53 0  283 291 
 URE  HZ I         922 48.72        17.6 0.22            114            283 291 
 VIL  EZ EP   3    922  8.44                             112   -1.30 2  307 192 
 VIL  EN ES        922 44.19                             112    0.13 7  307 192 
 VIL  EZ I         922 46.45        25.2 0.44            113            307 192 
 PTGC HZ EP        922  9.22                             112   -0.91 7  312 159 
 PTGC HE ES   4    922 42.57                             112   -2.20 0  312 159 
 PTGC HZ I         922 47.64        25.2 0.34            113            312 159 
 ELA  HZ EP   3    922 14.50                             111    1.45 2  332 229 
 ELA  HN ES        922 50.65                             111    0.69 7  332 229 
 ELA  HZ I         922 57.78         9.8 0.40            111            332 229 
 CBOC HZ EP        922 13.79                             110    0.81 7  335 252 
 CBOC HN ES        922 50.38                             110    0.55 7  335 252 
 CBOC HZ I         922 53.94         4.4 0.48            110            335 252 
 DBB  EZ EP        922 13.49                             110    0.11 7  340 274 
 DBB  EN ES   3    922 49.22                             110   -1.33 2  340 274 
 DBB  EZ I         922 50.86         6.5 0.18            110            340 274 
 ANIL HZ EP   9    922 17.53                             109    1.52 0  360 224 
 ANIL HN ES        922 56.77                             109    0.02 6  360 224 
 ANIL HZ I         923  0.44        33.6 0.30            109            360 224 
 PRA  HZ EP        922 19.77                             107   -0.01 6  395 209 
 PRA  HE ES        923  1.60                             107   -0.33 6  395 209 
 PRA  HZ I         923  7.82        10.8 0.22            107            395 209 
 ORTC HZ EP        922 20.32                             107    0.17 6  399 216 
 ORTC HN ES   3    923  3.94                             107    1.34 1  399 216 
 ORTC HZ I         923  7.22         9.5 0.50            107            399 216 
 SJC  HZ EP        922 20.19                             106   -0.90 6  406 327 
 SJC  HE ES   4    923  1.31                             106   -2.97 0  406 327 
 SJC  HZ I         923  7.77         3.9 0.32            107            406 327 
 CRJC HZ EP   3    922 26.24                             104   -1.67 1  464   4 
 CRJC HN ES   4    923 13.73                             104   -2.68 0  464   4 
 CRJC HZ I         923 18.49         8.8 0.18            105            464   4 
 MACC HZ EP   4    922 33.00                             102   -1.97 0  524 189 
                                                                                
