 2014 1216 0601 46.4 L   6.780 -73.122146.1  RSN  7 0.4 1.5LRSN                1
 GAP=140        0.91       4.4     4.4  6.5  0.2050E+01  0.6667E+01 -0.1208E+01E
 Epicentro: LOS SANTOS - SANTANDER                                             3
 ACTION:UPD 15-02-10 17:04 OP:nd   STATUS:               ID:20141216060146 L   I
 OLDACT:REG 14-12-16 13:06 OP:spq  STATUS:               ID:20141216055742     3
 2014-12-16-0557-42M.COL___287                                                 6
 STAT SP IPHASW D HRMM SECON CODA AMPLIT PERI AZIMU VELO AIN AR TRES W  DIS CAZ7
 BAR2 EZ EP   1    6 2  6.13                             171    0.10 7 21.8 198 
 BAR2 EZ ES   1    6 2 20.82                             171   -0.52 7 21.8 198 
 BAR2 EZ I         6 2 23.07         6.1 0.74            172           21.8 198 
 BRR  HZ EP     C  6 2  7.95                             151    0.1910 74.6 299 
 BRR  HN ES        6 2 24.88                             151    0.4410 74.6 299 
 BRR  HZ I         6 2 27.99         4.8 0.26            151           74.6 299 
 PAM  SZ EP     C  6 2  9.02                             151    0.3710 77.5  37 
 PAM  SE ES        6 2 25.77                             151   -0.2310 77.5  37 
 PAM  SZ I         6 2 28.04         6.2 0.58            153           77.5  37 
 RUS  HZ EP        6 2 10.22                             145    0.2210 98.2 177 
 RUS  HN ES   1    6 2 28.42                             145    0.01 7 98.2 177 
 RUS  HZ I         6 2 29.49         1.6 0.28            148           98.2 177 
 PTB  HZ EP        6 2 13.06                             132   -0.52 9  150 260 
 PTB  HE ES   1    6 2 34.14                             132   -0.64 7  150 260 
 PTB  HZ I         6 2 35.85         3.9 0.18            133            150 260 
 ZAR  HZ EP   1    6 2 19.38                             122    0.19 6  207 292 
 ZAR  HE ES        6 2 45.29                             122    0.51 8  207 292 
 ZAR  HZ I         6 2 50.84         3.7 0.30            123            207 292 
 SML  HZ EP   1    6 2 22.75                             117   -0.62 6  247 335 
 SML  HE ES   1    6 2 51.57                             117   -0.65 6  247 335 
 SML  HZ I         6 2 55.02         3.4 0.34            119            247 335 
 SJC  HZ EP   4    6 2 40.39                             106   -1.96 0  413 327 
 SJC  HN ES   4    6 3 23.32                             106   -2.68 0  413 327 
                                                                                
