 2013  916 0214 59.1 L   6.782 -73.179136.9  RSN  7 0.5 1.8LRSN                1
 GAP=205        0.96       4.7     6.6  7.3 -0.1067E+01  0.9336E+01  0.5464E+01E
 Epicentro: LOS SANTOS - SANTANDER                                             3
 ACTION:UPD 13-10-22 09:23 OP:ep   STATUS:               ID:20130916021459 L   I
 OLDACT:REG 13-09-16 07:36 OP:jn   STATUS:               ID:20130916020959     3
 2013-09-16-0209-59M.COL___269                                                 6
 STAT SP IPHASW D HRMM SECON CODA AMPLIT PERI AZIMU VELO AIN AR TRES W  DIS CAZ7
 BAR2 SZ EP        215 17.63                             171    0.0110 21.0 181 
 BAR2 SZ ES        215 31.63                             171   -0.4410 21.0 181 
 BAR2 SZ I         215 33.71        13.9 0.38            166           21.0 181 
 BRR  HZ EP        215 19.28                             152    0.1110 69.0 301 
 BRR  HN ES   1    215 36.02                             152    1.20 7 69.0 301 
 BRR  HZ I         215 39.83        19.6 0.46            153           69.0 301 
 PTB  HZ EP        215 24.67                             131   -0.32 9  144 259 
 PTB  HN ES        215 45.07                             131   -0.10 9  144 259 
 PTB  HZ I         215 46.62         9.1 0.38            131            144 259 
 SPBC HZ EP   1    215 26.55                             128   -0.01 7  159 218 
 SPBC HN ES   1    215 47.96                             128   -0.01 7  159 218 
 SPBC HZ I         215 51.16        10.6 0.30            128            159 218 
 NOR  HZ EP   1    215 33.96                             117    0.09 6  230 234 
 NOR  HE ES   1    216  0.78                             117   -0.22 6  230 234 
 NOR  HZ I         216  6.89         6.6 0.22            118            230 234 
 SML  HE ES   1    216  2.86                             115   -0.64 6  244 336 
 CHI  HZ EP   1    215 36.99                             115    0.98 6  246 194 
 CHI  HN ES   1    216  4.65                             115   -0.14 6  246 194 
 CHI  HZ I         216 13.07         2.1 0.41            116            246 194 
                                                                                
