 2010  816 0050 39.6 L   6.765 -73.053144.0  RSN  9 0.3 1.8LRSN                1
 GAP=169        0.68       4.2     5.9  6.4  0.2138E+01 -0.9512E+01 -0.8549E+01E
 Epicentro: LOS SANTOS - SANTANDER                                             3
 ACTION:UP  10-09-07 10:55 OP:vdl  STATUS:               ID:20100816005039 L   I
 2010-08-16-0049-07S.COL___111                                                 6
 STAT SP IPHASW D HRMM SECON CODA AMPLIT PERI AZIMU VELO SNR AR TRES W  DIS CAZ7
 BAR2 SZ EP        050 59.05                             170     0.010   24 217 
 BAR2 SZ ES   1    051 14.28                             170     0.0 7   24 217 
 BAR2 SZ I         051 15.84        14.8 0.33                            24 217 
 GIR2 SZ EP   3    050 59.59                             164     0.3 2   38 336 
 BRR  HZ EP        051  1.07                             149    -0.210   82 298 
 BRR  HZ I         051  1.32        16.5 0.13                            82 298 
 BRR  HN ES        051 18.26                             149     0.110   82 298 
 RUS  HZ EP   1    051  3.21                             145     0.3 7   97 182 
 RUS  HZ I         051  4.77         4.0 0.99                            97 182 
 RUS  HN ES   1    051 20.83                             145    -0.3 7   97 182 
 GUE  SZ EP        051  4.41                             138     0.010  119   7 
 GUE  SZ I         051 26.39         2.1 0.10                           119   7 
 GRA  SZ EP   2    051  5.57                             136     0.7 5  127  13 
 GRA  SZ I         051 28.34         7.5 0.19                           127  13 
 OCA  SZ EP   1    051  7.86                             128    -0.5 7  166 350 
 OCA  SZ I         051 33.50        10.6 1.19                           166 350 
 HEL  HN ES   2    051 52.62                             114    -0.2 4  281 257 
 HEL  HZ I         051 58.41         6.1 0.26                           281 257 
 RREF HN ES   2    052  3.30                             110     0.6 3  327 231 
 RREF HZ I         052 10.96         4.9 0.11                           327 231 
                                                                                
