 2015  616 0144 28.4 L   6.789 -73.028146.1  RSN 16 0.4 2.1LRSN                1
 GAP=172        0.86       2.1     3.3  4.2  0.4656E+00  0.3073E+01  0.1203E+01E
 Epicentro: CEPITA - SANTANDER                                                 3
 ACTION:UPD 15-09-10 22:12 OP:cam  STATUS:               ID:20150616014428 L   I
 OLDACT:UP  15-06-16 14:49 OP:drio STATUS:               ID:20150616013749     3
 OLDACT:REG 15-06-16 12:15 OP:drio STATUS:               ID:20150616013749     3
 2015-06-16-0137-49M.COL___306                                                 6
 STAT SP IPHASW D HRMM SECON CODA AMPLIT PERI AZIMU VELO AIN AR TRES W  DIS CAZ7
 BAR2 EZ EP        144 48.52                             169    0.4010 27.6 218 
 BAR2 EZ ES        145  3.05                             169   -0.4810 27.6 218 
 BAR2 EZ I         145  7.60        14.2 0.20            166           27.6 218 
 BRR  HZ EP        144 50.46                             149    0.1910 83.4 295 
 BRR  HE ES        145  7.82                             149    0.4610 83.4 295 
 BRR  HZ I         145 11.38        10.9 0.14            148           83.4 295 
 RUS  HZ EP        144 52.45                             144    0.4010 99.3 184 
 RUS  HE ES        145 10.19                             144   -0.3310 99.3 184 
 OCA  HZ EP        144 57.35                             129    0.35 9  164 349 
 OCA  HE ES        145 19.09                             129   -0.25 9  164 349 
 OCA  HZ I         145 23.40        25.1 0.18            132            164 349 
 ZAR  HZ EP        145  1.79                             121   -0.33 8  217 291 
 ZAR  HN ES        145 28.60                             121    0.14 8  217 291 
 ZAR  HZ I         145 33.02        12.9 0.40            122            217 291 
 NOR  HZ EP        145  4.70                             117   -0.48 8  245 236 
 NOR  HE ES        145 33.82                             117   -0.08 8  245 236 
 NOR  HZ I         145 37.87         9.1 0.32            119            245 236 
 SML  HZ EP        145  5.58                             117   -0.16 8  251 333 
 SML  HN ES        145 34.62                             117   -0.27 8  251 333 
 SML  HZ I         145 38.12        14.9 0.10            119            251 333 
 ROSC BZ EP        145  7.28                             116    0.14 8  259 214 
 ROSC BN ES        145 38.06                             116    0.67 8  259 214 
 ROSC BZ I         145 46.22         9.5 0.40            118            259 214 
 HEL  HZ EP        145  9.98                             114    0.03 7  284 257 
 HEL  HN ES        145 42.41                             114    0.01 7  284 257 
 HEL  HZ I         145 47.50         6.8 0.36            115            284 257 
 URE  HZ EP        145 10.95                             112    0.10 7  296 291 
 PTGC HZ EP        145 11.48                             112   -0.11 7  303 161 
 PTGC HN ES        145 45.05                             112   -0.26 7  303 161 
 GUY2CHZ EP        145 13.78                             111    0.67 7  311 236 
 GUY2CHN ES        145 47.07                             111   -0.95 7  311 236 
 GUY2CHZ I         145 55.35         7.9 0.72                           311 236 
 CBOC HZ EP        145 16.34                             109   -0.32 6  346 253 
 CBOC HN ES        145 54.33                             109   -0.01 6  346 253 
 CBOC HZ I         145 56.83         2.1 0.46            111            346 253 
 TOL  SZ EP        145 17.82                             109    0.23 6  352 226 
 TOL  SN ES        145 56.22                             109    0.22 6  352 226 
 TOL  SZ I         146  0.59         3.7 0.36            110            352 226 
 MON  HZ EP   4    145 15.47                             108   -3.17 0  365 307 
 MON  HN ES   4    145 54.50                             108   -3.37 0  365 307 
 PRA  HZ EP        145 22.71                             106    0.18 6  398 211 
 PRA  HE ES        146  4.28                             106   -0.51 6  398 211 
 PRA  HZ I         146 10.87         2.8 0.38            108            398 211 
 SJC  HZ EP   2    145 22.73                             105   -2.16 3  417 326 
 SJC  HN ES   4    146  2.90                             105   -6.09 0  417 326 
                                                                                
