 2014 1216 0847 20.6 L   6.262 -73.660108.2  RSN  5 0.4 1.0LRSN                1
 GAP=167        0.88       5.6     4.6  8.3  0.1094E+02  0.1434E+02  0.3270E+01E
 Epicentro: SANTA HELENA DEL OPON - SANTANDER                                  3
 ACTION:UPD 15-02-10 17:04 OP:nd   STATUS:               ID:20141216084720 L   I
 OLDACT:DUP 14-12-16 14:04 OP:spq  STATUS:               ID:20141216083741d    3
 2014-12-16-0837-40M.COL___287                                                 6
 STAT SP IPHASW D HRMM SECON CODA AMPLIT PERI AZIMU VELO AIN AR TRES W  DIS CAZ7
 BAR2 EZ ES   1    847 50.92                             147   -0.09 7 64.2  55 
 BAR2 EZ I         847 51.81         4.6 0.45            149           64.2  55 
 RUS  HZ EP   1    847 39.33                             143    0.48 7 75.7 123 
 RUS  HN ES   1    847 53.31                             143    0.21 7 75.7 123 
 RUS  HZ I         847 54.43         1.0 0.14            149           75.7 123 
 PTB  HZ EP        847 39.31                             136   -0.2710 93.3 289 
 PTB  HN ES        847 54.25                             136   -0.1610 93.3 289 
 PTB  HZ I         847 56.75         4.0 0.12            138           93.3 289 
 BRR  HZ EP        847 39.13                             136   -0.4610 93.7 356 
 BRR  HN ES        847 54.41                             136   -0.0110 93.7 356 
 BRR  HZ I         847 58.91         2.1 0.48            137           93.7 356 
 ZAR  HZ EP        847 49.26                             115   -0.05 9  190 316 
 ZAR  HN ES        848 12.51                             115    0.79 9  190 316 
 ZAR  HZ I         848 16.73         1.9 0.32            117            190 316 
                                                                                
