 2016  116 0325 33.8 L   6.805 -73.147148.8  RSN 11 0.5 2.0LRSN                1
 GAP=136        1.02       3.0     4.2  5.9 -0.1457E+01  0.8060E+01  0.4426E+00E
 Epicentro: LOS SANTOS - SANTANDER                                             3
 ACTION:UPD 16-03-09 23:25 OP:cam  STATUS:               ID:20160116032533 L   I
 OLDACT:UP  16-01-16 15:05 OP:mh   STATUS:               ID:20160116031707     3
 OLDACT:UP  16-01-16 15:05 OP:mh   STATUS:               ID:20160116031707     3
 OLDACT:UP  16-01-16 15:05 OP:mh   STATUS:               ID:20160116031707     3
 OLDACT:UP  16-01-16 15:05 OP:mh   STATUS:               ID:20160116031707     3
 OLDACT:REG 16-01-16 14:34 OP:mh   STATUS:               ID:20160116031707     3
 2016-1-16-318_031800_840.mseed                                                6
 STAT SP IPHASW D HRMM SECON CODA AMPLIT PERI AZIMU VELO AIN AR TRES W  DIS CAZ7
 BAR2 EZ EP        325 53.76                             170   -0.0410 23.9 189 
 BAR2 EZ ES        326  9.67                             170    0.2610 23.9 189 
 BAR2 EZ I         326 10.05        20.1 0.30            168           23.9 189 
 PAM  EZ EP        325 56.81                             151    0.4910 77.0  40 
 PAM  EN ES        326 13.77                             151   -0.1110 77.0  40 
 PAM  EZ I         326 15.78        24.4 0.52            156           77.0  40 
 RUS  HZ EP        325 57.78                             144   -0.1110  101 176 
 RUS  HN ES        326 16.61                             144   -0.0710  101 176 
 RUS  HZ I         326 17.22         6.3 0.26            146            101 176 
 PTB  HZ EP   1    326  0.40                             133   -0.61 7  148 259 
 PTB  HN ES        326 21.39                             133   -0.84 9  148 259 
 PTB  HZ I         326 28.24         6.8 0.22            131            148 259 
 SPBC HZ EP        326  2.68                             130    0.12 9  164 219 
 SPBC HN ES        326 24.76                             130   -0.24 9  164 219 
 SPBC HZ I         326 29.56        13.7 0.24            130            164 219 
 ZAR  HZ EP   1    326  7.38                             123    0.98 6  204 292 
 ZAR  HN ES        326 32.56                             123    0.73 9  204 292 
 ZAR  HZ I         326 38.89         6.4 0.18            123            204 292 
 NOR  HZ EP        326  9.49                             119   -0.23 8  235 234 
 NOR  HN ES        326 38.30                             119    0.55 8  235 234 
 NOR  HZ I         326 45.38         6.2 0.26            119            235 234 
 SML  HZ EP        326 10.11                             118   -0.42 8  243 335 
 SML  HN ES        326 38.82                             118   -0.36 8  243 335 
 SML  HZ I         326 42.31        13.5 0.10            119            243 335 
 CHI  HZ EP        326 12.03                             118    0.31 8  249 195 
 CHI  HN ES        326 41.33                             118    0.03 8  249 195 
 CHI  HZ I         326 44.90         6.6 0.46            119            249 195 
 GUY2CHZ EP   4    326 19.02                             113    1.45 0  301 235 
 GUY2CHN ES   4    326 53.99                             113    2.28 0  301 235 
 GUY2CHZ I         326 57.68         3.1 0.34                           301 235 
 PRA  HZ EP        326 26.64                             107   -0.83 6  392 209 
 PRA  HN ES        327  9.72                             107    0.38 6  392 209 
 PRA  HZ I         327 14.64         4.7 0.32            108            392 209 
                                                                                
