 2013  616 0024 50.5 L   6.785 -73.145152.5  RSN  4 0.2 1.6LRSN                1
 GAP=201        0.52       3.5     5.5  5.4  0.1136E+02 -0.7589E+01 -0.6173E+01E
 Epicentro: LOS SANTOS - SANTANDER                                             3
 ACTION:UPD 14-01-08 09:54 OP:ep   STATUS:               ID:20130616002450 L   I
 OLDACT:REG 13-06-16 07:15 OP:cam  STATUS:               ID:20130616001959     3
 2013-06-16-0019-59M.COL___261                                                 6
 STAT SP IPHASW D HRMM SECON CODA AMPLIT PERI AZIMU VELO AIN AR TRES W  DIS CAZ7
 BRR  HN ES        025 29.65                             153    0.1510 72.1 300 
 RUS  HZ EP        025 14.87                             146    0.1010 98.9 176 
 RUS  HN ES        025 33.60                             146   -0.1310 98.9 176 
 RUS  HZ I         025 34.67         3.7 0.20            146           98.9 176 
 PTB  HZ EP   1    025 17.72                             134   -0.25 7  148 259 
 PTB  HN ES   1    025 39.47                             134    0.04 7  148 259 
 PTB  HZ I         025 40.81         3.3 0.40            133            148 259 
 SML  HZ EP   1    025 28.03                             119    0.39 6  245 335 
 SML  HN ES   1    025 56.18                             119   -0.46 6  245 335 
 SML  HZ I         025 57.79         6.3 0.10            119            245 335 
                                                                                
