 2013  316 0807 55.2 L   6.736 -73.086144.3  RSN  4 0.4 1.5LRSN                1
 GAP=181        0.86      19.7     8.0 17.4 -0.1131E+03 -0.5931E+02  0.2663E+03E
 Epicentro: JORDAN - SANTANDER                                                 3
 ACTION:UPD 13-04-09 14:02 OP:ep   STATUS:               ID:20130316080755 L   I
 2013-03-16-0800-00M.COL___244                                                 6
 STAT SP IPHASW D HRMM SECON CODA AMPLIT PERI AZIMU VELO AIN AR TRES W  DIS CAZ7
 BAR2 SZ EP   1    8 8 15.04                             172    0.44 7 19.1 214 
 BAR2 SZ I         8 8 34.20         5.8 0.50            120           19.1 214 
 PAM  SN ES        8 8 34.39                             150   -0.3110 79.3  33 
 PAM  SN I         8 8 36.44         5.9 0.42            129           79.3  33 
 BRR  HZ EP   1    8 8 17.30                             149    0.53 7 80.4 301 
 BRR  HN ES        8 8 33.81                             149    0.2410 80.4 301 
 BRR  HN I         8 8 35.04         7.8 0.30            134           80.4 301 
 PTB  HZ EP   1    8 8 21.97                             130   -0.59 7  153 262 
 PTB  HN ES        8 8 43.66                             130   -0.22 9  153 262 
 PTB  HE I         8 8 48.96         3.8 0.64            116            153 262 
                                                                                
