 2015  716 0305  5.7 L   6.811 -73.169130.7  RSN 14 0.6 2.1LRSN                1
 GAP=133        1.28       3.1     4.7  7.5 -0.2117E+01  0.1948E+02 -0.5610E+00E
 Epicentro: LOS SANTOS - SANTANDER                                             3
 ACTION:UPD 15-09-08 21:49 OP:cam  STATUS:               ID:20150716030505 L   I
 OLDACT:UP  15-07-16 16:00 OP:ak   STATUS:               ID:20150716025748     3
 OLDACT:REG 15-07-16 12:35 OP:ak   STATUS:               ID:20150716025748     3
 2015-07-16-0257-48M.COL___337                                                 6
 STAT SP IPHASW D HRMM SECON CODA AMPLIT PERI AZIMU VELO AIN AR TRES W  DIS CAZ7
 BAR2 EZ IP     C  3 5 23.86                             169    0.3310 24.3 184 
 BAR2 EZ ES        3 5 37.00                             169   -0.4410 24.3 184 
 BAR2 EZ I         3 5 39.73        46.9 0.20            169           24.3 184 
 PAM  EZ EP        3 5 26.83                             148    0.4610 78.1  42 
 PAM  EN ES        3 5 43.48                             148    0.9910 78.1  42 
 PAM  EZ I         3 5 46.26        25.3 0.62            152           78.1  42 
 RUS  HZ EP        3 5 27.81                             140   -0.2910  102 175 
 RUS  HN ES        3 5 45.52                             140   -0.0610  102 175 
 RUS  HZ I         3 5 47.06        17.0 0.26            143            102 175 
 OCA  HZ EP        3 5 31.95                             126   -0.77 9  159 354 
 OCA  HN ES        3 5 53.25                             126   -0.55 9  159 354 
 OCA  HZ I         3 5 56.16        35.4 0.22            129            159 354 
 ZAR  HZ EP        3 5 37.60                             119    0.70 9  201 292 
 ZAR  HN ES        3 6  1.95                             119    0.71 9  201 292 
 ZAR  HZ I         3 6  5.07        16.0 0.14            121            201 292 
 NOR  HZ EP        3 5 40.66                             115    0.22 8  233 234 
 NOR  HN ES        3 6  7.60                             115    0.05 8  233 234 
 NOR  HZ I         3 6  9.74        11.1 0.14            117            233 234 
 SML  HZ EP        3 5 40.64                             114   -0.63 8  242 336 
 SML  HN ES        3 6  8.26                             114   -0.76 8  242 336 
 SML  HZ I         3 6 12.84        17.2 0.12            117            242 336 
 CHI  HZ EP        3 5 41.96                             114   -0.70 8  249 195 
 CHI  HN ES        3 6 10.78                             114   -0.72 8  249 195 
 CHI  HZ I         3 6 14.70         4.0 0.46            116            249 195 
 HEL  HZ EP   1    3 5 45.34                             112    0.40 6  270 255 
 HEL  HN ES        3 6 15.02                             112   -0.53 8  270 255 
 HEL  HZ I         3 6 22.83         8.5 0.28            113            270 255 
 URE  HZ EP   4    3 5 48.43                             111    2.68 0  281 292 
 URE  HN ES        3 6 16.49                             111   -0.50 7  281 292 
 URE  HZ I         3 6 17.74        12.2 0.38            112            281 292 
 GUY2CHZ EP        3 5 49.37                             109    0.88 7  300 234 
 GUY2CHN ES        3 6 21.53                             109   -0.35 7  300 234 
 GUY2CHZ I         3 6 29.23         6.4 0.24                           300 234 
 PTGC HZ EP   4    3 5 47.25                             108   -1.91 0  311 158 
 PTGC HN ES   4    3 6 18.88                             108   -4.18 0  311 158 
 CBOC HZ EP        3 5 51.92                             107    0.13 7  332 252 
 CBOC HE ES        3 6 27.96                             107    0.22 7  332 252 
 CBOC HZ I         3 6 37.26         2.4 0.50            109            332 252 
 TOL  SZ EP        3 5 53.57                             106    0.29 7  343 224 
 TOL  SN ES        3 6 30.93                             106    0.53 7  343 224 
 TOL  SZ I         3 6 39.41         3.0 0.41            108            343 224 
 MON  HZ EP        3 5 54.65                             106    0.83 6  351 308 
 MON  HN ES   4    3 6 29.45                             106   -1.92 0  351 308 
 MON  HZ I         3 6 31.64         4.2 0.20            108            351 308 
 SJC  HZ EP   4    3 5 58.84                             103   -1.66 0  407 327 
 SJC  HN ES   4    3 6 38.89                             103   -4.37 0  407 327 
                                                                                
