 2011  716 0412  0.1 L   6.800 -73.054148.1  RSN  6 0.3 1.8LRSN                1
 GAP=149        0.56       2.8     5.5  5.1 -0.1919E+01 -0.8477E+00 -0.1349E+01E
 Epicentro: LOS SANTOS - SANTANDER                                             3
 ACTION:UPD 12-07-25 14:01 OP:epov STATUS:               ID:20110716041200 L   I
 2011-07-16-0407-36S.COL___132                                                 6
 STAT SP IPHASW D HRMM SECON CODA AMPLIT PERI AZIMU VELO AIN AR TRES W  DIS CAZ7
 BAR2 SZ EP   1    412 19.88                             169   -0.24 7 27.0 212 
 BAR2 SZ I         412 20.09        11.4 0.19                          27.0 212 
 BAR2 SZ ES   1    412 36.04                             169    0.33 7 27.0 212 
 PAM  SZ EP   1    412 22.74                             153    0.48 7 71.4  33 
 PAM  SE ES   1    412 39.08                             153   -0.43 7 71.4  33 
 BRR  HZ EP   1    412 21.68                             150   -0.38 7 80.3 295 
 BRR  HZ I         412 22.14        15.3 0.10                          80.3 295 
 BRR  HN ES   1    412 39.29                             150    0.12 7 80.3 295 
 RUS  HZ EP   1    412 24.03                             144   -0.07 7  100 182 
 RUS  HE ES   1    412 42.76                             144   -0.03 7  100 182 
 RUS  HZ I         412 45.44         6.2 0.50                           100 182 
 BRI  SZ EP   1    412 24.27                             143    0.26 7  105  16 
 BRI  SZ ES   1    412 42.59                             143   -0.04 7  105  16 
 BRI  SZ I         412 46.06         7.5 0.25                           105  16 
 OCA  SZ EP   1    412 28.76                             130   -0.01 7  162 350 
 OCA  SZ ES   1    412 51.13                             130    0.02 7  162 350 
 OCA  SZ I         412 55.09        12.9 0.46                           162 350 
                                                                                
