 2011 1116 0300 50.0 L   6.784 -73.101147.4  RSN  6 0.3 1.7LRSN                1
 GAP=143        0.59       3.2     5.1  5.7  0.1996E+01  0.1858E+01 -0.1572E+01E
 Epicentro: LOS SANTOS - SANTANDER                                             3
 ACTION:UPD 12-07-13 16:10 OP:ep   STATUS:               ID:20111116030050 L   I
 2011-11-16-0259-18S.COL___179                                                 6
 STAT SP IPHASW D HRMM SECON CODA AMPLIT PERI AZIMU VELO AIN AR TRES W  DIS CAZ7
 BAR2 SZ EP        3 1  9.65                             171   -0.2010 23.0 203 
 BAR2 SZ ES   1    3 1 25.17                             171   -0.14 7 23.0 203 
 BAR2 SZ I         3 1 26.01        11.0 0.23                          23.0 203 
 PAM  SZ EP   1    3 1 12.75                             152    0.42 7 75.8  36 
 PAM  SN ES   1    3 1 29.98                             152    0.26 7 75.8  36 
 PAM  SZ I         3 1 32.46         2.5 0.27                          75.8  36 
 BRR  HZ EP        3 1 11.68                             151    0.0310 76.4 298 
 BRR  HZ I         3 1 12.11        18.5 0.12                          76.4 298 
 BRR  HN ES   1    3 1 28.83                             151    0.31 7 76.4 298 
 RUS  HZ EP   1    3 1 13.93                             145    0.13 7 98.6 179 
 RUS  HE ES   1    3 1 32.11                             145   -0.23 7 98.6 179 
 RUS  HZ I         3 1 32.83         5.4 0.34                          98.6 179 
 OCA  SZ EP   2    3 1 18.52                             129   -0.17 5  163 352 
 OCA  SZ ES   1    3 1 40.46                             129   -0.60 7  163 352 
 OCA  SZ I         3 1 45.99         4.5 0.18                           163 352 
 ZAR  HN ES   2    3 1 49.21                             122    0.29 4  209 292 
 ZAR  HZ I         3 1 53.24         7.3 0.27                           209 292 
                                                                                
