 2013  916 0818 52.3 L   5.903 -73.751112.9  RSN 15 0.6 2.6LRSN                1
 GAP= 88        1.35       3.1     3.9  6.7 -0.3047E+01  0.5038E+01 -0.1939E+01E
 Epicentro: JESUS MARIA - SANTANDER                                            3
 ACTION:UPD 13-10-22 09:23 OP:ep   STATUS:               ID:20130916081852 L   I
 OLDACT:REG 13-09-16 08:55 OP:jn   STATUS:               ID:20130916081736     3
 2013-09-16-0817-36M.COL___237                                                 6
 STAT SP IPHASW D HRMM SECON CODA AMPLIT PERI AZIMU VELO AIN AR TRES W  DIS CAZ7
 SPBC HZ EP        819  8.78                             157    0.1810 45.1 232 
 SPBC HN ES        819 21.25                             157   -0.0610 45.1 232 
 SPBC HZ I         819 22.57       252.1 0.26            149           45.1 232 
 RUS  HZ EP        819 11.35                             144    0.4410 74.0  91 
 RUS  HN ES        819 25.16                             144   -0.2610 74.0  91 
 RUS  HZ I         819 26.91        60.0 0.34            138           74.0  91 
 BAR2 SZ IP     D  819 13.00                             136    0.5010 98.8  40 
 BAR2 SZ ES        819 28.67                             136    0.4310 98.8  40 
 PTB  HZ EP        819 11.52                             134   -1.2110  105 312 
 PTB  HN ES        819 28.57                             134   -0.0910  105 312 
 PTB  HZ I         819 29.23        93.7 0.22            128            105 312 
 NOR  HZ EP        819 14.58                             127   -0.4610  129 253 
 NOR  HN ES        819 33.02                             127    0.2510  129 253 
 NOR  HZ I         819 34.67       204.8 0.12            120            129 253 
 BRR  HZ EP        819 15.19                             126   -0.1510  133   2 
 BRR  HN ES        819 34.07                             126    0.7610  133   2 
 BRR  HZ I         819 37.27       110.4 0.12            121            133   2 
 CHI  HZ EP     D  819 17.03                             125    0.38 9  141 179 
 CHI  HN ES        819 34.42                             125   -1.21 9  141 179 
 CHI  HZ I         819 39.13        19.4 0.22            118            141 179 
 GUY2CHZ EP        819 23.06                             116    0.73 9  194 247 
 GUY2CHE ES   1    819 46.22                             116    0.48 6  194 247 
 GUY2CHZ I         819 50.91        25.4 0.28                           194 247 
 PAM  SZ EP   1    819 22.20                             115   -0.47 6  197  36 
 ZAR  HE ES        819 47.92                             113   -0.77 8  214 325 
 ZAR  HZ I         819 53.22        53.7 0.46            109            214 325 
 CBOC HZ EP        819 28.41                             109    0.09 8  250 269 
 CBOC HN ES   1    819 56.58                             109    0.17 6  250 269 
 CBOC HZ I         820  0.73         7.6 0.38            105            250 269 
 OCA  HZ EP        819 29.56                             108   -0.16 8  263  10 
 OCA  HN ES        819 59.40                             108    0.51 8  263  10 
 OCA  HZ I         820  4.33        41.4 0.56            105            263  10 
 PRA  HZ EP        819 31.47                             107    0.71 8  273 208 
 PRA  HN ES   1    820  1.18                             107    0.43 6  273 208 
 PRA  HZ I         820  7.91        23.3 0.26            104            273 208 
 ORTC HZ EP   1    819 31.28                             107    0.17 6  276 217 
 ORTC HZ I         820  6.10        19.1 0.24            103            276 217 
 SML  HZ EP        819 35.45                             104   -1.08 7  322 354 
 SML  HN ES   1    820 11.02                             104   -0.00 5  322 354 
                                                                                
