 2011  616 0420 36.0 L   6.769 -73.107140.0  RSN 11 0.4 2.1LRSN                1
 GAP=143        0.72       2.9     5.2  5.1 -0.7403E+01  0.4982E+01  0.1960E+01E
 Epicentro: LOS SANTOS - SANTANDER                                             3
 ACTION:UP  11-07-14 19:05 OP:ep   STATUS:               ID:20110616042036 L   I
 2011-06-16-0417-56S.COL___135                                                 6
 STAT SP IPHASW D HRMM SECON CODA AMPLIT PERI AZIMU VELO SNR AR TRES W  DIS CAZ7
 BAR2 SZ IP        420 54.84                             171    -0.110   21 203 
 BAR2 SZ I         420 55.01        28.6 0.09                            21 203 
 BAR2 SZ ES   1    421  9.34                             171    -0.3 7   21 203 
 BRR  HZ EP        420 56.75                             150    -0.110   77 299 
 BRR  HZ I         420 57.11        34.8 0.10                            77 299 
 BRR  HN ES   1    421 13.52                             150     0.4 7   77 299 
 PAM  SZ EP   1    420 57.74                             150     0.1 7   77  36 
 PAM  SN ES   1    421 14.63                             150     0.1 7   77  36 
 RUS  HZ EP   1    420 58.78                             144    -0.2 7   97 178 
 RUS  HN ES   1    421 17.17                             144     0.3 7   97 178 
 RUS  HZ I         421 18.47        10.6 0.36                            97 178 
 BRI  SZ EP   1    420 59.76                             140     0.3 7  110  18 
 BRI  SZ ES   1    421 18.19                             140     0.4 7  110  18 
 BRI  SZ I         421 19.74        23.1 0.27                           110  18 
 GRA  SZ IP        421  0.92                             135     0.010  128  15 
 GRA  SZ ES   1    421 20.00                             135    -0.4 7  128  15 
 GRA  SZ I         421 21.44        17.8 0.48                           128  15 
 OCA  SZ EP   2    421  3.97                             128    -0.3 5  164 352 
 OCA  SZ ES   2    421 25.60                             128    -0.7 5  164 352 
 OCA  SZ I         421 28.69        12.1 0.43                           164 352 
 NOR  SZ EP   1    421 11.52                             117    -0.1 6  236 236 
 NOR  SN ES   2    421 38.62                             117    -0.7 4  236 236 
 CHI  HZ EP   1    421 13.33                             116     0.2 6  247 196 
 CHI  HE ES   1    421 41.49                             116    -0.7 6  247 196 
 CHI  HZ I         421 45.57         5.0 0.67                           247 196 
 RREF HZ EP   2    421 22.13                             110     0.1 3  323 230 
 RREF HN ES   1    421 58.66                             110     0.7 5  323 230 
 RREF HZ I         422  3.02         6.5 0.67                           323 230 
 PRA  HZ EP   1    421 29.92                             106     0.7 4  391 210 
                                                                                
