 2017  316 0446 40.2 L   6.757 -73.171134.5  RSN  7 0.2 1.4LRSN                1
 GAP=135        0.63       2.5     2.6  4.1 -0.2213E+00  0.2937E+01  0.9108E-01E
 Epicentro: LOS SANTOS - SANTANDER                                             3
 ACTION:UPD 17-05-25 18:41 OP:jn   STATUS:               ID:20170316044640 L   I
 OLDACT:REG 17-03-16 13:09 OP:cara STATUS:               ID:20170316043748     3
 2017-03-16-0438-00M.COL___400                                                 6
 STAT SP IPHASW D HRMM SECON CODA AMPLIT PERI AZIMU VELO AIN AR TRES W  DIS CAZ7
 BAR2 EZ EP        446 58.33                             172   -0.0510 18.3 184 
 BAR2 EZ ES        447 12.63                             172    0.0710 18.3 184 
 BAR2 EZ I         447 14.21         9.4 0.70            172           18.3 184 
 BRR  HZ EP        447  0.28                             150    0.1310 71.2 303 
 BRR  HN ES        447 16.12                             150    0.4210 71.2 303 
 BRR  HZ I         447 21.86         4.3 0.28            151           71.2 303 
 PAM  EZ EP        447  1.39                             147   -0.2010 82.8  39 
 PAM  EN ES        447 18.07                             147   -0.2010 82.8  39 
 PAM  EZ I         447 20.47         8.3 0.68            151           82.8  39 
 RUS  HZ EP        447  2.42                             143   -0.1110 96.1 174 
 RUS  HN ES        447 20.06                             143    0.1210 96.1 174 
 RUS  HZ I         447 21.63         1.4 0.20            146           96.1 174 
 PTB  HZ EP        447  6.19                             130    0.25 9  144 260 
 PTB  HN ES        447 25.45                             130   -0.56 9  144 260 
 PTB  HZ I         447 28.28         4.8 0.12            132            144 260 
 SPBC HZ EP        447  7.54                             127    0.21 9  158 219 
 SPBC HN ES        447 28.36                             127   -0.13 9  158 219 
 SPBC HZ I         447 33.85         2.1 0.36            130            158 219 
 ZAR  HZ EP        447 12.00                             120    0.14 9  203 294 
 ZAR  HN ES        447 36.43                             120   -0.12 9  203 294 
 ZAR  HZ I         447 39.32         2.8 0.64            122            203 294 
                                                                                
