 2011 1016 0358 23.7 L   6.760 -73.025141.6  RSN  5 0.3 1.6LRSN                1
 GAP=155        0.71       4.6     7.4  7.0 -0.6844E+00 -0.3051E+01 -0.5079E+01E
 Epicentro: CEPITA - SANTANDER                                                 3
 ACTION:UPD 12-07-13 16:04 OP:ep   STATUS:               ID:20111016035823 L   I
 2011-10-16-0356-51S.COL___168                                                 6
 STAT SP IPHASW D HRMM SECON CODA AMPLIT PERI AZIMU VELO AIN AR TRES W  DIS CAZ7
 BAR2 SZ EP   1    358 43.01                             169    0.17 7 25.4 223 
 BAR2 SZ ES   1    358 58.07                             169    0.27 7 25.4 223 
 BAR2 SZ I         358 59.24         8.7 0.55                          25.4 223 
 PAM  SZ EP   1    358 45.80                             151    0.60 7 73.4  29 
 PAM  SN ES   1    359  1.70                             151   -0.30 7 73.4  29 
 BRR  HZ EP   1    358 44.96                             147   -0.26 7 85.0 297 
 BRR  HZ I         358 46.51        15.4 0.15                          85.0 297 
 BRR  HN ES   1    359  2.19                             147    0.15 7 85.0 297 
 RUS  HZ EP   1    358 46.88                             144    0.19 7 96.2 184 
 RUS  HN ES   1    359  4.19                             144   -0.46 7 96.2 184 
 RUS  HZ I         359  7.12         2.0 0.21                          96.2 184 
 OCA  SZ EP   1    358 51.82                             127   -0.45 7  167 349 
 OCA  SZ I         359 18.52         7.3 0.32                           167 349 
                                                                                
