 2017 1016 0010 35.0 L   6.789 -73.162152.0  RSN  6 0.4 1.3LRSN                1
 GAP=135        0.87       5.6     4.8  7.3  0.1056E+02 -0.4074E+01 -0.8526E+01E
 Epicentro: LOS SANTOS - SANTANDER                                             3
 ACTION:UPD 17-11-07 19:32 OP:rebc STATUS:               ID:20171016001035 L   I
 OLDACT:UP  17-10-16 13:30 OP:dani STATUS:               ID:20171016000740d    3
 OLDACT:DUP 17-10-16 13:28 OP:dani STATUS:               ID:20171016000740d    3
 OLDACT:UP  17-10-16 13:23 OP:dani STATUS:               ID:20171016000739     3
 OLDACT:UP  17-10-16 13:23 OP:dani STATUS:               ID:20171016000739     3
 OLDACT:UP  17-10-16 13:23 OP:dani STATUS:               ID:20171016000739     3
 OLDACT:UP  17-10-16 13:21 OP:dani STATUS:               ID:20171016000739     3
 OLDACT:REG 17-10-16 12:10 OP:dani STATUS:               ID:20171016000739     3
 2017-10-16-0008-00M.COL___438                                                 6
 STAT SP IPHASW D HRMM SECON CODA AMPLIT PERI AZIMU VELO AIN AR TRES W  DIS CAZ7
 BAR2 EZ EP        010 54.94                             172   -0.4210 21.9 186 
 BAR2 EZ ES   1    011 10.81                             172   -0.42 7 21.9 186 
 BRR  HZ EP        010 56.90                             154    0.1210 70.2 300 
 BRR  HN ES        011 14.12                             154    0.3610 70.2 300 
 BRR  HZ I         011 16.96         4.6 0.26            151           70.2 300 
 PAM  EZ EP        010 57.88                             151   -0.1310 79.5  40 
 RUS  HZ EP        010 59.70                             146    0.4010 99.5 175 
 RUS  HN ES        011 18.51                             146    0.2610 99.5 175 
 RUS  HZ I         011 19.91         1.0 0.18            147           99.5 175 
 PTB  HZ EP        011  1.87                             134   -0.44 9  146 259 
 PTB  HN ES        011 23.32                             134   -0.29 9  146 259 
 PTB  HZ I         011 28.85         1.9 0.54            133            146 259 
 ZAR  HZ EP   3    011  9.61                             124    1.87 2  203 293 
 ZAR  HN ES        011 33.53                             124    0.25 9  203 293 
 ZAR  HZ I         011 39.25         3.9 0.09            124            203 293 
                                                                                
