 2016  716 0557 52.0 L   6.807 -73.127142.0  RSN  8 0.5 1.8LRSN                1
 GAP=240        1.20       6.5     6.4  7.6  0.1489E+02  0.1569E+02  0.8004E+01E
 Epicentro: LOS SANTOS - SANTANDER                                             3
 ACTION:UPD 17-03-29 16:51 OP:lp   STATUS:               ID:20160716055752 L   I
 OLDACT:REG 16-07-16 12:19 OP:lv   STATUS:               ID:20160716054759     3
 2016-07-16-0547-59S.COL___322                                                 6
 STAT SP IPHASW D HRMM SECON CODA AMPLIT PERI AZIMU VELO AIN AR TRES W  DIS CAZ7
 BAR2 EZ EP        558 10.85                             170   -0.3310 24.5 194 
 BAR2 EZ ES        558 26.11                             170   -0.0510 24.5 194 
 BAR2 EZ I         558 27.29        20.6 0.23            167           24.5 194 
 BRR  HZ EP        558 12.72                             151   -0.0810 72.6 297 
 BRR  HN ES        558 29.89                             151    0.8410 72.6 297 
 BRR  HZ I         558 30.47        13.4 0.10            149           72.6 297 
 RUS  HZ EP        558 14.96                             143   -0.4510  101 177 
 RUS  HN ES        558 34.26                             143    0.5810  101 177 
 RUS  HZ I         558 34.72         6.3 0.28            144            101 177 
 PTB  HZ EP        558 18.85                             131    0.01 9  150 259 
 PTB  HN ES        558 39.13                             131   -0.66 9  150 259 
 SPBC HZ EP        558 20.00                             128   -0.37 9  165 219 
 SPBC HN ES        558 42.22                             128   -0.29 9  165 219 
 SPBC HZ I         558 46.59         9.3 0.11            128            165 219 
 ZAR  HN ES        558 49.09                             122   -0.50 8  206 292 
 ZAR  HZ I         558 55.74         6.6 0.27            121            206 292 
 GUY2CHZ EP        558 36.23                             112    0.58 7  303 235 
 GUY2CHN ES   4    559 13.67                             112    3.96 0  303 235 
 GUY2CHZ I         559 17.25         2.8 0.30                           303 235 
 CBOC HZ EP        558 39.69                             109    0.70 7  336 252 
 CBOC HN ES        559 16.43                             109    0.78 7  336 252 
 CBOC HZ I         559 19.18         1.1 0.15            110            336 252 
                                                                                
