 2016  516 0242 36.5 L   6.832 -73.136145.5  RSN  4 0.3 1.7LRSN                1
 GAP=260        0.81       6.4     5.8  7.8  0.8833E+01  0.1201E+02  0.2247E+00E
 Epicentro: LOS SANTOS - SANTANDER                                             3
 ACTION:UPD 16-08-18 17:46 OP:cam  STATUS:               ID:20160516024236 L   I
 OLDACT:UP  16-05-16 18:14 OP:mh   STATUS:               ID:20160516023746     3
 OLDACT:REG 16-05-16 12:39 OP:mh   STATUS:               ID:20160516023746     3
 2016-05-16-0237-46M.COL___283                                                 6
 STAT SP IPHASW D HRMM SECON CODA AMPLIT PERI AZIMU VELO AIN AR TRES W  DIS CAZ7
 BAR2 EZ EP        242 55.67                             169   -0.5110 27.0 191 
 BAR2 EZ ES        243 11.82                             169    0.2910 27.0 191 
 BAR2 EZ I         243 14.30         7.2 0.21            165           27.0 191 
 PTB  HZ EP        243  3.78                             132    0.18 9  149 258 
 PTB  HN ES        243 24.33                             132   -0.41 9  149 258 
 PTB  HZ I         243 32.14         6.5 0.32            132            149 258 
 SPBC HZ EP        243  5.62                             128    0.32 9  167 218 
 SPBC HN ES        243 27.78                             128    0.01 9  167 218 
 SPBC HZ I         243 31.34         7.0 0.11            129            167 218 
 ZAR  HE ES        243 34.38                             122    0.22 9  204 291 
                                                                                
