 2016  216 0530 29.0 L   7.178 -73.120124.7  RSN  5 0.4 1.0LRSN                1
 GAP=166        1.04       5.9     5.1  8.4 -0.7188E+01  0.5864E+01  0.1822E+02E
 Epicentro: BUCARAMANGA - SANTANDER                                            3
 ACTION:UPD 16-03-04 21:26 OP:rebc STATUS:               ID:20160216053029 L   I
 OLDACT:REG 16-02-16 12:26 OP:drio STATUS:               ID:20160216052749     3
 2016-02-16-0527-49M.COL___310                                                 6
 STAT SP IPHASW D HRMM SECON CODA AMPLIT PERI AZIMU VELO AIN AR TRES W  DIS CAZ7
 PAM  EZ EP        530 47.34                             157   -0.0810 49.8  69 
 PAM  EE ES        531  1.80                             157    0.0110 49.8  69 
 PAM  EZ I         531  3.36         2.2 0.20            161           49.8  69 
 BRR  HZ EP        530 47.11                             150   -0.4710 65.8 263 
 BRR  HN ES        531  2.20                             150    0.1410 65.8 263 
 BRR  HZ I         531  2.77         2.9 0.36            150           65.8 263 
 RUS  HZ EP        530 55.10                             128    0.66 9  142 178 
 RUS  HN ES        531 14.19                             128   -0.09 9  142 178 
 RUS  HZ I         531 15.23         1.4 0.34            129            142 178 
 PTB  HZ EP        530 55.59                             124   -0.34 9  164 245 
 PTB  HE ES        531 17.52                             124    0.59 9  164 245 
 PTB  HZ I         531 20.30         1.3 0.56            124            164 245 
 SPBC HZ EP        531  0.04                             118    0.32 9  199 212 
 SPBC HE ES        531 22.93                             118   -0.75 9  199 212 
 SPBC HZ I         531 28.87         1.3 0.26            119            199 212 
                                                                                
