 2012  516 0054 55.5 L   6.752 -73.218151.6  RSN  4 0.2 1.3LRSN                1
 GAP=225        0.52       5.8     5.8  6.9  0.2056E+02 -0.1482E+01 -0.1612E+01E
 Epicentro: VILLANUEVA - SANTANDER                                             3
 ACTION:UP  12-07-05 12:05 OP:pat  STATUS:               ID:20120516005455 L   I
 2012-05-16-0050-00M.COL___195                                                 6
 STAT SP IPHASW D HRMM SECON CODA AMPLIT PERI AZIMU VELO SNR AR TRES W  DIS CAZ7
 BRR  HZ EP   1    055 17.18                             155     0.2 7   67 306 
 BRR  HE ES   1    055 33.64                             155    -0.2 7   67 306 
 BRR  HZ I         055 34.50         8.2 0.41                            67 306 
 RUS  HZ EP   1    055 19.45                             146     0.0 7   96 171 
 RUS  HN ES   1    055 38.37                             146     0.2 7   96 171 
 RUS  HZ I         055 39.00         1.4 0.33                            96 171 
 PTB  HZ EP   1    055 21.93                             135    -0.2 7  139 260 
 PTB  HN ES   1    055 42.85                             135    -0.1 7  139 260 
 PTB  HZ I         055 44.71         2.1 0.38                           139 260 
 ZAR  HN ES   2    055 53.57                             124     0.6 4  199 294 
                                                                                
