 2016  716 0049 10.5 L   6.541 -73.567112.0  RSN  6 0.5 1.1LRSN                1
 GAP= 97        1.33       6.8     6.2 12.3  0.9774E+01  0.2473E+02  0.3354E+02E
 Epicentro: EL CARMEN - SANTANDER                                              3
 ACTION:UPD 17-03-29 16:51 OP:lp   STATUS:               ID:20160716004910 L   I
 OLDACT:DUP 16-07-16 13:33 OP:lv   STATUS:               ID:20160716003760d    3
 2016-07-16-0037-59S.COL___331                                                 6
 STAT SP IPHASW D HRMM SECON CODA AMPLIT PERI AZIMU VELO AIN AR TRES W  DIS CAZ7
 BAR2 EZ EP   2    049 26.91                             158    0.15 5 42.9  82 
 BAR2 EZ ES        049 39.10                             158   -0.3810 42.9  82 
 BRR  HE ES        049 41.85                             148    0.8210 64.6 346 
 RUS  HZ EP        049 29.89                             139   -0.2510 89.5 143 
 RUS  HE ES        049 45.33                             139   -0.1710 89.5 143 
 RUS  HZ I         049 47.23         1.7 0.18            142           89.5 143 
 PTB  HZ EP        049 29.77                             136   -0.4510 98.4 270 
 PTB  HN ES        049 44.91                             136   -0.7310 98.4 270 
 PTB  HZ I         049 49.54         3.2 0.11            137           98.4 270 
 SPBC HZ EP        049 32.21                             131    0.5810  113 210 
 SPBC HN ES        049 48.72                             131    0.5810  113 210 
 SPBC HZ I         049 51.37         3.6 0.10            132            113 210 
 GUY2CHZ EP   4    049 49.02                             109    2.64 0  247 234 
 GUY2CHN ES   4    050 18.73                             109    4.33 0  247 234 
 GUY2CHZ I         050 19.33         1.0 0.24                           247 234 
                                                                                
