 2015  416 0550 56.0 L   6.805 -73.140148.5  RSN 16 0.5 3.1LRSN                1
 GAP=119        1.22       2.9     3.8  5.6 -0.4233E+00  0.4737E+01  0.2522E+01E
 Epicentro: LOS SANTOS - SANTANDER                                             3
 ACTION:UPD 15-06-03 16:55 OP:cam  STATUS:               ID:20150416055056 L   I
 OLDACT:REG 15-04-16 13:03 OP:carl STATUS:               ID:20150416054748     3
 2015-04-16-0547-48M.COL___275                                                 6
 STAT SP IPHASW D HRMM SECON CODA AMPLIT PERI AZIMU VELO AIN AR TRES W  DIS CAZ7
 BAR2 EZ IP     D  551 16.23                             170    0.2710 24.0 191 
 BAR2 EZ ES        551 30.96                             170   -0.5810 24.0 191 
 BAR2 EZ I         551 32.38       230.0 0.20            167           24.0 191 
 BRR  HZ IP     C  551 17.96                             153    0.5110 71.5 298 
 BRR  HN ES        551 35.24                             153    1.0510 71.5 298 
 BRR  HZ I         551 36.13       127.3 0.14            150           71.5 298 
 PAM  SZ EP        551 19.01                             152    0.5610 76.6  39 
 PAM  SN ES        551 36.07                             152    0.1010 76.6  39 
 PAM  SZ I         551 38.32       244.7 0.44            156           76.6  39 
 RUS  HZ EP        551 20.22                             144    0.1810  101 176 
 RUS  HN ES        551 39.26                             144    0.4510  101 176 
 RUS  HZ I         551 39.89       157.5 0.24            144            101 176 
 PTB  HZ EP        551 22.69                             133   -0.55 9  148 259 
 PTB  HN ES        551 43.82                             133   -0.68 9  148 259 
 PTB  HZ I         551 50.91       150.6 0.24            131            148 259 
 OCA  HZ EP        551 24.20                             130   -0.27 9  160 353 
 OCA  HN ES        551 46.12                             130   -0.56 9  160 353 
 OCA  HZ I         551 49.58       210.2 0.18            132            160 353 
 SPBC HZ EP        551 25.13                             130    0.36 9  164 219 
 SPBC HN ES        551 47.02                             130   -0.21 9  164 219 
 SPBC HZ I         551 49.67       209.0 0.38            129            164 219 
 ZAR  HZ EP        551 28.40                             123   -0.25 9  204 292 
 ZAR  HN ES        551 53.86                             123   -0.26 9  204 292 
 ZAR  HZ I         551 59.63        86.4 0.40            122            204 292 
 NOR  HZ EP        551 32.18                             119    0.22 8  235 234 
 NOR  HN ES        551 59.45                             119   -0.57 8  235 234 
 NOR  HZ I         552  8.08       102.4 0.16            119            235 234 
 SML  HZ EP        551 32.54                             118   -0.20 8  243 335 
 SML  HN ES        552  1.04                             118   -0.37 8  243 335 
 SML  HZ I         552  4.54       191.9 0.10            119            243 335 
 ROSC BZ EP   4    551 35.88                             117    1.54 0  254 211 
 ROSC BN ES   4    552  7.19                             117    2.93 0  254 211 
 ROSC BZ I         552 14.28        87.1 0.30            117            254 211 
 HEL  HZ EP        551 36.91                             115    0.49 8  273 256 
 HEL  HN ES        552  7.52                             115   -0.44 8  273 256 
 HEL  HZ I         552 13.91        65.5 0.26            115            273 256 
 GUY2CHZ EP        551 40.23                             113    0.42 7  302 235 
 GUY2CHN ES        552 14.42                             113    0.42 7  302 235 
 GUY2CHZ I         552 20.36        49.2 0.34                           302 235 
 VIL  SZ EP        551 39.79                             113    0.19 7  304 192 
 VIL  SN ES        552 14.11                             113    0.48 7  304 192 
 VIL  SZ I         552 16.97        92.2 0.44            113            304 192 
 PTGC HZ EP        551 39.26                             112   -0.74 7  309 159 
 PTGC HN ES        552 12.95                             112   -1.38 7  309 159 
 PTGC HZ I         552 17.60        68.7 0.28            113            309 159 
 CBOC HZ EP        551 43.80                             110    0.70 7  334 252 
 CBOC HN ES        552 19.86                             110    0.01 7  334 252 
 CBOC HZ I         552 36.82        18.3 0.70            110            334 252 
 SJC  HZ EP   4    551 49.85                             106   -1.77 0  409 327 
 SJC  HN ES   4    552 31.26                             106   -3.76 0  409 327 
                                                                                
