 2012 1116 0604 45.3 L   6.767 -73.169148.0  RSN 14 0.4 1.7LRSN                1
 GAP= 71        0.79       3.2     3.4  6.0 -0.4027E+00  0.7149E+01 -0.1137E+01E
 Epicentro: LOS SANTOS - SANTANDER                                             3
 ACTION:UPD 12-12-05 15:33 OP:}ep  STATUS:               ID:20121116060445 L   I
 2012-11-16-0600-00M.COL___233                                                 6
 STAT SP IPHASW D HRMM SECON CODA AMPLIT PERI AZIMU VELO AIN AR TRES W  DIS CAZ7
 BAR2 SZ EP   1    6 5  5.31                             172    0.17 7 19.3 184 
 BAR2 SZ ES   1    6 5 21.09                             172    0.48 7 19.3 184 
 BAR2 SZ I         6 5 21.99        22.1 0.36                          19.3 184 
 GIR2 SZ EP   1    6 5  5.24                             166   -0.11 7 34.6 356 
 GIR2 SZ ES   1    6 5 20.34                             166   -0.63 7 34.6 356 
 BRR  HZ EP     D  6 5  7.13                             153    0.4410 70.8 302 
 BRR  HN ES   4    6 5 24.69                             153    1.34 0 70.8 302 
 BRR  HZ I         6 5 27.07         8.0 0.14                          70.8 302 
 PAM  SZ EP   1    6 5  8.09                             150    0.05 7 81.9  39 
 PAM  SN ES   1    6 5 25.33                             150   -0.44 7 81.9  39 
 PAM  SZ I         6 5 25.90         4.2 0.29                          81.9  39 
 RUS  HZ EP   1    6 5  9.35                             145    0.30 7 97.1 174 
 RUS  HN ES   1    6 5 27.16                             145   -0.39 7 97.1 174 
 RUS  HN I         6 5 28.39         9.2 0.32                          97.1 174 
 RUS  HZ I         6 5 29.10         4.5 0.30                          97.1 174 
 PTB  HZ EP   1    6 5 12.48                             133    0.30 7  145 260 
 PTB  HN ES   1    6 5 33.13                             133    0.00 7  145 260 
 TAM  HN ES   1    6 5 35.25                             131    0.08 7  157 103 
 OCA  HN ES   1    6 5 37.41                             129    0.83 7  164 354 
 ZAR  HZ EP   1    6 5 17.62                             123   -0.19 6  203 293 
 ZAR  HE ES   1    6 5 43.01                             123   -0.14 6  203 293 
 ZAR  HZ I         6 5 50.50         7.6 0.28                           203 293 
 NOR  HN ES   1    6 5 48.75                             119    0.41 6  230 235 
 NOR  HZ I         6 5 54.82         4.1 0.16                           230 235 
 CHI  HZ EP   1    6 5 22.15                             118   -0.53 6  244 195 
 CHI  HZ I         6 5 56.85         2.6 0.27                           244 195 
 SML  HZ EP   1    6 5 21.58                             118   -0.74 6  246 336 
 SML  HN ES   1    6 5 50.76                             118   -0.41 6  246 336 
 HEL  HN ES   1    6 5 55.93                             115   -0.50 6  269 256 
 HEL  HZ I         6 6  6.53         2.1 0.24                           269 256 
 COD  HN ES   2    6 6 12.69                             109    0.40 3  352 355 
                                                                                
