 2014 1116 0113 24.6 L   6.781 -73.161143.5  RSN 10 0.5 1.8LRSN                1
 GAP= 91        1.31       6.3     4.7  7.5 -0.5884E+01  0.5298E+01  0.1054E+02E
 Epicentro: LOS SANTOS - SANTANDER                                             3
 ACTION:UPD 14-12-19 15:43 OP:nd   STATUS:               ID:20141116011324 L   I
 OLDACT:ARG 14-11-16 13:31 OP:stll STATUS:               ID:20141116010743     3
 2014-11-16-0107-43M.COL___287                                                 6
 STAT SP IPHASW D HRMM SECON CODA AMPLIT PERI AZIMU VELO AIN AR TRES W  DIS CAZ7
 BAR2 SZ EP        113 43.92                             171   -0.0110 21.0 187 
 BAR2 SZ I         113 44.00        16.7 0.20            172           21.0 187 
 BAR2 SZ ES        113 59.18                             171    0.1910 21.0 187 
 BRR  HZ IP     D  113 45.76                             152    0.2610 70.8 301 
 BRR  HN ES        114  2.26                             152    0.4710 70.8 301 
 BRR  HZ I         114  8.05         9.0 0.16            143           70.8 301 
 PAM  SZ EP        113 46.71                             150   -0.0510 80.1  39 
 PAM  SN ES        114  3.66                             150   -0.3610 80.1  39 
 PAM  SZ I         114  5.99        15.0 0.52            146           80.1  39 
 RUS  HZ EP        113 47.79                             144   -0.2110 98.6 175 
 RUS  HZ I         113 48.80         4.4 0.28            149           98.6 175 
 RUS  HN ES        114  6.52                             144    0.2810 98.6 175 
 PTB  HZ EP        113 50.52                             132   -0.70 9  146 260 
 PTB  HN ES        114 11.51                             132   -0.45 9  146 260 
 PTB  HZ I         114 17.82        11.8 0.62            128            146 260 
 TAM  HZ IP     D  113 52.11                             130   -0.11 9  156 104 
 TAM  HZ I         113 52.23        14.8 0.20            133            156 104 
 SPBC HZ EP        113 52.73                             129    0.04 9  160 219 
 NOR  HZ EP        113 59.58                             118   -0.36 8  232 235 
 NOR  HN ES        114 27.55                             118    0.06 8  232 235 
 NOR  HZ I         114 30.53         5.4 0.58            117            232 235 
 HEL  HZ EP        114  6.36                             114    1.88 8  270 256 
 HEL  HN ES        114 34.92                             114   -0.65 8  270 256 
 HEL  HZ I         114 42.57         5.4 0.30            112            270 256 
 MON  HZ EP   9    114 11.21                             108   -2.33 0  354 309 
 MON  HN ES        114 48.40                                   -0.96 6  354 309 
 MON  HZ I         115 10.31         1.7 0.60            106            354 309 
                                                                                
