 2011  616 0047 32.5 L   6.748 -73.100146.9  RSN 10 0.2 2.2LRSN                1
 GAP=145        0.55       2.6     4.2  4.4 -0.5135E+01  0.1069E+01  0.7329E+00E
 Epicentro: LOS SANTOS - SANTANDER                                             3
 ACTION:UP  11-07-14 19:05 OP:ep   STATUS:               ID:20110616004732 L   I
 2011-06-16-0042-45S.COL___138                                                 6
 STAT SP IPHASW D HRMM SECON CODA AMPLIT PERI AZIMU VELO SNR AR TRES W  DIS CAZ7
 BAR2 SZ IP        047 52.21                             172     0.010   20 208 
 BAR2 SZ I         047 52.41        29.8 0.21                            20 208 
 BAR2 SZ ES   1    048  7.30                             172    -0.3 7   20 208 
 GIR2 SZ EP   1    047 52.45                             165    -0.1 7   38 344 
 BRR  HZ IP     C  047 54.25                             150     0.010   78 300 
 BRR  HZ I         047 54.59        81.9 0.07                            78 300 
 BRR  HE ES   1    048 11.62                             150     0.5 7   78 300 
 PAM  SZ EP   1    047 55.23                             150     0.3 7   79  34 
 PAM  SE ES   2    048 12.65                             150     0.2 5   79  34 
 RUS  HZ EP   1    047 56.01                             146     0.1 7   95 179 
 RUS  HN ES   2    048 14.00                             146    -0.2 5   95 179 
 RUS  HZ I         048 15.40        22.7 0.39                            95 179 
 BRI  SZ EP   1    047 57.04                             141     0.2 7  112  17 
 BRI  SZ I         047 57.83        19.9 0.37                           112  17 
 BRI  SZ ES   1    048 15.89                             141     0.1 7  112  17 
 GRA  SZ IP        047 58.26                             136     0.110  130  15 
 GRA  SZ I         047 59.76        30.1 0.30                           130  15 
 GRA  SZ ES   1    048 17.91                             136    -0.3 7  130  15 
 OCA  SZ EP   1    048  1.25                             129    -0.3 7  167 352 
 OCA  SZ ES   1    048 23.72                             129    -0.4 7  167 352 
 OCA  SZ I         048 27.56        21.6 0.19                           167 352 
 NOR  SZ EP   1    048  8.22                             119    -0.2 6  236 236 
 NOR  SN ES   1    048 36.36                             119     0.0 6  236 236 
 CHI  HN ES   2    048 38.92                             118     0.0 4  245 197 
 CHI  HZ I         048 41.59         4.8 0.75                           245 197 
                                                                                
