 2016 1216 0906 40.8 L   6.793 -73.138149.2  RSN  6 0.2 1.2LRSN                1
 GAP=138        0.61       3.2     2.8  4.5  0.7752E+00  0.2313E+01  0.2455E+00E
 Epicentro: LOS SANTOS - SANTANDER                                             3
 ACTION:UPD 17-01-11 20:15 OP:rebc STATUS:               ID:20161216090640 L   I
 OLDACT:REG 16-12-16 12:54 OP:and  STATUS:               ID:20161216085749     3
 2016-12-16-0858-00M.COL___332                                                 6
 STAT SP IPHASW D HRMM SECON CODA AMPLIT PERI AZIMU VELO AIN AR TRES W  DIS CAZ7
 BAR2 EZ EP        9 7  0.81                             171   -0.0510 22.7 192 
 BAR2 EZ ES        9 7 16.49                             171    0.0110 22.7 192 
 BAR2 EZ I         9 7 18.40         4.0 0.53            169           22.7 192 
 BRR  HZ EP        9 7  2.59                             153    0.1810 72.3 299 
 BRR  HN ES        9 7 19.35                             153    0.1110 72.3 299 
 PAM  EZ EP        9 7  3.73                             151    0.3210 77.5  39 
 PAM  EN ES        9 7 20.76                             151   -0.2710 77.5  39 
 PAM  EZ I         9 7 21.23         2.3 0.22            154           77.5  39 
 RUS  HZ EP        9 7  4.95                             145    0.0910 99.8 176 
 RUS  HN ES        9 7 23.52                             145   -0.0810 99.8 176 
 RUS  HZ I         9 7 25.72         2.6 0.28            145           99.8 176 
 PTB  HZ EP        9 7  7.64                             133   -0.49 9  148 259 
 PTB  HE ES        9 7 29.68                             133    0.25 9  148 259 
 PTB  HZ I         9 7 30.97         1.8 0.14            134            148 259 
 ZAR  HE ES        9 7 39.02                             123   -0.15 9  205 292 
                                                                                
