 2013  316 0744 46.0 L   6.183 -73.791 40.1  RSN  5 0.4 1.3LRSN                1
 GAP=158        0.78       8.1     3.5 13.1  0.1988E+01  0.2466E+02  0.2622E+02E
 Epicentro: LANDAZURI - SANTANDER                                              3
 ACTION:UPD 13-04-09 14:02 OP:ep   STATUS:               ID:20130316074446 L   I
 2013-03-16-0740-00M.COL___244                                                 6
 STAT SP IPHASW D HRMM SECON CODA AMPLIT PERI AZIMU VELO AIN AR TRES W  DIS CAZ7
 BAR2 SZ EP        745  2.94                             135   -0.0310 81.1  56 
 BAR2 SZ ES   1    745 16.43                             135    0.23 7 81.1  56 
 BAR2 SZ I         745 17.62        15.8 0.24            145           81.1  56 
 PTB  HZ EP   1    745  2.62                             134   -0.25 7 83.4 298 
 PTB  HN ES   2    745 15.62                             134   -0.40 5 83.4 298 
 PTB  HN I         745 20.70         6.0 0.38            140           83.4 298 
 RUS  HZ EP   2    745  2.78                             134   -0.85 5 84.7 112 
 RUS  HN ES   2    745 17.73                             134    0.36 5 84.7 112 
 RUS  HN I         745 18.54         4.4 0.36            146           84.7 112 
 ZAR  HN ES   2    745 35.47                             111   -0.05 4  187 321 
 ZAR  HN I         745 37.26         6.6 0.14            117            187 321 
 HEL  HZ EP   1    745 15.87                             111    0.95 7  192 270 
 HEL  HN ES        745 37.30                             111   -0.18 9  192 270 
                                                                                
