 2017  316 0559 26.2 L   6.484 -73.399126.9  RSN  5 0.3 1.4LRSN                1
 GAP=119        0.86       4.8     4.2  7.4  0.5933E+01  0.1095E+02 -0.5055E+00E
 Epicentro: SIMACOTA - SANTANDER                                               3
 ACTION:UPD 17-05-25 18:41 OP:jn   STATUS:               ID:20170316055926 L   I
 OLDACT:DUP 17-03-16 18:31 OP:cara STATUS:               ID:20170316055746d    3
 2017-03-16-0558-00M.COL___387                                                 6
 STAT SP IPHASW D HRMM SECON CODA AMPLIT PERI AZIMU VELO AIN AR TRES W  DIS CAZ7
 BAR2 EZ EP        559 43.85                             167    0.1910 26.7  63 
 BAR2 EZ ES        559 57.41                             167    0.1410 26.7  63 
 BAR2 EZ I         559 58.88        10.3 0.56            174           26.7  63 
 RUS  HZ EP        559 46.12                             148   -0.1310 74.1 152 
 RUS  HN ES        6 0  1.64                             148   -0.2410 74.1 152 
 RUS  HZ I         6 0  3.39         2.6 0.32            151           74.1 152 
 PTB  HZ EP        559 48.44                             134   -0.4510  117 273 
 PTB  HN ES        6 0  6.07                             134   -0.5010  117 273 
 PTB  HZ I         6 0  7.02         3.7 0.34            134            117 273 
 SPBC HZ EP        559 49.34                             134    0.2410  118 219 
 SPBC HN ES        6 0  7.38                             134    0.4310  118 219 
 SPBC HZ I         6 0 14.51         4.7 0.22            134            118 219 
 ZAR  HN ES        6 0 20.79                             119    0.41 9  196 305 
 ZAR  HZ I         6 0 27.42         2.3 0.36            120            196 305 
                                                                                
