 2014 1216 0822 51.0 L   6.736 -73.166151.2  RSN  4 0.4 0.9LRSN                1
 GAP=230        0.81       8.2     8.3  8.3  0.3569E+02  0.5807E+01  0.8507E+01E
 Epicentro: VILLANUEVA - SANTANDER                                             3
 ACTION:UPD 15-02-10 17:04 OP:nd   STATUS:               ID:20141216082251 L   I
 OLDACT:DUP 14-12-16 15:08 OP:spq  STATUS:               ID:20141216081748d    3
 2014-12-16-0817-46M.COL___287                                                 6
 STAT SP IPHASW D HRMM SECON CODA AMPLIT PERI AZIMU VELO AIN AR TRES W  DIS CAZ7
 BAR2 EZ EP   1    823 10.92                             174   -0.24 7 15.9 186 
 BAR2 EZ ES   1    823 26.23                             174   -0.65 7 15.9 186 
 BAR2 EZ I         823 27.47         2.6 0.20            168           15.9 186 
 BRR  HZ EP   1    823 12.55                             153   -0.28 7 73.0 304 
 BRR  HZ I         823 30.04         2.2 0.50            139           73.0 304 
 BRR  HE ES        823 30.31                             153    0.4410 73.0 304 
 RUS  HZ EP   1    823 15.07                             147    0.26 7 93.7 174 
 RUS  HN ES   1    823 33.73                             147    0.34 7 93.7 174 
 RUS  HZ I         823 35.55         0.8 0.34            142           93.7 174 
 PTB  HZ EP   1    823 18.27                             134    0.16 7  144 261 
 PTB  HN ES   1    823 38.85                             134   -0.40 7  144 261 
 PTB  HZ I         823 40.89         0.8 0.12            125            144 261 
                                                                                
