 2012  116 0300 41.8 L   6.799 -73.068138.5  RSN  6 0.2 1.6LRSN                1
 GAP=147        0.41       2.2     4.0  3.9  0.3608E+00  0.1540E+00 -0.1628E+01E
 Epicentro: LOS SANTOS - SANTANDER                                             3
 ACTION:UP  12-02-03 08:17 OP:REBC STATUS:               ID:20120116030041 L   I
 2012-01-16-0300-00M.COL___187                                                 6
 STAT SP IPHASW D HRMM SECON CODA AMPLIT PERI AZIMU VELO SNR AR TRES W  DIS CAZ7
 BAR2 SZ ES   1    3 1 15.24                             169    -0.1 7   26 209 
 BAR2 SZ I         3 1 16.82         8.0 0.27                            26 209 
 GIR2 SZ EP   1    3 1  0.80                             166     0.1 7   34 336 
 PAM  SZ EP   1    3 1  3.17                             151     0.2 7   72  34 
 PAM  SN ES   1    3 1 19.43                             151     0.0 7   72  34 
 BRR  HZ EP        3 1  2.55                             149    -0.110   79 296 
 BRR  HZ I         3 1  2.91         9.7 0.09                            79 296 
 BRR  HN ES   1    3 1 19.11                             149     0.2 7   79 296 
 RUS  HZ EP   1    3 1  4.79                             142     0.0 7  100 181 
 RUS  HE ES   1    3 1 22.64                             142    -0.1 7  100 181 
 OCA  SZ EP   1    3 1  9.67                             128     0.0 7  162 350 
 OCA  SZ ES   1    3 1 31.12                             128    -0.3 7  162 350 
 OCA  SZ I         3 1 34.36         3.4 0.40                           162 350 
                                                                                
