 2014  316 0704 16.4 L   6.960 -73.128152.0  RSN  6 0.2 1.4LRSN                1
 GAP=129        0.55       2.2     2.7  5.1  0.2939E+00  0.4366E+01 -0.1390E+01E
 Epicentro: PIEDECUESTA - SANTANDER                                            3
 OLDACT:DUP 14-03-16 12:46 OP:fm   STATUS:               ID:20140316065817d    3
 ACTION:UPD 14-04-09 23:17 OP:nd   STATUS:               ID:20140316070417dL   I
 OLDACT:DUP 14-03-16 12:51 OP:fm   STATUS:               ID:20140316065818d    3
 2014-03-16-0658-16M.COL___239                                                 6
 STAT SP IPHASW D HRMM SECON CODA AMPLIT PERI AZIMU VELO AIN AR TRES W  DIS CAZ7
 PAM  SZ EP        7 4 38.69                             157    0.2110 63.3  48 
 PAM  SE ES        7 4 55.69                             157   -0.0510 63.3  48 
 PAM  SZ I         7 5  5.28         2.1 1.48            159           63.3  48 
 RUS  HE EP        7 4 41.92                             140   -0.0910  118 178 
 RUS  HN ES        7 5  2.05                             140    0.0210  118 178 
 OCA  HN ES   2    7 5  4.20                             135   -0.66 5  143 352 
 PTB  HZ EP        7 4 44.28                             132   -0.11 9  154 253 
 PTB  HN ES        7 5  6.51                             132    0.24 9  154 253 
 PTB  SZ I         7 5 13.38         2.1 1.14            139            154 253 
 SPBC HE ES   4    7 5 11.79                             128    1.28 0  178 216 
 ZAR  HN ES        7 5 13.84                             124   -0.26 9  200 287 
 SML  HZ EP        7 4 51.59                             121   -0.15 8  229 333 
 SML  HN ES        7 5 19.70                             121    0.36 8  229 333 
 SML  SZ I         7 5 30.42         4.8 1.20            125            229 333 
                                                                                
