 2012  416 0105  3.6 L   6.262 -73.582 28.1  RSN  9 0.4 2.3LRSN                1
 GAP= 81        0.92       3.2     4.3  7.7 -0.6065E+01  0.2693E+02 -0.1238E+02E
 Epicentro: LA PAZ - SANTANDER                                                 3
 ACTION:UPD 12-07-05 11:53 OP:tino STATUS:               ID:20120416010503 L   I
 2012-04-16-0059-50M.COL___172                                                 6
 STAT SP IPHASW D HRMM SECON CODA AMPLIT PERI AZIMU VELO AIN AR TRES W  DIS CAZ7
 BAR2 SZ IP        1 5 14.17                             109     0.310   57  50 
 BAR2 SZ ES   1    1 5 21.70                             109    -0.2 7   57  50 
 BAR2 SZ I         1 5 23.05       288.1 0.10                            57  50 
 RUS  HZ EP        1 5 15.51                             104    -0.210   69 126 
 RUS  HN ES   1    1 5 24.98                             104    -0.2 7   69 126 
 RUS  HZ I         1 5 26.42        45.3 0.14                            69 126 
 BRR  HZ EP        1 5 18.65                              61     0.010   95 351 
 BRR  HE ES   1    1 5 30.70                              61     0.3 7   95 351 
 BRR  HZ I         1 5 32.80        77.7 0.12                            95 351 
 PAM  SZ EP   1    1 5 26.17                              61    -0.5 7  154  39 
 PAM  SN ES   1    1 5 44.60                              61    -0.1 7  154  39 
 PAM  SZ I         1 5 45.38        31.0 0.19                           154  39 
 NOR  SZ EP   1    1 5 27.38                              61     0.2 7  162 242 
 NOR  SN ES   1    1 5 45.65                              61     0.1 7  162 242 
 ZAR  HZ I         1 5 34.71        25.0 0.07                           196 314 
 ZAR  HN ES   1    1 5 52.28                              61    -0.7 6  196 314 
 HEL  HZ EP   1    1 5 34.61                              61     0.4 6  216 268 
 HEL  HN ES   1    1 5 57.58                              61    -0.6 6  216 268 
 HEL  HZ I         1 5 59.53        46.1 0.24                           216 268 
 OCA  SZ EP   1    1 5 35.44                              61     0.8 6  221   8 
 PRA  HZ EP   1    1 5 47.20                              60     0.8 5  317 207 
                                                                                
