 2015 1016 0620 10.1 L   6.787 -73.110148.6  RSN  6 0.4 1.6LRSN                1
 GAP=164        1.00       6.3     6.9  8.8  0.1343E+02 -0.7903E+01 -0.2369E+02E
 Epicentro: LOS SANTOS - SANTANDER                                             3
 ACTION:UPD 15-12-22 20:40 OP:cam  STATUS:               ID:20151016062010 L   I
 OLDACT:REG 15-10-16 12:34 OP:stll STATUS:               ID:20151016061737     3
 2015-10-16-0617-37M.COL___339                                                 6
 STAT SP IPHASW D HRMM SECON CODA AMPLIT PERI AZIMU VELO AIN AR TRES W  DIS CAZ7
 BAR2 EZ EP        620 30.19                             171    0.1410 23.0 200 
 BAR2 EZ ES        620 45.11                             171   -0.5110 23.0 200 
 BAR2 EZ I         620 48.77         4.6 0.20            168           23.0 200 
 BRR  HZ EP        620 31.87                             152    0.0910 75.3 298 
 BRR  HN ES        620 48.83                             152    0.1310 75.3 298 
 BRR  HZ I         620 53.96         3.6 0.16            150           75.3 298 
 PAM  EZ EP        620 32.97                             152    0.4410 76.1  37 
 PAM  EZ I         620 33.15        16.6 0.18            157           76.1  37 
 OCA  HN ES        621  1.49                             130    0.30 9  162 352 
 ZAR  HE ES        621  9.31                             122    0.38 8  208 292 
 ZAR  HZ I         621 14.08         4.1 0.40            123            208 292 
 SML  HZ EP        620 46.34                             118   -0.85 8  247 335 
 SML  HE ES        621 15.69                             118   -0.44 8  247 335 
 SML  HZ I         621 16.86         6.2 0.24            120            247 335 
                                                                                
