 2011 1116 0239 59.9 L   6.811 -73.132138.3  RSN  5 0.4 1.6LRSN                1
 GAP=138        0.77       5.5     7.0  8.6  0.1039E+02  0.1537E+02  0.5999E+01E
 Epicentro: LOS SANTOS - SANTANDER                                             3
 ACTION:UPD 12-07-13 16:10 OP:ep   STATUS:               ID:20111116023959 L   I
 2011-11-16-0237-12S.COL___179                                                 6
 STAT SP IPHASW D HRMM SECON CODA AMPLIT PERI AZIMU VELO AIN AR TRES W  DIS CAZ7
 BAR2 SZ EP   1    240 18.59                             169   -0.04 7 24.8 193 
 BAR2 SZ ES   1    240 32.58                             169   -0.69 7 24.8 193 
 BAR2 SZ I         240 34.72         8.6 0.32                          24.8 193 
 BRR  HZ EP        240 20.38                             151    0.1210 72.0 297 
 BRR  HE ES   1    240 36.60                             151    0.43 7 72.0 297 
 BRR  HZ I         240 40.48         7.0 0.16                          72.0 297 
 PAM  SN ES   1    240 37.85                             150    0.05 7 75.5  39 
 RUS  HZ EP   1    240 22.67                             142   -0.31 7  102 177 
 RUS  HZ I         240 23.81         4.2 0.17                           102 177 
 RUS  HE ES   1    240 41.51                             142    0.51 7  102 177 
 ZAR  HN ES   2    240 56.47                             120   -0.48 4  205 292 
 ZAR  HZ I         241  3.53         5.2 0.31                           205 292 
                                                                                
