 2016  816 0115 35.9 L   6.553 -73.509112.4  RSN 15 0.5 1.8LRSN                1
 GAP= 64        1.13       2.7     3.2  5.5 -0.1976E+01  0.6942E+01  0.1391E+00E
 Epicentro: EL CARMEN - SANTANDER                                              3
 ACTION:UPD 16-10-29 15:35 OP:rebc STATUS:               ID:20160816011535 L   I
 OLDACT:REG 16-08-16 12:30 OP:ak   STATUS:               ID:20160816010759     3
 2016-08-16-0107-59S.COL___349                                                 6
 STAT SP IPHASW D HRMM SECON CODA AMPLIT PERI AZIMU VELO AIN AR TRES W  DIS CAZ7
 BAR2 EZ IP     D  115 52.09                             160    0.0910 36.4  83 
 BAR2 EZ ES        116  4.82                             160    0.2810 36.4  83 
 BAR2 EZ I         116  5.75        59.8 0.32                          36.4  83 
 BRR  HZ EP        115 52.85                             147   -0.3410 65.3 340 
 BRR  HE ES        116  6.67                             147    0.0110 65.3 340 
 BRR  HZ I         116 12.45        11.1 0.14                          65.3 340 
 RUS  HZ EP        115 55.16                             139   -0.2910 86.9 147 
 RUS  HE ES        116 11.14                             139    0.4610 86.9 147 
 RUS  HZ I         116 12.24         9.3 0.40                          86.9 147 
 PTB  HZ IP   9 C  115 54.91                             133   -1.38 0  105 269 
 PTB  HN ES        116  9.90                                   -0.8910  105 269 
 PTB  HZ I         116 13.65        11.2 0.30                           105 269 
 SPBC HZ EP        115 56.87                             130   -0.6710  117 212 
 SPBC HN ES        116 13.47                             130   -0.9310  117 212 
 SPBC HZ I         116 19.39        36.1 0.14                           117 212 
 PAM  EZ EP   2    115 58.38                             128   -0.39 5  125  46 
 PAM  EN ES        116 16.41                             128   -0.1710  125  46 
 PAM  EZ I         116 18.02         9.5 0.33                           125  46 
 ZAR  HZ EP        116  4.09                             117    0.10 9  182 305 
 ZAR  HN ES        116 25.94                             117    0.07 9  182 305 
 ZAR  HZ I         116 30.48        13.8 0.32                           182 305 
 NOR  HZ EP        116  3.91                             116   -0.61 9  186 234 
 NOR  HN ES        116 27.15                             116    0.33 9  186 234 
 NOR  HZ I         116 29.64        13.6 0.14                           186 234 
 ROSC BZ EP   9    116  9.49                             113    1.93 0  210 205 
 ROSC BN ES        116 34.48                                    0.32 8  210 205 
 ROSC BZ I         116 39.55         5.8 0.30                           210 205 
 CHI  HZ EP   2    116  7.64                             113   -0.45 4  214 187 
 CHI  HN ES        116 34.07                             113    0.90 8  214 187 
 CHI  HZ I         116 35.75         3.0 0.30                           214 187 
 HEL  HZ EP        116  9.75                             111    0.26 8  227 260 
 HEL  HN ES        116 36.11                             111    0.45 8  227 260 
 HEL  HZ I         116 40.79         4.9 0.10                           227 260 
 GUY2CHZ EP        116 13.14                             109    0.59 8  253 235 
 GUY2CHN ES        116 41.13                             109    0.01 8  253 235 
 GUY2CHZ I         116 48.21         4.2 0.36                           253 235 
 URE  HN ES   4    116 40.08                             108   -1.51 0  260 301 
 CBOC HZ EP        116 16.69                             106    0.48 7  287 255 
 CBOC HN ES        116 47.71                             106    0.08 7  287 255 
 CBOC HZ I         116 50.50         2.1 0.46                           287 255 
 PRA  HZ EP        116 22.39                             102   -0.98 6  349 206 
 PRA  HN ES        117  0.53                             102    0.17 6  349 206 
 PRA  HZ I         117  4.55         2.8 0.22                           349 206 
 LL6C HZ EP        116 24.11                             101    0.33 6  353   4 
 LL6C HE ES        117  1.49                             101    0.39 6  353   4 
                                                                                
