 2014  616 0433 39.0 L   6.574 -73.596100.9  RSN 10 0.5 1.5LRSN                1
 GAP= 96        1.11       3.3     4.8  7.6 -0.4515E+01  0.1297E+02 -0.5737E+01E
 Epicentro: EL CARMEN DE CHUCURI - SANTANDER                                   3
 ACTION:UPD 14-07-01 22:54 OP:nd   STATUS:               ID:20140616043339 L   I
 OLDACT:UP  14-06-16 18:24 OP:mh   STATUS:               ID:20140616042816     3
 OLDACT:REG 14-06-16 12:05 OP:mh   STATUS:               ID:20140616042816     3
 2014-06-16-0428-16M.COL___256                                                 6
 STAT SP IPHASW D HRMM SECON CODA AMPLIT PERI AZIMU VELO AIN AR TRES W  DIS CAZ7
 BAR2 SZ EP        433 54.15                             154   -0.0710 45.8  88 
 BAR2 SZ ES        434  6.33                             154    0.2410 45.8  88 
 BRR  HZ EP        433 54.99                             147    0.2310 60.3 348 
 BRR  HN ES   1    434  6.86                             147   -0.18 7 60.3 348 
 BRR  HZ I         434 18.80         4.3 0.24            148           60.3 348 
 RUS  HZ EP   4    433 56.88                             134   -1.25 0 94.4 143 
 PTB  HZ EP        433 57.01                             133   -0.5410 95.2 268 
 PTB  HN ES   1    434 11.72                             133   -0.30 7 95.2 268 
 PTB  HZ I         434 15.61         9.2 0.07            138           95.2 268 
 SPBC HZ EP        433 59.30                             127   -0.1910  115 207 
 SPBC HN ES        434 15.29                             127   -0.1710  115 207 
 SPBC HZ I         434 18.66         8.4 0.12            138            115 207 
 ZAR  HZ EP        434  6.33                             115    0.90 9  172 306 
 ZAR  HN ES   4    434 29.11                             115    3.06 0  172 306 
 ZAR  HZ I         434 32.19         4.2 0.07            121            172 306 
 OCA  HZ EP        434  6.16                             113   -1.04 9  187   9 
 OCA  HN ES   1    434 29.52                             113    0.34 7  187   9 
 OCA  HZ I         434 35.15         6.0 0.15            120            187   9 
 CHI  HN ES        434 36.18                             109    0.53 8  216 184 
 HEL  HN ES        434 36.22                             109    0.18 8  218 259 
 HEL  HZ I         434 39.82         2.4 0.39            117            218 259 
 GUY2CHZ EP   4    434 12.14                             106   -2.33 0  246 233 
 GUY2CHN ES   4    434 43.49                             106    1.35 0  246 233 
 GUY2CHZ I         434 46.90         2.8 0.62                           246 233 
 SML  HZ EP        434 14.37                             105   -0.15 8  252 348 
 SML  HN ES   1    434 43.01                             105    0.79 6  252 348 
                                                                                
