 2015  516 0454  0.1 L   6.802 -73.134148.0  RSN  8 0.4 1.7LRSN                1
 GAP=184        0.84       4.1     6.3  8.0  0.9265E+01  0.4889E+01 -0.4419E+01E
 Epicentro: LOS SANTOS - SANTANDER                                             3
 ACTION:UPD 15-09-10 22:04 OP:cam  STATUS:               ID:20150516045400 L   I
 OLDACT:DUP 15-05-16 18:05 OP:spq  STATUS:               ID:20150516044749d    3
 2015-05-16-0447-48M.COL___277                                                 6
 STAT SP IPHASW D HRMM SECON CODA AMPLIT PERI AZIMU VELO AIN AR TRES W  DIS CAZ7
 BAR2 EZ EP        454 19.77                             170   -0.2310 23.8 193 
 BAR2 EZ ES   1    454 35.51                             170   -0.02 7 23.8 193 
 BAR2 EZ I         454 35.99         8.8 0.20            173           23.8 193 
 BRR  HZ EP   1    454 21.75                             153    0.21 7 72.2 298 
 BRR  HE ES        454 38.79                             153    0.5210 72.2 298 
 BRR  HZ I         454 42.95         5.9 0.33            151           72.2 298 
 RUS  HZ EP   1    454 24.23                             144    0.16 7  101 177 
 RUS  HE ES   1    454 42.71                             144   -0.07 7  101 177 
 RUS  HZ I         454 43.54         3.7 0.26            149            101 177 
 OCA  HN ES   1    454 50.08                             130   -0.70 7  160 353 
 OCA  HZ I         454 58.23        10.7 0.24            130            160 353 
 SPBC HE ES   1    454 51.04                             129   -0.25 7  164 219 
 SPBC HZ I         454 53.57         5.3 0.10            132            164 219 
 ZAR  HZ EP   1    454 33.39                             123    0.59 6  205 292 
 ZAR  HN ES        454 57.77                             123   -0.54 9  205 292 
 ZAR  HZ I         455  2.93         3.8 0.38            123            205 292 
 SML  HE ES   1    455  5.98                             118    0.41 6  244 335 
 SML  HZ I         455  8.24         6.8 0.10            119            244 335 
 HEL  HZ EP   4    454 41.99                             115    1.43 0  273 256 
 GUY2CHZ EP   4    454 45.21                             113    1.27 0  302 235 
 GUY2CHE ES   4    455 22.15                             113    4.01 0  302 235 
 GUY2CHZ I         455 26.07         1.7 0.32                           302 235 
                                                                                
