 2010  616 0441  9.2 L   6.762 -73.099140.0  RSN  7 0.3 1.5LRSN                1
 GAP=161        0.56       4.1     7.6  8.9 -0.2862E+01 -0.3127E+02 -0.1606E+01E
 Epicentro: LOS SANTOS - SANTANDER                                             3
 ACTION:UP  10-08-24 10:10 OP:vdl  STATUS:               ID:20100616044109 L   I
 2010-06-16-0437-52S.COL___114                                                 6
 STAT SP IPHASW D HRMM SECON CODA AMPLIT PERI AZIMU VELO SNR AR TRES W  DIS CAZ7
 BAR2 SZ EP   2    441 27.90                             171    -0.2 5   21 207 
 BRR  HZ EP   2    441 29.78                             149    -0.3 5   78 299 
 BRR  HZ I         441 39.90        12.7 0.24                            78 299 
 BRR  HN ES   1    441 46.47                             149     0.0 8   78 299 
 RUS  HZ EP   2    441 32.42                             144     0.4 5   96 179 
 RUS  HZ I         441 33.08         3.1 0.08                            96 179 
 RUS  HN ES   2    441 50.14                             144     0.3 5   96 179 
 BRI  SZ EP        441 32.58                             140    -0.110  111  18 
 GUE  SZ EP   2    441 34.04                             137     0.4 5  120   9 
 CHI  HE ES   2    442 14.57                             116    -0.6 4  246 197 
 CHI  HZ I         442 22.41         2.1 0.34                           246 197 
 HEL  HZ EP   2    441 50.01                             113     0.5 4  276 257 
 HEL  HZ I         442 27.35         2.1 0.76                           276 257 
                                                                                
