 2015  116 0654 32.6 L   6.795 -73.141147.5  RSN 15 0.5 2.3LRSN                1
 GAP= 72        1.16       2.9     3.3  5.6 -0.3652E+00  0.4132E+01  0.8358E+00E
 Epicentro: LOS SANTOS - SANTANDER                                             3
 ACTION:UPD 15-03-02 15:39 OP:nd   STATUS:               ID:20150116065432 L   I
 OLDACT:REG 15-01-16 13:31 OP:carl STATUS:               ID:20150116064749     3
 2015-01-16-0647-49M.COL___253                                                 6
 STAT SP IPHASW D HRMM SECON CODA AMPLIT PERI AZIMU VELO AIN AR TRES W  DIS CAZ7
 BAR2 EZ EP        654 52.43                             171    0.0210 22.8 192 
 BAR2 EZ ES        655  7.53                             171   -0.3410 22.8 192 
 BAR2 EZ I         655  9.23        19.3 0.16            171           22.8 192 
 BRR  HZ IP     D  654 54.36                             153    0.4010 71.9 299 
 BRR  HN ES        655 11.84                             153    1.2110 71.9 299 
 BRR  HZ I         655 12.75        34.3 0.38            150           71.9 299 
 PAM  SZ IP     D  654 55.26                             151    0.2710 77.5  39 
 PAM  SN ES        655 12.38                             151   -0.0810 77.5  39 
 PAM  SZ I         655 14.79        21.5 0.46            153           77.5  39 
 RUS  HZ EP        654 56.28                             144   -0.1710 99.9 176 
 RUS  HN ES        655 15.19                             144    0.1110 99.9 176 
 RUS  HZ I         655 17.85         9.9 0.20            146           99.9 176 
 PTB  HZ EP        654 59.08                             132   -0.64 9  148 259 
 PTB  HN ES        655 20.50                             132   -0.39 9  148 259 
 PTB  HZ I         655 22.56        24.8 0.28            131            148 259 
 TAM  HZ IP     D  655  0.57                             131    0.24 9  154 105 
 TAM  HN ES        655 21.95                             131   -0.03 9  154 105 
 TAM  HZ I         655 23.38         8.6 0.36            134            154 105 
 OCA  HZ EP        655  0.63                             130   -0.46 9  161 353 
 OCA  HN ES        655 23.07                             130   -0.25 9  161 353 
 OCA  HZ I         655 27.67        28.8 0.50            130            161 353 
 SPBC HZ EP        655  1.36                             129    0.16 9  163 219 
 SPBC HN ES        655 22.98                             129   -0.54 9  163 219 
 SPBC HZ I         655 26.00        34.2 0.44            130            163 219 
 ZAR  HZ EP        655  4.84                             123   -0.37 9  205 292 
 ZAR  HN ES        655 30.73                             123    0.07 9  205 292 
 ZAR  HZ I         655 36.79        22.6 0.44            122            205 292 
 SML  HZ EP        655  8.90                             118   -0.48 8  244 335 
 SML  HN ES        655 37.84                             118   -0.25 8  244 335 
 SML  HZ I         655 42.33        36.8 0.10            118            244 335 
 CHI  HZ EP        655 10.56                             118    0.24 8  248 195 
 CHI  HN ES        655 39.32                             118   -0.45 8  248 195 
 HEL  HZ EP        655 14.05                             115    1.13 8  272 256 
 HEL  HN ES        655 44.31                             115   -0.07 8  272 256 
 URE  HZ EP   4    655 12.68                             114   -1.13 0  285 292 
 URE  HN ES   4    655 44.24                             114   -1.73 0  285 292 
 URE  HZ I         655 58.08        14.2 0.24            114            285 292 
 CBOC HZ EP   4    655 20.52                             110    0.92 0  334 252 
 CBOC HN ES   4    655 54.16                             110   -2.12 0  334 252 
 CBOC HZ I         656  3.20         3.4 0.20            110            334 252 
 TOL  SZ EP        655 22.00                             110    1.10 7  343 225 
 TOL  SN ES        655 58.43                             110   -0.15 7  343 225 
 TOL  SZ I         656  7.62        17.0 0.66            110            343 225 
                                                                                
