 2014 1116 0327 53.0 L   6.740 -73.172138.1  RSN  6 0.2 1.2LRSN                1
 GAP=136        0.56       2.9     3.1  4.0  0.6003E+00  0.8767E+00  0.2909E+00E
 Epicentro: VILLANUEVA - SANTANDER                                             3
 ACTION:UPD 14-12-19 15:43 OP:nd   STATUS:               ID:20141116032753 L   I
 OLDACT:ARG 14-11-16 13:31 OP:stll STATUS:               ID:20141116031747     3
 2014-11-16-0317-47M.COL___289                                                 6
 STAT SP IPHASW D HRMM SECON CODA AMPLIT PERI AZIMU VELO AIN AR TRES W  DIS CAZ7
 BAR2 SZ EP        328 11.73                             173    0.1610 16.4 184 
 BAR2 SZ I         328 11.89         4.2 0.20            170           16.4 184 
 BAR2 SZ ES        328 26.06                             173   -0.0010 16.4 184 
 BRR  HZ EP        328 13.55                             151    0.1810 72.2 304 
 BRR  HZ I         328 13.94         1.9 0.18            149           72.2 304 
 BRR  HN ES        328 29.39                             151    0.1210 72.2 304 
 PAM  SZ EP   1    328 14.62                             147   -0.22 7 84.3  38 
 RUS  HZ EP        328 15.51                             144   -0.0210 94.2 174 
 RUS  HZ I         328 16.46         1.5 0.16            143           94.2 174 
 RUS  HN ES        328 32.92                             144   -0.1910 94.2 174 
 PTB  HZ EP        328 18.57                             131   -0.40 9  144 261 
 PTB  HE ES        328 39.05                             131   -0.19 9  144 261 
 PTB  HZ I         328 43.09         3.0 0.16            129            144 261 
 SPBC HZ EP        328 20.57                             129    0.33 9  156 220 
 SPBC HN ES        328 41.63                             129    0.13 9  156 220 
 SPBC HZ I         328 44.37         4.0 0.14            127            156 220 
                                                                                
