 2017 1016 0820 19.9 L   6.799 -73.138142.4  RSN 11 0.4 1.7LRSN                1
 GAP=113        0.95       3.4     3.3  5.3  0.1728E+01  0.3907E+01  0.4077E+01E
 Epicentro: LOS SANTOS - SANTANDER                                             3
 ACTION:UPD 17-11-07 19:32 OP:rebc STATUS:               ID:20171016082019 L   I
 OLDACT:UP  17-10-16 18:03 OP:dani STATUS:               ID:20171016081744     3
 OLDACT:UP  17-10-16 18:03 OP:dani STATUS:               ID:20171016081744     3
 OLDACT:REG 17-10-16 13:12 OP:dani STATUS:               ID:20171016081744     3
 2017-10-16-0818-00M.COL___411                                                 6
 STAT SP IPHASW D HRMM SECON CODA AMPLIT PERI AZIMU VELO AIN AR TRES W  DIS CAZ7
 BAR2 EZ EP        820 38.89                             170   -0.2110 23.4 192 
 BAR2 EZ ES        820 53.74                             170   -0.3610 23.4 192 
 BAR2 EZ I         820 54.80        16.3 0.36            169           23.4 192 
 BRR  HZ EP        820 40.78                             152    0.0710 72.0 298 
 BRR  HN ES        820 57.79                             152    0.8410 72.0 298 
 BRR  HZ I         821  1.38         6.9 0.40            151           72.0 298 
 PAM  EZ EP        820 41.87                             150    0.1710 76.9  39 
 PAM  EN ES        820 58.83                             150    0.1010 76.9  39 
 PAM  EZ I         821  1.07         7.2 0.30            153           76.9  39 
 RUS  HZ EP        820 43.38                             143    0.1010  100 177 
 RUS  HN ES        821  1.20                             143   -0.3410  100 177 
 RUS  HZ I         821  2.59         5.8 0.36            144            100 177 
 PTB  HZ EP        820 46.18                             131   -0.46 9  149 259 
 PTB  HN ES        821  6.85                             131   -0.68 9  149 259 
 PTB  HZ I         821  9.28         5.5 0.20            131            149 259 
 YPLC HZ EP        820 49.34                             126   -0.04 9  176 152 
 YPLC HE ES        821 12.59                             126    0.20 9  176 152 
 YPLC HZ I         821 16.90         6.3 0.52            127            176 152 
 ZAR  HZ EP        820 51.98                             121   -0.21 9  205 292 
 ZAR  HN ES        821 17.49                             121    0.10 9  205 292 
 ZAR  HZ I         821 23.38         6.9 0.44            122            205 292 
 NOR  HZ EP        820 55.56                             118    0.08 8  235 235 
 NOR  HN ES        821 23.29                             118    0.04 8  235 235 
 NOR  HZ I         821 28.80         4.4 0.31            118            235 235 
 GUY2CHZ EP   9    821  5.64                             112    2.24 0  302 235 
 GUY2CHE ES        821 40.18                             111    0.59 7  302 235 
 GUY2CHZ I         821 43.76         2.4 0.22                           302 235 
 PRA  HZ EP        821 13.87                             106    0.55 6  392 210 
 PRA  HN ES        821 56.03                             106    1.02 6  392 210 
 PRA  HZ I         822  1.11         3.6 0.35            107            392 210 
 SJC  HZ EP   3    821 13.54                             105   -1.85 1  410 327 
 SJC  HN ES   4    821 54.68                             105   -4.01 0  410 327 
 SJC  HZ I         821 58.98         1.7 0.46            106            410 327 
                                                                                
