 2017  116 0607 26.9 L   6.757 -73.129142.4  RSN  7 0.4 1.3LRSN                1
 GAP=141        1.03       4.7     4.3  7.4 -0.1240E+01  0.8468E+01  0.1761E+01E
 Epicentro: LOS SANTOS - SANTANDER                                             3
 ACTION:UPD 17-05-22 16:00 OP:jn   STATUS:               ID:20170116060726 L   I
 OLDACT:UP  17-01-16 17:40 OP:dani STATUS:               ID:20170116055743d    3
 OLDACT:UP  17-01-16 17:40 OP:dani STATUS:               ID:20170116055743d    3
 OLDACT:DUP 17-01-16 17:37 OP:dani STATUS:               ID:20170116055743d    3
 OLDACT:UP  17-01-16 17:35 OP:dani STATUS:               ID:20170116055741     3
 OLDACT:REG 17-01-16 13:18 OP:dani STATUS:               ID:20170116055741     3
 2017-01-16-0558-00M.COL___335                                                 6
 STAT SP IPHASW D HRMM SECON CODA AMPLIT PERI AZIMU VELO AIN AR TRES W  DIS CAZ7
 BAR2 HZ EP        6 7 46.11                             172    0.0210 19.1 198 
 BAR2 HZ ES        6 8  0.92                             172   -0.1010 19.1 198 
 BAR2 HZ I         6 8  1.79         6.5 0.26            172           19.1 198 
 BRR  HZ EP        6 7 48.01                             151    0.0510 75.2 301 
 BRR  HN ES        6 8  4.80                             151    0.4410 75.2 301 
 BRR  HZ I         6 8  8.98         5.3 0.15            148           75.2 301 
 PAM  HZ EP        6 7 49.15                             149    0.1910 80.0  36 
 PAM  HE ES        6 8  5.89                             149   -0.2410 80.0  36 
 PAM  HZ I         6 8  7.50         3.5 0.17            151           80.0  36 
 RUS  HZ EP        6 7 50.13                             145    0.1210 95.7 177 
 RUS  HN ES        6 8  8.23                             145    0.2310 95.7 177 
 RUS  HZ I         6 8  9.46         2.0 0.19            148           95.7 177 
 PTB  HZ EP        6 7 52.85                             131   -0.88 9  149 261 
 PTB  HN ES        6 8 13.88                             131   -0.74 9  149 261 
 PTB  HZ I         6 8 16.47         3.4 0.23            131            149 261 
 ZAR  HZ EP   3    6 8  0.80                             121    1.26 2  208 293 
 ZAR  HN ES        6 8 25.39                             121    0.42 8  208 293 
 ZAR  HZ I         6 8 32.92         2.2 0.14            121            208 293 
 NOR  HN ES        6 8 30.46                             118    0.50 8  234 236 
 NOR  HZ I         6 8 32.64         1.5 0.37            119            234 236 
                                                                                
