 2015  116 0510 24.1 L   6.811 -73.157146.5  RSN 13 0.5 2.2LRSN                1
 GAP= 70        1.17       2.9     3.4  5.7 -0.5627E+00  0.3620E+01  0.1186E+01E
 Epicentro: LOS SANTOS - SANTANDER                                             3
 ACTION:UPD 15-03-02 15:39 OP:nd   STATUS:               ID:20150116051024 L   I
 OLDACT:REG 15-01-16 13:28 OP:carl STATUS:               ID:20150116050736     3
 2015-01-16-0507-36M.COL___253                                                 6
 STAT SP IPHASW D HRMM SECON CODA AMPLIT PERI AZIMU VELO AIN AR TRES W  DIS CAZ7
 BAR2 EZ EP        510 43.79                             170   -0.0410 24.3 187 
 BAR2 EZ ES        510 58.84                             170   -0.3810 24.3 187 
 BAR2 EZ I         511  0.25        28.1 0.22            170           24.3 187 
 BRR  HZ IP     C  510 45.57                             153    0.3510 69.5 298 
 BRR  HN ES        511  2.53                             153    0.8210 69.5 298 
 BRR  HZ I         511  6.79        24.8 0.12            153           69.5 298 
 PAM  SZ IP     C  510 46.51                             151    0.1310 77.3  41 
 PAM  SN ES        511  3.50                             151   -0.2610 77.3  41 
 PAM  SZ I         511  5.52        48.2 0.54            154           77.3  41 
 RUS  HZ EP        510 47.99                             144   -0.0110  102 175 
 RUS  HN ES        511  6.25                             144   -0.4110  102 175 
 RUS  HZ I         511  8.46        10.3 0.18            145            102 175 
 PTB  HZ EP        510 50.55                             132   -0.48 9  147 258 
 PTB  HN ES        511 11.36                             132   -0.67 9  147 258 
 PTB  HZ I         511 15.92        15.0 0.16            133            147 258 
 TAM  HZ IP     D  510 52.25                             130    0.28 9  157 105 
 TAM  HE ES        511 13.80                             130    0.09 9  157 105 
 TAM  HZ I         511 15.21         6.8 0.24            134            157 105 
 OCA  HZ EP        510 51.67                             130   -0.66 9  159 354 
 OCA  HN ES        511 15.38                             130    1.02 9  159 354 
 OCA  HZ I         511 17.77        29.2 0.16            132            159 354 
 SPBC HZ EP        510 52.93                             129    0.27 9  163 218 
 SPBC HN ES        511 15.05                             129    0.11 9  163 218 
 SPBC HZ I         511 17.53        17.7 0.10            130            163 218 
 ZAR  HZ EP        510 56.78                             123    0.36 9  202 292 
 ZAR  HN ES        511 21.84                             123    0.21 9  202 292 
 ZAR  HZ I         511 27.90        17.4 0.40            124            202 292 
 NOR  HZ EP        510 59.24                             119   -0.58 8  234 234 
 NOR  HN ES        511 27.88                             119    0.18 8  234 234 
 NOR  HZ I         511 33.02         8.2 0.34            120            234 234 
 SML  HZ EP        510 59.92                             118   -0.66 8  242 335 
 SML  HN ES        511 28.27                             118   -0.78 8  242 335 
 SML  HZ I         511 30.45        33.4 0.26            119            242 335 
 CHI  HZ EP        511  2.35                             117    0.43 8  249 195 
 CHI  HN ES        511 31.25                             117   -0.17 8  249 195 
 CHI  HZ I         511 36.94         5.9 0.30            119            249 195 
 ORTC HZ EP        511 18.65                             106    0.59 6  396 216 
 ORTC HN ES        512  0.97                             106    0.82 6  396 216 
 ORTC HZ I         512  6.56         5.7 0.40            108            396 216 
                                                                                
