 2017  616 0737 38.5 L   6.820 -73.154150.0  RSN 10 0.4 2.1LRSN                1
 GAP=254        0.94       3.7     5.7  7.1  0.4148E+01 -0.7498E+01  0.6396E+01E
 Epicentro: LOS SANTOS - SANTANDER                                             3
 ACTION:UPD 17-09-14 16:52 OP:jn   STATUS:               ID:20170616073738 L   I
 OLDACT:UP  17-06-16 16:52 OP:dhb  STATUS:               ID:20170616072736     3
 OLDACT:REG 17-06-16 13:24 OP:ar   STATUS:               ID:20170616072736     3
 2017-06-16-0728-00M.COL___349                                                 6
 STAT SP IPHASW D HRMM SECON CODA AMPLIT PERI AZIMU VELO AIN AR TRES W  DIS CAZ7
 BRR  HZ EP        738  0.17                             154    0.1710 69.3 297 
 BRR  HN ES        738 17.24                             154    0.4710 69.3 297 
 BRR  HZ I         738 21.17        19.2 0.20            150           69.3 297 
 PTB  HZ EP        738  5.04                             133   -0.72 9  147 258 
 PTB  HE ES        738 26.73                             133   -0.30 9  147 258 
 PTB  HZ I         738 28.01        10.3 0.16            131            147 258 
 SPBC HZ EP        738  7.32                             130   -0.10 9  164 218 
 SPBC HN ES        738 30.19                             130    0.21 9  164 218 
 SPBC HZ I         738 33.52        23.4 0.19            128            164 218 
 ZAR  HZ EP        738 10.70                             124   -0.34 9  202 292 
 ZAR  HN ES        738 36.10                             124   -0.33 9  202 292 
 ZAR  HZ I         738 41.66        16.4 0.35            123            202 292 
 NOR  HZ EP        738 14.40                             119   -0.12 8  235 234 
 NOR  HE ES        738 42.33                             119   -0.29 8  235 234 
 NOR  HZ I         738 51.73         8.3 0.11            119            235 234 
 CHI  HZ EP        738 16.45                             118   -0.17 8  250 195 
 CHI  HN ES        738 45.76                             118   -0.61 8  250 195 
 ROSC BZ EP   4    738 18.75                             118    1.76 0  254 211 
 ROSC BE ES        738 47.50                             118    0.48 8  254 211 
 ROSC BZ I         738 53.11        22.4 0.45            117            254 211 
 HEL  HZ EP   2    738 20.06                             116    1.18 4  272 255 
 HEL  HN ES        738 50.61                             116    0.23 8  272 255 
 HEL  HZ I         738 56.41         7.2 0.28            115            272 255 
 VIL  HZ EP        738 22.82                             113    0.50 7  305 191 
 VIL  EE ES        738 56.48                             113   -0.03 7  305 191 
 VIL  HZ I         739  1.01        11.8 0.30            113            305 191 
 CBOC HZ EP        738 26.39                             111    0.83 7  333 252 
 CBOC HN ES        739  2.74                             111    0.47 7  333 252 
 CBOC HZ I         739 11.48         1.7 0.66            111            333 252 
                                                                                
