 2012  916 0502 46.4 L   6.729 -73.193146.9  RSN  4 0.1 1.4LRSN                1
 GAP=226        0.38       3.6     3.1  4.3  0.4935E+01 -0.1507E+01 -0.9191E+00E
 Epicentro: VILLANUEVA - SANTANDER                                             3
 ACTION:UPD 12-10-22 14:19 OP:ep   STATUS:               ID:20120916050246 L   I
 2012-09-16-0500-00M.COL___227                                                 6
 STAT SP IPHASW D HRMM SECON CODA AMPLIT PERI AZIMU VELO AIN AR TRES W  DIS CAZ7
 BAR2 SZ EP   1    5 3  5.98                             174   -0.02 7 15.2 176 
 BAR2 SZ ES   2    5 3 21.07                             174   -0.24 5 15.2 176 
 BAR2 SZ I         5 3 22.65         8.8 0.32                          15.2 176 
 BRR  HZ EP        5 3  7.80                             153    0.1710 71.0 306 
 BRR  HZ I         5 3 10.20         5.0 0.17                          71.0 306 
 BRR  HE ES   1    5 3 24.16                             153   -0.05 7 71.0 306 
 RUS  HZ EP        5 3  9.59                             146   -0.1310 93.3 173 
 RUS  HN ES   1    5 3 28.15                             146    0.22 7 93.3 173 
 RUS  HZ I         5 3 31.40         3.3 0.54                          93.3 173 
 PTB  HZ EP   1    5 3 12.73                             134   -0.12 7  141 262 
 PTB  HN ES        5 3 33.49                             134   -0.02 9  141 262 
 PTB  HZ I         5 3 37.27         2.7 0.34                           141 262 
                                                                                
