 2011 1216 0204 21.3 L   6.770 -73.095148.0  RSN  5 0.1 1.5LRSN                1
 GAP=144        0.31       2.3     3.6  3.9 -0.1518E+01 -0.1854E+01  0.3395E+01E
 Epicentro: LOS SANTOS - SANTANDER                                             3
 ACTION:UPD 12-07-13 16:16 OP:ep   STATUS:               ID:20111216020421 L   I
 2011-12-16-0200-00M.COL___186                                                 6
 STAT SP IPHASW D HRMM SECON CODA AMPLIT PERI AZIMU VELO AIN AR TRES W  DIS CAZ7
 GIR2 SZ EP   2    2 4 41.13                             166   -0.28 5 35.9 342 
 PAM  SZ EP   1    2 4 43.85                             151    0.10 7 76.7  35 
 PAM  SN ES   1    2 5  1.21                             151   -0.02 7 76.7  35 
 BRR  HN ES   1    2 5  0.12                             151    0.04 7 77.7 299 
 BRR  HZ I         2 5  5.19         8.3 0.17                          77.7 299 
 RUS  HZ EP   1    2 4 45.07                             145    0.01 7 97.0 179 
 RUS  HN ES   1    2 5  3.56                             145    0.00 7 97.0 179 
 RUS  HZ I         2 5  4.96         3.6 0.23                          97.0 179 
 CHI  HZ EP   1    2 4 58.98                             118    0.00 6  247 197 
 CHI  HZ I         2 5 36.22         2.1 0.36                           247 197 
                                                                                
