 2014  516 0523  9.5 L   6.813 -73.130149.9  RSN 13 0.5 2.0LRSN                1
 GAP=138        1.26       3.2     4.7  7.1 -0.3377E+01  0.7675E+01  0.2125E+01E
 Epicentro: LOS SANTOS - SANTANDER                                             3
 ACTION:UPD 15-03-16 16:58 OP:nd   STATUS:               ID:20140516052309 L   I
 OLDACT:REG 14-05-16 13:05 OP:spq  STATUS:               ID:20140516051806     3
 2014-05-16-0518-06M.COL___248                                                 6
 STAT SP IPHASW D HRMM SECON CODA AMPLIT PERI AZIMU VELO AIN AR TRES W  DIS CAZ7
 BRR  HZ EP        523 31.53                             153    0.4010 72.1 297 
 BRR  HN ES        523 48.97                             153    0.9610 72.1 297 
 BRR  HZ I         523 51.66        15.0 0.12            152           72.1 297 
 PAM  SZ EP        523 32.70                             152    0.6810 75.1  39 
 PAM  SN ES        523 49.53                             152   -0.0610 75.1  39 
 PAM  SZ I         523 55.82         7.0 0.22            156           75.1  39 
 RUS  HZ EP        523 33.38                             144   -0.3710  102 177 
 RUS  HN ES        523 52.46                             144   -0.2010  102 177 
 RUS  HZ I         523 54.78         9.4 0.48            148            102 177 
 PTB  HZ EP        523 36.17                             133   -0.81 9  150 258 
 PTB  HN ES        523 57.61                             133   -0.81 9  150 258 
 PTB  HZ I         524  0.49        16.4 0.28            134            150 258 
 OCA  HZ EP        523 38.65                             131    0.64 9  159 352 
 OCA  HN ES        523 59.82                             131   -0.43 9  159 352 
 OCA  HZ I         524 10.26         7.8 0.50            133            159 352 
 SPBC HZ EP        523 38.53                             130    0.01 9  165 219 
 SPBC HN ES        524  0.98                             130   -0.18 9  165 219 
 SPBC HZ I         524  6.36        11.5 0.48            133            165 219 
 ZAR  HZ EP        523 42.03                             123   -0.29 9  205 292 
 ZAR  HN ES        524  7.63                             123   -0.29 9  205 292 
 ZAR  HZ I         524 14.62        14.4 0.26            125            205 292 
 NOR  HZ EP        523 45.43                             119   -0.27 8  237 234 
 NOR  HN ES        524 14.71                             119    0.76 8  237 234 
 NOR  HZ I         524 21.50         7.1 0.34            122            237 234 
 SML  HZ EP        523 45.90                             118   -0.39 8  243 335 
 SML  HN ES        524 14.27                             118   -0.72 8  243 335 
 SML  HZ I         524 21.57        12.9 0.10            121            243 335 
 CHI  HZ EP        523 47.69                             118    0.07 8  251 195 
 CHI  HN ES        524 16.74                             118   -0.63 8  251 195 
 CHI  HZ I         524 22.83         4.4 0.30            121            251 195 
 HEL  HZ EP        523 50.67                             115    0.53 8  274 256 
 HEL  HN ES        524 22.46                             115    0.61 8  274 256 
 HEL  HZ I         524 28.77         5.4 0.26            118            274 256 
 URE  HZ EP   4    523 49.50                             114   -1.38 0  285 292 
 URE  HE ES   4    524 20.18                             114   -2.99 0  285 292 
 GUY2CHZ EP        523 54.37                             113    0.82 7  303 235 
 GUY2CHE ES        524 28.12                             113    0.21 7  303 235 
 GUY2CHZ I         524 34.50         5.1 0.36                           303 235 
 RREF HN ES        524 32.24                             111   -0.17 7  324 229 
 RREF HZ I         524 41.89         6.8 0.42            114            324 229 
                                                                                
