 2017  416 0256 45.5 L   6.816 -73.158146.8  RSN  6 0.4 1.2LRSN                1
 GAP=134        1.05       5.3     4.7  7.1  0.2717E+01  0.8269E+01 -0.1451E+01E
 Epicentro: LOS SANTOS - SANTANDER                                             3
 ACTION:UPD 17-05-30 21:12 OP:jn   STATUS:               ID:20170416025645 L   I
 OLDACT:UP  17-04-16 15:19 OP:dani STATUS:               ID:20170416024408     3
 OLDACT:REG 17-04-16 14:02 OP:dani STATUS:               ID:20170416024408     3
 2017-04-16-0248-00M.COL___368                                                 6
 STAT SP IPHASW D HRMM SECON CODA AMPLIT PERI AZIMU VELO AIN AR TRES W  DIS CAZ7
 BAR2 EZ EP        257  5.05                             170   -0.2810 24.8 186 
 BAR2 EZ ES        257 20.56                             170   -0.2110 24.8 186 
 BRR  HZ EP        257  6.81                             153    0.1110 69.2 298 
 BRR  HN ES        257 23.81                             153    0.6110 69.2 298 
 BRR  HZ I         257 27.80         3.5 0.21            151           69.2 298 
 PAM  EZ EP        257  7.91                             151    0.0610 76.9  41 
 PAM  EN ES        257 24.86                             151   -0.3810 76.9  41 
 RUS  HZ EP        257  9.73                             143    0.2010  102 175 
 RUS  HN ES        257 28.68                             143    0.4410  102 175 
 RUS  HZ I         257 29.45         1.1 0.23            146            102 175 
 PTB  HZ EP        257 11.86                             132   -0.65 9  147 258 
 PTB  HN ES        257 32.97                             132   -0.58 9  147 258 
 PTB  HZ I         257 38.11         1.7 0.09            132            147 258 
 ZAR  HZ EP        257 18.46                             123    0.59 9  202 292 
 ZAR  HN ES        257 43.21                             123    0.13 9  202 292 
 ZAR  HZ I         257 49.06         4.1 0.41            123            202 292 
                                                                                
