 2012 1216 0432 17.0 L   6.820 -73.156144.8  RSN  6 0.3 1.2LRSN                1
 GAP=134        0.67       5.2     4.9  7.9  0.1023E+01  0.8680E+01  0.1395E+02E
 Epicentro: LOS SANTOS - SANTANDER                                             3
 ACTION:UPD 13-01-04 14:28 OP:ep   STATUS:               ID:20121216043217 L   I
 2012-12-16-0430-00M.COL___239                                                 6
 STAT SP IPHASW D HRMM SECON CODA AMPLIT PERI AZIMU VELO AIN AR TRES W  DIS CAZ7
 BAR2 SZ EP   1    432 36.67                             170    0.08 7 25.4 187 
 BAR2 SZ I         432 54.88         6.4 0.18                          25.4 187 
 GIR2 SZ ES   2    432 52.06                             168    0.32 5 28.9 352 
 GIR2 SZ I         432 53.89         2.1 0.17                          28.9 352 
 BRR  HZ EP   1    432 38.66                             153    0.70 7 69.1 297 
 BRR  HN ES   1    432 54.28                             153   -0.01 7 69.1 297 
 BRR  HZ I         433  3.75         3.5 0.34                          69.1 297 
 PAM  SN ES   1    432 55.90                             151   -0.39 7 76.4  41 
 PAM  SZ I         432 59.11         2.1 0.18                          76.4  41 
 RUS  HZ EP   1    432 40.68                             143   -0.18 7  103 175 
 RUS  HE ES   1    432 59.61                             143    0.16 7  103 175 
 RUS  HZ I         433  0.32         1.9 0.28                           103 175 
 PTB  HZ EP   1    432 43.51                             132   -0.35 7  147 258 
 PTB  HN ES   1    433  4.55                             132   -0.23 7  147 258 
 PTB  HZ I         433  6.82         3.2 0.13                           147 258 
                                                                                
