 2017  716 0933 21.2 L   6.732 -73.153143.9  RSN  6 0.5 1.0LRSN                1
 GAP=139        1.14       6.1     5.3  9.1 -0.2329E+00  0.1411E+02 -0.6448E+01E
 Epicentro: LOS SANTOS - SANTANDER                                             3
 ACTION:UPD 17-08-30 15:33 OP:rebc STATUS:               ID:20170716093321 L   I
 OLDACT:REG 17-07-16 12:42 OP:dhb  STATUS:               ID:20170716092626     3
 2017-07-16-0928-00M.COL___368                                                 6
 STAT SP IPHASW D HRMM SECON CODA AMPLIT PERI AZIMU VELO AIN AR TRES W  DIS CAZ7
 BAR2 EZ EP   2    933 39.59                             173   -0.86 5 15.7 192 
 BAR2 EZ ES        933 54.65                             173   -0.8410 15.7 192 
 BRR  HZ EP   2    933 42.12                             151   -0.19 5 74.4 304 
 BRR  HZ I         933 58.21         6.4 0.34            147           74.4 304 
 BRR  HE ES        933 59.57                             151    0.7810 74.4 304 
 PAM  EZ EP        933 43.35                             148   -0.2510 83.8  37 
 PAM  EN ES        934  1.28                             148    0.2010 83.8  37 
 PAM  EZ I         934  2.98         1.6 0.52            142           83.8  37 
 RUS  HZ EP   2    933 44.29                             146    0.07 5 93.1 175 
 RUS  HN ES        934  2.74                             146    0.5610 93.1 175 
 RUS  HZ I         934  4.56         0.8 0.28            140           93.1 175 
 PTB  HZ EP        933 47.97                             132    0.16 9  146 262 
 PTB  HN ES        934  8.24                             132   -0.33 9  146 262 
 PTB  HZ I         934 10.47         0.8 0.40            127            146 262 
 ZAR  HZ EP   2    933 54.45                             122    0.72 4  206 294 
 ZAR  HN ES        934 18.87                             122   -0.25 8  206 294 
 ZAR  HZ I         934 19.98         0.8 0.28            116            206 294 
                                                                                
