 2017  316 0849 52.3 L   7.336 -73.242120.5  RSN  9 0.6 1.9LRSN                1
 GAP=169        1.22       6.0     4.4  7.2  0.2171E+01  0.1269E+02 -0.3134E+01E
 Epicentro: RIONEGRO - SANTANDER                                               3
 ACTION:UPD 17-05-25 18:41 OP:jn   STATUS:               ID:20170316084952 L   I
 OLDACT:UP  17-03-16 18:30 OP:cog  STATUS:               ID:20170316084739     3
 OLDACT:REG 17-03-16 13:27 OP:cara STATUS:               ID:20170316084739     3
 2017-03-16-0848-00M.COL___378                                                 6
 STAT SP IPHASW D HRMM SECON CODA AMPLIT PERI AZIMU VELO AIN AR TRES W  DIS CAZ7
 BRR  HZ IP     D  850  9.65                             153   -0.3210 57.7 244 
 BRR  HN ES        850 23.41                             153   -0.3410 57.7 244 
 BRR  HZ I         850 25.54        18.6 0.14            148           57.7 244 
 PAM  EZ EP        850 11.05                             152    0.2410 59.9  90 
 PAM  EN ES        850 25.82                             152    0.5910 59.9  90 
 PAM  EZ I         850 27.84         9.4 0.26            159           59.9  90 
 BAR2 EZ EP        850 11.69                             143   -0.2310 82.5 175 
 BAR2 EZ ES        850 26.96                             143   -0.2610 82.5 175 
 BAR2 EZ I         850 28.30        25.2 0.28            143           82.5 175 
 PTB  HZ EP   9    850 17.81                             123   -0.82 0  160 237 
 PTB  HN ES        850 38.35                             121    0.01 9  160 237 
 PTB  HZ I         850 45.53        10.5 0.20            122            160 237 
 RUS  HZ EP        850 18.68                             123   -0.59 9  161 174 
 RUS  HN ES        850 40.49                             123    0.19 9  161 174 
 ZAR  HZ EP        850 20.27                             120   -0.30 9  179 276 
 ZAR  HN ES        850 42.75                             120    0.14 9  179 276 
 ZAR  HZ I         850 45.43        15.7 0.24            119            179 276 
 SPBC HN ES   4    850 50.22                             116    1.96 0  208 206 
 URE  HZ EP        850 28.67                             110   -0.51 8  257 280 
 URE  HE ES   4    850 51.89                             110   -6.05 0  257 280 
 URE  HZ I         851  3.09         9.9 0.18            110            257 280 
 HEL  HZ EP        850 34.17                             108    1.57 7  283 244 
 HEL  HN ES        851  3.95                             108   -0.07 7  283 244 
 HEL  HZ I         851 12.19         3.6 0.62            108            283 244 
 GUY2CHZ EP   4    850 40.55                             105    2.15 0  331 225 
 GUY2CHN ES   4    851 17.30                             105    2.96 0  331 225 
 CBOC HZ EP        850 39.41                             104   -0.46 6  347 242 
 CBOC HN ES        851 18.05                             104    1.09 6  347 242 
 CBOC HZ I         851 32.31         1.6 0.54            104            347 242 
                                                                                
