 2011  716 0055  0.7 L   6.765 -73.122144.9  RSN 11 0.2 2.4LRSN                1
 GAP=141        0.46       2.3     2.9  3.7 -0.3669E+01  0.2296E+01 -0.1018E+01E
 Epicentro: LOS SANTOS - SANTANDER                                             3
 ACTION:UPD 12-07-25 14:01 OP:epov STATUS:               ID:20110716005500 L   I
 2011-07-16-0053-56S.COL___132                                                 6
 STAT SP IPHASW D HRMM SECON CODA AMPLIT PERI AZIMU VELO AIN AR TRES W  DIS CAZ7
 BAR2 SZ EP   1    055 20.11                             172   -0.04 8 20.3 199 
 BAR2 SZ ES   1    055 34.90                             172   -0.43 8 20.3 199 
 BAR2 SZ I         055 36.03        59.6 0.25                          20.3 199 
 BTL  SZ EP   1    055 20.36                             170    0.15 8 23.4 316 
 GIR2 SZ EP   1    055 20.22                             165   -0.15 8 35.5 347 
 BRR  HZ EP   1    055 22.00                             151    0.03 8 75.4 300 
 BRR  HZ I         055 22.39        73.6 0.11                          75.4 300 
 BRR  HN ES   1    055 39.00                             151    0.42 8 75.4 300 
 PAM  SZ EP   1    055 23.14                             150    0.26 8 78.8  36 
 PAM  SE ES   1    055 40.22                             150    0.02 8 78.8  36 
 RUS  HZ EP   1    055 24.12                             145    0.06 8 96.6 177 
 RUS  HZ I         055 41.19        74.5 0.62                          96.6 177 
 RUS  HN ES   1    055 42.43                             145    0.13 8 96.6 177 
 BRI  SZ EP   1    055 24.89                             140    0.20 8  111  19 
 BRI  SZ ES   1    055 43.45                             140    0.03 8  111  19 
 BRI  SZ I         055 48.72        36.0 0.52                           111  19 
 GRA  SZ EP        055 26.09                             136    0.0010  129  16 
 GRA  SZ ES   1    055 45.70                             136   -0.21 7  129  16 
 GRA  SZ I         055 46.75        35.5 0.37                           129  16 
 OCA  SZ EP   1    055 28.91                             129   -0.40 7  164 352 
 OCA  SZ I         055 54.05        20.6 0.26                           164 352 
 NOR  SN ES        056  4.03                             118   -0.15 8  235 236 
 HEL  HN ES   1    056 12.54                             114    0.04 6  274 257 
                                                                                
