 2012  316 0916 26.1 L   6.851 -73.520111.9  RSN  4 0.2 1.2LRSN                1
 GAP=124        0.53       5.8     3.9  6.0 -0.1639E+01  0.4405E+01 -0.2813E+01E
 ACTION:UP  12-03-31 23:20 OP:EP   STATUS:               ID:20120316091626 L   I
 2012-03-16-0910-00M.COL___202                                                 6
 STAT SP IPHASW D HRMM SECON CODA AMPLIT PERI AZIMU VELO SNR AR TRES W  DIS CAZ7
 BRR  HZ EP   1    916 41.90                             161     0.2 7   35 323 
 BRR  HE ES   1    916 54.02                             161     0.1 7   35 323 
 BRR  HZ I         916 54.58         8.8 0.14                            35 323 
 BAR2 SZ EP   1    916 42.45                             156    -0.1 7   47 127 
 BAR2 SZ ES   1    916 55.47                             156     0.0 7   47 127 
 BAR2 SZ I         916 56.83         7.6 0.31                            47 127 
 PTB  HZ EP   1    916 47.08                             132     0.3 7  109 252 
 PTB  HN ES   1    917  2.66                             132    -0.3 7  109 252 
 PTB  HZ I         917  3.56         1.3 0.11                           109 252 
 OCA  SZ EP   2    916 51.11                             122    -0.4 5  155   8 
                                                                                
