 2013  716 0350  3.8 L   6.782 -73.168148.4  RSN  8 0.4 1.9LRSN                1
 GAP=179        0.77       4.6     5.3  7.0  0.1972E+01  0.2447E+01  0.3974E+01E
 Epicentro: LOS SANTOS - SANTANDER                                             3
 ACTION:UPD 13-08-12 10:38 OP:ep   STATUS:               ID:20130716035003 L   I
 OLDACT:DUP 13-07-16 12:41 OP:mh   STATUS:               ID:20130716034650d    3
 OLDACT:REG 13-07-16 12:07 OP:mh   STATUS:               ID:20130716034649     3
 2013-07-16-0346-49M.COL___229                                                 6
 STAT SP IPHASW D HRMM SECON CODA AMPLIT PERI AZIMU VELO AIN AR TRES W  DIS CAZ7
 BAR2 SZ EP   1    350 23.76                             172    0.03 7 21.1 184 
 BAR2 SZ ES   1    350 38.74                             172   -0.51 7 21.1 184 
 BAR2 SZ I         350 39.82        10.6 0.20            165           21.1 184 
 GIR2 SZ EP   1    350 23.66                             167   -0.19 7 32.9 355 
 BRR  HZ EP   1    350 25.50                             153    0.31 7 70.0 301 
 BRR  HN ES        350 42.35                             153    0.4910 70.0 301 
 BRR  HN I         350 43.09        24.3 0.22            150           70.0 301 
 RUS  HZ EP   1    350 27.86                             145    0.15 7 98.8 175 
 RUS  HN ES   1    350 46.43                             145    0.09 7 98.8 175 
 RUS  HN I         350 48.09        13.4 0.36            142           98.8 175 
 PTB  HZ EP   1    350 30.25                             133   -0.51 7  145 259 
 PTB  HN ES   1    350 51.19                             133   -0.57 7  145 259 
 PTB  HN I         350 56.65        12.7 0.44            130            145 259 
 SPBC HZ EP   1    350 32.57                             130    0.33 7  160 219 
 SPBC HN ES        350 54.23                             130   -0.17 9  160 219 
 ZAR  HE ES   2    351  1.23                             123   -0.38 4  203 293 
 NOR  HE ES   2    351  8.04                             119    0.94 4  232 235 
 NOR  HE I         351 14.85         7.5 0.18            117            232 235 
                                                                                
