 2013  216 0326 14.5 L   6.783 -73.136144.8  RSN  5 0.2 1.6LRSN                1
 GAP=139        0.58       3.2     3.1  5.7 -0.1123E+01 -0.1337E+01  0.2788E+01E
 Epicentro: LOS SANTOS - SANTANDER                                             3
 ACTION:UPD 13-03-12 09:33 OP:ep   STATUS:               ID:20130216032614 L   I
 2013-02-16-0320-00M.COL___241                                                 6
 STAT SP IPHASW D HRMM SECON CODA AMPLIT PERI AZIMU VELO AIN AR TRES W  DIS CAZ7
 BAR2 SZ EP        326 33.95                             171   -0.0410 21.7 194 
 BRR  HZ EP        326 35.73                             152    0.0710 73.1 299 
 BRR  HN ES        326 52.49                             152    0.3310 73.1 299 
 PAM  SZ EP        326 36.81                             150    0.1510 78.2  38 
 PAM  SN ES        326 53.66                             150   -0.2910 78.2  38 
 PAM  SN I         326 54.35         8.1 0.22            152           78.2  38 
 RUS  HZ EP        326 37.98                             144   -0.0410 98.6 177 
 RUS  HN ES        326 56.46                             144    0.1010 98.6 177 
 RUS  HN I         326 58.05         6.4 0.44            144           98.6 177 
 PTB  HN ES        327  2.16                             132   -0.33 9  149 260 
                                                                                
