 2010  816 0038 13.6 L   6.764 -73.089138.0  RSN  9 0.5 1.7LRSN                1
 GAP=165        1.46       6.6    11.7 11.8 -0.1948E+02 -0.2252E+02 -0.1133E+02E
 Epicentro: LOS SANTOS - SANTANDER                                             3
 ACTION:UP  10-09-07 10:55 OP:vdl  STATUS:               ID:20100816003813 L   I
 2010-08-16-0033-16S.COL___111                                                 6
 STAT SP IPHASW D HRMM SECON CODA AMPLIT PERI AZIMU VELO SNR AR TRES W  DIS CAZ7
 BAR2 SZ EP        038 32.30                             171     0.010   22 209 
 BAR2 SZ ES   1    038 46.12                             171    -0.7 7   22 209 
 BAR2 SZ I         038 48.73        18.5 0.25                            22 209 
 GIR2 SZ EP   2    038 32.40                             164    -0.1 5   37 342 
 BRR  HZ EP        038 34.13                             149    -0.310   79 299 
 BRR  HN ES        038 50.94                             149     0.410   79 299 
 BRR  HZ I         038 55.33        20.7 0.30                            79 299 
 RUS  HZ EP   1    038 36.61                             144     0.3 7   96 180 
 RUS  HN ES   1    038 54.04                             144     0.0 7   96 180 
 RUS  HZ I         038 57.09         2.1 0.04                            96 180 
 GUE  SZ EP        038 37.34                             137    -0.510  119   9 
 GUE  SZ I         039  0.91         3.7 0.15                           119   9 
 GRA  SZ EP        038 39.14                             135     0.810  128  14 
 GRA  SZ I         038 40.64        11.6 0.45                           128  14 
 GRA  SZ ES   1    038 58.49                             135     0.8 7  128  14 
 OCA  SZ EP        038 40.95                             127    -0.8 9  165 351 
 OCA  SZ I         039  7.06        13.6 0.12                           165 351 
 CHI  HN ES   2    039 19.88                             116     0.3 4  247 197 
 CHI  HZ I         039 23.00         2.7 0.19                           247 197 
 RREF HN ES   1    039 36.13                             109     0.5 5  324 231 
 RREF HZ I         039 42.39         3.3 0.58                           324 231 
                                                                                
