 2011 1116 0950 23.3 L   6.870 -73.286122.0  RSN  6 0.3 1.6LRSN                1
 GAP=123        0.59       3.8     4.8  6.1  0.4497E+01 -0.2922E+01 -0.2431E+01E
 Epicentro: BETULIA - SANTANDER                                                3
 ACTION:UPD 12-07-13 16:10 OP:ep   STATUS:               ID:20111116095023 L   I
 2011-11-16-0948-30S.COL___179                                                 6
 STAT SP IPHASW D HRMM SECON CODA AMPLIT PERI AZIMU VELO AIN AR TRES W  DIS CAZ7
 BAR2 SZ EP        950 40.49                             164    0.1710 32.8 159 
 BAR2 SZ ES   1    950 53.08                             164   -0.54 7 32.8 159 
 BRR  HZ EP   1    950 40.81                             154   -0.06 7 53.8 299 
 BRR  HE ES   1    950 54.90                             154    0.29 7 53.8 299 
 BRR  HZ I         950 55.64        13.6 0.12                          53.8 299 
 PAM  SZ EP   1    950 43.89                             143    0.48 7 83.1  51 
 PAM  SE ES   2    950 58.99                             143   -0.13 5 83.1  51 
 PAM  SZ I         951  2.02         4.5 0.24                          83.1  51 
 RUS  HZ EP   1    950 45.46                             135   -0.12 7  110 168 
 RUS  HE ES   2    951  3.09                             135    0.10 5  110 168 
 OCA  SZ EP   2    950 48.39                             125   -0.56 5  151 359 
 OCA  SZ ES   2    951  8.81                             125   -0.18 5  151 359 
 OCA  SZ I         951 10.02         9.4 0.18                           151 359 
 ZAR  HE ES   2    951 14.92                             119   -0.22 4  187 292 
 ZAR  HZ I         951 19.94         5.2 0.30                           187 292 
                                                                                
