 2013  616 0048  2.3 L   6.803 -73.177145.6  RSN  5 0.2 1.6LRSN                1
 GAP=198        0.50       3.5     3.9  8.2  0.5569E+01 -0.7549E+01 -0.2031E+02E
 Epicentro: LOS SANTOS - SANTANDER                                             3
 ACTION:UPD 14-01-08 09:54 OP:ep   STATUS:               ID:20130616004802 L   I
 OLDACT:REG 13-06-16 07:16 OP:cam  STATUS:               ID:20130616003959     3
 2013-06-16-0039-59M.COL___261                                                 6
 STAT SP IPHASW D HRMM SECON CODA AMPLIT PERI AZIMU VELO AIN AR TRES W  DIS CAZ7
 BAR2 SZ EP        048 21.89                             171   -0.0710 23.3 181 
 BRR  HZ EP        048 23.69                             154    0.3810 68.0 300 
 BRR  HZ I         048 46.81         8.5 0.58            150           68.0 300 
 RUS  HZ EP   1    048 25.99                             144   -0.14 7  101 174 
 RUS  HN ES        048 44.64                             144   -0.0410  101 174 
 RUS  HZ I         048 46.82         3.9 0.30            144            101 174 
 PTB  HZ EP   1    048 28.81                             133   -0.19 7  144 258 
 PTB  HN ES        048 49.78                             133   -0.01 9  144 258 
 PTB  HZ I         048 55.81         4.5 0.16            130            144 258 
 SML  HZ EP        048 38.85                             118    0.07 8  242 336 
 SML  HN ES        049  6.98                             118   -0.22 8  242 336 
 SML  HZ I         049  9.31         5.8 0.10            116            242 336 
                                                                                
