 2012  616 0705 28.2 L   6.799 -73.127149.5  RSN 10 0.4 2.4LRSN                1
 GAP=139        0.69       3.2     4.0  6.0 -0.2998E+01  0.1014E+02 -0.9386E+00E
 Epicentro: LOS SANTOS - SANTANDER                                             3
 ACTION:UPD 12-08-06 17:49 OP:ep   STATUS:               ID:20120616070528 L   I
 2012-06-16-0700-00M.COL___198                                                 6
 STAT SP IPHASW D HRMM SECON CODA AMPLIT PERI AZIMU VELO AIN AR TRES W  DIS CAZ7
 BAR2 SZ IP        7 5 48.32                             171    0.0310 23.6 195 
 BAR2 SZ I         7 5 48.88        37.1 0.18                          23.6 195 
 BAR2 SZ ES   1    7 6  4.18                             171    0.23 7 23.6 195 
 PAM  SZ EP        7 5 51.09                             152    0.3410 76.2  38 
 PAM  SN ES   1    7 6  8.49                             152    0.16 7 76.2  38 
 RUS  HZ EP   1    7 5 51.68                             145   -0.62 7  100 177 
 RUS  HN ES   1    7 6 10.87                             145   -0.23 7  100 177 
 RUS  HZ I         7 6 12.21        18.4 0.40                           100 177 
 PTB  HZ EP   1    7 5 54.95                             132   -0.70 7  150 259 
 PTB  HE ES   2    7 6 17.65                             132    0.59 5  150 259 
 PTB  HZ I         7 6 18.10        16.1 0.31                           150 259 
 OCA  HZ EP   1    7 5 57.02                             130    0.18 7  161 352 
 OCA  HN ES   1    7 6 18.64                             130   -0.54 7  161 352 
 OCA  HZ I         7 6 24.31        60.5 0.35                           161 352 
 ZAR  HZ EP   1    7 6  1.44                             123    0.35 6  206 292 
 ZAR  HN ES   1    7 6 26.54                             123   -0.20 6  206 292 
 ZAR  HZ I         7 6 33.45        37.2 0.30                           206 292 
 NOR  SZ EP   2    7 6  4.52                             119    0.20 4  236 235 
 NOR  SN ES   2    7 6 32.41                             119   -0.08 4  236 235 
 HEL  HZ EP   2    7 6  8.62                             115   -0.20 4  274 256 
 HEL  HN ES   2    7 6 41.11                             115    0.61 4  274 256 
 HEL  HZ I         7 6 48.75        10.0 0.52                           274 256 
 GUY  SE ES   1    7 6 46.68                             113   -0.24 5  305 235 
 GUY  SZ I         7 6 54.95        19.1 0.47                           305 235 
 PRA  HZ EP   1    7 6 22.67                             107    0.71 4  393 210 
 PRA  HN ES   2    7 7  4.65                             107    0.76 3  393 210 
                                                                                
