 2012  516 0846 31.3 L   6.672 -73.246148.0  RSN  7 0.4 1.7LRSN                1
 GAP=144        0.80       6.6     6.4  8.7  0.1812E+02 -0.4635E+01 -0.1680E+02E
 Epicentro: BARICHARA - SANTANDER                                              3
 ACTION:UP  12-07-05 12:05 OP:pat  STATUS:               ID:20120516084631 L   I
 2012-05-16-0840-00M.COL___195                                                 6
 STAT SP IPHASW D HRMM SECON CODA AMPLIT PERI AZIMU VELO SNR AR TRES W  DIS CAZ7
 BAR2 SZ EP   1    846 50.73                             176    -0.3 7   11 141 
 BAR2 SZ ES   2    847  5.43                             176    -1.0 5   11 141 
 BAR2 SZ I         847  6.75        10.8 0.32                            11 141 
 BRR  HZ EP   1    846 52.86                             153     0.2 7   70 313 
 BRR  HZ I         846 53.63        12.4 0.11                            70 313 
 BRR  HE ES   1    847  9.73                             153     0.4 7   70 313 
 RUS  HZ EP   1    846 54.48                             148     0.0 7   88 168 
 RUS  HN ES   1    847 12.85                             148     0.4 7   88 168 
 RUS  HZ I         847 14.57         4.6 0.36                            88 168 
 PTB  HZ EP   1    846 57.20                             135    -0.1 7  135 264 
 PTB  HN ES   1    847 17.46                             135    -0.1 7  135 264 
 PTB  HZ I         847 19.49         4.3 0.13                           135 264 
 OCA  HZ EP   1    847  1.09                             128     0.0 7  174 357 
 ZAR  HN ES   2    847 29.10                             124     0.5 4  200 297 
 ZAR  HZ I         847 34.90         6.8 0.32                           200 297 
 URE  HN ES   2    847 42.99                             115    -0.7 4  279 295 
                                                                                
