 2011 1116 0344  1.0 L   6.841 -73.317124.5  RSN  6 0.2 1.7LRSN                1
 GAP=127        0.52       2.7     3.9  5.3  0.3683E+01  0.1104E+01 -0.2240E+01E
 Epicentro: ZAPATOCA - SANTANDER                                               3
 ACTION:UPD 12-07-13 16:10 OP:ep   STATUS:               ID:20111116034401 L   I
 2011-11-16-0342-11S.COL___179                                                 6
 STAT SP IPHASW D HRMM SECON CODA AMPLIT PERI AZIMU VELO AIN AR TRES W  DIS CAZ7
 BAR2 SZ EP        344 18.49                             165    0.2010 31.3 152 
 BAR2 SZ ES   1    344 31.39                             165   -0.39 7 31.3 152 
 BAR2 SZ I         344 32.81        30.9 0.38                          31.3 152 
 BRR  HZ EP   1    344 18.86                             156    0.05 7 52.6 304 
 BRR  HN ES   1    344 33.13                             156    0.42 7 52.6 304 
 BRR  HZ I         344 43.37        18.4 0.38                          52.6 304 
 PAM  SE ES   2    344 37.91                             143    0.02 5 87.7  51 
 RUS  HZ EP   1    344 23.50                             137    0.17 7  108 166 
 RUS  HZ I         344 24.41         2.6 0.15                           108 166 
 RUS  HN ES   1    344 40.59                             137   -0.16 7  108 166 
 OCA  SZ EP   1    344 26.96                             125   -0.21 7  155 360 
 OCA  SZ ES   1    344 47.53                             125   -0.06 7  155 360 
 OCA  SZ I         344 51.16         9.0 0.15                           155 360 
 ZAR  HN ES   1    344 52.48                             120   -0.29 7  185 293 
 ZAR  HZ I         344 58.25         4.7 0.22                           185 293 
                                                                                
