 2013  916 0431 15.5 L   6.800 -73.176148.5  RSN  4 0.3 1.3LRSN                1
 GAP=242        0.67       5.9     6.1  6.0 -0.3860E+01  0.6250E+01  0.4979E+01E
 Epicentro: LOS SANTOS - SANTANDER                                             3
 ACTION:UPD 13-10-22 09:23 OP:ep   STATUS:               ID:20130916043115 L   I
 OLDACT:DUP 13-09-16 09:58 OP:jn   STATUS:               ID:20130916042960d    3
 OLDACT:REG 13-09-16 07:43 OP:jn   STATUS:               ID:20130916042959     3
 2013-09-16-0429-59M.COL___269                                                 6
 STAT SP IPHASW D HRMM SECON CODA AMPLIT PERI AZIMU VELO AIN AR TRES W  DIS CAZ7
 BAR2 SZ EP        431 35.27                             171   -0.1810 22.9 182 
 BAR2 SZ ES        431 50.89                             171   -0.1110 22.9 182 
 BAR2 SZ I         431 51.30         2.8 0.30            165           22.9 182 
 BRR  HZ EP     C  431 37.10                             154    0.3210 68.3 300 
 BRR  HN ES   1    431 53.57                             154    0.19 7 68.3 300 
 BRR  HZ I         431 58.33         3.6 0.12            149           68.3 300 
 PTB  HZ EP   1    431 41.79                             133   -0.60 7  144 259 
 PTB  HN ES   1    432  3.08                             133   -0.29 7  144 259 
 PTB  HZ I         432  7.13         2.6 0.30            131            144 259 
 SPBC HZ EP        431 44.22                             130    0.21 9  161 218 
 SPBC HN ES   1    432  6.51                             130    0.27 7  161 218 
 SPBC HZ I         432 13.33         4.4 0.26            129            161 218 
                                                                                
