 2017 1016 0502 47.8 L   6.778 -73.141141.6  RSN  5 0.4 1.1LRSN                1
 GAP=236        1.04       8.7     8.8  8.2  0.5471E+02  0.3405E+01 -0.1002E+02E
 Epicentro: LOS SANTOS - SANTANDER                                             3
 ACTION:UPD 17-11-07 19:32 OP:rebc STATUS:               ID:20171016050247 L   I
 OLDACT:REG 17-10-16 12:55 OP:dani STATUS:               ID:20171016045637     3
 2017-10-16-0457-00M.COL___416                                                 6
 STAT SP IPHASW D HRMM SECON CODA AMPLIT PERI AZIMU VELO AIN AR TRES W  DIS CAZ7
 BAR2 EZ EP        5 3  6.65                             171   -0.2710 21.0 193 
 BAR2 EZ ES        5 3 21.17                             171   -0.6310 21.0 193 
 BAR2 EZ I         5 3 22.43         1.6 0.32            168           21.0 193 
 BRR  HZ EP        5 3  8.48                             151   -0.1510 72.9 300 
 BRR  HN ES        5 3 25.50                             151    0.6510 72.9 300 
 BRR  HZ I         5 3 27.70         2.8 0.42            149           72.9 300 
 RUS  HZ EP        5 3 11.08                             144    0.0910 98.1 176 
 RUS  HN ES        5 3 29.55                             144    0.4910 98.1 176 
 RUS  HZ I         5 3 31.15         1.4 0.17            144           98.1 176 
 PTB  HN ES   1    5 3 34.63                             131   -0.62 7  148 260 
 ZAR  HZ EP        5 3 20.34                             121    0.18 8  205 293 
 ZAR  HN ES        5 3 45.36                             121   -0.01 8  205 293 
 ZAR  HZ I         5 3 50.80         2.4 0.23            121            205 293 
                                                                                
