 2016  816 0117 24.2 L   6.783 -73.116145.5  RSN 14 0.5 1.7LRSN                1
 GAP=141        1.12       3.9     4.0  6.3 -0.1693E+01  0.8036E+01  0.6688E+01E
 Epicentro: LOS SANTOS - SANTANDER                                             3
 ACTION:UPD 16-10-29 15:35 OP:rebc STATUS:               ID:20160816011724 L   I
 OLDACT:DUP 16-08-16 15:25 OP:ak   STATUS:               ID:20160816010760d    3
 OLDACT:REG 16-08-16 12:30 OP:ak   STATUS:               ID:20160816010759     3
 2016-08-16-0107-59S.COL___349                                                 6
 STAT SP IPHASW D HRMM SECON CODA AMPLIT PERI AZIMU VELO AIN AR TRES W  DIS CAZ7
 BAR2 EZ EP        117 43.32                             171   -0.4110 22.4 199 
 BAR2 EZ ES        117 58.53                             171   -0.4810 22.4 199 
 BAR2 EZ I         118  1.51        10.6 0.13                          22.4 199 
 BRR  HZ EP        117 45.49                             151    0.0010 74.9 299 
 BRR  HN ES        118  3.10                             151    0.9710 74.9 299 
 BRR  HZ I         118 12.60         3.5 0.13                          74.9 299 
 PAM  EZ EP        117 46.47                             151    0.1610 76.8  37 
 PAM  EN ES        118  3.78                             151    0.1910 76.8  37 
 PAM  EZ I         118  6.16         4.7 0.11                          76.8  37 
 RUS  HZ EP        117 47.46                             144   -0.2710 98.6 178 
 RUS  HN ES        118  6.15                             144    0.0210 98.6 178 
 RUS  HZ I         118  9.13         5.3 0.36                          98.6 178 
 PTB  HZ EP   1    117 50.39                             131   -0.97 7  151 260 
 PTB  HN ES        118 11.79                             131   -0.79 9  151 260 
 PTB  HZ I         118 19.06         7.7 0.56                           151 260 
 SPBC HZ EP        117 52.64                             129   -0.05 9  164 220 
 SPBC HN ES        118 15.27                             129    0.31 9  164 220 
 SPBC HZ I         118 20.56        10.4 0.13                           164 220 
 ZAR  HZ EP   2    117 56.57                             122   -0.39 4  208 292 
 ZAR  HN ES        118 22.40                             122   -0.16 8  208 292 
 ZAR  HZ I         118 29.17         3.9 0.37                           208 292 
 NOR  HN ES        118 27.79                             118   -0.24 8  236 235 
 CHI  HZ EP        118  1.86                             117    0.12 8  248 196 
 CHI  HN ES        118 31.16                             117    0.10 8  248 196 
 CHI  HZ I         118 39.65         2.2 0.07                           248 196 
 ROSC BZ EP   4    118  3.54                             117    1.27 0  253 212 
 ROSC BN ES   4    118 34.40                             117    2.40 0  253 212 
 ROSC BZ I         118 39.44         5.4 0.45                           253 212 
 HEL  HN ES        118 36.99                             114    0.75 8  275 256 
 GUY2CHZ EP        118  8.72                             112    0.79 7  303 235 
 GUY2CHN ES        118 42.44                             112    0.36 7  303 235 
 GUY2CHZ I         118 50.52         4.0 0.78                           303 235 
 CBOC HZ EP        118 11.56                             110    0.21 7  336 253 
 CBOC HN ES        118 47.20                             110   -0.96 7  336 253 
 CBOC HZ I         118 51.83         1.0 0.07                           336 253 
 PRA  HZ EP   2    118 17.70                             106    0.03 3  392 210 
 PRA  HN ES        119  0.22                             106    0.81 6  392 210 
 PRA  HZ I         119  3.86         2.1 0.30                           392 210 
                                                                                
