 2015  216 0747 43.1 L   6.515 -73.483114.4  RSN 10 0.4 1.8LRSN                1
 GAP= 72        1.27       3.5     4.4  7.4 -0.2033E+01  0.9599E+01 -0.5177E+01E
 Epicentro: SIMACOTA - SANTANDER                                               3
 ACTION:UPD 15-04-30 21:26 OP:nd   STATUS:               ID:20150216074743 L   I
 OLDACT:UP  15-02-16 17:42 OP:mh   STATUS:               ID:20150216073741     3
 OLDACT:REG 15-02-16 13:46 OP:mh   STATUS:               ID:20150216073741     3
 2015-02-16-0737-41M.COL___296                                                 6
 STAT SP IPHASW D HRMM SECON CODA AMPLIT PERI AZIMU VELO AIN AR TRES W  DIS CAZ7
 BAR2 EZ EP   1    747 59.87                             161    0.57 7 34.3  76 
 BAR2 EZ ES        748 11.84                             161   -0.1110 34.3  76 
 BAR2 EZ I         748 13.23        41.4 0.46            163           34.3  76 
 BRR  HZ EP        748  0.73                             146   -0.1510 70.2 339 
 BRR  HN ES        748 14.86                             146    0.1010 70.2 339 
 BRR  HZ I         748 22.09         6.1 0.22            145           70.2 339 
 RUS  HZ EP        748  2.47                             141    0.0710 81.8 147 
 RUS  HN ES        748 17.82                             141    0.3610 81.8 147 
 PTB  HZ EP   9    748  2.73                             133   -1.14 0  108 272 
 PTB  HN ES        748 17.58                                   -1.3610  108 272 
 PTB  HZ I         748 18.97        15.9 0.26            135            108 272 
 SPBC HZ EP        748  4.31                             130   -0.3710  116 214 
 SPBC HN ES        748 20.97                             130   -0.5510  116 214 
 SPBC HZ I         748 22.09        10.0 0.10            135            116 214 
 PAM  SZ EP        748  6.59                             128    0.4310  126  43 
 PAM  SN ES        748 23.89                             128   -0.2710  126  43 
 PAM  SZ I         748 25.18         7.1 0.24            130            126  43 
 ZAR  HZ EP        748 11.29                             116   -0.48 9  187 306 
 ZAR  HN ES        748 34.52                             116    0.37 9  187 306 
 ZAR  HZ I         748 36.43        11.9 0.44            118            187 306 
 OCA  HZ EP   4    748 11.77                             115   -0.74 0  192   5 
 OCA  HN ES   1    748 34.86                             115   -0.60 7  192   5 
 OCA  HZ I         748 39.97         4.3 0.20            117            192   5 
 GUY2CHZ EP   4    748 21.38                             109    1.59 0  253 236 
 GUY2CHN ES        748 49.10                             109    0.68 8  253 236 
 GUY2CHZ I         748 52.81         2.5 0.26                           253 236 
 SML  HZ EP        748 19.88                             108   -0.28 8  261 346 
 SML  HN ES        748 49.49                             108    0.41 8  261 346 
 SML  HZ I         748 51.75         8.0 0.26            110            261 346 
 URE  HZ EP   4    748 20.04                             107   -0.55 0  265 301 
 URE  HN ES   4    748 48.82                             107   -1.03 0  265 301 
                                                                                
