 2012 1216 0843 10.2 L   6.785 -73.134145.9  RSN  7 0.5 1.2LRSN                1
 GAP=139        0.97       6.5     6.2  8.4 -0.1071E+01  0.8167E+01  0.5574E+01E
 Epicentro: LOS SANTOS - SANTANDER                                             3
 ACTION:UPD 13-01-04 14:28 OP:ep   STATUS:               ID:20121216084310 L   I
 2012-12-16-0840-00M.COL___239                                                 6
 STAT SP IPHASW D HRMM SECON CODA AMPLIT PERI AZIMU VELO AIN AR TRES W  DIS CAZ7
 BAR2 SZ EP   1    843 29.74                             171   -0.04 7 22.0 194 
 BAR2 SZ ES   1    843 44.84                             171   -0.24 7 22.0 194 
 BAR2 SZ I         843 46.04         9.2 0.26                          22.0 194 
 GIR2 SZ EP   1    843 29.77                             167   -0.13 7 33.1 349 
 GIR2 SZ ES   1    843 44.94                             167   -0.35 7 33.1 349 
 GIR2 SZ I         843 49.17         2.3 0.28                          33.1 349 
 BRR  HZ EP   1    843 31.70                             152    0.27 7 73.1 299 
 BRR  HZ I         843 48.83         3.9 0.56                          73.1 299 
 BRR  HN ES   1    843 49.02                             152    1.00 7 73.1 299 
 PAM  SZ EP   1    843 32.72                             151    0.31 7 77.8  38 
 PAM  SN ES   1    843 49.33                             151   -0.44 7 77.8  38 
 PAM  SZ I         843 52.21         1.6 0.18                          77.8  38 
 RUS  HZ EP   1    843 33.85                             144    0.05 7 98.9 177 
 RUS  HE ES   1    843 52.81                             144    0.57 7 98.9 177 
 RUS  HZ I         843 55.41         1.5 0.32                          98.9 177 
 PTB  HZ EP   1    843 36.70                             132   -0.53 7  149 260 
 PTB  HN ES   1    843 57.46                             132   -0.88 7  149 260 
 PTB  HZ I         844  5.09         4.5 0.60                           149 260 
 ZAR  HN ES   2    844  8.94                             122    0.68 4  206 292 
                                                                                
