 2012 1216 0252 48.2 L   6.825 -73.158142.9  RSN  6 0.3 1.4LRSN                1
 GAP=134        0.65       4.5     4.1  7.2 -0.2911E+00  0.9560E+01 -0.3520E+01E
 Epicentro: LOS SANTOS - SANTANDER                                             3
 ACTION:UPD 13-01-04 14:28 OP:ep   STATUS:               ID:20121216025248 L   I
 2012-12-16-0250-00M.COL___239                                                 6
 STAT SP IPHASW D HRMM SECON CODA AMPLIT PERI AZIMU VELO AIN AR TRES W  DIS CAZ7
 BAR2 SZ EP   1    253  7.37                             169   -0.13 7 25.9 186 
 BAR2 SZ ES   1    253 22.27                             169   -0.31 7 25.9 186 
 BAR2 SZ I         253 24.06        14.3 0.26                          25.9 186 
 BRR  HZ EP   1    253  9.07                             153    0.22 7 68.7 297 
 BRR  HE ES   4    253 26.40                             153    1.40 0 68.7 297 
 BRR  HZ I         253 31.79         4.0 0.28                          68.7 297 
 PAM  SZ EP   1    253 10.36                             151    0.37 7 76.1  42 
 PAM  SN ES   1    253 26.83                             151   -0.19 7 76.1  42 
 PAM  SZ I         253 29.66         3.1 0.48                          76.1  42 
 RUS  HZ EP   1    253 11.74                             142   -0.10 7  103 175 
 RUS  HE ES   1    253 30.73                             142    0.42 7  103 175 
 RUS  HZ I         253 31.72         3.5 0.24                           103 175 
 PTB  HZ EP   1    253 14.17                             131   -0.65 7  147 258 
 PTB  HN ES   1    253 35.70                             131    0.08 7  147 258 
 PTB  HZ I         253 37.19         3.1 0.12                           147 258 
 ZAR  HE ES   1    253 45.46                             122    0.30 6  202 292 
                                                                                
