 2017 1116 0727 11.7 L   6.910 -73.319120.0  RSN 28 0.9 2.8LRSN                1
 GAP= 52        1.76       3.7     3.8  8.0 -0.5185E-01  0.1209E+02 -0.2277E+01E
 Epicentro: BETULIA - SANTANDER                                                3
 ACTION:UPD 17-12-12 19:56 OP:rebc STATUS:               ID:20171116072711 L   I
 OLDACT:UP  17-11-16 18:00 OP:leo  STATUS:               ID:20171116071740     3
 OLDACT:UP  17-11-16 17:30 OP:leo  STATUS:               ID:20171116071740     3
 OLDACT:REG 17-11-16 13:47 OP:y    STATUS:               ID:20171116071740     3
 2017-11-16-0718-00M.COL___423                                                 6
 STAT SP IPHASW D HRMM SECON CODA AMPLIT PERI AZIMU VELO AIN AR TRES W  DIS CAZ7
 BAR2 EZ IP        727 28.81                             161    0.0810 38.2 157 
 BAR2 HE ES        727 42.25                             161    0.2410 38.2 157 
 BAR2 EZ I         727 43.10       600.7 0.22            160           38.2 157 
 PAM  EZ EP        727 31.89                             143    0.2110 83.3  55 
 PAM  EE ES        727 48.79                             143    1.5310 83.3  55 
 PAM  EZ I         727 50.49       120.4 0.28            136           83.3  55 
 RUS  HZ EP        727 33.56                             133   -0.7410  115 167 
 RUS  HN ES        727 51.56                             133   -0.3610  115 167 
 RUS  HZ I         727 53.62        40.4 0.18            128            115 167 
 PTB  HZ IP     D  727 34.16                             129   -1.0410  132 252 
 PTB  HE ES        727 52.64                             129   -0.8810  132 252 
 PTB  HZ I         727 55.99       102.9 0.44            122            132 252 
 SPBC HZ EP        727 38.07                             123   -0.19 9  162 211 
 SPBC HN ES        727 58.22                             123   -0.76 9  162 211 
 SPBC HZ I         728  4.52        63.6 0.28            117            162 211 
 TAM  HZ IP        727 39.68                             120   -0.06 9  177 107 
 TAM  HN ES        728  0.16                             120   -1.44 9  177 107 
 TAM  HZ I         728  0.72        69.1 0.16            115            177 107 
 ZAR  HZ EP        727 40.43                             119    0.22 9  182 291 
 ZAR  HN ES        728  2.84                             119    0.39 9  182 291 
 ZAR  HZ I         728  8.92        83.0 0.26            113            182 291 
 YPLC HZ EP        727 41.76                             117   -0.17 9  197 148 
 YPLC HE ES        728  6.06                             117    0.55 9  197 148 
 YPLC HZ I         728  7.89       211.3 0.30            112            197 148 
 NOR  HZ EP        727 44.27                             113   -0.97 8  227 229 
 NOR  HE ES        728 11.31                             113   -0.08 8  227 229 
 NOR  HZ I         728 15.79        32.0 0.46            109            227 229 
 ROSC BZ EP   4    727 51.07                             111    2.33 0  254 206 
 ROSC BN ES   4    728 22.69                             111    5.07 0  254 206 
 ROSC BZ I         728 25.00        29.3 0.35            107            254 206 
 CHI  HZ EP        727 48.81                             110   -0.18 8  256 190 
 CHI  HE ES        728 18.15                             110    0.09 8  256 190 
 CHI  HZ I         728 29.58        15.7 0.40            107            256 190 
 URE  HZ EP        727 48.23                             110   -0.86 8  262 291 
 URE  HN ES        728 17.52                             110   -0.73 8  262 291 
 URE  HZ I         728 19.26        61.5 0.14            106            262 291 
 GUY2CHZ EP        727 54.96                             107    1.62 7  293 231 
 GUY2CHN ES        728 26.19                             107    0.38 7  293 231 
 GUY2CHZ I         728 32.79        30.8 0.30                           293 231 
 DBB  EZ EP        727 56.10                             105    0.17 7  320 272 
 DBB  EN ES        728 30.91                             105    0.48 7  320 272 
 DBB  EZ I         728 34.70        21.3 0.14            103            320 272 
 CBOC HZ EP        727 56.58                             105    0.54 7  320 249 
 CBOC HN ES        728 30.82                             105    0.21 7  320 249 
 CBOC HZ I         728 33.56        18.0 0.30            103            320 249 
 ELA  HZ EP        727 57.39                             105    0.49 7  323 226 
 ELA  HN ES        728 32.03                             105   -0.13 7  323 226 
 ELA  HZ I         728 37.84        18.9 0.50            103            323 226 
 PTGC HZ EP   9    727 54.82                             105   -1.90 0  327 156 
 PTGC HN ES        728 29.43                                   -0.50 7  327 156 
 PTGC HZ I         728 32.12        20.0 0.40            103            327 156 
 ARGC HZ EP        728  0.02                             104    1.59 7  342 343 
 ARGC HZ I         728 46.93         9.7 0.26            102            342 343 
 ANIL HZ EP        728  0.64                             104    0.48 6  353 221 
 ANIL HE ES        728 38.46                             104    0.50 6  353 221 
 ANIL HZ I         728 47.10        43.9 0.32            101            353 221 
 APAC HE ES        728 44.34                             102    2.17 6  376 287 
 SJC  HN EP        728  4.51                             102    0.42 6  389 328 
 SJC  HE ES        728 43.05                             102   -1.90 6  389 328 
 SJC  HN I         728 44.48        22.9 0.38            100            389 328 
 PRA  HZ EP        728  4.57                             102   -0.10 6  394 206 
 PRA  HN ES        728 46.69                             102    0.71 6  394 206 
 PRA  HZ I         728 50.75        21.0 0.32            100            394 206 
 ORTC HZ EP        728  4.97                             102    0.21 6  395 213 
 ORTC HN ES        728 48.42                             102    2.27 6  395 213 
 ORTC HZ I         728 52.67        11.3 0.28            100            395 213 
 PAL  HZ EP        728  4.94                             101   -0.03 6  396 236 
 PAL  HN ES        728 46.66                             101    0.14 6  396 236 
 PAL  HZ I         728 51.02        16.9 0.26            100            396 236 
 CRJC HZ EP        728 12.25                              99   -0.08 5  457   6 
 CRJC HN ES        728 59.09                              99   -0.53 5  457   6 
 CRJC HZ I         729  8.03        19.5 0.18             98            457   6 
 SMAR HZ EP        728 17.46                              98    2.38 5  481 348 
 CAP2 HZ EP        728 13.84                              98   -1.78 5  485 294 
 CAP2 HN ES        729  2.90                              98   -2.57 5  485 294 
 CAP2 HZ I         729  4.44         7.8 0.12             98            485 294 
 JAMC HZ EP        728 23.31                              97   -0.70 4  552 222 
 JAMC HN ES        729 20.16                              97   -0.25 4  552 222 
                                                                                
