 2014  316 0849 23.4 L   6.810 -73.173154.0  RSN  4 0.2 1.6LRSN                1
 GAP=199        0.40       3.4     3.5  7.0  0.4681E+01 -0.2440E+01 -0.1609E+02E
 Epicentro: LOS SANTOS - SANTANDER                                             3
 OLDACT:REG 14-03-16 07:46 OP:fm   STATUS:               ID:20140316084807     3
 ACTION:UPD 14-04-09 23:17 OP:nd   STATUS:               ID:20140316084923 L   I
 OLDACT:UP  14-03-16 13:25 OP:fm   STATUS:               ID:20140316084807     3
 2014-03-16-0848-07M.COL___239                                                 6
 STAT SP IPHASW D HRMM SECON CODA AMPLIT PERI AZIMU VELO AIN AR TRES W  DIS CAZ7
 RUS  HN ES     C  850  7.29                             145    0.0210  102 174 
 PTB  HZ EP        849 50.64                             134   -0.14 9  145 258 
 PTB  HN ES        850 12.19                             134    0.03 9  145 258 
 PTB  HZ I         850 28.00         4.2 3.02            140            145 258 
 ZAR  HN ES   1    850 21.66                             125    0.13 6  201 292 
 SML  HZ EP   1    850  0.53                             119    0.29 6  241 336 
 SML  HN ES   1    850 28.78                             119   -0.21 6  241 336 
 SML  HZ I         850 45.02         3.5 0.80            125            241 336 
                                                                                
