 2013  416 0821 51.2 L   6.819 -73.094149.9  RSN 13 0.4 2.2LRSN                1
 GAP=129        0.95       3.5     6.2  5.9 -0.3998E+01 -0.3256E+01 -0.7433E+00E
 Epicentro: LOS SANTOS - SANTANDER                                             3
 ACTION:UPD 13-05-22 14:38 OP:EP   STATUS:               ID:20130416082151 L   I
 2013-04-16-0818-50M.COL___210                                                 6
 STAT SP IPHASW D HRMM SECON CODA AMPLIT PERI AZIMU VELO AIN AR TRES W  DIS CAZ7
 BAR2 SZ IP        822 11.58                             169    0.1510 26.9 201 
 BAR2 SZ ES   1    822 26.63                             169   -0.56 7 26.9 201 
 BAR2 SZ I         822 29.33        49.1 0.32            169           26.9 201 
 GIR2 SZ EP        822 11.65                             168    0.2710 30.8 339 
 GIR2 SZ I         822 28.54        26.4 0.34            167           30.8 339 
 BRR  HZ IP     D  822 13.50                             152    0.4410 75.4 295 
 BRR  HN ES        822 30.64                             152    0.5510 75.4 295 
 BRR  HZ I         822 31.97        23.1 0.16            151           75.4 295 
 RUS  HZ IP     D  822 15.50                             144   -0.0210  102 179 
 RUS  HN ES   2    822 34.27                             144   -0.19 5  102 179 
 RUS  HZ I         822 35.22         7.9 0.26            145            102 179 
 PTB  HZ EP        822 18.15                             132   -0.93 9  154 258 
 PTB  HN ES   4    822 39.22                             132   -1.58 0  154 258 
 PTB  HZ I         822 45.28        24.7 0.36            131            154 258 
 OCA  HZ EP        822 19.42                             131   -0.33 9  159 351 
 OCA  HN ES   1    822 41.48                             131   -0.51 7  159 351 
 OCA  HZ I         822 45.68        19.2 0.18            131            159 351 
 NOR  HZ EP        822 28.26                             119    0.43 8  241 235 
 NOR  HN ES   1    822 56.04                             119   -0.33 6  241 235 
 NOR  HZ I         822 58.91        12.1 0.42            119            241 235 
 SML  HZ EP        822 27.81                             118   -0.34 8  244 334 
 SML  HN ES   1    822 57.25                             118    0.30 6  244 334 
 SML  HZ I         822 59.03        18.6 0.08            119            244 334 
 HEL  HZ IP   4 C  822 33.85                             115    1.53 0  278 256 
 HEL  HN ES   4    823  2.76                             115   -1.61 0  278 256 
 HEL  HZ I         823 12.04         5.8 0.36            115            278 256 
 COD  HZ EP        822 39.50                             110   -0.11 6  347 354 
 COD  HN ES   2    823 17.56                             110    0.22 3  347 354 
 SDV  BZ IP     D  822 40.94                             109    0.16 6  355  50 
 SDV  BN ES   4    823 18.12                             109   -1.30 0  355  50 
 PRA  HZ EP        822 46.23                             107    0.79 6  397 210 
 PRA  HN ES   1    823 27.28                             107   -0.43 4  397 210 
 PRA  HZ I         823 31.24         6.7 0.48            108            397 210 
 OTAV BN E         831 26.63                                            940 219 
                                                                                
