 2014  416 0736 30.5 L   6.399 -73.552102.4  RSN 12 0.5 1.6LRSN                1
 GAP= 95        0.99       2.9     3.0  7.9 -0.2929E+01  0.7083E+01 -0.8389E+01E
 Epicentro: SANTA HELENA DEL OPON - SANTANDER                                  3
 ACTION:UPD 14-05-13 23:08 OP:nd   STATUS:               ID:20140416073630 L   I
 OLDACT:REG 14-04-16 12:52 OP:nd   STATUS:               ID:20140416073040     3
 2014-04-16-0730-40M.COL___248                                                 6
 STAT SP IPHASW D HRMM SECON CODA AMPLIT PERI AZIMU VELO AIN AR TRES W  DIS CAZ7
 RUS  HZ EP        736 48.06                             141   -0.2010 76.4 137 
 RUS  HE ES   1    737  2.30                             141    0.18 7 76.4 137 
 RUS  HZ I         737  3.43         6.5 0.20            135           76.4 137 
 SPBC HZ IP     C  736 49.61                             132   -0.1610  101 215 
 SPBC HN ES        737  5.23                             132    0.4310  101 215 
 SPBC HZ I         737  8.95        11.2 0.29            125            101 215 
 PTB  HZ IP     D  736 49.08                             131   -0.6410  101 279 
 PTB  HN ES        737  4.62                             131   -0.0810  101 279 
 PTB  HZ I         737  5.46        13.5 0.16            127            101 279 
 PAM  SZ EP        736 54.37                             122    0.19 9  140  42 
 PAM  SN ES        737 12.76                             122    0.11 9  140  42 
 PAM  SZ I         737 15.22         5.1 0.20            119            140  42 
 NOR  HN ES   1    737 16.89                             115   -0.93 7  173 238 
 ZAR  HZ EP        736 58.80                             113    0.03 9  188 310 
 ZAR  HE ES   1    737 21.22                             113    0.41 7  188 310 
 ZAR  HZ I         737 27.56         7.4 0.12            110            188 310 
 CHI  HN ES   1    737 23.13                             112   -0.29 6  197 186 
 OCA  HN ES   1    737 25.21                             111    0.68 6  205   7 
 HEL  HZ EP        737  3.18                             109    0.35 8  220 264 
 HEL  HN ES   1    737 28.01                             109   -0.04 6  220 264 
 HEL  HZ I         737 32.07         3.8 0.15            107            220 264 
 GUY2CHN ES   1    737 31.83                             107   -0.42 6  239 237 
 SML  HZ EP   1    737  8.15                             104   -0.26 6  272 348 
 SML  HE ES        737 37.17                             104   -0.82 8  272 348 
 CBOC HZ EP        737 10.15                             104    0.69 7  279 258 
 CBOC HN ES        737 40.63                             104    0.79 7  279 258 
 CBOC HZ I         737 47.59         1.2 0.34            103            279 258 
                                                                                
