 2011 1216 0134 10.8 L   6.764 -73.124138.1  RSN  9 0.3 2.2LRSN                1
 GAP=141        0.65       3.3     3.5  4.7 -0.4174E+01  0.3822E+01  0.1771E+01E
 Epicentro: LOS SANTOS - SANTANDER                                             3
 ACTION:UPD 12-07-13 16:16 OP:ep   STATUS:               ID:20111216013410 L   I
 2011-12-16-0130-00M.COL___187                                                 6
 STAT SP IPHASW D HRMM SECON CODA AMPLIT PERI AZIMU VELO AIN AR TRES W  DIS CAZ7
 BAR2 SZ EP   1    134 29.16                             171   -0.24 7 20.1 199 
 BAR2 SZ ES   1    134 43.83                             171   -0.10 7 20.1 199 
 BAR2 SZ I         134 45.39        50.2 0.21                          20.1 199 
 GIR2 SZ EP        134 29.49                             165   -0.1610 35.6 348 
 BRR  HZ EP        134 31.36                             150    0.0410 75.2 300 
 BRR  HE ES        134 47.77                             150    0.4110 75.2 300 
 BRR  HZ I         134 49.42        51.8 0.11                          75.2 300 
 PAM  SZ EP        134 32.24                             149   -0.0210 79.1  36 
 PAM  SN ES   1    134 48.84                             149   -0.20 7 79.1  36 
 RUS  HZ EP        134 33.40                             143   -0.0610 96.5 177 
 RUS  HN ES   1    134 51.53                             143    0.37 7 96.5 177 
 RUS  HZ I         134 53.32        17.4 0.38                          96.5 177 
 OCA  SZ EP   1    134 38.72                             127   -0.17 7  165 352 
 OCA  SZ I         135  1.60        19.9 0.24                           165 352 
 NOR  SZ EP   1    134 45.98                             117   -0.03 6  234 236 
 NOR  SE ES        135 13.06                             117   -0.45 8  234 236 
 HEL  HZ EP   1    134 51.43                             113    0.69 6  273 257 
 HEL  HE ES   1    135 21.39                             113   -0.54 6  273 257 
 HEL  HZ I         135 29.70         7.5 0.30                           273 257 
 RREF HZ EP   1    134 57.22                             109    0.73 5  321 230 
 RREF HN ES   1    135 32.25                             109    0.09 5  321 230 
 RREF HZ I         135 41.39         5.1 0.22                           321 230 
                                                                                
