 2013  616 0626  2.9 L   6.812 -73.157158.1  RSN  4 0.2 1.4LRSN                1
 GAP=211        0.44       3.6     5.0  5.0  0.3172E+00 -0.7619E+01 -0.5050E+00E
 Epicentro: LOS SANTOS - SANTANDER                                             3
 ACTION:UPD 14-01-08 09:55 OP:ep   STATUS:               ID:20130616062602 L   I
 OLDACT:REG 13-06-16 07:37 OP:cam  STATUS:               ID:20130616061959     3
 2013-06-16-0619-59M.COL___261                                                 6
 STAT SP IPHASW D HRMM SECON CODA AMPLIT PERI AZIMU VELO AIN AR TRES W  DIS CAZ7
 BAR2 SZ EP        626 23.93                             171   -0.1510 24.4 187 
 BRR  HZ EP        626 25.66                             155    0.3110 69.5 298 
 BRR  HN ES        626 42.80                             155   -0.0210 69.5 298 
 BRR  HZ I         626 46.43         4.4 0.14            151           69.5 298 
 PTB  HZ EP        626 30.83                             135   -0.03 9  147 258 
 PTB  HE ES   1    626 52.57                             135   -0.06 7  147 258 
 PTB  HZ I         626 53.74         2.1 0.36            136            147 258 
 SML  HZ EP   1    626 39.98                             120   -0.13 6  242 335 
 SML  HN ES   1    627  8.99                             120   -0.11 6  242 335 
 SML  HZ I         627 15.23         2.9 0.28            120            242 335 
                                                                                
