 2016  516 0914 54.3 L   6.758 -73.097152.0  RSN 10 0.3 1.8LRSN                1
 GAP=125        0.54       3.3     3.5  5.2 -0.5182E+01  0.2228E+01  0.5438E+01E
 Epicentro: LOS SANTOS - SANTANDER                                             3
 ACTION:UPD 16-08-18 17:46 OP:cam  STATUS:               ID:20160516091454 L   I
 OLDACT:REG 16-05-16 12:56 OP:mh   STATUS:               ID:20160516090746     3
 2016-05-16-0907-46M.COL___277                                                 6
 STAT SP IPHASW D HRMM SECON CODA AMPLIT PERI AZIMU VELO AIN AR TRES W  DIS CAZ7
 BAR2 EZ EP        915 14.62                             172    0.0210 20.6 207 
 BAR2 EZ I         915 32.37         5.6 0.30            168           20.6 207 
 PAM  EZ EP        915 17.44                             151    0.2610 77.9  34 
 PAM  EN ES        915 34.86                             151   -0.1910 77.9  34 
 PAM  EZ I         915 36.86         8.3 0.46            153           77.9  34 
 RUS  HZ EP   2    915 18.66                             146    0.36 5 95.7 179 
 RUS  HE ES   2    915 36.88                             146   -0.17 5 95.7 179 
 SPBC HZ EP        915 23.57                             130    0.32 9  163 222 
 SPBC HN ES        915 45.74                             130   -0.11 9  163 222 
 SPBC HZ I         915 52.76        12.6 0.36            128            163 222 
 ZAR  HZ EP   2    915 27.12                             122   -0.70 4  211 293 
 ZAR  HN ES   2    915 53.64                             122   -0.35 4  211 293 
 ZAR  HZ I         915 59.77         9.3 0.28            121            211 293 
 NOR  HZ EP   2    915 29.95                             119   -0.61 4  236 236 
 NOR  HE ES   2    915 59.03                             119    0.17 4  236 236 
 NOR  HZ I         916  2.92         7.0 0.24            118            236 236 
 HEL  HZ EP   2    915 35.98                             115    0.71 4  276 257 
 HEL  HN ES   2    916  7.54                             115    0.30 4  276 257 
 HEL  HZ I         916 15.36         3.2 0.26            114            276 257 
 URE  HZ EP   4    915 40.96                             114    4.56 0  291 292 
 URE  HN ES   4    916  7.55                             114   -1.72 0  291 292 
 URE  HZ I         916 19.07         3.8 0.16            113            291 292 
 PTGC HZ EP        915 37.46                             113   -0.24 7  302 159 
 PTGC HN ES   4    916  7.85                             113   -3.73 0  302 159 
 PTGC HZ I         916 17.92         2.9 0.36            113            302 159 
 PRA  HZ EP   2    915 47.58                             107   -0.28 3  391 211 
 PRA  HN ES   2    916 29.09                             107   -0.56 3  391 211 
 PRA  HZ I         916 38.87         1.9 0.36            107            391 211 
                                                                                
