 2011  616 0009 55.2 L   6.757 -73.081143.2  RSN  5 0.3 1.4LRSN                1
 GAP=166        0.56       3.6     6.6  7.0 -0.1129E+02 -0.2268E+01  0.1475E+01E
 Epicentro: LOS SANTOS - SANTANDER                                             3
 ACTION:UP  11-07-14 19:05 OP:ep   STATUS:               ID:20110616000955 L   I
 2011-06-16-0004-54S.COL___138                                                 6
 STAT SP IPHASW D HRMM SECON CODA AMPLIT PERI AZIMU VELO SNR AR TRES W  DIS CAZ7
 BAR2 SZ EP   1    010 14.13                             171    -0.3 8   21 212 
 BAR2 SZ I         010 15.14         4.0 0.41                            21 212 
 BAR2 SZ ES   2    010 29.09                             171    -0.4 5   21 212 
 BRR  HZ EP   1    010 16.57                             149     0.0 8   80 299 
 BRR  HZ I         010 17.27        12.3 0.25                            80 299 
 BRR  HE ES   2    010 33.70                             149     0.4 5   80 299 
 RUS  HZ EP   1    010 18.62                             145     0.3 8   96 180 
 RUS  HE ES   2    010 36.64                             145     0.3 5   96 180 
 RUS  HZ I         010 38.64         2.0 0.61                            96 180 
 GRA  SZ EP        010 20.43                             136     0.010  128  14 
 GRA  SZ ES        010 40.11                             136     0.010  128  14 
 GRA  SZ I         010 41.37         2.8 0.35                           128  14 
 NOR  SZ ES   2    010 58.88                             117    -0.3 4  238 236 
                                                                                
