 2013 1116 0618 50.4 L   6.830 -73.163132.5  RSN 11 0.5 1.9LRSN                1
 GAP=181        1.18       3.5     5.7  7.0  0.1627E+01  0.6233E+01 -0.5076E+01E
 Epicentro: LOS SANTOS - SANTANDER                                             3
 ACTION:UPD 14-01-09 16:28 OP:ep   STATUS:               ID:20131116061850 L   I
 OLDACT:REG 13-11-16 13:04 OP:nd   STATUS:               ID:20131116061748     3
 2013-11-16-0617-48M.COL___223                                                 6
 STAT SP IPHASW D HRMM SECON CODA AMPLIT PERI AZIMU VELO AIN AR TRES W  DIS CAZ7
 BAR2 SZ IP     C  619  8.85                             168    0.3910 26.4 185 
 BAR2 SZ ES        619 22.95                             168    0.3610 26.4 185 
 BAR2 SZ I         619 26.35        28.9 0.38            167           26.4 185 
 BRR  HZ EP        619 10.65                             151    0.7610 68.0 297 
 BRR  HN ES        619 25.47                             151    0.3410 68.0 297 
 BRR  HZ I         619 29.99        15.4 0.30            146           68.0 297 
 RUS  HZ EP        619 12.92                             140   -0.1710  104 175 
 RUS  HN ES        619 30.51                             140   -0.3210  104 175 
 RUS  HZ I         619 33.27         8.8 0.28            140            104 175 
 PTB  HZ EP        619 15.67                             129   -0.49 9  147 257 
 PTB  HN ES        619 35.68                             129   -0.61 9  147 257 
 PTB  HZ I         619 39.89         8.9 0.20            126            147 257 
 OCA  HZ EP        619 17.58                             127    0.25 9  157 354 
 OCA  HN ES        619 37.60                             127   -0.77 9  157 354 
 OCA  HZ I         619 42.73         6.8 0.56            126            157 354 
 SPBC HZ EP        619 17.74                             126   -0.27 9  165 218 
 SPBC HN ES        619 39.35                             126   -0.23 9  165 218 
 SPBC HZ I         619 47.74         8.1 0.36            124            165 218 
 ZAR  HZ EP        619 21.70                             120    0.05 9  201 291 
 ZAR  HN ES        619 46.28                             120    0.22 9  201 291 
 ZAR  HZ I         619 53.87        11.9 0.30            117            201 291 
 SML  HZ EP        619 25.27                             115   -0.58 8  240 335 
 SML  HN ES        619 53.53                             115   -0.01 8  240 335 
 SML  HZ I         619 58.18        13.4 0.10            114            240 335 
 HEL  HZ EP        619 30.90                             112    1.09 8  271 255 
 HEL  HN ES   4    620  1.92                             112    1.34 0  271 255 
 HEL  HZ I         620  8.32         3.4 0.36            111            271 255 
 GUY2CHZ EP   4    619 34.97                             110    1.55 0  302 234 
 GUY2CHN ES   4    620  6.54                             110   -0.48 0  302 234 
 GUY2CHZ I         620 14.21         3.9 0.28                           302 234 
 SJC  HZ EP   4    619 43.37                             104   -1.68 0  405 327 
 SJC  HZ I         620 14.00         1.5 0.56            103            405 327 
 SJC  HN ES   4    620 23.61                             104   -4.11 0  405 327 
                                                                                
