 2015  316 0714 17.7 L   6.787 -73.155150.9  RSN  9 0.5 1.7LRSN                1
 GAP= 71        1.17       3.9     4.4  7.7  0.2204E+01 -0.4663E+01 -0.6024E+01E
 Epicentro: LOS SANTOS - SANTANDER                                             3
 ACTION:UPD 15-04-30 16:26 OP:nd   STATUS:               ID:20150316071417 L   I
 OLDACT:REG 15-03-16 12:48 OP:stll STATUS:               ID:20150316070736     3
 2015-03-16-0707-36M.COL___251                                                 6
 STAT SP IPHASW D HRMM SECON CODA AMPLIT PERI AZIMU VELO AIN AR TRES W  DIS CAZ7
 BAR2 EZ IP     C  714 37.97                             171    0.0710 21.7 188 
 BAR2 EZ ES        714 53.22                             171   -0.4510 21.7 188 
 BAR2 EZ I         714 54.15         8.8 0.22            172           21.7 188 
 BRR  HZ IP     C  714 39.80                             153    0.4310 71.0 300 
 BRR  HZ I         714 39.97        11.1 0.28            151           71.0 300 
 BRR  HN ES        714 57.22                             153    0.9210 71.0 300 
 PAM  SZ EP        714 40.81                             151    0.2610 79.2  39 
 PAM  SZ I         714 40.97        14.7 0.42            152           79.2  39 
 RUS  HZ EP        714 41.77                             145   -0.0710 99.2 175 
 RUS  HN ES        715  0.48                             145   -0.2110 99.2 175 
 RUS  HZ I         715  1.68         5.1 0.36            147           99.2 175 
 PTB  HN ES        715  5.48                             133   -0.75 9  146 259 
 PTB  HZ I         715 11.62         5.1 0.28            133            146 259 
 TAM  HZ EP        714 46.02                             132    0.20 9  156 104 
 TAM  HE ES        715  7.47                             132   -0.31 9  156 104 
 SPBC HZ EP        714 46.81                             130    0.40 9  161 219 
 SPBC HN ES        715  8.98                             130    0.16 9  161 219 
 SPBC HZ I         715 11.39         9.7 0.38            131            161 219 
 OCA  HN ES        715  9.23                             130    0.22 9  162 354 
 OCA  HZ I         715 14.25         4.2 0.18            130            162 354 
 SML  HZ EP        714 54.17                             118   -0.52 8  245 336 
 SML  HN ES        715 22.73                             118   -0.83 8  245 336 
 SML  HZ I         715 26.68         5.8 0.22            118            245 336 
                                                                                
