 2016  716 0100  1.0 L   6.778 -73.106145.3  RSN 13 0.3 2.3LRSN                1
 GAP=123        0.69       2.6     2.6  3.6 -0.1204E+01  0.2584E+01  0.1234E+01E
 Epicentro: LOS SANTOS - SANTANDER                                             3
 ACTION:UPD 17-03-29 16:51 OP:lp   STATUS:               ID:20160716010001 L   I
 OLDACT:REG 16-07-16 11:57 OP:lv   STATUS:               ID:20160716005759     3
 2016-07-16-0057-59S.COL___331                                                 6
 STAT SP IPHASW D HRMM SECON CODA AMPLIT PERI AZIMU VELO AIN AR TRES W  DIS CAZ7
 BAR2 EZ IP     C  1 0 20.55                             171   -0.0410 22.2 202 
 BAR2 EZ ES        1 0 35.52                             171   -0.3210 22.2 202 
 BAR2 EZ I         1 0 36.82        53.0 0.16            168           22.2 202 
 PAM  EZ EP        1 0 23.57                             151    0.4110 76.6  36 
 PAM  EN ES        1 0 40.52                             151    0.1110 76.6  36 
 PAM  EZ I         1 0 41.14        24.8 0.20            156           76.6  36 
 RUS  HZ IP     C  1 0 24.51                             144   -0.0510 98.0 178 
 RUS  HE ES        1 0 43.20                             144    0.3010 98.0 178 
 RUS  HZ I         1 0 48.72        10.9 0.20            144           98.0 178 
 PTB  HZ EP   9    1 0 27.10                             131   -1.22 0  152 260 
 PTB  HN ES        1 0 48.22                                   -0.16 9  152 260 
 PTB  HZ I         1 0 50.62        30.7 0.14            132            152 260 
 SPBC HZ IP     C  1 0 29.54                             129   -0.05 9  164 221 
 SPBC HN ES        1 0 51.62                             129   -0.24 9  164 221 
 SPBC HZ I         1 0 55.57        31.4 0.10            129            164 221 
 ZAR  HZ EP        1 0 33.67                             122   -0.29 8  209 292 
 ZAR  HE ES        1 0 59.47                             122   -0.17 8  209 292 
 ZAR  HZ I         1 1  4.95        27.5 0.19            123            209 292 
 NOR  HZ EP        1 0 36.59                             118   -0.38 8  237 236 
 NOR  HE ES        1 1  5.16                             118    0.16 8  237 236 
 NOR  HZ I         1 1  7.57        18.5 0.16            119            237 236 
 CHI  HZ EP        1 0 38.96                             117    0.37 8  248 196 
 CHI  HN ES        1 1  7.82                             117   -0.05 8  248 196 
 CHI  HZ I         1 1 16.12         6.9 0.42            118            248 196 
 ROSC BZ EP        1 0 39.17                             116    0.01 8  253 212 
 ROSC BE ES   4    1 1  6.39                             116   -2.50 0  253 212 
 ROSC BZ I         1 1 14.29        15.3 0.30            117            253 212 
 HEL  HZ EP   9    1 0 42.61                             114    0.98 0  276 257 
 HEL  HN ES   2    1 1 14.73                                    0.46 4  276 257 
 GUY2CHZ EP        1 0 44.99                             112    0.12 7  303 236 
 GUY2CHN ES        1 1 19.64                             112    0.58 7  303 236 
 GUY2CHZ I         1 1 27.17        14.2 0.38                           303 236 
 PTGC HZ EP        1 0 43.70                             112   -0.74 7  305 159 
 PTGC HE ES   4    1 1 16.95                             112   -1.35 0  305 159 
 PTGC HZ I         1 1 18.65         7.9 0.20            113            305 159 
 CBOC HZ EP        1 0 48.80                             109    0.48 7  337 253 
 CBOC HE ES        1 1 24.99                             109   -0.22 7  337 253 
 CBOC HZ I         1 1 29.88         7.6 0.12            111            337 253 
                                                                                
