 2011 1116 0213 38.1 L   6.775 -73.117138.6  RSN  5 0.3 1.3LRSN                1
 GAP=141        0.62       3.9     6.4  7.0  0.2413E+00 -0.2031E+01 -0.1994E+01E
 Epicentro: LOS SANTOS - SANTANDER                                             3
 ACTION:UPD 12-07-13 16:10 OP:ep   STATUS:               ID:20111116021338 L   I
 2011-11-16-0210-44S.COL___179                                                 6
 STAT SP IPHASW D HRMM SECON CODA AMPLIT PERI AZIMU VELO AIN AR TRES W  DIS CAZ7
 BAR2 SZ EP        213 56.59                             171   -0.2010 21.5 200 
 BAR2 SZ ES   1    214 11.17                             171   -0.23 7 21.5 200 
 BAR2 SZ I         214 12.68         4.7 0.36                          21.5 200 
 BRR  HZ EP   1    213 58.38                             150   -0.30 7 75.3 299 
 BRR  HZ I         213 58.58         7.8 0.13                          75.3 299 
 BRR  HN ES   1    214 14.83                             150    0.06 7 75.3 299 
 PAM  SZ EP   1    213 59.50                             150   -0.03 7 77.6  36 
 PAM  SN ES   1    214 16.23                             150   -0.05 7 77.6  36 
 RUS  HZ EP   2    214  1.10                             143    0.20 5 97.7 178 
 RUS  HN ES   1    214 19.20                             143    0.49 7 97.7 178 
 RUS  HZ I         214 20.20         2.5 0.20                          97.7 178 
 OCA  SZ ES   2    214 28.92                             128    0.91 5  163 352 
 OCA  SZ I         214 31.76         2.5 0.30                           163 352 
                                                                                
