 2017 1016 0833  1.9 L   6.791 -73.151141.0  RSN 12 0.5 1.9LRSN                1
 GAP=112        1.02       3.7     3.8  6.3  0.2342E+01  0.7731E+01  0.4826E+01E
 Epicentro: LOS SANTOS - SANTANDER                                             3
 ACTION:UPD 17-11-07 19:32 OP:rebc STATUS:               ID:20171016083301 L   I
 OLDACT:UP  17-10-16 18:24 OP:dani STATUS:               ID:20171016082732     3
 OLDACT:UP  17-10-16 18:24 OP:dani STATUS:               ID:20171016082732     3
 OLDACT:UP  17-10-16 18:23 OP:dani STATUS:               ID:20171016082732     3
 OLDACT:UP  17-10-16 18:23 OP:dani STATUS:               ID:20171016082732     3
 OLDACT:UP  17-10-16 18:23 OP:dani STATUS:               ID:20171016082732     3
 OLDACT:REG 17-10-16 13:13 OP:dani STATUS:               ID:20171016082732     3
 2017-10-16-0828-00M.COL___411                                                 6
 STAT SP IPHASW D HRMM SECON CODA AMPLIT PERI AZIMU VELO AIN AR TRES W  DIS CAZ7
 BAR2 EZ EP     C  833 20.73                             171   -0.2110 22.2 189 
 BAR2 EZ ES        833 35.49                             171   -0.3010 22.2 189 
 BAR2 EZ I         833 36.56        27.8 0.18            169           22.2 189 
 BRR  HZ EP        833 22.69                             152    0.1510 71.2 299 
 BRR  HN ES        833 39.33                             152    0.6910 71.2 299 
 BRR  HZ I         833 41.16        23.4 0.18            151           71.2 299 
 PAM  EZ EP        833 23.66                             150   -0.0310 78.5  39 
 PAM  EN ES        833 40.71                             150    0.0310 78.5  39 
 PAM  EZ I         833 42.92        22.0 0.56            153           78.5  39 
 RUS  HZ EP        833 24.75                             143   -0.3710 99.6 176 
 RUS  HN ES        833 43.18                             143   -0.0510 99.6 176 
 RUS  HZ I         833 44.86         8.8 0.42            143           99.6 176 
 PTB  HZ EP        833 27.77                             131   -0.65 9  147 259 
 PTB  HN ES        833 48.40                             131   -0.70 9  147 259 
 PTB  HZ I         833 51.80         8.8 0.20            130            147 259 
 YPLC HN ES        833 54.72                             126    0.49 9  176 151 
 ZAR  HZ EP        833 33.80                             121   -0.23 9  204 292 
 ZAR  HN ES        833 59.62                             121    0.53 9  204 292 
 ZAR  HZ I         834  5.31        11.4 0.14            121            204 292 
 NOR  HZ EP        833 37.85                             118    0.60 8  234 235 
 NOR  HN ES        834  4.73                             118   -0.08 8  234 235 
 NOR  HZ I         834  9.08         6.2 0.26            118            234 235 
 GUY2CHZ EP   4    833 47.36                             111    2.18 0  300 235 
 GUY2CHE ES   4    834 23.32                             111    4.39 0  300 235 
 GUY2CHZ I         834 26.25         3.5 0.29                           300 235 
 PTGC HZ EP   3    833 44.46                             111   -1.01 2  308 158 
 PTGC HN ES   4    834 17.15                             111   -2.30 0  308 158 
 PTGC HZ I         834 21.46         4.0 0.29            111            308 158 
 PRA  HZ EP   3    833 56.46                             106    1.33 1  391 210 
 PRA  HN ES        834 37.60                             106    0.96 6  391 210 
 PRA  HZ I         834 44.11         2.1 0.58            106            391 210 
 SJC  HZ EP   9    833 55.72                             105   -1.66 0  410 327 
 SJC  HE ES        834 39.01                             105    0.02 6  410 327 
 SJC  HZ I         834 39.89         1.7 0.28            105            410 327 
                                                                                
