 2017 1216 0953 27.4 L   6.782 -73.165136.1  RSN 16 0.6 2.2LRSN                1
 GAP= 81        1.24       3.5     3.6  6.7 -0.3076E+01  0.5916E+01  0.2989E+00E
 Epicentro: LOS SANTOS - SANTANDER                                             3
 ACTION:UPD 18-01-04 13:21 OP:rebc STATUS:               ID:20171216095327 L   I
 OLDACT:REG 17-12-16 12:46 OP:edw  STATUS:               ID:20171216094741     3
 2017-12-16-0948-00M.COL___446                                                 6
 STAT SP IPHASW D HRMM SECON CODA AMPLIT PERI AZIMU VELO AIN AR TRES W  DIS CAZ7
 BAR2 EZ IP     C  953 46.00                             171    0.1710 21.1 185 
 BAR2 EZ ES        953 59.68                             171   -0.5210 21.1 185 
 BAR2 EZ I         954  2.06        64.5 0.18            168           21.1 185 
 PAM  EZ IP     D  953 48.77                             148   -0.0110 80.3  40 
 PAM  EN ES        954  5.98                             148    0.5210 80.3  40 
 PTB  HZ EP        953 52.70                             130   -0.67 9  145 259 
 PTB  HN ES        954 13.23                             130   -0.39 9  145 259 
 PTB  HZ I         954 17.53        18.3 0.44            128            145 259 
 TAM  HZ IP     D  953 54.26                             128   -0.23 9  157 104 
 TAM  HN ES        954 15.90                             128    0.29 9  157 104 
 SPBC HZ EP        953 54.90                             127    0.00 9  160 219 
 SPBC HN ES        954 17.14                             127    0.80 9  160 219 
 SPBC HZ I         954 20.19        22.1 0.42            126            160 219 
 OCA  HZ EP        953 54.41                             127   -0.73 9  162 354 
 OCA  HN ES        954 16.04                             127   -0.74 9  162 354 
 OCA  HZ I         954 20.86        43.9 0.26            128            162 354 
 ZAR  HZ EP        953 59.01                             120   -0.09 9  203 293 
 ZAR  HE ES        954 24.72                             120    0.89 9  203 293 
 ZAR  HZ I         954 27.05        19.6 0.22            120            203 293 
 URE  HZ EP   9    954  6.51                             112   -1.36 0  283 292 
 URE  HN ES        954 38.03                                   -0.05 7  283 292 
 URE  HZ I         954 40.32        11.2 0.18            111            283 292 
 DRL03HZ EP        954  9.24                             111    0.49 7  291 353 
 DRL03HN ES        954 41.69                             111    0.68 7  291 353 
 GUY2CHZ EP   9    954 11.41                             111    1.16 0  298 235 
 GUY2CHN ES        954 44.05                                   -0.78 7  298 235 
 GUY2CHZ I         954 52.55         8.8 0.54                           298 235 
 PTGC HZ EP   4    954  9.17                             110   -1.56 0  308 158 
 PTGC HN ES   4    954 41.64                             110   -2.88 0  308 158 
 ELA  HN ES        954 48.82                             109   -0.68 7  326 229 
 ELA  HZ I         954 59.86         6.2 0.38            108            326 229 
 CBOC HZ EP   4    954 14.84                             108    1.22 0  331 252 
 CBOC HN ES        954 50.14                             108    0.46 7  331 252 
 CBOC HZ I         955  1.74         3.9 0.46            108            331 252 
 DBB  HZ EP        954 14.39                             108    0.12 7  337 275 
 DBB  HN ES   4    954 48.95                             108   -1.88 0  337 275 
 DBB  HZ I         954 54.55         8.1 0.20            107            337 275 
 PRA  HZ EP        954 20.20                             105   -0.08 6  389 209 
 PRA  HN ES        955  2.69                             105    1.17 6  389 209 
 PRA  HZ I         955  8.90         4.3 0.50            105            389 209 
 ORTC HN ES        955  1.45                             105   -0.77 6  393 216 
 ORTC HZ I         955  9.06         4.3 0.52            105            393 216 
 SJC  HZ EP   4    954 20.17                             104   -2.54 0  410 327 
 SJC  HN ES   4    955  1.49                             104   -4.37 0  410 327 
 SJC  HZ I         955  5.50         3.7 0.76            104            410 327 
                                                                                
