 2013  516 0743 43.7 L   6.813 -73.114148.3  RSN 10 0.4 1.8LRSN                1
 GAP=186        0.86       3.2     6.7  6.3  0.5747E+01  0.6370E+01 -0.6400E+00E
 Epicentro: LOS SANTOS - SANTANDER                                             3
 ACTION:UPD 13-06-20 09:50 OP:ep   STATUS:               ID:20130516074343 L   I
 2013-05-16-0740-00M.COL___256                                                 6
 STAT SP IPHASW D HRMM SECON CODA AMPLIT PERI AZIMU VELO AIN AR TRES W  DIS CAZ7
 BAR2 SZ EP        744  3.57                             170   -0.1210 25.6 197 
 BAR2 SZ I         744 20.32        15.7 0.18            169           25.6 197 
 GIR2 SZ EP        744  3.90                             168    0.2410 30.7 343 
 GIR2 SZ I         744 20.43        11.0 0.44            169           30.7 343 
 BRR  HZ IP     D  744  5.62                             152    0.3510 73.7 296 
 BRR  HN ES        744 22.67                             152    0.5810 73.7 296 
 BRR  HZ I         744 25.70        11.1 0.38            154           73.7 296 
 RUS  HZ EP     C  744  7.77                             144   -0.0210  102 178 
 RUS  HN ES        744 26.09                             144   -0.5010  102 178 
 RUS  HZ I         744 27.42         3.3 0.18            143            102 178 
 PTB  HZ EP        744 10.78                             132   -0.44 9  151 259 
 PTB  HN ES   4    744 30.70                             132   -1.98 0  151 259 
 PTB  HZ I         744 34.61         8.2 0.16            133            151 259 
 OCA  HZ EP        744 12.27                             130    0.15 9  159 352 
 OCA  HN ES        744 34.16                             130   -0.13 9  159 352 
 OCA  HZ I         744 36.89         6.0 0.18            131            159 352 
 ZAR  HZ EP   2    744 17.08                             122    0.48 4  207 291 
 ZAR  HN ES   2    744 41.35                             122   -0.90 4  207 291 
 ZAR  HZ I         744 47.47         4.7 0.14            124            207 291 
 SML  HZ EP        744 20.35                             118   -0.14 8  244 334 
 SML  HN ES        744 48.67                             118   -0.52 8  244 334 
 SML  HZ I         744 50.60         6.3 0.28            119            244 334 
 HEL  HZ EP        744 24.70                             115    0.24 7  276 256 
 HEL  HN ES   4    744 58.33                             115    2.08 0  276 256 
 HEL  HZ I         745  2.33         3.0 0.28            115            276 256 
 PRA  HZ EP        744 38.19                             107    0.53 6  395 210 
 PRA  HN ES   4    745 18.30                             107   -1.45 0  395 210 
 PRA  HZ I         745 25.74         2.4 0.36            107            395 210 
                                                                                
