 2013 1216 0703 16.4 L   6.783 -73.109151.2  RSN 10 0.5 1.9LRSN                1
 GAP=187        1.20       3.5     6.8  6.9  0.2983E+01  0.3783E+01  0.1490E+01E
 Epicentro: LOS SANTOS - SANTANDER                                             3
 ACTION:UPD 14-01-13 10:18 OP:ep   STATUS:               ID:20131216070316 L   I
 OLDACT:REG 13-12-16 06:36 OP:jn   STATUS:               ID:20131216070000     3
 2013-12-16-0700-00M.COL___285                                                 6
 STAT SP IPHASW D HRMM SECON CODA AMPLIT PERI AZIMU VELO AIN AR TRES W  DIS CAZ7
 BAR2 SZ EP        7 3 36.93                             171    0.2810 22.6 201 
 BAR2 SZ ES        7 3 52.25                             171   -0.2110 22.6 201 
 BAR2 SZ I         7 3 53.04        14.4 0.38            165           22.6 201 
 BRR  HZ EP        7 3 38.89                             152    0.5210 75.6 298 
 BRR  HN ES        7 3 56.35                             152    0.8310 75.6 298 
 BRR  HZ I         7 3 58.55         8.7 0.16            147           75.6 298 
 RUS  HZ IP     C  7 3 40.88                             145    0.3510 98.5 178 
 RUS  HN ES        7 3 58.47                             145   -0.8910 98.5 178 
 RUS  HZ I         7 4  0.78         3.2 0.34            145           98.5 178 
 PTB  HZ EP        7 3 43.94                             132   -0.18 9  151 260 
 PTB  HN ES        7 4  5.12                             132   -0.64 9  151 260 
 PTB  HZ I         7 4 12.39        11.8 0.40            129            151 260 
 OCA  HN ES        7 4  7.89                             130   -0.04 9  163 352 
 OCA  HZ I         7 4 11.93         9.1 0.24            130            163 352 
 SPBC HZ EP        7 3 45.90                             130    0.49 9  164 220 
 SPBC HN ES        7 4  8.39                             130    0.34 9  164 220 
 SPBC HZ I         7 4 15.11        16.4 0.32            128            164 220 
 ZAR  HN ES   1    7 4 15.77                             123    0.19 6  208 292 
 ZAR  HZ I         7 4 21.38        11.8 0.24            121            208 292 
 SML  HZ EP        7 3 53.53                             118   -0.15 8  247 335 
 SML  HN ES        7 4 21.80                             118   -0.98 8  247 335 
 SML  HZ I         7 4 27.35        12.9 0.10            118            247 335 
 CHI  HZ EP        7 3 54.44                             118    0.13 8  248 196 
 CHI  HN ES        7 4 23.90                             118    0.00 8  248 196 
 CHI  HZ I         7 4 32.12         2.4 0.28            118            248 196 
 PRA  HZ EP        7 4  9.46                             107   -0.68 6  392 210 
 PRA  HN ES   1    7 4 51.80                             107   -0.27 4  392 210 
 PRA  HZ I         7 4 57.62         3.1 0.34            107            392 210 
                                                                                
