 2010  516 0854 22.4 L   6.783 -73.088150.3  RSN  6 0.4 1.7LRSN                1
 GAP=189        1.06       5.5    13.1  9.4  0.3094E+01  0.3959E+02  0.3638E+01E
 Epicentro: LOS SANTOS - SANTANDER                                             3
 ACTION:UP  10-08-24 10:05 OP:vdl  STATUS:               ID:20100516085422 L   I
 2010-05-16-0852-34S.COL___108                                                 6
 STAT SP IPHASW D HRMM SECON CODA AMPLIT PERI AZIMU VELO AIN AR TRES W  DIS CAZ7
 BAR2 SZ IP        854 42.54                             171     0.010   24 207 
 BAR2 SZ ES   1    854 57.95                             171    -0.4 7   24 207 
 BRR  HZ EP        854 45.22                             152     0.810   78 297 
 BRR  HZ I         854 46.78        15.3 0.10                            78 297 
 BRR  HN ES   2    855  1.82                             152     0.2 5   78 297 
 RUS  HZ EP        854 46.51                             145     0.110   98 180 
 RUS  HZ I         854 47.65         3.1 0.20                            98 180 
 RUS  HN ES   2    855  5.15                             145    -0.1 5   98 180 
 OCA  SZ EP        854 50.91                             130    -0.4 9  163 351 
 OCA  SZ ES   1    855 13.74                             130    -0.1 7  163 351 
 OCA  SZ I         855 18.78         5.9 0.35                           163 351 
 HEL  HZ EP        855  2.84                             115    -0.6 7  278 257 
 HEL  HZ I         855 41.79         3.8 0.23                           278 257 
 PRA  HZ EP        855 16.57                             107     0.3 6  394 211 
 PRA  HE ES   2    855 57.87                             107    -0.4 3  394 211 
 PRA  HZ I         856  4.41         2.1 0.36                           394 211 
                                                                                
