 2017 1116 0714 42.9 L   6.853 -73.144145.6  RSN  7 0.5 1.4LRSN                1
 GAP=134        1.33       5.5     6.2  8.8  0.2109E+01  0.1906E+02  0.7220E+01E
 Epicentro: LOS SANTOS - SANTANDER                                             3
 ACTION:UPD 17-12-12 19:56 OP:rebc STATUS:               ID:20171116071442 L   I
 OLDACT:UP  17-11-16 17:18 OP:leo  STATUS:               ID:20171116070639     3
 OLDACT:REG 17-11-16 13:46 OP:y    STATUS:               ID:20171116070639     3
 2017-11-16-0707-00M.COL___423                                                 6
 STAT SP IPHASW D HRMM SECON CODA AMPLIT PERI AZIMU VELO AIN AR TRES W  DIS CAZ7
 BAR2 EZ EP        715  2.11                             168   -0.4910 29.1 188 
 BAR2 EZ ES        715 17.17                             168   -0.8210 29.1 188 
 BAR2 EZ I         715 19.06         8.7 0.24            166           29.1 188 
 PAM  EZ EP        715  5.43                             152    0.6410 72.9  42 
 PAM  EN ES        715 22.29                             152    0.4010 72.9  42 
 PAM  EZ I         715 24.27         3.8 0.58            151           72.9  42 
 RUS  HZ EP        715  6.72                             142   -0.2910  106 176 
 RUS  HN ES        715 25.94                             142    0.0810  106 176 
 RUS  HZ I         715 26.39         3.6 0.38            140            106 176 
 PTB  HZ EP        715  9.30                             132   -0.64 9  149 257 
 PTB  HZ I         715 31.81         2.1 0.54            124            149 257 
 PTB  HE ES        715 31.87                             132    0.81 9  149 257 
 ZAR  HZ EP        715 15.13                             122    0.04 9  202 291 
 ZAR  HN ES        715 40.04                             122   -0.19 9  202 291 
 ZAR  HZ I         715 50.60         2.7 0.30            116            202 291 
 CHI  HZ EP        715 21.47                             116    0.31 8  254 195 
 CHI  HN ES        715 51.86                             116    0.82 8  254 195 
 CHI  HZ I         715 56.29         1.7 0.68            113            254 195 
 PRA  HZ EP        715 36.25                             106   -0.73 6  397 209 
 PRA  HN ES   4    716 17.68                             106   -1.51 0  397 209 
 PRA  HZ I         716 26.79         1.4 0.34            103            397 209 
                                                                                
