 2011  316 0141  9.0 L   6.774 -72.943148.8  RSN  5 0.3 1.2LRSN                1
 GAP=182        0.56       4.9    18.4  7.5 -0.5979E+02 -0.3771E+02  0.1812E+02E
 Epicentro: CEPITA - SANTANDER                                                 3
 ACTION:UP  11-06-16 14:33 OP:jfem STATUS:               ID:20110316014108 L   I
 2011-03-16-0138-36S.COL___138                                                 6
 STAT SP IPHASW D HRMM SECON CODA AMPLIT PERI AZIMU VELO SNR AR TRES W  DIS CAZ7
 BTL  SZ EP        141 29.68                             164     0.310   39 294 
 BTL  SZ ES   3    141 45.66                             164     0.3 2   39 294 
 GIR2 SZ EP   3    141 29.33                             162    -0.1 2   44 321 
 GIR2 SZ ES   2    141 44.71                             162    -0.6 5   44 321 
 RUS  HZ EP   1    141 32.74                             145    -0.2 7   99 189 
 RUS  HN ES   2    141 51.68                             145     0.1 5   99 189 
 RUS  HZ I         141 52.24         1.3 0.40                            99 189 
 GRA  SZ EP   1    141 34.07                             138    -0.3 7  124   7 
 GRA  SZ ES   1    141 54.30                             138     0.2 7  124   7 
 GRA  SZ I         141 55.13         5.0 0.37                           124   7 
 CHI  HZ EP        141 47.31                             117     0.0 8  253 200 
 CHI  HZ I         141 53.78         1.1 0.63                           253 200 
                                                                                
