 2012  316 0934 57.5 L   6.805 -73.158146.3  RSN  8 0.4 1.9LRSN                1
 GAP=135        1.00       5.7     5.9  8.1  0.5297E+01  0.9873E+01  0.6924E+01E
 ACTION:UP  12-03-31 23:20 OP:EP   STATUS:               ID:20120316093457 L   I
 2012-03-16-0930-00M.COL___202                                                 6
 STAT SP IPHASW D HRMM SECON CODA AMPLIT PERI AZIMU VELO SNR AR TRES W  DIS CAZ7
 BAR2 SZ EP        935 17.18                             170     0.010   24 187 
 BAR2 SZ ES   1    935 32.23                             170    -0.4 7   24 187 
 BAR2 SZ I         935 34.56        22.2 0.17                            24 187 
 BRR  HZ EP   1    935 19.04                             153     0.4 7   70 299 
 BRR  HE ES   1    935 35.85                             153     0.7 7   70 299 
 BRR  HZ I         935 38.29        19.6 0.21                            70 299 
 PAM  SZ EP   1    935 19.99                             151     0.2 7   78  41 
 PAM  SN ES   1    935 36.70                             151    -0.5 7   78  41 
 RUS  HZ EP   1    935 21.27                             144    -0.1 7  101 175 
 RUS  HE ES        935 40.33                             144     0.410  101 175 
 PTB  HZ EP   1    935 23.68                             132    -0.7 7  147 259 
 PTB  HN ES   1    935 44.69                             132    -0.7 7  147 259 
 PTB  HZ I         935 48.26         6.2 0.16                           147 259 
 ZAR  HN ES   1    935 55.47                             123     0.4 6  203 292 
 ZAR  HZ I         936  0.60        10.0 0.38                           203 292 
 CHI  HZ EP   1    935 35.23                             117     0.0 6  249 195 
 PRA  HZ EP   1    935 51.31                             107     0.3 4  392 209 
                                                                                
