 2014  516 0321  7.1 L   6.828 -73.160149.9  RSN  9 0.5 2.0LRSN                1
 GAP=133        1.24       4.7     5.6  9.3 -0.5698E+00  0.8478E+01 -0.7801E+01E
 Epicentro: LOS SANTOS - SANTANDER                                             3
 ACTION:UPD 15-03-16 16:58 OP:nd   STATUS:               ID:20140516032107 L   I
 OLDACT:UP  14-05-16 17:04 OP:cam  STATUS:               ID:20140516031818     3
 OLDACT:REG 14-05-16 12:51 OP:spq  STATUS:               ID:20140516031818     3
 2014-05-16-0318-18M.COL___251                                                 6
 STAT SP IPHASW D HRMM SECON CODA AMPLIT PERI AZIMU VELO AIN AR TRES W  DIS CAZ7
 BRR  HZ IP     C  321 28.94                             154    0.4510 68.3 297 
 BRR  HN ES        321 45.98                             154    0.7710 68.3 297 
 BRR  HZ I         321 48.44        14.0 0.36            153           68.3 297 
 PAM  SZ EP     C  321 30.12                             152    0.4910 76.0  42 
 PAM  SN ES        321 47.07                             152   -0.1610 76.0  42 
 PAM  SZ I         321 49.04        17.7 0.56            155           76.0  42 
 RUS  HZ EP   1    321 31.83                             144    0.39 7  104 175 
 RUS  HN ES        321 50.06                             144   -0.4010  104 175 
 RUS  HZ I         321 51.75         8.3 0.20            149            104 175 
 PTB  HZ EP        321 33.81                             133   -0.46 9  147 258 
 PTB  HN ES        321 54.77                             133   -0.74 9  147 258 
 PTB  HZ I         322  1.03        10.9 0.30            135            147 258 
 OCA  HZ EP   1    321 35.29                             131   -0.09 7  157 354 
 OCA  HN ES        321 56.99                             131   -0.48 9  157 354 
 OCA  HZ I         322  0.77        10.6 0.16            133            157 354 
 ZAR  HZ EP   4    321 41.57                             124    2.07 0  201 291 
 ZAR  HN ES        322  5.51                             124    0.70 9  201 291 
 ZAR  HZ I         322 11.70        12.4 0.38            125            201 291 
 NOR  HZ EP   4    321 45.14                             119    2.06 0  235 234 
 NOR  HN ES   4    322  4.67                             119   -6.51 0  235 234 
 NOR  HZ I         322  7.07         8.2 0.16            122            235 234 
 SML  HZ EP        321 43.50                             119   -0.03 8  240 335 
 SML  HE ES        322 11.42                             119   -0.57 8  240 335 
 CHI  HE ES   4    322  7.12                             118   -7.95 0  251 195 
 URE  HZ EP   4    321 51.54                             115    3.51 0  281 291 
 URE  HN ES   4    322 18.31                             115   -1.69 0  281 291 
 URE  HZ I         322 23.11         7.4 0.38            117            281 291 
                                                                                
