 2013  116 0343  5.0 L   6.770 -73.209145.6  RSN  5 0.4 1.2LRSN                1
 GAP=227        0.77       6.1     7.6  7.6  0.2135E+02  0.1387E+02  0.1594E+02E
 Epicentro: ZAPATOCA - SANTANDER                                               3
 ACTION:UPD 13-02-15 09:14 OP:ep   STATUS:               ID:20130116034305 L   I
 2013-01-16-0340-00M.COL___239                                                 6
 STAT SP IPHASW D HRMM SECON CODA AMPLIT PERI AZIMU VELO AIN AR TRES W  DIS CAZ7
 BAR2 SZ ES   1    343 39.83                             172    0.04 7 19.9 171 
 BAR2 SZ I         343 40.49         7.6 0.24            166           19.9 171 
 BRR  HZ EP   1    343 25.96                             154    0.06 7 66.9 304 
 BRR  HN ES   1    343 42.76                             154    0.57 7 66.9 304 
 RUS  HZ EP   1    343 28.16                             145   -0.39 7 98.0 172 
 RUS  HN ES   1    343 46.56                             145   -0.36 7 98.0 172 
 RUS  HZ I         343 48.29         1.7 0.42            142           98.0 172 
 PTB  HZ EP   1    343 31.11                             134   -0.17 7  140 260 
 PTB  HN ES   1    343 51.28                             134   -0.50 7  140 260 
 PTB  HZ I         343 54.65         3.0 0.14            131            140 260 
 CHI  HZ EP   1    343 42.56                             118    0.41 6  244 194 
 CHI  HE ES   1    344 11.80                             118    0.67 6  244 194 
 CHI  HZ I         344 15.84         0.7 0.66            117            244 194 
                                                                                
