 2012 1016 0907 54.8 L   6.759 -73.104141.1  RSN  5 0.2 1.7LRSN                1
 GAP=144        0.50       2.9     3.7  4.0 -0.2479E+00  0.3759E-01  0.8706E+00E
 Epicentro: LOS SANTOS - SANTANDER                                             3
 ACTION:UPD 12-11-22 17:04 OP:ep   STATUS:               ID:20121016090754 L   I
 2012-10-16-0900-00M.COL___231                                                 6
 STAT SP IPHASW D HRMM SECON CODA AMPLIT PERI AZIMU VELO AIN AR TRES W  DIS CAZ7
 BAR2 SZ EP        9 8 13.89                             171    0.0410 20.4 205 
 BAR2 SZ ES        9 8 28.46                             171   -0.2210 20.4 205 
 BAR2 SZ I         9 8 29.99        21.9 0.33                          20.4 205 
 BRR  HZ EP        9 8 15.63                             149   -0.2310 77.5 300 
 BRR  HN ES        9 8 32.51                             149    0.2510 77.5 300 
 BRR  HZ I         9 8 33.33        15.9 0.11                          77.5 300 
 PAM  SZ EP        9 8 16.77                             150    0.1610 78.2  35 
 PAM  SN ES        9 8 33.52                             150   -0.0710 78.2  35 
 PAM  SZ I         9 8 35.82         9.2 0.56                          78.2  35 
 RUS  HZ EP        9 8 17.95                             144    0.1610 95.8 179 
 RUS  HZ I         9 8 19.11         4.3 0.15                          95.8 179 
 RUS  HN ES   1    9 8 35.69                             144    0.00 7 95.8 179 
 ZAR  HZ EP   2    9 8 27.19                             120   -0.43 4  210 293 
 ZAR  HZ I         9 9  0.53         4.0 0.25                           210 293 
                                                                                
