 2010 1116 0033  5.6 L   6.778 -73.128148.8  RSN 11 0.4 2.0LRSN                1
 GAP=161        0.65       2.9     6.2  5.8 -0.4006E+01  0.6372E+01  0.2250E+01E
 Epicentro: LOS SANTOS - SANTANDER                                             3
 ACTION:UP  10-12-17 16:52 OP:REBC STATUS:               ID:20101116003305 L   I
 2010-11-16-0029-09S.COL___129                                                 6
 STAT SP IPHASW D HRMM SECON CODA AMPLIT PERI AZIMU VELO SNR AR TRES W  DIS CAZ7
 BAR2 SZ ES   2    033 41.13                             171     0.0 5   22 197 
 BAR2 SZ I         033 44.01        19.5 0.40                            22 197 
 BRR  HZ EP   1    033 27.19                             152     0.0 7   74 299 
 BRR  HE ES   1    033 44.53                             152     0.4 7   74 299 
 BRR  HZ I         033 48.31        15.2 0.56                            74 299 
 RUS  HZ EP   1    033 29.45                             145     0.0 7   98 177 
 RUS  HE ES   1    033 48.11                             145     0.0 7   98 177 
 RUS  HZ I         033 49.82         9.3 0.43                            98 177 
 GRA  SZ EP   2    033 31.69                             137     0.5 5  128  16 
 GRA  SZ ES   2    033 50.98                             137    -0.3 5  128  16 
 GRA  SZ I         033 54.86         9.1 0.32                           128  16 
 OCA  SZ EP   1    033 34.59                             130     0.2 7  163 353 
 OCA  SZ ES   1    033 56.16                             130    -0.7 7  163 353 
 OCA  SZ I         034  1.71        14.7 0.19                           163 353 
 NOR  SZ EP   2    033 41.12                             119    -0.4 4  235 235 
 NOR  SE ES   2    034  9.19                             119    -0.4 4  235 235 
 CHI  HZ EP   2    033 43.01                             118    -0.2 4  247 196 
 CHI  HN ES   2    034 12.30                             118    -0.3 4  247 196 
 CHI  HZ I         034 21.63         4.0 0.76                           247 196 
 HEL  HZ EP   2    033 46.97                             115     0.9 4  273 256 
 HEL  HZ I         034 24.54         5.9 0.33                           273 256 
 GUY  SZ EP   3    033 49.05                             113    -0.3 2  302 235 
 GUY  SZ I         034 31.93         9.6 0.29                           302 235 
 RREF HZ EP   2    033 51.23                             111    -0.6 3  322 230 
 RREF HE ES   2    034 27.73                             111    -0.2 3  322 230 
 RREF HZ I         034 36.45         4.9 0.22                           322 230 
 PRA  HZ EP   1    033 59.61                             107     0.5 4  391 210 
 PRA  HN ES   2    034 40.94                             107     0.1 3  391 210 
                                                                                
