 2012  616 0428  7.7 L   6.794 -73.148144.2  RSN  4 0.1 1.3LRSN                1
 GAP=244        0.33       5.0     4.3  4.8  0.1321E+02  0.6036E+00 -0.3412E+01E
 Epicentro: LOS SANTOS - SANTANDER                                             3
 ACTION:UPD 12-08-06 17:49 OP:ep   STATUS:               ID:20120616042807 L   I
 2012-06-16-0420-00M.COL___198                                                 6
 STAT SP IPHASW D HRMM SECON CODA AMPLIT PERI AZIMU VELO AIN AR TRES W  DIS CAZ7
 BAR2 SZ EP   1    428 27.16                             171    0.00 7 22.6 190 
 BAR2 SZ ES   1    428 42.26                             171   -0.06 7 22.6 190 
 BAR2 SZ I         428 43.52         6.2 0.25                          22.6 190 
 RUS  HZ EP   1    428 31.23                             144   -0.05 7 99.9 176 
 RUS  HN ES   1    428 49.75                             144    0.10 7 99.9 176 
 RUS  HZ I         428 52.24         2.4 0.30                          99.9 176 
 PTB  HN ES   2    428 55.29                             132   -0.15 5  147 259 
 ZAR  HN ES   2    429  5.51                             122    0.21 4  204 292 
                                                                                
