 2010  416 0510 49.9 L   6.819 -73.072143.3  RSN  6 0.5 1.8LRSN                1
 GAP=262        1.25       9.3    11.5 14.4  0.1375E+01  0.3690E+02  0.6539E+02E
 Epicentro: LOS SANTOS - SANTANDER                                             3
 ACTION:UP  10-08-24 09:59 OP:vdl  STATUS:               ID:20100416051102 L   I
 2010-04-16-0508-59S.COL___100                                                 6
 STAT SP IPHASW D HRMM SECON CODA AMPLIT PERI AZIMU VELO AIN AR TRES W  DIS CAZ7
 BAR2 SZ EP        511  9.02                             169    -0.310   28 206 
 BAR2 SZ ES   1    511 23.78                             169    -0.7 7   28 206 
 BRR  HZ EP        511 11.31                             150     0.210   78 294 
 BRR  HN ES        511 28.18                             150     0.510   78 294 
 BRR  HZ I         511 29.46         9.8 0.17                            78 294 
 CHI  HN ES   1    511 58.41                             116     0.9 6  253 197 
 CHI  HZ I         512  3.18         3.1 0.89                           253 197 
 HEL  HN ES   1    512  2.02                             113    -0.8 6  280 256 
 HEL  HZ I         512  9.93         2.7 0.84                           280 256 
 RREF BN ES   1    512 12.99                             110    -0.3 5  329 230 
 RREF BZ I         512 18.82         2.6 0.29                           329 230 
 PRA  HN ES   1    512 26.18                             106     0.0 4  398 210 
 PRA  HZ I         512 30.94         2.5 1.12                           398 210 
                                                                                
