 2010 1216 0348  5.5 L   6.791 -72.977140.9  RSN  5 0.1 1.8LRSN                1
 GAP=200        0.34       2.4     6.7  4.2 -0.9919E+00  0.3125E+01 -0.3385E+01E
 Epicentro: CEPITA - SANTANDER                                                 3
 ACTION:UP  11-01-14 15:25 OP:pat  STATUS:               ID:20101216034805 L   I
 2010-12-16-0345-55S.COL___134                                                 6
 STAT SP IPHASW D HRMM SECON CODA AMPLIT PERI AZIMU VELO SNR AR TRES W  DIS CAZ7
 BAR2 SZ EP        348 24.70                             167     0.010   32 226 
 BAR2 SZ ES   1    348 39.64                             167    -0.1 7   32 226 
 BAR2 SZ I         348 41.61        18.0 0.35                            32 226 
 RUS  HZ EP   1    348 28.56                             143    -0.1 7  100 187 
 RUS  HN ES   1    348 46.95                             143     0.1 7  100 187 
 RUS  HZ I         348 48.32         9.6 0.35                           100 187 
 OCA  SZ EP   1    348 33.93                             128     0.1 7  165 347 
 OCA  SZ ES   2    348 55.89                             128     0.0 5  165 347 
 OCA  SZ I         349  2.94         5.7 0.44                           165 347 
 HEL  HZ EP   3    348 47.13                             112    -0.3 2  290 257 
 HEL  HZ I         349 23.73         3.2 0.26                           290 257 
 RREF HE ES   2    349 30.12                             109     0.1 3  336 232 
 RREF HZ I         349 34.45         3.3 0.31                           336 232 
                                                                                
