 2012 1216 0703 38.1 L   6.764 -73.200157.0  RSN  4 0.3 1.0LRSN                1
 GAP=131        0.57       5.2     5.1  7.6  0.6203E+01 -0.9597E+01 -0.7104E+01E
 Epicentro: VILLANUEVA - SANTANDER                                             3
 ACTION:UPD 13-01-04 14:28 OP:ep   STATUS:               ID:20121216070338 L   I
 2012-12-16-0700-00M.COL___239                                                 6
 STAT SP IPHASW D HRMM SECON CODA AMPLIT PERI AZIMU VELO AIN AR TRES W  DIS CAZ7
 BRR  HZ EP   1    7 4  0.43                             155    0.09 7 68.1 304 
 BRR  HN ES   1    7 4 17.92                             155    0.25 7 68.1 304 
 BRR  HZ I         7 4 18.82         2.2 0.40                          68.1 304 
 PAM  SZ EP   1    7 4  1.63                             151   -0.32 7 84.3  41 
 RUS  HZ EP   1    7 4  2.80                             147    0.02 7 97.3 172 
 RUS  HE ES   1    7 4 22.05                             147    0.05 7 97.3 172 
 RUS  HZ I         7 4 22.62         1.7 0.32                          97.3 172 
 PTB  HZ EP   1    7 4  5.84                             136    0.37 7  141 260 
 PTB  HN ES   1    7 4 26.32                             136   -0.47 7  141 260 
 PTB  HZ I         7 4 30.75         0.9 0.27                           141 260 
                                                                                
