 2017  716 0825 50.0 L   6.770 -73.152142.7  RSN 11 0.4 1.7LRSN                1
 GAP=112        0.91       3.3     3.1  5.7  0.6771E+00  0.4859E+01  0.2939E+01E
 Epicentro: LOS SANTOS - SANTANDER                                             3
 ACTION:UPD 17-08-30 15:33 OP:rebc STATUS:               ID:20170716082550 L   I
 OLDACT:UP  17-07-16 17:22 OP:dnl  STATUS:               ID:20170716081303     3
 OLDACT:REG 17-07-16 12:37 OP:dhb  STATUS:               ID:20170716081303     3
 2017-07-16-0818-00M.COL___368                                                 6
 STAT SP IPHASW D HRMM SECON CODA AMPLIT PERI AZIMU VELO AIN AR TRES W  DIS CAZ7
 BAR2 EZ EP        826  9.12                             172   -0.0910 19.9 190 
 BAR2 EZ ES        826 23.96                             172   -0.2210 19.9 190 
 BAR2 EZ I         826 25.14        16.2 0.18            167           19.9 190 
 BRR  HZ EP        826 11.02                             152    0.1310 72.2 301 
 BRR  HE ES        826 27.91                             152    0.7410 72.2 301 
 BRR  HZ I         826 29.02         6.3 0.12            149           72.2 301 
 PAM  EZ EP        826 12.00                             149   -0.0910 80.4  38 
 PAM  EN ES        826 29.14                             149   -0.1710 80.4  38 
 RUS  HZ EP        826 13.10                             144   -0.1310 97.3 175 
 RUS  HN ES        826 31.45                             144    0.1210 97.3 175 
 RUS  HZ I         826 33.06         4.8 0.30            142           97.3 175 
 PTB  HZ EP        826 16.00                             132   -0.61 9  146 260 
 PTB  HN ES        826 36.59                             132   -0.77 9  146 260 
 PTB  HZ I         826 39.94         5.4 0.12            129            146 260 
 SPBC HZ EP        826 18.28                             129    0.29 9  160 220 
 SPBC HE ES        826 40.11                             129    0.30 9  160 220 
 SPBC HZ I         826 45.66         5.9 0.26            127            160 220 
 YPLC HZ EP   2    826 19.61                             126    0.28 4  174 151 
 YPLC HN ES        826 42.34                             126    0.14 9  174 151 
 YPLC HZ I         826 45.83         7.8 0.24            126            174 151 
 ZAR  HZ EP   2    826 21.98                             122   -0.34 4  205 293 
 ZAR  HN ES        826 48.00                             122    0.48 9  205 293 
 ZAR  HZ I         826 53.18         5.2 0.36            121            205 293 
 NOR  HZ EP   2    826 25.65                             118    0.36 4  232 235 
 NOR  HE ES        826 52.87                             118    0.06 8  232 235 
 NOR  HZ I         827  0.26         3.3 0.26            117            232 235 
 HEL  HZ EP   2    826 30.85                             114    0.95 4  271 256 
 HEL  HE ES        827  0.54                             114   -0.48 8  271 256 
 HEL  HZ I         827 12.37         2.3 0.38            113            271 256 
 GUY2CHZ EP   4    826 34.84                             112    1.64 0  299 235 
 GUY2CHN ES   4    827 10.08                             112    3.20 0  299 235 
 GUY2CHZ I         827 14.06         1.8 0.30                           299 235 
                                                                                
