 2013  716 0153 18.4 L   6.816 -73.176144.6  RSN 19 0.4 3.1LRSN                1
 GAP=110        0.96       2.3     3.2  4.8  0.2035E+00  0.3139E+01  0.1388E+01E
 Epicentro: LOS SANTOS - SANTANDER                                             3
 ACTION:UPD 13-08-12 10:38 OP:ep   STATUS:               ID:20130716015318 L   I
 OLDACT:UP  13-07-16 09:08 OP:mh   STATUS:               ID:20130716015001d    3
 OLDACT:DUP 13-07-16 08:43 OP:mh   STATUS:               ID:20130716015001d    3
 2013-07-16-0150-00M.COL___263                                                 6
 STAT SP IPHASW D HRMM SECON CODA AMPLIT PERI AZIMU VELO AIN AR TRES W  DIS CAZ7
 BAR2 SZ IP     C  153 37.91                             170    0.0010 24.7 182 
 BAR2 SZ ES   1    153 53.07                             170   -0.06 7 24.7 182 
 BAR2 SZ I         153 54.57       261.9 0.22            170           24.7 182 
 GIR2 SZ EP        153 38.01                             168    0.1410 29.1 356 
 BRR  HZ EP        153 39.63                             154    0.4310 67.4 299 
 BRR  HE ES        153 56.12                             154    0.6810 67.4 299 
 BRR  HN I         153 57.33       535.7 0.30            152           67.4 299 
 PAM  SZ EP     D  153 40.87                             150    0.3410 78.2  42 
 PAM  SN ES   1    153 57.85                             150    0.05 7 78.2  42 
 PAM  SN I         153 59.99       286.2 0.56            153           78.2  42 
 RUS  HZ EP     D  153 41.79                             143   -0.3810  103 174 
 RUS  HN ES        154  0.25                             143   -0.4710  103 174 
 RUS  HZ I         154  1.68       105.9 0.28            145            103 174 
 PTB  HZ EP        153 44.43                             132   -0.57 9  145 258 
 PTB  HN ES        154  5.10                             132   -0.65 9  145 258 
 PTB  HZ I         154  7.40       114.7 0.14            132            145 258 
 OCA  HZ EP   1    153 46.05                             130   -0.36 7  158 354 
 OCA  HN ES   1    154  8.25                             130   -0.02 7  158 354 
 OCA  HZ I         154 12.43        66.4 0.28            131            158 354 
 SPBC HZ EP        153 46.80                             129    0.07 9  162 218 
 SPBC HN ES        154  8.52                             129   -0.32 9  162 218 
 YOP  SZ EP        153 48.50                             126   -0.15 9  182 153 
 YOP  SN ES        154 12.92                             126    0.66 9  182 153 
 YOP  SN I         154 13.62       201.3 0.40            127            182 153 
 ZAR  HZ EP        153 50.44                             123    0.07 9  200 292 
 ZAR  HE ES   1    154 15.76                             123    0.44 6  200 292 
 ZAR  HZ I         154 21.87        99.1 0.28            123            200 292 
 NOR  HZ EP        153 54.03                             118    0.16 8  233 234 
 NOR  HN ES        154 22.00                             118    0.45 8  233 234 
 SML  HZ EP        153 54.02                             118   -0.61 8  241 336 
 SML  HN ES        154 22.34                             118   -0.55 8  241 336 
 SML  HZ I         154 25.31        58.1 0.24            118            241 336 
 CHI  HZ EP     C  153 56.15                             117    0.04 8  249 194 
 CHI  HN ES        154 25.02                             117   -0.52 8  249 194 
 CHI  HN I         154 27.79        91.2 0.44            118            249 194 
 ROSC BZ EP   1    153 57.68                             116    1.26 6  253 210 
 ROSC BN ES   4    154 27.74                             116    1.65 0  253 210 
 HEL  HZ EP   1    153 59.11                             115    0.88 6  269 255 
 HEL  HN ES   1    154 29.56                             115    0.25 6  269 255 
 HEL  HN I         154 36.26        59.1 0.36            115            269 255 
 GUY2CHZ EP   1    154  2.04                             112    0.29 5  299 234 
 GUY2CHE ES   4    154 37.75                             112    2.17 0  299 234 
 GUY2CHZ I         154 50.00        46.0 0.56                           299 234 
 DBB  SZ EP   1    154  5.25                             110   -0.17 5  336 274 
 PRA  HZ EP   1    154 11.22                             106   -0.64 4  392 209 
 PRA  HN ES   1    154 53.48                             106   -0.08 4  392 209 
 PRA  HN I         154 58.84        42.2 0.42            107            392 209 
 ORTC HZ EP        154 12.06                             106   -0.15 6  395 216 
 ORTC HN ES        154 54.37                             106    0.19 6  395 216 
 ORTC HZ I         155  0.73        25.4 0.42            107            395 216 
 SJC  HZ EP   4    154 12.07                             106   -1.46 0  406 327 
 SJC  HN ES   4    154 52.60                             106   -3.93 0  406 327 
                                                                                
