 2012 1116 0137 50.8 L   6.787 -73.155148.0  RSN 10 0.4 1.9LRSN                1
 GAP=136        0.67       3.3     3.8  5.0 -0.1127E+01  0.7137E+01  0.4438E+01E
 Epicentro: LOS SANTOS - SANTANDER                                             3
 ACTION:UPD 12-12-05 15:33 OP:}ep  STATUS:               ID:20121116013750 L   I
 2012-11-16-0135-35M.COL___213                                                 6
 STAT SP IPHASW D HRMM SECON CODA AMPLIT PERI AZIMU VELO AIN AR TRES W  DIS CAZ7
 BAR2 SZ EP   1    138 10.52                             171   -0.14 7 21.7 188 
 BAR2 SZ ES   1    138 26.37                             171    0.21 7 21.7 188 
 BAR2 SZ I         138 28.16        21.0 0.20                          21.7 188 
 GIR2 SZ EP   1    138 10.90                             167    0.13 7 32.6 352 
 GIR2 SZ ES   1    138 26.73                             167    0.38 7 32.6 352 
 PAM  SZ EP   1    138 13.44                             151    0.09 7 79.1  39 
 PAM  SN ES   1    138 30.71                             151   -0.24 7 79.1  39 
 PAM  SZ I         138 32.73        11.2 0.20                          79.1  39 
 RUS  HZ EP   1    138 14.40                             145   -0.27 7 99.2 175 
 RUS  HN ES   1    138 33.36                             145    0.07 7 99.2 175 
 PTB  HZ EP   1    138 17.34                             133   -0.49 7  147 259 
 PTB  HN ES   1    138 38.83                             133   -0.09 7  147 259 
 PTB  HZ I         138 44.39        14.0 0.31                           147 259 
 ZAR  HZ EP   1    138 23.25                             123   -0.10 6  204 293 
 ZAR  HE ES   1    138 48.52                             123   -0.23 6  204 293 
 ZAR  HZ I         138 54.97        12.2 0.30                           204 293 
 NOR  HZ EP   1    138 26.33                             119   -0.15 6  233 235 
 NOR  HN ES   1    138 54.63                             119    0.32 6  233 235 
 CHI  HZ EP   1    138 28.64                             118    0.20 6  247 195 
 CHI  HN ES   1    138 56.92                             118   -0.88 6  247 195 
 CHI  HZ I         139  1.79         3.0 0.30                           247 195 
 RREF HZ EP   1    138 37.97                             111    1.13 5  320 229 
 PRA  HZ EP   1    138 44.76                             107    0.57 4  390 210 
 PRA  HN ES   1    139 26.15                             107    0.32 4  390 210 
                                                                                
