 2015  916 0243 21.2 L   6.807 -73.132149.4  RSN  8 0.4 1.9LRSN                1
 GAP=138        1.10       3.8     4.5  7.2 -0.3159E+01  0.7812E+01  0.4245E+00E
 Epicentro: LOS SANTOS - SANTANDER                                             3
 ACTION:UPD 15-10-28 16:26 OP:cam  STATUS:               ID:20150916024321 L   I
 OLDACT:REG 15-09-16 12:42 OP:mh   STATUS:               ID:20150916023746     3
 2015-09-16-0237-46M.COL___346                                                 6
 STAT SP IPHASW D HRMM SECON CODA AMPLIT PERI AZIMU VELO AIN AR TRES W  DIS CAZ7
 BRR  HZ EP        243 43.23                             153    0.4010 72.2 297 
 BRR  HN ES        244  0.05                             153    0.3710 72.2 297 
 BRR  HZ I         244 11.06        13.2 0.34            151           72.2 297 
 PAM  EZ EP        243 43.96                             152    0.2110 75.8  39 
 PAM  EN ES        244  1.31                             152    0.0110 75.8  39 
 PAM  EZ I         244  2.98        12.3 0.52            158           75.8  39 
 RUS  HZ EP        243 45.18                             144   -0.2110  101 177 
 RUS  HN ES        244  3.94                             144   -0.3010  101 177 
 RUS  HZ I         244  4.94         6.4 0.38            150            101 177 
 PTB  HZ EP        243 47.91                             132   -0.74 9  149 259 
 PTB  HN ES        244  9.23                             132   -0.80 9  149 259 
 PTB  HZ I         244 12.38         9.5 0.10            134            149 259 
 OCA  HZ EP        243 49.71                             131   -0.06 9  160 353 
 OCA  HN ES        244 12.02                             131   -0.01 9  160 353 
 OCA  HZ I         244 15.69        17.9 0.34            134            160 353 
 SPBC HZ EP        243 50.07                             130   -0.09 9  165 219 
 SPBC HN ES        244 13.44                             130    0.71 9  165 219 
 SPBC HZ I         244 18.97        13.7 0.22            133            165 219 
 ZAR  HZ EP        243 53.74                             123   -0.29 9  205 292 
 ZAR  HN ES        244 19.42                             123   -0.20 9  205 292 
 ZAR  HZ I         244 24.21         7.9 0.38            126            205 292 
 HEL  HZ EP        244  2.76                             115    0.94 8  274 256 
 HEL  HE ES        244 33.87                             115    0.39 8  274 256 
 HEL  HZ I         244 41.93         2.9 0.11            118            274 256 
                                                                                
