 2015  216 0751 21.6 L   6.768 -73.079149.4  RSN  6 0.3 1.5LRSN                1
 GAP=147        0.82       3.4     5.4  5.4 -0.3771E+01  0.4825E+01 -0.1225E+01E
 Epicentro: LOS SANTOS - SANTANDER                                             3
 ACTION:UPD 15-04-30 21:26 OP:nd   STATUS:               ID:20150216075121 L   I
 OLDACT:UP  15-02-16 17:51 OP:mh   STATUS:               ID:20150216074740     3
 OLDACT:UP  15-02-16 17:50 OP:mh   STATUS:               ID:20150216074740     3
 OLDACT:REG 15-02-16 13:46 OP:mh   STATUS:               ID:20150216074740     3
 2015-02-16-0747-40M.COL___296                                                 6
 STAT SP IPHASW D HRMM SECON CODA AMPLIT PERI AZIMU VELO AIN AR TRES W  DIS CAZ7
 BAR2 EZ EP   1    751 41.32                             171   -0.36 7 22.6 210 
 BAR2 EZ ES        751 57.19                             171   -0.1310 22.6 210 
 BAR2 EZ I         751 59.83         6.5 0.27            170           22.6 210 
 PAM  SZ EP        751 44.73                             152    0.5910 75.8  34 
 PAM  SN ES        752  1.45                             152   -0.2510 75.8  34 
 PAM  SZ I         752  3.94         2.5 0.18            155           75.8  34 
 BRR  HZ EP        751 43.79                             150    0.1510 79.3 298 
 BRR  HN ES        752  1.27                             150    0.4710 79.3 298 
 BRR  HZ I         752  5.27         3.3 0.28            149           79.3 298 
 RUS  HZ EP        751 45.42                             146   -0.0610 96.9 180 
 RUS  HN ES   1    752  3.90                             146   -0.18 7 96.9 180 
 RUS  HZ I         752  5.32         3.1 0.26            149           96.9 180 
 SPBC HZ EP        751 50.79                             129    0.19 9  165 222 
 SPBC HN ES        752 12.96                             129   -0.24 9  165 222 
 SPBC HZ I         752 16.95         5.3 0.40            131            165 222 
 SML  HZ EP        751 58.82                             117   -0.32 8  250 334 
 SML  HN ES   1    752 27.71                             117   -0.68 6  250 334 
 SML  HZ I         752 32.65         5.2 0.10            119            250 334 
                                                                                
