 2011  116 0518 56.6 L   6.794 -73.019144.0  RSN  6 0.3 1.5LRSN                1
 GAP=248        0.69       7.1     8.9  8.9 -0.1629E+02  0.2987E+02 -0.7842E+01E
 Epicentro: CEPITA - SANTANDER                                                 3
 ACTION:UP  11-02-08 08:40 OP:pat  STATUS:               ID:20110116051856 L   I
 2011-01-16-0517-38S.COL___136                                                 6
 STAT SP IPHASW D HRMM SECON CODA AMPLIT PERI AZIMU VELO SNR AR TRES W  DIS CAZ7
 BAR2 SZ EP   1    519 15.68                             168    -0.5 7   29 219 
 BAR2 SZ ES   1    519 31.61                             168     0.2 7   29 219 
 BAR2 SZ I         519 32.23         6.5 0.20                            29 219 
 BTL  SZ EP   1    519 16.23                             167     0.0 7   31 297 
 RUS  HZ EP   1    519 20.47                             144     0.3 7  100 184 
 RUS  HN ES   1    519 38.62                             144     0.1 7  100 184 
 RUS  HZ I         519 40.40         2.6 0.42                           100 184 
 NOR  SN ES   1    520  2.15                             117    -0.1 6  246 237 
 CHI  HE ES   2    520  3.74                             116    -0.5 4  252 198 
 CHI  HZ I         520  6.13         2.5 0.41                           252 198 
 HEL  HZ EP   2    519 39.03                             113     0.8 4  286 257 
 HEL  HZ I         520 14.57         2.1 0.41                           286 257 
                                                                                
