 2014  916 0838  9.6 L   6.799 -73.123136.0  RSN  9 0.5 1.7LRSN                1
 GAP=139        1.15       3.6     4.7  6.7 -0.3196E+01  0.8638E+01 -0.4186E+00E
 Epicentro: LOS SANTOS - SANTANDER                                             3
 ACTION:UPD 14-10-03 23:05 OP:nd   STATUS:               ID:20140916083809 L   I
 OLDACT:REG 14-09-16 13:03 OP:carl STATUS:               ID:20140916082819     3
 2014-09-16-0828-19M.COL___257                                                 6
 STAT SP IPHASW D HRMM SECON CODA AMPLIT PERI AZIMU VELO AIN AR TRES W  DIS CAZ7
 BAR2 SZ EP        838 28.11                             170    0.0310 23.8 196 
 BAR2 SZ ES        838 42.34                             170   -0.1410 23.8 196 
 BAR2 SZ I         838 44.34        21.3 0.46            169           23.8 196 
 BRR  HZ EP        838 30.18                             150    0.3310 73.5 298 
 BRR  HN ES        838 46.30                             150    0.6610 73.5 298 
 BRR  HZ I         838 51.97        11.9 0.14            150           73.5 298 
 PAM  SZ EP        838 30.82                             150    0.1210 75.9  38 
 PAM  SN ES        838 47.28                             150    0.1310 75.9  38 
 RUS  HZ EP        838 32.09                             142   -0.3010  100 177 
 RUS  HN ES        838 50.42                             142    0.2610  100 177 
 RUS  HZ I         838 52.21         4.6 0.36            145            100 177 
 PTB  HZ EP   4    838 34.96                             129   -1.07 0  150 259 
 PTB  HN ES        838 56.03                             129   -0.61 9  150 259 
 PTB  HZ I         838 58.54         8.9 0.30            131            150 259 
 OCA  HZ EP        838 36.98                             127   -0.24 9  161 352 
 OCA  HN ES        838 58.40                             127   -0.36 9  161 352 
 OCA  HZ I         838 59.29         6.5 0.24            130            161 352 
 SPBC HZ EP        838 37.00                             127   -0.53 9  165 220 
 SPBC HN ES        838 58.82                             127   -0.48 9  165 220 
 SPBC HZ I         839  3.52         5.9 0.20            129            165 220 
 ZAR  HZ EP        838 41.20                             120   -0.49 8  206 292 
 ZAR  HN ES        839  6.89                             120    0.18 8  206 292 
 ZAR  HZ I         839  9.41         4.6 0.12            122            206 292 
 GUY2CHZ EP        838 54.46                             110    1.45 7  303 235 
 GUY2CHE ES        839 27.40                             110    0.53 7  303 235 
 GUY2CHZ I         839 33.51         2.4 0.24                           303 235 
                                                                                
