 2013  416 0818 47.4 L   6.783 -73.187154.1  RSN  5 0.4 1.8LRSN                1
 GAP=179        0.84       4.1     7.3  8.4  0.5255E+01 -0.1118E+02 -0.9808E+01E
 Epicentro: LOS SANTOS - SANTANDER                                             3
 ACTION:UPD 13-05-22 14:38 OP:EP   STATUS:               ID:20130416081847 L   I
 2013-04-16-0808-46M.COL___210                                                 6
 STAT SP IPHASW D HRMM SECON CODA AMPLIT PERI AZIMU VELO AIN AR TRES W  DIS CAZ7
 BRR  HZ EP        819  9.60                             155    0.3610 68.2 302 
 BRR  HN ES   1    819 26.85                             155    0.53 7 68.2 302 
 BRR  HZ I         819 30.09         9.4 0.30            156           68.2 302 
 RUS  HZ EP        819 11.71                             146   -0.1210 99.2 173 
 RUS  HN ES   1    819 30.73                             146   -0.19 7 99.2 173 
 RUS  HZ I         819 32.99         4.4 0.50            151           99.2 173 
 PTB  HZ EP        819 14.43                             135   -0.16 9  143 259 
 PTB  HN ES   1    819 35.54                             135   -0.30 7  143 259 
 PTB  HZ I         819 38.03         6.2 0.16            139            143 259 
 OCA  HZ EP        819 16.97                             131    0.53 9  162 355 
 OCA  HE ES   1    819 38.34                             131   -0.79 7  162 355 
 OCA  HZ I         819 42.70         6.8 0.26            134            162 355 
 SML  HZ EP        819 24.19                             119   -0.25 8  244 336 
 SML  HE ES   1    819 53.22                             119   -0.14 6  244 336 
 SML  HZ I         819 57.55         8.2 0.08            122            244 336 
                                                                                
