 2011 1216 0736  0.8 L   6.773 -73.108146.0  RSN 12 0.2 3.0LRSN                1
 GAP=143        0.47       1.9     2.7  3.0 -0.1650E+01  0.3118E+01  0.5026E+00E
 Epicentro: LOS SANTOS - SANTANDER                                             3
 ACTION:UPD 12-07-13 16:16 OP:ep   STATUS:               ID:20111216073601dL   I
 2011-12-16-0730-00M.COL___186                                                 6
 STAT SP IPHASW D HRMM SECON CODA AMPLIT PERI AZIMU VELO AIN AR TRES W  DIS CAZ7
 BAR2 SZ IP        736 20.39                             171   -0.0210 21.6 202 
 BAR2 SZ ES        736 35.82                             171    0.1010 21.6 202 
 BAR2 SZ I         736 37.18       171.2 0.23                          21.6 202 
 GIR2 SZ EP        736 20.50                             166   -0.1010 35.2 344 
 BRR  HZ EP        736 22.26                             151    0.0010 76.3 299 
 BRR  HN ES   1    736 39.49                             151    0.49 7 76.3 299 
 BRR  HN I         736 40.28       767.6 0.15                          76.3 299 
 PAM  SZ EP   1    736 23.08                             151    0.06 7 77.3  36 
 PAM  SE ES        736 40.28                             151   -0.0810 77.3  36 
 RUS  HZ EP        736 24.23                             145   -0.1010 97.3 178 
 RUS  HN ES   1    736 42.90                             145    0.20 7 97.3 178 
 OCA  SZ EP        736 29.35                             129   -0.10 9  164 352 
 OCA  SZ ES   1    736 51.67                             129   -0.14 7  164 352 
 OCA  SZ I         736 55.81        44.6 0.07                           164 352 
 NOR  SZ EP   1    736 36.81                             118    0.10 6  236 236 
 NOR  SE ES   1    737  4.14                             118   -0.59 6  236 236 
 CHI  HZ EP   1    736 38.35                             117    0.04 6  247 196 
 CHI  HN ES   1    737  7.32                             117   -0.25 6  247 196 
 CHI  HZ I         737 17.31        30.6 0.44                           247 196 
 HEL  HZ EP   1    736 41.44                             115    0.06 6  275 257 
 HEL  HN ES   1    737 12.86                             115   -0.18 6  275 257 
 GUY  SZ EP   1    736 45.44                             112    0.58 5  305 236 
 GUY  SE ES   1    737 19.10                             112   -0.14 5  305 236 
 GUY  SZ I         737 26.77        49.7 0.37                           305 236 
 RREF HZ EP   1    736 46.97                             111   -0.11 5  323 230 
 RREF HZ I         737 32.97        44.8 0.56                           323 230 
 TOL  SZ EP   1    736 49.69                             109    0.55 5  344 225 
                                                                                
