 2013 1016 0003  8.1 L   6.788 -73.202135.0  RSN  8 0.4 1.5LRSN                1
 GAP=196        0.88       4.9     6.2  6.7  0.1618E+02  0.6245E+01  0.2057E+01E
 Epicentro: ZAPATOCA - SANTANDER                                               3
 ACTION:UPD 13-11-25 09:21 OP:ep   STATUS:               ID:20131016000308 L   I
 OLDACT:REG 13-10-16 07:32 OP:jn   STATUS:               ID:20131016000008     3
 2013-10-16-0000-08M.COL___211                                                 6
 STAT SP IPHASW D HRMM SECON CODA AMPLIT PERI AZIMU VELO AIN AR TRES W  DIS CAZ7
 BAR2 SZ ES   1    0 3 40.21                             170   -0.48 7 21.8 174 
 BAR2 SZ I         0 3 42.34        12.1 0.32            173           21.8 174 
 BRR  HZ EP        0 3 28.21                             152    0.3910 66.5 302 
 BRR  HN ES   1    0 3 43.96                             152    0.76 7 66.5 302 
 BRR  HZ I         0 3 50.28         7.1 0.22            153           66.5 302 
 RUS  HZ EP        0 3 30.83                             142    0.0710 99.9 172 
 RUS  HN ES        0 3 48.38                             142   -0.0510 99.9 172 
 RUS  HZ I         0 3 50.59         3.4 0.24            147           99.9 172 
 PTB  HZ EP        0 3 33.04                             131   -0.58 9  141 259 
 PTB  HN ES        0 3 53.43                             131   -0.09 9  141 259 
 PTB  HZ I         0 3 56.67         4.4 0.48            134            141 259 
 ZAR  HE ES   1    0 4  3.55                             121   -0.11 6  199 293 
 SML  HE ES   1    0 4 11.55                             115   -0.45 6  242 337 
 CHI  HZ EP   1    0 3 44.98                             115    0.06 6  246 194 
 PRA  HZ EP        0 4  1.43                             105    0.65 6  388 209 
                                                                                
