 2013 1216 0207 38.3 L   6.798 -73.180145.3  RSN  8 0.5 1.9LRSN                1
 GAP=179        1.26       4.4     6.8  8.0 -0.1064E+01  0.7793E+01  0.7882E+01E
 Epicentro: LOS SANTOS - SANTANDER                                             3
 ACTION:UPD 14-01-13 10:18 OP:ep   STATUS:               ID:20131216020738 L   I
 OLDACT:REG 13-12-16 06:27 OP:jn   STATUS:               ID:20131216020000     3
 2013-12-16-0200-00M.COL___285                                                 6
 STAT SP IPHASW D HRMM SECON CODA AMPLIT PERI AZIMU VELO AIN AR TRES W  DIS CAZ7
 BAR2 SZ EP        2 7 57.85                             171   -0.0310 22.8 181 
 BAR2 SZ ES        2 8 12.51                             171   -0.6310 22.8 181 
 BAR2 SZ I         2 8 15.60        25.5 0.18            169           22.8 181 
 BRR  HZ EP     C  2 7 59.86                             154    0.6310 67.9 300 
 BRR  HN ES        2 8 16.65                             154    1.1010 67.9 300 
 BRR  HZ I         2 8 21.24         8.0 0.14            154           67.9 300 
 RUS  HZ EP        2 8  1.78                             144   -0.2510  101 174 
 RUS  HN ES        2 8 20.84                             144    0.3110  101 174 
 RUS  HZ I         2 8 22.16         8.2 0.22            145            101 174 
 PTB  HZ EP        2 8  4.76                             133   -0.14 9  144 259 
 PTB  HN ES        2 8 24.83                             133   -0.81 9  144 259 
 PTB  HZ I         2 8 27.86         9.7 0.10            133            144 259 
 OCA  HN ES        2 8 27.97                             130   -0.63 9  160 355 
 SPBC HZ EP        2 8  6.75                             129    0.21 9  161 218 
 SPBC HN ES        2 8 28.67                             129    0.12 9  161 218 
 SPBC HZ I         2 8 31.72        15.8 0.18            130            161 218 
 NOR  HZ EP        2 8 14.01                             119    0.34 8  231 234 
 NOR  HE ES        2 8 41.04                             119   -0.21 8  231 234 
 NOR  HZ I         2 8 45.47         9.2 0.18            120            231 234 
 CHI  HZ EP        2 8 15.79                             117   -0.07 8  247 194 
 CHI  HN ES        2 8 45.02                             117   -0.13 8  247 194 
 CHI  HZ I         2 8 53.56         2.6 0.32            119            247 194 
                                                                                
