 2012 1116 0454 51.8 L   7.000 -73.190131.2  RSN  9 0.4 1.6LRSN                1
 GAP=119        0.74       3.2     3.9  5.5  0.9651E+00  0.6575E+01 -0.1750E+01E
 Epicentro: GIRON - SANTANDER                                                  3
 ACTION:UPD 12-12-05 15:33 OP:}ep  STATUS:               ID:20121116045451 L   I
 2012-11-16-0450-00M.COL___233                                                 6
 STAT SP IPHASW D HRMM SECON CODA AMPLIT PERI AZIMU VELO AIN AR TRES W  DIS CAZ7
 GIR2 SZ EP   1    455  9.44                             176    0.11 7 8.71 358 
 GIR2 SZ ES   1    455 22.29                             176   -0.69 7 8.71 358 
 BAR2 SZ EP   1    455 10.54                             160    0.14 7 45.1 179 
 BAR2 SZ ES   1    455 24.85                             160   -0.05 7 45.1 179 
 BRR  HZ EP   1    455 10.80                             154    0.10 7 58.8 282 
 BRR  HE ES   1    455 25.92                             154    0.49 7 58.8 282 
 BRR  HZ I         455 26.78        11.3 0.13                          58.8 282 
 PAM  SZ EP   1    455 12.25                             152    0.44 7 65.9  55 
 PAM  SN ES   1    455 27.71                             152    0.32 7 65.9  55 
 PAM  SZ I         455 29.17         8.1 0.20                          65.9  55 
 RUS  HZ EP   1    455 15.74                             134   -0.28 7  123 174 
 RUS  HN ES   1    455 35.10                             134    0.20 7  123 174 
 RUS  HZ I         455 35.92         2.5 0.34                           123 174 
 OCA  HN ES   1    455 35.80                             131   -0.63 7  138 354 
 PTB  HZ EP   1    455 17.25                             128   -0.50 7  149 250 
 PTB  HN ES   1    455 37.71                             128   -0.27 7  149 250 
 PTB  HZ I         455 40.40         6.3 0.10                           149 250 
 ZAR  HZ EP   1    455 22.33                             121    0.24 7  192 287 
 ZAR  HE ES   1    455 46.08                             121    0.38 7  192 287 
 ZAR  HZ I         455 50.02         5.4 0.13                           192 287 
 SML  HZ EP   1    455 24.85                             117   -0.38 6  222 334 
 SML  HE ES   1    455 51.64                             117    0.34 6  222 334 
                                                                                
