 2017 1216 0007 56.7 L   6.819 -73.138146.1  RSN 12 0.5 2.0LRSN                1
 GAP= 85        0.92       3.3     3.9  5.8 -0.3948E+01  0.5394E+01  0.2491E+01E
 Epicentro: LOS SANTOS - SANTANDER                                             3
 ACTION:UPD 18-01-04 13:20 OP:rebc STATUS:               ID:20171216000756 L   I
 OLDACT:UP  17-12-16 13:16 OP:edw  STATUS:               ID:20171216000000     3
 OLDACT:UP  17-12-16 13:15 OP:edw  STATUS:               ID:20171216000000     3
 OLDACT:REG 17-12-16 11:40 OP:edw  STATUS:               ID:20171216000000     3
 2017-12-16-0000-15M.COL___476                                                 6
 STAT SP IPHASW D HRMM SECON CODA AMPLIT PERI AZIMU VELO AIN AR TRES W  DIS CAZ7
 BAR2 EZ EP        0 8 16.09                             170   -0.2910 25.5 191 
 BAR2 EZ ES        0 8 31.93                             170    0.1710 25.5 191 
 BAR2 EZ I         0 8 33.91        20.1 0.30            168           25.5 191 
 PAM  EZ EP        0 8 19.06                             152    0.2710 75.2  40 
 PAM  EN ES        0 8 36.22                             152    0.1810 75.2  40 
 PAM  EZ I         0 8 39.18         7.8 0.36            156           75.2  40 
 PTB  HZ EP        0 8 23.22                             132   -0.55 9  149 258 
 PTB  HE ES        0 8 44.29                             132   -0.62 9  149 258 
 PTB  HZ I         0 8 50.16         4.6 0.22            132            149 258 
 TAM  HZ EP   2    0 8 24.55                             131    0.21 5  155 106 
 TAM  HN ES   2    0 8 45.14                             131   -0.79 5  155 106 
 OCA  HZ EP        0 8 24.65                             130   -0.17 9  158 353 
 OCA  HN ES        0 8 47.02                             130    0.25 9  158 353 
 OCA  HZ I         0 8 50.02        25.6 0.24            133            158 353 
 SPBC HZ EP        0 8 25.05                             129   -0.34 9  165 219 
 SPBC HE ES        0 8 47.96                             129    0.16 9  165 219 
 SPBC HZ I         0 8 51.94        11.4 0.20            130            165 219 
 ZAR  HZ EP   2    0 8 29.60                             122    0.47 4  204 292 
 ZAR  HE ES        0 8 54.58                             122    0.12 9  204 292 
 ZAR  HZ I         0 8 59.46         8.1 0.36            124            204 292 
 ROSC BZ EP   4    0 8 36.69                             116    1.65 0  255 211 
 ROSC BN ES   4    0 9  6.53                             116    1.55 0  255 211 
 ROSC BZ I         0 9 10.89         9.7 0.40            118            255 211 
 DRL03HZ EP   2    0 8 38.14                             113    0.07 4  287 353 
 DRL03HE ES   4    0 9 11.61                             113    1.25 0  287 353 
 GUY2CHZ EP        0 8 41.44                             112    0.94 7  303 235 
 GUY2CHE ES   4    0 9 18.09                             112    3.40 0  303 235 
 GUY2CHZ I         0 9 22.49         3.9 0.60                           303 235 
 PTGC HZ EP   4    0 8 39.29                             111   -1.43 0  310 159 
 PRA  HZ EP        0 8 50.15                             106   -0.31 6  394 210 
 PRA  HN ES        0 9 32.58                             106    0.17 6  394 210 
 PRA  HZ I         0 9 38.31         4.2 0.38            108            394 210 
 ORTC HE ES   1    0 9 34.61                             106    1.50 4  398 216 
                                                                                
