 2016  816 0141 40.4 L   6.882 -73.246125.7  RSN  4 0.2 1.0LRSN                1
 GAP=232        0.46       3.5     3.5  4.1  0.6390E+01  0.4345E+01  0.1668E+01E
 Epicentro: BETULIA - SANTANDER                                                3
 ACTION:UPD 16-10-29 15:36 OP:rebc STATUS:               ID:20160816014140 L   I
 OLDACT:REG 16-08-16 12:32 OP:ak   STATUS:               ID:20160816013759     3
 2016-08-16-0137-59S.COL___349                                                 6
 STAT SP IPHASW D HRMM SECON CODA AMPLIT PERI AZIMU VELO AIN AR TRES W  DIS CAZ7
 BAR2 EZ EP   2    141 58.52                             164    0.60 5 32.8 168 
 BAR2 EZ ES        142 11.49                             164   -0.0710 32.8 168 
 BAR2 EZ I         142 12.92         4.7 0.06                          32.8 168 
 BRR  HZ EP        141 58.42                             154   -0.2110 57.2 296 
 BRR  HN ES        142 12.91                             154    0.0910 57.2 296 
 BRR  HZ I         142 14.38         3.3 0.08                          57.2 296 
 RUS  HZ EP   2    142  3.23                             136    0.11 5  111 171 
 RUS  HN ES        142 20.76                             136   -0.0410  111 171 
 RUS  HZ I         142 23.96         0.8 0.23                           111 171 
 PTB  HZ EP        142  4.94                             129   -0.07 9  139 254 
 PTB  HN ES        142 24.30                             129    0.13 9  139 254 
 PTB  HZ I         142 26.15         1.8 0.05                           139 254 
                                                                                
