 2012  616 0951 19.2 L   6.810 -73.127144.4  RSN  5 0.3 0.9LRSN                1
 GAP=138        0.60       3.5     5.1  9.8 -0.1625E+00  0.1563E+02 -0.1393E+01E
 Epicentro: LOS SANTOS - SANTANDER                                             3
 ACTION:UPD 12-08-06 17:50 OP:ep   STATUS:               ID:20120616095119 L   I
 2012-06-16-0950-00M.COL___198                                                 6
 STAT SP IPHASW D HRMM SECON CODA AMPLIT PERI AZIMU VELO AIN AR TRES W  DIS CAZ7
 PAM  SZ EP   1    951 41.71                             151    0.53 7 75.2  39 
 PAM  SN ES   2    951 58.04                             151   -0.25 5 75.2  39 
 RUS  HZ EP   1    951 42.82                             143   -0.10 7  102 177 
 RUS  HN ES   1    952  1.44                             143    0.04 7  102 177 
 RUS  HZ I         952  2.99         1.1 0.58                           102 177 
 PTB  HZ EP   1    951 45.96                             131   -0.34 7  150 259 
 PTB  HN ES   2    952  7.38                             131   -0.03 5  150 259 
 PTB  HZ I         952  8.57         1.3 0.24                           150 259 
 OCA  HE ES   1    952  9.00                             129   -0.30 7  159 352 
 ZAR  HN ES   2    952 17.73                             122    0.62 4  206 292 
                                                                                
