 2013  616 0644 58.1 L   6.744 -73.197151.3  RSN  4 0.1 1.2LRSN                1
 GAP=197        0.41       4.2     3.9  4.0 -0.2837E+01  0.4064E+01 -0.6403E+01E
 Epicentro: VILLANUEVA - SANTANDER                                             3
 ACTION:UPD 14-01-08 09:55 OP:ep   STATUS:               ID:20130616064458 L   I
 OLDACT:DUP 13-06-16 09:20 OP:cam  STATUS:               ID:20130616063960d    3
 OLDACT:REG 13-06-16 07:38 OP:cam  STATUS:               ID:20130616063959     3
 2013-06-16-0639-59M.COL___261                                                 6
 STAT SP IPHASW D HRMM SECON CODA AMPLIT PERI AZIMU VELO AIN AR TRES W  DIS CAZ7
 BAR2 SZ ES        645 33.96                             174   -0.1210 16.9 174 
 BRR  HZ EP        645 19.87                             154    0.0610 69.6 305 
 BRR  HN ES        645 36.90                             154    0.1910 69.6 305 
 BRR  HZ I         645 39.41         3.0 0.30            150           69.6 305 
 PTB  HZ EP   1    645 25.14                             135    0.16 7  141 261 
 PTB  HN ES        645 45.74                             135   -0.17 9  141 261 
 PTB  HZ I         645 48.34         2.0 0.16            133            141 261 
 SML  HZ EP   1    645 35.42                             118   -0.03 6  247 337 
 SML  HZ I         645 38.80         0.8 0.20            117            247 337 
 SML  HN ES   2    646  4.29                             118   -0.25 4  247 337 
                                                                                
