 2016  716 0729 28.9 L   6.797 -73.167149.5  RSN  4 0.1 1.4LRSN                1
 GAP=276        0.45       6.5     3.8  6.7  0.1331E+02 -0.7762E+01 -0.2642E+02E
 Epicentro: LOS SANTOS - SANTANDER                                             3
 ACTION:UPD 17-03-29 16:51 OP:lp   STATUS:               ID:20160716072928 L   I
 OLDACT:REG 16-07-16 12:27 OP:lv   STATUS:               ID:20160716072759     3
 2016-07-16-0727-59S.COL___322                                                 6
 STAT SP IPHASW D HRMM SECON CODA AMPLIT PERI AZIMU VELO AIN AR TRES W  DIS CAZ7
 RUS  HZ EP        729 52.92                             145   -0.1010  100 175 
 RUS  HN ES        730 11.87                             145    0.0510  100 175 
 RUS  HZ I         730 12.79         2.1 0.26            152            100 175 
 PTB  HZ EP        729 55.82                             133   -0.15 9  145 259 
 PTB  HN ES        730 17.16                             133    0.08 9  145 259 
 PTB  HZ I         730 22.81         2.2 0.15            136            145 259 
 SPBC HZ EP        729 57.80                             130    0.27 9  161 218 
 SPBC HN ES        730 19.71                             130   -0.15 9  161 218 
 SPBC HZ I         730 21.46         5.7 0.17            135            161 218 
 GUY2CHZ EP   4    730 14.85                             113    2.40 0  299 235 
 GUY2CHN ES   4    730 50.58                             113    4.16 0  299 235 
 GUY2CHZ I         730 57.49         1.4 0.52                           299 235 
                                                                                
