 2015  416 0537  0.3 L   6.793 -73.151149.2  RSN 12 0.4 2.2LRSN                1
 GAP=136        0.96       2.9     3.9  5.5 -0.2047E+01  0.5719E+01 -0.2727E+01E
 Epicentro: LOS SANTOS - SANTANDER                                             3
 ACTION:UPD 15-06-03 16:55 OP:cam  STATUS:               ID:20150416053700 L   I
 OLDACT:DUP 15-04-16 15:07 OP:carl STATUS:               ID:20150416052749d    3
 2015-04-16-0527-48M.COL___275                                                 6
 STAT SP IPHASW D HRMM SECON CODA AMPLIT PERI AZIMU VELO AIN AR TRES W  DIS CAZ7
 BAR2 EZ EP        537 20.42                             171    0.0910 22.5 189 
 BAR2 EZ ES        537 35.70                             171   -0.2510 22.5 189 
 BAR2 EZ I         537 36.48        29.9 0.20            171           22.5 189 
 BRR  HZ EP        537 22.27                             153    0.4510 71.1 299 
 BRR  HN ES        537 39.33                             153    0.7310 71.1 299 
 BRR  HZ I         537 43.40        23.9 0.14            150           71.1 299 
 PAM  SZ IP     C  537 23.22                             151    0.2810 78.3  39 
 PAM  SN ES        537 40.36                             151   -0.2410 78.3  39 
 PAM  SZ I         537 44.30        11.4 0.40            154           78.3  39 
 RUS  HZ EP        537 24.57                             145    0.2310 99.8 176 
 RUS  HN ES        537 43.00                             145   -0.0910 99.8 176 
 RUS  HZ I         537 44.24        10.8 0.40            149           99.8 176 
 PTB  HZ EP        537 27.30                             133   -0.19 9  147 259 
 PTB  HN ES        537 48.42                             133   -0.28 9  147 259 
 PTB  HZ I         537 55.37        17.5 0.38            133            147 259 
 OCA  HZ EP        537 28.64                             130   -0.31 9  161 353 
 OCA  HN ES        537 51.01                             130   -0.28 9  161 353 
 OCA  HZ I         538  0.53        39.7 0.32            131            161 353 
 SPBC HN ES        537 51.27                             130   -0.07 9  162 219 
 SPBC HZ I         537 54.94        24.9 0.30            132            162 219 
 ZAR  HZ EP        537 33.19                             123    0.24 9  204 292 
 ZAR  HN ES        537 58.83                             123    0.41 9  204 292 
 ZAR  HZ I         538  4.48        19.2 0.42            124            204 292 
 NOR  HZ EP        537 36.69                             119    0.55 8  234 235 
 NOR  HN ES        538  3.20                             119   -0.89 8  234 235 
 NOR  HZ I         538  9.60        12.5 0.22            121            234 235 
 SML  HZ EP        537 36.76                             118   -0.42 8  244 335 
 SML  HN ES        538  5.60                             118   -0.34 8  244 335 
 SML  HZ I         538  9.81        21.9 0.10            119            244 335 
 HEL  HZ EP   4    537 41.97                             115    1.36 0  271 256 
 HEL  HN ES   4    538  8.64                             115   -3.41 0  271 256 
 HEL  HZ I         538 19.37         9.5 0.50            117            271 256 
 GUY2CHZ EP   4    537 46.52                             113    2.55 0  300 235 
 GUY2CHN ES   4    538 18.86                             113    0.83 0  300 235 
 GUY2CHZ I         538 25.01         4.4 0.30                           300 235 
                                                                                
