 2014  916 0336 14.0 L   7.438 -73.187130.4  RSN 13 0.5 2.0LRSN                1
 GAP=111        1.22       3.1     4.7  7.0  0.8946E+00  0.1035E+02  0.3536E+01E
 Epicentro: EL PLAYON - SANTANDER                                              3
 ACTION:UPD 14-10-03 23:05 OP:nd   STATUS:               ID:20140916033614 L   I
 OLDACT:REG 14-09-16 12:55 OP:carl STATUS:               ID:20140916032817     3
 2014-09-16-0328-17M.COL___263                                                 6
 STAT SP IPHASW D HRMM SECON CODA AMPLIT PERI AZIMU VELO AIN AR TRES W  DIS CAZ7
 PAM  SZ EP        336 33.82                             156    0.5610 54.9 101 
 PAM  SN ES        336 48.38                             156    0.0510 54.9 101 
 BRR  HZ IP     D  336 33.48                             151    0.1810 68.5 238 
 BRR  HN ES        336 48.70                             151    0.3210 68.5 238 
 BRR  HZ I         336 49.19        27.8 0.12            147           68.5 238 
 OCA  HZ EP        336 35.04                             143    0.1010 89.8 351 
 OCA  HN ES        336 51.68                             143    0.3710 89.8 351 
 OCA  HZ I         336 53.93        10.7 0.14            145           89.8 351 
 BAR2 SZ IP     C  336 35.38                             142    0.0510 93.5 180 
 BAR2 SZ ES        336 51.91                             142   -0.0910 93.5 180 
 BAR2 SZ I         336 52.76        67.5 0.38            141           93.5 180 
 RUS  HZ EP        336 42.37                             124   -0.29 9  171 176 
 RUS  HN ES        337  3.89                             124   -1.16 9  171 176 
 RUS  HZ I         337 11.62         3.8 0.26            124            171 176 
 PTB  HZ EP        336 41.58                             124   -0.51 9  172 235 
 PTB  HN ES        337  3.45                             124   -0.59 9  172 235 
 SML  HZ EP        336 42.79                             122   -0.06 9  180 327 
 SML  HN ES        337  4.32                             122   -1.07 9  180 327 
 SML  HZ I         337  5.67        22.4 0.10            123            180 327 
 ZAR  HZ EP        336 43.33                             122   -0.05 9  184 272 
 ZAR  HN ES        337  6.86                             122    0.52 9  184 272 
 ZAR  HZ I         337 11.36        12.6 0.30            121            184 272 
 SPBC HZ EP        336 47.91                             117    0.60 8  220 206 
 SPBC HN ES        337 13.13                             117   -0.20 8  220 206 
 SPBC HZ I         337 21.37         6.0 0.18            116            220 206 
 URE  HN ES   4    337 19.32                             112   -1.89 0  261 278 
 NOR  HZ EP        336 53.80                             111    0.04 7  278 222 
 NOR  HN ES        337 25.44                             111    0.63 7  278 222 
 NOR  HZ I         337 30.68         4.1 0.26            111            278 222 
 HEL  HZ EP   4    336 58.08                             110    2.23 0  293 242 
 HEL  HN ES   4    337 26.52                             110   -2.00 0  293 242 
 CHI  HN ES        337 34.17                             108    0.81 7  316 191 
 GUY2CHZ EP   4    337  3.46                             106    1.66 0  343 225 
 GUY2CHE ES   4    337 40.69                             106    1.57 0  343 225 
 GUY2CHZ I         337 50.88         4.5 0.78                           343 225 
 TOL  SZ EP   4    337  9.05                             104    1.47 0  394 217 
 TOL  SE ES   4    337 52.27                             104    2.86 0  394 217 
 TOL  SZ I         337 57.87         8.5 0.56            104            394 217 
                                                                                
