 2012 1116 0334 30.5 L   6.764 -73.173147.4  RSN  5 0.4 1.5LRSN                1
 GAP=232        0.74       6.2     6.8  7.2  0.1365E+02  0.1228E+02  0.1348E+02E
 Epicentro: LOS SANTOS - SANTANDER                                             3
 ACTION:UPD 12-12-05 15:33 OP:}ep  STATUS:               ID:20121116033430 L   I
 2012-11-16-0330-00M.COL___233                                                 6
 STAT SP IPHASW D HRMM SECON CODA AMPLIT PERI AZIMU VELO AIN AR TRES W  DIS CAZ7
 BAR2 SZ EP   1    334 50.32                             173    0.05 7 19.0 183 
 BAR2 SZ ES   1    335  5.23                             173   -0.44 7 19.0 183 
 BAR2 SZ I         335  6.80        14.4 0.24                          19.0 183 
 BRR  HZ EP   1    334 51.95                             153    0.14 7 70.6 303 
 BRR  HN ES   1    335  9.14                             153    0.72 7 70.6 303 
 BRR  HZ I         335 13.10         4.5 0.35                          70.6 303 
 RUS  HZ EP   1    334 53.95                             145   -0.22 7 96.9 174 
 RUS  HE ES   1    335 12.79                             145    0.17 7 96.9 174 
 RUS  HZ I         335 14.07         4.0 0.28                          96.9 174 
 PTB  HZ EP   1    334 56.94                             133   -0.35 7  144 260 
 PTB  HN ES   1    335 17.67                             133   -0.50 7  144 260 
 PTB  HZ I         335 19.87         3.3 0.12                           144 260 
 MON  HN ES   4    335 55.69                             109   -2.19 0  354 309 
 PRA  HZ EP   1    335 23.98                             107    0.46 4  387 209 
 PRA  HN ES   1    336  5.35                             107    0.49 4  387 209 
                                                                                
