 2011  716 0555 58.0 L   6.768 -73.154144.3  RSN  7 0.3 1.7LRSN                1
 GAP=155        0.57       3.0     4.8  4.9 -0.6203E+01 -0.2113E+00  0.4018E+00E
 Epicentro: LOS SANTOS - SANTANDER                                             3
 ACTION:UPD 12-07-25 14:01 OP:epov STATUS:               ID:20110716055557 L   I
 2011-07-16-0553-57S.COL___132                                                 6
 STAT SP IPHASW D HRMM SECON CODA AMPLIT PERI AZIMU VELO AIN AR TRES W  DIS CAZ7
 BAR2 SZ EP   1    556 17.08                             172   -0.26 7 19.7 189 
 BAR2 SZ ES   1    556 32.30                             172   -0.16 7 19.7 189 
 BAR2 SZ I         556 35.33        13.6 0.33                          19.7 189 
 GIR2 SZ EP   1    556 17.19                             166   -0.36 7 34.6 353 
 GIR2 SZ ES   1    556 32.78                             166   -0.05 7 34.6 353 
 BRR  HZ EP   1    556 18.99                             152   -0.01 7 72.2 301 
 BRR  HE ES   1    556 35.42                             152    0.01 7 72.2 301 
 BRR  HZ I         556 37.23        22.4 0.19                          72.2 301 
 RUS  HZ EP   1    556 21.07                             144   -0.24 7 97.1 175 
 RUS  HE ES   1    556 39.95                             144    0.42 7 97.1 175 
 RUS  HZ I         556 41.20         4.9 0.31                          97.1 175 
 BRI  SZ EP   1    556 21.73                             140   -0.25 7  112  21 
 BRI  SZ ES   1    556 40.76                             140    0.03 7  112  21 
 BRI  SZ I         556 42.14         6.9 0.49                           112  21 
 GRA  SZ EP   1    556 23.99                             136    0.62 7  129  17 
 GRA  SZ ES   1    556 43.36                             136    0.16 7  129  17 
 GRA  SZ I         556 44.60         5.9 0.25                           129  17 
 NOR  SN ES   1    557  1.07                             118    0.21 6  232 235 
                                                                                
