 2014  516 0553 31.2 L   6.713 -73.195150.0  RSN  4 0.4 1.2LRSN                1
 GAP=225        0.86       7.5     7.5  8.9  0.3934E+02 -0.2956E+00 -0.4877E+01E
 Epicentro: VILLANUEVA - SANTANDER                                             3
 ACTION:UPD 15-03-16 16:58 OP:nd   STATUS:               ID:20140516055331 L   I
 OLDACT:UP  14-05-16 19:00 OP:cam  STATUS:               ID:20140516054805     3
 OLDACT:REG 14-05-16 13:07 OP:spq  STATUS:               ID:20140516054805     3
 2014-05-16-0548-05M.COL___248                                                 6
 STAT SP IPHASW D HRMM SECON CODA AMPLIT PERI AZIMU VELO AIN AR TRES W  DIS CAZ7
 BRR  HZ EP   1    553 51.89                             153   -0.99 7 71.9 307 
 BRR  HN ES        554  9.97                             153    0.2110 71.9 307 
 BRR  HZ I         554 11.93         2.7 0.14            152           71.9 307 
 RUS  HZ EP        553 55.02                             147    0.2310 91.6 172 
 RUS  HE ES        554 13.16                             147    0.0010 91.6 172 
 RUS  HZ I         554 14.40         1.7 0.32            149           91.6 172 
 PTB  HZ EP   1    553 58.13                             134    0.19 7  141 262 
 PTB  HN ES        554 18.48                             134   -0.29 9  141 262 
 PTB  HZ I         554 20.76         2.6 0.12            134            141 262 
 ZAR  HZ EP   2    554  4.19                             123    0.34 4  203 295 
 ZAR  HN ES        554 29.57                             123    0.29 9  203 295 
 ZAR  HZ I         554 34.60         1.9 0.24            124            203 295 
                                                                                
