 2014  816 0253 34.1 L   6.821 -73.073154.3  RSN 11 0.4 2.0LRSN                1
 GAP=207        0.97       3.1     4.8  5.7  0.1858E+01  0.6217E+01 -0.3615E+00E
 Epicentro: LOS SANTOS - SANTANDER                                             3
 ACTION:UPD 14-09-15 21:50 OP:nd   STATUS:               ID:20140816025334 L   I
 OLDACT:UP  14-08-16 15:47 OP:cam  STATUS:               ID:20140816025000     3
 OLDACT:REG 14-08-16 12:56 OP:cam  STATUS:               ID:20140816025000     3
 2014-08-16-0250-00M.COL___285                                                 6
 STAT SP IPHASW D HRMM SECON CODA AMPLIT PERI AZIMU VELO AIN AR TRES W  DIS CAZ7
 BAR2 SZ EP     C  253 55.12                             169    0.2410 28.0 206 
 BAR2 SZ ES        254 11.07                             169    0.0010 28.0 206 
 BAR2 SZ I         254 11.72        14.1 0.40            166           28.0 206 
 BRR  HZ EP        253 57.00                             152    0.4610 77.4 294 
 BRR  HN ES        254 14.70                             152    0.6710 77.4 294 
 BRR  HZ I         254 19.32        14.8 0.12            150           77.4 294 
 RUS  HZ EP        253 58.94                             145    0.0710  103 181 
 RUS  HE ES        254 17.44                             145   -0.7310  103 181 
 RUS  HZ I         254 20.63         5.0 0.46            146            103 181 
 PTB  HZ EP        254  2.04                             132   -0.50 9  156 259 
 PTB  HN ES   4    254 23.44                             132   -1.27 0  156 259 
 PTB  HZ I         254 29.09        15.7 0.38            132            156 259 
 SPBC HZ EP     C  254  4.18                             130    0.25 9  170 221 
 SPBC HN ES        254 27.22                             130    0.03 9  170 221 
 SPBC HZ I         254 33.01        24.8 0.32            130            170 221 
 ZAR  HZ EP        254  7.67                             123   -0.14 8  211 291 
 ZAR  HE ES        254 33.43                             123   -0.66 8  211 291 
 ZAR  HZ I         254 39.46        10.3 0.58            124            211 291 
 NOR  HZ EP        254 10.99                             119   -0.21 8  243 235 
 NOR  HN ES        254 39.69                             119   -0.43 8  243 235 
 NOR  HZ I         254 42.81        10.2 0.16            120            243 235 
 SML  HZ EP        254 11.58                             119    0.19 8  245 333 
 SML  HE ES        254 40.05                             119   -0.41 8  245 333 
 SML  HZ I         254 44.73        18.4 0.44            121            245 333 
 CHI  HZ EP        254 12.71                             118   -0.07 8  253 197 
 CHI  HN ES        254 43.25                             118    0.31 8  253 197 
 CHI  HZ I         254 50.27         3.8 0.26            120            253 197 
 HEL  HZ EP   4    254 16.93                             116    1.23 0  280 256 
 HEL  HN ES        254 48.43                             116    0.30 7  280 256 
 HEL  HZ I         254 53.63         5.7 0.34            116            280 256 
 GUY2CHZ EP   4    254 20.27                             113    1.25 0  309 235 
 GUY2CHN ES        254 54.60                             113    0.55 7  309 235 
 GUY2CHZ I         255  2.23         6.1 0.60                           309 235 
                                                                                
