 2014 1116 0608 22.1 L   6.725 -73.194141.1  RSN  4 0.2 1.2LRSN                1
 GAP=136        0.63      10.6     5.7 10.0 -0.3759E+02 -0.3465E+02  0.6175E+02E
 Epicentro: VILLANUEVA - SANTANDER                                             3
 ACTION:UPD 14-12-19 15:43 OP:nd   STATUS:               ID:20141116060822 L   I
 OLDACT:ARG 14-11-16 13:31 OP:stll STATUS:               ID:20141116055743     3
 2014-11-16-0557-43M.COL___280                                                 6
 STAT SP IPHASW D HRMM SECON CODA AMPLIT PERI AZIMU VELO AIN AR TRES W  DIS CAZ7
 BAR2 SZ EP        6 8 41.13                             174    0.1510 14.7 175 
 BRR  HZ I         6 8 43.05         4.5 0.20            148           71.1 306 
 BRR  HZ EP        6 8 43.07                             152    0.3710 71.1 306 
 BRR  HN ES        6 8 58.82                             152    0.0210 71.1 306 
 PAM  SZ EP        6 8 44.08                             147   -0.3210 87.2  39 
 PAM  SZ I         6 8 44.34         3.7 0.16            145           87.2  39 
 PTB  HZ EP        6 8 47.98                             132   -0.05 9  141 262 
 PTB  HZ I         6 8 50.45         1.6 0.20            128            141 262 
 PTB  HN ES        6 9  8.10                             132   -0.20 9  141 262 
                                                                                
