 2016  416 0821 43.6 L   7.312 -73.117112.0  RSN  4 0.2 1.5LRSN                1
 GAP=252        0.51       4.8     5.3  8.7 -0.1852E+02 -0.1740E+02  0.2824E+02E
 Epicentro: RIONEGRO - SANTANDER                                               3
 ACTION:UPD 16-05-05 14:21 OP:rebc STATUS:               ID:20160416082143 L   I
 OLDACT:UP  16-04-16 19:40 OP:ak   STATUS:               ID:20160416081748     3
 OLDACT:UP  16-04-16 19:38 OP:ak   STATUS:               ID:20160416081748     3
 OLDACT:REG 16-04-16 14:28 OP:ak   STATUS:               ID:20160416081748     3
 2016-04-16-0817-48M.COL___312                                                 6
 STAT SP IPHASW D HRMM SECON CODA AMPLIT PERI AZIMU VELO AIN AR TRES W  DIS CAZ7
 OCA  HZ EP        822  3.94                             134   -0.1810  105 348 
 OCA  HE ES        822 20.30                             134    0.1710  105 348 
 OCA  HZ I         822 21.37         8.1 0.45             47            105 348 
 PTB  HZ EP        822 10.34                             119   -0.14 9  171 240 
 PTB  HN ES        822 31.49                             119    0.04 9  171 240 
 PTB  HZ I         822 36.88         2.5 0.36             47            171 240 
 ZAR  HZ EP   2    822 12.75                             115   -0.15 4  193 276 
 ZAR  HN ES        822 35.64                             115   -0.11 9  193 276 
 ZAR  HZ I         822 39.72         5.3 0.30             47            193 276 
 CBOC HZ EP        822 32.77                             102    0.52 6  358 244 
 CBOC HZ I         822 54.59         1.0 0.20             36            358 244 
                                                                                
