 2012  216 0111 19.2 L   6.869 -73.259126.1  RSN  8 0.5 1.9LRSN                1
 GAP=115        1.03       4.5     5.3  9.3 -0.2186E+01  0.1047E+02 -0.5446E+01E
 ACTION:UP  12-03-07 16:30 OP:epov STATUS:               ID:20120216011119 L   I
 2012-02-16-0110-00M.COL___188                                                 6
 STAT SP IPHASW D HRMM SECON CODA AMPLIT PERI AZIMU VELO AIN AR TRES W  DIS CAZ7
 BAR2 SZ EP        111 36.91                             165    0.2610 31.7 165 
 BAR2 SZ ES   1    111 50.13                             165   -0.16 7 31.7 165 
 BAR2 SZ I         111 51.47        61.7 0.26                          31.7 165 
 BRR  HZ EP        111 37.61                             154    0.2610 56.6 298 
 BRR  HN ES   1    111 52.05                             154    0.50 7 56.6 298 
 BRR  HZ I         111 52.69        33.1 0.12                          56.6 298 
 PAM  SE ES   1    111 55.90                             146    0.46 7 80.8  50 
 RUS  HZ EP   1    111 41.57                             137   -0.20 7  110 170 
 RUS  HN ES   1    111 59.08                             137   -0.32 7  110 170 
 RUS  HZ I         112  1.14         2.9 0.27                           110 170 
 PTB  HN ES   1    112  1.57                             129   -1.08 7  137 255 
 OCA  SZ EP        111 45.04                             126   -0.11 9  152 357 
 OCA  SZ ES   1    112  4.48                             126   -0.95 7  152 357 
 ZAR  HE ES   1    112 12.61                             120    0.60 7  190 291 
 ZAR  HZ I         112 16.12         8.1 0.11                           190 291 
 NOR  SE ES   1    112 20.23                             115    0.43 6  229 231 
                                                                                
