 2016  316 0857 37.3 L   6.778 -73.089145.5  RSN  4 0.4 1.0LRSN                1
 GAP=162        0.76       4.5     5.1  9.7  0.4778E+01  0.2503E+02  0.2282E+02E
 Epicentro: LOS SANTOS - SANTANDER                                             3
 ACTION:UPD 16-05-13 21:24 OP:cam  STATUS:               ID:20160316085737 L   I
 OLDACT:DUP 16-03-16 17:53 OP:mh   STATUS:               ID:20160316084753d    3
 2016-03-16-0847-52M.COL___282                                                 6
 STAT SP IPHASW D HRMM SECON CODA AMPLIT PERI AZIMU VELO AIN AR TRES W  DIS CAZ7
 PAM  EN ES        858 16.56                             151   -0.0010 75.5  35 
 PTB  HZ EP   1    858  3.82                             131   -0.92 7  154 260 
 PTB  HN ES   1    858 26.15                             131   -0.02 7  154 260 
 PTB  HZ I         858 30.55         0.8 0.22            131            154 260 
 ZAR  HZ EP        858 10.48                             121    0.09 8  211 292 
 ZAR  HN ES        858 36.47                             121    0.24 8  211 292 
 ZAR  HZ I         858 43.44         0.9 0.43            123            211 292 
 CHI  HZ EP        858 15.26                             117    0.37 8  248 197 
 CHI  HN ES        858 44.21                             117   -0.02 8  248 197 
 CHI  HZ I         858 48.21         1.2 0.84            120            248 197 
                                                                                
