 2016 1116 0045 10.7 L   6.798 -73.153142.4  RSN 10 0.4 1.7LRSN                1
 GAP=101        1.02       4.1     3.7  5.9 -0.1891E+01  0.2407E+01  0.8745E+01E
 Epicentro: LOS SANTOS - SANTANDER                                             3
 ACTION:UPD 17-10-26 21:08 OP:lp   STATUS:               ID:20161116004510 L   I
 OLDACT:UP  16-11-16 13:22 OP:e    STATUS:               ID:20161116003743     3
 OLDACT:REG 16-11-16 12:11 OP:and  STATUS:               ID:20161116003743     3
 2016-11-16-0038-00M.COL___335                                                 6
 STAT SP IPHASW D HRMM SECON CODA AMPLIT PERI AZIMU VELO AIN AR TRES W  DIS CAZ7
 BAR2 EZ EP        045 29.64                             170   -0.2610 23.0 188 
 BAR2 EZ ES        045 44.57                             170   -0.3210 23.0 188 
 BAR2 EZ I         045 46.33         8.7 0.17            168           23.0 188 
 BRR  HZ EP        045 31.51                             152    0.0810 70.6 299 
 BRR  HN ES        045 48.40                             152    0.7810 70.6 299 
 PAM  EZ EP     D  045 32.59                             150    0.0110 78.1  40 
 PAM  EN ES        045 49.76                             150    0.1010 78.1  40 
 PAM  EZ I         045 51.84        12.8 0.42            153           78.1  40 
 PTB  HZ EP        045 36.74                             131   -0.56 9  147 259 
 PTB  HN ES        045 57.54                             131   -0.52 9  147 259 
 PTB  HZ I         046  0.26         4.0 0.10            131            147 259 
 TAM  HZ EP        045 38.07                             130   -0.09 9  156 105 
 ZAR  HZ EP        045 42.92                             122    0.08 9  203 292 
 ZAR  HN ES        046  7.69                             122   -0.24 9  203 292 
 ZAR  HZ I         046 12.74         4.6 0.38            122            203 292 
 NOR  HZ EP        045 45.66                             118   -0.47 8  234 234 
 NOR  HN ES        046 14.31                             118    0.53 8  234 234 
 NOR  HZ I         046 21.15         3.2 0.12            118            234 234 
 CHI  HZ EP        045 49.03                             116    0.88 8  248 195 
 CHI  HN ES        046 17.10                             116   -0.27 8  248 195 
 CHI  HZ I         046 20.64         3.4 0.50            117            248 195 
 PTGC HZ EP   9    045 52.79                             111   -1.61 0  309 158 
 PTGC HE ES        046 26.42                                   -0.47 7  309 158 
 PRA  HZ EP        046  4.46                             106    0.44 6  391 209 
 PRA  HN ES        046 46.15                             106    0.53 6  391 209 
 PRA  HZ I         046 50.80         2.3 0.30            106            391 209 
 SJC  HZ EP   4    046  5.36                             105   -0.75 0  409 327 
 SJC  HN ES   4    046 46.03                             105   -3.31 0  409 327 
                                                                                
