 2013  516 0223 16.4 L   6.427 -73.791 95.5  RSN  4 0.1 1.1LRSN                1
 GAP=120        0.40       2.1     2.2  6.0 -0.3027E+00 -0.1723E+01  0.4699E+01E
 Epicentro: SANTA HELENA DEL OPON - SANTANDER                                  3
 ACTION:UPD 13-06-20 09:50 OP:ep   STATUS:               ID:20130516022316 L   I
 2013-05-16-0220-00M.COL___256                                                 6
 STAT SP IPHASW D HRMM SECON CODA AMPLIT PERI AZIMU VELO AIN AR TRES W  DIS CAZ7
 PTB  HN ES   1    223 45.48                             139    0.07 7 74.6 280 
 BRR  HZ EP        223 32.62                             139   -0.1410 75.8   7 
 BRR  HN ES        223 45.58                             139    0.0410 75.8   7 
 BRR  HZ I         223 51.02         6.0 0.62            145           75.8   7 
 RUS  HZ EP   1    223 35.66                             131    0.27 7 98.1 127 
 RUS  HN ES   1    223 50.11                             131   -0.11 7 98.1 127 
 RUS  HZ I         223 52.13         2.1 0.22            138           98.1 127 
 NOR  HN ES   1    223 59.09                             118   -0.06 7  153 231 
 NOR  HZ I         224  4.34         2.1 0.16            122            153 231 
                                                                                
