 2010  416 0832 56.5 L   7.228 -72.973146.5  RSN  6 0.6 2.1LRSN                1
 GAP=144        1.06       8.8    11.3 13.5 -0.3170E+02  0.3479E+02 -0.1510E+02E
 Epicentro: TONA - SANTANDER                                                   3
 ACTION:UPD 10-08-24 09:59 OP:vdl  STATUS:               ID:20100416083257 L   I
 2010-04-16-0830-38S.COL___100                                                 6
 STAT SP IPHASW D HRMM SECON CODA AMPLIT PERI AZIMU VELO AIN AR TRES W  DIS CAZ7
 BAR2 SZ EP        833 18.04                             152    -0.210   74 198 
 BAR2 SZ ES   1    833 35.42                             152     0.2 7   74 198 
 BRR  HZ EP        833 18.50                             150     0.110   83 261 
 BRR  HZ I         833 18.87        20.4 0.14                            83 261 
 OCA  SZ EP   2    833 21.10                             140    -0.1 5  118 341 
 OCA  SZ ES   2    833 40.71                             140     0.2 5  118 341 
 OCA  SZ I         833 42.97        27.9 0.42                           118 341 
 HEL  HN ES   1    834 14.25                             113    -0.5 5  305 248 
 HEL  HZ I         834 20.85         5.4 0.94                           305 248 
 SDV  BZ EP   2    833 40.90                             112    -0.6 3  316  55 
 RREF BZ EP   1    833 49.71                             109     1.7 5  368 226 
 RREF BN ES   2    834 26.90                             109    -1.2 3  368 226 
 RREF BZ I         834 36.22         3.5 1.26                           368 226 
                                                                                
