 2010 1216 0752 53.3 L   6.870 -73.097144.0  RSN  7 0.5 1.8LRSN                1
 GAP=163        0.97       7.4    12.0 10.4 -0.4607E+02  0.6615E+02 -0.2751E+02E
 Epicentro: LOS SANTOS - SANTANDER                                             3
 ACTION:UP  11-01-14 15:25 OP:pat  STATUS:               ID:20101216075253 L   I
 2010-12-16-0740-00M.COL___132                                                 6
 STAT SP IPHASW D HRMM SECON CODA AMPLIT PERI AZIMU VELO SNR AR TRES W  DIS CAZ7
 BAR2 SZ EP        753 13.11                             167     0.210   32 197 
 BAR2 SZ ES   1    753 28.41                             167     0.2 7   32 197 
 BAR2 SZ I         753 29.82        17.7 0.46                            32 197 
 RUS  HZ EP   1    753 17.04                             141    -0.4 7  108 179 
 RUS  HN ES   1    753 36.03                             141    -0.2 7  108 179 
 RUS  HZ I         753 40.45         3.7 0.38                           108 179 
 GRA  SZ EP   2    753 18.58                             139     1.0 5  117  16 
 GRA  SZ I         753 39.52         8.9 0.50                           117  16 
 OCA  SZ EP   1    753 20.25                             131    -0.5 7  153 351 
 OCA  SZ I         753 48.59         7.3 0.44                           153 351 
 NOR  SZ EP   1    753 29.29                             117    -0.6 6  244 234 
 NOR  SN ES   1    753 58.33                             117    -0.1 6  244 234 
 RREF HZ EP   1    753 41.37                             110     1.0 5  331 229 
 RREF HZ I         754 25.14         4.5 0.17                           331 229 
 PRA  HZ EP   1    753 47.58                             106    -0.3 4  401 210 
 PRA  HN ES   1    754 30.98                             106     0.6 4  401 210 
                                                                                
