 2015  616 0621 13.1 L   6.962 -72.808131.2  RSN  4 0.2 1.4LRSN                1
 GAP=229        0.48       4.9    10.6  7.5  0.4633E+02 -0.6383E+02 -0.3097E+02E
 Epicentro: GUACA - SANTANDER                                                  3
 ACTION:UPD 15-09-10 22:12 OP:cam  STATUS:               ID:20150616062113 L   I
 OLDACT:UP  15-06-16 17:30 OP:drio STATUS:               ID:20150616061736d    3
 OLDACT:DUP 15-06-16 17:11 OP:drio STATUS:               ID:20150616061736d    3
 2015-06-16-0617-35M.COL___312                                                 6
 STAT SP IPHASW D HRMM SECON CODA AMPLIT PERI AZIMU VELO AIN AR TRES W  DIS CAZ7
 BAR2 EZ EP        621 32.58                             155    0.3310 58.2 225 
 BAR2 EZ ES        621 47.08                             155   -0.1510 58.2 225 
 BAR2 EZ I         621 48.85         6.7 0.36            169           58.2 225 
 BRR  HZ EP        621 34.79                             140    0.0310  101 279 
 BRR  HN ES        621 51.69                             140    0.0010  101 279 
 RUS  HZ EP        621 36.93                             135   -0.2510  122 194 
 RUS  HE ES        621 56.07                             135    0.0810  122 194 
 RUS  HZ I         621 57.03         3.0 0.40            145            122 194 
 SML  HZ EP        621 49.13                             114   -0.08 8  246 326 
 SML  HN ES        622 17.41                             114   -0.01 8  246 326 
 SML  HZ I         622 27.34         2.9 0.24            116            246 326 
                                                                                
