 2016  916 0934 51.4 L   6.776 -73.126153.0  RSN  8 0.3 1.6LRSN                1
 GAP=140        0.91       3.9     4.0  5.8 -0.5503E+00  0.5548E+01  0.8588E-01E
 Epicentro: LOS SANTOS - SANTANDER                                             3
 ACTION:UPD 17-08-17 21:13 OP:lp   STATUS:               ID:20160916093451 L   I
 OLDACT:UP  16-09-16 19:54 OP:ar   STATUS:               ID:20160916092739d    3
 OLDACT:DUP 16-09-16 19:31 OP:ar   STATUS:               ID:20160916092739d    3
 2016-09-16-0928-00M.COL___345                                                 6
 STAT SP IPHASW D HRMM SECON CODA AMPLIT PERI AZIMU VELO AIN AR TRES W  DIS CAZ7
 BAR2 EZ EP        935 11.69                             172   -0.2010 21.2 197 
 BAR2 EZ ES        935 27.55                             172   -0.3010 21.2 197 
 BAR2 EZ I         935 28.68         8.7 0.26            169           21.2 197 
 BRR  HZ EP        935 13.65                             153    0.1110 74.4 300 
 BRR  HE ES        935 31.60                             153    0.8110 74.4 300 
 BRR  HZ I         935 34.51         6.9 0.31            149           74.4 300 
 PAM  EZ EP        935 14.75                             152    0.2910 78.1  37 
 PAM  EE ES        935 32.12                             152   -0.3010 78.1  37 
 PAM  EZ I         935 34.29         6.9 0.62            155           78.1  37 
 RUS  HZ EP        935 15.66                             146   -0.0410 97.8 177 
 RUS  HE ES        935 34.61                             146   -0.0310 97.8 177 
 RUS  HZ I         935 36.00         3.6 0.40            148           97.8 177 
 PTB  HZ EP        935 18.76                             133   -0.38 9  149 260 
 PTB  HE ES        935 40.30                             133   -0.46 9  149 260 
 PTB  HZ I         935 44.87         4.5 0.44            132            149 260 
 SPBC HZ EP        935 20.64                             131    0.21 9  163 220 
 SPBC HN ES        935 43.43                             131    0.38 9  163 220 
 SPBC HZ I         935 49.80         8.5 0.22            131            163 220 
 ZAR  HZ EP        935 24.85                             123    0.18 8  207 293 
 ZAR  HN ES        935 50.26                             123   -0.33 8  207 293 
 ZAR  HZ I         935 55.36         3.4 0.12            123            207 293 
 URE  HZ EP   4    935 36.21                             115    3.01 0  287 292 
 URE  HN ES   4    936  2.67                             115   -3.11 0  287 292 
 URE  HZ I         936 14.90         3.6 0.12            115            287 292 
                                                                                
