 2015  116 0449  8.2 L   6.814 -73.139151.0  RSN  9 0.4 1.7LRSN                1
 GAP=202        1.00       3.3     5.1  5.7  0.3582E+01  0.3292E+01 -0.7784E+00E
 Epicentro: LOS SANTOS - SANTANDER                                             3
 ACTION:UPD 15-03-02 15:39 OP:nd   STATUS:               ID:20150116044908 L   I
 OLDACT:REG 15-01-16 13:26 OP:carl STATUS:               ID:20150116044743     3
 2015-01-16-0447-43M.COL___253                                                 6
 STAT SP IPHASW D HRMM SECON CODA AMPLIT PERI AZIMU VELO AIN AR TRES W  DIS CAZ7
 BAR2 EZ EP        449 28.46                             170   -0.0610 25.0 191 
 BAR2 EZ ES        449 44.24                             170   -0.1110 25.0 191 
 BAR2 EZ I         449 45.19         7.9 0.32            168           25.0 191 
 BRR  HZ EP        449 30.39                             153    0.4610 71.1 297 
 BRR  HN ES        449 47.75                             153    0.8810 71.1 297 
 BRR  HZ I         450  1.55         5.6 0.54            151           71.1 297 
 RUS  HZ EP        449 32.51                             144   -0.0910  102 177 
 RUS  HN ES        449 51.22                             144   -0.4010  102 177 
 RUS  HZ I         449 54.00         2.9 0.42            149            102 177 
 PTB  HZ EP        449 35.17                             133   -0.54 9  149 258 
 PTB  HN ES        449 56.74                             133   -0.41 9  149 258 
 PTB  HZ I         450  2.42         7.9 0.38            134            149 258 
 SPBC HZ EP        449 37.47                             130    0.18 9  165 219 
 SPBC HN ES        450  0.09                             130    0.14 9  165 219 
 SPBC HZ I         450  6.36        11.6 0.26            132            165 219 
 ZAR  HZ EP        449 41.44                             123    0.42 9  204 292 
 ZAR  HN ES        450  6.23                             123   -0.37 9  204 292 
 ZAR  HZ I         450 12.97         6.4 0.54            125            204 292 
 NOR  HZ EP        449 44.59                             119    0.17 8  236 234 
 NOR  HN ES        450 12.84                             119    0.19 8  236 234 
 NOR  HZ I         450 19.56         4.5 0.22            122            236 234 
 SML  HZ EP        449 45.19                             119    0.16 8  243 335 
 SML  HN ES        450 12.91                             119   -0.82 8  243 335 
 SML  HZ I         450 18.19         9.4 0.10            122            243 335 
 CHI  HZ EP        449 46.64                             118    0.24 8  250 195 
 CHI  HN ES        450 15.99                             118   -0.19 8  250 195 
 CHI  HZ I         450 19.88         2.1 0.42            122            250 195 
                                                                                
