 2012 1216 0906 38.4 L   5.731 -73.911110.1  RSN  5 0.4 0.8LRSN                1
 GAP=155        0.71       3.8     5.3 10.6  0.7795E+01  0.1252E+02 -0.6505E-01E
 Epicentro: ALBANIA - SANTANDER                                                3
 ACTION:UPD 13-01-04 14:28 OP:ep   STATUS:               ID:20121216090638 L   I
 2012-12-16-0900-00M.COL___239                                                 6
 STAT SP IPHASW D HRMM SECON CODA AMPLIT PERI AZIMU VELO AIN AR TRES W  DIS CAZ7
 RUS  HZ EP   1    9 6 58.61                             137    0.34 7 93.4  79 
 RUS  HN ES   1    9 7 13.39                             137   -0.35 7 93.4  79 
 RUS  HZ I         9 7 15.50         0.7 0.29                          93.4  79 
 PTB  HZ EP   1    9 6 58.36                             132   -0.51 7  108 326 
 PTB  HE ES   1    9 7 15.19                             132    0.38 7  108 326 
 PTB  HZ I         9 7 17.25         1.2 0.10                           108 326 
 CHI  HZ EP   1    9 7  0.81                             128   -0.05 7  123 171 
 CHI  HN ES   1    9 7 18.40                             128    0.04 7  123 171 
 CHI  HZ I         9 7 21.38         0.7 0.36                           123 171 
 BRR  HZ EP   1    9 7  3.78                             121    0.42 7  154   8 
 BRR  HZ I         9 7 26.24         2.4 0.16                           154   8 
 ZAR  HN ES   2    9 7 35.27                             111   -0.71 4  221 332 
                                                                                
