 2011 1216 0555 47.9 L   6.792 -73.086148.0  RSN  7 0.2 1.6LRSN                1
 GAP=145        0.52       2.9     4.6  3.9  0.9202E+00  0.1012E+00  0.8008E+00E
 Epicentro: LOS SANTOS - SANTANDER                                             3
 ACTION:UPD 12-07-13 16:16 OP:ep   STATUS:               ID:20111216055547 L   I
 2011-12-16-0550-00M.COL___186                                                 6
 STAT SP IPHASW D HRMM SECON CODA AMPLIT PERI AZIMU VELO AIN AR TRES W  DIS CAZ7
 BAR2 SZ EP        556  7.87                             170    0.0210 24.5 206 
 BAR2 SZ ES        556 23.77                             170    0.3810 24.5 206 
 BAR2 SZ I         556 27.63         8.3 0.41                          24.5 206 
 GIR2 SZ EP        556  7.84                             167   -0.1010 33.8 339 
 PAM  SZ EP   1    556 10.40                             152    0.21 7 74.1  35 
 PAM  SE ES   1    556 27.38                             152   -0.17 7 74.1  35 
 BRR  HZ EP        556  9.56                             151   -0.1210 77.4 297 
 BRR  HN ES        556 26.57                             151   -0.0710 77.4 297 
 BRR  HN I         556 30.65        28.7 0.18                          77.4 297 
 RUS  HZ EP   1    556 11.94                             145    0.12 7 99.5 180 
 RUS  HE ES        556 30.18                             145   -0.2710 99.5 180 
 RUS  HZ I         556 31.60         3.1 0.33                          99.5 180 
 CTAU SZ EP   1    556 21.59                             123    0.28 6  205 211 
 CHI  HZ EP   2    556 25.56                             117   -0.30 4  250 197 
 CHI  HZ I         556 57.28         1.5 0.39                           250 197 
                                                                                
