 2017  316 0007 31.9 L   6.981 -73.296122.0  RSN  7 0.4 1.6LRSN                1
 GAP=131        0.92       5.5     4.0  7.6  0.5708E+00  0.8499E+01 -0.3733E+01E
 Epicentro: BETULIA - SANTANDER                                                3
 ACTION:UPD 17-05-25 18:40 OP:jn   STATUS:               ID:20170316000731 L   I
 OLDACT:DUP 17-03-16 13:39 OP:cara STATUS:               ID:20170316000002d    3
 2017-03-16-0000-15M.COL___406                                                 6
 STAT SP IPHASW D HRMM SECON CODA AMPLIT PERI AZIMU VELO AIN AR TRES W  DIS CAZ7
 BAR2 EZ EP     D  0 7 49.56                             159    0.1710 44.8 164 
 BAR2 EZ ES        0 8  3.42                             159    0.3610 44.8 164 
 BRR  HZ EP     D  0 7 49.30                             157    0.1210 48.0 287 
 BRR  HZ I         0 8  4.31        10.7 0.50            162           48.0 287 
 PAM  EZ EP        0 7 50.99                             146   -0.5910 76.9  59 
 PAM  EZ I         0 8  7.38        10.5 0.36            133           76.9  59 
 RUS  HZ EP        0 7 55.23                             132   -0.0410  123 169 
 RUS  HZ I         0 8 16.68         2.0 0.28            127            123 169 
 PTB  HZ IP        0 7 55.66                             128   -0.32 9  137 249 
 PTB  HN ES        0 8 14.44                             128   -0.35 9  137 249 
 PTB  HZ I         0 8 20.76         6.8 0.36            128            137 249 
 ZAR  HZ EP        0 8  1.18                             120    0.72 9  181 288 
 ZAR  HN ES        0 8 22.72                             120   -0.04 9  181 288 
 ZAR  HZ I         0 8 27.12         6.8 0.52            118            181 288 
 GUY2CHZ EP        0 8 14.80                             107    0.42 7  300 230 
 GUY2CHN ES        0 8 47.25                             107   -0.30 7  300 230 
 GUY2CHZ  IAML     0 8 57.71         2.0 0.60                           300 230 
                                                                                
