 2013  316 0802 47.0 L   6.761 -73.169144.4  RSN  8 0.5 1.9LRSN                1
 GAP=135        0.93       6.1     5.7  7.9 -0.4613E+01  0.9130E+01 -0.6831E+01E
 Epicentro: LOS SANTOS - SANTANDER                                             3
 ACTION:UPD 13-04-09 14:02 OP:ep   STATUS:               ID:20130316080247 L   I
 2013-03-16-0800-00M.COL___244                                                 6
 STAT SP IPHASW D HRMM SECON CODA AMPLIT PERI AZIMU VELO AIN AR TRES W  DIS CAZ7
 BAR2 SZ EP   1    8 3  6.62                             173    0.28 7 18.7 185 
 BAR2 SZ ES        8 3 21.05                             173   -0.4010 18.7 185 
 BRR  HZ EP        8 3  8.34                             152    0.3910 71.2 303 
 BRR  HN ES        8 3 24.92                             152    0.5910 71.2 303 
 BRR  HZ I         8 3 26.11         8.0 0.14            149           71.2 303 
 PAM  SZ EP        8 3  9.47                             149    0.1410 82.3  39 
 PAM  SN ES        8 3 26.54                             149   -0.2410 82.3  39 
 PAM  SN I         8 3 27.42        23.2 0.70            150           82.3  39 
 RUS  HN ES   2    8 3 28.63                             145    0.16 5 96.5 174 
 RUS  HN I         8 3 30.68         5.3 0.36            146           96.5 174 
 PTB  HZ EP   1    8 3 12.53                             132   -0.98 7  144 260 
 PTB  HN ES   2    8 3 33.88                             132   -0.34 5  144 260 
 PTB  HN I         8 3 35.76         8.7 0.18            131            144 260 
 OCA  HN ES   2    8 3 37.07                             128   -0.76 5  164 354 
 ZAR  HN ES   2    8 3 44.51                             122    0.09 4  203 294 
 ZAR  HN I         8 3 49.09         8.9 0.58            121            203 294 
 SML  HN ES   2    8 3 52.76                             117    0.19 4  247 336 
 SML  HN I         8 3 57.68        15.7 0.10            116            247 336 
                                                                                
