 2017  816 0650 40.1 L   6.797 -73.069145.4  RSN  4 0.3 1.1LRSN                1
 GAP=245        0.57       5.7     9.7  9.0  0.2448E+02 -0.8165E+01 -0.2294E+02E
 Epicentro: LOS SANTOS - SANTANDER                                             3
 ACTION:UPD 17-09-04 20:20 OP:rebc STATUS:               ID:20170816065040 L   I
 OLDACT:UP  17-08-16 15:59 OP:and  STATUS:               ID:20170816064743     3
 OLDACT:UP  17-08-16 15:59 OP:and  STATUS:               ID:20170816064743     3
 OLDACT:UP  17-08-16 15:59 OP:and  STATUS:               ID:20170816064743     3
 OLDACT:UP  17-08-16 15:58 OP:and  STATUS:               ID:20170816064743     3
 OLDACT:REG 17-08-16 13:08 OP:and  STATUS:               ID:20170816064743     3
 2017-08-16-0648-00M.COL___413                                                 6
 STAT SP IPHASW D HRMM SECON CODA AMPLIT PERI AZIMU VELO AIN AR TRES W  DIS CAZ7
 BAR2 EZ EP        650 59.98                             169    0.1910 25.9 209 
 BAR2 EZ ES   2    651 14.39                             169   -0.72 5 25.9 209 
 BAR2 EZ I         651 15.88         4.2 0.36            167           25.9 209 
 BRR  HZ EP     C  651  1.57                             150   -0.1410 78.9 296 
 BRR  HN ES   2    651 19.03                             150    0.50 5 78.9 296 
 BRR  HZ I         651 23.61         2.1 0.13            147           78.9 296 
 RUS  HZ EP   2    651  3.57                             144   -0.25 5  100 181 
 RUS  HN ES        651 22.39                             144    0.1010  100 181 
 RUS  HZ I         651 23.47         1.0 0.32            148            100 181 
 SPBC HN ES   2    651 31.58                             128   -0.14 5  168 221 
 SPBC HZ I         651 32.99         1.7 0.07            130            168 221 
                                                                                
