 2014  516 0026 45.6 L   6.669 -73.251152.5  RSN  4 0.1 1.5LRSN                1
 GAP=214        0.38       3.1     3.1  3.8  0.6024E+01  0.1462E-01 -0.4399E+00E
 Epicentro: BARICHARA - SANTANDER                                              3
 ACTION:UPD 15-03-16 16:58 OP:nd   STATUS:               ID:20140516002645 L   I
 OLDACT:REG 14-05-16 12:26 OP:spq  STATUS:               ID:20140516001805     3
 2014-05-16-0018-05M.COL___251                                                 6
 STAT SP IPHASW D HRMM SECON CODA AMPLIT PERI AZIMU VELO AIN AR TRES W  DIS CAZ7
 BRR  HZ EP        027  7.35                             154   -0.1110 70.3 314 
 BRR  HN ES        027 24.49                             154   -0.0010 70.3 314 
 RUS  HZ EP        027  9.28                             149    0.0910 87.8 168 
 RUS  HE ES        027 27.61                             149    0.0310 87.8 168 
 RUS  HZ I         027 28.78         4.3 0.34            148           87.8 168 
 PTB  HZ EP        027 11.91                             136   -0.0610  134 264 
 PTB  HE ES        027 32.43                             136   -0.0910  134 264 
 PTB  HZ I         027 33.74         4.8 0.10            136            134 264 
 ZAR  HN ES   1    027 43.69                             124    0.32 6  200 297 
                                                                                
