 2015 1116 0946 54.2 L   6.800 -73.181143.5  RSN 14 0.5 1.9LRSN                1
 GAP=132        1.22       3.1     4.7  6.5 -0.1689E+01  0.1286E+02  0.1035E+01E
 Epicentro: ZAPATOCA - SANTANDER                                               3
 ACTION:UPD 15-12-28 16:11 OP:cam  STATUS:               ID:20151116094654 L   I
 OLDACT:DUP 15-11-16 18:21 OP:dnl  STATUS:               ID:20151116093737d    3
 2015-11-16-0937-36M.COL___313                                                 6
 STAT SP IPHASW D HRMM SECON CODA AMPLIT PERI AZIMU VELO AIN AR TRES W  DIS CAZ7
 BAR2 EZ IP     C  947 13.80                             170    0.2110 22.9 180 
 BAR2 EZ ES        947 28.37                             170   -0.3210 22.9 180 
 BAR2 EZ I         947 33.68        14.8 0.50            169           22.9 180 
 BRR  HZ IP     C  947 15.71                             153    0.7510 67.8 300 
 BRR  HN ES        947 31.42                             153    0.3110 67.8 300 
 BRR  HZ I         947 36.13        16.9 0.28            151           67.8 300 
 PAM  EZ EP        947 16.62                             150    0.2410 80.0  42 
 PAM  EN ES        947 33.60                             150   -0.0410 80.0  42 
 PAM  EZ I         947 36.15        10.0 0.66            156           80.0  42 
 RUS  HZ EP        947 17.95                             143    0.1510  101 174 
 RUS  HN ES        947 35.83                             143   -0.3410  101 174 
 RUS  HZ I         947 37.48         9.0 0.26            147            101 174 
 OCA  HZ EP        947 22.12                             129   -0.22 9  160 355 
 OCA  HN ES        947 43.56                             129   -0.70 9  160 355 
 OCA  HZ I         947 45.79        18.4 0.58            132            160 355 
 SPBC HZ EP        947 23.05                             129    0.72 9  161 218 
 SPBC HN ES   4    947 43.18                             129   -1.06 0  161 218 
 SPBC HZ I         947 48.24        11.7 0.22            130            161 218 
 ZAR  HZ EP        947 25.82                             122   -0.35 9  200 293 
 ZAR  HE ES        947 51.97                             122    0.90 9  200 293 
 ZAR  HZ I         948  0.78        11.5 0.60            123            200 293 
 NOR  HZ EP   4    947 30.96                             118    1.46 0  231 234 
 NOR  HN ES        947 56.28                             118   -0.71 8  231 234 
 NOR  HZ I         948  3.61         5.9 0.20            120            231 234 
 SML  HZ EP        947 30.06                             117   -0.51 8  242 336 
 SML  HN ES        947 58.39                             117   -0.52 8  242 336 
 SML  HZ I         948  8.02        12.0 0.10            120            242 336 
 HEL  HZ EP        947 34.89                             114    0.97 8  268 256 
 HEL  HN ES        948  5.45                             114    0.59 8  268 256 
 HEL  HZ I         948 13.15         4.5 0.32            116            268 256 
 GUY2CHZ EP   4    947 38.96                             112    1.58 0  298 234 
 GUY2CHN ES        948 10.39                             112   -0.64 7  298 234 
 GUY2CHZ I         948 21.16         3.8 0.54                           298 234 
 MON  HZ EP   4    947 41.33                             108   -1.47 0  351 309 
 MON  HN ES        948 20.02                             108   -0.66 6  351 309 
 MON  HZ I         948 21.01         2.0 0.22            110            351 309 
 PRA  HZ EP        947 47.61                             106    0.15 6  390 209 
 PRA  HN ES        948 28.27                             106   -0.69 6  390 209 
 PRA  HZ I         948 36.28         2.1 0.28            108            390 209 
 ORTC HZ EP        947 48.02                             106    0.21 6  393 216 
 ORTC HN ES        948 28.84                             106   -0.76 6  393 216 
 ORTC HZ I         948 38.49         2.0 0.44            108            393 216 
                                                                                
