 2015 1216 0547 42.7 L   6.770 -73.143138.2  RSN  9 0.3 1.6LRSN                1
 GAP=138        0.77       2.6     3.3  5.3 -0.2349E+01  0.7035E+01 -0.2453E+01E
 Epicentro: LOS SANTOS - SANTANDER                                             3
 ACTION:UPD 16-02-04 15:05 OP:cam  STATUS:               ID:20151216054742 L   I
 OLDACT:DUP 15-12-16 15:58 OP:cara STATUS:               ID:20151216053743d    3
 OLDACT:REG 15-12-16 13:04 OP:cara STATUS:               ID:20151216053741     3
 2015-12-16-0537-41M.COL___331                                                 6
 STAT SP IPHASW D HRMM SECON CODA AMPLIT PERI AZIMU VELO AIN AR TRES W  DIS CAZ7
 BAR2 EZ IP        548  1.34                             171   -0.0710 20.1 192 
 BAR2 EZ ES        548 16.03                             171    0.0710 20.1 192 
 BAR2 EZ I         548 18.78         4.8 0.20            172           20.1 192 
 BRR  HZ EP        548  3.58                             150    0.3810 73.1 301 
 BRR  HN ES   4    548 20.91                             150    1.76 0 73.1 301 
 BRR  HZ I         548 21.47         8.8 0.42            150           73.1 301 
 PAM  EZ IP        548  4.70                             149    0.3810 79.8  38 
 PAM  EE ES        548 20.76                             149   -0.3810 79.8  38 
 PAM  EZ I         548 24.06         6.6 0.42            152           79.8  38 
 RUS  HZ EP        548  5.30                             143   -0.2210 97.2 176 
 RUS  HN ES        548 23.74                             143    0.4610 97.2 176 
 RUS  HZ I         548 24.75         4.5 0.32            148           97.2 176 
 PTB  HZ EP        548  8.68                             130   -0.40 9  147 260 
 PTB  HN ES        548 29.47                             130   -0.15 9  147 260 
 PTB  HZ I         548 34.43         3.3 0.16            132            147 260 
 SPBC HZ IP        548 10.27                             128   -0.18 9  161 220 
 SPBC HN ES        548 31.81                             128   -0.24 9  161 220 
 SPBC HZ I         548 34.57         4.7 0.20            131            161 220 
 OCA  HZ EP        548 10.85                             127    0.04 9  164 353 
 OCA  HN ES        548 32.37                             127   -0.32 9  164 353 
 OCA  HZ I         548 35.40         9.3 0.52            130            164 353 
 ZAR  HZ EP        548 15.14                             120    0.26 8  206 293 
 ZAR  HN ES        548 40.40                             120    0.46 8  206 293 
 ZAR  HZ I         548 46.63         4.3 0.28            122            206 293 
 GUY2CHN ES        548 59.25                             111   -0.18 7  300 235 
 GUY2CHZ I         549  7.86         1.7 0.60                           300 235 
                                                                                
