 2013  216 0016 57.7 L   6.799 -73.185144.5  RSN  4 0.2 1.5LRSN                1
 GAP=132        0.47       2.7     2.7  5.1 -0.1983E+01  0.4549E+01 -0.1341E+01E
 Epicentro: LOS SANTOS - SANTANDER                                             3
 ANIL-YOT                                                                      3
 ACTION:UPD 13-03-12 09:33 OP:ep   STATUS:               ID:20130216001657 L   I
 2013-02-16-0010-00M.COL___241                                                 6
 STAT SP IPHASW D HRMM SECON CODA AMPLIT PERI AZIMU VELO AIN AR TRES W  DIS CAZ7
 BRR  HZ EP        017 18.80                             154    0.3310 67.5 300 
 PAM  SZ EP        017 19.81                             150   -0.1110 80.3  42 
 PAM  SN ES        017 37.23                             150   -0.0510 80.3  42 
 PAM  SN I         017 37.93         6.7 0.54            155           80.3  42 
 RUS  HZ EP        017 21.32                             143    0.0210  101 174 
 RUS  HN ES        017 39.77                             143    0.0210  101 174 
 RUS  HN I         017 41.19         3.3 0.20            147            101 174 
 PTB  HZ EP        017 23.96                             133   -0.18 9  144 259 
 PTB  HN ES        017 44.73                             133   -0.07 9  144 259 
 PTB  HN I         017 50.54         7.6 0.42            133            144 259 
                                                                                
