 2013  116 0402 28.5 L   6.633 -73.622104.8  RSN  4 0.1 1.0LRSN                1
 GAP=120        0.35       3.7     2.2  4.6  0.3915E+01  0.3738E+01  0.5785E+01E
 Epicentro: EL CARMEN DE CHUCURI - SANTANDER                                   3
 ACTION:UPD 13-02-15 09:14 OP:ep   STATUS:               ID:20130116040228 L   I
 2013-01-16-0400-00M.COL___239                                                 6
 STAT SP IPHASW D HRMM SECON CODA AMPLIT PERI AZIMU VELO AIN AR TRES W  DIS CAZ7
 BAR2 SZ EP   1    4 2 44.10                             153   -0.21 7 48.8  95 
 BAR2 SZ ES   1    4 2 56.65                             153    0.01 7 48.8  95 
 BAR2 SZ I         4 2 57.22         6.1 0.13            156           48.8  95 
 BRR  HE ES   2    4 2 56.64                             151    0.15 5 53.4 349 
 PTB  HZ EP     C  4 2 47.17                             135    0.0010 92.8 264 
 PTB  HN ES   1    4 3  1.72                             135   -0.01 7 92.8 264 
 PTB  HZ I         4 3  3.80         1.6 0.10            136           92.8 264 
 RUS  HZ EP   1    4 2 48.76                             133    0.20 7  101 144 
 RUS  HN ES   1    4 3  4.17                             133   -0.04 7  101 144 
 RUS  HZ I         4 3  6.62         2.2 0.44            134            101 144 
                                                                                
