 2016  816 0859 42.6 L   7.467 -73.485113.4  RSN  5 0.5 1.4LRSN                1
 GAP=250        1.21       9.8     7.2  9.9  0.4757E+02 -0.1057E+02 -0.2283E+02E
 Epicentro: SABANA DE TORRES - SANTANDER                                       3
 ACTION:UPD 16-10-29 15:36 OP:rebc STATUS:               ID:20160816085942 L   I
 OLDACT:UP  16-08-16 17:41 OP:ar   STATUS:               ID:20160816085759     3
 OLDACT:REG 16-08-16 13:03 OP:ak   STATUS:               ID:20160816085759     3
 2016-08-16-0857-59S.COL___340                                                 6
 STAT SP IPHASW D HRMM SECON CODA AMPLIT PERI AZIMU VELO AIN AR TRES W  DIS CAZ7
 BRR  HZ EP        859 58.23                             156   -0.7310 47.0 212 
 BRR  HN ES        9 0 11.47                             156   -0.2110 47.0 212 
 BRR  HZ I         9 0 12.78         6.5 0.24                          47.0 212 
 BAR2 EZ EP        9 0  3.88                             135    0.7010  102 161 
 BAR2 EZ ES        9 0 19.38                             135    0.1910  102 161 
 BAR2 EZ I         9 0 22.64         8.8 0.46                           102 161 
 PTB  HZ EP        9 0  6.70                             123   -0.56 9  148 226 
 PTB  HN ES        9 0 26.36                             123   -0.11 9  148 226 
 PTB  HZ I         9 0 30.64         3.0 0.38                           148 226 
 ZAR  HZ EP        9 0  7.34                             123   -0.24 9  152 271 
 ZAR  HN ES        9 0 27.85                             123    0.83 9  152 271 
 ZAR  HZ I         9 0 30.66         4.6 0.30                           152 271 
 RUS  HZ EP        9 0 11.36                             118    0.20 9  180 166 
 RUS  HE ES        9 0 33.36                             118   -0.04 9  180 166 
 RUS  HZ I         9 0 41.83         1.7 0.34                           180 166 
                                                                                
