 2012 1016 0209 40.0 L   6.834 -73.078146.8  RSN  5 0.4 1.8LRSN                1
 GAP=144        0.76       5.4     5.3  7.5  0.6745E+01  0.5063E+01  0.2530E+01E
 Epicentro: LOS SANTOS - SANTANDER                                             3
 ACTION:UPD 12-11-22 17:04 OP:ep   STATUS:               ID:20121016020940 L   I
 2012-10-16-0205-48M.COL___203                                                 6
 STAT SP IPHASW D HRMM SECON CODA AMPLIT PERI AZIMU VELO AIN AR TRES W  DIS CAZ7
 GIR2 SZ EP        2 9 59.72                             168   -0.0810 29.9 335 
 PAM  SZ EP   1    210  1.50                             154   -0.44 7 69.8  37 
 PAM  SZ I         210  2.90        11.7 0.25                          69.8  37 
 PAM  SN ES   1    210 19.19                             154    0.17 7 69.8  37 
 BRR  HZ EP        210  1.46                             151   -0.1410 76.3 293 
 BRR  HZ I         210  1.89        10.1 0.14                          76.3 293 
 BRR  HE ES        210 18.74                             151    0.3310 76.3 293 
 RUS  HZ EP   1    210  4.45                             143    0.30 7  104 180 
 RUS  HN ES   1    210 22.78                             143   -0.18 7  104 180 
 ZAR  HZ EP   1    210 13.77                             122    0.64 6  210 290 
 ZAR  HE ES   1    210 38.25                             122   -0.69 6  210 290 
 ZAR  HZ I         210 43.49         6.4 0.18                           210 290 
                                                                                
