 2011  616 0223 54.7 L   6.796 -73.074138.4  RSN 10 0.3 1.4LRSN                1
 GAP=146        0.73       4.2     8.5  7.6 -0.1619E+02  0.5345E+01  0.2022E+01E
 Epicentro: LOS SANTOS - SANTANDER                                             3
 ACTION:UP  11-07-14 19:05 OP:ep   STATUS:               ID:20110616022354 L   I
 2011-06-16-0220-00M.COL___125                                                 6
 STAT SP IPHASW D HRMM SECON CODA AMPLIT PERI AZIMU VELO SNR AR TRES W  DIS CAZ7
 BTL  SZ EP   1    224 13.69                             169     0.2 8   25 302 
 BAR2 SZ ES   2    224 27.97                             169    -0.2 5   26 208 
 BAR2 SZ I         224 29.23         5.4 0.21                            26 208 
 GIR2 SZ EP   2    224 13.47                             165    -0.1 5   34 337 
 PAM  SZ EP   1    224 16.25                             151     0.4 8   73  35 
 PAM  SN ES   1    224 31.79                             151    -0.6 8   73  35 
 BRR  HZ EP   1    224 15.10                             148    -0.4 8   78 296 
 BRR  HZ I         224 15.83         8.9 0.36                            78 296 
 BRR  HE ES   2    224 31.92                             148     0.2 5   78 296 
 RUS  HZ EP   1    224 17.21                             142    -0.4 8  100 181 
 RUS  HN ES   2    224 35.81                             142     0.2 5  100 181 
 RUS  HZ I         224 36.64         2.2 0.30                           100 181 
 BRI  SZ EP   1    224 17.90                             140     0.2 8  106  17 
 BRI  SZ I         224 18.48         3.9 0.21                           106  17 
 GRA  SZ EP   1    224 19.03                             135    -0.1 7  124  14 
 GRA  SZ I         224 20.42         4.1 0.36                           124  14 
 GRA  SZ ES        224 38.43                             135     0.210  124  14 
 OCA  SZ EP   2    224 22.29                             127    -0.3 5  162 350 
 OCA  SZ I         224 51.09         4.2 0.31                           162 350 
 CHI  HE ES   2    225  2.00                             115     0.6 4  250 197 
                                                                                
