 2010  516 0248 27.8 L   6.375 -73.612112.9  RSN 11 0.4 2.2LRSN                1
 GAP= 83        0.83       2.8     3.7  6.9 -0.3568E+01  0.7831E+01 -0.2568E+01E
 Epicentro: SANTA HELENA DEL OPON - SANTANDER                                  3
 ACTION:UP  10-08-24 10:05 OP:vdl  STATUS:               ID:20100516024827 L   I
 2010-05-16-0246-03S.COL___108                                                 6
 STAT SP IPHASW D HRMM SECON CODA AMPLIT PERI AZIMU VELO AIN AR TRES W  DIS CAZ7
 RUS  HZ EP        248 46.44                             143    -0.310   79 132 
 RUS  HE ES   1    249  1.10                             143    -0.5 7   79 132 
 RUS  HZ I         249  4.18        32.7 0.38                            79 132 
 BRR  HZ IP     D  248 46.35                             141     0.110   82 352 
 BRR  HZ I         248 54.75        46.3 0.09                            82 352 
 BRR  HE ES   1    249  0.76                             141     0.1 7   82 352 
 BRI  SZ EP        248 55.57                             119     0.4 9  174  31 
 BRI  SZ ES   2    249 17.17                             119     0.6 4  174  31 
 GUE  SZ IP        248 55.61                             118    -0.3 9  178  25 
 CHI  HZ EP   2    248 57.35                             116    -0.3 4  193 184 
 CHI  HE ES   1    249 21.75                             116     0.8 7  193 184 
 CHI  HZ I         249 23.72        11.7 0.34                           193 184 
 OCA  SZ IP        248 59.14                             114     0.1 8  209   9 
 OCA  SZ ES   1    249 23.94                             114     0.5 6  209   9 
 OCA  SZ I         249 29.48        26.6 0.31                           209   9 
 HEL  HZ EP        248 59.55                             113    -0.2 8  213 265 
 HEL  HN ES   1    249 24.17                             113    -0.6 6  213 265 
 HEL  HZ I         249 27.16        21.5 0.27                           213 265 
 RREF BZ EP        249  4.98                             109     0.4 8  252 230 
 RREF BN ES   1    249 33.26                             109     0.0 6  252 230 
 RREF BZ I         249 38.82         9.3 0.34                           252 230 
 DBB  SZ EP        249  8.83                             105    -0.2 7  296 284 
 PRA  HZ EP   2    249 12.56                             103     0.0 3  326 206 
 PRA  HN ES   2    249 48.06                             103     0.6 3  326 206 
 PRA  HZ I         249 58.51         7.6 0.23                           326 206 
 SDV  BZ EP        249 24.85                              99    -0.3 5  430  50 
 SDV  BE ES   2    250  8.90                              99    -1.0 3  430  50 
 SDV  BZ I         250 11.11         3.7 0.26                           430  50 
                                                                                
