 2015 1016 0701 40.9 L   6.186 -73.651108.3  RSN 19 0.5 2.3LRSN                1
 GAP= 64        1.09       2.1     2.9  5.4 -0.1413E+01  0.4816E+01 -0.5169E+00E
 Epicentro: LA PAZ - SANTANDER                                                 3
      63.0      35.0     -62.0 20.0 18.0 18.0  0.2  0.2           RSN FPFIT    F
 ACTION:UPD 15-12-22 20:40 OP:cam  STATUS:               ID:20151016070140 L   I
 OLDACT:UP  15-11-03 22:03 OP:nlst STATUS:               ID:20151016070140 L   3
 OLDACT:REG 15-10-16 12:35 OP:stll STATUS:               ID:20151016065748     3
 2015-10-16-0657-48M.COL___339                                                 6
 STAT SP IPHASW D HRMM SECON CODA AMPLIT PERI AZIMU VELO AIN AR TRES W  DIS CAZ7
 BAR2 EZ IP     D  7 1 58.75                             145    0.4210 68.6  49 
 BAR2 EZ ES        7 2 12.10                             145    0.2010 68.6  49 
 BAR2 EZ I         7 2 13.55       174.7 0.22            144           68.6  49 
 RUS  HZ EP     C  7 1 58.82                             145   -0.0210 70.7 117 
 RUS  HE ES        7 2 12.53                             145   -0.2810 70.7 117 
 RUS  HZ I         7 2 14.15        22.4 0.14            145           70.7 117 
 SPBC HZ EP        7 1 58.41                             142   -0.1910 75.2 218 
 SPBC HN ES        7 2 12.28                             142   -0.1010 75.2 218 
 SPBC HZ I         7 2 14.00        62.8 0.34            140           75.2 218 
 BRR  HZ EP        7 2  0.81                             133    0.1310  102 356 
 BRR  HZ I         7 2  1.20        55.4 0.46            130            102 356 
 BRR  HN ES        7 2 16.39                             133    0.3110  102 356 
 NOR  HZ EP        7 2  4.83                             121   -0.74 9  151 243 
 NOR  HE ES        7 2 24.53                             121   -0.27 9  151 243 
 NOR  HZ I         7 2 26.57        50.8 0.20            119            151 243 
 ROSC BZ EP        7 2  9.12                             119    1.54 9  166 207 
 ROSC BE ES        7 2 28.59                             119    0.22 9  166 207 
 ROSC BZ I         7 2 32.33        11.4 0.30            117            166 207 
 CHI  HZ EP        7 2  7.78                             118   -0.48 9  172 183 
 CHI  HE ES        7 2 29.27                             118   -0.31 9  172 183 
 CHI  HZ I         7 2 36.13        15.9 0.40            116            172 183 
 ZAR  HZ EP     C  7 2 10.06                             114   -0.36 9  197 317 
 ZAR  HN ES        7 2 33.23                             114   -0.19 9  197 317 
 ZAR  HZ I         7 2 35.28        53.7 0.36            112            197 317 
 HEL  HZ EP        7 2 12.34                             112    0.21 8  208 270 
 HEL  HN ES        7 2 35.91                             112   -0.56 8  208 270 
 HEL  HZ I         7 2 41.40        12.4 0.62            111            208 270 
 TAM  HZ EP     C  7 2 11.54                             112   -0.15 8  208  82 
 TAM  HN ES   4    7 2 33.50                             112   -2.18 0  208  82 
 TAM  HZ I         7 2 34.35        23.1 0.18            112            208  82 
 GUY2CHZ EP        7 2 13.86                             111    0.49 8  218 241 
 GUY2CHE ES        7 2 39.48                             111    0.80 8  218 241 
 GUY2CHZ I         7 2 45.38        17.3 0.48                           218 241 
 VIL  SZ EP        7 2 13.95                             110   -0.33 8  229 181 
 VIL  SN ES        7 2 40.31                             110    0.01 8  229 181 
 OCA  HZ EP        7 2 14.50                             110    0.12 8  230   9 
 OCA  HE ES        7 2 40.12                             110   -0.35 8  230   9 
 OCA  HZ I         7 2 51.39        31.0 0.32            109            230   9 
 CBOC HZ EP        7 2 18.70                             107    0.37 8  264 262 
 CBOC HN ES   4    7 2 46.79                             107   -0.71 0  264 262 
 CBOC HZ I         7 2 48.86         6.9 0.58            106            264 262 
 ANIL HE ES        7 2 49.12                             106    0.10 8  270 226 
 ANIL HZ I         7 2 53.35        19.4 0.30            106            270 226 
 PTGC HZ EP   4 D  7 2 18.15                             105   -1.47 0  277 142 
 PTGC HN ES   4    7 2 46.98                             105   -2.82 0  277 142 
 SML  HZ EP     C  7 2 21.07                             104   -0.45 7  293 351 
 SML  HN ES        7 2 53.24                             104    0.06 7  293 351 
 SML  HZ I         7 2 59.78        23.1 0.30            104            293 351 
 DBB  SZ EP   4    7 2 21.14                             104   -1.04 0  298 288 
 DBB  SZ I         7 2 56.79        30.6 0.28            104            298 288 
 ORTC HZ EP        7 2 23.66                             103    0.33 7  308 215 
 ORTC HE ES        7 2 55.59                             103   -0.81 7  308 215 
 ORTC HZ I         7 3  1.99         7.4 0.66            104            308 215 
 MON  HZ EP   9    7 2 27.92                             100   -1.93 0  363 322 
 MON  HZ I         7 2 29.10         3.7 0.14            101            363 322 
 MON  HN ES        7 3  6.01                                   -0.07 6  363 322 
                                                                                
