 2015 1016 0950  6.3 L   6.803 -73.118139.6  RSN 11 0.4 1.7LRSN                1
 GAP=113        0.99       2.8     3.7  5.5 -0.6110E+00  0.3595E+01 -0.1580E+01E
 Epicentro: LOS SANTOS - SANTANDER                                             3
 ACTION:UPD 15-12-22 20:40 OP:cam  STATUS:               ID:20151016095006 L   I
 OLDACT:UP  15-10-16 17:53 OP:drio STATUS:               ID:20151016094741     3
 OLDACT:REG 15-10-16 12:37 OP:stll STATUS:               ID:20151016094741     3
 2015-10-16-0947-41M.COL___339                                                 6
 STAT SP IPHASW D HRMM SECON CODA AMPLIT PERI AZIMU VELO AIN AR TRES W  DIS CAZ7
 BAR2 EZ EP        950 25.50                             170    0.2710 24.4 197 
 BAR2 EZ ES        950 40.22                             170    0.2410 24.4 197 
 BAR2 EZ I         950 44.62         7.5 0.22            170           24.4 197 
 BRR  HZ EP        950 27.51                             150    0.5510 73.7 297 
 BRR  HE ES        950 43.37                             150    0.3210 73.7 297 
 BRR  HZ I         950 45.81         6.3 0.30            149           73.7 297 
 RUS  HZ EP        950 29.36                             143   -0.1210  101 178 
 RUS  HE ES        950 46.92                             143   -0.6310  101 178 
 RUS  HZ I         950 49.73         2.8 0.36            146            101 178 
 TAM  HZ EP     D  950 33.55                             130    0.30 9  152 105 
 OCA  HZ EP        950 34.43                             128    0.26 9  160 352 
 OCA  HE ES        950 55.78                             128   -0.11 9  160 352 
 OCA  HZ I         951  1.26        11.0 0.46            130            160 352 
 SPBC HZ EP        950 34.51                             127   -0.06 9  165 220 
 SPBC HN ES        950 56.15                             127   -0.45 9  165 220 
 SPBC HZ I         950 58.78         8.4 0.40            129            165 220 
 ZAR  HZ EP        950 38.75                             121    0.09 8  207 292 
 ZAR  HE ES        951  3.79                             121   -0.09 8  207 292 
 ZAR  HZ I         951  9.96         6.8 0.48            122            207 292 
 NOR  HZ EP        950 41.80                             117   -0.19 8  237 235 
 NOR  HN ES        951  9.21                             117   -0.60 8  237 235 
 NOR  HZ I         951 14.73         4.2 0.20            119            237 235 
 SML  HZ EP        950 42.33                             116   -0.39 8  245 335 
 SML  HE ES        951 10.33                             116   -0.78 8  245 335 
 SML  HZ I         951 15.10         5.8 0.10            118            245 335 
 HEL  HZ EP        950 46.36                             113   -0.21 8  275 256 
 HEL  HN ES        951 18.46                             113    0.50 8  275 256 
 HEL  HZ I         951 26.13         3.6 0.38            115            275 256 
 GUY2CHN ES        951 24.93                             111    0.94 7  304 235 
 GUY2CHZ I         951 32.36         3.9 0.68                           304 235 
                                                                                
