 2014  416 0051 29.1 L   6.809 -73.165138.8  RSN  5 0.4 1.5LRSN                1
 GAP=143        1.03       5.9     5.5  9.3 -0.1456E+02  0.2204E+02  0.1536E+01E
 Epicentro: LOS SANTOS - SANTANDER                                             3
 ACTION:UPD 14-05-13 23:08 OP:nd   STATUS:               ID:20140416005129 L   I
 OLDACT:REG 14-04-16 12:35 OP:nd   STATUS:               ID:20140416005050     3
 2014-04-16-0050-50M.COL___244                                                 6
 STAT SP IPHASW D HRMM SECON CODA AMPLIT PERI AZIMU VELO AIN AR TRES W  DIS CAZ7
 PAM  SZ EP        051 50.84                             149    0.1910 78.0  41 
 PAM  SN ES        052  7.76                             149    0.3310 78.0  41 
 PAM  SZ I         052  8.54         5.1 0.22            152           78.0  41 
 RUS  HZ EP        051 51.96                             142   -0.3210  102 175 
 RUS  HN ES        052 10.23                             142   -0.1110  102 175 
 RUS  HZ I         052 11.72         3.0 0.32            144            102 175 
 PTB  HZ EP        051 54.71                             131   -0.65 9  146 258 
 PTB  HN ES        052 15.42                             131   -0.40 9  146 258 
 PTB  HZ I         052 18.03         6.4 0.16            132            146 258 
 NOR  HZ EP        052  4.47                             117    0.14 8  234 234 
 NOR  HN ES        052 31.91                             117    0.12 8  234 234 
 NOR  HZ I         052 33.63         3.6 0.16            119            234 234 
 GUY2CHZ EP        052 12.45                             111    0.16 7  300 234 
 GUY2CHN ES        052 47.08                             111    1.13 7  300 234 
 GUY2CHZ I         052 54.55         2.6 0.48                           300 234 
                                                                                
