 2010  716 0311 47.3 L   6.732 -73.133146.0  RSN  6 0.5 1.7LRSN                1
 GAP=161        0.95       6.7    11.7 11.0 -0.1539E+02 -0.2485E+02  0.1113E+01E
 Epicentro: JORDAN - SANTANDER                                                 3
 ACTION:UPD 10-12-01 15:18 OP:pat  STATUS:               ID:20100716031147 L   I
 2010-07-16-0309-40S.COL___119                                                 6
 STAT SP IPHASW D HRMM SECON CODA AMPLIT PERI AZIMU VELO AIN AR TRES W  DIS CAZ7
 BAR2 SZ EP   1    312  6.31                             173    -0.6 7   16 200 
 BAR2 SZ I         312  7.00        13.8 0.37                            16 200 
 BAR2 SZ ES   2    312 21.46                             173    -0.6 5   16 200 
 BRR  HZ IP     D  312  8.53                             151    -0.310   76 303 
 BRR  HN ES   1    312 25.95                             151     0.4 7   76 303 
 BRR  HZ I         312 28.27        19.8 0.21                            76 303 
 RUS  HZ EP   2    312 10.71                             146     0.1 5   93 177 
 RUS  HE ES   2    312 29.51                             146     0.8 5   93 177 
 RUS  HZ I         312 32.14         3.5 0.25                            93 177 
 GUE  SZ EP   2    312 12.34                             138    -0.3 5  124  11 
 GUE  SZ I         312 13.54         2.7 0.13                           124  11 
 GRA  SZ EP   1    312 13.62                             136     0.5 7  133  16 
 GRA  SZ ES   1    312 33.39                             136     0.1 7  133  16 
 GRA  SZ I         312 34.25        11.7 0.29                           133  16 
 PRA  HZ EP   2    312 40.75                             107     0.6 3  386 210 
 PRA  HZ I         313 26.09         2.4 0.31                           386 210 
                                                                                
