 2012  916 0106 29.1 L   6.732 -73.167154.8  RSN  5 0.1 1.8LRSN                1
 GAP=179        0.36       4.2     4.4  5.2  0.8117E+01 -0.3667E+01  0.1061E+01E
 Epicentro: VILLANUEVA - SANTANDER                                             3
 ACTION:UPD 12-10-22 14:19 OP:ep   STATUS:               ID:20120916010629 L   I
 2012-09-16-0100-00M.COL___227                                                 6
 STAT SP IPHASW D HRMM SECON CODA AMPLIT PERI AZIMU VELO AIN AR TRES W  DIS CAZ7
 BAR2 SZ EP        1 6 49.51                             174   -0.1510 15.5 186 
 BAR2 SZ I         1 6 49.83        16.2 0.23                          15.5 186 
 GIR2 SZ EP   2    1 6 49.96                             165   -0.06 5 38.5 356 
 BRR  HZ EP        1 6 51.45                             153    0.1410 73.2 305 
 BRR  HN ES   1    1 7  8.64                             153   -0.02 7 73.2 305 
 BRR  HZ I         1 7 11.21        16.1 0.13                          73.2 305 
 RUS  HZ EP   1    1 6 53.21                             148   -0.02 7 93.2 174 
 RUS  HN ES   2    1 7 12.27                             148    0.20 5 93.2 174 
 PTB  HZ EP   1    1 6 56.59                             135    0.11 7  144 262 
 PTB  HN ES   2    1 7 17.62                             135   -0.24 5  144 262 
 PTB  HZ I         1 7 20.51         3.8 0.15                           144 262 
                                                                                
