 2016  816 0249 51.5 L   6.805 -73.182148.4  RSN  8 0.4 1.4LRSN                1
 GAP=132        0.96       5.1     5.0  6.9 -0.2375E+01  0.3526E+01  0.2336E+01E
 Epicentro: ZAPATOCA - SANTANDER                                               3
 ACTION:UPD 16-10-29 15:36 OP:rebc STATUS:               ID:20160816024951 L   I
 OLDACT:REG 16-08-16 13:40 OP:ak   STATUS:               ID:20160816024727     3
 2016-08-16-0248-00M.COL___380                                                 6
 STAT SP IPHASW D HRMM SECON CODA AMPLIT PERI AZIMU VELO AIN AR TRES W  DIS CAZ7
 BAR2 EZ EP        250 11.16                             171   -0.3410 23.5 180 
 BAR2 EZ ES        250 26.96                             171   -0.1010 23.5 180 
 BAR2 EZ I         250 27.61        10.7 0.19                          23.5 180 
 BRR  HZ EP        250 13.00                             154    0.2310 67.4 300 
 BRR  HN ES        250 30.06                             154    0.7310 67.4 300 
 BRR  HZ I         250 36.66                                           67.4 300 
 PAM  EZ EP        250 14.30                             151    0.1310 79.6  42 
 PAM  EN ES        250 31.32                             151   -0.5010 79.6  42 
 PAM  EZ I         250 33.81         4.6 0.66                          79.6  42 
 RUS  HZ EP        250 15.85                             144    0.2310  101 174 
 RUS  HN ES        250 34.65                             144    0.2510  101 174 
 RUS  HZ I         250 34.87         2.1 0.57                           101 174 
 PTB  HZ EP   2    250 18.42                             133    0.04 5  144 258 
 PTB  HN ES        250 38.62                             133   -0.70 9  144 258 
 SPBC HZ EP   2    250 19.78                             130   -0.27 5  161 218 
 ZAR  HZ EP   2    250 24.26                             123    0.50 4  200 292 
 HEL  HZ EP   4    250 33.29                             116    1.82 0  268 255 
 GUY2CHZ EP   2    250 34.50                             113   -0.44 4  298 234 
                                                                                
