 2010  416 0801 22.6 L   6.842 -72.878143.7  RSN  4 0.1 2.0LRSN                1
 GAP=288        0.40       4.5     5.6  5.0  0.3333E+01 -0.4586E+01  0.3803E+01E
 Epicentro: SAN ANDRES - SANTANDER                                             3
 ACTION:UP  10-08-24 09:59 OP:vdl  STATUS:               ID:20100416080137 L   I
 2010-04-16-0756-54S.COL___100                                                 6
 STAT SP IPHASW D HRMM SECON CODA AMPLIT PERI AZIMU VELO AIN AR TRES W  DIS CAZ7
 BAR2 SZ EP        8 1 42.70                             162     0.110   44 231 
 BAR2 SZ ES   1    8 1 58.04                             162    -0.1 7   44 231 
 BRR  HZ EP        8 1 45.02                             144    -0.110   97 288 
 BRR  HZ I         8 1 45.34        23.2 0.15                            97 288 
 BRR  HN ES        8 2  2.84                             144     0.110   97 288 
 ROSC BN ES   2    8 2 34.16                             114    -0.1 4  273 216 
 ROSC BZ I         8 2 36.63         4.7 1.67                           273 216 
 RREF BN ES   2    8 2 49.92                             109     0.1 3  348 232 
 RREF BZ I         8 2 52.29         3.9 1.06                           348 232 
                                                                                
