 2014  116 0841  5.1 L   7.391 -73.147138.6  RSN  7 0.4 1.3LRSN                1
 GAP=108        1.00       3.8     4.8  7.6  0.1816E+01  0.1645E+02  0.1430E+01E
 Epicentro: EL PLAYON - SANTANDER                                              3
 ACTION:UPD 14-03-13 09:55 OP:ep   STATUS:               ID:20140116084105 L   I
 OLDACT:REG 14-01-16 07:38 OP:carl STATUS:               ID:20140116084000     3
 2014-01-16-0840-00M.COL___285                                                 6
 STAT SP IPHASW D HRMM SECON CODA AMPLIT PERI AZIMU VELO AIN AR TRES W  DIS CAZ7
 PAM  SZ EP        841 25.45                             159    0.4110 49.7  97 
 PAM  SN ES        841 40.91                             159    0.2710 49.7  97 
 PAM  SZ I         841 41.68         5.8 0.22            162           49.7  97 
 BAR2 SZ ES        841 43.35                             146   -0.5410 88.4 183 
 BAR2 SZ I         841 45.25        12.0 0.34            145           88.4 183 
 OCA  HN ES        841 44.60                             143    0.0110 95.6 349 
 RUS  HZ EP        841 33.98                             127    0.18 9  166 178 
 RUS  HN ES        841 55.83                             127   -0.40 9  166 178 
 RUS  HZ I         842  1.63         0.7 0.42            128            166 178 
 PTB  HZ EP        841 33.93                             126    0.09 9  173 237 
 PTB  HN ES        841 56.89                             126    0.59 9  173 237 
 PTB  HZ I         841 58.29         1.6 0.48            126            173 237 
 SML  HZ EP        841 34.44                             123   -0.74 9  186 327 
 SML  HE ES   4    841 57.05                             123   -1.63 0  186 327 
 SML  HZ I         841 58.73         3.7 0.10            125            186 327 
 ZAR  HZ EP        841 35.79                             123    0.29 9  189 273 
 ZAR  HN ES        841 59.05                             123   -0.20 9  189 273 
 ZAR  HZ I         842  4.45         2.2 0.18            123            189 273 
                                                                                
