 2013  616 0830 13.0 L   6.734 -73.155151.2  RSN  4 0.2 1.3LRSN                1
 GAP=231        0.49       4.6     3.9  4.4  0.5671E+01  0.3235E+01 -0.9226E+00E
 Epicentro: VILLANUEVA - SANTANDER                                             3
 ACTION:UPD 14-01-08 09:55 OP:ep   STATUS:               ID:20130616083013 L   I
 OLDACT:REG 13-06-16 07:44 OP:cam  STATUS:               ID:20130616082959     3
 2013-06-16-0829-59M.COL___261                                                 6
 STAT SP IPHASW D HRMM SECON CODA AMPLIT PERI AZIMU VELO AIN AR TRES W  DIS CAZ7
 BAR2 SZ EP        830 33.22                             174    0.0410 16.0 191 
 BAR2 SZ ES        830 48.87                             174   -0.0310 16.0 191 
 BRR  HZ EP        830 35.15                             152    0.2410 74.1 304 
 BRR  HZ I         830 35.37         4.0 0.26            151           74.1 304 
 BRR  HN ES        830 51.86                             152   -0.1310 74.1 304 
 RUS  HN ES   1    830 55.38                             147    0.00 7 93.4 175 
 PTB  HZ EP        830 39.93                             134   -0.30 9  145 262 
 PTB  HN ES        831  1.62                             134    0.16 9  145 262 
 PTB  HZ I         831  3.43         2.6 0.52            132            145 262 
                                                                                
