 2010  816 0317 15.9 L   6.403 -73.628108.0  RSN 13 0.5 2.7LRSN                1
 GAP= 89        1.14       3.5     5.4  8.4 -0.7262E+01  0.1397E+02  0.6584E+01E
 Epicentro: SANTA HELENA DEL OPON - SANTANDER                                  3
 ACTION:UP  10-09-07 10:55 OP:vdl  STATUS:               ID:20100816031716 L   I
 2010-08-16-0313-42S.COL___111                                                 6
 STAT SP IPHASW D HRMM SECON CODA AMPLIT PERI AZIMU VELO SNR AR TRES W  DIS CAZ7
 BAR2 SZ IP     C  317 32.57                             152     0.210   53  67 
 BAR2 SZ ES   1    317 45.38                             152     0.2 7   53  67 
 BAR2 SZ I         317 46.58       368.3 0.26                            53  67 
 BRR  HZ IP     D  317 33.56                             142    -0.110   78 353 
 BRR  HZ I         317 33.85       183.7 0.14                            78 353 
 BRR  HN ES        317 47.71                             142     0.210   78 353 
 RUS  HZ EP        317 34.40                             140    -0.310   83 133 
 RUS  HE ES   2    317 48.66                             140    -0.7 5   83 133 
 RUS  HZ I         317 51.67        43.8 0.63                            83 133 
 GUE  SZ EP        317 43.50                             117     0.0 9  176  26 
 GUE  SZ ES   1    318  3.89                             117    -1.1 7  176  26 
 GUE  SZ I         318 11.55        64.2 0.51                           176  26 
 GRA  SZ EP        317 44.83                             115     0.2 9  187  29 
 GRA  SZ ES   2    318  8.16                             115     1.2 4  187  29 
 GRA  SZ I         318 15.21        67.5 0.21                           187  29 
 ROSC BZ EP        317 45.73                             115     0.7 9  189 204 
 ROSC BN ES   2    318  8.17                             115     0.4 4  189 204 
 ROSC BZ I         318 14.26        24.3 0.25                           189 204 
 CHI  HZ EP        317 45.48                             114    -0.4 9  196 183 
 CHI  HN ES   1    318  9.18                             114    -0.1 6  196 183 
 CHI  HZ I         318 12.32        38.4 0.22                           196 183 
 OCA  SZ ES   1    318 10.95                             113     0.4 6  206  10 
 OCA  SZ I         318 18.22       114.8 0.34                           206  10 
 HEL  HZ EP        317 47.42                             112    -0.1 8  212 264 
 HEL  HN ES   2    318 11.62                             112    -0.6 4  212 264 
 HEL  HZ I         318 14.91        52.4 0.28                           212 264 
 CVER SZ EP   1    317 48.74                             112     0.8 6  214 193 
 CVER SZ I         318 20.00        55.9 0.64                           214 193 
 RREF HZ EP        317 52.31                             108    -0.3 8  253 229 
 RREF HN ES        318 21.03                             108    -0.2 8  253 229 
 RREF HZ I         318 27.18        27.7 0.50                           253 229 
 TOL  SZ EP   2    317 54.61                             106    -0.2 4  275 223 
 PRA  HZ EP   1    318  0.07                             102    -0.7 5  328 205 
 PRA  HN ES   1    318 36.79                             102     1.0 5  328 205 
 PRA  HZ I         318 40.85        23.9 0.08                           328 205 
                                                                                
