 2010  916 0125 59.0 L   6.778 -73.088142.4  RSN 10 0.4 2.5LRSN                1
 GAP=162        1.00       4.6    10.1  8.6 -0.5228E+01 -0.1992E+02 -0.1003E+02E
 Epicentro: LOS SANTOS - SANTANDER                                             3
 ACTION:UP  11-02-18 11:03 OP:tino STATUS:               ID:20100916012559 L   I
 2010-09-16-0124-04S.COL___119                                                 6
 STAT SP IPHASW D HRMM SECON CODA AMPLIT PERI AZIMU VELO SNR AR TRES W  DIS CAZ7
 BAR2 SZ IP        126 18.42                             171     0.210   23 207 
 BAR2 SZ I         126 18.73        57.7 0.09                            23 207 
 BAR2 SZ ES   1    126 33.13                             171    -0.1 7   23 207 
 BTL  SZ EP        126 17.66                             170    -0.610   25 308 
 GIR2 SZ IP        126 18.52                             165     0.110   35 341 
 BRR  HZ IP     C  126 20.29                             150     0.110   78 298 
 BRR  HZ I         126 20.75       112.1 0.12                            78 298 
 BRR  HN ES   1    126 37.23                             150     0.5 7   78 298 
 RUS  HZ EP        126 22.33                             144     0.110   98 180 
 RUS  HN ES   1    126 40.10                             144    -0.3 7   98 180 
 BRI  SZ EP        126 23.20                             141     0.610  109  17 
 GUE  SZ EP        126 23.41                             138    -0.110  118   9 
 GRA  SZ IP        126 24.30                             136     0.310  126  14 
 GRA  SZ I         126 25.73        34.3 0.25                           126  14 
 GRA  SZ ES   1    126 43.63                             136     0.1 7  126  14 
 OCA  SZ EP        126 26.78                             128    -0.6 9  164 351 
 OCA  SZ ES   2    126 48.72                             128    -0.8 5  164 351 
 OCA  SZ I         126 54.80        38.8 0.14                           164 351 
 RREF HZ EP   2    126 45.69                             110     0.3 3  325 230 
 RREF HZ I         127 28.51        11.0 0.19                           325 230 
                                                                                
