 2016  716 0149 49.3 L   6.782 -73.146148.0  RSN 23 0.5 2.8LRSN                1
 GAP= 66        1.28       3.3     3.2  5.4 -0.3941E+00  0.3526E+01  0.2793E+01E
 Epicentro: LOS SANTOS - SANTANDER                                             3
 ACTION:UPD 17-03-29 16:51 OP:lp   STATUS:               ID:20160716014949 L   I
 OLDACT:UP  16-07-16 14:21 OP:lv   STATUS:               ID:20160716014759     3
 OLDACT:REG 16-07-16 12:01 OP:lv   STATUS:               ID:20160716014759     3
 2016-07-16-0147-59S.COL___331                                                 6
 STAT SP IPHASW D HRMM SECON CODA AMPLIT PERI AZIMU VELO AIN AR TRES W  DIS CAZ7
 BAR2 EZ IP        150  9.01                             171   -0.1310 21.4 191 
 BAR2 EZ ES        150 24.32                             171   -0.3110 21.4 191 
 BAR2 EZ I         150 25.60       165.7 0.20            170           21.4 191 
 BRR  HZ IP     C  150 10.75                             153    0.0410 72.1 300 
 BRR  HN ES        150 28.01                             153    0.5710 72.1 300 
 BRR  HZ I         150 31.10        98.8 0.16            149           72.1 300 
 PAM  EZ EP        150 11.94                             151    0.1210 78.9  39 
 PAM  EN ES        150 29.09                             151   -0.3210 78.9  39 
 PAM  EZ I         150 29.76        63.1 0.24            150           78.9  39 
 RUS  HZ IP        150 12.96                             145   -0.1510 98.6 176 
 RUS  HN ES        150 31.99                             145    0.2910 98.6 176 
 RUS  HZ I         150 32.68        48.1 0.20            143           98.6 176 
 PTB  HZ EP        150 15.73                             133   -0.66 9  147 260 
 PTB  HN ES        150 36.94                             133   -0.59 9  147 260 
 PTB  HZ I         150 44.24        69.5 0.22            129            147 260 
 TAM  HZ IP     C  150 17.41                             131    0.32 9  155 104 
 TAM  HZ I         150 38.34        45.4 0.36            130            155 104 
 TAM  HN ES        150 39.23                             131    0.44 9  155 104 
 SPBC HZ EP        150 17.91                             130    0.11 9  162 219 
 SPBC HN ES        150 40.35                             130    0.30 9  162 219 
 SPBC HZ I         150 44.28       103.4 0.18            127            162 219 
 ZAR  HZ EP        150 21.50                             123   -0.44 9  205 293 
 ZAR  HN ES        150 47.02                             123   -0.39 9  205 293 
 ZAR  HZ I         150 52.20        77.5 0.32            120            205 293 
 NOR  HZ EP        150 25.17                             119    0.16 8  234 235 
 NOR  HN ES        150 53.87                             119    0.99 8  234 235 
 NOR  HZ I         151  2.44        45.3 0.14            116            234 235 
 CHI  HZ EP        150 27.05                             118    0.16 8  247 195 
 CHI  HN ES        150 56.59                             118    0.36 8  247 195 
 CHI  HZ I         151  1.57        31.5 0.52            116            247 195 
 ROSC BZ EP   9    150 28.85                             117    1.52 0  251 211 
 ROSC BN ES        150 59.85                                    1.32 8  251 211 
 ROSC BZ I         151  3.70       113.6 0.45            115            251 211 
 HEL  HZ EP        150 29.54                             115   -0.00 8  272 256 
 HEL  HN ES        151  1.35                             115    0.40 8  272 256 
 HEL  HZ I         151  7.10        31.4 0.30            113            272 256 
 GUY2CHZ EP        150 33.18                             113    0.33 7  300 235 
 GUY2CHN ES        151  6.45                             113   -0.40 7  300 235 
 GUY2CHZ I         151 15.24        45.0 0.36                           300 235 
 PTGC HZ IP     D  150 32.12                             112   -0.91 7  307 159 
 PTGC HE ES        151  5.87                             112   -1.29 7  307 159 
 PTGC HZ I         151  8.44        22.0 0.40            110            307 159 
 ELA  HZ EP   9    150 37.37                             111    1.30 0  328 230 
 ELA  HN ES        151 14.75                                    0.88 7  328 230 
 ELA  HZ I         151 21.72        30.3 0.58            109            328 230 
 CBOC HZ EP        150 36.60                             110    0.39 7  333 252 
 CBOC HN ES   4    151 14.14                             110    1.33 0  333 252 
 CBOC HZ I         151 26.61         9.0 0.22            108            333 252 
 ANIL HZ EP        150 38.46                             109   -0.54 6  356 225 
 ANIL HN ES   4    151 19.31                             109    1.53 0  356 225 
 ARGC HZ EP        150 39.36                             109    0.14 6  361 340 
 ARGC HN ES        151 18.83                             109    0.64 6  361 340 
 ARGC HZ I         151 28.39         8.5 0.20            107            361 340 
 PRA  HZ EP        150 42.84                             107    0.17 6  390 210 
 PRA  HN ES        151 24.52                             107    0.20 6  390 210 
 PRA  HZ I         151 31.24        41.4 0.42            105            390 210 
 ORTC HZ EP        150 43.44                             107    0.36 6  394 216 
 ORTC HN ES   4    151 26.84                             107    1.79 0  394 216 
 ORTC HZ I         151 30.41        24.5 0.26            105            394 216 
 PAL  HZ EP        150 44.50                             106    0.12 6  405 239 
 PAL  HN ES        151 26.89                             106   -0.48 6  405 239 
 PAL  HZ I         151 34.39         8.2 0.26            104            405 239 
 SJC  HZ IP   9 C  150 43.21                             106   -1.89 0  411 327 
 SJC  HN ES        151 24.28                                   -2.47 6  411 327 
 SJC  HZ I         151 39.14         9.3 0.26            104            411 327 
 CRJC HZ EP   9    150 49.36                             104   -2.71 0  470   4 
 CRJC HE ES        151 37.00                             104   -1.34 5  470   4 
 CRJC HZ I         151 44.48        18.9 0.18            102            470   4 
                                                                                
