 2012  916 0020 23.6 L   6.719 -73.171146.5  RSN  6 0.3 1.7LRSN                1
 GAP=137        0.49       4.7     3.9  5.9  0.2481E+01 -0.3234E+01 -0.4743E+01E
 Epicentro: VILLANUEVA - SANTANDER                                             3
 ACTION:UPD 12-10-22 14:19 OP:ep   STATUS:               ID:20120916002023 L   I
 2012-09-16-0020-00M.COL___227                                                 6
 STAT SP IPHASW D HRMM SECON CODA AMPLIT PERI AZIMU VELO AIN AR TRES W  DIS CAZ7
 BAR2 SZ EP   2    020 43.18                             174    0.02 5 14.1 185 
 BAR2 SZ ES   2    020 57.86                             174   -0.56 5 14.1 185 
 BAR2 SZ I         020 59.87        20.1 0.27                          14.1 185 
 BRR  HZ EP        020 45.19                             152    0.2410 73.6 306 
 BRR  HN ES   1    021  1.88                             152    0.26 7 73.6 306 
 BRR  HZ I         021  6.33        14.3 0.23                          73.6 306 
 PAM  SZ EP        020 46.24                             148   -0.1910 86.2  37 
 RUS  HZ EP   2    020 46.80                             146   -0.01 5 91.9 174 
 RUS  HN ES   2    021  5.13                             146    0.21 5 91.9 174 
 RUS  HZ I         021  8.04         6.0 0.42                          91.9 174 
 PTB  HZ EP   1    020 50.28                             133    0.05 7  143 262 
 PTB  HE ES   2    021 10.68                             133   -0.34 5  143 262 
 PTB  HZ I         021 15.57         3.1 0.13                           143 262 
 ZAR  HN ES   2    021 21.29                             122   -0.32 4  205 295 
                                                                                
