 2016  516 0811 12.6 L   6.798 -73.127148.0  RSN 18 0.5 2.0LRSN                1
 GAP=121        0.96       3.2     3.8  5.7 -0.2924E+01  0.1674E+01  0.4167E+01E
 Epicentro: LOS SANTOS - SANTANDER                                             3
 ACTION:UPD 16-08-18 17:46 OP:cam  STATUS:               ID:20160516081112 L   I
 OLDACT:REG 16-05-16 12:54 OP:mh   STATUS:               ID:20160516080743     3
 2016-05-16-0807-43M.COL___277                                                 6
 STAT SP IPHASW D HRMM SECON CODA AMPLIT PERI AZIMU VELO AIN AR TRES W  DIS CAZ7
 BAR2 EZ EP        811 32.60                             171    0.1410 23.5 195 
 BAR2 EZ ES   2    811 48.02                             171    0.03 5 23.5 195 
 BAR2 EZ I         811 52.70        10.8 0.20            167           23.5 195 
 BRR  HZ EP        811 34.65                             152    0.5910 73.1 298 
 BRR  HN ES        811 51.18                             152    0.3510 73.1 298 
 BRR  HZ I         811 55.27        25.8 0.46            150           73.1 298 
 PAM  EZ EP        811 35.70                             151    0.7510 76.3  38 
 PAM  EN ES        811 52.22                             151   -0.2010 76.3  38 
 PAM  EZ I         811 54.57        28.8 0.44            157           76.3  38 
 RUS  HZ EP   2    811 37.34                             144    0.83 5  100 177 
 RUS  HE ES   2    811 54.40                             144   -0.78 5  100 177 
 RUS  HZ I         811 56.32         9.0 0.32            144            100 177 
 PTB  HZ EP        811 39.52                             132   -0.37 9  150 259 
 PTB  HN ES        812  0.98                             132   -0.22 9  150 259 
 PTB  HZ I         812  2.62        12.6 0.14            131            150 259 
 OCA  HZ EP        811 40.93                             130   -0.16 9  161 352 
 OCA  HN ES        812  2.41                             130   -0.94 9  161 352 
 OCA  HZ I         812  7.98        26.7 0.36            132            161 352 
 SPBC HZ EP        811 41.60                             129    0.27 9  164 220 
 SPBC HN ES        812  3.28                             129   -0.50 9  164 220 
 SPBC HZ I         812  7.44        17.1 0.16            129            164 220 
 ZAR  HZ EP        811 45.79                             122    0.44 8  206 292 
 ZAR  HN ES        812 11.23                             122    0.30 8  206 292 
 ZAR  HZ I         812 16.72        20.6 0.38            123            206 292 
 NOR  HZ EP   2    811 47.75                             119   -0.83 4  236 235 
 NOR  HN ES   2    812 16.02                             119   -0.66 4  236 235 
 NOR  HZ I         812 22.45         8.7 0.22            119            236 235 
 CHI  HZ EP   2    811 49.70                             117   -0.72 4  249 196 
 CHI  HE ES   2    812 19.46                             117   -0.48 4  249 196 
 CHI  HZ I         812 29.90         4.6 0.30            118            249 196 
 HEL  HZ EP   2    811 52.98                             115   -0.12 4  274 256 
 HEL  HE ES   2    812 24.68                             115   -0.04 4  274 256 
 HEL  HZ I         812 32.03         5.7 0.28            115            274 256 
 PTGC HZ EP        811 55.93                             112   -0.48 7  308 159 
 PTGC HN ES   4    812 29.42                             112   -1.19 0  308 159 
 PTGC HZ I         812 31.41         6.0 0.38            113            308 159 
 LL6C HZ EP   2    811 57.63                             111   -0.77 3  325 357 
 LL6C HN ES   3    812 33.68                             111   -0.47 2  325 357 
 LL6C HZ I         812 35.97         1.8 0.56            112            325 357 
 CBOC HZ EP   2    812  0.82                             110    1.04 3  335 252 
 CBOC HN ES   2    812 36.21                             110   -0.40 3  335 252 
 CBOC HZ I         812 47.94         1.8 0.40            110            335 252 
 DBB  SZ EP   2    811 59.65                             110   -0.71 3  342 274 
 DBB  SZ ES   4    812 35.63                             110   -2.01 0  342 274 
 ANIL HZ EP   4    812  3.69                             109    1.09 0  359 225 
 ANIL HN ES   4    812 43.68                             109    2.06 0  359 225 
 ANIL HZ I         812 51.84         9.8 0.64            109            359 225 
 ORTC HZ EP   2    812  7.61                             106    0.94 3  396 216 
 ORTC HN ES        812 49.50                             106    0.62 6  396 216 
 ORTC HZ I         812 57.52         3.3 0.42            107            396 216 
 SJC  HZ EP   2    812  7.51                             106   -0.84 3  411 327 
 SJC  HE ES   4    812 43.86                             106   -8.01 0  411 327 
 SJC  HZ I         812 52.39         2.7 0.60            107            411 327 
                                                                                
