 2012 1216 0831 26.7 L   7.449 -73.168125.1  RSN  5 0.4 1.1LRSN                1
 GAP=192        0.75       4.8     7.3  7.9 -0.3351E+01  0.1146E+02  0.4127E+01E
 Epicentro: EL PLAYON - SANTANDER                                              3
 ACTION:UPD 13-01-04 14:28 OP:ep   STATUS:               ID:20121216083126 L   I
 2012-12-16-0830-00M.COL___239                                                 6
 STAT SP IPHASW D HRMM SECON CODA AMPLIT PERI AZIMU VELO AIN AR TRES W  DIS CAZ7
 GIR2 SZ EP   1    831 44.51                             161    0.20 7 41.1 184 
 GIR2 SZ ES   1    831 57.33                             161   -0.68 7 41.1 184 
 GIR2 SZ I         832  0.16         3.3 0.50                          41.1 184 
 BRR  HZ EP   1    831 45.70                             148    0.03 7 71.0 238 
 BRR  HE ES   1    832  1.10                             148    0.66 7 71.0 238 
 BRR  HZ I         832  1.94         3.2 0.15                          71.0 238 
 OCA  HN ES   1    832  2.99                             142   -0.06 7 88.9 349 
 BAR2 SZ EP   1    831 47.97                             140    0.27 7 94.8 181 
 BAR2 SZ ES   1    832  4.16                             140    0.10 7 94.8 181 
 BAR2 SZ I         832  5.19         2.7 0.08                          94.8 181 
 PTB  HZ EP   1    831 54.41                             122   -0.37 7  174 235 
 PTB  HN ES   1    832 16.36                             122   -0.29 7  174 235 
 PTB  HZ I         832 18.70         1.9 0.14                           174 235 
                                                                                
