 2010  516 0446 31.9 L   6.767 -72.959146.3  RSN  9 0.4 2.0LRSN                1
 GAP=178        0.80       3.5     7.5  6.0 -0.7228E+01 -0.1958E+01 -0.5120E+00E
 Epicentro: CEPITA - SANTANDER                                                 3
 ACTION:UP  10-08-24 10:05 OP:vdl  STATUS:               ID:20100516044632 L   I
 2010-05-16-0445-00S.COL___108                                                 6
 STAT SP IPHASW D HRMM SECON CODA AMPLIT PERI AZIMU VELO AIN AR TRES W  DIS CAZ7
 BAR2 SZ EP        446 52.00                             168     0.210   32 232 
 BAR2 SZ ES   1    447  6.90                             168    -0.4 7   32 232 
 BRR  HZ EP        446 54.61                             146     0.210   91 294 
 BRR  HZ I         446 55.08        17.5 0.11                            91 294 
 BRR  HN ES   1    447 12.21                             146     0.3 7   91 294 
 RUS  HZ EP        446 55.94                             145     0.410   98 188 
 RUS  HN ES   1    447 13.75                             145    -0.2 7   98 188 
 RUS  HZ I         447 17.33         8.9 0.56                            98 188 
 BRI  SZ EP        446 55.58                             142    -0.210  107  10 
 GUE  SZ EP        446 57.02                             139     0.210  118   2 
 OCA  SZ EP        447  0.55                             128    -0.4 9  168 346 
 OCA  SZ ES   2    447 23.13                             128    -0.5 5  168 346 
 OCA  SZ I         447 27.32         8.7 0.39                           168 346 
 CHI  HZ EP   2    447 10.16                             117     0.2 4  251 200 
 CHI  HE ES   2    447 38.99                             117    -0.6 4  251 200 
 CHI  HZ I         447 45.64         4.4 0.61                           251 200 
 RREF BZ EP        447 19.99                             110     0.3 7  335 232 
 RREF BN ES   2    447 56.58                             110    -0.3 3  335 232 
 RREF BZ I         448  1.81         5.1 0.30                           335 232 
 PRA  HZ EP        447 25.77                             106    -0.6 6  399 212 
 PRA  HE ES   2    448  7.98                             106    -0.8 3  399 212 
 PRA  HZ I         448 12.04         4.0 0.44                           399 212 
                                                                                
