 2014  416 0339 44.0 L   6.810 -73.110144.3  RSN 21 0.7 2.5LRSN                1
 GAP= 68        1.55       3.2     4.0  8.3 -0.1381E+01  0.8618E+01  0.2090E+01E
 Epicentro: LOS SANTOS - SANTANDER                                             3
 ACTION:UPD 14-05-13 23:08 OP:nd   STATUS:               ID:20140416033944 L   I
 OLDACT:REG 14-04-16 13:01 OP:nd   STATUS:               ID:20140416033742     3
 2014-04-16-0337-42M.COL___248                                                 6
 STAT SP IPHASW D HRMM SECON CODA AMPLIT PERI AZIMU VELO AIN AR TRES W  DIS CAZ7
 PAM  SZ EP        340  6.69                             152    0.8610 74.1  38 
 PAM  SN ES        340 23.87                             152    0.9910 74.1  38 
 PAM  SZ I         340 26.20        87.1 0.56            152           74.1  38 
 RUS  HZ EP        340  7.71                             143    0.0810  101 178 
 RUS  HN ES        340 26.52                             143    0.4210  101 178 
 RUS  HZ I         340 29.37        28.8 0.40            142            101 178 
 TAM  HZ IP     D  340 12.09                             131    0.89 9  152 106 
 TAM  HN ES        340 31.61                             131   -0.84 9  152 106 
 PTB  HZ EP        340 10.44                             131   -0.74 9  152 259 
 PTB  HN ES        340 31.70                             131   -0.71 9  152 259 
 OCA  HZ EP        340 11.83                             129   -0.27 9  160 352 
 OCA  HN ES        340 33.93                             129   -0.13 9  160 352 
 OCA  HZ I         340 38.72        46.3 0.20            129            160 352 
 SPBC HZ EP        340 12.87                             128    0.21 9  166 220 
 SPBC HN ES        340 34.90                             128   -0.15 9  166 220 
 SPBC HZ I         340 37.61        71.1 0.34            127            166 220 
 ZAR  HZ EP        340 16.80                             122    0.16 8  207 291 
 ZAR  HN ES        340 42.20                             122    0.06 8  207 291 
 ZAR  HZ I         340 49.97        32.5 0.28            121            207 291 
 NOR  HZ EP        340 19.79                             118   -0.22 8  238 235 
 NOR  HN ES        340 47.56                             118   -0.58 8  238 235 
 NOR  HZ I         340 54.68        24.3 0.18            117            238 235 
 SML  HZ EP        340 20.40                             117   -0.18 8  244 334 
 SML  HN ES        340 48.26                             117   -0.88 8  244 334 
 SML  HZ I         340 52.44        47.6 0.10            116            244 334 
 CHI  HZ EP        340 21.94                             117    0.14 8  251 196 
 CHI  HN ES        340 51.19                             117   -0.13 8  251 196 
 CHI  HZ I         340 54.68        13.2 0.48            116            251 196 
 ROSC BZ EP        340 24.17                             116    1.85 8  256 212 
 ROSC BN ES        340 52.12                             116   -0.13 8  256 212 
 ROSC BZ I         340 57.87        23.0 0.45            115            256 212 
 HEL  HZ EP     C  340 25.54                             114    0.99 7  276 256 
 HEL  HN ES        340 55.65                             114   -0.55 7  276 256 
 HEL  HZ I         341  2.04         9.8 0.32            113            276 256 
 URE  HZ EP   4    340 24.22                             113   -1.10 0  287 291 
 URE  HN ES   4    340 55.28                             113   -2.30 0  287 291 
 URE  HZ I         341  5.64        18.0 0.32            112            287 291 
 GUY2CHZ EP        340 28.29                             112    0.36 7  305 235 
 GUY2CHN ES   1    341  2.29                             112    0.06 5  305 235 
 GUY2CHZ I         341 11.76        18.6 0.50                           305 235 
 PTGC HZ EP        340 26.86                             111   -0.85 7  308 159 
 PTGC HZ I         340 56.38        20.4 0.32            111            308 159 
 PTGC HN ES        340 59.99                             111   -1.84 7  308 159 
 RREF HZ EP        340 31.24                             110    0.78 7  325 230 
 RREF HN ES        341  6.82                             110    0.10 7  325 230 
 RREF HZ I         341 16.40        21.3 0.38            109            325 230 
 CBOC HZ EP        340 32.28                             109    1.00 7  338 252 
 CBOC HN ES        341  8.57                             109    0.39 7  338 252 
 CBOC HZ I         341 14.22         6.0 0.50            108            338 252 
 COD  HZ EP        340 31.25                             109   -0.95 6  348 354 
 COD  HN ES        341  9.23                             109   -0.59 6  348 354 
 ARGC HZ EP   4    340 35.60                             108    2.01 0  360 340 
 ARGC HN ES   4    341 13.35                             108    1.04 0  360 340 
 ARGC HZ I         341 18.12         9.4 0.30            107            360 340 
 PRA  HZ EP        340 37.39                             106   -0.38 6  395 210 
 PRA  HN ES        341 19.05                             106   -0.68 6  395 210 
 PRA  HZ I         341 27.28         9.9 0.30            105            395 210 
 SJC  HZ EP   4    340 38.09                             105   -1.53 0  410 326 
 SJC  HN ES   4    341 19.15                             105   -3.88 0  410 326 
 SJC  HZ I         341 22.77         5.9 0.30            105            410 326 
 SMAR HZ EP   4    340 49.04                             102   -0.74 0  497 346 
 SMAR HN ES   4    341 33.01                             102   -8.11 0  497 346 
                                                                                
