 2016  116 0508 59.6 L   6.350 -73.149184.3  RSN 12 0.4 2.1LRSN                1
 GAP= 85        0.87       3.2     2.8  4.8 -0.1666E+01  0.2227E+01 -0.3095E+01E
 Epicentro: OCAMONTE - SANTANDER                                               3
 ACTION:UPD 16-03-09 23:25 OP:cam  STATUS:               ID:20160116050859 L   I
 OLDACT:UP  16-02-23 20:52 OP:AR   STATUS:               ID:20160116050859 L   3
 OLDACT:UP  16-01-16 15:26 OP:mh   STATUS:               ID:20160116050516     3
 OLDACT:REG 16-01-16 14:43 OP:mh   STATUS:               ID:20160116050516     3
 2016-1-16-58_050800_840.mseed                                                 6
 STAT SP IPHASW D HRMM SECON CODA AMPLIT PERI AZIMU VELO AIN AR TRES W  DIS CAZ7
 BAR2 EZ EP     D  5 9 24.17                             171    0.2610 27.0 352 
 BAR2 EZ ES        5 9 43.07                             171    0.1810 27.0 352 
 BAR2 EZ I         5 9 44.75        25.0 0.23            171           27.0 352 
 RUS  HZ EP        5 9 25.29                             164    0.3710 51.1 172 
 RUS  HN ES        5 9 44.67                             164   -0.0210 51.1 172 
 RUS  HZ I         5 9 46.26        15.2 0.30            165           51.1 172 
 PAM  EZ EP        5 9 28.92                             146    0.3910  120  24 
 PAM  EN ES        5 9 50.95                             146   -0.1710  120  24 
 PAM  EZ I         5 9 53.34         6.4 0.42            147            120  24 
 SPBC HZ EP        5 9 29.09                             144    0.5610  128 233 
 SPBC HN ES        5 9 51.34                             144    0.2310  128 233 
 SPBC HZ I         5 9 55.19        21.5 0.10            146            128 233 
 PTB  HZ EP        5 9 29.91                             140    0.13 9  146 278 
 PTB  HN ES        5 9 53.04                             140   -0.30 9  146 278 
 PTB  HZ I         5 9 54.30        18.4 0.14            142            146 278 
 TAM  HZ EP        5 9 29.67                             139   -0.50 9  151  86 
 TAM  HN ES        5 9 53.38                             139   -0.65 9  151  86 
 TAM  HZ I         5 9 59.84         9.0 0.34            140            151  86 
 NOR  HZ EP        5 9 35.32                             129   -0.04 8  209 246 
 NOR  HN ES   1    510  2.47                             129   -0.80 6  209 246 
 NOR  HZ I         510  3.96         9.2 0.20            131            209 246 
 OCA  HZ EP        5 9 35.51                             129   -0.01 8  210 355 
 OCA  HN ES        510  4.27                             129    0.71 8  210 355 
 OCA  HZ I         510  8.97        29.6 0.16            130            210 355 
 ZAR  HZ EP        5 9 36.70                             127   -0.31 8  227 304 
 ZAR  HN ES        510  6.21                             127    0.00 8  227 304 
 ZAR  HZ I         510  8.80        17.2 0.26            128            227 304 
 HEL  HZ EP   1    5 9 41.11                             123   -0.06 6  264 266 
 HEL  HN ES        510 13.34                             123   -0.28 8  264 266 
 HEL  HZ I         510 17.13         6.4 0.32            124            264 266 
 GUY2CHZ EP   9    5 9 44.35                             121    1.87 0  275 243 
 GUY2CHN ES        510 17.57                             121   -0.24 8  275 243 
 GUY2CHZ I         510 22.53         2.9 0.52                           275 243 
 SML  HZ EP        5 9 43.10                             120   -0.25 7  289 339 
 SML  HN ES        510 17.09                             120   -0.41 7  289 339 
 URE  HZ EP   4    5 9 44.54                             118   -0.55 0  306 301 
 URE  HN ES   4    510 19.02                             118   -1.56 0  306 301 
                                                                                
