 2013  716 0320 35.9 L   6.804 -73.151143.0  RSN 16 0.5 2.4LRSN                1
 GAP=136        0.98       2.9     4.1  5.7 -0.2206E+01  0.6878E+01  0.2294E+01E
 Epicentro: LOS SANTOS - SANTANDER                                             3
 ACTION:UPD 13-08-12 10:38 OP:ep   STATUS:               ID:20130716032035 L   I
 OLDACT:REG 13-07-16 07:51 OP:mh   STATUS:               ID:20130716032000     3
 2013-07-16-0320-00M.COL___263                                                 6
 STAT SP IPHASW D HRMM SECON CODA AMPLIT PERI AZIMU VELO AIN AR TRES W  DIS CAZ7
 BAR2 SZ EP     D  320 55.29                             170    0.1210 23.7 188 
 BAR2 SZ ES   1    321  9.88                             170   -0.35 7 23.7 188 
 BAR2 SZ I         321 11.41        23.2 0.26            168           23.7 188 
 GIR2 SZ EP        320 55.39                             167    0.1910 30.7 351 
 GIR2 SZ ES   1    321 10.52                             167    0.25 7 30.7 351 
 GIR2 SZ I         321 12.36        21.7 0.10            165           30.7 351 
 BRR  HZ EP     C  320 57.15                             152    0.4810 70.4 298 
 BRR  HN ES   1    321 13.39                             152    0.49 7 70.4 298 
 BRR  HN I         321 16.18        54.4 0.16            149           70.4 298 
 PAM  SZ EP   1    320 58.09                             150    0.30 7 77.4  40 
 PAM  SN ES        321 15.27                             150    0.3810 77.4  40 
 PAM  SN I         321 16.25        28.3 0.44            155           77.4  40 
 RUS  HZ EP   1    320 59.41                             143    0.03 7  101 176 
 RUS  HN ES   1    321 16.97                             143   -0.76 7  101 176 
 RUS  HZ I         321 19.00        17.8 0.26            145            101 176 
 PTB  HZ EP   1    321  1.82                             132   -0.74 7  147 259 
 PTB  HN ES        321 23.38                             132   -0.01 9  147 259 
 PTB  HN I         321 28.40        35.3 0.30            130            147 259 
 OCA  HZ EP   1    321  2.97                             129   -0.94 7  160 353 
 OCA  HN ES        321 25.27                             129   -0.52 9  160 353 
 OCA  HN I         321 29.60       103.2 0.26            130            160 353 
 SPBC HZ EP   1    321  4.24                             128    0.09 7  163 219 
 SPBC HN ES   1    321 26.13                             128   -0.08 7  163 219 
 ZAR  HZ EP   1    321  8.81                             122    0.76 6  203 292 
 ZAR  HE ES        321 33.16                             122   -0.00 9  203 292 
 ZAR  HZ I         321 39.22        25.7 0.40            122            203 292 
 NOR  HZ EP   1    321 11.24                             118   -0.17 6  234 234 
 NOR  HN ES        321 38.66                             118   -0.48 8  234 234 
 NOR  HN I         321 44.98        28.8 0.18            118            234 234 
 SML  HZ EP   1    321 11.76                             117   -0.50 6  243 335 
 SML  HN ES   1    321 40.12                             117   -0.53 6  243 335 
 SML  HN I         321 44.28        61.6 0.28            118            243 335 
 CHI  HZ EP   1    321 13.35                             116   -0.09 6  249 195 
 CHI  HN ES   1    321 42.88                             116    0.13 6  249 195 
 CHI  HN I         321 47.11        12.0 0.30            118            249 195 
 ROSC BN ES   4    321 45.87                             116    2.40 0  253 211 
 HEL  HZ EP   1    321 17.44                             114    1.56 6  272 256 
 HEL  HN ES   4    321 51.16                             114    4.06 0  272 256 
 HEL  HN I         321 54.77         8.7 0.34            115            272 256 
 GUY2CHZ EP   4    321 21.85                             112    2.53 0  301 235 
 GUY2CHE ES   4    321 55.59                             112    2.38 0  301 235 
 GUY2CHE I         322  0.96        13.4 0.42                           301 235 
 PRA  HZ EP   1    321 28.87                             106   -0.43 4  392 209 
 PRA  HE ES        322 11.31                             106    0.33 6  392 209 
 PRA  HE I         322 14.32         6.4 0.48            107            392 209 
 SJC  HZ EP   4    321 29.28                             105   -1.97 0  408 327 
 SJC  HN ES   4    322 10.27                             105   -4.18 0  408 327 
 SJC  HN I         322 15.66         6.0 0.40            106            408 327 
                                                                                
