 2015  116 0359 52.9 L   6.785 -73.144150.1  RSN  9 0.4 1.7LRSN                1
 GAP=183        1.04       3.3     5.5  6.5  0.3391E+00  0.7100E+01 -0.1657E+01E
 Epicentro: LOS SANTOS - SANTANDER                                             3
 ACTION:UPD 15-03-02 15:39 OP:nd   STATUS:               ID:20150116035952 L   I
 OLDACT:REG 15-01-16 13:23 OP:carl STATUS:               ID:20150116035742     3
 2015-01-16-0357-42M.COL___253                                                 6
 STAT SP IPHASW D HRMM SECON CODA AMPLIT PERI AZIMU VELO AIN AR TRES W  DIS CAZ7
 BAR2 EZ ES        4 0 28.25                             171   -0.4810 21.7 191 
 BRR  HZ EP        4 0 15.02                             153    0.4310 72.2 300 
 BRR  HN ES        4 0 32.25                             153    0.7510 72.2 300 
 BRR  HZ I         4 0 32.96         4.0 0.28            149           72.2 300 
 RUS  HZ EP        4 0 17.21                             145    0.2310 98.9 176 
 RUS  HN ES        4 0 35.90                             145    0.1510 98.9 176 
 PTB  HZ EP        4 0 19.76                             133   -0.47 9  148 259 
 PTB  HN ES        4 0 40.84                             133   -0.70 9  148 259 
 PTB  HZ I         4 0 43.01         6.1 0.14            130            148 259 
 OCA  HN ES        4 0 44.01                             130   -0.18 9  162 353 
 SPBC HZ EP        4 0 21.48                             130   -0.16 9  162 219 
 SPBC HN ES        4 0 43.75                             130   -0.30 9  162 219 
 SPBC HZ I         4 0 48.98         6.6 0.20            129            162 219 
 ZAR  HN ES        4 0 51.37                             123    0.04 9  205 293 
 ZAR  HZ I         4 0 57.85         4.7 0.26            122            205 293 
 NOR  HZ EP        4 0 28.91                             119    0.09 8  234 235 
 NOR  HE ES        4 0 57.58                             119    0.76 8  234 235 
 NOR  HZ I         4 1  1.37         2.8 0.18            118            234 235 
 SML  HZ EP        4 0 29.79                             118   -0.17 8  245 335 
 SML  HE ES        4 0 58.83                             118   -0.02 8  245 335 
 SML  HZ I         4 1  2.02         4.3 0.26            118            245 335 
                                                                                
