 2015  816 0607 59.8 L   6.255 -73.550126.4  RSN  5 0.5 1.0LRSN                1
 GAP= 93        1.37       6.4     7.5 11.6  0.8971E+01  0.2961E+02 -0.1724E+02E
 Epicentro: EL GUACAMAYO - SANTANDER                                           3
 ACTION:UPD 15-09-15 23:02 OP:cam  STATUS:               ID:20150816060759 L   I
 OLDACT:UP  15-08-16 16:50 OP:mh   STATUS:               ID:20150816055749     3
 OLDACT:REG 15-08-16 13:42 OP:mh   STATUS:               ID:20150816055749     3
 2015-08-16-0557-49M.COL___340                                                 6
 STAT SP IPHASW D HRMM SECON CODA AMPLIT PERI AZIMU VELO AIN AR TRES W  DIS CAZ7
 BAR2 EZ EP        6 8 18.75                             155    0.4710 55.1  47 
 BAR2 EZ ES        6 8 32.07                             155   -0.6510 55.1  47 
 RUS  HZ EP        6 8 19.80                             151    0.5910 65.4 128 
 RUS  HN ES        6 8 34.53                             151    0.1510 65.4 128 
 RUS  HZ I         6 8 38.04         1.3 0.36            157           65.4 128 
 SPBC HE ES        6 8 35.85                             143   -0.2210 88.3 221 
 SPBC HZ I         6 8 41.01         2.1 0.10            145           88.3 221 
 BRR  HZ EP        6 8 19.76                             140   -0.8510 95.9 349 
 BRR  HN ES        6 8 37.35                             140    0.4810 95.9 349 
 BRR  HZ I         6 8 41.23         1.5 0.52            145           95.9 349 
 ZAR  HZ EP        6 8 29.97                             118   -0.52 9  199 313 
 ZAR  HE ES        6 8 55.01                             118    0.56 9  199 313 
 ZAR  HZ I         6 8 56.47         1.9 0.15            122            199 313 
                                                                                
