 2013  116 0340 52.2 L   6.780 -73.138147.6  RSN  7 0.4 1.6LRSN                1
 GAP=183        0.76       3.9     6.5  7.2  0.7026E+01  0.6883E+01  0.5647E+01E
 Epicentro: LOS SANTOS - SANTANDER                                             3
 ACTION:UPD 13-02-15 09:14 OP:ep   STATUS:               ID:20130116034052 L   I
 2013-01-16-0340-00M.COL___239                                                 6
 STAT SP IPHASW D HRMM SECON CODA AMPLIT PERI AZIMU VELO AIN AR TRES W  DIS CAZ7
 BAR2 SZ ES   1    341 27.28                             171   -0.15 7 21.4 193 
 BAR2 SZ I         341 29.85        19.6 0.34            164           21.4 193 
 BRR  HZ EP   1    341 13.92                             152    0.32 7 73.0 300 
 BRR  HE ES   1    341 31.03                             152    0.70 7 73.0 300 
 BRR  HZ I         341 34.31         7.9 0.16            150           73.0 300 
 RUS  HZ EP   1    341 15.91                             145   -0.02 7 98.4 176 
 RUS  HN ES   1    341 34.22                             145   -0.26 7 98.4 176 
 RUS  HZ I         341 35.90         3.1 0.28            143           98.4 176 
 PTB  HZ EP   1    341 18.73                             132   -0.58 7  148 260 
 PTB  HN ES   1    341 39.98                             132   -0.51 7  148 260 
 PTB  HZ I         341 45.76         9.7 0.42            130            148 260 
 OCA  HE ES   1    341 42.89                             130   -0.29 7  163 353 
 ZAR  HN ES   2    341 50.78                             123    0.37 4  206 293 
 CHI  HZ EP   1    341 30.13                             118    0.38 6  247 195 
 CHI  HN ES   1    341 59.47                             118    0.39 6  247 195 
 CHI  HZ I         342  7.27         1.7 0.58            118            247 195 
                                                                                
