 2016 1116 0640 26.2 L   6.720 -73.127141.7  RSN  7 0.4 1.6LRSN                1
 GAP=124        0.89       4.6     3.6  6.4  0.2997E+01  0.6362E+00  0.1162E+02E
 Epicentro: JORDAN - SANTANDER                                                 3
 ACTION:UPD 17-10-26 21:08 OP:lp   STATUS:               ID:20161116064026 L   I
 OLDACT:UP  16-11-16 16:57 OP:and  STATUS:               ID:20161116063750     3
 OLDACT:UP  16-11-16 16:55 OP:and  STATUS:               ID:20161116063750     3
 OLDACT:REG 16-11-16 12:42 OP:and  STATUS:               ID:20161116063750     3
 2016-11-16-0638-00M.COL___335                                                 6
 STAT SP IPHASW D HRMM SECON CODA AMPLIT PERI AZIMU VELO AIN AR TRES W  DIS CAZ7
 BAR2 EZ EP        640 45.39                             173    0.2310 15.4 203 
 BAR2 EZ ES        641  0.12                             173    0.1310 15.4 203 
 BAR2 EZ I         641  1.19        11.0 0.21            171           15.4 203 
 BRR  HZ EP        640 47.46                             150    0.2210 77.5 304 
 BRR  HN ES        641  4.16                             150    0.4710 77.5 304 
 BRR  HZ I         641  5.09         5.6 0.30            146           77.5 304 
 PAM  EZ IP     D  640 48.34                             148    0.0310 83.2  35 
 PAM  EN ES        641  5.06                             148   -0.5210 83.2  35 
 PAM  EZ I         641  7.21        14.0 0.46            149           83.2  35 
 PTB  HZ EP        640 52.43                             131   -0.41 9  148 262 
 PTB  HN ES        641 12.99                             131   -0.67 9  148 262 
 PTB  HZ I         641 16.14         4.7 0.22            128            148 262 
 ZAR  HZ EP   4    641  0.53                             121    1.64 0  209 294 
 ZAR  HN ES        641 24.81                             121    0.38 8  209 294 
 ZAR  HZ I         641 30.33         4.2 0.18            119            209 294 
 PTGC HZ EP        641  8.88                             111    0.07 7  300 158 
 PTGC HN ES        641 42.25                             111    0.16 7  300 158 
 CBOC HZ EP   9    641 14.17                             109    1.34 0  333 254 
 CBOC HN ES        641 50.60                                    0.03 7  333 254 
 CBOC HZ I         641 57.05         0.7 0.41            108            333 254 
                                                                                
