 2011 1016 0424 55.5 L   6.767 -73.052134.9  RSN  4 0.3 1.2LRSN                1
 GAP=150        0.54       4.2     6.6  8.3  0.7029E+01 -0.8424E+01  0.1436E+01E
 Epicentro: LOS SANTOS - SANTANDER                                             3
 ACTION:UPD 12-07-13 16:04 OP:ep   STATUS:               ID:20111016042455 L   I
 2011-10-16-0423-45S.COL___168                                                 6
 STAT SP IPHASW D HRMM SECON CODA AMPLIT PERI AZIMU VELO AIN AR TRES W  DIS CAZ7
 BAR2 SZ EP   1    425 14.09                             169    0.26 7 24.1 217 
 PAM  SZ EP   2    425 15.63                             150   -0.73 5 74.3  32 
 PAM  SN ES   2    425 33.00                             150    0.35 5 74.3  32 
 BRR  HZ EP   1    425 16.22                             147    0.06 7 82.1 297 
 BRR  HN ES   1    425 32.17                             147   -0.12 7 82.1 297 
 BRR  HZ I         425 38.32         6.2 0.30                          82.1 297 
 RUS  HZ EP   1    425 18.03                             142    0.14 7 96.7 182 
 RUS  HN ES   1    425 35.20                             142   -0.17 7 96.7 182 
 RUS  HZ I         425 39.94         1.4 0.41                          96.7 182 
                                                                                
