 2012 1216 0506 15.7 L   6.741 -73.198148.1  RSN  5 0.3 1.2LRSN                1
 GAP=172        0.57       5.8     5.3  6.5  0.1038E+02  0.1123E+02  0.1258E+02E
 Epicentro: VILLANUEVA - SANTANDER                                             3
 ACTION:UPD 13-01-04 14:28 OP:ep   STATUS:               ID:20121216050615 L   I
 2012-12-16-0500-00M.COL___239                                                 6
 STAT SP IPHASW D HRMM SECON CODA AMPLIT PERI AZIMU VELO AIN AR TRES W  DIS CAZ7
 BAR2 SZ EP   1    5 6 35.45                             173   -0.01 7 16.6 174 
 BAR2 SZ ES   1    5 6 50.65                             173   -0.26 7 16.6 174 
 BAR2 SZ I         5 6 51.65         4.7 0.16                          16.6 174 
 GIR2 SZ ES   1    5 6 51.28                             165   -0.21 7 37.3   1 
 GIR2 SZ I         5 6 53.28         2.5 0.48                          37.3   1 
 BRR  HE ES   2    5 6 54.46                             153    0.83 5 69.8 305 
 RUS  HZ EP   1    5 6 39.23                             146   -0.01 7 94.7 172 
 RUS  HN ES   1    5 6 57.90                             146    0.27 7 94.7 172 
 RUS  HZ I         5 6 59.28         1.7 0.34                          94.7 172 
 PTB  HZ EP   1    5 6 42.29                             134    0.07 7  141 261 
 PTB  HN ES   1    5 7  2.70                             134   -0.24 7  141 261 
 PTB  HZ I         5 7  3.94         2.8 0.64                           141 261 
                                                                                
