 2013  116 0612 22.4 L   6.768 -73.195153.9  RSN  5 0.3 0.9LRSN                1
 GAP=229        0.70       7.5     7.8  7.0  0.3178E+02  0.1127E+02  0.1374E+02E
 Epicentro: VILLANUEVA - SANTANDER                                             3
 ACTION:UPD 13-02-15 09:14 OP:ep   STATUS:               ID:20130116061222 L   I
 2013-01-16-0610-00M.COL___239                                                 6
 STAT SP IPHASW D HRMM SECON CODA AMPLIT PERI AZIMU VELO AIN AR TRES W  DIS CAZ7
 BAR2 SZ ES   1    612 58.37                             172   -0.59 7 19.5 176 
 BRR  HZ EP   1    612 44.49                             155    0.22 7 68.3 303 
 BRR  HN ES   1    613  1.72                             155    0.38 7 68.3 303 
 RUS  HZ EP   1    612 46.47                             146   -0.28 7 97.6 173 
 RUS  HN ES   1    613  6.23                             146    0.48 7 97.6 173 
 RUS  HZ I         613  9.00         0.8 0.32            140           97.6 173 
 PTB  HZ EP   1    612 49.32                             135   -0.19 7  142 260 
 PTB  HN ES   1    613 10.48                             135   -0.18 7  142 260 
 PTB  HZ I         613 17.76         1.9 0.18            129            142 260 
 CHI  HZ EP   1    613  0.21                             119    0.16 6  244 194 
                                                                                
