 2017  216 0206 30.9 L   6.748 -73.139145.4  RSN  5 0.4 1.3LRSN                1
 GAP=140        0.94       4.8     4.3  8.3  0.1330E+01  0.6279E+01  0.3266E+01E
 Epicentro: LOS SANTOS - SANTANDER                                             3
 ACTION:UPD 17-05-24 15:36 OP:jn   STATUS:               ID:20170216020630 L   I
 OLDACT:DUP 17-02-16 14:17 OP:dani STATUS:               ID:20170216015746d    3
 2017-02-16-0158-00M.COL___364                                                 6
 STAT SP IPHASW D HRMM SECON CODA AMPLIT PERI AZIMU VELO AIN AR TRES W  DIS CAZ7
 BRR  HZ EP        2 6 52.35                             151    0.1210 74.7 302 
 BRR  HN ES        2 7  9.36                             151    0.5110 74.7 302 
 BRR  HZ I         2 7 17.86         6.8 0.36            152           74.7 302 
 PAM  EZ EP        2 6 53.47                             149    0.1310 81.5  37 
 PAM  EN ES        2 7 10.38                             149   -0.4510 81.5  37 
 PAM  EZ I         2 7 11.86         2.9 0.37            154           81.5  37 
 RUS  HZ EP        2 6 54.66                             145    0.4410 94.8 176 
 RUS  HN ES        2 7 12.32                             145   -0.0710 94.8 176 
 RUS  HZ I         2 7 14.08         1.7 0.60            151           94.8 176 
 PTB  HZ EP        2 6 57.27                             132   -0.55 9  147 261 
 PTB  HN ES        2 7 18.45                             132   -0.36 9  147 261 
 PTB  HZ I         2 7 21.80         2.7 0.16            135            147 261 
 ZAR  HN ES        2 7 29.31                             122    0.15 8  207 294 
                                                                                
