 2012  416 0656 46.3 L   6.801 -73.120133.5  RSN  8 0.5 1.8LRSN                1
 GAP=140        0.99       5.5     6.0  8.4  0.3693E+01  0.2083E+02  0.7608E+01E
 Epicentro: LOS SANTOS - SANTANDER                                             3
 ACTION:UPD 12-07-05 11:53 OP:tino STATUS:               ID:20120416065646 L   I
 2012-04-16-0649-48M.COL___160                                                 6
 STAT SP IPHASW D HRMM SECON CODA AMPLIT PERI AZIMU VELO AIN AR TRES W  DIS CAZ7
 BAR2 SZ EP   1    657  4.38                             169    -0.1 7   24 197 
 BAR2 SZ ES   1    657 18.76                             169     0.1 7   24 197 
 BAR2 SZ I         657 20.76        17.4 0.30                            24 197 
 BRR  HZ EP   1    657  6.17                             149    -0.1 7   74 297 
 BRR  HN ES   1    657 22.56                             149     0.7 7   74 297 
 BRR  HZ I         657 24.96        16.7 0.16                            74 297 
 PAM  SZ EP   1    657  7.27                             149     0.2 7   76  38 
 PAM  SN ES   1    657 22.94                             149    -0.4 7   76  38 
 PAM  SZ I         657 26.32         7.7 0.33                            76  38 
 RUS  HZ EP   1    657  8.54                             141    -0.3 7  101 178 
 RUS  HZ I         657  9.68         7.3 0.16                           101 178 
 RUS  HN ES   1    657 26.39                             141    -0.1 7  101 178 
 ZAR  HZ EP   1    657 18.91                             119     0.7 6  207 292 
 ZAR  HN ES   1    657 42.23                             119    -0.9 6  207 292 
 ZAR  HZ I         657 48.10         8.4 0.20                           207 292 
 CHI  HN ES   2    657 51.96                             114    -0.4 4  250 196 
 ROSC BZ EP   1    657 24.71                             114     0.8 6  254 212 
 ROSC BZ I         658  1.27         7.4 0.47                           254 212 
 HEL  HZ EP   1    657 25.95                             112    -0.3 6  275 256 
 HEL  HN ES   1    657 57.22                             112    -0.1 6  275 256 
 HEL  HZ I         658  3.29         5.0 0.40                           275 256 
                                                                                
