 2016 1116 0528 34.1 L   6.812 -73.162151.0  RSN 22 0.5 2.7LRSN                1
 GAP= 80        0.96       3.4     2.9  4.8 -0.6246E+00  0.2746E+01  0.5276E+01E
 Epicentro: LOS SANTOS - SANTANDER                                             3
 ACTION:UPD 17-10-26 21:08 OP:lp   STATUS:               ID:20161116052834 L   I
 OLDACT:UP  16-11-16 16:10 OP:e    STATUS:               ID:20161116051743     3
 OLDACT:UP  16-11-16 16:10 OP:e    STATUS:               ID:20161116051743     3
 OLDACT:UP  16-11-16 16:07 OP:e    STATUS:               ID:20161116051743     3
 OLDACT:UP  16-11-16 16:06 OP:e    STATUS:               ID:20161116051743     3
 OLDACT:UP  16-11-16 16:05 OP:e    STATUS:               ID:20161116051743     3
 OLDACT:UP  16-11-16 16:04 OP:e    STATUS:               ID:20161116051743     3
 OLDACT:UP  16-11-16 16:00 OP:e    STATUS:               ID:20161116051743     3
 OLDACT:UP  16-11-16 16:00 OP:e    STATUS:               ID:20161116051743     3
 OLDACT:UP  16-11-16 15:56 OP:e    STATUS:               ID:20161116051743     3
 OLDACT:REG 16-11-16 12:35 OP:and  STATUS:               ID:20161116051743     3
 2016-11-16-0518-00M.COL___335                                                 6
 STAT SP IPHASW D HRMM SECON CODA AMPLIT PERI AZIMU VELO AIN AR TRES W  DIS CAZ7
 BAR2 EZ EP        528 54.15                             170   -0.2210 24.4 185 
 BAR2 HN ES        529  9.53                             170   -0.6610 24.4 185 
 BAR2 EZ I         529 10.26       223.4 0.32            166           24.4 185 
 BRR  HZ IP     C  528 55.98                             154    0.3010 68.9 298 
 BRR  HE ES        529 13.17                             154    0.6410 68.9 298 
 BRR  HZ I         529 16.26       111.1 0.15            154           68.9 298 
 PAM  EZ EP        528 56.97                             151    0.1010 77.5  41 
 PAM  HN ES     C  529 14.98                             151    0.3410 77.5  41 
 PAM  EZ I         529 17.03        54.6 0.14            153           77.5  41 
 PTB  HZ EP        529  0.56                             133   -0.79 9  146 258 
 PTB  HN ES        529 22.05                             133   -0.57 9  146 258 
 PTB  HZ I         529 23.94        89.3 0.10            131            146 258 
 TAM  HZ IP     D  529  2.63                             131    0.25 9  157 105 
 TAM  HZ I         529 23.50        44.5 0.38            129            157 105 
 TAM  HN IS        529 24.34                             131   -0.10 9  157 105 
 ZAR  HZ EP        529  6.62                             124   -0.04 9  202 292 
 ZAR  HN ES        529 32.05                             124   -0.01 9  202 292 
 ZAR  HZ I         529 37.89        64.5 0.19            123            202 292 
 NOR  HZ EP        529 10.38                             120    0.33 8  234 234 
 NOR  HN ES        529 38.48                             120    0.37 8  234 234 
 NOR  HZ I         529 43.55        42.8 0.18            118            234 234 
 CHI  HZ EP        529 12.38                             118    0.21 8  249 195 
 CHI  HN ES        529 41.53                             118   -0.35 8  249 195 
 CHI  HZ I         529 46.81        43.5 0.40            116            249 195 
 ROSC BZ EP   4    529 13.90                             118    1.38 0  253 211 
 ROSC BN ES   4    529 45.26                             118    2.76 0  253 211 
 ROSC BZ I         529 48.88       125.7 0.40            115            253 211 
 PTGC HZ EP   4    529 17.30                             112   -1.10 0  311 158 
 PTGC HN ES   4    529 50.67                             112   -2.29 0  311 158 
 PTGC HZ I         529 53.48        23.8 0.30            111            311 158 
 LL6C HZ EP   9    529  0.06                             111   -19.8 0  323 358 
 LL6C HN ES        529 35.52                                   -0.24 7  323 358 
 LL6C HZ I         529 40.89        16.9 0.42            111            323 358 
 ELA  HZ EP   4    529 23.51                             111    2.40 0  329 229 
 ELA  HN ES   4    530  2.19                             111    4.41 0  329 229 
 ELA  HZ I         530  5.59        24.1 0.32            110            329 229 
 CBOC HZ EP        529 21.78                             111    0.71 7  332 252 
 CBOC HN ES   4    529 59.09                             111    1.37 0  332 252 
 CBOC HZ I         530  9.13         9.3 0.33            109            332 252 
 ARGC HZ EP   9    529 25.04                             109    1.31 0  357 341 
 ARGC HN ES        530  4.27                             109    0.51 6  357 341 
 ANIL HZ EP   4    529 25.30                             109    1.24 0  357 224 
 ANIL HN ES   4    530  5.45                             109    2.41 0  357 224 
 PRA  HZ EP        529 27.95                             107    0.12 6  392 209 
 PRA  HN ES        530  9.95                             107    0.21 6  392 209 
 PRA  HZ I         530 14.42        38.5 0.40            106            392 209 
 ORTC HZ EP        529 28.58                             107    0.39 6  395 216 
 ORTC HN ES   4    530 12.41                             107    2.02 0  395 216 
 ORTC HZ I         530 15.61        26.8 0.22            106            395 216 
 PAL  HZ EP        529 29.77                             107    0.45 6  405 239 
 PAL  HN ES   4    530 13.65                             107    1.24 0  405 239 
 PAL  HZ I         530 19.57         8.9 0.28            105            405 239 
 SJC  HZ EP        529 28.37                             106   -1.21 6  407 327 
 SJC  HN ES   4    530 10.65                             106   -2.21 0  407 327 
 SJC  HZ I         530 23.95        13.9 0.74            106            407 327 
 CRJC HZ EP   4    529 34.47                             104   -2.12 0  466   4 
 CRJC HE ES   4    530 22.26                             104   -3.08 0  466   4 
 CRJC HZ I         530 25.46        14.2 0.18            104            466   4 
 YOT  HZ EP        529 37.23                             104    0.01 5  471 229 
 URI  HZ EP   4    529 44.84                             101   -2.26 0  556  13 
 URI  HN ES        530 43.44                             101   -0.61 3  556  13 
 URI  HZ I         530 45.67         2.8 0.32            101            556  13 
 FLO2 HZ EP        529 57.19                              99   -0.17 2  641 206 
 FLO2 HN ES   4    531  5.08                              99    2.77 0  641 206 
 FLO2 HZ I         531  7.05         1.4 0.32             98            641 206 
                                                                                
