 2012  716 0842 58.2 L   5.906 -73.789118.6  RSN  4 0.2 1.4LRSN                1
 GAP=272        0.42       8.9     4.6 12.2  0.7933E+01  0.1276E+02  0.4005E+02E
 Epicentro: JESUS MARIA - SANTANDER                                            3
 ACTION:UPD 12-08-14 11:45 OP:ep   STATUS:               ID:20120716084258 L   I
 2012-07-16-0840-00M.COL___197                                                 6
 STAT SP IPHASW D HRMM SECON CODA AMPLIT PERI AZIMU VELO AIN AR TRES W  DIS CAZ7
 BAR2 SZ EP   2    843 19.32                             137     0.2 5  101  41 
 BAR2 SZ ES   2    843 35.41                             137     0.0 5  101  41 
 BAR2 SZ I         843 37.03        11.7 0.47            140            101  41 
 PTB  HZ EP   2    843 18.50                             136    -0.3 5  102 314 
 PTB  HE ES   2    843 35.04                             136     0.1 5  102 314 
 PTB  HZ I         843 35.43         2.3 0.29            141            102 314 
 BRR  HN ES   2    843 39.67                             128    -0.2 5  133   4 
 ZAR  HN ES   2    843 54.76                             115     0.2 4  212 326 
