 2017 1016 0705  5.7 L   6.714 -73.142142.3  RSN  6 0.5 1.4LRSN                1
 GAP=231        1.28       7.3     7.1  9.3  0.1877E+02  0.1817E+02 -0.1308E+01E
 Epicentro: JORDAN - SANTANDER                                                 3
 ACTION:UPD 17-11-07 19:32 OP:rebc STATUS:               ID:20171016070505 L   I
 OLDACT:UP  17-10-16 16:45 OP:dani STATUS:               ID:20171016064957d    3
 OLDACT:DUP 17-10-16 16:41 OP:dani STATUS:               ID:20171016064957d    3
 OLDACT:UP  17-10-16 16:39 OP:dani STATUS:               ID:20171016064956     3
 OLDACT:UP  17-10-16 16:39 OP:dani STATUS:               ID:20171016064956     3
 OLDACT:UP  17-10-16 16:34 OP:dani STATUS:               ID:20171016064956     3
 OLDACT:REG 17-10-16 13:08 OP:dani STATUS:               ID:20171016064956     3
 2017-10-16-0658-00M.COL___411                                                 6
 STAT SP IPHASW D HRMM SECON CODA AMPLIT PERI AZIMU VELO AIN AR TRES W  DIS CAZ7
 BAR2 EZ EP        7 5 24.75                             174    0.0010 14.2 198 
 BAR2 EZ ES        7 5 39.66                             174    0.0410 14.2 198 
 BAR2 EZ I         7 5 40.94         7.3 0.32            175           14.2 198 
 BRR  HZ EP        7 5 26.61                             150   -0.1710 76.5 305 
 BRR  HN ES        7 5 43.96                             150    0.7310 76.5 305 
 BRR  HZ I         7 5 47.92         5.1 0.16            150           76.5 305 
 RUS  HZ EP        7 5 29.19                             146    0.7610 91.1 176 
 RUS  HN ES        7 5 45.38                             146   -0.7810 91.1 176 
 RUS  HZ I         7 5 48.44         3.6 0.33            150           91.1 176 
 PTB  HZ EP        7 5 31.86                             131   -0.41 9  147 263 
 PTB  HE ES        7 5 52.71                             131   -0.29 9  147 263 
 PTB  HZ I         7 5 54.73         2.8 0.10            133            147 263 
 ZAR  HZ EP        7 5 38.21                             121   -0.12 8  208 295 
 ZAR  HE ES        7 6  3.28                             121   -0.52 8  208 295 
 ZAR  HZ I         7 6  8.79         2.6 0.22            123            208 295 
 NOR  HE ES        7 6  8.68                             118    0.72 8  230 236 
                                                                                
