 2016  816 0036 16.5 L   6.793 -73.116144.0  RSN 17 0.5 2.1LRSN                1
 GAP= 99        1.10       3.6     3.0  5.3 -0.2532E+01  0.1606E+01  0.4132E+01E
 Epicentro: LOS SANTOS - SANTANDER                                             3
 ACTION:UPD 16-10-29 15:35 OP:rebc STATUS:               ID:20160816003616 L   I
 OLDACT:DUP 16-08-16 13:50 OP:ak   STATUS:               ID:20160816002760d    3
 2016-08-16-0027-59S.COL___349                                                 6
 STAT SP IPHASW D HRMM SECON CODA AMPLIT PERI AZIMU VELO AIN AR TRES W  DIS CAZ7
 BAR2 EZ EP        036 35.85                             170   -0.0210 23.3 198 
 BAR2 EZ ES        036 51.28                             170    0.2710 23.3 198 
 BAR2 EZ I         036 52.04        27.7 0.13                          23.3 198 
 BRR  HZ IP     C  036 37.74                             151    0.1410 74.5 298 
 BRR  HN ES        036 54.52                             151    0.4310 74.5 298 
 BRR  HZ I         036 57.77        30.3 0.25                          74.5 298 
 PAM  EZ EP        036 38.35                             151   -0.0410 76.0  37 
 PAM  EN ES        036 55.67                             151    0.1610 76.0  37 
 PAM  EZ I         036 57.83        35.3 0.56                          76.0  37 
 RUS  HZ EP        036 39.78                             144   -0.1810 99.6 178 
 RUS  HN ES        036 57.72                             144   -0.5710 99.6 178 
 RUS  HZ I         036 59.42        10.6 0.30                          99.6 178 
 PTB  HN ES        037  3.66                             131   -1.04 9  151 259 
 PTB  HZ I         037  5.85        14.8 0.26                           151 259 
 TAM  HZ EP        036 43.63                             131   -0.04 9  152 105 
 TAM  HE ES        037  5.41                             131    0.50 9  152 105 
 SPBC HZ EP        036 44.75                             128   -0.20 9  165 220 
 SPBC HN ES        037  6.72                             128   -0.47 9  165 220 
 SPBC HZ I         037 10.18        19.6 0.36                           165 220 
 ZAR  HZ EP   2    036 49.21                             122    0.08 4  207 292 
 ZAR  HN ES        037 14.96                             122    0.34 8  207 292 
 ZAR  HZ I         037 20.41        24.0 0.32                           207 292 
 NOR  HZ EP        036 51.88                             118   -0.44 8  237 235 
 NOR  HN ES        037 19.66                             118   -0.63 8  237 235 
 NOR  HZ I         037 24.78        12.7 0.20                           237 235 
 CHI  HZ EP        036 54.12                             117    0.06 8  249 196 
 CHI  HN ES        037 24.01                             117    0.61 8  249 196 
 CHI  HZ I         037 29.10         4.2 0.17                           249 196 
 ROSC BZ EP   9    036 56.10                             116    1.52 0  254 212 
 ROSC BN ES        037 26.59                                    0.75 8  254 212 
 ROSC BZ I         037 31.39        13.1 0.55                           254 212 
 HEL  HZ EP   2    036 56.79                             114   -0.12 4  275 256 
 HEL  HN ES        037 29.19                             114    0.73 8  275 256 
 HEL  HZ I         037 34.94         4.5 0.13                           275 256 
 SOCV BZ EP        036 58.45                             112   -0.71 7  299  56 
 SOCV BN ES   4    037 30.43                             112   -2.04 0  299  56 
 GUY2CHZ EP        036 59.89                             112   -0.34 7  303 235 
 GUY2CHN ES        037 34.94                             112    0.56 7  303 235 
 GUY2CHZ I         037 42.61         7.5 0.42                           303 235 
 ANIL HE ES        037 46.29                             108    0.95 6  359 225 
 PRA  HZ EP        037 10.91                             106    0.89 6  393 210 
 PRA  HN ES        037 51.94                             106    0.14 6  393 210 
 PRA  HZ I         037 56.66         5.2 0.20                           393 210 
 SJC  HZ EP   4    037 10.10                             105   -2.15 0  412 327 
 SJC  HN ES   4    037 51.84                             105   -3.92 0  412 327 
 SJC  HZ I         037 56.24         3.7 0.49                           412 327 
                                                                                
