 2011 1216 0436  7.9 L   6.806 -73.109141.5  RSN  8 0.3 1.7LRSN                1
 GAP=141        0.58       2.9     4.6  5.0 -0.1721E+01 -0.1706E+01  0.5017E+01E
 Epicentro: LOS SANTOS - SANTANDER                                             3
 ACTION:UPD 12-07-13 16:16 OP:ep   STATUS:               ID:20111216043607 L   I
 2011-12-16-0430-00M.COL___186                                                 6
 STAT SP IPHASW D HRMM SECON CODA AMPLIT PERI AZIMU VELO AIN AR TRES W  DIS CAZ7
 BAR2 SZ EP        436 26.85                             170   -0.1910 25.0 199 
 BAR2 SZ ES   1    436 41.33                             170   -0.65 7 25.0 199 
 BAR2 SZ I         436 43.29        13.9 0.46                          25.0 199 
 GIR2 SZ EP   2    436 27.06                             166    0.01 5 31.5 343 
 PAM  SZ EP   1    436 29.61                             151    0.15 7 74.3  37 
 PAM  SN ES   1    436 46.36                             151    0.06 7 74.3  37 
 BRR  HZ EP        436 28.69                             150   -0.0710 74.4 297 
 BRR  HE ES        436 45.38                             150    0.3310 74.4 297 
 BRR  HZ I         436 46.53        13.5 0.07                          74.4 297 
 RUS  HZ EP        436 31.18                             143   -0.0710  101 178 
 RUS  HZ I         436 32.35         5.0 0.11                           101 178 
 RUS  HE ES   2    436 50.15                             143    0.67 5  101 178 
 OCA  SZ EP   2    436 36.25                             128    0.40 5  160 352 
 OCA  SZ ES   2    436 57.52                             128   -0.14 5  160 352 
 NOR  SN ES   2    437 11.37                             117   -0.39 4  238 235 
 CHI  HZ EP   1    436 45.60                             116    0.06 6  250 196 
 CHI  HN ES   1    437 15.09                             116    0.18 6  250 196 
 CHI  HZ I         437 21.64         2.6 0.39                           250 196 
                                                                                
