 2012 1116 0057 48.3 L   6.747 -73.151151.1  RSN  9 0.4 1.6LRSN                1
 GAP=138        0.82       5.1     4.9  6.8  0.7696E+00  0.4136E+01 -0.2930E+01E
 Epicentro: LOS SANTOS - SANTANDER                                             3
 ACTION:UPD 12-12-05 15:33 OP:}ep  STATUS:               ID:20121116005748 L   I
 2012-11-16-0050-00M.COL___233                                                 6
 STAT SP IPHASW D HRMM SECON CODA AMPLIT PERI AZIMU VELO AIN AR TRES W  DIS CAZ7
 BAR2 SZ EP   1    058  8.58                             173    0.16 7 17.5 191 
 BAR2 SZ ES   1    058 23.29                             173   -0.87 7 17.5 191 
 GIR2 SZ EP   1    058  8.68                             165   -0.04 7 37.0 353 
 GIR2 SZ ES   1    058 25.00                             165    0.32 7 37.0 353 
 BRR  HE ES   1    058 27.91                             153    0.74 7 73.7 303 
 PAM  SZ EP   1    058 11.49                             150    0.16 7 82.4  37 
 PAM  SZ I         058 31.41         5.6 0.36                          82.4  37 
 RUS  HZ EP   1    058 12.48                             147    0.35 7 94.8 175 
 RUS  HN ES   1    058 30.63                             147   -0.13 7 94.8 175 
 RUS  HZ I         058 32.52         4.2 0.30                          94.8 175 
 PTB  HZ EP   1    058 15.45                             134   -0.07 7  146 261 
 PTB  HN ES   1    058 36.43                             134   -0.35 7  146 261 
 PTB  HZ I         058 39.95         7.1 0.14                           146 261 
 ZAR  HE ES   1    058 46.73                             123   -0.22 6  206 294 
 NOR  HE ES   1    058 52.04                             120    0.36 6  231 236 
 SML  HZ EP   1    058 25.10                             118   -0.63 6  249 336 
                                                                                
