 2017 1216 0401 14.0 L   6.838 -73.152144.3  RSN 24 0.5 2.6LRSN                1
 GAP= 62        1.07       2.2     2.9  5.1 -0.9901E+00  0.3367E+01  0.7084E+00E
 Epicentro: LOS SANTOS - SANTANDER                                             3
 ACTION:UPD 18-01-04 13:20 OP:rebc STATUS:               ID:20171216040114 L   I
 OLDACT:UP  17-12-16 16:33 OP:edw  STATUS:               ID:20171216035557     3
 OLDACT:UP  17-12-16 16:33 OP:edw  STATUS:               ID:20171216035557     3
 OLDACT:UP  17-12-16 16:32 OP:edw  STATUS:               ID:20171216035557     3
 OLDACT:REG 17-12-16 12:06 OP:edw  STATUS:               ID:20171216035557     3
 2017-12-16-0358-00M.COL___473                                                 6
 STAT SP IPHASW D HRMM SECON CODA AMPLIT PERI AZIMU VELO AIN AR TRES W  DIS CAZ7
 BAR2 EZ EP        4 1 33.50                             169    0.0110 27.4 187 
 BAR2 EZ ES        4 1 48.65                             169   -0.0810 27.4 187 
 BAR2 EZ I         4 1 49.53       122.7 0.34            169           27.4 187 
 PAM  EZ EP        4 1 36.36                             151    0.5110 74.7  42 
 PAM  EN ES        4 1 53.49                             151    0.5610 74.7  42 
 PAM  EZ I         4 1 55.69        51.6 0.54            151           74.7  42 
 PTB  HZ EP        4 1 40.20                             132   -0.61 9  148 257 
 PTB  HN ES        4 2  1.37                             132   -0.39 9  148 257 
 PTB  HZ I         4 2  8.23        35.6 0.22            130            148 257 
 OCA  HZ EP        4 1 41.77                             130    0.02 9  156 353 
 OCA  HN ES        4 2  3.58                             130    0.15 9  156 353 
 OCA  HZ I         4 2 12.01       102.1 0.20            129            156 353 
 TAM  HZ IP     D  4 1 41.93                             130    0.24 9  157 106 
 TAM  HZ I         4 2  2.83        26.4 0.36            130            157 106 
 TAM  HN ES        4 2  3.67                             130    0.35 9  157 106 
 SPBC HZ EP        4 1 42.47                             128   -0.14 9  166 218 
 SPBC HN ES        4 2  4.63                             128   -0.33 9  166 218 
 SPBC HZ I         4 2  7.02        45.2 0.40            127            166 218 
 YPLC HZ EP        4 1 43.88                             126   -0.16 9  181 152 
 YPLC HN ES        4 2  6.73                             126   -0.77 9  181 152 
 YPLC HZ I         4 2 10.62        32.9 0.30            125            181 152 
 ZAR  HZ EP        4 1 46.05                             122   -0.02 9  202 291 
 ZAR  HN ES        4 2 10.97                             122   -0.15 9  202 291 
 ZAR  HZ I         4 2 16.60        46.6 0.38            121            202 291 
 ROSC BZ EP   4    4 1 53.79                             116    1.44 0  256 210 
 ROSC BN ES   4    4 2 24.01                             116    1.72 0  256 210 
 ROSC BZ I         4 2 28.25        69.0 0.40            115            256 210 
 CVER HZ EP        4 1 55.25                             114    0.61 7  276 202 
 CVER HN ES        4 2 26.18                             114   -0.19 7  276 202 
 CVER HZ I         4 2 37.02        22.3 0.62            114            276 202 
 URE  HZ EP   4    4 1 57.78                             113    3.08 0  282 291 
 URE  HN ES   4    4 2 22.94                             113   -3.54 0  282 291 
 URE  HZ I         4 2 38.52        28.1 0.26            113            282 291 
 DRL03HZ EP        4 1 55.44                             113    0.43 7  285 353 
 DRL03HE ES        4 2 27.29                             113    0.25 7  285 353 
 GUY2CHZ EP        4 1 57.57                             112   -0.13 7  303 234 
 GUY2CHN ES   4    4 2 33.35                             112    1.53 0  303 234 
 GUY2CHZ I         4 2 39.73        17.6 0.34                           303 234 
 VIL  EZ EP        4 1 57.58                             111   -0.17 7  307 191 
 VIL  EN ES        4 2 31.16                             111   -0.76 7  307 191 
 VIL  EZ I         4 2 34.28        35.7 0.36            111            307 191 
 PTGC HZ IP   9 D  4 1 56.66                             111   -1.56 0  313 159 
 PTGC HN ES        4 2 30.41                             111   -0.78 7  313 159 
 PTGC HZ I         4 2 31.89        16.8 0.28            111            313 159 
 DRL02HZ EP        4 1 58.96                             110   -0.15 7  321 358 
 DRL02HN ES        4 2 33.19                             110   -1.14 7  321 358 
 ELA  HZ EP   4    4 2  2.30                             110    1.31 0  331 229 
 ELA  HE ES        4 2 38.43                             110    0.75 7  331 229 
 ELA  HZ I         4 2 45.31        14.9 0.40            109            331 229 
 CBOC HZ EP        4 2  1.18                             110    0.30 7  334 251 
 CBOC HE ES        4 2 37.38                             110   -0.10 7  334 251 
 CBOC HZ I         4 2 41.89         6.2 0.36            109            334 251 
 SDV  BZ EP        4 2  3.11                             108   -0.59 6  358  51 
 SDV  B1 ES   4    4 2 40.36                             108   -2.13 0  358  51 
 SDV  BZ I         4 2 43.63         7.3 0.30            108            358  51 
 ANIL HZ EP        4 2  4.77                             108    0.78 6  360 224 
 ANIL HN ES        4 2 44.08                             108    1.06 6  360 224 
 PRA  HZ EP        4 2  7.37                             106   -0.44 6  395 209 
 PRA  HN ES   4    4 2 48.69                             106   -1.12 0  395 209 
 PRA  HZ I         4 2 57.26        14.8 0.28            106            395 209 
 ORTC HZ EP        4 2  7.92                             106   -0.25 6  398 216 
 ORTC HN ES        4 2 51.38                             106    0.92 6  398 216 
 ORTC HZ I         4 2 57.26        10.2 0.50            105            398 216 
 SJC  HZ EP   4    4 2  7.68                             106   -1.33 0  405 327 
 SJC  HN ES   4    4 2 48.74                             106   -3.21 0  405 327 
 SJC  HZ I         4 2 58.55         4.8 0.26            105            405 327 
 CRJC HZ EP   9    4 2 13.75                             103   -2.17 0  463   4 
 CRJC HN ES        4 3  0.55                             104   -1.53 5  463   4 
 CRJC HZ I         4 3  8.87        13.3 0.62            103            463   4 
                                                                                
