 2015  316 0647 51.4 L   6.794 -73.120151.1  RSN  6 0.6 1.6LRSN                1
 GAP=113        1.50       5.7     6.9 10.4  0.3156E+01 -0.9503E+01 -0.5751E+01E
 Epicentro: LOS SANTOS - SANTANDER                                             3
 ACTION:UPD 15-04-30 16:26 OP:nd   STATUS:               ID:20150316064751 L   I
 OLDACT:REG 15-03-16 12:36 OP:stll STATUS:               ID:20150316063740     3
 2015-03-16-0637-40M.COL___254                                                 6
 STAT SP IPHASW D HRMM SECON CODA AMPLIT PERI AZIMU VELO AIN AR TRES W  DIS CAZ7
 BAR2 EZ EP        648 11.81                             171    0.1910 23.3 197 
 BAR2 EZ I         648 11.85         7.2 0.20            168           23.3 197 
 BAR2 EZ ES        648 27.02                             171   -0.4110 23.3 197 
 BRR  HZ IP     C  648 13.89                             152    0.6610 74.0 298 
 BRR  HZ I         648 14.05         9.8 0.24            151           74.0 298 
 BRR  HN ES        648 31.09                             152    0.7910 74.0 298 
 RUS  HZ EP        648 15.53                             145   -0.0410 99.7 178 
 RUS  HZ I         648 16.69         3.3 0.14            143           99.7 178 
 RUS  HN ES        648 34.05                             145   -0.4110 99.7 178 
 TAM  HZ EP        648 18.41                             132   -0.79 9  152 105 
 TAM  HZ I         648 20.23         3.5 0.10            132            152 105 
 TAM  HN ES        648 41.77                             132    0.86 9  152 105 
 OCA  HZ EP        648 20.57                             131    0.39 9  161 352 
 OCA  HN ES        648 41.57                             131   -1.09 9  161 352 
 SPBC HZ EP        648 20.31                             130   -0.07 9  164 220 
 SPBC HE ES        648 42.76                             130   -0.26 9  164 220 
 SPBC HZ I         648 48.18         8.4 0.22            128            164 220 
                                                                                
