 2010  816 0621 21.3 L   6.805 -73.036138.0  RSN  5 0.4 1.4LRSN                1
 GAP=203        0.96      13.1    13.7 13.6  0.2861E+02 -0.1170E+03 -0.5831E+02E
 Epicentro: CEPITA - SANTANDER                                                 3
 ACTION:UP  10-09-07 10:55 OP:vdl  STATUS:               ID:20100816062121 L   I
 2010-08-16-0617-43S.COL___111                                                 6
 STAT SP IPHASW D HRMM SECON CODA AMPLIT PERI AZIMU VELO SNR AR TRES W  DIS CAZ7
 BTL  SZ EP        621 40.29                             169     0.210   29 296 
 BAR2 SZ ES   2    621 55.57                             169     0.8 5   29 215 
 BTL  SZ ES   2    621 53.71                             169    -1.1 5   29 296 
 BAR2 SZ EP   1    621 40.07                                    -0.1 7   29 215 
 BAR2 SZ I         621 57.78         8.9 0.08                            29 215 
 BRR  HZ EP        621 41.89                             149    -0.410   82 294 
 BRR  HN ES        621 58.93                             149     0.310   82 294 
 BRR  HZ I         622  1.38         4.5 0.15                            82 294 
 GUE  SZ EP   1    621 45.04                             139    -0.1 7  114   6 
 GRA  SZ EP   1    621 45.81                             137     0.2 7  122  12 
 GRA  SZ I         622  6.86         2.7 0.74                           122  12 
                                                                                
