 2017  316 0453 21.4 L   6.728 -73.163147.8  RSN  5 0.3 1.3LRSN                1
 GAP=137        0.90       6.6     7.0  7.9  0.2767E+02 -0.1154E+02 -0.1578E+02E
 Epicentro: VILLANUEVA - SANTANDER                                             3
 ACTION:UPD 17-05-25 18:41 OP:jn   STATUS:               ID:20170316045321 L   I
 OLDACT:REG 17-03-16 13:10 OP:cara STATUS:               ID:20170316044745     3
 2017-03-16-0448-00M.COL___400                                                 6
 STAT SP IPHASW D HRMM SECON CODA AMPLIT PERI AZIMU VELO AIN AR TRES W  DIS CAZ7
 BAR2 EZ EP        453 41.61                             174    0.4510 15.2 188 
 BAR2 EZ ES        453 56.09                             174   -0.4610 15.2 188 
 BAR2 EZ I         453 58.27        10.1 0.66            169           15.2 188 
 BRR  HZ EP        453 42.90                             152   -0.0310 73.7 305 
 BRR  HN ES        453 59.84                             152    0.1310 73.7 305 
 BRR  HZ I         454  4.11         3.8 0.46            149           73.7 305 
 PAM  EZ EP        453 44.37                             149    0.0710 84.8  37 
 RUS  HZ EP        453 44.29                             146   -0.5410 92.8 175 
 RUS  HN ES        454  3.50                             146    0.4110 92.8 175 
 RUS  HZ I         454  5.83         1.4 0.26            147           92.8 175 
 ZAR  HN ES        454 19.61                             123   -0.04 8  205 294 
 ZAR  HZ I         454 26.06         1.3 0.32            122            205 294 
                                                                                
