 2012 1116 0524 11.4 L   6.786 -73.122145.7  RSN  8 0.4 1.4LRSN                1
 GAP=140        0.68       3.3     4.5  5.6  0.2814E+01  0.4081E+01 -0.4434E+00E
 Epicentro: LOS SANTOS - SANTANDER                                             3
 ACTION:UPD 12-12-05 15:33 OP:}ep  STATUS:               ID:20121116052411 L   I
 2012-11-16-0520-00M.COL___233                                                 6
 STAT SP IPHASW D HRMM SECON CODA AMPLIT PERI AZIMU VELO AIN AR TRES W  DIS CAZ7
 BAR2 SZ EP   1    524 30.97                             171   -0.04 7 22.4 197 
 BAR2 SZ ES   1    524 45.76                             171   -0.54 7 22.4 197 
 BRR  HZ EP   1    524 33.05                             151    0.33 7 74.2 299 
 BRR  HN ES   1    524 50.01                             151    0.67 7 74.2 299 
 BRR  HZ I         524 53.19         5.5 0.38                          74.2 299 
 PAM  SZ EP   1    524 33.92                             151    0.33 7 77.0  37 
 PAM  SN ES   1    524 50.93                             151    0.04 7 77.0  37 
 PAM  SN I         524 52.05         8.4 0.24                          77.0  37 
 PAM  SZ I         524 53.11         5.7 0.19                          77.0  37 
 RUS  HZ EP   1    524 34.94                             144   -0.09 7 98.9 177 
 RUS  HN ES   1    524 53.27                             144   -0.19 7 98.9 177 
 RUS  HN I         524 54.31         3.9 0.38                          98.9 177 
 RUS  HZ I         524 54.65         2.0 0.32                          98.9 177 
 PTB  HN ES   2    525  0.17                             132    0.41 5  150 260 
 ZAR  HE ES   1    525  9.14                             122   -0.56 6  207 292 
 SML  HZ EP   1    524 47.93                             117   -0.37 6  246 335 
 SML  HN ES   1    525 16.81                             117   -0.26 6  246 335 
 CHI  HZ EP   1    524 49.04                             117    0.03 6  248 196 
 CHI  HN ES   2    525 18.77                             117    0.42 4  248 196 
 CHI  HZ I         525 24.35         2.0 0.50                           248 196 
                                                                                
