 2013  516 0903 10.3 L   6.951 -73.156153.6  RSN  5 0.4 1.4LRSN                1
 GAP=202        0.93       5.8     7.1  7.6  0.1908E+02 -0.2026E+01 -0.6237E+01E
 Epicentro: FLORIDABLANCA - SANTANDER                                          3
 ACTION:UPD 13-06-20 09:50 OP:ep   STATUS:               ID:20130516090310 L   I
 2013-05-16-0900-00M.COL___256                                                 6
 STAT SP IPHASW D HRMM SECON CODA AMPLIT PERI AZIMU VELO AIN AR TRES W  DIS CAZ7
 BAR2 SZ EP        9 3 31.35                             165    0.0010 39.8 184 
 BAR2 SZ ES        9 3 47.38                             165   -0.3510 39.8 184 
 BAR2 SZ I         9 3 48.57         6.0 0.18            166           39.8 184 
 BRR  HZ EP        9 3 32.26                             156    0.2910 63.8 286 
 BRR  HN ES        9 3 49.47                             156    0.6310 63.8 286 
 BRR  HZ I         9 3 53.48         8.4 0.44            156           63.8 286 
 RUS  HZ EP        9 3 36.39                             141    0.2810  117 176 
 RUS  HE ES        9 3 55.89                             141   -0.3110  117 176 
 RUS  HZ I         9 3 57.74         1.9 0.36            144            117 176 
 PTB  HZ EP        9 3 38.18                             133   -0.06 9  151 253 
 PTB  HN ES        9 3 59.77                             133   -0.22 9  151 253 
 PTB  HZ I         9 4  2.16         2.4 0.20            134            151 253 
 SML  HE ES   1    9 4 12.58                             121   -0.84 6  228 334 
                                                                                
