 2017 1216 0447  1.3 L   6.738 -73.137141.2  RSN  4 0.3 1.4LRSN                1
 GAP=161        0.69       6.1     3.7  6.0 -0.7853E+01  0.9922E+01 -0.8423E+01E
 Epicentro: LOS SANTOS - SANTANDER                                             3
 ACTION:UPD 18-01-04 13:20 OP:rebc STATUS:               ID:20171216044701 L   I
 OLDACT:UP  17-12-16 16:41 OP:edw  STATUS:               ID:20171216043138     3
 OLDACT:REG 17-12-16 12:09 OP:edw  STATUS:               ID:20171216043138     3
 2017-12-16-0438-00M.COL___473                                                 6
 STAT SP IPHASW D HRMM SECON CODA AMPLIT PERI AZIMU VELO AIN AR TRES W  DIS CAZ7
 BAR2 EZ EP        447 20.54                             173    0.2810 16.9 197 
 BAR2 EZ ES        447 35.22                             173    0.1710 16.9 197 
 BAR2 EZ I         447 37.11         7.7 0.16            175           16.9 197 
 PAM  EZ EP        447 23.42                             148    0.0910 82.2  36 
 PAM  EN ES        447 40.23                             148   -0.2810 82.2  36 
 PAM  EZ I         447 42.61         5.6 0.50            148           82.2  36 
 PTB  HZ EP        447 27.37                             131   -0.51 9  148 262 
 PTB  HN ES        447 48.46                             131   -0.14 9  148 262 
 PTB  HZ I         447 49.35         2.0 0.28            132            148 262 
 ZAR  HZ EP        447 34.07                             121    0.25 8  208 294 
 ZAR  HE ES        447 59.37                             121    0.19 8  208 294 
 ZAR  HZ I         448  4.06         3.1 0.32            122            208 294 
                                                                                
