 2011  716 0233 12.4 L   6.855 -73.092131.8  RSN  4 0.2 1.1LRSN                1
 GAP=164        0.49       4.3     8.8  6.9  0.1466E+02 -0.2556E+02 -0.1396E+02E
 Epicentro: LOS SANTOS - SANTANDER                                             3
 ACTION:UPD 12-07-25 14:01 OP:epov STATUS:               ID:20110716023312 L   I
 2011-07-16-0232-01S.COL___132                                                 6
 STAT SP IPHASW D HRMM SECON CODA AMPLIT PERI AZIMU VELO AIN AR TRES W  DIS CAZ7
 BAR2 SZ EP   1    233 30.19                             166   -0.31 7 30.7 199 
 BAR2 SZ ES   1    233 44.52                             166   -0.12 7 30.7 199 
 BAR2 SZ I         233 48.55         5.4 0.34                          30.7 199 
 BRR  HZ EP   1    233 31.97                             149   -0.21 7 73.9 292 
 BRR  HZ I         233 32.31         4.4 0.14                          73.9 292 
 BRR  HE ES   2    233 48.07                             149    0.43 5 73.9 292 
 RUS  HZ EP   1    233 35.46                             139    0.24 7  106 179 
 RUS  HN ES   1    233 53.10                             139    0.05 7  106 179 
 RUS  HZ I         233 53.94         2.0 0.19                           106 179 
 GRA  SZ EP   1    233 35.90                             135    0.17 7  118  16 
 GRA  SZ I         233 37.24         1.2 0.40                           118  16 
                                                                                
