 2013  416 0051 31.5 L   7.418 -73.205131.0  RSN  9 0.4 1.9LRSN                1
 GAP= 86        0.86       3.7     4.3  5.4 -0.3683E+01  0.2692E+01 -0.1794E+01E
 Epicentro: EL PLAYON - SANTANDER                                              3
 ACTION:UPD 13-05-22 14:38 OP:EP   STATUS:               ID:20130416005131 L   I
 2013-04-16-0048-50M.COL___211                                                 6
 STAT SP IPHASW D HRMM SECON CODA AMPLIT PERI AZIMU VELO AIN AR TRES W  DIS CAZ7
 GIR2 SZ EP        051 49.57                             163   -0.0210 37.6 178 
 GIR2 SZ ES        052  3.02                             163   -0.7010 37.6 178 
 GIR2 SZ I         052  4.28        15.6 0.13            161           37.6 178 
 PAM  SZ IP     C  051 51.18                             156    0.2710 56.4  99 
 PAM  SN ES   1    052  6.58                             156    0.49 7 56.4  99 
 PAM  SZ I         052  7.41         9.1 0.16            157           56.4  99 
 BRR  HZ EP     C  051 50.78                             152    0.0710 65.7 238 
 BRR  HN ES   1    052  6.14                             152    0.42 7 65.7 238 
 BRR  HZ I         052  6.58        34.7 0.12            148           65.7 238 
 OCA  HZ EP        051 52.69                             143    0.0510 91.6 352 
 OCA  HN ES   1    052  9.56                             143    0.40 7 91.6 352 
 OCA  HZ I         052 11.30        16.4 0.20            143           91.6 352 
 RUS  HZ EP        052  0.23                             125    0.22 9  169 175 
 RUS  HN ES   1    052 21.78                             125   -0.49 7  169 175 
 RUS  HZ I         052 25.40         5.0 0.38            123            169 175 
 PTB  HZ EP        051 59.35                             124   -0.01 9  169 235 
 PTB  HN ES   1    052 20.72                             124   -0.40 7  169 235 
 PTB  HZ I         052 25.10        11.6 0.22            122            169 235 
 SML  HZ EP   1    052  0.03                             122   -0.45 7  180 328 
 SML  HN ES   3    052 21.85                             122   -1.26 2  180 328 
 SML  HZ I         052 22.93        21.3 0.10            121            180 328 
 HEL  HZ EP   4    052 14.63                             110    1.56 0  291 242 
 HEL  HN ES   1    052 46.35                             110    0.82 5  291 242 
 HEL  HZ I         052 56.03         3.4 0.24            109            291 242 
 SDV  BZ EP        052 16.63                             107   -0.39 7  327  60 
 SDV  BN ES   4    052 50.10                             107   -2.45 0  327  60 
 SDV  BZ I         052 54.90         3.5 0.50            107            327  60 
                                                                                
