 2017 1216 0357 30.2 L   6.785 -73.133143.7  RSN 15 0.6 2.1LRSN                1
 GAP= 67        1.26       3.7     3.8  6.9 -0.3378E+01  0.8291E+01 -0.2662E+00E
 Epicentro: LOS SANTOS - SANTANDER                                             3
 ACTION:UPD 18-01-04 13:20 OP:rebc STATUS:               ID:20171216035730 L   I
 OLDACT:UP  17-12-16 16:05 OP:edw  STATUS:               ID:20171216034642     3
 OLDACT:REG 17-12-16 12:05 OP:edw  STATUS:               ID:20171216034642     3
 2017-12-16-0348-00M.COL___473                                                 6
 STAT SP IPHASW D HRMM SECON CODA AMPLIT PERI AZIMU VELO AIN AR TRES W  DIS CAZ7
 BAR2 EZ EP        357 49.44                             171   -0.1410 22.0 194 
 BAR2 EZ ES        358  4.81                             171    0.1310 22.0 194 
 BAR2 EZ I         358  7.95        22.3 0.68            169           22.0 194 
 PAM  EZ EP        357 52.24                             150    0.0010 77.7  38 
 PAM  EN ES        358  9.55                             150    0.1410 77.7  38 
 PAM  EZ I         358 11.11         8.4 0.26            155           77.7  38 
 PTB  HZ EP        357 56.34                             131   -0.78 9  149 260 
 PTB  HE ES        358 17.71                             131   -0.40 9  149 260 
 PTB  HZ I         358 19.87        11.9 0.18            132            149 260 
 TAM  HZ IP     D  357 57.61                             130    0.04 9  153 105 
 TAM  HE ES        358 18.73                             130   -0.17 9  153 105 
 TAM  HZ I         358 22.30         6.0 0.56            134            153 105 
 OCA  HZ EP        357 58.79                             129    0.25 9  162 353 
 OCA  HE ES        358 21.04                             129    0.41 9  162 353 
 OCA  HZ I         358 22.90        27.2 0.22            132            162 353 
 SPBC HZ EP        357 58.37                             129   -0.16 9  163 220 
 SPBC HN ES        358 20.63                             129    0.02 9  163 220 
 SPBC HZ I         358 26.45        21.0 0.16            129            163 220 
 ZAR  HZ EP   2    358  3.67                             122    0.94 4  206 292 
 ZAR  HN ES        358 27.83                             122   -0.27 8  206 292 
 ZAR  HZ I         358 33.49        17.0 0.52            123            206 292 
 ROSC BZ EP   4    358  9.71                             116    1.55 0  252 212 
 ROSC BN ES   4    358 43.27                             116    5.52 0  252 212 
 ROSC BZ I         358 44.34        11.2 0.40            117            252 212 
 URE  HZ EP        358 10.15                             113   -1.26 7  286 292 
 URE  HN ES   4    358 39.22                             113   -4.32 0  286 292 
 URE  HZ I         358 44.43        10.5 0.14            115            286 292 
 DRL03HZ EP        358 11.66                             113   -0.27 7  291 353 
 DRL03HE ES        358 44.45                             113   -0.02 7  291 353 
 GUY2CHZ EP        358 14.81                             112    1.05 7  301 235 
 GUY2CHN ES        358 49.28                             112    1.55 7  301 235 
 GUY2CHZ I         358 58.28         6.2 0.42                           301 235 
 PTGC HZ EP   9    358 12.31                             111   -1.44 0  307 159 
 PTGC HN ES        358 45.92                             111   -0.35 7  307 159 
 PTGC HZ I         358 48.18         6.0 0.22            113            307 159 
 CBOC HZ EP        358 18.15                             109    1.00 7  335 252 
 CBOC HE ES        358 53.28                             109   -0.48 7  335 252 
 CBOC HZ I         359  7.19         2.6 0.38            111            335 252 
 PRA  HZ EP        358 23.99                             106    0.40 6  391 210 
 PRA  HN ES        359  4.01                             106   -1.21 6  391 210 
 PRA  HZ I         359  9.67         4.6 0.26            107            391 210 
 PAL  HN ES   2    359 10.18                             105    1.81 3  406 239 
                                                                                
