 2012  516 0811  9.7 L   6.779 -73.195148.0  RSN  7 0.4 1.6LRSN                1
 GAP=230        0.86       8.2     8.2  9.3  0.4100E+02  0.5387E+01  0.1734E+02E
 Epicentro: ZAPATOCA - SANTANDER                                               3
 ACTION:UP  12-07-05 12:05 OP:pat  STATUS:               ID:20120516081109 L   I
 2012-05-16-0810-00M.COL___195                                                 6
 STAT SP IPHASW D HRMM SECON CODA AMPLIT PERI AZIMU VELO SNR AR TRES W  DIS CAZ7
 BAR2 SZ EP   1    811 29.15                             172    -0.4 7   21 176 
 BAR2 SZ I         811 45.96         8.2 0.35                            21 176 
 BRR  HZ EP   1    811 30.87                             154     0.0 7   68 303 
 BRR  HE ES   1    811 48.01                             154     0.6 7   68 303 
 BRR  HZ I         811 52.25         8.4 0.13                            68 303 
 RUS  HZ EP   1    811 33.30                             145    -0.2 7   99 173 
 RUS  HN ES   1    811 52.27                             145     0.2 7   99 173 
 RUS  HZ I         811 53.70         6.7 0.34                            99 173 
 PTB  HZ EP   1    811 35.85                             134    -0.5 7  142 259 
 PTB  HN ES   1    811 56.78                             134    -0.3 7  142 259 
 PTB  HZ I         811 59.59         7.1 0.15                           142 259 
 ZAR  HN ES   1    812  6.97                             124     0.0 6  200 293 
 CHI  HZ EP   1    811 47.33                             118     0.2 6  245 194 
 CHI  HZ I         812 24.06         2.7 0.38                           245 194 
 PRA  HZ EP   1    812  3.69                             107     1.0 4  387 209 
                                                                                
