 2016 1016 0548  5.1 L   7.415 -73.153131.8  RSN  7 0.4 2.0LRSN                1
 GAP=107        0.98       3.9     4.1  5.9 -0.7500E+01 -0.1788E+01  0.1679E+01E
 Epicentro: EL PLAYON - SANTANDER                                              3
 ACTION:UPD 16-11-09 19:20 OP:rebc STATUS:               ID:20161016054805 L   I
 OLDACT:DUP 16-10-16 16:53 OP:ar   STATUS:               ID:20161016053744d    3
 2016-10-16-0538-00M.COL___362                                                 6
 STAT SP IPHASW D HRMM SECON CODA AMPLIT PERI AZIMU VELO AIN AR TRES W  DIS CAZ7
 PAM  EZ EP        548 24.90                             158    0.5710 50.7  99 
 PAM  EN ES        548 39.96                             158    0.6010 50.7  99 
 PAM  EZ I         548 42.50        23.1 0.32            159           50.7  99 
 BRR  HZ IP     D  548 24.49                             150   -0.1910 70.5 241 
 BRR  HE ES        548 39.77                             150   -0.2110 70.5 241 
 BRR  HZ I         548 40.23        18.5 0.12            151           70.5 241 
 BAR2 EZ EP        548 26.35                             143   -0.0410 91.1 182 
 BAR2 EZ ES        548 42.46                             143   -0.5810 91.1 182 
 BAR2 EZ I         548 43.87        39.8 0.12            145           91.1 182 
 OCA  HZ EP        548 26.76                             143    0.3510 92.9 349 
 OCA  HN ES        548 42.80                             143   -0.2710 92.9 349 
 OCA  HZ I         548 44.97        16.5 0.16            144           92.9 349 
 PTB  HZ EP        548 33.12                             124   -0.35 9  174 236 
 PTB  HE ES        548 55.79                             124    0.16 9  174 236 
 PTB  HZ I         548 58.67         7.7 0.54            125            174 236 
 SPBC HZ EP        548 38.60                             117    0.16 8  220 208 
 SPBC HN ES        549  4.77                             117    0.29 8  220 208 
 SOCV BZ EP        548 44.11                             112    0.08 8  271  69 
 SOCV BN ES        549 13.68                             112   -0.75 8  271  69 
                                                                                
