 2011  216 0352 33.7 L   6.776 -73.137149.0  RSN 11 0.5 2.4LRSN                1
 GAP=103        1.13       4.0     7.9  7.9 -0.1063E+02  0.9951E+01  0.4606E+00E
 Epicentro: LOS SANTOS - SANTANDER                                             3
 ACTION:UP  11-03-28 15:08 OP:jfem STATUS:               ID:20110216035233 L   I
 2011-02-16-0350-28S.COL___136                                                 6
 STAT SP IPHASW D HRMM SECON CODA AMPLIT PERI AZIMU VELO SNR AR TRES W  DIS CAZ7
 BAR2 SZ IP        352 53.41                             172    -0.310   21 194 
 BAR2 SZ ES   1    353  9.09                             172    -0.1 7   21 194 
 BAR2 SZ I         353  9.89        89.4 0.13                            21 194 
 BTL  SZ IP        352 53.73                             171     0.110   21 317 
 BTL  SZ ES   1    353  9.50                             171     0.2 7   21 317 
 RUS  HZ EP        352 57.35                             145    -0.210   98 177 
 RUS  HN ES   1    353 15.22                             145    -1.0 7   98 177 
 RUS  HZ I         353 17.35        37.5 0.23                            98 177 
 GRA  SZ IP        353  0.21                             137     0.810  128  17 
 GRA  SZ ES   1    353 19.79                             137     0.3 7  128  17 
 GRA  SZ I         353 21.35        42.0 0.54                           128  17 
 OCA  SZ EP   1    353  1.99                             130    -0.5 7  163 353 
 OCA  SZ ES   1    353 24.49                             130    -0.5 7  163 353 
 OCA  SZ I         353 28.76        37.2 0.26                           163 353 
 YOP  SE ES   1    353 27.97                             127     0.9 7  176 153 
 NOR  SZ EP   1    353  9.42                             119    -0.1 6  234 235 
 NOR  SE ES   1    353 37.90                             119     0.4 6  234 235 
 CHI  HZ EP   1    353 11.44                             118     0.1 6  246 196 
 CHI  HZ I         353 14.11        13.6 0.29                           246 196 
 CHI  HE ES   1    353 40.59                             118    -0.1 6  246 196 
 ROSC BN ES   1    353 41.64                             117     0.1 6  251 212 
 RREF HZ EP   1    353 20.27                             111     0.4 5  321 230 
 RREF HZ I         354  5.12        16.7 0.48                           321 230 
 SDV  BZ EP   1    353 23.07                             108    -0.9 5  361  50 
 SDV  BZ I         354  2.40         5.6 0.50                           361  50 
                                                                                
