 2011  216 0857 22.7 L   6.797 -73.108144.0  RSN 15 0.3 2.9LRSN                1
 GAP=105        0.74       2.3     3.5  4.3 -0.1969E+01  0.2985E+01  0.1040E+01E
 Epicentro: LOS SANTOS - SANTANDER                                             3
 ACTION:UP  11-03-28 15:08 OP:jfem STATUS:               ID:20110216085722 L   I
 2011-02-16-0855-18S.COL___136                                                 6
 STAT SP IPHASW D HRMM SECON CODA AMPLIT PERI AZIMU VELO SNR AR TRES W  DIS CAZ7
 BTL  SZ IP        857 42.41                             171     0.310   22 307 
 BTL  SZ ES   1    857 57.53                             171     0.3 7   22 307 
 BAR2 SZ IP        857 42.16                             170     0.010   24 200 
 BAR2 SZ ES   1    857 57.06                             170    -0.3 7   24 200 
 BAR2 SZ I         857 58.47       416.7 0.18                            24 200 
 RUS  HZ IP     C  857 46.15                             143    -0.110  100 178 
 RUS  HN ES   1    858  4.98                             143     0.3 7  100 178 
 RUS  HZ I         858  5.80        60.7 0.22                           100 178 
 GRA  SZ IP        857 48.04                             137     0.310  125  16 
 GRA  SZ I         857 49.35       127.3 0.18                           125  16 
 GRA  SZ ES   1    858  7.15                             137    -0.1 7  125  16 
 OCA  SZ IP        857 50.75                             129    -0.3 9  161 352 
 OCA  SZ ES   1    858 12.82                             129    -0.2 7  161 352 
 OCA  SZ I         858 17.22       100.7 0.29                           161 352 
 YOP  SZ IP        857 52.86                             126     0.4 9  177 154 
 YOP  SN ES   1    858 15.66                             126     0.0 7  177 154 
 YOP  SZ I         858 20.10        42.4 0.39                           177 154 
 NOR  SZ EP   1    857 58.34                             118    -0.4 6  238 235 
 NOR  SN ES   1    858 26.09                             118    -0.7 6  238 235 
 CHI  HZ IP     D  858  0.41                             117     0.0 8  249 196 
 CHI  HN ES   1    858 29.23                             117    -0.6 6  249 196 
 CHI  HZ I         858 37.29        43.5 0.48                           249 196 
 HEL  HZ EP   1    858  3.34                             114     0.0 6  276 256 
 HEL  HN ES   1    858 34.83                             114    -0.1 6  276 256 
 HEL  HZ I         858 41.94        55.9 0.26                           276 256 
 VIL  SZ EP   1    858  6.17                             112     0.2 5  302 191 
 VIL  SN ES   1    858 39.06                             112    -0.6 5  302 191 
 GUY  SZ EP   1    858  7.10                             112     0.4 5  305 235 
 GUY  SZ I         858 49.29        66.5 0.33                           305 235 
 RREF HZ EP   1    858  9.15                             110     0.0 5  325 230 
 RREF HE ES   1    858 45.57                             110     0.2 5  325 230 
 RREF HZ I         858 57.59        50.4 0.35                           325 230 
 DBB  SZ EP   1    858 10.89                             109     0.3 5  344 274 
 TOL  SZ EP   1    858 11.65                             109     0.4 5  346 225 
 TOL  SZ ES   1    858 49.84                             109     0.8 5  346 225 
 SDV  BZ IP     D  858 11.81                             108    -0.6 6  357  50 
 SDV  BZ I         858 12.59        19.7 0.13                           357  50 
                                                                                
