 2017  316 0605 58.3 L   6.783 -73.146138.9  RSN 10 0.4 1.8LRSN                1
 GAP=137        0.96       3.3     3.8  5.7 -0.5016E+00  0.5846E+01  0.3487E+01E
 Epicentro: LOS SANTOS - SANTANDER                                             3
 ACTION:UPD 17-05-25 18:41 OP:jn   STATUS:               ID:20170316060558 L   I
 OLDACT:DUP 17-03-16 18:35 OP:cara STATUS:               ID:20170316055747d    3
 OLDACT:DUP 17-03-16 18:31 OP:cara STATUS:               ID:20170316055746d    3
 2017-03-16-0558-00M.COL___387                                                 6
 STAT SP IPHASW D HRMM SECON CODA AMPLIT PERI AZIMU VELO AIN AR TRES W  DIS CAZ7
 BAR2 EZ IP     C  6 6 17.10                             171    0.0410 21.5 191 
 BAR2 EZ ES        6 6 31.96                             171    0.2610 21.5 191 
 BAR2 EZ I         6 6 33.72         7.4 0.30            170           21.5 191 
 BRR  HZ EP        6 6 18.98                             151    0.2210 72.1 300 
 BRR  HN ES        6 6 35.27                             151    0.5610 72.1 300 
 BRR  HZ I         6 6 39.07        10.9 0.26            151           72.1 300 
 PAM  EZ EP        6 6 20.09                             149    0.2210 78.8  39 
 PAM  EN ES        6 6 36.15                             149   -0.5510 78.8  39 
 PAM  EZ I         6 6 38.97        19.1 0.52            153           78.8  39 
 RUS  HZ EP        6 6 21.08                             143   -0.1610 98.7 176 
 RUS  HN ES        6 6 38.94                             143   -0.1910 98.7 176 
 RUS  HZ I         6 6 40.63         8.4 0.34            145           98.7 176 
 PTB  HZ EP        6 6 23.82                             130   -0.86 9  147 260 
 PTB  HN ES        6 6 44.98                             130   -0.27 9  147 260 
 PTB  HZ I         6 6 48.79         5.9 0.22            131            147 260 
 SPBC HZ EP        6 6 26.28                             128    0.14 9  162 219 
 SPBC HN ES        6 6 47.83                             128   -0.02 9  162 219 
 SPBC HZ I         6 6 51.33        12.5 0.22            129            162 219 
 ZAR  HZ EP        6 6 30.42                             121    0.04 9  205 293 
 ZAR  HN ES        6 6 55.45                             121    0.05 9  205 293 
 ZAR  HZ I         6 7  1.09         7.3 0.50            122            205 293 
 CHI  HZ EP        6 6 36.30                             116    0.88 8  247 195 
 CHI  HN ES        6 7  4.37                             116   -0.01 8  247 195 
 CHI  HZ I         6 7  8.92         2.3 0.38            118            247 195 
 GUY2CHZ EP   4    6 6 42.75                             111    1.28 0  300 235 
 GUY2CHE ES        6 7 14.90                             111   -0.25 7  300 235 
 GUY2CHZ  IAML     6 7 22.25         3.1 0.44                           300 235 
 SJC  HZ EP   4    6 6 51.94                             104   -1.88 0  411 327 
 SJC  HN ES   4    6 7 30.87                             104   -6.26 0  411 327 
 SJC  HZ I         6 7 36.80         2.6 0.54            106            411 327 
                                                                                
