 2017  816 0647 20.4 L   6.820 -73.162144.8  RSN 27 0.5 2.5LRSN                1
 GAP= 64        0.77       1.7     2.1  3.6 -0.3802E+00  0.2409E+01 -0.6622E-01E
 Epicentro: LOS SANTOS - SANTANDER                                             3
 ACTION:UPD 17-09-04 20:20 OP:rebc STATUS:               ID:20170816064720 L   I
 OLDACT:UP  17-08-16 15:55 OP:and  STATUS:               ID:20170816063741d    3
 OLDACT:UP  17-08-16 15:54 OP:and  STATUS:               ID:20170816063741d    3
 OLDACT:UP  17-08-16 15:53 OP:and  STATUS:               ID:20170816063741d    3
 OLDACT:UP  17-08-16 15:49 OP:and  STATUS:               ID:20170816063741d    3
 OLDACT:UP  17-08-16 15:48 OP:and  STATUS:               ID:20170816063741d    3
 OLDACT:UP  17-08-16 15:47 OP:and  STATUS:               ID:20170816063741d    3
 OLDACT:UP  17-08-16 15:47 OP:and  STATUS:               ID:20170816063741d    3
 OLDACT:UP  17-08-16 15:46 OP:and  STATUS:               ID:20170816063741d    3
 OLDACT:UP  17-08-16 15:45 OP:and  STATUS:               ID:20170816063741d    3
 OLDACT:UP  17-08-16 15:43 OP:and  STATUS:               ID:20170816063741d    3
 OLDACT:DUP 17-08-16 15:42 OP:and  STATUS:               ID:20170816063741d    3
 OLDACT:UP  17-08-16 15:40 OP:and  STATUS:               ID:20170816063740d    3
 OLDACT:UP  17-08-16 15:39 OP:and  STATUS:               ID:20170816063740d    3
 OLDACT:UP  17-08-16 15:38 OP:and  STATUS:               ID:20170816063740d    3
 OLDACT:UP  17-08-16 15:36 OP:and  STATUS:               ID:20170816063740d    3
 OLDACT:UP  17-08-16 15:34 OP:and  STATUS:               ID:20170816063740d    3
 OLDACT:UP  17-08-16 15:32 OP:and  STATUS:               ID:20170816063740d    3
 OLDACT:UP  17-08-16 15:31 OP:and  STATUS:               ID:20170816063740d    3
 OLDACT:UP  17-08-16 15:30 OP:and  STATUS:               ID:20170816063740d    3
 OLDACT:UP  17-08-16 15:27 OP:and  STATUS:               ID:20170816063740d    3
 OLDACT:UP  17-08-16 15:26 OP:and  STATUS:               ID:20170816063740d    3
 OLDACT:UP  17-08-16 15:23 OP:and  STATUS:               ID:20170816063740d    3
 OLDACT:UP  17-08-16 15:23 OP:and  STATUS:               ID:20170816063740d    3
 OLDACT:UP  17-08-16 15:23 OP:and  STATUS:               ID:20170816063740d    3
 OLDACT:UP  17-08-16 15:18 OP:and  STATUS:               ID:20170816063740d    3
 OLDACT:DUP 17-08-16 15:16 OP:and  STATUS:               ID:20170816063740d    3
 OLDACT:UP  17-08-16 15:15 OP:and  STATUS:               ID:20170816063739     3
 OLDACT:UP  17-08-16 15:15 OP:and  STATUS:               ID:20170816063739     3
 OLDACT:UP  17-08-16 15:13 OP:and  STATUS:               ID:20170816063739     3
 OLDACT:REG 17-08-16 13:03 OP:and  STATUS:               ID:20170816063739     3
 2017-08-16-0638-00M.COL___413                                                 6
 STAT SP IPHASW D HRMM SECON CODA AMPLIT PERI AZIMU VELO AIN AR TRES W  DIS CAZ7
 BAR2 EZ IP     D  647 39.94                             170   -0.0310 25.3 185 
 BAR2 EZ ES        647 54.87                             170   -0.3510 25.3 185 
 BAR2 EZ I         647 57.73        71.9 0.48            168           25.3 185 
 BRR  HZ IP     D  647 41.73                             153    0.4110 68.6 298 
 BRR  HN ES   2    647 58.82                             153    1.21 5 68.6 298 
 BRR  HZ I         648  2.74        36.1 0.14            150           68.6 298 
 PAM  EZ IP     D  647 42.70                             151    0.2010 76.9  42 
 PAM  EN ES        647 59.75                             151    0.0310 76.9  42 
 PAM  EZ I         648  2.08        76.7 0.50            154           76.9  42 
 RUS  HZ EP        647 43.83                             143   -0.4210  103 175 
 RUS  HN ES        648  2.46                             143   -0.3710  103 175 
 RUS  HZ I         648  3.76        48.2 0.32            144            103 175 
 TAM  HZ IP     D  647 48.31                             130    0.07 9  157 106 
 TAM  HN ES        648 10.22                             130    0.29 9  157 106 
 SPBC HZ EP        647 48.79                             129   -0.11 9  164 218 
 SPBC HN ES        648 11.00                             129   -0.12 9  164 218 
 SPBC HZ I         648 13.32        67.0 0.26            128            164 218 
 YPLC HZ EP        647 50.29                             126   -0.13 9  180 151 
 YPLC HN ES        648 14.32                             126    0.50 9  180 151 
 YPLC HZ I         648 15.24        56.2 0.28            128            180 151 
 ZAR  HZ EP        647 52.36                             122   -0.18 9  202 292 
 ZAR  HN ES        648 17.10                             122   -0.50 9  202 292 
 ZAR  HZ I         648 26.84        24.1 0.18            122            202 292 
 TABC EZ EP   3    647 57.43                             119    1.21 2  231 210 
 TABC EZ ES        648 24.14                             119    0.00 8  231 210 
 TABC EZ I         648 31.33        22.0 0.40            119            231 210 
 NOR  HZ EP        647 55.86                             118   -0.22 8  235 234 
 NOR  HN ES        648 24.30                             118    0.42 8  235 234 
 NOR  HZ I         648 25.32        22.3 0.15            118            235 234 
 CHI  HZ IP     D  647 58.15                             117   -0.10 8  250 195 
 CHI  HN ES        648 27.12                             117   -0.63 8  250 195 
 CHI  HZ I         648 30.90        14.7 0.34            118            250 195 
 ROSC BZ EP   3    648  0.06                             116    1.46 2  254 210 
 ROSC BN ES        648 28.95                             116    0.58 8  254 210 
 ROSC BZ I         648 38.09        26.5 0.40            117            254 210 
 HEL  HZ EP        648  1.07                             115    0.62 8  271 255 
 HEL  HN ES        648 31.93                             115    0.26 8  271 255 
 HEL  HZ I         648 39.97        15.6 0.28            114            271 255 
 GUY2CHZ EP   3    648  5.20                             112    1.24 2  301 234 
 GUY2CHN ES   4    648 41.50                             112    3.57 0  301 234 
 GUY2CHZ I         648 45.11        14.4 0.30                           301 234 
 VIL  EZ EP        648  3.58                             112   -0.42 7  305 191 
 VIL  EN ES        648 37.85                             112   -0.14 7  305 191 
 VIL  EZ I         648 41.04        20.6 0.38            113            305 191 
 PTGC HZ IP   3 C  648  2.97                             111   -1.57 2  311 158 
 PTGC HN ES   4    648 36.30                             111   -2.66 0  311 158 
 PTGC HZ I         648 41.30        25.3 0.30            113            311 158 
 LL6C HZ EP        648  5.28                             110   -0.54 7  323 358 
 LL6C HN ES        648 41.13                             110   -0.10 7  323 358 
 LL6C HZ I         648 46.85         7.1 0.42            111            323 358 
 ELA  HZ EP   9    648  9.06                             110    1.82 0  329 229 
 ELA  HN ES        648 45.31                             110   -0.27 7  329 229 
 ELA  HZ I         648 59.32        12.0 0.50            110            329 229 
 DBB  EZ EP        648  8.23                             109    0.60 7  338 274 
 DBB  EN ES   3    648 42.97                             109   -1.48 2  338 274 
 DBB  EZ I         648 46.47         6.7 0.14            109            338 274 
 ARGC HZ EP   4    648 11.68                             108    1.95 0  357 341 
 ARGC HN ES        648 48.49                             108    0.31 6  357 341 
 ARGC HZ I         649  0.18         5.7 0.26            109            357 341 
 ANIL HZ IP   3 D  648 11.49                             108    1.26 2  358 224 
 ANIL HN ES   4    648 51.84                             108    2.77 0  358 224 
 ANIL HZ I         648 56.76        33.6 0.30            109            358 224 
 PRA  HZ EP        648 13.60                             106   -0.43 6  393 209 
 PRA  HN ES        648 56.15                             106    0.31 6  393 209 
 PRA  HZ I         649  1.99        11.1 0.20            107            393 209 
 ORTC HZ EP        648 14.86                             106    0.47 6  396 216 
 ORTC HN ES   3    648 57.77                             106    1.28 1  396 216 
 ORTC HZ I         649  3.73        10.2 0.36            107            396 216 
 PAL  HZ EP   1    648 15.43                             106   -0.07 4  405 239 
 PAL  HN ES   1    648 58.05                             106   -0.41 4  405 239 
 PAL  HZ I         649  1.44         6.4 0.22            106            405 239 
 SJC  HZ EP   4    648 14.10                             106   -1.52 0  406 327 
 SJC  HN ES   4    648 54.82                             106   -3.85 0  406 327 
 SJC  HZ I         649  2.77         4.8 0.46            106            406 327 
 YOT  HZ EP        648 23.22                             103   -0.23 5  472 229 
 YOT  HN ES   2    649 11.90                             103   -0.71 2  472 229 
 SMAR HZ EP   1    648 25.36                             102   -0.60 3  494 346 
 SMAR HN ES   4    649 13.74                             102   -3.34 0  494 346 
                                                                                
