 2017 1116 0813  8.9 L   6.811 -73.163148.0  RSN 11 0.5 1.8LRSN                1
 GAP=117        1.26       4.4     4.9  7.0  0.2803E+01  0.1078E+02  0.3623E+01E
 Epicentro: LOS SANTOS - SANTANDER                                             3
 ACTION:UPD 17-12-12 19:56 OP:rebc STATUS:               ID:20171116081308 L   I
 OLDACT:REG 17-11-16 13:50 OP:y    STATUS:               ID:20171116080741     3
 2017-11-16-0808-00M.COL___417                                                 6
 STAT SP IPHASW D HRMM SECON CODA AMPLIT PERI AZIMU VELO AIN AR TRES W  DIS CAZ7
 BAR2 EZ EP        813 28.86                             170   -0.0110 24.3 185 
 BAR2 EZ ES        813 44.13                             170   -0.2710 24.3 185 
 BAR2 EZ I         813 45.48        28.0 0.16            169           24.3 185 
 PAM  EZ EP        813 31.67                             151    0.2510 77.7  41 
 PAM  EN ES        813 49.21                             151    0.2610 77.7  41 
 PAM  EZ I         813 51.04         5.2 0.50            155           77.7  41 
 RUS  HZ EP        813 32.81                             144   -0.2110  102 175 
 RUS  HN ES        813 51.44                             144   -0.3510  102 175 
 RUS  HZ I         813 52.90        16.2 0.30            145            102 175 
 PTB  HZ EP        813 35.55                             133   -0.40 9  146 258 
 PTB  HN ES        813 56.60                             133   -0.41 9  146 258 
 PTB  HZ I         814  2.27         5.4 0.66            132            146 258 
 SPBC HN EP        813 38.05                             129    0.45 9  163 218 
 SPBC HE ES        814  0.84                             129    0.90 9  163 218 
 ZAR  HZ EP        813 42.36                             123    1.05 9  202 292 
 ZAR  HN ES        814  6.67                             123    0.12 9  202 292 
 ZAR  HZ I         814 12.86         8.0 0.64            123            202 292 
 CHI  HZ EP        813 46.96                             117    0.11 8  249 195 
 CHI  HN ES        814 16.49                             117    0.08 8  249 195 
 CHI  HZ I         814 22.48         2.5 0.34            118            249 195 
 URE  HZ EP        813 49.48                             114   -0.39 7  282 292 
 URE  HE ES        814 20.68                             114   -1.12 7  282 292 
 URE  HZ I         814 30.22         4.7 0.30            114            282 292 
 GUY2CHZ EP        813 53.33                             113    0.77 7  300 234 
 GUY2CHZ I         814 35.04         2.5 0.32                           300 234 
 PTGC HZ EP        813 51.99                             112   -1.13 7  311 158 
 PTGC HN ES   4    814 25.58                             112   -1.99 0  311 158 
 PRA  HZ EP        814  2.31                             107   -0.25 6  392 209 
 PRA  HN ES   4    814 45.66                             107    1.28 0  392 209 
 PRA  HZ I         814 51.08         4.2 0.34            108            392 209 
                                                                                
