 2016  916 0407 36.5 L   6.783 -73.148146.5  RSN  7 0.4 1.5LRSN                1
 GAP=137        1.03       4.3     4.5  6.6 -0.6984E+00  0.8154E+01  0.1403E+00E
 Epicentro: LOS SANTOS - SANTANDER                                             3
 ACTION:UPD 17-08-17 21:12 OP:lp   STATUS:               ID:20160916040736 L   I
 OLDACT:DUP 16-09-17 03:37 OP:dani STATUS:               ID:20160916035734d    3
 2016-09-16-0358-00M.COL___354                                                 6
 STAT SP IPHASW D HRMM SECON CODA AMPLIT PERI AZIMU VELO AIN AR TRES W  DIS CAZ7
 BAR2 EZ ES        4 8 10.72                             171   -0.8010 21.4 190 
 BAR2 EZ I         4 8 14.06         8.8 0.36            170           21.4 190 
 BRR  HZ EP        4 7 58.08                             152    0.3210 71.9 300 
 BRR  HN ES        4 8 14.84                             152    0.4910 71.9 300 
 BRR  HZ I         4 8 17.86         5.3 0.26            151           71.9 300 
 PAM  EZ EP        4 7 58.96                             150    0.0810 79.0  39 
 PAM  EE ES        4 8 16.28                             150   -0.0710 79.0  39 
 PAM  EZ I         4 8 18.49         3.8 0.70            155           79.0  39 
 RUS  HZ EP        4 8  0.07                             144   -0.1110 98.7 176 
 RUS  HN ES        4 8 19.22                             144    0.5710 98.7 176 
 RUS  HZ I         4 8 19.97         3.9 0.28            147           98.7 176 
 PTB  HZ EP        4 8  2.77                             132   -0.70 9  147 260 
 PTB  HE ES        4 8 24.70                             132    0.20 9  147 260 
 PTB  HZ I         4 8 26.96         2.8 0.40            133            147 260 
 SPBC HZ EP        4 8  5.10                             129    0.21 9  162 219 
 SPBC HE ES        4 8 26.85                             129   -0.19 9  162 219 
 SPBC HZ I         4 8 34.01         5.4 0.25            131            162 219 
 ZAR  HZ EP        4 8  9.11                             122    0.07 9  205 293 
 ZAR  HE ES        4 8 34.26                             122   -0.16 9  205 293 
 ZAR  HZ I         4 8 40.98         4.5 0.11            124            205 293 
                                                                                
