 2013  116 0037 15.4 L   6.779 -73.157146.2  RSN  6 0.4 1.6LRSN                1
 GAP=235        0.85       6.3     7.3  8.1  0.2511E+02  0.1291E+02  0.1303E+02E
 Epicentro: LOS SANTOS - SANTANDER                                             3
 ACTION:UPD 13-02-15 09:14 OP:ep   STATUS:               ID:20130116003715 L   I
 2013-01-16-0030-00M.COL___241                                                 6
 STAT SP IPHASW D HRMM SECON CODA AMPLIT PERI AZIMU VELO AIN AR TRES W  DIS CAZ7
 BAR2 SZ EP   1    037 34.92                             172   -0.09 7 20.9 188 
 BAR2 SZ ES   1    037 49.87                             172   -0.46 7 20.9 188 
 BAR2 SZ I         037 51.14        14.5 0.26            157           20.9 188 
 BRR  HZ EP   1    037 36.91                             153    0.33 7 71.3 301 
 BRR  HN ES   1    037 53.83                             153    0.72 7 71.3 301 
 RUS  HZ EP   1    037 38.78                             145   -0.24 7 98.4 175 
 RUS  HN ES   1    037 57.48                             145    0.03 7 98.4 175 
 RUS  HZ I         037 59.19         2.1 0.40            138           98.4 175 
 PTB  HZ EP   1    037 41.67                             132   -0.57 7  146 260 
 PTB  HN ES   1    038  2.57                             132   -0.61 7  146 260 
 PTB  HZ I         038  8.82         7.4 0.48            124            146 260 
 ZAR  HN ES   1    038 13.33                             122    0.19 6  204 293 
 ZAR  HZ I         038 23.71         5.2 0.40            118            204 293 
 CHI  HZ EP   1    037 53.04                             117    0.21 6  246 195 
 CHI  HN ES   1    038 22.76                             117    0.73 6  246 195 
 CHI  HZ I         038 30.99         1.6 0.59            114            246 195 
                                                                                
