 2016  716 0518 50.4 L   6.795 -73.192151.4  RSN  4 0.4 1.2LRSN                1
 GAP=232        0.95       6.0     7.1  9.6  0.1310E+02 -0.6508E+01 -0.2327E+01E
 Epicentro: ZAPATOCA - SANTANDER                                               3
 ACTION:UPD 17-03-29 16:51 OP:lp   STATUS:               ID:20160716051850 L   I
 OLDACT:REG 16-07-16 12:18 OP:lv   STATUS:               ID:20160716051759     3
 2016-07-16-0517-59S.COL___328                                                 6
 STAT SP IPHASW D HRMM SECON CODA AMPLIT PERI AZIMU VELO AIN AR TRES W  DIS CAZ7
 BRR  HZ EP        519 12.05                             155    0.1510 67.0 301 
 BRR  HN ES        519 28.93                             155    0.2310 67.0 301 
 BRR  HZ I         519 32.61         3.3 0.15            154           67.0 301 
 RUS  HZ EP        519 14.43                             145   -0.2410  101 173 
 RUS  HE ES        519 33.46                             145   -0.1710  101 173 
 RUS  HZ I         519 34.69         1.8 0.20            146            101 173 
 PTB  HZ EP        519 17.48                             134    0.13 9  143 259 
 PTB  HN ES        519 37.71                             134   -0.68 9  143 259 
 PTB  HZ I         519 40.73         2.1 0.10            134            143 259 
 SPBC HN ES        519 41.89                             131    0.61 9  160 218 
 SPBC HZ I         519 48.38         2.3 0.11            131            160 218 
                                                                                
