 2013 1216 0925 31.9 L   6.791 -73.160148.7  RSN  6 0.5 1.2LRSN                1
 GAP=181        1.05       6.1     8.0 10.3  0.1968E+01  0.1201E+02 -0.1352E+02E
 Epicentro: LOS SANTOS - SANTANDER                                             3
 ACTION:UPD 14-01-13 10:18 OP:ep   STATUS:               ID:20131216092531 L   I
 OLDACT:REG 13-12-16 06:42 OP:jn   STATUS:               ID:20131216092000     3
 2013-12-16-0920-00M.COL___285                                                 6
 STAT SP IPHASW D HRMM SECON CODA AMPLIT PERI AZIMU VELO AIN AR TRES W  DIS CAZ7
 BAR2 SZ EP        925 51.99                             171    0.0910 22.1 186 
 BAR2 SZ ES        926  7.21                             171   -0.2510 22.1 186 
 BAR2 SZ I         926  8.17         6.7 0.18            169           22.1 186 
 BRR  HZ EP   1    925 53.94                             153    0.59 7 70.3 300 
 BRR  HN ES        926 10.78                             153    0.7210 70.3 300 
 RUS  HN ES   2    926 14.20                             145   -0.41 5 99.7 175 
 RUS  HZ I         926 15.97         1.8 0.26            144           99.7 175 
 PTB  HZ EP   1    925 59.21                             133    0.22 7  146 259 
 PTB  HN ES        926 19.45                             133   -0.63 9  146 259 
 PTB  HZ I         926 22.47         1.6 0.10            132            146 259 
 OCA  HN ES   1    926 22.27                             130   -0.61 7  161 354 
 SML  HE ES   1    926 37.29                             118   -0.19 6  244 336 
                                                                                
