 2016  116 0906 33.4 L   6.789 -73.190131.5  RSN  6 0.5 1.5LRSN                1
 GAP=131        1.07       4.3     5.2  8.7 -0.2000E+01  0.1938E+02 -0.1019E+02E
 Epicentro: ZAPATOCA - SANTANDER                                               3
 ACTION:UPD 16-03-09 23:25 OP:cam  STATUS:               ID:20160116090633 L   I
 OLDACT:UP  16-01-16 18:59 OP:mh   STATUS:               ID:20160116085336d    3
 OLDACT:DUP 16-01-16 18:55 OP:mh   STATUS:               ID:20160116085336d    3
 OLDACT:UP  16-01-16 18:55 OP:mh   STATUS:               ID:20160116085335     3
 OLDACT:REG 16-01-16 14:49 OP:mh   STATUS:               ID:20160116085335     3
 2016-1-16-858_085800_840.mseed                                                6
 STAT SP IPHASW D HRMM SECON CODA AMPLIT PERI AZIMU VELO AIN AR TRES W  DIS CAZ7
 BAR2 EZ EP        9 6 51.53                             170    0.2610 21.8 178 
 BAR2 EZ ES        9 7  5.15                             170   -0.0710 21.8 178 
 BAR2 EZ I         9 7  7.81        10.4 0.12            170           21.8 178 
 PAM  EN EP        9 6 54.68                             146    0.3110 81.5  42 
 PAM  EZ ES        9 7 11.17                             146    0.4310 81.5  42 
 PAM  EN I         9 7 11.93         8.4 0.22            153           81.5  42 
 RUS  HZ EP   1    9 6 54.72                             141   -0.98 7 99.9 173 
 RUS  HE ES        9 7 13.02                             141   -0.1010 99.9 173 
 RUS  HZ I         9 7 15.83         2.7 0.28            145           99.9 173 
 PTB  HZ EP   1    9 6 58.64                             129   -0.10 7  143 259 
 PTB  HN ES   1    9 7 18.60                             129    0.07 7  143 259 
 PTB  HZ I         9 7 24.86         2.8 0.26            130            143 259 
 OCA  HZ EP   1    9 7  0.96                             126    0.28 7  161 355 
 OCA  HN ES        9 7 21.01                             126   -0.97 9  161 355 
 OCA  HZ I         9 7 24.73         8.5 0.54            129            161 355 
 ZAR  HZ EP        9 7  4.94                             119    0.44 9  200 293 
 ZAR  HN ES        9 7 28.89                             119    0.12 9  200 293 
 ZAR  HZ I         9 7 35.65         5.2 0.26            121            200 293 
                                                                                
