 2014  316 0002 40.2 L   6.325 -73.601115.0  RSN  8 0.4 2.7LRSN                1
 GAP=105        0.66       4.1     3.3  6.5 -0.1294E+00  0.8172E+01  0.2650E+00E
 Epicentro: SANTA HELENA DEL OPON - SANTANDER                                  3
 OLDACT:REG 14-03-16 07:26 OP:fm   STATUS:               ID:20140315235943     3
 ACTION:UPD 14-04-09 23:17 OP:nd   STATUS:               ID:20140316000240 L   I
 OLDACT:UP  14-03-16 07:59 OP:fm   STATUS:               ID:20140315235943     3
 2014-03-15-2359-43M.COL___254                                                 6
 STAT SP IPHASW D HRMM SECON CODA AMPLIT PERI AZIMU VELO AIN AR TRES W  DIS CAZ7
 BAR2 SZ EP        0 2 57.56                             153    0.1010 54.9  57 
 BAR2 SZ ES   1    0 3 11.21                             153    0.29 7 54.9  57 
 BAR2 SZ I         0 3 18.09       407.3 2.04            151           54.9  57 
 RUS  HZ EP   1    0 2 58.84                             145   -0.23 7 74.7 130 
 RUS  HE ES   2    0 3 13.41                             145   -0.38 5 74.7 130 
 SPBC HE ES   2    0 3 15.56                             139    0.61 5 90.9 215 
 PTB  HZ EP   2    0 2 59.35                             137   -0.82 5 97.5 284 
 PTB  HE ES   1    0 3 15.14                             137   -0.60 7 97.5 284 
 PTB  SZ I         0 3 17.99        67.1 2.06            134           97.5 284 
 NOR  HZ EP   2    0 3  6.15                             121   -0.41 5  164 239 
 NOR  SZ I         0 3 26.51       121.0 2.46            115            164 239 
 NOR  HE ES   1    0 3 27.36                             121    0.24 7  164 239 
 ZAR  HZ EP   1    0 3  9.43                             116    0.16 7  190 313 
 ZAR  HN ES   1    0 3 32.23                             116    0.29 7  190 313 
 ZAR  SZ I         0 3 33.65        11.7 1.94            114            190 313 
 HEL  HZ EP   1    0 3 12.49                             114    0.08 6  214 266 
 HEL  HN ES   4    0 3 39.39                             114    1.87 0  214 266 
 GUY2CHZ EP   1    0 3 14.65                             112    0.27 6  230 238 
 GUY2CHN ES   4    0 3 43.75                             112    2.71 0  230 238 
 GUY2CSZ I         0 3 44.37        86.2 3.70                           230 238 
                                                                                
