 2017  716 0042 54.4 L   6.766 -73.122141.2  RSN 12 0.5 1.7LRSN                1
 GAP=115        0.86       3.0     2.9  5.5  0.8181E+00  0.4958E+01  0.2134E+01E
 Epicentro: LOS SANTOS - SANTANDER                                             3
 ACTION:UPD 17-08-30 15:33 OP:rebc STATUS:               ID:20170716004254 L   I
 OLDACT:REG 17-07-16 11:54 OP:dhb  STATUS:               ID:20170716003626     3
 2017-07-16-0038-00M.COL___389                                                 6
 STAT SP IPHASW D HRMM SECON CODA AMPLIT PERI AZIMU VELO AIN AR TRES W  DIS CAZ7
 BAR2 EZ IP     C  043 13.27                             172   -0.1910 20.3 199 
 BAR2 EZ ES   1    043 28.20                             172   -0.10 7 20.3 199 
 BAR2 EZ I         043 30.79        22.5 0.31            168           20.3 199 
 BRR  HZ EP        043 15.34                             150   -0.0010 75.4 300 
 BRR  HN ES        043 31.99                             150    0.3410 75.4 300 
 BRR  HZ I         043 33.36         8.8 0.09            149           75.4 300 
 PAM  EZ IP     C  043 16.25                             150   -0.0010 78.8  36 
 PAM  EN ES        043 33.18                             150   -0.0910 78.8  36 
 PAM  EZ I         043 35.02         7.7 0.54            155           78.8  36 
 RUS  HZ IP     C  043 17.18                             144   -0.2710 96.6 177 
 RUS  HN ES        043 35.69                             144    0.2810 96.6 177 
 RUS  HZ I         043 36.69         5.1 0.17            146           96.6 177 
 PTB  HZ EP        043 20.55                             131   -0.66 9  150 260 
 PTB  HN ES        043 41.98                             131   -0.12 9  150 260 
 PTB  HZ I         043 48.38         4.7 0.10            130            150 260 
 SPBC HZ EP        043 22.35                             128   -0.12 9  162 221 
 SPBC HE ES        043 44.37                             128    0.03 9  162 221 
 SPBC HZ I         043 51.05         8.7 0.20            129            162 221 
 YPLC HN ES        043 46.49                             127    0.41 9  172 151 
 ZAR  HZ EP        043 27.85                             121    0.85 8  208 293 
 ZAR  HE ES        043 52.23                             121   -0.16 8  208 293 
 ZAR  HZ I         044  1.54         5.5 0.13            122            208 293 
 NOR  HZ EP   2    043 30.00                             118    0.10 4  235 236 
 NOR  HN ES        043 57.03                             118   -0.53 8  235 236 
 NOR  HZ I         044  3.51         4.0 0.18            119            235 236 
 HEL  HZ EP   2    043 34.93                             114    0.32 4  274 257 
 HEL  HN ES        044  6.33                             114    0.39 8  274 257 
 HEL  HZ I         044 11.10         3.9 0.26            115            274 257 
 GUY2CHZ EP   3 C  043 39.77                             112    1.93 2  301 236 
 GUY2CHE ES   3    044 13.66                             112    1.97 2  301 236 
 GUY2CHZ I         044 19.80         4.4 0.48                           301 236 
 PTGC HN ES   2    044 10.03                             111   -1.20 4  304 159 
                                                                                
