 2011  616 0126 50.1 L   7.540 -73.340120.3  RSN  5 0.1 1.3LRSN                1
 GAP=197        0.34       4.9     4.7  5.0 -0.1505E+02  0.2821E+01  0.3848E+01E
 Epicentro: EL PLAYON - SANTANDER                                              3
 ACTION:UP  11-07-14 19:05 OP:ep   STATUS:               ID:20110616012650 L   I
 2011-06-16-0121-21S.COL___138                                                 6
 STAT SP IPHASW D HRMM SECON CODA AMPLIT PERI AZIMU VELO SNR AR TRES W  DIS CAZ7
 BRR  HZ EP   1    127  8.14                             150     0.1 7   63 221 
 BRR  HE ES   2    127 21.95                             150    -0.1 5   63 221 
 BRR  HZ I         127 22.87         4.7 0.26                            63 221 
 BRI  SZ EP   2    127  8.10                             151    -0.2 5   63  72 
 BRI  SZ I         127 25.67         4.7 0.37                            63  72 
 GRA  SZ EP   1    127  8.78                             148     0.0 7   70  57 
 GRA  SZ ES   1    127 23.41                             148     0.1 7   70  57 
 GRA  SZ I         127 24.05         5.3 0.27                            70  57 
 PAM  SZ EP   2    127  9.33                             147    -0.2 5   74 107 
 PAM  SE ES   2    127 24.55                             147     0.0 5   74 107 
 BAR2 SZ EP   1    127 11.71                             136     0.1 7  106 171 
 BAR2 SZ I         127 11.86         4.1 0.12                           106 171 
                                                                                
