 2013  716 0704 40.5 L   6.797 -73.108144.3  RSN  9 0.4 2.0LRSN                1
 GAP=187        1.00       3.5     5.6  6.5  0.3633E+01  0.6284E+01 -0.1653E+01E
 Epicentro: LOS SANTOS - SANTANDER                                             3
 ACTION:UPD 13-08-12 10:38 OP:ep   STATUS:               ID:20130716070441dL   I
 OLDACT:DUP 13-07-16 11:18 OP:mh   STATUS:               ID:20130716070001d    3
 OLDACT:UP  13-07-16 11:17 OP:mh   STATUS:               ID:20130716070000     3
 OLDACT:REG 13-07-16 08:03 OP:mh   STATUS:               ID:20130716070000     3
 2013-07-16-0700-00M.COL___263                                                 6
 STAT SP IPHASW D HRMM SECON CODA AMPLIT PERI AZIMU VELO AIN AR TRES W  DIS CAZ7
 BAR2 SZ EP   1    7 5  0.19                             170    0.21 7 24.0 200 
 BAR2 SZ ES   1    7 5 14.82                             170   -0.34 7 24.0 200 
 BAR2 SZ I         7 5 15.76        17.5 0.16            172           24.0 200 
 GIR2 SZ EP        7 5  0.42                             167    0.3810 32.6 343 
 GIR2 SZ I         7 5  0.75        12.3 0.07            164           32.6 343 
 GIR2 SZ ES   1    7 5 14.76                             167   -0.52 7 32.6 343 
 BRR  HZ IP     D  7 5  2.19                             151    0.4710 75.0 297 
 BRR  HN ES        7 5 19.10                             151    0.8410 75.0 297 
 BRR  HZ I         7 5 23.74        12.5 0.14            150           75.0 297 
 RUS  HZ EP        7 5  4.34                             144    0.2710  100 178 
 RUS  HN ES        7 5 22.13                             144   -0.3210  100 178 
 RUS  HN I         7 5 23.90        14.9 0.22            148            100 178 
 PTB  HZ EP        7 5  7.00                             131   -0.72 9  152 259 
 PTB  HE ES   1    7 5 28.65                             131   -0.30 7  152 259 
 PTB  HZ I         7 5 29.58         4.3 0.18            132            152 259 
 OCA  HN ES   1    7 5 30.47                             129   -0.38 7  161 352 
 OCA  HN I         7 5 34.12        60.5 0.46            130            161 352 
 SPBC HZ EP        7 5  9.05                             128   -0.07 9  166 220 
 SPBC HE ES        7 5 31.45                             128    0.02 9  166 220 
 ZAR  HZ EP   1    7 5 13.53                             122    0.26 6  208 292 
 ZAR  HE ES        7 5 38.78                             122   -0.04 8  208 292 
 ZAR  HZ I         7 5 44.87        11.0 0.40            122            208 292 
 SML  HZ EP   1    7 5 17.20                             117   -0.08 6  246 334 
 SML  HE ES        7 5 45.42                             117   -0.54 8  246 334 
 SML  HE I         7 5 50.37        17.3 0.10            118            246 334 
                                                                                
