 2011  316 0838 54.1 L   6.793 -73.094148.0  RSN 16 0.4 3.7LRSN                1
 GAP=105        0.94       3.0     4.6  5.0 -0.3262E+01  0.2776E+01  0.2850E+01E
 Epicentro: LOS SANTOS - SANTANDER                                             3
 ACTION:UP  11-06-16 14:34 OP:jfem STATUS:               ID:20110316083854 L   I
 2011-03-16-0835-45S.COL___138                                                 6
 STAT SP IPHASW D HRMM SECON CODA AMPLIT PERI AZIMU VELO SNR AR TRES W  DIS CAZ7
 BTL  SZ IP        839 14.35                             171     0.410   24 306 
 BAR2 SZ IP        839 14.17                             170     0.210   24 204 
 BAR2 SZ ES   1    839 29.84                             170     0.3 7   24 204 
 BAR2 SZ I         839 32.22      1166.6 0.55                            24 204 
 BTL  SZ ES   1    839 29.85                             171     0.3 7   24 306 
 GIR2 SZ IP        839 14.23                             167     0.210   33 341 
 GIR2 SZ ES   1    839 29.11                             167    -0.6 7   33 341 
 RUS  HZ IP     D  839 18.01                             144     0.010  100 179 
 RUS  HZ I         839 19.79       411.3 0.57                           100 179 
 RUS  HN ES   1    839 36.32                             144    -0.3 7  100 179 
 GUE  SZ EP   1    839 18.18                             140    -0.8 7  116   9 
 GRA  SZ EP        839 19.95                             138     0.510  125  15 
 GRA  SZ ES   2    839 38.69                             138    -0.5 5  125  15 
 GRA  SZ I         839 42.29       584.0 0.35                           125  15 
 OCA  SZ EP   1    839 22.46                             130    -0.2 7  162 351 
 OCA  SZ ES   1    839 45.15                             130     0.1 7  162 351 
 OCA  SZ I         839 49.38      1058.5 0.35                           162 351 
 YOP  SZ IP        839 24.62                             127     0.6 9  176 155 
 YOP  SN ES   1    839 46.87                             127    -0.4 7  176 155 
 NOR  SZ EP        839 29.93                             118    -0.5 8  239 236 
 NOR  SN ES   1    839 58.22                             118    -0.5 6  239 236 
 CHI  HZ IP     D  839 31.76                             117    -0.2 8  249 196 
 CHI  HN ES   1    840  1.62                             117     0.1 6  249 196 
 CHI  HZ I         840 10.47       343.5 0.60                           249 196 
 HEL  HZ EP   1    839 35.35                             115     0.4 6  277 256 
 HEL  HE ES   1    840  6.44                             115    -0.5 6  277 256 
 HEL  HZ I         840 13.48       424.2 0.36                           277 256 
 VIL  SZ EP        839 37.12                             112    -0.5 7  304 193 
 VIL  SN ES   1    840 11.69                             112     0.1 5  304 193 
 GUY  SZ EP        839 38.92                             112     0.6 7  306 236 
 GUY  SN ES   1    840 12.92                             112     0.2 5  306 236 
 SDV  BZ IP     C  839 43.25                             109    -0.5 6  357  49 
 SDV  BZ I         839 44.70       132.0 0.36                           357  49 
 PRA  HZ EP        839 47.60                             107    -0.3 6  394 210 
 HORQ SZ EP   1    840  5.75                             101     0.7 3  536 227 
 HORQ SZ I         841 15.83        28.4 0.66                           536 227 
                                                                                
