 2016 1016 0920  2.2 L   7.450 -73.187127.4  RSN  5 0.4 1.4LRSN                1
 GAP=226        0.91       7.1     5.3  6.9 -0.1732E+02  0.1105E+02 -0.4553E-01E
 Epicentro: EL PLAYON - SANTANDER                                              3
 ACTION:UPD 16-11-09 19:20 OP:rebc STATUS:               ID:20161016092002 L   I
 OLDACT:REG 16-10-16 14:37 OP:ar   STATUS:               ID:20161016091745     3
 2016-10-16-0918-00M.COL___359                                                 6
 STAT SP IPHASW D HRMM SECON CODA AMPLIT PERI AZIMU VELO AIN AR TRES W  DIS CAZ7
 PAM  EZ EP        920 21.52                             155    0.3210 55.2 103 
 PAM  EN ES        920 35.51                             155   -0.5010 55.2 103 
 PAM  EZ I         920 38.36         3.8 0.40            155           55.2 103 
 BRR  HZ EP        920 21.36                             150    0.0810 69.3 237 
 BRR  HN ES        920 36.58                             150    0.4210 69.3 237 
 BRR  HZ I         920 37.17         7.9 0.10            147           69.3 237 
 BAR2 EZ EP        920 23.71                             141    0.3110 94.9 180 
 BAR2 EZ ES        920 39.89                             141   -0.0410 94.9 180 
 BAR2 EZ I         920 40.73         8.9 0.14            138           94.9 180 
 PTB  HZ EP        920 30.11                             123   -0.12 9  173 234 
 PTB  HN ES        920 51.54                             123   -0.54 9  173 234 
 PTB  HZ I         920 55.83         2.4 0.14            122            173 234 
 SPBC HZ EP        920 35.08                             116   -0.46 8  222 206 
 SPBC HN ES        921  1.90                             116    0.36 8  222 206 
 SPBC HZ I         921  8.62         2.1 0.20            115            222 206 
                                                                                
