 2012 1216 0436 10.4 L   6.781 -73.172146.5  RSN  6 0.3 1.1LRSN                1
 GAP=134        0.56       4.2     4.3  5.5 -0.4185E+01  0.6866E+01  0.1559E+00E
 Epicentro: LOS SANTOS - SANTANDER                                             3
 ACTION:UPD 13-01-04 14:28 OP:ep   STATUS:               ID:20121216043610 L   I
 2012-12-16-0430-00M.COL___239                                                 6
 STAT SP IPHASW D HRMM SECON CODA AMPLIT PERI AZIMU VELO AIN AR TRES W  DIS CAZ7
 BAR2 SZ ES   1    436 44.94                             171   -0.44 7 20.9 183 
 BAR2 SZ I         436 46.83         5.5 0.38                          20.9 183 
 GIR2 SZ ES   1    436 45.77                             167    0.16 7 33.0 356 
 GIR2 SZ I         436 46.62         2.2 0.46                          33.0 356 
 BRR  HZ EP   1    436 31.90                             153    0.39 7 69.7 301 
 BRR  HZ I         436 57.00         3.2 0.20                          69.7 301 
 PAM  SZ EP   1    436 32.79                             150   -0.07 7 80.8  40 
 PAM  SE ES   1    436 50.40                             150   -0.01 7 80.8  40 
 PAM  SZ I         436 52.32         2.3 0.52                          80.8  40 
 RUS  HZ EP   1    436 33.81                             144   -0.25 7 98.8 174 
 RUS  HE ES   1    436 52.93                             144    0.39 7 98.8 174 
 RUS  HZ I         436 53.92         1.0 0.34                          98.8 174 
 PTB  HZ EP   1    436 36.95                             133   -0.15 7  144 259 
 PTB  HN ES   1    436 57.90                             133   -0.05 7  144 259 
 PTB  HZ I         437  5.35         2.5 0.38                           144 259 
                                                                                
