 2013  316 0317 15.5 L   5.988 -73.757106.8  RSN  4 0.4 1.6LRSN                1
 GAP=233        0.86      12.0     5.3 16.7 -0.1596E+02 -0.1556E+02  0.1353E+03E
 Epicentro: GUAVATA - SANTANDER                                                3
 ACTION:UPD 13-04-09 14:02 OP:ep   STATUS:               ID:20130316031715 L   I
 2013-03-16-0310-00M.COL___244                                                 6
 STAT SP IPHASW D HRMM SECON CODA AMPLIT PERI AZIMU VELO AIN AR TRES W  DIS CAZ7
 BAR2 SZ EP        317 34.21                             136   -0.4210 92.2  44 
 BAR2 SZ ES   1    317 50.05                             136    0.52 7 92.2  44 
 BAR2 SZ I         317 51.09        17.2 0.28             47           92.2  44 
 PTB  HE ES        317 49.76                             134   -0.1910 98.5 308 
 PTB  HE I         317 51.61         5.1 0.30             47           98.5 308 
 BRR  HN ES        317 54.17                             127    0.0510  124   2 
 BRR  HN I         317 55.34         8.1 0.20             47            124   2 
 HEL  HZ EP   1    317 46.14                             113    0.64 6  197 277 
 HEL  HN I         318 13.57         2.5 0.54             37            197 277 
                                                                                
