 2017  716 0905 12.2 L   7.454 -73.201134.6  RSN 16 0.4 2.2LRSN                1
 GAP=142        0.89       3.7     2.9  5.3  0.2200E+01  0.4755E+01 -0.1634E+00E
 Epicentro: EL PLAYON - SANTANDER                                              3
 ACTION:UPD 17-08-30 15:33 OP:rebc STATUS:               ID:20170716090512 L   I
 OLDACT:UP  17-07-16 16:57 OP:dnl  STATUS:               ID:20170716085348     3
 OLDACT:REG 17-07-16 12:40 OP:dhb  STATUS:               ID:20170716085348     3
 2017-07-16-0858-00M.COL___368                                                 6
 STAT SP IPHASW D HRMM SECON CODA AMPLIT PERI AZIMU VELO AIN AR TRES W  DIS CAZ7
 PAM  EZ IP     D  9 5 32.34                             156    0.2410 56.8 103 
 PAM  EN ES        9 5 47.41                             156   -0.1910 56.8 103 
 PAM  EZ I         9 5 49.24        27.2 0.40            149           56.8 103 
 BRR  HZ IP     D  9 5 32.18                             152    0.1710 68.2 236 
 BRR  HN ES        9 5 47.73                             152    0.3010 68.2 236 
 BRR  HZ I         9 5 48.00        58.5 0.10            150           68.2 236 
 BAR2 EZ IP     D  9 5 34.05                             143   -0.1010 95.3 179 
 BAR2 EZ I         9 5 51.53        64.2 0.38            138           95.3 179 
 PTB  HZ EP        9 5 40.71                             125    0.07 9  172 234 
 PTB  HN ES        9 6  2.82                             125    0.02 9  172 234 
 PTB  HZ I         9 6  7.02        17.5 0.30            121            172 234 
 RUS  HZ EP        9 5 41.14                             125   -0.28 9  173 176 
 RUS  HN ES        9 6  3.37                             125   -0.81 9  173 176 
 ZAR  HZ EP        9 5 42.14                             123    0.37 9  183 271 
 ZAR  HN ES   4    9 6  6.11                             123    1.29 0  183 271 
 ZAR  HZ I         9 6  8.74        42.5 0.44            119            183 271 
 TAM  HZ EP   2    9 5 42.94                             122    0.16 4  192 126 
 TAM  HZ I         9 6  5.95        22.4 0.42            116            192 126 
 TAM  HN ES        9 6  6.68                             122    0.08 9  192 126 
 SPBC HZ EP        9 5 46.45                             118    0.52 8  221 206 
 SPBC HN ES   4    9 6 13.38                             118    1.17 0  221 206 
 SPBC HZ I         9 6 15.27         9.3 0.10            113            221 206 
 YPLC HZ EP        9 5 48.91                             115    0.41 8  245 158 
 YPLC HN ES        9 6 16.74                             115   -0.04 8  245 158 
 YPLC HZ I         9 6 20.07        14.2 0.34            110            245 158 
 URE  HZ EP        9 5 49.08                             113   -0.95 8  259 277 
 URE  HN ES   4    9 6 17.98                             113   -1.52 0  259 277 
 URE  HZ I         9 6 21.09        15.9 0.42            110            259 277 
 NOR  HZ EP   2    9 5 52.69                             112    0.43 4  279 222 
 NOR  HE ES        9 6 24.14                             112    0.66 7  279 222 
 NOR  HZ I         9 6 26.40         7.2 0.38            108            279 222 
 HEL  HZ EP   4    9 5 56.68                             111    2.43 0  293 242 
 HEL  HN ES   4    9 6 25.58                             111   -1.44 0  293 242 
 HEL  HZ I         9 6 33.70         4.2 0.38            107            293 242 
 DBB  EZ EP        9 5 59.05                             108    0.20 7  336 262 
 DBB  EN ES   4    9 6 32.07                             108   -3.13 0  336 262 
 DBB  EZ I         9 6 37.02         8.6 0.20            104            336 262 
 GUY2CHZ EP   4    9 6  2.34                             107    2.08 0  344 224 
 GUY2CHN ES        9 6 36.93                             107   -0.78 7  344 224 
 GUY2CHZ I         9 6 47.66         6.6 0.40                           344 224 
 SJC  HZ EP        9 5 59.73                             107   -0.40 6  347 321 
 SJC  HN ES   4    9 6 35.31                             107   -2.17 0  347 321 
 SJC  HZ I         9 6 38.25         3.2 0.40            103            347 321 
 APAC HZ EP   2    9 6  3.66                             105    0.21 3  376 278 
 APAC HN ES        9 6 43.21                             105   -0.19 6  376 278 
 APAC HZ I         9 6 46.80         3.7 0.32            102            376 278 
                                                                                
