 2012  616 0352 19.0 L   6.779 -73.136150.0  RSN  5 0.3 1.8LRSN                1
 GAP=184        0.64       4.1     5.1  8.0  0.5504E+01  0.9479E+01 -0.3900E+01E
 Epicentro: LOS SANTOS - SANTANDER                                             3
 ACTION:UPD 12-08-06 17:49 OP:ep   STATUS:               ID:20120616035219 L   I
 2012-06-16-0350-00M.COL___198                                                 6
 STAT SP IPHASW D HRMM SECON CODA AMPLIT PERI AZIMU VELO AIN AR TRES W  DIS CAZ7
 BAR2 SZ EP   1    352 39.16                             172    0.07 7 21.3 194 
 BAR2 SZ ES   1    352 54.69                             172   -0.08 7 21.3 194 
 BAR2 SZ I         352 55.60        14.8 0.24                          21.3 194 
 RUS  HZ EP   1    352 43.01                             145    0.01 7 98.2 177 
 RUS  HN ES   1    353  1.98                             145    0.26 7 98.2 177 
 RUS  HZ I         353  3.36         6.1 0.35                          98.2 177 
 PTB  HZ EP   1    352 46.15                             133   -0.22 7  148 260 
 PTB  HN ES   1    353  7.21                             133   -0.51 7  148 260 
 PTB  HZ I         353 12.67         6.1 0.48                           148 260 
 OCA  HN ES   1    353 10.21                             130   -0.17 7  163 353 
 ZAR  HN ES   1    353 18.29                             123    0.70 6  206 293 
 ZAR  HZ I         353 20.28         8.5 0.18                           206 293 
                                                                                
