 2010  216 0031 59.5 L   6.834 -73.237145.6  RSN  5 0.4 2.0LRSN                1
 GAP=157        0.74       4.3    15.2 10.8  0.5644E+01  0.1074E+03  0.2212E+01E
 Epicentro: ZAPATOCA - SANTANDER                                               3
 ACTION:UP  10-08-24 09:49 OP:vdl  STATUS:               ID:20100216003159 L   I
 2010-02-16-0020-00S.COL___094                                                 6
 STAT SP IPHASW D HRMM SECON CODA AMPLIT PERI AZIMU VELO SNR AR TRES W  DIS CAZ7
 BAR2 SZ EP        032 19.17                             168     0.010   27 168 
 BAR2 SZ ES   2    032 34.26                             168    -0.3 5   27 168 
 GIR2 SZ EP        032 18.64                             168    -0.410   28  10 
 GIR2 SZ ES   3    032 34.58                             168     0.3 2   28  10 
 OCA  SZ EP        032 27.41                             130     0.1 9  156 357 
 OCA  SZ ES   2    032 50.02                             130     1.0 5  156 357 
 OCA  SZ I         032 55.11        16.2 0.26                           156 357 
 CHI  HZ EP        032 37.79                             116     0.5 8  250 193 
 CHI  HN ES   2    033  6.68                             116    -0.1 4  250 193 
 CHI  HZ I         033 16.85         4.3 0.14                           250 193 
 MON  HZ EP        032 46.98                             109    -0.3 7  343 309 
 MON  HN ES   3    033 24.84                             109     0.3 2  343 309 
 MON  HZ I         033 40.85         3.2 0.62                           343 309 
                                                                                
