 2016 1216 0808 58.3 L   7.373 -73.203132.6  RSN  5 0.3 1.1LRSN                1
 GAP=179        0.68       5.6     3.2  6.0 -0.3738E+01  0.8981E+01 -0.1171E+02E
 Epicentro: EL PLAYON - SANTANDER                                              3
 ACTION:UPD 17-01-11 20:15 OP:rebc STATUS:               ID:20161216080858 L   I
 OLDACT:UP  16-12-16 18:13 OP:e    STATUS:               ID:20161216080747     3
 OLDACT:REG 16-12-16 12:52 OP:and  STATUS:               ID:20161216080747     3
 2016-12-16-0808-00M.COL___332                                                 6
 STAT SP IPHASW D HRMM SECON CODA AMPLIT PERI AZIMU VELO AIN AR TRES W  DIS CAZ7
 PAM  EZ EP        8 9 18.39                             156    0.5010 55.7  94 
 PAM  EN ES        8 9 32.89                             156   -0.2810 55.7  94 
 PAM  EZ I         8 9 34.96         3.6 0.24            159           55.7  94 
 BRR  HZ EP        8 9 17.39                             153   -0.2010 63.4 242 
 BRR  HE ES        8 9 32.57                             153   -0.0610 63.4 242 
 BAR2 EZ ES        8 9 35.95                             145    0.1410 86.3 179 
 BAR2 EZ I         8 9 41.02         2.8 0.20            145           86.3 179 
 PTB  HZ EP        8 9 25.76                             125   -0.28 9  166 236 
 PTB  HE ES        8 9 47.75                             125    0.07 9  166 236 
 PTB  HZ I         8 9 51.56         1.1 0.22            126            166 236 
 ZAR  HZ EP        8 9 27.56                             122   -0.18 9  183 274 
 ZAR  HN ES        8 9 50.96                             122    0.26 9  183 274 
 ZAR  HZ I         8 9 55.06         1.3 0.07            124            183 274 
                                                                                
