 2016  316 0830  6.7 L   6.825 -73.171141.5  RSN  9 0.4 1.4LRSN                1
 GAP=132        0.89       3.3     3.8  7.2 -0.7121E+00  0.7720E+01  0.2938E+01E
 Epicentro: LOS SANTOS - SANTANDER                                             3
 ACTION:UPD 16-05-13 21:24 OP:cam  STATUS:               ID:20160316083006 L   I
 OLDACT:UP  16-03-28 15:34 OP:Mher STATUS:               ID:20160316083006 L   3
 OLDACT:REG 16-03-16 14:30 OP:dnl  STATUS:               ID:20160316082750     3
 2016-03-16-0827-50M.COL___279                                                 6
 STAT SP IPHASW D HRMM SECON CODA AMPLIT PERI AZIMU VELO AIN AR TRES W  DIS CAZ7
 PAM  EZ EP     C  830 28.49                             150    0.0510 77.1  42 
 PAM  EN ES        830 45.40                             150   -0.0110 77.1  42 
 PAM  EZ I         830 47.06         4.7 0.52            156           77.1  42 
 RUS  HZ EP        830 30.20                             142   -0.0510  104 175 
 RUS  HE ES        830 48.52                             142   -0.1010  104 175 
 RUS  HZ I         830 49.78         1.5 0.12            144            104 175 
 PTB  HZ EP        830 32.57                             131   -0.54 9  146 258 
 PTB  HN ES        830 53.22                             131   -0.50 9  146 258 
 PTB  HZ I         830 58.59         2.6 0.13            132            146 258 
 SPBC HZ EP        830 34.74                             128   -0.16 9  164 218 
 SPBC HN ES        830 57.41                             128    0.50 9  164 218 
 SPBC HZ I         831  4.35         4.4 0.20            129            164 218 
 ZAR  HZ EP        830 38.77                             122    0.29 9  200 292 
 ZAR  HN ES        831  3.82                             122    0.54 9  200 292 
 ZAR  HZ I         831  9.51         4.7 0.28            123            200 292 
 NOR  HN ES   1    831  9.07                             118   -0.66 6  234 234 
 NOR  HZ I         831 12.45         2.0 0.16            119            234 234 
 CHI  HZ EP        830 44.30                             116   -0.07 8  251 194 
 CHI  HN ES        831 14.42                             116    0.66 8  251 194 
 CHI  HZ I         831 20.41         1.5 0.52            118            251 194 
 MON  HZ EP   4    830 57.73                             108    2.66 0  350 308 
 MON  HN ES   4    831 30.35                             108   -2.46 0  350 308 
 MON  HZ I         831 38.16         0.8 0.32            110            350 308 
 SJC  HZ EP   9    830 59.67                             105   -1.99 0  405 327 
 SJC  HN ES        831 43.02                             105    0.47 6  405 327 
                                                                                
