 2017  716 0528 22.0 L   6.768 -73.174154.0  RSN  4 0.3 1.0LRSN                1
 GAP=232        0.56       3.6     4.2  5.7  0.4656E+01 -0.2214E+01 -0.1126E+01E
 Epicentro: LOS SANTOS - SANTANDER                                             3
 ACTION:UPD 17-08-30 15:33 OP:rebc STATUS:               ID:20170716052822 L   I
 OLDACT:DUP 17-07-16 15:30 OP:dhb  STATUS:               ID:20170716051345d    3
 OLDACT:REG 17-07-16 12:25 OP:dhb  STATUS:               ID:20170716051344     3
 2017-07-16-0518-00M.COL___383                                                 6
 STAT SP IPHASW D HRMM SECON CODA AMPLIT PERI AZIMU VELO AIN AR TRES W  DIS CAZ7
 BRR  HZ IP     C  528 44.33                             154    0.2910 70.3 302 
 BRR  HN ES        529  1.14                             154   -0.0610 70.3 302 
 BRR  HZ I         529 11.68                             153           70.3 302 
 RUS  HZ EP        528 46.34                             146   -0.0510 97.3 174 
 RUS  HN ES        529  5.25                             146   -0.1310 97.3 174 
 RUS  HZ I         529  7.02         1.2 0.40            153           97.3 174 
 PTB  HZ EP        528 49.30                             134   -0.07 9  144 260 
 PTB  HN ES     D  529 10.47                             134   -0.22 9  144 260 
 PTB  HZ I         529 16.32         0.7 0.28            137            144 260 
 SPBC HZ EP   3    528 49.67                             131   -1.09 2  158 219 
 SPBC HE ES        529 13.48                             131    0.33 9  158 219 
 SPBC HZ I         529 21.10         2.2 0.01            136            158 219 
                                                                                
