 2012  516 0754  0.5 L   6.655 -73.234146.1  RSN  4 0.1 1.2LRSN                1
 GAP=187        0.40       7.4     4.4  7.6 -0.1804E+01 -0.7006E+01  0.2558E+02E
 Epicentro: BARICHARA - SANTANDER                                              3
 ACTION:UP  12-07-05 12:05 OP:pat  STATUS:               ID:20120516075400 L   I
 2012-05-16-0750-00M.COL___195                                                 6
 STAT SP IPHASW D HRMM SECON CODA AMPLIT PERI AZIMU VELO SNR AR TRES W  DIS CAZ7
 BAR2 SZ EP   1    754 19.90                             176    -0.1 7    9 141 
 BAR2 SZ I         754 20.11         2.7 0.15                             9 141 
 BRR  HZ EP   1    754 21.67                             152    -0.1 7   73 313 
 BRR  HZ I         754 22.55         3.5 0.37                            73 313 
 BRR  HN ES   1    754 38.49                             152     0.1 7   73 313 
 PTB  HZ EP   1    754 26.68                             135     0.2 7  136 265 
 PTB  HN ES   1    754 46.56                             135    -0.1 7  136 265 
 ZAR  HN ES   2    754 57.76                             123    -0.1 4  202 297 
                                                                                
