 2013  516 0152 39.4 L   6.833 -73.375124.1  RSN  7 0.5 1.6LRSN                1
 GAP= 92        1.30       4.6     6.3  9.0  0.3888E+01  0.1059E+02 -0.7985E+01E
 Epicentro: SAN VICENTE DE CHUCURI - SANTANDER                                 3
 ACTION:UPD 13-06-20 09:50 OP:ep   STATUS:               ID:20130516015239 L   I
 2013-05-16-0150-00M.COL___256                                                 6
 STAT SP IPHASW D HRMM SECON CODA AMPLIT PERI AZIMU VELO AIN AR TRES W  DIS CAZ7
 BAR2 SZ EP        152 57.15                             164    0.4110 34.1 141 
 BAR2 SZ ES        153  9.98                             164   -0.2810 34.1 141 
 BAR2 SZ I         153 11.50        24.0 0.24            167           34.1 141 
 BRR  HZ EP        152 57.61                             157    0.6610 48.0 309 
 BRR  HN ES        153 11.41                             157    0.7710 48.0 309 
 BRR  HZ I         153 12.60        14.6 0.12            157           48.0 309 
 PAM  SN ES   1    153 16.32                             141   -0.66 7 93.3  53 
 PAM  SZ I         153 19.25         7.3 0.52            142           93.3  53 
 RUS  HZ EP        153  2.13                             136    0.3710  109 163 
 RUS  HE ES        153 18.98                             136   -0.2310  109 163 
 RUS  HZ I         153 21.29         3.0 0.34            140            109 163 
 PTB  HZ EP        153  2.39                             132   -0.0410  124 255 
 PTB  HN ES        153 19.61                             132   -0.7810  124 255 
 PTB  HZ I         153 24.35         5.3 0.28            134            124 255 
 OCA  HN ES   1    153 25.49                             125   -0.64 7  156   2 
 OCA  HZ I         153 31.52         5.3 0.24            126            156   2 
 SML  HZ EP        153 12.81                             114   -0.65 8  231 341 
 SML  HE ES        153 40.32                             114    0.29 8  231 341 
                                                                                
