 2016  416 0411 19.3 L   6.792 -73.208144.9  RSN  7 0.4 1.4LRSN                1
 GAP=129        0.81       3.0     4.5  6.3 -0.3335E+01  0.7199E+01  0.1226E+01E
 Epicentro: ZAPATOCA - SANTANDER                                               3
 ACTION:UPD 16-05-05 14:21 OP:rebc STATUS:               ID:20160416041119 L   I
 OLDACT:REG 16-04-16 14:08 OP:ak   STATUS:               ID:20160416040744     3
 2016-04-16-0407-44M.COL___310                                                 6
 STAT SP IPHASW D HRMM SECON CODA AMPLIT PERI AZIMU VELO AIN AR TRES W  DIS CAZ7
 BAR2 EZ EP        411 38.95                             171    0.1410 22.2 173 
 BAR2 EZ ES        411 54.09                             171    0.0710 22.2 173 
 BAR2 EZ I         411 55.16         8.1 0.38            171           22.2 173 
 PAM  EZ EP        411 42.02                             149    0.2710 82.6  43 
 PAM  EN ES        411 59.04                             149   -0.2210 82.6  43 
 PAM  EZ I         412  1.51         2.7 0.48            154           82.6  43 
 RUS  HZ EP        411 43.31                             144    0.3510  100 172 
 RUS  HN ES        412  1.48                             144    0.0810  100 172 
 RUS  HZ I         412  3.07         2.5 0.20            147            100 172 
 PTB  HZ EP        411 45.53                             133   -0.05 9  141 259 
 PTB  HN ES        412  6.51                             133    0.44 9  141 259 
 PTB  HZ I         412 14.10         3.1 0.20            133            141 259 
 SPBC HZ EP   2    411 47.43                             130    0.16 5  158 217 
 SPBC HN ES   2    412  8.17                             130   -0.90 5  158 217 
 SPBC HZ I         412 12.47         5.3 0.26            131            158 217 
 OCA  HN ES        412  9.11                             129   -0.51 9  161 356 
 CHI  HZ EP   2    411 56.43                             117   -0.24 4  246 194 
 CHI  HN ES        412 25.16                             117   -0.66 8  246 194 
                                                                                
