 2010  716 0650 34.2 L   6.768 -73.142142.2  RSN 11 0.4 2.0LRSN                1
 GAP=159        0.86       4.1     8.5  6.8 -0.1305E+02  0.3842E+01  0.2176E+01E
 Epicentro: LOS SANTOS - SANTANDER                                             3
 ACTION:UPD 10-12-01 15:18 OP:pat  STATUS:               ID:20100716065034 L   I
 2010-07-16-0648-01S.COL___120                                                 6
 STAT SP IPHASW D HRMM SECON CODA AMPLIT PERI AZIMU VELO AIN AR TRES W  DIS CAZ7
 BAR2 SZ IP        650 52.94                             172    -0.410   20 193 
 BAR2 SZ ES   1    651  8.12                             172    -0.1 7   20 193 
 BAR2 SZ I         651  9.41        26.2 0.17                            20 193 
 GIR2 SZ EP   2    650 53.38                             166    -0.1 5   35 351 
 BRR  HZ IP     C  650 54.82                             151    -0.210   73 301 
 BRR  HE ES   1    651 11.64                             151     0.3 7   73 301 
 BRR  HZ I         651 15.62        15.6 0.15                            73 301 
 RUS  HZ EP   2    650 56.87                             144    -0.4 5   97 176 
 RUS  HZ I         650 57.97         7.5 0.14                            97 176 
 RUS  HE ES   2    651 15.75                             144     0.4 5   97 176 
 GUE  SZ EP   2    650 59.21                             138     0.4 5  120  12 
 GRA  SZ IP        650 59.81                             135     0.410  129  17 
 GRA  SZ ES   1    651 19.24                             135     0.2 7  129  17 
 GRA  SZ I         651 22.17         7.0 0.26                           129  17 
 OCA  SZ EP   1    651  2.09                             128    -0.5 7  164 353 
 OCA  SZ ES   1    651 24.56                             128    -0.1 7  164 353 
 OCA  SZ I         651 28.09         9.0 0.39                           164 353 
 ROSC BZ EP   2    651 13.06                             116     1.3 4  250 212 
 ROSC BZ I         651 50.70         9.4 0.36                           250 212 
 HEL  HZ EP   2    651 14.33                             114     0.2 4  272 257 
 HEL  HZ I         651 53.52         5.4 0.36                           272 257 
 RREF HZ EP   2    651 19.73                             110    -0.2 3  320 230 
 RREF HZ I         652  2.38         4.5 0.24                           320 230 
 PRA  HZ EP   1    651 26.73                             106    -0.5 4  389 210 
 PRA  HE ES   1    652  9.34                             106     0.7 4  389 210 
 PRA  HZ I         652 15.33         5.9 0.26                           389 210 
                                                                                
