 2014 1216 0334  4.8 L   6.766 -73.143139.7  RSN  6 0.5 1.2LRSN                1
 GAP=138        1.12       6.2     5.3  8.3  0.2828E+01  0.1267E+02  0.3586E+01E
 Epicentro: LOS SANTOS - SANTANDER                                             3
 ACTION:UPD 15-02-10 17:04 OP:nd   STATUS:               ID:20141216033404 L   I
 OLDACT:REG 14-12-16 12:50 OP:spq  STATUS:               ID:20141216032749     3
 2014-12-16-0327-49M.COL___287                                                 6
 STAT SP IPHASW D HRMM SECON CODA AMPLIT PERI AZIMU VELO AIN AR TRES W  DIS CAZ7
 BAR2 EZ ES   1    334 38.18                             171   -0.15 7 19.7 193 
 BAR2 EZ I         334 39.33         5.6 0.20            172           19.7 193 
 BRR  HZ EP        334 25.33                             151   -0.1010 73.3 301 
 BRR  HN ES        334 42.06                             151    0.5410 73.3 301 
 BRR  HZ I         334 43.32         4.3 0.34            151           73.3 301 
 PAM  SZ EP        334 26.49                             149   -0.0710 80.1  38 
 PAM  SN ES        334 43.20                             149   -0.3210 80.1  38 
 PAM  SZ I         334 45.69         3.5 0.64            151           80.1  38 
 RUS  HZ EP        334 27.98                             144    0.2910 96.8 176 
 RUS  HE ES   1    334 45.85                             144    0.31 7 96.8 176 
 RUS  HZ I         334 47.98         1.8 0.18            145           96.8 176 
 PTB  HZ EP        334 30.43                             131   -0.82 9  147 260 
 PTB  HN ES   1    334 51.34                             131   -0.54 7  147 260 
 PTB  HZ I         334 53.34         2.3 0.30            132            147 260 
 ZAR  HZ EP        334 37.97                             121    0.92 8  206 293 
 ZAR  HN ES        335  2.06                             121   -0.14 8  206 293 
 ZAR  HZ I         335  5.42         1.6 0.32            122            206 293 
                                                                                
