 2012 1116 0753 51.9 L   6.043 -73.726118.0  RSN  9 0.3 1.7LRSN                1
 GAP=103        0.58       2.6     3.0  5.7 -0.1726E+01  0.5726E+01 -0.2358E+00E
 Epicentro: BOLIVAR - SANTANDER                                                3
 ACTION:UPD 12-12-05 15:33 OP:}ep  STATUS:               ID:20121116075351 L   I
 2012-11-16-0750-00M.COL___233                                                 6
 STAT SP IPHASW D HRMM SECON CODA AMPLIT PERI AZIMU VELO AIN AR TRES W  DIS CAZ7
 RUS  HZ EP   1    754 10.77                             146   -0.24 7 73.1 103 
 RUS  HE ES   1    754 25.49                             146   -0.38 7 73.1 103 
 RUS  HZ I         754 26.81         4.7 0.26                          73.1 103 
 BAR2 SZ EP   1    754 11.69                             142    0.16 7 85.5  45 
 BAR2 SZ ES   1    754 27.04                             142    0.23 7 85.5  45 
 BAR2 SZ I         754 28.09        26.9 0.24                          85.5  45 
 PTB  HZ EP   4    754 11.06                             137   -1.13 0 97.7 304 
 PTB  HN ES   2    754 27.90                             137   -0.08 5 97.7 304 
 BRR  HZ EP   1    754 13.99                             132    0.09 7  118   1 
 BRR  HZ I         754 34.93         7.8 0.16                           118   1 
 GIR2 SZ EP   1    754 15.35                             129    0.22 7  129  27 
 GIR2 SZ ES   1    754 33.41                             129    0.20 7  129  27 
 NOR  HN ES   1    754 34.60                             127    0.15 7  137 247 
 NOR  HZ I         754 36.29        14.8 0.16                           137 247 
 ZAR  HN ES   1    754 46.15                             116   -0.49 6  203 322 
 PRA  HZ EP   1    754 31.98                             107   -0.36 5  288 207 
 PRA  HN ES   1    755  4.39                             107    0.55 5  288 207 
 SML  HZ EP   1    754 34.06                             106   -0.50 5  307 353 
 SML  HN ES   2    755  8.51                             106    0.72 4  307 353 
                                                                                
