 2015  516 0335 17.5 L   6.811 -73.145149.2  RSN 13 0.4 1.9LRSN                1
 GAP=136        0.92       2.8     4.2  6.0 -0.1630E+01  0.8804E+01 -0.6800E+00E
 Epicentro: LOS SANTOS - SANTANDER                                             3
 ACTION:UPD 15-09-10 22:04 OP:cam  STATUS:               ID:20150516033517 L   I
 OLDACT:DUP 15-05-16 17:04 OP:spq  STATUS:               ID:20150516032745d    3
 2015-05-16-0327-44M.COL___277                                                 6
 STAT SP IPHASW D HRMM SECON CODA AMPLIT PERI AZIMU VELO AIN AR TRES W  DIS CAZ7
 BAR2 EZ EP        335 37.38                             170   -0.2210 24.5 190 
 BAR2 EZ ES   1    335 52.38                             170   -0.86 7 24.5 190 
 BAR2 EZ I         335 55.09        22.0 0.20            170           24.5 190 
 BRR  HZ EP        335 39.26                             153    0.2410 70.7 298 
 BRR  HE ES        335 56.49                             153    0.7110 70.7 298 
 BRR  HZ I         336  0.31         6.6 0.14            150           70.7 298 
 PAM  SZ EP        335 40.27                             152    0.2210 76.4  40 
 PAM  SN ES        335 57.54                             152   -0.0810 76.4  40 
 PAM  SZ I         335 59.82         9.8 0.64            155           76.4  40 
 RUS  HZ EP   1    335 41.42                             144   -0.28 7  102 176 
 RUS  HN ES        336  0.52                             144   -0.0410  102 176 
 RUS  HZ I         336  1.62         8.7 0.24            148            102 176 
 OCA  HZ EP   1    335 46.40                             131    0.40 7  159 353 
 OCA  HN ES        336  8.41                             131    0.21 9  159 353 
 OCA  HZ I         336 12.18        14.0 0.40            132            159 353 
 SPBC HZ EP        335 46.40                             130    0.01 9  164 219 
 SPBC HE ES        336  8.78                             130   -0.11 9  164 219 
 SPBC HZ I         336 11.05        17.5 0.24            131            164 219 
 ZAR  HZ EP        335 49.98                             123   -0.18 9  204 292 
 ZAR  HE ES        336 14.92                             123   -0.69 9  204 292 
 ZAR  HZ I         336 21.61         6.4 0.29            124            204 292 
 NOR  HZ EP        335 53.68                             119    0.14 8  235 234 
 NOR  HE ES        336 22.20                             119    0.57 8  235 234 
 NOR  HZ I         336 24.88         6.3 0.16            120            235 234 
 SML  HE ES   1    336 22.42                             118   -0.45 6  243 335 
 HEL  HE ES   4    336 32.94                             115    3.44 0  272 256 
 HEL  HZ I         336 37.83         4.4 0.34            117            272 256 
 GUY2CHZ EP   4    336  3.39                             113    2.00 0  302 235 
 GUY2CHE ES   4    336 37.30                             113    1.71 0  302 235 
 GUY2CHZ I         336 43.92         4.1 0.28                           302 235 
 MON  HN ES   4    336 43.41                             109   -1.44 0  353 308 
 MON  HZ I         336 45.31         1.4 0.24            110            353 308 
 SJC  HN ES   1    336 55.69                             106   -0.74 4  408 327 
 SJC  HZ I         337  2.25         1.9 0.44            108            408 327 
                                                                                
