 2012  116 0750 43.8 L   6.799 -73.162140.3  RSN  9 0.2 2.1LRSN                1
 GAP=135        0.60       2.8     3.2  4.7 -0.2983E+00  0.2097E+01  0.7138E+00E
 Epicentro: LOS SANTOS - SANTANDER                                             3
 ACTION:UP  12-02-03 08:17 OP:REBC STATUS:               ID:20120116075043 L   I
 2012-01-16-0750-00M.COL___186                                                 6
 STAT SP IPHASW D HRMM SECON CODA AMPLIT PERI AZIMU VELO SNR AR TRES W  DIS CAZ7
 BAR2 SZ EP        751  2.88                             170     0.210   23 186 
 BAR2 SZ ES   1    751 17.54                             170     0.0 7   23 186 
 BAR2 SZ I         751 18.72        21.5 0.26                            23 186 
 GIR2 SZ EP   1    751  2.80                             167     0.0 7   31 354 
 BRR  HZ EP        751  4.57                             152     0.310   70 299 
 BRR  HE ES   1    751 20.24                             152     0.0 7   70 299 
 BRR  HZ I         751 25.10        33.1 0.15                            70 299 
 PAM  SZ EP        751  5.64                             149     0.210   79  40 
 PAM  SN ES   1    751 22.15                             149    -0.3 7   79  40 
 RUS  HZ EP   1    751  6.90                             143    -0.1 7  101 175 
 RUS  HN ES   1    751 25.12                             143     0.0 7  101 175 
 PTB  HZ EP        751  9.75                             131    -0.4 9  146 259 
 PTB  HE ES   1    751 30.39                             131    -0.3 7  146 259 
 OCA  SZ EP   1    751 11.21                             128    -0.4 7  160 354 
 OCA  SZ I         751 37.13        15.8 0.24                           160 354 
 ZAR  HE ES   1    751 40.93                             121     0.3 6  202 292 
 ZAR  HZ I         751 46.38        12.3 0.20                           202 292 
 CHI  HZ EP   1    751 21.32                             116     0.2 6  248 195 
 CHI  HN ES   1    751 50.08                             116    -0.1 6  248 195 
                                                                                
