 2015  216 0132 53.9 L   6.804 -73.147146.0  RSN 13 0.3 2.0LRSN                1
 GAP=136        0.76       2.3     3.5  4.1 -0.2323E+01  0.3057E+01 -0.5881E+00E
 Epicentro: LOS SANTOS - SANTANDER                                             3
 ACTION:UPD 15-04-30 21:26 OP:nd   STATUS:               ID:20150216013253 L   I
 OLDACT:REG 15-02-16 13:21 OP:mh   STATUS:               ID:20150216012736     3
 2015-02-16-0127-36M.COL___302                                                 6
 STAT SP IPHASW D HRMM SECON CODA AMPLIT PERI AZIMU VELO AIN AR TRES W  DIS CAZ7
 BAR2 EZ EP        133 13.60                             170   -0.0010 23.8 189 
 BAR2 EZ ES        133 28.73                             170   -0.2110 23.8 189 
 BAR2 EZ I         133 31.38        22.8 0.26            169           23.8 189 
 BRR  HZ EP        133 15.11                             153    0.0210 70.8 298 
 BRR  HN ES        133 31.90                             153    0.3110 70.8 298 
 BRR  HZ I         133 36.35        14.0 0.16            149           70.8 298 
 PAM  SZ EP        133 16.47                             151    0.3110 77.1  40 
 PAM  SN ES   1    133 34.16                             151    0.67 7 77.1  40 
 PAM  SZ I         133 34.96         6.9 0.20            155           77.1  40 
 RUS  HZ EP        133 17.51                             144   -0.2410  101 176 
 RUS  HN ES   1    133 35.91                             144   -0.41 7  101 176 
 RUS  HZ I         133 36.82        12.6 0.36            147            101 176 
 PTB  HZ EP        133 20.53                             132   -0.38 9  148 259 
 PTB  HN ES        133 41.63                             132   -0.33 9  148 259 
 PTB  HZ I         133 46.80        20.7 0.46            131            148 259 
 OCA  HZ EP        133 22.01                             130   -0.21 9  160 353 
 OCA  HN ES        133 44.12                             130   -0.15 9  160 353 
 OCA  HZ I         133 48.02        14.8 0.24            131            160 353 
 SPBC HZ EP   1    133 22.61                             129    0.13 7  163 219 
 SPBC HN ES        133 44.71                             129   -0.03 9  163 219 
 SPBC HZ I         133 45.86        28.4 0.44            130            163 219 
 ZAR  HZ EP   1    133 26.66                             122    0.30 6  204 292 
 ZAR  HN ES   4    133 51.71                             122    0.06 0  204 292 
 NOR  HZ EP        133 29.42                             119   -0.27 8  235 234 
 NOR  HN ES        133 58.29                             119    0.71 8  235 234 
 NOR  HZ I         133 59.48         8.5 0.24            119            235 234 
 SML  HZ EP        133 30.28                             118   -0.24 8  243 335 
 SML  HN ES        133 58.95                             118   -0.10 8  243 335 
 URE  HZ EP   4    133 42.20                             114    7.22 0  283 292 
 URE  HN ES   4    134  7.38                             114    0.39 0  283 292 
 URE  HZ I         134 13.89         7.5 0.38            114            283 292 
 RREF HZ EP   1    133 40.46                             111    0.35 5  322 229 
 RREF HN ES   4    134 19.02                             111    2.90 0  322 229 
 TOL  SZ EP        133 42.83                             109    0.60 7  344 225 
 TOL  SN ES   4    134 21.49                             109    1.60 0  344 225 
 TOL  SZ I         134 31.67         3.4 0.58            110            344 225 
                                                                                
