 2010 1116 0331 36.4 L   6.759 -73.096148.0  RSN 16 0.4 2.6LRSN                1
 GAP=165        0.90       3.5     5.5  6.0 -0.6190E+01  0.5458E+01  0.4731E+01E
 Epicentro: LOS SANTOS - SANTANDER                                             3
 ACTION:UP  10-12-17 16:53 OP:REBC STATUS:               ID:20101116033136 L   I
 2010-11-16-0328-42S.COL___128                                                 6
 STAT SP IPHASW D HRMM SECON CODA AMPLIT PERI AZIMU VELO SNR AR TRES W  DIS CAZ7
 BAR2 SZ IP        331 56.35                             172     0.110   21 208 
 BAR2 SZ ES   1    332 11.67                             172     0.0 7   21 208 
 BAR2 SZ I         332 13.16        72.8 0.35                            21 208 
 BTL  SZ IP        331 55.69                             170    -0.610   26 313 
 BRR  HZ IP     C  331 58.30                             151     0.110   78 299 
 BRR  HZ I         331 58.57       124.5 0.13                            78 299 
 BRR  HE ES        332 15.76                             151     0.610   78 299 
 RUS  HZ IP     D  332  0.19                             146     0.210   96 179 
 RUS  HN ES   1    332 18.67                             146     0.2 7   96 179 
 RUS  HZ I         332 22.47        30.9 0.31                            96 179 
 GRA  SZ EP   1    332  1.87                             137    -0.2 7  129  15 
 GRA  SZ ES   1    332 21.93                             137    -0.1 7  129  15 
 GRA  SZ I         332 24.14        49.0 0.32                           129  15 
 OCA  SZ EP   1    332  5.04                             129    -0.3 7  165 351 
 OCA  SZ ES   1    332 27.74                             129    -0.2 7  165 351 
 OCA  SZ I         332 32.69        73.4 0.24                           165 351 
 NOR  SZ EP   1    332 12.31                             119    -0.1 6  237 236 
 NOR  SE ES   1    332 39.63                             119    -1.0 6  237 236 
 CHI  HZ EP   2    332 13.36                             118    -0.5 4  246 197 
 CHI  HE ES   2    332 43.05                             118    -0.1 4  246 197 
 CHI  HZ I         332 49.66        17.6 0.39                           246 197 
 ROSC BZ EP   2    332 14.86                             117     0.4 4  252 213 
 ROSC BE ES   2    332 43.63                             117    -0.6 4  252 213 
 ROSC BZ I         332 50.12        27.1 0.41                           252 213 
 HEL  HZ EP   1    332 17.68                             115     0.5 6  276 257 
 HEL  HN ES   2    332 49.03                             115     0.0 4  276 257 
 HEL  HZ I         332 55.02        20.4 0.39                           276 257 
 VIL  SZ EP   2    332 20.29                             113     1.0 4  298 191 
 VIL  SZ I         333  1.28        11.3 0.39                           298 191 
 GUY  SN ES   2    332 55.12                             113     0.5 4  303 236 
 GUY  SZ I         333  6.28        34.1 0.44                           303 236 
 RREF HZ EP   1    332 23.35                             111     0.6 5  323 231 
 RREF HE ES   1    332 58.14                             111    -0.8 5  323 231 
 RREF HZ I         333  4.88        25.6 0.07                           323 231 
 TOL  SZ EP   2    332 24.89                             110     0.1 3  344 226 
 DBB  SZ EP   2    332 24.50                             110    -0.1 3  345 275 
 DBB  SZ I         333  2.60         5.2 0.39                           345 275 
 PRA  HZ EP   1    332 29.68                             107    -0.1 4  391 211 
 PRA  HE ES   1    333 11.69                             107     0.2 4  391 211 
 PRA  HZ I         333 16.60        41.9 0.23                           391 211 
                                                                                
