 2016 1116 0834 20.3 L   6.748 -73.129145.9  RSN 10 0.5 1.8LRSN                1
 GAP=163        1.07       6.3     5.0  7.0 -0.1146E+02  0.1165E+02 -0.1459E+00E
 Epicentro: LOS SANTOS - SANTANDER                                             3
 ACTION:UPD 17-10-26 21:08 OP:lp   STATUS:               ID:20161116083420 L   I
 OLDACT:UP  16-11-16 18:13 OP:e    STATUS:               ID:20161116082743     3
 OLDACT:UP  16-11-16 18:12 OP:e    STATUS:               ID:20161116082743     3
 OLDACT:UP  16-11-16 18:11 OP:e    STATUS:               ID:20161116082743     3
 OLDACT:UP  16-11-16 18:07 OP:e    STATUS:               ID:20161116082743     3
 OLDACT:UP  16-11-16 18:06 OP:e    STATUS:               ID:20161116082743     3
 OLDACT:REG 16-11-16 12:56 OP:and  STATUS:               ID:20161116082743     3
 2016-11-16-0828-00M.COL___332                                                 6
 STAT SP IPHASW D HRMM SECON CODA AMPLIT PERI AZIMU VELO AIN AR TRES W  DIS CAZ7
 BAR2 EZ EP     D  834 40.07                             172    0.2610 18.2 199 
 BAR2 EZ ES        834 55.03                             172   -0.0310 18.2 199 
 BAR2 EZ I         834 55.99        15.1 0.20            166           18.2 199 
 BRR  HZ EP        834 41.94                             151    0.2610 75.7 302 
 BRR  HE ES        834 58.98                             151    0.5910 75.7 302 
 BRR  HZ I         835  2.01        11.6 0.32            149           75.7 302 
 PAM  EZ EP        834 42.71                             150    0.0110 80.8  36 
 PAM  EN ES        834 59.97                             150   -0.2210 80.8  36 
 PAM  EZ I         835  1.93         9.0 0.52            146           80.8  36 
 PTB  HZ EP        834 47.02                             132   -0.29 9  149 261 
 PTB  HN ES        835  7.74                             132   -0.67 9  149 261 
 PTB  HZ I         835 10.02         5.7 0.12            125            149 261 
 ZAR  HZ EP        834 53.22                             122    0.10 8  208 293 
 ZAR  HN ES        835 18.86                             122    0.11 8  208 293 
 ZAR  HZ I         835 24.59         9.2 0.36            117            208 293 
 NOR  HZ EP   4    834 58.34                             119    2.54 0  233 236 
 NOR  HN ES        835 23.06                             119   -0.47 8  233 236 
 NOR  HZ I         835 29.10         2.6 0.28            112            233 236 
 URE  HZ EP        835  1.17                             113   -0.60 7  288 293 
 URE  HN ES   4    835 32.79                             113   -1.36 0  288 293 
 URE  HZ I         835 44.02         3.1 0.28            108            288 293 
 PRA  HZ EP   9    835 14.83                             107    1.52 0  388 210 
 PRA  HZ I         835 48.97         1.7 0.48            101            388 210 
 PRA  HN ES        835 57.08                             106    0.88 6  388 210 
 PAL  HZ EP   4    835 14.50                             106   -0.77 0  404 240 
 PAL  HE ES        835 59.54                             106    1.37 6  404 240 
 PAL  HZ I         836  0.21         2.5 0.28            101            404 240 
 SJC  HZ EP   9    835 14.67                             106   -1.85 0  415 327 
 SJC  HN ES        835 57.92                             106   -0.63 6  415 327 
                                                                                
