 2013  516 0043 47.6 L   6.588 -73.345119.5  RSN  4 0.2 1.3LRSN                1
 GAP=165        0.64       4.1     8.1  5.4  0.2119E+02  0.1132E+02  0.5758E+01E
 Epicentro: HATO - SANTANDER                                                   3
 ACTION:UPD 13-06-20 09:50 OP:ep   STATUS:               ID:20130516004347 L   I
 2013-05-16-0040-00M.COL___256                                                 6
 STAT SP IPHASW D HRMM SECON CODA AMPLIT PERI AZIMU VELO AIN AR TRES W  DIS CAZ7
 BAR2 SZ EP        044  4.15                             171    0.1510 17.9  88 
 BAR2 SZ ES        044 17.12                             171    0.3610 17.9  88 
 BAR2 SZ I         044 18.95         5.4 0.24            175           17.9  88 
 GIR2 SZ EP        044  5.26                             153   -0.0810 56.8  17 
 GIR2 SZ ES        044 18.94                             153   -0.2110 56.8  17 
 BRR  HZ EP        044  5.80                             147   -0.1610 70.3 325 
 BRR  HN ES        044 20.30                             147    0.0510 70.3 325 
 BRR  HZ I         044 21.96         7.0 0.62            149           70.3 325 
 RUS  HZ EP        044  7.72                             144    0.2510 82.2 159 
 RUS  HN ES        044 22.59                             144   -0.3610 82.2 159 
 RUS  HZ I         044 24.69         3.8 0.20            145           82.2 159 
                                                                                
