 2013  516 0737 23.5 L   6.791 -73.141144.9  RSN 16 0.4 2.6LRSN 3.0WRSN        1
 SPEC AVERAGE  MO 13.6 ST  2.8 OM  2.0 f0 3.41 R0.4742 AL 2.34 WI 13.0 MW  3.0 3
 SPEC SD       MO  0.4 ST  3.1 OM  0.3 f00.692 R0.0954 AL      WI      MW  0.2 3
 GAP= 66        0.91       2.2     2.6  4.1  0.2104E+00  0.2040E+01  0.1595E+01E
 Epicentro: LOS SANTOS - SANTANDER                                             3
 SPEC SJC HH N MO 13.6 ST  2.4 OM  1.6 f0 3.62 R0.4293 AL 2.00 WI 13.6 MW  3.0 3
 SPEC SJC HH N T 73857 K 0.000 GD  434 VS 4.20 DE 3.20 Q0300.0 QA 0.60 VS 4.20 3
 SPEC PRA HH N MO 13.8 ST  4.0 OM  1.8 f0 3.75 R0.4144 AL 2.76 WI 12.6 MW  3.2 3
 SPEC PRA HH N T 73858 K 0.000 GD  416 VS 4.20 DE 3.20 Q0300.0 QA 0.60 VS 4.20 3
 SPEC HEL HH N MO 13.8 ST  2.2 OM  1.9 f0 3.14 R0.4949 AL 3.24 WI 26.9 MW  3.1 3
 SPEC HEL HH N T 73835 K 0.000 GD  308 VS 4.20 DE 3.20 Q0300.0 QA 0.60 VS 4.20 3
 SPEC CHI HH N MO 13.8 ST  1.4 OM  1.9 f0 2.78 R0.5590 AL 2.01 WI 12.1 MW  3.1 3
 SPEC CHI HH N T 73829 K 0.000 GD  287 VS 4.20 DE 3.20 Q0300.0 QA 0.60 VS 4.20 3
 SPEC NOR HH N MO 13.9 ST  7.3 OM  2.1 f0 4.17 R0.3727 AL 2.61 WI 18.8 MW  3.2 3
 SPEC NOR HH N T 73826 K 0.000 GD  276 VS 4.20 DE 3.20 Q0300.0 QA 0.60 VS 4.20 3
 SPEC YOP SH N MO 13.6 ST0.707 OM  1.8 f0 2.56 R0.6070 AL 2.46 WI 14.5 MW  3.0 3
 SPEC YOP SH N T 73814 K 0.000 GD  229 VS 4.20 DE 3.20 Q0300.0 QA 0.60 VS 4.20 3
 SPEC OCA HH N MO 14.3 ST 11.9 OM  2.6 f0 3.62 R0.4293 AL 2.22 WI 13.2 MW  3.5 3
 SPEC OCA HH N T 73813 K 0.000 GD  216 VS 4.20 DE 3.20 Q0300.0 QA 0.60 VS 4.20 3
 SPEC TAM HH N MO 13.8 ST  1.1 OM  2.1 f0 2.41 R0.6448 AL 2.91 WI  8.1 MW  3.2 3
 SPEC TAM HH N T 73812 K 0.000 GD  211 VS 4.20 DE 3.20 Q0300.0 QA 0.60 VS 4.20 3
 SPEC PTB HH N MO 13.9 ST  1.8 OM  2.2 f0 2.68 R0.5799 AL 1.83 WI 10.9 MW  3.2 3
 SPEC PTB HH N T 73810 K 0.000 GD  207 VS 4.20 DE 3.20 Q0300.0 QA 0.60 VS 4.20 3
 SPEC RUS HH N MO 13.5 ST0.941 OM  1.9 f0 2.85 R0.5453 AL 2.21 WI  7.9 MW  3.0 3
 SPEC RUS HH N T 738 5 K 0.000 GD  175 VS 4.20 DE 3.20 Q0300.0 QA 0.60 VS 4.20 3
 SPEC PAM SH Z MO 12.9 ST0.366 OM  1.3 f0 3.37 R0.4611 AL 1.89 WI 15.8 MW  2.6 3
 SPEC PAM SH Z T 738 0 K 0.000 GD  164 VS 4.20 DE 3.20 Q0300.0 QA 0.60 VS 4.20 3
 SPEC BRR HH Z MO 13.3 ST  1.3 OM  1.7 f0 3.79 R0.4100 AL 1.71 WI  9.8 MW  2.8 3
 SPEC BRR HH Z T 738 1 K 0.000 GD  161 VS 4.20 DE 3.20 Q0300.0 QA 0.60 VS 4.20 3
 SPEC GIR2SH Z MO 13.1 ST0.991 OM  1.5 f0 4.17 R0.3727 AL 2.22 WI  7.6 MW  2.7 3
 SPEC GIR2SH Z T 73758 K 0.000 GD  148 VS 4.20 DE 3.20 Q0300.0 QA 0.60 VS 4.20 3
 SPEC BAR2SH Z MO 13.4 ST  3.1 OM  1.8 f0 4.88 R0.3184 AL 2.72 WI  9.8 MW  2.9 3
 SPEC BAR2SH Z T 73758 K 0.000 GD  146 VS 4.20 DE 3.20 Q0300.0 QA 0.60 VS 4.20 3
 ACTION:UPD 13-06-20 09:50 OP:ep   STATUS:               ID:20130516073723 L   I
 2013-05-16-0735-35M.COL___219                                                 6
 STAT SP IPHASW D HRMM SECON CODA AMPLIT PERI AZIMU VELO AIN AR TRES W  DIS CAZ7
 BAR2 SZ IP     C  737 43.10                             171    0.1010 22.5 192 
 BAR2 SZ ES        737 58.45                             171    0.2310 22.5 192 
 BAR2 SZ I         737 59.78        69.7 0.36            169           22.5 192 
 GIR2 SZ EP        737 43.27                             167    0.1810 32.3 350 
 GIR2 SZ ES        737 58.46                             167    0.0810 32.3 350 
 GIR2 SZ I         738  0.80        35.8 0.12            166           32.3 350 
 BRR  HZ IP     C  737 45.03                             152    0.4310 72.1 299 
 BRR  HN ES        738  1.26                             152    0.2010 72.1 299 
 BRR  HZ I         738  7.24        74.2 0.18            150           72.1 299 
 PAM  SZ EP        737 45.47                             150   -0.1710 77.8  39 
 PAM  SN ES        738  2.93                             150    0.0110 77.8  39 
 PAM  SZ I         738  5.43        37.7 0.76            154           77.8  39 
 RUS  HZ IP     D  737 46.91                             144   -0.1810 99.6 176 
 RUS  HN ES        738  5.30                             144   -0.1910 99.6 176 
 RUS  HZ I         738  6.95        41.1 0.36            145           99.6 176 
 PTB  HZ EP        737 49.57                             132   -0.85 9  148 259 
 PTB  HN ES        738 10.73                             132   -0.69 9  148 259 
 PTB  HZ I         738 18.79        59.7 0.40            131            148 259 
 TAM  HZ IP     D  737 51.28                             130    0.25 9  154 105 
 TAM  HN ES        738 12.73                             130    0.22 9  154 105 
 TAM  HZ I         738 13.53        31.4 0.30            135            154 105 
 OCA  HZ EP        737 51.70                             129   -0.13 9  161 353 
 OCA  HN ES        738 14.03                             129    0.10 9  161 353 
 OCA  HZ I         738 19.07        89.0 0.24            131            161 353 
 YOP  SZ EP     D  737 53.57                             126    0.21 9  178 153 
 YOP  SN ES        738 16.16                             126   -0.51 9  178 153 
 YOP  SZ I         738 18.60        26.7 0.44            129            178 153 
 NOR  HZ IP     D  737 59.24                             118    0.09 8  235 235 
 NOR  HN ES        738 26.78                             118   -0.19 8  235 235 
 NOR  HZ I         738 31.26        47.2 0.20            119            235 235 
 SML  HZ EP        737 59.59                             117   -0.59 8  245 335 
 SML  HN ES        738 28.60                             117   -0.21 8  245 335 
 SML  HZ I         738 35.39        73.5 0.10            118            245 335 
 CHI  HZ EP        738  1.07                             117    0.02 8  248 195 
 CHI  HN ES        738 30.15                             117   -0.21 8  248 195 
 CHI  HZ I         738 36.23        24.7 0.36            118            248 195 
 ROSC BZ EP   2    738  2.44                             117    0.94 4  252 211 
 ROSC BN ES   2    738 31.70                             117    0.55 4  252 211 
 ROSC BZ I         738 38.11        57.3 0.40            117            252 211 
 HEL  HZ EP        738  4.42                             115    0.73 8  272 256 
 HEL  HN ES        738 36.03                             115    0.99 8  272 256 
 HEL  HZ I         738 43.81        21.8 0.36            115            272 256 
 URE  HZ EP   4    738  2.80                             113   -1.81 0  285 292 
 URE  HN ES   4    738 33.27                             113   -3.41 0  285 292 
 URE  HZ I         738 43.95        45.8 0.28            114            285 292 
 PRA  HZ IP     C  738 16.69                             106   -0.22 6  391 210 
 PRA  HN ES   2    738 59.39                             106    0.81 3  391 210 
 PRA  HZ I         739  4.87        31.2 0.32            107            391 210 
 SJC  HZ EP   4    738 16.91                             105   -2.24 0  410 327 
 SJC  HN ES   4    738 58.00                             105   -4.56 0  410 327 
                                                                                
