 2013  716 0439 42.0 L   6.787 -73.146143.2  RSN 11 0.5 2.2LRSN                1
 GAP=137        1.04       3.5     4.2  6.8 -0.1925E+01  0.7658E+01 -0.1485E+00E
 Epicentro: LOS SANTOS - SANTANDER                                             3
 ACTION:UPD 13-08-12 10:38 OP:ep   STATUS:               ID:20130716043942 L   I
 OLDACT:UP  13-07-16 13:13 OP:mh   STATUS:               ID:20130716043844     3
 OLDACT:REG 13-07-16 12:08 OP:mh   STATUS:               ID:20130716043844     3
 2013-07-16-0438-44M.COL___222                                                 6
 STAT SP IPHASW D HRMM SECON CODA AMPLIT PERI AZIMU VELO AIN AR TRES W  DIS CAZ7
 BAR2 SZ EP        440  1.42                             171    0.1210 21.9 191 
 BAR2 SZ ES   1    440 15.82                             171   -0.52 7 21.9 191 
 BAR2 SZ I         440 17.20        26.4 0.14            172           21.9 191 
 GIR2 SZ EP        440  1.64                             166    0.2310 32.6 351 
 GIR2 SZ I         440 17.55        16.7 0.10            164           32.6 351 
 BRR  HZ IP     C  440  3.43                             152    0.5210 71.9 300 
 BRR  HN ES        440 19.97                             152    0.7510 71.9 300 
 BRR  HZ I         440 24.94        24.9 0.12            149           71.9 300 
 PAM  SZ EP        440  4.39                             150    0.3810 78.5  39 
 PAM  SN ES        440 21.18                             150    0.0010 78.5  39 
 PAM  SN I         440 22.71        26.4 0.46            149           78.5  39 
 RUS  HZ EP   1    440  5.35                             143   -0.05 7 99.2 176 
 RUS  HN ES        440 23.27                             143   -0.3810 99.2 176 
 RUS  HN I         440 25.34        22.8 0.24            144           99.2 176 
 PTB  HZ EP   1    440  8.54                             131   -0.20 7  147 259 
 PTB  HN ES        440 28.68                             131   -0.91 9  147 259 
 PTB  HN I         440 31.38        24.3 0.16            130            147 259 
 OCA  HZ EP   2    440  9.46                             128   -0.79 5  162 353 
 OCA  HN ES   1    440 31.50                             128   -0.77 7  162 353 
 OCA  HZ I         440 35.09        14.6 0.34            127            162 353 
 ZAR  HZ EP   1    440 14.34                             122    0.00 6  205 293 
 ZAR  HE ES        440 39.66                             122    0.11 9  205 293 
 ZAR  HE I         440 47.89        49.8 0.28            120            205 293 
 NOR  HE ES        440 45.25                             118    0.07 8  234 235 
 NOR  HE I         440 49.32        16.4 0.20            117            234 235 
 SML  HZ EP   1    440 18.40                             116   -0.23 6  245 335 
 SML  HE ES   1    440 46.87                             116   -0.32 6  245 335 
 SML  HE I         440 50.46        33.8 0.10            115            245 335 
 PRA  HZ EP   1    440 34.70                             106   -0.60 4  391 210 
 PRA  HE ES        441 17.71                             106    0.85 6  391 210 
 PRA  HZ I         441 23.81         3.5 0.28            105            391 210 
                                                                                
