 2017  716 0609  7.7 L   6.806 -73.185145.5  RSN  5 0.2 0.8LRSN                1
 GAP=131        0.64       3.4     3.3  4.7 -0.1057E+01  0.1797E+01  0.7864E+00E
 Epicentro: ZAPATOCA - SANTANDER                                               3
 ACTION:UPD 17-08-30 15:33 OP:rebc STATUS:               ID:20170716060907 L   I
 OLDACT:DUP 17-07-16 16:09 OP:dhb  STATUS:               ID:20170716055212d    3
 OLDACT:REG 17-07-16 12:27 OP:dhb  STATUS:               ID:20170716055210     3
 2017-07-16-0558-00M.COL___383                                                 6
 STAT SP IPHASW D HRMM SECON CODA AMPLIT PERI AZIMU VELO AIN AR TRES W  DIS CAZ7
 BAR2 EZ EP        6 9 27.27                             170   -0.0510 23.6 179 
 BAR2 EZ ES        6 9 42.25                             170   -0.3610 23.6 179 
 BAR2 EZ I         6 9 43.75         1.9 0.07            175           23.6 179 
 BRR  HZ EP        6 9 28.99                             154    0.3810 67.1 300 
 BRR  HN ES        6 9 45.06                             154    0.1610 67.1 300 
 BRR  HZ I         6 9 49.25         1.9 0.11            156           67.1 300 
 PAM  EZ IP     C  6 9 30.07                             150    0.0210 79.7  42 
 PAM  EN ES        6 9 47.40                             150   -0.0610 79.7  42 
 PAM  EZ I         6 9 58.79         1.3 0.38            151           79.7  42 
 RUS  HZ EP        6 9 31.47                             143   -0.0510  102 174 
 RUS  HN ES        6 9 50.38                             143    0.3010  102 174 
 RUS  HZ I         6 9 53.90         0.8 0.15            150            102 174 
 PTB  HZ EP        6 9 33.92                             133   -0.37 9  144 258 
 PTB  HN ES        6 9 55.01                             133   -0.01 9  144 258 
 PTB  HZ I         610  0.38         0.7 0.22            138            144 258 
                                                                                
