 2016  516 0518 52.5 L   6.814 -73.153144.0  RSN 12 0.5 2.1LRSN                1
 GAP=135        1.09       3.4     4.1  6.4 -0.2846E+01  0.7186E+01 -0.1759E+00E
 Epicentro: LOS SANTOS - SANTANDER                                             3
 ACTION:UPD 16-08-18 17:46 OP:cam  STATUS:               ID:20160516051852 L   I
 OLDACT:DUP 16-05-16 13:40 OP:dnl  STATUS:               ID:20160516050749d    3
 OLDACT:UP  16-05-16 13:39 OP:dnl  STATUS:               ID:20160516050748     3
 OLDACT:REG 16-05-16 12:45 OP:mh   STATUS:               ID:20160516050748     3
 2016-05-16-0507-48M.COL___283                                                 6
 STAT SP IPHASW D HRMM SECON CODA AMPLIT PERI AZIMU VELO AIN AR TRES W  DIS CAZ7
 BAR2 EZ IP     C  519 11.88                             170   -0.0510 24.7 188 
 BAR2 EZ ES        519 26.28                             170   -0.8210 24.7 188 
 BAR2 EZ I         519 27.98        22.3 0.20            168           24.7 188 
 BRR  HZ EP        519 13.69                             153    0.3310 69.8 298 
 BRR  HN ES        519 30.53                             153    0.8810 69.8 298 
 BRR  HZ I         519 31.42        47.3 0.14            150           69.8 298 
 PAM  EZ EP        519 14.80                             151    0.3310 76.7  41 
 PAM  EN ES        519 31.73                             151    0.1110 76.7  41 
 PAM  EZ I         519 33.78        39.8 0.54            155           76.7  41 
 RUS  HZ EP        519 16.03                             143   -0.1510  102 176 
 RUS  HE ES        519 35.26                             143    0.6010  102 176 
 RUS  HZ I         519 35.89         8.9 0.36            144            102 176 
 PTB  HZ EP        519 18.71                             132   -0.56 9  147 258 
 PTB  HN ES        519 39.66                             132   -0.50 9  147 258 
 PTB  HZ I         519 41.06        13.9 0.14            130            147 258 
 OCA  HZ EP        519 19.98                             130   -0.53 9  159 353 
 OCA  HN ES        519 42.10                             130   -0.26 9  159 353 
 OCA  HZ I         519 44.80        24.1 0.24            131            159 353 
 SPBC HZ EP        519 20.53                             129   -0.39 9  164 218 
 SPBC HN ES        519 43.22                             129    0.13 9  164 218 
 SPBC HZ I         519 50.03        23.4 0.22            128            164 218 
 ZAR  HZ EP        519 24.94                             122    0.26 9  203 292 
 ZAR  HN ES        519 50.02                             122    0.23 9  203 292 
 ZAR  HZ I         519 58.87        17.4 0.29            122            203 292 
 NOR  HZ EP   2    519 28.72                             118    0.58 4  235 234 
 NOR  HE ES        519 55.62                             118   -0.33 8  235 234 
 NOR  HZ I         520  4.04         7.1 0.14            118            235 234 
 CHI  HZ EP   2    519 30.90                             117    0.67 4  250 195 
 CHI  HN ES   2    520  0.02                             117    0.36 4  250 195 
 CHI  HZ I         520  3.68         2.9 0.15            117            250 195 
 HEL  HZ EP   4    519 33.77                             115    1.20 0  272 255 
 HEL  HE ES        520  4.17                             115    0.34 8  272 255 
 HEL  HZ I         520 10.14         7.1 0.42            114            272 255 
 SJC  HZ EP   4    519 46.09                             106   -1.70 0  407 327 
 SJC  HN ES   4    520 28.05                             106   -2.87 0  407 327 
 SJC  HZ I         520 31.47         3.8 0.46            106            407 327 
                                                                                
