 2013  316 0650 37.8 L   6.757 -73.173149.4  RSN  7 0.5 1.9LRSN                1
 GAP=135        0.90       6.3     8.2  7.9  0.1306E+02 -0.2707E+01 -0.6086E+01E
 Epicentro: VILLANUEVA - SANTANDER                                             3
 ACTION:UPD 13-04-09 14:02 OP:ep   STATUS:               ID:20130316065037 L   I
 2013-03-16-0650-00M.COL___244                                                 6
 STAT SP IPHASW D HRMM SECON CODA AMPLIT PERI AZIMU VELO AIN AR TRES W  DIS CAZ7
 BAR2 SZ ES        651 12.80                             173   -0.5210 18.3 183 
 BAR2 SZ I         651 14.02        16.4 0.18            171           18.3 183 
 BRR  HZ EP        650 59.61                             153    0.3110 71.0 303 
 BRR  HN ES        651 16.65                             153    0.5610 71.0 303 
 BRR  HN I         651 17.21        12.8 0.26            150           71.0 303 
 PAM  SZ EP   1    651  0.59                             150   -0.11 7 83.0  39 
 RUS  HZ EP   1    651  2.01                             146    0.45 7 96.1 174 
 RUS  HN ES   2    651 20.21                             146    0.09 5 96.1 174 
 RUS  HN I         651 22.05         9.5 0.30            146           96.1 174 
 PTB  HZ EP   1    651  4.26                             133   -0.44 7  144 260 
 PTB  HN ES   2    651 25.08                             133   -0.62 5  144 260 
 PTB  HN I         651 31.03         6.9 0.16            131            144 260 
 OCA  HN ES   2    651 28.93                             129   -0.46 5  165 354 
 OCA  HN I         651 32.90        13.1 0.34            129            165 354 
 SML  HN ES   2    651 43.22                             118   -0.70 4  247 336 
                                                                                
