 2016  116 0029 42.5 L   6.740 -73.211154.1  RSN  5 0.4 1.7LRSN                1
 GAP=194        0.95       5.3     6.9  8.4  0.1619E+02 -0.9539E+01 -0.1142E+02E
 Epicentro: VILLANUEVA - SANTANDER                                             3
 ACTION:UPD 16-03-09 23:25 OP:cam  STATUS:               ID:20160116002942 L   I
 OLDACT:UP  16-01-16 13:03 OP:mher STATUS:               ID:20160116002747     3
 OLDACT:REG 16-01-16 12:36 OP:mh   STATUS:               ID:20160116002747     3
 2016-01-16-0027-47M.COL___332                                                 6
 STAT SP IPHASW D HRMM SECON CODA AMPLIT PERI AZIMU VELO AIN AR TRES W  DIS CAZ7
 BRR  HZ EP        030  4.59                             155    0.1710 68.7 306 
 BRR  HN ES        030 22.07                             155    0.5610 68.7 306 
 BRR  HZ I         030 52.79        11.6 0.36            162           68.7 306 
 RUS  HZ EP        030  6.57                             147   -0.1110 94.7 171 
 RUS  HN ES   1    030 25.23                             147   -0.31 7 94.7 171 
 PTB  HZ EP        030  9.62                             136    0.18 9  140 261 
 PTB  HN ES        030 29.94                             136   -0.51 9  140 261 
 PTB  HZ I         030 36.29         3.0 0.24            155            140 261 
 ZAR  HZ EP        030 15.38                             125    0.28 9  200 295 
 ZAR  HN ES        030 40.64                             125    0.11 9  200 295 
 ZAR  HZ I         030 46.94         3.3 0.32            141            200 295 
 SML  HZ EP   1    030 20.24                             119    0.30 6  247 337 
 SML  HN ES        030 48.28                             119   -0.87 8  247 337 
 SML  HZ I         030 52.08         5.1 0.10            132            247 337 
                                                                                
