 2016  816 0554 39.8 L   6.788 -73.098142.0  RSN  5 0.3 1.4LRSN                1
 GAP=266        0.84       5.4     5.7  6.5  0.3938E+01  0.8455E+01 -0.2667E+01E
 Epicentro: LOS SANTOS - SANTANDER                                             3
 ACTION:UPD 16-10-29 15:36 OP:rebc STATUS:               ID:20160816055439 L   I
 OLDACT:DUP 16-08-16 17:05 OP:ak   STATUS:               ID:20160816054760d    3
 OLDACT:REG 16-08-16 12:49 OP:ak   STATUS:               ID:20160816054759     3
 2016-08-16-0547-59S.COL___346                                                 6
 STAT SP IPHASW D HRMM SECON CODA AMPLIT PERI AZIMU VELO AIN AR TRES W  DIS CAZ7
 BAR2 EZ EP        554 59.05                             170    0.0410 23.6 203 
 BAR2 EZ ES        555 14.09                             170    0.1210 23.6 203 
 BAR2 EZ I         555 15.04         4.4 0.25                          23.6 203 
 BRR  HZ EP        555  0.64                             150   -0.2410 76.4 298 
 BRR  HN ES        555 17.25                             150   -0.0510 76.4 298 
 BRR  HZ I         555 21.15         3.2 0.14                          76.4 298 
 PTB  HZ EP        555  6.36                             130   -0.58 9  153 260 
 PTB  HN ES        555 27.68                             130   -0.41 9  153 260 
 PTB  HZ I         555 28.91         3.3 0.06                           153 260 
 SPBC HZ EP   2    555  8.29                             128    0.03 5  166 221 
 SPBC HN ES        555 30.81                             128    0.36 9  166 221 
 SPBC HZ I         555 37.84         2.6 0.27                           166 221 
 ZAR  HZ EP        555 13.16                             121    0.57 8  209 292 
 ZAR  HE ES        555 38.51                             121    0.37 8  209 292 
 ZAR  HZ I         555 42.68         3.4 0.39                           209 292 
                                                                                
