 2017  616 0637 18.6 L   6.370 -73.587110.0  RSN  9 0.5 2.2LRSN                1
 GAP=167        1.13       5.2     2.8  9.1  0.2137E+01 -0.4884E+01 -0.7181E+01E
 Epicentro: SANTA HELENA DEL OPON - SANTANDER                                  3
 ACTION:UPD 17-09-14 16:52 OP:jn   STATUS:               ID:20170616063718 L   I
 OLDACT:UP  17-06-16 16:40 OP:ar   STATUS:               ID:20170616062732d    3
 OLDACT:DUP 17-06-16 16:13 OP:ar   STATUS:               ID:20170616062732d    3
 OLDACT:REG 17-06-16 13:20 OP:ar   STATUS:               ID:20170616062731     3
 2017-06-16-0628-00M.COL___349                                                 6
 STAT SP IPHASW D HRMM SECON CODA AMPLIT PERI AZIMU VELO AIN AR TRES W  DIS CAZ7
 SPBC HZ EP        637 37.68                             136   -0.4210 95.8 214 
 SPBC HN ES        637 53.28                             136   -0.0110 95.8 214 
 SPBC HZ I         637 54.65        49.0 0.12            133           95.8 214 
 PTB  HZ EP        637 37.51                             135   -0.6710 98.0 281 
 PTB  HN ES        637 53.94                             135    0.5010 98.0 281 
 PTB  HZ I         637 54.76        32.7 0.16            131           98.0 281 
 NOR  HZ EP        637 44.96                             119   -0.13 9  168 238 
 NOR  HN ES        638  5.92                             119    0.19 9  168 238 
 NOR  HZ I         638  7.04        37.0 0.16            115            168 238 
 YPLC HZ EP        637 45.26                             118   -0.27 9  172 129 
 YPLC HN ES        638  7.00                             118    0.48 9  172 129 
 YPLC HZ I         638  8.73        28.8 0.34            113            172 129 
 ROSC BN ES   4    638 13.38                             116    3.02 0  188 206 
 ROSC BZ I         638 14.10        21.2 0.35            113            188 206 
 CHI  HZ EP        637 48.92                             115    0.60 9  193 185 
 CHI  HN ES        638 11.03                             115   -0.45 9  193 185 
 CHI  HZ I         638 14.74        11.2 0.36            112            193 185 
 TAM  HZ EP        637 48.04                             114   -0.44 9  199  88 
 TAM  HZ I         638 11.18        23.5 0.30            109            199  88 
 TAM  HN ES        638 11.96                             114    0.20 9  199  88 
 HEL  HZ EP        637 51.66                             112    0.86 8  216 265 
 HEL  HE ES        638 15.17                             112   -0.74 8  216 265 
 HEL  HZ I         638 18.49        12.3 0.24            109            216 265 
 CBOC HZ EP        637 57.61                             106    0.32 8  274 258 
 CBOC HN ES        638 27.77                             106    0.31 8  274 258 
 CBOC HZ I         638 34.27         6.2 0.48            104            274 258 
                                                                                
