 2011  616 0030 56.2 L   6.782 -73.113147.0  RSN 10 0.3 1.9LRSN                1
 GAP=142        0.52       2.5     4.8  4.6 -0.5670E+01  0.6311E+01  0.2235E+00E
 Epicentro: LOS SANTOS - SANTANDER                                             3
 ACTION:UP  11-07-14 19:05 OP:ep   STATUS:               ID:20110616003056 L   I
 2011-06-16-0026-10S.COL___138                                                 6
 STAT SP IPHASW D HRMM SECON CODA AMPLIT PERI AZIMU VELO SNR AR TRES W  DIS CAZ7
 BAR2 SZ EP   1    031 15.82                             171    -0.2 7   22 200 
 BAR2 SZ ES   2    031 30.91                             171    -0.5 5   22 200 
 BAR2 SZ I         031 33.55        16.5 0.24                            22 200 
 GIR2 SZ EP   1    031 16.09                             166     0.0 7   34 345 
 BRR  HZ IP     C  031 17.75                             151     0.010   75 299 
 BRR  HZ I         031 18.04        46.2 0.13                            75 299 
 BRR  HN ES   2    031 35.21                             151     0.7 5   75 299 
 PAM  SZ EP   1    031 18.72                             151     0.2 7   77  37 
 PAM  SN ES   2    031 35.58                             151    -0.4 5   77  37 
 RUS  HZ EP   1    031 19.76                             145    -0.2 7   98 178 
 RUS  HN ES   1    031 38.81                             145     0.4 7   98 178 
 RUS  HZ I         031 39.73         5.8 0.24                            98 178 
 BRI  SZ EP   1    031 20.42                             141     0.1 7  109  19 
 BRI  SZ ES        031 39.08                             141     0.010  109  19 
 BRI  SZ I         031 43.88         7.8 0.52                           109  19 
 GRA  SZ EP   1    031 21.59                             137    -0.1 7  127  16 
 GRA  SZ ES   1    031 41.33                             137    -0.2 7  127  16 
 GRA  SZ I         031 43.32         9.5 0.21                           127  16 
 OCA  SZ EP   1    031 24.89                             129     0.0 7  163 352 
 OCA  SZ ES   2    031 47.13                             129    -0.1 5  163 352 
 OCA  SZ I         031 52.92        13.0 0.59                           163 352 
 NOR  SZ EP   2    031 32.46                             118     0.2 4  236 235 
 NOR  SN ES   2    031 59.66                             118    -0.6 4  236 235 
 PRA  HZ EP   1    031 50.11                             107     0.3 4  392 210 
 PRA  HN ES   2    032 31.24                             107    -0.3 3  392 210 
                                                                                
