 2011  516 0433 26.1 L   6.791 -73.097143.5  RSN  4 0.2 1.5LRSN                1
 GAP=167        0.59       5.9     5.9  5.8 -0.1333E+02 -0.3136E+01 -0.3874E+01E
 Epicentro: LOS SANTOS - SANTANDER                                             3
 ACTION:UP  11-06-29 08:53 OP:tino STATUS:               ID:20110516043326 L   I
 2011-05-16-0420-00M.COL___139                                                 6
 STAT SP IPHASW D HRMM SECON CODA AMPLIT PERI AZIMU VELO SNR AR TRES W  DIS CAZ7
 BAR2 SZ EP        433 45.56                             170     0.010   24 203 
 BAR2 SZ ES   1    434  0.30                             170    -0.3 7   24 203 
 BAR2 SZ I         434  2.09        10.1 0.14                            24 203 
 PAM  SZ EP        433 48.18                             151     0.210   75  36 
 PAM  SN ES   1    434  5.25                             151     0.3 7   75  36 
 BRR  HZ EP        433 47.36                             150     0.010   76 297 
 BRR  HZ I         433 49.26         4.7 0.19                            76 297 
 BRR  HN ES   1    434  4.07                             150     0.2 7   76 297 
 GRA  SZ EP        433 50.88                             137    -0.310  125  15 
 GRA  SZ ES   2    434 10.28                             137    -0.4 5  125  15 
 GRA  SZ I         434 12.09         3.4 0.56                           125  15 
                                                                                
