 2014 1216 0925 40.0 L   6.745 -73.132142.0  RSN  6 0.3 1.1LRSN                1
 GAP=141        0.87       4.9     4.1  7.0 -0.6179E+00  0.3884E+01  0.4963E+01E
 Epicentro: LOS SANTOS - SANTANDER                                             3
 ACTION:UPD 15-02-10 17:04 OP:nd   STATUS:               ID:20141216092540 L   I
 OLDACT:REG 14-12-16 13:25 OP:spq  STATUS:               ID:20141216091735     3
 2014-12-16-0917-35M.COL___287                                                 6
 STAT SP IPHASW D HRMM SECON CODA AMPLIT PERI AZIMU VELO AIN AR TRES W  DIS CAZ7
 BAR2 EZ EP        925 58.87                             172   -0.2110 17.8 198 
 BAR2 EZ ES   1    926 13.99                             172    0.04 7 17.8 198 
 BAR2 EZ I         926 15.26         4.2 0.18            172           17.8 198 
 BRR  HZ EP        926  1.08                             150    0.0810 75.6 302 
 BRR  HN ES        926 17.90                             150    0.5210 75.6 302 
 BRR  HZ I         926 22.13         2.6 0.23            151           75.6 302 
 PAM  SZ EP        926  2.17                             149    0.1210 81.2  36 
 PAM  SN ES        926 18.84                             149   -0.4110 81.2  36 
 PAM  SZ I         926 21.88         2.0 0.32            153           81.2  36 
 RUS  HZ EP        926  3.44                             145    0.5010 94.5 177 
 RUS  HE ES   1    926 20.82                             145   -0.01 7 94.5 177 
 RUS  HZ I         926 26.07         1.0 0.30            148           94.5 177 
 PTB  HZ EP        926  6.35                             131   -0.36 9  148 261 
 PTB  HN ES        926 27.03                             131   -0.50 9  148 261 
 PTB  HZ I         926 29.11         2.0 0.30            133            148 261 
 ZAR  HN ES   1    926 38.33                             121    0.31 6  208 294 
 ZAR  HZ I         926 44.05         1.7 0.24            124            208 294 
                                                                                
