 2013  616 0054  2.1 L   6.773 -73.195154.0  RSN  4 0.4 1.5LRSN                1
 GAP=196        1.00       5.6     8.5  9.7  0.1935E+02 -0.1177E+02 -0.1894E+02E
 Epicentro: VILLANUEVA - SANTANDER                                             3
 ACTION:UPD 14-01-08 09:54 OP:ep   STATUS:               ID:20130616005402 L   I
 OLDACT:REG 13-06-16 07:17 OP:cam  STATUS:               ID:20130616004959     3
 2013-06-16-0049-59M.COL___261                                                 6
 STAT SP IPHASW D HRMM SECON CODA AMPLIT PERI AZIMU VELO AIN AR TRES W  DIS CAZ7
 BRR  HZ EP     C  054 24.15                             155    0.1510 68.1 303 
 BRR  HN ES        054 41.64                             155    0.5810 68.1 303 
 BRR  HZ I         054 45.31         6.4 0.46            153           68.1 303 
 RUS  HZ EP   1    054 26.85                             146    0.33 7 98.1 173 
 RUS  HN ES        054 45.14                             146   -0.4110 98.1 173 
 RUS  HZ I         054 46.15         2.7 0.26            149           98.1 173 
 PTB  HZ EP        054 29.25                             135   -0.00 9  142 260 
 PTB  HN ES        054 50.24                             135   -0.18 9  142 260 
 PTB  HZ I         054 56.04         2.9 0.38            135            142 260 
 SML  HZ EP   1    054 39.78                             119    0.50 6  244 337 
 SML  HN ES        055  7.43                             119   -0.83 8  244 337 
 SML  HZ I         055 10.75         5.5 0.10            121            244 337 
                                                                                
