 2013  216 0727 49.5 L   6.784 -73.135142.7  RSN  7 0.5 1.8LRSN                1
 GAP=139        1.26       5.4     6.2 10.1 -0.1747E+01  0.5426E+01  0.1850E+02E
 Epicentro: LOS SANTOS - SANTANDER                                             3
 ACTION:UPD 13-03-12 09:33 OP:ep   STATUS:               ID:20130216072749 L   I
 2013-02-16-0720-00M.COL___241                                                 6
 STAT SP IPHASW D HRMM SECON CODA AMPLIT PERI AZIMU VELO AIN AR TRES W  DIS CAZ7
 BAR2 SZ EP        728  8.73                             171   -0.0410 21.9 194 
 BRR  HZ EP        728 10.44                             151   -0.0310 73.0 299 
 BRR  HN ES        728 27.64                             151    0.8510 73.0 299 
 BRR  HN I         728 30.47        15.7 0.14            151           73.0 299 
 PAM  SZ EP        728 11.50                             150    0.0310 78.0  38 
 PAM  SN ES        728 28.50                             150   -0.0710 78.0  38 
 PAM  SN I         728 30.13         9.1 0.56            154           78.0  38 
 RUS  HZ EP        728 12.80                             144   -0.0610 98.8 177 
 RUS  HN ES        728 30.48                             144   -0.5710 98.8 177 
 RUS  HN I         728 32.58         4.0 0.18            147           98.8 177 
 PTB  HZ EP        728 15.45                             131   -0.88 9  149 260 
 PTB  HN ES        728 36.86                             131   -0.37 9  149 260 
 PTB  HN I         728 41.65        17.9 0.58            133            149 260 
 ZAR  HN ES   2    728 47.24                             121   -0.02 4  206 292 
 CHI  HZ EP        728 27.85                             117    0.93 8  247 196 
 CHI  HN ES        728 56.71                             117    0.63 8  247 196 
                                                                                
