 2010  416 0346 51.5 L   7.188 -73.296116.5  RSN  5 0.3 1.9LRSN                1
 GAP=171        0.56       3.0     5.2  5.5 -0.2330E+01 -0.3417E+01 -0.2572E+01E
 Epicentro: LEBRIJA - SANTANDER                                                3
 ACTION:UPD 10-08-24 09:59 OP:vdl  STATUS:               ID:20100416034652 L   I
 2010-04-16-0341-50S.COL___100                                                 6
 STAT SP IPHASW D HRMM SECON CODA AMPLIT PERI AZIMU VELO AIN AR TRES W  DIS CAZ7
 BRR  HZ IP     D  347  7.88                             156    -0.210   47 259 
 BRR  HZ I         347  8.09        26.0 0.10                            47 259 
 BRR  HE ES        347 21.25                             156     0.110   47 259 
 BAR2 SZ EP        347  9.59                             148     0.010   67 169 
 BAR2 SZ ES   1    347 23.77                             148     0.0 7   67 169 
 OCA  SZ EP        347 13.48                             131     0.110  116 359 
 OCA  SZ ES   1    347 30.53                             131     0.1 7  116 359 
 OCA  SZ I         347 31.60        39.9 0.07                           116 359 
 HEL  HN ES   2    347 59.86                             108    -0.5 4  270 246 
 HEL  HZ I         348  7.50         3.8 1.28                           270 246 
 RREF BE ES   2    348 16.30                             103     0.8 3  340 222 
 RREF BZ I         348 23.03         2.1 0.21                           340 222 
                                                                                
