 2014  516 0407 32.4 L   6.774 -73.147148.2  RSN 19 0.5 2.0LRSN                1
 GAP=137        0.99       2.9     3.9  6.2 -0.2252E+01  0.6369E+01  0.4804E+01E
 Epicentro: LOS SANTOS - SANTANDER                                             3
 ACTION:UPD 15-03-16 16:58 OP:nd   STATUS:               ID:20140516040732 L   I
 OLDACT:REG 14-05-16 12:56 OP:spq  STATUS:               ID:20140516035810     3
 2014-05-16-0358-10M.COL___251                                                 6
 STAT SP IPHASW D HRMM SECON CODA AMPLIT PERI AZIMU VELO AIN AR TRES W  DIS CAZ7
 BRR  HZ IP     C  4 7 54.29                             153    0.4010 72.4 301 
 BRR  HN ES        4 8 11.53                             153    0.8910 72.4 301 
 BRR  HZ I         4 8 15.31        18.9 0.14            142           72.4 301 
 PAM  SZ EP        4 7 55.41                             150    0.3910 79.7  38 
 PAM  SN ES        4 8 12.45                             150   -0.2110 79.7  38 
 PAM  SZ I         4 8 15.54         7.9 0.18            147           79.7  38 
 RUS  HZ EP   1    4 7 55.93                             145   -0.27 7 97.8 176 
 RUS  HN ES   1    4 8 14.82                             145    0.06 7 97.8 176 
 RUS  HZ I         4 8 15.53         5.5 0.20            140           97.8 176 
 PTB  HZ EP        4 7 58.90                             133   -0.61 9  147 260 
 PTB  HN ES        4 8 20.31                             133   -0.34 9  147 260 
 PTB  HZ I         4 8 25.96        15.1 0.12            123            147 260 
 TAM  HN ES   4    4 8 20.17                             131   -1.76 0  155 104 
 TAM  HZ I         4 8 21.24         8.3 0.24            128            155 104 
 SPBC HZ EP        4 8  1.08                             130    0.20 9  161 220 
 SPBC HN ES        4 8 22.71                             130   -0.37 9  161 220 
 SPBC HZ I         4 8 29.97        19.4 0.34            122            161 220 
 OCA  HN ES        4 8 23.06                             130   -0.54 9  163 353 
 OCA  HZ I         4 8 28.11         6.9 0.26            122            163 353 
 ZAR  HZ EP        4 8  5.01                             123   -0.09 9  205 293 
 ZAR  HE ES        4 8 30.77                             123    0.16 9  205 293 
 ZAR  HZ I         4 8 36.42        11.0 0.14            114            205 293 
 NOR  HN ES   1    4 8 35.95                             119    0.03 6  233 235 
 NOR  HZ I         4 8 42.93        10.9 0.22            112            233 235 
 SML  HN ES   1    4 8 37.75                             118   -0.57 6  246 336 
 SML  HZ I         4 8 41.49        14.1 0.10            111            246 336 
 CHI  HZ EP   1    4 8  9.22                             118   -0.72 6  246 195 
 CHI  HN ES        4 8 38.83                             118   -0.39 8  246 195 
 CHI  HZ I         4 8 46.13         3.2 0.28            112            246 195 
 ROSC BN ES   4    4 8 38.02                             117   -1.99 0  250 211 
 ROSC BZ I         4 8 49.58         7.4 0.40            111            250 211 
 HEL  HZ EP        4 8 13.40                             115    0.75 8  271 256 
 HEL  HN ES   1    4 8 43.42                             115   -0.62 6  271 256 
 HEL  HZ I         4 8 51.32         5.6 0.32            108            271 256 
 URE  HZ EP   4    4 8 12.53                             114   -1.16 0  285 292 
 URE  HZ I         4 8 59.04         6.0 0.34            107            285 292 
 GUY2CHZ EP   1    4 8 15.89                             113   -0.04 5  299 235 
 GUY2CHE ES   1    4 8 49.75                             113   -0.12 5  299 235 
 GUY2CHZ I         4 8 58.37         7.0 0.31                           299 235 
 RREF HZ EP        4 8 18.86                             111    0.43 7  320 230 
 RREF HN ES   1    4 8 55.20                             111    0.87 5  320 230 
 RREF HZ I         4 9  1.68         6.3 0.22            105            320 230 
 CBOC HZ EP   1    4 8 19.92                             110    0.62 5  333 253 
 CBOC HN ES   1    4 8 55.09                             110   -0.79 5  333 253 
 CBOC HZ I         4 9 19.15         1.9 0.09            104            333 253 
 PRA  HN ES   1    4 9  7.45                             107    0.16 4  389 210 
 PRA  HZ I         4 9 13.86         2.8 0.34            102            389 210 
 ORTC HN ES   1    4 9  8.49                             107    0.46 4  393 216 
 ORTC HZ I         4 9 15.56         1.9 0.20            102            393 216 
                                                                                
