 2011 1116 0835 13.6 L   6.776 -73.108141.6  RSN  4 0.4 1.3LRSN                1
 GAP=142        0.74       5.2     7.7  8.8 -0.8267E+00 -0.4224E+01  0.4259E+01E
 Epicentro: LOS SANTOS - SANTANDER                                             3
 ACTION:UPD 12-07-13 16:10 OP:ep   STATUS:               ID:20111116083513 L   I
 2011-11-16-0834-03S.COL___179                                                 6
 STAT SP IPHASW D HRMM SECON CODA AMPLIT PERI AZIMU VELO AIN AR TRES W  DIS CAZ7
 BAR2 SZ EP   1    835 32.22                             171   -0.53 7 21.9 202 
 BAR2 SZ ES   2    835 46.72                             171   -0.93 5 21.9 202 
 BAR2 SZ I         835 48.99         6.8 0.10                          21.9 202 
 BRR  HZ EP   1    835 34.49                             150   -0.15 7 76.1 299 
 BRR  HE ES   1    835 51.31                             150    0.30 7 76.1 299 
 BRR  HZ I         835 55.44         5.6 0.15                          76.1 299 
 PAM  SZ EP   1    835 35.68                             150    0.28 7 77.0  36 
 PAM  SZ I         835 36.01         4.0 0.22                          77.0  36 
 PAM  SN ES   1    835 52.40                             150    0.04 7 77.0  36 
 RUS  HZ EP   1    835 36.81                             144    0.03 7 97.7 178 
 RUS  HZ I         835 38.05         2.3 0.17                          97.7 178 
 RUS  HN ES   1    835 55.26                             144    0.43 7 97.7 178 
                                                                                
