 2010  516 0511 14.7 L   6.789 -72.958138.3  RSN  6 0.3 1.2LRSN                1
 GAP=178        0.68       4.3     8.8  8.7  0.6039E+01 -0.4247E+02 -0.1190E+02E
 Epicentro: CEPITA - SANTANDER                                                 3
 ACTION:UP  10-08-24 10:05 OP:vdl  STATUS:               ID:20100516051114 L   I
 2010-05-16-0509-56S.COL___108                                                 6
 STAT SP IPHASW D HRMM SECON CODA AMPLIT PERI AZIMU VELO AIN AR TRES W  DIS CAZ7
 BAR2 SZ ES   1    511 48.29                             166    -0.2 7   33 229 
 BRR  HZ EP        511 36.12                             145    -0.110   91 293 
 BRR  HN ES   1    511 53.12                             145     0.0 7   91 293 
 BRR  HZ I         511 57.80         4.4 0.19                            91 293 
 RUS  HZ EP        511 37.76                             142     0.110  100 188 
 RUS  HE ES   2    511 55.80                             142     0.2 5  100 188 
 RUS  HZ I         511 57.07         1.9 0.20                           100 188 
 BRI  SZ EP        511 37.12                             141    -0.410  104  10 
 GUE  SZ EP        511 38.93                             138     0.310  115   2 
 OCA  SZ ES   2    512  5.43                             127     0.5 5  165 346 
                                                                                
