 2010  716 0558 55.8 L   6.760 -73.111149.0  RSN  5 0.2 1.6LRSN                1
 GAP=186        0.44       4.5     8.9  5.5  0.2289E+02 -0.1740E+02 -0.9138E+01E
 Epicentro: LOS SANTOS - SANTANDER                                             3
 ACTION:UPD 10-12-01 15:18 OP:pat  STATUS:               ID:20100716055855 L   I
 2010-07-16-0556-25S.COL___120                                                 6
 STAT SP IPHASW D HRMM SECON CODA AMPLIT PERI AZIMU VELO AIN AR TRES W  DIS CAZ7
 BAR2 SZ IP        559 15.66                             172    -0.110   20 203 
 BAR2 SZ ES   1    559 31.11                             172    -0.2 7   20 203 
 BAR2 SZ I         559 32.12        11.6 0.12                            20 203 
 GIR2 SZ EP   2    559 15.80                             166    -0.2 5   36 345 
 BRR  HZ IP     C  559 17.45                             151    -0.110   77 300 
 BRR  HZ I         559 17.68        13.7 0.13                            77 300 
 BRR  HN ES   1    559 34.73                             151     0.1 7   77 300 
 RUS  HZ EP   2    559 19.76                             146     0.3 5   96 178 
 RUS  HN ES   2    559 38.39                             146     0.4 5   96 178 
 RUS  HZ I         559 39.02         3.5 0.49                            96 178 
 OCA  SZ EP   2    559 25.05                             129     0.3 5  165 352 
 OCA  SZ ES   2    559 47.62                             129     0.2 5  165 352 
 OCA  SZ I         559 54.47         2.9 0.27                           165 352 
                                                                                
