 2010  616 0952 59.3 L   6.770 -73.151147.5  RSN  6 0.3 0.8LRSN                1
 GAP=155        0.58       4.4    12.2  7.9 -0.2257E+02  0.1213E+02 -0.8388E+01E
 Epicentro: LOS SANTOS - SANTANDER                                             3
 ACTION:UP  10-08-24 10:10 OP:vdl  STATUS:               ID:20100616095259 L   I
 2010-06-16-0950-25S.COL___114                                                 6
 STAT SP IPHASW D HRMM SECON CODA AMPLIT PERI AZIMU VELO SNR AR TRES W  DIS CAZ7
 BAR2 SZ EP   1    953 19.27                             172     0.2 7   20 190 
 BAR2 SZ ES   2    953 34.02                             172    -0.5 5   20 190 
 BRR  HZ EP   1    953 20.87                             152     0.2 7   72 301 
 RUS  HZ EP   1    953 22.67                             145    -0.3 7   97 176 
 RUS  HE ES   2    953 41.95                             145     0.5 5   97 176 
 RUS  HZ I         953 42.37         1.1 0.70                            97 176 
 BRI  SZ EP   1    953 23.79                             141     0.2 7  112  20 
 BRI  SZ ES   2    953 42.67                             141     0.1 5  112  20 
 GUE  SZ EP   1    953 23.97                             139    -0.5 7  120  12 
 GUE  SZ ES   2    953 44.00                             139     0.0 5  120  12 
 GRA  SZ EP   1    953 25.17                             137     0.2 7  129  17 
                                                                                
