 2016 1216 0032  1.2 L   5.859 -73.736115.4  RSN  7 0.2 1.5LRSN                1
 GAP=168        0.64       2.9     2.2  5.3 -0.7323E+00  0.1845E+01 -0.9558E+00E
 Epicentro: JESUS MARIA - SANTANDER                                            3
 ACTION:UPD 17-01-11 20:15 OP:rebc STATUS:               ID:20161216003201 L   I
 OLDACT:UP  16-12-16 13:08 OP:e    STATUS:               ID:20161216002746     3
 OLDACT:REG 16-12-16 12:15 OP:and  STATUS:               ID:20161216002746     3
 2016-12-16-0028-00M.COL___386                                                 6
 STAT SP IPHASW D HRMM SECON CODA AMPLIT PERI AZIMU VELO AIN AR TRES W  DIS CAZ7
 RUS  HZ EP        032 19.73                             146   -0.1810 72.3  87 
 RUS  HN ES        032 34.30                             146   -0.2310 72.3  87 
 RUS  HZ I         032 35.80         6.2 0.46            148           72.3  87 
 BAR2 EZ EP     C  032 21.90                             136    0.0810  102  37 
 BAR2 EZ ES        032 38.17                             136    0.2510  102  37 
 BAR2 EZ I         032 39.22        11.9 0.18            137            102  37 
 PTB  HN ES        032 38.29                             133   -0.3410  110 313 
 PTB  HZ I         032 39.67         3.4 0.12            133            110 313 
 NOR  HZ EP        032 24.12                             128   -0.0110  130 255 
 NOR  HN ES        032 42.40                             128    0.3710  130 255 
 NOR  HZ I         032 43.61         8.5 0.18            129            130 255 
 BRR  HZ EP        032 24.72                             126   -0.15 9  138   1 
 BRR  HE ES        032 43.68                             126    0.33 9  138   1 
 PAM  EZ EP        032 32.14                             116    0.15 9  200  35 
 ZAR  HN ES        032 58.49                             113   -0.28 8  219 326 
 ZAR  HZ I         033  2.97         2.4 0.17            114            219 326 
                                                                                
