 2011  816 0647 37.2 L   6.767 -73.125148.0  RSN 11 0.3 3.1LRSN                1
 GAP=141        0.59       2.5     4.3  4.3 -0.3344E+01  0.5611E+01  0.2134E+01E
 Epicentro: LOS SANTOS - SANTANDER                                             3
 ACTION:UPD 12-07-13 15:52 OP:ep   STATUS:               ID:20110816064737 L   I
 2011-08-16-0646-03S.COL___150                                                 6
 STAT SP IPHASW D HRMM SECON CODA AMPLIT PERI AZIMU VELO AIN AR TRES W  DIS CAZ7
 BAR2 SZ IP        647 57.00                             172   -0.0210 20.4 198 
 BAR2 SZ ES   1    648 12.27                             172   -0.23 7 20.4 198 
 BAR2 SZ I         648 13.86       200.8 0.29                          20.4 198 
 BRR  HZ IP     C  647 58.89                             152    0.1010 75.0 300 
 BRR  HN ES   1    648 16.27                             152    0.63 7 75.0 300 
 BRR  HZ I         648 18.07       191.7 0.15                          75.0 300 
 PAM  SZ EP   1    647 59.85                             151    0.13 7 78.8  37 
 PAM  SE ES   1    648 17.13                             151   -0.16 7 78.8  37 
 RUS  HZ EP   1    648  0.83                             145   -0.06 7 96.8 177 
 RUS  HE ES   1    648 19.57                             145    0.19 7 96.8 177 
 OCA  SZ EP   1    648  5.52                             130   -0.51 7  164 352 
 OCA  SZ ES   1    648 28.50                             130   -0.03 7  164 352 
 OCA  SZ I         648 32.41       128.2 0.27                           164 352 
 NOR  SZ EP   1    648 12.47                             119   -0.55 6  235 236 
 NOR  SN ES   1    648 40.45                             119   -0.53 6  235 236 
 CHI  HZ EP   1    648 15.07                             118    0.38 6  246 196 
 CHI  HE ES   1    648 43.86                             118   -0.10 6  246 196 
 CHI  HZ I         648 47.96        37.1 0.52                           246 196 
 GUY  SZ EP   1    648 21.51                             113    0.37 5  303 236 
 GUY  SZ I         649  4.46        73.3 0.34                           303 236 
 TOL  SZ EP   1    648 26.01                             110    0.59 5  343 225 
 TOL  SZ ES   1    649  2.69                             110   -0.36 5  343 225 
 PRA  HZ EP   1    648 30.39                             107   -0.16 4  390 210 
 PRA  HE ES   1    649 12.36                             107    0.19 4  390 210 
 SJA  SZ EP   2    648 31.75                             107    0.29 3  397 193 
 SJA  SZ I         649 22.50        63.1 0.38                           397 193 
                                                                                
