 2016  816 0100 14.9 L   6.827 -73.143147.0  RSN 29 0.5 2.9LRSN                1
 GAP= 70        1.06       2.4     2.7  4.3 -0.1314E+01  0.2510E+01  0.2498E+00E
 Epicentro: LOS SANTOS - SANTANDER                                             3
 ACTION:UPD 16-10-29 15:35 OP:rebc STATUS:               ID:20160816010014 L   I
 OLDACT:REG 16-08-16 12:30 OP:ak   STATUS:               ID:20160816005759     3
 2016-08-16-0057-59S.COL___349                                                 6
 STAT SP IPHASW D HRMM SECON CODA AMPLIT PERI AZIMU VELO AIN AR TRES W  DIS CAZ7
 BAR2 EZ IP     D  1 0 34.73                             170    0.0210 26.3 190 
 BAR2 EZ ES        1 0 50.02                             170   -0.1710 26.3 190 
 BAR2 EZ I         1 0 51.37       260.1 0.16                          26.3 190 
 BRR  HZ IP     C  1 0 36.53                             153    0.4410 70.1 296 
 BRR  HN ES        1 0 53.46                             153    0.8210 70.1 296 
 BRR  HZ I         1 0 57.61       132.4 0.36                          70.1 296 
 PAM  EZ EP        1 0 37.66                             152    0.5910 74.9  41 
 PAM  EN ES        1 0 54.56                             152    0.1710 74.9  41 
 PAM  EZ I         1 0 56.92       196.1 0.52                          74.9  41 
 RUS  HZ IP     D  1 0 38.73                             143   -0.2310  104 176 
 RUS  HN ES        1 0 57.81                             143    0.0610  104 176 
 RUS  HZ I         1 0 59.01        73.1 0.46                           104 176 
 PTB  HZ EP        1 0 41.47                             132   -0.55 9  149 258 
 PTB  HN ES        1 1  2.31                             132   -0.89 9  149 258 
 PTB  HZ I         1 1  5.43        64.3 0.12                           149 258 
 TAM  HZ IP     D  1 0 43.12                             131    0.43 9  156 106 
 TAM  HZ I         1 1  4.22        30.5 0.33                           156 106 
 TAM  HN ES        1 1  4.44                             131    0.05 9  156 106 
 SPBC HZ EP        1 0 43.57                             129   -0.14 9  166 218 
 SPBC HN ES        1 1  5.85                             129   -0.35 9  166 218 
 SPBC HZ I         1 1 10.50       133.6 0.13                           166 218 
 ZAR  HZ EP        1 0 47.43                             123    0.12 9  203 291 
 ZAR  HN ES        1 1 12.61                             123   -0.01 9  203 291 
 NOR  HZ EP        1 0 50.81                             119   -0.08 8  237 234 
 NOR  HE ES        1 1 18.10                             119   -0.88 8  237 234 
 NOR  HZ I         1 1 24.20        34.4 0.08                           237 234 
 CHI  HZ EP        1 0 52.88                             117   -0.08 8  252 195 
 CHI  HN ES        1 1 22.07                             117   -0.60 8  252 195 
 CHI  HZ I         1 1 25.73        51.8 0.56                           252 195 
 ROSC BZ EP   1    1 0 54.22                             117    0.86 6  255 211 
 ROSC BN ES        1 1 22.70                             117   -0.67 8  255 211 
 ROSC BZ I         1 1 29.19        96.8 0.45                           255 211 
 HEL  HZ EP   2    1 0 56.08                             115    0.82 4  273 255 
 HEL  HN ES        1 1 27.24                             115    0.47 8  273 255 
 HEL  HZ I         1 1 32.81        36.6 0.28                           273 255 
 URE  HZ EP        1 0 55.34                             114   -0.57 7  283 291 
 URE  HE ES   4    1 1 26.10                             114   -1.82 0  283 291 
 URE  HZ I         1 1 38.52        40.9 0.28                           283 291 
 SOCV BZ EP        1 0 57.46                             112   -0.30 7  299  57 
 SOCV BN ES   4    1 1 29.49                             112   -1.72 0  299  57 
 GUY2CHZ EP        1 0 59.22                             112    0.46 7  303 234 
 GUY2CHE ES        1 1 33.82                             112    0.82 7  303 234 
 GUY2CHZ I         1 1 41.01        44.3 0.34                           303 234 
 VIL  EZ EP        1 0 58.68                             112   -0.00 7  306 192 
 VIL  EN ES        1 1 32.45                             112   -0.41 7  306 192 
 VIL  EZ I         1 1 42.42        76.8 0.42                           306 192 
 PTGC HZ IP   4 D  1 0 57.82                             112   -1.27 0  311 159 
 PTGC HN ES   4    1 1 31.35                             112   -2.23 0  311 159 
 PTGC HZ I         1 1 36.32        35.4 0.42                           311 159 
 LL6C HZ EP        1 0 59.20                             111   -1.08 7  322 358 
 LL6C HE ES        1 1 35.13                             111   -0.57 7  322 358 
 LL6C HZ I         1 1 41.87        22.4 0.44                           322 358 
 ELA  HZ EP   2    1 1  2.90                             110    0.88 3  331 229 
 ELA  HE ES        1 1 39.48                             110    0.68 7  331 229 
 ELA  HZ I         1 1 47.45        30.0 0.50                           331 229 
 CBOC HZ EP        1 1  2.24                             110    0.26 7  335 252 
 CBOC HE ES        1 1 38.66                             110   -0.06 7  335 252 
 ARGC HZ EP        1 1  4.34                             109    0.08 6  356 340 
 ARGC HN ES        1 1 42.87                             109    0.09 6  356 340 
 ARGC HZ I         1 1 48.85         9.9 0.21                           356 340 
 ANIL HZ EP        1 1  5.71                             109    0.71 6  360 224 
 ANIL HN ES        1 1 45.12                             109    1.03 6  360 224 
 PRA  HZ EP        1 1  8.85                             107    0.09 6  395 209 
 PRA  HN ES        1 1 50.18                             107   -0.61 6  395 209 
 PRA  HZ I         1 1 55.07        36.1 0.22                           395 209 
 SJC  HZ EP   4    1 1  8.26                             106   -1.94 0  407 327 
 SJC  HN ES   4    1 1 50.26                             106   -3.09 0  407 327 
 SJC  HZ I         1 1 57.12        11.7 0.51                           407 327 
 PAL  HZ EP        1 1 10.16                             106   -0.12 6  408 239 
 PAL  HN ES   4    1 1 51.96                             106   -1.55 0  408 239 
 PAL  HZ I         1 1 57.14        10.4 0.20                           408 239 
 CRJC HZ EP   9    1 1 15.05                             104   -2.00 0  465   4 
 CRJC HE ES        1 2  3.35                                   -0.20 5  465   4 
 CRJC HZ I         1 2  9.92        24.0 0.25                           465   4 
 GUA  EZ EP   4    1 1 16.59                             103   -1.82 0  477 173 
 GUA  EN ES   4    1 2  4.85                             103   -3.11 0  477 173 
 GUA  EZ I         1 2 13.52        17.6 0.20                           477 173 
 MACC HZ EP   4    1 1 21.83                             102   -2.14 0  524 189 
 MACC HN ES   4    1 2 13.54                             102   -4.33 0  524 189 
 MACC HZ I         1 2 17.64         5.7 0.10                           524 189 
 MARO HZ EP   2    1 1 26.25                             101    0.01 2  540 215 
                                                                                
