 2010 1116 0248 33.4 L   6.759 -73.129150.1  RSN  4 0.2 1.9LRSN                1
 GAP=184        0.62       4.4    11.5  7.0  0.2620E+02 -0.2293E+02 -0.1173E+02E
 Epicentro: LOS SANTOS - SANTANDER                                             3
 ACTION:UP  10-12-17 16:52 OP:REBC STATUS:               ID:20101116024833 L   I
 2010-11-16-0248-05S.COL___128                                                 6
 STAT SP IPHASW D HRMM SECON CODA AMPLIT PERI AZIMU VELO SNR AR TRES W  DIS CAZ7
 BAR2 SZ ES   1    249  9.08                             172    -0.1 7   19 198 
 BAR2 SZ I         249 10.15        29.1 0.12                            19 198 
 BRR  HZ IP     C  248 55.47                             152     0.210   75 301 
 BRR  HZ I         248 55.70        34.1 0.12                            75 301 
 BRR  HN ES   1    249 12.09                             152    -0.2 7   75 301 
 RUS  HZ EP   1    248 57.32                             146     0.0 7   96 177 
 RUS  HE ES   1    249 15.92                             146     0.0 7   96 177 
 RUS  HZ I         249 17.50         7.0 0.41                            96 177 
 OCA  SZ EP   1    249  2.04                             130    -0.5 7  165 353 
 OCA  SZ ES   1    249 25.48                             130     0.3 7  165 353 
 OCA  SZ I         249 30.32         5.3 0.20                           165 353 
                                                                                
