 2016  716 0527 50.3 L   7.398 -73.175136.9  RSN  4 0.1 1.3LRSN                1
 GAP=267        0.37       4.5     3.3  4.1  0.7204E+01  0.1519E+01 -0.5301E+01E
 Epicentro: EL PLAYON - SANTANDER                                              3
 ACTION:UPD 17-03-29 16:51 OP:lp   STATUS:               ID:20160716052750 L   I
 OLDACT:DUP 16-07-16 15:33 OP:lv   STATUS:               ID:20160716051760d    3
 2016-07-16-0517-59S.COL___328                                                 6
 STAT SP IPHASW D HRMM SECON CODA AMPLIT PERI AZIMU VELO AIN AR TRES W  DIS CAZ7
 BRR  HZ EP        528 10.27                             152   -0.0610 67.5 242 
 BRR  HE ES        528 25.81                             152   -0.1110 67.5 242 
 BRR  HZ I         528 27.54         4.4 0.15            152           67.5 242 
 BAR2 EZ ES        528 29.09                             145    0.1110 89.1 181 
 BAR2 EZ I         528 29.85         4.6 0.13            146           89.1 181 
 PTB  HZ EP        528 18.79                             126   -0.01 9  171 236 
 PTB  HN ES        528 40.93                             126   -0.07 9  171 236 
 PTB  HZ I         528 42.21         1.4 0.23            126            171 236 
 ZAR  HN ES        528 43.93                             123    0.15 9  186 273 
                                                                                
