 2010  316 0408 28.9 L   6.818 -73.019145.4  RSN  9 0.2 1.8LRSN                1
 GAP=196        0.40       3.9     7.8  4.8  0.9425E+01  0.1488E+01  0.6607E+00E
 Epicentro: CEPITA - SANTANDER                                                 3
 ACTION:UP  10-08-24 09:54 OP:vdl  STATUS:               ID:20100316040828 L   I
 2010-03-16-0405-52S.COL___095                                                 6
 STAT SP IPHASW D HRMM SECON CODA AMPLIT PERI AZIMU VELO SNR AR TRES W  DIS CAZ7
 BAR2 SZ EP        4 8 48.64                             167     0.010   31 216 
 BAR2 SZ ES   2    4 9  4.24                             167     0.2 5   31 216 
 BRR  HZ EP   1    4 8 50.56                             149    -0.2 7   83 293 
 BRR  HN ES   2    4 9  7.71                             149     0.0 5   83 293 
 BRR  HZ I         4 9 11.59        10.6 0.16                            83 293 
 RUS  HZ EP   2    4 8 52.41                             143    -0.4 5  103 184 
 RUS  HN ES   2    4 9 11.70                             143     0.3 5  103 184 
 RUS  HZ I         4 9 14.02         4.4 0.35                           103 184 
 OCA  SZ EP   2    4 8 57.56                             130     0.3 5  161 348 
 OCA  SZ I         4 9 22.90         9.5 0.16                           161 348 
 CHI  HZ EP   2    4 9  7.00                             117    -0.2 4  255 198 
 CHI  HN ES   3    4 9 37.07                             117    -0.1 2  255 198 
 HEL  HZ EP   3    4 9 11.16                             114     0.5 2  286 256 
 HEL  HZ I         4 9 47.27         2.6 0.22                           286 256 
 RREF BZ EP   3    4 9 16.94                             110     0.5 2  334 231 
 RREF BZ I         4 9 58.59         3.3 0.45                           334 231 
 TOL  SZ EP   2    4 9 18.81                             109     0.3 3  355 226 
 PRA  HZ EP   2    4 9 23.39                             106    -0.1 3  401 211 
 PRA  HZ I         410  8.27         1.9 0.37                           401 211 
                                                                                
