 2015  316 0705  0.8 L   6.848 -73.424 25.4  RSN  6 0.3 1.1LRSN                1
 GAP= 93        0.91       2.1     2.1  3.4  0.8296E+00  0.1538E+01  0.1081E+01E
 Epicentro: SAN VICENTE DE CHUCURI - SANTANDER                                 3
 ACTION:UPD 15-04-30 16:26 OP:nd   STATUS:               ID:20150316070500 L   I
 OLDACT:DUP 15-03-16 19:03 OP:stll STATUS:               ID:20150316065747d    3
 2015-03-16-0657-45M.COL___254                                                 6
 STAT SP IPHASW D HRMM SECON CODA AMPLIT PERI AZIMU VELO AIN AR TRES W  DIS CAZ7
 BAR2 EZ EP        7 5  8.61                             116    0.1410 38.9 137 
 BAR2 EZ ES        7 5 14.78                             116    0.3210 38.9 137 
 BAR2 EZ I         7 5 16.05        17.7 0.28            111           38.9 137 
 BRR  HZ EP        7 5  8.58                             112   -0.1310 42.8 312 
 BRR  HZ I         7 5  8.66        11.2 0.40            110           42.8 312 
 BRR  HN ES        7 5 14.95                             112    0.0710 42.8 312 
 PAM  SZ EP        7 5 16.54                              91   -0.3010 96.7  56 
 PAM  SZ I         7 5 16.82         4.8 0.10             99           96.7  56 
 PAM  SN ES        7 5 28.81                              91   -0.5410 96.7  56 
 RUS  HZ EP        7 5 19.01                              61    0.1710  112 160 
 RUS  HN ES        7 5 32.84                              61   -0.0810  112 160 
 RUS  HZ I         7 5 34.29         3.3 0.48             97            112 160 
 PTB  HZ EP        7 5 19.19                              61    0.0510  119 253 
 PTB  HN ES        7 5 33.07                              61   -0.3810  119 253 
 PTB  HZ I         7 5 33.97         3.6 0.50             97            119 253 
 OCA  HN ES        7 5 42.33                              61    0.78 9  154   4 
 OCA  HZ I         7 5 45.58         3.7 0.52             56            154   4 
                                                                                
