 2011  516 0512 39.0 L   6.761 -73.109141.9  RSN 28 0.4 4.7LRSN                1
 GAP=143        1.01       4.9     6.0  6.0 -0.1680E+02  0.3451E+01  0.9829E+01E
 Epicentro: LOS SANTOS - SANTANDER                                             3
 Evento Sentido                                                                2
 Reportado como Sentido:                                                       3
 BUCARAMANGA, FLORIDABLANCA, PIEDECUSTA (SANTANDER), CUCUTA, PAMPLONA (NORTE DE3
 SANTANDER), MEDELLIN (ANTIOQUIA), MANIZALES (CALDAS), TACHIRA (VENEZUELA)     3
 ACTION:UP  11-06-29 08:53 OP:tino STATUS:               ID:20110516051239 L   I
 2011-05-16-0510-21S.COL___139                                                 6
 STAT SP IPHASW D HRMM SECON CODA AMPLIT PERI AZIMU VELO SNR AR TRES W  DIS CAZ7
 BAR2 SZ IP        512 58.43                             171     0.310   20 204 
 BAR2 SZ ES   1    513 12.46                             171    -0.6 7   20 204 
 BAR2 SZ I         513 14.32     14664.8 0.41                            20 204 
 BRR  HZ IP     D  513  0.39                             150     0.310   77 300 
 BRR  HN ES   1    513 16.86                             150     0.3 7   77 300 
 BRR  HZ I         513 21.92      7129.7 0.12                            77 300 
 PAM  SZ IP        513  1.34                             150     0.510   78  35 
 PAM  SN ES   1    513 18.07                             150     0.1 7   78  35 
 BRI  SZ IP        513  3.15                             140     0.410  111  18 
 BRI  SZ ES   1    513 20.97                             140    -0.3 7  111  18 
 GUE  SZ EP        513  3.50                             138    -0.210  120  10 
 GRA  SZ IP        513  4.42                             135     0.310  129  15 
 GRA  SZ ES   1    513 23.14                             135    -0.7 7  129  15 
 GRA  SZ I         513 25.22      8310.4 0.32                           129  15 
 OCA  SZ IP        513  7.25                             128    -0.2 9  165 352 
 OCA  SZ ES   2    513 29.34                             128    -0.4 5  165 352 
 OCA  SZ I         513 33.17      8587.7 0.18                           165 352 
 NOR  SZ EP        513 14.22                             117    -0.4 8  236 236 
 NOR  SN ES   2    513 42.28                             117    -0.1 4  236 236 
 HEL  HZ EP        513 18.73                             114    -0.6 8  275 257 
 HEL  HZ I         513 57.45      2999.0 0.54                           275 257 
 VIL  SZ EP        513 21.93                             112     0.1 7  300 193 
 GUY  SZ EP        513 23.36                             111     0.5 7  304 236 
 GUY  SN ES   2    513 56.41                             111    -0.6 4  304 236 
 GUY  SZ I         514  2.88      1787.1 0.31                           304 236 
 DBB  SZ IP        513 26.99                             108     0.1 7  344 275 
 ANIL HZ EP        513 29.03                             108     0.4 6  357 225 
 ANIL HZ I         514 17.71      3080.0 0.16                           357 225 
 MON  HZ IP   4 C  513 26.19                             108    -2.4 0  360 309 
 MON  HZ I         514 11.01      1233.0 0.43                           360 309 
 SDV  BZ IP        513 28.20                             108    -0.7 6  360  49 
 SDV  BN ES   4    514  4.13                             108    -3.6 0  360  49 
 SDV  BZ I         514  9.98      1583.0 0.70                           360  49 
 PRA  HZ EP        513 31.56                             106    -0.6 6  390 210 
 PRA  HZ I         514 17.98      1880.3 0.26                           390 210 
 SJA  SZ IP        513 32.48                             106    -0.6 6  397 194 
 SJA  SZ I         514 17.53      1883.1 0.49                           397 194 
 SJC  HZ IP   4 C  513 32.84                             105    -2.3 0  415 327 
 SJC  HZ I         514 18.48      3029.0 0.49                           415 327 
 SOL  SZ EP        513 42.35                             102    -0.3 5  479 263 
 CAP2 HZ EP   4    513 42.59                             101    -4.1 0  513 294 
 CAP2 HZ I         514 37.51       548.0 0.29                           513 294 
 MARA HZ EP   1    513 49.95                             101     0.1 3  536 216 
 MAL  SZ EP        513 53.22                             100     1.1 3  558 237 
 MAL  SZ I         513 56.82       265.9 0.71                           558 237 
 URI  HZ IP   4 D  513 49.23                             100    -3.1 0  560  13 
 PCON HZ EP        513 59.56                              99     0.4 3  611 217 
 PCON HZ I         515 13.45       222.6 0.50                           611 217 
 SOTA HZ EP        514  3.05                              98     0.2 2  642 217 
 SOTA HZ I         514  8.79       295.6 0.62                           642 217 
 GOR  SZ EP   3    514  7.04                              97    -1.9 0  698 234 
 CRU  SZ EP        514 12.89                              97     1.4 1  715 217 
 CRU  SZ I         514 15.76       234.2 0.25                           715 217 
 GCUF HZ EP   3    514 18.46                              96    -0.1 0  772 218 
 BCIP BZ EP   4    514 16.47                              96    -3.5 0  788 290 
 OTAV BZ EP        514 36.13                              95    -2.0 0  934 220 
                                                                                
