 2013 1116 0645 23.5 L   6.739 -73.154149.1  RSN  5 0.4 1.2LRSN                1
 GAP=232        0.99       5.9     6.4  7.3  0.7782E+01  0.5787E+01  0.3600E+01E
 Epicentro: JORDAN - SANTANDER                                                 3
 ACTION:UPD 14-01-09 16:28 OP:ep   STATUS:               ID:20131116064523 L   I
 OLDACT:REG 13-11-16 10:16 OP:nd   STATUS:               ID:20131116064000     3
 2013-11-16-0640-00M.COL___279                                                 6
 STAT SP IPHASW D HRMM SECON CODA AMPLIT PERI AZIMU VELO AIN AR TRES W  DIS CAZ7
 BAR2 SZ EP        645 43.08                             173   -0.3010 16.6 191 
 BAR2 SZ ES        645 58.64                             173   -0.2810 16.6 191 
 BAR2 SZ I         645 59.44         5.1 0.18            171           16.6 191 
 BRR  HZ EP        645 45.42                             152    0.2910 73.9 303 
 BRR  HN ES        646  2.56                             152    0.5410 73.9 303 
 BRR  HZ I         646  8.73         2.4 0.44            150           73.9 303 
 RUS  HZ EP        645 47.10                             146    0.0110 94.0 175 
 RUS  HN ES        646  5.45                             146   -0.0610 94.0 175 
 RUS  HZ I         646  7.26         1.7 0.54            149           94.0 175 
 PTB  HZ EP        645 50.12                             133   -0.41 9  146 261 
 PTB  HN ES        646 10.99                             133   -0.64 9  146 261 
 PTB  HZ I         646 15.15         2.2 0.12            133            146 261 
 SPBC HZ EP        645 52.04                             131    0.35 9  157 220 
 SPBC HN ES        646 14.19                             131    0.49 9  157 220 
 SPBC HZ I         646 18.88         1.6 0.20            132            157 220 
                                                                                
