 2013 1116 0234 59.6 L   6.798 -73.211147.8  RSN  5 0.5 1.4LRSN                1
 GAP=195        1.24       6.3     8.7  9.1  0.2247E+02 -0.2583E+01 -0.1785E+02E
 Epicentro: ZAPATOCA - SANTANDER                                               3
 ACTION:UPD 14-01-09 16:28 OP:ep   STATUS:               ID:20131116023459 L   I
 OLDACT:DUP 13-11-16 11:26 OP:nd   STATUS:               ID:20131116023001d    3
 2013-11-16-0230-00M.COL___279                                                 6
 STAT SP IPHASW D HRMM SECON CODA AMPLIT PERI AZIMU VELO AIN AR TRES W  DIS CAZ7
 BAR2 SZ EP        235 19.43                             171   -0.0410 23.0 172 
 BAR2 SZ ES        235 34.63                             171   -0.3410 23.0 172 
 BAR2 SZ I         235 35.75         7.4 0.26            171           23.0 172 
 BRR  HZ EP        235 21.04                             155    0.4010 65.0 302 
 BRR  HN ES        235 37.96                             155    0.9110 65.0 302 
 BRR  HZ I         235 38.65         7.4 0.32            154           65.0 302 
 RUS  HZ EP        235 23.86                             144    0.2710  101 172 
 RUS  HN ES        235 41.86                             144   -0.4510  101 172 
 RUS  HZ I         235 43.91         1.5 0.38            145            101 172 
 PTB  HZ EP        235 26.25                             134    0.15 9  141 258 
 PTB  HN ES        235 46.37                             134   -0.41 9  141 258 
 PTB  HZ I         235 49.66         3.0 0.16            134            141 258 
 SML  HZ EP        235 36.21                             118    0.17 8  241 337 
 SML  HN ES        236  3.50                             118   -0.97 8  241 337 
 SML  HZ I         236  6.52         3.3 0.24            119            241 337 
                                                                                
