 2011 1216 0751 27.1 L   6.790 -73.110142.9  RSN  7 0.2 1.8LRSN                1
 GAP=142        0.48       3.0     5.8  4.4 -0.5250E+01  0.4807E+01 -0.1659E+01E
 Epicentro: LOS SANTOS - SANTANDER                                             3
 ACTION:UPD 12-07-13 16:16 OP:ep   STATUS:               ID:20111216075127 L   I
 2011-12-16-0750-00M.COL___187                                                 6
 STAT SP IPHASW D HRMM SECON CODA AMPLIT PERI AZIMU VELO AIN AR TRES W  DIS CAZ7
 BAR2 SZ EP        751 46.21                             170   -0.2110 23.3 200 
 BAR2 SZ ES   1    752  1.69                             170    0.22 7 23.3 200 
 BAR2 SZ I         752  2.19        10.3 0.42                          23.3 200 
 GIR2 SZ EP        751 46.38                             166   -0.1410 33.2 344 
 BRR  HZ EP   2    751 47.89                             151   -0.32 5 75.2 298 
 BRR  HE ES   2    752  4.70                             151    0.05 5 75.2 298 
 BRR  HE I         752  8.96        44.7 0.12                          75.2 298 
 PAM  SZ EP        751 49.17                             151    0.2210 75.8  37 
 PAM  SE ES   1    752  5.97                             151    0.00 7 75.8  37 
 RUS  HZ EP   1    751 50.34                             144   -0.18 7 99.3 178 
 RUS  HE ES   1    752  8.68                             144   -0.07 7 99.3 178 
 RUS  HZ I         752  9.86         4.6 0.37                          99.3 178 
 OCA  SZ EP   1    751 55.42                             129    0.04 7  162 352 
 OCA  SZ I         752 20.83         6.5 0.40                           162 352 
 CTAU SZ EP   1    752  0.52                             122    0.50 6  204 211 
                                                                                
