 2015  816 0045 20.7 L   6.793 -73.110145.0  RSN  6 0.3 1.9LRSN                1
 GAP=204        0.80       3.5     5.7  5.9  0.8091E+01  0.2308E+01 -0.3312E+01E
 Epicentro: LOS SANTOS - SANTANDER                                             3
 ACTION:UPD 15-09-15 23:02 OP:cam  STATUS:               ID:20150816004520 L   I
 OLDACT:UP  15-08-16 14:52 OP:mh   STATUS:               ID:20150816003748     3
 OLDACT:REG 15-08-16 13:28 OP:mh   STATUS:               ID:20150816003748     3
 2015-08-16-0037-48M.COL___346                                                 6
 STAT SP IPHASW D HRMM SECON CODA AMPLIT PERI AZIMU VELO AIN AR TRES W  DIS CAZ7
 BAR2 EZ EP        045 40.34                             170    0.1110 23.6 200 
 BAR2 EZ ES        045 55.25                             170   -0.2210 23.6 200 
 BAR2 EZ I         045 56.54        19.8 0.25            172           23.6 200 
 BRR  HZ EP        045 41.87                             151   -0.1110 75.1 298 
 BRR  HN ES        045 58.83                             151    0.2510 75.1 298 
 BRR  HZ I         046  0.79        13.0 0.22            148           75.1 298 
 RUS  HZ EP        045 44.46                             144    0.1610 99.6 178 
 RUS  HN ES        046  2.94                             144    0.2310 99.6 178 
 RUS  HZ I         046  4.50         6.2 0.30            147           99.6 178 
 SPBC HZ EP        045 49.35                             128    0.03 9  165 220 
 SPBC HN ES        046 11.04                             128   -0.60 9  165 220 
 SPBC HZ I         046 13.56        12.9 0.22            129            165 220 
 ZAR  HN ES        046 19.61                             122    0.52 8  208 292 
 ZAR  HZ I         046 24.58         7.9 0.36            120            208 292 
 SML  HZ EP   1    045 57.68                             117    0.15 6  246 335 
 SML  HN ES        046 25.67                             117   -0.60 8  246 335 
 SML  HZ I         046 37.40         7.5 0.22            116            246 335 
                                                                                
