 2017 1216 0356 56.7 L   6.792 -73.168142.1  RSN  5 0.3 1.5LRSN                1
 GAP=144        0.81       4.6     4.0  6.4 -0.6336E+01  0.1009E+02 -0.2866E+01E
 Epicentro: LOS SANTOS - SANTANDER                                             3
 ACTION:UPD 18-01-04 13:20 OP:rebc STATUS:               ID:20171216035656 L   I
 OLDACT:DUP 17-12-16 16:07 OP:edw  STATUS:               ID:20171216034643d    3
 OLDACT:UP  17-12-16 16:05 OP:edw  STATUS:               ID:20171216034642     3
 OLDACT:REG 17-12-16 12:05 OP:edw  STATUS:               ID:20171216034642     3
 2017-12-16-0348-00M.COL___473                                                 6
 STAT SP IPHASW D HRMM SECON CODA AMPLIT PERI AZIMU VELO AIN AR TRES W  DIS CAZ7
 BAR2 EZ EP        357 15.63                             171   -0.2110 22.1 184 
 BAR2 EZ ES        357 30.87                             171    0.0910 22.1 184 
 BAR2 EZ I         357 33.43        10.8 0.26            169           22.1 184 
 PAM  EZ EP     C  357 18.61                             149   -0.0310 79.7  40 
 PAM  EN ES        357 35.82                             149    0.0510 79.7  40 
 PAM  EZ I         357 38.69         4.3 0.26            154           79.7  40 
 PTB  HZ EP        357 22.52                             132   -0.58 9  145 259 
 PTB  HN ES        357 43.27                             132   -0.45 9  145 259 
 PTB  HZ I         357 47.04         2.7 0.16            134            145 259 
 SPBC HZ EP        357 24.85                             129    0.18 9  161 218 
 SPBC HN ES        357 46.90                             129    0.38 9  161 218 
 SPBC HZ I         357 52.84         7.9 0.22            130            161 218 
 ZAR  HZ EP        357 29.11                             122    0.43 9  202 293 
 ZAR  HN ES        357 53.95                             122    0.31 9  202 293 
                                                                                
