 2015  116 0113 39.6 L   6.808 -73.174147.7  RSN 10 0.4 1.8LRSN                1
 GAP=133        1.08       2.9     4.6  6.2 -0.3038E+00  0.5478E+01  0.8962E+00E
 Epicentro: LOS SANTOS - SANTANDER                                             3
 ACTION:UPD 15-03-02 15:39 OP:nd   STATUS:               ID:20150116011339 L   I
 OLDACT:DUP 15-01-16 14:02 OP:carl STATUS:               ID:20150116010739d    3
 2015-01-16-0107-38M.COL___253                                                 6
 STAT SP IPHASW D HRMM SECON CODA AMPLIT PERI AZIMU VELO AIN AR TRES W  DIS CAZ7
 BAR2 EZ ES        114 15.12                             170    0.1110 23.9 182 
 BAR2 EZ I         114 15.96        14.5 0.24            169           23.9 182 
 BRR  HZ EP        114  1.29                             154    0.4810 68.0 299 
 BRR  HN ES        114 18.39                             154    1.0510 68.0 299 
 PAM  SZ IP     D  114  2.43                             151    0.3010 78.7  42 
 PAM  SN ES        114 19.33                             151   -0.3510 78.7  42 
 PAM  SZ I         114 21.63         6.9 0.46            153           78.7  42 
 RUS  HZ EP        114  3.51                             144   -0.1410  102 174 
 RUS  HN ES        114 21.93                             144   -0.4710  102 174 
 RUS  HZ I         114 23.36         7.9 0.28            143            102 174 
 PTB  HZ EP        114  6.22                             133   -0.27 9  145 258 
 PTB  HN ES        114 26.89                             133   -0.56 9  145 258 
 PTB  HZ I         114 29.77         5.4 0.16            132            145 258 
 OCA  HN ES        114 29.85                             130   -0.23 9  159 354 
 SPBC HZ EP        114  8.56                             130    0.40 9  162 218 
 SPBC HN ES        114 30.23                             130   -0.19 9  162 218 
 SPBC HZ I         114 37.38        11.3 0.24            129            162 218 
 ZAR  HN ES        114 36.95                             123   -0.06 9  201 292 
 SML  HZ EP        114 16.06                             118   -0.07 8  242 336 
 SML  HN ES        114 44.02                             118   -0.58 8  242 336 
 SML  HZ I         114 47.79         9.5 0.10            119            242 336 
 CHI  HZ EP        114 17.78                             117    0.34 8  249 194 
 CHI  HN ES        114 46.95                             117    0.01 8  249 194 
 CHI  HZ I         114 53.23         2.2 0.34            117            249 194 
                                                                                
