 2015  916 0207 22.3 L   6.766 -73.144144.8  RSN  4 0.4 1.9LRSN                1
 GAP=138        0.89       4.7     4.3  8.8 -0.4394E+00  0.1475E+02 -0.4781E+01E
 Epicentro: LOS SANTOS - SANTANDER                                             3
 ACTION:UPD 15-10-28 16:26 OP:cam  STATUS:               ID:20150916020722 L   I
 OLDACT:REG 15-09-16 12:40 OP:mh   STATUS:               ID:20150916015749     3
 2015-09-16-0157-49M.COL___348                                                 6
 STAT SP IPHASW D HRMM SECON CODA AMPLIT PERI AZIMU VELO AIN AR TRES W  DIS CAZ7
 PAM  EZ EP        2 7 44.83                             150    0.2110 80.1  38 
 PAM  EN ES        2 8  1.73                             150   -0.2710 80.1  38 
 PAM  EZ I         2 8  3.95        20.7 0.85            151           80.1  38 
 RUS  HZ EP        2 7 45.57                             145   -0.1610 96.9 176 
 RUS  HN ES        2 8  4.37                             145    0.4010 96.9 176 
 PTB  HZ EP        2 7 48.96                             132   -0.23 9  147 260 
 PTB  HN ES        2 8  9.60                             132   -0.52 9  147 260 
 PTB  HZ I         2 8 11.64         7.0 0.16            133            147 260 
 ZAR  HZ EP        2 7 54.90                             122    0.01 8  206 293 
 ZAR  HN ES        2 8 20.92                             122    0.64 8  206 293 
 ZAR  HZ I         2 8 26.13         7.4 0.40            123            206 293 
                                                                                
