 2013  616 0901 46.0 L   6.751 -73.153156.0  RSN  7 0.4 1.7LRSN                1
 GAP=182        0.98       5.4     6.4  7.8  0.1308E+02 -0.2280E+01 -0.1789E+02E
 Epicentro: LOS SANTOS - SANTANDER                                             3
 ACTION:UPD 14-01-08 09:55 OP:ep   STATUS:               ID:20130616090146 L   I
 OLDACT:REG 13-06-16 07:45 OP:cam  STATUS:               ID:20130616085959     3
 2013-06-16-0859-59M.COL___261                                                 6
 STAT SP IPHASW D HRMM SECON CODA AMPLIT PERI AZIMU VELO AIN AR TRES W  DIS CAZ7
 BAR2 SZ EP        9 2  6.76                             173   -0.0510 17.8 190 
 BAR2 SZ ES   1    9 2 22.29                             173   -0.72 7 17.8 190 
 BAR2 SZ I         9 2 23.48         6.2 0.37            171           17.8 190 
 BRR  HZ EP        9 2  8.62                             154    0.2010 73.3 303 
 BRR  HZ I         9 2  8.85         9.2 0.20            150           73.3 303 
 BRR  HN ES        9 2 26.10                             154    0.2310 73.3 303 
 RUS  HZ EP   2    9 2 10.75                             147    0.30 5 95.2 175 
 RUS  HN ES        9 2 29.92                             147    0.4310 95.2 175 
 RUS  HZ I         9 2 32.20         3.8 0.36            149           95.2 175 
 PTB  HZ EP        9 2 13.34                             135   -0.37 9  146 261 
 PTB  HN ES        9 2 34.69                             135   -0.60 9  146 261 
 PTB  HZ I         9 2 42.09        10.0 0.48            133            146 261 
 OCA  HZ EP   2    9 2 15.92                             131    0.27 5  166 354 
 ZAR  HZ EP   1    9 2 19.67                             124    0.36 6  205 294 
 ZAR  HE ES        9 2 46.02                             124    0.76 8  205 294 
 ZAR  HZ I         9 2 50.33         4.8 0.34            124            205 294 
 SML  HZ EP        9 2 23.22                             119   -0.53 8  248 336 
 SML  HN ES        9 2 53.08                             119   -0.09 8  248 336 
 SML  HZ I         9 2 59.98         6.4 0.30            120            248 336 
                                                                                
