 2016 1016 0028 48.8 L   6.808 -73.158151.6  RSN  6 0.3 1.7LRSN                1
 GAP=135        0.88       4.3     4.5  6.3 -0.4877E+01  0.3177E+01  0.1522E+01E
 Epicentro: LOS SANTOS - SANTANDER                                             3
 ACTION:UPD 16-11-09 19:20 OP:rebc STATUS:               ID:20161016002848 L   I
 OLDACT:REG 16-10-16 13:39 OP:ar   STATUS:               ID:20161016001737     3
 2016-10-16-0018-00M.COL___365                                                 6
 STAT SP IPHASW D HRMM SECON CODA AMPLIT PERI AZIMU VELO AIN AR TRES W  DIS CAZ7
 BAR2 EZ EP        029  8.97                             171   -0.1310 24.1 187 
 BAR2 EZ ES        029 24.94                             171   -0.0310 24.1 187 
 BAR2 EZ I         029 25.77        15.7 0.11            169           24.1 187 
 BRR  HZ EP        029 10.60                             154    0.1510 69.6 298 
 BRR  HN ES        029 27.87                             154    0.5010 69.6 298 
 BRR  HZ I         029 31.33        12.3 0.32            151           69.6 298 
 PAM  EZ EP        029 12.07                             152    0.4710 77.5  41 
 PAM  EE ES        029 28.96                             152   -0.4610 77.5  41 
 PAM  EZ I         029 29.89         8.4 0.18            155           77.5  41 
 RUS  HZ EP        029 12.85                             145   -0.3010  102 175 
 RUS  HE ES        029 32.32                             145    0.1410  102 175 
 RUS  HZ I         029 32.80         3.2 0.18            147            102 175 
 PTB  HZ EP        029 15.87                             134   -0.23 9  147 258 
 PTB  HN ES        029 36.89                             134   -0.55 9  147 258 
 PTB  HZ I         029 44.34         6.4 0.22            132            147 258 
 SPBC HZ EP   2    029 18.00                             130    0.31 5  163 218 
 SPBC HN ES        029 40.59                             130    0.32 9  163 218 
 SPBC HZ I         029 43.41        10.5 0.10            131            163 218 
                                                                                
