 2011 1216 0736  0.9 L   6.765 -73.101145.6  RSN 12 0.3 2.8LRSN                1
 GAP=144        0.59       2.3     3.3  3.5 -0.2300E+01  0.2714E+01  0.1071E+01E
 Epicentro: LOS SANTOS - SANTANDER                                             3
 ACTION:UPD 12-07-13 16:16 OP:ep   STATUS:               ID:20111216073600 L   I
 2011-12-16-0730-00M.COL___186                                                 6
 STAT SP IPHASW D HRMM SECON CODA AMPLIT PERI AZIMU VELO AIN AR TRES W  DIS CAZ7
 BAR2 SZ IP        736 20.40                             171   -0.0410 21.2 205 
 BAR2 SZ ES        736 35.82                             171    0.1210 21.2 205 
 BAR2 SZ I         736 37.21       170.3 0.26                          21.2 205 
 GIR2 SZ EP        736 20.51                             165   -0.1610 36.1 344 
 BRR  HZ EP        736 22.27                             150   -0.1010 77.4 299 
 BRR  HZ I         736 22.58       145.0 0.19                          77.4 299 
 BRR  HN ES        736 39.60                             150    0.4710 77.4 299 
 PAM  SZ EP        736 23.23                             151    0.1610 77.4  35 
 PAM  SE ES   1    736 40.28                             151   -0.11 7 77.4  35 
 RUS  HZ EP        736 24.22                             145   -0.1010 96.5 179 
 RUS  HN ES   1    736 42.52                             145   -0.09 7 96.5 179 
 OCA  SZ EP        736 29.33                             129   -0.26 9  165 352 
 OCA  SZ ES   1    736 51.68                             129   -0.31 7  165 352 
 OCA  SZ I         736 55.85        49.1 0.65                           165 352 
 NOR  SZ EP        736 36.80                             118    0.00 8  237 236 
 NOR  SN ES        737  4.44                             118   -0.37 8  237 236 
 CHI  HZ EP   1    736 38.31                             117    0.00 6  246 197 
 CHI  HN ES   1    737  7.47                             117   -0.04 6  246 197 
 CHI  HZ I         737 17.26        30.2 0.78                           246 197 
 HEL  HZ EP   1    736 41.53                             114    0.02 6  276 257 
 HEL  HN ES   2    737 12.59                             114   -0.62 4  276 257 
 HEL  HZ I         737 18.99        26.2 0.38                           276 257 
 GUY  SZ EP   1    736 45.77                             112    0.81 5  305 236 
 GUY  SE ES   2    737 19.05                             112   -0.29 4  305 236 
 GUY  SZ I         737 27.79        49.4 0.22                           305 236 
 RREF HZ EP   1    736 47.73                             111    0.57 5  323 230 
 RREF HZ I         737 33.11        44.1 0.79                           323 230 
 TOL  SZ EP   1    736 49.70                             109    0.48 5  344 226 
                                                                                
