 2010  916 0212 20.6 L   7.380 -73.059156.1  RSN 12 0.5 3.2LRSN                1
 GAP=123        1.15       4.7     7.0  6.8 -0.9743E+01  0.2871E+01  0.4269E+01E
 Epicentro: MATANZA - SANTANDER                                                3
 ACTION:UP  11-02-18 11:03 OP:tino STATUS:               ID:20100916021220 L   I
 2010-09-16-0210-12S.COL___119                                                 6
 STAT SP IPHASW D HRMM SECON CODA AMPLIT PERI AZIMU VELO SNR AR TRES W  DIS CAZ7
 GIR2 SZ IP        212 41.82                             166     0.210   37 204 
 GIR2 SZ ES   1    212 57.10                             166    -0.9 7   37 204 
 BTL  SZ IP        212 41.85                             160    -0.610   56 204 
 GRA  SZ IP        212 43.01                             157     0.410   62  27 
 GRA  SZ ES   1    213  0.00                             157     0.2 7   62  27 
 GRA  SZ I         213  2.31       297.9 0.32                            62  27 
 BRR  HZ IP        212 43.55                             152     0.310   78 247 
 BRR  HZ I         212 44.67       424.3 0.14                            78 247 
 BRR  HN ES   1    213  1.09                             152     0.2 7   78 247 
 BAR2 SZ IP        212 44.38                             149     0.210   88 189 
 BAR2 SZ I         212 44.71       342.2 0.19                            88 189 
 BAR2 SZ ES   1    213  2.51                             149    -0.1 7   88 189 
 OCA  SZ EP        212 44.84                             146     0.110   99 343 
 OCA  SZ ES   1    213  4.09                             146     0.4 7   99 343 
 OCA  SZ I         213  6.00       301.6 0.46                            99 343 
 RUS  HZ EP        212 50.26                             131    -0.3 9  165 181 
 RUS  HZ I         212 51.29       168.9 0.10                           165 181 
 RUS  HN ES   1    213 14.10                             131     0.2 7  165 181 
 HEL  HZ EP        213  4.94                             114     0.2 7  303 244 
 HEL  HN ES   1    213 37.62                             114    -1.6 5  303 244 
 HEL  HZ I         213 49.03       108.4 0.29                           303 244 
 CHI  HZ EP        213  6.04                             113     0.1 7  313 194 
 CHI  HZ I         213  7.55        34.6 0.49                           313 194 
 CHI  HN ES   1    213 41.83                             113     0.5 5  313 194 
 SDV  BZ EP        213  5.14                             113    -0.7 7  315  58 
 DBB  SZ EP        213  9.63                             111    -0.1 6  350 264 
 RREF HZ EP   2    213 13.10                             109     0.1 3  373 223 
 RREF HN ES   2    213 55.48                             109     1.5 3  373 223 
 RREF HZ I         214  7.25        40.3 0.37                           373 223 
                                                                                
