 2010  616 0622  8.9 L   7.362 -73.507106.0  RSN 12 0.4 1.8LRSN                1
 GAP= 69        0.80       3.2     4.6  6.1 -0.4255E+01  0.9759E+01 -0.2096E+01E
 Epicentro: SABANA DE TORRES - SANTANDER                                       3
 ACTION:UP  10-08-24 10:10 OP:vdl  STATUS:               ID:20100616062208 L   I
 2010-06-16-0619-32S.COL___114                                                 6
 STAT SP IPHASW D HRMM SECON CODA AMPLIT PERI AZIMU VELO SNR AR TRES W  DIS CAZ7
 BRR  HZ IP     C  622 24.06                             160     0.210   36 219 
 BRR  HN ES   1    622 35.85                             160     0.3 7   36 219 
 BRR  HZ I         622 36.63        41.4 0.15                            36 219 
 GIR2 SZ EP        622 24.59                             155     0.010   47 132 
 GUE  SZ IP        622 27.05                             139    -0.210   82  51 
 GUE  SZ ES   1    622 41.03                             139    -0.5 7   82  51 
 BRI  SZ EP        622 27.58                             137     0.110   88  63 
 BRI  SZ ES   1    622 41.94                             137     0.0 7   88  63 
 BAR2 SZ EP   1    622 28.05                             136     0.1 7   92 157 
 BAR2 SZ ES   1    622 42.65                             136    -0.2 7   92 157 
 GRA  SZ EP   1    622 28.63                             134     0.4 7   97  53 
 GRA  SZ ES   1    622 43.73                             134     0.5 7   97  53 
 OCA  SZ IP        622 28.73                             133     0.310   99  12 
 OCA  SZ ES   1    622 43.21                             133    -0.4 7   99  12 
 RUS  HZ EP   2    622 35.41                             117    -0.5 5  169 164 
 RUS  HN ES   2    622 56.02                             117    -0.9 5  169 164 
 RUS  HZ I         623  4.03         3.8 0.54                           169 164 
 HEL  HZ EP   2    622 46.75                             107     0.9 4  258 240 
 HEL  HZ I         623 22.23         5.1 0.28                           258 240 
 MON  HZ EP        622 47.88                             104    -0.6 7  284 304 
 MON  HZ I         622 47.95         2.8 0.24                           284 304 
 CHI  HZ EP   2    622 51.26                             103     0.1 4  303 185 
 CHI  HZ I         623 31.72         2.8 0.39                           303 185 
 SDV  BZ EP   2    622 57.86                             100     0.3 3  359  62 
 SDV  BZ I         623 37.42         2.1 0.31                           359  62 
                                                                                
