 2015  216 0657 47.5 L   6.742 -73.122146.7  RSN  6 0.2 1.6LRSN                1
 GAP=142        0.56       3.0     3.8  4.3 -0.4418E+01  0.6856E+00  0.3148E+01E
 Epicentro: LOS SANTOS - SANTANDER                                             3
 ACTION:UPD 15-04-30 21:26 OP:nd   STATUS:               ID:20150216065747 L   I
 OLDACT:REG 15-02-16 13:43 OP:mh   STATUS:               ID:20150216064736     3
 2015-02-16-0647-36M.COL___302                                                 6
 STAT SP IPHASW D HRMM SECON CODA AMPLIT PERI AZIMU VELO AIN AR TRES W  DIS CAZ7
 BAR2 EZ EP        658  7.21                             173    0.0610 17.9 202 
 BAR2 EZ ES   1    658 22.51                             173    0.04 7 17.9 202 
 BAR2 EZ I         658 24.81        10.9 0.28            171           17.9 202 
 BRR  HZ EP        658  8.95                             151   -0.1210 76.7 302 
 BRR  HN ES        658 26.02                             151    0.1310 76.7 302 
 BRR  HZ I         658 28.28         6.1 0.34            152           76.7 302 
 PAM  SZ EP        658 10.23                             150    0.2010 80.9  35 
 PAM  SN ES        658 27.36                             150   -0.2410 80.9  35 
 PAM  SZ I         658 30.47         5.0 0.48            155           80.9  35 
 RUS  HZ EP        658 10.91                             146    0.0210 94.0 177 
 RUS  HN ES   1    658 29.04                             146   -0.09 7 94.0 177 
 RUS  HZ I         658 31.07         3.6 0.28            147           94.0 177 
 SPBC HZ EP        658 16.15                             130    0.38 9  160 221 
 SPBC HN ES        658 37.66                             130   -0.16 9  160 221 
 SPBC HZ I         658 44.96         6.2 0.36            131            160 221 
 GUY2CHZ EP   1    658 30.30                             112   -0.69 5  300 236 
 GUY2CHN ES   4    659  6.80                             112    1.89 0  300 236 
 GUY2CHZ I         659 13.28         2.3 0.58                           300 236 
                                                                                
