 2013 1016 0529 37.6 L   6.775 -73.163146.2  RSN  9 0.5 1.7LRSN                1
 GAP=181        1.16       3.8     6.6  8.0  0.3062E+01  0.5923E+01 -0.1409E+01E
 Epicentro: LOS SANTOS - SANTANDER                                             3
 ACTION:UPD 13-11-25 09:21 OP:ep   STATUS:               ID:20131016052937 L   I
 OLDACT:REG 13-10-16 12:48 OP:jn   STATUS:               ID:20131016052737     3
 2013-10-16-0527-37M.COL___214                                                 6
 STAT SP IPHASW D HRMM SECON CODA AMPLIT PERI AZIMU VELO AIN AR TRES W  DIS CAZ7
 BAR2 SZ EP   1    529 57.26                             172    0.08 7 20.4 186 
 BAR2 SZ ES        530 12.29                             172   -0.2010 20.4 186 
 BAR2 SZ I         530 13.31        22.8 0.36            169           20.4 186 
 BRR  HZ EP        529 59.12                             153    0.3810 70.9 301 
 BRR  HN ES        530 16.06                             153    0.8010 70.9 301 
 BRR  HZ I         530 16.68        10.3 0.10            151           70.9 301 
 RUS  HZ EP        530  1.50                             144    0.3310 98.0 175 
 RUS  HN ES        530 19.44                             144   -0.1410 98.0 175 
 RUS  HZ I         530 21.46         4.8 0.26            145           98.0 175 
 PTB  HZ EP   1    530  4.01                             132   -0.34 7  145 260 
 PTB  HN ES        530 24.67                             132   -0.57 9  145 260 
 PTB  HZ I         530 30.73         5.0 0.58            132            145 260 
 SPBC HZ EP        530  6.34                             130    0.56 9  160 219 
 SPBC HN ES        530 27.67                             130   -0.12 9  160 219 
 SPBC HZ I         530 30.21         5.1 0.20            129            160 219 
 OCA  HE ES        530 27.51                             129   -0.91 9  163 354 
 ZAR  HN ES   1    530 35.29                             122    0.06 6  203 293 
 SML  HZ EP   1    530 13.63                             117   -0.76 6  245 336 
 SML  HN ES   1    530 43.79                             117    0.67 6  245 336 
 CHI  HN ES   1    530 43.64                             117   -0.46 6  246 195 
                                                                                
