 2014  916 0140 40.2 L   6.746 -73.163151.3  RSN  6 0.4 1.8LRSN                1
 GAP=231        0.96       4.8     6.1  6.5  0.5736E+01  0.3799E+01  0.7290E+01E
 Epicentro: LOS SANTOS - SANTANDER                                             3
 ACTION:UPD 14-10-03 23:05 OP:nd   STATUS:               ID:20140916014041dL   I
 OLDACT:UP  14-09-16 16:23 OP:carl STATUS:               ID:20140916014041dL   3
 OLDACT:UP  14-09-16 16:15 OP:nlst STATUS:               ID:20140916014041dL   3
 OLDACT:DUP 14-09-16 13:42 OP:carl STATUS:               ID:20140916013819d    3
 2014-09-16-0138-18M.COL___287                                                 6
 STAT SP IPHASW D HRMM SECON CODA AMPLIT PERI AZIMU VELO AIN AR TRES W  DIS CAZ7
 BAR2 SZ EP        141  0.30                             173   -0.1010 17.2 187 
 BAR2 SZ ES        141 15.59                             173   -0.5610 17.2 187 
 BAR2 SZ I         141 16.92        21.4 0.24            164           17.2 187 
 BRR  HZ EP        141  2.26                             153    0.2210 72.6 303 
 BRR  HN ES        141 19.35                             153    0.2910 72.6 303 
 BRR  HZ I         141 23.81         7.5 0.24            149           72.6 303 
 RUS  HZ EP        141  4.27                             146    0.1610 94.8 175 
 RUS  HN ES        141 23.05                             146    0.2910 94.8 175 
 RUS  HZ I         141 23.85         3.2 0.28            144           94.8 175 
 PTB  HZ EP        141  7.19                             134   -0.18 9  145 261 
 PTB  HN ES        141 28.15                             134   -0.41 9  145 261 
 PTB  HZ I         141 35.78         9.0 0.42            130            145 261 
 SPBC HZ EP        141  9.17                             131    0.57 9  157 220 
 SPBC HN ES        141 30.99                             131    0.24 9  157 220 
 SPBC HZ I         141 37.13        13.3 0.22            128            157 220 
 CHI  HZ EP        141 16.74                             119   -0.82 8  242 195 
 CHI  HN ES        141 46.76                             119    0.08 8  242 195 
 CHI  HZ I         141 56.24         3.7 0.62            118            242 195 
                                                                                
