 2017  416 0702  1.1 L   6.800 -73.189152.0  RSN  4 0.2 1.0LRSN                1
 GAP=238        0.47       5.4     3.4  4.2  0.7516E+01  0.2979E+01  0.3653E+00E
 Epicentro: ZAPATOCA - SANTANDER                                               3
 ACTION:UPD 17-05-30 21:12 OP:jn   STATUS:               ID:20170416070201 L   I
 OLDACT:DUP 17-04-16 16:36 OP:dani STATUS:               ID:20170416065508d    3
 OLDACT:UP  17-04-16 16:36 OP:dani STATUS:               ID:20170416065507     3
 OLDACT:UP  17-04-16 16:35 OP:dani STATUS:               ID:20170416065507     3
 OLDACT:REG 17-04-16 14:22 OP:dani STATUS:               ID:20170416065507     3
 2017-04-16-0658-00M.COL___368                                                 6
 STAT SP IPHASW D HRMM SECON CODA AMPLIT PERI AZIMU VELO AIN AR TRES W  DIS CAZ7
 BAR2 EZ EP        7 2 21.40                             171   -0.0710 23.0 178 
 BAR2 EZ ES        7 2 37.25                             171   -0.1110 23.0 178 
 BRR  HZ EP        7 2 22.66                             155   -0.0510 67.1 300 
 BRR  HN ES        7 2 39.79                             155    0.2310 67.1 300 
 BRR  HZ I         7 2 40.15         2.0 0.23            155           67.1 300 
 PTB  HZ EP        7 2 28.40                             134    0.23 9  143 258 
 PTB  HN E         7 2 32.80                                            143 258 
 PTB  HE ES        7 2 49.25                             134   -0.04 9  143 258 
 PTB  HZ I         7 2 51.43         1.3 0.08            134            143 258 
 ZAR  HN ES        7 2 58.57                             124   -0.23 9  200 293 
                                                                                
