 2013  816 0843 52.6 L   6.726 -73.138157.7  RSN  4 0.3 1.4LRSN                1
 GAP=233        0.80       5.2     7.1  9.9  0.7562E+01  0.9356E+01 -0.6643E+01E
 Epicentro: JORDAN - SANTANDER                                                 3
 ACTION:UPD 14-01-14 09:03 OP:ep   STATUS:               ID:20130816084352 L   I
 OLDACT:UP  13-08-16 11:38 OP:cam  STATUS:               ID:20130816083840d    3
 OLDACT:DUP 13-08-16 11:35 OP:cam  STATUS:               ID:20130816083840d    3
 OLDACT:REG 13-08-16 08:36 OP:stll STATUS:               ID:20130816083839     3
 2013-08-16-0838-39M.COL___216                                                 6
 STAT SP IPHASW D HRMM SECON CODA AMPLIT PERI AZIMU VELO AIN AR TRES W  DIS CAZ7
 BRR  HZ EP        844 15.33                             153   -0.0210 76.1 304 
 BRR  HN ES        844 33.33                             153    0.2610 76.1 304 
 RUS  HN ES        844 35.83                             148   -0.2310 92.4 176 
 RUS  HN I         844 36.31         5.7 0.40            148           92.4 176 
 PTB  HZ EP   1    844 20.62                             135    0.07 7  147 262 
 PTB  HN ES        844 41.82                             135   -0.50 9  147 262 
 PTB  HZ I         844 43.54         2.4 0.18            134            147 262 
 SPBC HE ES        844 44.58                             133    0.47 9  157 221 
                                                                                
