 2017  716 0810 41.9 L   6.809 -73.150145.7  RSN 11 0.5 2.0LRSN                1
 GAP=111        1.11       4.0     3.8  6.1  0.1809E+01  0.5670E+01  0.4308E+01E
 Epicentro: LOS SANTOS - SANTANDER                                             3
 ACTION:UPD 17-08-30 15:33 OP:rebc STATUS:               ID:20170716081041 L   I
 OLDACT:REG 17-07-16 12:37 OP:dhb  STATUS:               ID:20170716080659     3
 2017-07-16-0808-00M.COL___368                                                 6
 STAT SP IPHASW D HRMM SECON CODA AMPLIT PERI AZIMU VELO AIN AR TRES W  DIS CAZ7
 BAR2 EZ EP        811  1.23                             170   -0.2710 24.2 189 
 BAR2 EZ ES        811 16.43                             170   -0.3910 24.2 189 
 BAR2 EZ I         811 19.06        26.8 0.30            170           24.2 189 
 BRR  HZ IP     C  811  3.10                             153    0.1510 70.4 298 
 BRR  HN ES        811 20.15                             153    0.7410 70.4 298 
 BRR  HZ I         811 22.46        11.5 0.21            152           70.4 298 
 PAM  EZ IP     D  811  4.28                             151    0.2410 76.9  40 
 PAM  EN ES        811 21.40                             151    0.0610 76.9  40 
 PAM  EZ I         811 24.34        14.1 0.30            154           76.9  40 
 RUS  HZ IP     C  811  5.48                             144   -0.1910  102 176 
 RUS  HE ES        811 23.95                             144   -0.3010  102 176 
 RUS  HZ I         811 25.12        14.4 0.40            145            102 176 
 PTB  HZ EP        811  8.00                             132   -0.80 9  148 258 
 PTB  HN ES        811 29.14                             132   -0.67 9  148 258 
 PTB  HZ I         811 31.57         5.5 0.18            132            148 258 
 SPBC HZ EP        811 10.22                             129   -0.18 9  164 219 
 SPBC HN ES        811 33.19                             129    0.53 9  164 219 
 SPBC HZ I         811 35.17        15.9 0.12            130            164 219 
 YPLC HZ IP     D  811 11.66                             126   -0.09 9  178 151 
 YPLC HN ES        811 35.65                             126    0.59 9  178 151 
 YPLC HZ I         811 36.61        12.5 0.24            129            178 151 
 ZAR  HZ EP        811 13.65                             123   -0.57 9  203 292 
 ZAR  HE ES        811 39.73                             123    0.27 9  203 292 
 ZAR  HZ I         811 44.41        10.0 0.36            123            203 292 
 NOR  HZ EP        811 17.52                             119   -0.09 8  235 234 
 NOR  HN ES        811 45.67                             119    0.18 8  235 234 
 NOR  HZ I         811 50.77         6.5 0.22            119            235 234 
 HEL  HZ EP   2    811 23.06                             115    1.01 4  272 256 
 HEL  HN ES   2    811 54.61                             115    1.22 4  272 256 
 HEL  HZ I         812  1.51         4.7 0.34            116            272 256 
 GUY2CHZ EP        811 26.25                             112    0.76 7  301 235 
 GUY2CHN ES   4    812  2.37                             112    2.85 0  301 235 
 GUY2CHZ I         812  7.59         6.3 0.66                           301 235 
                                                                                
