 2012 1016 0702 48.2 L   6.707 -73.083134.2  RSN  4 0.4 1.5LRSN                1
 GAP=149        0.95       5.6     9.1 11.4  0.1571E+02 -0.3731E+02 -0.1232E+02E
 Epicentro: JORDAN - SANTANDER                                                 3
 ACTION:UPD 12-11-22 17:04 OP:ep   STATUS:               ID:20121016070248 L   I
 2012-10-16-0700-00M.COL___231                                                 6
 STAT SP IPHASW D HRMM SECON CODA AMPLIT PERI AZIMU VELO AIN AR TRES W  DIS CAZ7
 BAR2 SZ EP        7 3  6.56                             172    0.2110 16.8 221 
 BAR2 SZ I         7 3  6.86         7.0 0.11                          16.8 221 
 PAM  SZ EP        7 3  9.42                             147   -0.1010 81.8  31 
 PAM  SZ I         7 3  9.79         7.9 0.20                          81.8  31 
 PAM  SN ES   2    7 3 26.18                             147    0.06 5 81.8  31 
 BRR  HZ EP        7 3  8.29                             146   -0.5810 82.4 303 
 BRR  HZ I         7 3  8.57         7.6 0.13                          82.4 303 
 BRR  HN ES        7 3 25.24                             146    0.2810 82.4 303 
 RUS  HZ EP        7 3 10.63                             144    0.5410 90.0 180 
 RUS  HN ES        7 3 26.77                             144   -0.3710 90.0 180 
                                                                                
