 2017  716 0138 34.5 L   6.831 -73.133140.7  RSN  6 0.4 1.3LRSN                1
 GAP=137        0.99       5.3     5.1  7.8 -0.2770E+01  0.4908E+01  0.4086E+01E
 Epicentro: LOS SANTOS - SANTANDER                                             3
 ACTION:UPD 17-08-30 15:33 OP:rebc STATUS:               ID:20170716013834 L   I
 OLDACT:UP  17-07-16 13:56 OP:dhb  STATUS:               ID:20170716012310d    3
 OLDACT:DUP 17-07-16 13:50 OP:dhb  STATUS:               ID:20170716012310d    3
 OLDACT:REG 17-07-16 12:00 OP:dhb  STATUS:               ID:20170716012309     3
 2017-07-16-0128-00M.COL___389                                                 6
 STAT SP IPHASW D HRMM SECON CODA AMPLIT PERI AZIMU VELO AIN AR TRES W  DIS CAZ7
 BAR2 EZ EP   1    138 53.15                             169   -0.45 7 27.0 192 
 BAR2 EZ ES   1    139  8.52                             169    0.02 7 27.0 192 
 BRR  HZ EP        138 55.72                             152    0.6410 70.9 296 
 BRR  HE ES        139 11.30                             152    0.1710 70.9 296 
 BRR  HZ I         139 16.33         6.0 0.47            153           70.9 296 
 PAM  EZ EP        138 56.39                             151    0.4310 73.8  40 
 PAM  EN ES        139 12.21                             151   -0.4910 73.8  40 
 PAM  EZ I         139 16.44         3.4 0.47            156           73.8  40 
 RUS  HZ EP        138 57.91                             142   -0.1010  104 177 
 RUS  HN ES        139 16.56                             142    0.2210  104 177 
 RUS  HZ I         139 19.13         3.2 0.36            145            104 177 
 PTB  HZ EP        139  0.65                             130   -0.60 9  150 258 
 PTB  HN ES        139 21.99                             130   -0.12 9  150 258 
 PTB  HZ I         139 25.57         1.4 0.14            133            150 258 
 SPBC HZ EP   4    139  6.17                             127    3.21 0  167 219 
 SPBC HE ES   4    139 25.32                             127    0.16 0  167 219 
 SPBC HZ I         139 29.74         2.3 0.23            130            167 219 
                                                                                
