 2017  916 0123 26.2 L   6.778 -73.099142.0  RSN  7 0.4 1.5LRSN                1
 GAP=144        0.75       3.6     4.4  6.2 -0.1533E+01  0.1052E+02  0.4253E+01E
 Epicentro: LOS SANTOS - SANTANDER                                             3
 ACTION:UPD 17-10-05 19:12 OP:rebc STATUS:               ID:20170916012326 L   I
 OLDACT:UP  17-09-16 13:58 OP:mg   STATUS:               ID:20170916011739     3
 OLDACT:REG 17-09-16 12:02 OP:mg   STATUS:               ID:20170916011739     3
 2017-09-16-0118-00M.COL___456                                                 6
 STAT SP IPHASW D HRMM SECON CODA AMPLIT PERI AZIMU VELO AIN AR TRES W  DIS CAZ7
 BAR2 EZ EP        123 45.16                             171   -0.1710 22.5 204 
 BAR2 EZ ES   2    123 59.67                             171   -0.60 5 22.5 204 
 BAR2 EZ I         124  1.25         8.9 0.18            166           22.5 204 
 PAM  EN ES        124  5.04                             151    0.1710 76.2  35 
 PAM  EZ I         124  6.77         5.0 0.14            157           76.2  35 
 BRR  HZ EP        123 46.79                             150   -0.4610 76.9 298 
 BRR  HN ES        124  4.10                             150    0.4110 76.9 298 
 BRR  HZ I         124  9.57         7.9 0.29            148           76.9 298 
 RUS  HZ EP        123 49.45                             144    0.0910 97.9 179 
 RUS  HN ES        124  7.59                             144    0.1510 97.9 179 
 RUS  HZ I         124  9.63         3.9 0.16            147           97.9 179 
 SPBC HN ES   1    124 16.31                             128   -0.32 7  165 221 
 SPBC HZ I         124 22.39         4.1 0.36            129            165 221 
 ZAR  HZ EP   1    123 59.29                             121    0.33 6  210 292 
 ZAR  HE ES   2    124 23.74                             121   -0.80 4  210 292 
 ZAR  HZ I         124 29.11         3.3 0.32            122            210 292 
 NOR  HZ EP        124  1.78                             118   -0.20 8  237 236 
 NOR  HN ES        124 30.31                             118    0.39 8  237 236 
 NOR  HZ I         124 37.01         2.1 0.32            119            237 236 
                                                                                
