 2015  416 0709 26.9 L   6.330 -73.578110.6  RSN  6 0.3 1.8LRSN                1
 GAP=108        0.89       3.6     3.5  7.0  0.2138E+01  0.1147E+02  0.3270E+01E
 Epicentro: SANTA HELENA DEL OPON - SANTANDER                                  3
 ACTION:UPD 15-06-03 16:55 OP:cam  STATUS:               ID:20150416070926 L   I
 OLDACT:REG 15-04-16 13:05 OP:carl STATUS:               ID:20150416070747     3
 2015-04-16-0707-47M.COL___266                                                 6
 STAT SP IPHASW D HRMM SECON CODA AMPLIT PERI AZIMU VELO AIN AR TRES W  DIS CAZ7
 BAR2 EZ EP        7 9 43.73                             153    0.2110 52.5  56 
 BAR2 EZ ES        7 9 56.23                             153   -0.2710 52.5  56 
 BAR2 EZ I         7 9 57.95        19.0 0.12            159           52.5  56 
 RUS  HZ EP        7 9 45.14                             144   -0.0510 73.1 131 
 RUS  HN ES        7 9 59.54                             144    0.0610 73.1 131 
 RUS  HZ I         710  0.62         7.2 0.18            154           73.1 131 
 BRR  HZ EP        7 9 45.50                             139   -0.0710 87.2 350 
 BRR  HN ES        710  0.72                             139    0.5710 87.2 350 
 BRR  HZ I         710  7.62        11.3 0.16            142           87.2 350 
 PTB  HZ EP        7 9 46.24                             135   -0.4210 99.8 283 
 PTB  HN ES        710  1.49                             135   -0.5910 99.8 283 
 PTB  HZ I         710  6.31        12.3 0.38            137           99.8 283 
 NOR  HZ EP        7 9 53.27                             119    0.05 9  166 239 
 NOR  HE ES        710 14.33                             119    0.56 9  166 239 
 NOR  HZ I         710 18.77        13.6 0.16            124            166 239 
 ZAR  HZ EP        7 9 55.73                             115   -0.14 9  191 312 
 ZAR  HN ES        710 18.71                             115    0.22 9  191 312 
 ZAR  HZ I         710 23.33         9.4 0.28            119            191 312 
                                                                                
