 2012  916 0625 19.8 L   6.761 -73.150142.2  RSN  7 0.3 2.1LRSN                1
 GAP= 72        0.64       4.7     4.2  5.7  0.2958E+01 -0.5301E+01 -0.1816E+01E
 Epicentro: LOS SANTOS - SANTANDER                                             3
 ACTION:UPD 12-10-22 14:19 OP:ep   STATUS:               ID:20120916062519 L   I
 2012-09-16-0620-00M.COL___227                                                 6
 STAT SP IPHASW D HRMM SECON CODA AMPLIT PERI AZIMU VELO AIN AR TRES W  DIS CAZ7
 BAR2 SZ EP        625 39.03                             172    0.0710 19.0 191 
 BAR2 SZ ES   1    625 53.83                             172   -0.05 7 19.0 191 
 BAR2 SZ I         625 55.62        37.6 0.15                          19.0 191 
 GIR2 SZ EP   2    625 38.66                             165   -0.55 5 35.4 352 
 BRR  HZ EP        625 40.81                             151    0.1010 72.9 302 
 BRR  HN ES   1    625 57.52                             151    0.54 7 72.9 302 
 BRR  HZ I         625 58.49        38.6 0.14                          72.9 302 
 PAM  SZ EP   1    625 41.87                             149   -0.04 7 81.0  38 
 PAM  SZ I         625 42.14        25.1 0.16                          81.0  38 
 PAM  SE ES   2    625 58.42                             149   -0.69 5 81.0  38 
 RUS  HZ EP   1    625 42.98                             144    0.04 7 96.4 176 
 RUS  HZ I         625 44.39        11.6 0.14                          96.4 176 
 RUS  HN ES   1    626  0.86                             144   -0.10 7 96.4 176 
 PTB  HZ EP   1    625 45.86                             132   -0.55 7  146 260 
 PTB  HE ES   2    626  6.88                             132   -0.24 5  146 260 
 PTB  HZ I         626 11.84         8.6 0.20                           146 260 
 TAM  HZ EP        625 47.47                             130    0.28 9  155 103 
                                                                                
