 2017  916 0250 40.7 L   6.778 -73.096151.7  RSN 16 0.3 1.9LRSN                1
 GAP=117        0.62       2.3     2.7  3.5 -0.6524E+00  0.6458E+00  0.2756E+01E
 Epicentro: LOS SANTOS - SANTANDER                                             3
 ACTION:UPD 17-10-05 19:12 OP:rebc STATUS:               ID:20170916025040 L   I
 OLDACT:UP  17-09-16 14:58 OP:mg   STATUS:               ID:20170916024739     3
 OLDACT:REG 17-09-16 12:36 OP:mg   STATUS:               ID:20170916024739     3
 2017-09-16-0248-00M.COL___447                                                 6
 STAT SP IPHASW D HRMM SECON CODA AMPLIT PERI AZIMU VELO AIN AR TRES W  DIS CAZ7
 BAR2 EZ EP        251  0.87                             171   -0.2010 22.6 205 
 BAR2 EZ ES   1    251 16.43                             171   -0.50 7 22.6 205 
 BAR2 EZ I         251 18.66        12.7 0.25            169           22.6 205 
 PAM  EZ EP        251  3.62                             152    0.1110 76.0  35 
 PAM  EN ES        251 21.41                             152    0.1410 76.0  35 
 PAM  EZ I         251 22.12         8.2 0.15            153           76.0  35 
 BRR  HZ EP        251  2.91                             152    0.0410 77.2 298 
 BRR  HN ES        251 20.33                             152    0.2010 77.2 298 
 BRR  HZ I         251 22.60         7.0 0.19            150           77.2 298 
 RUS  HZ EP        251  4.79                             146   -0.1010 97.9 179 
 RUS  HN ES        251 23.65                             146   -0.0810 97.9 179 
 RUS  HZ I         251 24.76         6.8 0.32            144           97.9 179 
 SPBC HZ EP     C  251  9.93                             130    0.08 9  165 221 
 SPBC HN ES        251 32.71                             130    0.15 9  165 221 
 SPBC HZ I         251 37.75        17.8 0.17            128            165 221 
 YPLC HZ IP     D  251 11.12                             129    0.60 9  172 153 
 YPLC HE ES   4    251 38.39                             129    4.64 0  172 153 
 YPLC HZ I         251 40.53         5.6 0.22            128            172 153 
 ZAR  HZ EP   2    251 14.13                             123   -0.05 4  210 292 
 ZAR  HN ES   1    251 40.02                             123   -0.25 6  210 292 
 ZAR  HZ I         251 45.36         8.0 0.18            122            210 292 
 NOR  HZ EP        251 16.79                             119   -0.35 8  238 236 
 NOR  HN ES        251 45.30                             119   -0.24 8  238 236 
 NOR  HZ I         251 48.77         6.8 0.22            118            238 236 
 CHI  HZ EP        251 18.90                             118    0.22 8  248 197 
 CHI  HN ES   1    251 48.55                             118    0.28 6  248 197 
 CHI  HZ I         251 54.29         2.5 0.24            117            248 197 
 PTGC HZ EP        251 23.85                             113   -0.54 7  304 159 
 PTGC HE ES   2    251 57.72                             113   -0.72 4  304 159 
 PTGC HZ I         252  3.84         3.5 0.35            112            304 159 
 GUY2CHZ EP   4    251 27.31                             113    2.34 0  304 236 
 GUY2CHN ES   4    252  3.14                             113    3.67 0  304 236 
 GUY2CHZ I         252  7.80         4.5 0.31                           304 236 
 LL6C HZ EP   2    251 26.15                             111   -0.85 3  328 357 
 LL6C HN ES   4    252  1.42                             111   -1.67 0  328 357 
 LL6C HZ I         252  8.20         6.1 0.57            111            328 357 
 CBOC HZ EP   1    251 28.64                             111    0.23 5  338 253 
 PRA  HZ EP   2    251 35.38                             107    0.84 3  393 210 
 PRA  HE ES   1    252 16.78                             107    0.28 4  393 210 
 PRA  HZ I         252 22.40         3.6 0.60            107            393 210 
 ORTC HZ EP   1    251 35.17                             107    0.16 4  397 217 
 ORTC HN ES   4    252 19.63                             107    2.28 0  397 217 
 ORTC HZ I         252 24.84         1.8 0.33            106            397 217 
 SJC  HZ EP   4    251 35.25                             106   -1.84 0  414 327 
 SJC  HN ES   4    252 16.09                             106   -4.95 0  414 327 
 SJC  HZ I         252 29.09         1.2 0.29            106            414 327 
                                                                                
