 2012  516 0403  8.7 L   6.690 -73.190144.2  RSN  4 0.2 1.2LRSN                1
 GAP=224        0.60       6.4     6.5  6.7  0.2224E+02  0.9906E+01  0.4800E+01E
 Epicentro: VILLANUEVA - SANTANDER                                             3
 ACTION:UP  12-07-05 12:05 OP:pat  STATUS:               ID:20120516040308 L   I
 2012-05-16-0400-00M.COL___195                                                 6
 STAT SP IPHASW D HRMM SECON CODA AMPLIT PERI AZIMU VELO SNR AR TRES W  DIS CAZ7
 BAR2 SZ ES   1    4 3 42.68                             175    -0.3 7   11 175 
 BAR2 SZ I         4 3 45.66         5.7 0.32                            11 175 
 BRR  HZ EP   1    4 3 29.59                             151    -0.2 7   74 309 
 BRR  HN ES   1    4 3 46.64                             151     0.3 7   74 309 
 BRR  HZ I         4 3 48.56         4.3 0.12                            74 309 
 RUS  HZ EP   1    4 3 31.78                             147     0.3 7   89 172 
 RUS  HN ES   1    4 3 49.25                             147     0.0 7   89 172 
 RUS  HZ I         4 3 51.56         1.8 0.27                            89 172 
 PTB  HZ EP   1    4 3 34.77                             133    -0.1 7  141 263 
 PTB  HN ES   1    4 3 55.35                             133     0.0 7  141 263 
 PTB  HZ I         4 3 58.64         1.5 0.17                           141 263 
                                                                                
