 2010  216 0034 10.9 L   6.622 -74.153 21.3  RSN  4 0.3 1.6LRSN                1
 GAP=219        0.60       3.7     8.6  7.9 -0.1179E+02  0.4710E+02 -0.6171E+01E
 Epicentro: PUERTO PARRA - SANTANDER                                           3
 ACTION:UP  10-08-24 09:49 OP:vdl  STATUS:               ID:20100216003410 L   I
 2010-02-16-0020-00S.COL___094                                                 6
 STAT SP IPHASW D HRMM SECON CODA AMPLIT PERI AZIMU VELO SNR AR TRES W  DIS CAZ7
 BAR2 SZ EP        034 28.01                              99    -0.210  107  92 
 BAR2 SZ ES   3    034 41.96                              99     0.2 2  107  92 
 GIR2 SZ EP        034 29.92                              56     0.410  117  64 
 GIR2 SZ ES   3    034 43.45                              56    -0.6 2  117  64 
 OCA  SZ EP        034 39.87                              56    -0.1 9  201  27 
 OCA  SZ I         035  8.84         9.3 0.16                           201  27 
 CHI  HZ EP        034 43.21                              56    -0.1 8  225 168 
 CHI  HN ES   2    035  8.84                              56     0.2 4  225 168 
 CHI  HZ I         035 14.77         2.0 0.57                           225 168 
                                                                                
