 2017 1216 0822 56.6 L   6.803 -73.171144.0  RSN 11 0.4 1.9LRSN                1
 GAP=117        1.21       3.9     5.5  7.2 -0.8179E+01  0.1269E+02 -0.5208E+01E
 Epicentro: LOS SANTOS - SANTANDER                                             3
 ACTION:UPD 18-01-04 13:21 OP:rebc STATUS:               ID:20171216082256 L   I
 OLDACT:REG 17-12-16 12:39 OP:edw  STATUS:               ID:20171216081345     3
 2017-12-16-0818-00M.COL___446                                                 6
 STAT SP IPHASW D HRMM SECON CODA AMPLIT PERI AZIMU VELO AIN AR TRES W  DIS CAZ7
 BAR2 EZ IP     D  823 15.99                             170   -0.0510 23.3 183 
 BAR2 EZ ES        823 30.48                             170   -0.7110 23.3 183 
 BAR2 EZ I         823 32.61        14.6 0.18            169           23.3 183 
 PAM  EZ EP        823 18.96                             150    0.2110 79.0  41 
 PAM  EN ES        823 36.05                             150    0.0510 79.0  41 
 PAM  EZ I         823 38.40         3.7 0.16            152           79.0  41 
 PTB  HZ EP        823 22.84                             132   -0.36 9  145 258 
 PTB  HN ES        823 44.00                             132    0.07 9  145 258 
 PTB  HZ I         823 45.62         6.8 0.58            131            145 258 
 OCA  HZ EP        823 24.83                             129    0.09 9  160 354 
 OCA  HN ES        823 47.18                             129    0.51 9  160 354 
 OCA  HZ I         823 51.60        14.6 0.14            130            160 354 
 SPBC HZ EP        823 25.01                             129    0.17 9  162 218 
 SPBC HN ES        823 47.61                             129    0.76 9  162 218 
 SPBC HZ I         823 54.02        10.3 0.28            128            162 218 
 ZAR  HZ EP        823 28.87                             122    0.20 9  201 292 
 ZAR  HE ES        823 53.86                             122    0.19 9  201 292 
 ZAR  HZ I         823 59.54         8.4 0.36            122            201 292 
 URE  HZ EP        823 36.71                             113   -0.59 7  281 292 
 URE  HN ES   4    824  7.60                             113   -1.43 0  281 292 
 URE  HZ I         824 19.07         4.8 0.24            113            281 292 
 DRL03HZ EP        823 37.90                             113   -0.18 7  288 353 
 DRL03HE ES        824  9.52                             113   -0.89 7  288 353 
 GUY2CHZ EP   9    823 41.38                             112    1.47 0  299 234 
 GUY2CHN ES        824 13.64                                   -1.50 7  299 234 
 GUY2CHZ I         824 24.02         3.3 0.68                           299 234 
 PTGC HZ EP   9    823 39.34                             111   -1.22 0  310 158 
 PTGC HN ES        824 12.77                                   -0.84 7  310 158 
 PTGC HZ I         824 23.80         4.2 0.30            111            310 158 
 PRA  HZ EP        823 50.57                             106    0.62 6  391 209 
 PRA  HN ES        824 31.20                             106   -0.35 6  391 209 
 PRA  HZ I         824 36.17         2.4 0.24            106            391 209 
 SJC  HZ EP   4    823 50.26                             105   -1.66 0  407 327 
 SJC  HN ES   4    824 32.37                             105   -2.67 0  407 327 
                                                                                
