 2017 1216 0934 30.0 L   6.771 -73.125148.0  RSN 11 0.5 1.7LRSN                1
 GAP=122        1.08       3.1     4.3  6.2 -0.1560E+01  0.2246E+01  0.2588E+01E
 Epicentro: LOS SANTOS - SANTANDER                                             3
 ACTION:UPD 18-01-04 13:21 OP:rebc STATUS:               ID:20171216093430 L   I
 OLDACT:REG 17-12-16 12:45 OP:edw  STATUS:               ID:20171216092737     3
 2017-12-16-0928-00M.COL___446                                                 6
 STAT SP IPHASW D HRMM SECON CODA AMPLIT PERI AZIMU VELO AIN AR TRES W  DIS CAZ7
 BAR2 EZ EP        934 49.87                             172   -0.0210 20.7 198 
 BAR2 EZ ES        935  6.11                             172    0.7410 20.7 198 
 BAR2 EZ I         935  8.32         5.0 0.64            170           20.7 198 
 PAM  EZ EP        934 52.74                             151    0.1810 78.5  37 
 PAM  EN ES        935  9.71                             151   -0.4110 78.5  37 
 PAM  EZ I         935 12.02         5.3 0.54            152           78.5  37 
 PTB  HZ EP        934 56.89                             132   -0.45 9  149 260 
 PTB  HN ES        935 18.24                             132   -0.39 9  149 260 
 PTB  HZ I         935 20.02         4.2 0.14            132            149 260 
 SPBC HZ EP        934 58.97                             130    0.36 9  162 220 
 SPBC HN ES        935 20.75                             130   -0.15 9  162 220 
 SPBC HZ I         935 23.57         6.4 0.10            129            162 220 
 OCA  HN ES        935 21.30                             129   -0.02 9  164 352 
 ZAR  HZ EP        935  2.59                             122   -0.38 8  207 293 
 ZAR  HN ES        935 28.42                             122   -0.25 8  207 293 
 ZAR  HZ I         935 34.65         4.5 0.54            123            207 293 
 DRL03HZ EP        935 12.36                             113    0.21 7  292 352 
 DRL03HN ES        935 45.72                             113    0.73 7  292 352 
 GUY2CHZ EP   9    935 15.00                             113    1.25 0  301 236 
 GUY2CHN ES        935 49.41                                    0.31 7  301 236 
 GUY2CHZ I         935 56.71         1.7 0.28                           301 236 
 PTGC HZ EP        935 13.06                             112   -0.50 7  305 159 
 PTGC HN ES        935 46.89                             112   -0.61 7  305 159 
 PTGC HZ I         935 56.66         5.1 0.42            112            305 159 
 PRA  HZ EP        935 23.66                             107    0.22 6  390 210 
 PRA  HN ES        936  6.60                             107    1.50 6  390 210 
 PRA  HZ I         936 10.83         1.4 0.44            107            390 210 
 SJC  HZ EP   4    935 24.17                             106   -1.97 0  413 327 
 SJC  HN ES   4    936  5.65                             106   -4.25 0  413 327 
 SJC  HZ I         936 15.27         2.5 0.80            106            413 327 
                                                                                
