 2016 1216 0946  5.7 L   6.795 -73.106144.1  RSN  6 0.2 1.6LRSN                1
 GAP=142        0.62       3.4     3.7  4.9 -0.4057E+01  0.2478E+01  0.5388E+01E
 Epicentro: LOS SANTOS - SANTANDER                                             3
 ACTION:UPD 17-01-11 20:15 OP:rebc STATUS:               ID:20161216094605 L   I
 OLDACT:UP  16-12-16 18:55 OP:e    STATUS:               ID:20161216093751d    3
 OLDACT:DUP 16-12-16 18:52 OP:e    STATUS:               ID:20161216093751d    3
 OLDACT:UP  16-12-16 18:51 OP:e    STATUS:               ID:20161216093750     3
 OLDACT:REG 16-12-16 12:55 OP:and  STATUS:               ID:20161216093750     3
 2016-12-16-0938-00M.COL___332                                                 6
 STAT SP IPHASW D HRMM SECON CODA AMPLIT PERI AZIMU VELO AIN AR TRES W  DIS CAZ7
 BAR2 EZ EP        946 24.91                             170   -0.2510 23.9 201 
 BAR2 EZ ES        946 40.04                             170   -0.2810 23.9 201 
 BAR2 EZ I         946 42.58         7.8 0.22            159           23.9 201 
 PAM  EZ EP        946 27.84                             151    0.2110 75.2  37 
 PAM  EN ES        946 44.94                             151    0.2310 75.2  37 
 PAM  EZ I         946 47.02         7.1 0.48            146           75.2  37 
 BRR  HZ EP        946 26.82                             151   -0.1110 75.3 297 
 RUS  HZ EP        946 29.17                             144   -0.0810 99.8 179 
 RUS  HZ I         946 48.76         7.9 0.24            133           99.8 179 
 PTB  HZ EP        946 32.90                             131   -0.03 9  152 259 
 PTB  HE ES        946 54.32                             131    0.16 9  152 259 
 CHI  HZ EP        946 43.16                             117   -0.23 8  249 196 
 CHI  HN ES        947 13.28                             117    0.50 8  249 196 
                                                                                
