 2015  816 0658 41.3 L   6.820 -73.124151.6  RSN  7 0.5 1.7LRSN                1
 GAP=185        1.18       4.2     7.8  8.4  0.8687E+01  0.6828E+01 -0.6915E+01E
 Epicentro: LOS SANTOS - SANTANDER                                             3
 ACTION:UPD 15-09-15 23:02 OP:cam  STATUS:               ID:20150816065841 L   I
 OLDACT:REG 15-08-16 13:44 OP:mh   STATUS:               ID:20150816065743     3
 2015-08-16-0657-43M.COL___340                                                 6
 STAT SP IPHASW D HRMM SECON CODA AMPLIT PERI AZIMU VELO AIN AR TRES W  DIS CAZ7
 BAR2 EZ EP        659  1.71                             170    0.0210 26.0 194 
 BAR2 EZ ES        659 17.14                             170   -0.4510 26.0 194 
 BAR2 EZ I         659 18.22         5.5 0.32            168           26.0 194 
 BRR  HZ EP        659  3.64                             153    0.5010 72.3 296 
 BRR  HN ES        659 20.93                             153    0.7510 72.3 296 
 BRR  HZ I         659 25.65         5.1 0.14            149           72.3 296 
 RUS  HZ EP        659  6.08                             144    0.3010  103 177 
 RUS  HN ES        659 24.37                             144   -0.5010  103 177 
 RUS  HZ I         659 25.07         3.3 0.24            147            103 177 
 OCA  HN ES        659 32.61                             131    0.41 9  158 352 
 OCA  HZ I         659 37.69         8.6 0.23            132            158 352 
 SPBC HZ EP   1    659 10.83                             130    0.28 7  166 219 
 SPBC HN ES        659 33.41                             130    0.04 9  166 219 
 SPBC HZ I         659 39.28         8.9 0.28            130            166 219 
 ZAR  HZ EP   1    659 14.72                             123    0.45 6  205 291 
 ZAR  HN ES        659 39.40                             123   -0.59 8  205 291 
 ZAR  HZ I         659 45.20         5.8 0.72            123            205 291 
 SML  HZ EP        659 17.36                             119   -0.79 8  243 335 
 SML  HN ES        659 46.30                             119   -0.60 8  243 335 
 SML  HZ I         659 51.24         7.2 0.10            119            243 335 
 LL1C HZ EP   4    659 13.44                             113   -11.5 0  305 351 
 LL1C HN ES   4    659 27.09                             113   -31.9 0  305 351 
                                                                                
