 2011 1116 0503 41.0 L   6.788 -73.128141.1  RSN 11 0.4 2.1LRSN                1
 GAP=139        0.68       2.7     4.0  4.9 -0.1154E+01  0.5864E+01  0.2240E+01E
 Epicentro: LOS SANTOS - SANTANDER                                             3
 ACTION:UPD 12-07-13 16:10 OP:ep   STATUS:               ID:20111116050341 L   I
 2011-11-16-0501-28S.COL___179                                                 6
 STAT SP IPHASW D HRMM SECON CODA AMPLIT PERI AZIMU VELO AIN AR TRES W  DIS CAZ7
 BAR2 SZ EP   1    5 3 59.82                             170   -0.19 7 22.4 195 
 BAR2 SZ ES   1    5 4 14.65                             170   -0.22 7 22.4 195 
 BAR2 SZ I         5 4 15.91        31.5 0.21                          22.4 195 
 BRR  HZ EP   1    5 4  1.62                             151   -0.13 7 73.5 299 
 BRR  HE ES   1    5 4 18.61                             151    0.65 7 73.5 299 
 BRR  HZ I         5 4 22.95        29.1 0.14                          73.5 299 
 PAM  SZ EP        5 4  2.85                             150    0.1810 77.2  38 
 PAM  SZ I         5 4  3.06        11.9 0.14                          77.2  38 
 PAM  SE ES   1    5 4 19.77                             150    0.16 7 77.2  38 
 RUS  HZ EP   1    5 4  3.86                             143   -0.29 7 99.1 177 
 RUS  HE ES   1    5 4 22.45                             143    0.21 7 99.1 177 
 RUS  HZ I         5 4 23.34        17.4 0.29                          99.1 177 
 OCA  SZ EP   1    5 4  8.95                             128   -0.12 7  162 353 
 OCA  SZ ES   1    5 4 30.35                             128   -0.63 7  162 353 
 OCA  SZ I         5 4 33.84        13.5 0.36                           162 353 
 ZAR  HZ EP   2    5 4 13.57                             121    0.22 4  206 292 
 ZAR  HE ES   1    5 4 38.41                             121   -0.20 6  206 292 
 ZAR  HZ I         5 4 44.28        10.1 0.16                           206 292 
 NOR  SZ EP   1    5 4 16.41                             117   -0.10 6  235 235 
 NOR  SN ES   1    5 4 43.71                             117   -0.53 6  235 235 
 CHI  HZ EP   1    5 4 18.20                             116   -0.12 6  248 196 
 CHI  HN ES   1    5 4 47.04                             116   -0.42 6  248 196 
 ROSC BZ EP   1    5 4 19.50                             116    0.68 6  253 212 
 ROSC BZ I         5 4 53.75         9.3 0.49                           253 212 
 HEL  HZ EP   1    5 4 21.63                             114    0.51 6  274 256 
 HEL  HZ I         5 4 58.32        11.0 0.40                           274 256 
 RREF HZ EP   1    5 4 27.45                             110    0.47 5  322 230 
 RREF HZ I         5 5 12.20         6.1 0.28                           322 230 
                                                                                
