 2014  316 0655 21.3 L   6.799 -73.188144.0  RSN  8 0.4 1.5LRSN                1
 GAP=131        0.89       3.3     4.0  7.4 -0.1799E+01  0.1018E+02 -0.5775E+01E
 Epicentro: ZAPATOCA - SANTANDER                                               3
 OLDACT:REG 14-03-16 07:42 OP:fm   STATUS:               ID:20140316064816     3
 ACTION:UPD 14-04-09 23:17 OP:nd   STATUS:               ID:20140316065521 L   I
 OLDACT:UP  14-03-16 10:14 OP:fm   STATUS:               ID:20140316064816     3
 2014-03-16-0648-16M.COL___239                                                 6
 STAT SP IPHASW D HRMM SECON CODA AMPLIT PERI AZIMU VELO AIN AR TRES W  DIS CAZ7
 BAR2 SZ EP   1    655 41.27                             170    0.52 7 22.9 179 
 BAR2 SZ ES   1    655 55.81                             170   -0.07 7 22.9 179 
 BAR2 SZ I         656  0.85         9.8 0.64            170           22.9 179 
 PAM  SZ EP        655 43.61                             149    0.0510 80.5  42 
 PAM  SN ES        656  0.59                             149   -0.3010 80.5  42 
 PAM  SZ I         656  2.11         5.7 0.58            157           80.5  42 
 RUS  HZ EP        655 44.97                             143    0.0310  101 173 
 RUS  HN ES        656  3.38                             143    0.0410  101 173 
 RUS  SZ I         656 16.09         3.3 4.88            149            101 173 
 PTB  HZ EP        655 47.59                             132   -0.16 9  143 259 
 PTB  HN ES        656  7.70                             132   -0.65 9  143 259 
 PTB  SZ I         656 15.88         3.9 1.50            135            143 259 
 OCA  HN ES   1    656 12.08                             129    0.65 7  160 355 
 SPBC HE ES        656 11.53                             129    0.21 9  160 218 
 ZAR  HZ EP   1    655 53.73                             122    0.50 6  200 293 
 ZAR  HN ES        656 18.61                             122    0.50 9  200 293 
 ZAR  SZ I         656 28.47         2.4 0.10            126            200 293 
 SML  HZ EP   1    655 56.76                             117   -0.91 6  242 336 
 SML  HN ES   1    656 25.73                             117   -0.28 6  242 336 
 SML  SZ I         656 36.24         3.5 0.10            122            242 336 
                                                                                
