 2010 1016 0955 39.4 L   6.826 -73.041145.6  RSN  4 0.1 1.4LRSN                1
 GAP=170        0.35       4.7     9.6  9.5  0.2725E+02 -0.5914E+02 -0.2200E+02E
 Epicentro: LOS SANTOS - SANTANDER                                             3
 ACTION:UP  11-02-18 11:10 OP:tino STATUS:               ID:20101016095539 L   I
 2010-10-16-0952-39S.COL___124                                                 6
 STAT SP IPHASW D HRMM SECON CODA AMPLIT PERI AZIMU VELO SNR AR TRES W  DIS CAZ7
 BAR2 SZ EP   2    955 59.33                             168     0.2 5   30 211 
 BAR2 SZ I         956 16.62         7.8 0.44                            30 211 
 BRR  HZ EP   1    956  1.11                             149     0.1 7   80 293 
 BRR  HZ I         956  1.26        10.8 0.14                            80 293 
 BRR  HN ES   2    956 17.83                             149    -0.1 5   80 293 
 RUS  HZ EP   1    956  3.19                             143    -0.1 7  103 183 
 RUS  HN ES   2    956 22.02                             143     0.1 5  103 183 
 RUS  HZ I         956 23.64         2.7 0.27                           103 183 
 GRA  SZ EP   2    956  4.05                             138    -0.1 5  120  13 
 GRA  SZ I         956 27.03         2.1 0.52                           120  13 
                                                                                
