 2011 1216 0149 28.8 L   6.757 -73.096147.9  RSN  5 0.1 1.9LRSN                1
 GAP=145        0.34       1.8     3.5  3.1 -0.4866E+00  0.1268E+01  0.7753E+00E
 Epicentro: LOS SANTOS - SANTANDER                                             3
 ACTION:UPD 12-07-13 16:16 OP:ep   STATUS:               ID:20111216014928 L   I
 2011-12-16-0147-00S.MAN___176                                                 6
 STAT SP IPHASW D HRMM SECON CODA AMPLIT PERI AZIMU VELO AIN AR TRES W  DIS CAZ7
 BAR2 SZ EP   1    149 48.57                             172   -0.04 7 20.6 208 
 BAR2 SZ ES   1    150  3.84                             172   -0.24 7 20.6 208 
 BAR2 SZ I         150  5.34        39.1 0.14                          20.6 208 
 PAM  SZ EP   1    149 51.36                             151    0.12 7 77.8  34 
 PAM  SE ES   1    150  8.79                             151    0.02 7 77.8  34 
 BRR  HZ IP     C  149 50.45                             151   -0.1110 78.3 300 
 BRR  HE ES   1    150  7.76                             151    0.20 7 78.3 300 
 BRR  HZ I         150 10.40        17.7 0.22                          78.3 300 
 RUS  HZ EP   1    149 52.46                             146    0.07 7 95.6 179 
 RUS  HE ES        150 10.85                             146    0.0410 95.6 179 
 RUS  HZ I         150 12.44         7.2 0.33                          95.6 179 
 CHI  HZ EP   1    150  6.13                             118   -0.13 6  246 197 
 CHI  HN ES   1    150 35.63                             118    0.12 6  246 197 
 CHI  HZ I         150 39.47         5.5 0.56                           246 197 
                                                                                
