 2017  116 0502 26.0 L   6.800 -73.137141.9  RSN 20 0.6 2.2LRSN                1
 GAP= 66        1.24       3.7     4.0  5.9 -0.1338E+01  0.6661E+01  0.3789E+01E
 Epicentro: LOS SANTOS - SANTANDER                                             3
 ACTION:UPD 17-05-22 16:00 OP:jn   STATUS:               ID:20170116050226 L   I
 OLDACT:UP  17-01-16 16:13 OP:dani STATUS:               ID:20170116045648     3
 OLDACT:UP  17-01-16 16:13 OP:dani STATUS:               ID:20170116045648     3
 OLDACT:UP  17-01-16 16:13 OP:dani STATUS:               ID:20170116045648     3
 OLDACT:REG 17-01-16 13:15 OP:dani STATUS:               ID:20170116045648     3
 2017-01-16-0457-00M.COL___341                                                 6
 STAT SP IPHASW D HRMM SECON CODA AMPLIT PERI AZIMU VELO AIN AR TRES W  DIS CAZ7
 BAR2 HZ EP     C  5 2 45.09                             170   -0.1010 23.5 192 
 BAR2 HE ES        5 2 59.94                             170   -0.2010 23.5 192 
 BAR2 HZ I         5 3  1.33        39.2 0.23            168           23.5 192 
 BRR  HZ EP        5 2 46.92                             152    0.1210 72.0 298 
 BRR  HN ES        5 3  3.68                             152    0.6710 72.0 298 
 BRR  HZ I         5 3  7.83        19.9 0.12            148           72.0 298 
 PAM  HZ EP        5 2 47.96                             150    0.1710 76.8  39 
 PAM  HN ES        5 3  4.83                             150    0.0710 76.8  39 
 PAM  HZ I         5 3  6.89        42.3 0.50            154           76.8  39 
 RUS  HZ EP        5 2 49.15                             143   -0.2410  101 177 
 RUS  HN ES        5 3  7.85                             143    0.2310  101 177 
 RUS  HZ I         5 3  9.46        28.6 0.32            145            101 177 
 PTB  HZ EP        5 2 51.68                             131   -1.08 9  149 259 
 PTB  HN ES        5 3 12.81                             131   -0.81 9  149 259 
 PTB  HZ I         5 3 17.85        19.4 0.42            129            149 259 
 TAM  HZ IP     D  5 2 53.50                             130    0.19 9  154 105 
 ZAR  HZ EP        5 2 58.15                             121   -0.16 9  205 292 
 ZAR  HN ES        5 3 23.93                             121    0.44 9  205 292 
 ZAR  HZ I         5 3 29.34        19.9 0.22            121            205 292 
 NOR  HZ EP        5 3  1.64                             118    0.03 8  235 235 
 NOR  HN ES        5 3 29.40                             118    0.02 8  235 235 
 NOR  HZ I         5 3 35.23        13.4 0.26            118            235 235 
 CHI  HZ EP        5 3  3.50                             116   -0.04 8  249 195 
 CHI  HN ES        5 3 32.57                             116   -0.23 8  249 195 
 CHI  HZ I         5 3 36.22         5.4 0.54            117            249 195 
 ROSC BZ EP        5 3  5.45                             116    1.46 8  253 211 
 ROSC BN ES        5 3 32.30                             116   -1.30 8  253 211 
 ROSC BZ I         5 3 42.21         8.9 0.30            116            253 211 
 URE  HZ EP   3    5 3  5.33                             113   -1.68 2  285 292 
 URE  HN ES   4    5 3 36.22                             113   -2.75 0  285 292 
 URE  HZ I         5 3 49.30         9.7 0.06            113            285 292 
 GUY2CHZ EP        5 3 10.42                             111    0.88 7  302 235 
 GUY2CHE ES        5 3 44.89                             111    1.40 7  302 235 
 GUY2CHZ I         5 3 50.31         6.7 0.30                           302 235 
 PTGC HZ EP   3    5 3  8.53                             111   -1.14 2  308 159 
 PTGC HE ES   4    5 3 41.49                             111   -2.22 0  308 159 
 PTGC HZ I         5 3 43.50        10.4 0.38            112            308 159 
 LL6C HZ EP   4    5 2 50.82                             110   -20.7 0  325 357 
 ELA  HZ EP   4    5 3 15.46                             109    2.66 0  330 230 
 ELA  HN ES   3    5 3 50.69                             109    1.41 2  330 230 
 ELA  HZ I         5 3 59.43         5.6 0.21            110            330 230 
 CBOC HZ EP   3    5 3 13.59                             109    0.71 2  335 252 
 CBOC HN ES        5 3 49.20                             109   -0.24 7  335 252 
 CBOC HZ I         5 3 54.44         3.0 0.24            109            335 252 
 DBB  HZ EP        5 3 13.20                             109   -0.25 7  340 274 
 ARGC HZ EP   3    5 3 15.99                             107    0.42 2  360 340 
 ARGC HN ES        5 3 53.63                             107   -0.58 6  360 340 
 ARGC HZ I         5 4  4.50         7.0 0.71            108            360 340 
 ORTC HZ EP        5 3 19.80                             106   -0.08 6  396 216 
 PAL  HZ EP        5 3 21.11                             105   -0.04 6  407 239 
 PAL  HE ES        5 4  4.05                             105   -0.11 6  407 239 
 PAL  HZ I         5 4  9.14         4.5 0.17            106            407 239 
 SJC  HZ EP   3    5 3 19.69                             105   -1.83 1  410 327 
 SJC  HN ES   4    5 4  0.71                             105   -4.09 0  410 327 
 SJC  HZ I         5 4  4.09         4.6 0.60            106            410 327 
 CRJC HZ EP   4    5 3 25.39                             103   -3.02 0  468   3 
                                                                                
