 2011  416 0514 25.1 L   7.389 -73.196130.9  RSN 10 0.4 2.5LRSN                1
 GAP=109        0.79       4.6     6.1  6.7 -0.6136E+01  0.1313E+02  0.4881E+01E
 Epicentro: EL PLAYON - SANTANDER                                              3
 ACTION:UPD 11-06-22 15:31 OP:REBC STATUS:               ID:20110416051426dL   I
 2011-04-16-0511-22S.COL___140                                                 6
 STAT SP IPHASW D HRMM SECON CODA AMPLIT PERI AZIMU VELO SNR AR TRES W  DIS CAZ7
 GIR2 SZ EP   1    514 43.32                                     0.2 7   34 180 
 GIR2 SZ ES   1    514 56.93                                    -0.3 7   34 180 
 BTL  SZ EP   1    514 43.41                                    -0.6 7   53 189 
 PAM  SZ EP   1    514 44.68                                     0.2 7   55  96 
 PAM  SN ES   1    514 59.86                                     0.2 7   55  96 
 PAM  SZ I         515  2.50        22.5 0.34                            55  96 
 BRR  HZ EP   1    514 44.44                                     0.1 7   65 241 
 BRR  HZ I         514 45.00        96.5 0.12                            65 241 
 BRR  HN ES   2    514 59.52                                     0.2 5   65 241 
 GRA  SZ IP        514 45.11                                     0.310   70  38 
 GRA  SZ ES   1    515  0.34                                     0.1 7   70  38 
 GRA  SZ I         515  1.51       129.1 0.29                            70  38 
 BAR2 SZ EP   1    514 46.15                                     0.0 7   88 179 
 BAR2 SZ I         515  3.94       152.9 0.12                            88 179 
 OCA  SZ EP   1    514 45.76                                    -0.8 7   95 352 
 YOP  SZ EP   2    515  0.54                                    -0.3 4  241 159 
 YOP  SN ES   1    515 28.50                                    -0.1 6  241 159 
 NOR  SZ EP   1    515  4.88                                     0.4 6  274 223 
 NOR  SN ES   2    515 34.98                                    -0.1 4  274 223 
 HEL  HZ EP   2    515  7.70                                     1.0 4  290 243 
 HEL  HZ I         515 47.34         5.8 0.29                           290 243 
                                                                                
