 2010  216 0530 21.0 L   6.828 -73.417132.0  RSN  6 0.3 1.9LRSN                1
 GAP=106        0.51       2.6     9.6  8.4  0.8874E+00  0.6346E+02  0.2265E+01E
 Epicentro: SAN VICENTE DE CHUCURI - SANTANDER                                 3
 ACTION:UP  10-08-24 09:49 OP:vdl  STATUS:               ID:20100216053021 L   I
 2010-02-16-0527-24S.COL___094                                                 6
 STAT SP IPHASW D HRMM SECON CODA AMPLIT PERI AZIMU VELO SNR AR TRES W  DIS CAZ7
 BAR2 SZ EP        530 39.18                             163    -0.110   37 135 
 BAR2 SZ ES   2    530 53.98                             163     0.3 5   37 135 
 GIR2 SZ EP        530 39.04                             163    -0.110   37  42 
 GIR2 SZ ES   3    530 53.46                             163     0.1 2   37  42 
 OCA  SZ EP        530 48.12                             126     0.3 9  156   4 
 OCA  SZ ES   2    531  8.55                             126    -0.3 5  156   4 
 OCA  SZ I         531 12.99        13.3 0.14                           156   4 
 CHI  HZ EP        530 57.82                             114     0.2 8  246 188 
 CHI  HE ES   2    531 25.86                             114    -0.3 4  246 188 
 CHI  HZ I         531 31.31         3.3 0.51                           246 188 
 MON  HZ EP        531  6.23                             107    -0.3 7  328 311 
 MON  HN ES   3    531 43.07                             107     1.1 2  328 311 
 PRA  HZ EP        531 12.90                             104     0.2 6  381 205 
 PRA  HN ES   3    531 52.06                             104    -1.0 1  381 205 
 PRA  HZ I         532  1.63         3.5 0.33                           381 205 
                                                                                
