 2017 1216 0250  7.6 L   6.839 -73.155141.8  RSN 24 0.5 2.6LRSN                1
 GAP= 56        1.14       2.7     2.8  5.5 -0.1018E+01  0.4826E+01 -0.1157E+01E
 Epicentro: LOS SANTOS - SANTANDER                                             3
 ACTION:UPD 18-01-04 13:20 OP:rebc STATUS:               ID:20171216025007 L   I
 OLDACT:UP  17-12-16 15:19 OP:edw  STATUS:               ID:20171216024739     3
 OLDACT:REG 17-12-16 12:00 OP:edw  STATUS:               ID:20171216024739     3
 2017-12-16-0248-00M.COL___461                                                 6
 STAT SP IPHASW D HRMM SECON CODA AMPLIT PERI AZIMU VELO AIN AR TRES W  DIS CAZ7
 BAR2 EZ IP     C  250 26.87                             168    0.0610 27.5 186 
 BAR2 EZ IS        250 41.61                             169           27.5 186 
 BAR2 EZ ES        250 41.61                             168   -0.2110 27.5 186 
 BAR2 EZ I         250 42.65       148.7 0.18            167           27.5 186 
 PAM  EZ EP     D  250 29.76                             151    0.5610 74.8  42 
 PAM  EN ES        250 46.59                             151    0.5210 74.8  42 
 PAM  EZ I         250 49.01       101.0 0.52            155           74.8  42 
 PTB  HZ EP        250 33.45                             131   -0.75 9  148 257 
 PTB  HN ES        250 54.44                             131   -0.54 9  148 257 
 PTB  HZ I         250 57.79        45.8 0.24            131            148 257 
 OCA  HZ EP        250 35.25                             130    0.10 9  156 353 
 OCA  HE ES        250 56.98                             130    0.31 9  156 353 
 TAM  HZ IP     D  250 35.28                             129    0.15 9  157 106 
 TAM  HN ES        250 56.68                             129    0.06 9  157 106 
 SPBC HZ EP        250 35.82                             128   -0.21 9  166 218 
 SPBC HN ES        250 57.90                             128   -0.33 9  166 218 
 SPBC HZ I         251  4.85        53.6 0.34            128            166 218 
 YPLC HZ EP     D  250 37.38                             125   -0.12 9  181 152 
 YPLC HN ES        251  1.00                             125    0.16 9  181 152 
 YPLC HZ I         251  3.79        27.1 0.22            126            181 152 
 ZAR  HZ EP        250 39.75                             122    0.26 9  202 291 
 ZAR  HN ES   4    251  5.80                             122    1.40 0  202 291 
 ZAR  HZ I         251 11.59        37.8 0.20            123            202 291 
 ROSC BZ EP   4    250 48.00                             115    2.18 0  256 210 
 ROSC BN ES   4    251 16.99                             115    1.33 0  256 210 
 ROSC BZ I         251 23.57        26.8 0.65            116            256 210 
 URE  HZ EP        250 47.36                             113   -0.80 7  281 291 
 URE  HN ES        251 19.05                             113   -0.78 7  281 291 
 URE  HZ I         251 20.86        33.1 0.14            114            281 291 
 DRL03HZ EP        250 49.04                             113    0.55 7  285 353 
 DRL03HE ES        251 20.41                             113    0.00 7  285 353 
 GUY2CHZ EP   4    250 52.18                             111    0.99 0  303 234 
 GUY2CHN ES        251 25.46                             111    0.25 7  303 234 
 GUY2CHZ I         251 32.28        27.6 0.24                           303 234 
 PTGC HZ EP   9    250 50.22                             110   -1.52 0  313 159 
 PTGC HN ES        251 23.28                             111   -1.40 7  313 159 
 PTGC HZ I         251 25.49        10.6 0.18            112            313 159 
 DRL02HZ EP   2    250 52.87                             110    0.27 3  321 358 
 DRL02HN ES   4    251 29.17                             110    1.45 0  321 358 
 CBOC HZ EP        250 55.13                             109    0.76 7  334 251 
 CBOC HN ES        251 31.52                             109    0.65 7  334 251 
 CBOC HZ I         251 35.96         8.5 0.42            110            334 251 
 DBB  EZ EP        250 55.22                             109    0.48 7  338 274 
 DBB  EN ES        251 32.29                             109    0.76 7  338 274 
 DBB  EZ I         251 33.29        16.1 0.24            110            338 274 
 SDV  BZ EP        250 56.73                             108   -0.50 6  358  51 
 SDV  B1 ES        251 34.33                             108   -1.63 6  358  51 
 SDV  BZ I         251 38.87         8.1 0.40            109            358  51 
 PRA  HZ EP        251  1.35                             106    0.01 6  395 209 
 PRA  HN ES        251 43.07                             106   -0.20 6  395 209 
 PRA  HZ I         251 48.42         9.8 0.26            106            395 209 
 APAC HZ EP        251  1.54                             106    0.18 6  396 287 
 APAC HN ES        251 43.74                             106    0.43 6  396 287 
 APAC HZ I         251 48.08        10.4 0.38            107            396 287 
 ORTC HZ EP        251  2.27                             105    0.58 6  398 216 
 ORTC HE ES        251 43.37                             105   -0.54 6  398 216 
 ORTC HZ I         251 51.51         5.5 0.20            106            398 216 
 SJC  HZ EP        251  1.81                             105   -0.70 6  405 327 
 SJC  HN ES   4    251 43.05                             105   -2.32 0  405 327 
 SJC  HZ I         251 46.15         9.6 0.52            106            405 327 
 PAL  HZ EP        251  2.89                             105    0.13 6  407 238 
 PAL  HN ES   4    251 43.31                             105   -2.50 0  407 238 
 PAL  HZ I         251 49.45         7.4 0.18            106            407 238 
 CRJC HZ EP   9    251  7.81                             103   -1.64 0  463   4 
 CRJC HN ES        251 54.68                             103   -1.40 5  463   4 
 MACC HZ EP   9    251 56.78                             101   40.11 0  525 188 
 MACC HN ES        252 49.80                                   -0.88 4  525 188 
                                                                                
