 2017  616 0820  3.5 L   6.509 -74.077 71.6  RSN  6 0.5 1.6LRSN                1
 GAP=148        1.20       3.3     4.5  8.9 -0.2771E+01  0.6673E+01  0.2305E+01E
 Epicentro: PUERTO PARRA - SANTANDER                                           3
 ACTION:UPD 17-09-14 16:52 OP:jn   STATUS:               ID:20170616082003 L   I
 OLDACT:REG 17-06-16 13:25 OP:ar   STATUS:               ID:20170616081744     3
 2017-06-16-0818-00M.COL___337                                                 6
 STAT SP IPHASW D HRMM SECON CODA AMPLIT PERI AZIMU VELO AIN AR TRES W  DIS CAZ7
 PTB  HZ IP     C  820 14.24                             146   -0.7410 42.1 275 
 PTB  HN ES        820 23.47                             146   -0.5010 42.1 275 
 PTB  HZ I         820 24.20        31.9 0.19            146           42.1 275 
 BRR  HZ IP     D  820 17.58                             128   -0.3910 77.5  31 
 BRR  HE ES        820 29.85                             128    0.5710 77.5  31 
 BRR  HZ I         820 30.35        20.1 0.12            128           77.5  31 
 SPBC HZ IP     C  820 19.83                             121   -0.0110 94.7 180 
 SPBC HN ES        820 33.12                             121    0.5110 94.7 180 
 SPBC HZ I         820 34.91        18.5 0.14            122           94.7 180 
 NOR  HZ EP        820 24.04                             111   -0.38 9  136 220 
 NOR  HE ES        820 40.94                             111    0.18 9  136 220 
 NOR  HZ I         820 41.94         5.9 0.12            112            136 220 
 ZAR  HZ EP        820 24.48                             111   -0.15 9  139 322 
 ZAR  HN ES        820 41.69                             111    0.54 9  139 322 
 ZAR  HZ I         820 43.49         9.4 0.22            111            139 322 
 HEL  HZ EP        820 27.87                             107   -0.20 9  164 258 
 HEL  HE ES        820 47.94                             107    0.67 9  164 258 
 HEL  HZ I         820 49.16         3.9 0.48            108            164 258 
 CBOC HZ EP   4    820 37.33                             102    2.17 0  226 252 
 CBOC HN ES   4    820 53.94                             102   -5.95 0  226 252 
                                                                                
