 2014 1216 0434 31.8 L   6.789 -73.154146.0  RSN  6 0.4 1.4LRSN                1
 GAP=136        0.89       4.4     4.6  6.6 -0.1691E+01  0.4485E+01 -0.1602E+01E
 Epicentro: LOS SANTOS - SANTANDER                                             3
 ACTION:UPD 15-02-10 17:04 OP:nd   STATUS:               ID:20141216043431 L   I
 OLDACT:DUP 14-12-16 18:16 OP:spq  STATUS:               ID:20141216042748d    3
 2014-12-16-0427-47M.COL___287                                                 6
 STAT SP IPHASW D HRMM SECON CODA AMPLIT PERI AZIMU VELO AIN AR TRES W  DIS CAZ7
 BAR2 EZ ES   1    435  6.29                             171   -0.45 7 22.0 188 
 BAR2 EZ I         435  7.90         4.6 0.18            173           22.0 188 
 BRR  HZ EP        434 53.18                             153    0.2210 71.0 300 
 BRR  HN ES        435 10.08                             153    0.6110 71.0 300 
 BRR  HZ I         435 13.74         4.8 0.42            153           71.0 300 
 PAM  SZ EP        434 54.38                             150    0.2510 78.9  39 
 PAM  SE ES        435 11.31                             150   -0.2310 78.9  39 
 PAM  SZ I         435 13.74         2.2 0.52            152           78.9  39 
 RUS  HZ EP        434 55.79                             144    0.3010 99.4 175 
 RUS  HE ES   1    435 13.63                             144   -0.34 7 99.4 175 
 RUS  HZ I         435 15.55         2.0 0.22            148           99.4 175 
 PTB  HZ EP        434 58.69                             132    0.01 9  147 259 
 PTB  HN ES        435 19.31                             132   -0.34 9  147 259 
 PTB  HZ I         435 21.21         4.0 0.29            134            147 259 
 SML  HZ EP   1    435  7.70                             117   -0.81 6  244 336 
 SML  HN ES   1    435 36.82                             117   -0.33 6  244 336 
 SML  HZ I         435 39.53         4.1 0.10            119            244 336 
 SJC  HZ EP   4    435 25.75                             106   -1.68 0  410 327 
                                                                                
