 2010  816 0806 15.4 L   6.783 -73.093140.2  RSN 11 0.5 2.1LRSN                1
 GAP=165        1.12       4.3     7.7  7.4 -0.9195E+01  0.4483E+00 -0.1065E+00E
 Epicentro: LOS SANTOS - SANTANDER                                             3
 ACTION:UP  10-09-07 10:55 OP:vdl  STATUS:               ID:20100816080615 L   I
 2010-08-16-0802-29S.COL___111                                                 6
 STAT SP IPHASW D HRMM SECON CODA AMPLIT PERI AZIMU VELO SNR AR TRES W  DIS CAZ7
 BAR2 SZ EP        8 6 34.26                             170    -0.110   23 205 
 BAR2 SZ ES   1    8 6 48.73                             170    -0.4 7   23 205 
 BAR2 SZ I         8 6 50.39        49.5 0.86                            23 205 
 BTL  SZ EP        8 6 34.40                             170     0.010   24 308 
 BTL  SZ ES   2    8 6 49.38                             170     0.2 5   24 308 
 BRR  HZ IP     D  8 6 36.20                             149    -0.110   77 298 
 BRR  HN ES        8 6 53.07                             149     0.510   77 298 
 BRR  HZ I         8 6 57.17        58.5 1.05                            77 298 
 RUS  HZ EP   1    8 6 38.58                             143     0.1 7   99 179 
 RUS  HN ES   1    8 6 56.15                             143    -0.3 7   99 179 
 RUS  HZ I         8 6 57.98        10.8 0.53                            99 179 
 GUE  SZ EP        8 6 40.24                             138     0.610  117   9 
 GUE  SZ I         8 6 40.94        12.8 0.09                           117   9 
 GRA  SZ IP        8 6 40.28                             136     0.110  126  15 
 GRA  SZ I         8 6 41.60        29.7 0.45                           126  15 
 OCA  SZ IP        8 6 42.99                             128    -0.5 9  163 351 
 OCA  SZ ES   1    8 7  4.75                             128    -0.7 7  163 351 
 OCA  SZ I         8 7  9.24        29.5 1.06                           163 351 
 CHI  HN ES   1    8 7 22.24                             116     0.3 6  248 197 
 CHI  HZ I         8 7 28.45         4.4 0.33                           248 197 
 HEL  HZ EP   1    8 6 56.72                             113     0.8 6  277 256 
 HEL  HN ES   2    8 7 26.85                             113    -0.7 4  277 256 
 HEL  HZ I         8 7 33.91         7.2 0.50                           277 256 
 RREF HZ EP   1    8 7  0.51                             110    -1.2 5  325 230 
 RREF HN ES   1    8 7 37.71                             110    -0.1 5  325 230 
 RREF HZ I         8 7 46.69         3.9 1.98                           325 230 
 PRA  HZ EP   1    8 7  9.79                             105     0.9 4  393 210 
 PRA  HN ES   2    8 7 49.60                             105    -1.0 3  393 210 
 PRA  HZ I         8 7 54.91         4.0 0.66                           393 210 
                                                                                
