 2016  216 0533 38.7 L   6.785 -73.137151.2  RSN  5 0.4 1.3LRSN                1
 GAP=138        0.94       4.6     4.9  7.6 -0.6077E+01  0.2699E+01  0.5965E+01E
 Epicentro: LOS SANTOS - SANTANDER                                             3
 ACTION:UPD 16-03-04 21:26 OP:rebc STATUS:               ID:20160216053338 L   I
 OLDACT:DUP 16-02-16 13:13 OP:drio STATUS:               ID:20160216052750d    3
 2016-02-16-0527-49M.COL___310                                                 6
 STAT SP IPHASW D HRMM SECON CODA AMPLIT PERI AZIMU VELO AIN AR TRES W  DIS CAZ7
 BRR  HZ EP        534  0.73                             153    0.2310 72.8 299 
 BRR  HN ES        534 18.18                             153    0.6510 72.8 299 
 BRR  HZ I         534 20.97         2.9 0.42            151           72.8 299 
 PAM  EZ EP        534  1.61                             152    0.1010 78.1  38 
 PAM  EN ES        534 18.92                             152   -0.4110 78.1  38 
 PAM  EZ I         534 21.02         2.9 0.58            155           78.1  38 
 RUS  HZ EP        534  2.80                             145   -0.0410 98.9 177 
 RUS  HN ES        534 21.68                             145   -0.0210 98.9 177 
 PTB  HZ EP        534  5.87                             133   -0.28 9  148 260 
 PTB  HN ES        534 26.87                             133   -0.70 9  148 260 
 PTB  HZ I         534 34.10         2.7 0.36            133            148 260 
 SPBC HZ EP        534  7.78                             130    0.25 9  162 220 
 SPBC HN ES        534 30.21                             130    0.17 9  162 220 
 SPBC HZ I         534 33.20         2.3 0.10            132            162 220 
                                                                                
