 2017 1216 0321  6.3 L   6.824 -73.179142.5  RSN 11 0.4 1.9LRSN                1
 GAP=108        0.98       3.7     3.7  5.7  0.4635E+00  0.5739E+01  0.8713E+00E
 Epicentro: ZAPATOCA - SANTANDER                                               3
 ACTION:UPD 18-01-04 13:20 OP:rebc STATUS:               ID:20171216032106 L   I
 OLDACT:UP  17-12-16 15:29 OP:edw  STATUS:               ID:20171216031746     3
 OLDACT:REG 17-12-16 12:02 OP:edw  STATUS:               ID:20171216031746     3
 2017-12-16-0318-00M.COL___461                                                 6
 STAT SP IPHASW D HRMM SECON CODA AMPLIT PERI AZIMU VELO AIN AR TRES W  DIS CAZ7
 BAR2 EZ EP        321 25.38                             169   -0.2110 25.6 181 
 BAR2 EZ ES        321 40.81                             169    0.1810 25.6 181 
 BAR2 EZ I         321 41.58        29.2 0.24            168           25.6 181 
 PAM  EZ EP     D  321 28.40                             150    0.2010 77.8  43 
 PAM  EN ES        321 45.27                             150    0.0010 77.8  43 
 PAM  EZ I         321 47.52        17.5 0.46            153           77.8  43 
 PTB  HZ EP        321 32.20                             132   -0.53 9  145 258 
 PTB  HE ES        321 53.77                             132    0.43 9  145 258 
 PTB  HZ I         321 55.14         7.1 0.10            131            145 258 
 SPBC HZ EP        321 34.37                             128   -0.17 9  163 217 
 SPBC HN ES        321 56.42                             128   -0.14 9  163 217 
 SPBC HZ I         321 58.78        16.2 0.30            128            163 217 
 YPLC HZ EP     C  321 35.79                             125   -0.48 9  181 151 
 YPLC HN ES        321 59.87                             125    0.23 9  181 151 
 YPLC HZ I         322  2.49         7.0 0.30            126            181 151 
 ZAR  HZ EP        321 38.81                             122    0.72 9  200 292 
 ZAR  HN ES        322  2.11                             122   -0.76 9  200 292 
 ZAR  HZ I         322  8.63        11.7 0.44            122            200 292 
 DRL03HZ EP        321 47.48                             113    0.06 7  286 353 
 DRL03HE ES   4    322 20.91                             113    1.43 0  286 353 
 GUY2CHZ EP        321 49.46                             112   -0.14 7  300 234 
 GUY2CHN ES   4    322 25.53                             112    2.16 0  300 234 
 GUY2CHZ I         322 31.61         3.7 0.30                           300 234 
 PTGC HZ EP   9 D  321 48.59                             111   -1.87 0  313 158 
 PTGC HN ES        322 22.34                             111   -0.68 7  313 158 
 PTGC HZ I         322 24.58         5.3 0.28            111            313 158 
 CBOC HZ EP        321 53.64                             109    0.86 7  331 251 
 CBOC HN ES   4    322 28.51                             109   -0.52 0  331 251 
 CBOC HZ I         322 39.25         1.3 0.54            109            331 251 
 PRA  HZ EP        321 59.98                             106    0.20 6  393 209 
 PRA  HN ES   4    322 42.69                             106    1.20 0  393 209 
 PRA  HZ I         322 47.84         3.0 0.24            106            393 209 
 CRJC HN ES   4    322 54.11                             103   -2.77 0  465   4 
                                                                                
