 2011  516 0039  7.9 L   6.779 -73.101137.2  RSN 14 0.4 2.4LRSN                1
 GAP=143        1.08       4.1     6.8  6.7 -0.1277E+02  0.1396E+02  0.2740E+01E
 Epicentro: LOS SANTOS - SANTANDER                                             3
 ACTION:UP  11-06-29 08:53 OP:tino STATUS:               ID:20110516003907 L   I
 2011-05-16-0037-59S.COL___139                                                 6
 STAT SP IPHASW D HRMM SECON CODA AMPLIT PERI AZIMU VELO SNR AR TRES W  DIS CAZ7
 BAR2 SZ IP        039 26.46                             170     0.010   23 204 
 BAR2 SZ ES   1    039 40.61                             170    -0.3 7   23 204 
 BAR2 SZ I         039 42.55        77.0 0.26                            23 204 
 PAM  SZ EP        039 29.37                             150     0.310   76  36 
 PAM  SN ES   1    039 45.92                             150     0.2 7   76  36 
 BRR  HZ IP     D  039 28.28                             149    -0.210   77 298 
 BRR  HZ I         039 28.70        66.8 0.13                            77 298 
 BRR  HN ES   1    039 45.03                             149     0.6 7   77 298 
 RUS  HZ EP        039 30.47                             143    -0.110   98 179 
 RUS  HZ I         039 31.67        17.4 0.16                            98 179 
 RUS  HN ES   1    039 48.25                             143    -0.1 7   98 179 
 BRI  SZ EP        039 30.93                             139    -0.110  109  18 
 BRI  SZ ES   1    039 49.23                             139     0.2 7  109  18 
 GRA  SZ IP        039 32.27                             135    -0.210  127  15 
 GRA  SZ ES   1    039 51.81                             135     0.2 7  127  15 
 GRA  SZ I         039 52.62        23.2 0.47                           127  15 
 OCA  SZ EP        039 35.25                             127    -0.6 9  163 352 
 OCA  SZ ES   1    039 57.40                             127    -0.2 7  163 352 
 OCA  SZ I         040  0.34        34.7 0.31                           163 352 
 NOR  SZ EP        039 42.84                             116    -0.6 8  237 236 
 NOR  SN ES   1    040 10.41                             116    -0.7 6  237 236 
 ROSC BZ EP        039 46.47                             115     0.9 8  253 212 
 ROSC BZ I         040 21.92        14.5 0.51                           253 212 
 HEL  HZ EP        039 48.83                             113     0.7 7  276 257 
 HEL  HZ I         040 24.86        15.9 0.41                           276 257 
 RREF HZ EP        039 54.71                             109     0.8 7  324 230 
 RREF HZ I         040 40.44         8.3 0.50                           324 230 
 DBB  SZ EP   3    039 55.81                             108     0.2 2  345 275 
 TOL  SZ EP   3    039 56.18                             108     0.2 2  345 226 
 MON  HZ EP   4    039 53.89                             107    -3.3 0  359 308 
 PRA  HZ EP        040  0.57                             105    -0.6 6  392 210 
 PRA  HZ I         040 45.47        18.1 0.27                           392 210 
 SJC  HZ EP   4    040  1.21                             104    -2.5 0  414 327 
                                                                                
