 2013 1016 0354 56.2 L   6.814 -73.153140.3  RSN  8 0.5 1.6LRSN                1
 GAP=135        1.29       3.7     7.7  8.0 -0.2423E+01  0.1352E+02 -0.2611E+00E
 Epicentro: LOS SANTOS - SANTANDER                                             3
 ACTION:UPD 13-11-25 09:21 OP:ep   STATUS:               ID:20131016035456 L   I
 OLDACT:REG 13-10-16 08:06 OP:jn   STATUS:               ID:20131016034959     3
 2013-10-16-0349-59M.COL___274                                                 6
 STAT SP IPHASW D HRMM SECON CODA AMPLIT PERI AZIMU VELO AIN AR TRES W  DIS CAZ7
 BAR2 SZ EP        355 15.34                             170    0.1610 24.8 187 
 BAR2 SZ ES        355 29.62                             170   -0.3810 24.8 187 
 BAR2 SZ I         355 32.25        20.9 0.32            169           24.8 187 
 BRR  HZ EP        355 17.14                             152    0.4910 69.7 298 
 BRR  HN ES        355 33.46                             152    0.8410 69.7 298 
 BRR  HZ I         355 37.48         8.3 0.12            152           69.7 298 
 PAM  SZ EP        355 18.15                             150    0.3810 76.7  41 
 PAM  SN ES        355 34.97                             150    0.3510 76.7  41 
 PAM  SZ I         355 36.97         4.3 0.16            154           76.7  41 
 RUS  HZ EP        355 19.59                             142    0.0810  102 176 
 RUS  HN ES        355 36.84                             142   -0.8810  102 176 
 RUS  HZ I         355 38.99         4.9 0.26            144            102 176 
 OCA  HE ES        355 45.07                             129   -0.46 9  159 353 
 SPBC HZ EP        355 24.36                             128    0.04 9  164 218 
 SPBC HN ES        355 45.98                             128   -0.31 9  164 218 
 SPBC HZ I         355 48.29         6.3 0.72            129            164 218 
 SML  HZ EP        355 31.75                             116   -0.55 8  242 335 
 SML  HE ES        355 59.80                             116   -0.68 8  242 335 
 CHI  HZ EP   1    355 33.54                             116   -0.18 6  250 195 
 CHI  HN ES   1    356  4.17                             116    1.17 6  250 195 
 CHI  HZ I         356  7.61         1.4 0.28            118            250 195 
                                                                                
