 2012 1116 0720 49.4 L   6.816 -73.181146.2  RSN 10 0.4 1.7LRSN                1
 GAP=131        0.72       2.7     4.1  6.2 -0.6785E+00  0.8696E+01  0.3396E+00E
 Epicentro: ZAPATOCA - SANTANDER                                               3
 ACTION:UPD 12-12-05 15:33 OP:}ep  STATUS:               ID:20121116072049 L   I
 2012-11-16-0720-00M.COL___233                                                 6
 STAT SP IPHASW D HRMM SECON CODA AMPLIT PERI AZIMU VELO AIN AR TRES W  DIS CAZ7
 BAR2 SZ EP   1    721  9.13                             170    0.02 7 24.7 180 
 BAR2 SZ ES   1    721 24.06                             170   -0.42 7 24.7 180 
 BAR2 SZ I         721 25.71        20.3 0.52                          24.7 180 
 BRR  HZ EP   1    721 10.85                             154    0.49 7 66.9 299 
 BRR  HN ES   4    721 28.62                             154    1.91 0 66.9 299 
 PAM  SZ EP   1    721 11.89                             150    0.16 7 78.6  43 
 PAM  SE ES   1    721 29.30                             150    0.15 7 78.6  43 
 PAM  SZ I         721 31.37         5.1 0.48                          78.6  43 
 RUS  HZ EP   1    721 13.21                             143   -0.14 7  103 174 
 RUS  HE ES   1    721 31.84                             143   -0.18 7  103 174 
 RUS  HZ I         721 33.49         5.6 0.36                           103 174 
 PTB  HZ EP   1    721 15.89                             133   -0.20 7  144 258 
 PTB  HN ES   1    721 37.22                             133    0.31 7  144 258 
 PTB  HZ I         721 40.53         7.1 0.12                           144 258 
 OCA  HE ES   1    721 39.65                             130    0.16 7  158 354 
 OCA  HZ I         721 43.87         4.2 0.44                           158 354 
 ZAR  HE ES   1    721 46.98                             123    0.56 6  200 292 
 NOR  HZ EP   1    721 24.73                             119   -0.20 6  233 234 
 NOR  HN ES   1    721 51.95                             119   -0.69 6  233 234 
 NOR  HZ I         721 57.43         6.0 0.20                           233 234 
 SML  HZ EP   1    721 25.56                             118   -0.15 6  240 336 
 SML  HN ES   1    721 53.25                             118   -0.77 6  240 336 
 CHI  HZ EP   1    721 27.13                             117   -0.07 6  249 194 
 CHI  HN ES   1    721 57.50                             117    0.81 6  249 194 
 CHI  HZ I         722  4.38         2.3 0.52                           249 194 
                                                                                
