 2010  316 0024 16.9 L   6.787 -73.119149.6  RSN  5 0.1 1.6LRSN                1
 GAP=239        0.33       3.5     6.3  4.3  0.6971E+01  0.3962E+01  0.5441E+01E
 Epicentro: LOS SANTOS - SANTANDER                                             3
 ACTION:UP  10-08-24 09:54 OP:vdl  STATUS:               ID:20100316002416 L   I
 2010-03-16-0021-22S.COL___095                                                 6
 STAT SP IPHASW D HRMM SECON CODA AMPLIT PERI AZIMU VELO SNR AR TRES W  DIS CAZ7
 BAR2 SZ EP        024 36.83                             171    -0.110   23 198 
 BAR2 SZ ES   2    024 52.49                             171    -0.1 5   23 198 
 BRR  HZ EP   1    024 38.72                             152     0.1 7   75 298 
 BRR  HE ES   2    024 55.54                             152     0.0 5   75 298 
 BRR  HZ I         024 57.65         9.8 0.13                            75 298 
 RUS  HZ EP   1    024 40.77                             145    -0.1 7   99 178 
 RUS  HE ES   2    024 59.95                             145     0.4 5   99 178 
 RUS  HZ I         025  0.74         5.4 0.41                            99 178 
 CHI  HZ EP   1    024 54.78                             118     0.1 6  248 196 
 CHI  HE ES   3    025 24.22                             118     0.0 2  248 196 
 CHI  HZ I         025 32.44         2.8 0.29                           248 196 
 PRA  HZ EP   2    025 10.66                             107     0.1 3  392 210 
 PRA  HN ES   2    025 52.24                             107    -0.1 3  392 210 
                                                                                
