 2017  716 0033 23.9 L   7.120 -73.341 99.2  RSN  4 0.2 1.0LRSN                1
 GAP=255        0.67       5.2     4.3  6.1  0.1112E+02 -0.1601E+01  0.6053E+01E
 Epicentro: LEBRIJA - SANTANDER                                                3
 ACTION:UPD 17-08-30 15:33 OP:rebc STATUS:               ID:20170716003323 L   I
 OLDACT:UP  17-07-16 13:15 OP:dhb  STATUS:               ID:20170716002144     3
 OLDACT:REG 17-07-16 11:53 OP:dhb  STATUS:               ID:20170716002144     3
 2017-07-16-0028-00M.COL___389                                                 6
 STAT SP IPHASW D HRMM SECON CODA AMPLIT PERI AZIMU VELO AIN AR TRES W  DIS CAZ7
 BRR  HZ IP     C  033 38.45                             156    0.1610 41.0 268 
 BRR  HN ES        033 49.20                             156   -0.3410 41.0 268 
 BRR  HZ I         033 50.90         4.8 0.48            156           41.0 268 
 BAR2 HZ EP        033 39.77                             146   -0.0510 61.0 163 
 BAR2 HZ ES        033 52.67                             146    0.3910 61.0 163 
 BAR2 HZ I         033 55.08         2.9 0.26            147           61.0 163 
 PTB  HZ EP   4    033 45.04                             122   -1.54 0  139 243 
 PTB  HN ES     D  034  4.47                             122    0.16 9  139 243 
 PTB  HZ I         034  6.16         1.2 0.20            123            139 243 
 RUS  HZ EP        033 47.14                             122   -0.03 9  139 168 
 RUS  HN ES        034  5.04                             122   -0.31 9  139 168 
                                                                                
