 2016  716 0401 25.1 L   6.756 -73.135148.5  RSN  7 0.4 1.4LRSN                1
 GAP=235        1.05       5.8     6.2  7.1  0.1417E+02  0.9714E+01  0.5132E+01E
 Epicentro: LOS SANTOS - SANTANDER                                             3
 ACTION:UPD 17-03-29 16:51 OP:lp   STATUS:               ID:20160716040125 L   I
 OLDACT:REG 16-07-16 12:12 OP:lv   STATUS:               ID:20160716035759     3
 2016-07-16-0357-59S.COL___331                                                 6
 STAT SP IPHASW D HRMM SECON CODA AMPLIT PERI AZIMU VELO AIN AR TRES W  DIS CAZ7
 BAR2 EZ EP        4 1 44.97                             172   -0.0610 18.9 196 
 BAR2 EZ ES        4 1 59.93                             172   -0.6110 18.9 196 
 BAR2 EZ I         4 2  1.37         5.5 0.22            167           18.9 196 
 BRR  HZ EP        4 1 46.93                             152    0.1410 74.6 301 
 BRR  HN ES        4 2  4.13                             152    0.4710 74.6 301 
 BRR  HZ I         4 2  5.66         4.6 0.13            151           74.6 301 
 RUS  HZ EP        4 1 48.92                             146    0.0910 95.7 177 
 RUS  HN ES        4 2  7.52                             146    0.2210 95.7 177 
 RUS  HZ I         4 2  8.13         2.8 0.46            144           95.7 177 
 PTB  HZ EP        4 1 51.74                             133   -0.62 9  148 261 
 PTB  HN ES        4 2 13.04                             133   -0.56 9  148 261 
 PTB  HZ I         4 2 15.44         4.4 0.18            131            148 261 
 SPBC HZ EP        4 1 54.11                             130    0.53 9  160 220 
 SPBC HE ES        4 2 16.10                             130    0.34 9  160 220 
 SPBC HZ I         4 2 22.81         3.6 0.09            129            160 220 
 ZAR  HN ES        4 2 24.13                             122    0.38 8  207 293 
 GUY2CHZ EP        4 2  8.22                             113   -0.46 7  299 236 
 GUY2CHE ES   4    4 2 44.19                             113    1.55 0  299 236 
 GUY2CHZ I         4 2 50.07         1.3 0.27                           299 236 
                                                                                
