 2012 1216 0041 13.7 L   6.773 -73.129144.4  RSN  8 0.4 1.5LRSN                1
 GAP=140        0.70       4.1     4.1  6.1  0.5850E+00  0.5011E+01  0.1506E+01E
 Epicentro: LOS SANTOS - SANTANDER                                             3
 ACTION:UPD 13-01-04 14:28 OP:ep   STATUS:               ID:20121216004113 L   I
 2012-12-16-0040-00M.COL___239                                                 6
 STAT SP IPHASW D HRMM SECON CODA AMPLIT PERI AZIMU VELO AIN AR TRES W  DIS CAZ7
 BAR2 SZ EP   1    041 33.13                             171    0.00 7 20.8 196 
 BAR2 SZ ES   1    041 47.97                             171   -0.31 7 20.8 196 
 BAR2 SZ I         041 50.87        10.4 0.38                          20.8 196 
 GIR2 SZ EP   1    041 33.35                             166    0.03 7 34.6 348 
 GIR2 SZ ES   1    041 48.62                             166    0.00 7 34.6 348 
 GIR2 SZ I         041 49.94         4.0 0.13                          34.6 348 
 BRR  HZ EP   1    041 35.00                             151    0.10 7 74.3 300 
 BRR  HN ES   1    041 51.97                             151    0.55 7 74.3 300 
 PAM  SZ EP   1    041 36.22                             150    0.36 7 78.6  37 
 PAM  SE ES   1    041 52.96                             150   -0.18 7 78.6  37 
 PAM  SZ I         041 55.24         9.0 0.54                          78.6  37 
 RUS  HZ EP   1    041 37.55                             144    0.44 7 97.5 177 
 RUS  HN ES   1    041 55.21                             144   -0.15 7 97.5 177 
 RUS  HZ I         041 58.38         2.3 0.20                          97.5 177 
 PTB  HZ EP   1    041 39.85                             131   -0.84 7  149 260 
 PTB  HE ES   1    042  1.84                             131    0.11 7  149 260 
 PTB  HZ I         042  6.84         5.5 0.30                           149 260 
 OCA  HN ES   2    042  3.78                             129   -0.68 5  163 353 
 ZAR  HN ES   1    042 11.87                             122    0.03 6  207 293 
                                                                                
