 2016  316 0848 42.5 L   6.676 -73.123145.5  RSN  4 0.2 1.1LRSN                1
 GAP=183        0.61       6.4     3.3  7.3 -0.6823E+01  0.6495E+01  0.1029E+02E
 Epicentro: VILLANUEVA - SANTANDER                                             3
 ACTION:UPD 16-05-13 21:24 OP:cam  STATUS:               ID:20160316084842 L   I
 OLDACT:UP  16-03-28 15:34 OP:Mher STATUS:               ID:20160316084842 L   3
 OLDACT:REG 16-03-16 14:30 OP:dnl  STATUS:               ID:20160316084752     3
 2016-03-16-0847-52M.COL___282                                                 6
 STAT SP IPHASW D HRMM SECON CODA AMPLIT PERI AZIMU VELO AIN AR TRES W  DIS CAZ7
 BAR2 EZ EP        849  2.14                             175    0.1910 11.3 216 
 PAM  EZ EP        849  5.58                             148    0.2610 87.0  32 
 PAM  EZ I         849 22.46         1.2 0.37                          87.0  32 
 PAM  EN ES        849 22.86                             148   -0.2310 87.0  32 
 PTB  HZ EP        849  9.35                             132   -0.17 9  148 264 
 PTB  HN ES        849 30.53                             132   -0.04 9  148 264 
 PTB  HZ I         849 32.73         2.0 0.17             90            148 264 
 ZAR  HZ EP        849 15.43                             121   -0.34 8  212 295 
 ZAR  HN ES        849 41.99                             121    0.29 8  212 295 
 ZAR  HZ I         849 46.97         1.7 0.58             90            212 295 
                                                                                
