 2017  916 0935 41.5 L   6.368 -73.541112.4  RSN  6 0.4 1.4LRSN                1
 GAP= 78        0.85       3.2     4.3  7.2  0.3446E+01  0.1976E+02  0.7635E+01E
 Epicentro: SANTA HELENA DEL OPON - SANTANDER                                  3
 ACTION:UPD 17-10-05 19:13 OP:rebc STATUS:               ID:20170916093541 L   I
 OLDACT:REG 17-09-16 17:25 OP:mg   STATUS:               ID:20170916092742     3
 2017-09-16-0928-00M.COL___441                                                 6
 STAT SP IPHASW D HRMM SECON CODA AMPLIT PERI AZIMU VELO AIN AR TRES W  DIS CAZ7
 BAR2 EZ EP        935 58.25                             156    0.2510 46.7  58 
 BAR2 EZ ES        936 10.80                             156   -0.1010 46.7  58 
 BAR2 EZ I         936 12.44        15.6 0.36            159           46.7  58 
 RUS  HZ EP        935 59.80                             145   -0.1510 73.0 136 
 RUS  HN ES        936 14.68                             145    0.3110 73.0 136 
 RUS  HZ I         936 15.63         2.5 0.30            148           73.0 136 
 BRR  HZ EP        936  0.09                             140    0.0310 83.9 347 
 BRR  HN ES        936 14.19                             140   -0.3710 83.9 347 
 NOR  HZ EP        936  7.92                             119   -0.61 9  172 239 
 NOR  HN ES        936 29.54                             119   -0.09 9  172 239 
 NOR  HZ I         936 30.77         1.4 0.12            120            172 239 
 ZAR  HZ EP        936 10.97                             116    0.39 9  191 311 
 ZAR  HN ES        936 33.65                             116    0.35 9  191 311 
 ZAR  HZ I         936 38.48         5.3 0.26            117            191 311 
 PRA  HZ EP        936 26.09                             103   -0.45 7  329 207 
 PRA  HE ES   1    937  2.64                             103    0.94 5  329 207 
 PRA  HZ I         937  3.89         1.7 0.42            105            329 207 
                                                                                
