 2012  616 0758  9.5 L   6.849 -73.188145.0  RSN  4 0.2 1.1LRSN                1
 GAP=243        0.48       6.6     4.8  6.2  0.2142E+02  0.2168E+01 -0.7534E+01E
 Epicentro: ZAPATOCA - SANTANDER                                               3
 ACTION:UPD 12-08-06 17:49 OP:ep   STATUS:               ID:20120616075809 L   I
 2012-06-16-0750-00M.COL___198                                                 6
 STAT SP IPHASW D HRMM SECON CODA AMPLIT PERI AZIMU VELO AIN AR TRES W  DIS CAZ7
 BAR2 SZ EP   1    758 29.15                             168   -0.02 7 28.4 179 
 BAR2 SZ ES   1    758 44.55                             168    0.06 7 28.4 179 
 RUS  HZ EP   1    758 33.95                             142    0.33 7  106 174 
 RUS  HN ES   1    758 52.16                             142   -0.26 7  106 174 
 RUS  HZ I         758 53.79         2.1 0.39                           106 174 
 PTB  HZ EP   1    758 35.83                             133   -0.28 7  144 256 
 PTB  HN ES   1    758 57.08                             133    0.23 7  144 256 
 PTB  HZ I         758 58.65         1.3 0.33                           144 256 
 ZAR  HN ES   1    759  5.92                             123   -0.09 6  198 291 
 ZAR  HZ I         759 13.45         1.9 0.34                           198 291 
                                                                                
