 2012 1216 0050  7.1 L   5.962 -74.022 80.4  RSN  4 0.4 1.2LRSN                1
 GAP=185        0.84       6.5     3.7 13.8  0.5918E+01  0.1122E+02  0.2816E+02E
 Epicentro: LA BELLEZA - SANTANDER                                             3
 ACTION:UPD 13-01-04 14:28 OP:ep   STATUS:               ID:20121216005007 L   I
 2012-12-16-0050-00M.COL___239                                                 6
 STAT SP IPHASW D HRMM SECON CODA AMPLIT PERI AZIMU VELO AIN AR TRES W  DIS CAZ7
 PTB  HZ EP   1    050 21.80                             131   -0.76 7 79.9 323 
 PTB  HE ES   1    050 34.40                             131   -0.21 7 79.9 323 
 PTB  HZ I         050 34.97         4.6 0.16                          79.9 323 
 RUS  HZ EP   1    050 25.58                             123   -0.01 7  104  94 
 RUS  HN ES   1    050 40.14                             123    0.14 7  104  94 
 BRR  HZ EP   1    050 28.00                             116    0.16 7  131  15 
 BRR  HN ES   1    050 44.33                             116    0.32 7  131  15 
 BRR  HZ I         050 52.88         4.4 0.34                           131  15 
 HEL  HZ EP   1    050 32.27                             110   -0.31 7  169 279 
 HEL  HE ES   1    050 53.25                             110    0.81 7  169 279 
                                                                                
