 2014  516 0639  2.7 L   6.800 -73.141145.8  RSN 15 0.5 2.0LRSN                1
 GAP=137        1.14       3.2     4.6  7.3 -0.2159E+01  0.1167E+02  0.2590E+01E
 Epicentro: LOS SANTOS - SANTANDER                                             3
 ACTION:UPD 15-03-16 16:58 OP:nd   STATUS:               ID:20140516063902 L   I
 OLDACT:UP  14-05-16 23:44 OP:nlst STATUS:               ID:20140516063902 L   3
 OLDACT:REG 14-05-16 13:12 OP:spq  STATUS:               ID:20140516063820     3
 2014-05-16-0638-20M.COL___245                                                 6
 STAT SP IPHASW D HRMM SECON CODA AMPLIT PERI AZIMU VELO AIN AR TRES W  DIS CAZ7
 BRR  HZ IP     C  639 24.27                             152    0.3610 71.6 298 
 BRR  HN ES        639 41.03                             152    0.6110 71.6 298 
 BRR  HZ I         639 41.59        17.4 0.14            151           71.6 298 
 PAM  SZ EP        639 25.30                             151    0.3610 77.0  39 
 PAM  SN ES        639 42.15                             151   -0.1010 77.0  39 
 PAM  SZ I         639 44.55        18.4 0.58            153           77.0  39 
 RUS  HZ EP        639 26.36                             144   -0.1410  101 176 
 RUS  HN ES        639 44.92                             144   -0.1010  101 176 
 RUS  HZ I         639 46.34        14.4 0.38            145            101 176 
 PTB  HZ EP        639 28.88                             132   -0.87 9  148 259 
 PTB  HN ES   4    639 49.11                             132   -1.71 0  148 259 
 PTB  HZ I         639 52.61        20.8 0.18            132            148 259 
 OCA  HZ EP   1    639 31.03                             130   -0.02 7  160 353 
 OCA  HN ES        639 52.26                             130   -0.87 9  160 353 
 OCA  HZ I         640  0.43        10.3 0.18            131            160 353 
 SPBC HZ EP        639 31.32                             129    0.05 9  164 219 
 SPBC HN ES   1    639 53.65                             129    0.12 7  164 219 
 SPBC HN I         639 58.80        36.3 0.36            129            164 219 
 ZAR  HZ EP        639 35.76                             122    0.53 9  204 292 
 ZAR  HN ES        640  1.09                             122    0.52 9  204 292 
 ZAR  HZ I         640  3.61        12.9 0.46            123            204 292 
 NOR  HZ EP        639 38.91                             118    0.39 8  235 235 
 NOR  HN ES        640  6.06                             118   -0.36 8  235 235 
 NOR  HZ I         640  8.16         7.3 0.48            119            235 235 
 SML  HZ EP   1    639 39.15                             117   -0.24 6  244 335 
 SML  HN ES   1    640  8.21                             117    0.25 6  244 335 
 SML  HZ I         640 15.83         9.7 0.10            118            244 335 
 CHI  HZ EP   1    639 40.79                             117    0.33 6  249 195 
 CHI  HN ES        640  9.59                             117   -0.29 8  249 195 
 CHI  HZ I         640 19.27         3.6 0.60            118            249 195 
 ROSC BZ EP   4    639 42.67                             117    1.78 0  253 211 
 ROSC BN ES   4    640 14.68                             117    4.03 0  253 211 
 ROSC BZ I         640 18.51         7.6 0.55            117            253 211 
 HEL  HZ EP   4    639 44.64                             115    1.63 0  273 256 
 HEL  HN ES        640 13.52                             115   -0.89 8  273 256 
 HEL  HZ I         640 21.25         6.6 0.30            115            273 256 
 URE  HZ EP   1    639 43.13                             114   -0.73 6  284 292 
 URE  HE ES   4    640 14.50                             114   -1.43 0  284 292 
 URE  HZ I         640 18.30         7.6 0.28            114            284 292 
 GUY2CHZ EP   1    639 47.94                             112    1.54 5  302 235 
 GUY2CHN ES        640 20.41                             112   -0.04 7  302 235 
 GUY2CHZ I         640 27.53         5.2 0.28                           302 235 
 CBOC HZ EP   4    639 51.07                             110    1.36 0  334 252 
 CBOC HN ES   4    640 25.53                             110   -0.81 0  334 252 
 CBOC HZ I         640 28.91         2.0 0.18            110            334 252 
                                                                                
