 2012  616 0702 19.7 L   6.756 -73.211149.5  RSN  5 0.5 1.6LRSN                1
 GAP=174        0.95       7.9     7.8 11.5  0.2541E+02  0.1879E+02 -0.1458E+02E
 Epicentro: VILLANUEVA - SANTANDER                                             3
 ACTION:UPD 12-08-06 17:49 OP:ep   STATUS:               ID:20120616070219 L   I
 2012-06-16-0700-00M.COL___198                                                 6
 STAT SP IPHASW D HRMM SECON CODA AMPLIT PERI AZIMU VELO AIN AR TRES W  DIS CAZ7
 BAR2 SZ EP   1    7 2 39.62                             173   -0.06 7 18.4 170 
 BAR2 SZ ES   1    7 2 54.54                             173   -0.73 7 18.4 170 
 BAR2 SZ I         7 2 55.98        10.9 0.34                          18.4 170 
 RUS  HZ EP   1    7 2 43.80                             146    0.27 7 96.5 172 
 RUS  HN ES   1    7 3  2.73                             146    0.61 7 96.5 172 
 RUS  HZ I         7 3  4.41         5.8 0.36                          96.5 172 
 PTB  HZ EP   1    7 2 45.40                             134   -0.86 7  140 260 
 PTB  HN ES   1    7 3  7.08                             134    0.10 7  140 260 
 PTB  HZ I         7 3 10.66         3.2 0.16                           140 260 
 OCA  HN ES   2    7 3 11.83                             130    0.55 5  164 356 
 ZAR  HZ EP   2    7 2 51.79                             124   -0.11 4  199 294 
 ZAR  HN ES   1    7 3 17.58                             124    0.56 6  199 294 
 ZAR  HZ I         7 3 25.72         4.4 0.33                           199 294 
                                                                                
