 2014 1216 0339 48.9 L   6.793 -73.135141.7  RSN  6 0.3 1.5LRSN                1
 GAP=138        0.83       3.9     3.7  6.1  0.2781E+00  0.4457E+01 -0.1305E+01E
 Epicentro: LOS SANTOS - SANTANDER                                             3
 ACTION:UPD 15-02-10 17:04 OP:nd   STATUS:               ID:20141216033948 L   I
 OLDACT:DUP 14-12-16 19:08 OP:spq  STATUS:               ID:20141216033743d    3
 2014-12-16-0337-42M.COL___287                                                 6
 STAT SP IPHASW D HRMM SECON CODA AMPLIT PERI AZIMU VELO AIN AR TRES W  DIS CAZ7
 BRR  HZ EP        340 10.20                             151    0.4910 72.7 299 
 BRR  HN ES        340 26.07                             151    0.1410 72.7 299 
 BRR  HZ I         340 35.56         7.7 0.30            151           72.7 299 
 PAM  SZ EP     C  340 11.12                             150    0.4310 77.2  38 
 PAM  SN ES        340 27.50                             150   -0.1810 77.2  38 
 PAM  SZ I         340 30.24         5.4 0.58            154           77.2  38 
 RUS  HZ EP        340 12.19                             143   -0.0110 99.7 177 
 RUS  HN ES   1    340 30.03                             143   -0.34 7 99.7 177 
 RUS  HZ I         340 31.33         2.2 0.48            150           99.7 177 
 PTB  HZ EP        340 15.38                             131   -0.27 9  149 259 
 PTB  HN ES        340 36.27                             131   -0.23 9  149 259 
 PTB  HZ I         340 38.91         3.5 0.14            134            149 259 
 ZAR  HZ EP        340 21.44                             121    0.19 8  205 292 
 ZAR  HN ES        340 46.75                             121    0.28 8  205 292 
 ZAR  HZ I         340 52.14         4.0 0.40            125            205 292 
 SML  HZ EP        340 24.79                             116   -0.66 8  245 335 
 SML  HN ES   1    340 53.46                             116   -0.49 6  245 335 
 SML  HZ I         340 55.93         4.5 0.24            120            245 335 
                                                                                
