 2016  416 0610 44.4 L   6.806 -73.153142.0  RSN 13 0.4 2.2LRSN                1
 GAP=135        0.83       2.4     3.4  4.7 -0.1802E+01  0.5864E+01  0.5085E+00E
 Epicentro: LOS SANTOS - SANTANDER                                             3
 ACTION:UPD 16-05-05 14:21 OP:rebc STATUS:               ID:20160416061044 L   I
 OLDACT:REG 16-04-16 14:16 OP:ak   STATUS:               ID:20160416060748     3
 2016-04-16-0607-48M.COL___312                                                 6
 STAT SP IPHASW D HRMM SECON CODA AMPLIT PERI AZIMU VELO AIN AR TRES W  DIS CAZ7
 BAR2 EZ EP        611  3.45                             170   -0.1110 23.9 188 
 BAR2 EZ ES        611 17.96                             170   -0.5710 23.9 188 
 BAR2 EZ I         611 20.31        19.6 0.46            170           23.9 188 
 PAM  EZ EP        611  6.23                             150    0.0410 77.4  40 
 PAM  EN ES        611 23.67                             150    0.4610 77.4  40 
 PAM  EZ I         611 25.64        10.9 0.46            154           77.4  40 
 RUS  HZ EP        611  7.42                             143   -0.3910  101 176 
 RUS  HN ES        611 26.36                             143    0.2710  101 176 
 PTB  HZ EP   2    611 10.42                             131   -0.55 5  147 259 
 PTB  HN ES        611 31.60                             131   -0.12 9  147 259 
 PTB  HZ I         611 37.34        17.1 0.24            132            147 259 
 OCA  HZ EP        611 12.36                             129    0.04 9  159 353 
 OCA  HN ES        611 34.27                             129    0.15 9  159 353 
 OCA  HZ I         611 39.33        39.6 0.34            131            159 353 
 SPBC HZ IP        611 12.42                             128   -0.16 9  163 219 
 SPBC HN ES        611 35.06                             128    0.47 9  163 219 
 SPBC HZ I         611 41.46        33.1 0.26            131            163 219 
 ZAR  HZ EP        611 16.03                             122   -0.44 9  203 292 
 ZAR  HE ES        611 41.77                             122    0.27 9  203 292 
 ZAR  HZ I         611 48.03        18.3 0.42            123            203 292 
 NOR  HZ EP        611 19.64                             118   -0.21 8  234 234 
 NOR  HN ES        611 47.22                             118   -0.31 8  234 234 
 NOR  HZ I         611 49.91        20.3 0.64            120            234 234 
 CHI  HZ EP        611 21.30                             116   -0.61 8  249 195 
 CHI  HN ES        611 51.74                             116    0.55 8  249 195 
 HEL  HZ EP   2    611 24.94                             114    0.62 4  271 256 
 HEL  HN ES   4    611 58.25                             114    2.77 0  271 256 
 URE  HZ EP   4    611 23.44                             113   -1.70 0  283 292 
 URE  HE ES   4    611 53.48                             113   -3.47 0  283 292 
 GUY2CHZ EP        611 28.12                             112    0.35 7  301 235 
 GUY2CHN ES   4    612  3.49                             112    1.86 0  301 235 
 PTGC HZ EP   4    611 26.30                             111   -1.87 0  310 159 
 PTGC HN ES   4    611 59.67                             111   -2.66 0  310 159 
 CBOC HZ EP        611 31.27                             109    0.21 7  333 252 
 ORTC HZ EP   2    611 38.67                             106    0.50 3  395 216 
 ORTC HN ES        612 20.71                             106    0.58 6  395 216 
                                                                                
