 2011  316 0509  3.9 L   6.599 -73.279128.0  RSN  5 0.2 1.1LRSN                1
 GAP=194        0.48       6.6    54.5  6.0  0.3215E+03  0.1141E+03  0.9639E+01E
 Epicentro: CABRERA - SANTANDER                                                3
 ACTION:UP  11-06-16 14:33 OP:jfem STATUS:               ID:20110316050903 L   I
 2011-03-16-0507-56S.COL___138                                                 6
 STAT SP IPHASW D HRMM SECON CODA AMPLIT PERI AZIMU VELO SNR AR TRES W  DIS CAZ7
 BAR2 SZ EP   2    5 9 21.32                             176     0.2 5   11  94 
 BAR2 SZ ES   2    5 9 34.27                             176    -0.4 5   11  94 
 BAR2 SZ I         5 9 36.18         3.1 0.14                            11  94 
 BTL  SZ EP        5 9 21.87                             164     0.210   35   2 
 BTL  SZ ES   2    5 9 35.41                             164    -0.2 5   35   2 
 GIR2 SZ EP   2    5 9 22.45                             156     0.1 5   54  10 
 GIR2 SZ ES   3    5 9 36.87                             156     0.1 2   54  10 
 RUS  HZ EP        5 9 24.43                             146     0.010   81 164 
 RUS  HZ I         5 9 24.64         1.5 0.33                            81 164 
 RUS  HN ES   2    5 9 40.73                             146     0.2 5   81 164 
 OCA  SZ EP   1    5 9 32.58                             122    -0.4 7  181 359 
 OCA  SZ ES   1    5 9 55.96                             122     0.2 7  181 359 
 OCA  SZ I         5 9 58.90         2.6 0.27                           181 359 
                                                                                
