 2014  716 0748 51.9 L   6.802 -73.134144.4  RSN 11 0.5 1.7LRSN                1
 GAP=184        0.98       3.0     5.2  7.1 -0.2328E+01  0.1071E+02 -0.3596E+01E
 Epicentro: LOS SANTOS - SANTANDER                                             3
 ACTION:UPD 15-03-16 20:44 OP:nd   STATUS:               ID:20140716074851 L   I
 OLDACT:REG 14-07-16 13:32 OP:fm   STATUS:               ID:20140716074813     3
 2014-07-16-0748-13M.COL___250                                                 6
 STAT SP IPHASW D HRMM SECON CODA AMPLIT PERI AZIMU VELO AIN AR TRES W  DIS CAZ7
 BAR2 SZ EP   1    749 11.40                             170    0.04 8 23.8 193 
 BAR2 SZ ES   1    749 26.55                             170   -0.00 8 23.8 193 
 BAR2 SZ I         749 29.78         7.3 0.46            171           23.8 193 
 RUS  HZ EP   1    749 15.34                             144   -0.17 7  101 177 
 RUS  HN ES        749 33.99                             144    0.0510  101 177 
 RUS  HZ I         749 36.65         4.6 0.28            147            101 177 
 PTB  HZ EP        749 18.28                             131   -0.58 9  149 259 
 PTB  HN ES        749 39.52                             131   -0.38 9  149 259 
 PTB  HZ I         749 41.43         7.6 0.14            132            149 259 
 OCA  HZ EP   1    749 19.42                             129   -0.67 7  160 353 
 OCA  HN ES        749 42.74                             129    0.66 9  160 353 
 OCA  HZ I         749 46.25         3.9 0.20            131            160 353 
 SPBC HZ EP        749 20.35                             129   -0.02 9  164 219 
 SPBC HN ES        749 42.64                             129    0.05 9  164 219 
 SPBC HZ I         749 47.37         7.1 0.22            131            164 219 
 ZAR  HE ES   1    749 49.51                             122   -0.18 6  205 292 
 SML  HZ EP        749 28.18                             117   -0.30 8  244 335 
 SML  HE ES        749 57.22                             117    0.21 8  244 335 
 SML  HZ I         750  2.97         5.5 0.10            119            244 335 
 HEL  HZ EP   1    749 32.66                             114    0.49 6  273 256 
 HEL  HN ES   1    750  3.11                             114   -0.49 6  273 256 
 HEL  HZ I         750 10.52         2.3 0.38            116            273 256 
 GUY2CHZ EP   1    749 37.04                             112    1.48 5  302 235 
 GUY2CHN ES        750 10.58                             112    0.95 7  302 235 
 GUY2CHZ I         750 17.46         2.3 0.26                           302 235 
 PRA  HZ EP   1    749 44.95                             106   -0.51 4  393 210 
 PRA  HN ES   1    750 26.84                             106   -0.40 4  393 210 
 PRA  HZ I         750 31.39         2.4 0.32            108            393 210 
 SJC  HZ EP   4    749 45.62                             105   -1.85 0  410 327 
 SJC  HN ES   4    750 27.86                             105   -2.96 0  410 327 
 SJC  HZ I         750 35.17         0.7 0.40            107            410 327 
                                                                                
