 2016  216 0523 20.0 L   6.765 -73.161147.1  RSN  5 0.4 1.2LRSN                1
 GAP=136        0.94       4.5     4.8  7.6 -0.5674E+01  0.2599E+01  0.5707E+01E
 Epicentro: LOS SANTOS - SANTANDER                                             3
 ACTION:UPD 16-03-04 21:26 OP:rebc STATUS:               ID:20160216052320 L   I
 OLDACT:REG 16-02-16 12:26 OP:drio STATUS:               ID:20160216051747     3
 2016-02-16-0517-47M.COL___310                                                 6
 STAT SP IPHASW D HRMM SECON CODA AMPLIT PERI AZIMU VELO AIN AR TRES W  DIS CAZ7
 BRR  HZ EP        523 41.36                             153    0.0610 71.7 302 
 BRR  HE ES        523 58.59                             153    0.6510 71.7 302 
 BRR  HZ I         523 59.56         5.2 0.36            152           71.7 302 
 PAM  EZ EP        523 42.31                             150   -0.2810 81.4  39 
 PAM  EE ES        523 59.97                             150   -0.2510 81.4  39 
 PAM  EZ I         524  2.02         2.1 0.28            153           81.4  39 
 RUS  HZ EP        523 43.99                             145    0.3810 96.9 175 
 RUS  HE ES        524  1.95                             145   -0.0810 96.9 175 
 RUS  HZ I         524  3.18         1.4 0.52            147           96.9 175 
 PTB  HZ EP        523 47.05                             133    0.20 9  145 260 
 PTB  HE ES        524  7.09                             133   -0.71 9  145 260 
 PTB  HZ I         524 12.93         1.8 0.16            134            145 260 
 SPBC HZ EP        523 48.14                             130   -0.06 9  159 219 
 SPBC HN ES        524 10.24                             130    0.02 9  159 219 
 SPBC HZ I         524 12.11         2.0 0.50            132            159 219 
                                                                                
