 2017  416 0733 30.2 L   7.431 -73.182128.0  RSN 12 0.4 1.8LRSN                1
 GAP=188        0.89       3.9     3.1  4.9  0.1952E+01  0.4533E+01  0.2772E+01E
 Epicentro: EL PLAYON - SANTANDER                                              3
 ACTION:UPD 17-05-30 21:12 OP:jn   STATUS:               ID:20170416073330 L   I
 OLDACT:UP  17-04-16 17:31 OP:dani STATUS:               ID:20170416072739     3
 OLDACT:UP  17-04-16 17:30 OP:dani STATUS:               ID:20170416072739     3
 OLDACT:REG 17-04-16 14:25 OP:dani STATUS:               ID:20170416072739     3
 2017-04-16-0728-00M.COL___368                                                 6
 STAT SP IPHASW D HRMM SECON CODA AMPLIT PERI AZIMU VELO AIN AR TRES W  DIS CAZ7
 PAM  EZ EP     D  733 49.25                             156    0.0710 54.2 101 
 PAM  EN ES        734  4.45                             156    0.4410 54.2 101 
 PAM  EZ I         734  7.10        17.3 0.48            158           54.2 101 
 BRR  HZ EP     C  733 48.92                             150   -0.3510 68.6 239 
 BRR  HE ES        734  4.27                             150    0.1010 68.6 239 
 BRR  HZ I         734  5.36        20.2 0.12            146           68.6 239 
 BAR2 EZ EP        733 50.98                             142   -0.2810 92.7 180 
 BAR2 EZ ES        734  7.34                             142   -0.3710 92.7 180 
 BAR2 EZ I         734  8.60        38.3 0.22            139           92.7 180 
 RUS  HZ EP        733 58.80                             124    0.16 9  170 176 
 RUS  HE ES        734 20.73                             124   -0.11 9  170 176 
 RUS  HZ I         734 22.34         3.0 0.09            123            170 176 
 PTB  HZ EP        733 57.06                             123   -1.10 9  172 235 
 PTB  HN ES        734 20.05                             123    0.07 9  172 235 
 PTB  HZ I         734 21.78         5.9 0.30            122            172 235 
 ZAR  HZ EP        733 59.69                             121    0.17 9  185 272 
 ZAR  HN ES        734 22.55                             121    0.14 9  185 272 
 ZAR  HZ I         734 26.67         6.5 0.16            120            185 272 
 SPBC HZ EP        734  3.63                             116    0.27 8  220 207 
 SPBC HN ES        734 29.80                             116    0.56 8  220 207 
 SPBC HZ I         734 31.95         6.7 0.25            115            220 207 
 YPLC HZ EP        734  5.75                             114   -0.01 8  242 158 
 YPLC HE ES        734 33.54                             114    0.03 8  242 158 
 YPLC HZ I         734 37.29         7.1 0.34            114            242 158 
 NOR  HZ EP        734  9.46                             110   -0.40 7  278 222 
 NOR  HN ES        734 41.17                             110    0.35 7  278 222 
 NOR  HZ I         734 47.49         4.0 0.36            110            278 222 
 HEL  HZ EP        734 12.45                             109    0.46 7  293 242 
 HEL  HN ES   4    734 42.48                             109   -2.13 0  293 242 
 HEL  HZ I         734 51.45         2.2 0.37            109            293 242 
 CHI  HZ EP   3    734 15.92                             108    1.30 2  316 191 
 CHI  HN ES   4    734 51.70                             108    2.41 0  316 191 
 CHI  HZ I         734 58.78         1.9 0.33            107            316 191 
 CBOC HZ EP        734 19.67                             105    0.43 6  358 241 
 CBOC HE ES        734 57.34                             105   -0.17 6  358 241 
 CBOC HZ I         735  6.70         0.8 0.36            105            358 241 
                                                                                
