 2014  116 0301 38.1 L   6.789 -73.149143.2  RSN 14 0.5 2.0LRSN                1
 GAP=137        1.04       2.5     3.7  4.9 -0.2196E+01  0.5261E+01 -0.8349E+00E
 Epicentro: LOS SANTOS - SANTANDER                                             3
 ACTION:UPD 14-03-13 09:55 OP:ep   STATUS:               ID:20140116030138 L   I
 OLDACT:REG 14-01-16 07:27 OP:carl STATUS:               ID:20140116030000     3
 2014-01-16-0300-00M.COL___285                                                 6
 STAT SP IPHASW D HRMM SECON CODA AMPLIT PERI AZIMU VELO AIN AR TRES W  DIS CAZ7
 BAR2 SZ EP        3 1 57.36                             171   -0.0110 22.1 190 
 BAR2 SZ ES        3 2 12.27                             171   -0.1510 22.1 190 
 BAR2 SZ I         3 2 13.08        41.0 0.26            171           22.1 190 
 BRR  HZ EP        3 1 59.27                             152    0.3110 71.4 299 
 BRR  HN ES        3 2 16.13                             152    0.8810 71.4 299 
 BRR  HZ I         3 2 19.97        13.8 0.28            151           71.4 299 
 PAM  SZ EP        3 2  0.22                             150    0.1310 78.5  39 
 PAM  SN ES        3 2 17.28                             150    0.0310 78.5  39 
 PAM  SZ I         3 2 20.26         9.1 0.46            153           78.5  39 
 RUS  HZ IP     C  3 2  1.32                             144   -0.1710 99.4 176 
 RUS  HN ES        3 2 19.58                             144   -0.1710 99.4 176 
 RUS  HZ I         3 2 20.69         9.3 0.24            146           99.4 176 
 PTB  HZ EP        3 2  4.49                             132   -0.29 9  147 259 
 PTB  HN ES        3 2 24.98                             132   -0.63 9  147 259 
 PTB  HZ I         3 2 27.31        12.8 0.14            132            147 259 
 OCA  HZ EP        3 2  6.38                             129    0.09 9  161 353 
 OCA  HN ES        3 2 28.13                             129   -0.17 9  161 353 
 OCA  HZ I         3 2 32.26        17.6 0.16            130            161 353 
 SPBC HZ EP        3 2  6.45                             129    0.18 9  162 219 
 SPBC HN ES        3 2 28.41                             129    0.15 9  162 219 
 SPBC HZ I         3 2 32.57        12.0 0.26            130            162 219 
 ZAR  HZ EP        3 2 10.64                             122    0.27 9  204 292 
 ZAR  HN ES        3 2 35.71                             122    0.16 9  204 292 
 ZAR  HZ I         3 2 41.61        11.0 0.54            123            204 292 
 NOR  HZ EP        3 2 14.13                             118    0.58 8  234 235 
 NOR  HE ES        3 2 41.27                             118    0.05 8  234 235 
 NOR  HZ I         3 2 44.96         7.9 0.36            119            234 235 
 SML  HZ EP        3 2 13.91                             117   -0.75 8  245 335 
 SML  HN ES        3 2 42.42                             117   -0.77 8  245 335 
 SML  HZ I         3 2 47.97        15.0 0.24            118            245 335 
 CHI  HZ EP        3 2 15.60                             117    0.10 8  247 195 
 CHI  HN ES        3 2 43.99                             117   -0.70 8  247 195 
 CHI  HZ I         3 2 51.42         3.3 0.28            119            247 195 
 URE  HN ES   4    3 2 48.85                             113   -2.13 0  284 292 
 GUY2CHZ EP        3 2 22.08                             112    0.62 7  300 235 
 GUY2CHN ES        3 2 55.54                             112    0.25 7  300 235 
 GUY2CHZ I         3 3  3.90         4.5 0.44                           300 235 
 CBOC HZ EP        3 2 25.66                             109    0.86 7  333 252 
 CBOC HN ES        3 3  0.20                             109   -1.05 7  333 252 
 CBOC HZ I         3 3  6.35         1.6 0.22            111            333 252 
 COD  HZ EP        3 2 26.09                             108   -0.39 6  349 355 
 COD  HN ES        3 3  4.66                             108    0.42 6  349 355 
                                                                                
