 2016  916 0350 28.4 L   6.813 -73.154146.9  RSN 25 0.5 2.7LRSN                1
 GAP= 56        1.15       3.1     3.3  5.0 -0.2502E+01  0.8891E+00  0.1531E+01E
 Epicentro: LOS SANTOS - SANTANDER                                             3
 ACTION:UPD 17-08-17 21:12 OP:lp   STATUS:               ID:20160916035028 L   I
 OLDACT:UP  16-09-17 03:25 OP:dani STATUS:               ID:20160916034729     3
 OLDACT:UP  16-09-17 03:20 OP:dani STATUS:               ID:20160916034729     3
 OLDACT:UP  16-09-17 03:19 OP:dani STATUS:               ID:20160916034729     3
 OLDACT:UP  16-09-17 03:19 OP:dani STATUS:               ID:20160916034729     3
 OLDACT:UP  16-09-17 03:18 OP:dani STATUS:               ID:20160916034729     3
 OLDACT:REG 16-09-16 13:00 OP:ar   STATUS:               ID:20160916034729     3
 2016-09-16-0348-00M.COL___354                                                 6
 STAT SP IPHASW D HRMM SECON CODA AMPLIT PERI AZIMU VELO AIN AR TRES W  DIS CAZ7
 BAR2 HZ EP        350 48.59                             170    0.3910 24.6 187 
 BAR2 HN ES        351  3.60                             170   -0.0310 24.6 187 
 BAR2 HZ I         351  4.39       189.4 0.30            172           24.6 187 
 BRR  HZ IP     C  350 50.03                             153    0.4310 69.7 298 
 BRR  HN ES        351  6.60                             153    0.4810 69.7 298 
 BRR  HZ I         351 10.25       106.2 0.14            145           69.7 298 
 PAM  HZ EP        350 51.27                             151    0.5510 76.9  41 
 PAM  EN ES        351  8.33                             151    0.2110 76.9  41 
 PAM  HZ I         351 10.26        53.0 0.53            140           76.9  41 
 RUS  HZ EP        350 52.35                             144   -0.0210  102 176 
 RUS  HE ES        351 10.44                             144   -0.6310  102 176 
 RUS  HZ I         351 12.53        52.8 0.60            138            102 176 
 PTB  HZ EP        350 54.69                             132   -0.72 9  147 258 
 PTB  HN ES        351 15.80                             132   -0.67 9  147 258 
 PTB  HZ I         351 17.14        52.8 0.34            124            147 258 
 TAM  HZ EP        350 56.49                             130    0.20 9  156 105 
 TAM  HZ I         351 19.03        25.3 0.27            121            156 105 
 OCA  HZ EP        350 56.36                             130   -0.31 9  159 353 
 OCA  HE ES   4    351 17.72                             130   -0.99 0  159 353 
 OCA  HZ I         351 21.87       137.6 0.16            119            159 353 
 SPBC HZ EP        350 57.12                             129    0.08 9  164 218 
 SPBC HN ES        351 18.78                             129   -0.59 9  164 218 
 SPBC HZ I         351 27.44        77.8 0.36            122            164 218 
 ZAR  HZ EP        351  0.88                             123    0.10 9  203 292 
 ZAR  HN ES        351 26.10                             123    0.07 9  203 292 
 ZAR  HZ I         351 33.58        78.5 0.20            114            203 292 
 NOR  HZ EP        351  4.46                             119    0.25 8  235 234 
 NOR  HN ES        351 32.40                             119    0.27 8  235 234 
 NOR  HZ I         351 38.84        26.7 0.30            111            235 234 
 CHI  HZ EP        351  6.68                             117    0.39 8  250 195 
 CHI  HN ES        351 36.13                             117    0.30 8  250 195 
 CHI  HZ I         351 40.50        28.4 0.30            110            250 195 
 ROSC BZ EP   9    351  8.56                             117    1.90 0  253 211 
 ROSC BE ES        351 38.13                             117   -0.27 8  253 211 
 ROSC BZ I         351 45.25        49.5 0.38            109            253 211 
 HEL  HZ EP   4    351  9.48                             115    0.87 0  271 255 
 HEL  HE ES        351 38.77                             115   -1.20 8  271 255 
 HEL  HZ I         351 46.51        31.0 0.40            107            271 255 
 URE  HZ EP   4    351  8.15                             114   -1.23 0  282 292 
 URE  HE ES   4    351 38.98                             114   -2.35 0  282 292 
 URE  HZ I         351 51.07        31.2 0.16            106            282 292 
 GUY2CHZ EP   4    351 13.45                             112    1.38 0  301 234 
 GUY2CHE ES        351 46.60                             112    0.47 7  301 234 
 GUY2CHZ I         351 55.03        25.6 0.32                           301 234 
 SOCV BZ EP        351 11.27                             112   -0.24 7  301  57 
 SOCV BE ES   4    351 43.49                             112   -1.64 0  301  57 
 LL1C HZ EP   4    351 14.23                             112    2.35 0  305 352 
 VIL  EZ EP        351 11.59                             112   -0.42 7  305 191 
 VIL  EE ES        351 46.41                             112    0.39 7  305 191 
 VIL  EZ I         351 57.16        31.1 0.48            105            305 191 
 PTGC HZ EP        351 11.47                             112   -1.03 7  310 159 
 PTGC HE ES   4    351 45.17                             112   -1.72 0  310 159 
 PTGC HZ I         351 50.32         8.9 0.25            105            310 159 
 LL6C HZ EP        351 13.26                             111   -0.73 7  323 358 
 LL6C HZ I         352 10.57        13.4 0.66            103            323 358 
 ELA  HZ EP   4    351 17.73                             110    2.40 0  329 229 
 ELA  HN ES        351 53.01                             110    1.09 7  329 229 
 ELA  HZ I         352  0.85        16.8 0.43            104            329 229 
 CBOC HZ EP        351 16.11                             110    0.80 7  333 252 
 CBOC HN ES   4    351 50.31                             110   -1.59 0  333 252 
 CBOC HZ I         352  2.15         9.7 0.72            103            333 252 
 ANIL HN ES   4    351 59.50                             109    2.30 0  358 224 
 PAL  HZ EP        351 24.09                             106    0.50 6  406 239 
 PAL  HE ES        352  6.16                             106   -0.48 6  406 239 
 PAL  HZ I         352 12.31         8.1 0.27            100            406 239 
 SJC  HZ EP   4    351 21.58                             106   -2.23 0  408 327 
 SJC  HE ES   4    352  3.52                             106   -3.50 0  408 327 
 SJC  HZ I         352 17.88        11.4 0.77             99            408 327 
 CRJC HZ EP   9    351 28.71                             103   -2.07 0  466   4 
 CRJC HN ES        352 16.90                             104   -0.46 5  466   4 
 CRJC HZ I         352 20.74        10.5 0.37             97            466   4 
 MACC HZ EP   4    351 35.63                             102   -1.66 0  522 189 
 MACC HN ES   4    352 28.45                             102   -2.57 0  522 189 
 MACC HZ I         352 35.78         5.1 0.43             96            522 189 
 URI  HN EP   4    351 39.55                             101   -1.75 0  556  13 
                                                                                
