 2016  716 0801  9.7 L   6.635 -73.571110.1  RSN  7 0.3 1.5LRSN                1
 GAP=153        0.56       3.5     2.2  4.7  0.9359E+00  0.4215E+01  0.1717E+00E
 Epicentro: EL CARMEN - SANTANDER                                              3
 ACTION:UPD 17-03-29 16:51 OP:lp   STATUS:               ID:20160716080109 L   I
 OLDACT:UP  16-07-16 15:56 OP:dnl  STATUS:               ID:20160716075759     3
 OLDACT:REG 16-07-16 12:29 OP:lv   STATUS:               ID:20160716075759     3
 2016-07-16-0757-59S.COL___316                                                 6
 STAT SP IPHASW D HRMM SECON CODA AMPLIT PERI AZIMU VELO AIN AR TRES W  DIS CAZ7
 BAR2 EZ EP        8 1 26.09                             157    0.2710 43.2  96 
 BAR2 EZ ES        8 1 38.55                             157    0.1710 43.2  96 
 BAR2 EZ I         8 1 39.52        23.7 0.40            166           43.2  96 
 RUS  HZ EP        8 1 29.60                             135   -0.3610 98.2 147 
 RUS  HN ES        8 1 45.61                             135   -0.1410 98.2 147 
 RUS  HZ I         8 1 46.76         2.6 0.40            142           98.2 147 
 PTB  HZ IP     C  8 1 29.29                             135   -0.0410 98.5 264 
 PTB  HN ES        8 1 44.44                             135   -0.1810 98.5 264 
 PTB  HZ I         8 1 48.81         5.5 0.10            135           98.5 264 
 SPBC HZ EP        8 1 31.76                             128    0.1810  122 207 
 SPBC HE ES        8 1 48.71                             128    0.0810  122 207 
 SPBC HZ I         8 1 54.15         8.7 0.24            131            122 207 
 ZAR  HZ EP   2    8 1 36.01                             118   -0.46 4  171 304 
 ZAR  HN ES   4    8 1 59.79                             118    2.44 0  171 304 
 ZAR  HZ I         8 2  3.12         5.5 0.56            120            171 304 
 HEL  HZ EP   2    8 1 43.03                             111    0.42 4  222 257 
 HEL  HN ES        8 2  8.21                             111   -0.07 8  222 257 
 HEL  HZ I         8 2 13.23         2.3 0.32            114            222 257 
 GUY2CHZ EP   2    8 1 46.92                             108    0.67 4  253 232 
 GUY2CHN ES   4    8 2 16.86                             108    2.12 0  253 232 
 GUY2CHZ I         8 2 22.36         1.5 0.64                           253 232 
                                                                                
