 2017 1116 0944 50.2 L   6.829 -73.110143.5  RSN 15 0.8 2.1LRSN                1
 GAP=114        1.73       5.0     5.4  8.8  0.4369E+01  0.1650E+02  0.8795E+01E
 Epicentro: LOS SANTOS - SANTANDER                                             3
 ACTION:UPD 17-12-12 19:56 OP:rebc STATUS:               ID:20171116094450 L   I
 OLDACT:REG 17-11-16 13:57 OP:y    STATUS:               ID:20171116093738     3
 2017-11-16-0938-00M.COL___411                                                 6
 STAT SP IPHASW D HRMM SECON CODA AMPLIT PERI AZIMU VELO AIN AR TRES W  DIS CAZ7
 BAR2 EZ EP        945  9.84                             169    0.1610 27.4 197 
 BAR2 EZ ES        945 24.46                             169   -0.3910 27.4 197 
 BAR2 EZ I         945 25.41        51.6 0.38            166           27.4 197 
 PAM  EZ EP        945 12.79                             151    0.8810 72.4  39 
 PAM  EN ES        945 29.62                             151    0.7910 72.4  39 
 PAM  EZ I         945 31.96        18.1 0.54            155           72.4  39 
 RUS  HZ EP        945 14.01                             143    0.0310  104 178 
 RUS  HN ES        945 32.07                             143   -0.4310  104 178 
 RUS  HZ I         945 33.06        27.6 0.26            142            104 178 
 PTB  HZ EP        945 16.60                             131   -0.83 9  152 258 
 PTB  HN ES        945 37.40                             131   -1.24 9  152 258 
 PTB  HZ I         945 38.33         8.0 0.38            130            152 258 
 YPLC HZ EP        945 20.33                             126    0.37 9  178 153 
 YPLC HN ES        945 43.70                             126    0.56 9  178 153 
 YPLC HZ I         945 47.51         7.8 0.46            126            178 153 
 ZAR  HZ EP        945 23.00                             121    0.21 8  207 291 
 ZAR  HN ES        945 48.75                             121    0.57 8  207 291 
 ZAR  HZ I         945 50.10        15.2 0.38            122            207 291 
 NOR  HZ EP        945 26.66                             117    0.28 8  240 234 
 NOR  HN ES        945 54.08                             117   -0.49 8  240 234 
 NOR  HZ I         945 59.64        11.3 0.16            117            240 234 
 CHI  HZ EP        945 27.99                             116   -0.26 8  253 196 
 CHI  HN ES        945 58.58                             116    0.67 8  253 196 
 CHI  HZ I         946  0.74         3.7 0.50            116            253 196 
 ROSC BZ EP   4    945 29.93                             116    1.18 0  258 211 
 ROSC BN ES   4    946  4.54                             116    5.74 0  258 211 
 ROSC BZ I         946  6.14         9.0 0.40            116            258 211 
 GUY2CHZ EP        945 35.40                             111    1.09 7  306 235 
 GUY2CHE ES        946  8.66                             111   -0.03 7  306 235 
 GUY2CHZ I         946 15.24         5.4 0.24                           306 235 
 PTGC HZ EP        945 33.20                             111   -0.96 7  310 160 
 PTGC HN ES        946  6.51                             111   -1.92 7  310 160 
 CBOC HZ EP        945 38.41                             109    0.81 7  338 252 
 CBOC HN ES        946 15.45                             109    0.91 7  338 252 
 CBOC HZ I         946 25.13         2.1 0.40            109            338 252 
 PRA  HZ EP        945 44.34                             106    0.11 6  397 210 
 PRA  HN ES        946 25.72                             106   -0.62 6  397 210 
 PRA  HZ I         946 31.65         4.3 0.70            106            397 210 
 ORTC HZ EP        945 45.20                             106    0.55 6  400 216 
 ORTC HN ES        946 28.40                             106    1.31 6  400 216 
 ORTC HZ I         946 34.54         2.9 0.22            106            400 216 
 SJC  HZ EP        945 43.21                             105   -2.45 6  409 326 
 SJC  HN ES        946 28.21                             105   -0.69 6  409 326 
 SJC  HZ I         946 30.14         4.0 0.56            106            409 326 
                                                                                
