 2016  816 0217  8.8 L   6.337 -73.596111.3  RSN  9 0.5 1.7LRSN                1
 GAP= 84        1.21       3.9     3.8  8.6 -0.2673E+01  0.1277E+02 -0.7514E+00E
 Epicentro: SANTA HELENA DEL OPON - SANTANDER                                  3
 ACTION:UPD 16-10-29 15:36 OP:rebc STATUS:               ID:20160816021708 L   I
 OLDACT:REG 16-08-16 12:33 OP:ak   STATUS:               ID:20160816020759     3
 2016-08-16-0207-59S.COL___349                                                 6
 STAT SP IPHASW D HRMM SECON CODA AMPLIT PERI AZIMU VELO AIN AR TRES W  DIS CAZ7
 BAR2 EZ IP     C  217 25.96                             152    0.4210 53.7  58 
 BAR2 EZ ES        217 39.15                             152    0.5210 53.7  58 
 BAR2 EZ I         217 40.43        29.9 0.38                          53.7  58 
 RUS  HZ EP        217 27.21                             144   -0.0710 75.1 131 
 RUS  HN ES        217 41.64                             144   -0.0910 75.1 131 
 BRR  HZ EP        217 27.60                             139    0.1810 86.1 351 
 BRR  HN ES        217 42.79                             139    0.8110 86.1 351 
 SPBC HZ EP        217 27.92                             137   -0.1310 92.3 215 
 SPBC HN ES        217 42.95                             137   -0.1510 92.3 215 
 SPBC HZ I         217 45.47        12.9 0.06                          92.3 215 
 PTB  HZ EP        217 27.69                             136   -0.7210 97.7 283 
 PTB  HN ES        217 42.78                             136   -0.9610 97.7 283 
 PTB  HZ I         217 45.52         8.6 0.09                          97.7 283 
 PAM  EZ EP   2    217 33.71                             123   -0.17 5  149  42 
 PAM  EN ES        217 52.80                             123   -0.67 9  149  42 
 ZAR  HZ EP   2    217 37.40                             116   -0.16 4  189 313 
 ZAR  HN ES        217 59.98                             116   -0.05 9  189 313 
 ZAR  HZ I         218  5.44         5.9 0.27                           189 313 
 GUY2CHZ EP   2    217 43.79                             111    0.89 4  231 238 
 GUY2CHN ES        218  9.93                             111    0.40 8  231 238 
 GUY2CHZ I         218 16.76         1.5 0.31                           231 238 
 CBOC HZ EP   2    217 47.69                             107    0.42 4  273 259 
 CBOC HN ES        218 18.03                             107    0.71 8  273 259 
                                                                                
