 2013 1116 0517  9.0 L   6.800 -73.154135.6  RSN 12 0.5 2.1LRSN                1
 GAP=182        1.24       3.8     6.1  7.7  0.2305E+01  0.4763E+01 -0.7331E+01E
 Epicentro: LOS SANTOS - SANTANDER                                             3
 ACTION:UPD 14-01-09 16:28 OP:ep   STATUS:               ID:20131116051709 L   I
 OLDACT:REG 13-11-16 10:10 OP:nd   STATUS:               ID:20131116051000     3
 2013-11-16-0510-00M.COL___279                                                 6
 STAT SP IPHASW D HRMM SECON CODA AMPLIT PERI AZIMU VELO AIN AR TRES W  DIS CAZ7
 BAR2 SZ IP     D  517 27.76                             170    0.3310 23.1 188 
 BAR2 SZ ES        517 41.25                             170   -0.5310 23.1 188 
 BAR2 SZ I         517 43.62        39.7 0.34            167           23.1 188 
 BRR  HZ IP     C  517 29.60                             151    0.5710 70.5 299 
 BRR  HN ES        517 45.03                             151    0.3810 70.5 299 
 BRR  HZ I         517 47.02        14.9 0.12            147           70.5 299 
 RUS  HZ EP        517 31.67                             142   -0.1210  101 176 
 RUS  HN ES        517 50.08                             142    0.5310  101 176 
 RUS  HZ I         517 53.02         8.6 0.22            143            101 176 
 PTB  HZ EP        517 34.47                             130   -0.62 9  147 259 
 PTB  HN ES        517 54.85                             130   -0.59 9  147 259 
 PTB  HZ I         517 59.03        19.2 0.10            128            147 259 
 OCA  HZ EP        517 36.85                             127    0.30 9  160 353 
 OCA  HN ES        517 57.17                             127   -0.86 9  160 353 
 OCA  HZ I         518  2.54        14.8 0.30            128            160 353 
 SPBC HZ EP        517 36.69                             127   -0.01 9  163 219 
 SPBC HN ES        517 58.13                             127   -0.16 9  163 219 
 SPBC HZ I         518  4.80        15.5 0.20            126            163 219 
 ZAR  HZ EP        517 40.78                             120    0.04 9  203 292 
 ZAR  HN ES        518  6.08                             120    0.60 9  203 292 
 ZAR  HZ I         518 12.80        19.0 0.34            119            203 292 
 SML  HZ EP        517 44.42                             115   -0.64 8  243 335 
 SML  HN ES        518 13.87                             115    0.70 8  243 335 
 SML  HZ I         518 17.81        17.7 0.22            116            243 335 
 ROSC BZ EP   4    517 48.03                             115    1.48 0  252 211 
 ROSC BN ES   4    518 17.92                             115    2.10 0  252 211 
 HEL  HZ EP   4    517 48.58                             113   -0.05 0  271 256 
 HEL  HN ES   4    518 19.37                             113   -0.17 0  271 256 
 HEL  HZ I         518 26.10         8.3 0.38            112            271 256 
 GUY2CHZ EP   4    517 51.90                             110   -0.19 0  300 235 
 GUY2CHN ES   4    518 27.08                             110    1.39 0  300 235 
 GUY2CHZ I         518 33.11         6.9 0.30                           300 235 
 CBOC HZ EP   4    517 55.82                             108    0.39 0  333 252 
 CBOC HN ES   4    518 30.97                             108   -0.67 0  333 252 
 CBOC HZ I         518 38.96         1.8 0.22            108            333 252 
 SJC  HZ EP   4    518  2.48                             104   -1.73 0  409 327 
 SJC  HN ES   4    518 43.02                             104   -4.24 0  409 327 
 SJC  HZ I         518 47.82         3.8 0.58            105            409 327 
                                                                                
