 2011  816 0143 22.1 L   6.770 -73.126146.1  RSN  6 0.3 2.0LRSN                1
 GAP=140        0.62       3.3     5.5  6.3 -0.1169E+01 -0.1827E+01 -0.3808E+01E
 Epicentro: LOS SANTOS - SANTANDER                                             3
 ACTION:UPD 12-07-13 15:52 OP:ep   STATUS:               ID:20110816014322 L   I
 2011-08-16-0141-01S.COL___150                                                 6
 STAT SP IPHASW D HRMM SECON CODA AMPLIT PERI AZIMU VELO AIN AR TRES W  DIS CAZ7
 BAR2 SZ EP   1    143 41.60                             172   -0.14 7 20.6 198 
 BAR2 SZ ES   1    143 56.44                             172   -0.60 7 20.6 198 
 BAR2 SZ I         143 59.57        30.0 0.29                          20.6 198 
 BRR  HZ EP   1    143 43.41                             151   -0.10 7 74.7 300 
 BRR  HE ES   1    144  0.69                             151    0.50 7 74.7 300 
 BRR  HZ I         144  2.90        18.7 0.14                          74.7 300 
 PAM  SZ EP   1    143 44.65                             150    0.20 7 78.7  37 
 RUS  HZ EP   1    143 45.74                             145    0.08 7 97.1 177 
 RUS  HN ES   1    144  4.37                             145    0.35 7 97.1 177 
 RUS  HZ I         144  5.59        12.8 0.25                          97.1 177 
 OCA  SZ EP   1    143 50.72                             129   -0.08 7  164 353 
 OCA  SZ ES   1    144 13.05                             129   -0.11 7  164 353 
 OCA  SZ I         144 16.90         8.6 0.28                           164 353 
 NOR  SN ES   1    144 25.54                             118   -0.19 6  235 235 
                                                                                
