 2012  816 0506 26.1 L   6.741 -73.145154.5  RSN  7 0.2 1.7LRSN                1
 GAP=182        0.41       3.7     5.0  7.5  0.2524E+01 -0.1981E+02  0.1019E+01E
 Epicentro: JORDAN - SANTANDER                                                 3
 ACTION:UPD 12-09-10 11:56 OP:ep   STATUS:               ID:20120816050626 L   I
 2012-08-16-0500-00M.COL___217                                                 6
 STAT SP IPHASW D HRMM SECON CODA AMPLIT PERI AZIMU VELO AIN AR TRES W  DIS CAZ7
 BAR2 SZ EP   1    5 6 46.35                             173   -0.31 7 16.9 194 
 BAR2 SZ I         5 7  4.61        10.1 0.11                          16.9 194 
 GIR2 SZ EP   1    5 6 47.00                             166    0.02 7 37.8 352 
 BRR  HZ EP   1    5 6 48.48                             153    0.11 7 74.6 303 
 BRR  HZ I         5 6 50.12        14.9 0.10                          74.6 303 
 BRR  HN ES   1    5 7  5.95                             153    0.20 7 74.6 303 
 RUS  HZ EP   1    5 6 50.39                             147    0.13 7 94.0 176 
 RUS  HZ I         5 6 51.65         2.5 0.14                          94.0 176 
 PTB  HN ES   2    5 7 14.91                             134   -0.30 5  147 261 
 OCA  HZ EP   1    5 6 55.81                             130    0.12 7  167 353 
 OCA  HN ES   2    5 7 18.42                             130   -0.36 5  167 353 
 OCA  HZ I         5 7 21.66         9.3 0.16                           167 353 
 ZAR  HE ES   2    5 7 25.33                             124   -0.01 4  207 294 
                                                                                
