 2017  116 0552  0.8 L   6.808 -73.147148.4  RSN  9 0.5 1.8LRSN                1
 GAP=136        1.14       4.3     4.7  7.0  0.3748E+00  0.8351E+01  0.5154E+01E
 Epicentro: LOS SANTOS - SANTANDER                                             3
 ACTION:UPD 17-05-22 16:00 OP:jn   STATUS:               ID:20170116055200 L   I
 OLDACT:UP  17-01-16 18:18 OP:nlst STATUS:               ID:20170116055200 L   3
 OLDACT:UP  17-01-16 17:26 OP:dani STATUS:               ID:20170116054746     3
 OLDACT:UP  17-01-16 17:26 OP:dani STATUS:               ID:20170116054746     3
 OLDACT:REG 17-01-16 13:18 OP:dani STATUS:               ID:20170116054746     3
 2017-01-16-0548-00M.COL___335                                                 6
 STAT SP IPHASW D HRMM SECON CODA AMPLIT PERI AZIMU VELO AIN AR TRES W  DIS CAZ7
 BAR2 HZ EP        552 20.68                             170   -0.1110 24.2 189 
 BAR2 HZ ES        552 35.95                             170   -0.4110 24.2 189 
 BAR2 HZ I         552 36.77        28.1 0.28            169           24.2 189 
 BRR  HZ IP     D  552 22.44                             153    0.2210 70.6 298 
 BRR  HE ES        552 39.77                             153    0.8510 70.6 298 
 BRR  HZ I         552 42.74        13.6 0.32            151           70.6 298 
 PAM  HZ EP        552 23.59                             151    0.3110 76.8  40 
 PAM  HN ES        552 40.81                             151    0.0010 76.8  40 
 PAM  HZ I         552 42.84        17.2 0.52            155           76.8  40 
 RUS  HZ EP        552 24.68                             144   -0.2210  101 176 
 RUS  HN ES        552 43.52                             144   -0.1610  101 176 
 RUS  HZ I         552 44.42         5.2 0.24            146            101 176 
 PTB  HZ EP        552 27.41                             133   -0.60 9  148 258 
 PTB  HN ES        552 48.48                             133   -0.73 9  148 258 
 PTB  HZ I         552 55.74         6.6 0.28            132            148 258 
 ZAR  HZ EP        552 33.35                             123   -0.04 9  204 292 
 ZAR  HN ES        552 58.45                             123   -0.34 9  204 292 
 ZAR  HZ I         553  4.87         5.8 0.26            123            204 292 
 NOR  HN ES        553  5.72                             119    0.95 8  235 234 
 CHI  HZ EP        552 39.29                             117    0.54 8  249 195 
 CHI  HN ES        553  8.38                             117    0.04 8  249 195 
 CHI  HZ I         553 13.74         1.7 0.16            119            249 195 
 GUY2CHZ EP   4    552 47.61                             113    3.02 0  302 235 
 SJC  HZ EP   3    552 54.90                             106   -1.47 1  408 327 
 SJC  HN ES   4    553 35.68                             106   -4.02 0  408 327 
 SJC  HZ I         553 40.75         1.8 0.68            107            408 327 
                                                                                
