 2010  616 0058  4.6 L   6.763 -73.118141.4  RSN  5 0.3 1.5LRSN                1
 GAP=159        0.60       4.9     9.1  6.6  0.2065E+02 -0.1982E+02 -0.9495E+01E
 Epicentro: LOS SANTOS - SANTANDER                                             3
 ACTION:UP  10-08-24 10:10 OP:vdl  STATUS:               ID:20100616005804 L   I
 2010-06-16-0055-31S.COL___114                                                 6
 STAT SP IPHASW D HRMM SECON CODA AMPLIT PERI AZIMU VELO SNR AR TRES W  DIS CAZ7
 BAR2 SZ EP   1    058 23.60                             171    -0.1 7   20 201 
 BAR2 SZ ES   1    058 38.05                             171    -0.5 7   20 201 
 BRR  HZ EP        058 25.60                             150     0.010   76 300 
 BRR  HZ I         058 26.01        17.9 0.13                            76 300 
 BRR  HE ES   1    058 42.05                             150     0.1 7   76 300 
 RUS  HZ EP   1    058 27.59                             144     0.0 7   96 178 
 RUS  HN ES   1    058 45.97                             144     0.4 7   96 178 
 RUS  HZ I         058 47.93         3.0 0.27                            96 178 
 BRI  SZ EP   1    058 28.42                             140     0.1 7  111  19 
 CHI  HZ EP   2    058 41.25                             116    -0.5 4  246 196 
 CHI  HZ I         059 18.44         1.8 0.39                           246 196 
                                                                                
