 2015 1216 0933 35.0 L   6.746 -73.105142.0  RSN 15 0.5 1.9LRSN                1
 GAP=144        1.03       3.5     4.3  6.0 -0.3833E+01  0.8362E+01  0.8775E+00E
 Epicentro: LOS SANTOS - SANTANDER                                             3
 ACTION:UPD 16-02-04 15:05 OP:cam  STATUS:               ID:20151216093335 L   I
 OLDACT:REG 15-12-16 13:23 OP:cara STATUS:               ID:20151216092747     3
 2015-12-16-0927-47M.COL___330                                                 6
 STAT SP IPHASW D HRMM SECON CODA AMPLIT PERI AZIMU VELO AIN AR TRES W  DIS CAZ7
 BAR2 EZ EP        933 54.39                             172    0.3010 19.0 207 
 BAR2 EZ ES   2    934  8.99                             172    0.01 5 19.0 207 
 BAR2 EZ I         934 12.21         8.9 0.22            166           19.0 207 
 BRR  HZ EP        933 56.29                             149    0.1410 78.1 301 
 BRR  HE ES        934 13.31                             149    0.6610 78.1 301 
 BRR  HZ I         934 16.58        11.0 0.08            144           78.1 301 
 PAM  EZ EP        933 57.19                             149    0.2510 79.5  34 
 PAM  EE ES        934 14.14                             149    0.0910 79.5  34 
 PAM  EZ I         934 15.08         8.7 0.24            154           79.5  34 
 RUS  HZ EP        933 58.09                             145    0.1610 94.4 179 
 RUS  HN ES        934 14.90                             145   -0.9210 94.4 179 
 PTB  HZ EP        934  0.99                             130   -0.98 9  151 261 
 PTB  HN ES   2    934 22.03                             130   -0.98 5  151 261 
 PTB  HZ I         934 25.88         6.5 0.16            128            151 261 
 SPBC HZ EP        934  3.38                             128    0.33 9  162 222 
 SPBC HE ES   1    934 25.03                             128    0.10 7  162 222 
 SPBC HZ I         934 30.77         9.0 0.18            128            162 222 
 OCA  HZ EP        934  3.59                             127   -0.05 9  167 352 
 OCA  HN ES   4    934 24.43                             127   -1.55 0  167 352 
 OCA  HZ I         934 28.96         8.2 0.12            128            167 352 
 ZAR  HZ EP   2    934  7.79                             121   -0.08 4  211 293 
 ZAR  HE ES        934 33.29                             121   -0.23 8  211 293 
 ZAR  HZ I         934 39.05        11.7 0.25            120            211 293 
 NOR  HZ EP        934 11.00                             118    0.46 8  235 236 
 NOR  HE ES        934 38.54                             118    0.28 8  235 236 
 NOR  HZ I         934 44.68         8.0 0.14            118            235 236 
 SML  HZ EP        934 11.48                             116   -0.74 8  251 335 
 SML  HN ES   4    934 39.62                             116   -1.62 0  251 335 
 SML  HZ I         934 45.99         5.0 0.06            117            251 335 
 HEL  HZ EP   1    934 15.88                             114    0.53 6  275 257 
 HEL  HN ES   4    934 48.86                             114    2.03 0  275 257 
 HEL  HZ I         934 53.61         3.6 0.56            114            275 257 
 URE  HZ EP   2    934 15.43                             112   -1.18 4  290 293 
 URE  HE ES   4    934 46.21                             112   -2.86 0  290 293 
 URE  HZ I         934 58.57         5.1 0.20            112            290 293 
 GUY2CHZ EP   2    934 18.95                             112    0.48 4  301 236 
 GUY2CHN ES        934 52.40                             112    0.03 7  301 236 
 GUY2CHZ I         935  1.25         5.8 0.44                           301 236 
 CBOC HZ EP   2    934 22.43                             109    0.38 3  336 253 
 CBOC HN ES   2    934 58.05                             109   -0.69 3  336 253 
 CBOC HZ I         935 11.18         1.8 0.70            109            336 253 
 PRA  HZ EP        934 28.30                             106    0.25 6  389 211 
 PRA  HE ES        935  9.71                             106    0.29 6  389 211 
 PRA  HZ I         935 17.70         2.5 0.35            107            389 211 
                                                                                
