 2010  216 0204 40.3 L   6.798 -72.944143.2  RSN  6 0.5 2.5LRSN                1
 GAP=215        0.80       6.1    18.5  8.3 -0.5727E+02  0.4282E+02  0.6378E+01E
 Epicentro: CEPITA - SANTANDER                                                 3
 ACTION:UP  10-08-24 09:49 OP:vdl  STATUS:               ID:20100216020440 L   I
 2010-02-16-0202-33S.COL___094                                                 6
 STAT SP IPHASW D HRMM SECON CODA AMPLIT PERI AZIMU VELO SNR AR TRES W  DIS CAZ7
 BAR2 SZ IP        2 5  0.22                             165     0.310   35 229 
 BAR2 SZ ES   2    2 5 15.15                             165    -0.1 5   35 229 
 GIR2 SZ EP        2 5  0.02                             162     0.010   42 318 
 GIR2 SZ ES   2    2 5 15.61                             162     0.2 5   42 318 
 OCA  SZ EP        2 5  8.66                             128    -0.2 9  165 345 
 OCA  SZ ES   3    2 5 30.33                             128    -0.8 2  165 345 
 OCA  SZ I         2 5 35.24        42.1 0.43                           165 345 
 CHI  HZ EP        2 5 18.21                             116    -0.4 8  255 200 
 CHI  HN ES   2    2 5 47.80                             116    -0.7 4  255 200 
 RREF BZ EP        2 5 28.15                             109    -0.2 7  339 232 
 RREF BN ES   3    2 6  4.41                             109    -1.4 2  339 232 
 RREF BZ I         2 6 12.17         9.6 0.73                           339 232 
 TOL  SZ EP        2 5 31.35                             108     1.0 6  359 227 
                                                                                
