 2012 1116 0457 26.9 L   6.757 -73.087140.0  RSN  7 0.3 1.1LRSN                1
 GAP=146        0.65       4.3     4.1  7.3  0.5123E+00  0.5426E+01  0.3758E+01E
 Epicentro: LOS SANTOS - SANTANDER                                             3
 ACTION:UPD 12-12-05 15:33 OP:}ep  STATUS:               ID:20121116045726 L   I
 2012-11-16-0450-00M.COL___233                                                 6
 STAT SP IPHASW D HRMM SECON CODA AMPLIT PERI AZIMU VELO AIN AR TRES W  DIS CAZ7
 BAR2 SZ EP   1    457 45.74                             171   -0.08 7 21.1 210 
 GIR2 SZ EP   1    457 46.12                             164    0.01 7 37.4 342 
 GIR2 SZ ES   1    458  0.55                             164   -0.52 7 37.4 342 
 PAM  SZ EP   1    457 48.81                             150    0.28 7 77.3  34 
 PAM  SN ES   1    458  5.42                             150    0.04 7 77.3  34 
 BRR  HZ EP   1    457 47.84                             149   -0.10 7 79.1 299 
 BRR  HE ES   2    458  5.02                             149    0.69 5 79.1 299 
 RUS  HZ EP   1    457 49.51                             144   -0.25 7 95.6 180 
 RUS  HE ES   1    458  7.99                             144    0.42 7 95.6 180 
 RUS  HZ I         458  9.20         2.0 0.32                          95.6 180 
 PTB  HN ES   1    458 14.60                             129   -0.43 7  153 261 
 PTB  HZ I         458 17.55         1.5 0.12                           153 261 
 ZAR  HN ES   1    458 25.85                             120    0.37 6  212 293 
                                                                                
