 2015 1216 0011 32.4 L   6.795 -73.189140.1  RSN  4 0.2 1.9LRSN                1
 GAP=143        0.49       3.0     2.9  4.3 -0.2735E+01  0.2647E+01 -0.9769E+00E
 Epicentro: ZAPATOCA - SANTANDER                                               3
 ACTION:UPD 16-02-04 15:05 OP:cam  STATUS:               ID:20151216001132 L   I
 OLDACT:UP  16-01-25 20:58 OP:nlst STATUS:               ID:20151216001132 L   3
 OLDACT:UP  15-12-16 13:59 OP:cara STATUS:               ID:20151216000006d    3
 OLDACT:UP  15-12-16 13:52 OP:cara STATUS:               ID:20151216000006d    3
 OLDACT:DUP 15-12-16 13:45 OP:cara STATUS:               ID:20151216000006d    3
 OLDACT:UP  15-12-16 13:40 OP:cara STATUS:               ID:20151216000005     3
 OLDACT:REG 15-12-16 12:37 OP:cara STATUS:               ID:20151216000005     3
 2015-12-16-0000-05M.COL___334                                                 6
 STAT SP IPHASW D HRMM SECON CODA AMPLIT PERI AZIMU VELO AIN AR TRES W  DIS CAZ7
 BAR2 EZ IP        011 51.39                             170    0.0710 22.4 178 
 BAR2 EZ ES        012  5.79                             170   -0.2910 22.4 178 
 BAR2 EZ I         012  7.49        37.0 0.14            170           22.4 178 
 PAM  EZ EP        011 54.30                             149    0.0710 80.9  42 
 PAM  EN ES        012 11.33                             149    0.0710 80.9  42 
 RUS  HZ EP        011 55.48                             143   -0.1010  100 173 
 RUS  HN ES        012 13.85                             143    0.1810  100 173 
 RUS  HZ I         012 14.65         8.5 0.52            143            100 173 
 PTB  HZ EP   1    011 58.17                             132   -0.29 7  143 259 
 PTB  HN ES        012 18.97                             132    0.18 9  143 259 
                                                                                
