 2012  816 0406 22.6 L   6.756 -73.141148.0  RSN  8 0.3 1.8LRSN                1
 GAP=183        0.64       4.2     5.6  7.6  0.9057E+01 -0.4271E+01 -0.3764E+01E
 Epicentro: LOS SANTOS - SANTANDER                                             3
 ACTION:UPD 12-09-10 11:56 OP:ep   STATUS:               ID:20120816040622 L   I
 2012-08-16-0400-00M.COL___217                                                 6
 STAT SP IPHASW D HRMM SECON CODA AMPLIT PERI AZIMU VELO AIN AR TRES W  DIS CAZ7
 BAR2 SZ EP   1    4 6 42.08                             173   -0.32 7 18.6 194 
 BAR2 SZ I         4 7  0.10        10.8 0.08                          18.6 194 
 GIR2 SZ EP   1    4 6 42.53                             166   -0.13 7 36.2 351 
 BRR  HZ EP   1    4 6 44.08                             152   -0.06 7 74.1 302 
 BRR  HZ I         4 6 45.58        15.3 0.08                          74.1 302 
 BRR  HN ES   1    4 7  1.51                             152    0.56 7 74.1 302 
 RUS  HZ EP   1    4 6 45.98                             146   -0.23 7 95.7 176 
 RUS  HN ES        4 7  4.79                             146    0.1510 95.7 176 
 RUS  HZ I         4 7  6.22         2.2 0.15                          95.7 176 
 PTB  HN ES   1    4 7 10.39                             133   -0.46 7  147 261 
 OCA  HN ES   2    4 7 14.15                             130    0.04 5  165 353 
 OCA  HZ I         4 7 18.06        11.8 0.33                           165 353 
 ZAR  HN ES   2    4 7 21.11                             123    0.08 4  206 293 
 PRA  HZ EP   1    4 7 16.48                             107    0.77 4  388 210 
 PRA  HZ I         4 8  3.84         3.2 0.61                           388 210 
                                                                                
