 2010  216 0541 56.2 L   6.797 -73.011139.2  RSN  8 0.4 1.8LRSN                1
 GAP=150        0.54       6.2     8.9  6.1 -0.4361E+02 -0.1325E+02  0.1111E+02E
 Epicentro: CEPITA - SANTANDER                                                 3
 ACTION:UP  10-08-24 09:49 OP:vdl  STATUS:               ID:20100216054156 L   I
 2010-02-16-0538-57S.COL___094                                                 6
 STAT SP IPHASW D HRMM SECON CODA AMPLIT PERI AZIMU VELO SNR AR TRES W  DIS CAZ7
 BAR2 SZ IP        542 15.31                             167     0.110   30 220 
 BAR2 SZ ES   2    542 30.10                             167     0.1 5   30 220 
 GIR2 SZ EP   2    542 15.22                             163    -0.1 5   37 327 
 OCA  SZ ES   3    542 44.96                             127    -1.2 2  163 348 
 OCA  SZ I         542 50.94        12.8 0.25                           163 348 
 CHI  HZ EP        542 33.87                             115    -0.1 8  253 198 
 CHI  HE ES   2    543  2.99                             115    -0.5 4  253 198 
 CHI  HZ I         543 10.21         2.5 0.55                           253 198 
 ROSC BZ EP   2    542 34.83                             114     0.0 4  260 214 
 ROSC BE ES   2    543  4.47                             114    -0.5 4  260 214 
 ROSC BZ I         543  9.24         3.3 0.83                           260 214 
 RREF BZ EP        542 43.88                             109     0.5 7  333 231 
 RREF BN ES   3    543 20.74                             109     0.6 2  333 231 
 RREF BZ I         543 27.85         2.5 0.23                           333 231 
 SDV  BZ EP        542 44.69                             108     0.0 6  349  49 
 PRA  HZ EP   2    542 49.70                             105    -0.7 3  399 211 
 PRA  HE ES   2    543 32.46                             105    -0.1 3  399 211 
 PRA  HZ I         543 35.94         3.6 0.86                           399 211 
                                                                                
