 2016 1116 0410 46.1 L   6.804 -73.121149.7  RSN  6 0.2 1.8LRSN                1
 GAP=158        0.47       3.3     2.5  3.8 -0.2304E+01  0.2784E+01  0.1478E+01E
 Epicentro: LOS SANTOS - SANTANDER                                             3
 ACTION:UPD 17-10-26 21:08 OP:lp   STATUS:               ID:20161116041046 L   I
 OLDACT:DUP 16-11-16 15:15 OP:e    STATUS:               ID:20161116040743d    3
 2016-11-16-0408-00M.COL___335                                                 6
 STAT SP IPHASW D HRMM SECON CODA AMPLIT PERI AZIMU VELO AIN AR TRES W  DIS CAZ7
 BAR2 EZ EP        411  6.08                             170   -0.1910 24.4 196 
 BAR2 EZ ES        411 22.01                             170    0.0510 24.4 196 
 BAR2 EZ I         411 23.34        10.9 0.22            162           24.4 196 
 BRR  HZ EP        411  7.83                             152   -0.0110 73.4 297 
 BRR  HN ES        411 24.90                             152    0.1410 73.4 297 
 BRR  HZ I         411 28.02        12.5 0.28            143           73.4 297 
 PAM  EZ EP     D  411  8.98                             152    0.3210 75.4  38 
 PAM  EN ES        411 26.03                             152   -0.2010 75.4  38 
 PAM  EZ I         411 28.17        12.6 0.54            147           75.4  38 
 PTB  HZ EP        411 13.56                             132   -0.12 9  150 259 
 PTB  HZ I         411 40.96         6.9 0.46            120            150 259 
 ZAR  HZ EP   4    411 21.54                             123    2.46 0  206 292 
 ZAR  HN ES        411 44.70                             123   -0.08 8  206 292 
 ZAR  HZ I         411 50.05         5.7 0.35            113            206 292 
 NOR  HE ES        411 50.68                             119    0.07 8  237 235 
 NOR  HZ I         411 57.84         2.6 0.18            109            237 235 
                                                                                
