 2016  616 0121 14.7 L   6.778 -73.160151.8  RSN  6 0.4 1.5LRSN                1
 GAP=246        1.04       6.4     7.5 12.4 -0.7767E+01 -0.1222E+02  0.1630E+02E
 Epicentro: LOS SANTOS - SANTANDER                                             3
 ACTION:UPD 16-07-21 22:19 OP:rebc STATUS:               ID:20160616012114 L   I
 OLDACT:UP  16-06-16 14:20 OP:dani STATUS:               ID:20160616011747     3
 OLDACT:UP  16-06-16 14:20 OP:dani STATUS:               ID:20160616011747     3
 OLDACT:UP  16-06-16 14:20 OP:dani STATUS:               ID:20160616011747     3
 OLDACT:UP  16-06-16 14:19 OP:dani STATUS:               ID:20160616011747     3
 OLDACT:UP  16-06-16 14:19 OP:dani STATUS:               ID:20160616011747     3
 OLDACT:REG 16-06-16 12:24 OP:dani STATUS:               ID:20160616011747     3
 2016-06-16-0117-47M.COL___340                                                 6
 STAT SP IPHASW D HRMM SECON CODA AMPLIT PERI AZIMU VELO AIN AR TRES W  DIS CAZ7
 BAR2 EZ EP        121 34.79                             172   -0.1710 20.7 187 
 BAR2 EZ I         121 50.85         5.1 0.42                          20.7 187 
 BRR  HZ EP        121 36.74                             154    0.2910 71.0 301 
 BRR  HE ES        121 53.61                             154    0.1610 71.0 301 
 BRR  HZ I         121 54.34         5.6 0.14                          71.0 301 
 RUS  HZ EP   4    121 46.84                             146    7.99 0 98.3 175 
 PTB  HZ EP        121 41.56                             134   -0.38 9  146 260 
 PTB  HN ES        122  2.37                             134   -0.86 9  146 260 
 PTB  HZ I         122  8.13         2.7 0.50                           146 260 
 SPBC HN ES        122  6.05                             131    0.30 9  160 219 
 SPBC HZ I         122  8.29         4.5 0.18                           160 219 
 ZAR  HE ES        122 13.38                             124    0.36 9  204 293 
 ZAR  HZ I         122 21.59         5.6 0.46                           204 293 
 NOR  HE ES        122 18.83                             120    0.44 8  232 235 
                                                                                
