 2017  816 0727 54.0 L   6.787 -73.116144.6  RSN  7 0.3 1.3LRSN                1
 GAP=122        0.66       2.9     3.3  4.8  0.1210E+00  0.8991E+00  0.1027E+01E
 Epicentro: LOS SANTOS - SANTANDER                                             3
 ACTION:UPD 17-09-04 20:20 OP:rebc STATUS:               ID:20170816072754 L   I
 OLDACT:UP  17-08-16 16:20 OP:y    STATUS:               ID:20170816071742d    3
 OLDACT:UP  17-08-16 15:15 OP:mg   STATUS:               ID:20170816071742d    3
 OLDACT:UP  17-08-16 15:15 OP:mg   STATUS:               ID:20170816071742d    3
 OLDACT:UP  17-08-16 15:14 OP:mg   STATUS:               ID:20170816071742d    3
 OLDACT:UP  17-08-16 15:14 OP:mg   STATUS:               ID:20170816071742d    3
 OLDACT:UP  17-08-16 15:13 OP:mg   STATUS:               ID:20170816071742d    3
 OLDACT:UP  17-08-16 15:13 OP:mg   STATUS:               ID:20170816071742d    3
 OLDACT:UP  17-08-16 15:13 OP:mg   STATUS:               ID:20170816071742d    3
 OLDACT:UP  17-08-16 15:12 OP:mg   STATUS:               ID:20170816071742d    3
 OLDACT:UP  17-08-16 15:11 OP:mg   STATUS:               ID:20170816071742d    3
 OLDACT:DUP 17-08-16 14:59 OP:mg   STATUS:               ID:20170816071742d    3
 OLDACT:UP  17-08-16 14:58 OP:mg   STATUS:               ID:20170816071741d    3
 OLDACT:UP  17-08-16 14:58 OP:mg   STATUS:               ID:20170816071741d    3
 OLDACT:UP  17-08-16 14:57 OP:mg   STATUS:               ID:20170816071741d    3
 OLDACT:DUP 17-08-16 14:47 OP:mg   STATUS:               ID:20170816071741d    3
 2017-08-16-0718-00M.COL___413                                                 6
 STAT SP IPHASW D HRMM SECON CODA AMPLIT PERI AZIMU VELO AIN AR TRES W  DIS CAZ7
 BAR2 EZ EP        728 13.40                             171   -0.0310 22.7 199 
 BAR2 HN ES        728 28.27                             171   -0.3610 22.7 199 
 BRR  HZ EP        728 15.17                             151   -0.0110 74.7 298 
 BRR  HN ES        728 32.01                             151    0.2710 74.7 298 
 BRR  HZ I         728 35.86         5.3 0.14            144           74.7 298 
 PAM  HZ IP     C  728 16.30                             151    0.3010 76.5  37 
 PAM  HN ES        728 33.03                             151   -0.1610 76.5  37 
 RUS  HZ EP   3    728 18.67                             144    1.20 2 98.9 178 
 RUS  HN ES        728 36.11                             144    0.2910 98.9 178 
 RUS  HZ I         728 37.52         2.1 0.40            144           98.9 178 
 SPBC HZ EP   4    728 25.97                             129    3.52 0  164 220 
 SPBC HE ES        728 44.63                             129   -0.05 9  164 220 
 SPBC HZ I         728 47.54         1.5 0.09            126            164 220 
 ZAR  HZ EP   4    728 28.82                             122    2.13 0  208 292 
 ZAR  HN ES        728 52.06                             122   -0.17 8  208 292 
 ZAR  HZ I         729  4.56         3.1 0.06            118            208 292 
 PTGC HZ EP        728 37.04                             112   -0.43 7  306 159 
                                                                                
