 2010  816 0301 55.2 L   6.804 -73.057142.0  RSN 12 0.5 2.1LRSN                1
 GAP=169        1.07       3.6     7.3  7.1 -0.7059E+01 -0.4256E+00  0.1122E+01E
 Epicentro: LOS SANTOS - SANTANDER                                             3
 ACTION:UP  10-09-07 10:55 OP:vdl  STATUS:               ID:20100816030155 L   I
 2010-08-16-0257-14S.COL___111                                                 6
 STAT SP IPHASW D HRMM SECON CODA AMPLIT PERI AZIMU VELO SNR AR TRES W  DIS CAZ7
 BAR2 SZ EP        3 2 14.47                             169     0.010   27 211 
 BAR2 SZ ES   1    3 2 29.24                             169    -0.2 7   27 211 
 BAR2 SZ I         3 2 30.89        61.2 0.29                            27 211 
 GIR2 SZ EP   2    3 2 14.36                             166    -0.1 5   34 334 
 BRR  HZ EP        3 2 16.33                             150    -0.110   80 295 
 BRR  HN ES        3 2 33.46                             150     0.510   80 295 
 BRR  HZ I         3 2 35.72        31.8 0.28                            80 295 
 RUS  HZ EP        3 2 18.42                             143    -0.110  101 182 
 RUS  HN ES        3 2 36.88                             143     0.110  101 182 
 RUS  HZ I         3 2 38.16        21.1 0.14                           101 182 
 GUE  SZ EP        3 2 19.49                             139     0.110  114   7 
 GUE  SZ I         3 2 42.31         5.2 0.38                           114   7 
 GRA  SZ EP        3 2 20.26                             137     0.410  123  13 
 GRA  SZ ES   1    3 2 39.12                             137     0.1 7  123  13 
 GRA  SZ I         3 2 41.28        15.9 0.27                           123  13 
 OCA  SZ EP        3 2 22.94                             129    -0.3 9  161 350 
 OCA  SZ ES   1    3 2 44.20                             129    -1.0 7  161 350 
 OCA  SZ I         3 2 48.05        18.2 0.51                           161 350 
 CHI  HZ EP   1    3 2 32.49                             116    -0.5 6  252 197 
 CHI  HN ES   1    3 3  2.36                             116    -0.2 6  252 197 
 CHI  HZ I         3 3  6.11         6.4 0.77                           252 197 
 ROSC BZ EP   1    3 2 34.25                             116     0.6 6  258 213 
 ROSC BZ I         3 3 10.47        12.3 0.68                           258 213 
 HEL  HN ES   2    3 3  8.83                             113     0.5 4  282 256 
 HEL  HZ I         3 3 13.79         6.7 0.26                           282 256 
 RREF HZ EP   1    3 2 43.02                             110     1.0 5  330 230 
 RREF HN ES   1    3 3 17.55                             110    -1.0 5  330 230 
 RREF HZ I         3 3 21.99         7.0 0.55                           330 230 
 PRA  HN ES   2    3 3 30.74                             106    -0.6 3  397 211 
 PRA  HZ I         3 3 37.00         7.2 0.32                           397 211 
                                                                                
