 2010 1016 0401 15.0 L   6.822 -73.063146.8  RSN 17 0.5 2.5LRSN                1
 GAP=107        1.08       4.0     6.5  6.9 -0.9208E+01 -0.1593E+01  0.2439E+01E
 Epicentro: LOS SANTOS - SANTANDER                                             3
 ACTION:UP  11-02-18 11:10 OP:tino STATUS:               ID:20101016040115 L   I
 2010-10-16-0358-15S.COL___125                                                 6
 STAT SP IPHASW D HRMM SECON CODA AMPLIT PERI AZIMU VELO SNR AR TRES W  DIS CAZ7
 BTL  SZ EP   1    4 1 35.13                             170     0.4 7   25 295 
 BAR2 SZ IP        4 1 34.88                             168     0.010   29 208 
 BAR2 SZ ES   1    4 1 49.85                             168    -0.5 7   29 208 
 BAR2 SZ I         4 1 51.41        70.1 0.29                            29 208 
 GIR2 SZ EP        4 1 34.95                             167     0.210   32 333 
 BRR  HZ IP     D  4 1 36.66                             150     0.010   78 294 
 BRR  HE ES   1    4 1 54.45                             150     0.9 7   78 294 
 BRR  HZ I         4 1 58.36        75.9 0.15                            78 294 
 RUS  HZ EP   1    4 1 38.76                             143    -0.2 7  103 181 
 RUS  HE ES   1    4 1 57.38                             143    -0.4 7  103 181 
 RUS  HZ I         4 1 58.60        32.5 0.42                           103 181 
 GUE  SZ EP        4 1 38.82                             141    -0.710  112   8 
 GUE  SZ I         4 1 40.26        19.0 0.07                           112   8 
 GRA  SZ IP        4 1 40.46                             138     0.510  121  14 
 GRA  SZ ES   1    4 1 59.20                             138    -0.2 7  121  14 
 OCA  SZ EP        4 1 43.08                             130    -0.2 9  159 350 
 OCA  SZ I         4 2  9.50        87.5 0.06                           159 350 
 YOP  SZ EP        4 1 45.36                             127     0.4 9  177 156 
 NOR  SZ EP   2    4 1 50.97                             118    -0.8 4  244 235 
 NOR  SN ES   1    4 2 19.56                             118    -0.9 6  244 235 
 CHI  HZ EP   1    4 1 52.92                             117    -0.4 6  254 197 
 CHI  HN ES   1    4 2 23.90                             117     0.8 6  254 197 
 CHI  HZ I         4 2 27.44        11.2 0.26                           254 197 
 ROSC BZ EP   2    4 1 54.70                             116     0.8 4  260 212 
 ROSC BZ I         4 2 31.13        22.2 0.29                           260 212 
 HEL  HZ EP   1    4 1 56.53                             114     0.2 6  282 256 
 HEL  HZ I         4 2 34.82        16.6 0.43                           282 256 
 DBB  SZ EP   1    4 2  3.38                             109    -0.2 5  348 274 
 DBB  SZ I         4 2 44.15         3.5 0.59                           348 274 
 SDV  BZ I         4 2  4.66        11.0 0.31                           352  50 
 TOL  SZ EP   1    4 2  4.82                             109     0.6 5  352 225 
 SDV  BZ IP     C  4 2  4.00                             109    -0.1 6  352  50 
 PRA  HZ EP   1    4 2  8.62                             106    -0.7 4  399 211 
 PRA  HZ I         4 2 10.77        44.2 0.19                           399 211 
 PRA  HE ES   1    4 2 51.69                             106     0.0 4  399 211 
                                                                                
