 2011 1116 0151 28.1 L   6.765 -73.150147.4  RSN  5 0.3 1.4LRSN                1
 GAP=138        0.58       6.5     8.4  7.0  0.3695E+02 -0.1361E+02 -0.1154E+02E
 Epicentro: LOS SANTOS - SANTANDER                                             3
 ACTION:UPD 12-07-13 16:10 OP:ep   STATUS:               ID:20111116015128 L   I
 2011-11-16-0149-55S.COL___179                                                 6
 STAT SP IPHASW D HRMM SECON CODA AMPLIT PERI AZIMU VELO AIN AR TRES W  DIS CAZ7
 BAR2 SZ EP   1    151 47.78                             172   -0.06 7 19.4 191 
 BAR2 SZ ES   1    152  2.88                             172   -0.36 7 19.4 191 
 BAR2 SZ I         152  4.26         8.6 0.23                          19.4 191 
 BRR  HZ EP   1    151 49.85                             152    0.36 7 72.7 301 
 BRR  HZ I         151 53.36         7.1 0.38                          72.7 301 
 BRR  HE ES   1    152  6.48                             152    0.29 7 72.7 301 
 PAM  SZ EP   2    151 50.41                             150   -0.26 5 80.7  38 
 PAM  SZ I         151 50.87         3.0 0.22                          80.7  38 
 RUS  HZ EP   1    151 51.73                             145    0.01 7 96.8 176 
 RUS  HE ES   1    152 10.28                             145    0.12 7 96.8 176 
 RUS  HZ I         152 11.33         3.4 0.42                          96.8 176 
 ZAR  HN ES   2    152 25.47                             122   -0.74 4  205 293 
                                                                                
