 2017 1016 0057 27.1 L   6.770 -73.125155.9  RSN  5 0.2 1.1LRSN                1
 GAP=237        0.60       5.0     4.6  5.4  0.1244E+02  0.4447E+01 -0.3501E+01E
 Epicentro: LOS SANTOS - SANTANDER                                             3
 ACTION:UPD 17-11-07 19:32 OP:rebc STATUS:               ID:20171016005727 L   I
 OLDACT:UP  17-10-16 14:05 OP:dani STATUS:               ID:20171016004659d    3
 OLDACT:DUP 17-10-16 14:01 OP:dani STATUS:               ID:20171016004659d    3
 2017-10-16-0048-00M.COL___435                                                 6
 STAT SP IPHASW D HRMM SECON CODA AMPLIT PERI AZIMU VELO AIN AR TRES W  DIS CAZ7
 BAR2 EZ EP        057 47.80                             172   -0.1510 20.7 198 
 BAR2 EZ ES        058  3.96                             172   -0.2210 20.7 198 
 BRR  HZ EP        057 49.90                             153    0.3110 74.8 300 
 BRR  HN ES        058  7.33                             153    0.2310 74.8 300 
 BRR  HZ I         058 11.84         2.5 0.41            153           74.8 300 
 RUS  HE ES        058 10.84                             147    0.0310 97.2 177 
 PTB  HZ EP        057 55.05                             134   -0.05 9  149 260 
 PTB  HN ES        058 17.06                             134    0.16 9  149 260 
 PTB  HZ I         058 18.18         1.2 0.14            136            149 260 
 ZAR  HE ES        058 26.30                             124   -0.41 8  207 293 
                                                                                
