 2013  716 0835 50.2 L   6.697 -73.161144.1  RSN  4 0.2 1.6LRSN                1
 GAP=196        0.47      10.3     5.5  9.6 -0.2895E+02 -0.2765E+02  0.5553E+02E
 Epicentro: VILLANUEVA - SANTANDER                                             3
 ACTION:UPD 13-08-12 10:38 OP:ep   STATUS:               ID:20130716083551dL   I
 OLDACT:UP  13-07-16 11:27 OP:mh   STATUS:               ID:20130716083000     3
 OLDACT:REG 13-07-16 08:07 OP:mh   STATUS:               ID:20130716083000     3
 2013-07-16-0830-00M.COL___263                                                 6
 STAT SP IPHASW D HRMM SECON CODA AMPLIT PERI AZIMU VELO AIN AR TRES W  DIS CAZ7
 BAR2 SZ EP   1    836  9.58                             175    0.18 7 11.8 191 
 BAR2 SZ I         836 25.88         4.6 0.16            114           11.8 191 
 GIR2 SZ EP        836  9.73                             163   -0.2510 42.4 355 
 BRR  HZ EP        836 11.51                             151    0.1210 75.9 307 
 BRR  HN ES   1    836 28.09                             151    0.13 7 75.9 307 
 BRR  HN I         836 32.03        10.2 0.18            125           75.9 307 
 PTB  HZ EP   1    836 16.77                             132    0.11 7  144 263 
 PTB  HN ES   1    836 37.14                             132   -0.20 7  144 263 
 PTB  HN I         836 42.19         6.5 0.26            116            144 263 
                                                                                
