 2011  116 0308 12.7 L   6.050 -73.815100.0  RSN  4 0.2 1.4LRSN                1
 GAP=176        0.43       4.4     4.3  8.9 -0.1007E+02  0.2533E+02 -0.5022E+00E
 Epicentro: EL PEON - SANTANDER                                                3
 ACTION:UP  11-02-08 08:40 OP:pat  STATUS:               ID:20110116030812 L   I
 2011-01-16-0305-16S.COL___136                                                 6
 STAT SP IPHASW D HRMM SECON CODA AMPLIT PERI AZIMU VELO SNR AR TRES W  DIS CAZ7
 RUS  HZ EP   1    3 8 30.68                             138     0.0 7   83 102 
 RUS  HN ES   1    3 8 44.76                             138     0.0 7   83 102 
 RUS  HZ I         3 8 46.16         4.1 0.11                            83 102 
 BAR2 SZ EP   1    3 8 30.90                             134    -0.2 7   92  49 
 BAR2 SZ ES   1    3 8 45.74                             134     0.2 7   92  49 
 BAR2 SZ I         3 8 47.04         9.8 0.18                            92  49 
 CHI  HZ EP   2    3 8 38.05                             118     0.2 5  157 177 
 CHI  HZ I         3 9  6.12         1.7 0.65                           157 177 
 RREF HZ EP   1    3 8 44.50                             110     0.2 6  212 233 
 RREF HN ES   1    3 9  8.90                             110    -0.1 6  212 233 
 RREF HZ I         3 9 13.62         4.2 0.24                           212 233 
                                                                                
