 2013  616 0712 35.3 L   6.827 -73.099151.5  RSN  8 0.3 1.7LRSN                1
 GAP=200        0.77       3.3     4.9  5.3  0.1357E+01  0.4725E+01 -0.3668E+01E
 Epicentro: LOS SANTOS - SANTANDER                                             3
 ACTION:UPD 14-01-08 09:55 OP:ep   STATUS:               ID:20130616071235 L   I
 OLDACT:REG 13-06-16 07:41 OP:cam  STATUS:               ID:20130616070959     3
 2013-06-16-0709-59M.COL___261                                                 6
 STAT SP IPHASW D HRMM SECON CODA AMPLIT PERI AZIMU VELO AIN AR TRES W  DIS CAZ7
 BAR2 SZ EP        712 55.73                             169   -0.0310 27.5 200 
 BAR2 SZ ES        713 11.64                             169   -0.0410 27.5 200 
 BAR2 SZ I         713 12.44        10.7 0.30            166           27.5 200 
 GIR2 SZ EP        712 55.80                             168    0.1310 29.8 339 
 BRR  HZ EP        712 57.54                             152    0.2310 74.5 295 
 BRR  HN ES        713 14.67                             152    0.2410 74.5 295 
 BRR  HZ I         713 17.71        11.2 0.30            148           74.5 295 
 RUS  HZ EP   1    713  0.30                             144    0.44 7  103 179 
 RUS  HZ I         713  0.44         3.9 0.10            145            103 179 
 RUS  HN ES        713 18.66                             144   -0.3210  103 179 
 PTB  HZ EP        713  2.50                             132   -0.80 9  153 258 
 PTB  HN ES   1    713 25.33                             132    0.23 7  153 258 
 PTB  HZ I         713 30.65         6.0 0.40            130            153 258 
 NOR  HZ EP   1    713 12.10                             119    0.05 6  241 235 
 NOR  HN ES        713 40.89                             119    0.22 8  241 235 
 NOR  HZ I         713 45.25         4.2 0.16            118            241 235 
 SML  HZ EP        713 12.53                             119    0.27 8  243 334 
 SML  HN ES        713 40.67                             119   -0.38 8  243 334 
 SML  HZ I         713 44.75         7.3 0.24            119            243 334 
 PRA  HZ EP   2    713 29.74                             107    0.07 3  397 210 
                                                                                
