 2011  316 0805 21.4 L   6.825 -73.117147.0  RSN  4 0.4 1.4LRSN                1
 GAP=161        0.94       7.3    34.5 10.7 -0.1702E+03 -0.2147E+02 -0.8128E+01E
 Epicentro: LOS SANTOS - SANTANDER                                             3
 ACTION:UP  11-06-16 14:34 OP:jfem STATUS:               ID:20110316080521 L   I
 2011-03-16-0802-53S.COL___138                                                 6
 STAT SP IPHASW D HRMM SECON CODA AMPLIT PERI AZIMU VELO SNR AR TRES W  DIS CAZ7
 BTL  SZ EP   1    8 5 41.36                             172     0.2 8   20 302 
 BAR2 SZ EP   1    8 5 41.16                             169    -0.1 8   27 196 
 BAR2 SZ ES   1    8 5 56.60                             169    -0.2 8   27 196 
 BAR2 SZ I         8 5 58.76         4.6 0.27                            27 196 
 RUS  HZ EP        8 5 45.90                             143     0.410  103 178 
 RUS  HN ES   1    8 6  3.95                             143    -0.3 7  103 178 
 RUS  HZ I         8 6  4.00         3.7 0.71                           103 178 
 GRA  SZ EP        8 5 46.01                             138    -0.510  122  16 
 GRA  SZ ES   1    8 6  6.52                             138     0.5 7  122  16 
 GRA  SZ I         8 6  7.87         5.0 0.24                           122  16 
                                                                                
