 2011  516 0728 49.8 L   6.766 -73.089141.5  RSN  7 0.3 2.5LRSN                1
 GAP=145        0.78       3.6     6.8  5.9 -0.7056E+01 -0.6372E+00 -0.2557E+01E
 Epicentro: LOS SANTOS - SANTANDER                                             3
 ACTION:UP  11-06-29 08:53 OP:tino STATUS:               ID:20110516072849 L   I
 2011-05-16-0725-32S.COL___139                                                 6
 STAT SP IPHASW D HRMM SECON CODA AMPLIT PERI AZIMU VELO SNR AR TRES W  DIS CAZ7
 BAR2 SZ IP        729  8.96                             171     0.110   22 208 
 BAR2 SZ I         729  9.13        84.8 0.20                            22 208 
 BAR2 SZ ES   1    729 23.67                             171    -0.1 7   22 208 
 PAM  SZ EP        729 11.89                             150     0.410   77  34 
 PAM  SN ES   1    729 28.37                             150    -0.1 7   77  34 
 BRR  HZ IP     C  729 10.81                             149    -0.110   79 299 
 BRR  HN ES   1    729 27.74                             149     0.4 7   79 299 
 BRR  HZ I         729 28.51        82.8 0.12                            79 299 
 RUS  HZ EP        729 12.90                             144     0.110   97 180 
 RUS  HN ES   1    729 30.38                             144    -0.4 7   97 180 
 RUS  HZ I         729 32.71        37.9 0.35                            97 180 
 BRI  SZ EP        729 13.51                             140     0.110  110  17 
 BRI  SZ ES   1    729 31.62                             140    -0.2 7  110  17 
 GRA  SZ EP        729 14.94                             136     0.110  128  14 
 GRA  SZ ES   1    729 34.13                             136    -0.2 7  128  14 
 GRA  SZ I         729 37.17        54.4 0.38                           128  14 
 OCA  SZ EP        729 17.57                             128    -0.6 9  165 351 
 OCA  SZ I         729 44.67        35.1 0.19                           165 351 
                                                                                
