 2015 1016 0252 56.0 L   6.790 -73.084148.0  RSN  5 0.2 1.5LRSN                1
 GAP=243        0.59       3.7     5.4  5.2  0.3987E+01  0.4350E+00  0.2003E+01E
 Epicentro: LOS SANTOS - SANTANDER                                             3
 ACTION:UPD 15-12-22 20:40 OP:cam  STATUS:               ID:20151016025255 L   I
 OLDACT:UP  15-11-03 22:03 OP:nlst STATUS:               ID:20151016025255 L   3
 OLDACT:UP  15-10-16 15:31 OP:stll STATUS:               ID:20151016024747     3
 OLDACT:REG 15-10-16 12:31 OP:stll STATUS:               ID:20151016024747     3
 2015-10-16-0247-47M.COL___339                                                 6
 STAT SP IPHASW D HRMM SECON CODA AMPLIT PERI AZIMU VELO AIN AR TRES W  DIS CAZ7
 BAR2 EZ EP        253 15.71                             170   -0.2610 24.5 207 
 BAR2 EZ I         253 33.57         4.0 0.20            172           24.5 207 
 BRR  HZ EP        253 17.81                             151   -0.0110 77.8 297 
 BRR  HN ES        253 34.93                             151    0.1310 77.8 297 
 RUS  HZ EP        253 19.92                             145   -0.0110 99.3 180 
 RUS  HN ES        253 38.81                             145    0.2610 99.3 180 
 RUS  HZ I         253 41.17         2.8 0.42            145           99.3 180 
 SPBC HZ EP        253 24.87                             129   -0.19 9  167 221 
 SPBC HN ES        253 47.44                             129   -0.25 9  167 221 
 SPBC HZ I         253 53.43         7.9 0.20            131            167 221 
 GUY2CHZ EP        253 40.81                             112    0.48 7  306 236 
 GUY2CHN ES   4    254 17.17                             112    2.31 0  306 236 
 GUY2CHZ I         254 21.06         1.4 0.28                           306 236 
                                                                                
