 2011  716 0308 51.2 L   6.774 -73.035131.4  RSN  4 0.3 1.1LRSN                1
 GAP=171        0.55       4.2     6.9  6.8 -0.6437E+01 -0.1667E+02  0.1281E+01E
 Epicentro: CEPITA - SANTANDER                                                 3
 ACTION:UPD 12-07-25 14:01 OP:epov STATUS:               ID:20110716030851 L   I
 2011-07-16-0306-12S.COL___132                                                 6
 STAT SP IPHASW D HRMM SECON CODA AMPLIT PERI AZIMU VELO AIN AR TRES W  DIS CAZ7
 BAR2 SZ ES   1    3 9 22.93                             168   -0.26 7 25.9 219 
 BAR2 SZ I         3 9 25.62         4.4 0.33                          25.9 219 
 BRR  HZ EP   1    3 9 11.31                             146   -0.31 7 83.4 296 
 BRR  HE ES   1    3 9 27.79                             146    0.25 7 83.4 296 
 BRR  HZ I         3 9 29.58         3.4 0.21                          83.4 296 
 RUS  HZ EP   1    3 9 13.67                             141    0.32 7 97.7 183 
 RUS  HZ I         3 9 14.45         1.0 0.15                          97.7 183 
 GRA  SZ EP   1    3 9 15.01                             134   -0.17 7  125  12 
 GRA  SZ I         3 9 16.06         2.0 0.31                           125  12 
 GRA  SZ ES   1    3 9 34.04                             134    0.17 7  125  12 
                                                                                
