 2010  216 0630 21.0 L   6.850 -73.465132.0  RSN  5 0.4 1.6LRSN                1
 GAP=161        0.71       4.6    23.7 12.2 -0.6039E+02  0.2324E+03 -0.1612E+02E
 Epicentro: SAN VICENTE DE CHUCURI - SANTANDER                                 3
 ACTION:UP  10-08-24 09:49 OP:vdl  STATUS:               ID:20100216063021 L   I
 2010-02-16-0627-26S.COL___094                                                 6
 STAT SP IPHASW D HRMM SECON CODA AMPLIT PERI AZIMU VELO SNR AR TRES W  DIS CAZ7
 GIR2 SZ EP        630 39.42                             162     0.210   39  50 
 GIR2 SZ ES   2    630 53.93                             162     0.4 5   39  50 
 BAR2 SZ EP        630 39.34                             161    -0.210   42 133 
 BAR2 SZ ES   2    630 54.12                             161     0.1 5   42 133 
 OCA  SZ EP        630 47.38                             127    -0.3 9  154   6 
 OCA  SZ ES   2    631  8.62                             127     0.1 5  154   6 
 OCA  SZ I         631 13.18         8.2 0.26                           154   6 
 CHI  HZ EP        630 57.72                             114    -0.1 8  247 187 
 CHI  HE ES   2    631 25.87                             114    -0.6 4  247 187 
 CHI  HZ I         631 30.57         1.7 0.38                           247 187 
 PRA  HZ EP        631 13.48                             105     0.8 6  381 205 
 PRA  HN ES   2    631 52.32                             105    -0.8 3  381 205 
 PRA  HZ I         632  2.02         1.7 0.63                           381 205 
                                                                                
