 2017  716 0324 15.5 L   6.861 -73.073144.4  RSN  4 0.3 0.8LRSN                1
 GAP=250        0.73       6.0     5.8  5.9  0.1793E+02  0.2627E+00 -0.1887E+01E
 Epicentro: LOS SANTOS - SANTANDER                                             3
 ACTION:UPD 17-08-30 15:33 OP:rebc STATUS:               ID:20170716032415 L   I
 OLDACT:REG 17-07-16 12:15 OP:dhb  STATUS:               ID:20170716031451     3
 2017-07-16-0318-00M.COL___383                                                 6
 STAT SP IPHASW D HRMM SECON CODA AMPLIT PERI AZIMU VELO AIN AR TRES W  DIS CAZ7
 BAR2 EZ EP        324 34.98                             167   -0.2310 32.1 202 
 BAR2 EZ ES        324 50.45                             167   -0.1110 32.1 202 
 BRR  HZ EP        324 37.00                             151    0.2110 75.7 291 
 BRR  HN ES        324 53.44                             151    0.0610 75.7 291 
 BRR  HZ I         324 56.29         2.4 0.24            132           75.7 291 
 RUS  HZ EP        324 40.07                             142    0.4410  107 181 
 RUS  HN ES        324 58.33                             142   -0.1010  107 181 
 RUS  HZ I         324 59.02         0.9 0.30            127            107 181 
 PTB  HZ EP        324 42.73                             130   -0.52 9  157 257 
 PTB  HZ I         325  4.08         0.4 0.22            114            157 257 
 PTB  HN ES        325  5.06                             130    0.20 9  157 257 
                                                                                
