 2010  616 0713 38.7 L   6.767 -73.080145.6  RSN  7 0.1 1.3LRSN                1
 GAP=164        0.37       2.6     4.8  3.3  0.2160E+01 -0.5384E+01 -0.2547E+01E
 Epicentro: LOS SANTOS - SANTANDER                                             3
 ACTION:UP  10-08-24 10:10 OP:vdl  STATUS:               ID:20100616071338 L   I
 2010-06-16-0711-06S.COL___114                                                 6
 STAT SP IPHASW D HRMM SECON CODA AMPLIT PERI AZIMU VELO SNR AR TRES W  DIS CAZ7
 BAR2 SZ EP   1    713 58.36                             171     0.0 7   23 211 
 BAR2 SZ ES   1    714 13.65                                     0.0 7   23 211 
 GIR2 SZ ES        714 13.93                             165    -0.110   37 340 
 BRR  HZ IP     C  714  0.21                             150    -0.110   79 298 
 BRR  HZ I         714  0.36         8.5 0.13                            79 298 
 BRR  HN ES   1    714 17.36                             150     0.2 7   79 298 
 RUS  HZ EP   2    714  2.45                             145     0.3 5   97 180 
 RUS  HN ES   1    714 20.41                             145    -0.1 7   97 180 
 RUS  HZ I         714 21.97         1.4 0.45                            97 180 
 BRI  SZ EP   1    714  2.90                             141     0.2 7  110  17 
 GUE  SZ EP   2    714  3.72                             139     0.1 5  119   8 
 GRA  SZ EP   1    714  3.93                             137    -0.2 7  127  14 
                                                                                
