 2011 1116 0943  8.0 L   6.851 -73.123141.8  RSN  9 0.4 2.0LRSN                1
 GAP=137        0.76       4.3     5.3  6.5 -0.3200E+01  0.8948E+01 -0.1574E+01E
 Epicentro: LOS SANTOS - SANTANDER                                             3
 ACTION:UPD 12-07-13 16:10 OP:ep   STATUS:               ID:20111116094308 L   I
 2011-11-16-0941-12S.COL___179                                                 6
 STAT SP IPHASW D HRMM SECON CODA AMPLIT PERI AZIMU VELO AIN AR TRES W  DIS CAZ7
 BAR2 SZ EP   1    943 27.30                             168   -0.04 7 29.3 193 
 BAR2 SZ ES   1    943 42.03                             168   -0.36 7 29.3 193 
 BAR2 SZ I         943 44.37        18.2 0.20                          29.3 193 
 BRR  HZ IP     D  943 28.86                             152    0.1010 71.0 294 
 BRR  HN ES   1    943 45.75                             152    0.84 7 71.0 294 
 BRR  HZ I         943 46.98        17.2 0.13                          71.0 294 
 PAM  SZ EP   1    943 29.83                             152    0.34 7 71.5  41 
 PAM  SZ I         943 30.12        24.5 0.18                          71.5  41 
 PAM  SN ES   1    943 45.87                             152   -0.35 7 71.5  41 
 RUS  HZ EP   1    943 31.75                             142   -0.07 7  106 178 
 RUS  HE ES   1    943 50.50                             142    0.14 7  106 178 
 RUS  HZ I         943 52.28         4.4 0.33                           106 178 
 OCA  SZ EP   1    943 35.15                             130   -0.41 7  155 352 
 ZAR  HZ EP   2    943 40.33                             121    0.06 4  204 290 
 ZAR  HN ES   2    944  4.78                             121   -0.62 4  204 290 
 ZAR  HZ I         944 10.73        16.5 0.43                           204 290 
 NOR  SE ES   1    944 11.66                             117   -0.60 6  240 234 
 RREF HZ EP   2    943 55.78                             110    1.13 3  327 229 
 RREF HZ I         944 38.80         4.9 0.31                           327 229 
 PRA  HZ EP   2    944  2.17                             106    0.02 3  398 209 
                                                                                
