 2011  516 0852  1.4 L   6.856 -73.103136.0  RSN  5 0.4 1.5LRSN                1
 GAP=157        0.96       8.8    11.7 13.0 -0.4384E+02 -0.2392E+02 -0.8345E+01E
 Epicentro: LOS SANTOS - SANTANDER                                             3
 ACTION:UP  11-06-29 08:53 OP:tino STATUS:               ID:20110516085201 L   I
 2011-05-16-0850-24S.COL___139                                                 6
 STAT SP IPHASW D HRMM SECON CODA AMPLIT PERI AZIMU VELO SNR AR TRES W  DIS CAZ7
 BAR2 SZ EP        852 19.56                             167    -0.410   30 197 
 BAR2 SZ ES   2    852 35.19                             167     0.7 5   30 197 
 PAM  SZ EP        852 22.36                             151     0.310   70  40 
 BRR  HZ EP        852 21.39                             150    -0.210   73 292 
 BRR  HZ I         852 21.67        10.0 0.19                            73 292 
 BRR  HN ES   2    852 37.66                             150     0.3 5   73 292 
 GRA  SZ EP        852 25.41                             136     0.310  118  16 
 GRA  SZ ES   1    852 43.06                             136    -0.6 7  118  16 
 GRA  SZ I         852 46.22         3.4 0.12                           118  16 
 OCA  SZ EP   2    852 29.14                             128     0.7 5  155 351 
                                                                                
