 2013  216 0423 38.3 L   6.774 -73.186143.8  RSN  5 0.5 1.7LRSN                1
 GAP=231        1.30       7.7     9.8  9.6  0.3551E+02  0.2236E+02  0.2540E+02E
 Epicentro: LOS SANTOS - SANTANDER                                             3
 ACTION:UPD 13-03-12 09:33 OP:ep   STATUS:               ID:20130216042338 L   I
 2013-02-16-0420-00M.COL___241                                                 6
 STAT SP IPHASW D HRMM SECON CODA AMPLIT PERI AZIMU VELO AIN AR TRES W  DIS CAZ7
 BAR2 SZ ES        424 12.31                             172   -0.3710 20.1 179 
 BAR2 SZ I         424 13.83        17.5 0.18            164           20.1 179 
 BRR  HZ EP        423 59.16                             153    0.0910 68.8 302 
 BRR  HN ES        424 16.21                             153    0.9210 68.8 302 
 BRR  HN I         424 16.40        18.8 0.22            150           68.8 302 
 RUS  HZ EP        424  1.71                             144    0.0610 98.1 173 
 RUS  HN ES        424 19.49                             144   -0.4010 98.1 173 
 RUS  HN I         424 20.96         6.7 0.22            141           98.1 173 
 PTB  HZ EP        424  4.00                             133   -0.63 9  143 260 
 PTB  HN ES        424 24.71                             133   -0.47 9  143 260 
 PTB  HN I         424 30.46         6.3 0.62            129            143 260 
 CHI  HZ EP        424 15.64                             117    0.21 8  245 194 
 CHI  HE ES        424 45.27                             117    0.85 8  245 194 
 CHI  HE I         424 51.41         2.1 0.54            116            245 194 
                                                                                
