 2017  816 0253 21.6 L   6.825 -73.091143.9  RSN  5 0.3 1.1LRSN                1
 GAP=142        0.57       3.4     5.5  5.6  0.2921E+01  0.3131E+01  0.2428E+00E
 Epicentro: LOS SANTOS - SANTANDER                                             3
 ACTION:UPD 17-09-04 20:20 OP:rebc STATUS:               ID:20170816025321 L   I
 OLDACT:UP  17-08-16 13:40 OP:and  STATUS:               ID:20170816024739     3
 OLDACT:REG 17-08-16 12:43 OP:and  STATUS:               ID:20170816024739     3
 2017-08-16-0248-00M.COL___413                                                 6
 STAT SP IPHASW D HRMM SECON CODA AMPLIT PERI AZIMU VELO AIN AR TRES W  DIS CAZ7
 BAR2 EZ ES        253 55.98                             168   -0.3310 27.6 201 
 BAR2 EZ I         253 58.99         3.2 0.16            164           27.6 201 
 PAM  EZ EP   2    253 43.84                             152    0.57 5 71.5  37 
 BRR  HZ EP        253 42.75                             151   -0.0410 75.3 295 
 BRR  HN ES        253 59.41                             151    0.1010 75.3 295 
 RUS  HZ EP   2    253 45.12                             142   -0.23 5  103 180 
 RUS  HN ES        254  4.06                             142    0.1810  103 180 
 RUS  HZ I         254  4.63         2.1 0.24            141            103 180 
 SPBC HZ EP   2    253 50.03                             127   -0.50 5  169 220 
 SPBC HN ES        254 13.22                             127    0.13 9  169 220 
 SPBC HZ I         254 18.04         1.7 0.06            126            169 220 
                                                                                
