 2010  316 0705 10.0 L   6.778 -73.090150.9  RSN  8 0.4 1.9LRSN                1
 GAP=188        0.66       5.1     9.8  6.9  0.1845E+02  0.3974E+01  0.5178E+01E
 Epicentro: LOS SANTOS - SANTANDER                                             3
 ACTION:UP  10-08-24 09:54 OP:vdl  STATUS:               ID:20100316070510 L   I
 2010-03-16-0701-55S.COL___095                                                 6
 STAT SP IPHASW D HRMM SECON CODA AMPLIT PERI AZIMU VELO SNR AR TRES W  DIS CAZ7
 BAR2 SZ EP   1    7 5 30.13                             171    -0.1 7   23 207 
 BAR2 SZ ES   2    7 5 45.10                             171    -1.0 5   23 207 
 BRR  HZ IP        7 5 32.01                             151    -0.110   78 298 
 BRR  HZ I         7 5 32.28        31.2 0.10                            78 298 
 BRR  HE ES   1    7 5 49.56                             151     0.2 7   78 298 
 RUS  HZ EP   1    7 5 34.15                             146     0.1 7   98 180 
 RUS  HE ES   2    7 5 53.50                             146     0.6 5   98 180 
 RUS  HZ I         7 5 54.00         5.3 0.22                            98 180 
 OCA  SZ EP   2    7 5 38.92                             130    -0.1 5  164 351 
 OCA  SZ ES   2    7 6  2.28                             130     0.6 5  164 351 
 CHI  HZ EP   2    7 5 48.28                             118     0.3 4  248 197 
 CHI  HZ I         7 6 22.94         2.6 0.54                           248 197 
 HEL  HZ EP   2    7 5 50.95                             115    -0.2 4  277 257 
 HEL  HZ I         7 6 29.79         4.0 0.30                           277 257 
 DBB  SZ EP   2    7 5 57.91                             110    -0.5 3  346 275 
 PRA  HZ EP   2    7 6  3.92                             107     0.1 3  393 211 
 PRA  HN ES   3    7 6 46.54                             107     0.7 1  393 211 
 PRA  HZ I         7 6 51.41         3.3 0.30                           393 211 
                                                                                
