 2014  916 0235 18.3 L   5.949 -73.781110.6  RSN 10 0.5 1.6LRSN                1
 GAP= 83        1.16       3.0     3.4  7.1 -0.9945E+00  0.8207E+01  0.5380E+00E
 Epicentro: SUCRE - SANTANDER                                                  3
 ACTION:UPD 14-10-03 23:05 OP:nd   STATUS:               ID:20140916023518 L   I
 OLDACT:DUP 14-09-16 13:51 OP:carl STATUS:               ID:20140916022821d    3
 2014-09-16-0228-20M.COL___287                                                 6
 STAT SP IPHASW D HRMM SECON CODA AMPLIT PERI AZIMU VELO AIN AR TRES W  DIS CAZ7
 SPBC HZ EP        235 34.51                             156    0.0910 46.0 225 
 SPBC HN ES        235 46.98                             156    0.0310 46.0 225 
 SPBC HZ I         235 48.17        16.4 0.28            154           46.0 225 
 RUS  HZ EP        235 37.02                             143    0.0510 77.6  95 
 RUS  HN ES        235 51.36                             143   -0.1410 77.6  95 
 BAR2 SZ EP        235 38.60                             136    0.4110 97.2  43 
 BAR2 SZ ES        235 54.00                             136    0.3310 97.2  43 
 PTB  HZ EP   4    235 36.96                             135   -1.10 0 99.2 311 
 PTB  HN ES        235 52.64                             135   -0.7910 99.2 311 
 PTB  HZ I         235 54.63         7.1 0.18            134           99.2 311 
 BRR  HZ EP        235 40.83                             127    0.1010  128   3 
 BRR  HN ES        235 58.36                             127    0.1710  128   3 
 BRR  HZ I         236  2.69        10.1 0.14            127            128   3 
 CHI  HZ EP        235 42.62                             123   -0.42 9  146 178 
 CHI  HN ES        236  2.06                             123   -0.24 9  146 178 
 CHI  HZ I         236  9.38         3.9 0.42            123            146 178 
 GUY2CHZ EP        235 48.70                             115    0.58 9  193 246 
 GUY2CHN ES        236 12.57                             115    1.22 9  193 246 
 GUY2CHZ I         236 16.46         2.7 0.38                           193 246 
 HEL  HZ EP        235 47.46                             115   -0.79 9  195 278 
 HEL  HN ES        236 11.70                             115    0.12 9  195 278 
 HEL  HZ I         236 17.03         4.0 0.26            114            195 278 
 ZAR  HZ EP        235 48.83                             113   -0.39 8  208 325 
 ZAR  HE ES        236 13.33                             113    0.02 8  208 325 
 ZAR  HZ I         236 19.01         5.9 0.28            113            208 325 
 ORTC HN ES        236 27.29                             106   -0.40 7  278 216 
 ORTC HZ I         236 34.19         2.8 0.64            106            278 216 
                                                                                
