 2014 1016 0840 51.4 L   6.834 -73.186156.1  RSN  5 0.5 1.6LRSN                1
 GAP=203        0.84       4.0     8.8 12.4  0.5143E+01 -0.3845E+02 -0.9511E+01E
 Epicentro: ZAPATOCA - SANTANDER                                               3
 ACTION:UPD 14-11-29 23:50 OP:nd   STATUS:               ID:20141016084051 L   I
 OLDACT:REG 14-10-16 12:53 OP:fm   STATUS:               ID:20141016083735     3
 2014-10-16-0837-35M.COL___295                                                 6
 STAT SP IPHASW D HRMM SECON CODA AMPLIT PERI AZIMU VELO AIN AR TRES W  DIS CAZ7
 BAR2 SZ EP   1    841 12.52                             170    0.21 8 26.7 179 
 BAR2 SZ I         841 27.95        10.2 0.47            168           26.7 179 
 SPBC HZ EP   1    841 20.78                             131    0.08 7  163 217 
 SPBC HN ES        841 43.40                             131   -0.1810  163 217 
 SPBC HZ I         841 46.54         3.2 0.12            142            163 217 
 ZAR  HZ EP        841 24.48                             125    0.52 9  199 292 
 ZAR  HE ES        841 49.54                             125    0.16 9  199 292 
 ZAR  HZ I         841 59.58         2.0 0.26            137            199 292 
 SML  HZ EP        841 27.38                             120   -0.66 9  238 336 
 SML  HN ES   1    841 56.46                             120   -0.19 7  238 336 
 SML  HZ I         841 59.34         4.4 0.10            128            238 336 
 PRA  HZ EP        841 45.93                             108    0.54 6  393 209 
 PRA  HN ES   1    842 26.49                             108   -1.04 5  393 209 
 PRA  HZ I         842 34.13         1.0 0.22            115            393 209 
                                                                                
