 2016  916 0118  6.6 L   6.397 -73.604104.7  RSN  5 0.4 1.3LRSN                1
 GAP=143        0.83       3.5     4.6 10.3  0.1456E+01  0.2638E+01 -0.2293E+01E
 Epicentro: SANTA HELENA DEL OPON - SANTANDER                                  3
 ACTION:UPD 17-08-17 21:12 OP:lp   STATUS:               ID:20160916011806 L   I
 OLDACT:UP  16-09-16 16:51 OP:and  STATUS:               ID:20160916010740     3
 OLDACT:REG 16-09-16 12:43 OP:ar   STATUS:               ID:20160916010740     3
 2016-09-16-0108-00M.COL___360                                                 6
 STAT SP IPHASW D HRMM SECON CODA AMPLIT PERI AZIMU VELO AIN AR TRES W  DIS CAZ7
 BRR  HZ EP        118 24.49                             140    0.4110 79.4 351 
 BRR  HE ES        118 37.72                             140   -0.0310 79.4 351 
 BRR  HZ I         118 54.71         6.3 0.36            142           79.4 351 
 RUS  HZ IP     D  118 24.53                             140   -0.3010 80.2 134 
 RUS  HE ES        118 39.00                             140   -0.0910 80.2 134 
 RUS  HZ I         118 39.95         3.1 0.18            158           80.2 134 
 PTB  HZ EP   2    118 24.59                             134   -0.86 5 95.6 280 
 PTB  HN ES   2    118 39.44                             134   -0.75 5 95.6 280 
 PTB  HZ I         118 42.74         4.0 0.19            143           95.6 280 
 SPBC HN ES        118 41.04                             134    0.3910 97.3 212 
 SPBC HZ I         118 42.74         6.0 0.11            153           97.3 212 
 NOR  HE ES   2    118 53.23                             117    0.10 5  168 237 
                                                                                
