 2012 1116 0756 23.1 L   5.943 -73.648123.4  RSN  9 0.4 1.5LRSN                1
 GAP=114        0.84       4.0     3.6  8.1 -0.1450E+01  0.9241E+01  0.8588E+01E
 Epicentro: BARBOSA - SANTANDER                                                3
 ACTION:UPD 12-12-05 15:33 OP:}ep  STATUS:               ID:20121116075623 L   I
 2012-11-16-0750-00M.COL___233                                                 6
 STAT SP IPHASW D HRMM SECON CODA AMPLIT PERI AZIMU VELO AIN AR TRES W  DIS CAZ7
 RUS  HZ EP   1    756 41.69                             152   -0.34 7 62.8  95 
 RUS  HN ES   1    756 56.37                             152   -0.46 7 62.8  95 
 RUS  HZ I         756 57.30         3.6 0.26                          62.8  95 
 BAR2 SZ EP   1    756 43.56                             142    0.19 7 88.3  36 
 BAR2 SZ ES   1    756 59.83                             142    0.61 7 88.3  36 
 BAR2 SZ I         757  0.40        14.7 0.16                          88.3  36 
 PTB  HZ EP   1    756 44.66                             135   -0.25 7  111 306 
 PTB  HN ES   1    757  1.22                             135   -0.73 7  111 306 
 PTB  HZ I         757  5.38         4.5 0.10                           111 306 
 BRR  HN ES   1    757  5.16                             130    0.42 7  129 357 
 NOR  HZ EP   1    756 47.97                             128    0.22 7  142 253 
 NOR  HE ES   1    757  7.90                             128    0.88 7  142 253 
 NOR  HZ I         757 11.18         5.5 0.19                           142 253 
 PAM  SZ EP   1    756 52.75                             120   -0.15 7  187  34 
 HEL  HZ EP   1    756 55.55                             116    0.29 6  210 278 
 HEL  HN ES   1    757 19.90                             116   -0.48 6  210 278 
 HEL  HZ I         757 23.71         1.8 0.44                           210 278 
 ZAR  HN ES   1    757 20.83                             115   -0.17 6  217 322 
 PRA  HZ EP   1    757  3.05                             109    0.07 6  282 209 
 PRA  HN ES   1    757 33.99                             109   -0.14 6  282 209 
 PRA  HZ I         757 38.13         1.9 0.30                           282 209 
                                                                                
