 2014  916 0649  5.5 L   6.753 -73.193146.4  RSN  7 0.4 1.6LRSN                1
 GAP=178        1.10       4.2     5.8  7.5  0.4406E+01  0.8808E+01 -0.7875E+00E
 Epicentro: VILLANUEVA - SANTANDER                                             3
 ACTION:UPD 14-10-03 23:05 OP:nd   STATUS:               ID:20140916064905 L   I
 OLDACT:REG 14-09-16 13:01 OP:carl STATUS:               ID:20140916064820     3
 2014-09-16-0648-20M.COL___257                                                 6
 STAT SP IPHASW D HRMM SECON CODA AMPLIT PERI AZIMU VELO AIN AR TRES W  DIS CAZ7
 BAR2 SZ EP        649 24.77                             173   -0.3210 17.8 176 
 BAR2 SZ ES        649 39.65                             173   -0.7410 17.8 176 
 BAR2 SZ I         649 40.97         9.9 0.28            172           17.8 176 
 BRR  HZ IP     C  649 26.59                             153   -0.0110 69.4 304 
 BRR  HN ES        649 43.19                             153    0.1110 69.4 304 
 BRR  HZ I         649 46.24         4.0 0.18            152           69.4 304 
 RUS  HZ EP        649 29.04                             145    0.0710 95.9 173 
 RUS  HN ES        649 47.52                             145    0.2410 95.9 173 
 PTB  HZ EP        649 31.61                             133   -0.35 9  142 260 
 PTB  HN ES        649 52.48                             133   -0.13 9  142 260 
 PTB  HZ I         649 55.96         4.8 0.16            133            142 260 
 SPBC HZ EP        649 33.54                             131    0.20 9  156 219 
 SPBC HN ES        649 55.85                             131    0.78 9  156 219 
 SPBC HZ I         650  0.65         6.1 0.78            131            156 219 
 OCA  HN ES        649 57.57                             129    0.83 9  165 355 
 OCA  HZ I         649 58.80         5.3 0.22            131            165 355 
 ZAR  HZ EP        649 37.17                             123   -0.51 9  201 294 
 ZAR  HN ES        650  2.71                             123   -0.09 9  201 294 
                                                                                
