 2017 1116 0408 44.2 L   6.555 -72.577 30.0  RSN  5 0.2 1.5LRSN                1
 GAP=119        1.87       4.8     4.1  9.9 -0.1432E+01  0.6368E+01 -0.1045E+01E
 Epicentro: MACARAVITA - SANTANDER                                             3
 ACTION:UPD 17-12-12 19:56 OP:rebc STATUS:               ID:20171116040844 L   I
 OLDACT:UP  17-11-16 15:54 OP:leo  STATUS:               ID:20171116035739     3
 OLDACT:UP  17-11-16 15:52 OP:leo  STATUS:               ID:20171116035739     3
 OLDACT:REG 17-11-16 13:12 OP:leo  STATUS:               ID:20171116035739     3
 2017-11-16-0358-00M.COL___456                                                 6
 STAT SP IPHASW D HRMM SECON CODA AMPLIT PERI AZIMU VELO AIN AR TRES W  DIS CAZ7
 BAR2 EZ EP        4 8 55.98                              47    0.0810 67.0 274 
 BAR2 EZ ES        4 9  4.77                              47   -0.2310 67.0 274 
 BAR2 EZ I         4 9  5.46        21.2 0.28             47           67.0 274 
 PAM  EZ EP        4 8 59.05                              47    0.1410 87.8 351 
 PAM  EE ES     C  4 9 10.18                              47   -0.1810 87.8 351 
 TAM  HZ EP        4 8 58.63                              47    0.2510 87.9  99 
 TAM  HN ES        4 9  9.44                              47    0.0210 87.9  99 
 RUS  HZ EP        4 8 59.74                              47    0.2810 92.2 217 
 RUS  HN ES        4 9 10.96                              47   -0.3710 92.2 217 
 RUS  HZ I         4 9 12.22         7.8 0.20             47           92.2 217 
 PTB  HZ EP   9    4 9 18.80                              37    5.46 0  208 270 
 PTB  HN ES        4 9 43.93                              37    2.42 8  208 270 
 PTB  HZ I         4 9 45.61         6.8 0.18             37            208 270 
                                                                                
