 2015  916 0156 42.7 L   6.806 -73.117148.0  RSN 15 0.4 2.4LRSN                1
 GAP=140        0.91       2.5     3.4  5.3 -0.2063E+01  0.4390E+01  0.7019E+00E
 Epicentro: LOS SANTOS - SANTANDER                                             3
 ACTION:UPD 15-10-28 16:26 OP:cam  STATUS:               ID:20150916015642 L   I
 OLDACT:UP  15-09-16 16:23 OP:mh   STATUS:               ID:20150916014746d    3
 OLDACT:DUP 15-09-16 16:22 OP:mh   STATUS:               ID:20150916014746d    3
 2015-09-16-0147-45M.COL___349                                                 6
 STAT SP IPHASW D HRMM SECON CODA AMPLIT PERI AZIMU VELO AIN AR TRES W  DIS CAZ7
 BAR2 EZ EP        157  2.55                             170   -0.0510 24.7 197 
 BAR2 EZ I         157 16.23       124.1 0.10            163           24.7 197 
 BRR  HZ EP     D  157  4.41                             152    0.2110 73.7 297 
 BRR  HN ES        157 21.31                             152    0.3110 73.7 297 
 BRR  HZ I         157 21.99        32.0 0.14            160           73.7 297 
 PAM  EZ EP     C  157  5.44                             152    0.4610 74.9  38 
 PAM  EN ES        157 22.41                             152    0.0310 74.9  38 
 PAM  EZ I         157 25.01        30.6 0.24            147           74.9  38 
 RUS  HZ EP        157  6.59                             144   -0.0910  101 178 
 RUS  HN ES        157 25.33                             144   -0.0810  101 178 
 RUS  HZ I         157 25.51        16.3 0.24            138            101 178 
 PTB  HZ EP        157  9.30                             132   -0.82 9  151 259 
 PTB  HN ES        157 31.32                             132   -0.21 9  151 259 
 PTB  HZ I         157 31.95        24.4 0.14            134            151 259 
 OCA  HZ EP        157 10.63                             130   -0.50 9  160 352 
 OCA  HN ES        157 33.29                             130   -0.04 9  160 352 
 OCA  HZ I         157 38.65        56.1 0.30            130            160 352 
 SPBC HZ EP        157 11.60                             129    0.02 9  166 220 
 SPBC HN ES        157 34.07                             129   -0.06 9  166 220 
 SPBC HZ I         157 35.90        23.6 0.22            127            166 220 
 ZAR  HZ EP   1    157 15.42                             122   -0.12 6  207 292 
 ZAR  HN ES        157 41.60                             122    0.42 8  207 292 
 ZAR  HZ I         157 46.30        24.1 0.28            124            207 292 
 NOR  HZ EP        157 19.08                             119    0.23 8  238 235 
 NOR  HE ES        157 46.29                             119   -0.78 8  238 235 
 NOR  HZ I         157 48.44        12.7 0.30            118            238 235 
 SML  HZ EP        157 19.41                             118   -0.09 8  244 335 
 SML  HN ES        157 47.90                             118   -0.33 8  244 335 
 ROSC BN ES   4    157 53.51                             117    2.34 0  255 212 
 HEL  HZ EP        157 24.23                             115    0.87 7  275 256 
 HEL  HN ES        157 55.65                             115    0.56 7  275 256 
 GUY2CHZ EP   4    157 28.43                             112    1.71 0  304 235 
 GUY2CHN ES        158  0.85                             112   -0.23 7  304 235 
 GUY2CHZ I         158  7.22         7.9 0.16                           304 235 
 PTGC HZ EP   4    157 25.81                             112   -0.76 0  308 159 
 PTGC HN ES   4    157 59.08                             112   -1.73 0  308 159 
 PTGC HZ I         158 35.55        11.6 0.52            109            308 159 
 PRA  HZ EP        157 37.07                             107    0.55 6  394 210 
 PRA  HN ES   1    158 18.93                             107    0.41 4  394 210 
 PRA  HZ I         158 24.03         8.2 0.42            105            394 210 
 SJC  HZ EP   4    157 36.48                             106   -1.96 0  410 327 
 SJC  HN ES   4    158 18.66                             106   -3.29 0  410 327 
 SJC  HZ I         158 22.46         5.9 0.44            105            410 327 
                                                                                
