 2015  316 0225 19.8 L   6.801 -73.170135.0  RSN  7 0.6 1.5LRSN                1
 GAP=133        1.56       5.3     7.4 10.0 -0.1075E+02  0.1233E+02 -0.2588E+01E
 Epicentro: LOS SANTOS - SANTANDER                                             3
 ACTION:UPD 15-04-30 16:26 OP:nd   STATUS:               ID:20150316022519 L   I
 OLDACT:DUP 15-03-16 17:54 OP:stll STATUS:               ID:20150316021747d    3
 2015-03-16-0217-46M.COL___257                                                 6
 STAT SP IPHASW D HRMM SECON CODA AMPLIT PERI AZIMU VELO AIN AR TRES W  DIS CAZ7
 BAR2 EZ ES        225 51.02                             170   -1.3910 23.2 183 
 BAR2 EZ I         225 56.99         6.1 0.20            170           23.2 183 
 BRR  HZ EP        225 40.09                             151    0.4710 68.7 299 
 BRR  HN ES        225 56.13                             151    1.0310 68.7 299 
 BRR  HZ I         225 57.67         8.3 0.28            152           68.7 299 
 PAM  SZ EP        225 41.15                             148    0.1910 79.0  41 
 PAM  SZ I         225 41.36        15.2 0.20            152           79.0  41 
 PAM  SN ES        225 57.75                             148    0.2710 79.0  41 
 RUS  HZ EP        225 42.93                             141    0.4210  101 175 
 RUS  HN ES        226  0.57                             141    0.3310  101 175 
 RUS  HZ I         226  2.82         3.4 0.30            144            101 175 
 PTB  HZ EP        225 45.05                             130   -0.58 9  145 259 
 PTB  HN ES        226  5.62                             130   -0.19 9  145 259 
 PTB  HZ I         226  8.85         4.6 0.58            132            145 259 
 OCA  HZ EP        225 47.11                             127   -0.11 9  160 354 
 OCA  HN ES        226  8.15                             127   -0.48 9  160 354 
 OCA  HZ I         226 13.09         3.9 0.30            130            160 354 
 SPBC HZ EP        225 46.81                             127   -0.50 9  162 218 
 SPBC HN ES        226  9.11                             127    0.32 9  162 218 
 SPBC HZ I         226 15.43         4.9 0.10            129            162 218 
                                                                                
