 2011  616 0722 10.5 L   6.790 -73.122139.3  RSN 14 0.3 2.9LRSN                1
 GAP=140        0.76       2.9     4.4  4.4 -0.5867E+01  0.4816E+01  0.1285E+01E
 Epicentro: LOS SANTOS - SANTANDER                                             3
 ACTION:UP  11-07-14 19:05 OP:ep   STATUS:               ID:20110616072210 L   I
 2011-06-16-0719-48S.COL___138                                                 6
 STAT SP IPHASW D HRMM SECON CODA AMPLIT PERI AZIMU VELO SNR AR TRES W  DIS CAZ7
 BTL  SZ EP   1    722 29.69                             171     0.4 7   21 311 
 BAR2 SZ EP        722 29.42                             170     0.110   23 197 
 BAR2 SZ ES   1    722 44.33                             170     0.3 7   23 197 
 BAR2 SZ I         722 45.46       180.1 0.30                            23 197 
 GIR2 SZ EP        722 29.55                             166     0.110   33 346 
 GIR2 SZ ES   1    722 43.81                             166    -0.4 7   33 346 
 BRR  HZ EP        722 31.30                             150     0.210   74 298 
 BRR  HN ES   1    722 47.74                             150     0.5 7   74 298 
 BRR  HZ I         722 52.37       299.5 0.20                            74 298 
 PAM  SZ EP        722 32.21                             150     0.210   77  38 
 PAM  SN ES        722 48.59                             150    -0.210   77  38 
 RUS  HZ EP        722 33.35                             143    -0.210   99 178 
 RUS  HN ES   1    722 51.24                             143    -0.3 7   99 178 
 RUS  HZ I         722 53.41        74.2 0.25                            99 178 
 BRI  SZ EP        722 34.05                             140     0.310  109  19 
 BRI  SZ ES   1    722 52.04                             140     0.1 7  109  19 
 BRI  SZ I         722 57.68       135.2 0.46                           109  19 
 GRA  SZ EP        722 35.35                             135     0.210  126  16 
 GRA  SZ ES   1    722 53.89                             135    -0.6 7  126  16 
 GRA  SZ I         722 55.75       128.0 0.33                           126  16 
 OCA  SZ EP        722 38.11                             128    -0.3 9  162 352 
 OCA  SZ ES   1    722 60.00                             128    -0.3 7  162 352 
 OCA  SZ I         723  4.83       122.2 0.47                           162 352 
 NOR  SZ EP        722 45.84                             117    -0.2 8  236 235 
 NOR  SN ES   1    723 13.15                             117    -0.6 6  236 235 
 NOR  SZ I         723 17.66         9.5 0.41                           236 235 
 CHI  HZ EP   1    722 47.74                             116    -0.1 6  248 196 
 CHI  HZ I         723 22.89        17.5 0.56                           248 196 
 GUY  SN ES   1    723 28.73                             111     0.3 5  305 236 
 GUY  SZ I         723 34.52        59.8 0.26                           305 236 
 DBB  SZ EP   1    722 57.64                             108    -0.4 5  342 274 
 PRA  HZ EP        723  4.00                             105     0.2 6  392 210 
 PRA  HZ I         723 51.99        98.6 0.26                           392 210 
                                                                                
