 2012 1216 0607 16.8 L   6.769 -73.194140.1  RSN  5 0.4 1.0LRSN                1
 GAP=173        0.80       7.1     7.6  9.0  0.1595E+02  0.2721E+02  0.1108E+02E
 Epicentro: VILLANUEVA - SANTANDER                                             3
 ACTION:UPD 13-01-04 14:28 OP:ep   STATUS:               ID:20121216060716 L   I
 2012-12-16-0600-00M.COL___239                                                 6
 STAT SP IPHASW D HRMM SECON CODA AMPLIT PERI AZIMU VELO AIN AR TRES W  DIS CAZ7
 BAR2 SZ EP   1    6 7 35.64                             172   -0.04 7 19.5 176 
 BAR2 SZ ES   1    6 7 49.55                             172   -0.85 7 19.5 176 
 BAR2 SZ I         6 7 51.27         5.2 0.32                          19.5 176 
 GIR2 SZ ES   1    6 7 51.07                             165    0.29 7 34.3   0 
 GIR2 SZ I         6 7 53.28         2.1 0.32                          34.3   0 
 BRR  HZ EP   1    6 7 37.33                             152    0.15 7 68.4 303 
 BRR  HN ES   1    6 7 53.29                             152    0.21 7 68.4 303 
 BRR  HZ I         6 7 58.78         1.8 0.19                          68.4 303 
 RUS  HN ES   1    6 7 58.20                             143    0.49 7 97.6 173 
 RUS  HZ I         6 7 58.64         1.4 0.48                          97.6 173 
 PTB  HZ EP   1    6 7 42.42                             132   -0.35 7  142 260 
 PTB  HN ES   1    6 8  3.09                             132    0.06 7  142 260 
 PTB  HZ I         6 8  6.37         1.1 0.10                           142 260 
                                                                                
