 2016 1216 0620 28.4 L   6.831 -73.153147.5  RSN  8 0.4 1.3LRSN                1
 GAP=134        0.87       3.7     4.0  6.2  0.6770E+00  0.6356E+01  0.3994E+01E
 Epicentro: LOS SANTOS - SANTANDER                                             3
 ACTION:UPD 17-01-11 20:15 OP:rebc STATUS:               ID:20161216062028 L   I
 OLDACT:UP  16-12-16 16:31 OP:e    STATUS:               ID:20161216061746     3
 OLDACT:UP  16-12-16 16:30 OP:e    STATUS:               ID:20161216061746     3
 OLDACT:REG 16-12-16 12:41 OP:and  STATUS:               ID:20161216061746     3
 2016-12-16-0618-00M.COL___353                                                 6
 STAT SP IPHASW D HRMM SECON CODA AMPLIT PERI AZIMU VELO AIN AR TRES W  DIS CAZ7
 BAR2 EZ EP        620 48.05                             169   -0.2310 26.5 187 
 BAR2 EZ ES        621  3.73                             169   -0.0810 26.5 187 
 BAR2 EZ I         621  4.69         6.3 0.16            170           26.5 187 
 BRR  HZ EP        620 49.64                             154    0.0510 68.9 296 
 BRR  HE ES   2    621  7.09                             154    0.96 5 68.9 296 
 PAM  EZ IP     C  620 51.06                             152    0.4010 75.4  42 
 PAM  EN ES        621  7.97                             152   -0.0710 75.4  42 
 PAM  EZ I         621 10.19         5.6 0.56            153           75.4  42 
 RUS  HZ EP        620 52.03                             143   -0.5210  104 176 
 RUS  HN ES        621 11.48                             143    0.0810  104 176 
 RUS  HZ I         621 11.85         2.2 0.28            145            104 176 
 PTB  HZ EP        620 55.34                             132   -0.13 9  148 257 
 PTB  HN ES        621 16.07                             132   -0.54 9  148 257 
 PTB  HZ I         621 17.89         1.8 0.17            132            148 257 
 ZAR  HZ EP   4    621  3.03                             123    2.30 0  202 291 
 ZAR  HN ES        621 26.23                             123    0.27 9  202 291 
 ZAR  HZ I         621 32.88         1.8 0.19            122            202 291 
 CHI  HZ EP        621  6.68                             117    0.18 8  252 195 
 CHI  HN ES        621 36.87                             117    0.63 8  252 195 
 CHI  HZ I         621 39.11         1.4 0.52            118            252 195 
 GUY2CHZ EP   4    621 13.88                             112    1.67 0  302 234 
 GUY2CHE ES   4    621 50.18                             112    3.78 0  302 234 
 GUY2CHZ I         621 54.53         0.8 0.56                           302 234 
 PTGC HZ EP   4    621 11.28                             112   -1.42 0  312 159 
                                                                                
