 2014  316 0321  4.8 L   6.810 -73.144146.1  RSN  9 0.4 1.7LRSN                1
 GAP=136        0.82       3.9     3.9  7.5 -0.2240E+00  0.8548E+01  0.5550E+01E
 Epicentro: LOS SANTOS - SANTANDER                                             3
 OLDACT:REG 14-03-16 07:33 OP:fm   STATUS:               ID:20140316031817     3
 ACTION:UPD 14-04-09 23:17 OP:nd   STATUS:               ID:20140316032104 L   I
 OLDACT:UP  14-03-16 11:56 OP:fm   STATUS:               ID:20140316031817     3
 2014-03-16-0318-17M.COL___242                                                 6
 STAT SP IPHASW D HRMM SECON CODA AMPLIT PERI AZIMU VELO AIN AR TRES W  DIS CAZ7
 BAR2 SZ EP   2    321 24.26                             170   -0.21 5 24.4 190 
 BAR2 SZ I         321 49.49        15.0 0.54            162           24.4 190 
 PAM  SZ EP        321 27.31                             151    0.3410 76.4  40 
 PAM  SN ES        321 44.03                             151   -0.2510 76.4  40 
 PAM  SZ I         321 46.34         5.2 0.62            134           76.4  40 
 RUS  HZ EP        321 28.98                             143    0.3410  102 176 
 RUS  HN ES        321 47.13                             143   -0.1210  102 176 
 RUS  SZ I         321 49.58         5.7 0.92            127            102 176 
 PTB  HZ EP        321 31.11                             132   -0.70 9  148 258 
 PTB  HE ES        321 53.01                             132    0.11 9  148 258 
 PTB  SZ I         321 54.86         5.8 0.18            120            148 258 
 SPBC HZ EP        321 33.82                             129    0.43 9  164 219 
 SPBC HN ES   2    321 55.98                             129    0.27 5  164 219 
 SPBC SZ I         322  2.63         5.2 0.26            115            164 219 
 ZAR  HN ES        322  2.62                             122    0.09 9  204 292 
 SML  HZ EP   4    321 37.46                             117   -3.86 0  243 335 
 SML  HN ES   4    322 10.44                             117    0.61 0  243 335 
 SML  SZ I         322 21.94         4.0 1.12            106            243 335 
 CHI  HZ EP   1    321 41.97                             117   -0.64 6  250 195 
 CHI  SZ I         322 11.03         3.7 0.80            106            250 195 
 CHI  HN ES   2    322 12.11                             117   -0.01 4  250 195 
 GUY2CHZ EP   4    321 50.75                             112    2.26 0  302 235 
 GUY2CHN ES   4    322 27.09                             112    4.50 0  302 235 
 GUY2CSZ I         322 40.89         3.7 3.46                           302 235 
                                                                                
