 2013  516 0815  4.8 L   6.804 -73.116145.8  RSN  7 0.5 1.4LRSN                1
 GAP=186        1.10       4.8     6.4  9.2  0.4279E+01  0.1245E+02 -0.2059E+01E
 Epicentro: LOS SANTOS - SANTANDER                                             3
 ACTION:UPD 13-06-20 09:50 OP:ep   STATUS:               ID:20130516081504 L   I
 2013-05-16-0810-00M.COL___256                                                 6
 STAT SP IPHASW D HRMM SECON CODA AMPLIT PERI AZIMU VELO AIN AR TRES W  DIS CAZ7
 BAR2 SZ EP        815 24.74                             170    0.2510 24.5 197 
 BAR2 SZ ES        815 39.89                             170    0.0610 24.5 197 
 BAR2 SZ I         815 41.02         4.5 0.24            168           24.5 197 
 BRR  HZ EP        815 26.66                             152    0.5210 73.9 297 
 BRR  HN ES   1    815 43.52                             152    0.76 7 73.9 297 
 BRR  HZ I         815 44.88         4.5 0.14            149           73.9 297 
 RUS  HZ EP        815 28.76                             144    0.1610  101 178 
 RUS  HN ES        815 46.89                             144   -0.2610  101 178 
 RUS  HZ I         815 48.89         2.8 0.44            145            101 178 
 PTB  HZ EP        815 31.76                             131   -0.34 9  151 259 
 PTB  HN ES        815 52.60                             131   -0.78 9  151 259 
 PTB  HZ I         815 56.56         3.4 0.15            131            151 259 
 OCA  HN ES        815 54.60                             130   -0.63 9  160 352 
 ZAR  HN ES   1    816  3.70                             122    0.58 6  207 292 
 ZAR  HZ I         816  8.96         4.2 0.30            122            207 292 
 NOR  HN ES   1    816  9.22                             118    0.23 6  238 235 
                                                                                
