 2010 1216 0914 12.4 L   6.814 -73.126135.3  RSN  9 0.6 1.8LRSN                1
 GAP=161        1.21       6.0     9.6 11.5 -0.3083E+02  0.5372E+02 -0.1812E+02E
 Epicentro: LOS SANTOS - SANTANDER                                             3
 ACTION:UP  11-01-14 15:25 OP:pat  STATUS:               ID:20101216091412 L   I
 2010-12-16-0912-32S.COL___134                                                 6
 STAT SP IPHASW D HRMM SECON CODA AMPLIT PERI AZIMU VELO SNR AR TRES W  DIS CAZ7
 BAR2 SZ EP        914 30.77                             169     0.010   25 194 
 BAR2 SZ ES   1    914 45.96                             169     0.8 7   25 194 
 BAR2 SZ I         914 47.54        21.8 0.47                            25 194 
 RUS  HZ EP   1    914 34.67                             141    -0.6 7  102 177 
 RUS  HE ES   1    914 53.25                             141     0.2 7  102 177 
 RUS  HZ I         914 54.89        10.6 0.43                           102 177 
 GRA  SZ EP        914 36.76                             135     0.210  124  17 
 GRA  SZ ES   1    914 54.49                             135    -0.9 7  124  17 
 GRA  SZ I         914 58.10         5.8 0.23                           124  17 
 OCA  SZ EP   1    914 40.01                             128     0.2 7  159 352 
 OCA  SZ I         915  8.15         5.3 0.20                           159 352 
 NOR  SZ EP   2    914 47.19                             116    -0.6 4  237 235 
 NOR  SN ES   1    915 15.17                             116    -0.3 6  237 235 
 CHI  HN ES   1    915 18.05                             115    -0.8 6  251 196 
 CHI  HZ I         915 24.14         3.0 0.27                           251 196 
 ROSC BZ EP   1    914 50.86                             114     0.6 6  255 211 
 ROSC BZ I         915 28.61         7.4 0.64                           255 211 
 HEL  HZ EP   1    914 53.07                             112     0.7 6  275 256 
 HEL  HN ES   1    915 22.81                             112    -0.7 6  275 256 
 HEL  HZ I         915 30.71         4.9 0.55                           275 256 
 RREF HZ EP   2    914 59.20                             109     0.8 3  324 229 
 RREF HN ES   2    915 34.77                             109     0.5 3  324 229 
 RREF HZ I         915 40.98         4.2 0.17                           324 229 
                                                                                
