 2014  116 0416 26.7 L   6.783 -73.147146.0  RSN 11 0.5 1.7LRSN                1
 GAP=137        1.19       3.1     4.7  6.5 -0.1759E+01  0.6388E+01 -0.1546E+01E
 Epicentro: LOS SANTOS - SANTANDER                                             3
 ACTION:UPD 14-03-13 09:55 OP:ep   STATUS:               ID:20140116041626 L   I
 OLDACT:REG 14-01-16 07:29 OP:carl STATUS:               ID:20140116041000     3
 2014-01-16-0410-00M.COL___285                                                 6
 STAT SP IPHASW D HRMM SECON CODA AMPLIT PERI AZIMU VELO AIN AR TRES W  DIS CAZ7
 BAR2 SZ EP        416 46.55                             171    0.2210 21.5 190 
 BAR2 SZ ES        417  1.66                             171    0.0210 21.5 190 
 BAR2 SZ I         417  2.50        18.6 0.14            175           21.5 190 
 BRR  HZ IP     C  416 48.46                             152    0.5310 71.9 300 
 BRR  HN ES        417  5.21                             152    0.7310 71.9 300 
 BRR  HZ I         417  9.37        10.3 0.12            149           71.9 300 
 PAM  SZ EP        416 49.43                             150    0.3910 78.9  39 
 PAM  SN ES        417  6.30                             150   -0.1610 78.9  39 
 PAM  SZ I         417 11.04         3.8 0.22            144           78.9  39 
 RUS  HZ EP        416 50.49                             144    0.1410 98.7 176 
 RUS  HN ES        417  8.54                             144   -0.2610 98.7 176 
 RUS  HZ I         417  9.90         5.9 0.24            144           98.7 176 
 PTB  HZ EP        416 53.19                             132   -0.46 9  147 260 
 PTB  HN ES        417 14.25                             132   -0.41 9  147 260 
 PTB  HZ I         417 16.56         9.5 0.16            130            147 260 
 SPBC HN ES        417 17.24                             129    0.03 9  162 219 
 SPBC HZ I         417 20.18         8.7 0.58            128            162 219 
 OCA  HZ EP        416 55.42                             129    0.21 9  162 353 
 OCA  HN ES        417 16.47                             129   -0.97 9  162 353 
 OCA  HZ I         417 21.26         6.8 0.18            124            162 353 
 ZAR  HZ EP        416 59.63                             122    0.41 9  205 293 
 ZAR  HN ES        417 25.24                             122    0.65 9  205 293 
 ZAR  HZ I         417 31.00         8.2 0.38            119            205 293 
 NOR  HN ES        417 29.71                             119   -0.39 8  233 235 
 SML  HZ EP        417  3.00                             117   -0.52 8  245 336 
 SML  HN ES        417 31.70                             117   -0.54 8  245 336 
 SML  HZ I         417 38.39         9.1 0.10            113            245 336 
 CHI  HZ EP        417  4.83                             117    0.61 8  247 195 
 CHI  HN ES        417 32.70                             117   -0.78 8  247 195 
 CHI  HZ I         417 38.33         0.9 0.24            115            247 195 
 URE  HN ES   4    417 36.33                             114   -3.61 0  284 292 
                                                                                
