 2011  716 0910 46.2 L   6.748 -73.123141.7  RSN  9 0.4 1.8LRSN                1
 GAP=142        0.69       3.6     5.0  5.4 -0.8962E+01  0.4683E+01 -0.2024E+01E
 Epicentro: LOS SANTOS - SANTANDER                                             3
 ACTION:UPD 12-07-25 14:01 OP:epov STATUS:               ID:20110716091046 L   I
 2011-07-16-0910-02S.COL___131                                                 6
 STAT SP IPHASW D HRMM SECON CODA AMPLIT PERI AZIMU VELO AIN AR TRES W  DIS CAZ7
 BAR2 SZ EP        911  5.26                             172   -0.0310 18.4 201 
 BAR2 SZ ES   1    911 19.59                             172   -0.56 7 18.4 201 
 BAR2 SZ I         911 21.11        18.2 0.10                          18.4 201 
 GIR2 SZ EP   1    911  5.49                             164   -0.12 7 37.4 348 
 BRR  HZ EP        911  7.28                             150    0.0310 76.2 301 
 BRR  HZ I         911  9.36        19.4 0.11                          76.2 301 
 BRR  HN ES   1    911 24.29                             150    0.65 7 76.2 301 
 PAM  SZ EP   1    911  8.25                             149    0.04 7 80.4  36 
 PAM  SN ES   1    911 25.52                             149    0.17 7 80.4  36 
 RUS  HZ EP   1    911  9.36                             145    0.19 7 94.7 177 
 RUS  HN ES   1    911 27.42                             145    0.36 7 94.7 177 
 RUS  HZ I         911 28.76         8.1 0.33                          94.7 177 
 BRI  SZ EP        911 10.12                             139    0.0210  113  19 
 BRI  SZ I         911 30.45         9.5 0.46                           113  19 
 GRA  SZ EP        911 11.42                             135   -0.1110  131  16 
 GRA  SZ ES   1    911 30.97                             135   -0.29 7  131  16 
 GRA  SZ I         911 32.23         7.0 0.30                           131  16 
 NOR  SZ EP   1    911 21.45                             118   -0.15 6  233 236 
 NOR  SN ES   1    911 48.49                             118   -0.69 6  233 236 
 HEL  HZ EP   2    911 27.33                             114    0.96 4  273 257 
                                                                                
