 2011 1116 0811 27.7 L   6.878 -73.282118.0  RSN  4 0.1 1.2LRSN                1
 GAP=162        0.35       3.1     6.3  4.7  0.1307E+02 -0.7476E+01 -0.3031E+01E
 Epicentro: BETULIA - SANTANDER                                                3
 ACTION:UPD 12-07-13 16:10 OP:ep   STATUS:               ID:20111116081127 L   I
 2011-11-16-0809-09S.COL___179                                                 6
 STAT SP IPHASW D HRMM SECON CODA AMPLIT PERI AZIMU VELO AIN AR TRES W  DIS CAZ7
 BAR2 SZ EP   1    811 44.16                             163   -0.11 7 33.4 161 
 BAR2 SZ ES   1    811 57.23                             163    0.01 7 33.4 161 
 BAR2 SZ I         811 58.65        10.4 0.34                          33.4 161 
 BRR  HZ EP   1    811 44.72                             154   -0.11 7 53.8 298 
 BRR  HN ES   1    811 58.29                             154    0.07 7 53.8 298 
 RUS  HZ EP   2    811 50.07                             134    0.37 5  111 169 
 RUS  HZ I         811 52.08         0.7 0.38                           111 169 
 RUS  HE ES   1    812  6.85                             134   -0.04 7  111 169 
 OCA  SZ ES   2    812 12.81                             124    0.07 5  151 358 
 OCA  SZ I         812 13.81         4.4 0.30                           151 358 
                                                                                
