 2017  116 0014 30.1 L   6.817 -73.140150.3  RSN 18 0.6 2.3LRSN                1
 GAP= 66        1.09       3.6     3.9  5.6 -0.7544E+00  0.3522E+01  0.3712E+01E
 Epicentro: LOS SANTOS - SANTANDER                                             3
 ACTION:UPD 17-05-22 16:00 OP:jn   STATUS:               ID:20170116001430 L   I
 OLDACT:UP  17-01-16 14:17 OP:dani STATUS:               ID:20170116000744     3
 OLDACT:UP  17-01-16 14:16 OP:dani STATUS:               ID:20170116000744     3
 OLDACT:UP  17-01-16 14:16 OP:dani STATUS:               ID:20170116000744     3
 OLDACT:REG 17-01-16 12:56 OP:dani STATUS:               ID:20170116000744     3
 2017-01-16-0008-00M.COL___335                                                 6
 STAT SP IPHASW D HRMM SECON CODA AMPLIT PERI AZIMU VELO AIN AR TRES W  DIS CAZ7
 BAR2 HZ EP        014 50.26                             170   -0.0210 25.3 191 
 BAR2 HZ ES        015  5.48                             170   -0.5710 25.3 191 
 BAR2 HZ I         015  6.64        71.0 0.18            168           25.3 191 
 BRR  HZ EP        014 52.11                             153    0.4210 70.8 297 
 BRR  HN ES        015  9.28                             153    0.7310 70.8 297 
 BRR  HZ I         015 10.32        25.4 0.10            150           70.8 297 
 PAM  HZ EP        014 53.09                             152    0.4310 75.5  40 
 PAM  HE ES        015 10.46                             152    0.1810 75.5  40 
 PAM  HZ I         015 12.50        31.9 0.52            154           75.5  40 
 RUS  HZ EP        014 54.15                             144   -0.2510  102 176 
 RUS  HE ES        015 13.04                             144   -0.3310  102 176 
 RUS  HZ I         015 13.99        28.1 0.24            143            102 176 
 PTB  HZ EP        014 56.69                             133   -0.80 9  149 258 
 PTB  HN ES        015 18.28                             133   -0.61 9  149 258 
 PTB  HZ I         015 20.08        30.2 0.40            130            149 258 
 TAM  HZ EP        014 58.46                             131    0.36 9  155 106 
 ZAR  HZ EP        015  2.96                             123    0.16 9  204 292 
 ZAR  HE ES        015 28.29                             123   -0.03 9  204 292 
 ZAR  HZ I         015 34.50        15.4 0.64            121            204 292 
 NOR  HZ EP        015  6.24                             119    0.01 8  236 234 
 NOR  HN ES        015 34.81                             119    0.37 8  236 234 
 NOR  HZ I         015 39.99        15.8 0.16            117            236 234 
 CHI  HZ EP        015  8.25                             118    0.01 8  251 195 
 CHI  HN ES        015 37.47                             118   -0.53 8  251 195 
 CHI  HZ I         015 45.83         7.8 0.50            117            251 195 
 ROSC BZ EP   3    015 10.62                             117    1.97 2  255 211 
 ROSC BN ES        015 39.59                             117    0.85 8  255 211 
 ROSC BZ I         015 45.55        16.6 0.50            116            255 211 
 URE  HZ EP   3    015 10.02                             114   -1.32 2  284 292 
 URE  HN ES   4    015 40.78                             114   -2.76 0  284 292 
 URE  HZ I         015 52.75         7.8 0.17            113            284 292 
 GUY2CHZ EP   3    015 15.81                             113    1.74 2  303 235 
 GUY2CHN ES   4    015 51.69                             113    3.31 0  303 235 
 GUY2CHZ I         015 57.26        10.4 0.28                           303 235 
 PTGC HZ EP   3    015 12.93                             112   -1.38 2  310 159 
 PTGC HN ES   4    015 46.57                             112   -2.24 0  310 159 
 PTGC HZ I         015 51.14         8.5 0.35            112            310 159 
 LL6C HZ EP   9    014 56.61                             111   -19.1 0  323 357 
 LL6C HE ES        015 31.49                                   -0.75 7  323 357 
 CBOC HZ EP   3    015 18.60                             110    1.29 2  335 252 
 CBOC HN ES   4    015 50.47                             110   -3.68 0  335 252 
 ORTC HZ EP        015 24.67                             107    0.31 6  397 216 
 ORTC HN ES   3 D  016  8.00                             107    1.28 1  397 216 
 ORTC HZ I         016 13.89         6.5 0.57            106            397 216 
 SJC  HZ EP        015 24.41                             106   -1.22 6  408 327 
 SJC  HN ES   4    016  6.07                             106   -2.91 0  408 327 
 SJC  HZ I         016 10.00         2.8 0.29            106            408 327 
 CRJC HZ EP   3    015 30.54                             104   -1.93 1  466   3 
 CRJC HN ES   4    016 18.11                             104   -3.03 0  466   3 
 CRJC HZ I         016 25.54         7.1 0.41            104            466   3 
                                                                                
