 2015  216 0808 14.7 L   6.833 -73.137142.1  RSN  5 0.4 1.4LRSN                1
 GAP=202        0.98       4.4     6.3  7.9  0.1622E+01  0.1548E+02 -0.1009E+02E
 Epicentro: LOS SANTOS - SANTANDER                                             3
 ACTION:UPD 15-04-30 21:26 OP:nd   STATUS:               ID:20150216080814 L   I
 OLDACT:UP  15-02-16 17:59 OP:mh   STATUS:               ID:20150216075742     3
 OLDACT:REG 15-02-16 13:47 OP:mh   STATUS:               ID:20150216075742     3
 2015-02-16-0757-42M.COL___296                                                 6
 STAT SP IPHASW D HRMM SECON CODA AMPLIT PERI AZIMU VELO AIN AR TRES W  DIS CAZ7
 BAR2 EZ EP   1    8 8 33.92                             169   -0.10 7 27.1 191 
 BAR2 EZ ES        8 8 49.69                             169    0.6310 27.1 191 
 BAR2 EZ I         8 8 52.11         4.7 0.21            172           27.1 191 
 RUS  HZ EP        8 8 38.08                             142   -0.3310  104 177 
 RUS  HN ES        8 8 56.57                             142   -0.3010  104 177 
 RUS  HZ I         8 8 57.79         2.2 0.36            149            104 177 
 PTB  HZ EP   4    8 8 40.08                             131   -1.49 0  149 258 
 PTB  HN ES        8 9  1.90                             131   -0.60 9  149 258 
 PTB  HZ I         8 9  7.73         3.4 0.42            133            149 258 
 SML  HZ EP        8 8 51.03                             117    0.18 8  241 335 
 SML  HN ES        8 9 18.90                             117   -0.11 8  241 335 
 SML  HZ I         8 9 28.57         2.2 0.10            118            241 335 
 GUY2CHZ EP        8 8 59.12                             111    0.60 7  304 234 
 GUY2CHN ES        8 9 33.08                             111    0.42 7  304 234 
 GUY2CHZ I         8 9 40.66         1.5 0.36                           304 234 
                                                                                
