 2013  716 0541 25.4 L   6.718 -73.214143.6  RSN  4 0.3 1.7LRSN                1
 GAP=218        0.59       6.4     5.9  7.4 -0.1168E+01  0.3941E-01  0.3906E+01E
 Epicentro: VILLANUEVA - SANTANDER                                             3
 ACTION:UPD 13-08-12 10:38 OP:ep   STATUS:               ID:20130716054125 L   I
 OLDACT:REG 13-07-16 07:59 OP:mh   STATUS:               ID:20130716054000     3
 2013-07-16-0540-00M.COL___263                                                 6
 STAT SP IPHASW D HRMM SECON CODA AMPLIT PERI AZIMU VELO AIN AR TRES W  DIS CAZ7
 BAR2 SZ EP   1    541 44.71                             174    0.06 7 14.4 166 
 BAR2 SZ ES   1    541 59.38                             174   -0.26 7 14.4 166 
 BRR  HZ IP        541 46.25                             152   -0.0210 69.9 308 
 BRR  HN ES        542  2.74                             152    0.2210 69.9 308 
 BRR  HN I         542  3.76        12.9 0.24            147           69.9 308 
 PTB  HN ES   1    542 11.26                             133   -0.43 7  139 262 
 PTB  HN I         542 17.62         5.2 0.24            128            139 262 
 SPBC HN ES   2    542 14.50                             131    0.60 5  151 219 
                                                                                
