 2012  216 0047  7.3 L   6.785 -73.156142.0  RSN  7 0.3 2.0LRSN                1
 GAP=136        0.66       4.0     3.6  6.8 -0.1494E+01  0.5537E+01  0.4841E+01E
 ACTION:UP  12-03-07 16:30 OP:epov STATUS:               ID:20120216004707 L   I
 2012-02-16-0040-00M.COL___188                                                 6
 STAT SP IPHASW D HRMM SECON CODA AMPLIT PERI AZIMU VELO AIN AR TRES W  DIS CAZ7
 GIR2 SZ EP   1    047 26.55                             166   -0.05 7 32.8 353 
 BRR  HZ IP     C  047 28.34                             152    0.2810 71.0 300 
 BRR  HN ES   1    047 44.55                             152    0.32 7 71.0 300 
 BRR  HZ I         047 48.60        23.4 0.20                          71.0 300 
 PAM  SZ EP   1    047 29.13                             149   -0.14 7 79.4  39 
 PAM  SE ES   1    047 46.23                             149   -0.15 7 79.4  39 
 RUS  HZ EP   1    047 30.58                             143   -0.02 7 99.0 175 
 RUS  HE ES   1    047 48.86                             143    0.11 7 99.0 175 
 RUS  HZ I         047 50.67         7.3 0.26                          99.0 175 
 PTB  HZ EP   1    047 33.35                             131   -0.51 7  146 259 
 PTB  HN ES   1    047 53.80                             131   -0.75 7  146 259 
 ZAR  HN ES   1    048  4.80                             122    0.23 6  204 293 
 ZAR  HZ I         048 10.30        14.8 0.36                           204 293 
 NOR  SZ EP   1    047 42.96                             118    0.32 6  233 235 
 NOR  SE ES   1    048 10.43                             118    0.25 6  233 235 
                                                                                
