 2013  216 0908 36.4 L   6.794 -73.144144.2  RSN 12 0.4 2.6LRSN                1
 GAP= 71        1.07       3.2     3.2  5.4  0.5881E+00  0.3782E+01  0.1667E+00E
 Epicentro: LOS SANTOS - SANTANDER                                             3
 ACTION:UPD 13-03-12 09:33 OP:ep   STATUS:               ID:20130216090836 L   I
 2013-02-16-0906-44M.COL___183                                                 6
 STAT SP IPHASW D HRMM SECON CODA AMPLIT PERI AZIMU VELO AIN AR TRES W  DIS CAZ7
 BAR2 SZ EP        9 8 55.90                             171    0.1010 22.7 191 
 BAR2 SZ ES        9 9 10.44                             171   -0.5210 22.7 191 
 BAR2 SZ I         9 9 11.89        75.8 0.18            169           22.7 191 
 BRR  HZ EP        9 8 57.83                             152    0.4510 71.7 299 
 BRR  HN ES        9 9 14.67                             152    0.9010 71.7 299 
 BRR  HN I         9 9 19.95        78.3 0.42            152           71.7 299 
 PAM  SZ IP     D  9 8 58.75                             150    0.3110 77.8  39 
 PAM  SN ES        9 9 15.63                             150   -0.0310 77.8  39 
 PAM  SN I         9 9 16.91       111.2 0.48            154           77.8  39 
 RUS  HZ EP        9 8 59.89                             144   -0.0310 99.9 176 
 RUS  HN ES        9 9 18.28                             144    0.0010 99.9 176 
 RUS  HN I         9 9 20.01        40.9 0.38            144           99.9 176 
 PTB  HZ EP        9 9  2.80                             132   -0.41 9  148 259 
 PTB  HN ES        9 9 23.77                             132   -0.39 9  148 259 
 PTB  HN I         9 9 25.95        68.1 0.24            132            148 259 
 TAM  HZ IP     C  9 9  4.24                             130    0.35 9  155 105 
 TAM  HE ES        9 9 25.23                             130   -0.13 9  155 105 
 TAM  HE I         9 9 26.38        25.9 0.36            133            155 105 
 OCA  HZ EP        9 9  4.53                             129   -0.10 9  161 353 
 OCA  HN ES        9 9 25.99                             129   -0.68 9  161 353 
 OCA  HN I         9 9 26.96       133.7 0.16            131            161 353 
 ZAR  HZ EP        9 9  9.04                             122    0.28 9  204 292 
 ZAR  HN ES        9 9 34.57                             122    0.55 9  204 292 
 ZAR  HN I         9 9 35.34        37.8 0.10            123            204 292 
 SML  HZ EP        9 9 12.50                             117   -0.48 8  244 335 
 SML  HE ES   4    9 9 39.44                             117   -2.11 0  244 335 
 SML  HE I         9 9 45.76        44.7 0.10            118            244 335 
 CHI  HZ EP        9 9 14.22                             117    0.31 8  248 195 
 CHI  HN ES        9 9 42.86                             117   -0.34 8  248 195 
 CHI  HN I         9 9 49.47        17.1 0.56            118            248 195 
 HEL  HZ EP        9 9 17.07                             114    0.57 8  272 256 
 HEL  HN ES        9 9 47.47                             114   -0.34 8  272 256 
 HEL  HN I         9 9 57.10        10.3 0.22            115            272 256 
 URE  HZ EP        9 9 16.61                             113   -0.80 7  284 292 
                                                                                
