 2012 1016 0736 52.0 L   6.722 -73.114138.8  RSN  6 0.2 2.0LRSN                1
 GAP=144        0.44       2.9     2.8  3.6  0.1586E+01  0.1575E+01 -0.1173E+01E
 Epicentro: JORDAN - SANTANDER                                                 3
 ACTION:UPD 12-11-22 17:04 OP:ep   STATUS:               ID:20121016073652 L   I
 2012-10-16-0730-00M.COL___231                                                 6
 STAT SP IPHASW D HRMM SECON CODA AMPLIT PERI AZIMU VELO AIN AR TRES W  DIS CAZ7
 BAR2 SZ ES   1    737 25.13                             173   -0.11 7 16.3 208 
 BAR2 SZ I         737 26.92        25.4 0.22                          16.3 208 
 GIR2 SZ EP   1    737 11.05                             163   -0.10 7 40.4 347 
 BRR  HZ EP        737 12.91                             149    0.0510 78.6 303 
 BRR  HE ES        737 29.21                             149    0.0810 78.6 303 
 BRR  HZ I         737 30.95        27.4 0.26                          78.6 303 
 PAM  SZ EP        737 13.93                             148    0.1310 82.2  34 
 PAM  SZ I         737 14.21        38.1 0.24                          82.2  34 
 PAM  SN ES   1    737 30.69                             148   -0.10 7 82.2  34 
 RUS  HZ EP   1    737 14.69                             145    0.24 7 91.8 178 
 RUS  HN ES   1    737 31.85                             145   -0.11 7 91.8 178 
 RUS  HZ I         737 35.35         6.7 0.41                          91.8 178 
 ZAR  HZ EP        737 24.33                             120   -0.37 8  211 294 
 ZAR  HE ES   1    737 50.45                             120    0.25 6  211 294 
 ZAR  HZ I         737 57.72         6.0 0.27                           211 294 
                                                                                
