 2017  716 0019  5.9 L   6.795 -73.121143.4  RSN 11 0.5 1.8LRSN                1
 GAP=114        1.11       4.0     3.7  6.0  0.1600E+01  0.6561E+01  0.3928E+01E
 Epicentro: LOS SANTOS - SANTANDER                                             3
 ACTION:UPD 17-08-30 15:33 OP:rebc STATUS:               ID:20170716001905 L   I
 OLDACT:REG 17-07-16 11:51 OP:dhb  STATUS:               ID:20170716001138     3
 2017-07-16-0018-00M.COL___389                                                 6
 STAT SP IPHASW D HRMM SECON CODA AMPLIT PERI AZIMU VELO AIN AR TRES W  DIS CAZ7
 BAR2 EZ IP     D  019 25.11                             170   -0.0910 23.4 197 
 BAR2 EZ ES        019 39.64                             170   -0.6510 23.4 197 
 BAR2 EZ I         019 41.71        20.2 0.26            171           23.4 197 
 BRR  HZ EP        019 26.92                             151    0.0210 73.8 298 
 BRR  HE ES        019 44.05                             151    0.7310 73.8 298 
 BRR  HZ I         019 47.19        13.3 0.32            151           73.8 298 
 PAM  EZ IP     D  019 28.02                             151    0.2810 76.1  38 
 PAM  EE ES        019 45.21                             151    0.4010 76.1  38 
 PAM  EZ I         019 48.02         8.6 0.32            153           76.1  38 
 RUS  HZ IP        019 29.08                             143   -0.2410 99.9 178 
 RUS  HN ES        019 47.79                             143    0.1610 99.9 178 
 RUS  HZ I         019 49.03        12.8 0.24            146           99.9 178 
 PTB  HZ IP     D  019 32.54                             131   -0.33 9  150 259 
 PTB  HN ES        019 53.25                             131   -0.68 9  150 259 
 PTB  HZ I         019 58.06         4.8 0.00            132            150 259 
 SPBC HZ EP   3    019 33.95                             128   -0.35 2  164 220 
 SPBC HE ES        019 57.01                             128    0.53 9  164 220 
 SPBC HZ I         019 58.35        12.7 0.11            130            164 220 
 YPLC HZ EP        019 35.48                             126    0.18 9  175 152 
 YPLC HE ES        019 57.87                             126   -0.41 9  175 152 
 YPLC HZ I         020  0.28        10.1 0.28            129            175 152 
 ZAR  HZ EP        019 37.83                             121   -0.60 8  207 292 
 ZAR  HN ES        020  3.30                             121   -0.54 8  207 292 
 ZAR  HZ I         020  9.54         6.5 0.25            123            207 292 
 NOR  HZ IP     C  019 41.35                             118   -0.30 8  237 235 
 NOR  HN ES        020  9.67                             118    0.09 8  237 235 
 NOR  HZ I         020 12.02         4.2 0.15            119            237 235 
 GUY2CHZ EP        019 50.38                             112    0.81 7  303 235 
 GUY2CHN ES   4    020 27.79                             112    4.12 0  303 235 
 GUY2CHZ I         020 31.33         4.1 0.30                           303 235 
 CBOC HZ EP        019 53.47                             109    0.52 7  336 252 
 CBOC HN ES        020 30.52                             109    0.83 7  336 252 
 CBOC HZ I         020 33.25         1.2 0.28            111            336 252 
                                                                                
