 2017  116 0521 44.3 L   6.721 -73.160149.6  RSN  4 0.2 1.0LRSN                1
 GAP=230        0.56       4.7     4.8  6.6  0.1540E+02 -0.4036E+01 -0.5500E+01E
 Epicentro: VILLANUEVA - SANTANDER                                             3
 ACTION:UPD 17-05-22 16:00 OP:jn   STATUS:               ID:20170116052144 L   I
 OLDACT:UP  17-01-16 16:27 OP:dani STATUS:               ID:20170116051745d    3
 OLDACT:DUP 17-01-16 16:24 OP:dani STATUS:               ID:20170116051745d    3
 OLDACT:REG 17-01-16 13:17 OP:dani STATUS:               ID:20170116051744     3
 2017-01-16-0518-00M.COL___341                                                 6
 STAT SP IPHASW D HRMM SECON CODA AMPLIT PERI AZIMU VELO AIN AR TRES W  DIS CAZ7
 BRR  HZ EP        522  5.82                             152   -0.2510 74.4 305 
 BRR  HE ES        522 23.20                             152    0.1710 74.4 305 
 BRR  HZ I         522 24.39         2.1 0.28            153           74.4 305 
 RUS  HZ EP        522  8.14                             147    0.2810 92.0 175 
 RUS  HN ES        522 26.02                             147   -0.2010 92.0 175 
 RUS  HZ I         522 26.64         1.1 0.39            149           92.0 175 
 PTB  HN ES        522 32.45                             133    0.05 9  145 262 
 PTB  HZ I         522 32.60         1.2 0.12            135            145 262 
 ZAR  HN ES        522 42.80                             123   -0.08 8  206 295 
                                                                                
