 2013  816 0807 43.9 L   6.876 -73.279125.4  RSN  9 0.4 2.1LRSN                1
 GAP=163        0.96       2.8     5.1  6.0  0.2295E+01  0.5916E+01 -0.2194E+01E
 Epicentro: BETULIA - SANTANDER                                                3
 ACTION:UPD 14-01-14 09:03 OP:ep   STATUS:               ID:20130816080743 L   I
 OLDACT:UP  13-08-16 12:08 OP:cam  STATUS:               ID:20130816075852     3
 OLDACT:REG 13-08-16 08:35 OP:stll STATUS:               ID:20130816075852     3
 2013-08-16-0758-52M.COL___216                                                 6
 STAT SP IPHASW D HRMM SECON CODA AMPLIT PERI AZIMU VELO AIN AR TRES W  DIS CAZ7
 BAR2 SZ EP        8 8  1.60                             164    0.2810 33.1 161 
 BAR2 SZ ES        8 8 14.71                             164   -0.2210 33.1 161 
 BAR2 SZ I         8 8 16.11       115.9 0.35            165           33.1 161 
 BRR  HZ EP        8 8  1.95                             155    0.0910 54.2 298 
 BRR  HN ES        8 8 16.11                             155    0.2110 54.2 298 
 BRR  HZ I         8 8 16.35        15.9 0.14            153           54.2 298 
 RUS  HZ EP        8 8  6.59                             136    0.0910  111 169 
 RUS  HZ I         8 8  6.87         6.8 0.10            137            111 169 
 RUS  HE ES        8 8 24.29                             136    0.1210  111 169 
 PTB  HZ EP        8 8  6.93                             130   -1.12 9  135 254 
 PTB  HN ES   4    8 8 24.76                             130   -2.17 0  135 254 
 PTB  HZ I         8 8 28.55        24.1 0.46            129            135 254 
 OCA  HZ EP        8 8 10.03                             126    0.30 9  151 358 
 OCA  HE ES        8 8 29.63                             126   -0.28 9  151 358 
 OCA  HZ I         8 8 32.66        23.3 0.28            127            151 358 
 SPBC HZ EP        8 8 10.87                             124    0.19 9  161 213 
 SPBC HN ES        8 8 31.41                             124   -0.19 9  161 213 
 SPBC HZ I         8 8 38.18        10.5 0.46            124            161 213 
 ZAR  HE ES        8 8 36.71                             120    0.51 9  187 291 
 NOR  HZ EP   1    8 8 18.18                             115    0.43 6  228 231 
 SML  HZ EP        8 8 17.96                             114    0.05 8  230 338 
 SML  HN ES        8 8 44.23                             114   -0.24 8  230 338 
 SML  HZ I         8 8 48.97        20.0 0.28            114            230 338 
 HEL  HZ EP   4    8 8 22.76                             111    1.02 0  260 253 
                                                                                
