 2012 1016 0604 50.2 L   7.123 -73.295117.1  RSN  6 0.1 1.9LRSN                1
 GAP=147        0.35       2.8     1.9  2.8  0.1623E+01  0.8253E+00  0.6762E+00E
 Epicentro: LEBRIJA - SANTANDER                                                3
 ACTION:UPD 12-11-22 17:04 OP:ep   STATUS:               ID:20121016060450 L   I
 2012-10-16-0600-00M.COL___230                                                 6
 STAT SP IPHASW D HRMM SECON CODA AMPLIT PERI AZIMU VELO AIN AR TRES W  DIS CAZ7
 GIR2 SZ EP        6 5  5.98                             174   -0.0510 12.2 114 
 BRR  HZ IP     C  6 5  6.68                             157   -0.2010 46.1 268 
 BRR  HZ I         6 5  6.90        46.0 0.12                          46.1 268 
 BRR  HN ES        6 5 19.93                             157    0.0410 46.1 268 
 BAR2 SZ EP        6 5  8.17                             151    0.2010 60.0 168 
 BAR2 SZ ES   1    6 5 21.72                             151   -0.11 7 60.0 168 
 BAR2 SZ I         6 5 23.45        41.8 0.16                          60.0 168 
 PAM  SZ EP   1    6 5  8.92                             147   -0.03 7 69.9  70 
 PAM  SZ I         6 5 10.62         5.5 0.17                          69.9  70 
 PAM  SN ES   1    6 5 23.64                             147    0.07 7 69.9  70 
 RUS  HZ EP        6 5 14.69                             127    0.02 9  138 170 
 ZAR  HZ EP        6 5 18.06                             119    0.00 9  177 283 
 ZAR  HN ES   1    6 5 39.89                             119    0.10 7  177 283 
 ZAR  HZ I         6 5 44.18         7.1 0.32                           177 283 
                                                                                
