 2016 1216 0734  1.5 L   6.838 -73.129147.3  RSN  5 0.2 1.0LRSN                1
 GAP=137        0.63       3.4     3.3  4.6 -0.1152E+01  0.1862E+01  0.8879E+00E
 Epicentro: LOS SANTOS - SANTANDER                                             3
 ACTION:UPD 17-01-11 20:15 OP:rebc STATUS:               ID:20161216073401 L   I
 OLDACT:UP  16-12-16 17:48 OP:e    STATUS:               ID:20161216072744     3
 OLDACT:REG 16-12-16 12:48 OP:and  STATUS:               ID:20161216072744     3
 2016-12-16-0728-00M.COL___335                                                 6
 STAT SP IPHASW D HRMM SECON CODA AMPLIT PERI AZIMU VELO AIN AR TRES W  DIS CAZ7
 BAR2 EZ EP        734 21.31                             169   -0.1110 27.8 192 
 BAR2 EZ ES        734 37.02                             169    0.0710 27.8 192 
 BRR  HZ EP        734 22.67                             153   -0.1410 71.0 295 
 BRR  HN ES        734 39.68                             153    0.2610 71.0 295 
 PAM  EZ EP     D  734 23.90                             152    0.2710 73.0  41 
 PAM  EE ES        734 40.63                             152   -0.2610 73.0  41 
 PAM  EZ I         734 42.72         2.1 0.40            153           73.0  41 
 RUS  HZ EP        734 26.07                             143    0.3610  105 177 
 RUS  HN ES        734 44.40                             143   -0.1810  105 177 
 PTB  HZ EP        734 28.51                             132   -0.33 9  150 257 
 PTB  HN ES        734 50.18                             132    0.02 9  150 257 
 PTB  HZ I         734 51.63         1.2 0.18            132            150 257 
                                                                                
