 2015 1116 0637 57.5 L   6.788 -73.065136.4  RSN  7 0.4 1.5LRSN                1
 GAP=191        1.14       4.0     7.0  7.4  0.4124E+01  0.4091E+01 -0.7127E+01E
 Epicentro: LOS SANTOS - SANTANDER                                             3
 ACTION:UPD 15-12-28 16:11 OP:cam  STATUS:               ID:20151116063757 L   I
 OLDACT:UP  15-11-19 06:52 OP:CARA STATUS:               ID:20151116063757 L   3
 OLDACT:REG 15-11-16 16:04 OP:dnl  STATUS:               ID:20151116063748     3
 2015-11-16-0637-48M.COL___313                                                 6
 STAT SP IPHASW D HRMM SECON CODA AMPLIT PERI AZIMU VELO AIN AR TRES W  DIS CAZ7
 BAR2 EZ EP     D  638 16.86                             169    0.7810 25.3 211 
 BAR2 EZ ES        638 30.04                             169   -0.5010 25.3 211 
 BAR2 EZ I         638 33.31         5.4 0.24            164           25.3 211 
 BRR  HZ EP     D  638 18.80                             148    0.6010 79.8 296 
 BRR  HN ES        638 34.85                             148    0.5210 79.8 296 
 BRR  HZ I         638 41.08         4.9 0.24            145           79.8 296 
 RUS  HZ EP        638 20.64                             142    0.3910 99.1 181 
 RUS  HE ES        638 37.62                             142   -0.3610 99.1 181 
 RUS  HZ I         638 40.27         3.6 0.26            145           99.1 181 
 OCA  HZ EP        638 25.09                             127   -0.29 9  163 350 
 OCA  HN ES        638 46.84                             127   -0.26 9  163 350 
 OCA  HZ I         638 53.97         7.1 0.20            130            163 350 
 SPBC HZ EP        638 25.67                             126   -0.13 9  168 222 
 SPBC HN ES        638 47.48                             126   -0.37 9  168 222 
 SPBC HZ I         638 58.33         4.5 0.34            127            168 222 
 ZAR  HZ EP        638 30.07                             119   -0.24 8  213 292 
 ZAR  HN ES        638 55.88                             119   -0.01 8  213 292 
 ZAR  HZ I         639  1.30         6.1 0.52            120            213 292 
 SML  HZ EP        638 33.57                             115   -0.63 8  249 334 
 SML  HE ES   4    639  1.37                             115   -1.44 0  249 334 
                                                                                
