 2017 1016 0328 34.7 L   6.843 -73.138144.3  RSN 20 0.6 2.4LRSN                1
 GAP= 65        1.13       3.8     3.5  5.3 -0.6329E+00  0.3330E+01  0.3286E+01E
 Epicentro: LOS SANTOS - SANTANDER                                             3
 ACTION:UPD 17-11-07 19:32 OP:rebc STATUS:               ID:20171016032834 L   I
 OLDACT:UP  17-10-16 15:04 OP:dani STATUS:               ID:20171016032604     3
 OLDACT:UP  17-10-16 15:04 OP:dani STATUS:               ID:20171016032604     3
 OLDACT:REG 17-10-16 12:46 OP:dani STATUS:               ID:20171016032604     3
 2017-10-16-0328-00M.COL___429                                                 6
 STAT SP IPHASW D HRMM SECON CODA AMPLIT PERI AZIMU VELO AIN AR TRES W  DIS CAZ7
 BAR2 EZ EP        328 54.14                             169   -0.1010 28.2 190 
 BAR2 EZ ES        329  8.79                             169   -0.7110 28.2 190 
 BAR2 EZ I         329 10.16        38.2 0.16            169           28.2 190 
 BRR  HZ EP     C  328 56.03                             152    0.4410 69.8 295 
 BRR  HN ES        329 12.76                             152    0.8610 69.8 295 
 BRR  HZ I         329 17.30        58.5 0.12            152           69.8 295 
 PAM  EZ EP        328 57.02                             151    0.5310 73.1  41 
 PAM  EN ES        329 13.91                             151    0.4110 73.1  41 
 PAM  EZ I         329 16.29        57.8 0.58            148           73.1  41 
 RUS  HZ EP        328 58.54                             142   -0.0910  105 177 
 RUS  HE ES        329 16.48                             142   -0.8410  105 177 
 RUS  HZ I         329 17.39        32.1 0.24            141            105 177 
 PTB  HZ EP        329  1.58                             131   -0.11 9  150 257 
 PTB  HN ES        329 22.24                             131   -0.53 9  150 257 
 PTB  HZ I         329 24.96        36.9 0.16            130            150 257 
 TAM  HZ EP        329  2.50                             130    0.22 9  156 107 
 TAM  HZ I         329 22.09        15.7 0.20            127            156 107 
 YPLC HZ IP     C  329  4.62                             126   -0.12 9  181 152 
 YPLC HE ES        329 28.50                             126    0.31 9  181 152 
 YPLC HZ I         329 30.95        22.0 0.32            123            181 152 
 NOR  HZ EP        329 10.67                             118   -0.03 8  238 234 
 NOR  HN ES        329 38.74                             118   -0.06 8  238 234 
 NOR  HZ I         329 43.48        19.4 0.20            116            238 234 
 CHI  HZ EP        329 12.49                             116   -0.34 8  254 195 
 CHI  HN ES   3    329 41.58                             116   -1.00 2  254 195 
 CHI  HZ I         329 45.84         8.8 0.26            115            254 195 
 ROSC BZ EP   9    329 15.90                             116    2.68 0  257 211 
 ROSC BN ES        329 45.11                             116   -0.85 8  257 211 
 ROSC BZ I         329 46.44        13.6 0.43            114            257 211 
 GUY2CHZ EP   3    329 19.94                             112    1.33 2  305 234 
 GUY2CHN ES        329 53.87                             112    0.98 7  305 234 
 GUY2CHZ I         329 59.52        11.0 0.34                           305 234 
 PTGC HZ EP   3 C  329 17.32                             111   -1.62 2  313 159 
 PTGC HN ES   4    329 50.24                             111   -3.23 0  313 159 
 PTGC HZ I         329 52.51        11.0 0.48            109            313 159 
 DBB  EZ EP   3    329 23.49                             109    1.33 2  340 273 
 DBB  EN ES        329 58.31                             109   -0.88 7  340 273 
 DBB  EZ I         330  1.68        12.7 0.23            108            340 273 
 ARGC HZ EP   3    329 25.09                             108    1.30 2  355 340 
 PRA  HZ EP        329 28.38                             106   -0.31 6  397 209 
 PRA  HN ES   3    330  9.78                             106   -1.04 1  397 209 
 PRA  HZ I         330 16.01        10.1 0.42            105            397 209 
 ORTC HZ EP        329 29.42                             106    0.36 6  400 216 
 ORTC HN ES        330 12.35                             106    0.87 6  400 216 
 ORTC HZ I         330 17.12         7.9 0.42            105            400 216 
 SJC  HZ EP        329 28.50                             105   -1.28 6  406 326 
 SJC  HN ES   4    330 10.22                             105   -2.53 0  406 326 
 SJC  HZ I         330 13.61         6.5 0.56            104            406 326 
 PAL  HZ EP        329 30.30                             105    0.13 6  409 239 
 CRJC HZ EP   3    329 34.82                             103   -1.74 1  463   3 
 CRJC HN ES   4    330 19.86                             103   -4.97 0  463   3 
 CRJC HZ I         330 31.76         8.6 0.51            102            463   3 
 SMAR HZ EP        329 39.76                             102   -0.22 4  493 346 
 SMAR HN ES   3    330 28.54                             102   -2.37 1  493 346 
 MACC HZ EP   4    329 41.56                             101   -2.38 0  525 189 
                                                                                
