 2016 1216 0706  5.6 L   6.796 -73.098139.0  RSN 10 0.4 1.8LRSN                1
 GAP=123        0.98       3.7     4.3  5.5 -0.8491E-02  0.5839E+01  0.4765E+01E
 Epicentro: LOS SANTOS - SANTANDER                                             3
 ACTION:UPD 17-01-11 20:15 OP:rebc STATUS:               ID:20161216070605 L   I
 OLDACT:UP  16-12-16 17:03 OP:e    STATUS:               ID:20161216065753d    3
 OLDACT:UP  16-12-16 17:02 OP:e    STATUS:               ID:20161216065753d    3
 OLDACT:DUP 16-12-16 16:50 OP:e    STATUS:               ID:20161216065753d    3
 2016-12-16-0658-00M.COL___344                                                 6
 STAT SP IPHASW D HRMM SECON CODA AMPLIT PERI AZIMU VELO AIN AR TRES W  DIS CAZ7
 BAR2 EZ IP     C  7 6 24.12                             170   -0.3610 24.4 203 
 BAR2 EZ ES        7 6 39.11                             170   -0.0710 24.4 203 
 BAR2 EZ I         7 6 40.15        20.1 0.26            166           24.4 203 
 PAM  EZ EP     C  7 6 26.99                             150    0.0210 74.5  36 
 PAM  EE ES        7 6 44.03                             150    0.4310 74.5  36 
 PAM  EZ I         7 6 44.52         9.1 0.21            153           74.5  36 
 BRR  HZ EP        7 6 26.02                             150   -0.3410 76.1 297 
 BRR  HE ES        7 6 43.05                             150    0.5310 76.1 297 
 BRR  HZ I         7 6 47.35        17.2 0.12            145           76.1 297 
 RUS  HZ EP        7 6 28.42                             143   -0.2610 99.9 179 
 RUS  HN ES        7 6 46.13                             143   -0.5210 99.9 179 
 RUS  HZ I         7 6 47.78         9.6 0.30            143           99.9 179 
 PTB  HZ EP   9    7 6 30.77                             129   -1.78 0  153 259 
 PTB  HN ES        7 6 51.52                             132   -0.24 9  153 259 
 PTB  HZ I         7 6 54.10        11.1 0.24            127            153 259 
 ZAR  HN ES        7 7  3.10                             120   -0.48 8  209 292 
 ZAR  HZ I         7 7 11.16        11.0 0.24            118            209 292 
 CHI  HZ EP        7 6 43.45                             116    0.37 8  250 196 
 CHI  HN ES        7 7 12.94                             116    0.65 8  250 196 
 CHI  HZ I         7 7 17.41         1.5 0.32            115            250 196 
 GUY2CHZ EP        7 6 50.11                             111    0.70 7  305 235 
 GUY2CHE ES        7 7 23.88                             111    0.33 7  305 235 
 GUY2CHZ I         7 7 31.72         2.9 0.68                           305 235 
 PTGC HZ EP   9    7 6 47.39                             110   -1.54 0  306 160 
 PTGC HN ES        7 7 20.97                                   -0.19 7  306 160 
 CBOC HZ EP        7 6 52.35                             108   -0.50 7  339 252 
 CBOC HN ES   4    7 7 27.78                             108   -1.90 0  339 252 
 CBOC HZ I         7 7 43.21         0.9 0.21            108            339 252 
 SJC  HZ EP   4    7 6 58.63                             104   -2.75 0  413 326 
 SJC  HN ES   4    7 7 41.50                             104   -3.36 0  413 326 
                                                                                
