 2015  716 0103  1.1 L   6.903 -73.099135.7  RSN  5 0.3 1.7LRSN                1
 GAP=204        0.71       2.9     5.2  6.0 -0.2318E+01  0.1453E+02 -0.3364E+01E
 Epicentro: PIEDECUESTA - SANTANDER                                            3
 ACTION:UPD 15-09-08 21:49 OP:cam  STATUS:               ID:20150716010301 L   I
 OLDACT:UP  15-07-16 14:25 OP:ak   STATUS:               ID:20150716005750d    3
 OLDACT:DUP 15-07-16 14:18 OP:ak   STATUS:               ID:20150716005750d    3
 OLDACT:REG 15-07-16 12:22 OP:ak   STATUS:               ID:20150716005749     3
 2015-07-16-0057-49M.COL___340                                                 6
 STAT SP IPHASW D HRMM SECON CODA AMPLIT PERI AZIMU VELO AIN AR TRES W  DIS CAZ7
 BAR2 EZ EP        1 3 19.61                             165   -0.2710 35.6 195 
 BAR2 EZ ES        1 3 34.73                             165    0.2210 35.6 195 
 BAR2 EZ I         1 3 35.96         7.3 0.11            168           35.6 195 
 OCA  HZ EP   1    1 3 28.21                             129    0.55 7  150 351 
 OCA  HE ES        1 3 48.00                             129   -0.36 9  150 351 
 OCA  HZ I         1 3 56.94         9.8 0.28            129            150 351 
 ZAR  HZ EP        1 3 33.31                             120    0.28 9  205 289 
 ZAR  HN ES        1 3 58.04                             120    0.13 9  205 289 
 ZAR  HZ I         1 4  4.84         6.2 0.27            121            205 289 
 SML  HZ EP        1 3 36.12                             116   -0.21 8  236 333 
 SML  HN ES        1 4  3.86                             116    0.08 8  236 333 
 SML  HZ I         1 4 12.33         4.8 0.12            117            236 333 
 GUY2CHZ EP        1 3 45.82                             109    0.29 7  312 234 
 GUY2CHN ES        1 4 19.64                             109   -0.53 7  312 234 
 GUY2CHZ I         1 4 26.52         2.2 0.30                           312 234 
                                                                                
