 2015  416 0219 51.5 L   6.774 -73.149150.7  RSN  6 0.5 1.7LRSN                1
 GAP=137        1.15       4.9     6.0  7.7  0.2381E+00  0.8669E+01 -0.8541E+01E
 Epicentro: LOS SANTOS - SANTANDER                                             3
 ACTION:UPD 15-06-03 16:55 OP:cam  STATUS:               ID:20150416021951 L   I
 OLDACT:REG 15-04-16 12:58 OP:carl STATUS:               ID:20150416021735     3
 2015-04-16-0217-35M.COL___275                                                 6
 STAT SP IPHASW D HRMM SECON CODA AMPLIT PERI AZIMU VELO AIN AR TRES W  DIS CAZ7
 BAR2 EZ ES        220 27.06                             172   -0.3310 20.4 190 
 BAR2 EZ I         220 27.57        10.2 0.18            173           20.4 190 
 BRR  HZ EP        220 13.90                             153    0.6610 72.3 301 
 BRR  HN ES        220 30.91                             153    0.7110 72.3 301 
 BRR  HZ I         220 31.41         7.2 0.46            153           72.3 301 
 PAM  SZ EP        220 14.74                             151    0.3610 79.9  38 
 PAM  SN ES        220 31.78                             151   -0.4510 79.9  38 
 PAM  SZ I         220 34.21         5.5 0.56            151           79.9  38 
 RUS  HZ EP        220 15.63                             146    0.1010 97.7 176 
 RUS  HN ES        220 34.24                             146   -0.0410 97.7 176 
 RUS  HZ I         220 35.51         6.0 0.24            147           97.7 176 
 PTB  HZ EP        220 18.74                             133   -0.05 9  147 260 
 PTB  HN ES        220 39.51                             133   -0.56 9  147 260 
 PTB  HZ I         220 41.79         8.6 0.16            134            147 260 
 SML  HZ EP        220 27.93                             118   -0.74 8  246 336 
 SML  HN ES        220 57.64                             118   -0.02 8  246 336 
 SML  HZ I         220 59.92         4.9 0.10            119            246 336 
                                                                                
