 2012 1216 0929 17.6 L   6.789 -73.152137.5  RSN 11 0.4 2.2LRSN                1
 GAP= 71        0.87       3.5     3.6  5.7  0.1197E+01  0.3460E+01  0.2762E+01E
 Epicentro: LOS SANTOS - SANTANDER                                             3
 ACTION:UPD 13-01-04 14:28 OP:ep   STATUS:               ID:20121216092917 L   I
 2012-12-16-0927-40M.COL___192                                                 6
 STAT SP IPHASW D HRMM SECON CODA AMPLIT PERI AZIMU VELO AIN AR TRES W  DIS CAZ7
 BAR2 SZ EP        929 36.37                             170    0.1310 22.0 189 
 BAR2 SZ ES   1    929 50.31                             170   -0.44 7 22.0 189 
 BAR2 SZ I         929 52.04        41.2 0.24                          22.0 189 
 GIR2 SZ EP   1    929 36.52                             166    0.17 7 32.4 352 
 GIR2 SZ ES   1    929 50.97                             166    0.02 7 32.4 352 
 GIR2 SZ I         929 53.11        35.4 0.50                          32.4 352 
 BRR  HZ EP     D  929 38.32                             151    0.4310 71.2 300 
 BRR  HN ES   1    929 54.34                             151    0.65 7 71.2 300 
 BRR  HZ I         929 59.28        38.4 0.12                          71.2 300 
 PAM  SZ EP   1    929 39.29                             149    0.24 7 78.8  39 
 PAM  SE ES   1    929 55.73                             149   -0.04 7 78.8  39 
 PAM  SZ I         929 58.38        38.2 0.44                          78.8  39 
 RUS  HZ EP   1    929 40.39                             142   -0.10 7 99.4 176 
 RUS  HN ES   1    929 58.20                             142   -0.12 7 99.4 176 
 RUS  HZ I         930  0.02        26.3 0.44                          99.4 176 
 PTB  HZ EP   1    929 43.26                             130   -0.59 7  147 259 
 PTB  HN ES   1    930  3.65                             130   -0.65 7  147 259 
 PTB  HZ I         930  6.85        26.2 0.14                           147 259 
 TAM  HZ EP   1    929 44.77                             128    0.08 7  155 104 
 TAM  HN ES   1    930  6.17                             128    0.36 7  155 104 
 TAM  HZ I         930  6.72        12.7 0.26                           155 104 
 OCA  HZ EP   1    929 44.66                             127   -0.76 7  161 353 
 OCA  HN ES   1    930  6.27                             127   -0.83 7  161 353 
 OCA  HZ I         930  9.03        20.1 0.32                           161 353 
 ZAR  HZ EP   1    929 49.39                             120   -0.14 6  204 293 
 ZAR  HN ES   1    930 15.26                             120    0.84 6  204 293 
 ZAR  HZ I         930 21.63        23.0 0.34                           204 293 
 CHI  HZ EP   1    929 54.61                             115   -0.12 6  247 195 
 CHI  HN ES   1    930 23.45                             115   -0.22 6  247 195 
 CHI  HZ I         930 27.97         5.6 0.32                           247 195 
 HEL  HZ EP   1    929 57.93                             113    0.61 6  271 256 
                                                                                
