 2016  816 0249 56.8 L   6.771 -73.117146.0  RSN  9 0.4 1.6LRSN                1
 GAP=142        0.77       3.9     3.7  6.0 -0.2953E+01  0.4661E+01  0.5438E+01E
 Epicentro: LOS SANTOS - SANTANDER                                             3
 ACTION:UPD 16-10-29 15:36 OP:rebc STATUS:               ID:20160816024956 L   I
 OLDACT:DUP 16-08-16 16:01 OP:ak   STATUS:               ID:20160816024728d    3
 OLDACT:REG 16-08-16 13:40 OP:ak   STATUS:               ID:20160816024727     3
 2016-08-16-0248-00M.COL___380                                                 6
 STAT SP IPHASW D HRMM SECON CODA AMPLIT PERI AZIMU VELO AIN AR TRES W  DIS CAZ7
 BAR2 EZ EP        250 16.34                             171   -0.1110 21.0 200 
 BRR  HZ EP        250 18.05                             151   -0.2110 75.5 300 
 BRR  HN ES        250 35.44                             151    0.4710 75.5 300 
 BRR  HZ I         250 40.12         6.8 0.11                          75.5 300 
 PAM  EZ EP        250 19.26                             151    0.1510 78.0  36 
 PAM  EN ES        250 36.27                             151   -0.2110 78.0  36 
 PAM  EZ I         250 37.03         6.5 0.23                          78.0  36 
 RUS  HZ EP        250 20.46                             145    0.0910 97.2 178 
 RUS  HN ES        250 38.82                             145    0.0910 97.2 178 
 RUS  HZ I         250 40.02         3.6 0.38                          97.2 178 
 PTB  HZ EP        250 23.48                             132   -0.57 9  150 260 
 PTB  HN ES        250 45.04                             132   -0.24 9  150 260 
 PTB  HZ I         250 47.12         7.5 0.08                           150 260 
 SPBC HZ EP        250 25.45                             129    0.14 9  163 221 
 ZAR  HZ EP   2    250 30.68                             122    0.96 4  208 293 
 HEL  HZ EP   2    250 38.29                             115    0.98 4  274 257 
 GUY2CHN ES        251 14.62                             112   -0.01 7  302 236 
                                                                                
