 2016  416 0220 36.5 L   6.806 -73.145132.5  RSN 16 0.5 1.9LRSN                1
 GAP=108        1.08       3.8     2.8  5.6 -0.1764E+01  0.5604E+01  0.3809E+01E
 Epicentro: LOS SANTOS - SANTANDER                                             3
 ACTION:UPD 16-05-05 14:21 OP:rebc STATUS:               ID:20160416022036 L   I
 OLDACT:REG 16-04-16 13:49 OP:ak   STATUS:               ID:20160416021744     3
 2016-04-16-0217-44M.COL___319                                                 6
 STAT SP IPHASW D HRMM SECON CODA AMPLIT PERI AZIMU VELO AIN AR TRES W  DIS CAZ7
 BAR2 EZ EP        220 54.73                             169    0.1910 24.1 190 
 BAR2 EZ ES        221  8.68                             169    0.0610 24.1 190 
 BAR2 EZ I         221 10.81        26.1 0.20            167           24.1 190 
 PAM  EZ EP        220 57.59                             148    0.3210 76.8  40 
 PAM  EN ES        221 14.02                             148    0.5510 76.8  40 
 PAM  EZ I         221 16.75        16.9 0.40            154           76.8  40 
 RUS  HZ EP        220 58.61                             141   -0.4010  101 176 
 RUS  HE ES        221 16.61                             141    0.0310  101 176 
 RUS  HZ I         221 19.03         6.4 0.24            142            101 176 
 PTB  HZ EP        221  1.47                             129   -0.96 9  148 259 
 PTB  HN ES        221 21.89                             129   -0.77 9  148 259 
 PTB  HZ I         221 25.31        12.0 0.19            130            148 259 
 TAM  HZ EP        221  3.96                             127    0.81 9  155 105 
 TAM  HE ES        221 23.11                             127   -0.85 9  155 105 
 TAM  HZ I         221 25.92         8.4 0.56            131            155 105 
 SPBC HZ EP        221  3.75                             126   -0.31 9  164 219 
 SPBC HE ES        221 25.71                             126    0.14 9  164 219 
 SPBC HZ I         221 33.59        17.3 0.24            127            164 219 
 ZAR  HZ EP   2    221  9.05                             119    0.97 4  204 292 
 ZAR  HN ES        221 32.67                             119   -0.06 9  204 292 
 ZAR  HZ I         221 39.09        14.5 0.32            121            204 292 
 NOR  HZ EP        221 11.52                             115   -0.01 8  235 234 
 NOR  HE ES        221 39.31                             115    0.44 8  235 234 
 NOR  HZ I         221 47.90         8.4 0.22            117            235 234 
 CHI  HZ EP        221 13.15                             114   -0.41 8  249 195 
 CHI  HN ES        221 42.52                             114    0.04 8  249 195 
 CHI  HZ I         221 47.65         3.9 0.50            116            249 195 
 ROSC BZ EP   4    221 15.57                             114    1.58 0  253 211 
 HEL  HZ EP        221 16.34                             112    0.25 8  272 256 
 HEL  HE ES        221 46.68                             112   -0.29 8  272 256 
 HEL  HZ I         221 53.20         5.8 0.52            114            272 256 
 URE  HZ EP   9    221 14.97                             111   -1.95 0  284 292 
 URE  HN ES        221 45.75                                   -0.76 7  284 292 
 GUY2CHZ EP        221 19.82                             109    0.25 7  302 235 
 GUY2CHN ES        221 53.38                             109    0.20 7  302 235 
 GUY2CHZ I         222  1.21         4.4 0.38                           302 235 
 CBOC HZ EP        221 22.79                             107   -0.13 7  334 252 
 CBOC HE ES        221 59.36                             107    0.22 7  334 252 
 CBOC HZ I         222  2.64         1.6 0.24            109            334 252 
 ANIL HN ES        222  5.07                             106    0.66 6  358 224 
 ANIL HZ I         222 13.28         9.0 0.36            108            358 224 
 ORTC HZ EP        221 29.73                             104   -0.33 6  396 216 
 ORTC HN ES        222 12.29                             104    0.45 6  396 216 
 ORTC HZ I         222 17.77         2.4 0.19            106            396 216 
 PAL  HZ EP        221 30.97                             103   -0.32 6  406 239 
 PAL  HN ES        222 14.88                             103    0.85 6  406 239 
 PAL  HZ I         222 18.85         2.2 0.40            105            406 239 
                                                                                
