 2017  216 0541 29.6 L   6.520 -73.535114.0  RSN 12 0.4 1.6LRSN                1
 GAP= 62        0.77       2.3     2.1  4.4 -0.2428E-01  0.2613E+01  0.2144E+01E
 Epicentro: EL CARMEN - SANTANDER                                              3
 ACTION:UPD 17-05-24 15:36 OP:jn   STATUS:               ID:20170216054129 L   I
 OLDACT:UP  17-02-16 16:30 OP:dani STATUS:               ID:20170216053745     3
 OLDACT:UP  17-02-16 16:28 OP:dani STATUS:               ID:20170216053745     3
 OLDACT:UP  17-02-16 16:27 OP:dani STATUS:               ID:20170216053745     3
 OLDACT:UP  17-02-16 16:26 OP:dani STATUS:               ID:20170216053745     3
 OLDACT:REG 17-02-16 13:27 OP:dani STATUS:               ID:20170216053745     3
 2017-02-16-0538-00M.COL___364                                                 6
 STAT SP IPHASW D HRMM SECON CODA AMPLIT PERI AZIMU VELO AIN AR TRES W  DIS CAZ7
 BAR2 EZ IP     C  541 46.26                             160    0.2810 39.8  78 
 BAR2 EZ ES        541 59.06                             160    0.3010 39.8  78 
 BRR  HZ EP        541 47.22                             147    0.0410 67.8 343 
 BRR  HN ES        542  1.08                             147    0.1910 67.8 343 
 BRR  HZ I         542  1.84        10.8 0.12            147           67.8 343 
 RUS  HZ EP        541 49.16                             141    0.0110 85.5 144 
 RUS  HN ES        542  4.23                             141   -0.1810 85.5 144 
 RUS  HZ I         542  6.19         9.8 0.44            144           85.5 144 
 PTB  HZ EP     D  541 49.02                             135   -0.8110  102 271 
 PTB  HN ES   3    542  4.22                             135   -1.40 2  102 271 
 PTB  HZ I         542  8.61        16.4 0.26            134            102 271 
 PAM  EZ EP        541 52.89                             128   -0.0910  129  45 
 PAM  EN ES        542 10.97                             128   -0.2510  129  45 
 PAM  EZ I         542 12.27         8.2 0.18            131            129  45 
 ZAR  HZ EP        541 58.25                             118    0.54 9  181 306 
 ZAR  HN ES   3    542 20.77                             118    1.13 2  181 306 
 ZAR  HZ I         542 24.78         6.9 0.12            118            181 306 
 NOR  HZ EP        541 57.73                             118   -0.06 9  182 234 
 NOR  HN ES        542 20.05                             118    0.26 9  182 234 
 NOR  HZ I         542 24.40         6.1 0.12            118            182 234 
 TAM  HZ EP        541 59.08                             116    0.06 9  193  93 
 TAM  HN ES        542 21.89                             116   -0.08 9  193  93 
 CHI  HZ EP        542  1.75                             114    0.36 8  210 186 
 CHI  HE ES        542 26.33                             114    0.14 8  210 186 
 CHI  HZ I         542 31.24         1.5 0.28            115            210 186 
 URE  HZ EP        542  6.25                             109   -0.22 8  259 302 
 URE  HN ES   3    542 33.93                             109   -1.31 2  259 302 
 URE  HZ I         542 42.39         3.4 0.12            109            259 302 
 CBOC HZ EP   3    542 10.70                             107    1.20 2  284 255 
 CBOC HN ES        542 40.42                             107   -0.20 7  284 255 
 CBOC HZ I         542 45.16         2.3 0.36            107            284 255 
 PTGC HN ES        542 43.37                             106   -0.30 7  300 149 
                                                                                
