 2013  716 0658  8.2 L   6.794 -73.136148.9  RSN 10 0.5 2.2LRSN                1
 GAP=138        1.02       3.4     4.4  6.6 -0.2657E+01  0.7774E+01 -0.1584E+01E
 Epicentro: LOS SANTOS - SANTANDER                                             3
 ACTION:UPD 13-08-12 10:38 OP:ep   STATUS:               ID:20130716065808 L   I
 OLDACT:DUP 13-07-16 11:05 OP:mh   STATUS:               ID:20130716065001d    3
 OLDACT:UP  13-07-16 11:03 OP:mh   STATUS:               ID:20130716065000     3
 OLDACT:UP  13-07-16 11:03 OP:mh   STATUS:               ID:20130716065000     3
 OLDACT:REG 13-07-16 08:03 OP:mh   STATUS:               ID:20130716065000     3
 2013-07-16-0650-00M.COL___263                                                 6
 STAT SP IPHASW D HRMM SECON CODA AMPLIT PERI AZIMU VELO AIN AR TRES W  DIS CAZ7
 BAR2 SZ EP        658 28.23                             171    0.0810 22.8 193 
 BAR2 SZ ES   1    658 43.24                             171   -0.50 7 22.8 193 
 BAR2 SZ I         658 45.76        26.8 0.32            171           22.8 193 
 BRR  HZ EP     C  658 30.13                             153    0.4210 72.4 299 
 BRR  HN ES        658 47.25                             153    0.7310 72.4 299 
 BRR  HN I         658 47.83        47.9 0.28            148           72.4 299 
 PAM  SZ EP   1    658 31.05                             151    0.36 7 77.3  39 
 PAM  SN ES        658 48.29                             151    0.0110 77.3  39 
 PAM  SN I         658 48.73        18.2 0.20            153           77.3  39 
 RUS  HZ EP   1    658 32.17                             145    0.01 7 99.8 177 
 RUS  HE ES        658 50.26                             145   -0.6210 99.8 177 
 RUS  HN I         658 52.69        12.7 0.24            149           99.8 177 
 PTB  HZ EP   1    658 34.81                             132   -0.64 7  149 259 
 PTB  HN ES        658 56.21                             132   -0.54 9  149 259 
 PTB  HN I         659  1.74        59.0 0.30            131            149 259 
 OCA  HZ EP   1    658 36.28                             130   -0.50 7  161 353 
 OCA  HE ES   1    658 59.66                             130    0.54 7  161 353 
 OCA  HZ I         659  4.70        13.7 0.32            130            161 353 
 SPBC HZ EP        658 37.17                             130    0.27 9  163 219 
 SPBC HE ES        658 59.54                             130    0.22 9  163 219 
 ZAR  HZ EP   1    658 40.96                             123    0.03 6  205 292 
 ZAR  HE ES        659  6.19                             123   -0.30 8  205 292 
 ZAR  HZ I         659 16.18        10.1 0.40            122            205 292 
 NOR  HZ EP   1    658 44.29                             119    0.18 6  235 235 
 NOR  HE ES        659 12.78                             119    0.63 8  235 235 
 NOR  HZ I         659 16.00         8.7 0.18            120            235 235 
 SML  HZ EP   1    658 44.51                             118   -0.56 6  245 335 
 SML  HN ES   1    659 13.08                             118   -0.78 6  245 335 
 SML  HN I         659 21.12        43.5 0.32            118            245 335 
                                                                                
