 2013  116 0451 46.9 L   6.753 -73.181135.0  RSN  6 0.4 1.7LRSN                1
 GAP=230        0.70       4.9     5.8  7.3  0.1378E+02  0.1114E+02  0.3497E+01E
 Epicentro: VILLANUEVA - SANTANDER                                             3
 ACTION:UPD 13-02-15 09:14 OP:ep   STATUS:               ID:20130116045146 L   I
 2013-01-16-0450-00M.COL___239                                                 6
 STAT SP IPHASW D HRMM SECON CODA AMPLIT PERI AZIMU VELO AIN AR TRES W  DIS CAZ7
 BAR2 SZ EP   1    452  5.11                             172   -0.05 7 17.8 180 
 BAR2 SZ ES   1    452 19.29                             172   -0.09 7 17.8 180 
 BAR2 SZ I         452 22.52        16.7 0.46            163           17.8 180 
 BRR  HZ EP     C  452  7.02                             151    0.1410 70.5 304 
 BRR  HN ES   4    452 23.79                             151    1.34 0 70.5 304 
 BRR  HZ I         452 29.05        16.6 0.12            146           70.5 304 
 RUS  HZ EP   1    452  9.07                             143   -0.21 7 95.8 173 
 RUS  HN ES   1    452 26.92                             143    0.21 7 95.8 173 
 RUS  HZ I         452 28.66         6.8 0.32            143           95.8 173 
 PTB  HZ EP   1    452 11.99                             130   -0.60 7  143 261 
 PTB  HN ES   1    452 32.11                             130   -0.50 7  143 261 
 PTB  HZ I         452 35.13        11.6 0.24            128            143 261 
 ZAR  HN ES   1    452 43.90                             120    0.72 6  202 294 
 ZAR  HZ I         452 54.20         6.1 0.26            120            202 294 
 CHI  HZ EP   1    452 23.57                             115    0.18 6  243 195 
 CHI  HN ES   1    452 52.17                             115    0.35 6  243 195 
 CHI  HZ I         453  2.77         1.2 0.34            117            243 195 
                                                                                
