 2016  716 0624 34.1 L   6.788 -73.152151.7  RSN 10 0.4 1.6LRSN                1
 GAP=136        0.96       3.5     3.8  5.7 -0.8272E-01  0.5373E+01  0.3178E+01E
 Epicentro: LOS SANTOS - SANTANDER                                             3
 ACTION:UPD 17-03-29 16:51 OP:lp   STATUS:               ID:20160716062434 L   I
 OLDACT:REG 16-07-16 12:21 OP:lv   STATUS:               ID:20160716061759     3
 2016-07-16-0617-59S.COL___322                                                 6
 STAT SP IPHASW D HRMM SECON CODA AMPLIT PERI AZIMU VELO AIN AR TRES W  DIS CAZ7
 BAR2 EZ EP        624 54.43                             171   -0.0110 22.0 189 
 BAR2 EZ ES        625  9.90                             171   -0.3910 22.0 189 
 BAR2 EZ I         625 12.15         9.5 0.23            170           22.0 189 
 BRR  HZ EP        624 56.18                             153    0.2610 71.2 300 
 BRR  HN ES        625 13.34                             153    0.4210 71.2 300 
 BRR  HZ I         625 17.30         5.8 0.12            152           71.2 300 
 PAM  EZ EP        624 57.30                             151    0.2510 78.8  39 
 PAM  EN ES        625 14.52                             151   -0.4210 78.8  39 
 PAM  EZ I         625 16.51         6.8 0.52            155           78.8  39 
 RUS  HZ EP        624 58.31                             145   -0.0610 99.4 176 
 RUS  HE ES        625 17.84                             145    0.5510 99.4 176 
 RUS  HZ I         625 18.25         5.8 0.28            147           99.4 176 
 PTB  HZ EP        625  1.11                             133   -0.39 9  147 259 
 PTB  HN ES        625 22.56                             133   -0.30 9  147 259 
 PTB  HZ I         625 24.75         3.5 0.09            133            147 259 
 SPBC HZ EP        625  3.30                             131    0.35 9  162 219 
 SPBC HN ES        625 25.61                             131    0.17 9  162 219 
 ZAR  HZ EP        625  6.44                             124   -0.51 9  204 293 
 ZAR  HN ES        625 32.73                             124    0.18 9  204 293 
 ZAR  HZ I         625 37.39         2.8 0.26            124            204 293 
 CHI  HZ EP        625 12.46                             118    0.46 8  247 195 
 CHI  HN ES        625 40.68                             118   -0.87 8  247 195 
 CHI  HZ I         625 45.47         1.9 0.16            120            247 195 
 HEL  HE ES        625 46.18                             116    0.12 8  271 256 
 HEL  HZ I         625 54.64         2.1 0.40            117            271 256 
 GUY2CHN ES   4    625 56.69                             113    4.70 0  300 235 
 GUY2CHZ I         625 59.61         2.2 0.34                           300 235 
                                                                                
