 2014  316 0856  2.9 L   6.812 -73.182141.4  RSN  5 0.2 1.4LRSN                1
 GAP=131        0.50       2.4     2.8  5.0 -0.2039E+01  0.4712E+01 -0.2924E+01E
 Epicentro: LOS SANTOS - SANTANDER                                             3
 OLDACT:REG 14-03-16 07:46 OP:fm   STATUS:               ID:20140316084807     3
 OLDACT:DUP 14-03-16 13:26 OP:fm   STATUS:               ID:20140316084808d    3
 OLDACT:UP  14-03-16 13:25 OP:fm   STATUS:               ID:20140316084807     3
 ACTION:UPD 14-04-09 23:17 OP:nd   STATUS:               ID:20140316085602 L   I
 OLDACT:UP  14-03-16 13:42 OP:fm   STATUS:               ID:20140316084808d    3
 2014-03-16-0848-07M.COL___239                                                 6
 STAT SP IPHASW D HRMM SECON CODA AMPLIT PERI AZIMU VELO AIN AR TRES W  DIS CAZ7
 PAM  SZ EP        856 24.86                             149    0.0710 79.0  42 
 PAM  SN ES        856 41.94                             149    0.1110 79.0  42 
 PAM  SZ I         856 47.02         2.0 1.74            151           79.0  42 
 RUS  HZ EP        856 26.27                             142   -0.1110  102 174 
 RUS  SZ I         856 43.52         3.8 1.24            143            102 174 
 RUS  HN ES   1    856 44.44                             142   -0.23 7  102 174 
 PTB  HZ EP        856 29.61                             132    0.39 9  144 258 
 PTB  HN ES        856 49.62                             132   -0.09 9  144 258 
 PTB  SZ I         857  4.96         4.7 2.46            128            144 258 
 SPBC HN ES   1    856 52.87                             128    0.04 7  162 218 
 SML  HZ EP        856 38.77                             117   -0.24 8  241 336 
 SML  HN ES   1    857  6.93                             117   -0.21 6  241 336 
 SML  SZ I         857 23.19         2.7 1.64            115            241 336 
                                                                                
