 2013  816 0911  6.6 L   6.753 -73.162143.9  RSN  6 0.4 1.4LRSN                1
 GAP=232        1.00       5.8     7.2  7.5  0.1139E+02  0.1377E+02  0.2502E+01E
 Epicentro: LOS SANTOS - SANTANDER                                             3
 ACTION:UPD 14-01-14 09:03 OP:ep   STATUS:               ID:20130816091106 L   I
 OLDACT:UP  13-08-16 11:24 OP:cam  STATUS:               ID:20130816090845     3
 OLDACT:REG 13-08-16 08:38 OP:stll STATUS:               ID:20130816090845     3
 2013-08-16-0908-45M.COL___216                                                 6
 STAT SP IPHASW D HRMM SECON CODA AMPLIT PERI AZIMU VELO AIN AR TRES W  DIS CAZ7
 BAR2 SZ ES        911 40.60                             173   -0.3510 17.9 187 
 BRR  HZ EP        911 27.49                             152   -0.1010 72.3 303 
 BRR  HN ES        911 44.48                             152    0.5010 72.3 303 
 BRR  HZ I         911 47.04         6.7 0.46            152           72.3 303 
 RUS  HZ EP   1    911 29.74                             145   -0.05 7 95.6 175 
 RUS  HN ES        911 48.00                             145    0.1110 95.6 175 
 RUS  HZ I         911 48.95         2.3 0.18            147           95.6 175 
 PTB  HZ EP   1    911 32.25                             132   -0.90 7  145 261 
 PTB  HN ES        911 53.39                             132   -0.49 9  145 261 
 PTB  HZ I         911 55.60         4.4 0.44            133            145 261 
 SPBC HZ EP        911 34.57                             130    0.12 9  158 220 
 SPBC HN ES        911 56.61                             130    0.42 9  158 220 
 SPBC HZ I         911 57.85         2.9 0.20            131            158 220 
 ZAR  HZ EP   1    911 39.68                             122    0.74 6  204 294 
                                                                                
