 2015 1216 0011 32.0 L   6.796 -73.157142.6  RSN  6 0.4 2.1LRSN                1
 GAP=135        1.10       4.4     5.1  9.2 -0.9667E+00  0.1480E+02 -0.3309E+01E
 Epicentro: LOS SANTOS - SANTANDER                                             3
 ACTION:UPD 16-02-04 15:05 OP:cam  STATUS:               ID:20151216001651dL   I
 OLDACT:DUP 16-01-25 21:19 OP:cam  STATUS:               ID:20151216001651dL   3
 OLDACT:DUP 16-01-25 21:16 OP:cam  STATUS:               ID:20151216001650dL   3
 OLDACT:UP  16-01-01 06:20 OP:CARA STATUS:               ID:20151216001649 L   3
 OLDACT:REG 15-12-16 12:38 OP:cara STATUS:               ID:20151216000746     3
 2015-12-16-0007-46M.COL___331                                                 6
 STAT SP IPHASW D HRMM SECON CODA AMPLIT PERI AZIMU VELO AIN AR TRES W  DIS CAZ7
 BAR2 EZ EP     C  011 51.43                             170    0.1510 22.7 187 
 BAR2 EZ ES        012  6.16                             170   -0.1310 22.7 187 
 BAR2 EZ I         012  7.25        36.6 0.26            173           22.7 187 
 PAM  EZ EP     D  011 54.33                             150    0.3410 78.5  40 
 PAM  EN ES        012 11.28                             150    0.1810 78.5  40 
 PAM  EZ I         012 13.56        11.0 0.38            150           78.5  40 
 RUS  HZ EP        011 55.46                             143   -0.0010  100 175 
 RUS  HN ES        012 13.83                             143    0.1010  100 175 
 RUS  HZ I         012 14.90         9.5 0.44            147            100 175 
 PTB  HZ EP        011 58.10                             131   -0.54 9  146 259 
 PTB  HN ES        012 19.01                             131   -0.37 9  146 259 
 PTB  HZ I         012 21.60        11.8 0.50            132            146 259 
 OCA  HE ES        012 21.37                             129   -0.68 9  161 354 
 OCA  HE I         012 26.36        63.5 0.28            129            161 354 
 ZAR  HN ES        012 30.25                             122    1.00 9  203 292 
 ZAR  HN I         012 33.57        19.9 0.36            122            203 292 
                                                                                
