 2010  116 0846 54.7 L   6.790 -72.996147.6  RSN 11 0.4 2.4LRSN                1
 GAP=137        0.89       3.6     7.0  5.0 -0.9021E+01  0.7287E+01 -0.3008E+00E
 Epicentro: CEPITA - SANTANDER                                                 3
 ACTION:UP  10-08-24 09:44 OP:vdl  STATUS:               ID:20100116084654 L   I
 2010-01-16-0844-54S.COL___096                                                 6
 STAT SP IPHASW D HRMM SECON CODA AMPLIT PERI AZIMU VELO SNR AR TRES W  DIS CAZ7
 BAR2 SZ IP        847 14.76                             168     0.010   30 223 
 BAR2 SZ ES        847 30.03                             168    -0.310   30 223 
 GIR2 SZ EP   1    847 14.82                             165     0.0 7   39 326 
 GIR2 SZ ES   1    847 30.87                             165     0.4 7   39 326 
 RUS  BZ IP        847 18.65                             144     0.110  100 186 
 RUS  BE ES        847 37.32                             144     0.110  100 186 
 RUS  BZ I         847 38.63        26.9 0.27                           100 186 
 OCA  SZ IP        847 23.09                             129    -0.4 9  164 347 
 OCA  SZ ES   1    847 46.13                             129     0.1 7  164 347 
 OCA  SZ I         847 54.89        57.6 0.20                           164 347 
 CHI  HZ IP        847 32.76                             117    -0.2 8  252 199 
 CHI  HE ES   1    848  2.07                             117    -0.7 6  252 199 
 CHI  HZ I         848 11.66        12.7 0.72                           252 199 
 HEL  HZ EP   2    847 36.67                             114    -0.1 4  288 257 
 HEL  HZ I         848 13.11         8.3 0.36                           288 257 
 RREF BZ IP        847 42.95                             110     0.6 7  334 231 
 RREF BE ES   1    848 20.22                             110     0.8 5  334 231 
 RREF BZ I         848 27.33        16.0 0.36                           334 231 
 SDV  BZ IP        847 44.14                             109     0.7 6  349  48 
 SDV  BZ I         847 44.97         6.4 0.09                           349  48 
 TOL  SZ EP   1    847 43.96                             109    -0.4 5  355 227 
 TOL  SZ ES   1    848 23.66                             109     0.7 5  355 227 
 DBB  SZ EP   1    847 43.45                             109    -0.7 5  356 274 
 PRA  HZ IP        847 48.51                             106    -0.7 6  400 212 
 PRA  HN ES   2    848 32.16                             106     0.5 3  400 212 
 PRA  HZ I         848 36.45        18.7 0.45                           400 212 
                                                                                
