 2017  116 0520 52.0 L   6.773 -73.174148.7  RSN  6 0.3 1.1LRSN                1
 GAP=134        0.79       4.1     3.5  5.8  0.1327E+01  0.3703E+01  0.3027E+00E
 Epicentro: LOS SANTOS - SANTANDER                                             3
 ACTION:UPD 17-05-22 16:00 OP:jn   STATUS:               ID:20170116052052 L   I
 OLDACT:REG 17-01-16 13:17 OP:dani STATUS:               ID:20170116051744     3
 2017-01-16-0518-00M.COL___341                                                 6
 STAT SP IPHASW D HRMM SECON CODA AMPLIT PERI AZIMU VELO AIN AR TRES W  DIS CAZ7
 BAR2 HZ EP        521 12.04                             172    0.1410 20.0 183 
 BAR2 HZ ES        521 27.27                             172   -0.1710 20.0 183 
 BAR2 HZ I         521 28.67         2.6 0.38            173           20.0 183 
 BRR  HZ EP        521 13.66                             153    0.2710 70.0 302 
 BRR  HN ES        521 30.70                             153    0.6210 70.0 302 
 BRR  HZ I         521 34.44         4.5 0.20            154           70.0 302 
 PAM  HZ EP        521 14.85                             150    0.0810 81.7  40 
 PAM  HN ES        521 32.11                             150   -0.4310 81.7  40 
 PAM  HZ I         521 34.28         1.6 0.19            152           81.7  40 
 RUS  HZ EP        521 16.00                             145    0.1710 97.8 174 
 RUS  HN ES        521 34.42                             145   -0.0110 97.8 174 
 RUS  HZ I         521 35.56         1.3 0.23            148           97.8 174 
 PTB  HZ EP        521 18.53                             133   -0.34 9  144 260 
 PTB  HN ES        521 39.61                             133   -0.23 9  144 260 
 PTB  HZ I         521 41.59         1.9 0.16            135            144 260 
 ZAR  HE ES        521 49.54                             123   -0.23 9  202 293 
                                                                                
