 2011  416 0759 32.6 L   6.691 -73.129148.0  RSN  7 0.3 2.0LRSN                1
 GAP=175        0.67       9.3     7.4  7.2 -0.4420E+02 -0.5505E+01  0.8178E+01E
 Epicentro: JORDAN - SANTANDER                                                 3
 ACTION:UP  11-06-22 15:31 OP:REBC STATUS:               ID:20110416075932 L   I
 2011-04-16-0754-10S.COL___140                                                 6
 STAT SP IPHASW D HRMM SECON CODA AMPLIT PERI AZIMU VELO SNR AR TRES W  DIS CAZ7
 BAR2 SZ EP   2    759 52.70                             175     0.4 5   12 208 
 BAR2 SZ ES   2    8 0  7.53                             175    -0.2 5   12 208 
 BAR2 SZ I         8 0  8.75        30.5 0.25                            12 208 
 GIR2 SZ EP   1    759 52.99                             163     0.1 8   43 351 
 BRR  HZ EP   1    759 54.75                             150     0.3 8   79 306 
 BRR  HZ I         759 55.25        29.2 0.11                            79 306 
 BRR  HN ES   1    8 0 11.61                             150     0.1 8   79 306 
 PAM  SZ EP   1    759 55.85                             149     0.3 8   86  33 
 PAM  SN ES   2    8 0 12.78                             149    -0.7 5   86  33 
 PAM  SZ I         8 0 15.24         7.7 0.34                            86  33 
 GRA  SZ IP        759 58.80                             135    -0.210  137  15 
 GRA  SZ I         8 0  0.24        16.2 0.22                           137  15 
 NOR  SN ES   2    8 0 35.25                             120    -0.2 4  229 237 
 HEL  HZ EP   1    8 0 12.26                             115    -0.6 6  271 258 
                                                                                
