 2016  416 0744 31.7 L   7.142 -73.375117.2  RSN 30 0.6 2.9LRSN                1
 GAP= 50        1.16       2.3     2.6  5.4 -0.1615E+01  0.4633E+01 -0.1844E+01E
 Epicentro: LEBRIJA - SANTANDER                                                3
 ACTION:UPD 16-05-05 14:21 OP:rebc STATUS:               ID:20160416074431 L   I
 OLDACT:REG 16-04-16 14:26 OP:ak   STATUS:               ID:20160416073747     3
 2016-04-16-0737-47M.COL___312                                                 6
 STAT SP IPHASW D HRMM SECON CODA AMPLIT PERI AZIMU VELO AIN AR TRES W  DIS CAZ7
 BAR2 EZ IP     D  744 50.05                             149    0.2710 64.4 161 
 BAR2 EZ ES        745  3.68                             149   -0.1710 64.4 161 
 BAR2 EZ I         745  5.39       333.1 0.28            151           64.4 161 
 PAM  EZ IP     D  744 51.45                             144    0.4310 77.8  74 
 PAM  EN ES        745  6.57                             144    0.5010 77.8  74 
 PAM  EZ I         745 10.15       174.8 0.32            145           77.8  74 
 OCA  HZ IP     C  744 54.15                             131   -0.0310  121   3 
 OCA  HN ES        745 11.27                             131   -0.4210  121   3 
 OCA  HZ I         745 19.26       349.1 0.20            128            121   3 
 PTB  HZ EP        744 54.40                             127   -1.05 9  137 241 
 PTB  HN ES   4    745 11.36                             127   -2.59 0  137 241 
 PTB  HZ I         745 16.59       129.4 0.30            124            137 241 
 RUS  HZ EP        744 56.34                             126   -0.24 9  142 167 
 RUS  HN ES        745 15.39                             126   -0.57 9  142 167 
 RUS  HZ I         745 18.60        74.5 0.34            126            142 167 
 ZAR  HZ EP        744 59.05                             121    0.42 9  168 283 
 ZAR  HN ES        745 20.06                             121    0.45 9  168 283 
 ZAR  HZ I         745 25.45       244.6 0.22            118            168 283 
 SPBC HZ E      D  744 59.61                                            182 205 
 SPBC HZ EP        744 59.74                             118   -0.44 9  182 205 
 SPBC HN ES        745 22.90                             118    0.52 9  182 205 
 SPBC HZ I         745 31.99       127.9 0.28            117            182 205 
 TAM  HZ EP        745  1.94                             117    0.75 9  192 114 
 TAM  HE ES        745 24.31                             117    0.15 9  192 114 
 TAM  HZ I         745 24.93        41.0 0.13            117            192 114 
 NOR  HZ EP        745  5.94                             111   -0.68 8  240 224 
 NOR  HE ES        745 33.41                             111   -0.43 8  240 224 
 NOR  HZ I         745 38.96        85.8 0.18            110            240 224 
 URE  HZ IP     D  745  6.39                             110   -1.00 8  248 286 
 URE  HN ES   4    745 32.86                             110   -2.34 0  248 286 
 URE  HZ I         745 42.31       122.5 0.30            108            248 286 
 HEL  HZ EP        745  9.68                             109    0.38 8  260 246 
 HEL  HN ES        745 39.05                             109    0.45 8  260 246 
 HEL  HZ I         745 42.19        34.1 0.28            108            260 246 
 ROSC BZ EP   4    745  7.89                             108   -3.16 0  275 202 
 ROSC BN ES   4    745 44.27                             108    2.56 0  275 202 
 ROSC BZ I         745 50.04        34.9 0.45            107            275 202 
 CHI  HZ EP        745 12.14                             108    0.44 7  281 188 
 CHI  HN ES        745 42.70                             108   -0.18 7  281 188 
 CHI  HZ I         745 48.40        24.2 0.52            107            281 188 
 LL6C HZ EP        745 11.82                             107   -0.12 7  287   2 
 LL6C HZ I         745 51.69        41.6 0.30            106            287   2 
 SOCV BZ EP        745 14.88                             106    0.78 7  305  65 
 SOCV BN ES        745 45.98                             106   -1.17 7  305  65 
 GUY2CHZ EP        745 15.41                             106    0.70 7  306 226 
 GUY2CHE ES        745 47.65                             106   -0.58 7  306 226 
 GUY2CHZ I         745 56.89        36.1 0.50                           306 226 
 CBOC HZ EP        745 17.40                             105    0.90 7  324 244 
 CBOC HN ES        745 51.24                             105   -0.17 7  324 244 
 CBOC HZ I         746  4.76        14.1 0.50            103            324 244 
 ELA  HZ EP   4    745 21.25                             104    2.73 0  337 222 
 ELA  HE ES   4    745 52.88                             104   -2.14 0  337 222 
 ELA  HZ I         746  6.25        32.1 0.30            103            337 222 
 PTGC HZ EP        745 19.18                             103   -0.56 6  353 157 
 PTGC HE ES   4    745 54.90                             103   -2.29 0  353 157 
 PTGC HZ I         745 58.48        20.1 0.53            102            353 157 
 SDV  BZ EP        745 20.88                             103    0.26 6  359  57 
 SDV  BE ES   4    745 56.92                             103   -1.83 0  359  57 
 SDV  BZ I         746  5.45        10.5 0.45            102            359  57 
 SJC  HZ EP        745 20.64                             102   -0.42 6  364 327 
 SJC  HN ES   4    745 56.79                             102   -2.75 0  364 327 
 ANIL HZ EP   4    745 24.55                             102    2.54 0  369 218 
 ANIL HN ES   4    746  4.89                             102    3.67 0  369 218 
 ANIL HZ I         746 12.37        57.0 0.26            101            369 218 
 CVALLEZ EP        745 21.81                             102   -0.26 6  373   2 
 CVALLEN ES        746  1.13                             102   -0.20 6  373   2 
 CVALLEZ I         746  7.79        65.4 0.57                           373   2 
 LCBC HZ EP        745 23.76                             102    0.78 6  381 300 
 PAL  HZ EP        745 26.31                             100    0.19 6  406 233 
 PAL  HE ES        746  8.35                             100   -0.19 6  406 233 
 PAL  HZ I         746 16.26         8.7 0.68             99            406 233 
 ORTC HZ EP        745 27.32                             100    0.37 6  413 210 
 ORTC HE ES        746 10.81                             100    0.79 6  413 210 
 ORTC HZ I         746 19.96        23.8 0.32             99            413 210 
 CRJC HZ EP        745 28.30                              99   -1.02 5  432   7 
 CRJC HN ES        746 14.90                              99    0.66 5  432   7 
 CRJC HZ I         746 21.12        62.9 0.52             98            432   7 
 SMAR HZ EP        745 32.37                              99    0.50 5  455 348 
 SMAR HN ES   4    746 16.77                              99   -2.01 0  455 348 
 SMAR HZ I         746 22.65        14.6 0.23             97            455 348 
 GUA  SZ EP        745 39.01                              97   -0.19 4  515 171 
 GUA  SN ES   4    746 28.89                              97   -2.93 0  515 171 
 GUA  SZ I         746 38.08        24.7 0.30             96            515 171 
 MACC HZ EP   4    745 42.65                              96   -1.40 0  555 185 
 MACC HN ES   4    746 37.06                              96   -3.39 0  555 185 
 MACC HZ I         746 45.35        10.5 0.52             95            555 185 
 PCON HZ EP   4    745 54.97                              95    1.25 0  629 212 
                                                                                
