 2015  716 0119  0.8 L   6.807 -73.146134.0  RSN 11 0.4 1.9LRSN                1
 GAP=136        1.00       2.9     4.4  6.5 -0.2946E+01  0.1665E+02 -0.1294E+01E
 Epicentro: LOS SANTOS - SANTANDER                                             3
 ACTION:UPD 15-09-08 21:49 OP:cam  STATUS:               ID:20150716011900 L   I
 OLDACT:UP  15-07-16 14:38 OP:ak   STATUS:               ID:20150716011749     3
 OLDACT:REG 15-07-16 12:23 OP:ak   STATUS:               ID:20150716011749     3
 2015-07-16-0117-49M.COL___340                                                 6
 STAT SP IPHASW D HRMM SECON CODA AMPLIT PERI AZIMU VELO AIN AR TRES W  DIS CAZ7
 BAR2 EZ EP        119 19.08                             169    0.0810 24.1 190 
 BAR2 EZ ES        119 33.78                             169    0.5610 24.1 190 
 BAR2 EZ I         119 36.03        13.2 0.25            170           24.1 190 
 PAM  EZ EP        119 22.06                             149    0.3510 76.8  40 
 PAM  EN ES        119 38.15                             149    0.1110 76.8  40 
 PAM  EZ I         119 41.32         7.4 0.58            153           76.8  40 
 RUS  HZ EP        119 23.42                             141   -0.0210  101 176 
 RUS  HE ES        119 40.35                             141   -0.7810  101 176 
 RUS  HZ I         119 43.21         4.9 0.29            147            101 176 
 OCA  HZ EP   1    119 28.11                             127   -0.01 7  159 353 
 OCA  HN ES        119 49.21                             127   -0.24 9  159 353 
 OCA  HZ I         119 57.04        23.9 0.47            130            159 353 
 ZAR  HZ EP        119 32.37                             120   -0.07 9  204 292 
 ZAR  HE ES        119 57.73                             120    0.58 9  204 292 
 ZAR  HZ I         120  4.40         4.8 0.17            122            204 292 
 NOR  HZ EP        119 35.61                             116   -0.28 8  235 234 
 NOR  HE ES        120  2.88                             116   -0.41 8  235 234 
 NOR  HZ I         120  7.09         7.5 0.15            119            235 234 
 SML  HZ EP   1    119 35.94                             115   -0.75 6  243 335 
 SML  HE ES        120  4.19                             115   -0.51 8  243 335 
 SML  HZ I         120  7.68        11.3 0.08            118            243 335 
 HEL  HZ EP        119 40.74                             112    0.31 8  272 256 
 HEL  HN ES        120 10.96                             112   -0.40 8  272 256 
 HEL  HZ I         120 18.57         7.5 0.28            115            272 256 
 GUY2CHZ EP        119 44.42                             110    0.51 7  302 235 
 GUY2CHN ES        120 17.17                             110   -0.39 7  302 235 
 GUY2CHZ I         120 24.42         4.2 0.48                           302 235 
 TOL  SZ EP        119 49.17                             107    0.53 7  344 225 
 TOL  SE ES        120 26.80                             107    0.82 7  344 225 
 TOL  SZ I         120 30.99         3.5 0.43            110            344 225 
 MON  HZ EP   4    119 47.01                             106   -2.27 0  353 308 
 MON  HE ES   4    120 23.67                             106   -3.45 0  353 308 
 MON  HZ I         120 26.79         2.7 0.20            109            353 308 
 SJC  HZ EP   4    119 52.89                             104   -3.00 0  409 327 
 SJC  HN ES   4    120 33.62                             104   -5.26 0  409 327 
                                                                                
