 2010  716 0132 15.7 L   6.791 -73.063144.0  RSN  4 0.2 1.5LRSN                1
 GAP=191        0.48       4.9    10.8  7.3  0.2803E+02 -0.3238E+02 -0.1378E+02E
 Epicentro: LOS SANTOS - SANTANDER                                             3
 ACTION:UPD 10-12-01 15:17 OP:pat  STATUS:               ID:20100716013215 L   I
 2010-07-16-0128-17S.COL___119                                                 6
 STAT SP IPHASW D HRMM SECON CODA AMPLIT PERI AZIMU VELO AIN AR TRES W  DIS CAZ7
 BAR2 SZ ES   2    132 50.17                             170    -0.1 5   26 211 
 BRR  HZ IP     C  132 36.89                             150    -0.210   80 296 
 BRR  HE ES   1    132 54.09                             150     0.2 7   80 296 
 BRR  HZ I         132 55.23         7.7 0.20                            80 296 
 RUS  HZ EP   2    132 39.46                             144     0.3 5   99 181 
 RUS  HE ES   2    132 57.53                             144     0.1 5   99 181 
 RUS  HZ I         132 58.54         4.0 0.18                            99 181 
 OCA  SZ EP   2    132 44.16                             129     0.1 5  163 350 
 OCA  SZ ES   2    133  6.31                             129     0.1 5  163 350 
 OCA  SZ I         133  8.74         4.9 0.24                           163 350 
                                                                                
