 2017  516 0053 23.2 L   6.754 -73.266168.0  RSN  4 0.4 1.7LRSN                1
 GAP=285        0.68       6.3     7.2  9.4 -0.1709E+02 -0.7713E+01  0.1833E+02E
 Epicentro: ZAPATOCA - SANTANDER                                               3
 ACTION:UPD 17-06-16 13:36 OP:jn   STATUS:               ID:20170516005323 L   I
 OLDACT:REG 17-05-16 12:20 OP:dnl  STATUS:               ID:20170516004740     3
 2017-05-16-0048-00M.COL___362                                                 6
 STAT SP IPHASW D HRMM SECON CODA AMPLIT PERI AZIMU VELO AIN AR TRES W  DIS CAZ7
 BRR  HN EP        053 46.03                             159   -0.3610 62.9 308 
 BRR  HE ES        054  4.78                             159    0.3010 62.9 308 
 BRR  HN I         054  6.98        28.3 0.16            148           62.9 308 
 PTB  HZ EP   2    053 51.73                             140    0.82 5  134 260 
 PTB  HN ES        054 12.38                             140   -0.1510  134 260 
 PTB  HZ I         054 13.92         3.7 0.30            132            134 260 
 ZAR  HZ EP   4    053 58.49                             129    2.29 0  194 295 
 ZAR  HN ES        054 21.90                             129   -0.05 9  194 295 
 ZAR  HZ I         054 31.12         4.3 0.32            122            194 295 
 NOR  HZ EP   3    053 59.78                             125    0.87 2  221 234 
 NOR  HE ES        054 26.78                             125    0.01 8  221 234 
 NOR  HZ I         054 33.90         2.0 0.40            120            221 234 
                                                                                
