 2017 1116 0428 46.9 L   6.783 -73.153142.7  RSN  4 0.2 1.2LRSN                1
 GAP=136        0.53       4.4     3.0  7.8  0.5161E+01 -0.3804E+01 -0.2106E+02E
 Epicentro: LOS SANTOS - SANTANDER                                             3
 ACTION:UPD 17-12-12 19:56 OP:rebc STATUS:               ID:20171116042846 L   I
 OLDACT:UP  17-11-16 16:07 OP:leo  STATUS:               ID:20171116041743     3
 OLDACT:REG 17-11-16 13:18 OP:leo  STATUS:               ID:20171116041743     3
 2017-11-16-0418-00M.COL___429                                                 6
 STAT SP IPHASW D HRMM SECON CODA AMPLIT PERI AZIMU VELO AIN AR TRES W  DIS CAZ7
 PAM  EZ EP        429  8.80                             150   -0.1510 79.3  39 
 PAM  EZ I         429 27.78         2.2 0.50            136           79.3  39 
 RUS  HZ EP        429 10.29                             144    0.0310 98.8 176 
 RUS  HN ES        429 28.62                             144    0.1710 98.8 176 
 RUS  HZ I         429 30.54         2.3 0.44            161           98.8 176 
 PTB  HZ EP        429 13.41                             131   -0.15 9  147 259 
 PTB  HN ES        429 34.03                             131   -0.29 9  147 259 
 PTB  HZ I         429 35.64         1.4 0.54            147            147 259 
 ZAR  HZ EP        429 19.41                             122    0.22 9  204 293 
 ZAR  HN ES        429 44.58                             122    0.24 9  204 293 
 ZAR  HZ I         429 50.37         2.2 0.38            128            204 293 
                                                                                
