 2017  416 0442 29.0 L   6.764 -73.171148.1  RSN  6 0.3 1.4LRSN                1
 GAP=232        0.85       5.0     5.4  6.3  0.6191E+01  0.4321E+01  0.2817E+01E
 Epicentro: LOS SANTOS - SANTANDER                                             3
 ACTION:UPD 17-05-30 21:12 OP:jn   STATUS:               ID:20170416044229 L   I
 OLDACT:UP  17-04-16 15:47 OP:dani STATUS:               ID:20170416043659     3
 OLDACT:REG 17-04-16 14:09 OP:dani STATUS:               ID:20170416043659     3
 2017-04-16-0438-00M.COL___368                                                 6
 STAT SP IPHASW D HRMM SECON CODA AMPLIT PERI AZIMU VELO AIN AR TRES W  DIS CAZ7
 BAR2 EZ EP        442 48.60                             172   -0.1810 19.1 184 
 BAR2 EZ ES        443  3.65                             172   -0.6010 19.1 184 
 BAR2 EZ I         443  5.08         8.6 0.34            170           19.1 184 
 BRR  HZ EP        442 50.36                             153    0.0310 70.8 302 
 BRR  HE ES        443  7.62                             153    0.6210 70.8 302 
 BRR  HZ I         443 13.45         4.4 0.14            148           70.8 302 
 RUS  HZ EP        442 52.78                             145    0.1110 96.9 174 
 RUS  HN ES        443 11.47                             145    0.3010 96.9 174 
 RUS  HZ I         443 12.44         2.1 0.36            149           96.9 174 
 PTB  HZ EP        442 55.52                             133   -0.28 9  144 260 
 PTB  HN ES        443 16.49                             133   -0.25 9  144 260 
 PTB  HZ I         443 23.97         3.5 0.42            131            144 260 
 SPBC HZ EP        442 57.40                             130    0.22 9  158 219 
 SPBC HN ES        443 19.22                             130    0.03 9  158 219 
 SPBC HZ I         443 21.61         4.7 0.13            131            158 219 
 ZAR  HZ EP   4    443  4.75                             123    3.31 0  203 293 
 ZAR  HE ES   3    443 26.05                             123   -0.73 2  203 293 
 ZAR  HZ I         443 33.75         2.7 0.36            122            203 293 
                                                                                
