 2016  416 0955 54.2 L   6.814 -73.162138.0  RSN  5 0.4 1.3LRSN                1
 GAP=243        0.95       6.8     6.2  8.0  0.2080E+02  0.1192E+02 -0.3674E+01E
 Epicentro: LOS SANTOS - SANTANDER                                             3
 ACTION:UPD 16-05-05 14:22 OP:rebc STATUS:               ID:20160416095554 L   I
 OLDACT:REG 16-04-16 14:34 OP:ak   STATUS:               ID:20160416094746     3
 2016-04-16-0947-46M.COL___312                                                 6
 STAT SP IPHASW D HRMM SECON CODA AMPLIT PERI AZIMU VELO AIN AR TRES W  DIS CAZ7
 BAR2 EZ EP   2    956 13.10                             169    0.14 5 24.6 185 
 BAR2 EZ ES        956 27.75                             169    0.1910 24.6 185 
 BAR2 EZ I         956 29.75         4.6 0.16            166           24.6 185 
 RUS  HZ EP        956 16.93                             142   -0.4210  102 175 
 RUS  HE ES        956 35.35                             142   -0.0410  102 175 
 RUS  HZ I         956 36.65         2.0 0.30            143            102 175 
 PTB  HZ EP        956 20.73                             130    0.29 9  146 258 
 PTB  HN ES        956 40.15                             130   -0.73 9  146 258 
 PTB  HZ I         956 48.32         2.2 0.44            131            146 258 
 SPBC HZ EP        956 22.00                             127   -0.15 9  163 218 
 SPBC HE ES        956 44.53                             127    0.60 9  163 218 
 SPBC HZ I         956 46.57         4.0 0.12            128            163 218 
 ZAR  HZ EP   2    956 26.82                             121    0.87 4  202 292 
 ZAR  HN ES        956 50.81                             121    0.13 9  202 292 
                                                                                
