 2013 1216 0050 35.3 L   6.823 -73.158145.0  RSN 14 0.5 1.9LRSN                1
 GAP= 70        1.14       2.9     4.4  6.4 -0.2458E+01  0.6149E+01  0.1203E+01E
 Epicentro: LOS SANTOS - SANTANDER                                             3
 ACTION:UPD 14-01-13 10:18 OP:ep   STATUS:               ID:20131216005035 L   I
 OLDACT:REG 13-12-16 06:25 OP:jn   STATUS:               ID:20131216005000     3
 2013-12-16-0050-00M.COL___285                                                 6
 STAT SP IPHASW D HRMM SECON CODA AMPLIT PERI AZIMU VELO AIN AR TRES W  DIS CAZ7
 BAR2 SZ EP     C  050 54.97                             169    0.1210 25.7 186 
 BAR2 SZ ES   1    051  9.73                             169   -0.40 7 25.7 186 
 BAR2 SZ I         051 11.49        17.7 0.20            169           25.7 186 
 BRR  HZ EP     D  050 56.77                             153    0.5810 68.8 297 
 BRR  HN ES   2    051 14.24                             153    1.72 5 68.8 297 
 BRR  HZ I         051 17.18        10.7 0.14            154           68.8 297 
 PAM  SZ EP        050 57.85                             151    0.5210 76.3  42 
 PAM  SN ES        051 14.80                             151    0.2510 76.3  42 
 PAM  SZ I         051 17.13        25.1 0.56            155           76.3  42 
 RUS  HZ EP        050 58.90                             143   -0.2310  103 175 
 RUS  HN ES        051 17.71                             143   -0.0410  103 175 
 RUS  HZ I         051 19.28         9.3 0.22            145            103 175 
 PTB  HZ EP        051  1.60                             132   -0.49 9  147 258 
 PTB  HN ES        051 23.04                             132    0.02 9  147 258 
 PTB  HZ I         051 25.24        11.5 0.14            133            147 258 
 TAM  HZ EP   1    051  3.13                             130    0.07 7  157 106 
 OCA  HZ EP        051  3.73                             130    0.48 9  158 354 
 OCA  HN ES        051 24.09                             130   -1.00 9  158 354 
 OCA  HZ I         051 29.64        11.6 0.22            133            158 354 
 SPBC HZ EP        051  3.91                             129    0.10 9  164 218 
 SPBC HN ES        051 26.12                             129    0.04 9  164 218 
 SPBC HZ I         051 30.97        16.7 0.22            131            164 218 
 ZAR  HN ES   1    051 33.12                             122    0.61 6  202 292 
 NOR  HZ EP        051 10.90                             118   -0.08 8  235 234 
 NOR  HN ES        051 38.49                             118   -0.36 8  235 234 
 NOR  HZ I         051 42.65         6.7 0.18            120            235 234 
 SML  HZ EP        051 11.36                             118   -0.17 8  241 335 
 SML  HN ES        051 38.98                             118   -0.84 8  241 335 
 CHI  HZ EP        051 13.02                             117   -0.12 8  251 195 
 CHI  HN ES        051 41.90                             117   -0.80 8  251 195 
 CHI  HZ I         051 47.86         3.8 0.26            119            251 195 
 GUY2CHZ EP        051 19.56                             112    0.69 7  302 234 
 GUY2CHZ I         052  2.95         5.3 0.40                           302 234 
 PRA  HZ EP        051 29.47                             106    0.54 6  394 209 
 PRA  HN ES   1    052 10.80                             106   -0.00 4  394 209 
 PRA  HZ I         052 15.17         2.8 0.26            108            394 209 
 SJC  HZ EP   4    051 29.25                             106   -1.20 0  406 327 
                                                                                
