 2016  416 0424 36.0 L   6.828 -73.136140.0  RSN 23 0.5 2.3LRSN                1
 GAP= 71        1.16       2.9     2.8  5.2 -0.2278E+01  0.4011E+01 -0.6510E+00E
 Epicentro: LOS SANTOS - SANTANDER                                             3
 ACTION:UPD 16-05-05 14:21 OP:rebc STATUS:               ID:20160416042436 L   I
 OLDACT:DUP 16-04-16 16:41 OP:ak   STATUS:               ID:20160416041743d    3
 2016-04-16-0417-42M.COL___310                                                 6
 STAT SP IPHASW D HRMM SECON CODA AMPLIT PERI AZIMU VELO AIN AR TRES W  DIS CAZ7
 BAR2 EZ IP     D  424 55.15                             169    0.1810 26.5 191 
 BAR2 EZ ES        425  9.73                             169   -0.0610 26.5 191 
 BAR2 EZ I         425 11.00        45.6 0.19            167           26.5 191 
 PAM  EZ IP     C  424 58.20                             151    0.8210 74.3  40 
 PAM  EN ES        425 14.73                             151    0.6510 74.3  40 
 PAM  EZ I         425 17.38        81.7 0.58            151           74.3  40 
 RUS  HZ EP        424 59.12                             142   -0.2510  104 177 
 RUS  HN ES        425 17.49                             142   -0.1410  104 177 
 RUS  HZ I         425 18.62        12.4 0.25            140            104 177 
 PTB  HZ EP        425  1.86                             130   -0.76 9  149 258 
 PTB  HN ES        425 22.61                             130   -0.80 9  149 258 
 PTB  HZ I         425 25.15        36.1 0.18            129            149 258 
 TAM  HZ EP        425  3.45                             129    0.28 9  155 106 
 TAM  HZ I         425 23.16         7.5 0.07            128            155 106 
 TAM  HN ES        425 24.01                             129   -0.38 9  155 106 
 OCA  HZ IP     C  425  3.50                             129   -0.05 9  157 353 
 OCA  HN ES        425 24.75                             129   -0.32 9  157 353 
 SPBC HZ EP        425  4.07                             127   -0.25 9  166 219 
 SPBC HN ES        425 26.32                             127   -0.12 9  166 219 
 SPBC HZ I         425 33.40        31.8 0.26            125            166 219 
 ZAR  HZ EP        425  8.48                             121    0.46 9  204 291 
 ZAR  HN ES        425 33.31                             121    0.28 9  204 291 
 ZAR  HZ I         425 39.27        37.8 0.50            120            204 291 
 NOR  HZ EP   2    425 10.87                             117   -0.78 4  237 234 
 NOR  HE ES        425 40.21                             117    0.72 8  237 234 
 NOR  HZ I         425 45.60        14.0 0.20            116            237 234 
 CHI  HZ EP        425 13.25                             115   -0.45 8  252 195 
 CHI  HN ES        425 42.21                             115   -0.93 8  252 195 
 CHI  HZ I         425 46.73         7.7 0.26            114            252 195 
 ROSC BZ EP        425 15.66                             115    1.54 8  256 211 
 ROSC BN ES        425 44.41                             115    0.52 8  256 211 
 ROSC BZ I         425 51.35        20.2 0.40            114            256 211 
 HEL  HZ EP        425 16.14                             113    0.05 8  274 255 
 HEL  HN ES        425 47.11                             113   -0.28 8  274 255 
 HEL  HZ I         425 54.26        12.8 0.52            112            274 255 
 URE  HZ EP   2    425 16.39                             112   -0.35 4  284 291 
 URE  HN ES   4    425 46.91                             112   -1.64 0  284 291 
 URE  HZ I         425 57.55        13.3 0.16            111            284 291 
 SOCV BZ EP        425 18.12                             111   -0.34 7  299  57 
 SOCV BN ES   4    425 49.71                             111   -1.89 0  299  57 
 GUY2CHZ EP        425 20.52                             111    0.91 7  304 234 
 GUY2CHN ES        425 54.10                             111    0.44 7  304 234 
 GUY2CHZ I         426  0.22         7.1 0.26                           304 234 
 PTGC HZ EP   4    425 18.35                             110   -1.50 0  311 159 
 PTGC HN ES   4    425 51.19                             110   -2.89 0  311 159 
 LL6C HZ EP        425 20.31                             109   -0.77 7  322 357 
 ELA  HZ EP   9    425 25.45                             109    2.55 0  332 229 
 ELA  HE ES        426  2.34                                    0.28 7  332 229 
 ELA  HZ I         426 12.14         5.8 0.60            108            332 229 
 CBOC HZ EP        425 22.87                             109   -0.00 7  336 252 
 CBOC HN ES        425 58.77                             109   -0.69 7  336 252 
 CBOC HZ I         426  3.76         2.8 0.19            108            336 252 
 DBB  SZ EP        425 23.37                             108    0.06 7  340 274 
 DBB  SZ ES        426  0.22                             108   -0.02 7  340 274 
 SDV  BZ EP        425 25.08                             107   -0.38 6  358  50 
 SDV  BE ES   4    426  1.29                             107   -2.78 0  358  50 
 SDV  BZ I         426  4.35         4.7 0.45            107            358  50 
 ORTC HZ EP        425 30.25                             105    0.19 6  399 216 
 ORTC HE ES        426 11.74                             105   -0.51 6  399 216 
 ORTC HZ I         426 18.01         7.0 0.46            104            399 216 
 SJC  HZ EP   4    425 29.47                             105   -1.64 0  407 327 
 SJC  HN ES   4    426 11.20                             105   -2.92 0  407 327 
 SJC  HZ I         426 15.29         5.9 0.42            104            407 327 
 PAL  HZ EP        425 31.27                             105    0.04 6  408 239 
 PAL  HN ES        426 14.73                             105    0.39 6  408 239 
 PAL  HZ I         426 18.58         3.8 0.42            104            408 239 
                                                                                
