 2013  616 0439 11.5 L   6.450 -73.743102.9  RSN  4 0.2 1.2LRSN                1
 GAP=147        0.48       3.7     2.2  5.6  0.1645E+01  0.2321E+01  0.2401E+01E
 Epicentro: SANTA HELENA DEL OPON - SANTANDER                                  3
 ACTION:UPD 14-01-08 09:55 OP:ep   STATUS:               ID:20130616043911 L   I
 OLDACT:REG 13-06-16 11:13 OP:cam  STATUS:               ID:20130616043807     3
 2013-06-16-0438-07M.COL___222                                                 6
 STAT SP IPHASW D HRMM SECON CODA AMPLIT PERI AZIMU VELO AIN AR TRES W  DIS CAZ7
 BAR2 SZ EP        439 28.11                             146    0.1010 63.9  76 
 BAR2 SZ ES        439 40.63                             146   -0.2810 63.9  76 
 BAR2 SZ I         439 41.95         9.5 0.32            150           63.9  76 
 BRR  HZ EP   1    439 28.30                             142   -0.01 7 72.8   3 
 BRR  HN ES   1    439 41.71                             142    0.27 7 72.8   3 
 BRR  HZ I         439 42.84         2.5 0.32            145           72.8   3 
 PTB  HZ EP        439 28.75                             139   -0.1110 79.5 277 
 PTB  HN ES        439 42.44                             139    0.0210 79.5 277 
 PTB  HZ I         439 45.18         3.4 0.36            141           79.5 277 
 RUS  HE ES   1    439 46.20                             134    0.22 7 95.5 130 
                                                                                
