 2017  116 0258 48.6 L   6.774 -73.168143.8  RSN  7 0.5 1.5LRSN                1
 GAP=135        1.21       5.1     6.0  7.7 -0.6052E+01  0.9941E+01  0.1059E+02E
 Epicentro: LOS SANTOS - SANTANDER                                             3
 ACTION:UPD 17-05-22 16:00 OP:jn   STATUS:               ID:20170116025848 L   I
 OLDACT:UP  17-01-16 14:55 OP:dani STATUS:               ID:20170116025739     3
 OLDACT:REG 17-01-16 13:07 OP:dani STATUS:               ID:20170116025739     3
 2017-01-16-0258-00M.COL___335                                                 6
 STAT SP IPHASW D HRMM SECON CODA AMPLIT PERI AZIMU VELO AIN AR TRES W  DIS CAZ7
 BAR2 HZ EP        259  7.82                             172   -0.1310 20.1 185 
 BAR2 HZ ES        259 22.08                             172   -0.9510 20.1 185 
 BAR2 HZ I         259 25.66        12.3 0.30            168           20.1 185 
 BRR  HZ EP        259  9.66                             152    0.1410 70.6 302 
 BRR  HN ES        259 26.79                             152    0.9710 70.6 302 
 BRR  HZ I         259 30.64         6.0 0.36            152           70.6 302 
 PAM  HZ EP        259 10.76                             149   -0.0910 81.2  40 
 PAM  HE ES        259 28.23                             149    0.0310 81.2  40 
 PAM  HZ I         259 30.02         6.5 0.48            156           81.2  40 
 RUS  HZ EP        259 11.89                             144   -0.0910 97.9 175 
 RUS  HN ES        259 30.56                             144    0.3510 97.9 175 
 RUS  HZ I         259 31.73         6.0 0.26            145           97.9 175 
 PTB  HZ EP        259 14.65                             132   -0.51 9  145 260 
 PTB  HN ES   1    259 35.67                             132   -0.19 7  145 260 
 PTB  HZ I         259 40.76         3.9 0.11            132            145 260 
 NOR  HZ EP        259 23.97                             118    0.13 8  231 235 
 NOR  HN ES        259 50.75                             118   -0.56 8  231 235 
 NOR  HZ I         259 57.59         2.7 0.29            120            231 235 
 CHI  HZ EP        259 26.09                             117    0.26 8  245 195 
 CHI  HN ES        259 55.53                             117    0.67 8  245 195 
 CHI  HZ I         3 0  5.43         1.6 0.37            119            245 195 
                                                                                
