 2015  616 0852 20.1 L   6.293 -73.692 99.3  RSN  5 0.5 1.4LRSN                1
 GAP=178        1.14       5.1     5.8 12.3 -0.1024E+02  0.3855E+02  0.6065E+01E
 Epicentro: SANTA HELENA DEL OPON - SANTANDER                                  3
 *BAR2-BRR-ZAR                                                                 3
 ACTION:UPD 15-09-10 22:12 OP:cam  STATUS:               ID:20150616085220 L   I
 OLDACT:UP  15-06-18 07:48 OP:AK   STATUS:               ID:20150616085220 L   3
 OLDACT:UP  15-06-16 19:02 OP:drio STATUS:               ID:20150616084749     3
 OLDACT:REG 15-06-16 15:06 OP:drio STATUS:               ID:20150616084749     3
 2015-06-16-0847-49M.COL___306                                                 6
 STAT SP IPHASW D HRMM SECON CODA AMPLIT PERI AZIMU VELO AIN AR TRES W  DIS CAZ7
 BAR2 EZ EP        852 36.46                             144    0.0510 65.4  60 
 BAR2 EZ ES        852 49.42                             144    0.3110 65.4  60 
 BAR2 EZ I         852 50.40        11.5 0.14            150           65.4  60 
 BRR  HZ EP        852 37.80                             135   -0.2610 90.1 359 
 BRR  HN ES        852 51.84                             135   -0.2110 90.1 359 
 NOR  HE ES        853  2.56                             119   -0.82 9  153 238 
 NOR  HZ I         853  6.80         4.9 0.16            121            153 238 
 ZAR  HZ EP        852 47.40                             114   -0.47 9  185 316 
 ZAR  HE ES        853 10.09                             114    0.58 9  185 316 
 ZAR  HZ I         853 13.70         2.9 0.40            115            185 316 
 GUY2CHZ EP        852 52.77                             110    0.32 8  220 238 
 GUY2CHZ I         852 56.22         1.9 0.70                           220 238 
 GUY2CHE ES        853 18.39                             110    0.74 8  220 238 
                                                                                
