 2015  316 0116 47.2 L   6.828 -73.167140.5  RSN 10 0.6 2.1LRSN                1
 GAP= 69        1.51       4.1     5.0  8.1 -0.1760E+01  0.4370E+01 -0.3210E+00E
 Epicentro: LOS SANTOS - SANTANDER                                             3
 ACTION:UPD 15-04-30 16:26 OP:nd   STATUS:               ID:20150316011647 L   I
 OLDACT:DUP 15-03-16 17:20 OP:stll STATUS:               ID:20150316010750d    3
 2015-03-16-0107-48M.COL___257                                                 6
 STAT SP IPHASW D HRMM SECON CODA AMPLIT PERI AZIMU VELO AIN AR TRES W  DIS CAZ7
 BAR2 EZ EP        117  6.03                             169   -0.1910 26.1 184 
 BAR2 EZ ES        117 21.15                             169    0.0710 26.1 184 
 BAR2 EZ I         117 22.82        27.7 0.30            170           26.1 184 
 BRR  HZ EP        117  8.09                             153    0.5510 67.7 297 
 BRR  HN ES        117 24.17                             153    0.7310 67.7 297 
 BRR  HZ I         117 29.21        20.2 0.28            151           67.7 297 
 PAM  SZ EP        117  9.11                             150    0.3410 76.6  42 
 PAM  SZ I         117  9.52        71.5 0.20            153           76.6  42 
 PAM  SN ES        117 26.22                             150    0.5910 76.6  42 
 RUS  HZ EP        117 10.33                             142   -0.3110  104 175 
 RUS  HN ES        117 28.26                             142   -0.6910  104 175 
 RUS  HZ I         117 30.29        11.5 0.28            145            104 175 
 PTB  HZ EP        117 13.64                             131    0.09 9  146 257 
 PTB  HN ES        117 33.33                             131   -0.80 9  146 257 
 PTB  HZ I         117 40.58         7.2 0.18            131            146 257 
 OCA  HZ EP        117 14.28                             129   -0.47 9  157 354 
 OCA  HE ES        117 36.83                             129    0.56 9  157 354 
 OCA  HZ I         117 44.72        14.1 0.24            130            157 354 
 TAM  HZ EP        117 14.78                             129    0.06 9  158 106 
 TAM  HZ I         117 15.16         7.8 0.46            133            158 106 
 TAM  HN ES        117 35.66                             129   -0.55 9  158 106 
 SPBC HZ EP        117 15.31                             128   -0.04 9  164 218 
 SPBC HN ES        117 36.59                             128   -0.75 9  164 218 
 SPBC HZ I         117 41.59        18.3 0.44            129            164 218 
 SML  HZ EP        117 22.34                             117   -0.75 8  240 335 
 SML  HN ES        117 50.41                             117   -0.70 8  240 335 
 SML  HZ I         117 53.49        16.4 0.28            118            240 335 
 ROSC BZ EP        117 26.68                             116    1.52 8  254 210 
 ROSC BN ES        117 55.66                             116    0.87 8  254 210 
 ROSC BZ I         118  0.88        17.3 0.40            117            254 210 
                                                                                
