 2016  916 0525 22.7 L   6.797 -73.166146.8  RSN 12 0.4 1.8LRSN                1
 GAP=134        0.95       3.0     3.5  5.4 -0.2651E+01  0.5932E+01  0.1830E+00E
 Epicentro: LOS SANTOS - SANTANDER                                             3
 ACTION:UPD 17-08-17 21:12 OP:lp   STATUS:               ID:20160916052522 L   I
 OLDACT:UP  16-09-17 00:37 OP:lv   STATUS:               ID:20160916051743d    3
 OLDACT:DUP 16-09-17 00:31 OP:lv   STATUS:               ID:20160916051743d    3
 OLDACT:REG 16-09-16 13:06 OP:ar   STATUS:               ID:20160916051742     3
 2016-09-16-0518-00M.COL___348                                                 6
 STAT SP IPHASW D HRMM SECON CODA AMPLIT PERI AZIMU VELO AIN AR TRES W  DIS CAZ7
 BAR2 EZ EP        525 42.19                             171   -0.2010 22.7 185 
 BAR2 EZ ES        525 57.91                             171    0.1210 22.7 185 
 BAR2 EZ I         525 59.62         7.3 0.12            171           22.7 185 
 BRR  HZ EP        525 44.23                             153    0.4210 69.4 300 
 BRR  HE ES        526  1.07                             153    0.7610 69.4 300 
 BRR  HZ I         526  4.42         9.8 0.12            151           69.4 300 
 PAM  EZ EP        525 45.10                             150    0.0310 79.1  41 
 PAM  EN ES        526  2.09                             150   -0.4710 79.1  41 
 PAM  EZ I         526  4.13        11.9 0.50            153           79.1  41 
 RUS  HZ EP        525 46.73                             144    0.2410  100 175 
 RUS  HN ES        526  5.04                             144   -0.0510  100 175 
 RUS  HZ I         526  5.72         6.3 0.18            147            100 175 
 PTB  HZ EP        525 49.81                             133    0.31 9  145 259 
 PTB  HN ES        526  9.98                             133   -0.45 9  145 259 
 PTB  HZ I         526 12.29         8.1 0.17            133            145 259 
 OCA  HZ EP        525 50.72                             130   -0.33 9  160 354 
 OCA  HN ES        526 12.81                             130   -0.38 9  160 354 
 OCA  HZ I         526 15.72        21.0 0.32            131            160 354 
 SPBC HZ EP        525 51.09                             129    0.02 9  162 218 
 SPBC HN ES        526 13.04                             129   -0.20 9  162 218 
 SPBC HZ I         526 15.72        15.2 0.20            131            162 218 
 ZAR  HZ EP        525 54.96                             123   -0.00 9  202 292 
 ZAR  HN ES        526 20.60                             123    0.44 9  202 292 
 ZAR  HZ I         526 27.95         6.7 0.16            123            202 292 
 NOR  HZ EP        525 58.79                             119    0.57 8  233 234 
 NOR  HN ES        526 25.57                             119   -0.40 8  233 234 
 NOR  HZ I         526 27.57         6.4 0.18            120            233 234 
 GUY2CHZ EP   4    526  7.43                             113    1.35 0  299 235 
 GUY2CHN ES        526 39.60                             113   -0.35 7  299 235 
 GUY2CHZ I         526 50.03         3.5 0.32                           299 235 
 CBOC HZ EP   4    526 11.10                             110    1.75 0  331 252 
 CBOC HN ES        526 45.25                             110   -0.53 7  331 252 
 CBOC HZ I         526 53.10         1.4 0.30            111            331 252 
 SJC  HZ EP   9    526 16.83                             106   -1.30 0  408 327 
 SJC  HN ES        526 59.20                                   -0.91 6  408 327 
 SJC  HZ I         527  1.30         1.6 0.38            107            408 327 
                                                                                
