 2014  316 0312  3.9 L   6.818 -73.150148.3  RSN  5 0.4 1.4LRSN                1
 GAP=135        0.83       4.3     5.0  8.7 -0.5739E+01  0.1152E+02 -0.8073E+01E
 Epicentro: LOS SANTOS - SANTANDER                                             3
 OLDACT:REG 14-03-16 07:33 OP:fm   STATUS:               ID:20140316030805     3
 ACTION:UPD 14-04-09 23:17 OP:nd   STATUS:               ID:20140316031203 L   I
 OLDACT:UP  14-03-16 11:45 OP:fm   STATUS:               ID:20140316030805     3
 2014-03-16-0308-05M.COL___242                                                 6
 STAT SP IPHASW D HRMM SECON CODA AMPLIT PERI AZIMU VELO AIN AR TRES W  DIS CAZ7
 PAM  SZ EP        312 25.71                             152   -0.6310 76.2  41 
 PAM  SE ES        312 43.93                             152    0.1010 76.2  41 
 PAM  SZ I         312 45.79         3.6 0.58            144           76.2  41 
 RUS  HZ EP        312 28.36                             144    0.2910  103 176 
 RUS  SZ I         312 46.36         5.5 2.74            130            103 176 
 RUS  HN ES        312 47.08                             144    0.1810  103 176 
 PTB  HZ EP   2    312 31.08                             133   -0.02 5  148 258 
 PTB  HN ES        312 52.12                             133   -0.17 9  148 258 
 PTB  SZ I         312 59.78         1.9 1.44            120            148 258 
 SPBC HN ES   2    312 54.69                             129   -0.52 5  164 218 
 SML  HZ EP   1    312 40.96                             118    0.47 6  242 335 
 SML  HN ES   2    313  9.96                             118    0.96 4  242 335 
 SML  SZ I         313 15.64         3.8 0.86            108            242 335 
                                                                                
