 2013  716 0653 57.8 L   6.809 -73.131144.0  RSN 11 0.4 2.1LRSN                1
 GAP=138        0.96       3.0     4.0  6.1 -0.2188E+01  0.4938E+01 -0.7888E+00E
 Epicentro: LOS SANTOS - SANTANDER                                             3
 ACTION:UPD 13-08-12 10:38 OP:ep   STATUS:               ID:20130716065357 L   I
 OLDACT:UP  13-07-16 11:03 OP:mh   STATUS:               ID:20130716065000     3
 OLDACT:UP  13-07-16 11:03 OP:mh   STATUS:               ID:20130716065000     3
 OLDACT:REG 13-07-16 08:03 OP:mh   STATUS:               ID:20130716065000     3
 2013-07-16-0650-00M.COL___263                                                 6
 STAT SP IPHASW D HRMM SECON CODA AMPLIT PERI AZIMU VELO AIN AR TRES W  DIS CAZ7
 BAR2 SZ EP        654 17.47                             170    0.2210 24.7 193 
 BAR2 SZ ES   1    654 32.15                             170   -0.27 7 24.7 193 
 BAR2 SZ I         654 33.35        11.3 0.18            165           24.7 193 
 BRR  HZ EP   1    654 19.27                             152    0.45 7 72.2 297 
 BRR  HN ES        654 35.63                             152    0.4210 72.2 297 
 BRR  HN I         654 40.09        15.8 0.22            147           72.2 297 
 PAM  SZ EP   1    654 20.38                             151    0.66 7 75.6  39 
 PAM  SN ES        654 37.06                             151    0.2410 75.6  39 
 PAM  SN I         654 38.24        25.8 0.46            148           75.6  39 
 RUS  HZ EP        654 21.53                             143    0.0810  101 177 
 RUS  HN ES   1    654 39.64                             143   -0.25 7  101 177 
 RUS  HN I         654 41.64        16.8 0.34            136            101 177 
 PTB  HZ EP   1    654 24.54                             131   -0.25 7  150 259 
 PTB  HN ES        654 45.50                             131   -0.35 9  150 259 
 PTB  HN I         654 50.45        11.4 0.18            124            150 259 
 OCA  HZ EP        654 25.20                             129   -0.70 9  159 353 
 OCA  HN ES        654 47.13                             129   -0.69 9  159 353 
 OCA  HN I         654 51.51        28.4 0.20            124            159 353 
 SPBC HZ EP   1    654 26.43                             128    0.09 7  165 219 
 SPBC HN ES        654 48.26                             128   -0.34 9  165 219 
 ZAR  HZ EP   1    654 31.03                             122    0.78 6  205 292 
 ZAR  HE ES        654 56.22                             122    0.66 9  205 292 
 ZAR  HZ I         655  2.06         9.2 0.26            116            205 292 
 NOR  HN ES        655  1.38                             118   -0.21 8  237 234 
 NOR  HN I         655  2.92        15.6 0.14            112            237 234 
 SML  HZ EP   1    654 33.89                             117   -0.42 6  243 335 
 SML  HE ES        655  2.71                             117   -0.07 8  243 335 
 SML  HE I         655  5.31        17.3 0.10            112            243 335 
 PRA  HZ EP   1    654 51.89                             106    0.43 4  394 210 
 PRA  HZ I         655 39.37         2.0 0.24            101            394 210 
 SJC  HZ EP   4    654 51.90                             105   -1.42 0  409 327 
                                                                                
