 2014  116 0308 39.1 L   6.810 -73.137141.0  RSN 16 0.5 2.1LRSN                1
 GAP= 71        1.12       2.7     3.0  5.2 -0.8073E+00  0.4548E+01  0.1149E+01E
 Epicentro: LOS SANTOS - SANTANDER                                             3
 ACTION:UPD 14-03-13 09:55 OP:ep   STATUS:               ID:20140116030839 L   I
 OLDACT:REG 14-01-16 09:58 OP:carl STATUS:               ID:20140116030748     3
 2014-01-16-0307-48M.COL___243                                                 6
 STAT SP IPHASW D HRMM SECON CODA AMPLIT PERI AZIMU VELO AIN AR TRES W  DIS CAZ7
 BAR2 SZ EP        3 8 58.14                             170   -0.0910 24.6 192 
 BAR2 SZ ES        3 9 13.12                             170    0.0010 24.6 192 
 BAR2 SZ I         3 9 14.22        45.5 0.16            169           24.6 192 
 BRR  HZ EP        3 9  0.33                             152    0.5310 71.5 297 
 BRR  HN ES        3 9 16.79                             152    0.8810 71.5 297 
 BRR  HZ I         3 9 20.99        21.4 0.10            150           71.5 297 
 PAM  SZ EP        3 9  1.11                             150    0.3410 75.9  40 
 PAM  SN ES        3 9 18.13                             150    0.4910 75.9  40 
 PAM  SZ I         3 9 20.31        34.8 0.62            153           75.9  40 
 RUS  HZ EP        3 9  2.20                             143   -0.3110  102 177 
 RUS  HN ES        3 9 20.01                             143   -0.7210  102 177 
 RUS  HZ I         3 9 21.70        13.6 0.38            144            102 177 
 PTB  HZ EP        3 9  5.37                             131   -0.46 9  149 258 
 PTB  HE ES        3 9 26.25                             131   -0.40 9  149 258 
 PTB  HZ I         3 9 29.25        17.7 0.16            130            149 258 
 TAM  HZ EP        3 9  6.60                             130    0.21 9  154 105 
 TAM  HN ES        3 9 28.01                             130    0.36 9  154 105 
 TAM  HZ I         3 9 29.17         9.9 0.24            133            154 105 
 OCA  HZ EP        3 9  6.65                             129   -0.35 9  159 353 
 OCA  HN ES        3 9 28.20                             129   -0.52 9  159 353 
 SPBC HZ EP        3 9  7.49                             128    0.07 9  165 219 
 SPBC HN ES        3 9 29.01                             128   -0.47 9  165 219 
 SPBC HZ I         3 9 33.00        14.9 0.22            128            165 219 
 ZAR  HZ EP        3 9 11.50                             121    0.17 9  204 292 
 ZAR  HN ES        3 9 36.39                             121   -0.05 9  204 292 
 ZAR  HZ I         3 9 42.38        15.4 0.22            122            204 292 
 NOR  HZ EP        3 9 14.89                             117    0.14 8  236 234 
 NOR  HN ES        3 9 42.66                             117    0.13 8  236 234 
 NOR  HZ I         3 9 47.41         9.9 0.34            118            236 234 
 SML  HZ EP        3 9 14.71                             116   -0.73 8  243 335 
 SML  HN ES        3 9 43.02                             116   -0.73 8  243 335 
 SML  HZ I         3 9 51.52        19.9 0.26            117            243 335 
 CHI  HZ EP        3 9 16.52                             116   -0.21 8  250 195 
 CHI  HN ES        3 9 45.32                             116   -0.72 8  250 195 
 CHI  HZ I         3 9 49.91         3.9 0.26            117            250 195 
 GUY2CHZ EP        3 9 23.58                             111    0.88 7  303 235 
 GUY2CHN ES        3 9 57.36                             111    0.69 7  303 235 
 GUY2CHZ I         310  5.83         5.7 0.60                           303 235 
 RREF HZ EP        3 9 25.73                             110    0.48 7  323 229 
 RREF HN ES        310  1.29                             110    0.08 7  323 229 
 RREF HZ I         310 11.30         6.6 0.76            111            323 229 
 CBOC HZ EP        3 9 26.70                             109    0.69 7  335 252 
 CBOC HN ES        310  2.91                             109    0.35 7  335 252 
 CBOC HZ I         310 14.40         2.1 0.46            110            335 252 
 DBB  SZ ES        310  3.31                             109   -0.18 7  340 274 
                                                                                
