 2014  816 0449 19.2 L   6.840 -73.163141.8  RSN  7 0.4 1.8LRSN                1
 GAP=200        0.92       3.9     5.1  7.4  0.4819E+01  0.4253E+01 -0.1003E+02E
 Epicentro: LOS SANTOS - SANTANDER                                             3
 ACTION:UPD 14-09-15 21:50 OP:nd   STATUS:               ID:20140816044919 L   I
 OLDACT:REG 14-08-16 17:37 OP:cam  STATUS:               ID:20140816044748     3
 2014-08-16-0447-48M.COL___275                                                 6
 STAT SP IPHASW D HRMM SECON CODA AMPLIT PERI AZIMU VELO AIN AR TRES W  DIS CAZ7
 BAR2 SZ EP        449 38.49                             169    0.0910 27.5 185 
 BAR2 SZ ES        449 53.21                             169   -0.2010 27.5 185 
 BAR2 SZ I         449 54.30        11.6 0.32            169           27.5 185 
 BRR  HZ EP        449 40.18                             153    0.5110 67.5 296 
 BRR  HE ES   4    449 57.42                             153    1.76 0 67.5 296 
 BRR  HZ I         449 57.87         9.0 0.10            152           67.5 296 
 RUS  HZ EP        449 43.10                             142    0.2410  105 175 
 RUS  HN ES        450  1.41                             142    0.0710  105 175 
 RUS  HZ I         450  3.06         6.5 0.30            143            105 175 
 PTB  HZ EP        449 45.25                             131   -0.47 9  147 257 
 PTB  HN ES        450  5.96                             131   -0.47 9  147 257 
 PTB  HZ I         450  8.63         9.0 0.18            132            147 257 
 SPBC HZ EP        449 47.44                             128   -0.13 9  165 218 
 SPBC HE ES        450  9.75                             128    0.01 9  165 218 
 SPBC HZ I         450 14.43         8.6 0.30            129            165 218 
 ZAR  HN ES        450 16.63                             122    0.81 9  201 291 
 SML  HZ EP        449 54.75                             117   -0.29 8  239 335 
 SML  HE ES        450 22.71                             117   -0.31 8  239 335 
 SML  HZ I         450 26.84         5.7 0.10            118            239 335 
                                                                                
