 2013  116 0352 35.1 L   6.804 -73.170143.0  RSN  7 0.3 1.8LRSN                1
 GAP=180        0.66       3.3     5.2  6.5  0.5043E+01  0.9481E+01  0.9480E+00E
 Epicentro: LOS SANTOS - SANTANDER                                             3
 ACTION:UPD 13-02-15 09:14 OP:ep   STATUS:               ID:20130116035235 L   I
 2013-01-16-0350-00M.COL___239                                                 6
 STAT SP IPHASW D HRMM SECON CODA AMPLIT PERI AZIMU VELO AIN AR TRES W  DIS CAZ7
 BAR2 SZ ES   1    353  9.44                             170    0.03 7 23.4 183 
 BRR  HZ EP        352 56.24                             153    0.4710 68.6 299 
 BRR  HN ES   4    353 13.55                             153    1.63 0 68.6 299 
 BRR  HZ I         353 16.57        17.4 0.34            146           68.6 299 
 RUS  HZ EP   1    352 58.42                             143   -0.17 7  101 175 
 RUS  HN ES   1    353 16.98                             143    0.04 7  101 175 
 RUS  HZ I         353 18.08         9.5 0.26            142            101 175 
 PTB  HZ EP   1    353  1.00                             132   -0.57 7  145 258 
 PTB  HN ES   1    353 21.87                             132   -0.38 7  145 258 
 PTB  HZ I         353 29.46        10.0 0.40            128            145 258 
 OCA  HN ES   1    353 24.61                             129   -0.34 7  160 354 
 ZAR  HZ EP   1    353  7.00                             122   -0.05 6  201 292 
 ZAR  HE ES   1    353 32.42                             122    0.41 6  201 292 
 ZAR  HZ I         353 39.85         8.9 0.26            121            201 292 
 CHI  HZ EP   1    353 12.65                             117    0.07 6  248 195 
 CHI  HN ES   1    353 41.95                             117    0.11 6  248 195 
 CHI  HZ I         353 49.72         2.0 0.34            117            248 195 
                                                                                
