 2012  716 0925 35.8 L   6.399 -73.580114.9  RSN  4 0.3 1.2LRSN                1
 GAP=215        0.71      14.0     6.3 14.2  0.1360E+02  0.2535E+02 -0.1644E+02E
 Epicentro: SANTA HELENA DEL OPON - SANTANDER                                  3
 ACTION:UPD 12-08-14 11:45 OP:ep   STATUS:               ID:20120716092535 L   I
 2012-07-16-0920-00M.COL___197                                                 6
 STAT SP IPHASW D HRMM SECON CODA AMPLIT PERI AZIMU VELO AIN AR TRES W  DIS CAZ7
 BAR2 SZ EP   1    925 52.86                             155     0.1 7   49  64 
 BAR2 SZ ES   2    926  6.16                             155     0.2 5   49  64 
 BAR2 SZ I         926  6.71         5.3 0.40            154             49  64 
 BRR  HZ EP   1    925 53.92                             143    -0.4 7   80 349 
 BRR  HZ I         925 54.97         5.5 0.33            137             80 349 
 PTB  HZ EP   1    925 56.05                             136     0.2 7   98 279 
 PTB  HZ I         925 56.37         1.5 0.17            135             98 279 
 PTB  HN ES   2    926 10.97                             136    -0.5 5   98 279 
 ZAR  HN ES   2    926 27.30                             117     0.5 4  186 311 
 ZAR  HZ I         926 30.86         1.8 0.13            116            186 311 
