 2017  116 0439  8.4 L   6.774 -73.138146.5  RSN  6 0.5 1.2LRSN                1
 GAP=139        0.97       5.0     4.4  8.3  0.1471E+01  0.6621E+01  0.3367E+01E
 Epicentro: LOS SANTOS - SANTANDER                                             3
 ACTION:UPD 17-05-22 16:00 OP:jn   STATUS:               ID:20170116043908 L   I
 OLDACT:UP  17-01-16 15:58 OP:dani STATUS:               ID:20170116043744     3
 OLDACT:REG 17-01-16 13:14 OP:dani STATUS:               ID:20170116043744     3
 2017-01-16-0438-00M.COL___341                                                 6
 STAT SP IPHASW D HRMM SECON CODA AMPLIT PERI AZIMU VELO AIN AR TRES W  DIS CAZ7
 BRR  HZ EP        439 29.87                             152    0.1310 73.4 300 
 BRR  HN ES        439 46.84                             152    0.4410 73.4 300 
 BRR  HZ I         439 50.03         3.5 0.21            151           73.4 300 
 PAM  HZ EP        439 30.95                             150    0.1610 79.1  38 
 PAM  HN ES        439 47.78                             150   -0.4810 79.1  38 
 PAM  HZ I         439 50.19         4.4 0.52            153           79.1  38 
 RUS  HZ EP        439 32.11                             145    0.1110 97.6 176 
 RUS  HN ES        439 50.68                             145    0.2610 97.6 176 
 RUS  HZ I         439 52.29         1.5 0.29            148           97.6 176 
 PTB  HZ EP        439 35.09                             132   -0.36 9  148 260 
 PTB  HN ES        439 55.78                             132   -0.77 9  148 260 
 PTB  HZ I         439 58.44         2.3 0.18            133            148 260 
 ZAR  HZ EP   3    439 42.29                             122    1.21 2  206 293 
 ZAR  HE ES        440  7.03                             122    0.45 8  206 293 
 ZAR  HZ I         440 12.82         2.0 0.21            124            206 293 
 SJC  HZ EP   3    440  3.32                             106   -1.00 1  412 327 
                                                                                
