 2015  916 0150  2.6 L   7.234 -73.288113.8  RSN 11 0.5 1.7LRSN                1
 GAP=160        1.13       4.9     3.9  7.0 -0.6679E+00  0.1085E+02  0.6679E+01E
 Epicentro: LEBRIJA - SANTANDER                                                3
 ACTION:UPD 15-10-28 16:26 OP:cam  STATUS:               ID:20150916015002 L   I
 OLDACT:UP  15-09-16 16:37 OP:mh   STATUS:               ID:20150916014745     3
 OLDACT:REG 15-09-16 12:39 OP:mh   STATUS:               ID:20150916014745     3
 2015-09-16-0147-45M.COL___349                                                 6
 STAT SP IPHASW D HRMM SECON CODA AMPLIT PERI AZIMU VELO AIN AR TRES W  DIS CAZ7
 BRR  HZ EP     C  150 18.28                             155   -0.7510 48.9 253 
 BRR  HN ES        150 31.69                             155   -0.1710 48.9 253 
 BRR  HZ I         150 38.07         6.5 0.14            151           48.9 253 
 PAM  EZ EP        150 20.83                             148    0.0910 66.0  80 
 PAM  EN ES        150 35.39                             148    0.5010 66.0  80 
 PAM  EZ I         150 36.88        11.5 0.26            144           66.0  80 
 BAR2 EZ EP   1    150 20.63                             146   -0.15 7 71.9 171 
 BAR2 EZ ES        150 35.26                             146    0.3010 71.9 171 
 BAR2 EZ I         150 37.10        40.0 0.16            150           71.9 171 
 RUS  HZ EP   1    150 27.33                             123   -0.69 7  150 171 
 RUS  HN ES        150 47.66                             123   -0.20 9  150 171 
 RUS  HZ I         150 51.71         3.4 0.24            124            150 171 
 PTB  HZ EP        150 26.94                             123   -0.48 9  150 239 
 PTB  HE ES        150 46.42                             123   -0.36 9  150 239 
 ZAR  HZ EP   4    150 28.51                             118   -1.56 0  176 279 
 ZAR  HN ES        150 51.61                             118    0.10 9  176 279 
 ZAR  HZ I         150 57.62         7.8 0.14            114            176 279 
 SPBC HZ EP        150 31.80                             116   -0.51 9  195 206 
 SPBC HN ES        150 55.98                             116    0.49 9  195 206 
 NOR  HZ EP   1    150 39.05                             109    0.10 6  254 224 
 NOR  HE ES        151  7.12                             109   -0.18 8  254 224 
 NOR  HZ I         151 12.76         5.9 0.18            108            254 224 
 HEL  HZ EP        150 42.28                             107    0.75 8  273 245 
 HEL  HN ES        151 12.84                             107    0.94 8  273 245 
 HEL  HZ I         151 19.80         3.8 0.28            106            273 245 
 GUY2CHZ EP        150 47.96                             104    0.85 7  320 226 
 GUY2CHN ES   4    151 24.17                             104    2.33 0  320 226 
 GUY2CHZ I         151 30.78         3.5 0.65                           320 226 
 SJC  HZ EP   4    150 47.53                             102   -3.94 0  361 325 
 SJC  HZ I         151 24.12         1.4 0.67            101            361 325 
 SJC  HN ES   4    151 24.62                             102   -4.97 0  361 325 
                                                                                
