 2014  316 0317 25.5 L   6.762 -73.318128.3  RSN  7 0.3 1.5LRSN                1
 GAP=118        0.62       2.3     3.7  6.5 -0.2032E+01  0.1128E+02 -0.4926E+01E
 Epicentro: ZAPATOCA - SANTANDER                                               3
 OLDACT:DUP 14-03-16 11:41 OP:fm   STATUS:               ID:20140316030806d    3
 ACTION:UPD 14-04-09 23:17 OP:nd   STATUS:               ID:20140316031725 L   I
 OLDACT:UP  14-03-16 11:49 OP:fm   STATUS:               ID:20140316030806d    3
 2014-03-16-0308-05M.COL___242                                                 6
 STAT SP IPHASW D HRMM SECON CODA AMPLIT PERI AZIMU VELO AIN AR TRES W  DIS CAZ7
 PAM  SZ EP        317 47.24                             142    0.2510 93.5  47 
 PAM  SN ES        318  3.98                             142    0.2010 93.5  47 
 PAM  SZ I         318  6.73         3.4 0.50            142           93.5  47 
 RUS  HZ EP        317 47.69                             140    0.2310 99.6 165 
 RUS  SZ I         318  2.80         4.3 1.50            137           99.6 165 
 RUS  HN ES        318  4.36                             140   -0.2610 99.6 165 
 PTB  HZ EP        317 49.21                             132   -0.0310  128 259 
 PTB  HN ES   2    318  7.77                             132   -0.02 5  128 259 
 PTB  SZ I         318 14.21         6.9 2.52            129            128 259 
 SPBC HN ES   2    318 11.19                             127   -0.15 5  148 214 
 OCA  HZ EP        317 52.82                             124    0.04 9  163 360 
 OCA  HN ES        318 13.68                             124   -0.41 9  163 360 
 OCA  SZ I         318 20.24         4.7 0.46            124            163 360 
 ZAR  HN ES   2    318 19.06                             120    0.73 4  188 295 
 SML  HZ EP        318  0.51                             114   -0.28 8  240 340 
 SML  HN ES   4    318 31.14                             114    2.79 0  240 340 
 SML  SZ I         318 35.37         3.6 0.48            112            240 340 
                                                                                
