 2012  816 0200 50.6 L   6.783 -73.157139.7  RSN 11 0.5 1.9LRSN                1
 GAP=136        0.89       3.7     4.3  6.5 -0.5485E+00  0.8119E+01  0.5274E+01E
 Epicentro: LOS SANTOS - SANTANDER                                             3
 ACTION:UPD 12-09-10 11:56 OP:ep   STATUS:               ID:20120816020050 L   I
 2012-08-16-0200-00M.COL___217                                                 6
 STAT SP IPHASW D HRMM SECON CODA AMPLIT PERI AZIMU VELO AIN AR TRES W  DIS CAZ7
 BAR2 SZ EP        2 1  9.26                             171   -0.1610 21.3 188 
 BAR2 SZ ES   1    2 1 23.99                             171   -0.14 7 21.3 188 
 BAR2 SZ I         2 1 25.79        23.9 0.19                          21.3 188 
 GIR2 SZ EP   1    2 1  9.28                             166   -0.28 7 32.9 353 
 BRR  HZ EP   1    2 1 11.01                             151   -0.03 7 71.1 300 
 BRR  HN ES   1    2 1 27.91                             151    0.89 7 71.1 300 
 BRR  HZ I         2 1 29.09        24.2 0.10                          71.1 300 
 PAM  SZ EP   1    2 1 12.20                             149   -0.07 7 79.6  39 
 PAM  SN ES        2 1 29.03                             149   -0.1710 79.6  39 
 PAM  SZ I         2 1 29.86        16.8 0.22                          79.6  39 
 RUS  HZ EP   1    2 1 13.33                             143   -0.26 7 98.8 175 
 RUS  HZ I         2 1 14.51        10.4 0.16                          98.8 175 
 RUS  HN ES   1    2 1 31.85                             143    0.30 7 98.8 175 
 PTB  HZ EP   1    2 1 16.18                             131   -0.72 7  146 259 
 PTB  HZ I         2 1 16.98         8.4 0.12                           146 259 
 PTB  HN ES        2 1 36.91                             131   -0.53 9  146 259 
 OCA  HN ES   1    2 1 40.88                             128    0.47 7  162 354 
 ZAR  HZ EP   1    2 1 23.31                             121    0.74 6  204 293 
 ZAR  HN ES   1    2 1 47.27                             121   -0.27 6  204 293 
 ZAR  HZ I         2 1 52.26        10.6 0.22                           204 293 
 CHI  HZ EP   1    2 1 27.73                             116    0.03 6  247 195 
 CHI  HN ES   1    2 1 57.49                             116    0.82 6  247 195 
 CHI  HZ I         2 2  0.88         4.3 0.20                           247 195 
 HEL  HZ EP   1    2 1 30.97                             114    0.68 6  270 256 
 HEL  HZ I         2 2  8.67         5.0 0.51                           270 256 
 PRA  HZ EP   1    2 1 43.48                             106   -0.14 4  390 210 
                                                                                
