 2012 1216 0833 15.9 L   6.715 -73.159143.5  RSN  5 0.4 1.0LRSN                1
 GAP=180        0.75       7.9     7.7 12.7  0.2455E+02 -0.3263E+01  0.3157E+02E
 Epicentro: VILLANUEVA - SANTANDER                                             3
 ACTION:UPD 13-01-04 14:28 OP:ep   STATUS:               ID:20121216083315 L   I
 2012-12-16-0830-00M.COL___239                                                 6
 STAT SP IPHASW D HRMM SECON CODA AMPLIT PERI AZIMU VELO AIN AR TRES W  DIS CAZ7
 BAR2 SZ EP   1    833 34.47                             174   -0.62 7 13.8 191 
 BAR2 SZ I         833 52.38         2.8 0.34                          13.8 191 
 GIR2 SZ ES   2    833 50.84                             163   -0.09 5 40.4 355 
 BRR  HE ES   1    833 53.81                             151    0.33 7 74.9 305 
 RUS  HZ EP   1    833 39.31                             146    0.55 7 91.3 175 
 RUS  HZ I         833 53.72         1.5 0.64                          91.3 175 
 RUS  HN ES   1    833 56.53                             146   -0.07 7 91.3 175 
 PTB  HN ES   1    834  2.90                             132   -0.17 7  145 262 
                                                                                
