 2017  416 0041 42.8 L   6.810 -73.154140.6  RSN  4 0.3 1.2LRSN                1
 GAP=135        0.82       4.3     3.9  9.0 -0.3476E+00  0.1232E+02  0.3719E-01E
 Epicentro: LOS SANTOS - SANTANDER                                             3
 ACTION:UPD 17-05-30 21:12 OP:jn   STATUS:               ID:20170416004142 L   I
 OLDACT:REG 17-04-16 12:34 OP:dani STATUS:               ID:20170416003748     3
 2017-04-16-0038-00M.COL___368                                                 6
 STAT SP IPHASW D HRMM SECON CODA AMPLIT PERI AZIMU VELO AIN AR TRES W  DIS CAZ7
 PAM  EZ EP        042  4.54                             150    0.0910 77.2  41 
 PAM  EN ES        042 21.26                             150   -0.0810 77.2  41 
 PAM  EZ I         042 23.89         4.5 0.52            154           77.2  41 
 RUS  HZ EP        042  5.62                             142   -0.5010  102 176 
 RUS  HN ES        042 24.65                             142    0.3310  102 176 
 RUS  HZ I         042 25.45         1.7 0.21            147            102 176 
 PTB  HZ EP        042  9.70                             131    0.43 9  147 258 
 PTB  HN ES        042 29.59                             131   -0.34 9  147 258 
 PTB  HZ I         042 35.76         2.4 0.22            133            147 258 
 ZAR  HE ES        042 39.82                             121    0.11 9  203 292 
                                                                                
