 2012  116 0252 28.6 L   6.728 -73.126153.1  RSN  4 0.2 1.3LRSN                1
 GAP=234        0.44       5.8     8.5  4.8  0.3432E+02  0.5210E+01 -0.1274E+01E
 Epicentro: JORDAN - SANTANDER                                                 3
 ACTION:UP  12-02-03 08:17 OP:REBC STATUS:               ID:20120116025228 L   I
 2012-01-16-0250-00M.COL___187                                                 6
 STAT SP IPHASW D HRMM SECON CODA AMPLIT PERI AZIMU VELO SNR AR TRES W  DIS CAZ7
 BAR2 SZ EP        252 48.86                             174    -0.210   16 202 
 BAR2 SZ ES   1    253  4.94                             174     0.0 7   16 202 
 BAR2 SZ I         253  5.82         2.0 0.37                            16 202 
 BRR  HZ EP        252 51.01                             152     0.110   77 303 
 BRR  HZ I         253  4.69         6.6 0.34                            77 303 
 BRR  HE ES   1    253  8.34                             152     0.1 7   77 303 
 RUS  HZ EP   2    252 53.03                             148     0.5 5   92 177 
 RUS  HN ES   1    253 11.18                             148     0.0 7   92 177 
 PTB  HZ EP   1    252 56.16                             133    -0.1 7  149 262 
                                                                                
