 2010  316 0751 43.0 L   5.932 -73.630122.0  RSN  6 0.3 1.2LRSN                1
 GAP= 90        0.48       4.1     6.8 13.9  0.1215E+02  0.7362E+02  0.3753E+02E
 Epicentro: BARBOSA - SANTANDER                                                3
 ACTION:UP  10-08-24 09:54 OP:vdl  STATUS:               ID:20100316075143 L   I
 2010-03-16-0750-53S.COL___095                                                 6
 STAT SP IPHASW D HRMM SECON CODA AMPLIT PERI AZIMU VELO SNR AR TRES W  DIS CAZ7
 RUS  HZ EP   2    752  1.91                             151     0.2 5   61  94 
 RUS  HE ES   3    752 16.48                             151     0.2 3   61  94 
 RUS  HZ I         752 17.59         2.2 0.39                            61  94 
 BAR2 SZ EP   2    752  3.39                             141     0.2 5   88  34 
 BAR2 SZ ES   2    752 18.47                             141    -0.4 5   88  34 
 BRR  HZ EP   2    752  6.49                             129     0.0 5  130 356 
 BRR  HN ES   2    752 24.84                             129     0.1 5  130 356 
 BRR  HZ I         752 27.69         3.5 0.11                           130 356 
 CHI  HZ EP        752  8.43                             126     0.110  145 184 
 HEL  HZ EP        752 15.46                             115     0.1 9  212 278 
 HEL  HN ES   3    752 40.28                             115    -0.4 2  212 278 
 HEL  HZ I         752 44.74         1.7 0.31                           212 278 
 PRA  HZ EP   2    752 21.99                             108    -0.9 4  282 210 
 PRA  HN ES   3    752 54.57                             108     0.6 2  282 210 
 PRA  HZ I         752 57.33         1.5 0.55                           282 210 
                                                                                
