 2013  616 0353  2.6 L   6.781 -73.214154.8  RSN  4 0.3 1.2LRSN                1
 GAP=195        0.66       4.4     6.0  8.1  0.1286E+02 -0.7588E+01 -0.8134E+01E
 Epicentro: ZAPATOCA - SANTANDER                                               3
 ACTION:UPD 14-01-08 09:55 OP:ep   STATUS:               ID:20130616035302 L   I
 OLDACT:REG 13-06-16 07:31 OP:cam  STATUS:               ID:20130616034959     3
 2013-06-16-0349-59M.COL___261                                                 6
 STAT SP IPHASW D HRMM SECON CODA AMPLIT PERI AZIMU VELO AIN AR TRES W  DIS CAZ7
 BRR  HZ EP   1    353 24.73                             156    0.31 7 65.8 303 
 BRR  HN ES        353 41.64                             156    0.1810 65.8 303 
 BRR  HZ I         353 44.00         2.2 0.18            156           65.8 303 
 RUS  HZ EP   1    353 27.49                             146    0.36 7 99.3 172 
 RUS  HN ES        353 45.98                             146   -0.3110 99.3 172 
 RUS  HZ I         353 47.72         2.3 0.38            148           99.3 172 
 PTB  HZ EP   2    353 28.98                             136   -0.64 5  140 259 
 PTB  HN ES        353 50.74                             136    0.03 9  140 259 
 PTB  HZ I         353 53.17         2.2 0.56            137            140 259 
 SML  HN ES   1    354  8.11                             119   -0.37 6  243 337 
                                                                                
