 2012  116 0511 32.8 L   6.805 -73.073145.7  RSN  6 0.3 1.6LRSN                1
 GAP=146        0.61       3.3     6.2  6.2  0.1166E+01  0.5013E+00 -0.1927E+01E
 Epicentro: LOS SANTOS - SANTANDER                                             3
 ACTION:UP  12-02-03 08:17 OP:REBC STATUS:               ID:20120116051132 L   I
 2012-01-16-0510-00M.COL___186                                                 6
 STAT SP IPHASW D HRMM SECON CODA AMPLIT PERI AZIMU VELO SNR AR TRES W  DIS CAZ7
 BAR2 SZ EP   1    511 52.26                             169    -0.2 7   26 207 
 BAR2 SZ ES   2    512  6.98                             169    -0.8 5   26 207 
 BAR2 SZ I         512 10.39         4.5 0.38                            26 207 
 GIR2 SZ EP   1    511 52.35                             167    -0.1 7   33 336 
 PAM  SZ EP   1    511 54.90                             153     0.2 7   72  35 
 PAM  SN ES   1    512 11.76                             153     0.0 7   72  35 
 BRR  HZ EP        511 54.16                             150    -0.110   78 295 
 BRR  HN ES   1    512 11.42                             150     0.3 7   78 295 
 BRR  HN I         512 14.70        19.8 0.17                            78 295 
 RUS  HZ EP   1    511 56.65                             144     0.1 7  101 181 
 RUS  HN ES   1    512 15.35                             144     0.3 7  101 181 
 OCA  SZ EP   1    512  0.88                             130    -0.2 7  161 350 
 OCA  SZ ES   1    512 23.39                             130     0.2 7  161 350 
 OCA  SZ I         512 27.32         2.9 0.17                           161 350 
                                                                                
