 2013  316 0603 50.3 L   6.150 -73.865 92.9  RSN  4 0.1 1.8LRSN                1
 GAP=195        0.36       3.5     2.5  5.9  0.2971E+01  0.3571E+01  0.3557E+01E
 Epicentro: LANDAZURI - SANTANDER                                              3
 ACTION:UPD 13-04-09 14:02 OP:ep   STATUS:               ID:20130316060350 L   I
 2013-03-16-0600-00M.COL___244                                                 6
 STAT SP IPHASW D HRMM SECON CODA AMPLIT PERI AZIMU VELO AIN AR TRES W  DIS CAZ7
 PTB  HZ EP   1    6 4  6.60                             137   -0.08 8 78.3 303 
 PTB  HN ES   2    6 4 19.61                             137    0.15 5 78.3 303 
 PTB  HN I         6 4 22.90        25.6 0.12            142           78.3 303 
 BAR2 SZ EP   1    6 4  8.16                             133    0.15 8 89.9  57 
 BAR2 SZ ES   1    6 4 21.71                             133   -0.10 8 89.9  57 
 BAR2 SZ I         6 4 23.16        48.3 0.48            142           89.9  57 
 RUS  HZ EP   1    6 4  8.62                             133    0.16 8 91.1 108 
 RUS  HE ES   2    6 4 22.44                             133   -0.17 5 91.1 108 
 RUS  HN I         6 4 23.90         3.9 0.22            141           91.1 108 
 BRR  HZ EP     D  6 4  9.19                             127   -0.1310  107   9 
 BRR  HE ES   2    6 4 24.38                             127    0.23 5  107   9 
 BRR  HE I         6 4 24.81        14.7 0.20            135            107   9 
                                                                                
