 2016  116 0148 47.9 L   6.852 -73.140150.3  RSN  7 0.5 1.9LRSN                1
 GAP=135        1.16       4.2     5.1  8.1  0.2085E+00  0.7633E+01 -0.3812E+01E
 Epicentro: LOS SANTOS - SANTANDER                                             3
 ACTION:UPD 16-03-09 23:25 OP:cam  STATUS:               ID:20160116014847 L   I
 OLDACT:UP  16-01-16 13:42 OP:mh   STATUS:               ID:20160116014749     3
 OLDACT:REG 16-01-16 12:38 OP:mh   STATUS:               ID:20160116014749     3
 2016-01-16-0147-49M.COL___331                                                 6
 STAT SP IPHASW D HRMM SECON CODA AMPLIT PERI AZIMU VELO AIN AR TRES W  DIS CAZ7
 BRR  HZ EP        149  9.91                             154    0.4610 69.2 294 
 BRR  HN ES        149 26.92                             154    0.6810 69.2 294 
 BRR  HZ I         149 31.15         8.1 0.44            153           69.2 294 
 PAM  EZ EP        149 10.87                             153    0.5210 72.7  42 
 PAM  EN ES        149 27.81                             153   -0.0310 72.7  42 
 PAM  EZ I         149 29.46        19.7 0.52            155           72.7  42 
 RUS  HZ EP        149 12.35                             143   -0.1710  106 177 
 RUS  HN ES        149 31.50                             143   -0.2110  106 177 
 PTB  HZ EP        149 15.13                             133   -0.29 9  150 257 
 PTB  HN ES        149 36.11                             133   -0.76 9  150 257 
 PTB  HZ I         149 37.74         5.8 0.18            134            150 257 
 OCA  HZ EP        149 16.04                             132   -0.03 9  155 353 
 OCA  HN ES        149 37.19                             132   -0.84 9  155 353 
 OCA  HZ I         149 41.24        18.4 0.44            133            155 353 
 ZAR  HZ EP        149 20.92                             124    0.41 9  203 291 
 ZAR  HN ES        149 46.42                             124    0.50 9  203 291 
 ZAR  HZ I         149 51.19         6.2 0.32            125            203 291 
 SML  HZ EP   1    149 23.92                             119   -0.35 6  239 335 
 SML  HN ES        149 52.38                             119   -0.25 8  239 335 
 SML  HZ I         149 56.32        10.0 0.10            120            239 335 
                                                                                
