 2012 1216 0539 50.9 L   6.779 -73.146148.0  RSN 11 0.4 2.2LRSN                1
 GAP= 72        0.70       3.4     2.8  5.2  0.7318E+00  0.2248E+01  0.6362E+01E
 Epicentro: LOS SANTOS - SANTANDER                                             3
 ACTION:UPD 13-01-04 14:28 OP:ep   STATUS:               ID:20121216053950 L   I
 2012-12-16-0537-36M.COL___201                                                 6
 STAT SP IPHASW D HRMM SECON CODA AMPLIT PERI AZIMU VELO AIN AR TRES W  DIS CAZ7
 BAR2 SZ EP        540 10.66                             172   -0.0710 21.1 191 
 GIR2 SZ EP   1    540 10.73                             167   -0.14 7 33.5 351 
 GIR2 SZ ES   1    540 26.31                             167   -0.16 7 33.5 351 
 GIR2 SZ I         540 27.85        19.1 0.12                          33.5 351 
 BRR  HZ EP   1    540 12.55                             153    0.23 7 72.3 300 
 BRR  HN ES   1    540 29.96                             153    0.90 7 72.3 300 
 BRR  HZ I         540 32.22        27.8 0.16                          72.3 300 
 PAM  SZ EP   1    540 13.56                             151    0.13 7 79.2  38 
 PAM  SN ES   1    540 30.81                             151   -0.22 7 79.2  38 
 PAM  SZ I         540 32.90        23.6 0.18                          79.2  38 
 RUS  HZ EP   1    540 14.51                             145   -0.17 7 98.3 176 
 RUS  HN ES   1    540 33.21                             145   -0.04 7 98.3 176 
 RUS  HZ I         540 34.71        12.9 0.44                          98.3 176 
 PTB  HZ EP   1    540 17.31                             133   -0.67 7  147 260 
 PTB  HN ES   1    540 38.55                             133   -0.58 7  147 260 
 PTB  HZ I         540 44.55        36.4 0.26                           147 260 
 TAM  HZ EP        540 18.79                             131    0.11 9  155 104 
 TAM  HZ I         540 39.69        14.8 0.36                           155 104 
 TAM  HE ES   1    540 40.26                             131   -0.10 7  155 104 
 ZAR  HZ EP   1    540 23.47                             123   -0.08 6  205 293 
 ZAR  HE ES   1    540 48.95                             123   -0.09 6  205 293 
 ZAR  HZ I         540 55.14        26.9 0.26                           205 293 
 CHI  HZ EP   1    540 28.64                             118    0.18 6  246 195 
 CHI  HN ES   1    540 58.29                             118    0.52 6  246 195 
 CHI  HZ I         541  2.13         8.5 0.36                           246 195 
 HEL  HZ EP   1    540 31.84                             115    0.70 6  272 256 
 HEL  HZ I         541  9.44        10.3 0.30                           272 256 
 PRA  HZ EP   1    540 44.17                             107   -0.07 4  390 210 
 PRA  HN ES   1    541 25.60                             107   -0.26 4  390 210 
 PRA  HZ I         541 32.13        10.7 0.58                           390 210 
                                                                                
