 2010  216 0122 41.0 L   6.339 -73.557105.3  RSN  9 0.5 1.7LRSN                1
 GAP=130        1.03       6.1     8.1 11.9 -0.1462E+02  0.6236E+02  0.1948E+02E
 Epicentro: SANTA HELENA DEL OPON - SANTANDER                                  3
 ACTION:UP  10-08-24 09:49 OP:vdl  STATUS:               ID:20100216012240 L   I
 2010-02-16-0120-41S.COL___094                                                 6
 STAT SP IPHASW D HRMM SECON CODA AMPLIT PERI AZIMU VELO SNR AR TRES W  DIS CAZ7
 BAR2 SZ EP        122 57.13                             153     0.210   50  56 
 BAR2 SZ ES        123  9.56                             153     0.210   50  56 
 GIR2 SZ EP   1    122 59.80                             136     0.0 7   91  26 
 GIR2 SZ ES   2    123 13.68                             136    -0.7 5   91  26 
 CHI  HZ EP   1    123  9.96                             114    -0.2 7  190 186 
 CHI  HN ES   2    123 31.52                             114    -1.4 4  190 186 
 OCA  SZ ES   2    123 36.94                             111     0.3 4  212   7 
 OCA  SZ I         123 46.25        11.3 0.51                           212   7 
 HEL  HZ EP        123 12.54                             110    -0.8 8  219 266 
 HEL  HN ES   2    123 37.99                             110    -0.6 4  219 266 
 HEL  HZ I         123 42.53         3.5 0.40                           219 266 
 GUY  HZ EP        123 15.48                             109     0.1 8  235 239 
 GUY  HN ES   2    123 42.72                             109     0.5 4  235 239 
 RREF BZ EP        123 18.00                             107     0.2 8  254 231 
 RREF BZ I         123 28.81         2.3 0.45                           254 231 
 RREF BE ES   2    123 47.12                             107     0.7 4  254 231 
 TOL  SZ EP        123 20.84                             105     1.0 7  275 225 
 PRA  HZ EP        123 25.11                             101    -0.4 7  326 207 
 PRA  HN ES   2    123 59.94                             101    -0.2 3  326 207 
 PRA  HZ I         124  5.64         2.7 0.18                           326 207 
                                                                                
