 2010  416 0040 30.2 L   6.795 -73.018145.9  RSN  9 0.4 2.6LRSN                1
 GAP=150        0.98       4.3     6.7  6.1 -0.9346E+01  0.2216E+01  0.4952E+01E
 Epicentro: CEPITA - SANTANDER                                                 3
 ACTION:UPD 10-08-24 09:59 OP:vdl  STATUS:               ID:20100416004039 L   I
 2010-04-16-0038-28S.COL___100                                                 6
 STAT SP IPHASW D HRMM SECON CODA AMPLIT PERI AZIMU VELO AIN AR TRES W  DIS CAZ7
 BAR2 SZ EP        040 50.07                             168     0.110   29 219 
 BAR2 SZ ES        041  4.92                             168    -0.510   29 219 
 BRR  HZ EP        040 52.37                             148     0.210   84 294 
 BRR  HZ I         040 52.84        85.4 0.15                            84 294 
 BRR  HN ES        041  9.72                             148     0.410   84 294 
 OCA  SZ EP        040 58.85                             129     0.0 9  163 348 
 OCA  SZ ES   1    041 21.22                             129     0.1 7  163 348 
 OCA  SZ I         041 24.24        66.8 0.53                           163 348 
 CHI  HZ EP   1    041  8.20                             116    -0.1 6  252 198 
 CHI  HN ES   1    041 38.39                             116     0.3 6  252 198 
 CHI  HZ I         041 43.47        10.5 0.43                           252 198 
 HEL  HZ EP        041 11.81                             113    -0.2 7  286 257 
 HEL  HN ES   1    041 43.44                             113    -1.1 6  286 257 
 HEL  HZ I         041 49.05        16.5 0.23                           286 257 
 RREF BN ES        041 55.02                             110     0.5 7  332 231 
 RREF BZ I         041 58.18        15.2 0.11                           332 231 
 SDV  BZ EP   1    041 19.29                             108     0.2 5  350  49 
 SDV  BZ I         041 20.56        15.7 0.32                           350  49 
 DBB  SZ EP        041 18.99                             108    -0.4 6  354 274 
 PRA  HZ EP        041 24.02                             106    -0.5 6  399 211 
 PRA  HN ES        042  7.60                             106     0.7 6  399 211 
 PRA  HZ I         042 12.49        10.9 0.05                           399 211 
                                                                                
