 2013 1216 0938 30.9 L   6.796 -73.120143.7  RSN 12 0.5 1.8LRSN                1
 GAP=140        1.13       3.1     5.0  6.3  0.1079E+00  0.8553E+01  0.5994E+00E
 Epicentro: LOS SANTOS - SANTANDER                                             3
 ACTION:UPD 14-01-13 10:18 OP:ep   STATUS:               ID:20131216093830 L   I
 OLDACT:REG 13-12-16 06:50 OP:jn   STATUS:               ID:20131216093639     3
 2013-12-16-0936-39M.COL___229                                                 6
 STAT SP IPHASW D HRMM SECON CODA AMPLIT PERI AZIMU VELO AIN AR TRES W  DIS CAZ7
 BAR2 SZ IP     D  938 50.47                             170    0.1910 23.5 197 
 BAR2 SZ ES        939  5.08                             170   -0.3210 23.5 197 
 BAR2 SZ I         939  6.46        26.1 0.20            165           23.5 197 
 BRR  HZ EP        938 52.42                             151    0.4410 73.9 298 
 BRR  HN ES        939  9.05                             151    0.6310 73.9 298 
 BRR  HZ I         939 18.09         8.5 0.28            144           73.9 298 
 PAM  SZ EP        938 53.37                             151    0.5610 76.0  38 
 PAM  SN ES        939  9.93                             151    0.0310 76.0  38 
 PAM  SZ I         939 13.30         9.3 0.52            153           76.0  38 
 RUS  HZ EP        938 54.40                             144   -0.0010100.0 178 
 RUS  HN ES        939 12.84                             144    0.1110100.0 178 
 RUS  HZ I         939 14.51         5.7 0.32            141          100.0 178 
 PTB  HZ EP        938 58.25                             131    0.31 9  150 259 
 PTB  HN ES   1    939 18.70                             131   -0.34 7  150 259 
 PTB  HZ I         939 20.93         9.9 0.14            126            150 259 
 OCA  HN ES        939 20.25                             129   -0.89 9  161 352 
 OCA  HZ I         939 23.85         5.6 0.48            126            161 352 
 SPBC HZ EP        938 59.69                             128    0.31 9  165 220 
 SPBC HE ES        939 21.05                             128   -0.54 9  165 220 
 SPBC HZ I         939 28.00         8.5 0.16            124            165 220 
 ZAR  HZ EP        939  3.65                             121    0.15 8  207 292 
 ZAR  HN ES        939 29.39                             121    0.47 8  207 292 
 ZAR  HZ I         939 35.12         7.4 0.32            117            207 292 
 SML  HZ EP        939  6.82                             117   -0.76 8  245 335 
 SML  HN ES        939 35.71                             117   -0.49 8  245 335 
 CHI  HZ EP        939  8.67                             117    0.15 8  249 196 
 CHI  HN ES        939 36.94                             117   -0.92 8  249 196 
 CHI  HZ I         939 41.10         2.5 0.26            114            249 196 
 HEL  HZ EP   2    939 11.46                             114    0.16 4  275 256 
 HEL  HZ I         939 49.63         4.3 0.38            111            275 256 
 SJC  HZ EP   4    939 25.58                             105   -1.04 0  411 327 
 SJC  HN ES   4    940  6.25                             105   -3.83 0  411 327 
 SJC  HZ I         940 10.88         2.8 0.58            103            411 327 
                                                                                
