 2017 1116 0854 16.5 L   6.808 -73.130146.0  RSN  8 0.6 1.6LRSN                1
 GAP=113        1.24       4.5     5.0  7.7  0.4468E+01  0.1155E+02  0.8407E+01E
 Epicentro: LOS SANTOS - SANTANDER                                             3
 ACTION:UPD 17-12-12 19:56 OP:rebc STATUS:               ID:20171116085416 L   I
 OLDACT:REG 17-11-16 13:53 OP:y    STATUS:               ID:20171116084740     3
 2017-11-16-0848-00M.COL___411                                                 6
 STAT SP IPHASW D HRMM SECON CODA AMPLIT PERI AZIMU VELO AIN AR TRES W  DIS CAZ7
 BAR2 EZ EP        854 35.94                             170   -0.2110 24.5 194 
 BAR2 EZ ES        854 51.93                             170    0.4310 24.5 194 
 BAR2 EZ I         854 52.90        12.3 0.36            168           24.5 194 
 PAM  EZ EP        854 38.90                             151    0.3010 75.7  39 
 PAM  EN ES        854 56.30                             151    0.4310 75.7  39 
 PAM  EZ I         854 57.23         3.2 0.18            155           75.7  39 
 RUS  HZ EP        854 40.21                             144   -0.0810  101 177 
 RUS  HN ES        854 58.65                             144   -0.2310  101 177 
 RUS  HZ I         854 59.84         8.0 0.32            144            101 177 
 PTB  HZ EP        854 42.98                             132   -0.64 9  150 259 
 PTB  HN ES        855  4.39                             132   -0.40 9  150 259 
 PTB  HZ I         855  9.18         4.0 0.44            131            150 259 
 YPLC HZ EP        854 46.16                             127   -0.11 9  177 152 
 YPLC HN ES        855  8.63                             127   -0.89 9  177 152 
 YPLC HZ I         855 11.11         2.9 0.20            128            177 152 
 ZAR  HZ EP        854 48.90                             122   -0.15 8  205 292 
 ZAR  HE ES        855 14.36                             122   -0.11 8  205 292 
 ZAR  HZ I         855 21.09         7.7 0.26            122            205 292 
 CHI  HZ EP        854 54.63                             117    0.32 8  250 195 
 CHI  HN ES        855 24.06                             117    0.23 8  250 195 
 CHI  HZ I         855 29.19         2.7 0.32            118            250 195 
 GUY2CHZ EP   4    855  2.98                             112    2.69 0  303 235 
 PRA  HZ EP        855 10.80                             106    0.62 6  394 210 
 PRA  HN ES        855 54.09                             106    2.02 6  394 210 
 PRA  HZ I         855 57.84         1.8 0.50            107            394 210 
                                                                                
