 2012  116 0020 26.1 L   6.796 -73.157138.0  RSN  4 0.1 1.6LRSN                1
 GAP=135        0.35       3.0     3.9  5.4 -0.8316E+00  0.4416E+01  0.3906E+01E
 Epicentro: LOS SANTOS - SANTANDER                                             3
 ACTION:UP  12-02-03 08:17 OP:REBC STATUS:               ID:20120116002026 L   I
 2012-01-16-0020-00M.COL___187                                                 6
 STAT SP IPHASW D HRMM SECON CODA AMPLIT PERI AZIMU VELO SNR AR TRES W  DIS CAZ7
 GIR2 SZ EP   2    020 44.80                             166    -0.1 5   32 353 
 BRR  HZ EP        020 46.50                             151     0.110   70 299 
 BRR  HE ES   2    021  2.01                             151    -0.2 5   70 299 
 BRR  HZ I         021  7.68         7.8 0.34                            70 299 
 PAM  SZ EP   1    020 47.60                             149     0.0 7   79  40 
 PAM  SN ES   1    021  4.32                             149     0.0 7   79  40 
 RUS  HZ EP   1    020 48.95                             142    -0.1 7  100 175 
 RUS  HE ES   2    021  7.20                             142     0.2 5  100 175 
                                                                                
