 2015  716 0215 39.7 L   6.771 -73.130139.5  RSN  7 0.5 1.9LRSN                1
 GAP=140        1.01       4.7     4.9  7.4 -0.4382E+01  0.2024E+02  0.3053E+01E
 Epicentro: LOS SANTOS - SANTANDER                                             3
 ACTION:UPD 15-09-08 21:49 OP:cam  STATUS:               ID:20150716021539 L   I
 OLDACT:UP  15-07-16 15:12 OP:ak   STATUS:               ID:20150716020746d    3
 OLDACT:DUP 15-07-16 15:06 OP:ak   STATUS:               ID:20150716020746d    3
 OLDACT:UP  15-07-16 15:02 OP:ak   STATUS:               ID:20150716020745     3
 OLDACT:UP  15-07-16 15:01 OP:ak   STATUS:               ID:20150716020745     3
 OLDACT:REG 15-07-16 12:27 OP:ak   STATUS:               ID:20150716020745     3
 2015-07-16-0207-45M.COL___340                                                 6
 STAT SP IPHASW D HRMM SECON CODA AMPLIT PERI AZIMU VELO AIN AR TRES W  DIS CAZ7
 BAR2 EZ EP     C  215 58.30                             171   -0.2310 20.5 196 
 BAR2 EZ ES        216 13.05                             171   -0.1610 20.5 196 
 BAR2 EZ I         216 14.38        16.3 0.12            168           20.5 196 
 PAM  EZ EP        216  1.16                             149   -0.1910 78.9  37 
 PAM  EN ES        216 18.32                             149    0.0810 78.9  37 
 PAM  EZ I         216 19.28         8.6 0.18            153           78.9  37 
 RUS  HZ EP        216  2.20                             143   -0.4010 97.2 177 
 RUS  HN ES        216 21.05                             143    0.5910 97.2 177 
 ZAR  HN ES        216 37.26                             121   -0.01 8  207 293 
 HEL  HZ EP        216 20.41                             113    0.71 8  273 257 
 HEL  HN ES        216 51.30                             113    0.40 8  273 257 
 HEL  HZ I         216 59.68         4.1 0.44            113            273 257 
 GUY2CHZ EP        216 22.72                             111   -0.26 7  301 235 
 GUY2CHN ES        216 56.27                             111   -0.46 7  301 235 
 GUY2CHZ I         217  4.86         6.0 0.40                           301 235 
 TOL  SZ EP        216 28.54                             108    0.95 7  342 225 
 TOL  SN ES        217  4.15                             108   -0.79 7  342 225 
 TOL  SZ I         217 15.03         3.8 0.44            109            342 225 
                                                                                
