 2015  216 0525 38.6 L   7.563 -73.174143.4  RSN  6 0.4 1.5LRSN                1
 GAP=127        1.09       3.7     8.4  9.1  0.1198E+02  0.3176E+02  0.7877E+01E
 Epicentro: EL PLAYON - SANTANDER                                              3
 ACTION:UPD 15-04-30 21:26 OP:nd   STATUS:               ID:20150216052538 L   I
 OLDACT:UP  15-02-16 15:32 OP:mh   STATUS:               ID:20150216051738d    3
 OLDACT:UP  15-02-16 15:31 OP:mh   STATUS:               ID:20150216051738d    3
 OLDACT:DUP 15-02-16 15:31 OP:mh   STATUS:               ID:20150216051738d    3
 2015-02-16-0517-37M.COL___299                                                 6
 STAT SP IPHASW D HRMM SECON CODA AMPLIT PERI AZIMU VELO AIN AR TRES W  DIS CAZ7
 PAM  SZ EP        525 59.81                             157    0.3410 57.9 115 
 PAM  SN ES        526 15.28                             157   -0.5010 57.9 115 
 PAM  SZ I         526 17.64         4.1 0.56            162           57.9 115 
 OCA  HZ EP        526  0.46                             150    0.4710 76.5 348 
 OCA  HN ES        526 17.03                             150    0.3310 76.5 348 
 OCA  HZ I         526 19.72         5.6 0.46            154           76.5 348 
 BAR2 EZ EP   1    526  2.83                             141    0.60 7  107 180 
 BAR2 EZ ES        526 21.03                             141    0.3510  107 180 
 BAR2 EZ I         526 22.89         8.1 0.86            142            107 180 
 SML  HZ EP        526  6.83                             127   -0.48 9  169 324 
 SML  HN ES        526 29.29                             127   -0.44 9  169 324 
 SML  HZ I         526 29.52         7.4 0.26            130            169 324 
 RUS  HZ EP        526  9.29                             125   -0.26 9  185 177 
 RUS  HN ES        526 33.02                             125   -0.69 9  185 177 
 SPBC HN ES        526 42.02                             118    0.26 8  233 205 
 SPBC HZ I         526 50.33         1.4 0.17            119            233 205 
                                                                                
