 2011  716 0618 18.0 L   6.793 -73.136146.7  RSN  4 0.2 1.1LRSN                1
 GAP=160        0.44       2.7     5.6  5.0 -0.2132E+00 -0.6975E+01 -0.1617E+01E
 Epicentro: LOS SANTOS - SANTANDER                                             3
 ACTION:UPD 12-07-25 14:01 OP:epov STATUS:               ID:20110716061818 L   I
 2011-07-16-0600-00M.COL___133                                                 6
 STAT SP IPHASW D HRMM SECON CODA AMPLIT PERI AZIMU VELO AIN AR TRES W  DIS CAZ7
 BAR2 SZ EP   1    618 37.47                             171   -0.25 7 22.7 193 
 BAR2 SZ I         618 37.95         3.4 0.19                          22.7 193 
 BAR2 SZ ES   1    618 52.83                             171   -0.28 7 22.7 193 
 BRR  HZ EP   1    618 39.20                             152   -0.11 7 72.5 299 
 BRR  HZ I         618 39.67         4.9 0.14                          72.5 299 
 BRR  HN ES   1    618 56.12                             152    0.18 7 72.5 299 
 RUS  HZ EP   1    618 41.79                             144    0.02 7 99.7 177 
 RUS  HN ES   1    619  0.59                             144    0.27 7 99.7 177 
 RUS  HZ I         619  1.61         1.2 0.27                          99.7 177 
 GRA  SZ EP   1    618 43.50                             137    0.14 7  126  17 
 GRA  SZ ES   1    619  3.18                             137    0.04 7  126  17 
 GRA  SZ I         619  4.92         1.8 0.34                           126  17 
                                                                                
