 2012  216 0135 31.5 L   6.621 -73.069179.0  RSN  9 0.5 1.9LRSN                1
 GAP=196        0.90       6.7     6.8  9.0  0.9727E+01 -0.4360E+00  0.1245E+02E
 ACTION:UP  12-03-07 16:30 OP:epov STATUS:               ID:20120216013531 L   I
 2012-02-16-0130-00M.COL___188                                                 6
 STAT SP IPHASW D HRMM SECON CODA AMPLIT PERI AZIMU VELO AIN AR TRES W  DIS CAZ7
 BAR2 SZ EP   1    135 54.80                             176   -0.26 7 12.9 256 
 GIR2 SZ EP   1    135 55.44                             163   -0.37 7 52.5 345 
 RUS  HZ EP   1    135 57.57                             155    0.01 7 80.5 181 
 RUS  HZ I         135 58.23        12.8 0.06                          80.5 181 
 RUS  HN ES   1    136 17.79                             155   -0.05 7 80.5 181 
 BRR  HZ EP   1    135 57.16                             152   -0.14 7 89.1 307 
 BRR  HE ES   1    136 18.29                             152    0.90 7 89.1 307 
 BRR  HZ I         136 22.35         8.8 0.13                          89.1 307 
 PTB  HZ EP   1    136  1.28                             138   -0.61 7  154 267 
 PTB  HE ES   1    136 24.89                             138   -0.66 7  154 267 
 ZAR  HE ES   1    136 36.34                             127    0.11 6  220 296 
 ZAR  HZ I         136 43.61         7.7 0.47                           220 296 
 NOR  SZ EP   1    136  9.98                             125    0.93 6  231 240 
 NOR  SN ES   1    136 38.14                             125   -0.15 6  231 240 
 CHI  HZ EP   1    136 10.12                             125    0.49 6  232 198 
 CHI  HZ I         136 10.62         3.0 0.48                           232 198 
 PRA  HZ EP   1    136 25.15                             112    0.19 5  379 212 
                                                                                
