 2017  416 0856 22.2 L   6.865 -73.140147.7  RSN  6 0.4 1.6LRSN                1
 GAP=220        0.76       4.7     4.1  6.0  0.9793E+01 -0.6668E+00  0.4882E+01E
 Epicentro: LOS SANTOS - SANTANDER                                             3
 ACTION:UPD 17-05-30 21:12 OP:jn   STATUS:               ID:20170416085622 L   I
 OLDACT:UP  17-04-16 17:49 OP:dani STATUS:               ID:20170416084329d    3
 OLDACT:UP  17-04-16 17:49 OP:dani STATUS:               ID:20170416084329d    3
 OLDACT:UP  17-04-16 17:49 OP:dani STATUS:               ID:20170416084329d    3
 OLDACT:UP  17-04-16 17:49 OP:dani STATUS:               ID:20170416084329d    3
 OLDACT:DUP 17-04-16 17:44 OP:dani STATUS:               ID:20170416084329d    3
 2017-04-16-0848-00M.COL___365                                                 6
 STAT SP IPHASW D HRMM SECON CODA AMPLIT PERI AZIMU VELO AIN AR TRES W  DIS CAZ7
 BAR2 EZ EP        856 41.97                             168   -0.2210 30.5 189 
 BAR2 EZ ES        856 57.50                             168   -0.3110 30.5 189 
 BAR2 EZ I         856 59.01         7.4 0.20            165           30.5 189 
 BRR  HZ EP        856 43.54                             154    0.1610 68.6 293 
 BRR  HE ES        857  0.42                             154    0.5010 68.6 293 
 BRR  HZ I         857  3.99         6.1 0.19            154           68.6 293 
 PTB  HZ EP   3    856 48.61                             132   -0.87 2  150 256 
 PTB  HN ES        857 10.34                             132   -0.45 9  150 256 
 PTB  HZ I         857 12.40         6.6 0.20            133            150 256 
 SPBC HZ EP        856 51.42                             128    0.04 9  169 218 
 SPBC HN ES        857 14.53                             128    0.36 9  169 218 
 SPBC HZ I         857 19.36         3.7 0.12            129            169 218 
 YPLC HZ EP        856 52.60                             126   -0.09 9  183 153 
 YPLC HN ES        857 16.65                             126    0.14 9  183 153 
 YPLC HZ I         857 19.57         2.6 0.26            127            183 153 
 ZAR  HZ EP   3    856 56.25                             123    1.73 2  202 290 
 ZAR  HN ES        857 19.57                             123   -0.19 9  202 290 
 ZAR  HZ I         857 21.92         3.8 0.07            125            202 290 
                                                                                
