 2017  216 0331  5.7 L   6.836 -73.119148.3  RSN  5 0.3 1.3LRSN                1
 GAP=138        0.71       4.3     4.7  7.1  0.7483E+01  0.1497E+02  0.1019E+02E
 Epicentro: LOS SANTOS - SANTANDER                                             3
 ACTION:UPD 17-05-24 15:36 OP:jn   STATUS:               ID:20170216033105 L   I
 OLDACT:UP  17-02-16 15:42 OP:dani STATUS:               ID:20170216032739     3
 OLDACT:UP  17-02-16 15:42 OP:dani STATUS:               ID:20170216032739     3
 OLDACT:UP  17-02-16 15:42 OP:dani STATUS:               ID:20170216032739     3
 OLDACT:REG 17-02-16 13:19 OP:dani STATUS:               ID:20170216032739     3
 2017-02-16-0328-00M.COL___364                                                 6
 STAT SP IPHASW D HRMM SECON CODA AMPLIT PERI AZIMU VELO AIN AR TRES W  DIS CAZ7
 BRR  HZ EP        331 27.55                             153    0.3310 72.0 295 
 BRR  HN ES        331 43.95                             153   -0.0110 72.0 295 
 BRR  HZ I         331 48.09         4.2 0.32            154           72.0 295 
 PAM  EE ES        331 45.12                             153   -0.1510 72.5  40 
 PAM  EZ I         331 47.46         5.2 0.36            156           72.5  40 
 RUS  HZ EP        331 30.22                             143    0.2010  104 178 
 RUS  HN ES        331 48.95                             143    0.0010  104 178 
 RUS  HZ I         331 49.89         1.5 0.27            147            104 178 
 PTB  HZ EP        331 32.69                             132   -0.56 9  151 258 
 PTB  HN ES   4    331 52.46                             132   -2.24 0  151 258 
 PTB  HZ I         331 56.36         3.9 0.12            134            151 258 
 ZAR  HE ES        332  4.18                             123    0.15 8  205 291 
                                                                                
