 2016  216 1022 23.8 L   6.840 -73.135145.0  RSN 20 0.6 2.2LRSN                1
 GAP=119        1.15       3.2     3.7  5.5 -0.3327E+01  0.5420E+01  0.2941E+00E
 Epicentro: LOS SANTOS - SANTANDER                                             3
 ACTION:UPD 16-03-04 21:26 OP:rebc STATUS:               ID:20160216102223 L   I
 OLDACT:REG 16-02-16 21:24 OP:ak   STATUS:               ID:20160216101749     3
 2016-02-16-1017-49M.COL___309                                                 6
 STAT SP IPHASW D HRMM SECON CODA AMPLIT PERI AZIMU VELO AIN AR TRES W  DIS CAZ7
 BAR2 EZ EP     C 1022 43.66                             169    0.2410 27.9 191 
 BAR2 EZ ES       1022 58.84                             169    0.1010 27.9 191 
 BAR2 EZ I        1023  0.10        33.5 0.22            167           27.9 191 
 PAM  EZ EP       1022 46.48                             152    0.8010 73.3  41 
 PAM  EN ES       1023  3.25                             152    0.4910 73.3  41 
 PAM  EZ I        1023  5.57        43.6 0.52            155           73.3  41 
 RUS  HZ EP       1022 47.68                             142   -0.1010  105 177 
 RUS  HN ES       1023  6.53                             142    0.0310  105 177 
 RUS  HZ I        1023  7.36        15.5 0.32            144            105 177 
 PTB  HZ EP       1022 50.31                             131   -0.56 9  150 257 
 PTB  HN ES       1023 10.83                             131   -1.17 9  150 257 
 PTB  HZ I        1023 14.95        15.9 0.26            130            150 257 
 OCA  HZ EP       1022 51.67                             130    0.04 9  156 353 
 OCA  HN ES       1023 13.12                             130   -0.24 9  156 353 
 OCA  HZ I        1023 16.89        44.3 0.24            131            156 353 
 SPBC HZ EP       1022 52.47                             128   -0.15 9  167 218 
 SPBC HN ES       1023 14.74                             128   -0.37 9  167 218 
 SPBC HZ I        1023 19.61        25.9 0.22            128            167 218 
 ZAR  HZ EP       1022 56.12                             122    0.00 9  203 291 
 ZAR  HN ES       1023 21.68                             122    0.34 9  203 291 
 ZAR  HZ I        1023 27.87        18.1 0.40            121            203 291 
 NOR  HZ EP       1023  0.08                             118    0.24 8  238 234 
 NOR  HE ES       1023 27.11                             118   -0.86 8  238 234 
 NOR  HZ I        1023 29.53        12.5 0.13            118            238 234 
 CHI  HZ EP       1023  1.99                             116    0.05 8  253 195 
 CHI  HE ES       1023 31.82                             116    0.12 8  253 195 
 CHI  HZ I        1023 38.57         7.4 0.48            117            253 195 
 HEL  HZ EP   1   1023  4.69                             114    0.49 6  274 255 
 HEL  HN ES       1023 36.65                             114    0.92 8  274 255 
 HEL  HZ I        1023 42.69         9.7 0.46            114            274 255 
 URE  HZ EP   9   1023  3.47                             113   -1.28 0  283 291 
 URE  HN ES       1023 35.08                                   -0.35 7  283 291 
 URE  HZ I        1023 45.66         8.8 0.18            113            283 291 
 SOCV BZ EP       1023  5.39                             112   -1.02 7  298  57 
 SOCV BN ES   4   1023 37.30                             112   -2.37 0  298  57 
 GUY2CHZ EP       1023  8.32                             112    0.57 7  305 234 
 GUY2CHN ES   4   1023 44.06                             112    2.01 0  305 234 
 GUY2CHZ I        1023 48.27        10.4 0.28                           305 234 
 CBOC HZ EP       1023 11.98                             110    1.03 7  336 251 
 CBOC HN ES       1023 47.96                             110    0.22 7  336 251 
 CBOC HZ I        1023 58.80         2.7 0.42            110            336 251 
 SDV  BZ EP   2   1023 12.29                             108   -1.07 3  357  51 
 SDV  BN ES   4   1023 48.43                             108   -3.61 0  357  51 
 SDV  BZ I        1023 52.91         3.9 0.45            110            357  51 
 ANIL HZ EP   4   1023 16.08                             108    2.07 0  361 224 
 ANIL HN ES   2   1023 53.20                             108    0.00 3  361 224 
 ANIL HZ I        1024  1.70        18.1 0.26            108            361 224 
 ORTC HZ EP       1023 17.77                             106   -0.40 6  400 216 
 ORTC HN ES       1024  1.17                             106    0.57 6  400 216 
 ORTC HZ I        1024  8.36         6.2 0.24            106            400 216 
 SJC  HZ EP       1023 18.06                             106   -0.89 6  406 326 
 SJC  HN ES   4   1023 58.49                             106   -3.50 0  406 326 
 SJC  HZ I        1024  3.36         4.4 0.44            106            406 326 
 PAL  HZ EP       1023 19.57                             106    0.27 6  409 239 
 PAL  HE ES   1   1024  1.70                             106   -0.90 4  409 239 
 PAL  HZ I        1024 10.39         2.7 0.30            106            409 239 
 CRJC HZ EP   9   1023 24.05                             103   -1.68 0  463   3 
 CRJC HE ES   2   1024 12.28                                   -0.09 2  463   3 
                                                                                
