 2015  816 1538 54.5 L   6.827 -73.108140.3  RSN 14 0.6 2.6LRSN                1
 GAP= 72        1.32       3.7     3.7  6.5 -0.1765E+01  0.8422E+01  0.3200E+01E
 Epicentro: LOS SANTOS - SANTANDER                                             3
 ACTION:UPD 15-09-15 23:02 OP:cam  STATUS:               ID:20150816153854 L   I
 OLDACT:REG 15-08-16 21:15 OP:ar   STATUS:               ID:20150816153735     3
 2015-08-16-1537-35M.COL___340                                                 6
 STAT SP IPHASW D HRMM SECON CODA AMPLIT PERI AZIMU VELO AIN AR TRES W  DIS CAZ7
 BAR2 EZ IP     C 1539 13.36                             168   -0.2410 27.3 198 
 BAR2 EZ ES       1539 28.19                             168   -0.2810 27.3 198 
 BAR2 EZ I        1539 29.10        56.6 0.26            168           27.3 198 
 PAM  EZ EP       1539 16.21                             151    0.3310 72.4  38 
 PAM  EN ES       1539 33.13                             151    0.6110 72.4  38 
 PAM  EZ I        1539 35.42        61.4 0.42            154           72.4  38 
 BRR  HZ IP     C 1539 15.23                             151   -0.0110 73.6 295 
 BRR  HN ES       1539 32.06                             151    0.6710 73.6 295 
 BRR  HZ I        1539 36.03        54.7 0.12            150           73.6 295 
 RUS  HZ EP       1539 17.30                             142   -0.6710  103 179 
 RUS  HN ES       1539 36.00                             142   -0.2410  103 179 
 RUS  HZ I        1539 36.58        27.0 0.20            144            103 179 
 TAM  HZ EP       1539 21.67                             130    0.18 9  152 106 
 TAM  HN ES       1539 42.66                             130    0.16 9  152 106 
 TAM  HZ I        1539 43.71        25.6 0.56            133            152 106 
 OCA  HZ EP       1539 21.83                             129   -0.37 9  158 351 
 OCA  HN ES       1539 43.09                             129   -0.68 9  158 351 
 OCA  HZ I        1539 46.53        79.8 0.32            130            158 351 
 SPBC HZ EP       1539 22.33                             127   -0.78 9  168 219 
 SPBC HN ES       1539 44.53                             127   -0.87 9  168 219 
 SPBC HZ I        1539 46.87        81.4 0.12            128            168 219 
 ZAR  HZ EP       1539 27.86                             121    0.93 8  207 291 
 ZAR  HN ES       1539 52.20                             121    0.01 8  207 291 
 ZAR  HZ I        1539 57.94        70.5 0.40            122            207 291 
 NOR  HZ EP       1539 29.94                             117   -0.58 8  240 234 
 NOR  HN ES       1539 58.83                             117    0.24 8  240 234 
 NOR  HZ I        1540  1.21        31.1 0.54            118            240 234 
 ROSC BZ EP       1539 33.90                             115    1.01 8  258 211 
 ROSC BN ES       1540  2.88                             115    0.07 8  258 211 
 ROSC BZ I        1540 10.57        36.5 0.35            116            258 211 
 HEL  HZ EP       1539 35.30                             113    0.28 7  277 255 
 HEL  HN ES       1540  6.78                             113    0.18 7  277 255 
 HEL  HZ I        1540 11.52        23.4 0.36            114            277 255 
 GUY2CHZ EP       1539 38.70                             111    0.21 7  306 235 
 GUY2CHN ES       1540 13.64                             111    0.87 7  306 235 
 GUY2CHZ I        1540 18.49        21.4 0.34                           306 235 
 DBB  SZ EP       1539 41.29                             108   -0.97 7  343 274 
 DBB  SZ ES       1540 18.58                             108   -0.91 7  343 274 
 DBB  SZ I        1540 21.40        51.4 0.44            109            343 274 
 TOL  SZ EP       1539 44.13                             108    0.95 6  349 225 
 TOL  SN ES       1540 21.79                             108    0.68 6  349 225 
 TOL  SZ I        1540 27.01        10.3 0.24            109            349 225 
                                                                                
