 2012  316 1054 23.4 L   6.752 -73.222151.5  RSN  4 0.3 1.4LRSN                1
 GAP=220        0.88       8.9     6.9  9.2  0.2368E+02  0.2857E+00 -0.1548E+01E
 ACTION:UP  12-03-31 23:20 OP:EP   STATUS:               ID:20120316105423 L   I
 2012-03-16-1050-00M.COL___202                                                 6
 STAT SP IPHASW D HRMM SECON CODA AMPLIT PERI AZIMU VELO SNR AR TRES W  DIS CAZ7
 BAR2 SZ EP       1054 43.27                             173    -0.410   18 166 
 BAR2 SZ IP       1054 43.27                                             18 166 
 BAR2 SZ ES   1   1054 59.11                             173    -0.3 7   18 166 
 BAR2 SZ I        1055  1.40         4.4 0.14                            18 166 
 BRR  HZ EP   1   1054 45.34                             155     0.4 7   67 306 
 BRR  HZ I        1054 52.46        15.8 0.42                            67 306 
 BRR  HN ES   1   1055  2.14                             155     0.4 7   67 306 
 RUS  HZ EP   1   1054 47.54                             146     0.1 7   96 171 
 RUS  HN ES   1   1055  6.62                             146     0.4 7   96 171 
 RUS  HZ I        1055  7.35         1.5 0.12                            96 171 
 PTB  HZ EP   1   1054 50.20                             135     0.1 7  138 260 
 PTB  HN ES       1055 10.62                             135    -0.2 9  138 260 
 PTB  HZ I        1055 18.74         3.7 0.31                           138 260 
                                                                                
