 2011  716 1814 41.9 L   6.804 -73.055133.5  RSN  7 0.4 1.8LRSN                1
 GAP=148        0.91       5.5     9.5  9.5  0.8948E+00 -0.3013E+02 -0.2219E+02E
 Epicentro: LOS SANTOS - SANTANDER                                             3
 ACTION:UPD 12-07-25 14:01 OP:epov STATUS:               ID:20110716181441 L   I
 2011-07-16-1812-25S.COL___131                                                 6
 STAT SP IPHASW D HRMM SECON CODA AMPLIT PERI AZIMU VELO AIN AR TRES W  DIS CAZ7
 BAR2 SZ EP   1   1814 59.76                             168   -0.43 8 27.4 211 
 BAR2 SZ ES   1   1815 13.81                             168   -0.62 8 27.4 211 
 BAR2 SZ I        1815 16.33        23.0 0.26                          27.4 211 
 PAM  SZ EP   1   1815  2.97                             150    0.51 8 71.0  34 
 PAM  SN ES   2   1815 18.10                             150   -0.38 5 71.0  34 
 BRR  HZ EP   1   1815  1.98                             147   -0.34 8 80.0 295 
 BRR  HN ES   1   1815 18.81                             147    0.58 8 80.0 295 
 BRR  HZ I        1815 19.98        23.9 0.19                          80.0 295 
 RUS  HZ EP   1   1815  4.39                             141   -0.13 8  101 182 
 RUS  HN ES   1   1815 22.56                             141    0.42 8  101 182 
 RUS  HZ I        1815 24.47         7.1 0.20                           101 182 
 BRI  SZ EP       1815  4.70                             140    0.3110  105  16 
 BRI  SZ I        1815 28.55         7.3 0.58                           105  16 
 GRA  SZ EP       1815  5.98                             135    0.1410  123  13 
 GRA  SZ I        1815  7.31        12.0 0.22                           123  13 
 OCA  SZ EP   1   1815  8.68                             126   -0.74 7  161 350 
                                                                                
