 2010  916 1826 49.0 L   6.767 -73.130147.0  RSN  7 0.2 1.8LRSN                1
 GAP=161        0.50       3.7     8.1  5.9 -0.2526E+01 -0.1311E+02 -0.2642E+01E
 Epicentro: LOS SANTOS - SANTANDER                                             3
 ACTION:UP  11-02-18 11:03 OP:tino STATUS:               ID:20100916182649 L   I
 2010-09-16-1822-50S.COL___119                                                 6
 STAT SP IPHASW D HRMM SECON CODA AMPLIT PERI AZIMU VELO SNR AR TRES W  DIS CAZ7
 BAR2 SZ EP   1   1827  8.79                             172     0.0 7   20 197 
 BAR2 SZ ES   2   1827 23.66                             172    -0.5 5   20 197 
 BAR2 SZ I        1827 24.72        15.9 0.37                            20 197 
 BTL  SZ EP   1   1827  9.11                             171     0.3 7   23 318 
 GIR2 SZ EP   1   1827  8.76                             166    -0.2 7   35 349 
 GIR2 SZ ES   2   1827 24.69                             166     0.2 5   35 349 
 BRR  HZ EP   1   1827 10.44                             152    -0.1 7   75 300 
 BRR  HZ I        1827 10.77        32.7 0.12                            75 300 
 BRR  HE ES   2   1827 27.32                             152     0.1 5   75 300 
 RUS  HZ EP   1   1827 12.84                             145     0.2 7   97 177 
 RUS  HN ES   2   1827 30.94                             145    -0.1 5   97 177 
 RUS  HZ I        1827 33.88         6.4 0.37                            97 177 
 GUE  SZ EP   1   1827 13.81                             139    -0.3 7  120  11 
 GRA  SZ EP   1   1827 14.60                             137     0.0 7  129  16 
 GRA  SZ ES   2   1827 34.99                             137     0.4 5  129  16 
 GRA  SZ I        1827 35.23         5.3 0.18                           129  16 
                                                                                
