 2012  116 1040 23.7 L   6.380 -73.409138.6  RSN  4 0.3 1.1LRSN                1
 GAP=169        0.58       9.0     8.5  9.0  0.5634E+02  0.1813E+02  0.4784E+01E
 Epicentro: CHIMA - SANTANDER                                                  3
 ACTION:UP  12-02-03 08:17 OP:REBC STATUS:               ID:20120116104023 L   I
 2012-01-16-1040-00M.COL___185                                                 6
 STAT SP IPHASW D HRMM SECON CODA AMPLIT PERI AZIMU VELO SNR AR TRES W  DIS CAZ7
 RUS  HZ EP   1   1040 44.24                             154    -0.2 7   65 146 
 RUS  HE ES   2   1041  0.83                             154     0.2 5   65 146 
 RUS  HZ I        1041  3.20         2.8 0.26                            65 146 
 BRR  HN ES   2   1041  1.74                             146     0.0 5   87 337 
 PTB  HZ EP   1   1040 47.78                             137     0.4 7  117 279 
 PTB  HN ES   2   1041  5.38                             137    -0.5 5  117 279 
 PTB  HZ I        1041  8.98                                            117 279 
 ZAR  HZ EP   1   1040 55.18                             121    -0.3 6  202 308 
 ZAR  HN ES   2   1041 20.56                             121     0.3 4  202 308 
                                                                                
