 2017 1116 1911 37.1 L   6.835 -73.176138.6  RSN 28 0.6 2.8LRSN                1
 GAP= 63        1.27       3.0     3.1  5.4 -0.1605E+01  0.4843E+01 -0.6916E+00E
 Epicentro: ZAPATOCA - SANTANDER                                               3
 ACTION:UPD 17-12-12 19:56 OP:rebc STATUS:               ID:20171116191137 L   I
 OLDACT:REG 17-11-16 21:23 OP:lv   STATUS:               ID:20171116190739     3
 2017-11-16-1908-00M.COL___473                                                 6
 STAT SP IPHASW D HRMM SECON CODA AMPLIT PERI AZIMU VELO AIN AR TRES W  DIS CAZ7
 BAR2 EZ IP     C 1911 56.16                             168    0.1910 26.8 181 
 BAR2 EZ ES       1912  9.52                             168   -1.1510 26.8 181 
 BAR2 EZ I        1912 12.22       161.0 0.30            168           26.8 181 
 PAM  EZ IP     D 1911 59.10                             150    0.5610 76.7  43 
 PAM  EN ES       1912 16.09                             150    0.8510 76.7  43 
 PAM  EZ I        1912 18.62        86.3 0.72            152           76.7  43 
 RUS  HZ EP       1912  0.14                             141   -0.3410  105 174 
 RUS  HE ES       1912 18.96                             141    0.2510  105 174 
 RUS  HZ I        1912 19.91        78.0 0.26            142            105 174 
 PTB  HZ IP     D 1912  2.66                             131   -0.62 9  145 257 
 PTB  HN ES       1912 23.97                             131    0.29 9  145 257 
 PTB  HZ I        1912 26.03        71.7 0.58            130            145 257 
 TAM  HZ IP     D 1912  4.61                             128   -0.04 9  159 106 
 TAM  HN ES       1912 26.43                             128    0.31 9  159 106 
 TAM  HZ I        1912 30.06        25.3 0.32            130            159 106 
 SPBC HZ EP       1912  5.13                             127   -0.04 9  164 217 
 SPBC HN ES       1912 26.95                             127   -0.09 9  164 217 
 SPBC HZ I        1912 34.20       103.1 0.24            127            164 217 
 YPLC HZ EP       1912  6.68                             124   -0.23 9  182 151 
 YPLC HZ ES       1912 29.96                             124   -0.18 9  182 151 
 YPLC HZ I        1912 33.30        71.8 0.30            125            182 151 
 ZAR  HZ EP       1912  8.64                             121    0.01 9  199 291 
 ZAR  HN ES       1912 33.35                             121    0.14 9  199 291 
 ZAR  HZ I        1912 39.47        75.1 0.42            121            199 291 
 TABC EZ EP   9   1912 13.75                             117    1.12 0  232 210 
 TABC EZ ES       1912 41.87                                    0.42 8  232 210 
 TABC EZ I        1912 46.43        59.8 0.34            118            232 210 
 NOR  HZ EP       1912 11.97                             117   -0.42 8  234 233 
 NOR  HN ES       1912 39.59                             117   -0.31 8  234 233 
 NOR  HZ I        1912 42.71        39.3 0.18            117            234 233 
 CHI  HZ IP     C 1912 14.41                             115   -0.34 8  251 194 
 CHI  HN ES   4   1912 43.45                             115   -0.64 0  251 194 
 CHI  HZ I        1912 46.03        48.9 0.36            116            251 194 
 ROSC BZ EP   9   1912 16.39                             115    1.36 0  254 210 
 ROSC BN ES       1912 46.98                                    1.02 8  254 210 
 ROSC BZ I        1912 50.86        77.6 0.35            115            254 210 
 URE  HZ EP   9   1912 16.11                             112   -1.23 0  279 291 
 URE  HN ES       1912 46.50                                   -0.98 7  279 291 
 URE  HZ I        1913  0.68        52.4 0.18            113            279 291 
 DRL03HZ EP       1912 18.22                             112    0.30 7  285 353 
 DRL03HN ES       1912 49.12                             112   -0.62 7  285 353 
 GUY2CHZ EP       1912 21.13                             111    0.78 7  301 234 
 GUY2CHN ES       1912 53.73                             111   -0.33 7  301 234 
 GUY2CHZ I        1913  1.39        25.1 0.24                           301 234 
 VIL  EZ EP       1912 20.09                             110   -0.48 7  306 191 
 VIL  EN ES   4   1912 53.59                             110   -0.88 0  306 191 
 VIL  EZ I        1912 57.02        41.4 0.34            111            306 191 
 PTGC HZ EP   9   1912 19.34                             110   -1.88 0  314 158 
 PTGC HN ES       1912 52.86                                   -0.87 7  314 158 
 PTGC HZ I        1913  4.55        42.3 0.30            110            314 158 
 RECRCHZ EP   9   1912 23.43                             110    1.03 0  318 229 
 RECRCHN ES       1912 59.89                                    1.14 7  318 229 
 DRL02HZ EP   9   1912 20.87                             109   -1.20 0  321 358 
 DRL02HN ES       1912 55.69                                   -0.24 7  321 358 
 ELA  HZ EP       1912 25.41                             109    1.74 7  329 229 
 ELA  HN ES       1913  0.93                             109    0.95 7  329 229 
 ELA  HZ I        1913  7.97        19.9 0.40            109            329 229 
 DBB  EZ EP       1912 24.24                             108    0.35 7  336 274 
 DBB  EN ES   4   1912 57.36                             108   -3.01 0  336 274 
 DBB  EZ I        1913  2.12        21.1 0.58            108            336 274 
 ARGC HZ EP       1912 25.79                             107   -0.17 6  354 341 
 ARGC HE ES   4   1913  6.36                             107    2.31 0  354 341 
 ARGC HZ I        1913 16.54        15.5 0.28            108            354 341 
 ANIL HZ EP       1912 27.05                             107    0.35 6  358 224 
 ANIL HN ES       1913  6.16                             107    0.78 6  358 224 
 ANIL HZ I        1913 11.85        63.9 0.28            107            358 224 
 PRA  HZ EP       1912 30.14                             105   -0.46 6  394 209 
 PRA  HN ES       1913 11.72                             105   -0.60 6  394 209 
 PRA  HZ I        1913 19.92        23.2 0.40            105            394 209 
 ORTC HZ EP       1912 30.57                             105   -0.37 6  397 215 
 ORTC HN ES       1913 12.96                             105    0.05 6  397 215 
 ORTC HZ I        1913 19.88        19.0 0.50            105            397 215 
 SJC  HZ EP   4   1912 29.84                             105   -2.02 0  404 327 
 SJC  HN ES   4   1913 11.10                             105   -3.45 0  404 327 
 SJC  HZ I        1913 17.50         6.9 0.26            105            404 327 
 PAL  HZ EP       1912 31.77                             105   -0.17 6  405 238 
 PAL  HN ES       1913 14.21                             105   -0.50 6  405 238 
 PAL  HZ I        1913 20.19        12.1 0.40            105            405 238 
 CRJC HN ES   4   1913 24.66                             102   -2.60 0  464   4 
 SMAR HZ EP       1912 41.24                             101   -1.03 4  492 347 
 SMAR HN ES   4   1913 29.88                             101   -3.21 0  492 347 
 URI  HZ EP   4   1912 46.87                             100   -2.74 0  554  13 
 URI  HN ES   4   1913 41.13                             100   -5.03 0  554  13 
                                                                                
