 2011  416 1458 54.4 L   6.830 -73.053137.3  RSN  8 0.5 2.4LRSN                1
 GAP=174        1.12       8.0     9.1  9.5 -0.3450E+02  0.1614E+02 -0.6268E+01E
 Epicentro: LOS SANTOS - SANTANDER                                             3
 ACTION:UP  11-06-22 15:31 OP:REBC STATUS:               ID:20110416145854 L   I
 2011-04-16-1455-44S.COL___140                                                 6
 STAT SP IPHASW D HRMM SECON CODA AMPLIT PERI AZIMU VELO SNR AR TRES W  DIS CAZ7
 BTL  SZ EP       1459 13.32                             169     0.310   26 292 
 BAR2 SZ EP       1459 13.07                             167    -0.110   30 209 
 BAR2 SZ ES   1   1459 27.99                             167     0.2 7   30 209 
 BAR2 SZ I        1459 29.01        65.6 0.27                            30 209 
 GIR2 SZ EP   1   1459 12.07                             166    -1.0 7   32 331 
 PAM  SZ EP   1   1459 15.98                             152     0.8 7   69  35 
 PAM  SE ES   1   1459 30.69                             152    -0.7 7   69  35 
 BRR  HZ IP     C 1459 14.77                             148    -0.310   79 293 
 BRR  HZ I        1459 15.07       113.8 0.18                            79 293 
 BRR  HE ES   1   1459 31.67                             148     0.4 7   79 293 
 GRA  SZ IP       1459 18.77                             136     0.410  120  13 
 GRA  SZ ES   1   1459 37.28                             136     0.2 7  120  13 
 GRA  SZ I        1459 42.67        19.5 0.32                           120  13 
 OCA  SZ EP   1   1459 21.39                             128    -0.5 7  159 349 
 OCA  SZ ES   2   1459 43.35                             128     0.0 5  159 349 
 OCA  SZ I        1459 47.76        30.4 0.09                           159 349 
 HEL  HZ EP   1   1459 35.42                             112     0.0 6  283 256 
 HEL  HN ES   2   15 0  7.40                             112     0.0 4  283 256 
 HEL  HZ I        15 0 12.49         7.0 0.45                           283 256 
                                                                                
