 2017  116 1120 53.2 L   6.547 -73.537110.6  RSN  8 0.5 1.6LRSN                1
 GAP= 64        1.25       4.7     4.2  7.8  0.3296E+01  0.9986E+01  0.7091E+01E
 Epicentro: EL CARMEN - SANTANDER                                              3
 ACTION:UPD 17-05-22 16:00 OP:jn   STATUS:               ID:20170116112053 L   I
 OLDACT:REG 17-01-16 20:17 OP:cog  STATUS:               ID:20170116111744     3
 2017-01-16-1118-00M.COL___329                                                 6
 STAT SP IPHASW D HRMM SECON CODA AMPLIT PERI AZIMU VELO AIN AR TRES W  DIS CAZ7
 BAR2 EZ IP     D 1121  9.21                             159   -0.0310 39.5  83 
 BAR2 EZ ES       1121 22.03                             159    0.3110 39.5  83 
 BAR2 EZ I        1121 23.44        31.0 0.30            166           39.5  83 
 BRR  HZ EP       1121 10.08                             147   -0.2210 64.8 343 
 BRR  HE ES       1121 24.09                             147    0.5010 64.8 343 
 BRR  HZ I        1121 34.91        12.2 0.18            151           64.8 343 
 RUS  HZ EP       1121 12.43                             139   -0.2710 88.1 145 
 RUS  HN ES       1121 28.07                             139    0.2010 88.1 145 
 RUS  HZ I        1121 29.41         7.2 0.36            145           88.1 145 
 PTB  HZ EP       1121 12.25                             134   -0.9310  102 270 
 PTB  HE ES       1121 27.94                             134   -0.7910  102 270 
 PTB  HZ I        1121 31.67         8.7 0.18            137            102 270 
 PAM  EZ EP       1121 15.78                             127   -0.4210  127  47 
 PAM  EN ES       1121 34.03                             127   -0.0710  127  47 
 PAM  EZ I        1121 35.00         7.1 0.17            135            127  47 
 ZAR  HZ EP       1121 21.58                             117    0.61 9  180 306 
 ZAR  HN ES       1121 43.08                             117    0.49 9  180 306 
 ZAR  HZ I        1121 47.30        10.8 0.26            121            180 306 
 CHI  HZ EP       1121 25.54                             112    0.32 8  213 186 
 CHI  HE ES   3   1121 50.73                             112    0.58 2  213 186 
 CHI  HZ I        1121 58.10         1.6 0.19            117            213 186 
 GUY2CHZ EP       1121 30.36                             109    0.89 8  250 234 
 GUY2CHE ES   4 D 1121 59.48                             109    1.75 0  250 234 
 GUY2CHZ  IAML    1122  4.14         3.3 0.36                           250 234 
                                                                                
