 2010  516 1148 28.1 L   6.802 -73.047144.8  RSN 12 0.4 3.0LRSN                1
 GAP=167        0.76       3.5     6.4  6.6 -0.1057E+02  0.5509E+01  0.4309E+01E
 Epicentro: LOS SANTOS - SANTANDER                                             3
 ACTION:UP  10-08-24 10:05 OP:vdl  STATUS:               ID:20100516114828 L   I
 2010-05-16-1147-23S.COL___108                                                 6
 STAT SP IPHASW D HRMM SECON CODA AMPLIT PERI AZIMU VELO AIN AR TRES W  DIS CAZ7
 BAR2 SZ IP     C 1148 47.56                             169    -0.210   28 213 
 BAR2 SZ ES   2   1149  2.53                             169    -0.5 5   28 213 
 BRR  HZ IP     C 1148 49.94                             149     0.210   81 295 
 BRR  HN ES   2   1149  7.00                             149     0.4 5   81 295 
 BRR  HZ I        1149  9.65       336.8 0.18                            81 295 
 RUS  HZ EP   1   1148 51.75                             143     0.0 7  101 182 
 RUS  HN ES   2   1149 10.36                             143     0.1 5  101 182 
 RUS  HZ I        1149 12.21        60.3 0.65                           101 182 
 BRI  SZ IP       1148 51.81                             142     0.210  105  15 
 BRI  SZ ES   2   1149 10.68                             142     0.7 5  105  15 
 GUE  SZ IP       1148 52.26                             140    -0.310  115   7 
 GUE  SZ ES   2   1149 11.53                             140    -0.1 5  115   7 
 GRA  SZ IP       1148 53.06                             137     0.110  123  13 
 GRA  SZ ES   2   1149 12.67                             137     0.2 5  123  13 
 OCA  SZ EP   1   1148 55.62                             129    -0.9 7  162 349 
 OCA  SZ ES   2   1149 18.71                             129     0.1 5  162 349 
 OCA  SZ I        1149 20.24       251.4 0.22                           162 349 
 CHI  HZ EP   1   1149  5.90                             116    -0.2 6  252 198 
 CHI  HE ES   2   1149 35.48                             116    -0.3 4  252 198 
 CHI  HZ I        1149 47.52        34.5 0.71                           252 198 
 CVER SZ EP   1   1149  9.55                             114     0.6 6  277 204 
 HEL  HZ EP   1   1149  9.63                             114     0.2 6  283 256 
 HEL  HE ES   2   1149 40.98                             114    -0.7 4  283 256 
 HEL  HZ I        1149 45.77        63.5 0.46                           283 256 
 RREF BZ EP   1   1149 16.10                             110     0.9 5  330 231 
 RREF BN ES   2   1149 51.22                             110    -0.7 3  330 231 
 RREF BZ I        1149 56.50        34.2 0.65                           330 231 
 PRA  HZ EP   1   1149 21.92                             106    -0.3 4  398 211 
 PRA  HE ES   2   1150  4.47                             106     0.0 3  398 211 
 PRA  HZ I        1150  9.16        35.9 0.68                           398 211 
                                                                                
