 2014  616 1806 40.5 L   6.787 -73.159151.1  RSN  7 0.4 1.9LRSN                1
 GAP=199        1.03       4.2     5.8  7.0  0.7373E+01  0.1610E+01 -0.6275E+01E
 Epicentro: LOS SANTOS - SANTANDER                                             3
 ACTION:UPD 14-07-01 22:54 OP:nd   STATUS:               ID:20140616180640 L   I
 OLDACT:DUP 14-06-17 00:24 OP:carl STATUS:               ID:20140616175817d    3
 2014-06-16-1758-15M.COL___263                                                 6
 STAT SP IPHASW D HRMM SECON CODA AMPLIT PERI AZIMU VELO AIN AR TRES W  DIS CAZ7
 BAR2 SZ EP       18 7  0.77                             171    0.0410 21.7 187 
 BAR2 SZ ES       18 7 16.03                             171   -0.5010 21.7 187 
 BAR2 SZ I        18 7 19.11        11.3 0.24            170           21.7 187 
 BRR  HZ EP       18 7  2.80                             154    0.6110 70.6 300 
 BRR  HN ES       18 7 19.88                             154    0.7610 70.6 300 
 RUS  HZ EP       18 7  4.43                             145   -0.2510 99.2 175 
 RUS  HN ES       18 7 23.48                             145   -0.0610 99.2 175 
 RUS  HZ I        18 7 24.58         5.2 0.28            147           99.2 175 
 PTB  HZ EP       18 7  7.45                             133   -0.30 9  146 259 
 PTB  HN ES       18 7 28.52                             133   -0.49 9  146 259 
 PTB  HZ I        18 7 31.72         9.7 0.12            132            146 259 
 SPBC HZ EP       18 7  9.55                             131    0.34 9  161 219 
 SPBC HN ES       18 7 31.82                             131    0.20 9  161 219 
 SPBC HZ I        18 7 38.67        15.6 0.18            130            161 219 
 ZAR  HE ES       18 7 38.66                             124   -0.07 9  203 293 
 ZAR  HZ I        18 7 45.24         9.1 0.38            123            203 293 
 SML  HZ EP       18 7 17.56                             118    0.06 8  244 336 
 SML  HN ES       18 7 45.81                             118   -0.56 8  244 336 
 SML  HZ I        18 7 52.95         9.9 0.36            119            244 336 
                                                                                
