 2016  316 1921 18.0 L   6.790 -73.149141.4  RSN  6 0.3 2.0LRSN                1
 GAP=137        0.69       3.2     3.6  5.4 -0.3265E+01  0.8056E+01  0.6776E-02E
 Epicentro: LOS SANTOS - SANTANDER                                             3
 ACTION:UPD 16-05-13 21:24 OP:cam  STATUS:               ID:20160316192118 L   I
 OLDACT:REG 16-03-16 21:42 OP:cara STATUS:               ID:20160316191748     3
 2016-03-16-1917-48M.COL___295                                                 6
 STAT SP IPHASW D HRMM SECON CODA AMPLIT PERI AZIMU VELO AIN AR TRES W  DIS CAZ7
 BAR2 EZ EP       1921 37.05                             171   -0.0810 22.1 190 
 BAR2 EZ ES       1921 51.56                             171   -0.4510 22.1 190 
 BAR2 EZ I        1921 54.69        20.9 0.20            170           22.1 190 
 PAM  EZ IP       1921 40.00                             150    0.1410 78.5  39 
 PAM  EN ES       1921 57.23                             150    0.3510 78.5  39 
 PAM  EZ I        1921 59.15        14.7 0.54            154           78.5  39 
 RUS  HZ EP       1921 41.06                             143   -0.2310 99.5 176 
 RUS  HE ES       1921 59.42                             143    0.0010 99.5 176 
 RUS  HZ I        1922  2.45        10.0 0.32            147           99.5 176 
 SPBC HZ EP       1921 46.04                             128   -0.06 9  162 219 
 SPBC HE ES       1922  8.52                             128    0.53 9  162 219 
 SPBC HZ I        1922 10.69        23.3 0.30            130            162 219 
 ZAR  HN ES       1922 15.14                             121   -0.17 9  204 292 
 ZAR  HZ I        1922 22.04         8.4 0.50            123            204 292 
 NOR  HZ EP       1921 53.27                             118   -0.15 8  234 235 
 NOR  HE ES       1922 21.17                             118    0.16 8  234 235 
 NOR  HZ I        1922 26.38         9.1 0.44            120            234 235 
                                                                                
