 2010  816 1450 15.4 L   6.845 -73.005142.0  RSN  4 0.2 1.5LRSN                1
 GAP=254        0.61       9.9    18.0 10.7  0.1500E+03 -0.1228E+03 -0.6470E+02E
 Epicentro: CEPITA - SANTANDER                                                 3
 ACTION:UP  10-09-07 10:55 OP:vdl  STATUS:               ID:20100816145015 L   I
 2010-08-16-1447-32S.COL___111                                                 6
 STAT SP IPHASW D HRMM SECON CODA AMPLIT PERI AZIMU VELO SNR AR TRES W  DIS CAZ7
 BTL  SZ EP       1450 34.97                             168     0.210   30 286 
 BAR2 SZ EP   2   1450 34.80                             167    -0.1 5   34 215 
 BAR2 SZ ES   2   1450 49.73                             167    -0.3 5   34 215 
 BAR2 SZ I        1450 51.55        11.8 0.19                            34 215 
 BRR  HZ EP       1450 36.58                             149    -0.310   83 290 
 BRR  HZ I        1450 37.00        10.0 0.12                            83 290 
 BRR  HE ES   1   1450 53.94                             149     0.3 7   83 290 
 RUS  HZ EP   1   1450 39.29                             142     0.1 7  106 185 
 RUS  HE ES   1   1450 57.72                             142     0.0 7  106 185 
 RUS  HZ I        1450 58.16         2.4 0.32                           106 185 
                                                                                
