 2016 1216 1228 39.4 L   6.773 -73.117154.0  RSN 17 0.5 2.2LRSN                1
 GAP=123        0.90       3.1     3.5  4.6  0.8221E+00  0.2621E+01  0.4041E+01E
 Epicentro: LOS SANTOS - SANTANDER                                             3
 ACTION:UPD 17-01-11 20:15 OP:rebc STATUS:               ID:20161216122839 L   I
 OLDACT:UP  16-12-17 01:32 OP:edw  STATUS:               ID:20161216122743     3
 OLDACT:UP  16-12-17 01:31 OP:edw  STATUS:               ID:20161216122743     3
 OLDACT:UP  16-12-17 01:31 OP:edw  STATUS:               ID:20161216122743     3
 OLDACT:REG 16-12-16 22:06 OP:ar   STATUS:               ID:20161216122743     3
 2016-12-16-1228-00M.COL___360                                                 6
 STAT SP IPHASW D HRMM SECON CODA AMPLIT PERI AZIMU VELO AIN AR TRES W  DIS CAZ7
 BAR2 EZ IP     C 1229  0.03                             172    0.0410 21.2 200 
 BAR2 EZ ES       1229 15.83                             172   -0.2110 21.2 200 
 BAR2 EZ I        1229 17.82        42.7 0.21            167           21.2 200 
 BRR  HZ IP     C 1229  1.94                             153    0.2610 75.4 299 
 BRR  HN ES       1229 19.36                             153    0.3010 75.4 299 
 BRR  HZ I        1229 21.54        33.8 0.14            151           75.4 299 
 PAM  EZ IP     C 1229  2.82                             152    0.2910 77.8  36 
 PAM  EN ES       1229 20.24                             152   -0.3310 77.8  36 
 PAM  EZ I        1229 22.81        11.7 0.18            158           77.8  36 
 RUS  HZ EP       1229  3.91                             146    0.1510 97.4 178 
 RUS  HN ES       1229 22.69                             146   -0.0610 97.4 178 
 RUS  HZ I        1229 25.28        16.8 0.14            146           97.4 178 
 PTB  HZ EP   9   1229  6.63                             133   -0.65 0  150 260 
 PTB  HN ES       1229 28.22                             133   -0.15 9  150 260 
 PTB  HZ I        1229 33.32        31.8 0.26            132            150 260 
 ZAR  HZ EP       1229 12.20                             124   -0.61 8  208 293 
 ZAR  HN ES       1229 38.98                             124    0.11 8  208 293 
 ZAR  HZ I        1229 44.75        30.7 0.15            124            208 293 
 NOR  HZ IP     C 1229 16.18                             120    0.46 8  236 236 
 NOR  HN ES       1229 43.58                             120   -0.46 8  236 236 
 NOR  HZ I        1229 51.23        14.3 0.34            120            236 236 
 CHI  HZ EP       1229 17.99                             119    0.63 8  247 196 
 CHI  HN ES       1229 47.64                             119    0.69 8  247 196 
 CHI  HZ I        1229 53.02         6.6 0.42            119            247 196 
 ROSC BZ EP   4   1229 15.83                             118   -2.06 0  252 212 
 ROSC BN ES   4   1229 43.99                             118   -3.92 0  252 212 
 ROSC BZ I        1229 54.21        18.2 0.40            118            252 212 
 GUY2CHZ EP   4   1229 25.00                             114    1.50 0  302 236 
 GUY2CHN ES       1229 57.40                             114   -0.50 7  302 236 
 GUY2CHZ I        1230  9.18         8.0 0.56                           302 236 
 PTGC HZ EP       1229 23.02                             113   -0.18 7  305 159 
 PTGC HN ES       1229 56.53                             113   -0.83 7  305 159 
 LL6C HZ EP   4   1229  5.93                             112   -19.9 0  328 357 
 LL6C HE ES   4   1229 43.29                             112   -18.7 0  328 357 
 ELA  HZ EP   4   1229 29.00                             112    2.33 0  330 230 
 ELA  HN ES   4   1230  4.57                             112    1.04 0  330 230 
 ELA  HZ I        1230 10.65         6.6 0.50            112            330 230 
 CBOC HZ EP   4   1229 27.83                             111    0.92 0  336 253 
 CBOC HN ES   4   1230  1.73                             111   -2.23 0  336 253 
 CBOC HZ I        1230  6.60         2.9 0.42            111            336 253 
 ANIL HZ EP   4   1229 21.30                             110   -8.25 0  357 225 
 ANIL HN ES   4   1230 11.66                             110    3.00 0  357 225 
 ORTC HZ EP   2   1229 34.49                             108    0.94 3  395 217 
 ORTC HN ES   4   1230 18.38                             108    2.59 0  395 217 
 ORTC HZ I        1230 21.78         5.3 0.25            108            395 217 
 APAC HZ EP   2   1229 32.68                             107   -1.66 3  402 288 
 PAL  HZ EP       1229 34.81                             107   -0.18 6  407 240 
 PAL  HN ES   4   1230 16.48                             107   -1.86 0  407 240 
 PAL  HZ I        1230 21.58         3.5 0.11            107            407 240 
 SJC  HZ EP   2   1229 35.34                             107   -0.41 3  413 327 
 SJC  HN ES   4   1230 15.59                             107   -4.10 0  413 327 
 CRJC HZ EP   4   1229 40.34                             104   -2.14 0  470   3 
 CRJC HN ES   4   1230 25.39                             104   -6.29 0  470   3 
                                                                                
