 2013  616 1442 49.7 L   6.834 -73.033143.9  RSN  3 0.1 1.7LRSN                1
 GAP=239        0.31       5.2     7.8  4.4  0.3435E+02 -0.2160E+02 -0.1642E+02E
 Epicentro: CEPITA - SANTANDER                                                 3
 ACTION:UPD 14-01-08 09:55 OP:ep   STATUS:               ID:20130616144249 L   I
 OLDACT:UP  13-06-16 18:36 OP:cam  STATUS:               ID:20130616143959     3
 OLDACT:REG 13-06-16 17:44 OP:cam  STATUS:               ID:20130616143959     3
 2013-06-16-1439-59M.COL___261                                                 6
 STAT SP IPHASW D HRMM SECON CODA AMPLIT PERI AZIMU VELO AIN AR TRES W  DIS CAZ7
 BAR2 SZ EP       1443  9.25                             167   -0.0110 31.4 212 
 BAR2 SZ ES       1443 24.56                             167    0.0110 31.4 212 
 BAR2 SZ I        1443 25.37         7.8 0.22            174           31.4 212 
 BRR  HZ EP       1443 11.17                             149   -0.0210 80.9 292 
 BRR  HN ES       1443 28.00                             149    0.0110 80.9 292 
 SML  HZ EP   2   1443 26.65                             117    0.23 4  246 332 
 SML  HE ES   1   1443 55.03                             117   -0.06 6  246 332 
 SML  HZ I        1443 59.94         5.1 0.10            117            246 332 
                                                                                
