 2010  116 1033 13.6 L   6.780 -73.081142.6  RSN  5 0.4 1.3LRSN                1
 GAP=201        0.61       6.6    17.7  8.5 -0.4807E+02  0.6512E+02  0.4928E+01E
 Epicentro: LOS SANTOS - SANTANDER                                             3
 ACTION:UP  10-08-24 09:44 OP:vdl  STATUS:               ID:20100116103313 L   I
 2010-01-16-1029-17S.COL___096                                                 6
 STAT SP IPHASW D HRMM SECON CODA AMPLIT PERI AZIMU VELO SNR AR TRES W  DIS CAZ7
 BAR2 SZ EP   1   1033 32.77                             170    -0.1 7   24 209 
 BAR2 SZ ES   2   1033 47.44                             170    -0.5 5   24 209 
 GIR2 SZ EP   1   1033 33.26                             165     0.2 7   35 339 
 RUS  BZ EP       1033 36.77                             144    -0.110   98 180 
 RUS  BZ I        1033 37.67         2.9 0.16                            98 180 
 RUS  BE ES   2   1033 55.75                             144     0.7 5   98 180 
 CHI  HZ EP   1   1033 51.17                             116     0.1 6  248 197 
 CHI  HE ES   2   1034 19.67                             116    -0.7 4  248 197 
 CHI  HZ I        1034 24.58         1.6 0.78                           248 197 
 PRA  HZ EP       1034  7.21                             106     0.0 6  394 211 
 PRA  HE ES   2   1034 49.68                             106     0.7 3  394 211 
                                                                                
