 2011  516 1717 29.5 L   6.276 -73.589101.5  RSN  6 0.4 1.5LRSN                1
 GAP=118        0.89       6.0     6.8 10.4 -0.2643E+02  0.3933E+02 -0.1609E+02E
 Epicentro: SANTA HELENA DEL OPON - SANTANDER                                  3
 ACTION:UP  11-06-29 08:53 OP:tino STATUS:               ID:20110516171729 L   I
 2011-05-16-1713-35S.COL___141                                                 6
 STAT SP IPHASW D HRMM SECON CODA AMPLIT PERI AZIMU VELO SNR AR TRES W  DIS CAZ7
 BAR2 SZ EP       1717 45.71                             148     0.310   57  52 
 BAR2 SZ ES   1   1717 57.93                             148     0.1 7   57  52 
 BAR2 SZ I        1718  0.32        13.0 0.19                            57  52 
 RUS  HZ EP   1   1717 46.99                             143     0.3 7   70 127 
 RUS  HE ES   2   1717 59.40                             143    -0.7 5   70 127 
 RUS  HZ I        1718  2.37         3.4 0.25                            70 127 
 NOR  SZ EP   1   1717 54.33                             117    -0.5 7  162 241 
 NOR  SN ES   1   1718 14.96                             117     0.3 7  162 241 
 GRA  SZ EP   1   1717 59.58                             111     0.6 6  198  26 
 GRA  SZ ES   1   1718 21.27                             111    -0.7 6  198  26 
 GRA  SZ I        1718 28.43         7.0 0.35                           198  26 
 HEL  HZ EP   1   1718  0.90                             110    -0.3 6  215 268 
 HEL  HZ I        1718 29.41         4.1 0.26                           215 268 
 PRA  HZ EP   1   1718 12.82                             101    -0.1 5  318 207 
 PRA  HE ES   2   1718 46.47                             101    -0.3 3  318 207 
                                                                                
