 2012  816 1716 54.0 L   6.763 -73.160145.1  RSN  7 0.3 2.2LRSN                1
 GAP=181        0.72       4.6     4.4  5.3  0.4897E+01  0.5903E+01  0.9758E+00E
 Epicentro: LOS SANTOS - SANTANDER                                             3
 ACTION:UPD 12-09-10 11:56 OP:ep   STATUS:               ID:20120816171654 L   I
 2012-08-16-1710-00M.COL___216                                                 6
 STAT SP IPHASW D HRMM SECON CODA AMPLIT PERI AZIMU VELO AIN AR TRES W  DIS CAZ7
 BAR2 SZ EP       1717 13.43                             172   -0.0610 19.1 187 
 BAR2 SZ ES       1717 28.33                             172   -0.3510 19.1 187 
 BAR2 SZ I        1717 29.88        76.2 0.23                          19.1 187 
 GIR2 SZ EP       1717 13.66                             166   -0.0610 35.1 354 
 BRR  HZ EP       1717 15.40                             152    0.2710 71.9 302 
 BRR  HZ I        1717 15.96        28.5 0.22                          71.9 302 
 BRR  HN ES       1717 32.00                             152    0.4010 71.9 302 
 RUS  HZ EP   1   1717 17.41                             145   -0.01 7 96.7 175 
 RUS  HN ES   1   1717 35.99                             145    0.31 7 96.7 175 
 PTB  HZ EP       1717 20.51                             132   -0.21 9  145 260 
 PTB  HE ES   1   1717 40.90                             132   -0.65 7  145 260 
 PTB  HZ I        1717 45.21         9.3 0.26                           145 260 
 ZAR  HZ EP   1   1717 25.95                             122   -0.48 6  204 293 
 ZAR  HN ES   1   1717 51.84                             122    0.13 6  204 293 
 ZAR  HZ I        1717 57.97        12.9 0.23                           204 293 
 NOR  SZ EP   1   1717 29.76                             119    0.45 6  231 235 
 NOR  SN ES   1   1717 57.16                             119    0.31 6  231 235 
                                                                                
