 2017 1016 1746 50.8 L   6.788 -73.136153.0  RSN 13 0.4 2.1LRSN                1
 GAP= 66        0.94       3.2     2.8  4.9  0.9010E+00  0.1388E+01 -0.1009E+01E
 Epicentro: LOS SANTOS - SANTANDER                                             3
 ACTION:UPD 17-11-07 19:32 OP:rebc STATUS:               ID:20171016174650 L   I
 OLDACT:UP  17-10-16 23:13 OP:edw  STATUS:               ID:20171016173406d    3
 OLDACT:UP  17-10-16 23:13 OP:edw  STATUS:               ID:20171016173406d    3
 OLDACT:DUP 17-10-16 23:07 OP:edw  STATUS:               ID:20171016173406d    3
 OLDACT:UP  17-10-16 23:05 OP:edw  STATUS:               ID:20171016173405     3
 OLDACT:REG 17-10-16 20:42 OP:edw  STATUS:               ID:20171016173405     3
 2017-10-16-1738-00M.COL___441                                                 6
 STAT SP IPHASW D HRMM SECON CODA AMPLIT PERI AZIMU VELO AIN AR TRES W  DIS CAZ7
 BAR2 EZ EP       1747 11.08                             172   -0.1610 22.3 193 
 BAR2 EZ ES       1747 27.12                             172   -0.0910 22.3 193 
 BAR2 EZ I        1747 28.51        26.2 0.24            171           22.3 193 
 BRR  HZ EP     C 1747 12.98                             153    0.2110 72.7 299 
 BRR  HN ES       1747 30.53                             153    0.5810 72.7 299 
 BRR  HZ I        1747 32.97        20.9 0.28            153           72.7 299 
 PAM  EZ EP     C 1747 13.97                             152    0.2110 77.7  38 
 PAM  EN ES       1747 31.84                             152    0.1310 77.7  38 
 PAM  EZ I        1747 33.33        30.8 0.48            154           77.7  38 
 RUS  HZ EP       1747 15.57                             146    0.4410 99.2 177 
 RUS  HN ES       1747 33.70                             146   -0.4410 99.2 177 
 RUS  HZ I        1747 34.87         8.9 0.34            146           99.2 177 
 PTB  HZ EP       1747 18.11                             133   -0.28 9  149 259 
 PTB  HN ES       1747 39.29                             133   -0.66 9  149 259 
 PTB  HZ I        1747 41.12        14.8 0.22            134            149 259 
 TAM  HZ EP       1747 19.11                             132    0.22 9  154 105 
 TAM  HN ES       1747 40.89                             132    0.05 9  154 105 
 YPLC HZ EP       1747 21.28                             129    0.35 9  175 151 
 YPLC HN ES   1   1747 43.68                             129   -0.78 7  175 151 
 YPLC HZ I        1747 48.64         8.8 0.26            130            175 151 
 ZAR  HZ EP       1747 23.65                             124   -0.18 8  206 292 
 ZAR  HN ES       1747 50.17                             124    0.54 8  206 292 
 ZAR  HZ I        1747 54.68        21.2 0.40            124            206 292 
 NOR  HZ EP       1747 27.18                             120    0.25 8  235 235 
 NOR  HN ES       1747 55.14                             120   -0.00 8  235 235 
 NOR  HZ I        1747 59.20         9.9 0.20            121            235 235 
 URE  HZ EP   4   1747 34.67                             115    2.32 0  285 292 
 GUY2CHZ EP   4   1747 36.25                             114    1.53 0  301 235 
 GUY2CHN ES   4   1748 11.71                             114    2.70 0  301 235 
 GUY2CHZ I        1748 15.96         4.1 0.26                           301 235 
 LL6C HZ EP       1747 36.46                             112   -0.46 7  326 357 
 LL6C HN ES       1748 12.08                             112   -0.85 7  326 357 
 DBB  EN ES   2   1748 15.73                             111   -0.30 3  341 274 
 SJC  HZ EP   4   1747 45.20                             107   -1.55 0  411 327 
 SJC  HN ES   4   1748 26.32                             107   -4.11 0  411 327 
 SJC  HZ I        1748 31.07         4.2 0.40            108            411 327 
                                                                                
