 2016 1216 1759 11.5 L   6.795 -73.106144.7  RSN 13 0.5 2.2LRSN                1
 GAP=142        0.95       3.7     4.3  5.3 -0.1370E+01  0.1041E+02  0.2817E+01E
 Epicentro: LOS SANTOS - SANTANDER                                             3
 ACTION:UPD 17-01-11 20:15 OP:rebc STATUS:               ID:20161216175911 L   I
 OLDACT:UP  16-12-17 01:09 OP:ar   STATUS:               ID:20161216175750d    3
 OLDACT:DUP 16-12-17 01:04 OP:ar   STATUS:               ID:20161216175750d    3
 2016-12-16-1758-00M.COL___384                                                 6
 STAT SP IPHASW D HRMM SECON CODA AMPLIT PERI AZIMU VELO AIN AR TRES W  DIS CAZ7
 BAR2 EZ EP       1759 30.91                             170   -0.1110 24.0 201 
 BAR2 EZ ES       1759 45.91                             170   -0.3310 24.0 201 
 BAR2 EZ I        1759 47.12        57.1 0.26            168           24.0 201 
 PAM  EZ IP     C 1759 33.77                             151    0.3010 75.1  37 
 PAM  EE ES       1759 51.06                             151    0.4610 75.1  37 
 PAM  EZ I        1759 53.04        31.8 0.40            155           75.1  37 
 BRR  HZ IP     C 1759 32.82                             151    0.0410 75.4 297 
 BRR  HN ES       1759 49.68                             151    0.3110 75.4 297 
 BRR  HZ I        1759 53.71        56.6 0.18            148           75.4 297 
 RUS  HZ EP       1759 34.96                             144   -0.1410 99.8 179 
 RUS  HN ES       1759 53.01                             144   -0.4910 99.8 179 
 RUS  HZ I        1759 54.44        16.0 0.32            146           99.8 179 
 PTB  HZ EP   4   1759 37.97                             131   -0.81 0  152 259 
 PTB  HN ES   4   1759 58.55                             131   -1.50 0  152 259 
 PTB  HZ I        18 0  3.73        24.1 0.20            130            152 259 
 ZAR  HZ EP       1759 44.09                             121   -0.24 8  208 292 
 ZAR  HN ES       18 0  9.84                             121   -0.09 8  208 292 
 ZAR  HZ I        18 0 15.76        34.5 0.44            121            208 292 
 NOR  HZ EP       1759 47.30                             118   -0.24 8  238 235 
 NOR  HE ES       18 0 15.25                             118   -0.38 8  238 235 
 NOR  HZ I        18 0 20.25        12.9 0.20            118            238 235 
 CHI  HZ EP   2   1759 49.49                             117    0.26 4  249 196 
 CHI  HE ES   4   18 0 20.49                             117    1.85 0  249 196 
 CHI  HZ I        18 0 22.83         5.1 0.24            118            249 196 
 URE  HZ EP       1759 52.05                             113   -0.96 7  288 292 
 URE  HN ES   4   18 0 22.58                             113   -2.80 0  288 292 
 URE  HZ I        18 0 32.41        14.6 0.36            113            288 292 
 GUY2CHZ EP       1759 56.15                             112    0.70 7  305 235 
 GUY2CHN ES       18 0 29.96                             112    0.24 7  305 235 
 GUY2CHZ I        18 0 37.63         6.4 0.24                           305 235 
 CBOC HZ EP       1759 59.08                             109    0.23 7  338 252 
 CBOC HN ES   4   18 0 33.56                             109   -2.21 0  338 252 
 CBOC HZ I        18 0 40.41         2.7 0.24            110            338 252 
 ORTC HZ EP       18 0  6.58                             106    0.93 6  398 217 
 ORTC HN ES       18 0 48.76                             106    0.88 6  398 217 
 ORTC HZ I        18 0 52.34         5.6 0.38            107            398 217 
 SJC  HZ EP   2   18 0  6.40                             105   -0.98 3  412 326 
 SJC  HN ES   4   18 0 45.83                             105   -5.12 0  412 326 
                                                                                
