 2012 1116 1951 32.0 L   6.288 -73.503  4.0  RSN  9 0.5 2.6LRSN 2.9WRSN        1
 SPEC AVERAGE  MO 13.5 ST  8.3 OM  2.5 f0 5.07 R0.3275 AL 2.55 WI 23.9 MW  2.9 3
 SPEC SD       MO  0.3 ST  8.7 OM  0.5 f0 1.63 R0.1258 AL      WI      MW  0.2 3
 GAP=109        1.17       2.4     2.5  6.5  0.2293E-01  0.6082E+01  0.2477E+01E
 Epicentro: CONTRATACION - SANTANDER                                           3
 SPEC PTB HH N MO 13.4 ST  4.6 OM  2.0 f0 5.14 R0.2860 AL 2.09 WI 14.8 MW  2.9 3
 SPEC PTB HH N T1952 2 K 0.000 GD  104 VS 4.20 DE 3.00 Q0230.0 QA 0.60 VS 4.20 3
 SPEC RUS HH N MO 13.0 ST  2.8 OM  1.8 f0 5.98 R0.2458 AL 2.51 WI 14.5 MW  2.6 3
 SPEC RUS HH N T195151 K 0.000 GD 63.9 VS 4.20 DE 3.00 Q0230.0 QA 0.60 VS 4.20 3
 SPEC OCA HH N MO 14.0 ST 12.4 OM  2.5 f0 4.36 R0.3372 AL 2.07 WI 27.7 MW  3.3 3
 SPEC OCA HH N T195229 K 0.000 GD  147 VS 4.20 DE 3.00 Q0230.0 QA 0.60 VS 4.20 3
 SPEC NOR HH N MO 13.6 ST 25.9 OM  2.1 f0 7.87 R0.1868 AL 4.20 WI 29.3 MW  3.0 3
 SPEC NOR HH N T195215 K 0.000 GD  130 VS 4.20 DE 3.00 Q0230.0 QA 0.60 VS 4.20 3
 SPEC CHI HH N MO 13.3 ST0.438 OM  1.8 f0 2.51 R0.5857 AL 1.62 WI 33.1 MW  2.8 3
 SPEC CHI HH N T195222 K 0.000 GD  136 VS 4.20 DE 3.00 Q0230.0 QA 0.60 VS 4.20 3
 SPEC BRR HH N MO 13.4 ST  3.6 OM  2.1 f0 4.54 R0.3238 AL 2.80 WI 23.9 MW  2.9 3
 SPEC BRR HH N T195157 K 0.000 GD 93.6 VS 4.20 DE 3.00 Q0230.0 QA 0.60 VS 4.20 3
 ACTION:UPD 12-12-05 15:33 OP:}ep  STATUS:               ID:20121116195132 L   I
 2012-11-16-1950-00M.COL___233                                                 6
 STAT SP IPHASW D HRMM SECON CODA AMPLIT PERI AZIMU VELO AIN AR TRES W  DIS CAZ7
 BAR2 SZ EP       1951 40.42                              95    0.2210 48.9  46 
 BAR2 SZ ES   1   1951 46.67                              95    0.04 7 48.9  46 
 BAR2 SZ I        1951 47.23       217.6 0.10                          48.9  46 
 RUS  HZ IP     C 1951 43.28                              93    0.5510 63.8 133 
 RUS  HN ES       1951 51.17                              93    0.0410 63.8 133 
 RUS  HN I        1951 52.07       165.0 0.16                          63.8 133 
 BRR  HZ EP       1951 47.03                              92    0.3110 93.5 346 
 BRR  HN ES       1951 58.62                              92    0.4010 93.5 346 
 BRR  HN I        1951 58.86       198.6 0.32                          93.5 346 
 GIR2 SZ EP       1951 46.89                              92   -0.0310 93.9  21 
 GIR2 SZ ES   1   1951 58.13                              92   -0.47 7 93.9  21 
 PTB  HZ IP     C 1951 49.49                              92    0.3910  109 285 
 PTB  HN ES       1952  2.46                              92   -0.0110  109 285 
 PTB  HN I        1952  3.95       176.3 0.26                           109 285 
 PAM  SZ EP       1951 55.35                              91    0.13 9  146  37 
 PAM  SN ES       1952 12.21                              91   -1.16 9  146  37 
 PAM  SN I        1952 12.95       109.5 0.26                           146  37 
 NOR  HZ EP       1951 57.82                              56   -0.73 9  171 242 
 NOR  HN ES       1952 18.80                              56   -0.49 9  171 242 
 NOR  HN I        1952 20.23        80.4 0.16                           171 242 
 CHI  HN I        1952 32.62        26.7 0.38                           185 188 
 OCA  HN ES       1952 30.23                              56    0.37 8  217   5 
 OCA  HN I        1952 33.46       170.5 0.28                           217   5 
                                                                                
