 2012  316 1554 24.4 L   6.770 -73.140130.0  RSN  6 0.3 1.4LRSN                1
 GAP=139        0.72       4.7     4.5  7.9 -0.5260E+00  0.1284E+02 -0.8201E+01E
 ACTION:UP  12-03-31 23:20 OP:EP   STATUS:               ID:20120316155424 L   I
 2012-03-16-1550-00M.COL___199                                                 6
 STAT SP IPHASW D HRMM SECON CODA AMPLIT PERI AZIMU VELO SNR AR TRES W  DIS CAZ7
 BAR2 SZ EP   1   1554 41.98                             171    -0.1 7   20 193 
 BAR2 SZ ES   1   1554 56.13                             171     0.3 7   20 193 
 BAR2 SZ I        1555  0.29         8.5 0.27                            20 193 
 BRR  HZ EP   1   1554 44.03                             149     0.1 7   73 301 
 BRR  HZ I        1554 45.64        11.2 0.27                            73 301 
 PAM  SZ EP   1   1554 44.76                             147    -0.3 7   80  38 
 PAM  SE ES   1   1555  1.22                             147     0.0 7   80  38 
 PAM  SZ I        1555  3.44         2.7 0.17                            80  38 
 RUS  HZ EP   1   1554 46.11                             141    -0.2 7   97 176 
 RUS  HZ I        1554 47.30         2.0 0.16                            97 176 
 RUS  HN ES   1   1555  3.61                             141     0.1 7   97 176 
 PTB  HN ES   1   1555  9.83                             128    -0.3 7  148 260 
 ZAR  HZ EP   1   1554 56.80                             119     0.8 6  206 293 
 ZAR  HN ES   1   1555 20.56                             119    -0.2 6  206 293 
 ZAR  HZ I        1555 26.74         3.8 0.24                           206 293 
                                                                                
