 2010 1216 1213 56.7 L   6.799 -73.172143.8  RSN  5 0.3 1.6LRSN                1
 GAP=180        0.47       3.4     7.9  7.4 -0.6763E+01  0.2320E+02 -0.1997E+01E
 Epicentro: LOS SANTOS - SANTANDER                                             3
 ACTION:UP  11-01-14 15:25 OP:pat  STATUS:               ID:20101216121356 L   I
 2010-12-16-1209-42S.COL___134                                                 6
 STAT SP IPHASW D HRMM SECON CODA AMPLIT PERI AZIMU VELO SNR AR TRES W  DIS CAZ7
 BAR2 SZ EP   1   1214 16.11                             170     0.0 7   23 183 
 BAR2 SZ ES   2   1214 31.27                             170     0.1 5   23 183 
 BAR2 SZ I        1214 33.28        11.0 0.18                            23 183 
 RUS  HZ EP   2   1214 20.16                             143    -0.1 5  101 174 
 RUS  HN ES   2   1214 38.80                             143     0.2 5  101 174 
 RUS  HZ I        1214 41.23         3.6 0.26                           101 174 
 OCA  SZ EP   2   1214 24.69                             129    -0.1 5  160 354 
 OCA  SZ ES   2   1214 46.61                             129    -0.2 5  160 354 
 OCA  SZ I        1214 53.10         8.1 0.08                           160 354 
 NOR  SZ EP   2   1214 32.83                             118     0.8 4  232 234 
 NOR  SE ES   2   1214 59.38                             118    -0.3 4  232 234 
 CHI  HZ EP   2   1214 34.14                             117     0.0 4  248 195 
 CHI  HN ES   2   1215  2.88                             117    -0.5 4  248 195 
 CHI  HZ I        1215  9.70         2.1 0.50                           248 195 
                                                                                
