 2016  816 1351 46.0 L   6.712 -73.179143.6  RSN  4 0.2 1.6LRSN                1
 GAP=238        0.49       5.4     4.2  5.3  0.1608E+02  0.4919E+01 -0.6929E+00E
 Epicentro: VILLANUEVA - SANTANDER                                             3
 ACTION:UPD 16-10-29 15:36 OP:rebc STATUS:               ID:20160816135146 L   I
 OLDACT:REG 16-08-16 20:43 OP:dnl  STATUS:               ID:20160816134737     3
 2016-08-16-1348-00M.COL___374                                                 6
 STAT SP IPHASW D HRMM SECON CODA AMPLIT PERI AZIMU VELO AIN AR TRES W  DIS CAZ7
 BAR2 EZ EP   2   1352  5.38                             174    0.22 5 13.3 182 
 BAR2 EZ ES       1352 19.97                             174   -0.1710 13.3 182 
 BAR2 EZ I        1352 21.38        10.6 0.38                          13.3 182 
 RUS  HZ EP       1352  8.76                             146   -0.0710 91.2 173 
 RUS  HE ES       1352 26.88                             146    0.2010 91.2 173 
 RUS  HZ I        1352 29.20         4.4 0.40                          91.2 173 
 PTB  HZ EP   2   1352 11.80                             132   -0.47 5  143 262 
 PTB  HN ES       1352 32.71                             132   -0.09 9  143 262 
 PTB  HZ I        1352 38.68         6.6 0.18                           143 262 
 ZAR  HZ EP   4   1352 21.23                             122    2.92 0  205 295 
 ZAR  HN ES       1352 43.78                             122    0.23 9  205 295 
 ZAR  HZ I        1352 50.75         4.3 0.24                           205 295 
                                                                                
