 2015  216 1924 53.1 L   6.813 -73.171148.3  RSN 11 0.4 2.2LRSN                1
 GAP=133        0.99       3.1     4.4  6.2 -0.4585E+01  0.1042E+02 -0.2754E+00E
 Epicentro: LOS SANTOS - SANTANDER                                             3
 ACTION:UP  15-04-30 21:26 OP:nd   STATUS:               ID:20150216192453 L   I
 OLDACT:UP  15-04-30 21:16 OP:nd   STATUS:               ID:20150216192453 L   3
 OLDACT:UPD 15-03-10 18:55 OP:nd   STATUS:               ID:20150216192453 L   3
 OLDACT:REG 15-02-16 20:00 OP:fm   STATUS:               ID:20150216191748     3
 2015-02-16-1917-48M.COL___305                                                 6
 STAT SP IPHASW D HRMM SECON CODA AMPLIT PERI AZIMU VELO AIN AR TRES W  DIS CAZ7
 BAR2 EZ EP       1925 13.42                             170    0.3910 24.5 183 
 BAR2 EZ ES   1   1925 28.21                             170   -0.39 7 24.5 183 
 BAR2 EZ I        1925 29.17        30.7 0.30            168           24.5 183 
 PAM  SZ EP       1925 16.19                             151    0.5910 78.1  42 
 PAM  SE ES       1925 33.35                             151    0.1810 78.1  42 
 PAM  SZ I        1925 35.44        33.4 0.62            154           78.1  42 
 RUS  HZ EP       1925 17.55                             144    0.3510  102 175 
 RUS  HE ES       1925 35.60                             144   -0.4110  102 175 
 PTB  HZ EP       1925 20.23                             133    0.19 9  145 258 
 PTB  HN ES       1925 40.90                             133   -0.16 9  145 258 
 PTB  HZ I        1925 43.35     228.5e6 6.18            132            145 258 
 SPBC HE ES       1925 43.83                             130   -0.22 9  163 218 
 SPBC HZ I        1925 50.79        17.8 0.24            129            163 218 
 NOR  HZ EP       1925 28.04                             119   -0.77 8  233 234 
 NOR  HE ES       1925 57.20                             119    0.53 8  233 234 
 NOR  HZ I        1926  0.36        10.4 0.24            119            233 234 
 SML  HZ EP       1925 29.20                             118   -0.38 8  241 336 
 SML  HE ES       1925 57.65                             118   -0.40 8  241 336 
 SML  HZ I        1926  1.00        13.4 0.28            119            241 336 
 CHI  HZ EP       1925 30.00                             117   -0.99 8  249 194 
 CHI  HN ES       1926  0.51                             117   -0.05 8  249 194 
 CHI  HZ I        1926  7.01         4.2 0.56            118            249 194 
 GUY2CHZ EP       1925 36.96                             113    0.31 7  300 234 
 GUY2CHE ES       1926 11.12                             113    0.49 7  300 234 
 GUY2CHZ I        1926 19.52         6.3 0.44                           300 234 
 TOL  SE ES       1926 19.17                             110    0.20 7  343 224 
 TOL  SZ I        1926 28.82         5.1 0.78            110            343 224 
 PRA  HZ EP       1925 46.66                             107   -0.02 6  392 209 
 PRA  HE ES       1926 28.71                             107    0.23 6  392 209 
 PRA  HZ I        1926 36.19         5.6 0.26            107            392 209 
                                                                                
