 2013  416 1636 23.1 L   6.330 -73.569118.1  RSN 35 0.6 3.9LRSN 3.9WRSN        1
 SPEC AVERAGE  MO 14.9 ST155.6 OM  3.6 f0 4.37 R0.3676 AL 3.13 WI 35.1 MW  3.9 3
 SPEC SD       MO  0.3 ST155.9 OM  0.5 f0 1.27 R0.1123 AL      WI      MW  0.2 3
 GAP= 45        1.62       2.9     3.9  6.4 -0.3616E+01  0.5672E+01  0.6905E-01E
 Epicentro: SANTA HELENA DEL OPON - SANTANDER                                  3
 SPEC COD HH E MO 14.9 ST 19.5 OM  2.9 f0 2.58 R0.5698 AL 1.92 WI 44.4 MW  3.9 3
 SPEC COD HH E T163758 K 0.000 GD  416 VS 4.20 DE 3.20 Q0300.0 QA 0.60 VS 4.20 3
 SPEC PRA HH N MO 14.7 ST 64.2 OM  2.8 f0 4.41 R0.3333 AL 2.88 WI 43.4 MW  3.8 3
 SPEC PRA HH N T163741 K 0.000 GD  344 VS 4.20 DE 3.20 Q0300.0 QA 0.60 VS 4.20 3
 SPEC OCA HH N MO 15.5 ST481.9 OM  3.7 f0 4.86 R0.3025 AL 3.00 WI 26.2 MW  4.3 3
 SPEC OCA HH N T163720 K 0.000 GD  243 VS 4.20 DE 3.20 Q0300.0 QA 0.60 VS 4.20 3
 SPEC CHI HH N MO 14.6 ST 19.2 OM  2.9 f0 3.16 R0.4652 AL 2.37 WI 36.8 MW  3.7 3
 SPEC CHI HH N T163715 K 0.000 GD  222 VS 4.20 DE 3.20 Q0300.0 QA 0.60 VS 4.20 3
 SPEC ROSCBH Z MO 14.7 ST 18.2 OM  3.0 f0 2.89 R0.5087 AL 3.18 WI 42.0 MW  3.8 3
 SPEC ROSCBH Z T163718 K 0.000 GD  219 VS 4.20 DE 3.20 Q0300.0 QA 0.60 VS 4.20 3
 SPEC NOR HH N MO 15.3 ST345.9 OM  3.6 f0 4.98 R0.2952 AL 3.42 WI 29.8 MW  4.1 3
 SPEC NOR HH N T163710 K 0.000 GD  204 VS 4.20 DE 3.20 Q0300.0 QA 0.60 VS 4.20 3
 SPEC PAM SH N MO 14.8 ST 62.7 OM  3.1 f0 4.25 R0.3459 AL 2.95 WI 30.8 MW  3.8 3
 SPEC PAM SH N T1637 8 K 0.000 GD  188 VS 4.20 DE 3.20 Q0300.0 QA 0.60 VS 4.20 3
 SPEC BRR HH N MO 15.0 ST200.9 OM  3.4 f0 5.41 R0.2717 AL 3.95 WI 32.3 MW  3.9 3
 SPEC BRR HH N T163657 K 0.000 GD  146 VS 4.20 DE 3.20 Q0300.0 QA 0.60 VS 4.20 3
 SPEC RUS HH E MO 14.6 ST187.7 OM  3.1 f0 6.79 R0.2165 AL 4.46 WI 29.9 MW  3.7 3
 SPEC RUS HH E T163655 K 0.000 GD  138 VS 4.20 DE 3.20 Q0300.0 QA 0.60 VS 4.20 3
 ACTION:UPD 13-05-22 14:38 OP:EP   STATUS:               ID:20130416163623 L   I
 2013-04-16-1628-35M.COL___215                                                 6
 STAT SP IPHASW D HRMM SECON CODA AMPLIT PERI AZIMU VELO AIN AR TRES W  DIS CAZ7
 BAR2 SZ IP       1636 40.89                             154    0.4010 51.7  56 
 BAR2 SZ I        1636 41.25      4970.9 0.32            159           51.7  56 
 BAR2 SZ ES       1636 54.42                             154    0.3410 51.7  56 
 RUS  HZ IP     D 1636 42.22                             146    0.1310 72.4 132 
 RUS  HE ES       1636 56.09                             146   -0.8410 72.4 132 
 RUS  HE I        1636 58.26      1621.3 0.30            154           72.4 132 
 BRR  HZ IP     D 1636 42.45                             140   -0.0210 87.3 350 
 BRR  HN ES       1636 57.51                             140   -0.1010 87.3 350 
 BRR  HN I        1637  5.67      2167.9 0.18            138           87.3 350 
 GIR2 SZ ES       1636 59.05                             138    0.3510 92.6  27 
 PTB  HZ IP     C 1636 42.63                             136   -0.9510  101 283 
 PTB  HN I        1637  0.04      1961.8 0.24            132            101 283 
 CTAU SZ ES       1637  6.67                             127    0.33 9  135 203 
 PAM  SZ IP     D 1636 48.89                             124    0.37 9  147  41 
 PAM  SN ES       1637  8.63                             124    0.26 9  147  41 
 PAM  SN I        1637 11.60      1221.6 0.40            127            147  41 
 CTAB SZ IP   9   1636 52.12                             122    2.15 0  162 206 
 CTAB SZ ES       1637 10.28                                   -2.82 9  162 206 
 NOR  HZ IP     C 1636 49.35                             121   -0.61 9  167 240 
 NOR  HN ES       1637 10.55                             121   -0.39 9  167 240 
 NOR  HN I        1637 17.04      1947.6 0.16            120            167 240 
 ROSC BZ IP     C 1636 53.40                             118    1.14 9  185 207 
 ROSC BN ES   1   1637 16.80                             118    1.77 7  185 207 
 ROSC BZ I        1637 21.17       675.4 0.40            119            185 207 
 CHI  HZ EP       1636 52.85                             117    0.10 9  189 185 
 CHI  HZ I        1636 54.94       313.0 0.24            119            189 185 
 CHI  HN ES       1637 15.58                             117   -0.33 9  189 185 
 ZAR  HZ IP     C 1636 52.50                             117   -0.04 9  192 312 
 ZAR  HN ES       1637 14.99                             117   -0.54 9  192 312 
 ZAR  HN I        1637 20.66      1256.5 0.22            116            192 312 
 TAM  HZ IP     D 1636 53.67                             116    0.51 9  197  87 
 TAM  HZ I        1636 54.04       883.3 0.32            120            197  87 
 TAM  HN ES       1637 15.28                             116   -1.35 9  197  87 
 OCA  HZ EP       1636 54.94                             114   -0.10 8  213   7 
 OCA  HN ES       1637 20.39                             114    0.41 8  213   7 
 OCA  HE I        1637 28.02      3690.9 0.38            115            213   7 
 HEL  HZ EP       1636 56.17                             114    0.35 8  217 266 
 HEL  HZ I        1637 24.29       428.3 0.36            113            217 266 
 CAPV BZ IP     D 1636 56.87                             113    1.04 8  219  39 
 CAPV BZ ES       1637 21.53                             113    0.14 8  219  39 
 VIL  SZ IP     D 1636 59.08                             110    0.37 8  246 183 
 VIL  SZ I        1637  1.10       595.9 0.68            112            246 183 
 VIL  SN ES       1637 27.25                             110    0.75 8  246 183 
 URE  HZ EP     D 1636 59.93                             108   -1.18 8  268 306 
 SML  HZ EP       1637  2.10                             107   -0.25 7  279 349 
 DBB  SZ EP       1637  5.26                             106    0.14 7  302 285 
 PRA  HZ IP     C 1637  7.14                             104   -0.56 7  324 207 
 PRA  HN ES       1637 42.08                             104   -0.44 7  324 207 
 PRA  HE I        1637 47.19       512.6 0.44            105            324 207 
 SJA  SZ IP   4   1637 11.04                             103    1.28 0  341 187 
 SOCV BZ EP       1637 12.73                             102   -0.32 6  369  54 
 COD  HZ EP       1637 16.76                             101    0.22 6  399   2 
 COD  HE ES       1637 58.88                             101    0.63 6  399   2 
 YOT  HZ EP       1637 16.87                             100   -0.27 6  403 230 
 SDV  BZ EP     C 1637 20.59                              99    0.09 5  430  49 
 GUA  SZ EP       1637 19.87                              99   -0.59 5  431 166 
 SJC  HZ EP   4   1637 18.68                              99   -1.98 0  432 336 
 BET  SZ EP       1637 22.29                              99   -0.92 5  454 207 
 ELOV BZ IP     D 1637 23.27                              98   -0.36 5  458  80 
 MARA HZ EP     D 1637 24.37                              98   -0.80 5  468 215 
 MARA HZ I        1637 26.06        58.5 0.26             99            468 215 
 MAL  SZ EP       1637 28.73                              97    1.25 4  490 239 
 SMAR HZ EP       1637 32.67                              96   -0.82 4  539 352 
 PCON HZ EP       1637 35.11                              96    0.54 4  543 215 
 SOTA HZ EP       1637 38.92                              95    0.68 3  573 216 
 FLO2 HZ EP       1637 36.95                              95   -0.73 3  574 204 
 FLO2 HZ I        1637 39.02        81.4 0.26             96            574 204 
 FLO2 HN ES       1638 35.14                              95   -0.73 3  574 204 
 DABV BZ EP       1637 41.59                              95    0.54 3  602  32 
 DABV BZ ES       1638 40.30                              95   -1.57 3  602  32 
                                                                                
