 2012 1216 1730 33.7 L   6.757 -73.149138.3  RSN  8 0.4 2.1LRSN                1
 GAP=138        0.91       3.9     3.7  5.7 -0.1109E+01  0.6796E+01  0.7132E+00E
 Epicentro: LOS SANTOS - SANTANDER                                             3
 ACTION:UPD 13-01-04 14:28 OP:ep   STATUS:               ID:20121216173033 L   I
 2012-12-16-1730-00M.COL___242                                                 6
 STAT SP IPHASW D HRMM SECON CODA AMPLIT PERI AZIMU VELO AIN AR TRES W  DIS CAZ7
 BAR2 SZ EP       1730 52.78                             172    0.4910 18.6 191 
 BAR2 SZ ES       1731  6.58                             172   -0.2510 18.6 191 
 BAR2 SZ I        1731  7.87        22.8 0.28                          18.6 191 
 GIR2 SZ EP       1730 52.37                             165   -0.2010 35.9 352 
 BRR  HZ EP       1730 54.16                             150    0.0410 73.3 302 
 BRR  HN ES       1731 10.37                             150    0.2910 73.3 302 
 BRR  HN I        1731 11.12        34.9 0.22                          73.3 302 
 PAM  SZ EP       1730 55.26                             148   -0.0610 81.3  38 
 PAM  SN ES       1731 12.00                             148   -0.2210 81.3  38 
 PAM  SN I        1731 12.86        31.1 0.46                          81.3  38 
 RUS  HZ EP       1730 56.55                             144    0.2210 95.9 176 
 RUS  HN ES       1731 14.23                             144    0.2210 95.9 176 
 RUS  HN I        1731 16.10         9.3 0.20                          95.9 176 
 PTB  HZ EP       1730 58.99                             130   -0.92 9  147 261 
 PTB  HE ES       1731 20.05                             130   -0.33 9  147 261 
 PTB  HE I        1731 22.63        11.3 0.30                           147 261 
 ZAR  HZ EP       1731  5.97                             120    0.19 8  206 293 
 ZAR  HN ES       1731 31.37                             120    0.54 8  206 293 
 ZAR  HN I        1731 32.52        13.0 0.10                           206 293 
 NOR  HZ EP       1731  8.79                             117    0.16 8  232 235 
 NOR  HN ES       1731 35.79                             117   -0.12 8  232 235 
 NOR  HN I        1731 40.38        10.5 0.20                           232 235 
                                                                                
