 2017 1116 1436 35.0 L   6.788 -73.190138.9  RSN 15 0.4 2.2LRSN                1
 GAP=108        1.00       3.0     3.1  5.3  0.1222E+01  0.6499E+01  0.3200E+01E
 Epicentro: ZAPATOCA - SANTANDER                                               3
 ACTION:UPD 17-12-12 19:56 OP:rebc STATUS:               ID:20171116143635 L   I
 OLDACT:REG 17-11-16 20:57 OP:lv   STATUS:               ID:20171116142744     3
 2017-11-16-1428-00M.COL___462                                                 6
 STAT SP IPHASW D HRMM SECON CODA AMPLIT PERI AZIMU VELO AIN AR TRES W  DIS CAZ7
 BAR2 EZ EP       1436 53.80                             171   -0.0110 21.7 178 
 BAR2 EZ ES       1437  8.50                             171    0.0510 21.7 178 
 BAR2 EZ I        1437  9.44        35.9 0.34            170           21.7 178 
 PAM  EZ EP       1436 56.78                             148   -0.0210 81.6  42 
 PAM  EN ES       1437 13.67                             148   -0.0910 81.6  42 
 PAM  EZ I        1437 15.92        11.8 0.68            153           81.6  42 
 RUS  HZ EP       1436 57.83                             143   -0.2310 99.8 173 
 RUS  HE ES       1437 16.11                             143    0.0910 99.8 173 
 RUS  HZ I        1437 17.08        25.0 0.24            144           99.8 173 
 PTB  HZ EP       1437  0.75                             131   -0.24 9  143 259 
 PTB  HN ES       1437 20.70                             131   -0.53 9  143 259 
 PTB  HZ I        1437 26.92        13.4 0.26            132            143 259 
 SPBC HZ EP       1437  2.32                             128   -0.31 9  159 218 
 SPBC HN ES       1437 24.70                             128    0.55 9  159 218 
 SPBC HZ I        1437 26.88        30.2 0.10            129            159 218 
 YPLC HZ IP     D 1437  4.22                             125   -0.26 9  178 150 
 YPLC HN ES       1437 27.73                             125    0.30 9  178 150 
 YPLC HZ I        1437 30.56        15.3 0.30            128            178 150 
 ZAR  HZ EP       1437  7.21                             121    0.58 9  200 293 
 ZAR  HN ES       1437 32.26                             121    1.00 9  200 293 
 ZAR  HZ I        1437 37.92        31.2 0.34            123            200 293 
 NOR  HZ EP       1437  9.66                             117   -0.21 8  230 234 
 NOR  HN ES       1437 36.95                             117   -0.08 8  230 234 
 NOR  HZ I        1437 43.62        10.8 0.16            119            230 234 
 CHI  HZ EP       1437 12.17                             116    0.07 8  246 194 
 CHI  HN ES       1437 40.47                             116   -0.53 8  246 194 
 CHI  HZ I        1437 44.50         6.6 0.32            118            246 194 
 URE  HN ES       1437 45.84                             112   -0.91 7  280 293 
 URE  HZ I        1437 47.46        14.2 0.14            114            280 293 
 GUY2CHZ EP       1437 18.74                             111    0.94 7  296 234 
 GUY2CHN ES       1437 51.67                             111    0.52 7  296 234 
 GUY2CHZ I        1438  1.50         6.5 0.56                           296 234 
 LL6C HZ EP   9   1437 18.81                             109   -1.78 0  326 358 
 LL6C HE ES       1437 53.71                                   -0.62 7  326 358 
 DBB  EZ EP       1437 22.17                             108    0.48 7  335 275 
 DBB  EN ES       1437 57.44                             108   -0.64 7  335 275 
 DBB  EZ I        1437 59.42         7.1 0.46            110            335 275 
 PRA  HZ EP       1437 28.15                             105    0.23 6  388 209 
 PRA  HN ES       1438  8.70                             105   -0.46 6  388 209 
 PRA  HZ I        1438 14.08         6.4 0.28            107            388 209 
 ORTC HZ EP       1437 27.85                             105   -0.43 6  391 216 
 ORTC HE ES       1438  9.86                             105    0.07 6  391 216 
                                                                                
