 2013  416 1734 50.3 L   6.750 -73.032143.6  RSN  4 0.3 1.6LRSN                1
 GAP=154        0.92       6.6    11.0  9.4  0.3587E+02 -0.4992E+02 -0.2431E+02E
 Epicentro: ARATOCA - SANTANDER                                                3
 ACTION:UPD 13-05-22 14:38 OP:EP   STATUS:               ID:20130416173450 L   I
 2013-04-16-1728-51M.COL___213                                                 6
 STAT SP IPHASW D HRMM SECON CODA AMPLIT PERI AZIMU VELO AIN AR TRES W  DIS CAZ7
 BAR2 SZ EP       1735  9.83                             170    0.1310 24.1 224 
 BAR2 SZ ES       1735 24.67                             170   -0.1510 24.1 224 
 BAR2 SZ I        1735 27.20         8.6 0.32            173           24.1 224 
 PAM  SZ EP       1735 12.18                             151    0.0310 74.8  29 
 PAM  SZ I        1735 12.61         6.6 0.26            151           74.8  29 
 BRR  HZ EP       1735 11.43                             148   -0.6410 84.9 298 
 BRR  HN ES       1735 29.42                             148    0.3810 84.9 298 
 RUS  HZ EP       1735 13.90                             145    0.4510 95.0 183 
 RUS  HN ES       1735 31.29                             145   -0.2110 95.0 183 
                                                                                
