 2013  216 1043 18.8 L   6.856 -73.128127.1  RSN  7 0.4 1.8LRSN                1
 GAP=185        0.75       4.3     8.1  8.7  0.1931E+02  0.1319E+02  0.5957E+01E
 Epicentro: LOS SANTOS - SANTANDER                                             3
 ACTION:UPD 13-03-12 09:33 OP:ep   STATUS:               ID:20130216104318 L   I
 2013-02-16-1040-00M.COL___241                                                 6
 STAT SP IPHASW D HRMM SECON CODA AMPLIT PERI AZIMU VELO AIN AR TRES W  DIS CAZ7
 BAR2 SZ EP   1   1043 36.76                             166    0.40 7 29.7 192 
 BAR2 SZ I        1043 53.19        14.2 0.18            169           29.7 192 
 BRR  HN ES   1   1043 52.38                             149   -0.43 7 70.3 293 
 BRR  HN I        1043 59.78        14.2 0.20            152           70.3 293 
 RUS  HN ES   1   1043 58.99                             138    0.23 7  107 177 
 RUS  HN I        1044  0.97         4.4 0.24            139            107 177 
 OCA  HN ES   2   1044  5.50                             126   -0.20 5  154 352 
 OCA  HN I        1044 11.55        16.8 0.36            124            154 352 
 ZAR  HZ EP   1   1043 50.68                             118    0.62 6  204 290 
 ZAR  HN ES   1   1044 14.60                             118    0.16 6  204 290 
 ZAR  HN I        1044 20.96         5.9 0.22            119            204 290 
 SML  HN ES   2   1044 21.04                             114   -0.28 4  239 334 
 SML  HN I        1044 27.67        12.3 0.10            113            239 334 
 CHI  HZ EP   1   1043 55.40                             112   -0.86 6  255 195 
 CHI  HN ES   1   1044 25.36                             112   -0.12 6  255 195 
 CHI  HN I        1044 31.41         3.8 0.28            113            255 195 
                                                                                
