 2010  916 1013 44.8 L   5.865 -74.017  4.0  RSN  4 0.3 1.6LRSN                1
 GAP=285        0.65      13.9    17.8 21.2  0.2282E+03 -0.3459E+03 -0.2628E+03E
 Epicentro: LA BELLEZA - SANTANDER                                             3
 ACTION:UP  11-02-18 11:03 OP:tino STATUS:               ID:20100916101344 L   I
 2010-09-16-1012-55S.COL___119                                                 6
 STAT SP IPHASW D HRMM SECON CODA AMPLIT PERI AZIMU VELO SNR AR TRES W  DIS CAZ7
 RUS  HZ EP   1   1014  2.00                              47     0.4 7  103  88 
 RUS  HN ES   2   1014 14.18                              47    -0.5 5  103  88 
 BAR2 SZ EP   1   1014  4.01                              47    -0.2 7  122  49 
 BAR2 SZ ES   2   1014 19.44                              47     0.1 5  122  49 
 BAR2 SZ I        1014 20.69        14.8 0.35                           122  49 
 BRR  HZ EP   1   1014  6.45                              47    -0.4 7  141  14 
 BRR  HE ES   2   1014 24.41                              47     0.4 5  141  14 
 BRR  HZ I        1014 27.79         6.0 0.27                           141  14 
 BTL  SZ EP   1   1014  7.49                              47     0.2 7  143  35 
                                                                                
