 2011  416 1809  5.5 L   6.771 -73.119141.7  RSN 10 0.3 2.1LRSN                1
 GAP=117        0.65       4.1     4.1  5.1 -0.7405E+01 -0.1134E+01  0.7882E+01E
 Epicentro: LOS SANTOS - SANTANDER                                             3
 ACTION:UP  11-06-22 15:31 OP:REBC STATUS:               ID:20110416180905 L   I
 2011-04-16-1805-33S.COL___139                                                 6
 STAT SP IPHASW D HRMM SECON CODA AMPLIT PERI AZIMU VELO SNR AR TRES W  DIS CAZ7
 BAR2 SZ EP   1   18 9 24.56                             171     0.0 7   21 199 
 BAR2 SZ ES   1   18 9 39.19                             171    -0.3 7   21 199 
 BAR2 SZ I        18 9 40.74        35.2 0.23                            21 199 
 GIR2 SZ EP   1   18 9 24.85                             165     0.1 7   35 346 
 BRR  HZ EP       18 9 26.46                             150     0.010   75 300 
 BRR  HE ES       18 9 42.98                             150     0.210   75 300 
 BRR  HZ I        18 9 48.50        23.4 0.19                            75 300 
 PAM  SZ EP   1   18 9 27.48                             150     0.2 7   78  36 
 PAM  SZ I        18 9 27.94        13.6 0.25                            78  36 
 PAM  SN ES   1   18 9 44.24                             150    -0.1 7   78  36 
 GRA  SZ EP   1   18 9 30.36                             135    -0.2 7  128  16 
 GRA  SZ ES   1   18 9 49.72                             135    -0.4 7  128  16 
 GRA  SZ I        18 9 54.19        15.2 0.51                           128  16 
 OCA  SZ EP   2   18 9 33.35                             128    -0.4 5  164 352 
 OCA  SZ I        1810  3.07        18.0 0.28                           164 352 
 YOP  SZ EP   1   18 9 35.38                             126     0.6 7  175 154 
 YOP  SZ I        18 9 55.64        10.3 0.38                           175 154 
 NOR  SZ EP   2   18 9 40.81                             117    -0.2 4  235 236 
 NOR  SN ES   1   1810  8.39                             117    -0.4 6  235 236 
 HEL  HZ EP   1   18 9 46.24                             114     0.5 6  274 257 
 HEL  HN ES   2   1810 17.18                             114     0.1 4  274 257 
 HEL  HZ I        1810 23.20         6.8 0.23                           274 257 
 PRA  HZ EP   1   18 9 58.18                             106    -0.5 4  391 210 
 PRA  HE ES   2   1810 39.38                             106    -0.8 3  391 210 
                                                                                
