 2010  416 1803 47.9 L   6.813 -72.976147.5  RSN 10 0.4 2.7LRSN                1
 GAP=213        0.74       3.4     7.2  5.8 -0.8309E+01  0.5296E+00  0.6575E+01E
 Epicentro: CEPITA - SANTANDER                                                 3
 ACTION:UPD 10-08-24 09:59 OP:vdl  STATUS:               ID:20100416180356 L   I
 2010-04-16-1801-01S.COL___100                                                 6
 STAT SP IPHASW D HRMM SECON CODA AMPLIT PERI AZIMU VELO AIN AR TRES W  DIS CAZ7
 BAR2 SZ IP       18 4  8.15                             167     0.210   34 223 
 BAR2 SZ ES   1   18 4 23.11                             167    -0.5 7   34 223 
 BRR  HZ IP     C 18 4 10.40                             147     0.210   88 292 
 BRR  HZ I        18 4 10.84       113.3 0.11                            88 292 
 BRR  HN ES   1   18 4 27.47                             147    -0.1 7   88 292 
 OCA  SZ EP       18 4 16.54                             129     0.1 9  162 346 
 OCA  SZ ES   1   18 4 38.85                             129     0.1 7  162 346 
 OCA  SZ I        18 4 45.43        73.3 0.21                           162 346 
 CHI  HZ EP       18 4 26.16                             117    -0.3 8  256 199 
 CHI  HZ I        18 4 26.53        16.3 0.15                           256 199 
 CHI  HN ES   1   18 4 57.09                             117     0.6 6  256 199 
 ROSC BZ EP   1   18 4 27.67                             116     0.3 6  264 214 
 ROSC BN ES   1   18 4 58.61                             116     0.5 6  264 214 
 ROSC BZ I        18 5  4.42        25.8 0.48                           264 214 
 HEL  HZ EP   1   18 4 29.74                             113    -0.5 5  291 256 
 HEL  HE ES   2   18 5  3.76                             113     0.5 4  291 256 
 HEL  HZ I        18 5  6.13         9.7 0.13                           291 256 
 RREF BZ EP   1   18 4 36.00                             110     0.2 5  337 231 
 RREF BN ES   2   18 5 12.90                             110    -0.4 3  337 231 
 RREF BZ I        18 5 16.50        17.4 0.36                           337 231 
 TOL  SZ EP   1   18 4 37.59                             109    -0.3 5  358 227 
 TOL  SZ ES   2   18 5 16.68                             109    -0.2 3  358 227 
 ANIL BZ EP   2   18 4 39.97                             108     0.6 3  372 226 
 ANIL BE ES   2   18 5 19.26                             108    -0.3 3  372 226 
 ANIL BZ I        18 5 24.80        36.5 0.20                           372 226 
 PRA  HZ EP       18 4 41.76                             106    -1.0 6  403 212 
 PRA  HN ES   2   18 5 25.14                             106    -0.4 3  403 212 
 PRA  HZ I        18 5 29.67        19.3 0.37                           403 212 
                                                                                
