 2016  416 1044 39.9 L   6.812 -73.135140.9  RSN 13 0.4 2.0LRSN                1
 GAP= 71        0.93       3.0     2.9  5.1 -0.1907E+01  0.2710E+01  0.7460E+00E
 Epicentro: LOS SANTOS - SANTANDER                                             3
 ACTION:UPD 16-05-05 14:22 OP:rebc STATUS:               ID:20160416104439 L   I
 OLDACT:UP  16-04-16 22:56 OP:mh   STATUS:               ID:20160416103751     3
 OLDACT:REG 16-04-16 20:58 OP:mh   STATUS:               ID:20160416103751     3
 2016-04-16-1037-51M.COL___312                                                 6
 STAT SP IPHASW D HRMM SECON CODA AMPLIT PERI AZIMU VELO AIN AR TRES W  DIS CAZ7
 BAR2 EZ EP       1044 59.16                             170    0.1910 24.8 192 
 BAR2 EZ ES       1045 13.67                             170   -0.1810 24.8 192 
 BAR2 EZ I        1045 15.02        20.1 0.11            169           24.8 192 
 PAM  EZ EP       1045  2.12                             150    0.6410 75.6  39 
 PAM  EE ES       1045 18.74                             150    0.4210 75.6  39 
 PAM  EZ I        1045 21.17        41.3 0.16            153           75.6  39 
 RUS  HZ EP   1   1045  3.73                             143    0.48 7  102 177 
 RUS  HN ES   1   1045 20.87                             143   -0.61 7  102 177 
 RUS  HZ I        1045 22.98        13.5 0.38            144            102 177 
 PTB  HZ EP       1045  6.23                             131   -0.37 9  149 258 
 PTB  HN ES       1045 27.62                             131    0.19 9  149 258 
 PTB  HZ I        1045 28.76        16.2 0.30            131            149 258 
 TAM  HZ EP     C 1045  7.52                             130    0.42 9  154 106 
 TAM  HN ES       1045 28.15                             130   -0.18 9  154 106 
 OCA  HZ EP       1045  7.22                             129   -0.50 9  159 353 
 OCA  HN ES   1   1045 28.71                             129   -0.71 7  159 353 
 OCA  HZ I        1045 34.64        29.8 0.14            130            159 353 
 SPBC HZ EP       1045  8.14                             128   -0.05 9  165 219 
 SPBC HN ES   1   1045 30.48                             128    0.22 7  165 219 
 SPBC HZ I        1045 35.13        17.7 0.68            128            165 219 
 ZAR  HZ EP       1045 12.46                             121    0.37 9  205 292 
 ZAR  HN ES   1   1045 37.29                             121    0.09 6  205 292 
 ZAR  HZ I        1045 43.09        14.1 0.30            122            205 292 
 NOR  HZ EP   1   1045 15.64                             117    0.11 6  236 234 
 NOR  HN ES   1   1045 42.99                             117   -0.34 6  236 234 
 CHI  HZ EP       1045 16.72                             116   -0.77 8  250 195 
 CHI  HN ES       1045 46.42                             116   -0.40 8  250 195 
 CHI  HZ I        1045 52.93         3.0 0.30            117            250 195 
 URE  HZ EP   4   1045 20.21                             113   -0.59 0  284 292 
 URE  HN ES   4   1045 50.16                             113   -2.55 0  284 292 
 SOCV BZ EP       1045 22.24                             111   -0.28 7  300  57 
 SOCV BN ES   4   1045 53.33                             111   -2.44 0  300  57 
 GUY2CHZ EP   1   1045 23.42                             111   -0.05 5  303 235 
 GUY2CHN ES   4   1046  0.06                             111    2.59 0  303 235 
 GUY2CHZ I        1046  6.13         2.7 0.56                           303 235 
 ORTC HZ EP   1   1045 34.34                             105    0.49 4  397 216 
 ORTC HN ES   1   1046 17.02                             105    1.08 4  397 216 
 ORTC HZ I        1046 22.05         2.8 0.40            106            397 216 
                                                                                
