 2013 1016 1229  7.6 L   6.785 -73.158143.3  RSN 10 0.5 2.2LRSN                1
 GAP=136        1.14       4.8     5.0  6.9 -0.3990E+01  0.8655E+01  0.4135E+01E
 Epicentro: LOS SANTOS - SANTANDER                                             3
 ACTION:UPD 13-11-25 09:22 OP:ep   STATUS:               ID:20131016122907 L   I
 OLDACT:REG 13-10-16 18:10 OP:cam  STATUS:               ID:20131016122737     3
 2013-10-16-1227-37M.COL___212                                                 6
 STAT SP IPHASW D HRMM SECON CODA AMPLIT PERI AZIMU VELO AIN AR TRES W  DIS CAZ7
 BAR2 SZ EP       1229 26.69                             171   -0.1910 21.5 187 
 BAR2 SZ ES       1229 41.87                             171   -0.0710 21.5 187 
 BAR2 SZ I        1229 42.72        67.1 0.26            170           21.5 187 
 BRR  HZ EP       1229 28.40                             152   -0.0510 70.8 300 
 BRR  HN ES       1229 45.60                             152    0.8810 70.8 300 
 BRR  HZ I        1229 49.48        20.9 0.16            150           70.8 300 
 PAM  SZ EP       1229 29.56                             150   -0.1110 79.6  40 
 PAM  SN ES       1229 46.62                             150   -0.2810 79.6  40 
 PAM  SZ I        1229 48.58        21.5 0.44            154           79.6  40 
 RUS  HZ EP   1   1229 30.94                             144   -0.04 7 99.0 175 
 RUS  HN ES       1229 49.68                             144    0.4510 99.0 175 
 RUS  HZ I        1229 50.25        20.2 0.28            146           99.0 175 
 PTB  HZ EP   1   1229 33.54                             132   -0.66 7  146 259 
 PTB  HN ES       1229 54.20                             132   -0.76 9  146 259 
 PTB  HZ I        1229 56.29        20.1 0.16            131            146 259 
 SPBC HZ EP       1229 35.53                             129   -0.16 9  161 219 
 SPBC HN ES       1229 57.34                             129   -0.27 9  161 219 
 SPBC HZ I        1230  1.87        22.9 0.22            129            161 219 
 ZAR  HZ EP   1   1229 40.92                             122    1.12 6  203 293 
 ZAR  HN ES   1   1230  4.43                             122   -0.50 6  203 293 
 ZAR  HZ I        1230  9.73        16.2 0.38            122            203 293 
 NOR  HZ EP   1   1229 42.70                             118   -0.25 6  233 235 
 NOR  HN ES   1   1230 11.15                             118    0.62 6  233 235 
 NOR  HZ I        1230 19.62         8.5 0.36            119            233 235 
 CHI  HZ EP   1   1229 44.90                             117   -0.03 6  247 195 
 GUY2CHZ EP   1   1229 52.12                             112    1.28 5  299 235 
                                                                                
