 2015  216 1045 20.1 L   6.295 -73.520114.6  RSN  9 0.5 1.7LRSN                1
 GAP=145        1.01       3.5     4.2  7.3 -0.8245E+00  0.1019E+02 -0.5537E+01E
 Epicentro: CONTRATACION - SANTANDER                                           3
 ACTION:UPD 15-04-30 21:26 OP:nd   STATUS:               ID:20150216104520 L   I
 OLDACT:REG 15-02-16 19:31 OP:fm   STATUS:               ID:20150216103741     3
 2015-02-16-1037-41M.COL___295                                                 6
 STAT SP IPHASW D HRMM SECON CODA AMPLIT PERI AZIMU VELO AIN AR TRES W  DIS CAZ7
 RUS  HZ EP       1045 37.60                             148   -0.7510 65.8 133 
 RUS  HE ES       1045 52.73                             148    0.1710 65.8 133 
 RUS  HZ I        1045 53.99         3.2 0.32            150           65.8 133 
 SPBC HZ EP       1045 40.46                             138    0.6210 93.8 221 
 SPBC HN ES       1045 55.48                             138    0.2710 93.8 221 
 SPBC HZ I        1046  1.54         7.3 0.24            136           93.8 221 
 PTB  HZ EP       1045 41.11                             134    0.2510  107 285 
 PTB  HN ES       1045 56.59                             134   -0.4510  107 285 
 PTB  HZ I        1045 57.95        15.7 0.12            133            107 285 
 NOR  HE ES       1046  7.64                             120   -0.49 9  170 242 
 NOR  HZ I        1046 13.23         7.4 0.14            119            170 242 
 GUY2CHZ EP   1   1045 55.19                             111    0.23 6  236 240 
 GUY2CHE ES       1046 22.16                             111    0.04 8  236 240 
 GUY2CHZ I        1046 30.24         3.9 0.42                           236 240 
 RREF HZ EP   1   1045 57.64                             109    0.39 6  254 233 
 RREF HN ES   1   1046 26.74                             109    0.54 6  254 233 
 RREF HZ I        1046 35.10         2.7 0.28            109            254 233 
 SML  HN ES       1046 31.51                             107    0.69 7  284 348 
 SML  HZ I        1046 38.44         4.7 0.26            107            284 348 
 PRA  HZ EP   1   1046  3.87                             104   -0.67 5  323 208 
 PRA  HE ES       1046 39.07                             104   -0.11 7  323 208 
 PRA  HZ I        1046 43.59         2.0 0.22            104            323 208 
 MON  HZ EP   1   1046  8.56                             102   -0.60 5  363 319 
 MON  HN ES       1046 47.01                             102   -0.40 6  363 319 
 MON  HZ I        1046 48.25         2.6 0.90            102            363 319 
                                                                                
