 2012 1216 1051 45.5 L   6.743 -73.097136.0  RSN  5 0.3 1.6LRSN                1
 GAP=145        0.90       4.4     5.0  7.2  0.4186E+01  0.4767E+01 -0.1031E+01E
 Epicentro: JORDAN - SANTANDER                                                 3
 ACTION:UPD 13-01-04 14:28 OP:ep   STATUS:               ID:20121216105145 L   I
 2012-12-16-1050-00M.COL___239                                                 6
 STAT SP IPHASW D HRMM SECON CODA AMPLIT PERI AZIMU VELO AIN AR TRES W  DIS CAZ7
 BAR2 SZ EP       1052  3.57                             172   -0.2510 19.1 210 
 BAR2 SZ ES       1052 18.22                             172    0.0710 19.1 210 
 BAR2 SZ I        1052 19.90        10.4 0.22                          19.1 210 
 BRR  HZ EP       1052  5.49                             148   -0.5510 79.0 301 
 BRR  HN ES       1052 21.84                             148   -0.2510 79.0 301 
 BRR  HN I        1052 22.78        17.0 0.16                          79.0 301 
 PAM  SZ EP       1052  6.65                             148   -0.1010 79.2  34 
 PAM  SN ES       1052 23.66                             148    0.2910 79.2  34 
 PAM  SN I        1052 24.67         6.5 0.24                          79.2  34 
 RUS  HZ EP       1052  8.26                             144    0.4910 94.0 179 
 RUS  HN ES       1052 25.07                             144   -0.1010 94.0 179 
 RUS  HN I        1052 27.44         2.0 0.16                          94.0 179 
 ZAR  HN ES       1052 44.07                             119    0.57 8  211 293 
 ZAR  HN I        1052 47.42         5.3 0.44                           211 293 
                                                                                
