 2014  616 1426 33.6 L   6.805 -73.126149.4  RSN 13 0.5 2.4LRSN                1
 GAP=139        1.11       3.1     4.3  5.5 -0.1661E+01  0.6853E+01  0.2298E+01E
 Epicentro: LOS SANTOS - SANTANDER                                             3
 ACTION:UPD 14-07-01 22:54 OP:nd   STATUS:               ID:20140616142633 L   I
 OLDACT:REG 14-06-16 21:31 OP:carl STATUS:               ID:20140616141816     3
 2014-06-16-1418-16M.COL___262                                                 6
 STAT SP IPHASW D HRMM SECON CODA AMPLIT PERI AZIMU VELO AIN AR TRES W  DIS CAZ7
 BAR2 SZ IP     C 1426 53.83                             170    0.1510 24.3 195 
 BAR2 SZ ES       1427  8.96                             170   -0.3910 24.3 195 
 BAR2 SZ I        1427 11.52        36.7 0.28            168           24.3 195 
 BRR  HZ IP     C 1426 55.78                             153    0.5510 72.9 297 
 BRR  HN ES       1427 13.11                             153    1.0010 72.9 297 
 BRR  HZ I        1427 15.43        25.3 0.20            151           72.9 297 
 PAM  SZ EP       1426 56.58                             152    0.4910 75.6  38 
 PAM  SN ES       1427 13.80                             152    0.1610 75.6  38 
 PAM  SZ I        1427 15.98        32.7 0.20            157           75.6  38 
 RUS  HZ EP       1426 57.64                             144   -0.0910  101 177 
 RUS  HN ES       1427 16.07                             144   -0.4910  101 177 
 RUS  HZ I        1427 17.37        12.2 0.56            145            101 177 
 PTB  HZ EP       1427  0.70                             132   -0.36 9  150 259 
 PTB  HN ES       1427 21.76                             132   -0.73 9  150 259 
 PTB  HZ I        1427 27.68        37.1 0.22            132            150 259 
 SPBC HZ EP       1427  2.76                             130    0.22 9  165 219 
 SPBC HN ES       1427 25.16                             130    0.04 9  165 219 
 SPBC HZ I        1427 31.98        48.4 0.34            130            165 219 
 ZAR  HZ EP       1427  5.60                             123   -0.87 8  206 292 
 ZAR  HE ES       1427 32.02                             123   -0.09 8  206 292 
 ZAR  HZ I        1427 38.15        32.0 0.30            123            206 292 
 NOR  HZ EP       1427  9.86                             119    0.10 8  237 235 
 NOR  HN ES       1427 38.28                             119    0.31 8  237 235 
 NOR  HZ I        1427 41.54        22.7 0.22            119            237 235 
 SML  HZ EP       1427 10.24                             118   -0.23 8  244 335 
 SML  HN ES       1427 38.54                             118   -0.70 8  244 335 
 SML  HZ I        1427 44.76        27.6 0.10            120            244 335 
 CHI  HZ EP       1427 11.40                             118   -0.21 8  250 196 
 CHI  HN ES       1427 40.67                             118   -0.60 8  250 196 
 CHI  HZ I        1427 49.86         8.3 0.56            119            250 196 
 GUY2CHZ EP       1427 18.10                             113    0.49 7  303 235 
 GUY2CHE ES       1427 52.12                             113    0.18 7  303 235 
 GUY2CHZ I        1428  0.67        21.6 0.76                           303 235 
 RREF HZ EP   4   1427 21.84                             111    1.72 0  324 230 
 RREF HN ES   4   1427 59.02                             111    2.60 0  324 230 
 TOL  SZ EP       1427 22.49                             110    0.27 6  345 225 
 TOL  SN ES       1428  0.86                             110    0.72 6  345 225 
 TOL  SZ I        1428 10.94        27.0 0.70            111            345 225 
 PRA  HZ EP       1427 27.39                             107   -0.03 6  394 210 
 PRA  HN ES       1428  9.70                             107    0.29 6  394 210 
 PRA  HZ I        1428 15.56        11.9 0.36            108            394 210 
                                                                                
