 2015  916 1107 49.4 L   6.811 -73.158143.5  RSN  6 0.4 1.7LRSN                1
 GAP=146        0.93       5.3     4.3  6.3 -0.3222E+01  0.8219E+01 -0.9152E+01E
 Epicentro: LOS SANTOS - SANTANDER                                             3
 ACTION:UPD 15-10-28 16:26 OP:cam  STATUS:               ID:20150916110749 L   I
 OLDACT:REG 15-09-16 21:26 OP:drio STATUS:               ID:20150916105749     3
 2015-09-16-1057-49M.COL___349                                                 6
 STAT SP IPHASW D HRMM SECON CODA AMPLIT PERI AZIMU VELO AIN AR TRES W  DIS CAZ7
 BAR2 EZ EP       11 8  8.90                             170    0.1410 24.3 186 
 BAR2 EZ ES       11 8 23.39                             170   -0.4810 24.3 186 
 BAR2 EZ I        11 8 25.58         8.4 0.18            172           24.3 186 
 BRR  HZ EP       11 8 10.76                             153    0.5710 69.5 298 
 BRR  HN ES       11 8 26.77                             153    0.3610 69.5 298 
 PAM  EZ EP       11 8 11.51                             150    0.1510 77.4  41 
 PAM  EE ES       11 8 28.49                             150   -0.0010 77.4  41 
 PAM  EZ I        11 8 31.04        11.7 0.46            152           77.4  41 
 PTB  HZ EP       11 8 15.82                             132   -0.25 9  147 258 
 PTB  HN ES       11 8 36.53                             132   -0.35 9  147 258 
 PTB  HZ I        11 8 40.34         3.3 0.46            132            147 258 
 ZAR  HZ EP       11 8 21.86                             122    0.35 9  202 292 
 ZAR  HE ES       11 8 46.82                             122    0.26 9  202 292 
 ZAR  HZ I        11 8 57.50         3.4 0.14            122            202 292 
 SML  HZ EP       11 8 25.03                             117   -0.68 8  242 335 
 SML  HE ES       11 8 53.66                             117   -0.38 8  242 335 
 SML  HZ I        11 8 57.26         8.3 0.28            118            242 335 
                                                                                
