 2011  916 1453  7.0 L   6.601 -73.447114.8  RSN  5 0.3 1.9LRSN                1
 GAP=150        0.54       5.0     6.2  8.4  0.1264E+02  0.2530E+02  0.3484E+01E
 Epicentro: EL CARMEN DE CHUCURI - SANTANDER                                   3
 ACTION:UPD 12-07-13 15:57 OP:ep   STATUS:               ID:20110916145307 L   I
 2011-09-16-1451-12S.COL___170                                                 6
 STAT SP IPHASW D HRMM SECON CODA AMPLIT PERI AZIMU VELO AIN AR TRES W  DIS CAZ7
 BAR2 SZ EP       1453 23.27                             164    0.1610 29.3  92 
 BAR2 SZ ES   1   1453 35.74                             164    0.07 7 29.3  92 
 BAR2 SZ I        1453 36.89        47.1 0.44                          29.3  92 
 BRR  HZ EP       1453 24.03                             149   -0.3610 63.1 332 
 BRR  HZ I        1453 34.63        16.0 0.38                          63.1 332 
 RUS  HZ EP   1   1453 27.07                             140    0.21 7 88.1 153 
 RUS  HE ES   2   1453 42.03                             140   -0.30 5 88.1 153 
 PAM  SN ES   2   1453 46.76                             131    0.19 5  116  45 
 ZAR  HN ES   2   1453 58.08                             117    0.36 4  184 302 
 ZAR  HZ I        1453 59.70         7.8 0.28                           184 302 
                                                                                
