 2017  716 1013 36.6 L   6.777 -73.212133.6  RSN  5 0.3 0.8LRSN                1
 GAP=227        0.76       5.7     5.6  6.2  0.2118E+02  0.9745E+01  0.4228E+01E
 Epicentro: ZAPATOCA - SANTANDER                                               3
 ACTION:UPD 17-08-30 15:33 OP:rebc STATUS:               ID:20170716101336 L   I
 OLDACT:DUP 17-07-16 21:21 OP:lv   STATUS:               ID:20170716100654d    3
 2017-07-16-1008-00M.COL___371                                                 6
 STAT SP IPHASW D HRMM SECON CODA AMPLIT PERI AZIMU VELO AIN AR TRES W  DIS CAZ7
 BAR2 EZ ES       1014  8.87                             171    0.0510 20.6 171 
 BRR  HZ EP       1013 56.19                             152    0.0510 66.2 304 
 BRR  HE ES       1014 11.53                             152    0.1510 66.2 304 
 BRR  HZ I        1014 17.21         3.8 0.29            153           66.2 304 
 RUS  HZ EP       1013 58.75                             142   -0.2710 98.8 172 
 RUS  HN ES       1014 16.42                             142   -0.1010 98.8 172 
 RUS  HZ I        1014 18.38         1.0 0.45            146           98.8 172 
 PTB  HZ EP       1014  2.42                             131    0.56 9  140 259 
 PTB  HN ES       1014 21.62                             131    0.04 9  140 259 
 PTB  HZ I        1014 23.93         0.5 0.15            134            140 259 
 ZAR  HE ES       1014 31.34                             120   -0.55 9  198 294 
                                                                                
