 2011  516 1750 45.8 L   6.787 -73.066141.6  RSN  6 0.2 2.0LRSN                1
 GAP=148        0.56       4.5     7.9  7.4  0.1281E+02 -0.3145E+02 -0.1513E+02E
 Epicentro: LOS SANTOS - SANTANDER                                             3
 ACTION:UP  11-06-29 08:53 OP:tino STATUS:               ID:20110516175045 L   I
 2011-05-16-1749-43S.COL___141                                                 6
 STAT SP IPHASW D HRMM SECON CODA AMPLIT PERI AZIMU VELO SNR AR TRES W  DIS CAZ7
 BAR2 SZ EP       1751  4.91                             169     0.010   25 211 
 BAR2 SZ ES   1   1751 19.57                             169    -0.3 7   25 211 
 BAR2 SZ I        1751 21.33        27.3 0.25                            25 211 
 BTL  SZ EP   1   1751  5.17                             169     0.2 7   27 303 
 PAM  SZ EP   1   1751  7.61                             151     0.3 7   73  34 
 BRR  HZ EP   1   1751  6.89                             149    -0.1 7   80 296 
 BRR  HE ES   1   1751 23.62                             149     0.1 7   80 296 
 BRR  HZ I        1751 29.37        16.6 0.07                            80 296 
 RUS  HZ EP   1   1751  8.78                             143    -0.2 7   99 181 
 RUS  HE ES   1   1751 27.30                             143     0.2 7   99 181 
 RUS  HZ I        1751 28.56         4.8 0.36                            99 181 
 GRA  SZ EP   1   1751 10.28                             136    -0.3 7  125  13 
 GRA  SZ I        1751 44.03        50.8 0.31                           125  13 
                                                                                
