 2014  316 1952 35.1 L   5.919 -73.646120.2  RSN  8 0.5 1.5LRSN                1
 GAP= 91        1.38       4.4     4.5 10.4 -0.2258E+01  0.1875E+02  0.7143E+01E
 Epicentro: BARBOSA - SANTANDER                                                3
 ACTION:UPD 14-04-09 23:17 OP:nd   STATUS:               ID:20140316195235 L   I
 OLDACT:REG 14-03-16 17:04 OP:mh   STATUS:               ID:20140316194815     3
 2014-03-16-1948-15M.COL___254                                                 6
 STAT SP IPHASW D HRMM SECON CODA AMPLIT PERI AZIMU VELO AIN AR TRES W  DIS CAZ7
 RUS  HZ EP       1952 53.57                             151   -0.1510 62.4  93 
 RUS  HZ I        1952 54.57         4.0 0.12            151           62.4  93 
 RUS  HN ES       1953  7.88                             151   -0.3510 62.4  93 
 BAR2 SZ EP       1952 56.27                             141    0.9910 90.4  35 
 BAR2 SZ ES       1953 11.13                             141    0.1210 90.4  35 
 BAR2 SZ I        1953 12.33        36.0 0.16            140           90.4  35 
 PTB  HZ EP       1952 55.89                             134   -0.9610  113 307 
 PTB  HZ I        1952 57.45         4.4 0.10            132            113 307 
 PTB  HE ES       1953 13.38                             134   -0.4110  113 307 
 BRR  HZ EP       1952 58.58                             129    0.0510  132 357 
 BRR  HN ES       1953 17.19                             129    0.3910  132 357 
 BRR  HZ I        1953 18.73         6.2 0.14            127            132 357 
 NOR  HZ EP       1952 59.05                             127   -0.48 9  141 254 
 NOR  HN ES       1953 19.26                             127    0.70 9  141 254 
 NOR  HZ I        1953 21.83         7.1 0.14            125            141 254 
 CHI  HZ EP       1953  0.14                             127   -0.05 9  143 184 
 CHI  HN ES       1953 19.49                             127   -0.25 9  143 184 
 GUY2CHZ EP       1953  7.00                             116    0.22 8  205 248 
 GUY2CHN ES       1953 32.53                             116    1.05 8  205 248 
 GUY2CHZ I        1953 38.33         1.5 0.34                           205 248 
 HEL  HZ EP       1953  7.14                             115   -0.08 8  211 278 
 HEL  HZ I        1953 14.26         2.2 0.42            114            211 278 
 HEL  HE ES       1953 31.57                             115   -0.69 8  211 278 
                                                                                
