 2017  416 1059 37.1 L   6.918 -73.348127.0  RSN  4 0.5 1.4LRSN                1
 GAP=119        0.98       9.5     5.5  9.6 -0.1935E+02  0.1193E+02  0.1726E+02E
 Epicentro: BETULIA - SANTANDER                                                3
 ACTION:UPD 17-05-30 21:12 OP:jn   STATUS:               ID:20170416105937 L   I
 OLDACT:UP  17-04-16 23:16 OP:edw  STATUS:               ID:20170416105535     3
 OLDACT:REG 17-04-16 19:47 OP:dani STATUS:               ID:20170416105535     3
 2017-04-16-1058-00M.COL___366                                                 6
 STAT SP IPHASW D HRMM SECON CODA AMPLIT PERI AZIMU VELO AIN AR TRES W  DIS CAZ7
 BAR2 EZ EP       1059 55.56                             161    0.5010 40.4 153 
 BAR2 EZ ES       11 0  8.99                             161   -0.0410 40.4 153 
 BAR2 EZ I        11 0  9.43         9.3 0.26            162           40.4 153 
 BRR  HZ EP   3 C 1059 56.21                             159    1.30 2 45.3 297 
 BRR  HN ES       11 0  9.22                             159    0.4610 45.3 297 
 PAM  EE ES       11 0 13.74                             144   -0.4510 85.5  57 
 PTB  HZ EP       11 0  0.75                             131   -0.1710  129 251 
 PTB  HN ES       11 0 19.05                             131   -0.4210  129 251 
 PTB  HZ I        11 0 23.13         2.3 0.26            131            129 251 
                                                                                
