 2016 1116 1414 59.7 L   6.685 -73.233103.3  RSN  4 0.8 1.3LRSN                1
 GAP=112        2.05      16.6    10.0 19.5 -0.8211E+02  0.1074E+03 -0.1291E+03E
 Epicentro: BARICHARA - SANTANDER                                              3
 ACTION:UPD 17-10-26 21:08 OP:lp   STATUS:               ID:20161116141459 L   I
 OLDACT:REG 16-11-16 20:39 OP:ar   STATUS:               ID:20161116140645     3
 2016-11-16-1407-00M.COL___331                                                 6
 STAT SP IPHASW D HRMM SECON CODA AMPLIT PERI AZIMU VELO AIN AR TRES W  DIS CAZ7
 BAR2 EZ EP       1415 15.04                             173    1.0210 11.7 152 
 BAR2 EZ ES       1415 24.15                             173   -1.0210 11.7 152 
 BAR2 EZ I        1415 26.02        11.5 0.32            172           11.7 152 
 PAM  EZ EP       1415 17.99                             135   -0.9610 93.3  39 
 PAM  EN ES       1415 34.85                             135    0.9110 93.3  39 
 PAM  EZ I        1415 37.14         3.6 0.42            137           93.3  39 
 PTB  HZ EP       1415 22.03                             122   -0.39 9  136 263 
 PTB  HN ES       1415 41.04                             122    0.91 9  136 263 
 PTB  HZ I        1415 48.97         2.1 0.20            123            136 263 
 ZAR  HZ EP   2   1415 29.61                             112    0.20 4  201 297 
 ZAR  HE ES       1415 51.95                             112   -0.62 9  201 297 
 ZAR  HZ I        1415 59.07         2.7 0.38            113            201 297 
                                                                                
