 2013 1116 1909 52.9 L   6.790 -73.135140.2  RSN  5 0.3 1.7LRSN                1
 GAP=138        0.83       4.3     4.2  6.1 -0.1691E+01  0.3409E+01  0.1271E+01E
 Epicentro: LOS SANTOS - SANTANDER                                             3
 ACTION:UPD 14-01-09 16:28 OP:ep   STATUS:               ID:20131116190952 L   I
 OLDACT:REG 13-11-16 16:32 OP:stll STATUS:               ID:20131116190814     3
 2013-11-16-1908-14M.COL___229                                                 6
 STAT SP IPHASW D HRMM SECON CODA AMPLIT PERI AZIMU VELO AIN AR TRES W  DIS CAZ7
 BAR2 SZ EP       1910 11.87                             170    0.0410 22.5 193 
 BAR2 SZ I        1910 12.30        18.3 0.16            172           22.5 193 
 BAR2 SZ ES       1910 27.16                             170    0.5510 22.5 193 
 BRR  HZ EP       1910 13.89                             151    0.3710 72.7 299 
 BRR  HN ES       1910 29.39                             151   -0.2310 72.7 299 
 PAM  SZ EP       1910 14.81                             150    0.3010 77.5  38 
 PAM  SN ES       1910 30.96                             150   -0.4310 77.5  38 
 PAM  SZ I        1910 34.48         5.6 0.34            149           77.5  38 
 RUS  HZ EP       1910 15.91                             143   -0.1010 99.5 177 
 RUS  HN ES       1910 33.80                             143   -0.2510 99.5 177 
 PTB  HZ EP       1910 19.17                             130   -0.32 9  149 259 
 PTB  HN ES       1910 40.26                             130    0.02 9  149 259 
 PTB  HZ I        1910 42.05         7.6 0.50            132            149 259 
                                                                                
