 2017  316 1123 21.9 L   7.073 -73.336  4.0  RSN  7 0.4 1.5LRSN                1
 GAP=142        0.95       2.3     1.7  4.9  0.6065E+00  0.1222E+01  0.2195E+01E
 Epicentro: LEBRIJA - SANTANDER                                                3
 ACTION:UPD 17-05-25 18:41 OP:jn   STATUS:               ID:20170316112321 L   I
 OLDACT:UP  17-03-16 23:38 OP:dnl  STATUS:               ID:20170316111744     3
 OLDACT:REG 17-03-16 21:09 OP:dnl  STATUS:               ID:20170316111744     3
 2017-03-16-1118-00M.COL___391                                                 6
 STAT SP IPHASW D HRMM SECON CODA AMPLIT PERI AZIMU VELO AIN AR TRES W  DIS CAZ7
 BRR  HZ IP     D 1123 28.67                              47   -0.1710 41.7 275 
 BRR  HE ES       1123 34.32                              47    0.0910 41.7 275 
 BRR  HZ I        1123 35.02        20.3 0.14             47           41.7 275 
 BAR2 EZ EP       1123 31.05                              47   -0.1710 55.8 162 
 BAR2 EZ ES       1123 38.12                              47   -0.3510 55.8 162 
 BAR2 EZ I        1123 38.66        22.3 0.22             47           55.8 162 
 PAM  EZ IP     C 1123 34.84                              47    0.2710 76.2  67 
 PAM  EE ES       1123 44.28                              47   -0.1510 76.2  67 
 PAM  EZ I        1123 45.15         8.7 0.22             47           76.2  67 
 RUS  HZ EP       1123 43.61                              47    0.3610  134 168 
 RUS  HN ES       1123 59.72                              47   -0.1710  134 168 
 RUS  HZ I        1124  0.72         7.1 0.56             47            134 168 
 PTB  HZ EP       1123 43.62                              47    0.30 9  137 245 
 PTB  HN ES       1123 59.79                              47   -0.22 9  137 245 
 PTB  HZ I        1124  1.75        19.1 0.32             47            137 245 
 ZAR  HZ EP       1123 49.21                              47    0.27 9  174 286 
 ZAR  HE ES       1124  9.34                              47   -0.68 9  174 286 
 ZAR  HZ I        1124 11.64         8.1 0.30             47            174 286 
 SPBC HZ EP   4   1123 50.94                              37    1.53 0  177 207 
 SPBC HN ES   4   1124 13.65                              37    2.80 0  177 207 
 GUY2CHZ EP   4   1124  7.71                              36    2.01 0  304 228 
 GUY2CHE ES       1124 40.93                              36    1.09 7  304 228 
 GUY2CHZ  IAML    1124 44.63         2.7 0.34                           304 228 
                                                                                
