 2013 1216 1330 32.5 L   6.804 -73.116151.8  RSN 10 0.5 1.9LRSN                1
 GAP=158        1.05       3.9     5.0  6.0 -0.4075E+01  0.7086E+01  0.5657E+01E
 Epicentro: LOS SANTOS - SANTANDER                                             3
 ACTION:UPD 14-01-13 10:18 OP:ep   STATUS:               ID:20131216133032 L   I
 OLDACT:REG 13-12-16 16:16 OP:nd   STATUS:               ID:20131216133000     3
 2013-12-16-1330-00M.COL___285                                                 6
 STAT SP IPHASW D HRMM SECON CODA AMPLIT PERI AZIMU VELO AIN AR TRES W  DIS CAZ7
 BAR2 SZ EP       1330 53.15                             170    0.2210 24.5 197 
 BAR2 SZ ES       1331  8.52                             170   -0.3110 24.5 197 
 BAR2 SZ I        1331  9.38        20.4 0.28            168           24.5 197 
 BRR  HZ EP       1330 54.65                             153    0.1410 73.9 297 
 BRR  HN ES       1331 12.01                             153    0.3710 73.9 297 
 PAM  SZ EP       1330 55.76                             153    0.4810 75.0  38 
 PAM  SN ES       1331 12.79                             153   -0.2110 75.0  38 
 PAM  SZ I        1331 15.35         9.8 0.48            157           75.0  38 
 PTB  HZ EP       1330 59.92                             133   -0.39 9  151 259 
 PTB  HN ES   2   1331 21.58                             133   -0.39 5  151 259 
 PTB  HZ I        1331 28.83         9.1 0.32            132            151 259 
 SPBC HZ EP       1331  1.20                             130   -0.55 9  166 220 
 SPBC HN ES       1331 24.87                             130    0.35 9  166 220 
 SPBC HZ I        1331 29.26        10.6 0.40            130            166 220 
 ZAR  HZ EP       1331  5.63                             123   -0.06 8  207 292 
 ZAR  HN ES       1331 31.73                             123    0.18 8  207 292 
 ZAR  HZ I        1331 37.54         6.9 0.28            123            207 292 
 NOR  HZ EP       1331  9.06                             119    0.11 8  238 235 
 NOR  HN ES       1331 37.17                             119   -0.17 8  238 235 
 NOR  HZ I        1331 41.03         5.2 0.26            120            238 235 
 CHI  HZ EP       1331 11.25                             118    0.52 8  250 196 
 CHI  HN ES       1331 39.65                             118   -0.86 8  250 196 
 CHI  HZ I        1331 44.62         2.5 0.48            119            250 196 
 PRA  HZ EP       1331 27.49                             107    0.97 6  394 210 
 PRA  HN ES       1332  9.09                             107    0.48 6  394 210 
 PRA  HZ I        1332 14.97         3.7 0.36            108            394 210 
 SJC  HZ EP       1331 27.07                             107   -1.42 6  411 327 
 SJC  HN ES   4   1332  7.08                             107   -5.04 0  411 327 
 SJC  HZ I        1332 14.98         1.7 0.50            108            411 327 
                                                                                
