 2014  516 1416 32.4 L   6.838 -73.145143.9  RSN 16 0.5 2.7LRSN                1
 GAP=135        1.14       3.1     4.6  6.7 -0.3907E+01  0.8109E+01  0.3682E+01E
 Epicentro: LOS SANTOS - SANTANDER                                             3
 ACTION:UPD 15-03-16 16:58 OP:nd   STATUS:               ID:20140516141632 L   I
 OLDACT:UP  14-05-16 23:03 OP:carl STATUS:               ID:20140516140808     3
 OLDACT:REG 14-05-16 21:58 OP:carl STATUS:               ID:20140516140808     3
 2014-05-16-1408-08M.COL___254                                                 6
 STAT SP IPHASW D HRMM SECON CODA AMPLIT PERI AZIMU VELO AIN AR TRES W  DIS CAZ7
 BRR  HZ IP     C 1416 53.85                             153    0.5610 69.4 295 
 BRR  HN ES       1417  9.87                             153    0.3210 69.4 295 
 BRR  HZ I        1417 14.50       130.1 0.22            150           69.4 295 
 PAM  SZ EP       1416 54.81                             151    0.5510 74.1  42 
 PAM  SN ES       1417 11.81                             151    0.5210 74.1  42 
 PAM  SZ I        1417 14.11        62.9 0.32            156           74.1  42 
 RUS  HZ EP       1416 56.12                             142   -0.2010  105 176 
 RUS  HE ES       1417 14.46                             142   -0.4910  105 176 
 RUS  HZ I        1417 17.05        55.1 0.32            143            105 176 
 PTB  HZ EP       1416 58.54                             131   -0.81 9  149 257 
 PTB  HN ES       1417 19.98                             131   -0.36 9  149 257 
 PTB  HZ I        1417 22.46        94.1 0.18            130            149 257 
 OCA  HZ EP       1417  0.12                             130   -0.09 9  156 353 
 OCA  HE ES       1417 21.72                             130   -0.16 9  156 353 
 OCA  HZ I        1417 26.83        55.1 0.22            131            156 353 
 NOR  HZ EP       1417  8.02                             118   -0.32 8  237 234 
 NOR  HE ES       1417 36.44                             118    0.09 8  237 234 
 NOR  HZ I        1417 39.84        32.3 0.18            118            237 234 
 SML  HZ EP       1417  8.26                             117   -0.29 8  240 335 
 SML  HN ES       1417 36.04                             117   -0.68 8  240 335 
 SML  HZ I        1417 40.79        66.7 0.10            118            240 335 
 CHI  HZ EP       1417 10.58                             116    0.09 8  253 195 
 CHI  HN ES       1417 39.29                             116   -0.87 8  253 195 
 CHI  HZ I        1417 47.36        20.9 0.44            117            253 195 
 ROSC BZ EP   4   1417 12.17                             116    1.30 0  256 211 
 ROSC BN ES   4   1417 40.18                             116   -0.66 0  256 211 
 ROSC BZ I        1417 45.67        39.8 0.35            117            256 211 
 HEL  HZ EP   4   1417 14.11                             114    1.42 0  273 255 
 HEL  HE ES   4   1417 42.96                             114   -1.13 0  273 255 
 HEL  HZ I        1417 50.48        31.1 0.60            114            273 255 
 GUY2CHZ EP       1417 17.28                             112    1.02 7  304 234 
 GUY2CHE ES       1417 50.50                             112    0.07 7  304 234 
 GUY2CHZ I        1418  0.42        27.1 0.60                           304 234 
 RREF HZ EP   4   1417 20.35                             110    1.52 0  325 229 
 RREF HN ES   4   1417 57.35                             110    2.33 0  325 229 
 RREF HZ I        1418  3.84        28.1 0.26            111            325 229 
 CBOC HZ EP   4   1417 19.70                             109    0.25 0  335 251 
 CBOC HE ES       1417 56.33                             109    0.22 7  335 251 
 CBOC HZ I        1418  7.98         7.7 0.40            110            335 251 
 ANIL HZ EP   4   1417 24.14                             108    1.60 0  360 224 
 ANIL HN ES       1418  2.27                             108    0.66 6  360 224 
 ANIL HZ I        1418 10.39        54.3 0.30            109            360 224 
 ORTC HZ EP       1417 26.83                             106    0.12 6  399 216 
 ORTC HN ES       1418  9.80                             106    0.76 6  399 216 
 ORTC HZ I        1418 16.36        15.9 0.60            107            399 216 
 SJC  HZ EP   4   1417 26.06                             106   -1.47 0  406 327 
 SJC  HN ES   4   1418  6.79                             106   -3.72 0  406 327 
 SJC  HZ I        1418 16.52         7.4 0.30            106            406 327 
                                                                                
