 2010  116 1245 53.4 L   6.839 -72.918142.8  RSN  4 0.5 1.5LRSN                1
 GAP=239        0.82       9.3    40.9 12.4 -0.1480E+03 -0.5647E+02  0.2232E+02E
 Epicentro: SAN ANDRES - SANTANDER                                             3
 ACTION:UP  10-08-24 09:44 OP:vdl  STATUS:               ID:20100116124553 L   I
 2010-01-16-1244-13S.COL___095                                                 6
 STAT SP IPHASW D HRMM SECON CODA AMPLIT PERI AZIMU VELO SNR AR TRES W  DIS CAZ7
 BAR2 SZ IP       1246 13.26                             164     0.110   40 227 
 BAR2 SZ ES   2   1246 27.78                             164    -0.8 5   40 227 
 GIR2 SZ EP   1   1246 13.41                             164     0.4 7   40 311 
 RUS  BZ EP   1   1246 17.28                             142     0.0 7  106 190 
 RUS  BE ES   2   1246 36.18                             142     0.2 5  106 190 
 RUS  BZ I        1246 36.90         4.9 0.39                           106 190 
 CHI  HZ EP   1   1246 31.55                             115    -0.7 6  260 200 
 CHI  HN ES   2   1247  3.30                             115     0.7 4  260 200 
 CHI  HZ I        1247 13.74         1.8 0.40                           260 200 
                                                                                
