 2010  816 1446 12.5 L   6.786 -73.073149.1  RSN 12 0.5 2.4LRSN                1
 GAP=132        1.10       4.6     7.9  7.8 -0.1328E+02 -0.1501E+02  0.7427E+01E
 Epicentro: LOS SANTOS - SANTANDER                                             3
 ACTION:UP  10-09-07 10:55 OP:vdl  STATUS:               ID:20100816144612 L   I
 2010-08-16-1443-32S.COL___111                                                 6
 STAT SP IPHASW D HRMM SECON CODA AMPLIT PERI AZIMU VELO SNR AR TRES W  DIS CAZ7
 BAR2 SZ IP       1446 32.30                             170    -0.310   25 210 
 BAR2 SZ I        1446 48.98        81.0 0.12                            25 210 
 GIR2 SZ EP       1446 33.44                             166     0.710   35 338 
 GIR2 SZ ES   2   1446 49.09                             166     0.7 5   35 338 
 BRR  HZ EP       1446 34.15                                    -0.310   79 297 
 BRR  HN ES       1446 51.53                             151    -0.110   79 297 
 BRR  HZ I        1446 53.59        55.5 0.21                            79 297 
 RUS  HZ EP       1446 36.31                             145    -0.210   99 181 
 RUS  HE ES   1   1446 55.07                             145    -0.1 7   99 181 
 RUS  HZ I        1446 56.30        37.5 0.37                            99 181 
 GUE  SZ EP       1446 38.27                             140     0.710  117   8 
 GRA  SZ EP       1446 38.07                             138     0.110  125  14 
 GRA  SZ ES   1   1446 57.02                             138    -0.9 7  125  14 
 GRA  SZ I        1446 58.77        20.2 0.33                           125  14 
 OCA  SZ EP       1446 41.07                             130    -0.3 9  163 350 
 OCA  SZ I        1447  7.41        25.1 0.33                           163 350 
 CHI  HZ EP       1446 50.55                             118     0.1 8  249 197 
 CHI  HE ES   2   1447 19.97                             118    -0.1 4  249 197 
 CHI  HZ I        1447 29.94        12.0 0.48                           249 197 
 HEL  HZ EP   2   1446 53.92                             115     0.2 4  280 257 
 HEL  HE ES   3   1447 24.31                             115    -1.6 2  280 257 
 HEL  HZ I        1447 32.60        16.2 0.38                           280 257 
 GUY  SZ EP   1   1446 57.45                             112     0.5 5  307 236 
 GUY  SN ES   2   1447 32.07                             112     0.5 4  307 236 
 SDV  BZ EP       1447  1.82                             109    -0.3 6  355  49 
 SDV  BZ I        1447  2.71         4.7 0.21                           355  49 
 PRA  HZ EP   1   1447  5.63                             107    -0.8 4  395 211 
 PRA  HN ES   2   1447 48.40                             107    -0.1 3  395 211 
 PRA  HZ I        1447 54.39        16.4 0.29                           395 211 
                                                                                
