 2014  116 1215 22.8 L   6.835 -73.186143.0  RSN  7 0.4 1.8LRSN                1
 GAP=130        1.00       4.1     4.9  8.2 -0.7106E+01  0.1709E+02 -0.8298E+01E
 Epicentro: ZAPATOCA - SANTANDER                                               3
 ACTION:UPD 14-03-13 09:55 OP:ep   STATUS:               ID:20140116121522 L   I
 OLDACT:DUP 14-01-16 10:29 OP:nd   STATUS:               ID:20140116120820d    3
 2014-01-16-1208-19M.COL___237                                                 6
 STAT SP IPHASW D HRMM SECON CODA AMPLIT PERI AZIMU VELO AIN AR TRES W  DIS CAZ7
 PAM  SZ EP       1215 45.07                             150    0.3610 77.4  44 
 PAM  SN ES       1216  1.86                             150    0.0510 77.4  44 
 PAM  SZ I        1216  4.23         7.8 0.20            157           77.4  44 
 RUS  HZ EP       1215 46.09                             142   -0.4910  105 174 
 RUS  HN ES       1216  4.87                             142   -0.2710  105 174 
 RUS  HZ I        1216  6.18         3.0 0.26            149            105 174 
 PTB  HZ EP       1215 48.86                             132   -0.35 9  144 257 
 PTB  HN ES       1216  9.45                             132   -0.37 9  144 257 
 PTB  HZ I        1216 17.53        11.0 0.38            133            144 257 
 SPBC HZ EP       1215 51.05                             128   -0.06 9  164 217 
 SPBC HN ES       1216 14.18                             128    0.98 9  164 217 
 SPBC HZ I        1216 19.25         9.2 0.12            132            164 217 
 ZAR  HZ EP       1215 53.98                             122   -0.50 9  199 292 
 ZAR  HN ES   2   1216 19.44                             122    0.23 4  199 292 
 ZAR  HZ I        1216 26.64         7.7 0.48            125            199 292 
 NOR  HZ EP       1215 58.59                             118    0.37 8  233 233 
 NOR  HN ES       1216 25.89                             118    0.03 8  233 233 
 NOR  HZ I        1216 31.80         6.8 0.40            122            233 233 
 SML  HZ EP       1215 59.14                             117    0.46 8  238 336 
 SML  HN ES   2   1216 26.63                             117   -0.05 4  238 336 
 SML  HZ I        1216 31.39         9.5 0.10            121            238 336 
                                                                                
