 2017 1116 1221 31.9 L   6.832 -73.261131.6  RSN  4 0.4 1.0LRSN                1
 GAP=152        1.01       5.9     5.4  8.7 -0.9856E+01  0.1388E+02 -0.5553E+01E
 Epicentro: ZAPATOCA - SANTANDER                                               3
 ACTION:UPD 17-12-12 19:56 OP:rebc STATUS:               ID:20171116122131 L   I
 OLDACT:REG 17-11-16 20:45 OP:lv   STATUS:               ID:20171116121742     3
 2017-11-16-1218-00M.COL___444                                                 6
 STAT SP IPHASW D HRMM SECON CODA AMPLIT PERI AZIMU VELO AIN AR TRES W  DIS CAZ7
 BAR2 EZ EP       1221 50.12                             167    0.1510 27.9 162 
 BAR2 EZ ES       1222  3.32                             167   -0.7210 27.9 162 
 BAR2 EZ I        1222  7.37         5.6 0.40            171           27.9 162 
 PAM  EZ EP       1221 53.07                             146    0.0010 83.6  48 
 PAM  EN ES       1222  9.86                             146    0.3010 83.6  48 
 PAM  EZ I        1222 12.82         2.1 0.38            149           83.6  48 
 RUS  HZ EP       1221 54.40                             139   -0.3210  106 169 
 RUS  HN ES       1222 13.01                             139    0.5210  106 169 
 RUS  HZ I        1222 13.99         1.2 0.40            144            106 169 
 PTB  HZ EP       1221 56.43                             131   -0.25 9  136 256 
 PTB  HN ES       1222 16.32                             131    0.33 9  136 256 
 PTB  HZ I        1222 18.93         1.1 0.16            134            136 256 
                                                                                
