 2013  316 1105 44.7 L   6.805 -73.203142.7  RSN  8 0.3 2.0LRSN                1
 GAP=129        0.58       2.9     3.4  5.6 -0.1616E+01  0.8326E+01 -0.3990E+01E
 Epicentro: ZAPATOCA - SANTANDER                                               3
 ACTION:UPD 13-04-09 14:02 OP:ep   STATUS:               ID:20130316110544 L   I
 2013-03-16-1100-00M.COL___244                                                 6
 STAT SP IPHASW D HRMM SECON CODA AMPLIT PERI AZIMU VELO AIN AR TRES W  DIS CAZ7
 BAR2 SZ EP   1   11 6  3.94                             170    0.01 7 23.6 175 
 BAR2 SZ ES   1   11 6 18.86                             170   -0.10 7 23.6 175 
 BAR2 SZ I        11 6 21.97        43.5 0.38            171           23.6 175 
 PAM  SZ EP   1   11 6  6.71                             149   -0.08 7 81.2  43 
 PAM  SN ES   1   11 6 24.14                             149    0.10 7 81.2  43 
 PAM  SZ I        11 6 26.54        10.1 0.74            155           81.2  43 
 RUS  HZ EP   2   11 6  7.91                             143   -0.29 5  102 173 
 RUS  HN ES   1   11 6 26.73                             143    0.18 7  102 173 
 RUS  HZ I        11 6 29.21         8.9 0.48            149            102 173 
 PTB  HZ EP   1   11 6 10.31                             133   -0.52 7  142 258 
 PTB  HN ES   1   11 6 31.19                             133   -0.05 7  142 258 
 PTB  HZ I        11 6 35.36        15.7 0.14            134            142 258 
 OCA  HZ EP   1   11 6 12.20                             129   -0.43 7  159 355 
 OCA  HN ES   1   11 6 34.79                             129    0.35 7  159 355 
 OCA  HZ I        11 6 39.38         8.9 0.14            132            159 355 
 ZAR  HZ EP   1   11 6 16.77                             123    0.48 6  198 293 
 ZAR  HN ES   1   11 6 40.79                             123   -0.17 6  198 293 
 ZAR  HZ I        11 6 49.41        11.1 0.40            124            198 293 
 SML  HE ES   2   11 6 48.73                             117   -0.24 4  241 337 
 HEL  HZ EP   1   11 6 24.79                             115    0.73 6  266 255 
 HEL  HN ES   2   11 6 54.80                             115    0.01 4  266 255 
 HEL  HZ I        11 7  2.13         5.1 0.24            117            266 255 
                                                                                
