 2011 1216 1649 23.3 L   6.803 -73.186137.7  RSN  4 0.1 1.6LRSN                1
 GAP=131        0.30       3.7     6.0  7.1  0.6365E+01 -0.1613E+02 -0.2666E+01E
 Epicentro: LOS SANTOS - SANTANDER                                             3
 ACTION:UPD 12-07-13 16:16 OP:ep   STATUS:               ID:20111216164923 L   I
 2011-12-16-1647-59S.COL___186                                                 6
 STAT SP IPHASW D HRMM SECON CODA AMPLIT PERI AZIMU VELO AIN AR TRES W  DIS CAZ7
 BAR2 SZ EP   2   1649 41.81                             170   -0.11 5 23.4 179 
 BRR  HZ EP   2   1649 43.45                             152    0.15 5 67.1 300 
 BRR  HN ES   2   1649 58.86                             152   -0.07 5 67.1 300 
 PAM  SZ EP   2   1649 44.87                             148    0.08 5 80.0  42 
 PAM  SN ES   3   1650  1.50                             148   -0.08 2 80.0  42 
 RUS  HZ EP   2   1649 46.14                             142   -0.14 5  101 174 
 RUS  HN ES   2   1650  4.35                             142    0.11 5  101 174 
 RUS  HZ I        1650  5.72         6.8 0.31                           101 174 
                                                                                
