 2015  916 1007 38.7 L   6.796 -73.166144.4  RSN 11 0.5 2.1LRSN                1
 GAP=134        1.08       3.0     4.4  5.6 -0.1300E+01  0.6190E+01 -0.1532E+01E
 Epicentro: LOS SANTOS - SANTANDER                                             3
 ACTION:UPD 15-10-28 16:26 OP:cam  STATUS:               ID:20150916100738 L   I
 OLDACT:REG 15-09-16 22:10 OP:drio STATUS:               ID:20150916095744     3
 2015-09-16-0957-44M.COL___349                                                 6
 STAT SP IPHASW D HRMM SECON CODA AMPLIT PERI AZIMU VELO AIN AR TRES W  DIS CAZ7
 BAR2 EZ EP       10 7 58.39                             171    0.2110 22.6 184 
 BAR2 EZ ES       10 8 12.84                             171   -0.5110 22.6 184 
 BAR2 EZ I        10 8 14.60        18.0 0.28            170           22.6 184 
 BRR  HZ EP       10 8  0.25                             153    0.6210 69.4 300 
 BRR  HE ES       10 8 16.27                             153    0.3410 69.4 300 
 BRR  HZ I        10 8 21.15        23.9 0.48            150           69.4 300 
 PAM  EZ EP       10 8  1.32                             150    0.4110 79.2  41 
 PAM  EN ES       10 8 18.47                             150    0.2610 79.2  41 
 PAM  EZ I        10 8 20.54        30.1 0.48            154           79.2  41 
 RUS  HZ EP       10 8  2.45                             144    0.1210  100 175 
 RUS  HN ES       10 8 20.40                             144   -0.3410  100 175 
 RUS  HZ I        10 8 22.29        11.1 0.30            147            100 175 
 PTB  HZ EP       10 8  5.12                             132   -0.26 9  145 259 
 PTB  HN ES       10 8 25.98                             132   -0.18 9  145 259 
 PTB  HZ I        10 8 33.36         6.1 0.40            132            145 259 
 OCA  HZ EP       10 8  6.63                             129   -0.32 9  160 354 
 OCA  HN ES       10 8 28.29                             129   -0.67 9  160 354 
 OCA  HZ I        10 8 33.02        21.8 0.40            131            160 354 
 SPBC HZ EP       10 8  6.96                             129    0.00 9  161 218 
 SPBC HE ES       10 8 29.10                             129    0.12 9  161 218 
 SPBC HZ I        10 8 32.63        13.6 0.10            130            161 218 
 ZAR  HZ EP       10 8 11.43                             122    0.55 9  202 292 
 ZAR  HE ES       10 8 35.96                             122   -0.00 9  202 292 
 ZAR  HZ I        10 8 42.46        10.3 0.28            123            202 292 
 SML  HZ EP       10 8 14.84                             117   -0.38 8  243 336 
 SML  HN ES       10 8 44.19                             117    0.52 8  243 336 
 SML  HZ I        10 8 50.50        14.5 0.10            119            243 336 
 PRA  HZ EP       10 8 32.49                             106    0.46 6  391 209 
 PRA  HN ES       10 9 13.30                             106   -0.31 6  391 209 
 PRA  HZ I        10 9 19.40         3.8 0.50            108            391 209 
 SJC  HZ IP       10 8 32.42                             105   -1.72 6  408 327 
 SJC  HZ EP   4   10 8 32.42                             105   -1.72 0  408 327 
 SJC  HE ES   4   10 9 11.02                             105   -6.34 0  408 327 
                                                                                
