 2012  316 1405 34.8 L   6.677 -73.250135.9  RSN  5 0.3 1.6LRSN                1
 GAP=188        0.74       6.9     6.5  7.2  0.2730E+02  0.1107E+02 -0.9157E-01E
 ACTION:UP  12-03-31 23:20 OP:EP   STATUS:               ID:20120316140534 L   I
 2012-03-16-1400-00M.COL___202                                                 6
 STAT SP IPHASW D HRMM SECON CODA AMPLIT PERI AZIMU VELO SNR AR TRES W  DIS CAZ7
 BAR2 SZ EP   1   14 5 52.94                             175    -0.1 7   12 141 
 BAR2 SZ ES   1   14 6  7.04                             175    -0.3 7   12 141 
 BAR2 SZ I        14 6  9.29        14.4 0.22                            12 141 
 BRR  HZ EP   1   14 5 54.78                             151    -0.1 7   70 313 
 BRR  HZ I        14 5 58.71        10.5 0.14                            70 313 
 BRR  HN ES   1   14 6 11.00                             151     0.6 7   70 313 
 RUS  HZ EP   1   14 5 57.06                             145     0.3 7   89 168 
 RUS  HZ I        14 5 58.33         5.5 0.15                            89 168 
 RUS  HN ES   1   14 6 13.69                             145    -0.2 7   89 168 
 PTB  HZ EP   1   14 6  0.08                             133     0.3 7  134 264 
 PTB  HN ES   1   14 6 19.25                             133     0.0 7  134 264 
 PTB  HZ I        14 6 24.28         3.9 0.15                           134 264 
 ZAR  HZ EP   1   14 6  5.89                             121    -0.2 6  199 297 
 ZAR  HN ES   1   14 6 30.07                             121    -0.5 6  199 297 
 ZAR  HZ I        14 6 36.61         3.7 0.21                           199 297 
                                                                                
