 2017  816 1026 34.2 L   6.686 -73.311123.5  RSN  4 0.1 0.9LRSN                1
 GAP=170        0.34       3.7     4.2  3.0  0.1355E+02  0.6168E+01  0.4045E+01E
 Epicentro: GALAN - SANTANDER                                                  3
 ACTION:UPD 17-09-04 20:21 OP:rebc STATUS:               ID:20170816102634 L   I
 OLDACT:DUP 17-08-16 20:54 OP:lv   STATUS:               ID:20170816101742d    3
 2017-08-16-1018-00M.COL___413                                                 6
 STAT SP IPHASW D HRMM SECON CODA AMPLIT PERI AZIMU VELO AIN AR TRES W  DIS CAZ7
 BAR2 EZ EP       1026 51.08                             171   -0.0110 17.6 126 
 BAR2 EZ ES       1027  4.31                             171    0.0810 17.6 126 
 BAR2 EZ I        1027  4.81         2.0 0.26            173           17.6 126 
 BRR  HE ES       1027  6.86                             151   -0.0810 64.3 316 
 RUS  HZ EP       1026 55.25                             141    0.0910 91.3 164 
 RUS  HN ES       1027 11.38                             141   -0.0810 91.3 164 
 RUS  HZ I        1027 11.70         1.2 0.30            142           91.3 164 
 ZAR  HZ EP       1027  4.03                             119   -0.11 9  193 298 
 ZAR  HN ES       1027 27.55                             119    0.10 9  193 298 
 ZAR  HZ I        1027 30.01         1.5 0.27            118            193 298 
                                                                                
