 2011  516 1727 21.5 L   6.816 -73.100139.1  RSN  5 0.1 1.6LRSN                1
 GAP=164        0.38       4.2     7.2  5.6  0.1024E+02 -0.1689E+02 -0.1198E+02E
 Epicentro: LOS SANTOS - SANTANDER                                             3
 ACTION:UP  11-06-29 08:53 OP:tino STATUS:               ID:20110516172721 L   I
 2011-05-16-1723-50S.COL___141                                                 6
 STAT SP IPHASW D HRMM SECON CODA AMPLIT PERI AZIMU VELO SNR AR TRES W  DIS CAZ7
 BTL  SZ EP   1   1727 40.65                             171     0.3 7   22 301 
 BAR2 SZ EP       1727 40.38                             169    -0.110   26 200 
 BAR2 SZ ES   1   1727 55.15                             169     0.0 7   26 200 
 BAR2 SZ I        1727 57.24         9.0 0.48                            26 200 
 BRR  HZ EP   1   1727 42.12                             150    -0.1 7   75 295 
 BRR  HZ I        1727 42.57        17.5 0.17                            75 295 
 BRR  HN ES   2   1727 58.28                             150     0.0 5   75 295 
 RUS  HZ EP   2   1727 44.74                             142     0.0 5  102 179 
 RUS  HE ES   2   1728  2.87                             142     0.0 5  102 179 
 RUS  HZ I        1728  4.25         2.8 0.30                           102 179 
 GRA  SZ EP   1   1727 45.86                             136    -0.1 7  123  15 
 GRA  SZ I        1727 47.64         5.0 0.30                           123  15 
                                                                                
