 2011  616 1603 11.3 L   6.822 -73.310123.8  RSN  4 0.2 2.2LRSN                1
 GAP=139        0.48       4.1     7.7  5.8  0.1836E+02 -0.1998E+02 -0.9108E+01E
 Epicentro: ZAPATOCA - SANTANDER                                               3
 ACTION:UP  11-07-14 19:05 OP:ep   STATUS:               ID:20110616160311 L   I
 2011-06-16-1601-35S.COL___138                                                 6
 STAT SP IPHASW D HRMM SECON CODA AMPLIT PERI AZIMU VELO SNR AR TRES W  DIS CAZ7
 BAR2 SZ EP   1   16 3 28.44                             166    -0.1 7   29 151 
 BAR2 SZ ES   1   16 3 42.04                             166     0.2 7   29 151 
 BAR2 SZ I        16 3 43.14        81.5 0.40                            29 151 
 BRR  HZ EP   1   16 3 29.10                             155    -0.1 7   54 305 
 BRR  HE ES   1   16 3 43.13                             155     0.0 7   54 305 
 BRR  HZ I        16 3 43.91        43.0 0.20                            54 305 
 RUS  HZ EP   1   16 3 33.75                             137     0.3 7  106 166 
 RUS  HN ES   1   16 3 50.40                             137    -0.3 7  106 166 
 GRA  SZ EP   1   16 3 35.05                             130    -0.1 7  130  25 
 GRA  SZ I        16 3 36.83        13.1 0.27                           130  25 
                                                                                
