 2011  516 1250  9.7 L   6.733 -73.502111.5  RSN  9 0.2 2.0LRSN                1
 GAP= 76        0.47       2.2     3.2  3.7 -0.1143E+01  0.2706E+01 -0.1272E+00E
 Epicentro: EL CARMEN DE CHUCURI - SANTANDER                                   3
 ACTION:UP  11-06-29 08:53 OP:tino STATUS:               ID:20110516125009 L   I
 2011-05-16-1246-20S.COL___146                                                 6
 STAT SP IPHASW D HRMM SECON CODA AMPLIT PERI AZIMU VELO SNR AR TRES W  DIS CAZ7
 BTL  SZ IP       1250 25.74                             162     0.210   33  52 
 BAR2 SZ IP       1250 26.00                             160     0.210   39 114 
 BAR2 SZ ES   1   1250 38.35                             160     0.0 7   39 114 
 BAR2 SZ I        1250 39.84        49.2 0.21                            39 114 
 BRR  HZ EP   1   1250 25.77                             155    -0.1 7   47 331 
 BRR  HN ES   1   1250 38.44                             155     0.0 7   47 331 
 BRR  HZ I        1250 40.19        58.6 0.15                            47 331 
 RUS  HZ EP       1250 30.58                             134     0.010  104 153 
 RUS  HE ES   1   1250 46.56                             134    -0.3 7  104 153 
 RUS  HZ I        1250 47.68        36.7 0.38                           104 153 
 PAM  SZ EP   1   1250 31.34                             132     0.1 7  111  53 
 PAM  SE ES   2   1250 47.81                             132    -0.2 5  111  53 
 PAM  SZ I        1250 53.00         7.0 0.43                           111  53 
 BRI  SZ EP   1   1250 32.98                             126     0.0 7  134  36 
 GRA  SZ EP   1   1250 34.53                             123     0.1 7  149  31 
 GRA  SZ ES   1   1250 53.34                             123    -0.4 7  149  31 
 GRA  SZ I        1250 55.71        20.3 0.21                           149  31 
 HEL  HZ EP   1   1250 43.66                             111    -0.2 6  232 255 
 HEL  HZ I        1251 19.55         7.1 0.57                           232 255 
 RREF HZ EP   1   1250 50.45                             106    -0.2 5  288 225 
 RREF HZ I        1251 28.61         4.0 0.36                           288 225 
                                                                                
