 2010 1216 1720  3.6 L   6.736 -73.129141.1  RSN  6 0.2 1.7LRSN                1
 GAP=161        0.50       3.9     8.2  6.2 -0.1886E+02  0.9260E+01 -0.5074E+01E
 Epicentro: JORDAN - SANTANDER                                                 3
 ACTION:UP  11-01-14 15:25 OP:pat  STATUS:               ID:20101216172003 L   I
 2010-12-16-1717-06S.COL___137                                                 6
 STAT SP IPHASW D HRMM SECON CODA AMPLIT PERI AZIMU VELO SNR AR TRES W  DIS CAZ7
 BAR2 SZ EP   1   1720 22.44                             173    -0.1 7   17 201 
 BAR2 SZ ES   1   1720 37.27                             173    -0.1 7   17 201 
 BAR2 SZ I        1720 38.93        19.3 0.30                            17 201 
 BTL  SZ EP       1720 22.95                             169     0.210   25 323 
 GIR2 SZ EP   1   1720 22.54                             164    -0.4 7   39 349 
 RUS  HZ EP   1   1720 26.40                             145     0.0 7   93 177 
 RUS  HN ES   2   1720 44.41                             145     0.2 5   93 177 
 RUS  HZ I        1720 45.85         6.0 0.26                            93 177 
 GRA  SZ EP   1   1720 29.09                             134     0.1 7  132  16 
 GRA  SZ I        1720 30.65         7.7 0.33                           132  16 
 GRA  SZ ES   1   1720 48.89                             134     0.1 7  132  16 
 NOR  SN ES   2   1721  6.40                             118     0.1 4  232 236 
                                                                                
