 2014  316 1406 29.6 L   6.189 -73.668 97.9  RSN  5 0.4 1.2LRSN                1
 GAP=159        0.88       4.9     4.1  9.9  0.3725E+01  0.1517E+02 -0.1332E+01E
 Epicentro: LA PAZ - SANTANDER                                                 3
 ACTION:UPD 14-04-09 23:17 OP:nd   STATUS:               ID:20140316140629 L   I
 OLDACT:REG 14-03-16 15:51 OP:mh   STATUS:               ID:20140316135816     3
 2014-03-16-1358-16M.COL___257                                                 6
 STAT SP IPHASW D HRMM SECON CODA AMPLIT PERI AZIMU VELO AIN AR TRES W  DIS CAZ7
 RUS  HZ EP       14 6 46.65                             141    0.0510 72.6 117 
 RUS  HN ES   1   14 6 59.98                             141    0.09 7 72.6 117 
 RUS  HZ I        14 7  4.27         1.1 0.33            149           72.6 117 
 PTB  HZ EP       14 6 47.32                             132   -0.5510 95.4 294 
 PTB  HN ES   1   14 7  2.43                             132    0.28 7 95.4 294 
 PTB  HZ I        14 7  5.34         5.4 0.16            139           95.4 294 
 NOR  HZ EP   1   14 6 52.79                             119   -0.62 7  150 243 
 NOR  HN ES   1   14 7 11.71                             119   -0.30 7  150 243 
 NOR  HZ I        14 7 14.55         3.6 0.47            126            150 243 
 ZAR  HZ EP       14 6 58.34                             112   -0.05 9  195 318 
 ZAR  HN ES   1   14 7 21.29                             112    0.42 6  195 318 
 ZAR  HZ I        14 7 23.47         5.1 0.26            118            195 318 
 GUY2CHZ EP       14 7  2.12                             110    0.73 8  216 240 
 GUY2CHN ES   1   14 7 26.45                             110    0.23 6  216 240 
 GUY2CHZ I        14 7 33.96         1.5 0.25                           216 240 
                                                                                
