 2016  716 1516 36.7 L   6.831 -73.143140.4  RSN 12 0.4 2.0LRSN                1
 GAP=135        0.91       3.6     3.8  5.6 -0.2427E+01  0.5831E+01  0.5368E+01E
 Epicentro: LOS SANTOS - SANTANDER                                             3
 ACTION:UPD 17-03-29 16:51 OP:lp   STATUS:               ID:20160716151636 L   I
 OLDACT:UP  16-07-16 22:28 OP:dani STATUS:               ID:20160716150759     3
 OLDACT:UP  16-07-16 22:27 OP:dani STATUS:               ID:20160716150759     3
 OLDACT:REG 16-07-16 20:19 OP:dani STATUS:               ID:20160716150759     3
 2016-07-16-1507-59S.COL___322                                                 6
 STAT SP IPHASW D HRMM SECON CODA AMPLIT PERI AZIMU VELO AIN AR TRES W  DIS CAZ7
 BAR2 EZ IP     D 1516 55.66                             169   -0.1610 26.8 189 
 BAR2 EZ ES       1517 10.12                             169   -0.5710 26.8 189 
 BAR2 EZ I        1517 14.28        12.3 0.30            168           26.8 189 
 PAM  EZ IP     C 1516 58.50                             151    0.2710 74.5  41 
 PAM  EN ES       1517 15.37                             151    0.3910 74.5  41 
 PAM  EZ I        1517 17.34        13.5 0.48            144           74.5  41 
 RUS  HZ EP       1516 59.78                             142   -0.4610  104 176 
 RUS  HN IS       1517 18.98                             142    0.4210  104 176 
 RUS  HN ES       1517 18.98                             142            104 176 
 PTB  HZ EP   4   1517  2.41                             131   -0.97 0  149 258 
 PTB  HN ES       1517 24.14                             131   -0.01 9  149 258 
 PTB  HZ I        1517 29.06        10.5 0.28            122            149 258 
 SPBC HZ EP       1517  4.76                             127   -0.36 9  166 218 
 SPBC HE ES       1517 27.20                             127   -0.06 9  166 218 
 SPBC HZ I        1517 34.71        14.7 0.26            121            166 218 
 ZAR  HZ EP   4   1517 10.01                             121    1.26 0  203 291 
 ZAR  HE ES       1517 33.71                             121    0.00 9  203 291 
 ZAR  HZ I        1517 39.33         9.6 0.16            113            203 291 
 NOR  HZ EP       1517 12.50                             117    0.08 8  237 234 
 NOR  HE ES       1517 40.52                             117    0.27 8  237 234 
 NOR  HZ I        1517 46.08         7.1 0.30            111            237 234 
 CHI  HZ EP       1517 14.14                             116   -0.39 8  252 195 
 CHI  HE ES       1517 44.17                             116    0.16 8  252 195 
 CHI  HZ I        1517 51.61         3.6 0.34            111            252 195 
 URE  HZ EP   4   1517 15.72                             113   -1.73 0  283 291 
 URE  HZ I        1517 55.50         6.5 0.34            106            283 291 
 GUY2CHZ EP   4   1517 21.50                             111    1.13 0  303 234 
 GUY2CHN ES   4   1517 57.31                             111    2.91 0  303 234 
 GUY2CHZ I        1518  4.15         4.8 0.34                           303 234 
 PRA  HZ EP       1517 29.86                             105   -0.60 6  395 209 
 PRA  HE ES       1518 13.35                             105    0.99 6  395 209 
 PRA  HZ I        1518 14.73         3.7 0.26            101            395 209 
 ORTC HZ EP       1517 31.55                             105    0.71 6  398 216 
                                                                                
