 2017  916 1851  3.3 L   6.785 -73.135138.0  RSN  5 0.3 1.6LRSN                1
 GAP=139        0.68       3.6     5.3  5.6 -0.2040E+01 -0.3157E+01  0.2701E+01E
 Epicentro: LOS SANTOS - SANTANDER                                             3
 ACTION:UPD 17-10-05 19:13 OP:rebc STATUS:               ID:20170916185103 L   I
 OLDACT:UP  17-09-17 00:04 OP:dnl  STATUS:               ID:20170916184742     3
 OLDACT:REG 17-09-16 21:31 OP:dnl  STATUS:               ID:20170916184742     3
 2017-09-16-1848-00M.COL___409                                                 6
 STAT SP IPHASW D HRMM SECON CODA AMPLIT PERI AZIMU VELO AIN AR TRES W  DIS CAZ7
 BAR2 EZ EP       1851 21.68                             170   -0.2910 22.0 194 
 BAR2 EZ ES       1851 36.67                             170    0.1410 22.0 194 
 BAR2 EZ I        1851 37.76         9.8 0.38            171           22.0 194 
 BRR  HZ EP   2   1851 23.44                             150   -0.28 5 73.0 299 
 BRR  HE ES       1851 39.54                             150   -0.1110 73.0 299 
 BRR  HZ I        1851 44.87         8.7 0.32            150           73.0 299 
 PAM  EZ EP       1851 24.72                             149   -0.0110 77.9  38 
 PAM  EE ES       1851 41.68                             149    0.2410 77.9  38 
 PAM  EZ I        1851 43.85         8.0 0.58            152           77.9  38 
 RUS  HZ EP       1851 25.88                             143   -0.2910 98.9 177 
 RUS  HE ES       1851 44.22                             143    0.2110 98.9 177 
 RUS  HZ I        1851 45.93         3.8 0.44            146           98.9 177 
 GUY2CHZ EP   2   1851 47.87                             111    1.30 4  301 235 
 GUY2CHE ES   4   1852 24.42                             111    4.11 0  301 235 
 GUY2CHZ I        1852 27.88         1.9 0.36                           301 235 
                                                                                
