 2015  416 1454  5.5 L   6.794 -73.131148.7  RSN 19 0.4 3.2LRSN                1
 GAP=139        0.86       2.3     3.2  4.2 -0.9480E+00  0.3881E+01  0.5767E+00E
 Epicentro: LOS SANTOS - SANTANDER                                             3
 ACTION:UPD 15-06-03 16:55 OP:cam  STATUS:               ID:20150416145405 L   I
 OLDACT:UP  15-04-17 05:39 OP:mh   STATUS:               ID:20150416144750     3
 OLDACT:UP  15-04-17 05:39 OP:mh   STATUS:               ID:20150416144750     3
 OLDACT:UP  15-04-17 05:38 OP:mh   STATUS:               ID:20150416144750     3
 OLDACT:UP  15-04-17 05:37 OP:mh   STATUS:               ID:20150416144750     3
 OLDACT:REG 15-04-16 21:41 OP:spq  STATUS:               ID:20150416144750     3
 2015-04-16-1447-50M.COL___266                                                 6
 STAT SP IPHASW D HRMM SECON CODA AMPLIT PERI AZIMU VELO AIN AR TRES W  DIS CAZ7
 BAR2 EZ EP       1454 25.73                             171    0.2110 23.1 194 
 BAR2 EZ ES       1454 40.80                             171   -0.3010 23.1 194 
 BAR2 EZ I        1454 42.27       220.3 0.44            169           23.1 194 
 BRR  HZ IP     C 1454 27.59                             152    0.4810 72.9 298 
 BRR  HN ES       1454 44.68                             152    0.7610 72.9 298 
 BRR  HZ I        1454 46.86       138.6 0.12            150           72.9 298 
 PAM  SZ EP       1454 28.50                             151    0.4610 76.8  38 
 PAM  SN ES   1   1454 45.70                             151    0.11 7 76.8  38 
 PAM  SZ I        1454 47.67       190.8 0.44            150           76.8  38 
 RUS  HZ EP     D 1454 29.51                             145   -0.0210 99.9 177 
 RUS  HN ES       1454 48.05                             145   -0.2010 99.9 177 
 RUS  HZ I        1454 50.01        86.4 0.40            141           99.9 177 
 PTB  HZ EP       1454 32.21                             132   -0.67 9  149 259 
 PTB  HN ES       1454 53.75                             132   -0.46 9  149 259 
 PTB  HZ I        1455  0.93       324.1 0.40            129            149 259 
 OCA  HZ EP       1454 34.00                             130   -0.16 9  161 353 
 OCA  HN ES       1454 56.12                             130   -0.36 9  161 353 
 OCA  HZ I        1455  1.42       394.1 0.26            127            161 353 
 SPBC HZ EP       1454 34.60                             130    0.28 9  164 220 
 SPBC HN ES       1454 56.68                             130   -0.09 9  164 220 
 SPBC HZ I        1455  3.60       257.4 0.22            126            164 220 
 ZAR  HZ EP   1   1454 38.10                             123   -0.26 6  206 292 
 ZAR  HN ES   1   1455  4.39                             123    0.44 6  206 292 
 ZAR  HZ I        1455 10.21       180.8 0.46            119            206 292 
 NOR  HZ EP       1454 41.53                             119   -0.02 8  236 235 
 NOR  HN ES   1   1455  8.93                             119   -0.70 6  236 235 
 NOR  HZ I        1455 14.74        91.2 0.36            116            236 235 
 SML  HZ EP       1454 42.09                             118   -0.38 8  245 335 
 SML  HN ES   1   1455 10.42                             118   -0.85 6  245 335 
 SML  HZ I        1455 21.94       189.5 0.24            115            245 335 
 HEL  HZ EP   1   1454 46.85                             115    0.79 6  273 256 
 HEL  HN ES   1   1455 17.72                             115    0.05 6  273 256 
 HEL  HZ I        1455 23.87        66.0 0.34            112            273 256 
 URE  HZ EP   4   1454 45.16                             114   -1.79 0  286 292 
 URE  HN ES   4   1455 18.36                             114   -0.89 0  286 292 
 URE  HZ I        1455 26.56        84.6 0.18            111            286 292 
 GUY2CHZ EP   1   1454 49.37                             113   -0.03 5  302 235 
 GUY2CHN ES   4   1455 25.80                             113    2.20 0  302 235 
 GUY2CHZ I        1455 30.59        93.9 0.32                           302 235 
 VIL  SZ EP       1454 48.86                             113   -0.21 7  303 192 
 VIL  SN ES       1455 22.97                             113   -0.04 7  303 192 
 VIL  SZ I        1455 30.97        54.1 0.34            110            303 192 
 PTGC HZ EP   4   1454 48.44                             112   -0.96 0  308 159 
 PTGC HZ I        1455 21.10        43.7 0.13            109            308 159 
 PTGC HN ES   4   1455 21.22                             112   -2.39 0  308 159 
 RREF HN ES   4   1455 30.04                             111    1.97 0  323 230 
 CBOC HZ EP       1454 53.22                             110    0.48 7  335 252 
 CBOC HN ES       1455 29.73                             110    0.18 7  335 252 
 CBOC HZ I        1455 41.16        35.1 0.54            107            335 252 
 DBB  SZ EP       1454 53.10                             110   -0.23 7  341 274 
 DBB  SZ ES       1455 30.91                             110    0.31 7  341 274 
 MON  HZ EP   4   1454 52.78                             109   -2.07 0  355 308 
 MON  HN ES   4   1455 31.03                             109   -2.28 0  355 308 
 ORTC HZ EP       1454 59.70                             107    0.08 6  396 216 
 ORTC HN ES       1455 41.96                             107    0.16 6  396 216 
 ORTC HZ I        1455 49.21        40.2 0.50            104            396 216 
 SJC  HZ EP   4   1454 59.33                             106   -2.04 0  411 327 
 SJC  HN ES   4   1455 40.38                             106   -4.53 0  411 327 
 SJC  HZ I        1455 45.61        36.8 0.34            104            411 327 
 CAP2 HZ EP   4   1455  9.13                             102   -3.86 0  509 294 
 CAP2 HE ES   4   1456  0.46                             102   -5.13 0  509 294 
                                                                                
