 2012  316 1222 15.1 L   6.770 -73.135149.3  RSN  8 0.4 1.9LRSN                1
 GAP=139        0.99       5.1     5.5  8.3  0.4736E+00  0.1054E+02  0.6118E+01E
 ACTION:UP  12-03-31 23:20 OP:EP   STATUS:               ID:20120316122215 L   I
 2012-03-16-1220-00M.COL___201                                                 6
 STAT SP IPHASW D HRMM SECON CODA AMPLIT PERI AZIMU VELO SNR AR TRES W  DIS CAZ7
 BAR2 SZ EP   1   1222 35.35                             172     0.3 7   20 195 
 BAR2 SZ ES   1   1222 50.49                             172    -0.2 7   20 195 
 BAR2 SZ I        1222 52.15        29.8 0.24                            20 195 
 BRR  HZ EP   1   1222 37.26                             152     0.5 7   74 300 
 BRR  HZ I        1222 37.52        45.3 0.14                            74 300 
 BRR  HN ES       1222 54.12                             152     0.510   74 300 
 PAM  SZ EP   1   1222 37.35                             151    -0.4 7   79  37 
 PAM  SN ES   1   1222 54.85                             151    -0.6 7   79  37 
 PAM  SZ I        1222 58.00         6.0 0.27                            79  37 
 RUS  HZ EP   1   1222 39.23                             145     0.3 7   97 177 
 RUS  HN ES   1   1222 57.89                             145     0.4 7   97 177 
 RUS  HZ I        1222 59.22         6.2 0.25                            97 177 
 PTB  HZ EP   1   1222 42.07                             133    -0.3 7  148 260 
 PTB  HE ES   1   1223  3.03                             133    -0.6 7  148 260 
 PTB  HZ I        1223  7.69         5.6 0.20                           148 260 
 ZAR  HZ EP   1   1222 48.34                             123     0.4 6  206 293 
 ZAR  HN ES   1   1223 13.34                             123    -0.3 6  206 293 
 ZAR  HZ I        1223 15.37         6.3 0.11                           206 293 
 NOR  SN ES   1   1223 18.73                             119    -0.1 6  234 235 
 CHI  HN ES   1   1223 21.44                             118    -0.5 6  246 196 
                                                                                
