 2017 1116 1929 39.0 L   6.793 -73.165142.6  RSN  6 0.3 1.5LRSN                1
 GAP=242        0.87       4.9     5.1  6.5  0.1045E+02  0.7229E+01  0.3910E+01E
 Epicentro: LOS SANTOS - SANTANDER                                             3
 ACTION:UPD 17-12-12 19:56 OP:rebc STATUS:               ID:20171116192939 L   I
 OLDACT:REG 17-11-16 21:24 OP:lv   STATUS:               ID:20171116192738     3
 2017-11-16-1928-00M.COL___468                                                 6
 STAT SP IPHASW D HRMM SECON CODA AMPLIT PERI AZIMU VELO AIN AR TRES W  DIS CAZ7
 BAR2 EZ EP       1929 58.44                             171    0.1710 22.3 185 
 BAR2 EZ ES       1930 13.57                             171    0.3010 22.3 185 
 BAR2 EZ I        1930 14.96        15.4 0.22            164           22.3 185 
 RUS  HZ EP       1930  2.34                             143   -0.1010100.0 175 
 RUS  HN ES       1930 20.13                             143   -0.5610100.0 175 
 RUS  HZ I        1930 22.68         2.4 0.24            141          100.0 175 
 PTB  HZ EP       1930  5.38                             132   -0.17 9  146 259 
 PTB  HN ES       1930 26.19                             132   -0.03 9  146 259 
 PTB  HZ I        1930 32.10         2.6 0.42            130            146 259 
 SPBC HZ EP       1930  7.37                             129    0.25 9  161 219 
 SPBC HN ES       1930 29.62                             129    0.61 9  161 219 
 SPBC HZ I        1930 34.51         7.0 0.14            127            161 219 
 ZAR  HE ES       1930 35.76                             122   -0.36 9  202 293 
 CHI  HZ EP       1930 16.75                             117    0.32 8  247 195 
 CHI  HN ES       1930 45.13                             117   -0.46 8  247 195 
 CHI  HZ I        1930 51.56         1.6 0.54            117            247 195 
                                                                                
