 2015  616 1052  6.9 L   6.816 -73.165142.6  RSN 21 0.6 2.5LRSN                1
 GAP=118        1.39       2.9     4.6  5.9 -0.4037E+01  0.7448E+01  0.8291E+00E
 Epicentro: LOS SANTOS - SANTANDER                                             3
 ACTION:UPD 15-09-10 22:13 OP:cam  STATUS:               ID:20150616105206 L   I
 OLDACT:REG 15-06-16 21:11 OP:stll STATUS:               ID:20150616104750     3
 2015-06-16-1047-50M.COL___306                                                 6
 STAT SP IPHASW D HRMM SECON CODA AMPLIT PERI AZIMU VELO AIN AR TRES W  DIS CAZ7
 BAR2 EZ IP     D 1052 26.30                             170    0.1010 24.8 184 
 BAR2 EZ ES       1052 41.27                             170    0.0310 24.8 184 
 BAR2 EZ I        1052 42.51        66.8 0.22            168           24.8 184 
 BRR  HZ IP     D 1052 28.14                             153    0.5710 68.5 298 
 BRR  HN ES       1052 44.40                             153    0.7210 68.5 298 
 BRR  HZ I        1052 48.26        52.2 0.30            151           68.5 298 
 PAM  SZ EP     D 1052 29.33                             150    0.5310 77.4  42 
 PAM  SZ I        1052 29.42        57.8 0.16            155           77.4  42 
 PAM  SN ES       1052 45.97                             150    0.1110 77.4  42 
 RUS  HZ EP       1052 30.09                             142   -0.4110  103 175 
 RUS  HN ES       1052 48.53                             142   -0.3610  103 175 
 RUS  HZ I        1052 50.51        30.1 0.44            144            103 175 
 OCA  HZ EP       1052 34.61                             129   -0.18 9  158 354 
 OCA  HN ES       1052 56.26                             129   -0.28 9  158 354 
 OCA  HZ I        1053  4.77        75.6 0.22            131            158 354 
 ZAR  HZ EP       1052 38.64                             122   -0.24 9  201 292 
 ZAR  HN ES       1053  3.37                             122   -0.45 9  201 292 
 ZAR  HZ I        1053  9.44        35.3 0.36            122            201 292 
 NOR  HZ IP     D 1052 42.47                             118    0.08 8  234 234 
 NOR  HN ES       1053  9.72                             118   -0.34 8  234 234 
 NOR  HZ I        1053 15.71        23.8 0.18            118            234 234 
 SML  HZ EP       1052 42.34                             117   -0.75 8  241 336 
 SML  HE ES       1053  9.86                             117   -1.45 8  241 336 
 CHI  HZ EP       1052 44.66                             116    0.09 8  250 195 
 CHI  HN ES       1053 13.25                             116   -0.69 8  250 195 
 CHI  HZ I        1053 19.05        22.8 0.28            118            250 195 
 ROSC BZ EP       1052 45.34                             116    0.43 8  253 210 
 ROSC BN ES       1053 14.77                             116    0.22 8  253 210 
 ROSC BZ I        1053 20.61        54.1 0.45            117            253 210 
 HEL  HZ EP       1052 48.19                             114    1.40 8  270 255 
 HEL  HN ES       1053 18.58                             114    0.69 8  270 255 
 HEL  HZ I        1053 24.26        20.9 0.30            115            270 255 
 GUY2CHZ EP       1052 50.49                             112    0.19 7  300 234 
 GUY2CHE ES       1053 24.27                             112    0.13 7  300 234 
 GUY2CHZ I        1053 32.59        19.6 0.56                           300 234 
 SOCV BZ EP       1052 49.16                             111   -0.75 7  302  57 
 SOCV BN ES   4   1053 21.17                             111   -2.28 0  302  57 
 LL2C HZ EP       1052 50.85                             111    0.72 7  304 354 
 LL2C HN ES       1053 23.76                             111   -0.08 7  304 354 
 LL1C HZ EP       1052 50.92                             111    0.78 7  305 352 
 PTGC HZ EP   4 C 1052 49.58                             111   -1.33 0  311 158 
 PTGC HE ES   4   1053 22.33                             111   -2.89 0  311 158 
 RREF HZ EP       1052 53.20                             110    0.33 7  321 229 
 RREF HN ES       1053 28.90                             110    0.18 7  321 229 
 RREF HZ I        1053 38.10         9.7 0.44            111            321 229 
 CBOC HZ EP       1052 53.43                             109   -0.10 7  332 252 
 CBOC HZ I        1052 57.06         9.1 0.16            110            332 252 
 CBOC HN ES   4   1053 29.02                             109   -0.87 0  332 252 
 TOL  SZ EP       1052 54.94                             109   -0.08 7  343 224 
 TOL  SN ES       1053 30.65                             109   -1.89 7  343 224 
 TOL  SZ I        1053 42.68        16.7 0.30            110            343 224 
 MON  HZ EP   9   1052 53.24                             108   -2.24 0  351 308 
 MON  HN ES       1053 29.55                                   -1.57 6  351 308 
 MON  HZ I        1053 34.10         8.0 0.34            109            351 308 
 ANIL HZ EP       1052 57.68                             108    1.10 6  357 224 
 ANIL HN ES       1053 35.53                             108    0.22 6  357 224 
 PRA  HZ EP       1052 59.92                             106   -0.47 6  393 209 
 PRA  HN ES       1053 41.33                             106   -0.77 6  393 209 
 PRA  HZ I        1053 46.44        18.9 0.28            107            393 209 
                                                                                
