 2012  216 1259  5.0 L   6.781 -73.156148.9  RSN  8 0.2 1.6LRSN                1
 GAP=136        0.44       3.5     2.9  5.1 -0.2349E+01 -0.1324E+01  0.6431E+00E
 ACTION:UP  12-03-07 16:31 OP:epov STATUS:               ID:20120216125905 L   I
 2012-02-16-1258-59S.COL___188                                                 6
 STAT SP IPHASW D HRMM SECON CODA AMPLIT PERI AZIMU VELO AIN AR TRES W  DIS CAZ7
 BAR2 SZ EP   1   1259 24.89                             172   -0.11 7 21.0 188 
 BAR2 SZ ES   2   1259 40.65                             172    0.08 5 21.0 188 
 BAR2 SZ I        1259 41.60         9.2 0.29                          21.0 188 
 GIR2 SZ EP   1   1259 24.90                             167   -0.23 7 33.2 353 
 GIR2 SZ ES   2   1259 41.42                             167    0.61 5 33.2 353 
 BRR  HZ EP   1   1259 26.82                             153    0.30 7 71.2 300 
 BRR  HN ES   2   1259 43.39                             153    0.11 5 71.2 300 
 PAM  SZ EP       1259 27.72                             151    0.0010 79.8  39 
 PAM  SZ IP   2   1259 27.74                             151    0.02 5 79.8  39 
 PAM  SN ES   2   1259 45.02                             151   -0.40 5 79.8  39 
 RUS  HZ EP   1   1259 29.13                             145    0.18 7 98.5 175 
 RUS  HN ES   2   1259 47.41                             145   -0.19 5 98.5 175 
 RUS  HZ I        1259 49.22         3.5 0.39                          98.5 175 
 PTB  HN ES   1   1259 52.94                             133   -0.30 7  146 260 
 ZAR  HN ES   2   13 0  3.00                             123   -0.10 4  204 293 
 ZAR  HZ I        13 0  9.96         5.9 0.40                           204 293 
 NOR  SN ES   2   13 0  8.73                             119    0.19 4  232 235 
                                                                                
