 2016  716 1055 36.4 L   6.898 -73.179141.5  RSN  6 0.3 1.3LRSN                1
 GAP=243        0.74       6.9     5.7  6.3  0.2171E+02  0.4412E+01  0.7010E+01E
 Epicentro: BETULIA - SANTANDER                                                3
 ACTION:UPD 17-03-29 16:51 OP:lp   STATUS:               ID:20160716105536 L   I
 OLDACT:UP  16-07-16 21:19 OP:dani STATUS:               ID:20160716104759     3
 OLDACT:UP  16-07-16 21:19 OP:dani STATUS:               ID:20160716104759     3
 OLDACT:REG 16-07-16 19:28 OP:dani STATUS:               ID:20160716104759     3
 2016-07-16-1047-59S.COL___311                                                 6
 STAT SP IPHASW D HRMM SECON CODA AMPLIT PERI AZIMU VELO AIN AR TRES W  DIS CAZ7
 BAR2 EZ EP       1055 56.26                             166    0.4510 33.8 181 
 BAR2 EZ ES       1056 11.14                             166    0.2110 33.8 181 
 BAR2 EZ I        1056 12.10         6.7 0.42            169           33.8 181 
 BRR  HE ES       1056 12.13                             155   -0.3510 63.2 291 
 RUS  HZ EP       1056  0.34                             140   -0.2710  112 175 
 RUS  HN ES       1056 19.31                             140   -0.1610  112 175 
 RUS  HZ I        1056 20.54         2.1 0.30            142            112 175 
 PTB  HZ EP       1056  2.85                             131   -0.10 9  147 254 
 PTB  HN ES       1056 23.87                             131    0.23 9  147 254 
 PTB  HZ I        1056 24.94         2.3 0.40            129            147 254 
 ZAR  HZ EP   4   1056 10.95                             122    3.11 0  197 290 
 ZAR  HN ES   4   1056 34.40                             122    2.06 0  197 290 
 ZAR  HZ I        1056 41.21         2.8 0.26            120            197 290 
 GUY2CHZ EP   4   1056 22.90                             111    2.67 0  305 233 
 GUY2CHN ES   4   1056 58.17                             111    3.77 0  305 233 
 GUY2CHZ I        1057  0.50         0.8 0.30                           305 233 
                                                                                
