 2012  516 1707 58.3 L   6.845 -73.204141.8  RSN  4 0.2 1.2LRSN                1
 GAP=127        0.63       5.1     4.6 12.3 -0.2339E+01  0.6806E+00 -0.3905E+02E
 Epicentro: ZAPATOCA - SANTANDER                                               3
 ACTION:UP  12-07-05 12:05 OP:pat  STATUS:               ID:20120516170758 L   I
 2012-05-16-1700-00M.COL___197                                                 6
 STAT SP IPHASW D HRMM SECON CODA AMPLIT PERI AZIMU VELO SNR AR TRES W  DIS CAZ7
 PAM  SZ EP       17 8 20.47                             150     0.310   78  46 
 RUS  HZ EP       17 8 22.03                             141    -0.110  106 173 
 RUS  HN ES   1   17 8 40.53                             141    -0.1 7  106 173 
 RUS  HZ I        17 8 41.48         3.8 0.24                           106 173 
 PTB  HZ EP       17 8 24.68                             132     0.2 9  143 256 
 PTB  HN ES   1   17 8 44.92                             132     0.0 7  143 256 
 PTB  HZ I        17 8 47.38         1.8 0.12                           143 256 
 OCA  HZ EP       17 8 25.48                             130    -0.3 9  155 355 
                                                                                
