 2013  116 1401 48.4 L   6.851 -73.047140.3  RSN 16 0.5 3.2LRSN 3.4WRSN        1
 SPEC AVERAGE  MO 14.1 ST 13.3 OM  2.6 f0 4.01 R0.3755 AL 1.86 WI 29.2 MW  3.4 3
 SPEC SD       MO  0.2 ST  5.9 OM  0.3 f00.631 R0.0571 AL      WI      MW  0.1 3
 GAP=132        0.90       2.9     4.5  5.5 -0.1470E+01  0.5074E+01  0.2420E+01E
 Epicentro: LOS SANTOS - SANTANDER                                             3
 SPEC VIL SH Z MO 14.3 ST 17.3 OM  2.4 f0 3.89 R0.3779 AL 2.64 WI 29.6 MW  3.5 3
 SPEC VIL SH Z T14 3 2 K 0.000 GD  341 VS 4.20 DE 3.20 Q0300.0 QA 0.60 VS 4.20 3
 SPEC ZAR HH Z MO 14.3 ST 15.2 OM  2.5 f0 3.80 R0.3868 AL 1.25 WI 25.6 MW  3.5 3
 SPEC ZAR HH Z T14 243 K 0.000 GD  254 VS 4.20 DE 3.20 Q0300.0 QA 0.60 VS 4.20 3
 SPEC RREFHH Z MO 14.3 ST 18.8 OM  2.3 f0 4.23 R0.3475 AL 2.00 WI 28.0 MW  3.4 3
 SPEC RREFHH Z T14 311 K 0.000 GD  362 VS 4.20 DE 3.20 Q0300.0 QA 0.60 VS 4.20 3
 SPEC ROSCBH Z MO 14.3 ST  7.1 OM  2.4 f0 3.02 R0.4868 AL 2.78 WI 44.4 MW  3.5 3
 SPEC ROSCBH Z T14 248 K 0.000 GD  298 VS 4.20 DE 3.20 Q0300.0 QA 0.60 VS 4.20 3
 SPEC PTB HH Z MO 14.0 ST 24.4 OM  2.3 f0 5.51 R0.2668 AL 1.67 WI 28.4 MW  3.3 3
 SPEC PTB HH Z T14 232 K 0.000 GD  212 VS 4.20 DE 3.20 Q0300.0 QA 0.60 VS 4.20 3
 SPEC RUS HH Z MO 13.9 ST  4.5 OM  2.3 f0 3.33 R0.4414 AL 2.04 WI 16.1 MW  3.2 3
 SPEC RUS HH Z T14 228 K 0.000 GD  175 VS 4.20 DE 3.20 Q0300.0 QA 0.60 VS 4.20 3
 SPEC OCA HH Z MO 14.1 ST 15.3 OM  2.4 f0 4.39 R0.3349 AL 1.43 WI 37.7 MW  3.4 3
 SPEC OCA HH Z T14 235 K 0.000 GD  209 VS 4.20 DE 3.20 Q0300.0 QA 0.60 VS 4.20 3
 SPEC ANILHH Z MO 14.3 ST 19.1 OM  2.3 f0 4.13 R0.3559 AL 2.17 WI 33.1 MW  3.5 3
 SPEC ANILHH Z T14 315 K 0.000 GD  394 VS 4.20 DE 3.20 Q0300.0 QA 0.60 VS 4.20 3
 SPEC HEL HH Z MO 13.9 ST 10.3 OM  2.0 f0 4.55 R0.3231 AL 2.54 WI 25.9 MW  3.2 3
 SPEC HEL HH Z T14 257 K 0.000 GD  316 VS 4.20 DE 3.20 Q0300.0 QA 0.60 VS 4.20 3
 SPEC CHI HH Z MO 14.0 ST  4.7 OM  2.1 f0 3.33 R0.4414 AL 1.88 WI 34.7 MW  3.3 3
 SPEC CHI HH Z T14 252 K 0.000 GD  292 VS 4.20 DE 3.20 Q0300.0 QA 0.60 VS 4.20 3
 SPEC BRR HH Z MO 14.0 ST  9.8 OM  2.4 f0 4.13 R0.3559 AL 0.75 WI 29.2 MW  3.3 3
 SPEC BRR HH Z T14 225 K 0.000 GD  160 VS 4.20 DE 3.20 Q0300.0 QA 0.60 VS 4.20 3
 SPEC BAR2SH Z MO 14.3 ST 13.5 OM  2.7 f0 3.79 R0.3879 AL 1.15 WI 17.5 MW  3.4 3
 SPEC BAR2SH Z T14 220 K 0.000 GD  143 VS 4.20 DE 3.20 Q0300.0 QA 0.60 VS 4.20 3
 ACTION:UPD 13-02-15 09:14 OP:ep   STATUS:               ID:20130116140148 L   I
 2013-01-16-1400-00M.COL___241                                                 6
 STAT SP IPHASW D HRMM SECON CODA AMPLIT PERI AZIMU VELO AIN AR TRES W  DIS CAZ7
 BAR2 SZ IP       14 2  8.00                             166    0.3810 32.3 208 
 BAR2 SZ ES   1   14 2 22.60                             166    0.01 7 32.3 208 
 BAR2 SZ I        14 2 24.36       486.9 0.18            165           32.3 208 
 BRR  HZ EP   1   14 2  8.82                             149   -0.62 7 78.8 291 
 BRR  HN ES   1   14 2 26.75                             149    0.92 7 78.8 291 
 BRR  HZ I        14 2 29.81       293.8 0.22            147           78.8 291 
 RUS  HZ IP     C 14 2 11.96                             141   -0.0910  106 182 
 RUS  HN ES   1   14 2 30.20                             141   -0.28 7  106 182 
 RUS  HZ I        14 2 32.05       179.8 0.28            144            106 182 
 OCA  HZ EP       14 2 15.99                             129    0.05 9  156 349 
 OCA  HN ES   1   14 2 37.23                             129   -0.18 7  156 349 
 OCA  HZ I        14 2 45.61       119.9 0.26            130            156 349 
 PTB  HZ EP   4   14 2 14.57                             128   -1.50 0  160 258 
 PTB  HN ES   4   14 2 35.52                             128   -2.11 0  160 258 
 PTB  HZ I        14 2 40.30       142.6 0.12            129            160 258 
 ZAR  HZ EP       14 2 21.07                             120   -0.31 8  212 290 
 ZAR  HN ES   1   14 2 46.21                             120   -0.88 6  212 290 
 ZAR  HZ I        14 2 52.35       249.0 0.36            121            212 290 
 CTAB SZ EP       14 2 25.86                             117    0.86 8  240 212 
 CHI  HZ EP     C 14 2 26.62                             115   -0.14 8  257 197 
 CHI  HN ES   1   14 2 55.90                             115   -0.76 6  257 197 
 CHI  HZ I        14 2 59.04        63.5 0.34            117            257 197 
 ROSC BZ EP       14 2 28.06                             114    0.64 8  263 212 
 ROSC BN ES   1   14 2 57.49                             114   -0.35 6  263 212 
 ROSC BZ I        14 3  2.15        93.0 0.35            116            263 212 
 HEL  HZ EP       14 2 29.72                             113    0.01 7  284 255 
 HEL  HN ES   1   14 3  1.93                             113    0.01 6  284 255 
 HEL  HZ I        14 3  6.14        50.5 0.42            114            284 255 
 URE  HZ EP   4   14 2 30.93                             112    0.77 0  292 290 
 URE  HE ES   4   14 2 58.49                             112   -4.22 0  292 290 
 VIL  SN ES   1   14 3  5.94                             110   -0.93 5  311 193 
 VIL  SZ I        14 3 11.10        76.4 0.30            112            311 193 
 RREF HZ EP       14 2 36.23                             109    0.51 7  334 230 
 RREF HN ES   1   14 3 12.76                             109    0.15 5  334 230 
 RREF HZ I        14 3 15.48        63.9 0.24            110            334 230 
 SDV  BN ES   1   14 3 14.20                             108   -0.44 5  348  50 
 DBB  SZ EP       14 2 36.56                             108   -0.35 6  350 273 
 DBB  SZ ES   4   14 3 12.58                             108   -2.15 0  350 273 
 DBB  SZ I        14 3 19.53        48.9 0.36            109            350 273 
 TOL  SZ EP       14 2 38.05                             108    0.22 6  355 225 
 TOL  SZ ES   1   14 3 16.17                             108   -0.19 5  355 225 
 ANIL HZ EP       14 2 39.62                             107    0.23 6  369 225 
 ANIL HE ES   1   14 3 18.85                             107   -0.30 5  369 225 
 ANIL HZ I        14 3 24.53        53.8 0.24            108            369 225 
 SJC  HN ES   4   14 3 23.57                             105   -3.74 0  411 325 
                                                                                
