 2017  916 1418 35.5 L   6.736 -73.131153.1  RSN  8 0.4 2.0LRSN                1
 GAP=141        0.82       3.8     4.0  5.7 -0.4598E+00  0.6286E+01 -0.1085E+01E
 Epicentro: JORDAN - SANTANDER                                                 3
 ACTION:UPD 17-10-05 19:13 OP:rebc STATUS:               ID:20170916141835 L   I
 OLDACT:UP  17-09-16 23:19 OP:dnl  STATUS:               ID:20170916140745     3
 OLDACT:REG 17-09-16 21:24 OP:dnl  STATUS:               ID:20170916140745     3
 2017-09-16-1408-00M.COL___448                                                 6
 STAT SP IPHASW D HRMM SECON CODA AMPLIT PERI AZIMU VELO AIN AR TRES W  DIS CAZ7
 BAR2 EZ IP     C 1418 55.83                             173   -0.0310 16.8 200 
 BAR2 EZ ES       1419 11.16                             173   -0.6110 16.8 200 
 BAR2 EZ I        1419 12.69        20.4 0.32            172           16.8 200 
 BRR  HZ EP       1418 57.93                             152    0.2510 76.2 303 
 BRR  HN ES       1419 15.18                             152    0.1710 76.2 303 
 BRR  HZ I        1419 26.74        20.0 0.34            149           76.2 303 
 PAM  EZ IP     C 1418 58.98                             150    0.2510 82.1  36 
 PAM  EE ES       1419 17.04                             150    0.1610 82.1  36 
 PAM  EZ I        1419 19.79        13.8 0.54            153           82.1  36 
 RUS  HZ EP       1418 59.66                             147    0.2110 93.4 177 
 RUS  HE ES       1419 18.05                             147   -0.1110 93.4 177 
 RUS  HZ I        1419 19.14        21.5 0.34            154           93.4 177 
 ZAR  HZ EP   2   1419  8.91                             123    0.09 4  208 294 
 ZAR  HE ES       1419 34.76                             123   -0.09 8  208 294 
 ZAR  HZ I        1419 41.05        18.8 0.26            125            208 294 
 NOR  HZ EP   2   1419 11.56                             120    0.23 4  232 236 
 NOR  HN ES       1419 39.49                             120    0.17 8  232 236 
 NOR  HZ I        1419 41.37         6.8 0.36            123            232 236 
 GUY2CHZ EP   4   1419 21.14                             114    2.03 0  298 236 
 GUY2CHE ES   4   1419 56.21                             114    3.05 0  298 236 
 GUY2CHZ I        1420  2.22         4.1 0.56                           298 236 
 SJC  HZ EP       1419 30.76                             106   -1.31 5  416 327 
 SJC  HN ES   4   1420 12.56                             106   -3.67 0  416 327 
 SJC  HZ I        1420 17.44         2.5 0.38            109            416 327 
                                                                                
