 2015  316 1005  1.9 L   6.752 -73.135150.8  RSN  4 0.5 1.7LRSN                1
 GAP=255        1.21      12.2     9.2 10.9 -0.2716E+02  0.2139E+02  0.3132E+02E
 Epicentro: LOS SANTOS - SANTANDER                                             3
 ACTION:UPD 15-04-30 16:26 OP:nd   STATUS:               ID:20150316100501 L   I
 OLDACT:DUP 15-03-16 22:53 OP:cam  STATUS:               ID:20150316095736d    3
 OLDACT:REG 15-03-16 19:52 OP:cam  STATUS:               ID:20150316095735     3
 2015-03-16-0957-35M.COL___257                                                 6
 STAT SP IPHASW D HRMM SECON CODA AMPLIT PERI AZIMU VELO AIN AR TRES W  DIS CAZ7
 BAR2 EZ EP       10 5 22.10                             173    0.0210 18.4 197 
 BAR2 EZ ES       10 5 37.58                             173   -0.2110 18.4 197 
 BAR2 EZ I        10 5 38.54        10.3 0.36            175           18.4 197 
 BRR  HZ EP       10 5 23.96                             152    0.1310 74.9 302 
 BRR  HE ES       10 5 41.54                             152    0.6310 74.9 302 
 BRR  HE I        10 5 45.72        16.0 0.20            149           74.9 302 
 PTB  HZ EP       10 5 29.02                             133   -0.31 9  148 261 
 PTB  HE ES       10 5 49.87                             133   -0.83 9  148 261 
 PTB  HZ I        10 5 52.25         4.2 0.28            134            148 261 
 GUY2CHZ EP   4   10 5 47.44                             113    1.90 0  299 236 
 GUY2CHN ES       10 6 20.40                             113    0.84 7  299 236 
 GUY2CHN I        10 6 31.51         2.2 0.34                           299 236 
                                                                                
