 2013  616 1656 59.5 L   6.794 -73.151146.6  RSN  8 0.5 2.1LRSN                1
 GAP=182        1.09       4.4     5.5  7.6  0.3046E+01  0.7318E+01  0.5228E+00E
 Epicentro: LOS SANTOS - SANTANDER                                             3
 ACTION:UPD 14-01-08 09:55 OP:ep   STATUS:               ID:20130616165659 L   I
 OLDACT:DUP 13-06-16 18:56 OP:cam  STATUS:               ID:20130616164960d    3
 OLDACT:REG 13-06-16 17:55 OP:cam  STATUS:               ID:20130616164959     3
 2013-06-16-1649-59M.COL___261                                                 6
 STAT SP IPHASW D HRMM SECON CODA AMPLIT PERI AZIMU VELO AIN AR TRES W  DIS CAZ7
 BAR2 SZ EP       1657 19.05                             171   -0.1510 22.5 189 
 BAR2 SZ ES       1657 34.38                             171   -0.2010 22.5 189 
 BAR2 SZ I        1657 36.71        17.4 0.18            172           22.5 189 
 GIR2 SZ EP       1657 19.02                             167   -0.2510 31.9 352 
 BRR  HZ EP       1657 20.84                             153    0.1310 71.0 299 
 BRR  HN ES       1657 38.17                             153    0.9010 71.0 299 
 BRR  HZ I        1657 41.56        27.2 0.12            150           71.0 299 
 RUS  HZ EP       1657 23.36                             144    0.0910 99.9 176 
 RUS  HN ES       1657 41.86                             144    0.0410 99.9 176 
 RUS  HZ I        1657 42.65        17.3 0.24            149           99.9 176 
 PTB  HZ EP       1657 25.88                             132   -0.57 9  147 259 
 PTB  HN ES       1657 46.78                             132   -0.71 9  147 259 
 PTB  HZ I        1657 54.09        22.5 0.34            133            147 259 
 OCA  HZ EP   2   1657 28.61                             130    0.69 5  161 353 
 OCA  HN ES       1657 49.93                             130   -0.16 9  161 353 
 OCA  HZ I        1657 55.83        14.5 0.18            131            161 353 
 ZAR  HN ES       1657 57.15                             123   -0.13 9  204 292 
 ZAR  HZ I        1658  3.79        19.5 0.24            123            204 292 
 NOR  HZ EP       1657 35.65                             119    0.48 8  234 235 
 NOR  HN ES   1   1658  3.90                             119    0.90 6  234 235 
                                                                                
