 2017  116 1753 25.4 L   6.876 -73.715  4.0  RSN  8 0.4 2.4LRSN                1
 GAP= 65        0.94       1.9     1.8  4.8  0.1290E+00  0.7075E+00  0.3692E+00E
 Epicentro: BARRANCABERMEJA - SANTANDER                                        3
 ACTION:UPD 17-05-22 16:00 OP:jn   STATUS:               ID:20170116175325 L   I
 OLDACT:REG 17-01-16 20:48 OP:cog  STATUS:               ID:20170116173758     3
 2017-01-16-1748-00M.COL___332                                                 6
 STAT SP IPHASW D HRMM SECON CODA AMPLIT PERI AZIMU VELO AIN AR TRES W  DIS CAZ7
 BRR  HZ IP     C 1753 29.86                              47    0.0210 25.6   1 
 BRR  HN ES       1753 33.67                              47    0.3510 25.6   1 
 BRR  HZ I        1753 34.55       436.5 0.12            104           25.6   1 
 BAR2 EZ EP     D 1753 36.41                              47    0.0910 66.7 118 
 BAR2 EZ I        1753 52.91        61.1 0.25             94           66.7 118 
 PTB  HZ EP     D 1753 39.72                              47    0.1010 90.0 246 
 PTB  HN ES       1753 50.51                              47   -0.2210 90.0 246 
 PTB  HZ I        1753 53.11       226.5 0.38             37           90.0 246 
 PAM  EZ EP     D 1753 45.33                              47    0.1710  123  65 
 PAM  EN ES       1754  0.09                              47   -0.5010  123  65 
 PAM  EZ I        1754  5.02        46.7 0.16             43            123  65 
 RUS  HZ EP       1753 46.34                              47    0.2810  129 147 
 RUS  HN ES       1754  1.92                              47   -0.2810  129 147 
 RUS  HZ I        1754  7.07        37.8 0.22             37            129 147 
 ZAR  HZ IP     D 1753 47.47                              47   -0.24 9  143 298 
 ZAR  HE ES       1754  4.72                              47   -0.41 9  143 298 
 ZAR  HZ  AMP     1754  7.34      1367.0 0.32                           143 298 
 CHI  HZ EP   4   1754  3.95                              37    1.77 0  248 180 
 CHI  HN ES       1754 30.68                              37   -0.21 8  248 180 
 CHI  HZ I        1754 40.61         6.8 0.36             37            248 180 
 GUY2CHZ EP     D 1754  4.59                              37    1.10 8  258 225 
 GUY2CHN ES   4   1754 32.68                              37   -0.54 0  258 225 
 GUY2CHZ  IAML    1754 49.19        15.5 0.60                           258 225 
                                                                                
