 2013  316 1735 22.4 L   6.785 -73.119150.0  RSN  9 0.4 2.2LRSN                1
 GAP=141        0.87       4.1     4.8  6.5 -0.2889E+01  0.1092E+02 -0.1068E+01E
 Epicentro: LOS SANTOS - SANTANDER                                             3
 ACTION:UPD 13-04-09 14:03 OP:ep   STATUS:               ID:20130316173522 L   I
 2013-03-16-1730-00M.COL___244                                                 6
 STAT SP IPHASW D HRMM SECON CODA AMPLIT PERI AZIMU VELO AIN AR TRES W  DIS CAZ7
 BAR2 SZ EP       1735 42.43                             171   -0.0710 22.5 198 
 BAR2 SZ ES   1   1735 58.36                             171    0.16 7 22.5 198 
 BAR2 SZ I        1736  0.19        45.3 0.26            169           22.5 198 
 BRR  HZ EP       1735 44.46                             152    0.2910 74.6 299 
 BRR  HN ES   1   1736  1.76                             152    0.58 7 74.6 299 
 BRR  HZ I        1736  5.76        24.1 0.16            149           74.6 299 
 PAM  SZ EP       1735 45.27                             152    0.2610 76.8  37 
 PAM  SN ES   1   1736  2.67                             152    0.01 7 76.8  37 
 PAM  SZ I        1736  4.65        20.3 0.20            156           76.8  37 
 RUS  HZ EP   1   1735 46.30                             145   -0.12 7 98.8 178 
 RUS  HN ES   1   1736  4.96                             145   -0.22 7 98.8 178 
 RUS  HZ I        1736  6.49         9.8 0.34            150           98.8 178 
 PTB  HZ EP       1735 49.37                             133   -0.56 9  150 260 
 PTB  HN ES   2   1736 10.57                             133   -0.85 5  150 260 
 PTB  HZ I        1736 16.33        30.2 0.26            133            150 260 
 OCA  HZ EP   1   1735 51.22                             130    0.02 7  162 352 
 OCA  HN ES   1   1736 13.02                             130   -0.67 7  162 352 
 OCA  HZ I        1736 18.44        20.4 0.18            132            162 352 
 ZAR  HZ EP       1735 55.07                             123   -0.38 8  207 292 
 ZAR  HN ES   1   1736 21.53                             123    0.29 6  207 292 
 ZAR  HZ I        1736 26.90        23.2 0.28            124            207 292 
 NOR  HZ EP   1   1735 58.35                             119   -0.17 6  236 235 
 NOR  HN ES   1   1736 26.89                             119    0.19 6  236 235 
 NOR  HZ I        1736 30.18        18.6 0.18            121            236 235 
 HEL  HZ EP   1   1736  4.35                             115    1.27 6  275 256 
 HEL  HN ES   4   1736 30.11                             115   -4.72 0  275 256 
 HEL  HZ I        1736 41.53         8.4 0.34            117            275 256 
                                                                                
