 2015  816 1619 46.1 L   6.802 -73.105147.1  RSN  7 0.5 2.0LRSN                1
 GAP=163        1.12       4.3     5.8  6.9 -0.5173E+01  0.1381E+02 -0.1637E+00E
 Epicentro: LOS SANTOS - SANTANDER                                             3
 ACTION:UPD 15-09-15 23:02 OP:cam  STATUS:               ID:20150816161946 L   I
 OLDACT:REG 15-08-16 21:16 OP:ar   STATUS:               ID:20150816161747     3
 2015-08-16-1617-47M.COL___343                                                 6
 STAT SP IPHASW D HRMM SECON CODA AMPLIT PERI AZIMU VELO AIN AR TRES W  DIS CAZ7
 BAR2 EZ EP       1620  5.78                             170   -0.1710 24.7 200 
 BAR2 EZ ES       1620 20.78                             170   -0.6310 24.7 200 
 BAR2 EZ I        1620 21.68        22.9 0.26            167           24.7 200 
 PAM  EZ EP       1620  8.51                             152    0.2010 74.4  37 
 PAM  EN ES       1620 25.84                             152    0.2210 74.4  37 
 PAM  EZ I        1620 27.71        14.1 0.60            156           74.4  37 
 BRR  HZ EP       1620  7.62                             151   -0.0210 75.1 297 
 BRR  HN ES       1620 25.01                             151    0.5910 75.1 297 
 BRR  HZ I        1620 32.86        14.1 0.16            147           75.1 297 
 SPBC HZ EP       1620 14.67                             129   -0.35 9  166 220 
 SPBC HN ES       1620 37.79                             129    0.24 9  166 220 
 SPBC HZ I        1620 39.02        16.4 0.14            130            166 220 
 ZAR  HZ EP       1620 19.26                             122    0.18 8  208 292 
 ZAR  HN ES       1620 43.96                             122   -0.83 8  208 292 
 ZAR  HZ I        1620 54.38         7.6 0.46            122            208 292 
 SML  HZ EP       1620 22.25                             117   -0.77 8  245 334 
 SML  HN ES       1620 52.37                             117    0.58 8  245 334 
 SML  HZ I        1620 52.66        14.1 0.28            119            245 334 
 TOL  SZ EP       1620 35.39                             109    0.57 6  347 225 
 TOL  SN ES       1621 13.39                             109    0.59 6  347 225 
 TOL  SZ I        1621 17.47         4.1 0.30            111            347 225 
                                                                                
