 2014  516 1206 46.9 L   6.794 -73.151142.1  RSN 10 0.5 2.1LRSN                1
 GAP=136        1.17       3.4     4.6  7.0 -0.8255E+00  0.8279E+01  0.4545E+01E
 Epicentro: LOS SANTOS - SANTANDER                                             3
 ACTION:UPD 15-03-16 16:58 OP:nd   STATUS:               ID:20140516120646 L   I
 OLDACT:REG 14-05-16 21:52 OP:carl STATUS:               ID:20140516115808     3
 2014-05-16-1158-08M.COL___251                                                 6
 STAT SP IPHASW D HRMM SECON CODA AMPLIT PERI AZIMU VELO AIN AR TRES W  DIS CAZ7
 BRR  HZ EP       12 7  7.82                             152    0.2210 71.0 299 
 BRR  HN ES       12 7 24.50                             152    0.7210 71.0 299 
 BRR  HZ I        12 7 25.64        22.9 0.28            150           71.0 299 
 PAM  SZ EP       12 7  8.75                             150    0.0110 78.3  40 
 PAM  SN ES       12 7 25.66                             150   -0.1410 78.3  40 
 RUS  HZ EP       12 7 10.05                             143   -0.1510 99.9 176 
 RUS  HN ES       12 7 28.47                             143    0.0610 99.9 176 
 RUS  HZ I        12 7 30.24        15.4 0.36            144           99.9 176 
 PTB  HZ EP       12 7 12.53                             131   -0.93 9  147 259 
 PTB  HN ES       12 7 33.31                             131   -0.90 9  147 259 
 PTB  HZ I        12 7 40.90         9.5 0.16            131            147 259 
 ZAR  HZ EP       12 7 20.32                             122    1.29 9  204 292 
 ZAR  HN ES       12 7 44.26                             122    0.13 9  204 292 
 ZAR  HZ I        12 7 49.88        11.5 0.20            122            204 292 
 NOR  HZ EP       12 7 22.12                             118   -0.16 8  234 235 
 NOR  HN ES       12 7 49.89                             118   -0.02 8  234 235 
 NOR  HZ I        12 7 52.73        11.2 0.22            118            234 235 
 SML  HZ EP       12 7 23.06                             117   -0.26 8  244 335 
 SML  HN ES       12 7 51.37                             117   -0.39 8  244 335 
 SML  HZ I        12 7 55.83        11.7 0.24            118            244 335 
 CHI  HZ EP       12 7 24.21                             116   -0.05 8  248 195 
 CHI  HN ES       12 7 53.43                             116   -0.01 8  248 195 
 CHI  HZ I        12 7 59.57         3.4 0.20            118            248 195 
 GUY2CHZ EP       12 7 30.22                             112    0.02 7  300 235 
 GUY2CHN ES       12 8  4.14                             112    0.14 7  300 235 
 GUY2CHZ I        12 8 11.45         6.1 0.30                           300 235 
 PRA  HZ EP       12 7 40.79                             106    0.64 6  391 210 
 PRA  HN ES       12 8 22.02                             106    0.31 6  391 210 
 PRA  HZ I        12 8 27.79         5.0 0.24            107            391 210 
                                                                                
