 2015  716 1151 40.9 L   6.801 -73.150147.6  RSN  4 0.3 1.5LRSN                1
 GAP=149        0.62       5.1     4.0  6.7  0.1855E+01  0.1324E+02 -0.3433E+01E
 Epicentro: LOS SANTOS - SANTANDER                                             3
 ACTION:UPD 15-09-08 21:49 OP:cam  STATUS:               ID:20150716115140 L   I
 OLDACT:DUP 15-07-17 00:33 OP:spq  STATUS:               ID:20150716114749d    3
 2015-07-16-1147-48M.COL___340                                                 6
 STAT SP IPHASW D HRMM SECON CODA AMPLIT PERI AZIMU VELO AIN AR TRES W  DIS CAZ7
 BAR2 EZ EP       1152  0.45                             171   -0.2810 23.4 189 
 BAR2 EZ ES   1   1152 16.27                             171    0.06 7 23.4 189 
 BAR2 EZ I        1152 16.82         5.0 0.27            175           23.4 189 
 PAM  EZ EP       1152  3.22                             151   -0.0710 77.5  40 
 PAM  EE ES       1152 20.96                             151    0.1810 77.5  40 
 PAM  EZ I        1152 25.29         4.5 0.52            151           77.5  40 
 ZAR  HZ EP       1152 13.86                             123    0.47 9  204 292 
 ZAR  HE ES       1152 38.66                             123   -0.09 9  204 292 
 ZAR  HZ I        1152 45.40         3.6 0.34            124            204 292 
 SML  HN ES   1   1152 45.80                             118   -0.39 6  243 335 
 SML  HZ I        1152 49.81         3.9 0.10            119            243 335 
                                                                                
