 2010  916 1900 39.0 L   6.760 -73.042149.0  RSN 10 0.4 2.7LRSN                1
 GAP=171        0.73       4.4     7.8  6.8 -0.1184E+02  0.1022E+02 -0.9757E+00E
 Epicentro: LOS SANTOS - SANTANDER                                             3
 ACTION:UP  11-02-18 11:03 OP:tino STATUS:               ID:20100916190039 L   I
 2010-09-16-1856-50S.COL___119                                                 6
 STAT SP IPHASW D HRMM SECON CODA AMPLIT PERI AZIMU VELO SNR AR TRES W  DIS CAZ7
 BAR2 SZ EP   1   19 0 59.02                             170     0.0 7   24 220 
 BAR2 SZ ES   2   19 1 13.58                             170    -1.1 5   24 220 
 BAR2 SZ I        19 1 15.84        95.8 0.34                            24 220 
 BTL  SZ EP   1   19 0 59.55                             168     0.3 7   31 305 
 GIR2 SZ EP   1   19 0 59.29                             165     0.0 7   39 335 
 GIR2 SZ ES   2   19 1 15.90                             165     0.8 5   39 335 
 BRR  HZ IP     C 19 1  0.94                             149    -0.310   83 297 
 BRR  HZ I        19 1  1.25       152.2 0.14                            83 297 
 BRR  HE ES   2   19 1 18.53                             149    -0.1 5   83 297 
 RUS  HZ EP   1   19 1  2.91                             146     0.1 7   96 183 
 RUS  HN ES   2   19 1 21.67                             146     0.4 5   96 183 
 RUS  HZ I        19 1 23.42        40.7 0.60                            96 183 
 GUE  SZ EP   1   19 1  4.08                             139    -0.2 7  119   6 
 GRA  SZ EP   1   19 1  4.81                             137     0.1 7  127  12 
 GRA  SZ ES   2   19 1 24.39                             137    -0.3 5  127  12 
 GRA  SZ I        19 1 26.80        37.9 0.25                           127  12 
 OCA  SZ EP   1   19 1  8.33                             129     0.2 7  166 349 
 OCA  SZ ES   2   19 1 31.23                             129     0.3 5  166 349 
 OCA  SZ I        19 1 35.38        68.1 0.32                           166 349 
 HEL  HZ EP   1   19 1 20.37                             114    -0.2 6  282 257 
 HEL  HZ I        19 1 58.06        20.9 0.31                           282 257 
 RREF HZ EP   1   19 1 25.90                             111    -0.1 5  328 231 
 RREF HN ES   2   19 2  3.39                             111     0.8 3  328 231 
 RREF HZ I        19 2  8.45        24.2 0.51                           328 231 
                                                                                
