 2014  216 1035 51.6 L   6.789 -73.164138.8  RSN  6 0.4 1.4LRSN                1
 GAP=135        0.84       6.0     4.6  8.5 -0.5707E+01  0.1470E+02 -0.3400E+00E
 Epicentro: LOS SANTOS - SANTANDER                                             3
 ACTION:UPD 14-03-10 08:10 OP:ep   STATUS:               ID:20140216103551 L   I
 OLDACT:DUP 14-02-16 16:18 OP:mh   STATUS:               ID:20140216103001d    3
 2014-02-16-1030-00M.COL___212                                                 6
 STAT SP IPHASW D HRMM SECON CODA AMPLIT PERI AZIMU VELO AIN AR TRES W  DIS CAZ7
 BAR2 SZ EP   1   1036  9.93                             171   -0.39 7 21.9 185 
 BAR2 SZ ES   1   1036 25.63                             171    0.68 7 21.9 185 
 BAR2 SZ I        1036 26.63        10.8 0.19            153           21.9 185 
 PAM  SZ EP   1   1036 13.83                             149    0.66 7 79.6  40 
 PAM  SN ES       1036 29.63                             149   -0.4010 79.6  40 
 PAM  SZ I        1036 33.35         3.0 0.31            139           79.6  40 
 RUS  HZ EP   1   1036 14.56                             142    0.01 7 99.6 175 
 RUS  HZ I        1036 34.32         4.0 0.31            125           99.6 175 
 PTB  HZ EP   1   1036 17.57                             131   -0.19 7  146 259 
 PTB  HN ES       1036 37.86                             131   -0.33 9  146 259 
 PTB  HZ I        1036 39.19         3.5 0.10            121            146 259 
 ZAR  HZ EP   1   1036 23.56                             121    0.15 6  203 293 
 ZAR  HN ES   1   1036 48.71                             121    0.46 6  203 293 
 ZAR  HZ I        1036 55.92         3.4 0.19            114            203 293 
 SML  HN ES   2   1036 56.03                             116   -0.08 4  244 336 
                                                                                
