 2014 1216 1341 59.5 L   6.777 -73.050137.7  RSN  4 0.5 1.2LRSN                1
 GAP=150        1.18       6.2    10.1 11.7 -0.8972E+01 -0.3421E+02  0.1080E+02E
 Epicentro: LOS SANTOS - SANTANDER                                             3
 ACTION:UPD 15-02-10 17:04 OP:nd   STATUS:               ID:20141216134159 L   I
 OLDACT:REG 14-12-16 20:33 OP:fm   STATUS:               ID:20141216133748     3
 2014-12-16-1337-48M.COL___287                                                 6
 STAT SP IPHASW D HRMM SECON CODA AMPLIT PERI AZIMU VELO AIN AR TRES W  DIS CAZ7
 BAR2 EZ ES       1342 33.29                             169    0.4710 25.1 216 
 BAR2 EZ I        1342 34.73         4.3 0.24            171           25.1 216 
 PAM  SZ EP       1342 21.34                             151    0.7010 73.3  32 
 PAM  SN ES       1342 36.59                             151   -0.5210 73.3  32 
 PAM  SZ I        1342 40.48         4.2 0.48            151           73.3  32 
 BRR  HN ES       1342 36.64                             147   -0.1610 81.7 297 
 RUS  HZ EP       1342 21.80                             143   -0.5010 97.9 182 
 RUS  HN ES       1342 40.06                             143    0.0110 97.9 182 
 RUS  HZ I        1342 42.83         1.6 0.36            145           97.9 182 
                                                                                
