 2013  516 1957 56.5 L   6.766 -73.121147.9  RSN  9 0.5 1.8LRSN                1
 GAP=141        0.96       4.0     4.8  6.6  0.5863E-01  0.1074E+02  0.1640E+01E
 Epicentro: LOS SANTOS - SANTANDER                                             3
 ACTION:UPD 13-06-20 09:51 OP:ep   STATUS:               ID:20130516195756 L   I
 2013-05-16-1950-00M.COL___253                                                 6
 STAT SP IPHASW D HRMM SECON CODA AMPLIT PERI AZIMU VELO AIN AR TRES W  DIS CAZ7
 BAR2 SZ EP   1   1958 16.48                             172    0.12 7 20.4 199 
 BAR2 SZ ES   1   1958 31.43                             172   -0.39 7 20.4 199 
 BAR2 SZ I        1958 32.83        19.3 0.22            171           20.4 199 
 GIR2 SZ ES       1958 32.48                             166    0.2810 35.5 347 
 BRR  HE ES   1   1958 35.47                             151    0.47 7 75.4 300 
 PAM  SZ EP   1   1958 19.43                             151    0.38 7 78.7  36 
 PAM  SN ES   1   1958 35.88                             151   -0.73 7 78.7  36 
 PAM  SZ I        1958 37.86         6.2 0.42            151           78.7  36 
 RUS  HZ EP       1958 20.37                             145    0.1610 96.7 177 
 RUS  HN ES   1   1958 38.82                             145    0.13 7 96.7 177 
 RUS  HZ I        1958 40.43         4.9 0.20            146           96.7 177 
 PTB  HZ EP       1958 23.43                             132   -0.42 9  150 260 
 PTB  HN ES   1   1958 44.27                             132   -0.88 7  150 260 
 PTB  HZ I        1958 46.68         8.1 0.14            131            150 260 
 ZAR  HN ES       1958 55.15                             122   -0.09 8  208 293 
 NOR  HZ EP   1   1958 32.48                             119    0.09 6  235 236 
 NOR  HE ES       1959  0.84                             119    0.48 8  235 236 
 NOR  HZ I        1959  5.74         7.2 0.24            119            235 236 
 SML  HZ EP   1   1958 32.94                             117   -0.82 6  248 335 
 SML  HN ES       1959  3.39                             117    0.59 8  248 335 
 SML  HZ I        1959  8.44        10.5 0.22            117            248 335 
                                                                                
