 2013  516 1424  2.0 L   6.761 -73.105141.2  RSN  5 0.4 1.5LRSN                1
 GAP=144        0.82       5.7     5.9  9.2 -0.3267E+01  0.1218E+01  0.9910E+00E
 Epicentro: LOS SANTOS - SANTANDER                                             3
 ACTION:UPD 13-06-20 09:51 OP:ep   STATUS:               ID:20130516142402 L   I
 2013-05-16-1420-00M.COL___256                                                 6
 STAT SP IPHASW D HRMM SECON CODA AMPLIT PERI AZIMU VELO AIN AR TRES W  DIS CAZ7
 BAR2 SZ ES   1   1424 36.26                             171    0.42 7 20.6 204 
 BAR2 SZ I        1424 36.63         7.1 0.14            173           20.6 204 
 BRR  HZ EP   1   1424 23.44                             150    0.45 7 77.2 300 
 BRR  HE ES   1   1424 39.76                             150    0.38 7 77.2 300 
 PAM  SZ EP   1   1424 23.59                             150   -0.16 7 78.1  35 
 PAM  SN ES   1   1424 40.26                             150   -0.47 7 78.1  35 
 PAM  SZ I        1424 42.93         6.6 0.48            149           78.1  35 
 RUS  HZ EP   1   1424 25.19                             144    0.24 7 96.1 179 
 RUS  HN ES   1   1424 42.63                             144   -0.25 7 96.1 179 
 RUS  HZ I        1424 43.84         3.8 0.24            146           96.1 179 
 PTB  HN ES   1   1424 49.22                             130   -0.70 7  151 261 
                                                                                
