 2014  116 1647 32.1 L   6.795 -73.117147.8  RSN  4 0.1 1.4LRSN                1
 GAP=140        0.40       2.2     3.4  4.1 -0.9374E+00 -0.2371E+01  0.2514E+01E
 Epicentro: LOS SANTOS - SANTANDER                                             3
 ACTION:UPD 14-03-13 09:55 OP:ep   STATUS:               ID:20140116164732 L   I
 OLDACT:UP  14-01-16 16:23 OP:cam  STATUS:               ID:20140116164001d    3
 OLDACT:UP  14-01-16 16:23 OP:cam  STATUS:               ID:20140116164001d    3
 OLDACT:DUP 14-01-16 16:20 OP:cam  STATUS:               ID:20140116164001d    3
 2014-01-16-1640-00M.COL___285                                                 6
 STAT SP IPHASW D HRMM SECON CODA AMPLIT PERI AZIMU VELO AIN AR TRES W  DIS CAZ7
 BRR  HZ EP   2   1647 53.51                             152   -0.19 5 74.3 298 
 BRR  HN ES       1648 10.53                             152    0.0310 74.3 298 
 PAM  SZ EP       1647 54.68                             152    0.1810 75.9  37 
 PAM  SN ES       1648 11.83                             152   -0.1010 75.9  37 
 PAM  SZ I        1648 13.79         5.0 0.40            151           75.9  37 
 RUS  HZ EP       1647 55.88                             144   -0.1710 99.8 178 
 RUS  HN ES       1648 14.77                             144    0.0810 99.8 178 
 RUS  HZ I        1648 15.38         4.7 0.24            146           99.8 178 
 CHI  HZ EP   2   1648 10.13                             117    0.14 4  249 196 
                                                                                
