 2012  816 1903 20.3 L   6.744 -73.147138.0  RSN  9 0.4 2.0LRSN                1
 GAP=139        0.90       4.8     4.4  6.6 -0.2190E+01  0.4746E+01  0.6826E+01E
 Epicentro: JORDAN - SANTANDER                                                 3
 ACTION:UPD 12-09-10 11:56 OP:ep   STATUS:               ID:20120816190320 L   I
 2012-08-16-1900-00M.COL___216                                                 6
 STAT SP IPHASW D HRMM SECON CODA AMPLIT PERI AZIMU VELO AIN AR TRES W  DIS CAZ7
 BAR2 SZ EP       19 3 39.01                             173    0.1110 17.2 193 
 BAR2 SZ ES   1   19 3 53.42                             173    0.02 7 17.2 193 
 BAR2 SZ I        19 3 54.77        35.4 0.13                          17.2 193 
 GIR2 SZ EP       19 3 39.10                             164   -0.1610 37.4 352 
 BRR  HZ EP       19 3 40.98                             150    0.1610 74.3 303 
 BRR  HN ES       19 3 57.49                             150    0.6810 74.3 303 
 BRR  HZ I        19 3 58.32        35.3 0.33                          74.3 303 
 PAM  SZ EP       19 3 41.96                             148   -0.0710 82.3  37 
 PAM  SN ES   1   19 3 58.49                             148   -0.47 7 82.3  37 
 PAM  SZ I        19 4  0.93        19.0 0.43                          82.3  37 
 RUS  HZ EP   1   19 3 42.54                             144   -0.32 7 94.4 176 
 RUS  HN ES   1   19 4  0.73                             144    0.29 7 94.4 176 
 RUS  HZ I        19 4  3.10        15.3 0.32                          94.4 176 
 PTB  HZ EP       19 3 46.13                             131   -0.42 9  147 261 
 PTB  HN ES   1   19 4  6.51                             131   -0.51 7  147 261 
 PTB  HZ I        19 4  8.10         7.5 0.10                           147 261 
 ZAR  HN ES   1   19 4 17.54                             121   -0.09 6  206 294 
 ZAR  HZ I        19 4 27.20         9.3 0.27                           206 294 
 NOR  SZ EP   1   19 3 55.72                             117    0.51 6  231 236 
 NOR  SN ES   1   19 4 21.67                             117   -0.76 6  231 236 
 NOR  SZ I        19 4 27.46         6.6 0.20                           231 236 
 PRA  HZ EP       19 4 13.78                             106    0.84 6  387 210 
                                                                                
