 2017 1216 1200 56.0 L   6.767 -73.126143.7  RSN 10 0.6 1.9LRSN                1
 GAP=122        1.29       4.0     5.4  7.9 -0.4043E+01  0.9648E+01  0.3434E+01E
 Epicentro: LOS SANTOS - SANTANDER                                             3
 ACTION:UPD 18-01-04 13:21 OP:rebc STATUS:               ID:20171216120056 L   I
 OLDACT:REG 17-12-16 20:07 OP:osc  STATUS:               ID:20171216115741     3
 2017-12-16-1158-00M.COL___467                                                 6
 STAT SP IPHASW D HRMM SECON CODA AMPLIT PERI AZIMU VELO AIN AR TRES W  DIS CAZ7
 BAR2 EZ EP       12 1 15.81                             172    0.5010 20.3 198 
 BAR2 EZ ES       12 1 30.51                             172    0.1310 20.3 198 
 BAR2 EZ I        12 1 34.30         7.1 0.32            170           20.3 198 
 PAM  EZ EP       12 1 18.78                             150    0.7110 78.9  37 
 PAM  EN ES       12 1 35.47                             150    0.1610 78.9  37 
 PAM  EZ I        12 1 37.80        22.3 0.46            155           78.9  37 
 PTB  HZ EP       12 1 22.59                             131   -0.32 9  149 260 
 PTB  HN ES       12 1 43.32                             131   -0.60 9  149 260 
 PTB  HZ I        12 1 49.22         5.0 0.36            132            149 260 
 OCA  HZ EP       12 1 24.32                             128   -0.18 9  164 353 
 OCA  HN ES       12 1 45.77                             128   -0.98 9  164 353 
 ZAR  HN ES       12 1 54.73                             121    0.61 8  207 293 
 ZAR  HZ I        12 1 59.71        11.8 0.21            123            207 293 
 DRL03HZ EP       12 1 37.54                             112   -0.39 7  293 352 
 DRL03HE ES       12 2 10.92                             112    0.27 7  293 352 
 GUY2CHZ EP       12 1 40.27                             112    0.81 7  301 236 
 GUY2CHN ES       12 2 13.04                             112   -0.33 7  301 236 
 GUY2CHZ I        12 2 23.41         2.9 0.50                           301 236 
 PTGC HE ES       12 2 12.01                             111   -1.03 7  305 159 
 PRA  HZ EP       12 1 48.81                             106   -0.38 6  390 210 
 PRA  HE ES       12 2 31.53                             106    0.85 6  390 210 
 PRA  HZ I        12 2 36.46         3.0 0.24            108            390 210 
 SJC  HZ EP   4   12 1 50.83                             105   -1.14 0  413 327 
 SJC  HN ES   4   12 2 30.79                             105   -4.86 0  413 327 
 SJC  HZ I        12 2 35.97         2.5 0.34            107            413 327 
                                                                                
