 2015 1016 1949 45.6 L   6.811 -73.135146.4  RSN 13 0.5 2.1LRSN                1
 GAP=137        1.11       3.2     4.4  5.9 -0.1176E+01  0.1123E+02  0.1165E+01E
 Epicentro: LOS SANTOS - SANTANDER                                             3
 ACTION:UPD 15-12-22 20:40 OP:cam  STATUS:               ID:20151016194945 L   I
 OLDACT:REG 15-10-16 20:50 OP:ak   STATUS:               ID:20151016194748     3
 2015-10-16-1947-48M.COL___322                                                 6
 STAT SP IPHASW D HRMM SECON CODA AMPLIT PERI AZIMU VELO AIN AR TRES W  DIS CAZ7
 BAR2 EZ EP       1950  5.46                             170    0.1110 24.7 192 
 BAR2 EZ ES       1950 20.12                             170   -0.6210 24.7 192 
 BAR2 EZ I        1950 23.01        24.2 0.40            169           24.7 192 
 BRR  HZ EP       1950  7.47                             152    0.6110 71.7 297 
 BRR  HN ES       1950 24.09                             152    0.6610 71.7 297 
 BRR  HZ I        1950 26.58        16.5 0.13            150           71.7 297 
 PAM  EZ EP       1950  8.18                             151    0.3810 75.7  39 
 PAM  EE ES       1950 25.37                             151    0.2710 75.7  39 
 PAM  EZ I        1950 27.70        16.5 0.56            155           75.7  39 
 RUS  HZ EP       1950  9.25                             144   -0.2610  102 177 
 RUS  HN ES       1950 27.89                             144   -0.2510  102 177 
 RUS  HZ I        1950 29.07        11.0 0.24            147            102 177 
 ZAR  HZ EP       1950 18.27                             122    0.10 9  205 292 
 ZAR  HN ES       1950 43.32                             122   -0.24 9  205 292 
 ZAR  HZ I        1950 50.01        15.5 0.17            123            205 292 
 NOR  HZ EP       1950 21.13                             118   -0.43 8  236 234 
 NOR  HN ES       1950 48.77                             118   -0.82 8  236 234 
 NOR  HZ I        1950 52.77        11.0 0.06            120            236 234 
 SML  HZ EP       1950 21.87                             118   -0.35 8  243 335 
 SML  HN ES       1950 49.89                             118   -0.87 8  243 335 
 SML  HZ I        1950 55.28        24.8 0.08            119            243 335 
 CHI  HZ EP       1950 23.54                             117    0.03 8  250 195 
 CHI  HN ES       1950 53.29                             117    0.23 8  250 195 
 CHI  HZ I        1950 56.88         5.0 0.38            119            250 195 
 HEL  HZ EP       1950 27.01                             115    0.99 8  274 256 
 HEL  HE ES       1950 57.74                             115    0.21 8  274 256 
 HEL  HZ I        1951  6.11         7.1 0.49            116            274 256 
 URE  HZ EP   4   1950 25.03                             114   -1.76 0  284 292 
 URE  HE ES   4   1950 56.60                             114   -2.31 0  284 292 
 URE  HZ I        1951  3.96        10.1 0.20            115            284 292 
 GUY2CHZ EP   1   1950 29.56                             112    0.12 5  303 235 
 GUY2CHN ES       1951  4.04                             112    0.42 7  303 235 
 GUY2CHZ I        1951 12.77         7.0 0.56                           303 235 
 ELA  HZ EP       1950 31.90                             110   -0.78 7  331 229 
 ELA  HN ES       1951  9.74                             110    0.35 7  331 229 
 MON  HZ EP       1950 34.42                             109   -0.24 6  354 308 
 MON  HN ES   4   1951 10.40                             109   -2.52 0  354 308 
 MON  HZ I        1951 14.00         4.1 0.35            110            354 308 
                                                                                
