 2014  116 1632 29.4 L   6.532 -73.502113.4  RSN 13 0.5 2.1LRSN                1
 GAP= 67        1.00       2.7     3.2  5.9 -0.1285E+01  0.7815E+01 -0.9990E+00E
 Epicentro: EL CARMEN DE CHUCURI - SANTANDER                                   3
 ACTION:UPD 14-03-13 09:55 OP:ep   STATUS:               ID:20140116163229 L   I
 OLDACT:UP  14-01-16 16:16 OP:cam  STATUS:               ID:20140116163000     3
 OLDACT:UP  14-01-16 16:16 OP:cam  STATUS:               ID:20140116163000     3
 OLDACT:UP  14-01-16 16:16 OP:cam  STATUS:               ID:20140116163000     3
 OLDACT:REG 14-01-16 15:27 OP:cm   STATUS:               ID:20140116163000     3
 2014-01-16-1630-00M.COL___285                                                 6
 STAT SP IPHASW D HRMM SECON CODA AMPLIT PERI AZIMU VELO AIN AR TRES W  DIS CAZ7
 BAR2 SZ EP       1632 45.77                             161    0.1810 36.0  79 
 BAR2 SZ ES       1632 58.21                             161    0.0110 36.0  79 
 BRR  HZ EP       1632 46.52                             147   -0.4210 67.7 340 
 BRR  HE ES       1633  0.31                             147   -0.2910 67.7 340 
 BRR  HZ I        1633  4.51        24.2 0.14            148           67.7 340 
 RUS  HZ EP       1632 48.81                             141   -0.0410 84.6 147 
 RUS  HN ES       1633  4.07                             141    0.0610 84.6 147 
 RUS  HZ I        1633  5.61        19.1 0.36            146           84.6 147 
 PTB  HZ IP   4 C 1632 48.55                             134   -1.37 0  106 270 
 PTB  HN ES   4   1633  3.43                             134   -2.49 0  106 270 
 PTB  HZ I        1633  6.89        37.3 0.16            135            106 270 
 SPBC HZ EP       1632 50.65                             131   -0.3210  116 213 
 SPBC HN ES       1633  7.69                             131   -0.0910  116 213 
 SPBC HZ I        1633 14.51        26.7 0.16            133            116 213 
 PAM  SZ EP       1632 52.34                             129   -0.0910  126  45 
 PAM  SE ES       1633 10.57                             129    0.1910  126  45 
 PAM  SZ I        1633 11.33         7.5 0.46            133            126  45 
 ZAR  HZ EP   2   1632 57.96                             117    0.22 4  184 305 
 ZAR  HN ES       1633 20.70                             117    0.88 9  184 305 
 ZAR  HZ I        1633 22.22        36.4 0.44            119            184 305 
 NOR  HZ EP       1632 57.42                             117   -0.57 9  185 235 
 NOR  HE ES       1633 20.15                             117   -0.12 9  185 235 
 NOR  HZ I        1633 22.70        18.3 0.16            119            185 235 
 CHI  HZ EP       1633  1.97                             113    0.59 8  212 187 
 HEL  HZ EP       1633  3.30                             112    0.24 8  227 261 
 HEL  HN ES       1633 29.92                             112    0.62 8  227 261 
 HEL  HZ I        1633 36.00        12.0 0.26            114            227 261 
 GUY2CHZ EP   4   1633  7.59                             109    1.59 0  252 235 
 GUY2CHE ES   4   1633 36.94                             109    2.40 0  252 235 
 GUY2CHZ I        1633 43.90         9.6 0.40                           252 235 
 SML  HZ EP       1633  5.75                             108   -0.43 8  259 346 
 SML  HN ES       1633 35.17                             108    0.32 8  259 346 
 SML  HZ I        1633 38.89        23.8 0.10            111            259 346 
 URE  HN ES   2   1633 33.46                             108   -2.06 4  262 301 
 RREF HZ EP   4   1633  9.11                             107    0.51 0  273 229 
 SJC  HZ EP   4   1633 22.89                              99   -1.97 0  415 334 
                                                                                
