 2010  916 1421 59.8 L   6.793 -73.117148.7  RSN  4 0.2 1.8LRSN                1
 GAP=162        0.40       3.1     6.8  7.2 -0.2086E+01 -0.1765E+02 -0.2243E+01E
 Epicentro: LOS SANTOS - SANTANDER                                             3
 ACTION:UP  11-02-18 11:03 OP:tino STATUS:               ID:20100916142159 L   I
 2010-09-16-1418-58S.COL___119                                                 6
 STAT SP IPHASW D HRMM SECON CODA AMPLIT PERI AZIMU VELO SNR AR TRES W  DIS CAZ7
 BRR  HZ EP   1   1422 21.34                             152    -0.1 7   74 298 
 BRR  HE ES   2   1422 38.39                             152     0.1 5   74 298 
 BRR  HZ I        1422 39.05        17.3 0.06                            74 298 
 RUS  HZ EP   1   1422 23.64                             145    -0.1 7  100 178 
 RUS  HN ES   2   1422 42.65                             145     0.2 5  100 178 
 RUS  HZ I        1422 44.06         9.7 0.31                           100 178 
 GUE  SZ EP   1   1422 24.78                             140     0.0 7  117  10 
 GRA  SZ EP   1   1422 25.51                             138     0.2 7  126  16 
 GRA  SZ ES   2   1422 44.92                             138    -0.2 5  126  16 
 GRA  SZ I        1422 47.62         8.2 0.35                           126  16 
                                                                                
