 2011 1116 1134 25.6 L   6.695 -73.200146.2  RSN  4 0.3 1.3LRSN                1
 GAP=221        0.69      10.0    11.5  8.3  0.9649E+02  0.1048E+02  0.1987E+01E
 Epicentro: VILLANUEVA - SANTANDER                                             3
 ACTION:UPD 12-07-13 16:10 OP:ep   STATUS:               ID:20111116113425 L   I
 2011-11-16-1132-30S.COL___179                                                 6
 STAT SP IPHASW D HRMM SECON CODA AMPLIT PERI AZIMU VELO AIN AR TRES W  DIS CAZ7
 BAR2 SZ EP   1   1134 44.66                             175   -0.48 7 11.5 170 
 BAR2 SZ ES   1   1135  0.06                             175   -0.29 7 11.5 170 
 BAR2 SZ I        1135  2.32         5.0 0.30                          11.5 170 
 BRR  HZ EP   1   1134 47.08                             152    0.17 7 72.6 309 
 BRR  HZ I        1134 47.42         8.3 0.23                          72.6 309 
 BRR  HN ES   1   1135  3.99                             152    0.48 7 72.6 309 
 RUS  HZ EP   1   1134 49.01                             147    0.34 7 89.7 172 
 RUS  HN ES   1   1135  6.69                             147    0.04 7 89.7 172 
 RUS  HZ I        1135 11.36         1.4 0.28                          89.7 172 
 ZAR  HN ES   1   1135 22.93                             123   -0.36 6  203 296 
                                                                                
