 2011 1216 1355 40.4 L   6.793 -73.074143.2  RSN  9 0.4 2.2LRSN                1
 GAP=146        0.67       4.1     5.1  5.4 -0.5024E+01  0.6559E+01  0.1341E+01E
 Epicentro: LOS SANTOS - SANTANDER                                             3
 ACTION:UPD 12-07-13 16:16 OP:ep   STATUS:               ID:20111216135540 L   I
 2011-12-16-1350-00M.COL___187                                                 6
 STAT SP IPHASW D HRMM SECON CODA AMPLIT PERI AZIMU VELO AIN AR TRES W  DIS CAZ7
 BAR2 SZ IP       1355 59.77                             169    0.0010 25.2 208 
 BAR2 SZ ES   1   1356 14.47                             169   -0.40 7 25.2 208 
 BAR2 SZ I        1356 16.14        51.7 0.32                          25.2 208 
 GIR2 SZ EP       1355 59.86                             166    0.0010 34.3 337 
 GIR2 SZ ES   2   1356 14.57                             166   -0.46 5 34.3 337 
 PAM  SZ EP   1   1356  2.60                             152    0.50 7 73.3  34 
 PAM  SN ES   2   1356 19.53                             152    0.50 5 73.3  34 
 BRR  HZ IP     C 1356  1.65                             150   -0.0710 78.6 296 
 BRR  HZ I        1356  2.11        71.3 0.11                          78.6 296 
 BRR  HE ES   1   1356 18.97                             150    0.63 7 78.6 296 
 RUS  HZ EP   1   1356  3.78                             144   -0.05 7 99.5 181 
 RUS  HN ES   2   1356 21.94                             144   -0.16 5 99.5 181 
 RUS  HZ I        1356 23.29        11.7 0.20                          99.5 181 
 OCA  SZ EP   1   1356  7.99                             129   -0.71 7  162 350 
 OCA  SZ ES   2   1356 30.50                             129   -0.27 5  162 350 
 OCA  SZ I        1356 34.15        21.2 0.25                           162 350 
 HEL  HZ EP   1   1356 21.16                             114   -0.16 6  280 256 
 HEL  HN ES   2   1356 52.86                             114   -0.38 4  280 256 
 HEL  HZ I        1357  2.42         7.3 0.53                           280 256 
 GUY  SZ EP   1   1356 25.47                             111    0.62 5  310 236 
 GUY  SN ES   2   1356 59.85                             111    0.34 4  310 236 
 GUY  SZ I        1357  6.16         7.9 0.34                           310 236 
 RREF HN ES   2   1357  3.34                             110   -0.13 3  327 230 
 RREF HZ I        1357 11.78         7.7 0.32                           327 230 
                                                                                
