 2011  816 1145 32.5 L   6.760 -73.104141.0  RSN  4 0.4 1.5LRSN                1
 GAP=144        0.65       4.2     6.1  6.6 -0.5248E+01 -0.1636E+01  0.1443E+01E
 Epicentro: LOS SANTOS - SANTANDER                                             3
 ACTION:UPD 12-07-13 15:52 OP:ep   STATUS:               ID:20110816114532 L   I
 2011-08-16-1141-50S.COL___149                                                 6
 STAT SP IPHASW D HRMM SECON CODA AMPLIT PERI AZIMU VELO AIN AR TRES W  DIS CAZ7
 BAR2 SZ EP   2   1145 52.62                             171    1.09 5 20.4 205 
 BAR2 SZ ES   1   1146  6.06                             171   -0.29 7 20.4 205 
 BAR2 SZ I        1146  7.60        11.1 0.09                          20.4 205 
 BRR  HZ EP   1   1145 53.40                             150   -0.13 7 77.3 300 
 BRR  HN ES   1   1146 10.00                             150    0.08 7 77.3 300 
 PAM  SZ EP       1145 54.26                             150   -0.0310 78.2  35 
 PAM  SE ES       1146 11.28                             150    0.0210 78.2  35 
 RUS  HZ EP   1   1145 55.16                             144   -0.32 7 95.9 179 
 RUS  HN ES   1   1146 13.57                             144    0.19 7 95.9 179 
 RUS  HZ I        1146 15.03         3.4 0.37                          95.9 179 
                                                                                
