 2017  216 1235 20.8 L   6.798 -73.205146.7  RSN  6 0.2 1.4LRSN                1
 GAP=129        0.63       2.6     2.9  4.4  0.4216E+00  0.4243E+01  0.1038E+01E
 Epicentro: ZAPATOCA - SANTANDER                                               3
 ACTION:UPD 17-05-24 15:36 OP:jn   STATUS:               ID:20170216123520 L   I
 OLDACT:DUP 17-02-16 22:01 OP:cog  STATUS:               ID:20170216122744d    3
 2017-02-16-1228-00M.COL___358                                                 6
 STAT SP IPHASW D HRMM SECON CODA AMPLIT PERI AZIMU VELO AIN AR TRES W  DIS CAZ7
 BAR2 EZ EP       1235 40.48                             171   -0.0610 22.8 174 
 BAR2 EZ ES       1235 55.86                             171   -0.0710 22.8 174 
 BAR2 EZ I        1235 56.60        10.6 0.18            170           22.8 174 
 PAM  EZ EP       1235 43.65                             150    0.2610 81.9  43 
 PAM  EN ES       1236  1.13                             150    0.1210 81.9  43 
 PAM  EZ I        1236  3.64         4.7 0.28            151           81.9  43 
 RUS  HZ EP       1235 44.36                             144   -0.3210  101 172 
 RUS  HN ES       1236  3.08                             144   -0.2210  101 172 
 RUS  HZ I        1236  3.77         3.8 0.24            144            101 172 
 PTB  HZ EP       1235 47.09                             134   -0.18 9  141 258 
 PTB  HN ES       1236  8.36                             134    0.44 9  141 258 
 PTB  HZ I        1236 10.46         3.5 0.34            134            141 258 
 ZAR  HZ EP       1235 52.57                             123   -0.14 9  198 293 
 ZAR  HE ES       1236 17.32                             123   -0.26 9  198 293 
 CHI  HZ EP       1235 58.70                             117    0.35 8  247 194 
 CHI  HE ES       1236 27.84                             117    0.20 8  247 194 
 CHI  HZ I        1236 31.81         1.4 0.40            118            247 194 
                                                                                
