 2016  716 1043 17.2 L   6.887 -73.133145.8  RSN 10 0.3 1.6LRSN                1
 GAP=211        0.78       3.1     4.4  5.1  0.4333E+01  0.3475E+01 -0.1157E+01E
 Epicentro: PIEDECUESTA - SANTANDER                                            3
 ACTION:UPD 17-03-29 16:51 OP:lp   STATUS:               ID:20160716104317 L   I
 OLDACT:UP  16-07-16 21:07 OP:dani STATUS:               ID:20160716103759     3
 OLDACT:UP  16-07-16 21:05 OP:dani STATUS:               ID:20160716103759     3
 OLDACT:UP  16-07-16 21:04 OP:dani STATUS:               ID:20160716103759     3
 OLDACT:UP  16-07-16 21:04 OP:dani STATUS:               ID:20160716103759     3
 OLDACT:UP  16-07-16 21:04 OP:dani STATUS:               ID:20160716103759     3
 OLDACT:REG 16-07-16 19:26 OP:dani STATUS:               ID:20160716103759     3
 2016-07-16-1037-59S.COL___312                                                 6
 STAT SP IPHASW D HRMM SECON CODA AMPLIT PERI AZIMU VELO AIN AR TRES W  DIS CAZ7
 BAR2 EZ EP       1043 37.74                             167    0.6610 33.1 190 
 BAR2 EZ ES       1043 52.52                             167   -0.0610 33.1 190 
 BAR2 EZ I        1043 53.95         9.7 0.26            164           33.1 190 
 BRR  HZ EP       1043 38.01                             153   -0.2010 68.5 291 
 BRR  HN ES   4   1043 56.70                             153    2.11 0 68.5 291 
 BRR  HZ I        1044  0.58         7.4 0.52            149           68.5 291 
 RUS  HZ EP       1043 41.77                             141    0.0910  110 177 
 RUS  HE ES       1044  0.60                             141   -0.1610  110 177 
 RUS  HZ I        1044  3.09         2.0 0.32            144            110 177 
 PTB  HZ EP       1043 44.33                             131   -0.18 9  151 255 
 PTB  HN ES       1044  5.66                             131   -0.14 9  151 255 
 PTB  HZ I        1044 10.51         4.2 0.30            130            151 255 
 SPBC HZ EP       1043 46.72                             128    0.19 9  172 217 
 SPBC HN ES       1044  9.63                             128    0.24 9  172 217 
 SPBC HZ I        1044 16.31         5.2 0.28            128            172 217 
 ZAR  HZ EP   4   1043 50.91                             123    1.46 0  202 289 
 ZAR  HE ES       1044 14.68                             123    0.09 9  202 289 
 ZAR  HZ I        1044 21.99         4.4 0.30            123            202 289 
 CHI  HZ EP       1043 55.46                             116   -0.51 8  258 195 
 CHI  HN ES       1044 25.55                             116   -0.65 8  258 195 
 CHI  HZ I        1044 27.44         2.2 0.44            118            258 195 
 GUY2CHZ EP   4   1044  2.96                             112    1.37 0  308 233 
 GUY2CHE ES   4   1044 40.78                             112    4.57 0  308 233 
 GUY2CHZ I        1044 44.09         1.9 0.72                           308 233 
 PRA  HZ EP       1044 12.33                             106    0.53 6  401 209 
 PRA  HE ES       1044 54.87                             106    0.49 6  401 209 
 PRA  HZ I        1045  0.25         1.7 0.22            108            401 209 
 SJC  HZ EP       1044 11.54                             106   -0.38 6  402 326 
 SJC  HN ES       1044 54.60                             106    0.00 6  402 326 
 SJC  HZ I        1045  0.72         1.0 0.66            108            402 326 
                                                                                
