 2013  716 1534 45.2 L   6.819 -73.117147.7  RSN 12 0.5 2.5LRSN 2.9WRSN        1
 SPEC AVERAGE  MO 13.5 ST  4.7 OM  2.0 f0 4.40 R0.3679 AL 2.18 WI 13.7 MW  2.9 3
 SPEC SD       MO  0.2 ST  4.7 OM  0.3 f0 1.18 R0.0791 AL      WI      MW  0.2 3
 GAP=194        1.12       3.6     5.2  5.6  0.9230E+00  0.9288E+01  0.1415E+01E
 Epicentro: LOS SANTOS - SANTANDER                                             3
 SPEC PRA HH N MO 13.5 ST  2.4 OM  1.5 f0 3.93 R0.3954 AL 2.25 WI 15.6 MW  3.0 3
 SPEC PRA HH N T153619 K 0.000 GD  421 VS 4.20 DE 3.20 Q0300.0 QA 0.60 VS 4.20 3
 SPECGUY2CHH N MO 13.7 ST  2.1 OM 1.78 f0 3.29 R0.4730 AL 2.53 WI 19.3 MW  3.1 3
 SPECGUY2CHH N T1536 3 K 0.000 GD  338 VS 4.20 DE 3.20 Q0300.0 QA 0.60 VS 4.20 3
 SPEC HEL HH N MO 13.4 ST  1.1 OM  1.5 f0 3.33 R0.4667 AL 2.11 WI 23.5 MW  2.9 3
 SPEC HEL HH N T153556 K 0.000 GD  313 VS 4.20 DE 3.20 Q0300.0 QA 0.60 VS 4.20 3
 SPEC SML HH N MO 13.5 ST 11.4 OM  1.7 f0 6.50 R0.2391 AL 1.63 WI 20.2 MW  3.0 3
 SPEC SML HH N T153549 K 0.000 GD  284 VS 4.20 DE 3.20 Q0300.0 QA 0.60 VS 4.20 3
 SPEC NOR HH N MO 13.8 ST 15.1 OM  2.0 f0 5.70 R0.2726 AL 2.99 WI 14.3 MW  3.2 3
 SPEC NOR HH N T153548 K 0.000 GD  280 VS 4.20 DE 3.20 Q0300.0 QA 0.60 VS 4.20 3
 SPEC ZAR HH E MO 13.9 ST  4.9 OM  2.1 f0 3.75 R0.4144 AL 2.29 WI 18.1 MW  3.2 3
 SPEC ZAR HH E T153542 K 0.000 GD  253 VS 4.20 DE 3.20 Q0300.0 QA 0.60 VS 4.20 3
 SPEC PTB HH N MO 13.5 ST  2.7 OM  1.8 f0 4.12 R0.3772 AL 1.87 WI  9.6 MW  3.0 3
 SPEC PTB HH N T153533 K 0.000 GD  211 VS 4.20 DE 3.20 Q0300.0 QA 0.60 VS 4.20 3
 SPEC RUS HH N MO 13.1 ST0.955 OM  1.4 f0 4.17 R0.3727 AL 2.48 WI  5.6 MW  2.6 3
 SPEC RUS HH N T153527 K 0.000 GD  180 VS 4.20 DE 3.20 Q0300.0 QA 0.60 VS 4.20 3
 SPEC BRR HH N MO 13.6 ST  2.6 OM  2.0 f0 3.79 R0.4100 AL 2.03 WI  8.9 MW  3.0 3
 SPEC BRR HH N T153523 K 0.000 GD  164 VS 4.20 DE 3.20 Q0300.0 QA 0.60 VS 4.20 3
 SPEC BAR2SH Z MO 13.1 ST  1.1 OM  1.5 f0 4.28 R0.3631 AL 1.98 WI  7.1 MW  2.7 3
 SPEC BAR2SH Z T153519 K 0.000 GD  149 VS 4.20 DE 3.20 Q0300.0 QA 0.60 VS 4.20 3
 ACTION:UPD 13-08-12 10:38 OP:ep   STATUS:               ID:20130716153445 L   I
 OLDACT:UP  13-07-16 18:32 OP:nd   STATUS:               ID:20130716152959     3
 OLDACT:REG 13-07-16 16:05 OP:nd   STATUS:               ID:20130716152959     3
 2013-07-16-1529-59M.COL___266                                                 6
 STAT SP IPHASW D HRMM SECON CODA AMPLIT PERI AZIMU VELO AIN AR TRES W  DIS CAZ7
 BAR2 SZ EP     D 1535  5.31                             169    0.1510 26.1 196 
 BAR2 SZ ES       1535 19.95                             169   -0.7410 26.1 196 
 BAR2 SZ I        1535 21.87        79.7 0.26            166           26.1 196 
 GIR2 SZ EP       1535  5.47                             168    0.3710 29.9 344 
 GIR2 SZ ES       1535 21.03                             168    0.4310 29.9 344 
 GIR2 SZ I        1535 21.51        26.8 0.10            166           29.9 344 
 BRR  HZ IP     C 1535  7.07                             152    0.3710 73.1 296 
 BRR  HN ES       1535 23.84                             152    0.4010 73.1 296 
 BRR  HZ I        1535 26.69        53.9 0.26            148           73.1 296 
 RUS  HZ EP       1535  9.30                             144   -0.0210  103 178 
 RUS  HN ES       1535 27.72                             144   -0.3810  103 178 
 RUS  HZ I        1535 30.03        23.2 0.28            144            103 178 
 PTB  HZ EP       1535 11.85                             132   -0.84 9  151 258 
 PTB  HN ES       1535 33.85                             132   -0.24 9  151 258 
 PTB  HZ I        1535 35.66        28.9 0.20            130            151 258 
 SPBC HZ IP     D 1535 14.32                             129    0.08 9  167 219 
 SPBC HN ES       1535 37.66                             129    0.81 9  167 219 
 ZAR  HZ EP       1535 19.02                             122    0.98 8  206 291 
 ZAR  HE ES       1535 43.30                             122   -0.31 8  206 291 
 ZAR  HZ I        1535 49.57        26.0 0.34            122            206 291 
 NOR  HZ EP       1535 21.43                             118   -0.06 8  239 234 
 NOR  HN ES   2   1535 49.31                             118   -0.46 4  239 234 
 NOR  HZ I        1535 57.19        24.8 0.18            118            239 234 
 SML  HZ EP       1535 21.71                             118   -0.20 8  243 334 
 SML  HN ES       1535 49.71                             118   -0.80 8  243 334 
 SML  HZ I        1535 54.42        47.5 0.10            118            243 334 
 HEL  HZ EP       1535 26.00                             115    0.05 7  276 256 
 HEL  HN ES   2   1535 57.95                             115    0.24 4  276 256 
 HEL  HZ I        1536  5.02        13.2 0.38            114            276 256 
 GUY2CHZ EP   4   1535 30.39                             112    1.02 0  305 235 
 GUY2CHN ES       1536  3.85                             112    0.05 7  305 235 
 GUY2CHZ I        1536 11.60        17.3 0.28                           305 235 
 PRA  HZ EP       1535 38.94                             107   -0.29 6  395 210 
 PRA  HN ES       1536 21.05                             107   -0.29 6  395 210 
 PRA  HZ I        1536 27.70        17.5 0.36            107            395 210 
                                                                                
