 2017  516 1416 29.6 L   6.819 -73.165149.1  RSN 15 0.4 2.5LRSN                1
 GAP=109        1.07       3.6     3.6  6.3  0.1033E+01  0.4115E+01  0.5629E+01E
 Epicentro: LOS SANTOS - SANTANDER                                             3
 ACTION:UPD 17-06-16 13:36 OP:jn   STATUS:               ID:20170516141629 L   I
 OLDACT:REG 17-05-16 20:21 OP:lv   STATUS:               ID:20170516140736     3
 2017-05-16-1408-00M.COL___359                                                 6
 STAT SP IPHASW D HRMM SECON CODA AMPLIT PERI AZIMU VELO AIN AR TRES W  DIS CAZ7
 BRR  HZ EP       1416 51.35                             154    0.4010 68.3 298 
 BRR  HN ES       1417  7.98                             154    0.3810 68.3 298 
 BRR  HZ I        1417 10.93        46.8 0.12            154           68.3 298 
 PAM  EZ EP       1416 52.21                             151    0.0510 77.2  42 
 PAM  EN ES       1417  9.54                             151   -0.2110 77.2  42 
 PAM  EZ I        1417 11.40        29.0 0.15            160           77.2  42 
 PTB  HZ EP       1416 56.23                             133   -0.46 9  146 258 
 PTB  HN ES       1417 17.31                             133   -0.51 9  146 258 
 PTB  HZ I        1417 23.47        45.8 0.30            133            146 258 
 SPBC HZ EP       1416 58.26                             130   -0.13 9  164 218 
 SPBC HN ES       1417 21.29                             130    0.45 9  164 218 
 SPBC HZ I        1417 27.48        86.1 0.09            130            164 218 
 YPLC HZ EP       1416 59.47                             127   -0.45 9  180 151 
 YPLC HN ES       1417 23.97                             127    0.40 9  180 151 
 YPLC HZ I        1417 30.93        21.1 0.31            130            180 151 
 ZAR  HZ EP       1417  2.02                             123    0.04 9  201 292 
 ZAR  HN ES       1417 27.16                             123   -0.07 9  201 292 
 ZAR  HZ I        1417 34.00        41.4 0.17            126            201 292 
 NOR  HZ EP       1417  5.42                             119   -0.05 8  234 234 
 NOR  HN ES       1417 32.97                             119   -0.48 8  234 234 
 NOR  HZ I        1417 40.73        43.0 0.12            121            234 234 
 CHI  HZ EP       1417  7.67                             118    0.02 8  250 195 
 CHI  HN ES       1417 37.21                             118   -0.12 8  250 195 
 CHI  HZ I        1417 40.94        10.5 0.35            119            250 195 
 ROSC BZ EP   9   1417  9.20                             117    1.21 0  254 210 
 ROSC BN ES       1417 39.63                                    0.49 8  254 210 
 ROSC BZ I        1417 47.42        35.8 0.08            119            254 210 
 HEL  HZ EP   4   1417 11.00                             115    1.19 0  271 255 
 HEL  HN ES   4   1417 44.19                             115    3.01 0  271 255 
 HEL  HZ I        1417 48.24        20.7 0.09            117            271 255 
 PTGC HZ EP   9   1417 12.20                             112   -1.72 0  311 158 
 PTGC HN ES       1417 45.03                                   -1.74 7  311 158 
 PTGC HZ I        1417 48.09        26.4 0.05            114            311 158 
 CBOC HZ EP       1417 17.24                             110    0.74 7  332 252 
 CBOC HN ES   4   1417 55.63                             110    2.55 0  332 252 
 CBOC HZ I        1418  4.76         8.5 0.68            112            332 252 
 DBB  EZ EP       1417 16.92                             110   -0.03 7  337 274 
 DBB  HN ES       1417 53.55                             110   -0.33 7  337 274 
 DBB  EZ I        1417 54.73         7.1 0.09            112            337 274 
 ORTC HZ EP       1417 24.36                             107    0.67 6  396 216 
 ORTC HN ES   2   1418  6.35                             107    0.47 3  396 216 
 ORTC HZ I        1418 11.17         9.7 0.37            109            396 216 
 SJC  HZ EP   4   1417 23.56                             106   -1.37 0  406 327 
 SJC  HN ES   4   1418  5.08                             106   -3.00 0  406 327 
 SJC  HZ I        1418 10.07         7.0 0.07            109            406 327 
                                                                                
