 2010  216 1029 29.5 L   6.202 -73.734105.8  RSN  4 0.3 1.2LRSN                1
 GAP=183        0.51       5.4     7.4 12.6 -0.1833E+02  0.4986E+02  0.1681E+02E
 Epicentro: LANDAZURI - SANTANDER                                              3
 ACTION:UP  10-08-24 09:49 OP:vdl  STATUS:               ID:20100216102929 L   I
 2010-02-16-1029-07S.COL___094                                                 6
 STAT SP IPHASW D HRMM SECON CODA AMPLIT PERI AZIMU VELO SNR AR TRES W  DIS CAZ7
 BAR2 SZ EP   1   1029 47.39                             142     0.3 7   75  55 
 BAR2 SZ ES   2   1030  0.51                             142    -0.3 5   75  55 
 CHI  HZ EP   1   1029 56.81                             116     0.0 7  174 180 
 CHI  HN ES   2   1030 17.98                             116    -0.2 4  174 180 
 CHI  HZ I        1030 25.44         1.4 0.56                           174 180 
 RREF BZ EP   1   1030  3.16                             109    -0.2 6  229 231 
 RREF BE ES   2   1030 29.86                             109     0.1 4  229 231 
 RREF BZ I        1030 36.65         2.0 0.60                           229 231 
 PRA  HZ EP   1   1030 11.06                             103    -0.2 5  303 205 
 PRA  HE ES   2   1030 44.56                             103     0.7 4  303 205 
 PRA  HZ I        1030 55.49         1.0 0.34                           303 205 
                                                                                
