 2010 1216 1027 44.7 L   6.768 -73.160143.4  RSN  4 0.1 1.5LRSN                1
 GAP=300        0.31       5.9     5.6  5.4 -0.1034E+02  0.8251E+01  0.1517E+01E
 Epicentro: LOS SANTOS - SANTANDER                                             3
 ACTION:UP  11-01-14 15:25 OP:pat  STATUS:               ID:20101216102744 L   I
 2010-12-16-1025-32S.COL___134                                                 6
 STAT SP IPHASW D HRMM SECON CODA AMPLIT PERI AZIMU VELO SNR AR TRES W  DIS CAZ7
 BAR2 SZ EP   1   1028  3.93                             172     0.0 7   20 188 
 BAR2 SZ ES   2   1028 18.90                             172    -0.1 5   20 188 
 BAR2 SZ I        1028 21.62        10.0 0.22                            20 188 
 RUS  HZ EP   2   1028  8.04                             144     0.1 5   97 175 
 RUS  HN ES   2   1028 26.08                             144     0.0 5   97 175 
 RUS  HZ I        1028 28.22         3.6 0.41                            97 175 
 NOR  SE ES   2   1028 47.41                             118     0.0 4  231 235 
 CHI  HZ EP   2   1028 21.64                             117    -0.2 4  245 195 
 CHI  HZ I        1029  0.08         2.0 0.37                           245 195 
                                                                                
