 2014  116 1513 17.4 L   6.379 -73.663 40.0  RSN 10 0.5 1.7LRSN                1
 GAP= 75        1.19       3.8     3.2  7.7 -0.2159E+01  0.8058E+01  0.1269E+01E
 Epicentro: SANTA HELENA DEL OPON - SANTANDER                                  3
 ACTION:UPD 14-03-13 09:55 OP:ep   STATUS:               ID:20140116151317 L   I
 OLDACT:DUP 14-01-16 10:54 OP:stll STATUS:               ID:20140116150815d    3
 2014-01-16-1508-14M.COL___240                                                 6
 STAT SP IPHASW D HRMM SECON CODA AMPLIT PERI AZIMU VELO AIN AR TRES W  DIS CAZ7
 BAR2 SZ EP       1513 33.11                             145    0.5610 58.2  66 
 BAR2 SZ ES       1513 44.89                             145    0.5410 58.2  66 
 BAR2 SZ I        1513 46.98       106.5 0.46            124           58.2  66 
 BRR  HZ EP       1513 34.10                             135    0.1010 80.7 356 
 BRR  HZ I        1513 50.06        18.5 0.42            113           80.7 356 
 RUS  HZ EP       1513 34.92                             134   -0.0310 83.8 130 
 RUS  HZ I        1513 35.18         8.5 0.32            123           83.8 130 
 RUS  HN ES       1513 48.12                             134   -0.5010 83.8 130 
 PTB  HZ IP     C 1513 33.99                             132   -0.8310 89.5 281 
 PTB  HN ES       1513 47.91                             132   -0.4810 89.5 281 
 PTB  HZ I        1513 50.75        29.7 0.10            116           89.5 281 
 SPBC HZ EP       1513 35.03                             131   -0.1510 92.3 209 
 SPBC HN ES       1513 48.73                             131   -0.3010 92.3 209 
 SPBC HZ I        1513 51.51        18.6 0.34            123           92.3 209 
 PAM  SZ EP       1513 41.94                             117    0.23 9  150  45 
 PAM  SZ I        1514  4.78         4.3 0.38            103            150  45 
 NOR  HZ EP       1513 41.95                             114   -0.41 9  161 236 
 NOR  HN ES       1514  1.90                             114    0.09 9  161 236 
 NOR  HZ I        1514  4.20        11.0 0.24            105            161 236 
 CHI  HZ EP       1513 46.31                             110   -0.23 9  194 182 
 CHI  HN ES       1514  9.24                             110   -0.02 9  194 182 
 HEL  HZ EP       1513 47.88                             109   -0.23 8  207 264 
 HEL  HN ES       1514 12.39                             109    0.35 8  207 264 
 HEL  HZ I        1514 19.28         5.7 0.20            100            207 264 
 GUY2CHZ EP       1513 51.38                             107    0.75 8  228 236 
 GUY2CHE ES       1514 17.62                             107    1.09 8  228 236 
 GUY2CHZ I        1514 22.00         3.8 0.56                           228 236 
                                                                                
