 2011  516 1329 19.6 L   6.782 -73.087137.0  RSN  4 0.3 1.5LRSN                1
 GAP=233        0.57      10.9    19.6  9.9  0.1731E+03 -0.8336E+02 -0.4127E+02E
 Epicentro: LOS SANTOS - SANTANDER                                             3
 ACTION:UP  11-06-29 08:53 OP:tino STATUS:               ID:20110516132919 L   I
 2011-05-16-1327-21S.COL___141                                                 6
 STAT SP IPHASW D HRMM SECON CODA AMPLIT PERI AZIMU VELO SNR AR TRES W  DIS CAZ7
 BAR2 SZ EP   1   1329 38.27                             170     0.1 7   23 207 
 BAR2 SZ I        1329 38.64         9.5 0.12                            23 207 
 BAR2 SZ ES   2   1329 52.24                             170    -0.4 5   23 207 
 BTL  SZ EP   1   1329 38.43                             169     0.2 7   25 307 
 BRR  HZ EP   1   1329 39.85                             149    -0.4 7   78 298 
 BRR  HZ I        1329 40.62        11.4 0.13                            78 298 
 BRR  HE ES   2   1329 56.68                             149     0.4 5   78 298 
 RUS  HZ EP   1   1329 42.38                             143     0.1 7   98 180 
 RUS  HZ I        1329 43.25         3.0 0.09                            98 180 
 RUS  HN ES   2   1330  0.05                             143     0.0 5   98 180 
                                                                                
