 2011  116 1648 40.5 L   6.798 -73.123143.3  RSN  4 0.4 1.6LRSN                1
 GAP=282        0.69      12.7    10.4 11.1 -0.1945E+02  0.6883E+02 -0.3016E+02E
 Epicentro: LOS SANTOS - SANTANDER                                             3
 ACTION:UP  11-02-08 08:41 OP:pat  STATUS:               ID:20110116164840 L   I
 2011-01-16-1640-00M.COL___136                                                 6
 STAT SP IPHASW D HRMM SECON CODA AMPLIT PERI AZIMU VELO SNR AR TRES W  DIS CAZ7
 BAR2 SZ EP   1   1648 59.79                             170     0.0 7   24 196 
 BAR2 SZ I        1649  0.17        14.3 0.35                            24 196 
 BAR2 SZ ES   2   1649 14.73                             170    -0.2 5   24 196 
 RUS  HZ EP   1   1649  3.78                             144    -0.2 7  100 178 
 RUS  HZ I        1649  4.06         4.0 0.15                           100 178 
 RUS  HN ES   2   1649 22.81                             144     0.5 5  100 178 
 NOR  SZ EP   1   1649 15.89                             118    -0.4 6  237 235 
 NOR  SN ES   2   1649 43.84                             118    -0.4 4  237 235 
 HEL  HZ EP   1   1649 21.54                             114     0.7 6  275 256 
                                                                                
