 2017 1216 1014 46.6 L   6.795 -73.158137.2  RSN  5 0.4 1.4LRSN                1
 GAP=147        0.87       5.9     4.4  6.8 -0.9949E+01  0.1377E+02 -0.8642E+00E
 Epicentro: LOS SANTOS - SANTANDER                                             3
 ACTION:UPD 18-01-04 13:21 OP:rebc STATUS:               ID:20171216101446 L   I
 OLDACT:REG 17-12-16 19:57 OP:osc  STATUS:               ID:20171216100739     3
 2017-12-16-1008-00M.COL___458                                                 6
 STAT SP IPHASW D HRMM SECON CODA AMPLIT PERI AZIMU VELO AIN AR TRES W  DIS CAZ7
 BAR2 EZ EP       1015  5.10                             170   -0.1010 22.6 187 
 BAR2 EZ ES       1015 20.02                             170    0.3210 22.6 187 
 PAM  EZ EP       1015  7.78                             149   -0.2310 78.7  40 
 PAM  EN ES       1015 24.74                             149    0.0410 78.7  40 
 PTB  HZ EP       1015 12.22                             130   -0.55 9  146 259 
 PTB  HN ES       1015 32.65                             130   -0.52 9  146 259 
 PTB  HZ I        1015 38.02         2.6 0.26            130            146 259 
 ZAR  HZ EP       1015 18.97                             121    0.56 9  203 292 
 ZAR  HE ES       1015 43.41                             121    0.20 9  203 292 
 ZAR  HZ I        1015 48.11         4.0 0.44            121            203 292 
 GUY2CHZ EP       1015 30.01                             111    0.33 7  300 235 
 GUY2CHE ES       1016  3.63                             111    0.36 7  300 235 
 GUY2CHZ I        1016 13.17         1.3 0.40                           300 235 
                                                                                
