 2012 1216 1602  8.2 L   6.820 -73.191134.6  RSN  7 0.4 1.7LRSN                1
 GAP=130        0.98       4.6     4.1  7.7 -0.2601E+01  0.1141E+02 -0.1499E+01E
 Epicentro: ZAPATOCA - SANTANDER                                               3
 ACTION:UPD 13-01-04 14:28 OP:ep   STATUS:               ID:20121216160208 L   I
 2012-12-16-1600-00M.COL___239                                                 6
 STAT SP IPHASW D HRMM SECON CODA AMPLIT PERI AZIMU VELO AIN AR TRES W  DIS CAZ7
 BAR2 SZ EP       16 2 26.41                             169   -0.0710 25.2 178 
 BAR2 SZ ES       16 2 40.67                             169   -0.1010 25.2 178 
 BAR2 SZ I        16 2 42.77        11.2 0.18                          25.2 178 
 BRR  HZ EP       16 2 28.30                             152    0.5210 65.7 299 
 BRR  HN ES       16 2 43.71                             152    0.6210 65.7 299 
 BRR  HE I        16 2 45.84        14.4 0.22                          65.7 299 
 PAM  SZ EP       16 2 29.17                             148   -0.1310 79.1  43 
 PAM  SN ES       16 2 45.46                             148   -0.3310 79.1  43 
 PAM  SZ I        16 2 48.41         4.9 0.46                          79.1  43 
 RUS  HN ES       16 2 49.02                             141    0.1610  103 173 
 RUS  HN I        16 2 50.63         9.4 0.24                           103 173 
 PTB  HZ EP       16 2 33.79                             130   -0.02 9  143 258 
 PTB  HN ES       16 2 52.99                             130   -0.83 9  143 258 
 PTB  HN I        16 2 59.13         8.6 0.22                           143 258 
 ZAR  HN ES       16 3  3.54                             121   -0.08 9  199 292 
 NOR  HE ES       16 3 10.28                             116    0.19 8  232 233 
 NOR  HE I        16 3 13.26         4.9 0.22                           232 233 
                                                                                
