 2016  216 1140 50.6 L   6.787 -73.138140.3  RSN 24 0.5 2.9LRSN                1
 GAP= 55        1.13       2.8     2.7  4.9 -0.1008E+01  0.3007E+01  0.2608E+01E
 Epicentro: LOS SANTOS - SANTANDER                                             3
 ACTION:UPD 16-03-04 21:26 OP:rebc STATUS:               ID:20160216114050 L   I
 OLDACT:REG 16-02-16 21:33 OP:ak   STATUS:               ID:20160216113750     3
 2016-02-16-1137-50M.COL___315                                                 6
 STAT SP IPHASW D HRMM SECON CODA AMPLIT PERI AZIMU VELO AIN AR TRES W  DIS CAZ7
 BAR2 EZ IP     C 1141  9.76                             171    0.1610 22.1 193 
 BAR2 EZ ES       1141 24.00                             171   -0.3810 22.1 193 
 BAR2 EZ I        1141 25.63       285.4 0.16            169           22.1 193 
 BRR  HZ IP     C 1141 11.68                             151    0.3910 72.6 299 
 BRR  HE ES       1141 27.86                             151    0.4610 72.6 299 
 BRR  HZ I        1141 30.34       134.6 0.20            150           72.6 299 
 PAM  EZ IP     D 1141 12.63                             150    0.3110 78.0  38 
 PAM  EN ES       1141 29.49                             150    0.2610 78.0  38 
 PAM  EZ I        1141 31.96       204.6 0.54            152           78.0  38 
 RUS  HZ EP       1141 13.71                             143   -0.0510 99.1 176 
 RUS  HE ES       1141 31.96                             143    0.1810 99.1 176 
 RUS  HZ I        1141 33.05       134.6 0.20            143           99.1 176 
 PTB  HZ EP       1141 16.36                             131   -0.87 9  148 259 
 PTB  HN ES       1141 37.25                             131   -0.71 9  148 259 
 PTB  HZ I        1141 40.02       131.1 0.20            130            148 259 
 TAM  HZ IP     D 1141 18.11                             129    0.32 9  154 105 
 TAM  HE ES       1141 39.31                             129    0.35 9  154 105 
 TAM  HZ I        1141 40.19        53.3 0.56            132            154 105 
 OCA  HZ EP       1141 18.65                             128   -0.04 9  162 353 
 OCA  HN ES       1141 39.86                             128   -0.70 9  162 353 
 OCA  HZ I        1141 45.42       139.1 0.36            129            162 353 
 SPBC HZ EP       1141 18.68                             128    0.00 9  163 220 
 SPBC HN ES       1141 40.18                             128   -0.36 9  163 220 
 SPBC HZ I        1141 45.10        95.4 0.38            128            163 220 
 ZAR  HZ EP       1141 22.98                             121    0.10 8  205 292 
 ZAR  HN ES       1141 48.70                             121    0.68 8  205 292 
 ZAR  HZ I        1141 53.85       109.5 0.50            121            205 292 
 NOR  HZ EP       1141 25.74                             117   -0.31 8  235 235 
 NOR  HE ES       1141 53.93                             117    0.27 8  235 235 
 NOR  HZ I        1141 55.68        70.6 0.16            118            235 235 
 CHI  HZ EP       1141 27.92                             116   -0.00 8  247 195 
 CHI  HN ES       1141 56.18                             116   -0.82 8  247 195 
 CHI  HZ I        1142  0.57        28.1 0.50            117            247 195 
 ROSC BZ EP   4   1141 29.67                             116    1.28 0  252 211 
 ROSC BN ES   4   1142  0.88                             116    3.06 0  252 211 
 ROSC BZ I        1142  5.98        69.7 0.50            116            252 211 
 HEL  HZ EP       1141 31.60                             114    0.96 8  273 256 
 HEL  HN ES       1142  1.57                             114   -0.26 8  273 256 
 HEL  HZ I        1142  8.54        56.1 0.42            114            273 256 
 URE  HZ EP   4   1141 30.36                             112   -1.25 0  285 292 
 URE  HN ES       1142  3.03                             112   -0.52 7  285 292 
 URE  HZ I        1142  3.73        65.9 0.34            113            285 292 
 GUY2CHZ EP       1141 34.24                             111    0.25 7  301 235 
 GUY2CHN ES       1142  8.18                             111    0.38 7  301 235 
 GUY2CHZ I        1142 15.02        48.6 0.32                           301 235 
 SOCV BZ EP   4   1141 31.76                             111   -1.70 0  301  57 
 SOCV BN ES   4   1142  3.17                             111   -3.69 0  301  57 
 PTGC HZ EP       1141 33.08                             111   -1.00 7  307 159 
 PTGC HN ES   4   1142  5.89                             111   -2.06 0  307 159 
 PTGC HZ I        1142  8.49        45.3 0.32            111            307 159 
 CRECREZ EP   4   1141 34.72                             110   -1.26 0  318 231 
 CRECREE ES   4   1142  8.93                             110   -2.42 0  318 231 
 ELA  HZ EP   4   1141 38.51                             109    1.27 0  329 230 
 ELA  HN ES   4   1142 15.60                             109    2.02 0  329 230 
 ELA  HZ I        1142 26.50        23.6 0.50            110            329 230 
 CBOC HZ EP       1141 38.18                             109    0.80 7  334 252 
 CBOC HE ES       1142 13.47                             109   -0.37 7  334 252 
 CBOC HZ I        1142 16.40        16.1 0.22            109            334 252 
 ANIL HZ EP       1141 40.75                             107    0.55 6  357 225 
 ANIL HN ES       1142 19.65                             107    0.81 6  357 225 
 ANIL HZ I        1142 27.38        67.3 0.36            108            357 225 
 SDV  BZ EP       1141 39.56                             107   -0.96 6  361  50 
 SDV  BE ES   4   1142 16.78                             107   -2.64 0  361  50 
 SDV  BZ I        1142 21.61        26.9 0.55            108            361  50 
 ORTC HZ EP       1141 44.17                             105   -0.14 6  395 216 
 ORTC HN ES       1142 27.12                             105    0.96 6  395 216 
 ORTC HZ I        1142 31.44        23.0 0.36            106            395 216 
 PAL  HZ EP       1141 45.49                             105   -0.14 6  406 239 
 PAL  HN ES       1142 28.01                             105   -0.50 6  406 239 
 PAL  HZ I        1142 34.60        22.9 0.34            105            406 239 
 SJC  HZ EP   4   1141 44.18                             105   -2.05 0  411 327 
 SJC  HN ES   4   1142 25.58                             105   -4.01 0  411 327 
 SJC  HZ I        1142 30.13        20.8 0.46            105            411 327 
 CRJC HZ EP   4   1141 49.73                             102   -3.43 0  469   3 
 CRJC HN ES   4   1142 36.95                             102   -4.98 0  469   3 
 CRJC HZ I        1142 42.43        12.2 0.48            103            469   3 
                                                                                
