 2012 1216 1646 36.3 L   6.788 -73.127141.1  RSN 13 0.4 2.8LRSN 3.2WRSN        1
 SPEC AVERAGE  MO 13.8 ST  6.2 OM  2.4 f0 3.22 R0.5725 AL 2.42 WI 18.6 MW  3.2 3
 SPEC SD       MO  0.2 ST  9.1 OM  0.4 f0 1.49 R0.2844 AL      WI      MW  0.1 3
 GAP= 72        1.08       3.1     3.0  5.0 -0.3833E+00  0.3569E+01  0.3604E+01E
 Epicentro: LOS SANTOS - SANTANDER                                             3
 SPEC PTB HH N MO 13.8 ST  3.8 OM  2.1 f0 3.49 R0.4212 AL 1.81 WI 16.8 MW  3.2 3
 SPEC PTB HH N T164722 K 0.000 GD  205 VS 4.20 DE 3.20 Q0300.0 QA 0.60 VS 4.20 3
 SPEC RUS HH N MO 13.5 ST  1.2 OM  1.9 f0 2.95 R0.4983 AL 2.26 WI 12.6 MW  3.0 3
 SPEC RUS HH N T164715 K 0.000 GD  172 VS 4.20 DE 3.20 Q0300.0 QA 0.60 VS 4.20 3
 SPEC PRA HH N MO 13.5 ST  2.1 OM  1.5 f0 3.62 R0.4061 AL 1.89 WI 15.7 MW  3.0 3
 SPEC PRA HH N T1648 9 K 0.000 GD  416 VS 4.20 DE 3.20 Q0300.0 QA 0.60 VS 4.20 3
 SPEC NOR HH N MO 13.9 ST 28.4 OM  2.1 f0 6.20 R0.2371 AL 3.74 WI 18.9 MW  3.2 3
 SPEC NOR HH N T164738 K 0.000 GD  274 VS 4.20 DE 3.20 Q0300.0 QA 0.60 VS 4.20 3
 SPEC PAM SH N MO 13.8 ST0.175 OM  2.2 f0 1.26 R1.1667 AL 1.73 WI 16.4 MW  3.1 3
 SPEC PAM SH N T164713 K 0.000 GD  160 VS 4.20 DE 3.20 Q0300.0 QA 0.60 VS 4.20 3
 SPEC CHI HH N MO 14.1 ST  1.2 OM  2.2 f0 1.96 R0.7500 AL 2.01 WI 17.5 MW  3.3 3
 SPEC CHI HH N T164741 K 0.000 GD  285 VS 4.20 DE 3.20 Q0300.0 QA 0.60 VS 4.20 3
 SPEC CTABSH Z MO 14.0 ST  1.0 OM  2.2 f0 1.92 R0.7656 AL 2.48 WI 26.7 MW  3.3 3
 SPEC CTABSH Z T164737 K 0.000 GD  269 VS 4.20 DE 3.20 Q0300.0 QA 0.60 VS 4.20 3
 SPEC BRR HH N MO 14.0 ST 11.6 OM  2.4 f0 4.39 R0.3349 AL 3.47 WI 23.8 MW  3.3 3
 SPEC BRR HH N T164712 K 0.000 GD  159 VS 4.20 DE 3.20 Q0300.0 QA 0.60 VS 4.20 3
 ACTION:UPD 13-01-04 14:28 OP:ep   STATUS:               ID:20121216164636 L   I
 2012-12-16-1640-00M.COL___242                                                 6
 STAT SP IPHASW D HRMM SECON CODA AMPLIT PERI AZIMU VELO AIN AR TRES W  DIS CAZ7
 BAR2 SZ EP       1646 55.61                             170    0.2110 22.5 196 
 BAR2 SZ ES       1647 10.17                             170   -0.1010 22.5 196 
 BAR2 SZ I        1647 11.34       187.4 0.34                          22.5 196 
 GIR2 SZ EP       1646 55.61                             166    0.1010 32.9 347 
 GIR2 SZ ES       1647 10.64                             166    0.1710 32.9 347 
 GIR2 SZ I        1647 12.52        51.4 0.14                          32.9 347 
 BRR  HZ EP       1646 57.41                             151    0.2710 73.6 299 
 BRR  HN ES       1647 14.03                             151    0.6810 73.6 299 
 BRR  HN I        1647 14.93       384.1 0.28                          73.6 299 
 PAM  SZ EP       1646 58.37                             150    0.3210 77.1  38 
 PAM  SN ES       1647 15.02                             150    0.0410 77.1  38 
 PAM  SN I        1647 16.49        85.4 0.52                          77.1  38 
 RUS  HZ EP       1646 59.67                             143    0.1310 99.2 177 
 RUS  HN ES       1647 17.31                             143   -0.3210 99.2 177 
 RUS  HN I        1647 19.83       114.9 0.36                          99.2 177 
 PTB  HZ EP       1647  2.23                             131   -0.87 9  150 259 
 PTB  HN ES       1647 23.42                             131   -0.55 9  150 259 
 PTB  HN I        1647 28.02       123.6 0.42                           150 259 
 TAM  HZ EP       1647  3.92                             130    0.48 9  153 105 
 TAM  HN ES       1647 23.97                             130   -0.61 9  153 105 
 TAM  HN I        1647 27.34        22.6 0.68                           153 105 
 OCA  HZ EP       1647  3.78                             128   -0.67 9  162 352 
 OCA  HN ES       1647 26.31                             128   -0.06 9  162 352 
 OCA  HN I        1647 28.87       208.3 0.24                           162 352 
 ZAR  HZ EP       1647  8.56                             121   -0.18 8  206 292 
 ZAR  HN ES       1647 33.50                             121   -0.51 8  206 292 
 ZAR  HN I        1647 39.11        95.2 0.34                           206 292 
 CTAB SZ EP   4   1647 13.50                             118    1.68 0  230 211 
 NOR  HZ EP       1647 11.66                             117   -0.25 8  236 235 
 NOR  HN ES       1647 39.39                             117   -0.26 8  236 235 
 NOR  HN I        1647 41.92        75.0 0.18                           236 235 
 CHI  HZ EP       1647 13.94                             116    0.23 8  248 196 
 CHI  HN ES       1647 43.25                             116    0.39 8  248 196 
 CHI  HN I        1647 45.73        55.5 0.70                           248 196 
 HEL  HZ EP       1647 17.46                             114    0.95 8  274 256 
 HEL  HN ES       1647 48.65                             114    0.81 8  274 256 
 HEL  HN I        1647 53.58        23.7 0.30                           274 256 
 RREF HZ EP   4   1647 23.74                             110    1.37 0  322 230 
 PRA  HZ EP       1647 29.70                             106    0.00 6  392 210 
 PRA  HN ES       1648 11.01                             106   -0.30 6  392 210 
 PRA  HN I        1648 18.52        10.1 0.22                           392 210 
                                                                                
