 2017 1116 1209 14.4 L   6.782 -73.152138.8  RSN  6 0.4 1.2LRSN                1
 GAP=137        1.11       4.7     5.1  8.2  0.1317E+00  0.1244E+02  0.6599E+01E
 Epicentro: LOS SANTOS - SANTANDER                                             3
 ACTION:UPD 17-12-12 19:56 OP:rebc STATUS:               ID:20171116120914 L   I
 OLDACT:REG 17-11-16 20:18 OP:lv   STATUS:               ID:20171116120740     3
 2017-11-16-1208-00M.COL___444                                                 6
 STAT SP IPHASW D HRMM SECON CODA AMPLIT PERI AZIMU VELO AIN AR TRES W  DIS CAZ7
 BAR2 EZ EP       12 9 33.48                             171    0.3810 21.3 189 
 BAR2 EZ ES       12 9 48.53                             171    0.8110 21.3 189 
 BAR2 EZ I        12 9 49.93        10.8 0.50            171           21.3 189 
 PAM  EZ EP       12 9 36.19                             149    0.2410 79.4  39 
 PAM  EN ES       12 9 52.14                             149   -0.6610 79.4  39 
 PAM  EZ I        12 9 55.45         2.6 0.22            151           79.4  39 
 RUS  HZ EP       12 9 37.41                             143    0.1310 98.7 176 
 RUS  HN ES       12 9 54.58                             143   -0.5810 98.7 176 
 RUS  HZ I        12 9 57.17         1.7 0.38            145           98.7 176 
 PTB  HZ EP       12 9 40.49                             131   -0.17 9  147 260 
 PTB  HN ES       1210  1.30                             131    0.13 9  147 260 
 PTB  HZ I        1210  4.19         2.0 0.14            133            147 260 
 ZAR  HE ES       1210 11.02                             121   -0.30 9  204 293 
 CHI  HZ EP       12 9 51.71                             116    0.27 8  247 195 
 CHI  HN ES       1210 19.99                             116   -0.38 8  247 195 
                                                                                
