 2016  216 1445 49.0 L   6.783 -73.113152.0  RSN  7 0.4 1.5LRSN                1
 GAP=142        0.91       4.4     5.0  7.7 -0.5204E+01  0.2167E+02 -0.5729E+01E
 Epicentro: LOS SANTOS - SANTANDER                                             3
 ACTION:UPD 16-03-04 21:26 OP:rebc STATUS:               ID:20160216144549 L   I
 OLDACT:REG 16-02-16 21:52 OP:ak   STATUS:               ID:20160216143748     3
 2016-02-16-1437-48M.COL___315                                                 6
 STAT SP IPHASW D HRMM SECON CODA AMPLIT PERI AZIMU VELO AIN AR TRES W  DIS CAZ7
 BAR2 EZ EP       1446  9.59                             171    0.1910 22.4 200 
 BAR2 EZ ES       1446 25.14                             171   -0.1410 22.4 200 
 BAR2 EZ I        1446 26.54         3.7 0.25            171           22.4 200 
 PAM  EZ EP   2   1446 12.27                             152    0.39 5 76.7  37 
 PAM  EN ES       1446 29.86                             152    0.1710 76.7  37 
 PAM  EZ I        1446 31.98         4.0 0.28            154           76.7  37 
 RUS  HN ES       1446 32.08                             146   -0.0710 98.5 178 
 PTB  HZ EP       1446 16.09                             133   -0.72 9  151 260 
 PTB  HN ES       1446 37.95                             133   -0.52 9  151 260 
 PTB  HZ I        1446 43.50         5.0 0.60            133            151 260 
 SPBC HZ EP   2   1446 17.74                             130   -0.36 5  164 220 
 SPBC HN ES       1446 41.02                             130    0.25 9  164 220 
 ZAR  HZ EP       1446 22.14                             123   -0.17 8  208 292 
 ZAR  HN ES       1446 48.77                             123    0.50 8  208 292 
 ZAR  HZ I        1446 54.34         4.4 0.49            124            208 292 
 GUY2CHZ EP   2   1446 33.45                             113    0.30 4  303 235 
 GUY2CHN ES       1447  8.38                             113    0.82 7  303 235 
 GUY2CHZ I        1447 16.11         2.4 0.64                           303 235 
                                                                                
