 2012  116 1220  5.8 L   6.772 -73.153134.7  RSN  7 0.4 1.6LRSN                1
 GAP=137        0.84       6.5     6.4  9.6  0.3367E+01  0.9667E+01  0.1471E+02E
 Epicentro: LOS SANTOS - SANTANDER                                             3
 ACTION:UP  12-02-03 08:17 OP:REBC STATUS:               ID:20120116122005 L   I
 2012-01-16-1220-00M.COL___185                                                 6
 STAT SP IPHASW D HRMM SECON CODA AMPLIT PERI AZIMU VELO SNR AR TRES W  DIS CAZ7
 BAR2 SZ EP   1   1220 23.66                             171    -0.3 7   20 189 
 BAR2 SZ ES   2   1220 37.79                             171    -0.4 5   20 189 
 BAR2 SZ I        1220 40.65        10.3 0.30                            20 189 
 BRR  HZ EP   1   1220 26.09                             150     0.3 7   72 301 
 BRR  HE ES   2   1220 42.11                             150     0.7 5   72 301 
 BRR  HZ I        1220 46.42        12.4 0.19                            72 301 
 PAM  SZ EP   1   1220 27.17                             148     0.2 7   80  39 
 PAM  SN ES   2   1220 43.39                             148    -0.2 5   80  39 
 PAM  SZ I        1220 46.29         9.5 0.31                            80  39 
 RUS  HZ EP   1   1220 28.00                             142    -0.2 7   98 175 
 RUS  HZ I        1220 30.01         3.8 0.15                            98 175 
 RUS  HE ES   2   1220 46.19                             142     0.5 5   98 175 
 PTB  HZ EP   1   1220 31.14                             130    -0.6 7  146 260 
 PTB  HN ES   2   1220 51.83                             130    -0.1 5  146 260 
 PTB  HZ I        1220 55.23         0.0 0.12                           146 260 
 ZAR  HN ES   2   1221  2.41                             120     0.1 4  204 293 
 ZAR  HZ I        1221  8.56         4.8 0.13                           204 293 
 CHI  HZ EP   1   1220 43.15                             115     0.6 6  245 195 
 CHI  HZ I        1221 17.73         2.3 0.32                           245 195 
                                                                                
