 2011  116 1757 52.9 L   6.821 -73.174142.0  RSN  7 0.4 2.1LRSN                1
 GAP=155        0.72       4.0     9.4  7.6 -0.1780E+02  0.2230E+02 -0.5027E+01E
 Epicentro: LOS SANTOS - SANTANDER                                             3
 ACTION:UP  11-02-08 08:41 OP:pat  STATUS:               ID:20110116175752 L   I
 2011-01-16-1740-00M.COL___136                                                 6
 STAT SP IPHASW D HRMM SECON CODA AMPLIT PERI AZIMU VELO SNR AR TRES W  DIS CAZ7
 BAR2 SZ IP       1758 12.47                             169     0.310   25 182 
 BAR2 SZ I        1758 12.64        41.3 0.20                            25 182 
 BAR2 SZ ES   2   1758 26.37                             169    -0.8 5   25 182 
 GIR2 SZ EP   1   1758 12.59                             168     0.5 7   29 356 
 GIR2 SZ ES   2   1758 27.87                             168     0.8 5   29 356 
 RUS  HZ EP   1   1758 16.40                             142    -0.1 7  103 174 
 RUS  HN ES   2   1758 34.61                             142    -0.3 5  103 174 
 RUS  HZ I        1758 35.97        17.0 0.26                           103 174 
 GRA  SZ IP       1758 17.65                             137    -0.110  125  19 
 GRA  SZ ES   2   1758 36.87                             137    -0.2 5  125  19 
 GRA  SZ I        1758 37.92        24.4 0.27                           125  19 
 OCA  SZ IP       1758 20.45                             129    -0.3 9  158 354 
 OCA  SZ ES   2   1758 42.25                             129    -0.1 5  158 354 
 OCA  SZ I        1758 44.67        18.1 0.61                           158 354 
 NOR  SZ EP   1   1758 28.47                             118     0.1 6  234 234 
 NOR  SN ES   2   1758 55.64                             118    -0.3 4  234 234 
 CHI  HZ EP   2   1758 30.53                             116    -0.1 4  250 194 
 CHI  HN ES   2   1758 59.79                             116    -0.2 4  250 194 
 CHI  HZ I        1759  2.33         4.7 0.31                           250 194 
                                                                                
