 2012  916 1337 57.4 L   7.399 -73.197128.0  RSN  8 0.4 1.9LRSN                1
 GAP=183        0.70       5.1     3.8  5.9  0.2386E+01  0.7198E+01 -0.1005E+01E
 Epicentro: EL PLAYON - SANTANDER                                              3
 ACTION:UPD 12-10-22 14:19 OP:ep   STATUS:               ID:20120916133757 L   I
 2012-09-16-1330-00M.COL___227                                                 6
 STAT SP IPHASW D HRMM SECON CODA AMPLIT PERI AZIMU VELO AIN AR TRES W  DIS CAZ7
 GIR2 SZ EP   1   1338 15.10                             164   -0.04 7 35.4 179 
 GIR2 SZ ES   2   1338 28.16                             164   -0.78 5 35.4 179 
 PAM  SZ EP   1   1338 16.60                             156    0.10 7 55.3  97 
 PAM  SZ I        1338 16.88        15.0 0.18                          55.3  97 
 PAM  SN ES   1   1338 31.62                             156    0.25 7 55.3  97 
 BRR  HZ EP   1   1338 16.31                             151   -0.03 7 65.4 240 
 BRR  HN ES   1   1338 31.45                             151    0.37 7 65.4 240 
 BAR2 SZ EP   1   1338 18.26                             143   -0.01 7 89.2 179 
 BAR2 SZ ES   1   1338 34.27                             143   -0.24 7 89.2 179 
 RUS  HZ EP   1   1338 25.12                             124   -0.44 7  167 176 
 RUS  HN ES   1   1338 47.96                             124    0.47 7  167 176 
 RUS  HZ I        1338 51.17         6.0 0.34                           167 176 
 PTB  HZ EP   1   1338 24.77                             124   -0.31 7  169 236 
 PTB  HN ES   1   1338 46.46                             124   -0.18 7  169 236 
 PTB  HZ I        1338 48.39        11.2 0.24                           169 236 
 ZAR  HZ EP   1   1338 26.20                             121   -0.42 7  184 273 
 ZAR  HN ES   1   1338 49.52                             121    0.13 7  184 273 
 ZAR  HZ I        1338 54.03        19.9 0.30                           184 273 
 HEL  HZ EP   1   1338 39.91                             110    1.01 5  290 243 
                                                                                
