 2012  616 1551 33.9 L   6.825 -73.196147.0  RSN  4 0.1 1.3LRSN                1
 GAP=147        0.33       2.7     2.6  4.7 -0.2117E+01  0.3261E+01 -0.3359E+00E
 Epicentro: ZAPATOCA - SANTANDER                                               3
 ACTION:UPD 12-08-06 17:50 OP:ep   STATUS:               ID:20120616155133 L   I
 2012-06-16-1550-00M.COL___198                                                 6
 STAT SP IPHASW D HRMM SECON CODA AMPLIT PERI AZIMU VELO AIN AR TRES W  DIS CAZ7
 BAR2 SZ EP   1   1551 53.52                             170   -0.17 7 25.8 177 
 BAR2 SZ I        1551 53.70         5.5 0.16                          25.8 177 
 PAM  SZ EP   1   1551 56.28                             150   -0.02 7 79.0  44 
 PAM  SE ES   1   1552 13.86                             150    0.06 7 79.0  44 
 RUS  HZ EP   1   1551 57.95                             143   -0.01 7  104 173 
 RUS  HN ES   1   1552 16.82                             143    0.06 7  104 173 
 RUS  HZ I        1552 17.12         2.6 0.34                           104 173 
 PTB  HZ EP   1   1552  0.66                             133    0.17 7  143 257 
 PTB  HN ES   1   1552 21.19                             133   -0.07 7  143 257 
 PTB  HZ I        1552 26.23         2.4 0.16                           143 257 
                                                                                
