 2012 1116 1101 38.6 L   6.848 -73.197146.0  RSN  6 0.4 1.3LRSN                1
 GAP=131        0.85       5.4     5.0  9.1 -0.8588E+01  0.1654E+02 -0.9020E+01E
 Epicentro: ZAPATOCA - SANTANDER                                               3
 ACTION:UPD 12-12-05 15:33 OP:}ep  STATUS:               ID:20121116110138 L   I
 2012-11-16-1100-00M.COL___233                                                 6
 STAT SP IPHASW D HRMM SECON CODA AMPLIT PERI AZIMU VELO AIN AR TRES W  DIS CAZ7
 GIR2 SZ EP   2   11 1 57.46                             170   -0.66 5 25.5   1 
 BAR2 SZ EP       11 1 58.07                             168   -0.2610 28.4 177 
 BRR  HZ EP       11 2  0.07                             155    0.7410 63.7 297 
 BRR  HE ES   3   11 2 16.67                             155    1.14 2 63.7 297 
 PAM  SZ EP       11 2  0.93                             151    0.1410 77.2  45 
 PAM  SZ I        11 2  1.00         4.6 0.24                          77.2  45 
 PAM  SN ES       11 2 18.01                             151   -0.1310 77.2  45 
 PTB  HZ EP       11 2  4.95                             133   -0.21 9  143 256 
 PTB  HZ I        11 2  7.47         2.0 0.28                           143 256 
 PTB  HN ES       11 2 25.78                             133   -0.12 9  143 256 
 SML  HZ EP       11 2 14.60                             118    0.18 8  236 336 
 SML  HN ES       11 2 42.06                             118   -0.34 8  236 336 
                                                                                
