 2012  916 1028 40.3 L   6.724 -73.133148.6  RSN  6 0.5 1.6LRSN                1
 GAP=186        1.03       8.1     7.1  9.7  0.1936E+02  0.1368E+02  0.6797E+01E
 Epicentro: JORDAN - SANTANDER                                                 3
 ACTION:UPD 12-10-22 14:19 OP:ep   STATUS:               ID:20120916102840 L   I
 2012-09-16-1026-59S.COL___226                                                 6
 STAT SP IPHASW D HRMM SECON CODA AMPLIT PERI AZIMU VELO AIN AR TRES W  DIS CAZ7
 BAR2 SZ EP   1   1029  0.18                             174    0.00 8 15.6 200 
 BAR2 SZ I        1029  0.45        11.4 0.21                          15.6 200 
 BAR2 SZ ES   1   1029 15.65                             174   -0.01 8 15.6 200 
 GIR2 SZ EP   1   1029  0.39                             164   -0.21 8 39.8 350 
 GIR2 SZ ES   1   1029 16.03                             164   -0.38 8 39.8 350 
 BRR  HZ EP   1   1029  2.23                             151    0.12 8 76.7 304 
 BRR  HZ I        1029  2.59        10.6 0.12                          76.7 304 
 BRR  HE ES   1   1029 19.34                             151    0.25 8 76.7 304 
 RUS  HZ EP   1   1029  4.02                             147    0.23 8 92.1 177 
 RUS  HE ES   1   1029 22.76                             147    0.68 8 92.1 177 
 RUS  HZ I        1029 23.51         2.0 0.40                          92.1 177 
 PTB  HZ EP   1   1029  6.95                             133   -0.59 7  148 262 
 PTB  HN ES       1029 28.08                             133   -0.6810  148 262 
 PTB  HN I        1029 30.62         4.9 0.24                           148 262 
 ZAR  HE ES   1   1029 40.49                             122    1.23 7  209 294 
 ZAR  HZ I        1029 44.83         6.6 0.56                           209 294 
                                                                                
