 2013 1016 1603 14.4 L   6.808 -73.131150.2  RSN  8 0.4 1.8LRSN                1
 GAP=202        1.03       4.6     5.9  7.3  0.7092E+01  0.9583E+01 -0.3695E-01E
 Epicentro: LOS SANTOS - SANTANDER                                             3
 ACTION:UPD 13-11-25 09:22 OP:ep   STATUS:               ID:20131016160314 L   I
 OLDACT:REG 13-10-16 15:01 OP:cam  STATUS:               ID:20131016155959     3
 2013-10-16-1559-59M.COL___274                                                 6
 STAT SP IPHASW D HRMM SECON CODA AMPLIT PERI AZIMU VELO AIN AR TRES W  DIS CAZ7
 BAR2 SZ EP       16 3 34.57                             170   -0.0310 24.6 193 
 BAR2 SZ ES       16 3 50.43                             170    0.0910 24.6 193 
 BAR2 SZ I        16 3 50.93        25.3 0.16            169           24.6 193 
 BRR  HZ EP       16 3 36.67                             153    0.5810 72.2 297 
 BRR  HN ES       16 3 53.52                             153    0.5110 72.2 297 
 PAM  SN I        16 3 55.50        14.1 0.46            153           75.6  39 
 RUS  HZ EP       16 3 38.49                             145   -0.1610  101 177 
 RUS  HN ES       16 3 57.28                             145   -0.2910  101 177 
 RUS  HZ I        16 3 58.35         2.5 0.48            144            101 177 
 PTB  HZ EP       16 3 41.53                             133   -0.37 9  150 259 
 PTB  HN ES       16 4  2.59                             133   -0.75 9  150 259 
 ZAR  HE ES   1   16 4 12.84                             123   -0.05 6  205 292 
 NOR  HZ EP       16 3 51.03                             119    0.44 8  237 235 
 NOR  HN ES       16 4 19.29                             119    0.47 8  237 235 
 NOR  HZ I        16 4 26.12         4.5 0.24            118            237 235 
 SML  HN ES       16 4 19.55                             118   -0.47 8  244 335 
 SML  HZ I        16 4 23.70         5.3 0.10            118            244 335 
                                                                                
