 2011  416 1455 50.2 L   6.625 -73.366117.2  RSN  5 0.4 1.7LRSN                1
 GAP=224        0.85      20.4    18.9 11.9  0.2574E+03 -0.2801E+02 -0.1073E+03E
 Epicentro: GALAN - SANTANDER                                                  3
 ACTION:UP  11-06-22 15:31 OP:REBC STATUS:               ID:20110416145550 L   I
 2011-04-16-1455-44S.COL___140                                                 6
 STAT SP IPHASW D HRMM SECON CODA AMPLIT PERI AZIMU VELO SNR AR TRES W  DIS CAZ7
 BAR2 SZ EP   1   1456  6.36                             170     0.0 7   21 100 
 BAR2 SZ ES   1   1456 19.03                             170     0.1 7   21 100 
 BAR2 SZ I        1456 20.98        20.7 0.23                            21 100 
 BTL  SZ EP       1456  7.00                             163     0.310   34  18 
 GIR2 SZ EP   1   1456  6.74                             154    -0.7 7   54  21 
 BRR  HZ EP       1456  7.96                             149     0.010   66 324 
 BRR  HZ I        1456  8.60        10.9 0.16                            66 324 
 BRR  HE ES   2   1456 21.78                             149    -0.1 5   66 324 
 OCA  SZ EP   2   1456 19.11                             119     0.7 4  179   2 
 OCA  SZ I        1456 21.92         6.7 0.08                           179   2 
                                                                                
