 2016  916 1432 43.6 L   6.314 -74.210 66.6  RSN  4 0.3 1.5LRSN                1
 GAP=152        0.53       2.4     2.0  4.5 -0.7118E+00 -0.6399E+00  0.1413E+01E
 Epicentro: CIMITARRA - SANTANDER                                              3
 ACTION:UPD 17-08-17 21:13 OP:lp   STATUS:               ID:20160916143243 L   I
 OLDACT:DUP 16-09-16 22:21 OP:dnl  STATUS:               ID:20160916142737d    3
 2016-09-16-1428-00M.COL___353                                                 6
 STAT SP IPHASW D HRMM SECON CODA AMPLIT PERI AZIMU VELO AIN AR TRES W  DIS CAZ7
 PTB  HZ EP       1432 54.31                             148    0.0310 36.9 312 
 PTB  HN ES       1433  2.51                             148   -0.0810 36.9 312 
 PTB  HZ I        1433  3.09        18.5 0.10            148           36.9 312 
 BAR2 EZ EP   2   1433  1.56                             113   -0.89 5  118  75 
 BAR2 EZ ES       1433 17.29                             113    0.1610  118  75 
 BAR2 EZ I        1433 18.91         6.4 0.56            112            118  75 
 ZAR  HZ EP       1433  5.79                             107    0.05 9  149 331 
 ZAR  HN ES       1433 23.01                             107    0.02 9  149 331 
 ZAR  HZ I        1433 24.17        14.3 0.38            107            149 331 
 GUY2CHZ EP   4   1433 11.70                             104    2.16 0  176 227 
 GUY2CHE ES       1433 29.82                             104    0.06 9  176 227 
 GUY2CHZ I        1433 37.51         2.3 0.34                           176 227 
                                                                                
