 2016  716 1142 46.3 L   6.408 -73.653101.5  RSN  8 0.6 1.7LRSN                1
 GAP=116        1.48       5.7     4.7 10.4  0.1737E+01  0.2317E+02 -0.2296E+01E
 Epicentro: SANTA HELENA DEL OPON - SANTANDER                                  3
 ACTION:UPD 17-03-29 16:51 OP:lp   STATUS:               ID:20160716114246 L   I
 OLDACT:UP  16-07-16 21:30 OP:dani STATUS:               ID:20160716113759     3
 OLDACT:UP  16-07-16 21:30 OP:dani STATUS:               ID:20160716113759     3
 OLDACT:REG 16-07-16 19:44 OP:dani STATUS:               ID:20160716113759     3
 2016-07-16-1137-59S.COL___319                                                 6
 STAT SP IPHASW D HRMM SECON CODA AMPLIT PERI AZIMU VELO AIN AR TRES W  DIS CAZ7
 BAR2 EZ EP       1143  2.40                             149    0.2310 55.9  69 
 BAR2 EZ ES       1143 15.33                             149    0.7910 55.9  69 
 BAR2 EZ I        1143 16.78        34.5 0.20            153           55.9  69 
 RUS  HZ EP       1143  4.28                             137   -0.3910 85.0 132 
 RUS  HE ES       1143 18.64                             137   -0.3510 85.0 132 
 RUS  HZ I        1143 19.42         4.2 0.22            143           85.0 132 
 PTB  HZ EP       1143  3.48                             135   -0.9610 90.0 279 
 PTB  HN ES       1143 17.63                             135   -0.9610 90.0 279 
 PTB  HZ I        1143 20.42         8.1 0.22            136           90.0 279 
 SPBC HZ EP       1143  4.53                             133   -0.5010 95.6 209 
 SPBC HE ES       1143 20.00                             133    0.3710 95.6 209 
 SPBC HZ I        1143 20.99        15.1 0.20            136           95.6 209 
 NOR  HZ EP       1143 11.78                             116   -0.09 9  164 235 
 NOR  HN ES       1143 32.67                             116    0.86 9  164 235 
 NOR  HZ I        1143 34.18         9.8 0.12            119            164 235 
 ZAR  HZ EP       1143 13.61                             114    0.10 9  179 312 
 ZAR  HE ES       1143 35.32                             114    0.59 9  179 312 
 ZAR  HZ I        1143 39.57         7.4 0.50            116            179 312 
 HEL  HZ EP       1143 17.29                             110   -0.04 8  209 264 
 HEL  HN ES       1143 41.64                             110    0.12 8  209 264 
 HEL  HZ I        1143 44.91         5.6 0.34            113            209 264 
 GUY2CHZ EP       1143 20.73                             108    0.80 8  230 235 
 GUY2CHN ES   4   1143 48.88                             108    2.72 0  230 235 
 GUY2CHZ I        1143 50.62         3.3 0.32                           230 235 
                                                                                
