 2014 1116 1554 39.9 L   6.224 -73.829 58.7  RSN  5 0.4 1.6LRSN                1
 GAP= 94        1.12       3.6     3.9 15.3 -0.2107E+01 -0.1532E+02 -0.7368E+01E
 Epicentro: LANDAZURI - SANTANDER                                              3
 ACTION:UPD 14-12-19 15:43 OP:nd   STATUS:               ID:20141116155439 L   I
 OLDACT:UP  14-11-16 21:25 OP:cam  STATUS:               ID:20141116154820     3
 OLDACT:REG 14-11-16 20:36 OP:cam  STATUS:               ID:20141116154820     3
 2014-11-16-1548-20M.COL___277                                                 6
 STAT SP IPHASW D HRMM SECON CODA AMPLIT PERI AZIMU VELO AIN AR TRES W  DIS CAZ7
 SPBC HZ EP       1554 52.99                             124    0.2710 68.7 203 
 SPBC HN ES       1555  3.11                             124    0.3910 68.7 203 
 SPBC HZ I        1555  3.66        36.6 0.10             47           68.7 203 
 PTB  HZ EP       1554 53.36                             120   -0.2110 77.7 297 
 PTB  HN ES       1555  3.62                             120   -0.6110 77.7 297 
 PTB  HZ I        1555  3.75        48.8 0.16             47           77.7 297 
 BAR2 SZ EP       1554 54.23                             118   -0.1210 82.3  60 
 BAR2 SZ ES       1555  5.24                             118   -0.3810 82.3  60 
 BAR2 SZ I        1555  6.13         7.4 0.36             47           82.3  60 
 RUS  HZ EP       1554 55.23                             116   -0.3310 90.3 114 
 RUS  HZ I        1555  7.84         5.7 0.32             47           90.3 114 
 BRR  HZ EP       1554 56.04                             113    0.1810 98.5   8 
 BRR  HN ES       1555  9.11                             113    0.8110 98.5   8 
 BRR  HZ I        1555 11.01        14.6 0.44             47           98.5   8 
                                                                                
