 2016  216 1405 34.3 L   6.836 -73.145150.3  RSN 24 0.5 2.8LRSN                1
 GAP= 62        1.21       3.0     2.7  4.9 -0.2211E+01  0.1652E+01 -0.5425E+00E
 Epicentro: LOS SANTOS - SANTANDER                                             3
 ACTION:UPD 16-03-04 21:26 OP:rebc STATUS:               ID:20160216140534 L   I
 OLDACT:REG 16-02-16 21:44 OP:ak   STATUS:               ID:20160216135749     3
 2016-02-16-1357-49M.COL___312                                                 6
 STAT SP IPHASW D HRMM SECON CODA AMPLIT PERI AZIMU VELO AIN AR TRES W  DIS CAZ7
 BAR2 EZ IP     D 14 5 54.71                             169    0.1310 27.3 189 
 BAR2 EZ ES       14 6 10.15                             169   -0.2410 27.3 189 
 BAR2 EZ I        14 6 11.28       119.7 0.18            167           27.3 189 
 BRR  HZ IP     D 14 5 56.51                             154    0.6410 69.4 296 
 BRR  HN ES       14 6 12.80                             154    0.1310 69.4 296 
 BRR  HZ I        14 6 16.75       131.1 0.26            151           69.4 296 
 PAM  EZ EP       14 5 57.65                             152    0.8010 74.3  41 
 PAM  EN ES       14 6 14.81                             152    0.3910 74.3  41 
 PAM  EZ I        14 6 17.62        83.5 0.05            155           74.3  41 
 RUS  HZ EP       14 5 58.79                             144   -0.0110  105 176 
 RUS  HN ES       14 6 17.34                             144   -0.5610  105 176 
 RUS  HZ I        14 6 19.45        48.4 0.30            143            105 176 
 PTB  HZ EP       14 6  1.20                             133   -0.54 9  149 257 
 PTB  HN ES       14 6 22.62                             133   -0.51 9  149 257 
 PTB  HZ I        14 6 24.49        66.8 0.16            131            149 257 
 TAM  HZ IP     C 14 6  3.15                             131    0.69 9  156 106 
 TAM  HE ES       14 6 25.06                             131    0.65 9  156 106 
 TAM  HZ I        14 6 25.70        38.9 0.50            134            156 106 
 SPBC HZ EP       14 6  3.58                             130    0.12 9  166 218 
 SPBC HN ES       14 6 26.04                             130   -0.16 9  166 218 
 SPBC HZ I        14 6 31.93       100.2 0.24            128            166 218 
 ZAR  HZ EP       14 6  7.15                             124    0.23 9  203 291 
 ZAR  HN ES       14 6 32.24                             124   -0.11 9  203 291 
 ZAR  HZ I        14 6 38.18        57.1 0.42            122            203 291 
 NOR  HZ EP       14 6 10.09                             119   -0.48 8  237 234 
 NOR  HN ES       14 6 38.05                             119   -0.79 8  237 234 
 NOR  HZ I        14 6 45.53        50.8 0.18            118            237 234 
 CHI  HZ EP       14 6 12.76                             118    0.07 8  252 195 
 CHI  HN ES       14 6 42.00                             118   -0.62 8  252 195 
 CHI  HZ I        14 6 48.52        21.5 0.64            117            252 195 
 ROSC BZ EP   9   14 6 14.68                             117    1.62 0  256 211 
 ROSC BN ES       14 6 45.56                                    0.66 8  256 211 
 ROSC BZ I        14 6 51.04        52.0 0.75            117            256 211 
 HEL  HZ EP       14 6 15.08                             116    0.20 8  273 255 
 HEL  HN ES       14 6 46.13                             116   -0.39 8  273 255 
 HEL  HZ I        14 6 54.33        36.4 0.46            115            273 255 
 URE  HZ EP       14 6 14.64                             115   -0.81 7  282 291 
 URE  HN ES       14 6 48.15                             115    0.61 7  282 291 
 URE  HZ I        14 6 57.28        42.6 0.22            114            282 291 
 SOCV BZ EP       14 6 16.24                             113   -1.09 7  299  57 
 SOCV BN ES   4   14 6 48.42                             113   -2.47 0  299  57 
 GUY2CHZ EP   1   14 6 19.35                             113    0.95 5  304 234 
 GUY2CHE ES       14 6 53.38                             113    0.59 7  304 234 
 GUY2CHZ I        14 7  2.68        39.2 0.74                           304 234 
 PTGC HZ EP       14 6 18.02                             112   -0.78 7  312 159 
 PTGC HE ES   4   14 6 51.09                             112   -2.40 0  312 159 
 PTGC HZ I        14 6 54.92        33.6 0.44            112            312 159 
 LL6C HZ EP       14 6 20.18                             111    0.41 7  321 358 
 LL6C HE ES       14 6 54.58                             111   -0.63 7  321 358 
 LL6C HZ I        14 7  1.75        19.1 0.84            112            321 358 
 ELA  HZ EP   9   14 6 24.45                             111    2.79 0  332 229 
 ELA  HN ES       14 7  0.56                                   -0.82 7  332 229 
 ELA  HZ I        14 7 13.97        25.0 0.40            110            332 229 
 CBOC HZ EP   4   14 6 22.63                             111    1.06 0  335 251 
 CBOC HN ES       14 6 58.85                             111    0.42 7  335 251 
 CBOC HZ I        14 7 15.82        13.8 0.52            110            335 251 
 SDV  BZ EP       14 6 24.22                             109   -0.02 6  358  51 
 SDV  BN ES       14 7  2.13                             109   -1.05 6  358  51 
 ANIL HZ EP   4   14 6 26.25                             109    1.62 0  360 224 
 ANIL HN ES       14 7  4.53                             109    0.66 6  360 224 
 ANIL HZ I        14 7 11.64        61.5 0.30            109            360 224 
 ORTC HZ EP       14 6 28.82                             107    0.05 6  399 216 
 ORTC HN ES       14 7 11.92                             107    0.67 6  399 216 
 ORTC HZ I        14 7 18.71        14.0 0.18            107            399 216 
 SJC  HZ EP   4   14 6 28.29                             107   -1.36 0  406 327 
 SJC  HN ES   4   14 7  9.93                             107   -2.87 0  406 327 
 SJC  HZ I        14 7 17.54         9.5 0.28            106            406 327 
 PAL  HZ EP       14 6 30.50                             107    0.62 6  408 239 
 PAL  HE ES       14 7 12.65                             107   -0.56 6  408 239 
 PAL  HZ I        14 7 16.69         8.1 0.24            106            408 239 
                                                                                
