 2012  216 1226  1.1 L   6.740 -73.149140.4  RSN  4 0.3 1.3LRSN                1
 GAP=232        0.41       7.7     6.2  7.8  0.1761E+02  0.6712E+01 -0.1659E+02E
 ACTION:UP  12-03-07 16:31 OP:epov STATUS:               ID:20120216122601 L   I
 2012-02-16-1220-00M.COL___188                                                 6
 STAT SP IPHASW D HRMM SECON CODA AMPLIT PERI AZIMU VELO AIN AR TRES W  DIS CAZ7
 BAR2 SZ EP   2   1226 19.93                             173   -0.06 5 16.7 193 
 BAR2 SZ ES   2   1226 34.73                             173    0.03 5 16.7 193 
 BAR2 SZ I        1226 36.30         5.1 0.36                          16.7 193 
 BRR  HZ EP   2   1226 21.87                             150    0.00 5 74.3 303 
 RUS  HZ EP   2   1226 24.29                             145    0.42 5 94.0 176 
 RUS  HE ES   2   1226 41.37                             145   -0.24 5 94.0 176 
 PTB  HZ EP   2   1226 27.12                             131   -0.39 5  146 261 
 PTB  HE ES   2   1226 48.32                             131    0.22 5  146 261 
                                                                                
