 2013 1016 1146 12.2 L   6.809 -73.160146.0  RSN 15 0.5 2.5LRSN                1
 GAP= 70        1.11       3.3     3.5  5.8 -0.1152E+01  0.3066E+01  0.3272E+01E
 Epicentro: LOS SANTOS - SANTANDER                                             3
 ACTION:UPD 13-11-25 09:22 OP:ep   STATUS:               ID:20131016114612 L   I
 OLDACT:REG 13-10-16 14:48 OP:cam  STATUS:               ID:20131016113959     3
 2013-10-16-1139-59M.COL___274                                                 6
 STAT SP IPHASW D HRMM SECON CODA AMPLIT PERI AZIMU VELO AIN AR TRES W  DIS CAZ7
 BAR2 SZ EP       1146 31.65                             170   -0.1910 24.0 186 
 BAR2 SZ ES       1146 46.98                             170   -0.2010 24.0 186 
 BAR2 SZ I        1146 47.84       148.3 0.22            169           24.0 186 
 BRR  HZ EP       1146 33.48                             153    0.2510 69.3 298 
 BRR  HN ES       1146 50.71                             153    1.0410 69.3 298 
 BRR  HZ I        1146 53.88        44.4 0.14            153           69.3 298 
 PAM  SZ EP     C 1146 34.76                             151    0.3410 77.7  41 
 PAM  SN ES       1146 51.55                             151   -0.2310 77.7  41 
 PAM  SZ I        1146 53.79        62.3 0.44            148           77.7  41 
 RUS  HZ EP       1146 35.74                             144   -0.2710  102 175 
 RUS  HN ES       1146 54.77                             144    0.1510  102 175 
 RUS  HZ I        1146 55.30        53.3 0.26            141            102 175 
 PTB  HZ EP       1146 38.23                             132   -0.79 9  146 258 
 PTB  HN ES       1146 59.60                             132   -0.37 9  146 258 
 PTB  HZ I        1147  6.34        50.7 0.50            131            146 258 
 TAM  HZ EP       1146 40.11                             130    0.08 9  157 105 
 TAM  HZ I        1147  1.78        19.1 0.50            127            157 105 
 TAM  HN ES   1   1147  1.87                             130    0.11 7  157 105 
 OCA  HZ EP   1   1146 40.78                             130    0.39 7  159 354 
 OCA  HN ES       1147  1.72                             130   -0.68 9  159 354 
 OCA  HZ I        1147  4.91        31.3 0.20            128            159 354 
 SPBC HZ EP       1146 40.55                             129   -0.10 9  163 218 
 SPBC HN ES       1147  2.93                             129    0.05 9  163 218 
 SPBC HZ I        1147  9.50        51.9 0.24            127            163 218 
 ZAR  HZ EP   2   1146 44.22                             123   -0.21 4  202 292 
 ZAR  HN ES       1147  9.65                             123    0.05 9  202 292 
 ZAR  HZ I        1147 14.83        38.2 0.40            121            202 292 
 NOR  HZ EP       1146 47.80                             119   -0.03 8  234 234 
 NOR  HN ES       1147 15.19                             119   -0.45 8  234 234 
 NOR  HZ I        1147 20.31        30.6 0.26            117            234 234 
 CHI  HZ EP       1146 49.88                             117   -0.05 8  249 195 
 CHI  HN ES       1147 19.41                             117    0.03 8  249 195 
 CHI  HZ I        1147 22.50        26.1 0.36            115            249 195 
 HEL  HZ EP   1   1146 53.83                             115    1.59 6  271 256 
 URE  HZ EP   2   1146 52.37                             114   -0.67 4  282 292 
 GUY2CHZ EP   1   1146 56.93                             112    1.23 5  300 234 
 SJC  HZ EP   4   1147  5.96                             106   -1.58 0  408 327 
 SJC  HE ES   4   1147 47.21                             106   -3.52 0  408 327 
 SJC  HZ I        1147 52.78         5.4 0.42            104            408 327 
                                                                                
