 2012  816 1248  3.1 L   6.715 -73.154148.0  RSN  4 0.2 1.6LRSN                1
 GAP=230        0.57       5.5     5.2  4.9  0.1378E+02  0.4010E+01  0.9920E+00E
 Epicentro: VILLANUEVA - SANTANDER                                             3
 ACTION:UP  12-09-10 11:56 OP:ep   STATUS:               ID:20120816124803 L   I
 2012-08-16-1240-00M.COL___217                                                 6
 STAT SP IPHASW D HRMM SECON CODA AMPLIT PERI AZIMU VELO AIN AR TRES W  DIS CAZ7
 BAR2 SZ EP       1248 22.86                             174    0.0610 13.9 193 
 BAR2 SZ ES       1248 37.83                             174   -0.3810 13.9 193 
 BAR2 SZ I        1248 39.43        18.1 0.13                          13.9 193 
 BRR  HZ EP       1248 24.70                             151    0.0210 75.3 305 
 BRR  HN ES   1   1248 41.94                             151    0.39 7 75.3 305 
 RUS  HZ EP       1248 26.40                             147    0.0110 91.3 175 
 RUS  HN ES   1   1248 44.92                             147    0.34 7 91.3 175 
 RUS  HZ I        1248 46.68         4.2 0.48                          91.3 175 
 PTB  HZ EP       1248 29.93                             133   -0.05 9  145 262 
 PTB  HE ES   1   1248 50.83                             133   -0.15 7  145 262 
 PTB  HZ I        1248 58.12         3.0 0.21                           145 262 
                                                                                
