 2013  316 1954 37.6 L   6.722 -73.155142.0  RSN  5 0.4 1.7LRSN                1
 GAP=139        0.64       5.4     4.8  7.1 -0.3923E+01 -0.6392E+00  0.1650E+02E
 Epicentro: VILLANUEVA - SANTANDER                                             3
 ACTION:UPD 13-04-09 14:03 OP:ep   STATUS:               ID:20130316195437 L   I
 2013-03-16-1950-00M.COL___244                                                 6
 STAT SP IPHASW D HRMM SECON CODA AMPLIT PERI AZIMU VELO AIN AR TRES W  DIS CAZ7
 BRR  HZ EP   1   1954 58.96                             151    0.45 7 74.8 305 
 BRR  HN ES       1955 15.02                             151    0.1610 74.8 305 
 BRR  HN I        1955 16.27        17.6 0.26            153           74.8 305 
 PAM  SZ EP   1   1954 59.74                             148   -0.10 7 84.8  36 
 PAM  SN ES   2   1955 16.46                             148   -0.76 5 84.8  36 
 PAM  SN I        1955 18.90         6.9 0.36            154           84.8  36 
 RUS  HZ EP   1   1955  0.64                             146    0.31 7 92.1 175 
 RUS  HN ES   2   1955 18.22                             146    0.12 5 92.1 175 
 RUS  HN I        1955 20.82         6.1 0.22            147           92.1 175 
 PTB  HZ EP       1955  3.71                             132   -0.28 9  145 262 
 PTB  HN ES   2   1955 24.74                             132    0.13 5  145 262 
 PTB  HN I        1955 29.73         7.1 0.62            134            145 262 
 NOR  HZ EP   1   1955 12.36                             119   -0.09 6  229 236 
 NOR  HN ES   2   1955 38.92                             119   -0.74 4  229 236 
                                                                                
