 2015 1016 1130 41.8 L   7.261 -73.726 93.9  RSN  9 0.3 1.8LRSN                1
 GAP=118        0.77       1.9     2.3  4.8  0.5207E+00  0.3929E+01 -0.1580E+00E
 Epicentro: PUERTO WILCHES - SANTANDER                                         3
 ACTION:UPD 15-12-22 20:40 OP:cam  STATUS:               ID:20151016113041 L   I
 OLDACT:REG 15-10-16 20:22 OP:ak   STATUS:               ID:20151016112748     3
 2015-10-16-1127-48M.COL___336                                                 6
 STAT SP IPHASW D HRMM SECON CODA AMPLIT PERI AZIMU VELO AIN AR TRES W  DIS CAZ7
 BRR  HZ IP     D 1130 54.63                             169   -0.1010 17.1 175 
 BRR  HN ES       1131  4.38                             169   -0.4110 17.1 175 
 BRR  HZ I        1131  5.26        52.6 0.07            172           17.1 175 
 BAR2 EZ EP       1131  0.17                             131    0.0710 95.3 141 
 BAR2 EZ ES       1131 14.56                             131    0.2110 95.3 141 
 BAR2 EZ I        1131 15.34        13.4 0.32            134           95.3 141 
 OCA  HZ EP       1131  2.12                             125    0.0210  117  23 
 OCA  HN ES       1131 18.01                             125    0.0910  117  23 
 ZAR  HZ EP       1131  2.63                             122   -0.3610  128 282 
 ZAR  HN ES       1131 19.98                             122    0.4810  128 282 
 ZAR  HZ I        1131 23.19        12.8 0.09            122            128 282 
 RUS  HZ EP   1   1131  7.84                             115   -0.07 7  167 155 
 RUS  HE ES       1131 28.26                             115    0.00 9  167 155 
 RUS  HZ I        1131 30.22         4.9 0.30            117            167 155 
 SML  HZ EP       1131  7.76                             114   -0.34 9  175 347 
 SML  HN ES       1131 29.23                             114    0.63 9  175 347 
 SML  HZ I        1131 37.92        22.3 0.09            113            175 347 
 URE  HZ EP       1131 11.35                             110   -0.46 8  207 285 
 URE  HN ES       1131 34.82                             110   -0.38 8  207 285 
 URE  HZ I        1131 41.58        10.4 0.22            110            207 285 
 HEL  HZ EP   1   1131 15.25                             108    0.06 6  232 239 
 HEL  HN ES       1131 41.39                             108    0.17 8  232 239 
 GUY2CHZ EP   1   1131 22.12                             104   -0.03 5  289 219 
 GUY2CHN ES       1131 54.12                             104    0.52 7  289 219 
 GUY2CHZ I        1132  0.41         1.7 0.43                           289 219 
                                                                                
