 2015  216 1217 42.6 L   6.762 -73.203141.6  RSN  4 0.6 1.6LRSN                1
 GAP=272        1.57      13.1     9.9 13.3  0.1257E+02  0.3198E+02 -0.1559E+02E
 Epicentro: ZAPATOCA - SANTANDER                                               3
 ACTION:UPD 15-04-30 21:26 OP:nd   STATUS:               ID:20150216121742 L   I
 OLDACT:DUP 15-02-16 20:20 OP:fm   STATUS:               ID:20150216120747d    3
 2015-02-16-1207-46M.COL___301                                                 6
 STAT SP IPHASW D HRMM SECON CODA AMPLIT PERI AZIMU VELO AIN AR TRES W  DIS CAZ7
 BAR2 EZ EP       1218  1.74                             172    0.0610 18.9 173 
 BAR2 EZ ES       1218 17.18                             172    0.6410 18.9 173 
 BAR2 EZ I        1218 18.50         4.5 0.26            165           18.9 173 
 RUS  HZ EP       1218  6.03                             144    0.3010 97.1 172 
 RUS  HE ES       1218 22.65                             144   -1.0910 97.1 172 
 PTB  HZ EP       1218  7.90                             133   -0.73 9  141 260 
 PTB  HN ES       1218 28.59                             133   -0.32 9  141 260 
 PTB  HZ I        1218 33.26         6.0 0.10            131            141 260 
 SPBC HZ EP       1218 10.67                             130    0.53 9  156 218 
 SPBC HN ES       1218 32.26                             130    0.68 9  156 218 
 SPBC HZ I        1218 39.91         7.9 0.32            128            156 218 
                                                                                
