 2010  216 1632 14.9 L   6.808 -72.912146.5  RSN  5 0.5 2.0LRSN                1
 GAP=329        0.65      11.6    16.0  9.6 -0.8633E+02  0.3128E+02  0.3721E+02E
 Epicentro: SAN ANDRES - SANTANDER                                             3
 ACTION:UP  10-08-24 09:49 OP:vdl  STATUS:               ID:20100216163214 L   I
 2010-02-16-1628-53S.COL___093                                                 6
 STAT SP IPHASW D HRMM SECON CODA AMPLIT PERI AZIMU VELO SNR AR TRES W  DIS CAZ7
 BAR2 SZ EP   1   1632 35.30                             165     0.3 7   38 232 
 BAR2 SZ ES   2   1632 50.34                             165    -0.3 5   38 232 
 CHI  HZ EP   1   1632 53.57                             116     0.0 6  257 201 
 CHI  HZ I        1632 54.31         3.5 0.37                           257 201 
 CHI  HN ES   2   1633 23.65                             116    -0.1 4  257 201 
 RREF BZ EP   1   1633  3.87                             110     0.5 5  342 232 
 RREF BN ES   2   1633 40.97                             110    -0.3 3  342 232 
 TOL  SZ EP   1   1633  4.94                             108    -0.4 5  363 227 
 PRA  HZ EP   1   1633  9.17                             106    -0.9 4  406 213 
 PRA  HN ES   2   1633 54.01                             106     0.9 3  406 213 
 PRA  HZ I        1633 57.11         4.2 0.57                           406 213 
                                                                                
