 2014  516 1935 18.0 L   6.819 -73.170145.0  RSN 11 0.5 2.3LRSN                1
 GAP=133        1.10       3.1     4.3  6.5 -0.1555E+01  0.5313E+01  0.3977E+01E
 Epicentro: LOS SANTOS - SANTANDER                                             3
 ACTION:UPD 15-03-16 16:58 OP:nd   STATUS:               ID:20140516193518 L   I
 OLDACT:DUP 14-05-16 23:18 OP:carl STATUS:               ID:20140516192821d    3
 2014-05-16-1928-19M.COL___178                                                 6
 STAT SP IPHASW D HRMM SECON CODA AMPLIT PERI AZIMU VELO AIN AR TRES W  DIS CAZ7
 BRR  HZ EP       1935 39.24                             154    0.4110 67.9 298 
 BRR  HN ES       1935 55.54                             154    0.4310 67.9 298 
 BRR  HZ I        1935 57.38        28.6 0.20            152           67.9 298 
 PAM  SZ EP       1935 40.49                             150    0.4010 77.5  42 
 PAM  SN ES       1935 57.44                             150    0.0810 77.5  42 
 PAM  SZ I        1935 59.69        38.3 0.44            153           77.5  42 
 RUS  HZ EP       1935 41.60                             143   -0.1910  103 175 
 RUS  HN ES       1936  0.22                             143   -0.1710  103 175 
 RUS  HZ I        1936  1.25        26.7 0.26            145            103 175 
 PTB  HZ EP       1935 43.90                             132   -0.76 9  146 258 
 PTB  HN ES       1936  5.24                             132   -0.25 9  146 258 
 PTB  HZ I        1936  7.03        19.4 0.12            132            146 258 
 SPBC HZ EP       1935 46.39                             129   -0.00 9  163 218 
 SPBC HN ES       1936  8.13                             129   -0.45 9  163 218 
 SPBC HZ I        1936 10.91        30.1 0.28            129            163 218 
 ZAR  HN ES       1936 14.64                             123   -0.38 9  201 292 
 ZAR  HZ I        1936 20.85        13.0 0.26            123            201 292 
 NOR  HZ EP       1935 53.46                             118   -0.08 8  234 234 
 NOR  HN ES       1936 20.92                             118   -0.38 8  234 234 
 NOR  HZ I        1936 29.35        13.0 0.18            119            234 234 
 SML  HZ EP       1935 53.96                             118   -0.24 8  241 336 
 SML  HN ES       1936 22.34                             118   -0.14 8  241 336 
 SML  HZ I        1936 27.06        29.2 0.10            118            241 336 
 CHI  HZ EP       1935 55.85                             117    0.10 8  250 194 
 CHI  HN ES       1936 25.10                             117   -0.14 8  250 194 
 CHI  HZ I        1936 28.37        11.1 0.36            118            250 194 
 GUY2CHZ EP       1936  1.76                             112    0.34 7  300 234 
 GUY2CHN ES       1936 37.18                             112    1.85 7  300 234 
 GUY2CHZ I        1936 43.49         7.4 0.26                           300 234 
 PRA  HZ EP       1936 11.59                             106    0.08 6  393 209 
 PRA  HN ES       1936 53.26                             106   -0.02 6  393 209 
 PRA  HZ I        1936 57.60         6.6 0.30            107            393 209 
                                                                                
