 2012  616 1610 46.0 L   6.194 -73.761100.1  RSN  6 0.5 1.5LRSN                1
 GAP=125        1.00       8.0     4.4 11.8 -0.2982E+01  0.1796E+02  0.2083E+02E
 Epicentro: LANDAZURI - SANTANDER                                              3
 ACTION:UPD 12-08-06 17:50 OP:ep   STATUS:               ID:20120616161046 L   I
 2012-06-16-1609-49M.COL___175                                                 6
 STAT SP IPHASW D HRMM SECON CODA AMPLIT PERI AZIMU VELO AIN AR TRES W  DIS CAZ7
 BAR2 SZ EP       1611  3.41                             139    0.1110 77.6  55 
 BAR2 SZ ES   1   1611 17.54                             139    0.76 7 77.6  55 
 BAR2 SZ I        1611 18.72        26.1 0.61                          77.6  55 
 RUS  HZ EP   1   1611  3.47                             138   -0.54 7 82.1 114 
 RUS  HN ES   1   1611 17.79                             138   -0.26 7 82.1 114 
 RUS  HZ I        1611 19.32         4.4 0.29                          82.1 114 
 PTB  HZ EP   1   1611  2.84                             136   -0.83 7 85.9 296 
 PTB  HN ES   1   1611 17.12                             136   -0.33 7 85.9 296 
 PTB  HZ I        1611 20.30         3.6 0.07                          85.9 296 
 NOR  SN ES   1   1611 27.54                             120    0.49 7  141 240 
 HEL  HZ EP   1   1611 16.02                             111    0.56 6  196 270 
 HEL  HZ I        1611 42.34         3.9 0.29                           196 270 
 GUY  SZ EP   1   1611 17.46                             110    0.23 6  210 239 
 GUY  SZ I        1611 46.93         5.9 0.27                           210 239 
                                                                                
