 2016  216 1626  7.1 L   6.838 -73.118151.8  RSN 21 0.5 2.5LRSN                1
 GAP=121        1.15       3.5     3.4  5.0 -0.3644E+01  0.3890E+01  0.7015E+00E
 Epicentro: LOS SANTOS - SANTANDER                                             3
 ACTION:UPD 16-03-04 21:26 OP:rebc STATUS:               ID:20160216162607 L   I
 OLDACT:REG 16-02-16 21:56 OP:ak   STATUS:               ID:20160216161748     3
 2016-02-16-1617-48M.COL___316                                                 6
 STAT SP IPHASW D HRMM SECON CODA AMPLIT PERI AZIMU VELO AIN AR TRES W  DIS CAZ7
 BAR2 EZ EP     C 1626 27.81                             169    0.2510 28.1 195 
 BAR2 EZ ES       1626 43.22                             169   -0.3010 28.1 195 
 BAR2 EZ I        1626 45.44        46.3 0.11            166           28.1 195 
 BRR  HZ EP     C 1626 29.55                             153    0.6010 72.1 294 
 BRR  HN ES       1626 46.27                             153    0.2710 72.1 294 
 BRR  HZ I        1626 50.41        43.6 0.28            149           72.1 294 
 PAM  EZ EP   2   1626 30.68                             154    1.01 5 72.2  40 
 PAM  EN ES       1626 48.07                             154    0.7910 72.2  40 
 PAM  EZ I        1626 49.98        33.7 0.50            158           72.2  40 
 RUS  HZ EP       1626 31.58                             144   -0.1610  105 178 
 RUS  HN ES       1626 50.78                             144   -0.1810  105 178 
 RUS  HZ I        1626 51.54        31.1 0.24            145            105 178 
 PTB  HZ EP       1626 34.16                             133   -0.75 9  152 258 
 PTB  HN ES       1626 55.61                             133   -1.00 9  152 258 
 PTB  HZ I        1626 57.34        24.7 0.08            131            152 258 
 SPBC HZ EP       1626 36.29                             130   -0.27 9  168 219 
 SPBC HN ES       1626 59.41                             130   -0.12 9  168 219 
 SPBC HZ I        1627  5.84        49.2 0.22            129            168 219 
 ZAR  HZ EP       1626 40.32                             124    0.24 8  205 291 
 ZAR  HN ES       1627  5.64                             124   -0.17 8  205 291 
 ZAR  HZ I        1627 16.03        26.2 0.48            123            205 291 
 NOR  HZ EP       1626 43.74                             119    0.03 8  240 234 
 NOR  HE ES       1627 11.79                             119   -0.48 8  240 234 
 NOR  HZ I        1627 19.61        24.5 0.16            119            240 234 
 CHI  HZ EP       1626 45.93                             118    0.27 8  253 196 
 CHI  HN ES       1627 15.07                             118   -0.67 8  253 196 
 CHI  HZ I        1627 18.62        16.6 0.34            119            253 196 
 ROSC BZ EP   9   1626 47.84                             117    1.72 0  258 211 
 ROSC BN ES       1627 19.08                                    0.81 8  258 211 
 ROSC BZ I        1627 24.06        26.6 0.40            118            258 211 
 HEL  HZ EP   2   1626 48.10                             116    0.03 4  276 255 
 HEL  HN ES       1627 20.60                             116    0.57 7  276 255 
 HEL  HZ I        1627 27.10        15.0 0.58            115            276 255 
 URE  HZ EP       1626 47.72                             115   -0.90 7  285 291 
 URE  HN IPn      1627 18.03                                            285 291 
 URE  HN ES   4   1627 19.34                             115   -1.66 0  285 291 
 URE  HZ I        1627 32.38        16.5 0.34            114            285 291 
 SOCV BZ EP       1626 49.81                             114   -0.08 7  296  57 
 SOCV BN ES   4   1627 21.28                             114   -1.98 0  296  57 
 GUY2CHZ EP       1626 52.43                             113    0.88 7  306 234 
 GUY2CHN ES       1627 26.91                             113    0.69 7  306 234 
 GUY2CHZ I        1627 33.01        11.8 0.60                           306 234 
 ELA  HZ EP   2   1626 54.08                             111   -0.71 3  334 229 
 ELA  HN ES       1627 32.68                             111    0.69 7  334 229 
 ELA  HZ I        1627 47.00         9.5 0.40            111            334 229 
 CBOC HZ EP       1626 55.69                             111    0.94 7  338 252 
 CBOC HN ES       1627 31.52                             111   -0.40 7  338 252 
 CBOC HZ I        1627 47.44         4.8 0.36            111            338 252 
 DBB  SZ EP       1626 55.37                             110    0.22 7  342 274 
 DBB  SZ ES       1627 32.43                             110   -0.19 7  342 274 
 DBB  SZ I        1627 35.38        38.6 0.74            110            342 274 
 SDV  BN ES       1627 34.58                             110   -0.98 6  355  50 
 ANIL HZ EP   2   1626 58.00                             109    0.27 3  362 224 
 ANIL HN ES       1627 37.82                             109    0.59 6  362 224 
 ANIL HZ I        1627 44.66        30.8 0.32            110            362 224 
 ORTC HZ EP       1627  1.73                             107   -0.11 6  401 216 
 ORTC HN ES       1627 44.93                             107    0.40 6  401 216 
 ORTC HZ I        1627 51.78         6.5 0.36            108            401 216 
 PAL  HZ EP       1627  2.40                             107   -0.63 6  410 239 
 PAL  HN ES       1627 46.51                             107   -0.14 6  410 239 
                                                                                
