 2015  516 1144 38.6 L   6.363 -73.703 97.9  RSN  8 0.3 1.8LRSN                1
 GAP= 80        0.85       2.6     2.8  6.8 -0.9664E+00  0.1075E+02  0.1021E-01E
 Epicentro: SANTA HELENA DEL OPON - SANTANDER                                  3
 ACTION:UPD 15-09-10 22:04 OP:cam  STATUS:               ID:20150516114438 L   I
 OLDACT:REG 15-05-16 20:28 OP:drio STATUS:               ID:20150516113749     3
 2015-05-16-1137-49M.COL___280                                                 6
 STAT SP IPHASW D HRMM SECON CODA AMPLIT PERI AZIMU VELO AIN AR TRES W  DIS CAZ7
 BAR2 EZ EP       1144 54.57                             145    0.0210 62.9  66 
 BAR2 EZ ES       1145  7.53                             145    0.5410 62.9  66 
 BAR2 EZ I        1145  7.67        28.1 0.16            148           62.9  66 
 BRR  HZ EP       1144 55.48                             137   -0.2410 82.3 359 
 BRR  HN ES       1145  9.18                             137    0.0910 82.3 359 
 RUS  HZ EP       1144 56.49                             136   -0.2310 86.1 127 
 RUS  HN ES       1145 10.94                             136    0.0810 86.1 127 
 RUS  HZ I        1145 11.81         7.5 0.24            139           86.1 127 
 SPBC HZ EP       1144 55.99                             135   -0.4010 88.6 208 
 SPBC HN ES       1145  9.77                             135   -0.5110 88.6 208 
 SPBC HZ I        1145 11.91        28.1 0.40            136           88.6 208 
 NOR  HZ EP       1145  3.22                             118    0.07 9  157 236 
 NOR  HE ES       1145 22.43                             118    0.12 9  157 236 
 NOR  HZ I        1145 24.19         7.2 0.20            119            157 236 
 ZAR  HZ EP       1145  5.41                             114   -0.13 9  179 314 
 ZAR  HE ES       1145 26.21                             114   -0.36 9  179 314 
 ZAR  HZ I        1145 29.73         6.6 0.30            115            179 314 
 HEL  HE ES       1145 32.57                             112    0.26 9  203 265 
 GUY2CHZ EP       1145 11.96                             110    0.74 8  223 236 
 GUY2CHE ES       1145 36.95                             110    0.27 8  223 236 
                                                                                
