 2012  516 1257 35.3 L   6.748 -73.113140.3  RSN  4 0.4 1.5LRSN                1
 GAP=169        0.93      17.5     8.2 16.0 -0.6624E+02 -0.1572E+02  0.1859E+03E
 Epicentro: LOS SANTOS - SANTANDER                                             3
 ACTION:UP  12-07-05 12:05 OP:pat  STATUS:               ID:20120516125735 L   I
 2012-05-16-1250-00M.COL___195                                                 6
 STAT SP IPHASW D HRMM SECON CODA AMPLIT PERI AZIMU VELO SNR AR TRES W  DIS CAZ7
 BAR2 SZ EP       1257 54.50                             172     0.310   19 204 
 BAR2 SZ I        1258 11.09         6.7 0.36                            19 204 
 BRR  HZ EP       1257 56.40                             150     0.110   77 301 
 BRR  HZ I        1258  1.56        16.8 0.52                            77 301 
 BRR  HN ES   1   1258 13.07                             150     0.5 7   77 301 
 PAM  SN ES   1   1258 13.64                             149    -0.5 7   80  35 
 PTB  HZ EP       1258  1.91                             130    -0.2 9  150 261 
 PTB  HN ES   1   1258 22.51                             130    -0.5 7  150 261 
 PTB  HZ I        1258 25.23         1.7 0.10                           150 261 
                                                                                
