 2016 1016 1530 45.5 L   6.761 -73.165148.7  RSN  7 0.4 1.7LRSN                1
 GAP=136        1.05       6.0     5.7  8.8 -0.5251E+01  0.3865E+01 -0.4623E+01E
 Epicentro: LOS SANTOS - SANTANDER                                             3
 ACTION:UPD 16-11-09 19:20 OP:rebc STATUS:               ID:20161016153045 L   I
 OLDACT:UP  16-10-16 23:42 OP:dnl  STATUS:               ID:20161016152733     3
 OLDACT:UP  16-10-16 23:42 OP:dnl  STATUS:               ID:20161016152733     3
 OLDACT:REG 16-10-16 20:53 OP:dnl  STATUS:               ID:20161016152733     3
 2016-10-16-1528-00M.COL___377                                                 6
 STAT SP IPHASW D HRMM SECON CODA AMPLIT PERI AZIMU VELO AIN AR TRES W  DIS CAZ7
 BAR2 EZ EP       1531  5.09                             173   -0.2810 18.7 186 
 BAR2 EZ ES       1531 20.97                             173    0.0810 18.7 186 
 BAR2 EZ I        1531 21.61        21.5 0.24            169           18.7 186 
 BRR  HZ EP       1531  7.30                             153    0.3410 71.6 302 
 BRR  HN ES       1531 24.43                             153    0.7110 71.6 302 
 BRR  HZ I        1531 25.03        11.2 0.12            150           71.6 302 
 PAM  EZ EP       1531  8.43                             150    0.1510 82.1  39 
 PAM  EN ES       1531 25.55                             150   -0.5210 82.1  39 
 PAM  EZ I        1531 27.67        12.0 0.52            154           82.1  39 
 RUS  HZ EP   2   1531  9.28                             146    0.06 5 96.4 175 
 RUS  HN ES       1531 27.91                             146    0.1710 96.4 175 
 RUS  HZ I        1531 29.28         4.1 0.46            145           96.4 175 
 PTB  HZ EP   2   1531 12.64                             133    0.22 5  145 260 
 PTB  HN ES       1531 32.61                             133   -0.83 9  145 260 
 PTB  HZ I        1531 42.00         3.1 0.14            130            145 260 
 SPBC HZ EP   4   1531 15.09                             131    1.33 0  158 219 
 SPBC HN ES   3   1531 36.29                             131    0.47 2  158 219 
 SPBC HZ I        1531 41.21        12.4 0.24            128            158 219 
 GUY2CHZ EP   4   1531 31.38                             113    2.64 0  297 235 
 GUY2CHE ES   4   1532  6.44                             113    3.95 0  297 235 
 GUY2CHZ I        1532 11.76         2.6 0.32                           297 235 
                                                                                
