 2012  916 1726 17.8 L   6.809 -73.158145.2  RSN 12 0.4 2.6LRSN                1
 GAP=112        0.77       3.3     3.4  5.2  0.1613E+01  0.5226E+01  0.5854E+01E
 Epicentro: LOS SANTOS - SANTANDER                                             3
 ACTION:UPD 12-10-22 14:19 OP:ep   STATUS:               ID:20120916172617 L   I
 2012-09-16-1720-00M.COL___227                                                 6
 STAT SP IPHASW D HRMM SECON CODA AMPLIT PERI AZIMU VELO AIN AR TRES W  DIS CAZ7
 BAR2 SZ EP   1   1726 37.27                             170   -0.14 7 24.1 186 
 BAR2 SZ ES   1   1726 52.78                             170    0.10 7 24.1 186 
 BAR2 SZ I        1726 53.19       110.7 0.30                          24.1 186 
 GIR2 SZ EP   1   1726 37.21                             168   -0.19 7 30.1 353 
 GIR2 SZ ES   1   1726 52.88                             168    0.21 7 30.1 353 
 BRR  HZ EP       1726 38.99                             153    0.1710 69.5 298 
 BRR  HN ES   1   1726 55.76                             153    0.56 7 69.5 298 
 BRR  HZ I        1726 59.17        71.0 0.14                          69.5 298 
 PAM  SZ EP   1   1726 40.21                             151    0.22 7 77.6  41 
 PAM  SZ I        1726 40.40        62.1 0.18                          77.6  41 
 PAM  SN ES   1   1726 56.62                             151   -0.67 7 77.6  41 
 RUS  HZ EP   1   1726 41.38                             143   -0.22 7  102 175 
 RUS  HE ES   1   1726 59.82                             143   -0.33 7  102 175 
 RUS  HZ I        1727  1.55        39.4 0.46                           102 175 
 PTB  HZ EP   1   1726 44.00                             132   -0.64 7  147 258 
 PTB  HN ES   1   1727  5.09                             132   -0.47 7  147 258 
 PTB  HZ I        1727  6.54        37.9 0.30                           147 258 
 YOP  SZ EP   1   1726 48.19                             126    0.21 7  180 153 
 YOP  SN ES   1   1727 12.35                             126    0.86 7  180 153 
 ZAR  HZ EP   1   1726 50.09                             122    0.03 6  202 292 
 ZAR  HN ES   1   1727 14.99                             122   -0.22 6  202 292 
 ZAR  HZ I        1727 20.51        34.3 0.12                           202 292 
 NOR  SN ES   1   1727 21.52                             118    0.27 6  234 234 
 CHI  HZ EP   1   1726 55.69                             117    0.14 6  249 195 
 CHI  HN ES   1   1727 24.58                             117   -0.40 6  249 195 
 CHI  HZ I        1727 28.48        19.5 0.50                           249 195 
 HEL  HZ EP   1   1726 58.48                             115    0.60 6  271 256 
 HEL  HN ES   1   1727 29.83                             115    0.70 6  271 256 
 HEL  HZ I        1727 36.58        25.7 0.46                           271 256 
 PRA  HZ EP   1   1727 11.13                             106   -0.21 4  392 209 
 PRA  HN ES   1   1727 52.32                             106   -0.77 4  392 209 
 PRA  HZ I        1727 57.83        23.5 0.46                           392 209 
                                                                                
