 2011  416 1325  1.6 L   6.896 -73.361118.7  RSN  6 0.4 2.2LRSN                1
 GAP=151        0.89       5.2     7.3  8.2 -0.4828E+01  0.3910E+00 -0.1594E+02E
 Epicentro: SAN VICENTE DE CHUCURI - SANTANDER                                 3
 ACTION:UP  11-06-22 15:31 OP:REBC STATUS:               ID:20110416132501 L   I
 2011-04-16-1321-31S.COL___140                                                 6
 STAT SP IPHASW D HRMM SECON CODA AMPLIT PERI AZIMU VELO SNR AR TRES W  DIS CAZ7
 GIR2 SZ EP   1   1325 17.15                             166    -0.8 7   27  43 
 BAR2 SZ IP       1325 18.54                             161     0.110   39 150 
 BAR2 SZ ES       1325 31.37                             161    -0.310   39 150 
 BAR2 SZ I        1325 33.01       106.7 0.41                            39 150 
 BRR  HZ EP   1   1325 18.66                             158     0.3 7   45 301 
 BRR  HE ES   1   1325 31.87                             158     0.4 7   45 301 
 BRR  HZ I        1325 33.94        36.7 0.21                            45 301 
 PAM  SZ EP   1   1325 21.84                             141     0.1 7   88  56 
 PAM  SN ES   1   1325 37.91                             141     0.4 7   88  56 
 GRA  SZ EP   1   1325 24.67                             130     0.2 7  125  29 
 GRA  SZ ES   1   1325 42.49                             130     0.1 7  125  29 
 GRA  SZ I        1325 45.97        17.6 0.51                           125  29 
 OCA  SZ EP   1   1325 26.92                             125     0.2 7  149   2 
 OCA  SZ ES   1   1325 45.74                             125    -0.6 7  149   2 
 OCA  SZ I        1325 49.50        27.7 0.58                           149   2 
                                                                                
