 2016 1016 1257 15.3 L   6.761 -73.150143.5  RSN  7 0.4 1.5LRSN                1
 GAP=138        1.00       5.1     4.8  7.1 -0.9159E+01  0.1095E+02  0.2004E+01E
 Epicentro: LOS SANTOS - SANTANDER                                             3
 ACTION:UPD 16-11-09 19:20 OP:rebc STATUS:               ID:20161016125715 L   I
 OLDACT:REG 16-10-16 20:48 OP:dnl  STATUS:               ID:20161016124738     3
 2016-10-16-1248-00M.COL___359                                                 6
 STAT SP IPHASW D HRMM SECON CODA AMPLIT PERI AZIMU VELO AIN AR TRES W  DIS CAZ7
 BAR2 EZ EP       1257 34.76                             172    0.1810 19.0 191 
 BAR2 EZ ES       1257 49.90                             172    0.2810 19.0 191 
 BAR2 EZ I        1257 51.79         5.6 0.14            172           19.0 191 
 BRR  HZ EP       1257 36.41                             151    0.1010 72.9 302 
 BRR  HN ES       1257 53.18                             151    0.4910 72.9 302 
 BRR  HZ I        1257 58.37         6.9 0.32            152           72.9 302 
 PAM  EZ EP       1257 37.56                             149    0.0510 81.1  38 
 PAM  EE ES       1257 54.46                             149   -0.3610 81.1  38 
 PAM  EZ I        1257 56.41         4.7 0.50            153           81.1  38 
 RUS  HZ EP   2   1257 39.01                             145    0.48 5 96.3 176 
 RUS  HE ES       1257 56.37                             145   -0.2710 96.3 176 
 RUS  HZ I        1257 59.39         4.2 0.32            148           96.3 176 
 PTB  HZ EP       1257 41.42                             132   -0.56 9  147 260 
 PTB  HN ES       1258  2.45                             132   -0.33 9  147 260 
 PTB  HZ I        1258  5.16         6.1 0.24            134            147 260 
 NOR  HZ EP   2   1257 51.17                             118    0.58 4  232 235 
 NOR  HN ES       1258 17.42                             118   -0.70 8  232 235 
 NOR  HZ I        1258 20.39         1.9 0.16            121            232 235 
 GUY2CHZ EP   2   1257 58.79                             112    0.30 4  298 235 
 GUY2CHN ES       1258 33.16                             112    0.99 7  298 235 
 GUY2CHZ I        1258 43.03         1.9 0.44                           298 235 
                                                                                
