 2015 1216 1210 47.2 L   6.287 -73.136185.1  RSN 18 0.5 2.6LRSN                1
 GAP= 89        1.07       3.3     4.1  5.0 -0.3901E+01  0.3035E+01  0.1062E+01E
 Epicentro: CHARALA - SANTANDER                                                3
 ACTION:UPD 16-02-04 15:05 OP:cam  STATUS:               ID:20151216121047 L   I
 OLDACT:REG 15-12-16 20:21 OP:ar   STATUS:               ID:20151216120750     3
 2015-12-16-1207-50M.COL___330                                                 6
 STAT SP IPHASW D HRMM SECON CODA AMPLIT PERI AZIMU VELO AIN AR TRES W  DIS CAZ7
 BAR2 EZ EP       1211 11.72                             169   -0.0210 34.1 351 
 BAR2 EZ ES       1211 30.65                             169   -0.2710 34.1 351 
 BAR2 EZ I        1211 31.63        89.1 0.26            166           34.1 351 
 RUS  HZ EP       1211 12.66                             166    0.2810 44.1 172 
 RUS  HN ES       1211 32.00                             166   -0.0610 44.1 172 
 RUS  HZ I        1211 33.65       112.1 0.32            167           44.1 172 
 BRR  HZ EP       1211 15.55                             148    0.6710  111 325 
 BRR  HN ES       1211 37.36                             148    0.8610  111 325 
 BRR  HZ I        1211 41.73        55.2 0.32            145            111 325 
 SPBC HZ EP       1211 16.37                             144    0.3810  125 236 
 SPBC HN ES       1211 38.41                             144   -0.0710  125 236 
 PAM  EZ EP     D 1211 16.96                             145    0.3610  126  22 
 PAM  EE ES       1211 39.40                             145   -0.1710  126  22 
 PAM  EZ I        1211 41.51        32.4 0.34            146            126  22 
 PTB  HZ EP       1211 17.41                             139   -0.24 9  149 281 
 PTB  HN ES       1211 41.00                             139   -0.44 9  149 281 
 PTB  HZ I        1211 43.07        28.1 0.17            137            149 281 
 TAM  HZ EP       1211 17.77                             139    0.01 9  150  84 
 NOR  HZ EP       1211 23.07                             130    0.20 8  208 247 
 NOR  HN ES   2   1211 51.02                             130    0.29 4  208 247 
 NOR  HZ I        1211 57.28        22.0 0.44            129            208 247 
 OCA  HZ EP       1211 23.71                             128   -0.13 8  217 355 
 OCA  HN ES       1211 52.22                             128   -0.23 8  217 355 
 OCA  HZ I        1211 58.53        63.7 0.32            129            217 355 
 ZAR  HZ EP       1211 24.72                             126   -0.44 8  232 305 
 ZAR  HN ES   2   1211 54.14                             126   -0.66 4  232 305 
 ZAR  HZ I        1212  3.10        30.4 0.32            125            232 305 
 VIL  SZ EP       1211 26.07                             124   -0.85 8  248 194 
 VIL  SN ES   2   1211 57.08                             124   -0.85 4  248 194 
 HEL  HZ EP       1211 29.83                             123    0.90 8  265 268 
 HEL  HN ES   2   1212  1.10                             123   -0.41 4  265 268 
 HEL  HZ I        1212 10.67        12.0 0.34            122            265 268 
 GUY2CHZ EP       1211 30.40                             122    0.47 8  273 245 
 GUY2CHN ES       1212  3.74                             122    0.44 8  273 245 
 GUY2CHZ I        1212 13.32         8.8 0.34                           273 245 
 ELA  HZ EP   4   1211 34.96                             120    2.55 0  296 238 
 ELA  HN ES   4   1212 13.01                             120    5.30 0  296 238 
 ELA  HZ I        1212 20.07         6.4 0.54            120            296 238 
 SML  HZ EP       1211 31.15                             119   -0.58 7  297 340 
 SML  HN ES       1212  5.84                             119   -0.66 7  297 340 
 SML  HZ I        1212  9.59        39.4 0.10            120            297 340 
 URE  HZ EP       1211 32.47                             118   -0.77 7  310 302 
 URE  HN ES   4   1212  7.01                             118   -2.17 0  310 302 
 URE  HZ I        1212  9.90        29.9 0.12            118            310 302 
 CBOC HZ EP       1211 35.53                             117    0.85 7  322 262 
 CBOC HE ES   2   1212 10.95                             117   -0.79 3  322 262 
 CBOC HZ I        1212 20.71         5.5 0.50            117            322 262 
 SOCV BZ EP   4   1211 34.30                             116   -1.60 0  335  49 
 SOCV BN ES   4   1212  9.28                             116   -4.65 0  335  49 
 PRA  HZ EP       1211 36.83                             116   -0.15 7  344 214 
 PRA  HN ES       1212 14.95                             116   -0.90 7  344 214 
 PRA  HZ I        1212 18.35        21.3 0.32            116            344 214 
                                                                                
