 2010 1016 1709 47.2 L   6.849 -73.046116.0  RSN  5 0.5 1.7LRSN                1
 GAP=169        1.23       9.5    20.0 20.5  0.8288E+01 -0.1216E+03 -0.6573E+02E
 Epicentro: LOS SANTOS - SANTANDER                                             3
 ACTION:UP  11-02-18 11:10 OP:tino STATUS:               ID:20101016170947 L   I
 2010-10-16-1706-41S.COL___125                                                 6
 STAT SP IPHASW D HRMM SECON CODA AMPLIT PERI AZIMU VELO SNR AR TRES W  DIS CAZ7
 BTL  SZ EP       1710  4.08                             167     0.710   26 287 
 BTL  SZ ES   2   1710 15.31                             167    -0.6 5   26 287 
 BAR2 SZ EP       1710  3.62                             164     0.110   32 208 
 BAR2 SZ I        1710 31.30        12.8 0.28                            32 208 
 BRR  HZ EP       1710  5.60                             144    -0.210   79 291 
 BRR  HZ I        1710 17.46        21.0 0.18                            79 291 
 RUS  HZ EP   1   1710  7.96                             136    -0.7 7  106 182 
 RUS  HN ES   2   1710 25.80                             136     0.5 5  106 182 
 RUS  HZ I        1710 39.69         7.3 0.19                           106 182 
 GRA  SZ EP       1710  9.10                             132    -0.110  118  13 
 GRA  SZ I        1710 30.62        11.2 0.36                           118  13 
                                                                                
