 2010  516 1232 52.6 L   6.794 -73.013138.0  RSN  7 0.4 1.9LRSN                1
 GAP=171        0.67       4.1     8.3  7.4 -0.1441E+02 -0.3877E+01  0.2468E+01E
 Epicentro: CEPITA - SANTANDER                                                 3
 ACTION:UP  10-08-24 10:05 OP:vdl  STATUS:               ID:20100516123252 L   I
 2010-05-16-1230-29S.COL___108                                                 6
 STAT SP IPHASW D HRMM SECON CODA AMPLIT PERI AZIMU VELO AIN AR TRES W  DIS CAZ7
 BAR2 SZ EP   1   1233 11.11                             167    -0.3 7   29 220 
 BAR2 SZ ES   2   1233 25.57                             167    -0.6 5   29 220 
 BRR  HZ IP     C 1233 13.68                             146    -0.110   85 294 
 BRR  HZ I        1233 13.94        17.8 0.30                            85 294 
 BRR  HE ES   2   1233 30.58                             146     0.3 5   85 294 
 RUS  HZ EP   1   1233 15.69                             142     0.1 7  100 184 
 RUS  HN ES   2   1233 33.69                             142     0.2 5  100 184 
 BRI  SZ EP   1   1233 15.65                             141     0.2 7  105  13 
 BRI  SZ ES   2   1233 34.20                             141     0.9 5  105  13 
 GUE  SZ EP   1   1233 16.01                             138    -0.5 7  115   5 
 GRA  SZ EP   1   1233 16.88                             136     0.0 7  123  11 
 GRA  SZ ES   2   1233 36.13                             136     0.3 5  123  11 
 PRA  HZ EP   1   1233 46.98                             105     0.3 4  399 211 
 PRA  HN ES   2   1234 29.85                             105     1.0 3  399 211 
 PRA  HZ I        1234 31.51         1.9 0.69                           399 211 
                                                                                
