 2017  516 1901 53.2 L   5.956 -73.803117.4  RSN  8 0.4 2.0LRSN                1
 GAP= 73        1.03       2.8     3.4  9.0  0.1010E+01 -0.1016E+02  0.1263E+01E
 Epicentro: SUCRE - SANTANDER                                                  3
 ACTION:UPD 17-06-16 13:36 OP:jn   STATUS:               ID:20170516190153 L   I
 OLDACT:REG 17-05-16 20:40 OP:lv   STATUS:               ID:20170516185740     3
 2017-05-16-1858-00M.COL___359                                                 6
 STAT SP IPHASW D HRMM SECON CODA AMPLIT PERI AZIMU VELO AIN AR TRES W  DIS CAZ7
 PTB  HZ EP       19 2 12.43                             138   -0.8710 96.9 312 
 PTB  HN ES       19 2 29.29                             138    0.3010 96.9 312 
 PTB  HZ I        19 2 30.92        12.6 0.06            142           96.9 312 
 NOR  HZ EP       19 2 16.36                             130    0.4510  126 250 
 NOR  HN ES       19 2 33.64                             130    0.0010  126 250 
 NOR  HZ I        19 2 35.98        29.5 0.08            134            126 250 
 BRR  HZ EP       19 2 16.19                             129    0.1710  128   5 
 BRR  HN ES       19 2 34.21                             129    0.3810  128   5 
 CHI  HZ EP       19 2 18.90                             125    0.46 9  147 177 
 CHI  HN ES       19 2 37.83                             125   -0.31 9  147 177 
 CHI  HZ I        19 2 42.15         8.8 0.29            128            147 177 
 YPLC HZ EP       19 2 20.68                             121    0.38 9  169 111 
 YPLC HN ES       19 2 41.19                             121   -0.26 9  169 111 
 YPLC HZ I        19 2 45.57         8.6 0.16            124            169 111 
 PAM  EZ EP       19 2 23.95                             117    0.29 9  196  39 
 PAM  EN ES       19 2 47.18                             117   -0.24 9  196  39 
 PAM  EZ I        19 2 50.76         5.9 0.25            120            196  39 
 ZAR  HZ EP       19 2 24.29                             115    0.11 8  206 326 
 ZAR  HN ES       19 2 47.73                             115   -0.62 8  206 326 
 ZAR  HZ I        19 2 52.45        22.1 0.35            119            206 326 
 ELA  HN ES   4   19 2 53.18                             114    1.99 0  214 236 
 PTGC HZ EP       19 2 30.79                             109   -0.44 8  268 136 
 PTGC HN ES   4   19 2 59.36                             109   -1.55 0  268 136 
 PTGC HZ I        19 3  4.98        11.7 0.32            111            268 136 
                                                                                
