 2017  716 1058  6.2 L   6.780 -73.171150.2  RSN  6 0.2 0.8LRSN                1
 GAP=134        0.54       3.5     3.1  5.4  0.4230E+01 -0.3509E+01 -0.4016E+01E
 Epicentro: LOS SANTOS - SANTANDER                                             3
 ACTION:UPD 17-08-30 15:33 OP:rebc STATUS:               ID:20170716105806 L   I
 OLDACT:REG 17-07-16 20:13 OP:lv   STATUS:               ID:20170716104658     3
 2017-07-16-1048-00M.COL___368                                                 6
 STAT SP IPHASW D HRMM SECON CODA AMPLIT PERI AZIMU VELO AIN AR TRES W  DIS CAZ7
 BAR2 EZ EP       1058 26.11                             172   -0.1910 20.8 183 
 BRR  HZ EP       1058 27.65                             154   -0.0910 69.8 301 
 BRR  HN ES       1058 44.65                             154    0.1010 69.8 301 
 PAM  EZ EP       1058 28.98                             150   -0.1010 80.9  40 
 PAM  EZ I        1058 48.08         0.9 0.21            139           80.9  40 
 RUS  HZ EP       1058 30.53                             145    0.2910 98.7 174 
 RUS  HN ES       1058 49.05                             145    0.0510 98.7 174 
 RUS  HZ I        1058 51.63         0.7 0.19            149           98.7 174 
 PTB  HZ EP       1058 33.20                             134   -0.03 9  145 259 
 PTB  HE ES       1058 54.02                             134   -0.31 9  145 259 
 PTB  HZ I        1058 56.99         1.0 0.17            139            145 259 
 ZAR  HE ES       1059  4.46                             124    0.33 9  202 293 
                                                                                
