 2017  616 1834 33.2 L   6.801 -73.218152.0  RSN  6 0.2 2.0LRSN                1
 GAP=275        0.47       2.8     4.4  4.7 -0.2283E+01 -0.7585E+01  0.4059E+01E
 Epicentro: ZAPATOCA - SANTANDER                                               3
 ACTION:UPD 17-09-14 16:52 OP:jn   STATUS:               ID:20170616183433 L   I
 OLDACT:REG 17-06-16 22:17 OP:dln  STATUS:               ID:20170616182738     3
 2017-06-16-1828-00M.COL___368                                                 6
 STAT SP IPHASW D HRMM SECON CODA AMPLIT PERI AZIMU VELO AIN AR TRES W  DIS CAZ7
 BRR  HZ EP       1834 54.42                             156   -0.2010 64.2 302 
 BRR  HN ES       1835 11.48                             156    0.1210 64.2 302 
 BRR  HZ I        1835 15.43        18.8 0.44            143           64.2 302 
 PTB  HZ EP   9   1834 59.43                             135   -0.52 0  140 258 
 PTB  HN ES       1835 20.39                                    0.06 9  140 258 
 PTB  HZ I        1835 26.07         7.2 0.72            126            140 258 
 SPBC HZ EP       1835  1.79                             131    0.10 9  158 217 
 SPBC HN ES       1835 23.92                             131   -0.03 9  158 217 
 SPBC HZ I        1835 28.50        22.1 0.34            126            158 217 
 ZAR  HZ EP   4   1835  7.82                             125    2.56 0  197 293 
 ZAR  HE ES       1835 30.29                             125   -0.01 9  197 293 
 ZAR  HZ I        1835 37.25         9.5 0.26            118            197 293 
 NOR  HZ EP   2   1835  9.37                             121    0.79 4  228 233 
 NOR  HN ES       1835 36.04                             121   -0.16 8  228 233 
 NOR  HZ I        1835 42.13         4.3 0.14            115            228 233 
 URE  HZ EP   4   1835 17.55                             116    3.84 0  276 293 
 URE  HN ES   4   1835 44.31                             116   -1.03 0  276 293 
 URE  HZ I        1835 56.24         5.4 0.22            110            276 293 
                                                                                
