 2015  216 1011 32.2 L   7.552 -73.134140.2  RSN  6 0.5 1.3LRSN                1
 GAP=153        1.08       4.3     5.7  8.1  0.4586E+01  0.9317E+01 -0.2707E+01E
 Epicentro: EL PLAYON - SANTANDER                                              3
 ACTION:UPD 15-04-30 21:26 OP:nd   STATUS:               ID:20150216101132 L   I
 OLDACT:REG 15-02-16 19:29 OP:fm   STATUS:               ID:20150216100740     3
 2015-02-16-1007-40M.COL___292                                                 6
 STAT SP IPHASW D HRMM SECON CODA AMPLIT PERI AZIMU VELO AIN AR TRES W  DIS CAZ7
 PAM  SZ EP       1011 53.02                             158    0.5110 53.4 116 
 PAM  SE ES       1012  8.25                             158   -0.1210 53.4 116 
 PAM  SZ I        1012 10.96         3.2 0.22            165           53.4 116 
 BRR  HZ EP   1   1011 53.60                             148    0.31 7 80.6 232 
 BRR  HN ES       1012  9.48                             148   -0.2910 80.6 232 
 BRR  HZ I        1012 14.90         5.8 0.40            148           80.6 232 
 BAR2 EZ EP   1   1011 55.28                             141   -0.17 7  106 183 
 BAR2 EZ ES   1   1012 14.42                             141    0.81 7  106 183 
 BAR2 EZ I        1012 16.86         4.5 0.28            144            106 183 
 SML  HZ EP       1012  1.52                             126    0.49 9  172 323 
 SML  HN ES       1012 22.95                             126   -0.59 9  172 323 
 SML  HZ I        1012 29.93         3.9 0.10            129            172 323 
 RUS  HZ EP       1012  2.36                             124   -0.43 9  184 178 
 RUS  HE ES       1012 26.08                             124   -0.60 9  184 178 
 RUS  HZ I        1012 29.64         0.7 0.64            129            184 178 
 PTB  HZ EP       1012  2.02                             124   -0.19 9  184 233 
 PTB  HN ES       1012 26.16                             124    0.51 9  184 233 
 PTB  HZ I        1012 31.51         1.6 0.16            127            184 233 
                                                                                
