 2010  516 1936 24.5 L   6.725 -72.989135.4  RSN  6 0.3 1.4LRSN                1
 GAP=175        0.68       3.3     7.9  6.5 -0.4846E+01 -0.1572E+02 -0.3056E+01E
 Epicentro: CEPITA - SANTANDER                                                 3
 ACTION:UP  10-08-24 10:05 OP:vdl  STATUS:               ID:20100516193624 L   I
 2010-05-16-1933-40S.COL___108                                                 6
 STAT SP IPHASW D HRMM SECON CODA AMPLIT PERI AZIMU VELO AIN AR TRES W  DIS CAZ7
 BAR2 SZ EP   1   1936 42.73                             168    -0.2 7   26 235 
 BAR2 SZ ES       1936 57.24                             168    -0.110   26 235 
 BRR  HZ EP   1   1936 45.51                             144    -0.3 7   90 298 
 BRR  HZ I        1936 47.27         6.5 0.06                            90 298 
 BRR  HN ES   1   1937  2.68                             144     0.3 7   90 298 
 RUS  HZ EP   1   1936 46.90                             144     0.3 7   93 186 
 RUS  HE ES   1   1937  3.88                             144     0.0 7   93 186 
 RUS  HZ I        1937  6.59         2.8 0.35                            93 186 
 BRI  SZ EP   1   1936 47.67                             138     0.0 7  112  11 
 BRI  SZ ES   2   1937  6.44                             138     0.7 5  112  11 
 GUE  SZ EP   1   1936 48.53                             135    -0.2 7  122   3 
 GUE  SZ ES       1937  7.41                             135    -0.310  122   3 
 GRA  SZ EP   2   1936 50.09                             133     0.9 5  130   9 
                                                                                
