 2010 1016 1130  2.0 L   7.557 -73.471105.2  RSN 11 0.4 2.2LRSN                1
 GAP=136        0.87       4.1     8.5 11.7 -0.9656E+01 -0.1134E+02  0.2646E+01E
 Epicentro: SABANA DE TORRES - SANTANDER                                       3
 ACTION:UP  11-02-18 11:10 OP:tino STATUS:               ID:20101016113002 L   I
 2010-10-16-1129-23S.COL___125                                                 6
 STAT SP IPHASW D HRMM SECON CODA AMPLIT PERI AZIMU VELO SNR AR TRES W  DIS CAZ7
 URB  SZ EP       1130 16.80                             158    -0.310   38 157 
 BRR  HZ IP       1130 17.99                             149     0.110   56 208 
 BRR  HE ES   2   1130 31.17                             149     0.8 5   56 208 
 BRR  HZ I        1130 32.46        34.9 0.12                            56 208 
 GIR2 SZ IP       1130 17.66                             147    -0.810   61 150 
 GUE  SZ IP       1130 19.07                             145     0.010   67  63 
 BTL  SZ EP       1130 19.65                             142     0.210   74 162 
 OCA  SZ EP       1130 19.54                             141    -0.110   77  12 
 OCA  SZ ES   2   1130 33.12                             141    -0.2 5   77  12 
 OCA  SZ I        1130 36.17        42.0 0.44                            77  12 
 GRA  SZ IP       1130 20.43                             139     0.510   82  64 
 GRA  SZ I        1130 35.56        81.1 0.24                            82  64 
 BAR2 SZ IP       1130 22.88                             130     0.210  111 163 
 BAR2 SZ ES   1   1130 38.96                             130     0.2 7  111 163 
 BAR2 SZ I        1130 41.15        31.8 0.22                           111 163 
 RUS  HZ EP   2   1130 31.44                             114     0.4 4  189 167 
 RUS  HN ES   2   1130 53.29                             114    -0.5 4  189 167 
 NOR  SZ EP   3   1130 40.22                             105     0.5 2  269 215 
 NOR  SE ES   3   1131  8.93                             105    -0.3 2  269 215 
 HEL  HZ EP   3   1130 41.68                             105     1.1 2  273 237 
 HEL  HN ES   3   1131  9.83                             105    -0.9 2  273 237 
 HEL  HZ I        1131 17.77         7.1 0.25                           273 237 
                                                                                
