 2014  916 1305  4.1 L   6.803 -73.108150.4  RSN  8 0.4 1.6LRSN                1
 GAP=141        0.93       4.0     4.7  6.7 -0.1919E+01  0.3125E+01 -0.1493E+01E
 Epicentro: LOS SANTOS - SANTANDER                                             3
 ACTION:UPD 14-10-03 23:05 OP:nd   STATUS:               ID:20140916130504 L   I
 OLDACT:REG 14-09-16 21:51 OP:spq  STATUS:               ID:20140916125820     3
 2014-09-16-1258-20M.COL___281                                                 6
 STAT SP IPHASW D HRMM SECON CODA AMPLIT PERI AZIMU VELO AIN AR TRES W  DIS CAZ7
 BAR2 SZ EP   1   13 5 23.76                             170   -0.52 7 24.7 199 
 BAR2 SZ ES   1   13 5 39.82                             170   -0.23 7 24.7 199 
 BAR2 SZ I        13 5 47.06         8.6 0.37            170           24.7 199 
 PAM  SZ EP       13 5 27.23                             153    0.6210 74.5  37 
 PAM  SN ES   1   13 5 44.23                             153    0.03 7 74.5  37 
 PAM  SZ I        13 5 46.54         6.9 0.32            157           74.5  37 
 BRR  HZ EP       13 5 25.96                             152    0.0510 74.7 297 
 BRR  HN ES       13 5 42.89                             152   -0.0610 74.7 297 
 BRR  HZ I        13 5 44.17         8.3 0.38            153           74.7 297 
 RUS  HZ EP   1   13 5 27.98                             145   -0.30 7  101 178 
 RUS  HE ES   1   13 5 46.82                             145   -0.36 7  101 178 
 RUS  HZ I        13 5 49.15         3.0 0.20            148            101 178 
 PTB  HZ EP       13 5 31.09                             132   -0.69 9  152 259 
 PTB  HE ES       13 5 53.49                             132    0.09 9  152 259 
 PTB  HZ I        13 5 56.45         4.1 0.14            135            152 259 
 SPBC HZ EP       13 5 33.28                             130    0.09 9  166 220 
 SPBC HN ES       13 5 56.73                             130    0.81 9  166 220 
 SPBC HZ I        13 6  1.26         5.7 0.32            133            166 220 
 ZAR  HN ES   1   13 6  2.72                             123   -0.31 6  208 292 
 ZAR  HZ I        13 6  7.78         3.3 0.16            126            208 292 
 SML  HZ EP   1   13 5 40.99                             118   -0.11 6  245 334 
 SML  HE ES   1   13 6 10.29                             118    0.30 6  245 334 
 SML  HZ I        13 6 13.63         4.6 0.10            122            245 334 
                                                                                
