 2012  916 1428 34.3 L   6.723 -73.189155.1  RSN  4 0.2 1.3LRSN                1
 GAP=226        0.43       4.9     4.7  6.3  0.9706E+01  0.7086E+00 -0.5800E+01E
 Epicentro: VILLANUEVA - SANTANDER                                             3
 ACTION:UPD 12-10-22 14:19 OP:ep   STATUS:               ID:20120916142834 L   I
 2012-09-16-1426-59S.COL___226                                                 6
 STAT SP IPHASW D HRMM SECON CODA AMPLIT PERI AZIMU VELO AIN AR TRES W  DIS CAZ7
 BAR2 SZ EP   1   1428 54.79                             174   -0.16 7 14.4 177 
 BAR2 SZ ES   1   1429 10.81                             174   -0.23 7 14.4 177 
 BAR2 SZ I        1429 10.91         6.0 0.50                          14.4 177 
 BRR  HZ EP   1   1428 56.64                             154    0.11 7 71.8 306 
 BRR  HE ES   1   1429 14.03                             154    0.19 7 71.8 306 
 RUS  HZ I        1429 17.10         2.5 0.38                          92.5 173 
 RUS  HN ES   1   1429 17.51                             148    0.20 7 92.5 173 
 PTB  HN ES   1   1429 22.65                             135   -0.12 7  142 262 
 PTB  HN I        1429 24.89         2.8 0.24                           142 262 
                                                                                
