 2010  216 1457 39.0 L   6.728 -72.895143.9  RSN  5 0.3 2.3LRSN                1
 GAP=317        0.45       7.8     9.8  6.7 -0.3890E+02  0.7402E+01  0.2079E+02E
 Epicentro: MOLAGAVITA - SANTANDER                                             3
 ACTION:UP  10-08-24 09:49 OP:vdl  STATUS:               ID:20100216145739 L   I
 2010-02-16-1455-26S.COL___094                                                 6
 STAT SP IPHASW D HRMM SECON CODA AMPLIT PERI AZIMU VELO SNR AR TRES W  DIS CAZ7
 BAR2 SZ EP   1   1457 58.84                             166     0.2 7   35 245 
 BAR2 SZ ES   2   1458 13.83                             166    -0.2 5   35 245 
 CHI  HZ EP   1   1458 16.76                             117     0.1 6  250 202 
 CHI  HN ES   2   1458 46.37                             117     0.2 4  250 202 
 CHI  HZ I        1458 50.05        10.2 0.60                           250 202 
 RREF BZ EP   1   1458 26.89                             109    -0.1 5  338 233 
 RREF BE ES   2   1459  5.11                             109     0.7 3  338 233 
 RREF BZ I        1459 10.93         7.1 0.36                           338 233 
 TOL  SZ EP   1   1458 28.84                             108     0.0 5  358 229 
 TOL  SZ ES   2   1459  7.11                             108    -0.7 3  358 229 
 PRA  HZ EP   1   1458 32.96                             106    -0.4 4  400 214 
 PRA  HE ES   2   1459 15.55                             106    -0.2 3  400 214 
 PRA  HZ I        1459 19.01         8.2 0.31                           400 214 
                                                                                
