 2016  916 1501 59.6 L   6.851 -73.166140.1  RSN  5 0.4 1.5LRSN                1
 GAP=131        0.99       5.5     4.7  9.1 -0.2710E+01  0.1715E+02 -0.9202E+01E
 Epicentro: ZAPATOCA - SANTANDER                                               3
 ACTION:UPD 17-08-17 21:13 OP:lp   STATUS:               ID:20160916150159 L   I
 OLDACT:REG 16-09-16 20:06 OP:lv   STATUS:               ID:20160916145737     3
 2016-09-16-1458-00M.COL___354                                                 6
 STAT SP IPHASW D HRMM SECON CODA AMPLIT PERI AZIMU VELO AIN AR TRES W  DIS CAZ7
 BAR2 EZ EP       15 2 18.62                             168   -0.0110 28.7 184 
 BAR2 EZ ES       15 2 33.97                             168    0.4610 28.7 184 
 BAR2 EZ I        15 2 34.99         7.6 0.24            170           28.7 184 
 PAM  EZ EP       15 2 21.59                             151    0.5810 74.6  44 
 PAM  EE ES       15 2 37.13                             151   -0.6110 74.6  44 
 PAM  EZ I        15 2 40.89         5.7 0.68            153           74.6  44 
 RUS  HZ EP   2   15 2 23.19                             141   -0.01 5  106 175 
 RUS  HE ES       15 2 41.58                             141   -0.0610  106 175 
 RUS  HZ I        15 2 42.47         4.3 0.18            147            106 175 
 PTB  HZ EP       15 2 25.51                             131   -0.47 9  147 256 
 PTB  HN ES       15 2 46.37                             131   -0.21 9  147 256 
 PTB  HZ I        15 2 52.09         3.7 0.14            131            147 256 
 ZAR  HZ EP   4   15 2 33.74                             122    2.54 0  200 291 
 ZAR  HE ES       15 2 56.19                             122    0.31 9  200 291 
 ZAR  HZ I        15 3  6.26         3.6 0.32            122            200 291 
                                                                                
