 2012  816 1551  8.6 L   6.716 -73.224144.0  RSN  4 0.4 1.6LRSN                1
 GAP=213        0.84       7.7     7.8  7.8  0.3007E+02  0.1052E+02  0.8114E+01E
 Epicentro: VILLANUEVA - SANTANDER                                             3
 ACTION:UPD 12-09-10 11:56 OP:ep   STATUS:               ID:20120816155108 L   I
 2012-08-16-1550-00M.COL___216                                                 6
 STAT SP IPHASW D HRMM SECON CODA AMPLIT PERI AZIMU VELO AIN AR TRES W  DIS CAZ7
 BAR2 SZ EP   1   1551 27.70                             174   -0.17 7 14.4 161 
 BAR2 SZ ES   1   1551 42.20                             174   -0.70 7 14.4 161 
 BAR2 SZ I        1551 43.63        15.2 0.10                          14.4 161 
 BRR  HZ EP       1551 29.28                             153   -0.1610 69.1 309 
 BRR  HN ES       1551 46.20                             153    0.5010 69.1 309 
 BRR  HZ I        1551 46.97        13.2 0.13                          69.1 309 
 RUS  HZ EP   1   1551 31.93                             146    0.34 7 92.3 170 
 RUS  HN ES   1   1551 49.92                             146    0.39 7 92.3 170 
 RUS  HZ I        1551 52.11         3.9 0.37                          92.3 170 
 PTB  HZ EP       1551 34.30                             134   -0.21 9  138 262 
 PTB  HN ES   1   1551 54.58                             134   -0.15 7  138 262 
 PTB  HZ I        1551 57.17         2.1 0.23                           138 262 
                                                                                
