 2012  916 1132 31.6 L   6.802 -73.135144.2  RSN  5 0.3 1.5LRSN                1
 GAP=189        0.59       5.7     6.8  6.0  0.2506E+02  0.6236E+01  0.3533E+01E
 Epicentro: LOS SANTOS - SANTANDER                                             3
 ACTION:UPD 12-10-22 14:19 OP:ep   STATUS:               ID:20120916113231 L   I
 2012-09-16-1130-00M.COL___227                                                 6
 STAT SP IPHASW D HRMM SECON CODA AMPLIT PERI AZIMU VELO AIN AR TRES W  DIS CAZ7
 BAR2 SZ EP   1   1132 51.05                             170   -0.04 7 23.8 193 
 BAR2 SZ ES   1   1133  5.79                             170   -0.47 7 23.8 193 
 BAR2 SZ I        1133  7.35         9.9 0.20                          23.8 193 
 GIR2 SZ EP   1   1132 51.01                             167   -0.11 7 31.3 348 
 GIR2 SZ ES   1   1133  6.33                             167    0.01 7 31.3 348 
 BRR  HZ EP   1   1132 52.72                             152    0.05 7 72.1 298 
 BRR  HZ I        1132 52.96         5.8 0.13                          72.1 298 
 BRR  HN ES   1   1133  9.62                             152    0.55 7 72.1 298 
 RUS  HZ EP   1   1132 55.41                             143    0.17 7  101 177 
 RUS  HN ES   1   1133 13.76                             143    0.10 7  101 177 
 RUS  HZ I        1133 15.20         2.5 0.50                           101 177 
 ZAR  HN ES   1   1133 29.02                             122   -0.36 6  205 292 
 ZAR  HZ I        1133 34.09         4.1 0.10                           205 292 
                                                                                
