 2016  316 1350 50.9 L   6.820 -73.137142.1  RSN  7 0.3 1.7LRSN                1
 GAP=137        0.88       3.7     3.9  6.4 -0.7792E+00  0.8430E+01  0.4780E+01E
 Epicentro: LOS SANTOS - SANTANDER                                             3
 ACTION:UPD 16-05-13 21:24 OP:cam  STATUS:               ID:20160316135050 L   I
 OLDACT:REG 16-03-16 20:53 OP:cara STATUS:               ID:20160316134748     3
 2016-03-16-1347-48M.COL___297                                                 6
 STAT SP IPHASW D HRMM SECON CODA AMPLIT PERI AZIMU VELO AIN AR TRES W  DIS CAZ7
 BAR2 EZ IP       1351 10.21                             169    0.0910 25.6 191 
 BAR2 EZ ES       1351 24.98                             169   -0.1510 25.6 191 
 BAR2 EZ I        1351 26.83        14.5 0.20            168           25.6 191 
 PAM  EZ EP       1351 13.12                             151    0.5510 75.1  40 
 PAM  EZ I        1351 13.32        13.7 0.22            154           75.1  40 
 PAM  EE ES       1351 29.21                             151   -0.2810 75.1  40 
 RUS  HZ EP       1351 13.98                             142   -0.4510  103 177 
 RUS  HE ES       1351 33.26                             142    0.4710  103 177 
 RUS  HZ I        1351 33.94         4.5 0.26            144            103 177 
 PTB  HZ EP       1351 17.44                             131   -0.23 9  149 258 
 PTB  HE ES       1351 38.76                             131    0.19 9  149 258 
 PTB  HZ I        1351 44.42         4.3 0.38            130            149 258 
 ZAR  HN ES       1351 48.01                             122   -0.21 9  204 291 
 ZAR  HZ I        1351 54.21         4.1 0.42            121            204 291 
 CHI  HZ EP       1351 28.81                             116    0.18 8  251 195 
 CHI  HN ES       1351 57.50                             116   -0.58 8  251 195 
 CHI  HZ I        1352  1.44         2.7 0.54            117            251 195 
 GUY2CHE ES       1352  9.00                             111    0.39 7  303 235 
 GUY2CHZ I        1352 16.44         2.8 0.40                           303 235 
                                                                                
