 2017 1016 1759 19.2 L   6.794 -73.157145.7  RSN  5 0.2 1.5LRSN                1
 GAP=236        0.54       4.2     3.9  4.4  0.1028E+02  0.2007E+01 -0.2081E+00E
 Epicentro: LOS SANTOS - SANTANDER                                             3
 ACTION:UPD 17-11-07 19:32 OP:rebc STATUS:               ID:20171016175919 L   I
 OLDACT:UP  17-10-16 23:22 OP:edw  STATUS:               ID:20171016175135     3
 OLDACT:UP  17-10-16 23:20 OP:edw  STATUS:               ID:20171016175135     3
 OLDACT:REG 17-10-16 20:44 OP:edw  STATUS:               ID:20171016175135     3
 2017-10-16-1758-00M.COL___441                                                 6
 STAT SP IPHASW D HRMM SECON CODA AMPLIT PERI AZIMU VELO AIN AR TRES W  DIS CAZ7
 BAR2 EZ EP       1759 38.71                             171   -0.1210 22.5 187 
 BAR2 EZ ES       1759 54.03                             171   -0.0910 22.5 187 
 BAR2 EZ I        1759 57.41         6.1 0.32            173           22.5 187 
 BRR  HZ EP       1759 40.27                             153   -0.0510 70.4 300 
 BRR  HN ES       1759 56.83                             153    0.0510 70.4 300 
 BRR  HZ I        18 0  0.81         4.5 0.42            155           70.4 300 
 RUS  HZ EP       1759 43.28                             144    0.3510  100 175 
 RUS  HN ES       18 0  1.44                             144    0.0210  100 175 
 RUS  HZ I        18 0  3.04         7.6 0.32            148            100 175 
 PTB  HZ EP       1759 45.71                             132   -0.35 9  146 259 
 PTB  HE ES       18 0  6.95                             132   -0.04 9  146 259 
 PTB  HZ I        18 0  8.50         2.7 0.28            136            146 259 
 ZAR  HN ES       18 0 17.07                             122    0.27 9  203 292 
                                                                                
