 2014 1016 1431 33.9 L   6.861 -73.174146.7  RSN  7 0.4 1.9LRSN                1
 GAP=130        0.86       3.3     4.4  7.6 -0.8819E+00  0.1394E+02 -0.1264E+01E
 Epicentro: ZAPATOCA - SANTANDER                                               3
 ACTION:UPD 14-11-29 23:50 OP:nd   STATUS:               ID:20141016143133 L   I
 OLDACT:REG 14-10-16 20:52 OP:fm   STATUS:               ID:20141016142744     3
 2014-10-16-1427-44M.COL___292                                                 6
 STAT SP IPHASW D HRMM SECON CODA AMPLIT PERI AZIMU VELO AIN AR TRES W  DIS CAZ7
 PAM  SZ EP       1431 56.57                             152    0.5510 74.4  45 
 PAM  SN ES       1432 13.44                             152    0.1510 74.4  45 
 PAM  SZ I        1432 15.45        16.1 0.44            156           74.4  45 
 RUS  HZ EP   1   1431 58.15                             142   -0.08 7  108 175 
 RUS  HN ES       1432 16.81                             142   -0.4210  108 175 
 PTB  HZ EP       1432  0.29                             133   -0.49 9  146 256 
 PTB  HE ES       1432 21.98                             133    0.21 9  146 256 
 PTB  HZ I        1432 24.88         6.2 0.22            133            146 256 
 ZAR  HZ EP   1   1432  5.68                             123   -0.15 6  199 291 
 ZAR  HE ES   1   1432 31.32                             123    0.56 6  199 291 
 ZAR  HZ I        1432 36.57         8.8 0.24            124            199 291 
 SML  HZ EP   1   1432  9.66                             118   -0.09 6  236 335 
 SML  HN ES       1432 37.19                             118   -0.54 8  236 335 
 PRA  HZ EP   1   1432 28.48                             106    0.54 4  396 209 
 PRA  HE ES       1433 10.46                             106    0.34 6  396 209 
 PRA  HZ I        1433 14.86         2.3 0.56            108            396 209 
 SJC  HZ EP   4   1432 27.80                             106   -0.80 0  402 327 
 SJC  HN ES   4   1433  7.38                             106   -3.91 0  402 327 
 SJC  HZ I        1433 12.73         2.2 0.44            108            402 327 
                                                                                
