 2017  716 1127 46.4 L   6.107 -74.199  4.0  RSN 10 0.6 1.7LRSN                1
 GAP= 67        1.55       2.6     2.4  6.0 -0.1189E+01 -0.4042E+00 -0.8818E+00E
 Epicentro: CIMITARRA - SANTANDER                                              3
 ACTION:UPD 17-08-30 15:33 OP:rebc STATUS:               ID:20170716112746 L   I
 OLDACT:UP  17-07-16 21:53 OP:lv   STATUS:               ID:20170716111244d    3
 OLDACT:DUP 17-07-16 21:48 OP:lv   STATUS:               ID:20170716111244d    3
 2017-07-16-1118-00M.COL___368                                                 6
 STAT SP IPHASW D HRMM SECON CODA AMPLIT PERI AZIMU VELO AIN AR TRES W  DIS CAZ7
 SPBC HZ EP       1127 55.53                              47    0.5010 52.2 164 
 SPBC HN ES       1128  2.42                              47    0.6810 52.2 164 
 SPBC HZ I        1128  2.79        70.8 0.09             47           52.2 164 
 PTB  HZ IP       1127 55.74                              47    0.2710 55.6 329 
 PTB  HZ EP     D 1127 55.75                              47    0.2810 55.6 329 
 PTB  HN ES       1128  2.49                              47   -0.0410 55.6 329 
 PTB  HZ I        1128  3.57        76.1 0.16             47           55.6 329 
 NOR  HZ EP       1128  1.77                              47    0.2210 95.5 231 
 NOR  HN ES       1128 13.00                              47   -0.3310 95.5 231 
 NOR  HZ I        1128 13.97        20.6 0.12             47           95.5 231 
 BRR  HZ EP       1128  5.66                              47   -0.0110  123  26 
 BRR  HN ES       1128 20.96                              47    0.2910  123  26 
 BRR  HZ I        1128 22.24        10.4 0.09             47            123  26 
 BAR2 EZ EP       1128  6.30                              47    0.1410  125  64 
 BAR2 EZ ES       1128 20.36                              47   -1.1910  125  64 
 BAR2 EZ I        1128 22.87         8.7 0.09             47            125  64 
 RUS  HZ IP     D 1128  6.38                              47   -0.2210  126 101 
 RUS  HN ES       1128 21.28                              47   -1.0510  126 101 
 RUS  HZ I        1128 22.34        11.5 0.05             47            126 101 
 HEL  HZ EP       1128  9.50                              47   -0.25 9  147 274 
 HEL  HN ES       1128 27.16                              47   -0.77 9  147 274 
 HEL  HZ I        1128 28.22        19.1 0.15             47            147 274 
 GUY2CHZ EP       1128 12.72                              47    0.68 9  162 233 
 GUY2CHN ES       1128 31.25                              47   -0.77 9  162 233 
 GUY2CHZ I        1128 35.27         6.1 0.25                           162 233 
 ZAR  HZ EP   9   1128 10.95                              47   -1.79 0  170 335 
 ZAR  HN ES       1128 31.41                                   -0.06 9  170 335 
 ZAR  HZ I        1128 36.62         5.8 0.16             47            170 335 
 PAM  EZ EP       1128 20.52                              37    1.41 8  215  50 
 PAM  EN ES       1128 45.00                              37    0.41 8  215  50 
 PAM  EZ I        1128 46.30         8.8 0.09             37            215  50 
                                                                                
