 2016  916 1943 44.2 L   6.786 -73.175146.0  RSN  7 0.3 2.0LRSN                1
 GAP=134        0.79       3.7     3.5  5.5  0.1296E+01  0.3927E+01  0.1570E+01E
 Epicentro: LOS SANTOS - SANTANDER                                             3
 ACTION:UPD 17-08-17 21:13 OP:lp   STATUS:               ID:20160916194344 L   I
 OLDACT:REG 16-09-16 20:25 OP:lv   STATUS:               ID:20160916193736     3
 2016-09-16-1938-00M.COL___360                                                 6
 STAT SP IPHASW D HRMM SECON CODA AMPLIT PERI AZIMU VELO AIN AR TRES W  DIS CAZ7
 BAR2 EZ EP       1944  3.50                             171   -0.2910 21.4 182 
 BAR2 EZ ES       1944 18.94                             171   -0.1610 21.4 182 
 BAR2 EZ I        1944 19.93        27.5 0.26            171           21.4 182 
 BRR  HZ EP       1944  5.63                             153    0.4010 69.2 301 
 BRR  HE ES       1944 22.29                             153    0.6310 69.2 301 
 BRR  HZ I        1944 26.90        25.8 0.22            152           69.2 301 
 PAM  EZ EP     C 1944  6.66                             150    0.0510 80.6  41 
 PAM  EN ES       1944 23.84                             150   -0.2710 80.6  41 
 PAM  EZ I        1944 24.65        12.4 0.16            153           80.6  41 
 RUS  HZ EP       1944  8.02                             144    0.1710 99.3 174 
 RUS  HE ES       1944 26.40                             144    0.0810 99.3 174 
 RUS  HZ I        1944 27.90        11.5 0.24            146           99.3 174 
 PTB  HZ EP       1944 10.41                             133   -0.44 9  144 259 
 PTB  HE ES       1944 31.57                             133   -0.08 9  144 259 
 PTB  HZ I        1944 33.20        11.5 0.46            132            144 259 
 ZAR  HZ EP   2   1944 16.77                             123    0.38 4  202 293 
 ZAR  HN ES       1944 41.12                             123   -0.39 9  202 293 
 ZAR  HZ I        1944 47.48        13.6 0.44            123            202 293 
 CHI  HZ EP   2   1944 22.25                             117    0.62 4  246 195 
 CHI  HN ES   2   1944 50.60                             117   -0.24 4  246 195 
 CHI  HZ I        1944 53.89         6.8 0.30            119            246 195 
                                                                                
