 2011  816 1048 43.7 L   6.329 -73.977  7.6  RSN  5 0.5 1.8LRSN                1
 GAP=149        1.11       3.8     3.7 11.1 -0.4120E+01 -0.4057E+01 -0.7655E+01E
 Epicentro: CIMITARRA - SANTANDER                                              3
 ACTION:UPD 12-07-13 15:52 OP:ep   STATUS:               ID:20110816104843 L   I
 2011-08-16-1046-49S.COL___150                                                 6
 STAT SP IPHASW D HRMM SECON CODA AMPLIT PERI AZIMU VELO AIN AR TRES W  DIS CAZ7
 BRR  HZ EP       1048 58.33                              92    0.2110 90.8  19 
 BRR  HE ES   1   1049  9.10                              92   -0.23 7 90.8  19 
 BRR  HZ I        1049 11.38        26.0 0.10                          90.8  19 
 BAR2 SZ EP   1   1048 59.07                              92    0.45 7 92.5  72 
 BAR2 SZ ES   1   1049  9.34                              92   -0.88 7 92.5  72 
 BAR2 SZ I        1049 11.79        43.5 0.23                          92.5  72 
 RUS  HZ EP       1049  2.13                              92    0.5910  110 116 
 RUS  HN ES   1   1049 15.08                              92   -0.33 7  110 116 
 RUS  HZ I        1049 17.06        12.1 0.23                           110 116 
 NOR  SZ EP   1   1049  4.62                              92    0.50 7  130 229 
 NOR  SN ES   1   1049 19.14                              92   -0.88 7  130 229 
 PAM  SE ES   1   1049 33.56                              56   -0.10 7  180  52 
                                                                                
