 2017 1116 1014 20.1 L   6.799 -73.190143.1  RSN  4 0.3 1.2LRSN                1
 GAP=241        0.91       9.2     6.8  8.7  0.4162E+02  0.6731E+01 -0.1248E+02E
 Epicentro: ZAPATOCA - SANTANDER                                               3
 ACTION:UPD 17-12-12 19:56 OP:rebc STATUS:               ID:20171116101420 L   I
 OLDACT:DUP 17-11-16 21:30 OP:lv   STATUS:               ID:20171116100741d    3
 2017-11-16-1008-00M.COL___447                                                 6
 STAT SP IPHASW D HRMM SECON CODA AMPLIT PERI AZIMU VELO AIN AR TRES W  DIS CAZ7
 BAR2 EZ EP       1014 39.08                             170   -0.3710 22.9 178 
 BAR2 EZ ES       1014 54.81                             170    0.3010 22.9 178 
 BAR2 EZ I        1014 55.67         5.2 0.30            172           22.9 178 
 RUS  HZ EP       1014 44.22                             143    0.5510  101 173 
 RUS  HN ES       1015  1.55                             143   -0.4610  101 173 
 RUS  HZ I        1015  3.56         2.3 0.20            146            101 173 
 PTB  HZ EP       1014 46.40                             132   -0.06 9  143 258 
 PTB  HN ES       1015  7.18                             132    0.19 9  143 258 
 PTB  HZ I        1015  9.30         1.6 0.12            132            143 258 
 ZAR  HN ES       1015 16.57                             122   -0.20 9  200 293 
 ZAR  HZ I        1015 22.21         2.1 0.15            123            200 293 
                                                                                
