 2013  816 1416 42.4 L   6.799 -73.146142.4  RSN 12 0.4 2.5LRSN                1
 GAP=137        0.96       2.8     4.1  6.1 -0.8264E+00  0.3626E+01  0.1252E+01E
 Epicentro: LOS SANTOS - SANTANDER                                             3
 2013-08-16-1409-59M.COL___270                                                 6
 ACTION:UPD 14-01-14 09:03 OP:ep   STATUS:               ID:20130816141642 L   I
 OLDACT:UP  13-08-16 18:50 OP:mh   STATUS:               ID:20130816140959     3
 OLDACT:REG 13-08-16 15:16 OP:mh   STATUS:               ID:20130816140959     3
 STAT SP IPHASW D HRMM SECON CODA AMPLIT PERI AZIMU VELO AIN AR TRES W  DIS CAZ7
 BAR2 SZ EP       1417  1.82                             170    0.1510 23.2 190 
 BAR2 SZ ES   1   1417 16.22                             170   -0.44 7 23.2 190 
 BAR2 SZ I        1417 17.89        47.9 0.18            170           23.2 190 
 BRR  HZ EP       1417  3.67                             152    0.4410 71.2 299 
 BRR  HN ES       1417 20.25                             152    0.8010 71.2 299 
 BRR  HN I        1417 24.71       107.2 0.16            151           71.2 299 
 BRR  SZ I        1417 25.19        35.8 0.12                          71.2 299 
 PAM  SZ IP     C 1417  4.85                             150    0.5310 77.6  40 
 PAM  SN ES   1   1417 21.49                             150    0.12 7 77.6  40 
 PAM  SZ I        1417 23.49        78.9 0.44            152           77.6  40 
 RUS  HZ EP   1   1417  5.84                             143   -0.02 7  100 176 
 RUS  HN ES   1   1417 23.64                             143   -0.48 7  100 176 
 RUS  SZ I        1417 25.42        25.7 0.26            144            100 176 
 RUS  HN I        1417 25.75        45.1 0.42                           100 176 
 PTB  HZ EP   1   1417  8.92                             131   -0.21 7  148 259 
 PTB  HN ES       1417 29.39                             131   -0.56 9  148 259 
 PTB  HN I        1417 32.30        71.3 0.24            131            148 259 
 PTB  SZ I        1417 32.65        30.6 0.22                           148 259 
 OCA  HZ EP   1   1417 10.05                             129   -0.46 7  160 353 
 OCA  HN ES       1417 31.72                             129   -0.68 9  160 353 
 OCA  SZ I        1417 36.22        46.0 0.46            130            160 353 
 ZAR  HZ EP   1   1417 15.07                             122    0.40 6  204 292 
 ZAR  HN ES       1417 39.88                             122    0.07 9  204 292 
 ZAR  HN I        1417 41.00        59.5 0.12            122            204 292 
 ZAR  SZ I        1417 45.81        35.8 0.30                           204 292 
 NOR  HZ EP   1   1417 18.46                             118    0.49 6  235 234 
 NOR  HN ES       1417 45.81                             118    0.14 8  235 234 
 NOR  SZ I        1417 50.95        16.3 0.34            118            235 234 
 NOR  HN I        1417 51.07        44.9 0.14                           235 234 
 SML  HZ EP   1   1417 18.33                             117   -0.57 6  244 335 
 SML  HN ES       1417 47.10                             117   -0.23 8  244 335 
 SML  SZ I        1417 53.34        40.4 0.10            118            244 335 
 CHI  HZ EP   1   1417 19.74                             116   -0.20 6  248 195 
 CHI  HN ES       1417 48.96                             116   -0.23 8  248 195 
 CHI  HN I        1417 55.27        22.1 0.58            117            248 195 
 GUY2CHZ EP   4   1417 27.61                             112    1.73 0  301 235 
 GUY2CHE ES   4   1418  3.22                             112    3.46 0  301 235 
 GUY2CSZ I        1418  6.99         8.8 0.40                           301 235 
 PRA  HZ EP   1   1417 35.77                             106   -0.06 4  392 210 
 PRA  HN ES   4   1418 17.01                             106   -0.46 0  392 210 
 PRA  SZ I        1418 22.75         9.4 1.58            107            392 210 
                                                                                
