 2010  816 1237 39.5 L   6.798 -73.049147.9  RSN 13 0.4 2.5LRSN                1
 GAP=170        1.04       4.4     6.7  7.7 -0.1301E+02 -0.1096E+01  0.1098E+02E
 Epicentro: LOS SANTOS - SANTANDER                                             3
 ACTION:UP  10-09-07 10:55 OP:vdl  STATUS:               ID:20100816123739 L   I
 2010-08-16-1235-12S.COL___110                                                 6
 STAT SP IPHASW D HRMM SECON CODA AMPLIT PERI AZIMU VELO SNR AR TRES W  DIS CAZ7
 BAR2 SZ IP       1237 59.41                             169     0.010   27 213 
 BAR2 SZ ES   2   1238 14.47                             169    -0.5 5   27 213 
 BAR2 SZ I        1238 16.25        79.7 0.68                            27 213 
 GIR2 SZ EP       1237 59.54                             166     0.110   35 333 
 BRR  HZ IP     C 1238  1.29                             150    -0.110   81 295 
 BRR  HE ES       1238 18.76                             150     0.210   81 295 
 BRR  HZ I        1238 21.05        87.9 0.16                            81 295 
 RUS  HZ EP       1238  3.24                             144    -0.110  100 182 
 RUS  HZ I        1238  4.47        19.6 0.14                           100 182 
 RUS  HN ES   2   1238 22.39                             144     0.3 5  100 182 
 GUE  SZ EP       1238  5.32                             140     1.110  115   7 
 GUE  SZ I        1238  7.85        15.9 0.14                           115   7 
 GRA  SZ IP       1238  4.22                             138    -0.510  123  13 
 GRA  SZ ES       1238 24.23                             138    -0.110  123  13 
 GRA  SZ I        1238 25.52        46.0 0.31                           123  13 
 OCA  SZ EP       1238  7.74                             130    -0.4 9  162 349 
 OCA  SZ ES   2   1238 29.79                             130    -0.7 5  162 349 
 OCA  SZ I        1238 34.95        51.5 0.25                           162 349 
 CHI  HZ EP   1   1238 17.41                             117    -0.2 6  251 198 
 CHI  HN ES   2   1238 47.18                             117    -0.1 4  251 198 
 CHI  HZ I        1238 56.33        17.0 0.51                           251 198 
 ROSC BZ EP   2   1238 18.72                             116     0.4 4  258 213 
 ROSC BZ I        1238 55.47        26.4 0.32                           258 213 
 HEL  HZ EP   1   1238 21.39                             114     0.5 6  282 256 
 HEL  HN ES   1   1238 53.16                             114    -0.1 6  282 256 
 HEL  HZ I        1238 58.10        14.0 0.20                           282 256 
 GUY  SZ EP   2   1238 25.04                             112     0.9 4  310 236 
 RREF HZ EP       1238 26.56                             111     0.0 7  330 231 
 RREF HE ES   1   1239  2.76                             111    -0.6 5  330 231 
 RREF HZ I        1239 11.98        29.4 0.36                           330 231 
 PRA  HZ EP   1   1238 32.98                             107    -0.7 4  397 211 
 PRA  HN ES   1   1239 16.22                             107     0.3 4  397 211 
 PRA  HZ I        1239 18.37        16.7 0.79                           397 211 
                                                                                
