 2011  216 1159 18.3 L   6.756 -73.221136.0  RSN  6 0.4 1.4LRSN                1
 GAP=151        0.55       5.3    21.6 10.3 -0.4690E+02  0.7667E+02 -0.3267E+00E
 Epicentro: VILLANUEVA - SANTANDER                                             3
 ACTION:UP  11-03-28 15:08 OP:jfem STATUS:               ID:20110216115918 L   I
 2011-02-16-1157-33S.COL___136                                                 6
 STAT SP IPHASW D HRMM SECON CODA AMPLIT PERI AZIMU VELO SNR AR TRES W  DIS CAZ7
 BAR2 SZ EP   2   1159 36.50                             172    -0.1 5   19 167 
 BAR2 SZ ES   3   1159 49.94                             172    -1.0 2   19 167 
 BAR2 SZ I        1159 52.69         7.8 0.17                            19 167 
 BTL  SZ EP       1159 36.84                             172     0.210   19 344 
 BTL  SZ ES   3   1159 51.11                             172     0.1 2   19 344 
 GIR2 SZ ES   3   1159 51.06                             165    -0.4 2   36   5 
 RUS  HZ EP   2   1159 40.39                             143    -0.4 5   97 171 
 RUS  HN ES   2   1159 58.83                             143     0.5 5   97 171 
 RUS  HZ I        12 0  0.16         3.6 0.22                            97 171 
 GRA  SZ EP   3   1159 43.56                             133     0.2 2  133  20 
 GRA  SZ I        1159 44.59         3.4 0.43                           133  20 
 GRA  SZ ES   2   12 0  2.70                             133    -0.1 5  133  20 
 CHI  HZ EP   2   1159 54.28                             116    -0.4 4  242 194 
 CHI  HZ I        12 0 34.80         1.3 0.65                           242 194 
                                                                                
