 2011  916 1627 14.2 L   6.790 -73.118142.6  RSN 15 0.5 2.6LRSN                1
 GAP=117        0.75       3.0     3.8  4.7 -0.1224E+01  0.3488E+01  0.4094E+01E
 Epicentro: LOS SANTOS - SANTANDER                                             3
 ACTION:UPD 12-07-13 15:57 OP:ep   STATUS:               ID:20110916162714 L   I
 2011-09-16-1627-08S.COL___171                                                 6
 STAT SP IPHASW D HRMM SECON CODA AMPLIT PERI AZIMU VELO AIN AR TRES W  DIS CAZ7
 BAR2 SZ IP       1627 33.44                             171    0.0310 23.0 198 
 BAR2 SZ ES   1   1627 47.91                             171   -0.50 7 23.0 198 
 BAR2 SZ I        1627 49.73        98.1 0.28                          23.0 198 
 BRR  HZ IP     D 1627 35.33                             151    0.1710 74.4 298 
 BRR  HN ES   1   1627 51.98                             151    0.45 7 74.4 298 
 BRR  HZ I        1627 52.98        64.7 0.14                          74.4 298 
 PAM  SZ IP       1627 36.37                             150    0.3810 76.4  37 
 PAM  SE ES   1   1627 53.01                             150    0.01 7 76.4  37 
 RUS  HZ EP       1627 37.39                             143   -0.1210 99.3 178 
 RUS  HN ES   1   1627 55.46                             143   -0.26 7 99.3 178 
 OCA  SZ EP       1627 42.04                             128   -0.34 9  162 352 
 OCA  SZ I        1628  7.13        53.7 0.23                           162 352 
 YOP  SZ EP       1627 44.13                             126    0.38 9  177 154 
 ZAR  HZ EP   2   1627 46.27                             121   -0.47 4  207 292 
 ZAR  HN ES   2   1628 11.40                             121   -0.75 4  207 292 
 ZAR  HZ I        1628 17.22        47.4 0.62                           207 292 
 NOR  SZ EP       1627 49.81                             117   -0.10 8  236 235 
 NOR  SN ES   1   1628 17.25                             117   -0.54 6  236 235 
 CHI  HZ EP       1627 51.76                             116    0.10 8  248 196 
 CHI  HN ES   1   1628 21.24                             116    0.34 6  248 196 
 CHI  HZ I        1628 27.96        14.0 0.62                           248 196 
 HEL  HZ EP   2   1627 54.54                             114    0.03 4  275 256 
 HEL  HN ES   2   1628 25.59                             114   -0.40 4  275 256 
 HEL  HZ I        1628 32.57        20.3 0.30                           275 256 
 VIL  SZ EP       1627 56.70                             111   -0.69 7  303 192 
 VIL  SZ I        1628 35.42        13.3 0.48                           303 192 
 GUY  SZ EP   3   1627 58.41                             111    0.31 2  305 236 
 GUY  SE ES   2   1628 33.29                             111    0.92 4  305 236 
 GUY  SZ I        1628 38.97        19.0 0.18                           305 236 
 RREF HN ES   3   1628 39.33                             110    2.96 2  323 230 
 RREF HZ I        1628 47.45        19.4 0.34                           323 230 
 TOL  SZ EP       1628  2.99                             108    0.54 7  345 225 
 PRA  HZ EP       1628  7.47                             106   -0.17 6  393 210 
                                                                                
