 2017 1116 1612 19.2 L   6.422 -73.620 89.7  RSN  5 0.4 1.4LRSN                1
 GAP=118        1.09       5.0     4.0  9.9  0.4745E+01  0.1972E+02  0.4238E+01E
 Epicentro: SANTA HELENA DEL OPON - SANTANDER                                  3
 ACTION:UPD 17-12-12 19:56 OP:rebc STATUS:               ID:20171116161219 L   I
 OLDACT:REG 17-11-16 21:03 OP:lv   STATUS:               ID:20171116160745     3
 2017-11-16-1608-00M.COL___471                                                 6
 STAT SP IPHASW D HRMM SECON CODA AMPLIT PERI AZIMU VELO AIN AR TRES W  DIS CAZ7
 BAR2 EZ IP     D 1612 32.71                             148   -0.9110 52.0  69 
 BAR2 EZ ES       1612 44.85                             148    0.0110 52.0  69 
 BAR2 EZ I        1612 46.68        23.7 0.40            154           52.0  69 
 RUS  HZ EP       1612 36.59                             134    0.1510 83.5 135 
 RUS  HN ES       1612 50.32                             134    0.4710 83.5 135 
 RUS  HZ I        1612 52.47         6.2 0.32            138           83.5 135 
 PTB  HZ EP   4   1612 35.76                             130   -0.94 0 93.4 278 
 PTB  HN ES       1612 50.39                             130    0.0710 93.4 278 
 PTB  HZ I        1612 51.92         3.5 0.16            132           93.4 278 
 NOR  HZ EP       1612 44.92                             113    0.30 9  168 236 
 NOR  HN ES       1613  3.86                             113   -0.56 9  168 236 
 NOR  HZ I        1613 10.62         2.2 0.30            115            168 236 
 ZAR  HZ EP       1612 46.35                             112    0.29 9  181 311 
 ZAR  HE ES       1613  7.23                             112    0.25 9  181 311 
 ZAR  HZ I        1613 10.70         3.8 0.28            114            181 311 
                                                                                
