 2012  716 1139  3.4 L   6.478 -74.003  2.7  RSN  4 0.2 1.2LRSN                1
 GAP=155        0.50       2.5     1.8  5.0  0.6592E+00 -0.2486E+01 -0.3602E+01E
 Epicentro: PUERTO PARRA - SANTANDER                                           3
 ACTION:UPD 12-08-14 11:45 OP:ep   STATUS:               ID:20120716113903 L   I
 2012-07-16-1137-44M.COL___199                                                 6
 STAT SP IPHASW D HRMM SECON CODA AMPLIT PERI AZIMU VELO AIN AR TRES W  DIS CAZ7
 PTB  HZ EP   1   1139 11.66                              47    -0.2 7   51 278 
 PTB  HN ES   2   1139 18.61                              47     0.2 5   51 278 
 PTB  HZ I        1139 18.88        53.3 0.09             47             51 278 
 BRR  HZ EP   1   1139 15.60                              47    -0.2 7   77  25 
 BRR  HN ES   1   1139 25.63                              47     0.2 7   77  25 
 BRR  HZ I        1139 26.94        11.7 0.18             47             77  25 
 BAR2 SZ EP   1   1139 18.51                              47     0.2 7   92  82 
 BAR2 SZ ES   1   1139 29.64                              47    -0.3 7   92  82 
 BAR2 SZ I        1139 30.55         4.0 0.13             47             92  82 
 RUS  HZ EP   1   1139 23.11                              47     0.2 7  121 122 
 RUS  HN ES   2   1139 38.20                              47     0.0 5  121 122 
 RUS  HZ I        1139 39.25         2.6 0.17             47            121 122 
