 2011 1116 1606 29.9 L   6.768 -73.145143.7  RSN  8 0.4 2.2LRSN                1
 GAP=138        0.71       3.8     4.4  5.8 -0.2737E+00  0.1034E+02  0.4319E+01E
 Epicentro: LOS SANTOS - SANTANDER                                             3
 ACTION:UPD 12-07-13 16:10 OP:ep   STATUS:               ID:20111116160629 L   I
 2011-11-16-1605-37S.COL___179                                                 6
 STAT SP IPHASW D HRMM SECON CODA AMPLIT PERI AZIMU VELO AIN AR TRES W  DIS CAZ7
 BAR2 SZ EP       16 6 49.27                             172    0.0810 19.9 192 
 BAR2 SZ ES   1   16 7  3.63                             172   -0.63 7 19.9 192 
 BAR2 SZ I        16 7  5.69        57.4 0.25                          19.9 192 
 BRR  HZ EP   1   16 6 51.12                             151    0.21 7 73.1 301 
 BRR  HN ES   1   16 7  7.93                             151    0.62 7 73.1 301 
 BRR  HZ I        16 7 10.72        29.6 0.15                          73.1 301 
 PAM  SZ EP   1   16 6 51.99                             150   -0.05 7 80.1  38 
 PAM  SZ I        16 6 52.42        13.4 0.18                          80.1  38 
 PAM  SN ES   1   16 7  9.17                             150   -0.15 7 80.1  38 
 RUS  HZ EP   1   16 6 53.21                             144    0.04 7 97.0 176 
 RUS  HN ES   1   16 7 11.57                             144    0.23 7 97.0 176 
 RUS  HZ I        16 7 13.23        10.7 0.29                          97.0 176 
 ZAR  HZ EP   1   16 7  2.75                             122    0.41 6  206 293 
 ZAR  HN ES   1   16 7 27.34                             122   -0.32 6  206 293 
 ZAR  HZ I        16 7 33.26        15.1 0.31                           206 293 
 NOR  SZ EP   1   16 7  5.33                             118    0.05 6  233 235 
 NOR  SN ES   1   16 7 32.76                             118   -0.13 6  233 235 
 HEL  HZ EP   1   16 7  8.90                             114   -1.01 6  271 257 
 PRA  HZ EP   1   16 7 23.10                             106    0.12 4  389 210 
 PRA  HN ES   1   16 8  4.73                             106    0.34 4  389 210 
 PRA  HZ I        16 8 11.35        23.5 0.21                           389 210 
                                                                                
