 2012  516 1207 50.8 L   6.778 -73.144141.9  RSN  8 0.4 2.2LRSN                1
 GAP=138        1.03       6.4     8.3  8.7 -0.5656E+01  0.1521E+02  0.1412E+02E
 Epicentro: LOS SANTOS - SANTANDER                                             3
 ACTION:UP  12-07-05 12:05 OP:pat  STATUS:               ID:20120516120750 L   I
 2012-05-16-1200-00M.COL___195                                                 6
 STAT SP IPHASW D HRMM SECON CODA AMPLIT PERI AZIMU VELO SNR AR TRES W  DIS CAZ7
 BAR2 SZ EP       12 8  9.75                             171    -0.110   21 192 
 BAR2 SZ ES   1   12 8 24.52                             171    -0.3 7   21 192 
 BAR2 SZ I        12 8 25.84        44.6 0.28                            21 192 
 BRR  HZ EP       12 8 11.58                             151     0.010   73 300 
 BRR  HN ES   1   12 8 28.60                             151     0.8 7   73 300 
 BRR  HZ I        12 8 32.57        34.7 0.52                            73 300 
 PAM  SZ EP       12 8 12.64                             150    -0.110   79  38 
 PAM  SE ES   1   12 8 29.67                             150    -0.1 7   79  38 
 RUS  HZ EP   2   12 8 14.10                             144     0.1 5   98 176 
 RUS  HN ES   2   12 8 32.01                             144    -0.1 5   98 176 
 RUS  HZ I        12 8 33.22        13.0 0.20                            98 176 
 PTB  HZ EP       12 8 16.67                             131    -0.7 9  147 260 
 OCA  HZ EP   3   12 8 19.37                             128     0.3 2  163 353 
 OCA  HN ES   2   12 8 41.40                             128     0.4 5  163 353 
 OCA  HZ I        12 8 46.60        43.4 0.42                           163 353 
 ZAR  HZ EP   3   12 8 23.07                             121     0.0 2  205 293 
 ZAR  HZ I        12 8 53.79        14.9 0.54                           205 293 
 CHI  HZ EP       12 8 28.84                             117     0.8 8  246 195 
                                                                                
