 2014  916 1058  9.0 L   6.800 -73.088152.7  RSN  7 0.3 1.4LRSN                1
 GAP=206        0.71       3.5     5.0  5.8  0.4633E+01 -0.2527E+01 -0.5585E+01E
 Epicentro: LOS SANTOS - SANTANDER                                             3
 ACTION:UPD 14-10-03 23:05 OP:nd   STATUS:               ID:20140916105809 L   I
 OLDACT:DUP 14-09-16 23:31 OP:spq  STATUS:               ID:20140916104819d    3
 OLDACT:REG 14-09-16 21:36 OP:spq  STATUS:               ID:20140916104818     3
 2014-09-16-1048-18M.COL___263                                                 6
 STAT SP IPHASW D HRMM SECON CODA AMPLIT PERI AZIMU VELO AIN AR TRES W  DIS CAZ7
 BAR2 SZ EP   1   1058 29.42                             170   -0.04 7 25.3 204 
 BAR2 SZ ES   1   1058 45.27                             170   -0.18 7 25.3 204 
 BAR2 SZ I        1058 46.75         5.5 0.18            167           25.3 204 
 BRR  HZ EP       1058 31.40                             152    0.2210 76.9 296 
 BRR  HN ES       1058 48.73                             152    0.2210 76.9 296 
 BRR  HZ I        1058 53.06         6.1 0.38            148           76.9 296 
 RUS  HZ EP       1058 33.63                             145    0.2510  100 180 
 RUS  HE ES   1   1058 52.09                             145   -0.34 7  100 180 
 RUS  HZ I        1058 54.18         1.5 0.28            148            100 180 
 PTB  HZ EP       1058 36.57                             132   -0.49 9  154 259 
 PTB  HE ES   1   1058 58.40                             132   -0.58 7  154 259 
 PTB  HZ I        1059  4.78         3.6 0.34            131            154 259 
 SPBC HN ES       1059  1.65                             130    0.32 9  167 221 
 SPBC HZ I        1059  3.36         4.1 0.18            130            167 221 
 ZAR  HE ES   1   1059  9.01                             123    0.40 6  210 291 
 ZAR  HZ I        1059 15.70         2.1 0.08            123            210 291 
 SML  HZ EP       1058 46.25                             119   -0.02 8  246 334 
 SML  HN ES   1   1059 15.15                             119   -0.23 6  246 334 
 SML  HZ I        1059 19.10         3.3 0.04            119            246 334 
                                                                                
