 2011  116 1944 20.1 L   6.865 -73.112139.5  RSN  5 0.5 1.8LRSN                1
 GAP=249        0.85       9.4    17.4 10.7  0.3348E+02  0.8676E+02  0.3132E+02E
 Epicentro: LOS SANTOS - SANTANDER                                             3
 ACTION:UP  11-02-08 08:41 OP:pat  STATUS:               ID:20110116194420 L   I
 2011-01-16-1940-00M.COL___137                                                 6
 STAT SP IPHASW D HRMM SECON CODA AMPLIT PERI AZIMU VELO SNR AR TRES W  DIS CAZ7
 BTL  SZ EP   1   1944 38.55                             172    -0.3 7   18 289 
 BTL  SZ ES   2   1944 52.74                             172    -0.8 5   18 289 
 BAR2 SZ EP   1   1944 39.48                             167     0.3 7   31 195 
 BAR2 SZ ES   2   1944 54.71                             167     0.7 5   31 195 
 BAR2 SZ I        1944 56.67        15.8 0.65                            31 195 
 RUS  HZ EP   1   1944 43.62                             141    -0.1 7  108 178 
 RUS  HN ES   2   1945  2.70                             141     0.5 5  108 178 
 RUS  HZ I        1945  4.09        10.9 0.28                           108 178 
 CHI  HZ EP   1   1944 58.10                             115    -0.2 6  257 196 
 CHI  HN ES   2   1945 27.31                             115    -0.8 4  257 196 
 CHI  HZ I        1945 34.02         3.4 0.66                           257 196 
 HEL  HZ EP   1   1945  1.00                             113     0.4 6  278 255 
 HEL  HZ I        1945 38.14         4.8 0.21                           278 255 
                                                                                
