 2017  616 1818 14.2 L   6.770 -73.153150.5  RSN  4 0.4 1.8LRSN                1
 GAP=294        0.71       6.5     7.2  7.8 -0.1635E+02 -0.1954E+02  0.1782E+02E
 Epicentro: LOS SANTOS - SANTANDER                                             3
 ACTION:UPD 17-09-14 16:52 OP:jn   STATUS:               ID:20170616181814 L   I
 OLDACT:REG 17-06-16 22:16 OP:dln  STATUS:               ID:20170616181735     3
 2017-06-16-1818-00M.COL___358                                                 6
 STAT SP IPHASW D HRMM SECON CODA AMPLIT PERI AZIMU VELO AIN AR TRES W  DIS CAZ7
 BRR  HZ IP     C 1818 35.66                             153   -0.2810 72.1 301 
 BRR  HN ES       1818 53.07                             153    0.2010 72.1 301 
 BRR  HZ I        1818 58.90        11.2 0.38            151           72.1 301 
 PTB  HZ EP   9   1818 40.83                             133   -0.63 0  146 260 
 PTB  HN ES       1819  1.76                                   -0.31 9  146 260 
 PTB  HZ I        1819  9.05         6.1 0.40            135            146 260 
 ZAR  HZ EP   2   1818 48.02                             123    0.99 4  205 293 
 ZAR  HE ES       1819 12.41                             123   -0.22 9  205 293 
 ZAR  HZ I        1819 18.84         7.3 0.32            126            205 293 
 NOR  HZ EP   2   1818 49.51                             120   -0.45 4  232 235 
 NOR  HE ES       1819 18.04                             120    0.20 8  232 235 
 NOR  HZ I        1819 21.55         3.9 0.32            123            232 235 
                                                                                
