 2016  216 1736 50.7 L   6.818 -73.133148.9  RSN 16 0.5 2.3LRSN                1
 GAP=137        1.17       3.2     3.8  5.8 -0.1347E+01  0.8404E+01  0.9029E+00E
 Epicentro: LOS SANTOS - SANTANDER                                             3
 ACTION:UPD 16-03-04 21:26 OP:rebc STATUS:               ID:20160216173650 L   I
 OLDACT:REG 16-02-16 21:58 OP:ak   STATUS:               ID:20160216172748     3
 2016-02-16-1727-48M.COL___325                                                 6
 STAT SP IPHASW D HRMM SECON CODA AMPLIT PERI AZIMU VELO AIN AR TRES W  DIS CAZ7
 BAR2 EZ EP       1737 11.04                             170    0.2610 25.5 192 
 BAR2 EZ ES       1737 25.76                             170   -0.6710 25.5 192 
 BAR2 EZ I        1737 27.72        23.1 0.16            167           25.5 192 
 BRR  HZ EP       1737 12.61                             153    0.3710 71.6 297 
 BRR  HN ES       1737 29.53                             153    0.5110 71.6 297 
 BRR  HZ I        1737 33.11        32.8 0.36            147           71.6 297 
 PAM  EZ EP       1737 13.65                             152    0.5110 75.0  40 
 PAM  EN ES       1737 30.63                             152    0.0110 75.0  40 
 PAM  EZ I        1737 32.80        31.2 0.58            154           75.0  40 
 RUS  HZ EP       1737 14.44                             144   -0.4810  102 177 
 RUS  HN ES       1737 33.86                             144    0.0610  102 177 
 PTB  HZ EP       1737 17.53                             132   -0.59 9  150 258 
 PTB  HE ES       1737 39.37                             132   -0.11 9  150 258 
 PTB  HZ I        1737 41.74        25.4 0.21            128            150 258 
 OCA  HZ EP       1737 19.61                             131    0.49 9  159 353 
 OCA  HN ES       1737 40.67                             131   -0.60 9  159 353 
 OCA  HZ I        1737 45.00        33.0 0.26            129            159 353 
 OCA  HZ E        1737 48.74                                            159 353 
 SPBC HZ EP       1737 19.78                             129    0.08 9  166 219 
 SPBC HN ES       1737 43.01                             129    0.72 9  166 219 
 SPBC HZ I        1737 50.59        23.4 0.20            127            166 219 
 ZAR  HZ EP       1737 23.44                             123   -0.00 9  205 291 
 ZAR  HN ES       1737 49.10                             123    0.14 9  205 291 
 ZAR  HZ I        1737 54.85        43.4 0.36            120            205 291 
 NOR  HZ EP       1737 27.75                             119    0.86 8  237 234 
 NOR  HN ES       1737 55.57                             119    0.48 8  237 234 
 NOR  HZ I        1738  1.74        13.1 0.20            117            237 234 
 CHI  HZ EP       1737 28.12                             117   -0.73 8  251 195 
 CHI  HN ES       1737 57.89                             117   -0.69 8  251 195 
 HEL  HZ EP   2   1737 30.84                             115   -0.47 4  274 255 
 HEL  HN ES       1738  2.13                             115   -0.83 8  274 255 
 HEL  HZ I        1738 10.90        10.0 0.36            113            274 255 
 URE  HZ EP       1737 31.43                             114   -0.59 7  284 291 
 URE  HN ES       1738  3.84                             114   -0.39 7  284 291 
 URE  HZ I        1738 14.79        12.9 0.24            112            284 291 
 GUY2CHZ EP   4   1737 36.19                             113    1.45 0  303 235 
 GUY2CHN ES       1738  9.28                             113    0.21 7  303 235 
 GUY2CHZ I        1738 17.95         6.1 0.28                           303 235 
 CBOC HZ EP       1737 38.89                             110    0.89 7  336 252 
 CBOC HZ I        1738 12.80         2.2 0.10            108            336 252 
 CBOC HN ES       1738 15.41                             110    0.54 7  336 252 
 DBB  SZ EP       1737 38.13                             110   -0.35 7  341 274 
 DBB  SZ ES       1738 15.38                             110   -0.35 7  341 274 
 DBB  SZ I        1738 31.50        16.8 0.46            108            341 274 
 SJC  HZ EP   4   1737 44.69                             106   -1.60 0  408 327 
 SJC  HN ES   4   1738 26.11                             106   -3.53 0  408 327 
 SJC  HZ I        1738 29.79         2.8 0.51            105            408 327 
                                                                                
