 2012  416 1031 27.7 L   6.762 -73.148133.9  RSN  4 0.1 1.6LRSN                1
 GAP=138        0.32       2.0     3.0  4.0  0.3632E+00  0.2849E-02  0.1592E+01E
 Epicentro: LOS SANTOS - SANTANDER                                             3
 ACTION:UPD 12-07-05 11:53 OP:tino STATUS:               ID:20120416103127 L   I
 2012-04-16-1029-48M.COL___160                                                 6
 STAT SP IPHASW D HRMM SECON CODA AMPLIT PERI AZIMU VELO AIN AR TRES W  DIS CAZ7
 BAR2 SZ EP       1031 45.90                             171     0.010   19 191 
 BAR2 SZ I        1032  2.00         8.2 0.66                            19 191 
 BRR  HZ EP       1031 47.76                             150     0.010   73 302 
 BRR  HZ I        1031 48.23        10.2 0.14                            73 302 
 BRR  HN ES   1   1032  3.28                             150     0.0 7   73 302 
 PAM  SZ EP   1   1031 48.78                             147    -0.2 7   81  38 
 PAM  SE ES   1   1032  5.53                             147     0.1 7   81  38 
 RUS  HZ EP       1031 50.06                             142     0.010   96 176 
 RUS  HE ES   1   1032  7.36                             142    -0.1 7   96 176 
                                                                                
