 2017  516 1202 47.0 L   6.654 -73.235154.4  RSN  4 0.3 1.7LRSN                1
 GAP=283        0.65       5.5     6.8  6.9 -0.1511E+02 -0.8236E+01  0.9152E+01E
 Epicentro: BARICHARA - SANTANDER                                              3
 ACTION:UPD 17-06-16 13:36 OP:jn   STATUS:               ID:20170516120247 L   I
 OLDACT:REG 17-05-16 19:57 OP:lv   STATUS:               ID:20170516115742     3
 2017-05-16-1158-00M.COL___362                                                 6
 STAT SP IPHASW D HRMM SECON CODA AMPLIT PERI AZIMU VELO AIN AR TRES W  DIS CAZ7
 BRR  HZ EP       12 3  9.01                             153   -0.1910 72.7 314 
 BRR  HE ES       12 3 26.47                             153   -0.0210 72.7 314 
 PTB  HZ EP       12 3 13.81                             136    0.13 9  136 265 
 PTB  HN ES       12 3 34.84                             136    0.39 9  136 265 
 ZAR  HZ EP       12 3 20.10                             125    0.27 9  202 297 
 ZAR  HN ES       12 3 45.11                             125   -0.30 9  202 297 
 ZAR  HZ I        12 3 53.62         4.1 0.25            117            202 297 
 NOR  HZ EP   4   12 3 23.04                             122    1.56 0  217 236 
 NOR  HN ES       12 3 48.01                             122   -0.33 8  217 236 
                                                                                
