 2013 1016 1416 33.4 L   6.812 -73.121150.4  RSN  9 0.6 2.3LRSN                1
 GAP=139        1.20       4.9     5.5  7.4 -0.5269E+00  0.1093E+02  0.1242E+01E
 Epicentro: LOS SANTOS - SANTANDER                                             3
 ACTION:UPD 13-11-25 09:22 OP:ep   STATUS:               ID:20131016141633 L   I
 OLDACT:REG 13-10-16 14:56 OP:cam  STATUS:               ID:20131016140959     3
 2013-10-16-1409-59M.COL___274                                                 6
 STAT SP IPHASW D HRMM SECON CODA AMPLIT PERI AZIMU VELO AIN AR TRES W  DIS CAZ7
 BAR2 SZ EP       1416 53.61                             170    0.0210 25.3 196 
 BAR2 SZ ES       1417  8.83                             170   -0.5410 25.3 196 
 BAR2 SZ I        1417 10.29        57.1 0.52            169           25.3 196 
 BRR  HZ EP       1416 55.41                             153    0.2910 73.0 297 
 BRR  HN ES       1417 12.75                             153    0.6610 73.0 297 
 PAM  SZ EP       1416 56.29                             152    0.3710 74.6  39 
 PAM  SN ES       1417 13.55                             152    0.0410 74.6  39 
 PAM  SZ I        1417 14.11        21.3 0.22            155           74.6  39 
 RUS  HZ EP       1416 57.57                             144   -0.0910  102 178 
 RUS  HN ES   1   1417 15.98                             144   -0.63 7  102 178 
 RUS  HZ I        1417 17.58         9.8 0.34            146            102 178 
 PTB  HZ EP       1417  0.27                             132   -0.71 9  151 259 
 PTB  HN ES   1   1417 21.72                             132   -0.80 7  151 259 
 PTB  HZ I        1417 24.85        28.1 0.56            131            151 259 
 SPBC HZ EP       1417  2.78                             130    0.30 9  166 219 
 SPBC HN ES   1   1417 26.70                             130    1.50 7  166 219 
 SPBC HZ I        1417 31.06        24.1 0.36            129            166 219 
 ZAR  HZ EP   1   1417  5.75                             123   -0.58 6  206 292 
 ZAR  HE ES       1417 32.12                             123    0.08 8  206 292 
 ZAR  HZ I        1417 38.54        20.2 0.30            122            206 292 
 NOR  HZ EP   1   1417  9.65                             119   -0.04 6  238 235 
 NOR  HN ES   2   1417 38.08                             119    0.06 4  238 235 
 NOR  HZ I        1417 41.08        14.1 0.30            119            238 235 
 SML  HZ EP   1   1417 10.62                             118    0.37 6  244 335 
 SML  HN ES   1   1417 38.22                             118   -0.80 6  244 335 
 SML  HZ I        1417 45.77        22.6 0.10            118            244 335 
                                                                                
