 2010  316 1850 20.5 L   6.775 -73.076148.0  RSN  6 0.3 1.9LRSN                1
 GAP=167        0.62       3.4     8.2  8.1 -0.7543E+01 -0.2708E+02  0.5697E+01E
 Epicentro: LOS SANTOS - SANTANDER                                             3
 ACTION:UP  10-08-24 09:54 OP:vdl  STATUS:               ID:20100316185020 L   I
 2010-03-16-1845-49S.COL___096                                                 6
 STAT SP IPHASW D HRMM SECON CODA AMPLIT PERI AZIMU VELO SNR AR TRES W  DIS CAZ7
 BRR  HZ IP       1850 42.31                             150    -0.110   79 298 
 BRR  HZ I        1850 42.64        35.4 0.10                            79 298 
 BRR  HE ES   1   1850 59.54                             150     0.1 7   79 298 
 RUS  HZ EP   1   1850 44.35                             145     0.1 7   98 180 
 RUS  HN ES   2   1851  2.69                             145    -0.1 5   98 180 
 RUS  HZ I        1851  3.80         8.5 0.43                            98 180 
 GRA  SZ IP       1850 46.37                             137     0.310  126  14 
 OCA  SZ EP   1   1850 49.18                             129    -0.2 7  164 351 
 OCA  SZ I        1850 50.89        20.2 0.08                           164 351 
 OCA  SZ ES   2   1851 11.26                             129    -0.6 5  164 351 
 CHI  HZ EP   2   1850 57.72                             118    -0.6 4  248 197 
 CHI  HE ES   2   1851 27.36                             118    -0.4 4  248 197 
 CHI  HZ I        1851 30.18         1.7 0.42                           248 197 
 PRA  HZ EP   2   1851 14.18                             107    -0.1 3  393 211 
 PRA  HN ES   1   1851 56.84                             107     0.6 4  393 211 
 PRA  HZ I        1852  0.24         2.2 0.31                           393 211 
                                                                                
