 2017  316 1416 50.0 L   6.371 -73.529116.0  RSN  7 0.5 1.7LRSN                1
 GAP= 80        1.05       4.0     5.0  8.2 -0.5480E+01  0.1831E+02  0.3943E+01E
 Epicentro: SANTA HELENA DEL OPON - SANTANDER                                  3
 ACTION:UPD 17-05-25 18:41 OP:jn   STATUS:               ID:20170316141650 L   I
 OLDACT:UP  17-03-17 00:44 OP:dnl  STATUS:               ID:20170316140742     3
 OLDACT:REG 17-03-16 21:56 OP:dnl  STATUS:               ID:20170316140742     3
 2017-03-16-1408-00M.COL___409                                                 6
 STAT SP IPHASW D HRMM SECON CODA AMPLIT PERI AZIMU VELO AIN AR TRES W  DIS CAZ7
 BAR2 EZ IP     D 1417  7.02                             157    0.1210 45.5  57 
 BAR2 EZ ES       1417 20.21                             157    0.1510 45.5  57 
 BAR2 EZ I        1417 21.37        31.2 0.24            156           45.5  57 
 RUS  HZ IP     D 1417  8.49                             146   -0.3310 72.4 137 
 RUS  HN ES       1417 23.30                             146   -0.1910 72.4 137 
 RUS  HZ I        1417 26.38         5.9 0.22            145           72.4 137 
 BRR  HZ EP       1417  8.82                             142   -0.1410 83.9 346 
 BRR  HE ES       1417 24.06                             142    0.3310 83.9 346 
 BRR  HZ I        1417 26.02        16.9 0.30            143           83.9 346 
 PTB  HZ IP     C 1417  9.58                             135   -1.0610  104 280 
 PTB  HN ES   4   1417 24.89                             135   -1.83 0  104 280 
 PTB  HZ I        1417 26.41        20.7 0.12            137            104 280 
 PAM  EZ EP       1417 14.86                             126    0.17 9  141  41 
 PAM  EN ES       1417 34.15                             126    0.21 9  141  41 
 PAM  EZ I        1417 38.51         5.7 0.16            126            141  41 
 GUY2CHZ EP   2   1417 26.15                             111    0.84 4  240 238 
 GUY2CHN ES       1417 53.34                             111    0.50 8  240 238 
 GUY2CHZ  IAML    1418  0.36         3.0 0.28                           240 238 
 PRA  HZ EP   2   1417 35.63                             104    0.32 3  330 207 
 PRA  HN ES       1418 11.23                             104    0.60 7  330 207 
 PRA  HZ I        1418 14.50         2.2 0.52            104            330 207 
                                                                                
