 2013  616 1511 59.1 L   6.725 -73.165152.0  RSN  7 0.4 1.8LRSN                1
 GAP=179        0.85       4.6     5.3  6.9  0.9840E+01  0.2025E+01 -0.9056E+01E
 Epicentro: VILLANUEVA - SANTANDER                                             3
 ACTION:UPD 14-01-08 09:55 OP:ep   STATUS:               ID:20130616151159 L   I
 OLDACT:REG 13-06-16 17:51 OP:cam  STATUS:               ID:20130616150959     3
 2013-06-16-1509-59M.COL___261                                                 6
 STAT SP IPHASW D HRMM SECON CODA AMPLIT PERI AZIMU VELO AIN AR TRES W  DIS CAZ7
 BAR2 SZ EP   1   1512 19.41                             174    0.02 7 14.8 187 
 BAR2 SZ ES       1512 35.03                             174   -0.1510 14.8 187 
 BAR2 SZ I        1512 35.59        15.5 0.25            173           14.8 187 
 GIR2 SZ EP       1512 19.62                             165   -0.1710 39.3 355 
 BRR  HZ EP   1   1512 21.63                             153    0.52 7 73.7 305 
 BRR  HN ES       1512 38.79                             153    0.5410 73.7 305 
 BRR  HZ I        1512 39.33        13.3 0.16            151           73.7 305 
 RUS  HZ EP   1   1512 23.21                             147    0.24 7 92.5 174 
 RUS  HN ES       1512 41.45                             147   -0.0910 92.5 174 
 RUS  HZ I        1512 43.11         6.3 0.32            148           92.5 174 
 PTB  HZ EP       1512 26.16                             134   -0.16 9  144 262 
 PTB  HN ES       1512 47.15                             134   -0.36 9  144 262 
 PTB  HZ I        1512 48.11         8.4 0.10            133            144 262 
 ZAR  HN ES       1512 58.14                             124    0.27 8  205 295 
 ZAR  HZ I        1513  4.05         7.8 0.28            123            205 295 
 SML  HZ EP   2   1512 37.74                             118    0.89 4  250 337 
 SML  HN ES       1513  5.55                             118   -0.71 8  250 337 
 SML  HZ I        1513  7.54         5.7 0.10            118            250 337 
                                                                                
