 2013 1116 1319 27.5 L   7.180 -74.022 84.1  RSN  5 0.6 1.8LRSN                1
 GAP=103        1.56       5.8     5.0 12.5 -0.8180E+00  0.6013E+00 -0.1880E+02E
 Epicentro: BARRANCABERMEJA - SANTANDER                                        3
 ACTION:UPD 14-01-09 16:28 OP:ep   STATUS:               ID:20131116131927 L   I
 OLDACT:REG 13-11-16 16:24 OP:stll STATUS:               ID:20131116131820     3
 2013-11-16-1318-20M.COL___226                                                 6
 STAT SP IPHASW D HRMM SECON CODA AMPLIT PERI AZIMU VELO AIN AR TRES W  DIS CAZ7
 BRR  HZ EP       1319 40.68                             155    0.7410 35.2 103 
 BRR  HN ES       1319 49.41                             155   -0.2210 35.2 103 
 BRR  HZ I        1319 50.44        32.3 0.62            156           35.2 103 
 PTB  HZ EP       1319 43.82                             130    0.0410 85.6 214 
 PTB  HN ES       1319 55.98                             130   -0.5010 85.6 214 
 PTB  HZ I        1319 56.39        16.8 0.18            134           85.6 214 
 ZAR  HZ EP       1319 45.50                             126    0.4710 98.6 291 
 ZAR  HE ES       1319 58.74                             126    0.0510 98.6 291 
 ZAR  HZ I        1320  1.40        19.6 0.20            127           98.6 291 
 BAR2 SZ EP       1319 47.24                             122    0.4110  113 125 
 BAR2 SZ ES       1320  1.89                             122   -0.0210  113 125 
 BAR2 SZ I        1320  4.25        12.8 0.60            124            113 125 
 OCA  HZ EP       1319 48.13                             116   -1.52 9  140  33 
 OCA  HN ES       1320  7.38                             116    0.45 9  140  33 
 OCA  HZ I        1320 12.34        10.7 0.36            116            140  33 
                                                                                
