 2011  516 1123 57.7 L   6.786 -73.078138.3  RSN  6 0.2 1.9LRSN                1
 GAP=164        0.51       2.8     5.0  5.4 -0.3120E+01 -0.4718E+01 -0.1998E+01E
 Epicentro: LOS SANTOS - SANTANDER                                             3
 ACTION:UP  11-06-29 08:53 OP:tino STATUS:               ID:20110516112357 L   I
 2011-05-16-1121-39S.COL___139                                                 6
 STAT SP IPHASW D HRMM SECON CODA AMPLIT PERI AZIMU VELO SNR AR TRES W  DIS CAZ7
 BAR2 SZ EP   1   1124 16.45                             169     0.0 7   24 208 
 BAR2 SZ ES   1   1124 31.12                             169     0.0 7   24 208 
 BAR2 SZ I        1124 33.09        32.6 0.32                            24 208 
 BRR  HZ EP   1   1124 18.42                             149    -0.1 7   79 297 
 BRR  HE ES   1   1124 34.97                             149     0.2 7   79 297 
 BRR  HZ I        1124 40.52        17.3 0.10                            79 297 
 RUS  HZ EP   1   1124 20.58                             143     0.0 7   99 180 
 RUS  HN ES   1   1124 38.52                             143     0.0 7   99 180 
 RUS  HZ I        1124 40.02         6.6 0.26                            99 180 
 BRI  SZ EP   1   1124 21.15                             140     0.3 7  107  17 
 GRA  SZ EP   1   1124 22.43                             135     0.2 7  125  14 
 GRA  SZ I        1124 23.95        14.1 0.27                           125  14 
 GRA  SZ ES   1   1124 41.00                             135    -0.4 7  125  14 
 NOR  SE ES   2   1125  1.18                             116    -0.4 4  240 236 
                                                                                
