 2016 1216 1739 10.4 L   6.278 -73.589117.8  RSN  5 0.3 1.8LRSN                1
 GAP=160        0.87       4.4     3.6  6.8  0.1273E+01  0.1800E+01 -0.2370E+01E
 Epicentro: SANTA HELENA DEL OPON - SANTANDER                                  3
 ACTION:UPD 17-01-11 20:15 OP:rebc STATUS:               ID:20161216173910 L   I
 OLDACT:UP  16-12-26 14:29 OP:nlst STATUS:               ID:20161216173910 L   3
 OLDACT:UP  16-12-17 01:22 OP:ar   STATUS:               ID:20161216173743     3
 OLDACT:REG 16-12-16 23:19 OP:ar   STATUS:               ID:20161216173743     3
 2016-12-16-1738-00M.COL___374                                                 6
 STAT SP IPHASW D HRMM SECON CODA AMPLIT PERI AZIMU VELO AIN AR TRES W  DIS CAZ7
 BAR2 EZ EP       1739 28.36                             153    0.2910 56.8  52 
 BAR2 EZ ES       1739 41.53                             153   -0.3210 56.8  52 
 BAR2 EZ I        1739 42.88        34.6 0.44            152           56.8  52 
 RUS  HZ EP       1739 29.71                             147    0.4510 70.3 127 
 RUS  HN ES       1739 43.83                             147   -0.1410 70.3 127 
 RUS  HZ I        1739 45.21         7.6 0.16            148           70.3 127 
 BRR  HZ EP       1739 29.97                             139   -0.2310 92.7 352 
 BRR  HE ES       1739 46.08                             139    0.4410 92.7 352 
 PTB  HZ EP       1739 30.31                             137   -0.5410  100 287 
 PTB  HN ES       1739 46.92                             137    0.1410  100 287 
 PTB  HZ I        1739 47.80        17.2 0.10            138            100 287 
 PAM  EZ EP       1739 36.55                             124    0.13 9  153  40 
 PAM  EN ES       1739 56.47                             124   -0.23 9  153  40 
 PAM  EZ I        1740  0.36         4.8 0.20            124            153  40 
                                                                                
