 2016  816 1452 43.8 L   6.818 -73.207139.4  RSN  5 0.3 1.4LRSN                1
 GAP=147        0.45       2.6     2.5  3.7 -0.2150E+01  0.2739E+01 -0.7529E+00E
 Epicentro: ZAPATOCA - SANTANDER                                               3
 ACTION:UPD 16-10-29 15:36 OP:rebc STATUS:               ID:20160816145243 L   I
 OLDACT:UP  16-08-16 21:54 OP:dnl  STATUS:               ID:20160816144731     3
 OLDACT:UP  16-08-16 21:54 OP:dnl  STATUS:               ID:20160816144731     3
 OLDACT:REG 16-08-16 20:44 OP:dnl  STATUS:               ID:20160816144731     3
 2016-08-16-1448-00M.COL___374                                                 6
 STAT SP IPHASW D HRMM SECON CODA AMPLIT PERI AZIMU VELO AIN AR TRES W  DIS CAZ7
 BAR2 EZ EP       1453  2.73                             169    0.0210 25.2 174 
 BAR2 EZ ES       1453 17.49                             169    0.0410 25.2 174 
 BAR2 EZ I        1453 18.65         9.6 0.30                          25.2 174 
 PAM  EZ EP       1453  5.56                             148    0.0310 80.4  44 
 PAM  EN ES       1453 22.51                             148    0.0310 80.4  44 
 PAM  EZ I        1453 24.58         8.1 0.48                          80.4  44 
 RUS  HZ EP       1453  7.20                             142    0.0610  103 172 
 RUS  HN ES       1453 25.11                             142   -0.2310  103 172 
 RUS  HZ I        1453 26.89         1.8 0.09                           103 172 
 PTB  HZ EP       1453  9.68                             132   -0.01 9  142 257 
 PTB  HN ES       1453 29.77                             132   -0.10 9  142 257 
 PTB  HZ I        1453 31.87         3.2 0.18                           142 257 
 SPBC HZ EP   2   1453 11.88                             128    0.31 5  161 217 
 SPBC HE ES   3   1453 34.77                             128    1.53 2  161 217 
 SPBC HZ I        1453 39.75         4.4 0.22                           161 217 
                                                                                
