 2011  916 1350 35.5 L   6.808 -73.125146.0  RSN  5 0.2 1.8LRSN                1
 GAP=139        0.44       2.8     4.2  5.1 -0.2815E+01 -0.1586E+01  0.7602E+01E
 Epicentro: LOS SANTOS - SANTANDER                                             3
 ACTION:UPD 12-07-13 15:57 OP:ep   STATUS:               ID:20110916135035 L   I
 2011-09-16-1340-00M.COL___169                                                 6
 STAT SP IPHASW D HRMM SECON CODA AMPLIT PERI AZIMU VELO AIN AR TRES W  DIS CAZ7
 BAR2 SZ EP       1350 54.94                             170   -0.2610 24.7 195 
 BAR2 SZ I        1351 12.42        18.8 0.44                          24.7 195 
 BRR  HZ EP       1350 56.74                             152   -0.0410 72.8 297 
 BRR  HE ES   1   1351 13.46                             152    0.09 7 72.8 297 
 BRR  HZ I        1351 15.17        16.9 0.24                          72.8 297 
 PAM  SZ EP       1350 57.90                             151    0.2710 75.2  39 
 PAM  SE ES   1   1351 14.75                             151   -0.13 7 75.2  39 
 RUS  HZ EP       1350 59.27                             144   -0.0710  101 177 
 RUS  HZ I        1351  0.14         8.6 0.14                           101 177 
 RUS  HN ES   2   1351 18.04                             144    0.11 5  101 177 
 CHI  HZ EP       1351 13.45                             117    0.07 8  250 196 
 CHI  HN ES   1   1351 43.08                             117    0.16 6  250 196 
 CHI  HZ I        1351 48.15         3.0 0.74                           250 196 
                                                                                
