 2011  216 1847 35.1 L   6.721 -73.169147.9  RSN  5 0.4 1.5LRSN                1
 GAP=201        0.93       8.3     9.5  9.2 -0.1466E+02  0.2970E+02  0.1504E+02E
 Epicentro: VILLANUEVA - SANTANDER                                             3
 ACTION:UP  11-03-28 15:08 OP:jfem STATUS:               ID:20110216184735 L   I
 2011-02-16-1845-00S.COL___132                                                 6
 STAT SP IPHASW D HRMM SECON CODA AMPLIT PERI AZIMU VELO SNR AR TRES W  DIS CAZ7
 BAR2 SZ EP       1847 54.38                             174    -0.510   14 186 
 BAR2 SZ ES   2   1848 10.19                             174    -0.1 5   14 186 
 BTL  SZ EP       1847 55.07                             170     0.110   24 333 
 BTL  SZ ES   1   1848 10.81                             170     0.3 7   24 333 
 RUS  HZ EP       1847 58.29                             147    -0.210   92 174 
 RUS  HN ES   1   1848 16.94                             147     0.2 7   92 174 
 RUS  HZ I        1848 18.04         5.4 0.42                            92 174 
 NOR  SZ EP       1848 10.87                             120     0.7 8  228 236 
 NOR  SN ES   1   1848 37.05                             120    -0.6 6  228 236 
 NOR  SZ I        1848 43.13         0.8 0.23                           228 236 
 CHI  HZ EP   2   1848 12.61                             118     0.7 4  240 195 
 CHI  HZ I        1848 47.39         4.6 0.42                           240 195 
                                                                                
