 2015  416 1832 54.2 L   6.768 -73.108150.0  RSN  9 0.4 1.7LRSN                1
 GAP=143        0.81       3.5     4.1  6.7 -0.1146E+01  0.7510E+01  0.1049E+01E
 Epicentro: LOS SANTOS - SANTANDER                                             3
 ACTION:UPD 15-06-03 16:55 OP:cam  STATUS:               ID:20150416183254 L   I
 OLDACT:REG 15-04-16 21:54 OP:spq  STATUS:               ID:20150416182748     3
 2015-04-16-1827-48M.COL___272                                                 6
 STAT SP IPHASW D HRMM SECON CODA AMPLIT PERI AZIMU VELO AIN AR TRES W  DIS CAZ7
 BAR2 EZ EP       1833 14.39                             172    0.1410 21.1 203 
 BAR2 EZ ES   1   1833 29.68                             172   -0.25 7 21.1 203 
 BAR2 EZ I        1833 30.48        10.3 0.31            170           21.1 203 
 BRR  HZ EP       1833 16.47                             151    0.4110 76.5 299 
 BRR  HN ES   1   1833 33.21                             151    0.06 7 76.5 299 
 BRR  HZ I        1833 35.26        16.4 0.50            148           76.5 299 
 PAM  SZ EP       1833 17.29                             151    0.4510 77.6  36 
 PAM  SN ES       1833 34.38                             151   -0.1510 77.6  36 
 PAM  SZ I        1833 36.43         6.3 0.24            154           77.6  36 
 RUS  HZ EP       1833 17.94                             146   -0.1210 96.9 178 
 RUS  HE ES   1   1833 36.74                             146    0.03 7 96.9 178 
 RUS  HZ I        1833 37.43         4.2 0.24            148           96.9 178 
 PTB  HZ EP       1833 21.15                             132   -0.63 9  151 260 
 PTB  HE ES   1   1833 43.58                             132    0.25 7  151 260 
 PTB  HZ I        1833 47.79         3.4 0.38            131            151 260 
 OCA  HE ES   1   1833 45.27                             130   -0.54 7  164 352 
 OCA  HZ I        1833 49.61        17.7 0.32            130            164 352 
 ZAR  HN ES   1   1833 54.00                             122    0.65 6  209 293 
 ZAR  HZ I        1833 59.13         3.5 0.30            122            209 293 
 NOR  HE ES   1   1833 58.19                             119   -0.27 6  236 236 
 NOR  HZ I        1834  3.62         3.1 0.38            119            236 236 
 SML  HE ES   1   1834  0.34                             118   -0.38 6  249 335 
                                                                                
