 2010  516 1425 51.3 L   6.772 -72.974144.2  RSN 12 0.4 3.2LRSN                1
 GAP=177        0.76       3.5     7.4  6.7 -0.1377E+02  0.3816E+01  0.5154E+01E
 Epicentro: CEPITA - SANTANDER                                                 3
 ACTION:UP  10-08-24 10:05 OP:vdl  STATUS:               ID:20100516142551 L   I
 2010-05-16-1424-18S.COL___108                                                 6
 STAT SP IPHASW D HRMM SECON CODA AMPLIT PERI AZIMU VELO AIN AR TRES W  DIS CAZ7
 BAR2 SZ IP     D 1426 10.62                             167    -0.310   31 229 
 BAR2 SZ ES   2   1426 25.63                             167    -0.6 5   31 229 
 BRR  HZ IP     C 1426 13.30                             146    -0.110   90 295 
 BRR  HZ I        1426 13.66       705.1 0.10                            90 295 
 BRR  HE ES   2   1426 30.81                             146     0.1 5   90 295 
 RUS  HZ IP     C 1426 14.54                             144    -0.210   98 187 
 RUS  HE ES   2   1426 33.17                             144     0.2 5   98 187 
 RUS  HZ I        1426 34.32       165.9 0.09                            98 187 
 BRI  SZ IP     C 1426 15.26                             142     0.410  106  11 
 BRI  SZ ES   2   1426 33.92                             142     0.6 5  106  11 
 GUE  SZ EP   1   1426 15.61                             139    -0.3 7  117   3 
 GUE  SZ ES   2   1426 35.16                             139     0.0 5  117   3 
 GRA  SZ IP     C 1426 16.56                             137     0.210  125   9 
 GRA  SZ ES   2   1426 36.25                             137     0.4 5  125   9 
 OCA  SZ EP   1   1426 19.18                             128    -0.9 7  167 347 
 OCA  SZ ES   2   1426 42.83                             128     0.3 5  167 347 
 OCA  SZ I        1426 47.08       213.0 0.18                           167 347 
 CHI  HZ EP   1   1426 29.66                             116     0.4 6  251 200 
 CHI  HN ES   2   1426 58.66                             116    -0.1 4  251 200 
 CHI  HZ I        1427  4.89        46.0 0.51                           251 200 
 ROSC BZ EP   1   1426 30.76                             115     0.6 6  260 215 
 ROSC BE ES   2   1427  0.49                             115     0.0 4  260 215 
 ROSC BZ I        1427  8.34        79.2 0.39                           260 215 
 RREF BZ EP   1   1426 38.93                             110     0.1 5  334 232 
 RREF BE ES   2   1427 16.51                             110     0.6 3  334 232 
 RREF BZ I        1427 21.77        72.5 0.25                           334 232 
 ANIL BZ EP   1   1426 42.42                             107     0.0 5  369 227 
 ANIL BN ES   2   1427 22.58                             107     0.4 3  369 227 
 ANIL BZ I        1427 31.61       130.0 0.52                           369 227 
 PRA  HZ EP   1   1426 45.15                             106    -0.5 4  399 212 
 PRA  HN ES   2   1427 28.63                             106     0.7 3  399 212 
 PRA  HZ I        1427 33.33        54.5 0.26                           399 212 
                                                                                
