 2015  616 1812 25.9 L   6.810 -73.144141.7  RSN 17 0.5 2.4LRSN                1
 GAP=183        1.14       2.8     4.8  5.7 -0.4739E+00  0.8510E+01  0.2556E+01E
 Epicentro: LOS SANTOS - SANTANDER                                             3
 ACTION:UPD 15-09-10 22:13 OP:cam  STATUS:               ID:20150616181225 L   I
 OLDACT:UP  15-06-18 07:48 OP:AK   STATUS:               ID:20150616181225 L   3
 OLDACT:REG 15-06-16 21:26 OP:stll STATUS:               ID:20150616180750     3
 2015-06-16-1807-50M.COL___312                                                 6
 STAT SP IPHASW D HRMM SECON CODA AMPLIT PERI AZIMU VELO AIN AR TRES W  DIS CAZ7
 BAR2 EZ IP     D 1812 45.30                             170    0.2510 24.5 190 
 BAR2 EZ ES       1812 59.94                             170   -0.0610 24.5 190 
 BAR2 EZ I        1813  1.80        33.8 0.22            165           24.5 190 
 BRR  HZ EP       1812 47.10                             152    0.5310 70.8 298 
 BRR  HN ES       1813  3.52                             152    0.8110 70.8 298 
 BRR  HZ I        1813 10.11        30.5 0.12            147           70.8 298 
 RUS  HZ EP       1812 49.26                             143   -0.0610  102 176 
 RUS  HN ES       1813  7.29                             143   -0.3110  102 176 
 RUS  HZ I        1813  9.29        18.9 0.28            141            102 176 
 OCA  HZ EP       1812 54.15                             129    0.37 9  159 353 
 OCA  HN ES       1813 15.28                             129   -0.25 9  159 353 
 OCA  HZ I        1813 19.87        44.3 0.36            128            159 353 
 ZAR  HZ EP       1812 57.64                             122   -0.40 9  204 292 
 ZAR  HN ES       1813 22.91                             122   -0.21 9  204 292 
 ZAR  HZ I        1813 28.09        22.3 0.22            119            204 292 
 NOR  HZ EP       1813  0.86                             118   -0.61 8  236 234 
 NOR  HE ES       1813 28.91                             118   -0.31 8  236 234 
 NOR  HZ I        1813 34.40        17.9 0.30            115            236 234 
 SML  HZ EP       1813  1.70                             117   -0.48 8  243 335 
 SML  HN ES       1813 29.67                             117   -0.82 8  243 335 
 SML  HZ I        1813 33.65        45.9 0.26            116            243 335 
 CHI  HZ EP       1813  3.66                             116    0.17 8  250 195 
 CHI  HN ES       1813 32.04                             116   -0.78 8  250 195 
 CHI  HZ I        1813 39.05        12.9 0.30            115            250 195 
 HEL  HZ EP       1813  6.04                             114    0.10 8  273 256 
 HEL  HN ES       1813 37.44                             114    0.25 8  273 256 
 HEL  HZ I        1813 44.95        13.1 0.40            112            273 256 
 GUY2CHZ EP       1813 10.21                             111    0.81 7  302 235 
 GUY2CHN ES       1813 42.74                             111   -0.60 7  302 235 
 GUY2CHZ I        1813 55.54        12.2 0.48                           302 235 
 PTGC HZ EP   4   1813  8.58                             111   -1.09 0  310 159 
 PTGC HZ I        1813  9.05        28.5 0.24            110            310 159 
 PTGC HN ES   4   1813 41.53                             111   -2.30 0  310 159 
 RREF HZ EP       1813 12.63                             110    0.68 7  323 229 
 RREF HZ I        1813 52.49         5.3 0.24            108            323 229 
 TOL  SZ EP       1813 14.72                             108    0.63 7  344 225 
 TOL  SN ES       1813 51.22                             108   -0.47 7  344 225 
 TOL  SZ I        1814  3.62        10.1 0.34            107            344 225 
 MON  HZ EP   9   1813 12.48                             108   -2.18 0  353 308 
 MON  HE ES       1813 49.68                                   -0.85 6  353 308 
 MON  HZ I        1813 53.22         7.0 0.54            107            353 308 
 ANIL HN ES       1813 55.67                             108    1.21 6  358 224 
 ANIL HZ I        1814  2.31        26.5 0.28            106            358 224 
 PRA  HZ EP       1813 19.32                             106   -0.07 6  393 210 
 PRA  HE ES       1814  0.39                             106   -0.74 6  393 210 
 PRA  HZ I        1814  7.61        11.8 0.26            105            393 210 
 ORTC HZ EP       1813 20.05                             106    0.26 6  396 216 
 ORTC HE ES   4   1813 59.98                             106   -1.85 0  396 216 
 ORTC HZ I        1814  8.39         6.7 0.32            104            396 216 
                                                                                
