 2015  616 1324 20.4 L   6.817 -73.144144.8  RSN 22 0.6 2.8LRSN                1
 GAP=119        1.29       2.9     4.3  5.6 -0.3207E+01  0.7123E+01  0.2421E+01E
 Epicentro: LOS SANTOS - SANTANDER                                             3
 ACTION:UPD 15-09-10 22:13 OP:cam  STATUS:               ID:20150616132420 L   I
 OLDACT:REG 15-06-16 21:20 OP:stll STATUS:               ID:20150616131749     3
 2015-06-16-1317-49M.COL___309                                                 6
 STAT SP IPHASW D HRMM SECON CODA AMPLIT PERI AZIMU VELO AIN AR TRES W  DIS CAZ7
 BAR2 EZ IP     C 1324 40.07                             170    0.0910 25.2 190 
 BAR2 EZ ES       1324 54.99                             170   -0.2410 25.2 190 
 BAR2 EZ I        1324 56.53       231.1 0.20            168           25.2 190 
 BRR  HZ IP     C 1324 41.93                             153    0.5010 70.5 297 
 BRR  HE ES       1324 58.31                             153    0.5010 70.5 297 
 BRR  HZ I        1325  3.01        68.1 0.30            149           70.5 297 
 PAM  SZ EP     D 1324 42.83                             151    0.3810 75.8  40 
 PAM  SZ I        1324 43.10       113.3 0.22            155           75.8  40 
 PAM  SN ES       1324 59.94                             151    0.3210 75.8  40 
 RUS  HZ EP     C 1324 43.95                             143   -0.2710  102 176 
 RUS  HN ES       1325  2.04                             143   -0.7310  102 176 
 RUS  HZ I        1325  3.83        80.6 0.26            145            102 176 
 OCA  HZ EP       1324 48.82                             130    0.33 9  158 353 
 OCA  HE ES       1325 10.43                             130    0.05 9  158 353 
 OCA  HZ I        1325 13.90       122.8 0.24            131            158 353 
 ZAR  HZ EP       1324 52.22                             122   -0.53 9  203 292 
 ZAR  HN ES       1325 18.07                             122    0.11 9  203 292 
 ZAR  HZ I        1325 24.11        57.9 0.30            122            203 292 
 NOR  HZ EP       1324 55.86                             118   -0.37 8  236 234 
 NOR  HN ES       1325 23.56                             118   -0.60 8  236 234 
 NOR  HZ I        1325 27.56        59.4 0.16            118            236 234 
 SML  HZ EP       1324 56.48                             117   -0.34 8  242 335 
 SML  HN ES       1325 24.30                             117   -0.91 8  242 335 
 SML  HZ I        1325 32.24        51.6 0.10            118            242 335 
 CHI  HZ EP       1324 58.02                             117   -0.25 8  250 195 
 CHI  HZ I        1325  0.72        24.7 0.24            118            250 195 
 CHI  HN ES       1325 27.54                             117   -0.25 8  250 195 
 ROSC BZ EP       1324 59.36                             116    0.68 8  254 211 
 ROSC BN ES       1325 29.39                             116    0.88 8  254 211 
 ROSC BZ I        1325 34.76        63.4 0.50            117            254 211 
 HEL  HZ EP       1325  1.32                             114    0.66 8  273 255 
 HEL  HE ES       1325 32.15                             114    0.11 8  273 255 
 HEL  HZ I        1325 38.94        34.7 0.36            115            273 255 
 SOCV BZ EP       1325  2.64                             112   -0.66 7  300  57 
 SOCV BE ES   4   1325 33.80                             112   -2.94 0  300  57 
 GUY2CHZ EP       1325  5.19                             112    1.06 7  302 234 
 GUY2CHE ES       1325 38.03                             112   -0.18 7  302 234 
 GUY2CHZ I        1325 44.32        31.1 0.24                           302 234 
 PTGC HZ EP   4   1325  2.95                             111   -1.48 0  310 159 
 PTGC HZ I        1325  3.41        55.2 0.12            113            310 159 
 PTGC HN ES   4   1325 35.43                             111   -3.33 0  310 159 
 RREF HZ EP       1325  8.24                             110    1.56 7  323 229 
 RREF HE ES       1325 42.89                             110    0.13 7  323 229 
 RREF HZ I        1325 50.73        11.1 0.24            111            323 229 
 CBOC HZ EP     C 1325  7.65                             110    0.27 7  334 252 
 CBOC HN ES   4   1325 42.73                             110   -1.28 0  334 252 
 CBOC HZ I        1325 47.93         9.9 0.16            110            334 252 
 TOL  SZ EP       1325  9.15                             109    0.34 7  345 224 
 TOL  SE ES       1325 46.35                             109   -0.20 7  345 224 
 TOL  SZ I        1325 52.11        22.4 0.24            110            345 224 
 MON  HZ EP   9   1325  7.17                             108   -2.10 0  353 308 
 MON  HN ES       1325 43.84                                   -1.43 6  353 308 
 MON  HZ I        1325 49.43         7.8 0.26            109            353 308 
 ANIL HZ EP     D 1325 10.96                             108    0.60 6  359 224 
 ANIL HE ES       1325 49.09                             108   -0.22 6  359 224 
 ANIL HZ I        1325 53.84        68.4 0.34            109            359 224 
 PRA  HZ EP       1325 13.10                             106   -1.01 6  394 209 
 PRA  HN ES       1325 55.36                             106   -0.63 6  394 209 
 PRA  HZ I        1326  2.05        26.5 0.36            107            394 209 
 ORTC HZ EP       1325 14.30                             106   -0.20 6  397 216 
 ORTC HN ES       1325 55.57                             106   -1.11 6  397 216 
 ORTC HZ I        1326  3.27        25.7 0.70            107            397 216 
 SJC  HZ EP       1325 14.33                             106   -1.45 6  408 327 
 SJC  HN ES   4   1325 54.81                             106   -4.15 0  408 327 
 SJC  HZ I        1325 59.66         7.9 0.54            106            408 327 
                                                                                
