 2017 1216 1014 55.8 L   6.603 -72.957145.2  RSN  4 0.4 1.5LRSN                1
 GAP=248        0.95       9.1     5.7  7.9 -0.2003E+02  0.1703E+02 -0.7053E+01E
 Epicentro: CURITI - SANTANDER                                                 3
 ACTION:UPD 18-01-04 13:21 OP:rebc STATUS:               ID:20171216101455 L   I
 OLDACT:DUP 17-12-16 21:38 OP:osc  STATUS:               ID:20171216100740d    3
 OLDACT:REG 17-12-16 19:57 OP:osc  STATUS:               ID:20171216100739     3
 2017-12-16-1008-00M.COL___458                                                 6
 STAT SP IPHASW D HRMM SECON CODA AMPLIT PERI AZIMU VELO AIN AR TRES W  DIS CAZ7
 BAR2 EZ EP       1015 15.85                             170    0.4910 24.9 267 
 BAR2 EZ ES       1015 30.58                             170   -0.0610 24.9 267 
 PAM  EZ EP       1015 18.61                             148    0.1410 86.3  19 
 PAM  EN ES       1015 35.95                             148   -0.2310 86.3  19 
 PAM  EZ I        1015 38.02         6.8 0.54            149           86.3  19 
 PTB  HZ EP       1015 23.51                             128   -0.87 9  166 268 
 PTB  HN ES       1015 46.89                             128    0.19 9  166 268 
 PTB  HZ I        1015 50.39         2.2 0.42            129            166 268 
 ZAR  HZ EP       1015 31.36                             119    0.26 8  232 295 
 ZAR  HE ES       1015 58.75                             119    0.08 8  232 295 
 ZAR  HZ I        1015 59.52         2.5 0.26            120            232 295 
                                                                                
