 2012 1116 1833 32.1 L   6.823 -73.140144.8  RSN 21 0.6 2.5LRSN 3.2WRSN        1
 SPEC AVERAGE  MO 13.9 ST 17.2 OM  2.7 f0 5.00 R0.3033 AL 2.73 WI 22.4 MW  3.2 3
 SPEC SD       MO  0.1 ST 14.3 OM  0.5 f00.882 R0.0541 AL      WI      MW  0.1 3
 GAP= 71        1.34       3.2     4.1  6.0 -0.2782E+01  0.5757E+01 -0.5036E+00E
 Epicentro: LOS SANTOS - SANTANDER                                             3
 SPEC PTB HH N MO 13.8 ST  8.1 OM  2.1 f0 4.58 R0.3210 AL 1.80 WI 30.5 MW  3.1 3
 SPEC PTB HH N T183417 K 0.000 GD  207 VS 4.20 DE 3.00 Q0230.0 QA 0.60 VS 4.20 3
 SPEC NOR HH N MO 14.1 ST 44.7 OM  2.3 f0 6.30 R0.2333 AL 3.41 WI 26.0 MW  3.4 3
 SPEC NOR HH N T183435 K 0.000 GD  277 VS 4.20 DE 3.00 Q0230.0 QA 0.60 VS 4.20 3
 SPEC OCA HH N MO 14.0 ST 14.4 OM  2.3 f0 4.71 R0.3121 AL 2.38 WI 19.6 MW  3.3 3
 SPEC OCA HH N T183421 K 0.000 GD  214 VS 4.20 DE 3.00 Q0230.0 QA 0.60 VS 4.20 3
 SPEC CHI HH N MO 13.7 ST  4.0 OM  1.9 f0 3.77 R0.3899 AL 2.46 WI 11.9 MW  3.1 3
 SPEC CHI HH N T183438 K 0.000 GD  289 VS 4.20 DE 3.00 Q0230.0 QA 0.60 VS 4.20 3
 SPEC BRR HH N MO 13.8 ST 14.8 OM  2.2 f0 5.65 R0.2602 AL 3.60 WI 24.1 MW  3.1 3
 SPEC BRR HH N T183410 K 0.000 GD  161 VS 4.20 DE 3.00 Q0230.0 QA 0.60 VS 4.20 3
 ACTION:UPD 12-12-05 15:33 OP:}ep  STATUS:               ID:20121116183332 L   I
 2012-11-16-1830-00M.COL___232                                                 6
 STAT SP IPHASW D HRMM SECON CODA AMPLIT PERI AZIMU VELO AIN AR TRES W  DIS CAZ7
 BAR2 SZ EP       1833 51.61                             169   -0.0910 26.0 190 
 BAR2 SZ ES       1834  7.02                             169    0.0610 26.0 190 
 BAR2 SZ I        1834  8.19        54.1 0.30                          26.0 190 
 GIR2 SZ EP       1833 51.69                             168    0.0710 28.9 348 
 BRR  HZ EP       1833 53.73                             153    0.5910 70.6 296 
 BRR  HN ES   1   1834 10.37                             153    0.85 7 70.6 296 
 BRR  HN I        1834 15.04        80.8 0.20                          70.6 296 
 PAM  SZ EP       1833 54.50                             151    0.4010 75.0  40 
 PAM  SN ES       1834 11.68                             151    0.4410 75.0  40 
 PAM  SN I        1834 12.28        41.2 0.40                          75.0  40 
 RUS  HZ EP       1833 55.52                             143   -0.4510  103 177 
 RUS  HN ES       1834 13.73                             143   -0.8310  103 177 
 RUS  HN I        1834 14.80        31.9 0.38                           103 177 
 PTB  HZ EP       1833 58.34                             132   -0.78 9  149 258 
 PTB  HN ES       1834 19.13                             132   -1.04 9  149 258 
 PTB  HN I        1834 21.05        42.8 0.22                           149 258 
 TAM  HZ EP       1833 59.74                             130    0.01 9  155 106 
 TAM  HZ I        1833 59.89        22.7 0.36                           155 106 
 OCA  HZ EP       1834  0.71                             130    0.58 9  158 353 
 OCA  HN I        1834 25.92       114.5 0.32                           158 353 
 ZAR  HZ EP       1834  4.35                             122   -0.12 9  204 291 
 ZAR  HE ES       1834 29.54                             122   -0.16 9  204 291 
 ZAR  HN I        1834 33.45        41.6 0.10                           204 291 
 NOR  HZ EP       1834  7.82                             118   -0.20 8  237 234 
 NOR  HE ES       1834 35.93                             118   -0.08 8  237 234 
 NOR  HN I        1834 41.86        42.2 0.20                           237 234 
 SML  HZ EP       1834  8.14                             117   -0.33 8  242 335 
 SML  HE ES       1834 36.85                             117    0.02 8  242 335 
 CHI  HZ EP   1   1834  9.68                             117   -0.38 6  251 195 
 CHI  HN ES   1   1834 39.29                             117   -0.35 6  251 195 
 ROSC BZ EP       1834 11.81                             116    1.34 8  255 211 
 ROSC BN ES       1834 41.42                             116    1.04 8  255 211 
 ROSC BZ I        1834 46.01        21.7 0.35                           255 211 
 HEL  HZ EP   1   1834 13.47                             114    1.04 6  273 255 
 HEL  HN I        1834 52.62        11.1 0.36                           273 255 
 RREF HZ EP       1834 18.90                             110    0.43 7  324 229 
 RREF HN ES   1   1834 55.84                             110    1.22 5  324 229 
 RREF HZ I        1835  0.04        11.3 0.26                           324 229 
 DBB  SZ EP       1834 20.30                             109    0.69 7  340 274 
 DBB  SZ ES       1834 55.66                             109   -1.00 7  340 274 
 COD  HZ EP       1834 19.50                             109   -0.68 6  346 354 
 COD  HN ES       1834 57.65                             109    0.00 6  346 354 
 COD  HN I        1835  2.29         9.1 0.54                           346 354 
 TOL  SZ EP       1834 20.87                             109    0.27 6  346 224 
 SDV  BZ EP       1834 20.52                             108   -1.36 6  358  50 
 ANIL HN ES       1835  0.60                             108   -0.58 6  360 224 
 PRA  HZ EP       1834 25.76                             106   -0.15 6  395 209 
 PRA  HN ES       1835  8.06                             106    0.20 6  395 209 
 PRA  HN I        1835 12.16         9.5 0.70                           395 209 
                                                                                
