 2012 1216 1705  0.7 L   6.756 -73.136145.8  RSN  7 0.4 1.8LRSN                1
 GAP=140        1.07       4.6     5.1  7.2 -0.5042E+01  0.7996E+01  0.6463E+01E
 Epicentro: LOS SANTOS - SANTANDER                                             3
 ACTION:UPD 13-01-04 14:28 OP:ep   STATUS:               ID:20121216170500 L   I
 2012-12-16-1700-00M.COL___242                                                 6
 STAT SP IPHASW D HRMM SECON CODA AMPLIT PERI AZIMU VELO AIN AR TRES W  DIS CAZ7
 BAR2 SZ EP       17 5 20.57                             172    0.3010 18.8 196 
 BAR2 SZ ES       17 5 36.11                             172    0.6010 18.8 196 
 BAR2 SZ I        17 5 37.16        11.7 0.36                          18.8 196 
 BRR  HZ EP       17 5 22.40                             151    0.3410 74.5 301 
 BRR  HN ES       17 5 39.09                             151    0.3810 74.5 301 
 BRR  HN I        17 5 39.99        16.9 0.32                          74.5 301 
 PAM  SZ EP       17 5 23.22                             150    0.0910 80.6  37 
 PAM  SN ES       17 5 40.07                             150   -0.5410 80.6  37 
 PAM  SN I        17 5 41.47         7.1 0.24                          80.6  37 
 RUS  HZ EP       17 5 23.98                             145   -0.1410 95.6 176 
 RUS  HN ES       17 5 41.99                             145   -0.3810 95.6 176 
 RUS  HN I        17 5 44.54         6.5 0.18                          95.6 176 
 PTB  HZ EP       17 5 27.30                             132   -0.40 9  148 261 
 PTB  HN ES       17 5 47.91                             132   -0.84 9  148 261 
 PTB  HN I        17 5 54.00        12.8 0.60                           148 261 
 NOR  HZ EP       17 5 36.43                             119    0.19 8  233 236 
 NOR  HE ES       17 6  4.31                             119    0.36 8  233 236 
 NOR  HN I        17 6 10.52         9.8 0.16                           233 236 
 CHI  HN ES       17 6  7.06                             118    0.09 8  244 196 
 CHI  HN I        17 6 11.82         3.2 0.32                           244 196 
                                                                                
