 2016 1016 1506 38.3 L   6.782 -73.175145.6  RSN  7 0.5 1.8LRSN                1
 GAP=134        1.09       5.3     5.4  7.9 -0.1085E+02  0.1071E+02  0.3885E+00E
 Epicentro: LOS SANTOS - SANTANDER                                             3
 ACTION:UPD 16-11-09 19:20 OP:rebc STATUS:               ID:20161016150638 L   I
 OLDACT:REG 16-10-16 20:52 OP:dnl  STATUS:               ID:20161016145735     3
 2016-10-16-1458-00M.COL___377                                                 6
 STAT SP IPHASW D HRMM SECON CODA AMPLIT PERI AZIMU VELO AIN AR TRES W  DIS CAZ7
 BAR2 EZ EP       15 6 57.79                             171   -0.0710 21.0 182 
 BAR2 EZ ES       15 7 12.96                             171   -0.1610 21.0 182 
 BAR2 EZ I        15 7 13.79        22.9 0.42            170           21.0 182 
 BRR  HZ EP       15 6 59.71                             153    0.3910 69.4 301 
 BRR  HN ES       15 7 16.56                             153    0.8310 69.4 301 
 BRR  HZ I        15 7 17.35         8.6 0.28            153           69.4 301 
 PAM  EZ EP       15 7  0.65                             150   -0.0610 81.0  40 
 PAM  EN ES       15 7 17.82                             150   -0.3810 81.0  40 
 PAM  EZ I        15 7 19.72         8.6 0.58            152           81.0  40 
 RUS  HZ EP   2   15 7  1.85                             144   -0.05 5 98.8 174 
 RUS  HN ES       15 7 20.60                             144    0.2810 98.8 174 
 RUS  HZ I        15 7 21.31         6.5 0.22            144           98.8 174 
 PTB  HZ EP       15 7  4.53                             133   -0.39 9  144 259 
 PTB  HN ES       15 7 24.85                             133   -0.84 9  144 259 
 PTB  HZ I        15 7 26.51         5.5 0.26            132            144 259 
 SPBC HZ EP   2   15 7  6.85                             130    0.41 5  160 219 
 SPBC HN ES       15 7 28.04                             130   -0.35 9  160 219 
 SPBC HZ I        15 7 31.44        12.6 0.20            129            160 219 
 NOR  HZ EP   2   15 7 14.07                             119    0.47 4  231 234 
 NOR  HE ES       15 7 41.74                             119    0.60 8  231 234 
 NOR  HZ I        15 7 46.79         3.7 0.54            119            231 234 
                                                                                
