 2015  316 1055 33.7 L   6.829 -73.176142.6  RSN 10 0.4 2.1LRSN                1
 GAP=131        0.95       2.9     4.6  6.1 -0.4315E+01  0.1298E+02 -0.1828E+01E
 Epicentro: ZAPATOCA - SANTANDER                                               3
 ACTION:UPD 15-04-30 16:26 OP:nd   STATUS:               ID:20150316105533 L   I
 OLDACT:UP  15-03-16 23:05 OP:cam  STATUS:               ID:20150316104748     3
 OLDACT:UP  15-03-16 23:05 OP:cam  STATUS:               ID:20150316104748     3
 OLDACT:REG 15-03-16 19:55 OP:cam  STATUS:               ID:20150316104748     3
 2015-03-16-1047-48M.COL___257                                                 6
 STAT SP IPHASW D HRMM SECON CODA AMPLIT PERI AZIMU VELO AIN AR TRES W  DIS CAZ7
 BAR2 EZ EP       1055 53.11                             169    0.0510 26.2 182 
 BAR2 EZ ES       1056  7.54                             169   -0.5910 26.2 182 
 BAR2 EZ I        1056  9.63        23.9 0.28            168           26.2 182 
 BRR  HZ EP       1055 54.89                             153    0.5910 66.7 297 
 BRR  HN ES   4   1056 11.99                             153    1.65 0 66.7 297 
 BRR  HZ I        1056 15.26        22.3 0.12            150           66.7 297 
 PAM  SZ EP       1055 55.91                             150    0.3010 77.2  43 
 PAM  SN ES       1056 13.05                             150    0.3810 77.2  43 
 PAM  SZ I        1056 15.03        21.0 0.50            157           77.2  43 
 RUS  HZ EP       1055 57.17                             142   -0.2810  104 174 
 RUS  HN ES       1056 15.95                             142    0.0110  104 174 
 RUS  HZ I        1056 17.08         7.8 0.44            147            104 174 
 PTB  HZ EP       1055 59.76                             132   -0.46 9  145 257 
 PTB  HN ES       1056 21.02                             132    0.15 9  145 257 
 PTB  HZ I        1056 28.39        15.7 0.38            132            145 257 
 OCA  HN ES       1056 23.01                             130   -0.09 9  157 354 
 OCA  HZ I        1056 27.41        16.6 0.40            133            157 354 
 SPBC HZ EP       1056  2.09                             128    0.04 9  164 217 
 SPBC HN ES       1056 24.16                             128    0.03 9  164 217 
 SPBC HZ I        1056 31.87        18.0 0.24            130            164 217 
 SML  HZ EP       1056  9.18                             117   -0.55 8  239 336 
 SML  HN ES       1056 37.58                             117   -0.21 8  239 336 
 SML  HZ I        1056 39.91        20.1 0.12            120            239 336 
 GUY2CHZ EP       1056 17.46                             112    0.35 7  300 234 
 GUY2CHN ES       1056 51.87                             112    0.93 7  300 234 
 GUY2CHZ I        1056 59.59         7.8 0.38                           300 234 
 TOL  SZ EP       1056 21.77                             109   -0.10 7  343 224 
 TOL  SN ES       1056 58.72                             109   -0.69 7  343 224 
 TOL  SZ I        1057  7.56         5.8 0.52            111            343 224 
                                                                                
