 2016  816 1040 53.3 L   6.804 -73.172146.0  RSN 12 0.4 2.0LRSN                1
 GAP=133        0.90       2.5     3.4  4.9 -0.1677E+01  0.3741E+01  0.1661E+01E
 Epicentro: LOS SANTOS - SANTANDER                                             3
 ACTION:UPD 16-10-29 15:36 OP:rebc STATUS:               ID:20160816104053 L   I
 OLDACT:REG 16-08-16 21:06 OP:ndl  STATUS:               ID:20160816103708     3
 2016-08-16-1038-00M.COL___368                                                 6
 STAT SP IPHASW D HRMM SECON CODA AMPLIT PERI AZIMU VELO AIN AR TRES W  DIS CAZ7
 BAR2 EZ EP       1041 12.91                             170   -0.0210 23.5 183 
 BAR2 EZ ES       1041 27.78                             170   -0.4810 23.5 183 
 BAR2 EZ I        1041 29.55        34.9 0.14                          23.5 183 
 BRR  HZ EP       1041 14.67                             154    0.3810 68.4 299 
 BRR  HN ES       1041 31.58                             154    0.9010 68.4 299 
 BRR  HZ I        1041 32.43        22.9 0.12                          68.4 299 
 PAM  EZ EP       1041 15.84                             150    0.2410 78.9  41 
 PAM  EN ES       1041 32.96                             150   -0.0610 78.9  41 
 PAM  EZ I        1041 35.10        30.4 0.46                          78.9  41 
 RUS  HZ EP       1041 17.05                             144   -0.0410  101 174 
 RUS  HN ES       1041 35.97                             144    0.2910  101 174 
 RUS  HZ I        1041 36.68         9.0 0.26                           101 174 
 PTB  HZ EP       1041 19.82                             133   -0.18 9  145 258 
 PTB  HN ES       1041 40.48                             133   -0.38 9  145 258 
 PTB  HZ I        1041 43.22         5.6 0.22                           145 258 
 OCA  HZ EP       1041 20.90                             130   -0.62 9  159 354 
 OCA  HE ES       1041 43.17                             130   -0.39 9  159 354 
 OCA  HZ I        1041 46.10        16.8 0.48                           159 354 
 SPBC HZ EP   2   1041 21.89                             129    0.24 5  162 218 
 SPBC HE ES       1041 43.67                             129   -0.11 9  162 218 
 SPBC HZ I        1041 48.73        19.1 0.24                           162 218 
 ZAR  HZ EP       1041 25.60                             123    0.17 9  201 292 
 ZAR  HN ES       1041 50.73                             123    0.21 9  201 292 
 ZAR  HZ I        1041 57.70        13.0 0.40                           201 292 
 NOR  HZ EP   2   1041 29.53                             119    0.74 4  233 234 
 NOR  HN ES       1041 55.84                             119   -0.65 8  233 234 
 NOR  HZ I        1042  4.78         6.6 0.14                           233 234 
 CHI  HZ EP       1041 31.10                             117    0.15 8  248 194 
 CHI  HN ES       1042  0.27                             117   -0.07 8  248 194 
 CHI  HZ I        1042  5.17         5.1 0.42                           248 194 
 GUY2CHZ EP   4   1041 38.63                             113    1.98 0  299 234 
 GUY2CHN ES       1042 10.62                             113    0.13 7  299 234 
 GUY2CHZ I        1042 19.02         3.8 0.34                           299 234 
 PRA  HZ EP       1041 46.86                             107    0.18 6  391 209 
 PRA  HN ES       1042 28.36                             107    0.02 6  391 209 
 PRA  HZ I        1042 33.83         4.5 0.48                           391 209 
                                                                                
