 2011  716 1015 25.1 L   6.790 -73.081146.3  RSN  9 0.3 1.8LRSN                1
 GAP=163        0.70       3.5     5.6  4.7 -0.8613E+01  0.3993E+01  0.1544E+01E
 Epicentro: LOS SANTOS - SANTANDER                                             3
 ACTION:UPD 12-07-25 14:01 OP:epov STATUS:               ID:20110716101525 L   I
 2011-07-16-1011-19S.COL___131                                                 6
 STAT SP IPHASW D HRMM SECON CODA AMPLIT PERI AZIMU VELO AIN AR TRES W  DIS CAZ7
 BAR2 SZ EP   1   1015 44.68                             170   -0.17 7 24.5 207 
 BAR2 SZ ES       1016  0.66                             170    0.4310 24.5 207 
 BAR2 SZ I        1016  1.12        15.7 0.31                          24.5 207 
 GIR2 SZ EP   1   1015 45.34                             166    0.39 7 34.2 339 
 GIR2 SZ ES   1   1016  0.26                             166   -0.15 7 34.2 339 
 BRR  HZ EP   1   1015 46.68                             150   -0.05 7 78.0 297 
 BRR  HZ I        1015 48.02        16.9 0.14                          78.0 297 
 BRR  HE ES   1   1016  3.62                             150    0.04 7 78.0 297 
 RUS  HZ EP   1   1015 48.84                             144    0.01 7 99.2 180 
 RUS  HN ES   1   1016  7.10                             144   -0.23 7 99.2 180 
 RUS  HZ I        1016  9.22         6.4 0.38                          99.2 180 
 BRI  SZ EP   1   1015 49.13                             142    0.16 7  107  17 
 BRI  SZ ES   1   1016  7.77                             142    0.20 7  107  17 
 BRI  SZ I        1016 13.11         6.9 0.61                           107  17 
 GRA  SZ EP   1   1015 50.47                             137    0.13 7  125  14 
 GRA  SZ ES   1   1016  9.07                             137   -0.95 7  125  14 
 GRA  SZ I        1016 10.98         6.9 0.42                           125  14 
 NOR  SZ EP   1   1016  1.43                             118   -0.01 6  240 236 
 NOR  SN ES   1   1016 29.28                             118   -0.49 6  240 236 
 CHI  HZ EP   1   1016  2.71                             117   -0.24 6  250 197 
 CHI  HZ I        1016 38.58         5.0 0.45                           250 197 
 HEL  HZ EP   1   1016  6.58                             114    0.48 6  279 256 
                                                                                
