 2012  916 1300 27.0 L   6.768 -73.162147.1  RSN  7 0.4 1.7LRSN                1
 GAP=136        0.76       5.0     4.5  6.8  0.1247E+01  0.5676E+01  0.3455E+01E
 Epicentro: LOS SANTOS - SANTANDER                                             3
 ACTION:UPD 12-10-22 14:19 OP:ep   STATUS:               ID:20120916130027 L   I
 2012-09-16-1300-00M.COL___227                                                 6
 STAT SP IPHASW D HRMM SECON CODA AMPLIT PERI AZIMU VELO AIN AR TRES W  DIS CAZ7
 BAR2 SZ EP   1   13 0 46.66                             172   -0.06 7 19.6 187 
 BAR2 SZ ES   1   13 1  1.64                             172   -0.47 7 19.6 187 
 BAR2 SZ I        13 1  2.73        23.0 0.36                          19.6 187 
 GIR2 SZ EP   1   13 0 46.78                             166   -0.14 7 34.5 354 
 GIR2 SZ ES   1   13 1  2.54                             166    0.08 7 34.5 354 
 BRR  HZ EP   2   13 0 48.90                             153    0.59 5 71.4 302 
 BRR  HN ES   1   13 1  5.66                             153    0.74 7 71.4 302 
 PAM  SZ EP   1   13 0 49.60                             150    0.01 7 81.2  39 
 PAM  SN ES   1   13 1  6.86                             150   -0.35 7 81.2  39 
 PAM  SN I        13 1  7.91        11.2 0.37                          81.2  39 
 RUS  HZ EP   1   13 0 51.08                             145    0.43 7 97.2 175 
 RUS  HE ES   1   13 1  9.36                             145    0.27 7 97.2 175 
 RUS  HZ I        13 1 10.74         6.3 0.46                          97.2 175 
 PTB  HZ EP   1   13 0 53.40                             133   -0.46 7  145 260 
 PTB  HN ES   1   13 1 14.29                             133   -0.52 7  145 260 
 PTB  HZ I        13 1 16.28         3.6 0.30                           145 260 
 ZAR  HN ES   1   13 1 24.98                             123    0.13 6  204 293 
                                                                                
