 2010 1116 1052 15.2 L   6.800 -73.097144.8  RSN  4 0.1 1.6LRSN                1
 GAP=164        0.33       2.9     6.3  6.8  0.9531E+01 -0.3119E+02 -0.1144E+02E
 Epicentro: LOS SANTOS - SANTANDER                                             3
 ACTION:UP  10-12-17 16:53 OP:REBC STATUS:               ID:20101116105215 L   I
 2010-11-16-1049-30S.COL___128                                                 6
 STAT SP IPHASW D HRMM SECON CODA AMPLIT PERI AZIMU VELO SNR AR TRES W  DIS CAZ7
 BAR2 SZ EP       1052 34.73                             170    -0.110   25 203 
 BAR2 SZ I        1052 50.78        12.2 0.44                            25 203 
 BRR  HZ EP   1   1052 36.49                             151    -0.1 7   76 297 
 BRR  HZ I        1052 36.84        23.7 0.28                            76 297 
 BRR  HE ES   1   1052 53.24                             151     0.0 7   76 297 
 RUS  HZ EP   1   1052 38.98                             144     0.1 7  100 179 
 RUS  HN ES   1   1052 57.29                             144     0.0 7  100 179 
 RUS  HZ I        1052 58.31         2.9 0.12                           100 179 
 GRA  SZ EP       1052 40.28                             137     0.010  124  15 
 GRA  SZ I        1053  4.51         4.4 0.35                           124  15 
                                                                                
