 2012  616 1639 49.7 L   6.839 -73.163142.4  RSN 10 0.4 2.4LRSN                1
 GAP=132        0.77       3.0     4.0  5.8 -0.2023E+01  0.7317E+01 -0.2549E+00E
 Epicentro: LOS SANTOS - SANTANDER                                             3
 ACTION:UPD 12-08-06 17:50 OP:ep   STATUS:               ID:20120616163949 L   I
 2012-06-16-1639-50M.COL___175                                                 6
 STAT SP IPHASW D HRMM SECON CODA AMPLIT PERI AZIMU VELO AIN AR TRES W  DIS CAZ7
 BAR2 SZ EP       1640  9.03                             169    0.0310 27.4 185 
 BAR2 SZ ES   1   1640 23.67                             169   -0.39 7 27.4 185 
 BAR2 SZ I        1640 25.30        45.4 0.21                          27.4 185 
 PAM  SZ EP       1640 11.79                             151    0.3710 75.4  43 
 PAM  SN ES   1   1640 28.86                             151    0.49 7 75.4  43 
 RUS  HZ EP       1640 13.14                             142   -0.3010  105 175 
 RUS  HN ES   1   1640 32.21                             142    0.25 7  105 175 
 PTB  HZ EP   1   1640 15.57                             131   -0.73 7  147 257 
 PTB  HN ES   1   1640 36.74                             131   -0.31 7  147 257 
 PTB  HZ I        1640 39.37        37.2 0.06                           147 257 
 OCA  HZ EP   1   1640 17.29                             130   -0.02 7  156 354 
 OCA  HN ES   1   1640 38.35                             130   -0.51 7  156 354 
 OCA  HZ I        1640 44.21        70.5 0.21                           156 354 
 ZAR  HZ EP   1   1640 21.87                             122    0.30 6  201 291 
 ZAR  HN ES   1   1640 46.97                             122    0.54 6  201 291 
 ZAR  HZ I        1640 52.95        22.2 0.36                           201 291 
 NOR  SZ EP   1   1640 25.79                             118    0.46 6  236 233 
 NOR  SE ES   1   1640 53.17                             118    0.03 6  236 233 
 CHI  HZ EP   1   1640 27.44                             116   -0.17 6  252 194 
 CHI  HN ES   1   1640 57.12                             116   -0.06 6  252 194 
 CHI  HZ I        1641  0.45        11.1 0.37                           252 194 
 GUY  SZ EP   1   1640 34.15                             111    0.63 5  304 234 
 GUY  SZ I        1641 17.88        27.2 0.31                           304 234 
 COD  HZ EP   1   1640 36.72                             108   -0.70 5  344 355 
 COD  HZ I        1640 39.46         3.7 0.31                           344 355 
                                                                                
