 2017 1016 1951 33.9 L   6.783 -73.164132.0  RSN  5 0.4 1.3LRSN                1
 GAP=135        0.98       4.9     4.5  7.7 -0.6304E+00  0.1392E+02 -0.6331E+01E
 Epicentro: LOS SANTOS - SANTANDER                                             3
 ACTION:UPD 17-11-07 19:32 OP:rebc STATUS:               ID:20171016195133 L   I
 OLDACT:UP  17-10-17 00:56 OP:edw  STATUS:               ID:20171016194740     3
 OLDACT:REG 17-10-16 20:55 OP:edw  STATUS:               ID:20171016194740     3
 2017-10-16-1948-00M.COL___435                                                 6
 STAT SP IPHASW D HRMM SECON CODA AMPLIT PERI AZIMU VELO AIN AR TRES W  DIS CAZ7
 BAR2 EZ EP       1951 51.86                             170    0.0510 21.1 185 
 BAR2 EZ ES       1952  5.56                             170   -0.2410 21.1 185 
 BAR2 EZ I        1952  7.86        10.0 0.30            171           21.1 185 
 PAM  EZ EP       1951 54.27                             147   -0.5610 80.2  40 
 PAM  EN ES       1952 11.47                             147    0.3010 80.2  40 
 PAM  EZ I        1952 13.83         4.5 0.46            149           80.2  40 
 RUS  HZ EP       1951 56.38                             141    0.2110 98.8 175 
 RUS  HN ES       1952 13.81                             141    0.2610 98.8 175 
 RUS  HZ I        1952 16.46         1.8 0.18            143           98.8 175 
 PTB  HZ EP       1951 58.90                             129   -0.64 9  145 259 
 PTB  HN ES       1952 19.42                             129   -0.13 9  145 259 
 PTB  HZ I        1952 20.73         2.5 0.22            132            145 259 
 ZAR  HZ EP       1952  6.05                             119    0.70 9  203 293 
 ZAR  HN ES       1952 30.08                             119    0.19 9  203 293 
                                                                                
