 2013  816 1130 17.4 L   6.776 -73.155144.0  RSN 10 0.5 2.2LRSN 2.6WRSN        1
 SPEC AVERAGE  MO 13.0 ST 11.5 OM  1.6 f0 8.06 R0.2822 AL 0.00 WI 20.0 MW  2.6 3
 SPEC SD       MO  0.2 ST 19.6 OM  0.4 f0 5.02 R0.2135 AL      WI      MW  0.1 3
 GAP=136        1.01       3.9     4.8  6.6 -0.3467E+01  0.7962E+01  0.4670E+01E
 Epicentro: LOS SANTOS - SANTANDER                                             3
 SPEC BAR2SH Z MO 12.9 ST  1.7 OM  1.3 f0 5.91 R0.2629 AL-0.00 WI 20.0 MW  2.5 3
 SPEC BAR2SH Z T113049 K 0.000 GD  145 VS 4.20 DE 3.20 Q0300.0 QA 0.60 VS 4.20 3
 SPEC SPBCHH Z MO 13.1 ST 10.4 OM  1.4 f0 8.71 R0.1784 AL-0.00 WI 20.0 MW  2.7 3
 SPEC SPBCHH Z T1131 6 K 0.000 GD  215 VS 4.20 DE 3.20 Q0300.0 QA 0.60 VS 4.20 3
 SPEC ZAR HH Z MO 13.2 ST  6.2 OM  1.4 f0 6.97 R0.2230 AL-0.00 WI 20.0 MW  2.7 3
 SPEC ZAR HH Z T113112 K 0.000 GD  249 VS 4.20 DE 3.20 Q0300.0 QA 0.60 VS 4.20 3
 SPEC BRR HH Z MO 13.1 ST  3.1 OM  1.5 f0 5.95 R0.2612 AL-0.00 WI 20.0 MW  2.7 3
 SPEC BRR HH Z T113054 K 0.000 GD  160 VS 4.20 DE 3.20 Q0300.0 QA 0.60 VS 4.20 3
 SPEC PAM SH Z MO 12.8 ST  2.0 OM  1.2 f0 6.40 R0.2428 AL-0.00 WI 20.0 MW  2.5 3
 SPEC PAM SH Z T113055 K 0.000 GD  164 VS 4.20 DE 3.20 Q0300.0 QA 0.60 VS 4.20 3
 SPEC NOR HH Z MO 12.9 ST  5.8 OM  1.1 f0 8.35 R0.1861 AL-0.00 WI 20.0 MW  2.6 3
 SPEC NOR HH Z T113118 K 0.000 GD  273 VS 4.20 DE 3.20 Q0300.0 QA 0.60 VS 4.20 3
 SPEC RUS HH Z MO 13.4 ST0.213 OM  1.8 f0 1.88 R0.8266 AL-0.00 WI 20.0 MW  2.9 3
 SPEC RUS HH Z T113057 K 0.000 GD  174 VS 4.20 DE 3.20 Q0300.0 QA 0.60 VS 4.20 3
 SPEC PTB HH Z MO 12.8 ST 62.9 OM  1.1 f0 20.3 R0.0766 AL-0.00 WI 20.0 MW  2.5 3
 SPEC PTB HH Z T1131 3 K 0.000 GD  205 VS 4.20 DE 3.20 Q0300.0 QA 0.60 VS 4.20 3
 2013-08-16-1129-59M.COL___269                                                 6
 ACTION:UPD 14-01-14 09:03 OP:ep   STATUS:               ID:20130816113017 L   I
 OLDACT:REG 13-08-16 15:08 OP:mh   STATUS:               ID:20130816112959     3
 STAT SP IPHASW D HRMM SECON CODA AMPLIT PERI AZIMU VELO AIN AR TRES W  DIS CAZ7
 BAR2 SZ EP       1130 36.74                             171   -0.0610 20.6 188 
 BAR2 SZ ES   1   1130 51.48                             171   -0.43 7 20.6 188 
 BAR2 SZ I        1130 53.50        21.6 0.42            171           20.6 188 
 BRR  HZ EP       1130 38.48                             152    0.0610 71.6 301 
 BRR  HN ES       1130 55.88                             152    1.0910 71.6 301 
 BRR  HN I        1130 56.40        56.7 0.28            151           71.6 301 
 BRR  SZ I        1130 56.91        12.3 0.10                          71.6 301 
 PAM  SZ EP       1130 39.61                             150   -0.0210 80.1  39 
 PAM  SN ES       1130 56.87                             150   -0.0710 80.1  39 
 PAM  SZ I        1131  0.60        10.9 0.32            152           80.1  39 
 RUS  HZ EP   1   1130 40.98                             144    0.15 7 98.0 175 
 RUS  HN ES   1   1130 58.93                             144   -0.15 7 98.0 175 
 RUS  HN I        1130 59.93        23.4 0.32            146           98.0 175 
 RUS  SZ I        1131  0.51        13.3 0.68                          98.0 175 
 PTB  HZ EP   1   1130 43.32                             132   -0.81 7  146 260 
 PTB  HN ES   1   1131  4.64                             132   -0.30 7  146 260 
 PTB  SZ I        1131  6.01        16.2 0.50            132            146 260 
 PTB  HN I        1131  9.77        28.6 0.28                           146 260 
 SPBC HZ EP       1130 45.65                             129    0.10 9  160 219 
 SPBC HN ES   1   1131  7.86                             129    0.39 7  160 219 
 SPBC SZ I        1131 10.30        20.3 0.44            130            160 219 
 OCA  HN ES       1131  7.71                             129   -0.30 9  163 354 
 OCA  HN I        1131 10.53        71.6 0.24            130            163 354 
 ZAR  HZ EP       1130 50.04                             122    0.26 9  204 293 
 ZAR  HN ES   1   1131 14.28                             122   -0.72 6  204 293 
 ZAR  SZ I        1131 21.55        18.6 0.36            122            204 293 
 NOR  HZ EP   1   1130 52.48                             119   -0.33 6  232 235 
 NOR  HN ES   1   1131 19.80                             119   -0.60 6  232 235 
 NOR  SZ I        1131 25.89         7.6 0.18            119            232 235 
 NOR  HN I        1131 25.98        21.6 0.16                           232 235 
 GUY2CHN ES   4   1131 35.45                             112    1.01 0  299 235 
 PRA  HZ EP       1131 11.20                             107    0.63 6  389 210 
 PRA  HZ I        1131 12.49         1.9 0.18            107            389 210 
                                                                                
