 2013 1116 1623 19.6 L   6.725 -73.144142.9  RSN  5 0.5 1.8LRSN                1
 GAP=140        1.35       7.0     6.9  9.9 -0.4352E+01  0.8713E+01  0.1962E+01E
 Epicentro: JORDAN - SANTANDER                                                 3
 ACTION:UPD 14-01-09 16:28 OP:ep   STATUS:               ID:20131116162319 L   I
 OLDACT:REG 13-11-16 16:28 OP:stll STATUS:               ID:20131116161819     3
 2013-11-16-1618-19M.COL___226                                                 6
 STAT SP IPHASW D HRMM SECON CODA AMPLIT PERI AZIMU VELO AIN AR TRES W  DIS CAZ7
 BAR2 SZ EP       1623 39.14                             174    0.4210 15.3 196 
 BAR2 SZ ES       1623 53.86                             174    0.2110 15.3 196 
 BAR2 SZ I        1623 55.24        35.8 0.14            171           15.3 196 
 BRR  HZ EP       1623 41.05                             150    0.3810 75.6 304 
 BRR  HN ES       1623 57.90                             150    0.7710 75.6 304 
 BRR  HZ I        1623 59.08        10.9 0.12            149           75.6 304 
 PAM  SZ EP       1623 42.09                             148    0.2110 83.8  36 
 PAM  SZ I        1623 42.25        13.1 0.24            151           83.8  36 
 PAM  SE ES       1623 58.36                             148   -0.9210 83.8  36 
 RUS  HZ EP       1623 42.58                             146    0.1210 92.3 176 
 RUS  HZ I        1623 43.97         5.5 0.46            146           92.3 176 
 RUS  HN ES       1624  0.18                             146   -0.1310 92.3 176 
 PTB  HZ EP       1623 45.73                             131   -0.47 9  147 262 
 PTB  HN ES       1624  6.21                             131   -0.75 9  147 262 
 PTB  HZ I        1624 12.40         7.4 0.18            130            147 262 
                                                                                
