 2015 1216 1140 17.4 L   6.793 -73.110151.4  RSN 19 0.5 2.4LRSN                1
 GAP=122        0.92       3.1     4.1  4.5 -0.2723E+01  0.3514E+01 -0.1051E+01E
 Epicentro: LOS SANTOS - SANTANDER                                             3
 ACTION:UPD 16-02-04 15:05 OP:cam  STATUS:               ID:20151216114017 L   I
 OLDACT:UP  15-12-16 21:38 OP:ar   STATUS:               ID:20151216113749     3
 OLDACT:REG 15-12-16 20:20 OP:ar   STATUS:               ID:20151216113749     3
 2015-12-16-1137-49M.COL___330                                                 6
 STAT SP IPHASW D HRMM SECON CODA AMPLIT PERI AZIMU VELO AIN AR TRES W  DIS CAZ7
 BAR2 EZ IP     C 1140 37.83                             171    0.0910 23.6 200 
 BAR2 EZ ES       1140 53.20                             171   -0.3910 23.6 200 
 BAR2 EZ I        1140 54.48        30.5 0.40            165           23.6 200 
 BRR  HZ EP       1140 39.81                             152    0.4010 75.0 298 
 BRR  HN ES       1140 57.26                             152    0.7210 75.0 298 
 BRR  HZ I        1140 59.53        30.1 0.11            147           75.0 298 
 PAM  EZ EP       1140 40.70                             152    0.5510 75.6  37 
 PAM  EN ES       1140 57.98                             152    0.1210 75.6  37 
 PAM  EZ I        1140 59.95        22.7 0.22            157           75.6  37 
 RUS  HZ EP       1140 41.70                             145    0.0310 99.6 178 
 RUS  HE ES       1141  0.17                             145   -0.4110 99.6 178 
 RUS  HZ I        1141  1.64        15.6 0.36            145           99.6 178 
 PTB  HZ EP       1140 44.58                             132   -0.62 9  151 259 
 PTB  HN ES   2   1141  6.10                             132   -0.75 5  151 259 
 PTB  HZ I        1141 11.64        28.7 0.26            129            151 259 
 OCA  HZ EP       1140 46.51                             131    0.20 9  162 352 
 OCA  HN ES       1141  8.52                             131   -0.31 9  162 352 
 OCA  HZ I        1141 13.79        61.3 0.22            131            162 352 
 SPBC HZ EP       1140 46.83                             130    0.29 9  165 220 
 SPBC HN ES   2   1141  9.27                             130    0.02 5  165 220 
 SPBC HZ I        1141 15.97        57.7 0.34            128            165 220 
 ZAR  HZ EP   2   1140 50.63                             123   -0.02 4  208 292 
 ZAR  HN ES   2   1141 16.23                             123   -0.33 4  208 292 
 ZAR  HZ I        1141 22.39        26.7 0.12            121            208 292 
 NOR  HZ EP   2   1140 54.03                             119    0.24 4  237 235 
 NOR  HE ES   2   1141 21.72                             119   -0.42 4  237 235 
 NOR  HZ I        1141 25.48        22.8 0.18            118            237 235 
 SML  HZ EP       1140 54.83                             118    0.19 8  246 335 
 SML  HN ES   2   1141 22.76                             118   -0.89 4  246 335 
 SML  HZ I        1141 27.46        33.3 0.22            118            246 335 
 ROSC BZ EP   9   1140 57.30                             118    1.29 0  254 212 
 ROSC BN ES   2   1141 27.60                             117    0.21 4  254 212 
 ROSC BZ I        1141 35.69        26.2 0.45            117            254 212 
 HEL  HZ EP   9   1141  0.28                             116    1.95 0  276 256 
 HEL  HE ES       1141 32.03                             115   -0.15 7  276 256 
 HEL  HZ I        1141 36.57         8.8 0.38            114            276 256 
 URE  HZ EP       1140 58.58                             114   -0.64 7  288 292 
 URE  HE ES   4   1141 29.10                             114   -2.71 0  288 292 
 URE  HZ I        1141 36.30        15.5 0.16            113            288 292 
 SOCV BZ EP       1140 59.32                             113   -1.11 7  298  56 
 SOCV BN ES   4   1141 30.66                             113   -3.30 0  298  56 
 GUY2CHZ EP   4   1141  4.15                             113    2.53 0  304 235 
 GUY2CHN ES   2   1141 36.57                             113    0.49 4  304 235 
 GUY2CHZ I        1141 45.02        12.3 0.30                           304 235 
 CBOC HZ EP       1141  5.43                             111    0.45 7  337 252 
 CBOC HE ES   4   1141 39.64                             111   -2.43 0  337 252 
 CBOC HZ I        1141 53.28         4.0 0.60            110            337 252 
 ANIL HN ES   4   1141 48.92                             109    1.99 0  360 225 
 ANIL HZ I        1141 51.92        29.1 0.24            109            360 225 
 PRA  HZ EP   2   1141 11.21                             107   -0.09 3  393 210 
 PRA  HN ES   2   1141 53.53                             107    0.22 3  393 210 
 PRA  HZ I        1142  1.11        11.1 0.28            107            393 210 
 ORTC HZ EP   2   1141 12.77                             107    1.02 3  397 217 
 ORTC HN ES   2   1141 55.11                             107    1.00 3  397 217 
 ORTC HZ I        1141 59.43         6.7 0.34            107            397 217 
                                                                                
