 2011  616 1109 27.7 L   6.780 -73.127144.7  RSN 13 0.4 2.3LRSN                1
 GAP=140        0.90       3.9     6.0  6.0 -0.1366E+02  0.1064E+02  0.6729E+00E
 Epicentro: LOS SANTOS - SANTANDER                                             3
 ACTION:UP  11-07-14 19:05 OP:ep   STATUS:               ID:20110616110927 L   I
 2011-06-16-1105-54S.COL___138                                                 6
 STAT SP IPHASW D HRMM SECON CODA AMPLIT PERI AZIMU VELO SNR AR TRES W  DIS CAZ7
 BAR2 SZ EP       11 9 47.31                             171     0.110   22 196 
 BAR2 SZ ES   1   1110  2.00                             171    -0.4 7   22 196 
 BAR2 SZ I        1110  5.03        80.3 0.26                            22 196 
 GIR2 SZ EP       11 9 47.44                             166     0.110   34 347 
 BRR  HZ EP   1   11 9 49.01                             151     0.1 7   74 299 
 BRR  HN ES   1   1110  6.36                             151     0.9 7   74 299 
 BRR  HZ I        1110 10.47        54.8 0.13                            74 299 
 PAM  SZ EP       11 9 50.05                             150     0.210   78  37 
 PAM  SN ES   1   1110  7.33                             150     0.2 7   78  37 
 PAM  SZ I        1110  9.52        15.0 0.18                            78  37 
 RUS  HZ EP       11 9 51.11                             144    -0.110   98 177 
 RUS  HN ES   1   1110  9.51                             144     0.0 7   98 177 
 RUS  HZ I        1110 11.19        21.3 0.21                            98 177 
 BRI  SZ EP       11 9 51.85                             141     0.210  110  19 
 BRI  SZ ES   1   1110  9.98                             141    -0.3 7  110  19 
 BRI  SZ I        1110 12.66        27.2 0.22                           110  19 
 GRA  SZ EP       11 9 53.08                             136     0.110  127  16 
 GRA  SZ ES       1110 12.29                             136    -0.410  127  16 
 GRA  SZ I        1110 13.94        35.8 0.31                           127  16 
 OCA  SZ EP   1   11 9 55.95                             129    -0.2 7  163 353 
 NOR  SZ EP       1110  2.91                             118    -0.5 8  235 235 
 NOR  SN ES   1   1110 30.61                             118    -0.7 6  235 235 
 RREF HZ EP   1   1110 14.41                             111     0.6 5  322 230 
 RREF HN ES   1   1110 49.90                             111     0.1 5  322 230 
 RREF HZ I        1110 58.83        20.7 0.36                           322 230 
 DBB  SZ EP   1   1110 14.86                             109    -0.6 5  342 275 
 TOL  SZ EP   1   1110 16.84                             109     0.9 5  343 225 
 PRA  HN ES   1   1111  3.14                             106     0.4 4  391 210 
                                                                                
