 2016 1116 1025 30.4 L   6.771 -73.164148.3  RSN  7 0.4 1.9LRSN                1
 GAP=147        0.85       5.6     4.0  6.0 -0.2604E+01  0.5892E+01  0.2928E+01E
 Epicentro: LOS SANTOS - SANTANDER                                             3
 ACTION:UPD 17-10-26 21:08 OP:lp   STATUS:               ID:20161116102530 L   I
 OLDACT:DUP 16-11-16 21:05 OP:ar   STATUS:               ID:20161116101748d    3
 OLDACT:UP  16-11-16 21:04 OP:ar   STATUS:               ID:20161116101747     3
 OLDACT:REG 16-11-16 20:23 OP:ar   STATUS:               ID:20161116101747     3
 2016-11-16-1018-00M.COL___326                                                 6
 STAT SP IPHASW D HRMM SECON CODA AMPLIT PERI AZIMU VELO AIN AR TRES W  DIS CAZ7
 BAR2 EZ EP       1025 50.35                             172    0.1210 19.8 186 
 BAR2 EZ ES       1026  5.38                             172   -0.3510 19.8 186 
 BAR2 EZ I        1026  6.39        29.3 0.28            169           19.8 186 
 BRR  HZ IP     C 1025 52.11                             153    0.3310 71.1 302 
 BRR  HN ES       1026  9.18                             153    0.7010 71.1 302 
 BRR  HZ I        1026  9.83        16.2 0.10            150           71.1 302 
 PAM  EZ EP       1025 53.18                             150    0.1110 81.2  39 
 PAM  EN ES       1026 10.50                             150   -0.2910 81.2  39 
 PAM  EZ I        1026 12.37        17.4 0.50            155           81.2  39 
 PTB  HZ EP       1025 57.16                             133   -0.15 9  145 260 
 PTB  HN ES       1026 18.00                             133   -0.33 9  145 260 
 PTB  HZ I        1026 25.32         6.8 0.50            131            145 260 
 ZAR  HZ EP       1026  2.53                             123   -0.39 9  203 293 
 ZAR  HN ES       1026 28.20                             123   -0.11 9  203 293 
 ZAR  HZ I        1026 34.96         8.1 0.42            122            203 293 
 NOR  HE ES   4   1026 36.60                             119    3.04 0  231 235 
 NOR  HZ I        1026 40.25         3.2 0.24            119            231 235 
 CHI  HZ EP   2   1026  8.07                             118    0.26 4  245 195 
 CHI  HN ES   2   1026 37.81                             118    0.80 4  245 195 
 URE  HZ EP   4   1026 13.78                             114    2.29 0  283 293 
                                                                                
