 2013 1216 1519 43.5 L   6.775 -73.149138.0  RSN 10 0.4 2.0LRSN                1
 GAP=137        0.99       3.7     4.0  6.3  0.7789E-01  0.6281E+01  0.5671E+01E
 Epicentro: LOS SANTOS - SANTANDER                                             3
 ACTION:UPD 14-01-13 10:18 OP:ep   STATUS:               ID:20131216151943 L   I
 OLDACT:REG 13-12-16 17:45 OP:nd   STATUS:               ID:20131216151748     3
 2013-12-16-1517-48M.COL___244                                                 6
 STAT SP IPHASW D HRMM SECON CODA AMPLIT PERI AZIMU VELO AIN AR TRES W  DIS CAZ7
 BAR2 SZ IP     D 1520  2.19                             171    0.1010 20.5 190 
 BAR2 SZ ES       1520 16.81                             171    0.1810 20.5 190 
 BAR2 SZ I        1520 18.34        57.5 0.16            168           20.5 190 
 BRR  HZ EP       1520  3.91                             151    0.0810 72.2 301 
 BRR  HN ES       1520 20.36                             151    0.6410 72.2 301 
 BRR  HZ I        1520 25.08        23.1 0.32            148           72.2 301 
 PAM  SZ EP       1520  5.07                             149    0.0710 79.8  38 
 PAM  SN ES       1520 21.48                             149   -0.3310 79.8  38 
 PAM  SZ I        1520 24.46        18.5 0.70            153           79.8  38 
 RUS  HZ EP       1520  6.24                             143   -0.0010 97.8 176 
 RUS  HN ES       1520 23.70                             143   -0.3210 97.8 176 
 RUS  HZ I        1520 26.34         8.0 0.24            144           97.8 176 
 PTB  HZ EP       1520  9.11                             130   -0.60 9  147 260 
 PTB  HN ES       1520 29.28                             130   -0.91 9  147 260 
 PTB  HZ I        1520 32.57        17.8 0.20            129            147 260 
 ZAR  HZ EP   2   1520 15.61                             120    0.13 4  205 293 
 ZAR  HN ES       1520 40.82                             120    0.37 9  205 293 
 ZAR  HZ I        1520 49.66        10.7 0.26            120            205 293 
 NOR  HZ EP   2   1520 18.47                             117   -0.06 4  233 235 
 NOR  HN ES       1520 46.08                             117    0.19 8  233 235 
 NOR  HZ I        1520 51.92        10.5 0.20            117            233 235 
 CHI  HZ EP       1520 20.64                             116    0.22 8  246 195 
 CHI  HN ES       1520 49.85                             116    0.59 8  246 195 
 CHI  HZ I        1520 55.81         4.0 0.28            117            246 195 
 GUY2CHZ EP   4   1520 28.73                             111    2.24 0  299 235 
 GUY2CHN ES   4   1521  1.59                             111    1.53 0  299 235 
 GUY2CHZ I        1521  9.66         4.5 0.44                           299 235 
 RREF HZ EP   4   1520 30.34                             109    1.32 0  320 230 
 RREF HN ES   4   1521  6.44                             109    1.87 0  320 230 
 RREF HZ I        1521 12.65         4.7 0.74            110            320 230 
                                                                                
