 2017  616 1454 54.4 L   6.131 -73.388172.0  RSN  4 0.3 1.9LRSN                1
 GAP=268        0.56       5.0     6.4  7.6 -0.1776E+02 -0.2071E+02  0.1472E+02E
 Epicentro: SUAITA - SANTANDER                                                 3
 ACTION:UPD 17-09-14 16:52 OP:jn   STATUS:               ID:20170616145454 L   I
 OLDACT:REG 17-06-16 20:07 OP:dln  STATUS:               ID:20170616144735     3
 2017-06-16-1448-00M.COL___353                                                 6
 STAT SP IPHASW D HRMM SECON CODA AMPLIT PERI AZIMU VELO AIN AR TRES W  DIS CAZ7
 BRR  HZ EP       1455 21.11                             145    0.1510  114 342 
 BRR  HE ES       1455 41.67                             145   -0.0310  114 342 
 BRR  HZ I        1455 42.75        20.6 0.40            139            114 342 
 PTB  HZ EP       1455 21.57                             142   -0.3510  127 291 
 PTB  HE ES       1455 43.50                             142    0.1010  127 291 
 PTB  HZ I        1455 47.35         4.1 0.10            134            127 291 
 NOR  HZ EP   2   1455 26.92                             132    0.86 5  176 249 
 NOR  HN ES       1455 50.73                             132   -0.05 9  176 249 
 NOR  HZ I        1455 57.27         6.7 0.50            127            176 249 
 ZAR  HZ EP   2   1455 30.11                             125   -0.26 4  222 313 
 ZAR  HN ES       1455 58.50                             125    0.05 8  222 313 
 ZAR  HZ I        1456  6.28         6.4 0.68            121            222 313 
                                                                                
