 2011 1016 1418 55.9 L   6.798 -73.137146.3  RSN  4 0.3 1.2LRSN                1
 GAP=138        0.61       4.5     6.5  8.1 -0.5824E+00 -0.3203E+01  0.5590E+01E
 Epicentro: LOS SANTOS - SANTANDER                                             3
 ACTION:UPD 12-07-13 16:04 OP:ep   STATUS:               ID:20111016141855 L   I
 2011-10-16-1415-55S.COL___167                                                 6
 STAT SP IPHASW D HRMM SECON CODA AMPLIT PERI AZIMU VELO AIN AR TRES W  DIS CAZ7
 BAR2 SZ EP   2   1419 15.63                             171    0.00 5 23.3 192 
 BAR2 SZ I        1419 31.41         6.7 0.21                          23.3 192 
 BRR  HZ EP   1   1419 16.65                             152   -0.54 7 72.1 298 
 BRR  HN ES   1   1419 34.08                             152    0.31 7 72.1 298 
 PAM  SZ EP   1   1419 18.44                             151    0.26 7 76.9  39 
 PAM  SN ES   1   1419 35.38                             151   -0.15 7 76.9  39 
 PAM  SZ I        1419 37.64         1.7 0.43                          76.9  39 
 RUS  HZ EP   1   1419 20.00                             144    0.28 7  100 177 
 RUS  HN ES   1   1419 38.11                             144   -0.16 7  100 177 
 RUS  HZ I        1419 40.40         2.5 0.27                           100 177 
                                                                                
