 2015  116 1848 53.2 L   6.791 -73.167147.4  RSN  9 0.4 2.0LRSN                1
 GAP=144        1.02       3.4     4.6  6.9 -0.2340E+01  0.3333E+01  0.4832E+01E
 Epicentro: LOS SANTOS - SANTANDER                                             3
 ACTION:UPD 15-03-02 15:40 OP:nd   STATUS:               ID:20150116184853 L   I
 OLDACT:UP  15-01-17 01:02 OP:mh   STATUS:               ID:20150116184748     3
 OLDACT:REG 15-01-16 23:35 OP:mh   STATUS:               ID:20150116184748     3
 2015-01-16-1847-48M.COL___265                                                 6
 STAT SP IPHASW D HRMM SECON CODA AMPLIT PERI AZIMU VELO AIN AR TRES W  DIS CAZ7
 BAR2 EZ EP       1849 13.46                             171    0.4210 22.0 184 
 BAR2 EZ ES   1   1849 28.31                             171   -0.18 7 22.0 184 
 BAR2 EZ I        1849 29.57        22.6 0.30            173           22.0 184 
 BRR  HZ EP       1849 15.32                             153    0.8410 69.6 300 
 BRR  HN ES       1849 31.47                             153    0.4310 69.6 300 
 BRR  HZ I        1849 36.31        17.4 0.32            150           69.6 300 
 PAM  SZ EP       1849 15.73                             150   -0.0410 79.7  40 
 PAM  SN ES   1   1849 32.49                             150   -0.85 7 79.7  40 
 PAM  SZ I        1849 35.81        10.8 0.60            152           79.7  40 
 PTB  HZ EP   1   1849 20.02                             133   -0.09 7  145 259 
 PTB  HN ES       1849 40.67                             133   -0.41 9  145 259 
 PTB  HZ I        1849 48.05        10.2 0.24            133            145 259 
 OCA  HN ES       1849 43.87                             130   -0.11 9  161 354 
 OCA  HZ I        1849 53.41         8.6 0.12            130            161 354 
 ZAR  HZ EP   1   1849 25.81                             123    0.20 6  202 293 
 ZAR  HN ES       1849 51.01                             123    0.16 9  202 293 
 ZAR  HZ I        1849 56.96        12.0 0.50            123            202 293 
 NOR  HZ EP       1849 28.25                             119   -0.55 8  232 234 
 NOR  HN ES       1849 56.08                             119   -0.45 8  232 234 
 NOR  HZ I        1850  0.20         4.4 0.22            121            232 234 
 SML  HZ EP   1   1849 29.96                             118    0.01 6  244 336 
 SML  HN ES       1849 58.29                             118   -0.29 8  244 336 
 SML  HZ I        1850  5.87        12.2 0.26            118            244 336 
 CHI  HZ EP       1849 30.44                             118   -0.42 8  247 195 
 CHI  HN ES       1850  0.73                             118    0.53 8  247 195 
 CHI  HZ I        1850  3.18         6.4 0.32            120            247 195 
                                                                                
