 2016 1216 1020 31.5 L   6.751 -73.178132.0  RSN  4 0.3 0.9LRSN                1
 GAP=138        0.77       4.4     4.3  6.5 -0.5941E+01  0.8257E+01 -0.3203E+01E
 Epicentro: LOS SANTOS - SANTANDER                                             3
 ACTION:UPD 17-01-11 20:15 OP:rebc STATUS:               ID:20161216102031 L   I
 OLDACT:DUP 16-12-16 23:51 OP:edw  STATUS:               ID:20161216101745d    3
 OLDACT:UP  16-12-16 23:45 OP:edw  STATUS:               ID:20161216101744     3
 OLDACT:REG 16-12-16 21:24 OP:ar   STATUS:               ID:20161216101744     3
 2016-12-16-1018-00M.COL___363                                                 6
 STAT SP IPHASW D HRMM SECON CODA AMPLIT PERI AZIMU VELO AIN AR TRES W  DIS CAZ7
 BAR2 EZ EP       1020 49.70                             172    0.3410 17.5 182 
 BAR2 EZ ES       1021  3.55                             172    0.2610 17.5 182 
 BAR2 EZ I        1021  6.46         1.8 0.21            167           17.5 182 
 PAM  EZ EP       1020 53.06                             146    0.3710 83.8  39 
 PAM  EN ES       1021  8.80                             146   -0.4310 83.8  39 
 RUS  HZ EP       1020 53.42                             142   -0.1110 95.5 174 
 RUS  HN ES       1021 10.54                             142   -0.1810 95.5 174 
 RUS  HZ I        1021 16.61         1.8 0.24            141           95.5 174 
 PTB  HZ EP       1020 56.62                             130   -0.34 9  143 261 
 PTB  HE ES       1021 16.87                             130    0.05 9  143 261 
                                                                                
