 2014 1016 1614 41.8 L   6.779 -73.170141.5  RSN  6 0.5 1.8LRSN                1
 GAP=134        1.04       4.9     5.4  8.8 -0.2836E+01  0.1133E+02 -0.5260E+01E
 Epicentro: LOS SANTOS - SANTANDER                                             3
 ACTION:UPD 14-11-29 23:50 OP:nd   STATUS:               ID:20141016161441 L   I
 OLDACT:REG 14-10-16 21:00 OP:fm   STATUS:               ID:20141016160750     3
 2014-10-16-1607-50M.COL___292                                                 6
 STAT SP IPHASW D HRMM SECON CODA AMPLIT PERI AZIMU VELO AIN AR TRES W  DIS CAZ7
 BAR2 SZ EP       1615  1.18                             171    0.2910 20.7 184 
 BAR2 SZ ES   1   1615 15.88                             171    0.13 7 20.7 184 
 BAR2 SZ I        1615 17.19        23.2 0.18            173           20.7 184 
 BRR  HZ EP   1   1615  3.04                             152    0.60 7 70.0 301 
 BRR  HN ES   1   1615 19.32                             152    0.80 7 70.0 301 
 BRR  HZ I        1615 29.38        11.8 0.46            152           70.0 301 
 PAM  SZ EP       1615  4.19                             149    0.3910 80.8  40 
 PAM  SN ES       1615 20.40                             149   -0.5410 80.8  40 
 PAM  SZ I        1615 23.91         6.1 0.26            154           80.8  40 
 RUS  HZ EP   1   1615  5.29                             143    0.28 7 98.5 174 
 RUS  HE ES       1615 22.63                             143   -0.4610 98.5 174 
 RUS  HZ I        1615 24.35         4.0 0.24            151           98.5 174 
 PTB  HZ EP       1615  7.83                             131   -0.33 9  145 260 
 PTB  HN ES       1615 28.48                             131   -0.23 9  145 260 
 PTB  HZ I        1615 31.68         7.4 0.14            135            145 260 
 SML  HE ES   1   1615 46.16                             116   -0.62 6  245 336 
 SML  HZ I        1615 47.15        11.8 0.20            120            245 336 
                                                                                
