 2010 1116 1537 25.5 L   6.769 -73.129148.0  RSN 16 0.5 4.0LRSN                1
 GAP=161        1.24       4.0     6.5  6.6 -0.9235E+01  0.7688E+01  0.6243E+01E
 Epicentro: LOS SANTOS - SANTANDER                                             3
 ACTION:UP  10-12-17 16:53 OP:REBC STATUS:               ID:20101116153725 L   I
 2010-11-16-1534-56S.COL___129                                                 6
 STAT SP IPHASW D HRMM SECON CODA AMPLIT PERI AZIMU VELO SNR AR TRES W  DIS CAZ7
 BAR2 SZ IP       1537 45.25                             172    -0.110   20 197 
 BAR2 SZ ES   1   1538  0.59                             172    -0.2 7   20 197 
 BAR2 SZ I        1538  2.15      1554.8 0.26                            20 197 
 GIR2 SZ EP   1   1537 45.35                             166    -0.2 7   35 348 
 GIR2 SZ ES   1   1538  0.55                             166    -0.6 7   35 348 
 BRR  HZ IP     C 1537 47.17                             152     0.110   75 300 
 BRR  HZ I        1537 47.50      1798.2 0.19                            75 300 
 BRR  HE ES       1538  4.73                             152     0.810   75 300 
 RUS  HZ IP     D 1537 49.05                             145    -0.210   97 177 
 RUS  HN ES   1   1538  7.90                             145     0.2 7   97 177 
 RUS  HZ I        1538  9.19       536.0 0.30                            97 177 
 GUE  SZ EP       1537 50.35                             139    -0.310  120  11 
 GRA  SZ EP       1537 52.06                             137     0.910  129  16 
 GRA  SZ ES   1   1538 11.71                             137     0.5 7  129  16 
 GRA  SZ I        1538 14.68      1391.7 0.29                           129  16 
 OCA  SZ EP       1537 53.62                             130    -0.7 9  164 353 
 OCA  SZ ES   1   1538 16.37                             130    -0.4 7  164 353 
 OCA  SZ I        1538 20.66      2274.5 0.33                           164 353 
 NOR  SZ EP       1538  0.95                             119    -0.4 8  234 236 
 NOR  SN ES   1   1538 28.39                             119    -0.9 6  234 236 
 CHI  HZ EP       1538  2.90                             118    -0.1 8  246 196 
 CHI  HZ I        1538  5.98       421.9 0.34                           246 196 
 CHI  HN ES   1   1538 32.07                             118    -0.2 6  246 196 
 HEL  HZ EP   1   1538  5.83                             115    -0.1 6  273 257 
 HEL  HE ES   1   1538 36.82                             115    -0.7 6  273 257 
 HEL  HZ I        1538 45.00       574.9 0.38                           273 257 
 VIL  SZ EP   1   1538  7.98                             113    -0.5 5  299 190 
 VIL  SN ES   1   1538 42.14                             113     0.1 5  299 190 
 VIL  SZ I        1538 50.59       221.4 0.42                           299 190 
 RREF HZ IP     D 1538 12.30                             111     0.7 7  321 230 
 RREF HE ES   1   1538 47.56                             111    -0.1 5  321 230 
 RREF HZ I        1538 57.54       510.8 0.43                           321 230 
 DBB  SZ I        1538 51.66        91.3 0.16                           342 275 
 TOL  SZ EP       1538 14.61                             110     0.9 7  342 225 
 DBB  SZ IP       1538 12.98                             110    -0.3 7  342 275 
 ANIL HZ EP   1   1538 15.85                             109     0.6 5  356 225 
 ANIL HE ES   1   1538 55.03                             109     1.0 5  356 225 
 ANIL HZ I        1539  1.07      1021.5 0.40                           356 225 
 PRA  HZ EP       1538 18.35                             107    -0.5 6  390 210 
 PRA  HZ I        1538 20.96      1360.0 0.18                           390 210 
 PRA  HN ES   1   1539  1.34                             107     0.9 4  390 210 
                                                                                
