 2014 1116 1314 31.4 L   6.820 -73.182141.2  RSN 19 0.5 2.4LRSN                1
 GAP=131        1.05       2.8     4.2  4.9 -0.2431E+01  0.7385E+01  0.1250E+01E
 Epicentro: ZAPATOCA - SANTANDER                                               3
 ACTION:UPD 14-12-19 15:43 OP:nd   STATUS:               ID:20141116131431 L   I
 OLDACT:UP  14-11-16 21:13 OP:cam  STATUS:               ID:20141116130817     3
 OLDACT:UP  14-11-16 21:13 OP:cam  STATUS:               ID:20141116130817     3
 OLDACT:REG 14-11-16 20:28 OP:cam  STATUS:               ID:20141116130817     3
 2014-11-16-1308-17M.COL___282                                                 6
 STAT SP IPHASW D HRMM SECON CODA AMPLIT PERI AZIMU VELO AIN AR TRES W  DIS CAZ7
 BAR2 SZ EP     D 1314 50.64                             169    0.0810 25.2 180 
 BAR2 SZ ES       1315  5.10                             169   -0.3710 25.2 180 
 BAR2 SZ I        1315  6.75        87.2 0.20            166           25.2 180 
 BRR  HZ EP       1314 52.60                             153    0.7610 66.6 298 
 BRR  HN ES       1315  8.38                             153    0.6310 66.6 298 
 BRR  HZ I        1315 13.97        45.2 0.14            150           66.6 298 
 PAM  SZ EP     D 1314 53.54                             149    0.3210 78.3  43 
 PAM  SN ES       1315 10.47                             149    0.2510 78.3  43 
 PAM  SZ I        1315 12.80        46.0 0.56            157           78.3  43 
 RUS  HZ EP     C 1314 54.58                             142   -0.3510  103 174 
 RUS  HE ES       1315 12.67                             142   -0.5910  103 174 
 RUS  HZ I        1315 14.29        30.4 0.26            144            103 174 
 PTB  HZ EP       1314 57.14                             132   -0.58 9  144 258 
 PTB  HN ES       1315 17.33                             132   -0.89 9  144 258 
 PTB  HZ I        1315 23.92        28.2 0.28            130            144 258 
 OCA  HZ EP       1314 59.04                             129   -0.10 9  158 354 
 OCA  HN ES       1315 20.44                             129   -0.31 9  158 354 
 OCA  HZ I        1315 24.28        31.4 0.30            132            158 354 
 SPBC HZ EP       1314 59.62                             128    0.10 9  162 217 
 SPBC HN ES       1315 21.84                             128    0.41 9  162 217 
 SPBC HZ I        1315 25.32        34.6 0.26            128            162 217 
 NOR  HZ EP       1315  6.72                             118    0.02 8  233 233 
 NOR  HN ES       1315 34.70                             118    0.49 8  233 233 
 NOR  HZ I        1315 38.66        19.3 0.18            118            233 233 
 CHI  HZ EP       1315  8.97                             116   -0.05 8  250 194 
 CHI  HN ES       1315 38.60                             116    0.28 8  250 194 
 CHI  HZ I        1315 48.77         6.4 0.20            118            250 194 
 HEL  HZ EP       1315 11.63                             114    0.57 8  269 255 
 HEL  HN ES   4   1315 39.89                             114   -2.07 0  269 255 
 HEL  HZ I        1315 49.65        16.7 0.56            115            269 255 
 PTGC HZ EP   4   1315 13.79                             110   -1.71 0  312 158 
 CBOC HZ EP       1315 18.51                             109    0.70 7  331 252 
 CBOC HN ES   4   1315 54.65                             109    0.66 0  331 252 
 CBOC HZ I        1316  9.31         4.4 0.56            110            331 252 
 DBB  SZ EP       1315 18.49                             109    0.23 7  335 274 
 DBB  SZ ES   4   1315 50.86                             109   -3.92 0  335 274 
 DBB  SZ I        1315 59.06        32.5 0.70            110            335 274 
 TOL  SZ EP   4   1315 20.65                             108    1.27 0  342 224 
 TOL  SE ES       1315 56.37                             108   -0.40 7  342 224 
 TOL  SZ I        1316 10.93        19.0 0.46            110            342 224 
 MON  HZ EP   4   1315 18.18                             108   -1.56 0  349 308 
 MON  HN ES       1315 56.85                             108   -0.57 6  349 308 
 MON  HZ I        1315 57.83         7.1 0.20            109            349 308 
 ANIL HZ EP       1315 20.84                             108   -0.10 6  356 224 
 SDV  BZ EP   4   1315 20.22                             107   -1.28 0  362  51 
 PRA  HZ EP       1315 24.51                             106   -0.30 6  392 209 
 PRA  HN ES       1316  6.62                             106    0.19 6  392 209 
 PRA  HZ I        1316 11.77        11.0 0.24            107            392 209 
 ORTC HZ EP       1315 24.93                             105   -0.22 6  395 216 
 PAL  HZ EP       1315 26.51                             105    0.32 6  403 239 
 SJC  HZ EP       1315 25.50                             105   -0.88 6  405 327 
                                                                                
