 2017  516 1643 34.5 L   6.740 -73.079146.0  RSN  9 0.4 2.4LRSN                1
 GAP=120        0.96       3.6     3.7  7.4  0.2340E+01  0.6393E+01  0.1115E+02E
 Epicentro: JORDAN - SANTANDER                                                 3
 ACTION:UPD 17-06-16 13:36 OP:jn   STATUS:               ID:20170516164334 L   I
 OLDACT:REG 17-05-16 20:32 OP:lv   STATUS:               ID:20170516163230     3
 2017-05-16-1638-00M.COL___359                                                 6
 STAT SP IPHASW D HRMM SECON CODA AMPLIT PERI AZIMU VELO AIN AR TRES W  DIS CAZ7
 PAM  EZ EP       1643 57.24                             150    0.4310 78.4  32 
 PAM  EN ES       1644 14.47                             150    0.2610 78.4  32 
 BRR  HZ EP       1643 56.29                             149    0.0410 80.8 300 
 BRR  HN ES       1644 13.24                             149    0.0310 80.8 300 
 BRR  HZ I        1644 14.88        50.9 0.06            151           80.8 300 
 PTB  HZ EP       1644  1.42                             131   -0.63 9  154 262 
 PTB  HN ES   4   1644 22.13                             131   -1.41 0  154 262 
 PTB  HZ I        1644 24.57        24.8 0.26            132            154 262 
 SPBC HZ EP       1644  3.49                             129    0.49 9  163 222 
 SPBC HN ES       1644 25.39                             129    0.16 9  163 222 
 SPBC HZ I        1644 28.08        35.8 0.13            130            163 222 
 YPLC HZ EP   4   1644  4.88                             128    1.46 0  168 152 
 YPLC HN ES       1644 25.29                             128   -0.68 9  168 152 
 YPLC HZ I        1644 30.65        13.1 0.29            129            168 152 
 ZAR  HZ EP       1644  7.32                             121   -0.61 8  213 293 
 ZAR  HN ES       1644 33.72                             121   -0.29 8  213 293 
 ZAR  HZ I        1644 38.27        35.9 0.29            123            213 293 
 NOR  HZ EP       1644 10.85                             118    0.35 8  237 237 
 NOR  HN ES       1644 38.52                             118   -0.05 8  237 237 
 NOR  HZ I        1644 40.21        16.0 0.07            119            237 237 
 PTGC HZ EP       1644 17.67                             112    0.29 7  300 160 
 PTGC HE ES       1644 50.53                             112   -0.29 7  300 160 
 ORTC HZ EP   4   1644 30.48                             106    2.15 0  395 218 
 ORTC HN ES       1645 11.05                             106    0.74 6  395 218 
 ORTC HZ I        1645 17.81         6.3 0.52            107            395 218 
                                                                                
