 2011  516 1435 24.1 L   6.772 -73.116139.9  RSN  6 0.3 1.5LRSN                1
 GAP=142        0.62       3.9     7.7  6.8 -0.8571E+01  0.7119E+00 -0.6459E+01E
 Epicentro: LOS SANTOS - SANTANDER                                             3
 ACTION:UP  11-06-29 08:53 OP:tino STATUS:               ID:20110516143524 L   I
 2011-05-16-1433-05S.COL___141                                                 6
 STAT SP IPHASW D HRMM SECON CODA AMPLIT PERI AZIMU VELO SNR AR TRES W  DIS CAZ7
 BAR2 SZ EP   1   1435 42.60                             171    -0.3 7   21 200 
 BAR2 SZ ES   1   1435 57.50                             171    -0.2 7   21 200 
 BAR2 SZ I        1436  0.06         6.9 0.11                            21 200 
 BTL  SZ IP       1435 43.29                             170     0.310   23 314 
 BRR  HZ EP   1   1435 44.83                             150     0.0 7   76 299 
 BRR  HN ES   2   1436  1.05                             150     0.0 5   76 299 
 BRR  HZ I        1436 13.89        21.2 0.40                            76 299 
 PAM  SZ EP   1   1435 46.11                             149     0.4 7   78  36 
 PAM  SE ES   2   1436  2.54                             149     0.0 5   78  36 
 RUS  HZ EP   2   1435 46.88                             143    -0.1 5   97 178 
 RUS  HN ES   1   1436  4.93                             143     0.0 7   97 178 
 RUS  HZ I        1436  6.68         2.7 0.21                            97 178 
 GRA  SZ EP   1   1435 48.50                             135    -0.5 7  128  16 
 GRA  SZ ES   1   1436  8.34                             135     0.0 7  128  16 
 GRA  SZ I        1436  9.26         4.7 0.31                           128  16 
                                                                                
