 2014  316 1207 53.9 L   6.897 -73.298112.4  RSN  4 0.4 1.5LRSN                1
 GAP=169        0.96       4.1     6.9 16.6  0.1096E+02  0.2888E+02 -0.1227E+02E
 Epicentro: BETULIA - SANTANDER                                                3
 ACTION:UPD 14-04-09 23:17 OP:nd   STATUS:               ID:20140316120753 L   I
 OLDACT:REG 14-03-16 15:44 OP:mh   STATUS:               ID:20140316115816     3
 2014-03-16-1158-16M.COL___242                                                 6
 STAT SP IPHASW D HRMM SECON CODA AMPLIT PERI AZIMU VELO AIN AR TRES W  DIS CAZ7
 RUS  HZ EP       12 8 16.27                             131    0.6010  114 168 
 RUS  HN ES       12 8 32.20                             131   -0.4710  114 168 
 RUS  HZ I        12 8 36.21         1.0 0.30            135            114 168 
 OCA  HN ES       12 8 37.98                             122    0.09 9  148 359 
 OCA  HZ I        12 8 40.00         5.0 0.22            126            148 359 
 ZAR  HZ EP   2   12 8 22.18                             116   -0.05 4  184 291 
 ZAR  HN ES       12 8 44.47                             116    0.12 9  184 291 
 SML  HZ EP   1   12 8 26.20                             110   -0.78 6  227 338 
 SML  HN ES   4   12 8 50.85                             110   -1.96 0  227 338 
 SML  HZ I        12 8 56.15        15.1 0.92            114            227 338 
                                                                                
