 2014  716 1341 30.9 L   6.841 -73.160140.8  RSN  5 0.2 1.8LRSN                1
 GAP=244        0.62       4.2     3.8  5.6  0.6459E+01  0.3365E+01 -0.7269E+01E
 Epicentro: LOS SANTOS - SANTANDER                                             3
 ACTION:UPD 15-03-16 20:44 OP:nd   STATUS:               ID:20140716134130 L   I
 OLDACT:REG 14-07-16 21:15 OP:stll STATUS:               ID:20140716133819     3
 2014-07-16-1338-19M.COL___253                                                 6
 STAT SP IPHASW D HRMM SECON CODA AMPLIT PERI AZIMU VELO AIN AR TRES W  DIS CAZ7
 BAR2 SZ EP       1341 50.20                             168    0.1310 27.6 185 
 BAR2 SZ ES       1342  4.79                             168   -0.2010 27.6 185 
 BAR2 SZ I        1342  6.77        12.7 0.18            168           27.6 185 
 RUS  HZ EP       1341 54.48                             141   -0.0710  105 175 
 RUS  HN ES       1342 13.19                             141    0.2310  105 175 
 RUS  HZ I        1342 13.78         7.6 0.28            145            105 175 
 PTB  HZ EP       1341 57.05                             131   -0.41 9  147 257 
 PTB  HN ES       1342 17.89                             131   -0.24 9  147 257 
 PTB  HZ I        1342 24.22         6.1 0.18            131            147 257 
 SPBC HN ES       1342 21.59                             127    0.15 9  166 218 
 SPBC HZ I        1342 23.58        12.8 0.28            129            166 218 
 ZAR  HZ EP       1342  2.87                             122    0.12 9  201 291 
 ZAR  HN ES       1342 27.92                             122    0.37 9  201 291 
 ZAR  HZ I        1342 33.35         5.6 0.48            122            201 291 
                                                                                
