 2016 1216 1334 23.4 L   6.786 -73.172142.2  RSN  6 0.0 1.4LRSN                1
 GAP=141        0.27       1.6     1.7  3.0 -0.8966E+00  0.6662E+00  0.6791E+00E
 Epicentro: LOS SANTOS - SANTANDER                                             3
 ACTION:UPD 17-01-11 20:15 OP:rebc STATUS:               ID:20161216133423 L   I
 OLDACT:UP  16-12-17 01:39 OP:edw  STATUS:               ID:20161216132744     3
 OLDACT:UP  16-12-17 01:38 OP:edw  STATUS:               ID:20161216132744     3
 OLDACT:UP  16-12-17 01:35 OP:edw  STATUS:               ID:20161216132744     3
 OLDACT:REG 16-12-16 22:14 OP:ar   STATUS:               ID:20161216132744     3
 2016-12-16-1328-00M.COL___360                                                 6
 STAT SP IPHASW D HRMM SECON CODA AMPLIT PERI AZIMU VELO AIN AR TRES W  DIS CAZ7
 PAM  EZ EP       1334 45.51                             149    0.0810 80.4  40 
 PAM  EN ES       1335  2.55                             149   -0.0610 80.4  40 
 RUS  HZ EP       1334 46.71                             143   -0.0110 99.3 174 
 RUS  HN ES       1335  4.91                             143    0.0110 99.3 174 
 RUS  HZ I        1335  8.30         3.5 0.24            143           99.3 174 
 PTB  HZ EP   4   1334 49.37                             132   -0.43 0  145 259 
 PTB  HN ES       1335 10.38                             132    0.00 9  145 259 
 PTB  HZ I        1335 13.91         3.1 0.14            130            145 259 
 ZAR  HN ES   4   1335 19.21                             122   -1.15 0  202 293 
 NOR  HZ EP   2   1334 58.51                             118   -0.07 4  231 234 
 NOR  HN ES   4   1335 28.17                             118    2.15 0  231 234 
 NOR  HZ I        1335 33.67         2.0 0.24            118            231 234 
 CHI  HZ EP   2   1335  0.61                             117   -0.06 4  246 195 
 CHI  HN ES   2   1335 29.71                             117   -0.02 4  246 195 
 GUY2CHZ EP   4   1335 11.88                             112    5.39 0  298 235 
 GUY2CHN ES   4   1335 45.01                             112    4.93 0  298 235 
 GUY2CHZ I        1335 51.14         1.5 0.34                           298 235 
                                                                                
