 2010  616 1225 13.6 L   6.778 -73.123138.6  RSN 13 0.4 3.1LRSN                1
 GAP=158        0.87       3.7     7.1  6.9 -0.1320E+02  0.7128E+01  0.4541E+01E
 Epicentro: LOS SANTOS - SANTANDER                                             3
 ACTION:UP  10-08-24 10:10 OP:vdl  STATUS:               ID:20100616122513 L   I
 2010-06-16-1222-10S.COL___114                                                 6
 STAT SP IPHASW D HRMM SECON CODA AMPLIT PERI AZIMU VELO SNR AR TRES W  DIS CAZ7
 BAR2 SZ IP     C 1225 32.19                             171    -0.110   22 198 
 BAR2 SZ ES   2   1225 46.78                             171    -0.1 5   22 198 
 GIR2 SZ IP     C 1225 32.29                             165    -0.210   34 347 
 GIR2 SZ ES   2   1225 47.21                             165     0.0 5   34 347 
 BRR  HZ IP     D 1225 34.12                             150     0.010   75 299 
 BRR  HE ES   2   1225 50.89                             150     0.7 5   75 299 
 BRR  HZ I        1225 52.60       483.0 0.06                            75 299 
 RUS  HZ EP   1   1225 36.19                             143    -0.2 7   98 177 
 RUS  HN ES   2   1225 54.01                             143    -0.3 5   98 177 
 RUS  HZ I        1225 55.40       247.2 0.23                            98 177 
 BRI  SZ IP     D 1225 37.91                             139     1.010  110  19 
 BRI  SZ ES   2   1225 55.09                             139     0.0 5  110  19 
 GUE  SZ EP   1   1225 37.23                             137    -0.6 7  118  11 
 GUE  SZ ES   2   1225 56.74                             137     0.1 5  118  11 
 GRA  SZ IP     D 1225 38.21                             135    -0.110  127  16 
 GRA  SZ ES   2   1225 58.01                             135     0.4 5  127  16 
 OCA  SZ EP   1   1225 40.86                             127    -0.7 7  163 352 
 OCA  SZ ES   2   1226  2.94                             127    -0.5 5  163 352 
 CHI  HZ EP   1   1225 50.42                             116    -0.3 6  247 196 
 CHI  HE ES   2   1226 19.27                             116    -0.4 4  247 196 
 CHI  HZ I        1226 22.85        74.0 0.41                           247 196 
 ROSC BZ EP   1   1225 52.08                             115     0.9 6  252 212 
 ROSC BN ES   2   1226 20.69                             115     0.1 4  252 212 
 ROSC BZ I        1226 30.32        79.1 0.50                           252 212 
 CVER SZ EP   1   1225 53.96                             113     0.5 6  271 203 
 CVER SZ ES   2   1226 24.38                             113    -0.1 4  271 203 
 HEL  HZ EP   1   1225 53.37                             113    -0.3 6  274 256 
 HEL  HN ES   2   1226 24.99                             113     0.1 4  274 256 
 HEL  HZ I        1226 31.76        74.3 0.46                           274 256 
 TOL  SZ EP   1   1226  1.46                             108    -0.1 5  344 225 
 TOL  SZ ES   2   1226 39.28                             108     0.3 3  344 225 
                                                                                
