 2017  716 1651 47.0 L   6.774 -73.133143.9  RSN  6 0.3 1.7LRSN                1
 GAP=139        0.75       4.0     3.8  6.4 -0.5137E+01  0.5366E+01 -0.1085E+01E
 Epicentro: LOS SANTOS - SANTANDER                                             3
 ACTION:UPD 17-08-30 15:33 OP:rebc STATUS:               ID:20170716165147 L   I
 OLDACT:UP  17-07-16 23:34 OP:lv   STATUS:               ID:20170716164252d    3
 OLDACT:DUP 17-07-16 23:14 OP:lv   STATUS:               ID:20170716164252d    3
 2017-07-16-1648-00M.COL___395                                                 6
 STAT SP IPHASW D HRMM SECON CODA AMPLIT PERI AZIMU VELO AIN AR TRES W  DIS CAZ7
 BAR2 HZ EP       1652  6.28                             171   -0.0310 20.8 195 
 BAR2 HZ ES       1652 21.62                             171    0.2110 20.8 195 
 BRR  HZ EP       1652  7.90                             151   -0.1610 73.9 300 
 BRR  HE ES       1652 24.76                             151    0.2410 73.9 300 
 BRR  HZ I        1652 29.08        10.2 0.10            150           73.9 300 
 PAM  HZ EP       1652  9.22                             150    0.1610 78.8  37 
 PAM  HN ES       1652 26.24                             150   -0.0610 78.8  37 
 PAM  HZ I        1652 28.90         7.1 0.44            151           78.8  37 
 RUS  HN ES       1652 28.29                             144   -0.2310 97.6 177 
 PTB  HN ES       1652 34.28                             131   -0.55 9  149 260 
 NOR  HN ES       1652 50.80                             118    0.54 8  234 235 
                                                                                
