 2016  516 1339 53.3 L   6.820 -73.120145.6  RSN  7 0.4 1.9LRSN                1
 GAP=246        0.93       4.9     5.0  6.3  0.5939E+01  0.9336E+01 -0.1074E+00E
 Epicentro: LOS SANTOS - SANTANDER                                             3
 ACTION:UPD 16-08-18 17:46 OP:cam  STATUS:               ID:20160516133953 L   I
 OLDACT:REG 16-05-16 19:32 OP:drio STATUS:               ID:20160516133747     3
 2016-05-16-1337-47M.COL___301                                                 6
 STAT SP IPHASW D HRMM SECON CODA AMPLIT PERI AZIMU VELO AIN AR TRES W  DIS CAZ7
 BAR2 EZ EP       1340 13.31                             169    0.3010 26.1 195 
 BAR2 EZ ES       1340 28.51                             169    0.1710 26.1 195 
 BAR2 EZ I        1340 29.60        20.4 0.16            164           26.1 195 
 RUS  HZ EP       1340 17.07                             143   -0.1510  103 178 
 RUS  HE ES       1340 35.79                             143   -0.0610  103 178 
 RUS  HZ I        1340 36.96         4.1 0.32            143            103 178 
 PTB  HZ EP       1340 20.15                             131   -0.43 9  151 258 
 PTB  HN ES       1340 41.18                             131   -0.65 9  151 258 
 PTB  HZ I        1340 45.74         7.8 0.20            129            151 258 
 SPBC HZ EP       1340 22.12                             128   -0.03 9  167 219 
 SPBC HE ES       1340 44.41                             128   -0.22 9  167 219 
 SPBC HZ I        1340 50.29        12.5 0.38            127            167 219 
 ZAR  HZ EP       1340 26.50                             122    0.54 8  206 291 
 ZAR  HN ES       1340 51.43                             122    0.03 8  206 291 
 ZAR  HZ I        1340 57.29        10.4 0.52            122            206 291 
 NOR  HZ EP       1340 29.52                             118    0.08 8  238 234 
 NOR  HE ES       1340 58.33                             118    0.73 8  238 234 
 NOR  HZ I        1341  2.37         6.6 0.16            118            238 234 
 PRA  HZ EP       1340 46.42                             106   -0.82 6  395 210 
 PRA  HE ES       1341 29.90                             106    0.62 6  395 210 
 PRA  HZ I        1341 35.73         3.8 0.26            107            395 210 
                                                                                
