 2012  216 1922 14.2 L   6.743 -73.204142.0  RSN  5 0.3 1.5LRSN                1
 GAP=170        0.54       7.0     6.8  8.3  0.2736E+02  0.1895E+02  0.2223E+02E
 ACTION:UP  12-03-07 16:31 OP:epov STATUS:               ID:20120216192214 L   I
 2012-02-16-1920-00M.COL___188                                                 6
 STAT SP IPHASW D HRMM SECON CODA AMPLIT PERI AZIMU VELO AIN AR TRES W  DIS CAZ7
 GIR2 SZ ES   2   1922 48.26                             165   -0.45 5 37.2   2 
 BRR  HZ EP   2   1922 35.15                             153    0.35 5 69.1 306 
 BRR  HN ES   2   1922 51.18                             153    0.29 5 69.1 306 
 RUS  HZ EP   1   1922 37.20                             145    0.04 7 95.0 172 
 RUS  HN ES   2   1922 55.40                             145    0.32 5 95.0 172 
 RUS  HZ I        1922 56.97         3.0 0.49                          95.0 172 
 PTB  HZ EP   1   1922 39.76                             133   -0.41 7  140 261 
 PTB  HN ES   2   1923  0.26                             133   -0.17 5  140 261 
 ZAR  HN ES   2   1923 11.38                             122    0.51 4  201 294 
 ZAR  HZ I        1923 16.45         5.4 0.32                           201 294 
                                                                                
