 2010  616 1018 28.7 L   6.743 -73.092147.2  RSN  6 0.5 1.5LRSN                1
 GAP=165        0.86       6.4    14.3 10.4 -0.6864E+01 -0.4369E+02 -0.8669E+01E
 Epicentro: JORDAN - SANTANDER                                                 3
 ACTION:UP  10-08-24 10:10 OP:vdl  STATUS:               ID:20100616101828 L   I
 2010-06-16-1013-30S.COL___114                                                 6
 STAT SP IPHASW D HRMM SECON CODA AMPLIT PERI AZIMU VELO SNR AR TRES W  DIS CAZ7
 BAR2 SZ EP   1   1018 48.12                             172    -0.3 7   20 211 
 BAR2 SZ ES   2   1019  3.43                             172    -0.4 5   20 211 
 GIR2 SZ EP   1   1018 48.49                             165    -0.3 7   39 343 
 GIR2 SZ ES   2   1019  4.72                             165     0.3 5   39 343 
 BRR  HZ EP   1   1018 50.37                             150    -0.1 7   80 300 
 BRR  HN ES   2   1019  7.86                             150     0.3 5   80 300 
 BRR  HZ I        1019  9.17        10.2 0.41                            80 300 
 RUS  HZ EP   1   1018 52.15                             146     0.0 7   94 179 
 RUS  HN ES   2   1019 11.09                             146     0.6 5   94 179 
 RUS  HZ I        1019 12.33         2.8 0.37                            94 179 
 GUE  SZ EP   1   1018 53.65                             138    -0.3 7  122   9 
 GRA  SZ EP   1   1018 55.46                             136     1.0 7  130  14 
 GRA  SZ ES   2   1019 14.14                             136    -0.4 5  130  14 
                                                                                
