 2010 1016 1730 42.4 L   6.774 -73.099146.2  RSN  4 0.2 1.6LRSN                1
 GAP=228        0.58       9.6    16.3  8.9  0.1282E+03 -0.7692E+02 -0.3246E+02E
 Epicentro: LOS SANTOS - SANTANDER                                             3
 ACTION:UP  11-02-18 11:10 OP:tino STATUS:               ID:20101016173042 L   I
 2010-10-16-1727-54S.COL___125                                                 6
 STAT SP IPHASW D HRMM SECON CODA AMPLIT PERI AZIMU VELO SNR AR TRES W  DIS CAZ7
 BAR2 SZ EP       1731  1.83                             170    -0.310   22 205 
 BAR2 SZ ES   2   1731 17.51                             170     0.1 5   22 205 
 BAR2 SZ I        1731 18.15         8.5 0.17                            22 205 
 BTL  SZ EP       1731  2.22                             170     0.110   24 311 
 BRR  HZ EP       1731  3.85                             150    -0.110   77 299 
 BRR  HZ I        1731  8.16        14.6 0.35                            77 299 
 BRR  HN ES   1   1731 20.89                             150     0.1 7   77 299 
 RUS  HZ EP       1731  6.26                             144     0.310   98 179 
 RUS  HN ES   2   1731 24.02                             144    -0.4 5   98 179 
 RUS  HZ I        1731 26.01         2.6 0.20                            98 179 
                                                                                
