 2017  816 1904 42.7 L   6.815 -73.131145.3  RSN  7 0.2 1.7LRSN                1
 GAP=138        0.58       2.7     2.8  5.0  0.2405E+00  0.4202E+01  0.1349E+01E
 Epicentro: LOS SANTOS - SANTANDER                                             3
 ACTION:UPD 17-09-04 20:21 OP:rebc STATUS:               ID:20170816190442 L   I
 OLDACT:REG 17-08-16 20:36 OP:lv   STATUS:               ID:20170816185739     3
 2017-08-16-1858-00M.COL___410                                                 6
 STAT SP IPHASW D HRMM SECON CODA AMPLIT PERI AZIMU VELO AIN AR TRES W  DIS CAZ7
 BAR2 EZ EP       19 5  2.20                             170   -0.0810 25.3 193 
 BAR2 EZ I        19 5 19.32        10.4 0.16            167           25.3 193 
 BRR  HZ EP       19 5  3.87                             152    0.0710 71.9 297 
 BRR  HN ES       19 5 20.44                             152    0.1510 71.9 297 
 PAM  EZ EP       19 5  4.79                             151    0.1010 75.0  39 
 PAM  EN ES       19 5 21.77                             151   -0.1010 75.0  39 
 PAM  EZ I        19 5 23.73        12.7 0.50            149           75.0  39 
 RUS  HZ EP       19 5  6.18                             143   -0.3010  102 177 
 RUS  HN ES       19 5 25.20                             143    0.1410  102 177 
 RUS  HZ I        19 5 27.04         3.2 0.20            140            102 177 
 ZAR  HZ EP       19 5 15.59                             122    0.42 9  205 292 
 ZAR  HE ES       19 5 40.11                             122   -0.42 9  205 292 
 ZAR  HZ I        19 5 45.18         7.4 0.29            120            205 292 
 NOR  HN ES       19 5 46.69                             118    0.03 8  237 234 
 NOR  HZ I        19 5 50.58         2.5 0.18            116            237 234 
 GUY2CHZ EP   4   19 5 27.92                             112    1.41 0  304 235 
 GUY2CHN ES   4   19 5 58.84                             112   -1.87 0  304 235 
 GUY2CHZ I        19 6  9.19         2.3 0.42                           304 235 
                                                                                
