 2012 1116 1033 18.5 L   6.838 -73.214146.7  RSN 10 0.5 2.1LRSN 3.0WRSN        1
 SPEC AVERAGE  MO 13.5 ST 15.3 OM  2.6 f0 5.43 R0.3138 AL 2.66 WI 22.7 MW  3.0 3
 SPEC SD       MO  0.3 ST 17.6 OM  1.1 f0 2.01 R0.1161 AL      WI      MW  0.2 3
 GAP=127        1.24       4.1     5.8  7.1 -0.6993E+00  0.1241E+02  0.3212E+01E
 Epicentro: ZAPATOCA - SANTANDER                                               3
 SPEC ZAR HH N MO 13.4 ST 13.4 OM  1.6 f0 7.54 R0.1950 AL 3.50 WI 30.6 MW  2.8 3
 SPEC ZAR HH N T103412 K 0.000 GD  244 VS 4.20 DE 3.00 Q0230.0 QA 0.60 VS 4.20 3
 SPEC SML HH N MO 13.9 ST 44.6 OM  2.1 f0 7.33 R0.2005 AL 3.23 WI 35.1 MW  3.2 3
 SPEC SML HH N T103420 K 0.000 GD  278 VS 4.20 DE 3.00 Q0230.0 QA 0.60 VS 4.20 3
 SPEC PTB HH N MO 13.2 ST0.859 OM  1.5 f0 3.46 R0.4249 AL 1.20 WI 10.4 MW  2.7 3
 SPEC PTB HH N T1034 5 K 0.000 GD  203 VS 4.20 DE 3.00 Q0230.0 QA 0.60 VS 4.20 3
 SPEC BRR HH Z MO 13.6 ST  2.3 OM  1.3 f0 3.38 R0.4349 AL 2.72 WI 14.7 MW  3.0 3
 SPEC BRR HH Z T103339 K 0.000 GD  159 VP 7.60 DE 3.00 Q0230.0 QA 0.60 VS 4.20 3
 ACTION:UPD 12-12-05 15:33 OP:}ep  STATUS:               ID:20121116103318 L   I
 2012-11-16-1030-00M.COL___233                                                 6
 STAT SP IPHASW D HRMM SECON CODA AMPLIT PERI AZIMU VELO AIN AR TRES W  DIS CAZ7
 GIR2 SZ EP       1033 38.28                             169    0.1010 26.7   5 
 BAR2 SZ IP       1033 38.29                             169   -0.0510 27.4 173 
 BAR2 SZ I        1033 38.56        18.7 0.36                          27.4 173 
 BAR2 SZ ES       1033 53.26                             169   -0.5510 27.4 173 
 BRR  HZ IP     D 1033 40.01                             156    0.7110 62.6 298 
 BRR  HN ES       1033 56.34                             156    0.8210 62.6 298 
 BRR  HN I        1033 59.96        27.6 0.18                          62.6 298 
 PAM  SZ EP       1033 41.15                             150    0.2010 79.4  46 
 PAM  SN ES       1033 58.04                             150   -0.4110 79.4  46 
 PAM  SN I        1033 59.00        23.6 0.46                          79.4  46 
 PTB  HZ EP       1033 44.84                             134   -0.13 9  141 257 
 PTB  HN ES       1034  5.56                             134   -0.06 9  141 257 
 ZAR  HZ EP       1033 48.71                             124   -1.43 9  195 292 
 ZAR  HN I        1034 23.42        18.1 0.38                           195 292 
 SML  HZ EP       1033 54.91                             118    0.46 8  237 337 
 SML  HN ES       1034 22.43                             118   -0.04 8  237 337 
 CHI  HZ EP       1033 56.66                             117    0.16 8  251 193 
 CHI  HN ES       1034 26.24                             117    0.11 8  251 193 
 CHI  HN I        1034 28.70         8.1 0.36                           251 193 
 MON  HN ES       1034 43.75                             109   -0.30 7  345 309 
 PRA  HZ EP       1034 12.57                             107    0.51 6  392 208 
 PRA  HN ES       1034 53.63                             107   -0.20 6  392 208 
                                                                                
