 2017 1216 1100 19.3 L   6.849 -73.336120.0  RSN  6 0.4 1.6LRSN                1
 GAP= 97        1.02       4.4     4.3  7.7 -0.7678E+01  0.1574E+02 -0.6294E+01E
 Epicentro: BETULIA - SANTANDER                                                3
 ACTION:UPD 18-01-04 13:21 OP:rebc STATUS:               ID:20171216110019 L   I
 OLDACT:UP  17-12-16 21:54 OP:osc  STATUS:               ID:20171216105741     3
 OLDACT:REG 17-12-16 20:01 OP:osc  STATUS:               ID:20171216105741     3
 2017-12-16-1058-00M.COL___452                                                 6
 STAT SP IPHASW D HRMM SECON CODA AMPLIT PERI AZIMU VELO AIN AR TRES W  DIS CAZ7
 BAR2 EZ EP       11 0 36.03                             164   -0.0610 33.1 149 
 BAR2 EZ ES       11 0 49.66                             164    0.4510 33.1 149 
 BAR2 EZ I        11 0 50.86        40.0 0.24            170           33.1 149 
 PAM  EZ EP       11 0 39.84                             141    0.2110 88.8  52 
 PAM  EE ES       11 0 55.40                             141   -0.1310 88.8  52 
 PAM  EZ I        11 0 58.42         5.8 0.26            146           88.8  52 
 PTB  HZ EP       11 0 41.86                             130   -0.5310  129 255 
 PTB  HE ES       11 0 59.93                             130   -0.5110  129 255 
 PTB  HZ I        11 1  3.85         4.8 0.34            132            129 255 
 OCA  HZ EP       11 0 44.91                             124   -0.12 9  154   1 
 OCA  HE ES       11 1  4.67                             124   -0.47 9  154   1 
 ZAR  HZ EP       11 0 48.59                             119    0.75 9  183 293 
 ZAR  HN ES       11 1 10.70                             119    0.57 9  183 293 
 ZAR  HZ I        11 1 17.24         3.4 0.05            121            183 293 
 GUY2CHZ EP       11 1  0.39                             108    0.16 7  288 231 
 GUY2CHN ES       11 1 31.97                             108   -0.22 7  288 231 
 GUY2CHZ I        11 1 36.35         1.7 0.48                           288 231 
                                                                                
