 2012 1216 1928 41.8 L   6.780 -73.163145.3  RSN  7 0.4 2.1LRSN                1
 GAP=135        1.16       5.7     5.1  8.3  0.1892E+01  0.6965E+01 -0.6952E+00E
 Epicentro: LOS SANTOS - SANTANDER                                             3
 ACTION:UPD 13-01-04 14:28 OP:ep   STATUS:               ID:20121216192841 L   I
 2012-12-16-1926-43M.COL___225                                                 6
 STAT SP IPHASW D HRMM SECON CODA AMPLIT PERI AZIMU VELO AIN AR TRES W  DIS CAZ7
 BAR2 SZ EP       1929  1.42                             171    0.1010 20.8 186 
 BAR2 SZ ES       1929 15.71                             171   -0.8410 20.8 186 
 BAR2 SZ I        1929 17.25        35.9 0.28                          20.8 186 
 GIR2 SZ EP       1929  1.37                             166   -0.1010 33.2 354 
 GIR2 SZ I        1929 18.19        10.5 0.34                          33.2 354 
 BRR  HZ EP       1929  3.11                             153    0.2510 70.6 301 
 BRR  HN ES       1929 20.15                             153    0.8610 70.6 301 
 BRR  HN I        1929 20.69        37.2 0.22                          70.6 301 
 PAM  SZ EP       1929  4.32                             150    0.1810 80.4  40 
 PAM  SN ES       1929 21.37                             150   -0.2010 80.4  40 
 PAM  SN I        1929 22.14        20.6 0.44                          80.4  40 
 RUS  HZ EP       1929  5.59                             144    0.2410 98.5 175 
 RUS  HN ES       1929 23.97                             144    0.2410 98.5 175 
 RUS  HN I        1929 25.46         9.0 0.26                          98.5 175 
 PTB  HZ EP       1929  7.89                             132   -0.62 9  145 260 
 PTB  HN ES       1929 29.51                             132    0.16 9  145 260 
 PTB  HN I        1929 34.46        14.4 0.60                           145 260 
 ZAR  HE ES       1929 38.89                             122   -0.43 9  203 293 
 ZAR  HE I        1929 45.48        22.8 0.22                           203 293 
                                                                                
