 2016 1216 1019  3.8 L   7.040 -73.684113.0  RSN  4 0.3 0.9LRSN                1
 GAP=196        0.77       5.2     6.6  8.8 -0.1555E+02  0.1644E+02 -0.9378E+01E
 Epicentro: BARRANCABERMEJA - SANTANDER                                        3
 ACTION:UPD 17-01-11 20:15 OP:rebc STATUS:               ID:20161216101903 L   I
 OLDACT:UP  16-12-16 23:45 OP:edw  STATUS:               ID:20161216101744     3
 OLDACT:REG 16-12-16 21:24 OP:ar   STATUS:               ID:20161216101744     3
 2016-12-16-1018-00M.COL___363                                                 6
 STAT SP IPHASW D HRMM SECON CODA AMPLIT PERI AZIMU VELO AIN AR TRES W  DIS CAZ7
 BAR2 EZ EP       1019 22.08                             144    0.0310 74.3 132 
 BAR2 EZ ES       1019 36.74                             144    0.4310 74.3 132 
 BAR2 EZ I        1019 39.73         2.0 0.17            148           74.3 132 
 PTB  HE ES   2   1019 39.38                             135   -0.25 5  102 237 
 PAM  EZ EP       1019 25.95                             132    0.3310  114  73 
 PAM  EN ES       1019 42.26                             132   -0.4010  114  73 
 RUS  HZ EP       1019 28.43                             125   -0.03 9  143 152 
 RUS  HN ES       1019 47.39                             125   -0.33 9  143 152 
 RUS  HZ I        1019 48.04         1.2 0.26            129            143 152 
                                                                                
