 2017  816 1115 17.4 L   6.776 -73.131140.6  RSN  8 0.3 1.7LRSN                1
 GAP=114        0.90       3.2     3.4  5.3  0.1453E+01  0.4382E+01  0.3025E+01E
 Epicentro: LOS SANTOS - SANTANDER                                             3
 ACTION:UPD 17-09-04 20:21 OP:rebc STATUS:               ID:20170816111517 L   I
 OLDACT:REG 17-08-16 20:07 OP:lv   STATUS:               ID:20170816110739     3
 2017-08-16-1108-00M.COL___413                                                 6
 STAT SP IPHASW D HRMM SECON CODA AMPLIT PERI AZIMU VELO AIN AR TRES W  DIS CAZ7
 BAR2 EZ EP       1115 36.22                             171   -0.1610 21.1 196 
 BAR2 EZ ES       1115 50.84                             171   -0.3410 21.1 196 
 BAR2 EZ I        1115 52.23        19.5 0.18            170           21.1 196 
 BRR  HZ EP       1115 38.23                             151    0.0510 74.0 300 
 BRR  HE ES       1115 55.10                             151    0.7310 74.0 300 
 BRR  HZ I        1115 59.93        10.2 0.20            150           74.0 300 
 PAM  EZ EP       1115 39.19                             149    0.0410 78.5  37 
 PAM  EN ES       1115 56.13                             149    0.0210 78.5  37 
 PAM  EZ I        1115 58.98         8.1 0.24            153           78.5  37 
 RUS  HZ EP       1115 40.25                             143   -0.2110 97.8 177 
 RUS  HN ES       1115 57.95                             143   -0.4810 97.8 177 
 RUS  HZ I        1115 59.41         4.4 0.22            146           97.8 177 
 SPBC HZ EP       1115 45.40                             128   -0.03 9  162 220 
 SPBC HN ES       1116  7.00                             128   -0.28 9  162 220 
 SPBC HZ I        1116 10.99         5.7 0.10            129            162 220 
 YPLC HZ EP       1115 46.65                             126    0.12 9  174 151 
 YPLC HN ES       1116  9.85                             126    0.61 9  174 151 
 YPLC HZ I        1116 11.16         5.1 0.26            129            174 151 
 ZAR  HZ EP       1115 49.50                             121   -0.30 8  207 293 
 ZAR  HN ES       1116 14.73                             121   -0.33 8  207 293 
 ZAR  HZ I        1116 20.79         5.9 0.17            122            207 293 
 NOR  HZ EP       1115 53.01                             117    0.17 8  235 235 
 NOR  HN ES       1116 21.01                             117    0.55 8  235 235 
 NOR  HZ I        1116 26.07         4.8 0.14            119            235 235 
 SJC  HZ EP   4   1116 11.22                             105   -1.97 0  412 327 
 SJC  HN ES   4   1116 53.52                             105   -3.17 0  412 327 
                                                                                
