 2017  216 1830 34.3 L   6.818 -73.124144.0  RSN  8 0.5 1.9LRSN                1
 GAP=138        1.18       4.7     4.9  7.4 -0.7664E-01  0.8854E+01  0.9620E+01E
 Epicentro: LOS SANTOS - SANTANDER                                             3
 ACTION:UPD 17-05-24 15:37 OP:jn   STATUS:               ID:20170216183034 L   I
 OLDACT:REG 17-02-16 21:17 OP:cog  STATUS:               ID:20170216182743     3
 2017-02-16-1828-00M.COL___358                                                 6
 STAT SP IPHASW D HRMM SECON CODA AMPLIT PERI AZIMU VELO AIN AR TRES W  DIS CAZ7
 BAR2 EZ EP       1830 53.72                             169   -0.0710 25.8 194 
 BAR2 EZ ES       1831  8.72                             169   -0.2610 25.8 194 
 BAR2 EZ I        1831  9.92        20.6 0.22            169           25.8 194 
 BRR  HN EP       1830 55.54                             152    0.2010 72.4 296 
 BRR  HE ES       1831 12.63                             152    0.8910 72.4 296 
 PAM  EZ EP       1830 56.59                             151    0.4310 74.3  39 
 PAM  EE ES       1831 12.67                             151   -0.5410 74.3  39 
 PAM  EZ I        1831 15.86        24.1 0.50            154           74.3  39 
 RUS  HZ EP       1830 57.82                             143   -0.2110  102 177 
 RUS  HE ES       1831 16.80                             143    0.2710  102 177 
 RUS  HZ I        1831 17.45         9.5 0.26            144            102 177 
 PTB  HZ EP       1831  0.83                             131   -0.56 9  150 258 
 PTB  HN ES       1831 21.54                             131   -0.97 9  150 258 
 PTB  HZ I        1831 26.22         6.1 0.24            132            150 258 
 ZAR  HN ES       1831 32.37                             122    0.24 8  206 291 
 NOR  HZ EP       1831 10.58                             118    0.31 8  238 234 
 NOR  HE ES       1831 38.43                             118    0.11 8  238 234 
 NOR  HZ I        1831 40.22         5.1 0.18            119            238 234 
 CHI  HZ EP       1831 11.98                             116   -0.21 8  251 196 
 CHI  HE ES       1831 42.22                             116    0.48 8  251 196 
 CHI  HZ I        1831 44.66         5.4 0.50            117            251 196 
                                                                                
