 2013 1216 1708 40.8 L   6.796 -73.442127.4  RSN  4 0.3 1.5LRSN                1
 GAP=169        0.74       5.3     4.5  6.1  0.1092E+02  0.5159E+01  0.6769E+01E
 Epicentro: SAN VICENTE DE CHUCURI - SANTANDER                                 3
 ACTION:UPD 14-01-13 10:18 OP:ep   STATUS:               ID:20131216170840 L   I
 OLDACT:DUP 13-12-16 17:24 OP:nd   STATUS:               ID:20131216170002d    3
 2013-12-16-1700-00M.COL___285                                                 6
 STAT SP IPHASW D HRMM SECON CODA AMPLIT PERI AZIMU VELO AIN AR TRES W  DIS CAZ7
 BAR2 SZ EP       17 8 58.80                             163    0.1410 36.5 128 
 BAR2 SZ ES       17 9 12.28                             163   -0.2710 36.5 128 
 BAR2 SZ I        17 9 13.25        19.4 0.22            167           36.5 128 
 BRR  HZ EP       17 8 58.76                             159    0.1010 45.5 319 
 BRR  HN ES       17 9 12.64                             159    0.0810 45.5 319 
 BRR  HZ I        17 9 16.19        16.7 0.32            159           45.5 319 
 RUS  HZ EP       17 9  3.69                             138    0.2910  108 158 
 RUS  HN ES       17 9 20.95                             138   -0.0310  108 158 
 RUS  HZ I        17 9 22.42         2.1 0.26            141            108 158 
 PTB  HZ EP       17 9  2.84                             135   -0.5910  116 256 
 PTB  HN ES       17 9 21.30                             135    0.2610  116 256 
 PTB  HZ I        17 9 25.27         3.3 0.20            135            116 256 
                                                                                
