 2017 1116 1319 57.7 L   6.796 -73.224134.3  RSN  7 0.4 1.5LRSN                1
 GAP=146        0.92       4.8     4.5  6.2 -0.9499E+01  0.1128E+02  0.2374E+01E
 Epicentro: ZAPATOCA - SANTANDER                                               3
 ACTION:UPD 17-12-12 19:56 OP:rebc STATUS:               ID:20171116131957 L   I
 OLDACT:REG 17-11-16 20:54 OP:lv   STATUS:               ID:20171116131743     3
 2017-11-16-1318-00M.COL___453                                                 6
 STAT SP IPHASW D HRMM SECON CODA AMPLIT PERI AZIMU VELO AIN AR TRES W  DIS CAZ7
 BAR2 EZ EP       1320 15.90                             170   -0.0810 23.0 168 
 BAR2 EZ ES       1320 30.20                             170   -0.0110 23.0 168 
 BAR2 EZ I        1320 32.61        10.3 0.32            171           23.0 168 
 PAM  EZ EP       1320 18.95                             147   -0.1910 83.5  44 
 PAM  EN ES       1320 36.04                             147    0.2110 83.5  44 
 PAM  EZ I        1320 38.00        11.6 0.50            150           83.5  44 
 RUS  HZ EP       1320 19.98                             141   -0.4410  101 171 
 RUS  HN ES       1320 38.33                             141    0.2210  101 171 
 RUS  HZ I        1320 39.66         4.4 0.22            144            101 171 
 PTB  HZ EP       1320 23.00                             131    0.01 9  139 258 
 PTB  HN ES       1320 42.39                             131   -0.30 9  139 258 
 PTB  HZ I        1320 45.58         2.9 0.32            132            139 258 
 NOR  HZ EP       1320 32.40                             117    0.37 8  227 233 
 NOR  HN ES       1320 59.29                             117    0.51 8  227 233 
 NOR  HZ I        1321  4.58         2.4 0.20            119            227 233 
 GUY2CHZ EP       1320 41.03                             111    1.03 7  294 234 
 GUY2CHN ES       1321 12.26                             111   -0.71 7  294 234 
 GUY2CHZ I        1321 20.07         1.8 0.36                           294 234 
 PRA  HZ EP       1320 49.81                             105   -0.53 6  387 208 
 PRA  HN ES       1321 31.31                             105   -0.07 6  387 208 
                                                                                
