 2011 1116 1121 16.3 L   6.796 -73.159145.2  RSN  9 0.5 2.2LRSN                1
 GAP=135        0.90       3.5     4.9  6.7 -0.8394E+00  0.1285E+02  0.9696E+00E
 Epicentro: LOS SANTOS - SANTANDER                                             3
 ACTION:UPD 12-07-13 16:10 OP:ep   STATUS:               ID:20111116112116 L   I
 2011-11-16-1119-34S.COL___179                                                 6
 STAT SP IPHASW D HRMM SECON CODA AMPLIT PERI AZIMU VELO AIN AR TRES W  DIS CAZ7
 BAR2 SZ EP   1   1121 35.55                             171   -0.32 8 22.7 187 
 BAR2 SZ ES   1   1121 50.44                             171   -0.68 8 22.7 187 
 BAR2 SZ I        1121 52.03        51.9 0.27                          22.7 187 
 BRR  HZ EP   1   1121 38.02                             153    0.67 8 70.1 299 
 BRR  HN ES   1   1121 54.81                             153    1.06 8 70.1 299 
 BRR  HZ I        1121 57.50        49.7 0.16                          70.1 299 
 PAM  SZ EP   1   1121 39.01                             150    0.45 8 78.7  40 
 PAM  SZ I        1121 39.37        28.4 0.15                          78.7  40 
 PAM  SN ES   1   1121 55.68                             150   -0.21 8 78.7  40 
 RUS  HZ EP   1   1121 39.97                             144   -0.02 7  100 175 
 RUS  HN ES       1121 58.53                             144    0.0710  100 175 
 RUS  HZ I        1121 59.65        19.1 0.24                           100 175 
 OCA  SZ EP   1   1121 44.22                             129   -0.40 7  161 354 
 OCA  SZ ES   1   1122  6.25                             129   -0.43 7  161 354 
 OCA  SZ I        1122 10.04        11.4 0.38                           161 354 
 ZAR  HZ EP   1   1121 48.47                             122   -0.14 6  203 292 
 ZAR  HN ES   1   1122 13.55                             122   -0.24 6  203 292 
 ZAR  HZ I        1122 20.88        15.3 0.17                           203 292 
 NOR  SZ EP   1   1121 52.15                             118    0.29 6  233 234 
 NOR  SN ES   1   1122 19.19                             118   -0.39 6  233 234 
 CHI  HZ EP   1   1121 53.50                             117   -0.40 6  248 195 
 CHI  HN ES   1   1122 23.54                             117    0.33 6  248 195 
 CHI  HZ I        1122 27.63         6.7 0.26                           248 195 
 HEL  HZ EP   1   1121 56.91                             115    0.57 6  271 256 
 HEL  HN ES   1   1122 26.97                             115   -0.58 6  271 256 
 HEL  HZ I        1122 34.99        11.3 0.26                           271 256 
                                                                                
