 2011 1116 1400 58.5 L   6.746 -73.124143.6  RSN  6 0.3 2.1LRSN                1
 GAP=142        0.54       3.5     5.0  5.6  0.1947E+01  0.7467E+01  0.3914E+01E
 Epicentro: JORDAN - SANTANDER                                                 3
 ACTION:UPD 12-07-13 16:10 OP:ep   STATUS:               ID:20111116140058 L   I
 2011-11-16-1358-56S.COL___179                                                 6
 STAT SP IPHASW D HRMM SECON CODA AMPLIT PERI AZIMU VELO AIN AR TRES W  DIS CAZ7
 BAR2 SZ EP   1   14 1 17.62                             172   -0.13 7 18.2 201 
 BAR2 SZ I        14 1 34.12        42.1 0.27                          18.2 201 
 BRR  HZ EP       14 1 19.84                             150    0.1610 76.3 302 
 BRR  HZ I        14 1 20.23        44.4 0.11                          76.3 302 
 BRR  HN ES   1   14 1 36.43                             150    0.20 7 76.3 302 
 PAM  SZ EP   1   14 1 20.73                             149    0.07 7 80.7  36 
 PAM  SN ES   1   14 1 37.76                             149   -0.20 7 80.7  36 
 PAM  SZ I        14 1 38.84        22.9 0.16                          80.7  36 
 RUS  HZ EP   1   14 1 21.98                             145    0.41 7 94.4 177 
 RUS  HN ES   1   14 1 39.36                             145   -0.23 7 94.4 177 
 RUS  HZ I        14 1 41.13        10.3 0.22                          94.4 177 
 ZAR  HZ EP   1   14 1 30.75                             121   -0.50 6  209 293 
 ZAR  HZ I        14 1 50.60         6.2 0.10                           209 293 
 CHI  HZ EP   1   14 1 35.43                             117   -0.06 6  243 196 
                                                                                
