 2011 1016 1118 20.3 L   6.785 -73.145151.2  RSN  5 0.2 1.5LRSN                1
 GAP=137        0.47       3.3     3.5  4.5  0.2834E+01  0.3533E+01 -0.6166E+00E
 Epicentro: LOS SANTOS - SANTANDER                                             3
 ACTION:UPD 12-07-13 16:04 OP:ep   STATUS:               ID:20111016111820 L   I
 2011-10-16-1116-38S.COL___167                                                 6
 STAT SP IPHASW D HRMM SECON CODA AMPLIT PERI AZIMU VELO AIN AR TRES W  DIS CAZ7
 BAR2 SZ EP   1   1118 40.41                             171   -0.12 7 21.7 191 
 BAR2 SZ ES   1   1118 56.32                             171    0.00 7 21.7 191 
 BAR2 SZ I        1118 56.62        10.7 0.38                          21.7 191 
 BRR  HZ EP   1   1118 42.20                             153    0.13 7 72.1 300 
 BRR  HZ I        1118 42.53        17.1 0.14                          72.1 300 
 BRR  HN ES   1   1118 59.47                             153    0.41 7 72.1 300 
 PAM  SZ EP   1   1118 43.19                             151    0.04 7 78.6  39 
 PAM  SZ I        1118 43.41         2.5 0.18                          78.6  39 
 PAM  SN ES   1   1119  0.79                             151   -0.19 7 78.6  39 
 RUS  HZ EP   1   1118 44.67                             145    0.22 7 98.9 176 
 RUS  HN ES   1   1119  3.10                             145   -0.20 7 98.9 176 
 RUS  HZ I        1119  4.23         2.5 0.24                          98.9 176 
 ZAR  HZ EP   1   1118 53.10                             123   -0.06 6  205 293 
 ZAR  HE ES   1   1119 18.45                             123   -0.36 6  205 293 
 ZAR  HZ I        1119 24.15         3.0 0.43                           205 293 
                                                                                
