 2012  516 1742 21.5 L   6.051 -73.746106.0  RSN  5 0.2 1.7LRSN                1
 GAP=102        0.41       3.1     3.5  6.4 -0.1081E+01  0.7288E+01  0.1023E+02E
 Epicentro: BOLIVAR - SANTANDER                                                3
 ACTION:UP  12-07-05 12:05 OP:pat  STATUS:               ID:20120516174221 L   I
 2012-05-16-1740-00M.COL___197                                                 6
 STAT SP IPHASW D HRMM SECON CODA AMPLIT PERI AZIMU VELO SNR AR TRES W  DIS CAZ7
 RUS  HZ EP       1742 39.60                             142     0.010   75 103 
 RUS  HN ES   2   1742 53.42                             142    -0.2 5   75 103 
 RUS  HZ I        1742 55.03         6.9 0.36                            75 103 
 BAR2 SZ EP       1742 40.24                             137     0.210   86  46 
 BAR2 SZ ES   1   1742 54.41                             137    -0.1 7   86  46 
 BAR2 SZ I        1742 56.92        37.5 0.40                            86  46 
 PTB  HN ES   2   1742 55.33                             134     0.0 5   95 305 
 CHI  HZ EP   2   1742 46.94                             119    -0.2 5  157 179 
 CHI  HN ES   2   1743  7.37                             119     0.3 5  157 179 
 CHI  HZ I        1743  9.47         3.5 0.28                           157 179 
 PRA  HZ EP       1743  1.33                             104    -0.2 7  288 206 
                                                                                
