 2012  916 1402 27.5 L   6.754 -73.152145.2  RSN  6 0.3 1.7LRSN                1
 GAP=138        0.68       4.6     4.1  6.6  0.1602E+01  0.5248E+01  0.2178E+00E
 Epicentro: LOS SANTOS - SANTANDER                                             3
 ACTION:UPD 12-10-22 14:19 OP:ep   STATUS:               ID:20120916140227 L   I
 2012-09-16-1400-00M.COL___227                                                 6
 STAT SP IPHASW D HRMM SECON CODA AMPLIT PERI AZIMU VELO AIN AR TRES W  DIS CAZ7
 BAR2 SZ EP   1   14 2 47.07                             172    0.05 7 18.2 191 
 BAR2 SZ ES   1   14 3  1.96                             172   -0.24 7 18.2 191 
 BRR  HZ EP   1   14 2 48.77                             152    0.02 7 73.2 302 
 BRR  HZ I        14 2 49.30         9.3 0.09                          73.2 302 
 BRR  HN ES   1   14 3  5.92                             152    0.64 7 73.2 302 
 PAM  SZ EP   1   14 2 49.96                             149   -0.01 7 81.8  38 
 PAM  SZ I        14 2 50.21        20.6 0.22                          81.8  38 
 PAM  SN ES   1   14 3  7.11                             149   -0.35 7 81.8  38 
 RUS  HZ EP   1   14 2 51.07                             145    0.18 7 95.5 175 
 RUS  HN ES   1   14 3  9.35                             145    0.26 7 95.5 175 
 RUS  HZ I        14 3 11.03         7.1 0.30                          95.5 175 
 PTB  HZ EP   1   14 2 54.16                             132   -0.16 7  146 261 
 PTB  HN ES   1   14 3 14.52                             132   -0.69 7  146 261 
 PTB  HZ I        14 3 17.57         3.9 0.16                           146 261 
 ZAR  HE ES   1   14 3 25.73                             122    0.26 6  205 294 
 ZAR  HZ I        14 3 31.82         4.9 0.22                           205 294 
                                                                                
