 2010 1216 1906 30.1 L   6.765 -73.126140.4  RSN 12 0.4 2.3LRSN                1
 GAP=137        0.74       3.5     5.3  6.4 -0.3698E+01 -0.6875E+01  0.1101E+02E
 Epicentro: LOS SANTOS - SANTANDER                                             3
 ACTION:UP  11-01-14 15:25 OP:pat  STATUS:               ID:20101216190630 L   I
 2010-12-16-1903-06S.COL___137                                                 6
 STAT SP IPHASW D HRMM SECON CODA AMPLIT PERI AZIMU VELO SNR AR TRES W  DIS CAZ7
 BAR2 SZ ES   2   19 7  4.16                             171     0.4 5   20 198 
 BAR2 SZ I        19 7  5.23        61.4 0.28                            20 198 
 BTL  SZ EP       19 6 49.17                             170     0.110   23 317 
 GIR2 SZ EP   2   19 6 49.00                             165    -0.3 5   35 348 
 BRR  HZ IP     C 19 6 50.73                             150    -0.210   75 300 
 BRR  HE ES       19 7  7.27                             150     0.210   75 300 
 RUS  HZ EP       19 6 52.87                             144    -0.210   97 177 
 RUS  HZ I        19 6 54.10        23.0 0.17                            97 177 
 RUS  HN ES   2   19 7  9.95                             144    -1.0 5   97 177 
 GRA  SZ EP   1   19 6 55.66                             135     0.5 7  129  16 
 GRA  SZ ES   1   19 7 14.45                             135    -0.2 7  129  16 
 GRA  SZ I        19 7 18.01        26.2 0.47                           129  16 
 OCA  SZ EP   2   19 6 57.65                             128    -0.7 5  164 353 
 OCA  SZ I        19 7 22.35        39.7 0.19                           164 353 
 YOP  SZ EP       19 6 59.70                             126     0.4 9  175 153 
 YOP  SZ I        19 7  0.26        16.7 0.15                           175 153 
 NOR  SZ EP   1   19 7  5.22                             117    -0.3 6  234 236 
 NOR  SE ES   2   19 7 33.43                             117     0.3 4  234 236 
 CHI  HZ EP   1   19 7  6.81                             116    -0.4 6  246 196 
 CHI  HE ES   2   19 7 36.56                             116     0.5 4  246 196 
 CHI  HZ I        19 7 43.82        13.8 0.59                           246 196 
 RREF HZ EP   2   19 7 16.13                             110     0.2 3  321 230 
 RREF HZ I        19 8  3.33        14.5 0.33                           321 230 
 PRA  HZ EP   1   19 7 23.17                             106     0.0 4  390 210 
 PRA  HN ES   1   19 8  4.79                             106     0.2 4  390 210 
                                                                                
