 2017  116 1627  7.5 L   6.839 -73.290131.2  RSN  4 0.1 0.8LRSN                1
 GAP=154        0.42       2.5     2.4  5.5 -0.2067E+01  0.5919E+00  0.8295E+00E
 Epicentro: ZAPATOCA - SANTANDER                                               3
 ACTION:UPD 17-05-22 16:00 OP:jn   STATUS:               ID:20170116162707 L   I
 OLDACT:DUP 17-01-16 22:53 OP:cog  STATUS:               ID:20170116161744d    3
 2017-01-16-1618-00M.COL___332                                                 6
 STAT SP IPHASW D HRMM SECON CODA AMPLIT PERI AZIMU VELO AIN AR TRES W  DIS CAZ7
 BAR2 EZ EP       1627 25.54                             167   -0.0210 29.8 156 
 PAM  EZ EP       1627 28.94                             145    0.1910 85.5  50 
 PAM  EE ES       1627 45.21                             145   -0.1010 85.5  50 
 PAM  EZ I        1627 48.43         1.3 0.16            147           85.5  50 
 RUS  HZ EP       1627 30.20                             139   -0.1810  107 168 
 RUS  HN ES       1627 48.32                             139    0.1110  107 168 
 RUS  HZ I        1627 49.50         1.3 0.22            142            107 168 
 PTB  HN ES       1627 51.05                             132    0.0010  133 256 
                                                                                
