 2014 1216 1342 59.4 L   6.743 -73.071138.4  RSN  4 0.3 1.4LRSN                1
 GAP=149        0.91       4.7     7.0  7.5 -0.8082E+00 -0.3824E+01  0.8259E+00E
 Epicentro: JORDAN - SANTANDER                                                 3
 ACTION:UPD 15-02-10 17:04 OP:nd   STATUS:               ID:20141216134259 L   I
 OLDACT:DUP 14-12-16 22:40 OP:fm   STATUS:               ID:20141216133749d    3
 2014-12-16-1337-48M.COL___287                                                 6
 STAT SP IPHASW D HRMM SECON CODA AMPLIT PERI AZIMU VELO AIN AR TRES W  DIS CAZ7
 BAR2 EZ EP       1343 17.80                             171   -0.2910 20.7 217 
 BAR2 EZ ES       1343 32.65                             171   -0.0210 20.7 217 
 BAR2 EZ I        1343 35.55         5.3 0.32            170           20.7 217 
 PAM  SZ EP       1343 20.93                             149    0.0710 77.7  32 
 PAM  SN ES       1343 37.60                             149    0.0110 77.7  32 
 PAM  SZ I        1343 40.19         5.7 0.52            154           77.7  32 
 BRR  HZ EP       1343 21.02                             148    0.6210 81.5 300 
 BRR  HN ES       1343 36.49                             148   -0.2810 81.5 300 
 BRR  HZ I        1343 42.48         8.0 0.24            148           81.5 300 
 RUS  HZ EP       1343 21.48                             144   -0.4810 94.0 181 
 RUS  HE ES       1343 39.92                             144    0.3710 94.0 181 
 RUS  HZ I        1343 43.05         2.0 0.34            148           94.0 181 
                                                                                
