 2012  816 1909 60.0 L   6.740 -73.207150.6  RSN  4 0.2 1.5LRSN                1
 GAP=224        0.47       4.9     4.5  5.8  0.1049E+02 -0.1373E+01 -0.1386E+01E
 Epicentro: VILLANUEVA - SANTANDER                                             3
 ACTION:UPD 12-09-10 11:56 OP:ep   STATUS:               ID:20120816190960 L   I
 2012-08-16-1910-00M.COL___216                                                 6
 STAT SP IPHASW D HRMM SECON CODA AMPLIT PERI AZIMU VELO AIN AR TRES W  DIS CAZ7
 BAR2 SZ EP       1910 19.79                             173   -0.2910 16.6 170 
 BAR2 SZ I        1910 20.19         9.5 0.08                          16.6 170 
 BRR  HZ EP   1   1910 21.74                             154    0.20 7 69.0 306 
 BRR  HZ I        1910 25.23        16.4 0.42                          69.0 306 
 BRR  HN ES   1   1910 38.46                             154    0.11 7 69.0 306 
 RUS  HZ EP   1   1910 23.93                             146    0.12 7 94.7 172 
 RUS  HN ES   1   1910 42.51                             146    0.12 7 94.7 172 
 RUS  HZ I        1910 43.64         2.5 0.40                          94.7 172 
 PTB  HZ EP       1910 26.75                             135    0.09 9  140 261 
 PTB  HN ES   1   1910 47.27                             135   -0.20 7  140 261 
 PTB  HZ I        1910 49.23         2.0 0.44                           140 261 
                                                                                
