 2013  216 1717 10.2 L   6.746 -73.025130.5  RSN  4 0.3 1.5LRSN                1
 GAP=155        0.56       4.2     6.2 10.0 -0.2000E+01 -0.1830E+02 -0.7580E+01E
 Epicentro: ARATOCA - SANTANDER                                                3
 ACTION:UPD 13-03-12 09:33 OP:ep   STATUS:               ID:20130216171710 L   I
 2013-02-16-1710-00M.COL___241                                                 6
 STAT SP IPHASW D HRMM SECON CODA AMPLIT PERI AZIMU VELO AIN AR TRES W  DIS CAZ7
 BAR2 SZ ES   1   1717 42.35                             169    0.41 7 24.3 226 
 BAR2 SZ I        1717 45.36         8.8 0.24            167           24.3 226 
 PAM  SZ EP   1   1717 30.87                             149    0.19 7 74.8  29 
 PAM  SE ES   1   1717 46.40                             149   -0.22 7 74.8  29 
 PAM  SE I        1717 49.61         5.7 0.44            153           74.8  29 
 BRR  HN ES   1   1717 46.54                             145   -0.14 7 85.7 298 
 BRR  HN I        1717 51.52         8.2 0.54            145           85.7 298 
 RUS  HN ES   1   1717 48.84                             142   -0.24 7 94.6 184 
 RUS  HN I        1717 52.16         7.0 0.36            146           94.6 184 
                                                                                
