 2014  616 1059 31.5 L   6.809 -73.163139.1  RSN 10 0.5 1.9LRSN                1
 GAP=134        1.25       3.3     5.2  7.8 -0.2416E+01  0.1570E+02 -0.2328E+01E
 Epicentro: LOS SANTOS - SANTANDER                                             3
 ACTION:UPD 14-07-01 22:54 OP:nd   STATUS:               ID:20140616105931 L   I
 OLDACT:REG 14-06-16 21:24 OP:carl STATUS:               ID:20140616105816     3
 2014-06-16-1058-16M.COL___256                                                 6
 STAT SP IPHASW D HRMM SECON CODA AMPLIT PERI AZIMU VELO AIN AR TRES W  DIS CAZ7
 BAR2 SZ EP       1059 50.32                             170   -0.0010 24.0 185 
 BAR2 SZ ES       11 0  4.94                             170   -0.0810 24.0 185 
 BAR2 SZ I        11 0  6.31        18.0 0.16            170           24.0 185 
 PAM  SZ EP       1059 53.33                             149    0.3110 77.9  41 
 PAM  SN ES       11 0 10.01                             149    0.1910 77.9  41 
 PAM  SZ I        11 0 12.47        17.2 0.60            152           77.9  41 
 RUS  HZ EP       1059 54.51                             142   -0.1510  102 175 
 RUS  HN ES       11 0 12.91                             142    0.1610  102 175 
 RUS  HZ I        11 0 13.78         8.1 0.42            145            102 175 
 PTB  HZ EP       1059 57.73                             131   -0.02 9  146 258 
 PTB  HN ES       11 0 17.53                             131   -0.72 9  146 258 
 PTB  HZ I        11 0 20.88         8.0 0.44            130            146 258 
 OCA  HZ EP       1059 59.78                             128    0.61 9  159 354 
 OCA  HN ES       11 0 20.33                             128   -0.43 9  159 354 
 OCA  HZ I        11 0 24.07        11.2 0.28            129            159 354 
 ZAR  HZ EP       11 0  3.74                             121    0.47 9  202 292 
 ZAR  HN ES       11 0 29.49                             121    1.41 9  202 292 
 ZAR  HZ I        11 0 34.35        10.8 0.32            121            202 292 
 NOR  HN ES       11 0 34.22                             117    0.01 8  234 234 
 NOR  HZ I        11 0 40.17         4.6 0.16            118            234 234 
 SML  HZ EP       11 0  6.84                             116   -0.72 8  242 336 
 SML  HE ES       11 0 34.68                             116   -1.02 8  242 336 
 SML  HZ I        11 0 43.91         9.8 0.10            116            242 336 
 CHI  HN ES       11 0 37.71                             116   -0.31 8  249 195 
 PRA  HZ EP       11 0 24.91                             105    0.15 6  392 209 
 PRA  HN ES       11 1  6.16                             105   -0.17 6  392 209 
 PRA  HZ I        11 1 13.28         2.7 0.36            106            392 209 
                                                                                
