 2012 1116 1201 56.9 L   6.852 -73.182149.4  RSN  6 0.5 1.7LRSN                1
 GAP=136        1.19       7.1     6.3  8.2 -0.9281E+01  0.1155E+02 -0.5641E+01E
 Epicentro: ZAPATOCA - SANTANDER                                               3
 ACTION:UPD 12-12-05 15:33 OP:}ep  STATUS:               ID:20121116120156 L   I
 2012-11-16-1200-00M.COL___233                                                 6
 STAT SP IPHASW D HRMM SECON CODA AMPLIT PERI AZIMU VELO AIN AR TRES W  DIS CAZ7
 GIR2 SZ EP       12 2 16.96                             170    0.1110 25.1 357 
 GIR2 SZ ES       12 2 32.55                             170    0.1310 25.1 357 
 BAR2 SZ EP       12 2 16.63                             169   -0.4510 28.8 180 
 BAR2 SZ ES       12 2 32.31                             169   -0.5210 28.8 180 
 BAR2 SZ I        12 2 33.39        13.3 0.24                          28.8 180 
 BRR  HZ EP       12 2 18.75                             155    0.6410 65.0 296 
 BRR  HN ES       12 2 35.39                             155    0.7310 65.0 296 
 BRR  HN I        12 2 36.37        23.7 0.42                          65.0 296 
 PAM  SZ I        12 2 19.78         8.1 0.20                          75.8  45 
 PAM  SZ IP     C 12 2 19.78                             152    0.3810 75.8  45 
 PAM  SN ES       12 2 36.79                             152   -0.1710 75.8  45 
 PTB  HZ EP       12 2 23.85                             133   -0.07 9  145 256 
 PTB  HN ES       12 2 44.73                             133   -0.28 9  145 256 
 PTB  HZ I        12 2 51.82         3.1 0.42                           145 256 
 SML  HN ES       12 3  0.28                             119   -0.85 8  237 336 
                                                                                
