 2017  316 1350  7.3 L   6.804 -73.149148.9  RSN 11 0.4 2.2LRSN                1
 GAP=136        0.88       3.2     3.7  5.4 -0.1273E+01  0.4632E+01  0.5179E+01E
 Epicentro: LOS SANTOS - SANTANDER                                             3
 ACTION:UPD 17-05-25 18:41 OP:jn   STATUS:               ID:20170316135007 L   I
 OLDACT:UP  17-03-17 00:30 OP:dnl  STATUS:               ID:20170316134743     3
 OLDACT:REG 17-03-16 21:55 OP:dnl  STATUS:               ID:20170316134743     3
 2017-03-16-1348-00M.COL___409                                                 6
 STAT SP IPHASW D HRMM SECON CODA AMPLIT PERI AZIMU VELO AIN AR TRES W  DIS CAZ7
 BAR2 EZ IP     C 1350 27.08                             170   -0.2110 23.7 189 
 BAR2 EZ ES       1350 42.98                             170    0.0810 23.7 189 
 BAR2 EZ I        1350 43.33        76.7 0.18            166           23.7 189 
 BRR  HZ EP       1350 29.01                             153    0.2810 70.6 298 
 BRR  HN ES       1350 45.96                             153    0.4910 70.6 298 
 BRR  HZ I        1350 46.37        30.4 0.32            150           70.6 298 
 PAM  EZ EP       1350 29.92                             152    0.1010 77.3  40 
 PAM  EE ES       1350 47.15                             152   -0.2510 77.3  40 
 RUS  HZ EP   2   1350 31.12                             144   -0.25 5  101 176 
 RUS  HN ES       1350 50.20                             144    0.0310  101 176 
 RUS  HZ I        1350 50.67        14.8 0.20            142            101 176 
 PTB  HZ EP       1350 33.67                             133   -0.80 9  147 259 
 PTB  HN ES       1350 54.89                             133   -0.80 9  147 259 
 PTB  HZ I        1350 57.20        19.6 0.28            130            147 259 
 SPBC HZ IP     C 1350 36.07                             130    0.04 9  163 219 
 SPBC HZ EP       1350 36.07                             130    0.04 9  163 219 
 SPBC HN ES       1350 58.75                             130    0.29 9  163 219 
 SPBC HZ I        1351  3.00        23.9 0.24            127            163 219 
 ZAR  HZ EP   4   1350 41.31                             123    1.44 0  204 292 
 ZAR  HE ES       1351  5.65                             123    0.35 9  204 292 
 ZAR  HZ I        1351 11.40        13.8 0.28            121            204 292 
 CHI  HZ EP       1350 45.38                             118    0.19 8  249 195 
 CHI  HN ES       1351 14.97                             118    0.21 8  249 195 
 CHI  HZ I        1351 21.91         4.9 0.38            116            249 195 
 GUY2CHZ EP   4   1350 52.36                             113    1.34 0  301 235 
 GUY2CHN ES       1351 25.17                             113    0.02 7  301 235 
 GUY2CHZ  IAML    1351 33.72         6.1 0.30                           301 235 
 PRA  HE ES       1351 42.81                             107    0.03 6  392 209 
 PRA  HZ I        1351 47.89         4.7 0.24            106            392 209 
 ORTC HZ EP   2   1351  2.64                             107    1.32 3  396 216 
 ORTC HE ES   4   1351 46.81                             107    3.33 0  396 216 
 ORTC HZ I        1351 59.34         8.9 0.32            106            396 216 
                                                                                
