 2015  516 1555 10.6 L   6.735 -73.156142.6  RSN  5 0.3 1.8LRSN                1
 GAP=247        0.78       4.2     5.6  5.8  0.1373E+01  0.1220E+02  0.4504E+01E
 Epicentro: LOS SANTOS - SANTANDER                                             3
 ACTION:UPD 15-09-10 22:04 OP:cam  STATUS:               ID:20150516155510 L   I
 OLDACT:REG 15-05-16 20:43 OP:drio STATUS:               ID:20150516154748     3
 2015-05-16-1547-48M.COL___276                                                 6
 STAT SP IPHASW D HRMM SECON CODA AMPLIT PERI AZIMU VELO AIN AR TRES W  DIS CAZ7
 BAR2 EZ EP       1555 29.42                             173   -0.2910 16.1 190 
 BAR2 EZ ES       1555 44.87                             173    0.2410 16.1 190 
 BAR2 EZ I        1555 45.05        16.7 0.16            168           16.1 190 
 BRR  HZ EP       1555 31.53                             151   -0.0310 73.9 304 
 BRR  HN ES       1555 48.15                             151    0.2410 73.9 304 
 BRR  HZ I        1555 55.49        11.1 0.28            147           73.9 304 
 SPBC HZ EP       1555 38.43                             130    0.18 9  157 220 
 SPBC HE ES       1555 59.23                             130   -0.60 9  157 220 
 SPBC HZ I        1556  5.98         8.9 0.20            130            157 220 
 ZAR  HZ EP       1555 42.98                             121   -0.03 8  206 294 
 ZAR  HN ES       1556  7.97                             121   -0.34 8  206 294 
 ZAR  HZ I        1556 15.22         4.7 0.20            122            206 294 
 GUY2CHZ EP       1555 53.87                             112    0.39 7  296 236 
 GUY2CHN ES       1556 27.43                             112    0.49 7  296 236 
 GUY2CHZ I        1556 36.75         2.5 0.60                           296 236 
                                                                                
