 2015  916 1214  7.2 L   6.820 -73.175142.4  RSN 16 0.4 2.3LRSN                1
 GAP=132        0.86       2.1     2.8  4.2 -0.9080E+00  0.3933E+01  0.2128E+00E
 Epicentro: ZAPATOCA - SANTANDER                                               3
 ACTION:UPD 15-10-28 16:26 OP:cam  STATUS:               ID:20150916121407 L   I
 OLDACT:REG 15-09-16 21:31 OP:drio STATUS:               ID:20150916120750     3
 2015-09-16-1207-50M.COL___349                                                 6
 STAT SP IPHASW D HRMM SECON CODA AMPLIT PERI AZIMU VELO AIN AR TRES W  DIS CAZ7
 BAR2 EZ IP     D 1214 26.57                             169    0.0710 25.2 182 
 BAR2 EZ ES       1214 41.50                             169   -0.0310 25.2 182 
 BAR2 EZ I        1214 44.28        29.1 0.24            170           25.2 182 
 BRR  HZ EP     D 1214 28.43                             153    0.6310 67.3 298 
 BRR  HN ES       1214 44.20                             153    0.3510 67.3 298 
 BRR  HZ I        1214 48.52        41.6 0.44            152           67.3 298 
 PAM  EZ EP       1214 29.35                             150    0.2210 77.9  42 
 PAM  EN ES       1214 46.45                             150    0.2510 77.9  42 
 PAM  EZ I        1214 49.26        21.0 0.34            154           77.9  42 
 RUS  HZ EP       1214 30.59                             142   -0.2510  103 174 
 RUS  HN ES       1214 49.24                             142   -0.0110  103 174 
 RUS  HZ I        1214 50.42        22.2 0.32            145            103 174 
 PTB  HZ EP       1214 33.30                             132   -0.38 9  145 258 
 PTB  HN ES       1214 54.07                             132   -0.24 9  145 258 
 PTB  HZ I        1214 56.44        31.1 0.16            132            145 258 
 OCA  HZ EP       1214 34.75                             129   -0.30 9  158 354 
 OCA  HE ES       1214 56.00                             129   -0.74 9  158 354 
 OCA  HZ I        1215  1.76        58.6 0.16            131            158 354 
 SPBC HZ EP       1214 35.69                             128    0.24 9  163 218 
 SPBC HN ES       1214 57.45                             128   -0.01 9  163 218 
 SPBC HZ I        1215  3.37        34.7 0.20            130            163 218 
 ZAR  HZ EP       1214 39.36                             122    0.29 9  200 292 
 ZAR  HN ES       1215  3.99                             122    0.09 9  200 292 
 ZAR  HZ I        1215 10.48        43.8 0.28            123            200 292 
 NOR  HZ EP       1214 42.97                             118    0.34 8  233 234 
 NOR  HE ES       1215 10.12                             118   -0.11 8  233 234 
 NOR  HZ I        1215 12.53        19.0 0.18            119            233 234 
 SML  HZ EP       1214 43.06                             117   -0.25 8  240 336 
 SML  HE ES       1215 11.25                             117   -0.20 8  240 336 
 SML  HZ I        1215 18.45        35.6 0.10            119            240 336 
 CHI  HZ EP       1214 45.00                             116    0.11 8  250 194 
 CHI  HN ES       1215 13.48                             116   -0.78 8  250 194 
 CHI  HZ I        1215 21.85         7.0 0.48            118            250 194 
 HEL  HZ EP   4   1214 48.15                             114    1.16 0  269 255 
 HEL  HE ES       1215 17.88                             114   -0.12 8  269 255 
 HEL  HZ I        1215 24.87        12.2 0.26            115            269 255 
 GUY2CHE ES       1215 24.66                             112    0.35 7  300 234 
 GUY2CHZ I        1215 35.20         8.1 0.72                           300 234 
 CBOC HZ EP   4   1214 54.73                             109    0.99 0  331 252 
 CBOC HE ES       1215 29.19                             109   -0.82 7  331 252 
 CBOC HZ I        1215 41.34         3.5 0.12            111            331 252 
 DBB  SZ EP       1214 54.54                             109    0.35 7  336 274 
 DBB  SZ ES       1215 31.36                             109    0.55 7  336 274 
 PRA  HZ EP       1215  1.04                             106    0.36 6  392 209 
 PRA  HE ES   4   1215 40.71                             106   -1.65 0  392 209 
 PRA  HZ I        1215 46.06         6.9 0.22            107            392 209 
                                                                                
