 2011 1116 1114 34.7 L   6.755 -73.143139.9  RSN  7 0.3 1.7LRSN                1
 GAP=139        0.58       3.4     3.8  5.4  0.3590E+00  0.6858E+01  0.2711E+00E
 Epicentro: LOS SANTOS - SANTANDER                                             3
 ACTION:UPD 12-07-13 16:10 OP:ep   STATUS:               ID:20111116111434 L   I
 2011-11-16-1100-00M.COL___181                                                 6
 STAT SP IPHASW D HRMM SECON CODA AMPLIT PERI AZIMU VELO AIN AR TRES W  DIS CAZ7
 BAR2 SZ EP   1   1114 53.27                             172   -0.25 7 18.5 193 
 BAR2 SZ ES   1   1115  7.95                             172   -0.26 7 18.5 193 
 BAR2 SZ I        1115  9.39         7.1 0.13                          18.5 193 
 GIR2 SZ EP   1   1114 53.83                             165    0.02 7 36.2 351 
 BRR  HZ EP   1   1114 55.57                             150    0.21 7 73.9 302 
 BRR  HZ I        1115 11.67         9.5 0.18                          73.9 302 
 BRR  HN ES   1   1115 11.75                             150    0.25 7 73.9 302 
 PAM  SZ EP   1   1114 56.47                             149   -0.04 7 81.1  37 
 PAM  SN ES   1   1115 13.17                             149   -0.37 7 81.1  37 
 PAM  SZ I        1115 15.50        11.0 0.39                          81.1  37 
 RUS  HZ EP   1   1114 57.82                             144    0.32 7 95.6 176 
 RUS  HN ES   1   1115 15.63                             144    0.33 7 95.6 176 
 RUS  HZ I        1115 17.41         6.6 0.27                          95.6 176 
 ZAR  HZ EP   1   1115  7.03                             121    0.05 6  206 293 
 ZAR  HN ES   1   1115 32.34                             121    0.17 6  206 293 
 ZAR  HZ I        1115 37.84         6.1 0.31                           206 293 
 RREF HN ES   1   1115 54.98                             110   -0.78 5  319 230 
                                                                                
