 2017  216 1232 24.5 L   6.808 -73.115138.7  RSN  7 0.4 1.6LRSN                1
 GAP=140        1.13       4.4     4.9  7.0  0.2594E+01  0.8939E+01  0.5413E+01E
 Epicentro: LOS SANTOS - SANTANDER                                             3
 ACTION:UPD 17-05-24 15:36 OP:jn   STATUS:               ID:20170216123224 L   I
 OLDACT:REG 17-02-16 20:35 OP:cog  STATUS:               ID:20170216122743     3
 2017-02-16-1228-00M.COL___358                                                 6
 STAT SP IPHASW D HRMM SECON CODA AMPLIT PERI AZIMU VELO AIN AR TRES W  DIS CAZ7
 BAR2 EZ EP       1232 42.98                             169   -0.3410 25.0 197 
 BAR2 EZ ES       1232 57.76                             169   -0.2410 25.0 197 
 BAR2 EZ I        1233  0.40        11.4 0.36            171           25.0 197 
 BRR  HZ EP       1232 45.32                             150    0.2710 73.8 297 
 BRR  HE ES       1233  1.95                             150    0.8710 73.8 297 
 BRR  HZ I        1233  5.99        16.4 0.20            151           73.8 297 
 PAM  EZ EP       1232 45.89                             150    0.0910 74.6  38 
 PAM  EE ES       1233  2.32                             150   -0.0910 74.6  38 
 PAM  EZ I        1233  4.94         9.2 0.66            152           74.6  38 
 RUS  HZ EP       1232 47.49                             142   -0.1310  101 178 
 RUS  HN ES       1233  5.47                             142   -0.1810  101 178 
 RUS  HZ I        1233  6.12         3.7 0.50            146            101 178 
 PTB  HZ EP       1232 50.41                             130   -0.82 9  151 259 
 PTB  HE ES       1233 11.66                             130   -0.42 9  151 259 
 PTB  HZ I        1233 12.90         5.6 0.12            132            151 259 
 ZAR  HZ EP       1232 57.16                             120    0.36 8  207 292 
 ZAR  HN ES       1233 21.74                             120   -0.25 8  207 292 
 CHI  HZ EP       1233  2.46                             115    0.45 8  250 196 
 CHI  HN ES       1233 32.01                             115    0.74 8  250 196 
                                                                                
