 2010  716 1145  0.6 L   6.814 -73.125140.0  RSN  6 0.6 1.7LRSN                1
 GAP=161        1.74       9.4    19.6 17.6  0.5448E+02 -0.1646E+03 -0.6067E+02E
 Epicentro: LOS SANTOS - SANTANDER                                             3
 ACTION:UPD 10-12-01 15:18 OP:pat  STATUS:               ID:20100716114500 L   I
 2010-07-16-1139-31S.COL___120                                                 6
 STAT SP IPHASW D HRMM SECON CODA AMPLIT PERI AZIMU VELO AIN AR TRES W  DIS CAZ7
 BAR2 SZ EP       1145 19.10                             170    -0.510   25 195 
 BAR2 SZ ES   1   1145 34.00                             170    -0.4 7   25 195 
 BAR2 SZ I        1145 35.15        17.5 0.88                            25 195 
 GIR2 SZ EP       1145 19.12                             167    -0.410   30 346 
 BRR  HZ EP       1145 20.80                             152    -0.410   73 297 
 BRR  HN ES       1145 37.78                             152     0.510   73 297 
 BRR  HZ I        1145 41.14        20.8 0.46                            73 297 
 RUS  HZ EP       1145 23.63                             143    -0.310  102 177 
 RUS  HN ES       1145 42.72                             143     0.710  102 177 
 RUS  HZ I        1145 43.72         8.6 0.58                           102 177 
 GUE  SZ EP       1145 24.56                             139    -0.110  115  11 
 GUE  SZ I        1145 50.03         2.9 0.12                           115  11 
 GRA  SZ EP   1   1145 26.79                             137     1.6 7  124  17 
 GRA  SZ ES   2   1145 43.75                             137    -0.6 5  124  17 
 GRA  SZ I        1145 46.38         8.0 0.29                           124  17 
                                                                                
