 2017  216 1345  8.0 L   6.807 -73.142141.3  RSN  5 0.3 1.4LRSN                1
 GAP=141        0.82       5.0     4.9  6.9 -0.7610E+01  0.9550E+01 -0.2981E+01E
 Epicentro: LOS SANTOS - SANTANDER                                             3
 ACTION:UPD 17-05-24 15:36 OP:jn   STATUS:               ID:20170216134508 L   I
 OLDACT:DUP 17-02-16 22:08 OP:cog  STATUS:               ID:20170216133745d    3
 2017-02-16-1338-00M.COL___358                                                 6
 STAT SP IPHASW D HRMM SECON CODA AMPLIT PERI AZIMU VELO AIN AR TRES W  DIS CAZ7
 BAR2 EZ EP       1345 27.11                             170    0.0210 24.2 191 
 BAR2 EZ ES       1345 41.50                             170   -0.5010 24.2 191 
 BAR2 EZ I        1345 43.23         5.9 0.14            172           24.2 191 
 BRR  HZ I        1345 53.47        11.1 0.52            149           71.1 298 
 PAM  EZ EP       1345 29.94                             150    0.2710 76.5  40 
 PAM  EE ES       1345 46.66                             150    0.0710 76.5  40 
 PAM  EZ I        1345 48.75         4.4 0.54            153           76.5  40 
 RUS  HZ EP       1345 31.12                             143   -0.2310  101 176 
 RUS  HN ES       1345 49.95                             143    0.3710  101 176 
 RUS  HZ I        1345 51.38         1.8 0.26            150            101 176 
 PTB  HZ EP       1345 34.26                             131   -0.37 9  148 259 
 PTB  HN ES       1345 55.77                             131    0.35 9  148 259 
 PTB  HZ I        1345 57.58         2.6 0.10            133            148 259 
                                                                                
