 2010 1216 1445 48.8 L   6.783 -73.126144.9  RSN  6 0.2 1.9LRSN                1
 GAP=185        0.42       2.9     5.3  6.3 -0.4389E+01  0.1430E+02 -0.2070E+01E
 Epicentro: LOS SANTOS - SANTANDER                                             3
 ACTION:UP  11-01-14 15:25 OP:pat  STATUS:               ID:20101216144548 L   I
 2010-12-16-1444-32S.COL___137                                                 6
 STAT SP IPHASW D HRMM SECON CODA AMPLIT PERI AZIMU VELO SNR AR TRES W  DIS CAZ7
 BTL  SZ EP       1446  8.47                             171     0.210   22 314 
 BAR2 SZ EP       1446  8.31                             171     0.010   22 197 
 BAR2 SZ ES   2   1446 23.33                             171    -0.2 5   22 197 
 BAR2 SZ I        1446 24.83        31.5 0.36                            22 197 
 RUS  HZ EP   2   1446 12.31                             144     0.0 5   99 177 
 RUS  HN ES   1   1446 30.65                             144     0.0 7   99 177 
 RUS  HZ I        1446 32.49        10.9 0.08                            99 177 
 OCA  SZ ES   2   1446 39.02                             129    -0.4 5  162 352 
 OCA  SZ I        1446 44.15        10.2 0.22                           162 352 
 NOR  SZ EP   2   1446 24.70                             118     0.1 4  236 235 
 NOR  SE ES   1   1446 52.48                             118     0.0 6  236 235 
 CHI  HZ EP   2   1446 25.81                             117    -0.5 4  247 196 
 CHI  HE ES   2   1446 55.33                             117    -0.2 4  247 196 
 CHI  HZ I        1446 59.80         4.9 0.44                           247 196 
                                                                                
