 2013  216 1316 58.2 L   6.728 -73.219127.7  RSN  6 0.5 1.8LRSN                1
 GAP=217        0.90       8.2     7.8  8.2  0.3968E+02  0.1894E+02  0.1678E+02E
 Epicentro: VILLANUEVA - SANTANDER                                             3
 ACTION:UPD 13-03-12 09:33 OP:ep   STATUS:               ID:20130216131657 L   I
 2013-02-16-1310-00M.COL___241                                                 6
 STAT SP IPHASW D HRMM SECON CODA AMPLIT PERI AZIMU VELO AIN AR TRES W  DIS CAZ7
 BAR2 SZ EP   1   1317 15.36                             173   -0.17 7 15.5 165 
 BAR2 SZ ES   1   1317 28.23                             173   -0.80 7 15.5 165 
 BAR2 SZ I        1317 31.88        16.0 0.58            155           15.5 165 
 BRR  HZ EP   1   1317 17.16                             150   -0.13 7 68.7 308 
 BRR  HN ES   1   1317 32.97                             150    0.81 7 68.7 308 
 BRR  HN I        1317 34.34        24.5 0.26            141           68.7 308 
 RUS  HZ EP   1   1317 19.97                             142    0.27 7 93.6 171 
 RUS  HN ES   2   1317 37.26                             142    0.81 5 93.6 171 
 RUS  HN I        1317 39.44        11.5 0.34            119           93.6 171 
 PTB  HZ EP   1   1317 22.33                             129   -0.55 7  138 261 
 PTB  HN ES   1   1317 41.96                             129   -0.15 7  138 261 
 PTB  HN I        1317 43.13        11.0 0.24            113            138 261 
 ZAR  HZ EP   1   1317 29.50                             118    0.40 6  200 295 
 ZAR  HN ES   1   1317 53.08                             118   -0.10 6  200 295 
 ZAR  HN I        1318  0.87         7.8 0.32            106            200 295 
 CHI  HZ EP   1   1317 33.99                             114    0.10 6  239 194 
 CHI  HN I        1318  9.29         3.5 0.54            101            239 194 
 SML  HE ES   4   1317 59.33                             113   -3.21 0  248 338 
                                                                                
