 2010 1216 1624 26.4 L   6.564 -73.699 95.5  RSN 11 0.4 2.0LRSN                1
 GAP=114        0.70       3.7     5.5 10.9 -0.6875E+01  0.3648E+02 -0.5873E+01E
 Epicentro: EL CARMEN DE CHUCURI - SANTANDER                                   3
 ACTION:UP  11-01-14 15:25 OP:pat  STATUS:               ID:20101216162426 L   I
 2010-12-16-1619-56S.COL___137                                                 6
 STAT SP IPHASW D HRMM SECON CODA AMPLIT PERI AZIMU VELO SNR AR TRES W  DIS CAZ7
 BAR2 SZ IP       1624 41.62                             147    -0.110   57  87 
 BAR2 SZ I        1624 42.41        48.2 0.13                            57  87 
 BAR2 SZ ES   2   1624 53.92                             147     0.3 5   57  87 
 BTL  SZ IP       1624 41.85                             145    -0.210   62  51 
 GIR2 SZ EP   2   1624 42.91                             137    -0.4 5   80  44 
 RUS  HZ EP       1624 45.29                             131    -0.310  101 137 
 RUS  HZ I        1624 46.33        15.1 0.15                           101 137 
 RUS  HE ES   2   1625  1.38                             131     0.7 5  101 137 
 NOR  SZ EP   2   1624 51.96                             115    -0.4 4  170 230 
 GRA  SZ EP   1   1624 53.80                             114     0.6 7  176  34 
 GRA  SZ ES   2   1625 14.38                             114     0.3 4  176  34 
 GRA  SZ I        1625 17.17        19.7 0.31                           176  34 
 OCA  SZ EP   2   1624 54.33                             112    -0.4 4  190  13 
 OCA  SZ ES   2   1625 16.60                             112    -0.2 4  190  13 
 OCA  SZ I        1625 23.22        18.3 0.29                           190  13 
 HEL  HZ EP   2   1624 56.94                             111     0.1 4  207 259 
 HEL  HN ES   2   1625 21.04                             111     0.4 4  207 259 
 HEL  HZ I        1625 25.11        12.6 0.47                           207 259 
 CHI  HZ EP   2   1624 58.32                             110     0.5 4  214 181 
 CHI  HZ I        1625 27.26         6.0 0.30                           214 181 
 RREF HZ EP   2   1625  3.87                             106     0.5 4  259 225 
 RREF HZ I        1625 38.68        10.3 0.73                           259 225 
 PRA  HZ EP   2   1625 13.01                             102     0.5 3  342 203 
 PRA  HE ES   2   1625 48.15                             102    -0.4 3  342 203 
                                                                                
