 2014  916 1007  5.0 L   6.817 -73.127146.0  RSN 18 0.4 1.9LRSN                1
 GAP=138        0.86       2.5     3.5  4.6 -0.1456E+01  0.2977E+01  0.1744E+01E
 Epicentro: LOS SANTOS - SANTANDER                                             3
 ACTION:UPD 14-10-03 23:05 OP:nd   STATUS:               ID:20140916100705 L   I
 OLDACT:REG 14-09-16 21:32 OP:spq  STATUS:               ID:20140916095817     3
 2014-09-16-0958-17M.COL___263                                                 6
 STAT SP IPHASW D HRMM SECON CODA AMPLIT PERI AZIMU VELO AIN AR TRES W  DIS CAZ7
 BAR2 SZ EP       10 7 24.55                             170   -0.1810 25.6 194 
 BAR2 SZ ES   1   10 7 39.85                             170   -0.25 7 25.6 194 
 BAR2 SZ I        10 7 40.88        31.0 0.21            166           25.6 194 
 BRR  HZ EP       10 7 26.38                             152    0.1310 72.2 296 
 BRR  HE ES       10 7 43.47                             152    0.6610 72.2 296 
 BRR  HZ I        10 7 47.33        12.0 0.22            149           72.2 296 
 PAM  SZ EP       10 7 27.40                             152    0.3010 74.6  39 
 PAM  SN ES       10 7 44.40                             152    0.0810 74.6  39 
 PAM  SZ I        10 7 46.98        10.1 0.53            157           74.6  39 
 RUS  HZ EP       10 7 28.62                             143   -0.3010  102 177 
 RUS  HN ES   1   10 7 47.39                             143   -0.17 7  102 177 
 RUS  HZ I        10 7 48.90         7.7 0.34            144            102 177 
 PTB  HZ EP       10 7 31.45                             132   -0.78 9  150 258 
 PTB  HE ES       10 7 52.98                             132   -0.47 9  150 258 
 PTB  HZ I        10 7 57.77         7.8 0.12            130            150 258 
 OCA  HZ EP   1   10 7 33.78                             130    0.58 7  159 352 
 OCA  HN ES       10 7 54.73                             130   -0.45 9  159 352 
 OCA  HZ I        10 7 59.01         6.1 0.22            131            159 352 
 SPBC HZ EP     D 10 7 33.58                             129   -0.22 9  166 219 
 SPBC HE ES       10 7 56.60                             129    0.36 9  166 219 
 SPBC HZ I        10 8  2.79        12.0 0.44            128            166 219 
 ZAR  HZ EP   1   10 7 37.69                             122    0.08 6  205 291 
 ZAR  HN ES       10 8  2.96                             122   -0.07 8  205 291 
 ZAR  HZ I        10 8  8.49         7.1 0.38            122            205 291 
 NOR  HZ EP   1   10 7 41.35                             118    0.29 6  237 234 
 NOR  HN ES       10 8  9.61                             118    0.44 8  237 234 
 NOR  HZ I        10 8 13.64         6.6 0.36            118            237 234 
 SML  HZ EP       10 7 41.90                             118    0.33 8  243 335 
 SML  HE ES   1   10 8  9.72                             118   -0.36 6  243 335 
 SML  HZ I        10 8 15.84         6.4 0.04            118            243 335 
 CHI  HZ EP   1   10 7 42.75                             117   -0.24 6  251 196 
 CHI  HE ES   1   10 8 12.51                             117   -0.09 6  251 196 
 CHI  HZ I        10 8 19.57         3.2 0.38            118            251 196 
 HEL  HZ EP   1   10 7 45.12                             115   -0.40 6  275 256 
 HEL  HN ES   4   10 8 19.52                             115    2.41 0  275 256 
 HEL  HZ I        10 8 24.55         3.4 0.30            114            275 256 
 GUY2CHZ EP   4   10 7 50.06                             112    1.11 0  304 235 
 GUY2CHN ES   4   10 8 26.91                             112    3.69 0  304 235 
 GUY2CHZ I        10 8 33.92         3.1 0.59                           304 235 
 TOL  SZ EP   1   10 7 54.57                             109    0.96 5  346 225 
 TOL  SE ES   4   10 8 33.40                             109    1.90 0  346 225 
 TOL  SZ I        10 8 39.24         7.1 0.40            110            346 225 
 MON  HZ EP   4   10 7 52.03                             109   -2.06 0  354 308 
 MON  HN ES   4   10 8 30.46                             109   -1.90 0  354 308 
 MON  HZ I        10 8 36.66         1.5 0.44            109            354 308 
 PRA  HZ EP       10 7 59.13                             106    0.27 6  395 210 
 PRA  HE ES   4   10 8 42.39                             106    1.54 0  395 210 
 PRA  HZ I        10 8 47.51         4.0 0.34            107            395 210 
 ORTC HZ EP       10 7 59.49                             106    0.22 6  398 216 
 ORTC HN ES   4   10 8 44.06                             106    2.48 0  398 216 
 ORTC HZ I        10 8 49.65         2.3 0.48            107            398 216 
 SJC  HZ EP   4   10 7 58.93                             106   -1.61 0  409 327 
 SJC  HN ES   4   10 8 41.47                             106   -2.38 0  409 327 
 SJC  HZ I        10 8 43.32         1.8 0.36            107            409 327 
                                                                                
