 2016 1116 1333 19.9 L   6.839 -73.151147.8  RSN 13 0.5 2.5LRSN                1
 GAP=106        1.16       4.7     3.6  6.5 -0.1085E+01  0.4988E+01  0.1175E+02E
 Epicentro: LOS SANTOS - SANTANDER                                             3
 ACTION:UPD 17-10-26 21:08 OP:lp   STATUS:               ID:20161116133319 L   I
 OLDACT:UP  16-11-16 22:43 OP:ar   STATUS:               ID:20161116132645     3
 OLDACT:UP  16-11-16 22:42 OP:ar   STATUS:               ID:20161116132645     3
 OLDACT:REG 16-11-16 20:37 OP:ar   STATUS:               ID:20161116132645     3
 2016-11-16-1327-00M.COL___317                                                 6
 STAT SP IPHASW D HRMM SECON CODA AMPLIT PERI AZIMU VELO AIN AR TRES W  DIS CAZ7
 BAR2 EZ EP       1333 39.79                             169   -0.1010 27.5 187 
 BAR2 EZ ES       1333 54.48                             169   -0.9810 27.5 187 
 BAR2 EZ I        1333 55.83       148.1 0.30            167           27.5 187 
 BRR  HZ IP     C 1333 41.55                             153    0.4010 68.7 296 
 BRR  HN ES       1333 58.57                             153    0.8610 68.7 296 
 BRR  HZ I        1334  1.19        48.1 0.16            151           68.7 296 
 PAM  EZ IP     C 1333 42.59                             152    0.4010 74.5  42 
 PAM  EN ES       1333 59.58                             152    0.0310 74.5  42 
 PAM  EZ I        1334  2.09        75.5 0.70            155           74.5  42 
 PTB  HZ EP       1333 46.82                             132   -0.27 9  148 257 
 PTB  HN ES       1334  7.75                             132   -0.52 9  148 257 
 PTB  HZ I        1334 12.98        45.9 0.16            131            148 257 
 TAM  HZ IP     D 1333 48.21                             130    0.29 9  157 106 
 TAM  HN ES       1334  9.55                             130   -0.21 9  157 106 
 TAM  HZ I        1334 10.91        21.4 0.34            133            157 106 
 ZAR  HZ EP       1333 52.29                             123    0.01 9  202 291 
 ZAR  HN ES       1334 17.22                             123   -0.30 9  202 291 
 ZAR  HZ I        1334 24.03        36.5 0.60            122            202 291 
 CHI  HZ EP       1333 58.07                             117   -0.10 8  253 195 
 CHI  HN ES   4   1334 26.60                             117   -1.40 0  253 195 
 CHI  HZ I        1334 30.16        10.0 0.36            117            253 195 
 ROSC BZ EP   4   1333 59.78                             117    1.26 0  256 210 
 ROSC BN ES       1334 29.53                             117    0.90 8  256 210 
 ROSC BZ I        1334 33.81        17.1 0.40            117            256 210 
 URE  HZ EP       1334  0.64                             114   -0.22 7  282 291 
 URE  HE ES   4   1334 30.81                             114   -1.97 0  282 291 
 URE  HZ I        1334 43.42        21.6 0.36            114            282 291 
 ELA  HZ EP       1334  6.29                             110   -0.84 7  331 229 
 ELA  HN ES       1334 44.68                             110    0.73 7  331 229 
 ELA  HZ I        1334 54.62         8.9 0.64            110            331 229 
 PRA  HZ EP       1334 13.53                             106   -0.39 6  395 209 
 PRA  HN ES       1334 55.66                             106   -0.37 6  395 209 
 PRA  HZ I        1335  0.94        16.4 0.30            107            395 209 
 ORTC HZ EP       1334 14.14                             106   -0.14 6  399 216 
 ORTC HE ES       1334 57.30                             106    0.62 6  399 216 
 ORTC HZ I        1335  3.38        10.4 0.52            107            399 216 
 CRJC HZ EP   4   1334 17.87                             104   -4.11 0  463   4 
 CRJC HE ES   4   1335  7.52                             104   -2.86 0  463   4 
 CRJC HZ I        1335 11.47         7.4 0.24            104            463   4 
                                                                                
