 2011  916 1434  6.6 L   6.783 -73.154144.4  RSN  5 0.1 1.7LRSN                1
 GAP=136        0.29       2.5     3.5  4.4  0.2142E+01 -0.8357E+01  0.7339E+00E
 Epicentro: LOS SANTOS - SANTANDER                                             3
 ACTION:UPD 12-07-13 15:57 OP:ep   STATUS:               ID:20110916143406 L   I
 2011-09-16-1430-05S.COL___170                                                 6
 STAT SP IPHASW D HRMM SECON CODA AMPLIT PERI AZIMU VELO AIN AR TRES W  DIS CAZ7
 BAR2 SZ EP       1434 25.95                             171   -0.1210 21.3 188 
 BAR2 SZ I        1434 26.47         7.2 0.16                          21.3 188 
 BRR  HZ EP       1434 27.67                             152    0.0210 71.3 300 
 BRR  HZ I        1434 30.16        12.9 0.34                          71.3 300 
 BRR  HN ES       1434 44.04                             152    0.0010 71.3 300 
 PAM  SZ EP       1434 28.89                             150    0.0510 79.4  39 
 PAM  SN ES   3   1434 46.08                             150   -0.07 2 79.4  39 
 RUS  HZ EP       1434 30.16                             144    0.0310 98.8 175 
 RUS  HE ES   2   1434 48.56                             144    0.11 5 98.8 175 
 ZAR  HE ES   3   1435  4.25                             122    0.04 2  204 293 
 ZAR  HZ I        1435  9.53         6.8 0.32                           204 293 
                                                                                
