 2014  916 1243 43.7 L   7.450 -73.168133.1  RSN 12 0.4 1.9LRSN                1
 GAP=114        0.89       3.3     3.9  5.6  0.1842E+01  0.4760E+01  0.4198E+01E
 Epicentro: EL PLAYON - SANTANDER                                              3
 ACTION:UPD 14-10-03 23:05 OP:nd   STATUS:               ID:20140916124343 L   I
 OLDACT:UP  14-09-17 00:28 OP:spq  STATUS:               ID:20140916123819     3
 OLDACT:REG 14-09-16 21:49 OP:spq  STATUS:               ID:20140916123819     3
 2014-09-16-1238-19M.COL___281                                                 6
 STAT SP IPHASW D HRMM SECON CODA AMPLIT PERI AZIMU VELO AIN AR TRES W  DIS CAZ7
 PAM  SZ EP       1244  3.61                             157    0.3610 53.2 103 
 PAM  SN ES   1   1244 18.84                             157    0.35 7 53.2 103 
 PAM  SZ I        1244 20.91         6.9 0.20            161           53.2 103 
 BRR  HZ EP       1244  3.42                             150   -0.0910 71.0 238 
 BRR  HN ES       1244 18.75                             150   -0.1910 71.0 238 
 BRR  HZ I        1244 22.82        26.7 0.42            147           71.0 238 
 OCA  HN ES       1244 21.67                             144    0.2510 88.8 349 
 OCA  HZ I        1244 23.49        16.7 0.38            148           88.8 349 
 BAR2 SZ EP       1244  5.25                             142   -0.2210 94.9 181 
 BAR2 SZ ES   1   1244 22.13                             142   -0.30 7 94.9 181 
 BAR2 SZ I        1244 22.81        49.2 0.19            141           94.9 181 
 RUS  HZ EP       1244 12.71                             125   -0.03 9  173 177 
 RUS  HN ES   1   1244 35.14                             125   -0.24 7  173 177 
 RUS  HZ I        1244 38.00         4.7 0.34            125            173 177 
 PTB  HZ EP       1244 12.01                             124   -0.29 9  174 235 
 PTB  HN ES       1244 34.43                             124   -0.16 9  174 235 
 PTB  HZ I        1244 36.33         8.9 0.10            124            174 235 
 SML  HZ EP   1   1244 12.11                             123   -0.69 7  179 326 
 SML  HN ES   1   1244 34.50                             123   -0.97 7  179 326 
 SML  HZ I        1244 34.98        19.0 0.10            125            179 326 
 ZAR  HZ EP       1244 13.95                             122    0.41 9  187 272 
 ZAR  HE ES       1244 37.48                             122    0.68 9  187 272 
 ZAR  HZ I        1244 41.20         9.3 0.24            122            187 272 
 NOR  HZ EP       1244 23.73                             111   -0.20 7  281 222 
 NOR  HE ES   4   1244 56.50                             111    1.21 0  281 222 
 NOR  HZ I        1245  0.87         6.6 0.28            112            281 222 
 HEL  HZ EP   4   1244 27.54                             110    1.52 0  296 242 
 HEL  HN ES   4   1245  2.81                             110    3.80 0  296 242 
 HEL  HZ I        1245  8.38         3.6 0.52            111            296 242 
 CHI  HZ EP   1   1244 29.32                             109    0.68 5  318 191 
 CHI  HE ES   4   1245  7.77                             109    4.09 0  318 191 
 CHI  HZ I        1245 12.71         2.6 0.53            109            318 191 
 GUY2CHZ EP   1   1244 32.69                             107    0.73 5  346 225 
 GUY2CHN ES   4   1245 13.49                             107    3.91 0  346 225 
 GUY2CHZ I        1245 20.01         4.0 0.32                           346 225 
                                                                                
