 2016 1216 1445 44.7 L   6.774 -73.155145.1  RSN 11 0.5 2.9LRSN                1
 GAP= 98        1.14       4.3     3.8  6.4 -0.2257E+01  0.4121E+00  0.1097E+02E
 Epicentro: LOS SANTOS - SANTANDER                                             3
 ACTION:UPD 17-01-11 20:15 OP:rebc STATUS:               ID:20161216144544 L   I
 OLDACT:UP  16-12-17 02:08 OP:ar   STATUS:               ID:20161216143748     3
 OLDACT:UP  16-12-17 02:07 OP:ar   STATUS:               ID:20161216143748     3
 OLDACT:REG 16-12-16 23:06 OP:ar   STATUS:               ID:20161216143748     3
 2016-12-16-1438-00M.COL___369                                                 6
 STAT SP IPHASW D HRMM SECON CODA AMPLIT PERI AZIMU VELO AIN AR TRES W  DIS CAZ7
 BAR2 EZ IP     C 1446  4.13                             172   -0.0210 20.3 189 
 BAR2 EZ ES       1446 18.78                             172   -0.5710 20.3 189 
 BAR2 EZ I        1446 20.33       342.3 0.32            169           20.3 189 
 BRR  HZ IP     C 1446  5.91                             152    0.1510 71.7 301 
 BRR  HE ES       1446 23.13                             152    0.9010 71.7 301 
 BRR  HZ I        1446 27.12       111.1 0.14            151           71.7 301 
 PAM  EZ IP     C 1446  6.95                             150   -0.0310 80.3  39 
 PAM  EN ES       1446 24.24                             150   -0.1510 80.3  39 
 PAM  EZ I        1446 26.65       129.6 0.62            154           80.3  39 
 RUS  HZ EP       1446  8.14                             144    0.0010 97.7 175 
 RUS  HN ES       1446 26.49                             144    0.0310 97.7 175 
 RUS  HZ I        1446 27.70        81.2 0.50            145           97.7 175 
 PTB  HZ EP       1446 10.57                             132   -0.86 9  146 260 
 PTB  HN ES       1446 31.69                             132   -0.62 9  146 260 
 PTB  HZ I        1446 37.45       105.3 0.14            132            146 260 
 TAM  HZ EP       1446 12.58                             130    0.27 9  155 104 
 TAM  HN ES       1446 34.02                             130    0.15 9  155 104 
 NOR  HZ EP       1446 20.50                             119    0.43 8  232 235 
 NOR  HN ES       1446 48.03                             119    0.33 8  232 235 
 NOR  HZ I        1446 54.44        41.1 0.22            119            232 235 
 CHI  HZ EP       1446 22.46                             117    0.48 8  246 195 
 CHI  HN ES       1446 51.68                             117    0.58 8  246 195 
 CHI  HZ I        1446 53.86        31.6 0.40            118            246 195 
 ROSC BZ EP   4   1446 24.06                             117    1.65 0  250 211 
 ROSC BE ES   4   1446 55.34                             117    3.49 0  250 211 
 ROSC BZ I        1446 58.77       100.3 0.40            118            250 211 
 VIL  EZ EP       1446 27.89                             112    0.19 7  300 191 
 VIL  HN ES       1447  0.90                             112   -0.37 7  300 191 
 VIL  EZ I        1447  4.86        42.3 0.34            113            300 191 
 PTGC HZ EP       1446 27.31                             112   -0.91 7  306 158 
 PTGC HN ES   4 C 1447  1.08                             112   -1.11 0  306 158 
 PTGC HZ I        1447  2.65        28.1 0.64            113            306 158 
                                                                                
