 2013  216 1021 27.0 L   6.777 -73.161136.3  RSN  7 0.4 1.7LRSN                1
 GAP=136        0.82       4.8     5.2  7.2  0.6827E+01  0.1379E+02  0.8377E+01E
 Epicentro: LOS SANTOS - SANTANDER                                             3
 ACTION:UPD 13-03-12 09:33 OP:ep   STATUS:               ID:20130216102127 L   I
 2013-02-16-1020-00M.COL___241                                                 6
 STAT SP IPHASW D HRMM SECON CODA AMPLIT PERI AZIMU VELO AIN AR TRES W  DIS CAZ7
 BAR2 SZ EP   1   1021 45.57                             171    0.11 7 20.6 187 
 BAR2 SZ ES   1   1021 58.96                             171   -0.88 7 20.6 187 
 BAR2 SZ I        1022  1.67         8.8 0.20            168           20.6 187 
 BRR  HZ EP   1   1021 47.28                             151    0.14 7 71.0 301 
 BRR  HN ES   1   1022  3.39                             151    0.55 7 71.0 301 
 BRR  HN I        1022  7.67        14.9 0.40            150           71.0 301 
 PAM  SN ES   1   1022  5.25                             148    0.12 7 80.4  39 
 PAM  SN I        1022  6.10        17.1 0.48            155           80.4  39 
 RUS  HZ EP   1   1021 49.67                             142   -0.01 7 98.2 175 
 RUS  HN ES   1   1022  7.70                             142    0.35 7 98.2 175 
 RUS  HN I        1022 10.33         3.3 0.32            144           98.2 175 
 PTB  HZ EP   1   1021 52.28                             130   -0.76 7  146 260 
 PTB  HN ES   1   1022 13.41                             130    0.08 7  146 260 
 PTB  HN I        1022 16.75        12.2 0.20            131            146 260 
 ZAR  HZ EP   1   1021 58.44                             120   -0.37 6  203 293 
 ZAR  HN ES   1   1022 23.80                             120    0.20 6  203 293 
 ZAR  HN I        1022 28.84         5.9 0.16            122            203 293 
 CHI  HZ EP   1   1022  4.43                             115    0.53 6  246 195 
 CHI  HN ES   2   1022 32.66                             115    0.00 4  246 195 
 CHI  HN I        1022 36.79         2.8 0.38            118            246 195 
                                                                                
