 2015  816 1008 33.0 L   6.800 -73.094143.2  RSN 11 0.5 1.8LRSN                1
 GAP=188        0.97       3.1     5.1  5.7 -0.9944E+00  0.9068E+01  0.8169E+00E
 Epicentro: LOS SANTOS - SANTANDER                                             3
 ACTION:UPD 15-09-15 23:02 OP:cam  STATUS:               ID:20150816100833 L   I
 OLDACT:REG 15-08-16 20:57 OP:ar   STATUS:               ID:20150816100747     3
 2015-08-16-1007-47M.COL___331                                                 6
 STAT SP IPHASW D HRMM SECON CODA AMPLIT PERI AZIMU VELO AIN AR TRES W  DIS CAZ7
 BAR2 EZ EP       10 8 52.39                             170    0.0210 25.0 203 
 BAR2 EZ ES       10 9  7.35                             170   -0.1210 25.0 203 
 BAR2 EZ I        10 9  8.41         7.4 0.36            167           25.0 203 
 BRR  HZ EP       10 8 54.29                             150    0.1010 76.3 296 
 BRR  HE ES       10 9 11.20                             150    0.5010 76.3 296 
 BRR  HZ I        10 9 14.64         8.9 0.14            146           76.3 296 
 RUS  HZ EP       10 8 56.11                             143   -0.3910  100 179 
 RUS  HN ES       10 9 15.09                             143    0.2710  100 179 
 RUS  HZ I        10 9 17.60         4.6 0.44            146            100 179 
 OCA  HZ EP       10 9  1.32                             129    0.12 9  161 351 
 OCA  HN ES       10 9 23.39                             129    0.21 9  161 351 
 OCA  HZ I        10 9 31.99        12.4 0.52            129            161 351 
 SPBC HZ EP       10 9  1.32                             128   -0.35 9  167 221 
 SPBC HN ES       10 9 23.49                             128   -0.53 9  167 221 
 SPBC HZ I        10 9 27.45         6.3 0.12            128            167 221 
 ZAR  HZ EP       10 9  4.98                             121   -0.87 8  209 292 
 ZAR  HN ES       10 9 30.94                             121   -0.52 8  209 292 
 ZAR  HZ I        10 9 36.28         9.5 0.28            120            209 292 
 HEL  HZ EP   2   10 9 14.59                             114    0.87 4  278 256 
 HEL  HN ES   2   10 9 45.20                             114   -0.27 4  278 256 
 HEL  HZ I        10 9 50.58         3.7 0.32            114            278 256 
 URE  HE ES   4   10 9 43.57                             113   -3.39 0  289 291 
 URE  HN I        10 9 56.18        10.1 0.28            112            289 291 
 GUY2CHZ EP       10 9 17.73                             112    0.69 7  306 235 
 GUY2CHN ES       10 9 52.24                             112    0.86 7  306 235 
 GUY2CHZ I        1010  0.90         3.3 0.52                           306 235 
 TOL  SZ EP       10 9 22.08                             109    0.44 6  348 225 
 TOL  SE ES       10 9 59.39                             109   -0.18 6  348 225 
 TOL  SZ I        1010  6.68         2.4 0.74            109            348 225 
 ORTC HZ EP   2   10 9 28.03                             106    0.78 3  399 217 
 ORTC HE ES   2   1010  9.92                             106    0.37 3  399 217 
 ORTC HZ I        1010 15.96         1.5 0.56            107            399 217 
                                                                                
