 2013  716 1245 59.6 L   6.798 -73.121145.8  RSN 11 0.5 2.1LRSN                1
 GAP=192        1.25       3.7     5.9  6.2  0.2267E+01  0.8735E+01  0.3031E+01E
 Epicentro: LOS SANTOS - SANTANDER                                             3
 ACTION:UPD 13-08-12 10:38 OP:ep   STATUS:               ID:20130716124559 L   I
 OLDACT:REG 13-07-16 15:32 OP:nd   STATUS:               ID:20130716123959     3
 2013-07-16-1239-59M.COL___267                                                 6
 STAT SP IPHASW D HRMM SECON CODA AMPLIT PERI AZIMU VELO AIN AR TRES W  DIS CAZ7
 BAR2 SZ EP       1246 19.30                             170    0.0610 23.7 197 
 BAR2 SZ ES       1246 34.72                             170    0.1510 23.7 197 
 BAR2 SZ I        1246 35.59        29.4 0.34            166           23.7 197 
 GIR2 SZ EP       1246 19.38                             167    0.0810 32.1 345 
 GIR2 SZ ES       1246 34.32                             167   -0.3510 32.1 345 
 GIR2 SZ I        1246 36.27        17.0 0.10            165           32.1 345 
 BRR  HZ EP     C 1246 21.14                             152    0.2410 73.7 298 
 BRR  HN ES       1246 38.30                             152    0.7810 73.7 298 
 BRR  HZ I        1246 42.13        18.3 0.30            148           73.7 298 
 RUS  HZ EP       1246 23.44                             144    0.1110  100 178 
 RUS  HN ES       1246 41.57                             144   -0.2710  100 178 
 RUS  HZ I        1246 43.15         9.2 0.36            144            100 178 
 PTB  HZ EP       1246 25.86                             131   -0.95 9  150 259 
 PTB  HN ES       1246 47.10                             131   -0.94 9  150 259 
 PTB  HZ I        1246 54.50        25.7 0.38            129            150 259 
 SPBC HZ EP       1246 28.11                             129   -0.14 9  165 220 
 SPBC HN ES       1246 51.22                             129    0.62 9  165 220 
 ZAR  HZ EP       1246 33.03                             122    0.71 8  207 292 
 ZAR  HE ES       1246 58.65                             122    0.81 8  207 292 
 ZAR  HZ I        1247  4.37        11.2 0.32            121            207 292 
 NOR  HZ EP       1246 35.58                             118    0.02 8  237 235 
 NOR  HN ES       1247  3.20                             118   -0.41 8  237 235 
 NOR  HZ I        1247  9.37        12.6 0.14            118            237 235 
 SML  HZ EP       1246 36.71                             117    0.33 8  245 335 
 SML  HN ES       1247  3.96                             117   -1.10 8  245 335 
 SML  HZ I        1247  8.93        18.3 0.10            118            245 335 
 CHI  HZ EP       1246 37.48                             117    0.12 8  249 196 
 CHI  HN ES       1247  6.60                             117   -0.21 8  249 196 
 CHI  HZ I        1247 16.48         6.4 0.26            118            249 196 
 PRA  HZ EP       1246 53.48                             106    0.22 6  393 210 
 PRA  HN ES       1247 35.27                             106    0.16 6  393 210 
 PRA  HZ I        1247 39.16         5.5 0.42            107            393 210 
                                                                                
