 2011 1016 1127  7.8 L   6.784 -73.110142.1  RSN  5 0.3 1.5LRSN                1
 GAP=142        0.69       3.7     7.2  6.7  0.1742E+01 -0.2215E+01 -0.3525E+01E
 Epicentro: LOS SANTOS - SANTANDER                                             3
 ACTION:UPD 12-07-13 16:04 OP:ep   STATUS:               ID:20111016112707 L   I
 2011-10-16-1123-03S.COL___167                                                 6
 STAT SP IPHASW D HRMM SECON CODA AMPLIT PERI AZIMU VELO AIN AR TRES W  DIS CAZ7
 BAR2 SZ EP       1127 26.94                             170   -0.0810 22.7 201 
 BAR2 SZ I        1127 27.60         7.3 0.26                          22.7 201 
 BAR2 SZ ES   1   1127 41.66                             170   -0.33 7 22.7 201 
 BRR  HZ EP   1   1127 29.12                             150    0.27 7 75.5 298 
 BRR  HZ I        1127 29.29         8.2 0.11                          75.5 298 
 BRR  HE ES   1   1127 45.65                             150    0.41 7 75.5 298 
 PAM  SZ EP   1   1127 30.03                             150    0.42 7 76.3  36 
 PAM  SN ES   1   1127 46.87                             150    0.28 7 76.3  36 
 PAM  SZ I        1127 48.82         3.7 0.46                          76.3  36 
 RUS  HZ EP   1   1127 30.94                             144   -0.16 7 98.7 178 
 RUS  HE ES   1   1127 49.15                             144   -0.09 7 98.7 178 
 RUS  HZ I        1127 49.35         4.1 0.61                          98.7 178 
 OCA  SZ EP   1   1127 36.04                             128   -0.05 7  162 352 
 OCA  SZ ES   1   1127 57.37                             128   -0.74 7  162 352 
 OCA  SZ I        1128  2.27         6.1 0.39                           162 352 
                                                                                
