 2013  616 1136 50.5 L   6.759 -73.181148.5  RSN  4 0.2 1.3LRSN                1
 GAP=230        0.63       5.1     4.8  5.3  0.1132E+02  0.3308E+01 -0.3102E+00E
 Epicentro: VILLANUEVA - SANTANDER                                             3
 ACTION:UPD 14-01-08 09:55 OP:ep   STATUS:               ID:20130616113650 L   I
 OLDACT:DUP 13-06-16 18:13 OP:cam  STATUS:               ID:20130616112960d    3
 OLDACT:REG 13-06-16 17:35 OP:cam  STATUS:               ID:20130616112959     3
 2013-06-16-1129-59M.COL___261                                                 6
 STAT SP IPHASW D HRMM SECON CODA AMPLIT PERI AZIMU VELO AIN AR TRES W  DIS CAZ7
 BAR2 SZ EP       1137 10.21                             173   -0.1310 18.4 180 
 BAR2 SZ ES       1137 25.45                             173   -0.3910 18.4 180 
 BRR  HZ EP       1137 12.07                             153    0.2110 70.2 303 
 BRR  HN ES       1137 28.78                             153    0.2410 70.2 303 
 RUS  HZ EP   1   1137 14.28                             146    0.08 7 96.4 174 
 RUS  HN ES       1137 32.98                             146    0.2810 96.4 174 
 RUS  HZ I        1137 33.80         3.1 0.36            143           96.4 174 
 PTB  HZ EP       1137 17.01                             134   -0.24 9  143 260 
 PTB  HN ES       1137 38.08                             134   -0.05 9  143 260 
 PTB  HZ I        1137 43.41         2.4 0.28            130            143 260 
                                                                                
