 2013  216 1147 27.6 L   6.780 -73.166138.3  RSN  7 0.4 1.9LRSN                1
 GAP=135        0.86       3.9     4.8  6.7 -0.2385E+00  0.1169E+02  0.4438E+01E
 Epicentro: LOS SANTOS - SANTANDER                                             3
 ACTION:UPD 13-03-12 09:33 OP:ep   STATUS:               ID:20130216114727 L   I
 2013-02-16-1140-00M.COL___241                                                 6
 STAT SP IPHASW D HRMM SECON CODA AMPLIT PERI AZIMU VELO AIN AR TRES W  DIS CAZ7
 BAR2 SZ EP   1   1147 46.27                             171   -0.07 7 20.8 185 
 BAR2 SZ ES       1148  0.86                             171   -0.0510 20.8 185 
 BAR2 SZ I        1148  3.01        19.5 0.18            170           20.8 185 
 BRR  HZ EP   1   1147 48.11                             151    0.16 7 70.4 301 
 BRR  HN ES   1   1148  4.75                             151    0.97 7 70.4 301 
 BRR  HN I        1148  8.58        20.2 0.16            150           70.4 301 
 PAM  SZ EP   1   1147 49.13                             149   -0.15 7 80.6  40 
 PAM  SN ES       1148  5.87                             149   -0.2810 80.6  40 
 PAM  SN I        1148  7.02        12.5 0.46            153           80.6  40 
 RUS  HN ES   1   1148  8.55                             143    0.18 7 98.5 175 
 RUS  HN I        1148 10.22        14.7 0.26            145           98.5 175 
 PTB  HZ EP   1   1147 53.34                             131   -0.44 7  145 260 
 PTB  HN ES   1   1148 13.55                             131   -0.60 7  145 260 
 PTB  HN I        1148 16.50        16.6 0.22            131            145 260 
 ZAR  HZ EP   1   1148  0.29                             121    0.80 6  203 293 
 ZAR  HE ES   1   1148 23.89                             121   -0.44 6  203 293 
 ZAR  HE I        1148 30.51        12.4 0.22            122            203 293 
 CHI  HZ EP   1   1148  4.80                             116    0.16 6  246 195 
 CHI  HN ES       1148 33.54                             116    0.04 8  246 195 
 CHI  HN I        1148 37.16         4.1 0.34            118            246 195 
                                                                                
