 2010  616 1936  8.3 L   6.779 -73.108147.3  RSN 11 0.4 3.3LRSN                1
 GAP=160        0.69       3.2     5.8  5.8 -0.8222E+01  0.5040E+01  0.2676E+01E
 Epicentro: LOS SANTOS - SANTANDER                                             3
 ACTION:UP  10-08-24 10:10 OP:vdl  STATUS:               ID:20100616193608 L   I
 2010-06-16-1931-44S.COL___114                                                 6
 STAT SP IPHASW D HRMM SECON CODA AMPLIT PERI AZIMU VELO SNR AR TRES W  DIS CAZ7
 BAR2 SZ IP     C 1936 28.02                             171     0.010   22 202 
 BAR2 SZ ES   2   1936 43.45                             171     0.0 5   22 202 
 GIR2 SZ EP   1   1936 28.15                             166    -0.1 7   34 344 
 GIR2 SZ ES   2   1936 43.88                             166     0.1 5   34 344 
 BRR  HZ EP   1   1936 29.93                             151     0.1 7   76 299 
 BRR  HN ES   2   1936 47.23                             151     0.5 5   76 299 
 BRR  HZ I        1936 51.87       426.6 0.23                            76 299 
 RUS  HZ IP     D 1936 31.86                             145    -0.110   98 178 
 RUS  HN ES   2   1936 50.06                             145    -0.4 5   98 178 
 RUS  HZ I        1936 51.93       198.2 0.41                            98 178 
 BRI  SZ IP     C 1936 32.57                             141     0.210  109  18 
 BRI  SZ ES   2   1936 51.38                             141     0.2 5  109  18 
 GRA  SZ IP     C 1936 33.83                             137     0.110  127  15 
 GRA  SZ ES   2   1936 53.35                             137    -0.2 5  127  15 
 OCA  SZ EP   1   1936 36.35                             129    -0.6 7  163 352 
 OCA  SZ ES   2   1936 58.90                             129    -0.4 5  163 352 
 CHI  HZ EP   1   1936 45.99                             117     0.1 6  248 196 
 CHI  HE ES   2   1937 15.05                             117    -0.2 4  248 196 
 CHI  HZ I        1937 21.41       126.6 0.65                           248 196 
 ROSC BZ EP   1   1936 47.69                             117     1.2 6  253 212 
 ROSC BE ES   2   1937 16.26                             117     0.0 4  253 212 
 ROSC BZ I        1937 22.64       215.3 0.44                           253 212 
 HEL  HZ EP   1   1936 48.55                             115    -0.4 6  276 256 
 HEL  HN ES   2   1937 20.96                             115     0.3 4  276 256 
 HEL  HZ I        1937 26.96       123.7 0.41                           276 256 
 TOL  SZ EP   1   1936 56.47                             109    -0.3 5  345 225 
 TOL  SZ ES   2   1937 33.63                             109    -0.9 3  345 225 
                                                                                
