 2010  816 1519 47.0 L   6.779 -73.104152.0  RSN  5 0.2 1.3LRSN                1
 GAP=164        0.53       6.3    11.7  8.3  0.5412E+02 -0.6704E+02 -0.2799E+02E
 Epicentro: LOS SANTOS - SANTANDER                                             3
 ACTION:UP  10-09-07 10:55 OP:vdl  STATUS:               ID:20100816151946 L   I
 2010-08-16-1517-59S.COL___111                                                 6
 STAT SP IPHASW D HRMM SECON CODA AMPLIT PERI AZIMU VELO SNR AR TRES W  DIS CAZ7
 BAR2 SZ EP   1   1520  7.25                             172    -0.1 7   23 203 
 BAR2 SZ ES   2   1520 22.80                             172    -0.5 5   23 203 
 BAR2 SZ I        1520 24.02         8.7 0.23                            23 203 
 BTL  SZ EP       1520  7.53                             172     0.110   24 310 
 BRR  HZ EP   1   1520  9.02                             153    -0.1 7   76 298 
 BRR  HE ES       1520 26.44                             153     0.110   76 298 
 BRR  HZ I        1520 28.40         3.9 0.19                            76 298 
 RUS  HZ EP   1   1520 11.00                             147    -0.2 7   98 179 
 RUS  HN ES   1   1520 30.37                             147     0.3 7   98 179 
 RUS  HZ I        1520 31.18         1.9 0.45                            98 179 
 GRA  SZ EP   2   1520 13.10                             138     0.2 5  127  15 
 GRA  SZ I        1520 42.29         3.0 0.39                           127  15 
                                                                                
