 2016 1116 1859 47.6 L   6.780 -73.159142.6  RSN 15 0.4 2.4LRSN                1
 GAP= 83        0.96       3.5     2.9  5.2 -0.1358E+01  0.1634E+01  0.6937E+01E
 Epicentro: LOS SANTOS - SANTANDER                                             3
 ACTION:UPD 17-10-26 21:08 OP:lp   STATUS:               ID:20161116185947 L   I
 OLDACT:UP  16-11-17 00:17 OP:ar   STATUS:               ID:20161116185648     3
 OLDACT:REG 16-11-16 20:57 OP:ar   STATUS:               ID:20161116185648     3
 2016-11-16-1857-00M.COL___340                                                 6
 STAT SP IPHASW D HRMM SECON CODA AMPLIT PERI AZIMU VELO AIN AR TRES W  DIS CAZ7
 BAR2 EZ EP       19 0  6.66                             171   -0.1110 21.0 187 
 BAR2 EZ ES       19 0 21.17                             171   -0.5810 21.0 187 
 BAR2 EZ I        19 0 24.40        46.2 0.34            169           21.0 187 
 BRR  HZ IP     C 19 0  8.52                             152    0.1610 71.0 301 
 BRR  HN ES       19 0 25.56                             152    0.9810 71.0 301 
 BRR  HZ I        19 0 27.99        60.9 0.32            149           71.0 301 
 PAM  EZ EP       19 0  9.63                             150    0.0210 80.0  39 
 PAM  EN ES       19 0 26.76                             150   -0.0410 80.0  39 
 PAM  EZ I        19 0 29.84        31.1 0.50            152           80.0  39 
 PTB  HZ EP       19 0 13.39                             132   -0.72 9  146 260 
 PTB  HN ES       19 0 34.64                             132   -0.17 9  146 260 
 PTB  HZ I        19 0 39.51        24.5 0.42            130            146 260 
 TAM  HZ EP       19 0 15.11                             130    0.03 9  156 104 
 TAM  HN ES       19 0 36.78                             130    0.24 9  156 104 
 TAM  HZ I        19 0 38.30        25.1 0.36            132            156 104 
 ZAR  HZ EP       19 0 19.72                             122   -0.03 9  204 293 
 ZAR  HN ES       19 0 44.57                             122   -0.28 9  204 293 
 ZAR  HZ I        19 0 49.68        29.9 0.36            121            204 293 
 NOR  HZ EP       19 0 22.84                             118   -0.01 8  232 235 
 NOR  HN ES       19 0 50.55                             118    0.18 8  232 235 
 NOR  HZ I        19 0 56.15        17.5 0.24            117            232 235 
 CHI  HZ EP       19 0 25.03                             117    0.21 8  246 195 
 CHI  HE ES       19 0 53.98                             117    0.10 8  246 195 
 CHI  HZ I        19 0 59.09        15.4 0.42            116            246 195 
 ROSC BZ EP   9   19 0 27.16                             116    1.93 0  250 211 
 ROSC BN ES       19 0 57.05                             116    0.52 8  250 211 
 ROSC BZ I        19 1  1.26        43.1 0.45            116            250 211 
 URE  HZ EP   4   19 0 31.78                             113    3.36 0  283 292 
 URE  HE ES   4   19 0 57.56                             113   -2.73 0  283 292 
 URE  HZ I        19 1 11.73        13.8 0.26            112            283 292 
 PTGC HZ EP   4   19 0 30.24                             111   -0.88 0  307 158 
 PTGC HN ES   4   19 1  3.21                             111   -1.87 0  307 158 
 LL6C HZ EP   9   19 0 12.80                             110   -20.6 0  327 358 
 LL6C HE ES       19 0 47.99                                   -0.54 7  327 358 
 ELA  HZ EP   9   19 0 35.70                             110    1.70 0  327 230 
 ELA  HN ES       19 1 12.88                             110    0.97 7  327 230 
 ELA  HZ I        19 1 19.21        12.2 0.62            109            327 230 
 PRA  HZ EP       19 0 40.54                             106   -0.13 6  389 210 
 PRA  HN ES       19 1 22.15                             106    0.05 6  389 210 
 PRA  HZ I        19 1 29.01        15.7 0.28            106            389 210 
 ORTC HZ EP       19 0 41.42                             106    0.35 6  393 216 
 ORTC HN ES       19 1 22.59                             106   -0.22 6  393 216 
 ORTC HZ I        19 1 30.29         8.1 0.68            106            393 216 
 SJC  HZ EP   4   19 0 40.91                             105   -2.24 0  410 327 
 SJC  HN ES   4   19 1 21.67                             105   -4.83 0  410 327 
 SJC  HZ I        19 1 36.49         3.4 0.32            105            410 327 
                                                                                
