 2012  416 1805 32.2 L   6.801 -73.110144.5  RSN  5 0.3 1.7LRSN                1
 GAP=141        0.83       5.3     6.8  7.7  0.1476E+02  0.1661E+02  0.2346E+01E
 Epicentro: LOS SANTOS - SANTANDER                                             3
 ACTION:UPD 12-07-05 11:53 OP:tino STATUS:               ID:20120416180532 L   I
 2012-04-16-1800-00M.COL___190                                                 6
 STAT SP IPHASW D HRMM SECON CODA AMPLIT PERI AZIMU VELO AIN AR TRES W  DIS CAZ7
 BAR2 SZ EP       18 5 51.69                             170     0.010   24 199 
 BAR2 SZ ES   1   18 6  6.53                             170    -0.3 7   24 199 
 BAR2 SZ I        18 6  7.82        13.9 0.29                            24 199 
 BRR  HZ EP       18 5 53.49                             151     0.110   75 297 
 BRR  HZ I        18 5 53.80        24.0 0.15                            75 297 
 BRR  HN ES   1   18 6 10.62                             151     0.7 7   75 297 
 PAM  SN ES   1   18 6 10.96                             151    -0.2 7   75  37 
 RUS  HZ EP       18 5 55.89                             144     0.110  100 178 
 RUS  HN ES       18 6 14.07                             144    -0.110  100 178 
 RUS  HZ I        18 6 15.59         3.1 0.22                           100 178 
 ZAR  HZ EP   1   18 6  4.80                             121    -0.1 6  208 292 
 ZAR  HN ES   1   18 6 29.81                             121    -0.6 6  208 292 
 ZAR  HZ I        18 6 35.91         4.3 0.25                           208 292 
                                                                                
