 2014  816 1542 25.4 L   6.513 -73.731102.0  RSN 16 0.4 1.8LRSN                1
 GAP= 52        1.03       2.5     3.3  5.8 -0.1577E+01  0.4595E+01 -0.2571E+01E
 Epicentro: SANTA HELENA DEL OPON - SANTANDER                                  3
 ACTION:UPD 14-09-15 21:50 OP:nd   STATUS:               ID:20140816154225 L   I
 OLDACT:UP  14-08-17 01:54 OP:spq  STATUS:               ID:20140816153820d    3
 OLDACT:DUP 14-08-17 01:41 OP:spq  STATUS:               ID:20140816153820d    3
 2014-08-16-1538-19M.COL___272                                                 6
 STAT SP IPHASW D HRMM SECON CODA AMPLIT PERI AZIMU VELO AIN AR TRES W  DIS CAZ7
 BAR2 SZ IP     C 1542 42.20                             146    0.5010 61.3  82 
 BAR2 SZ ES   1   1542 54.56                             146    0.16 7 61.3  82 
 BAR2 SZ I        1542 55.77        54.0 0.22            139           61.3  82 
 BRR  HZ EP       1542 41.76                             144    0.1010 65.7   2 
 BRR  HE ES       1542 54.78                             144    0.4510 65.7   2 
 BRR  HZ I        1542 55.91        16.2 0.16            138           65.7   2 
 PTB  HZ IP     C 1542 42.19                             139   -0.6010 80.2 272 
 PTB  HE ES       1542 55.65                             139   -0.6910 80.2 272 
 PTB  HZ I        1542 56.75        24.8 0.06            133           80.2 272 
 RUS  HZ EP       1542 44.53                             132   -0.5410 99.2 134 
 RUS  HN ES   1   1542 59.80                             132   -0.59 7 99.2 134 
 RUS  HZ I        1543  0.99         6.3 0.24            126           99.2 134 
 SPBC HZ EP       1542 44.48                             131   -0.3310  102 202 
 SPBC HE ES       1543  0.42                             131    0.4810  102 202 
 SPBC HZ I        1543  4.18        18.2 0.30            125            102 202 
 PAM  SZ EP       1542 49.57                             120   -0.12 9  146  51 
 PAM  SZ I        1543  9.20        11.8 0.27            115            146  51 
 NOR  HZ EP       1542 51.09                             117    0.05 9  164 230 
 NOR  HN ES       1543 11.03                             117    0.01 9  164 230 
 NOR  HZ I        1543 14.91        11.5 0.20            112            164 230 
 ZAR  HZ IP     D 1542 51.85                             116    0.76 9  165 311 
 ZAR  HE ES   4   1543 13.46                             116    2.35 0  165 311 
 ZAR  HZ I        1543 16.29         7.4 0.23            112            165 311 
 OCA  HN ES       1543 17.82                             112    0.19 9  196  13 
 OCA  HZ I        1543 22.96        10.4 0.30            108            196  13 
 HEL  HE ES   4   1543 21.39                             111    2.10 0  202 260 
 HEL  HZ I        1543 28.33         6.6 0.30            108            202 260 
 CHI  HE ES   1   1543 20.72                             110    0.07 6  208 180 
 CHI  HZ I        1543 27.82         3.4 0.21            107            208 180 
 GUY2CHZ EP       1542 59.87                             108    0.81 8  230 232 
 GUY2CHE ES   4   1543 28.28                             108    2.97 0  230 232 
 GUY2CHZ I        1543 33.63         5.3 0.46                           230 232 
 RREF HZ EP   4   1543  0.06                             106   -1.81 0  253 225 
 RREF HN ES   1   1543 30.47                             106    0.18 6  253 225 
 RREF HZ I        1543 33.01         3.5 0.26            104            253 225 
 SML  HZ EP   1   1543  1.25                             105   -0.20 6  256 352 
 SML  HE ES   1   1543 29.23                             105   -0.31 6  256 352 
 SML  HZ I        1543 33.47        12.4 0.10            103            256 352 
 MON  HZ EP       1543  9.55                             100   -0.61 7  329 320 
 MON  HE ES       1543 45.08                             100    0.02 7  329 320 
 MON  HZ I        1543 47.68         2.1 0.44            100            329 320 
 SJC  HZ EP   1   1543 19.96                              96    0.33 4  407 337 
 SJC  HE ES   1   1544  1.42                              96   -0.49 4  407 337 
 SJC  HZ I        1544  6.87         2.0 0.50             98            407 337 
                                                                                
