 2014  916 1356  3.3 L   6.747 -73.108147.9  RSN 11 0.3 1.9LRSN                1
 GAP=144        0.73       2.6     3.4  4.8 -0.1100E+01  0.4011E+01 -0.8970E+00E
 Epicentro: LOS SANTOS - SANTANDER                                             3
 ACTION:UPD 14-10-03 23:05 OP:nd   STATUS:               ID:20140916135603 L   I
 OLDACT:REG 14-09-16 21:58 OP:spq  STATUS:               ID:20140916134817     3
 2014-09-16-1348-17M.COL___290                                                 6
 STAT SP IPHASW D HRMM SECON CODA AMPLIT PERI AZIMU VELO AIN AR TRES W  DIS CAZ7
 BAR2 SZ EP       1356 23.01                             172   -0.1210 19.0 206 
 BAR2 SZ ES   1   1356 38.41                             172   -0.17 7 19.0 206 
 BAR2 SZ I        1356 39.35        31.3 0.27            170           19.0 206 
 BRR  HZ EP   1   1356 25.08                             151    0.00 7 77.7 301 
 BRR  HN ES       1356 41.95                             151   -0.1010 77.7 301 
 BRR  HZ I        1356 46.54        12.0 0.14            147           77.7 301 
 PAM  SZ EP       1356 26.05                             150    0.1610 79.5  35 
 PAM  SE ES       1356 43.27                             150   -0.2310 79.5  35 
 PAM  SZ I        1356 45.19        13.6 0.44            153           79.5  35 
 RUS  HZ EP   1   1356 27.23                             146    0.37 7 94.5 178 
 RUS  HE ES   1   1356 45.30                             146    0.08 7 94.5 178 
 RUS  HZ I        1356 46.13         7.2 0.22            148           94.5 178 
 PTB  HZ EP   1   1356 30.45                             132   -0.29 7  151 261 
 PTB  HE ES   1   1356 52.38                             132    0.25 7  151 261 
 PTB  HZ I        1356 56.74         8.0 0.38            130            151 261 
 SPBC HZ EP       1356 31.98                             130    0.16 9  161 221 
 SPBC HE ES       1356 54.02                             130   -0.02 9  161 221 
 SPBC HZ I        1356 56.16         5.4 0.30            130            161 221 
 OCA  HN ES       1356 55.55                             129    0.48 9  167 352 
 OCA  HZ I        1356 58.70        12.7 0.32            129            167 352 
 ZAR  HZ EP       1356 36.81                             122    0.27 8  210 293 
 ZAR  HE ES       1357  2.19                             122   -0.25 8  210 293 
 ZAR  HZ I        1357  7.93         8.1 0.18            121            210 293 
 SML  HZ EP       1356 39.93                             117   -0.90 8  251 335 
 SML  HE ES   1   1357 10.60                             117    0.51 6  251 335 
 SML  HZ I        1357 15.64        13.6 0.10            117            251 335 
 TOL  SN ES   4   1357 31.08                             110    1.95 0  342 226 
 TOL  SZ I        1357 36.03         4.9 0.22            110            342 226 
 MON  HZ EP   4   1356 50.96                             108   -2.24 0  361 309 
 MON  HE ES   4   1357 30.08                             108   -2.03 0  361 309 
 MON  HZ I        1357 36.72         1.4 0.26            109            361 309 
                                                                                
