 2011  316 1607 18.0 L   6.544 -73.487116.6  RSN  6 0.4 1.8LRSN                1
 GAP=127        1.12       7.7    10.2 15.7 -0.4428E+02  0.1135E+03 -0.4724E+02E
 Epicentro: EL CARMEN DE CHUCURI - SANTANDER                                   3
 ACTION:UP  11-06-16 14:34 OP:jfem STATUS:               ID:20110316160718 L   I
 2011-03-16-1605-34S.COL___138                                                 6
 STAT SP IPHASW D HRMM SECON CODA AMPLIT PERI AZIMU VELO SNR AR TRES W  DIS CAZ7
 BAR2 SZ EP       16 7 34.78                             162     0.310   34  81 
 BAR2 SZ ES   1   16 7 47.22                             162    -0.1 7   34  81 
 BAR2 SZ I        16 7 48.85        40.1 0.36                            34  81 
 BTL  SZ EP       16 7 34.35                             156    -0.710   48  30 
 RUS  HZ EP   1   16 7 38.10                             141     0.4 7   85 148 
 RUS  HN ES   1   16 7 53.05                             141    -0.1 7   85 148 
 RUS  HZ I        16 7 54.88         7.0 0.27                            85 148 
 GRA  SZ ES   1   16 8  6.22                             121     0.4 7  166  27 
 GRA  SZ I        16 8  9.12         9.7 0.36                           166  27 
 NOR  SZ EP   1   16 7 46.28                             117    -0.7 7  188 235 
 NOR  SN ES   1   16 8  9.95                             117     0.4 7  188 235 
 HEL  HZ EP   1   16 7 52.41                             112     0.4 6  229 260 
 HEL  HZ I        16 8 20.23         4.9 0.45                           229 260 
                                                                                
