 2015  716 1217 15.2 L   6.810 -73.124133.7  RSN  5 0.4 1.8LRSN                1
 GAP=157        0.80       4.8     4.8  8.5 -0.6915E+01  0.2164E+02 -0.1225E+02E
 Epicentro: LOS SANTOS - SANTANDER                                             3
 ACTION:UPD 15-09-08 21:49 OP:cam  STATUS:               ID:20150716121715 L   I
 OLDACT:REG 15-07-16 20:44 OP:spq  STATUS:               ID:20150716120750     3
 2015-07-16-1207-50M.COL___340                                                 6
 STAT SP IPHASW D HRMM SECON CODA AMPLIT PERI AZIMU VELO AIN AR TRES W  DIS CAZ7
 BAR2 EZ EP       1217 33.41                             169    0.0310 24.9 195 
 BAR2 EZ ES   1   1217 47.39                             169   -0.19 7 24.9 195 
 BAR2 EZ I        1217 48.96        12.6 0.36            169           24.9 195 
 PAM  EZ EP     C 1217 36.26                             149    0.3010 75.0  39 
 PAM  EE ES   1   1217 52.04                             149   -0.14 7 75.0  39 
 PAM  EZ I        1217 55.32         8.1 0.64            153           75.0  39 
 ZAR  HZ EP       1217 46.56                             119   -0.49 8  206 292 
 ZAR  HE ES       1218 12.52                             119    0.60 8  206 292 
 ZAR  HZ I        1218 19.76         5.2 0.16            121            206 292 
 NOR  HE ES       1218 17.94                             115   -0.13 8  237 235 
 NOR  HZ I        1218 23.13         6.4 0.14            118            237 235 
 SML  HZ EP   1   1217 51.44                             115    0.29 6  244 335 
 SML  HE ES   1   1218 18.50                             115   -0.72 6  244 335 
 SML  HZ I        1218 22.90         6.1 0.10            117            244 335 
                                                                                
