 2014 1216 1312  2.3 L   6.796 -73.184141.6  RSN  5 0.4 1.4LRSN                1
 GAP=132        0.96       5.0     4.8  7.0 -0.2211E+01  0.4181E+01  0.1727E+01E
 Epicentro: ZAPATOCA - SANTANDER                                               3
 ACTION:UPD 15-02-10 17:04 OP:nd   STATUS:               ID:20141216131202 L   I
 OLDACT:REG 14-12-16 20:32 OP:fm   STATUS:               ID:20141216130749     3
 2014-12-16-1307-49M.COL___287                                                 6
 STAT SP IPHASW D HRMM SECON CODA AMPLIT PERI AZIMU VELO AIN AR TRES W  DIS CAZ7
 BAR2 EZ EP       1312 21.60                             171    0.1910 22.5 179 
 BAR2 EZ ES       1312 36.90                             171    0.5910 22.5 179 
 BAR2 EZ I        1312 38.05         5.1 0.22            171           22.5 179 
 BRR  HZ EP       1312 23.28                             153    0.4810 67.7 301 
 BRR  HN ES       1312 38.49                             153   -0.3010 67.7 301 
 BRR  HZ I        1312 43.24         7.7 0.36            151           67.7 301 
 PAM  SZ EP       1312 24.35                             149    0.0910 80.5  42 
 PAM  SN ES       1312 41.04                             149   -0.3510 80.5  42 
 PAM  SZ I        1312 43.84         5.2 0.24            153           80.5  42 
 RUS  HZ EP       1312 25.07                             143   -0.5710  101 174 
 RUS  HN ES       1312 43.80                             143   -0.0410  101 174 
 RUS  HZ I        1312 45.40         2.1 0.48            147            101 174 
 PTB  HZ EP       1312 28.74                             132    0.20 9  143 259 
 PTB  HN ES       1312 48.71                             132   -0.29 9  143 259 
 PTB  HZ I        1312 55.48         4.0 0.24            133            143 259 
                                                                                
