 2010 1216 1315 13.1 L   6.795 -73.181135.8  RSN  5 0.3 1.7LRSN                1
 GAP=155        0.61       3.3     8.2  8.4 -0.5281E+01  0.1214E+02 -0.5084E+01E
 Epicentro: LOS SANTOS - SANTANDER                                             3
 ACTION:UP  11-01-14 15:25 OP:pat  STATUS:               ID:20101216131513 L   I
 2010-12-16-1313-32S.COL___134                                                 6
 STAT SP IPHASW D HRMM SECON CODA AMPLIT PERI AZIMU VELO SNR AR TRES W  DIS CAZ7
 BAR2 SZ EP   2   1315 32.40                             170     0.9 5   23 181 
 BAR2 SZ ES   2   1315 46.08                             170     0.2 5   23 181 
 BAR2 SZ I        1315 47.90        16.1 0.24                            23 181 
 RUS  HZ EP       1315 35.72                             142    -0.210  100 174 
 RUS  HN ES   2   1315 53.46                             142    -0.2 5  100 174 
 RUS  HZ I        1315 56.41         4.3 0.42                           100 174 
 GRA  SZ EP   1   1315 37.66                             134     0.0 7  127  19 
 GRA  SZ I        1315 39.09         9.7 0.20                           127  19 
 OCA  SZ EP   1   1315 40.76                             127     0.1 7  160 355 
 OCA  SZ ES   1   1316  1.97                             127    -0.2 7  160 355 
 OCA  SZ I        1316  3.42        11.3 0.35                           160 355 
 NOR  SZ EP   2   1315 48.27                             117     0.3 4  231 234 
 NOR  SN ES   2   1316 14.86                             117    -0.2 4  231 234 
                                                                                
