 2016  616 1015 43.4 L   6.633 -73.182146.7  RSN  6 0.2 1.8LRSN                1
 GAP=229        0.44       4.7     3.4  3.7  0.1655E+01  0.3976E+01 -0.5679E+00E
 Epicentro: VILLANUEVA - SANTANDER                                             3
 ACTION:UPD 16-07-21 22:19 OP:rebc STATUS:               ID:20160616101543 L   I
 OLDACT:REG 16-06-16 21:21 OP:dnl  STATUS:               ID:20160616100748     3
 2016-06-16-1007-48M.COL___331                                                 6
 STAT SP IPHASW D HRMM SECON CODA AMPLIT PERI AZIMU VELO AIN AR TRES W  DIS CAZ7
 BAR2 EZ EP       1016  3.12                             178    0.1810 4.47 181 
 BAR2 EZ ES       1016 17.96                             178   -0.2010 4.47 181 
 BAR2 EZ I        1016 18.76         8.6 0.28                          4.47 181 
 BRR  HZ EP       1016  5.17                             150    0.0710 78.6 312 
 BRR  HN ES   3   1016 23.07                             150    1.05 2 78.6 312 
 BRR  HZ I        1016 26.19         9.6 0.13                          78.6 312 
 PTB  HZ EP       1016  9.94                             133    0.05 9  141 266 
 PTB  HN ES       1016 30.50                             133   -0.04 9  141 266 
 PTB  HZ I        1016 33.52         5.6 0.10                           141 266 
 SPBC HZ EP       1016 10.46                             132    0.01 9  147 222 
 SPBC HN ES   4   1016 33.60                             132    2.06 0  147 222 
 SPBC HZ I        1016 35.04         8.2 0.16                           147 222 
 OCA  HZ EP   4   1016 11.58                             126   -1.95 0  178 355 
 OCA  HE ES   4   1016 33.20                             126   -3.82 0  178 355 
 OCA  HZ I        1016 38.35        12.1 0.18                           178 355 
 ZAR  HZ EP       1016 16.16                             122   -0.19 8  208 297 
 ZAR  HN ES   2   1016 42.04                             122    0.01 4  208 297 
 ZAR  HZ I        1016 47.08         4.4 0.62                           208 297 
                                                                                
