 2016  516 1311 58.1 L   6.781 -73.158144.0  RSN  8 0.4 1.8LRSN                1
 GAP=235        1.04       5.2     5.4  6.7  0.7697E+01  0.8864E+01  0.6832E+01E
 Epicentro: LOS SANTOS - SANTANDER                                             3
 ACTION:UPD 16-08-18 17:46 OP:cam  STATUS:               ID:20160516131158 L   I
 OLDACT:UP  16-05-16 20:51 OP:drio STATUS:               ID:20160516130748     3
 OLDACT:UP  16-05-16 20:51 OP:drio STATUS:               ID:20160516130748     3
 OLDACT:REG 16-05-16 19:31 OP:drio STATUS:               ID:20160516130748     3
 2016-05-16-1307-48M.COL___298                                                 6
 STAT SP IPHASW D HRMM SECON CODA AMPLIT PERI AZIMU VELO AIN AR TRES W  DIS CAZ7
 BAR2 EZ EP       1312 17.19                             171   -0.2810 21.1 187 
 BAR2 EZ ES       1312 32.17                             171   -0.4110 21.1 187 
 BAR2 EZ I        1312 33.04        13.5 0.32            169           21.1 187 
 BRR  HZ EP       1312 19.10                             152    0.0610 71.0 300 
 BRR  HN ES       1312 36.16                             152    0.7810 71.0 300 
 RUS  HZ EP       1312 21.45                             144   -0.0810 98.6 175 
 RUS  HN ES       1312 40.14                             144    0.3310 98.6 175 
 RUS  HZ I        1312 41.61         8.3 0.42            144           98.6 175 
 PTB  HZ EP       1312 24.09                             132   -0.67 9  146 260 
 PTB  HN ES       1312 45.09                             132   -0.47 9  146 260 
 PTB  HZ I        1312 47.82         7.6 0.42            130            146 260 
 SPBC HZ EP       1312 26.69                             129    0.47 9  161 219 
 SPBC HE ES       1312 47.83                             129   -0.33 9  161 219 
 ZAR  HZ EP   4   1312 31.54                             122    1.17 0  204 293 
 ZAR  HN ES       1312 55.49                             122   -0.06 9  204 293 
 ZAR  HZ I        1313  4.44         5.2 0.44            121            204 293 
 NOR  HZ EP       1312 33.69                             118    0.22 8  232 235 
 NOR  HE ES       1313  1.56                             118    0.49 8  232 235 
 NOR  HZ I        1313  4.23         4.4 0.20            117            232 235 
 PRA  HZ EP       1312 51.42                             106    0.16 6  390 210 
 PRA  HN ES   4   1313 34.21                             106    1.47 0  390 210 
 PRA  HZ I        1313 38.59         2.7 0.22            106            390 210 
                                                                                
