 2016 1016 1852 57.8 L   6.803 -73.121151.2  RSN 19 0.7 2.6LRSN                1
 GAP= 54        1.34       3.5     3.6  6.1 -0.3135E+01 -0.6808E+00  0.2957E+01E
 Epicentro: LOS SANTOS - SANTANDER                                             3
 ACTION:UPD 16-11-09 19:20 OP:rebc STATUS:               ID:20161016185257 L   I
 OLDACT:UP  16-10-17 00:27 OP:and  STATUS:               ID:20161016184735     3
 OLDACT:UP  16-10-17 00:20 OP:and  STATUS:               ID:20161016184735     3
 OLDACT:UP  16-10-17 00:19 OP:and  STATUS:               ID:20161016184735     3
 OLDACT:UP  16-10-17 00:16 OP:and  STATUS:               ID:20161016184735     3
 OLDACT:REG 16-10-16 20:59 OP:dnl  STATUS:               ID:20161016184735     3
 2016-10-16-1848-00M.COL___368                                                 6
 STAT SP IPHASW D HRMM SECON CODA AMPLIT PERI AZIMU VELO AIN AR TRES W  DIS CAZ7
 BAR2 EZ EP       1853 18.17                             171    0.0410 24.3 196 
 BAR2 EZ ES       1853 33.48                             171   -0.4910 24.3 196 
 BAR2 EZ I        1853 34.84       134.0 0.16            171           24.3 196 
 BRR  HZ IP     C 1853 19.98                             153    0.2910 73.5 297 
 BRR  HN ES       1853 37.11                             153    0.3610 73.5 297 
 PAM  EZ IP     C 1853 20.95                             152    0.4410 75.4  38 
 PAM  EN ES       1853 38.06                             152   -0.1410 75.4  38 
 PAM  EZ I        1853 40.38        84.9 0.50            153           75.4  38 
 RUS  HZ IP     D 1853 22.04                             145   -0.0910  101 178 
 RUS  HN ES       1853 40.92                             145   -0.1610  101 178 
 RUS  HZ I        1853 41.80        24.2 0.32            146            101 178 
 PTB  HZ EP       1853 25.12                             133   -0.37 9  151 259 
 PTB  HN ES       1853 45.87                             133   -1.20 9  151 259 
 PTB  HZ I        1853 53.12        25.3 0.16            133            151 259 
 TAM  HZ IP     D 1853 26.56                             132    0.85 9  153 105 
 TAM  HN ES       1853 48.36                             132    0.91 9  153 105 
 TAM  HZ I        1853 54.03        14.1 0.48            134            153 105 
 OCA  HZ IP     C 1853 26.20                             131   -0.37 9  160 352 
 OCA  HE ES       1853 49.94                             131    0.96 9  160 352 
 OCA  HZ I        1853 58.51        61.7 0.30            131            160 352 
 SPBC HZ EP       1853 27.12                             130    0.19 9  165 220 
 SPBC HN ES       1853 49.84                             130    0.20 9  165 220 
 SPBC HZ I        1853 54.01        74.2 0.24            130            165 220 
 NOR  HZ IP     D 1853 34.36                             119    0.22 8  237 235 
 NOR  HE ES       1854  2.24                             119   -0.22 8  237 235 
 NOR  HZ I        1854  8.38        16.6 0.22            120            237 235 
 CHI  HZ EP       1853 36.46                             118    0.52 8  250 196 
 CHI  HN ES       1854  5.56                             118   -0.12 8  250 196 
 CHI  HZ I        1854  9.14        19.4 0.62            119            250 196 
 ROSC BZ EP   9   1853 38.72                             118    2.29 0  254 212 
 ROSC BN ES       1854  8.75                             117   -0.08 8  254 212 
 ROSC BZ I        1854 12.25        39.2 0.65            118            254 212 
 HEL  HN ES       1854 10.72                             116    0.27 8  275 256 
 SOCV BZ EP       1853 40.95                             113    0.10 7  299  57 
 SOCV BN ES       1854 12.89                             113   -1.51 7  299  57 
 GUY2CHZ EP   3   1853 43.78                             113    1.81 2  304 235 
 GUY2CHE ES   3   1854 19.14                             113    2.75 2  304 235 
 GUY2CHZ I        1854 24.44        11.9 0.34                           304 235 
 PTGC HZ EP       1853 41.36                             113   -0.49 7  308 159 
 PTGC HN ES       1854 15.11                             113   -1.08 7  308 159 
 ANIL HN ES   4   1854 31.44                             109    4.14 0  360 225 
 ANIL HZ I        1854 32.83        44.2 0.34            110            360 225 
 PRA  HZ EP       1853 51.96                             107    0.23 6  394 210 
 PRA  HN ES       1854 33.98                             107    0.20 6  394 210 
 PRA  HZ I        1854 39.34        18.8 0.34            108            394 210 
 SJC  HZ EP       1853 52.39                             106   -1.32 6  410 327 
 SJC  HN ES   4   1854 33.72                             106   -3.59 0  410 327 
 SJC  HZ I        1854 40.82         7.0 0.54            107            410 327 
 CRJC HZ EP   9   1853 58.59                             104   -1.83 0  467   3 
 CRJC HE ES       1854 46.66                             104   -0.76 5  467   3 
 CRJC HZ I        1854 53.20        11.9 0.22            105            467   3 
                                                                                
