 2012  616 1825 12.8 L   6.803 -73.154144.6  RSN 11 0.5 2.3LRSN                1
 GAP=135        0.92       3.5     4.1  6.8 -0.1566E+01  0.1089E+02  0.3786E+01E
 Epicentro: LOS SANTOS - SANTANDER                                             3
 ACTION:UPD 12-08-06 17:50 OP:ep   STATUS:               ID:20120616182512 L   I
 2012-06-16-1820-00M.COL___198                                                 6
 STAT SP IPHASW D HRMM SECON CODA AMPLIT PERI AZIMU VELO AIN AR TRES W  DIS CAZ7
 BAR2 SZ IP       1825 32.27                             170   -0.0710 23.5 188 
 BAR2 SZ ES   1   1825 47.86                             170    0.31 7 23.5 188 
 BAR2 SZ I        1825 49.01        34.8 0.26                          23.5 188 
 PAM  SZ EP       1825 35.13                             150    0.1710 77.7  40 
 PAM  SN ES       1825 52.46                             150    0.2510 77.7  40 
 RUS  HZ EP       1825 36.13                             143   -0.3810  101 176 
 RUS  HN ES   1   1825 55.05                             143    0.08 7  101 176 
 RUS  HZ I        1825 56.11        14.8 0.30                           101 176 
 PTB  HZ EP   1   1825 38.93                             132   -0.72 7  147 259 
 PTB  HN ES   1   1825 59.62                             132   -0.93 7  147 259 
 PTB  HZ I        1826  6.13        23.7 0.33                           147 259 
 OCA  HZ EP   1   1825 41.13                             129    0.10 7  160 353 
 OCA  HN ES   1   1826  2.54                             129   -0.47 7  160 353 
 OCA  HZ I        1826 10.85        54.5 0.05                           160 353 
 ZAR  HZ EP   1   1825 45.06                             122   -0.06 6  203 292 
 ZAR  HN ES       1826 10.37                             122    0.08 9  203 292 
 ZAR  HZ I        1826 16.73        26.9 0.10                           203 292 
 NOR  SZ EP   1   1825 48.40                             118   -0.05 6  234 234 
 NOR  SN ES   1   1826 16.68                             118    0.46 6  234 234 
 CHI  HZ EP   1   1825 49.82                             117   -0.67 6  249 195 
 CHI  HN ES   1   1826 19.54                             117   -0.31 6  249 195 
 CHI  HZ I        1826 25.62         9.6 0.48                           249 195 
 ROSC BZ EP   1   1825 52.04                             116    1.16 6  253 211 
 ROSC BZ I        1826 26.75        25.7 0.32                           253 211 
 HEL  HZ EP   1   1825 53.68                             115    0.76 6  271 256 
 HEL  HN ES   1   1826 25.02                             115    0.85 6  271 256 
 HEL  HZ I        1826 33.08         8.3 0.27                           271 256 
 GUY  SZ EP   1   1825 56.75                             112    0.14 5  303 235 
 GUY  SZ I        1826 39.74        20.4 0.33                           303 235 
                                                                                
