 2010  816 1049 42.1 L   6.790 -73.092149.1  RSN 23 0.4 3.7LRSN                1
 GAP=124        0.99       3.0     4.6  4.5 -0.7064E+01  0.2549E+01  0.2283E+01E
 Epicentro: LOS SANTOS - SANTANDER                                             3
 ACTION:UP  10-09-07 10:55 OP:vdl  STATUS:               ID:20100816104942 L   I
 2010-08-16-1048-00S.COL___111                                                 6
 STAT SP IPHASW D HRMM SECON CODA AMPLIT PERI AZIMU VELO SNR AR TRES W  DIS CAZ7
 CUC3 EZ EP   1   1050  8.65                                                    
 CUC3 EN ES   3   1050 28.96                                                    
 BTL  SZ EP       1050  2.24                             170     0.110   24 306 
 BAR2 SZ ES   1   1050 17.31                             170    -0.5 7   24 205 
 BTL  SZ ES       1050 18.11                             170     0.310   24 306 
 BAR2 SZ IP       1050  2.05                             170    -0.110   24 205 
 GIR2 SZ IP       1050  2.16                             166    -0.110   34 341 
 BRR  HZ IP     C 1050  3.98                             151     0.010   77 297 
 BRR  HZ I        1050  4.30      1665.2 0.15                            77 297 
 BRR  HN ES       1050 21.15                             151     0.110   77 297 
 RUS  HZ IP     D 1050  5.84                             145    -0.310   99 179 
 RUS  HE ES       1050 24.73                             145    -0.110   99 179 
 RUS  HZ I        1050 25.75       426.9 0.21                            99 179 
 BRI  SZ EP       1050  6.62                             142     0.410  108  18 
 BRI  SZ ES   2   1050 25.00                             142    -0.1 5  108  18 
 GUE  SZ EP       1050  7.96                             140     0.810  117   9 
 GUE  SZ I        1050 31.97       212.6 0.17                           117   9 
 GRA  SZ IP       1050  7.84                             138     0.210  125  15 
 GRA  SZ ES       1050 27.27                             138    -0.210  125  15 
 GRA  SZ I        1050 30.47       917.5 0.35                           125  15 
 OCA  SZ EP       1050 10.38                             130    -0.5 9  162 351 
 OCA  SZ ES   1   1050 32.83                             130    -0.5 7  162 351 
 OCA  SZ I        1050 37.45      1359.1 0.38                           162 351 
 CHI  HZ EP       1050 19.70                             118    -0.4 8  249 197 
 CHI  HN ES   1   1050 49.73                             118     0.1 6  249 197 
 CHI  HZ I        1050 57.30       277.8 0.50                           249 197 
 ROSC BZ IP     D 1050 21.51                             117     0.9 8  255 212 
 ROSC BN ES   1   1050 50.36                             117    -0.4 6  255 212 
 ROSC BZ I        1050 59.88       400.1 0.42                           255 212 
 HEL  HZ EP   1   1050 22.51                             115    -0.6 6  278 256 
 HEL  HN ES   1   1050 54.65                             115    -0.4 6  278 256 
 HEL  HZ I        1051  0.50       433.2 0.39                           278 256 
 GUY  SZ EP   1   1050 27.27                             112     0.9 5  306 236 
 GUY  SN ES       1051  0.80                             112    -0.1 7  306 236 
 RREF HZ EP       1050 29.14                             111     0.3 7  326 230 
 RREF HE ES   1   1051  5.12                             111    -0.2 5  326 230 
 RREF HZ I        1051 14.35       401.1 0.31                           326 230 
 DBB  SZ EP       1050 29.73                             110    -0.7 6  345 274 
 DBB  SZ I        1051 25.63        62.8 0.54                           345 274 
 TOL  SZ EP       1050 31.35                             110     0.5 6  347 225 
 TOL  SZ ES   1   1051  9.64                             110     0.7 5  347 225 
 SDV  BZ EP       1050 31.39                             109    -0.5 6  357  49 
 SDV  BZ I        1051 10.93        77.0 0.49                           357  49 
 ANIL HZ EP   1   1050 32.59                             109     0.1 5  361 225 
 ANIL HE ES   1   1051 12.59                             109     0.9 5  361 225 
 ANIL HZ I        1051 17.90       628.0 0.40                           361 225 
 PRA  HZ EP       1050 35.38                             107    -0.6 6  394 210 
 PRA  HN ES   1   1051 16.97                             107    -1.0 4  394 210 
 PRA  HZ I        1051 22.06       268.6 0.48                           394 210 
 GUA  SZ EP   2   1050 44.69                             104    -0.5 2  472 174 
 HORQ SZ EP   2   1050 52.97                             102    -0.1 2  536 227 
 HORQ SN ES   1   1051 48.04                             102    -0.4 3  536 227 
 HORQ SZ I        1052  7.94        21.1 0.34                           536 227 
 PCON HZ EP   2   1051  2.43                             100    -0.4 1  615 217 
                                                                                
