 2017 1116 1731 16.4 L   6.786 -73.163134.7  RSN 10 0.4 1.8LRSN                1
 GAP=135        0.96       3.4     3.8  5.8 -0.9584E+00  0.7809E+01  0.3377E+01E
 Epicentro: LOS SANTOS - SANTANDER                                             3
 ACTION:UPD 17-12-12 19:56 OP:rebc STATUS:               ID:20171116173116 L   I
 OLDACT:REG 17-11-16 21:18 OP:lv   STATUS:               ID:20171116172500     3
 2017-11-16-1728-00M.COL___474                                                 6
 STAT SP IPHASW D HRMM SECON CODA AMPLIT PERI AZIMU VELO AIN AR TRES W  DIS CAZ7
 BAR2 EZ IP     D 1731 34.53                             170   -0.1010 21.5 186 
 BAR2 EZ ES       1731 49.32                             170    0.4510 21.5 186 
 BAR2 EZ I        1731 50.24        26.6 0.20            167           21.5 186 
 PAM  EZ EP       1731 37.57                             148    0.0010 79.8  40 
 PAM  EN ES       1731 54.11                             148    0.0010 79.8  40 
 PAM  EZ I        1731 55.87        10.1 0.24            151           79.8  40 
 RUS  HZ EP       1731 39.06                             142    0.1210 99.2 175 
 RUS  HN ES       1731 56.23                             142   -0.3110 99.2 175 
 RUS  HZ I        1731 57.80         9.4 0.24            140           99.2 175 
 PTB  HZ EP       1731 41.70                             130   -0.55 9  146 259 
 PTB  HN ES       1732  1.72                             130   -0.72 9  146 259 
 PTB  HZ I        1732  4.96         8.9 0.60            130            146 259 
 ZAR  HZ EP       1731 47.73                             120   -0.26 9  203 293 
 ZAR  HE ES       1732 13.51                             120    0.85 9  203 293 
 NOR  HZ EP       1731 51.59                             116    0.38 8  232 234 
 NOR  HN ES       1732 18.40                             116    0.02 8  232 234 
 NOR  HZ I        1732 20.67         6.4 0.30            116            232 234 
 CHI  HZ EP       1731 53.10                             115   -0.15 8  247 195 
 CHI  HN ES       1732 22.02                             115   -0.00 8  247 195 
 CHI  HZ I        1732 31.81         2.6 0.34            115            247 195 
 GUY2CHZ EP   9   1732  0.61                             110    1.41 0  299 235 
 GUY2CHN ES       1732 33.86                                   -0.16 7  299 235 
 GUY2CHZ I        1732 39.91         5.3 0.24                           299 235 
 PRA  HZ EP       1732  9.27                             105    0.02 6  390 209 
 PRA  HE ES       1732 51.44                             105    0.94 6  390 209 
 PRA  HZ I        1732 56.63         1.9 0.22            105            390 209 
 SJC  HZ EP   9   1732  8.49                             104   -3.13 0  410 327 
 SJC  HN ES       1732 50.91                                   -0.68 6  410 327 
                                                                                
