 2012  516 1829  9.8 L   6.756 -73.113142.1  RSN  4 0.3 2.3LRSN                1
 GAP=143        0.66       5.4     6.4  6.9 -0.3444E+01 -0.5060E+01  0.9160E+01E
 Epicentro: LOS SANTOS - SANTANDER                                             3
 ACTION:UP  12-07-05 12:05 OP:pat  STATUS:               ID:20120516182909 L   I
 2012-05-16-1828-06M.COL___193                                                 6
 STAT SP IPHASW D HRMM SECON CODA AMPLIT PERI AZIMU VELO SNR AR TRES W  DIS CAZ7
 BAR2 SZ EP       1829 28.88                             172     0.010   20 203 
 BAR2 SZ ES   1   1829 43.40                             172    -0.4 7   20 203 
 BAR2 SZ I        1829 44.83        35.6 0.30                            20 203 
 BRR  HZ IP     C 1829 30.58                             150    -0.310   77 300 
 BRR  HZ I        1829 30.74        59.7 0.12                            77 300 
 BRR  HN ES   1   1829 47.69                             150     0.4 7   77 300 
 PAM  SZ EP       1829 31.84                             149     0.110   79  35 
 PAM  SN ES   1   1829 48.75                             149     0.0 7   79  35 
 RUS  HZ EP       1829 32.89                             144     0.110   96 178 
 RUS  HE ES   3   1829 51.88                             144     1.1 2   96 178 
                                                                                
