 2014  316 1902 51.7 L   6.778 -73.143147.0  RSN  5 0.3 1.5LRSN                1
 GAP=138        0.85       4.6     4.4  6.2 -0.1919E+01  0.3326E+01  0.1182E+01E
 Epicentro: LOS SANTOS - SANTANDER                                             3
 ACTION:UPD 14-04-09 23:17 OP:nd   STATUS:               ID:20140316190251 L   I
 OLDACT:DUP 14-03-16 21:41 OP:stll STATUS:               ID:20140316185547d    3
 OLDACT:UP  14-03-16 21:19 OP:mher STATUS:               ID:20140316185545     3
 OLDACT:REG 14-03-16 17:12 OP:mh   STATUS:               ID:20140316185545     3
 2014-03-16-1855-45M.COL___257                                                 6
 STAT SP IPHASW D HRMM SECON CODA AMPLIT PERI AZIMU VELO AIN AR TRES W  DIS CAZ7
 BAR2 SZ EP       19 3 11.56                             171    0.1110 21.0 192 
 BAR2 SZ ES       19 3 27.13                             171    0.2910 21.0 192 
 BAR2 SZ I        19 3 28.07        16.6 0.20            169           21.0 192 
 BRR  HZ EP       19 3 13.16                             152    0.0910 72.6 300 
 BRR  HN ES       19 3 30.17                             152    0.4310 72.6 300 
 PAM  SZ EP       19 3 14.47                             150    0.3110 79.1  38 
 PAM  SN ES       19 3 31.06                             150   -0.6210 79.1  38 
 PAM  SZ I        19 3 32.30         4.4 0.24            153           79.1  38 
 RUS  HZ EP       19 3 15.48                             145    0.0710 98.1 176 
 RUS  HZ I        19 3 17.90         2.7 0.32            144           98.1 176 
 RUS  HN ES       19 3 33.77                             145   -0.1310 98.1 176 
 PTB  HZ EP       19 3 18.53                             132   -0.23 9  148 260 
 PTB  HN ES       19 3 39.45                             132   -0.41 9  148 260 
 PTB  HZ I        19 3 45.44         6.2 0.52            131            148 260 
                                                                                
