 2012  916 1144 32.6 L   6.760 -73.147146.0  RSN 11 0.3 2.6LRSN                1
 GAP= 72        0.63       2.9     2.6  4.3 -0.5445E-01  0.1867E+01  0.3548E+01E
 Epicentro: LOS SANTOS - SANTANDER                                             3
 ACTION:UPD 12-10-22 14:19 OP:ep   STATUS:               ID:20120916114432 L   I
 2012-09-16-1140-00M.COL___227                                                 6
 STAT SP IPHASW D HRMM SECON CODA AMPLIT PERI AZIMU VELO AIN AR TRES W  DIS CAZ7
 BAR2 SZ EP   1   1144 52.14                             172   -0.04 7 18.9 192 
 BAR2 SZ ES   1   1145  7.63                             172    0.19 7 18.9 192 
 BAR2 SZ I        1145  8.31       188.5 0.24                          18.9 192 
 GIR2 SZ EP       1144 52.33                             166   -0.0910 35.6 352 
 GIR2 SZ ES   1   1145  7.59                             166   -0.29 7 35.6 352 
 BRR  HZ EP       1144 54.14                             152    0.2510 73.3 302 
 BRR  HN ES   1   1145 11.18                             152    0.68 7 73.3 302 
 PAM  SZ EP   1   1144 55.10                             150    0.04 7 80.9  38 
 PAM  SZ I        1144 55.45       168.1 0.28                          80.9  38 
 PAM  SN ES   1   1145 12.22                             150   -0.35 7 80.9  38 
 RUS  HZ EP   1   1144 56.13                             145    0.07 7 96.2 176 
 RUS  HN ES   1   1145 14.35                             145   -0.01 7 96.2 176 
 RUS  HZ I        1145 15.36        41.6 0.52                          96.2 176 
 PTB  HZ EP   1   1144 58.93                             132   -0.57 7  147 261 
 PTB  HN ES   1   1145 19.74                             132   -0.74 7  147 261 
 PTB  HZ I        1145 23.44        29.1 0.14                           147 261 
 TAM  HZ EP   1   1145  0.41                             131    0.20 7  154 103 
 TAM  HZ I        1145  0.53        28.3 0.09                           154 103 
 TAM  HE ES   1   1145 21.79                             131    0.05 7  154 103 
 ZAR  HZ EP   1   1145  5.03                             122   -0.19 6  206 293 
 ZAR  HN ES   1   1145 30.96                             122    0.30 6  206 293 
 ZAR  HZ I        1145 36.95        53.3 0.34                           206 293 
 NOR  SN ES   1   1145 36.12                             119    0.41 6  232 235 
 CHI  HZ EP   1   1145 10.01                             118    0.16 6  244 195 
 CHI  HN ES   1   1145 38.64                             118   -0.25 6  244 195 
 PRA  HZ EP   1   1145 25.76                             107    0.09 4  388 210 
 PRA  HZ I        1145 28.15        12.8 0.22                           388 210 
 PRA  HN ES   1   1146  7.19                             107    0.13 4  388 210 
                                                                                
