 2014 1016 1647 56.8 L   6.813 -73.196152.2  RSN  4 0.4 1.6LRSN                1
 GAP=275        0.79      11.9     8.2  8.6  0.4346E+02  0.1233E+02  0.6157E+01E
 Epicentro: ZAPATOCA - SANTANDER                                               3
 ACTION:UPD 14-11-29 23:50 OP:nd   STATUS:               ID:20141016164756 L   I
 OLDACT:REG 14-10-16 21:03 OP:fm   STATUS:               ID:20141016163746     3
 2014-10-16-1637-46M.COL___295                                                 6
 STAT SP IPHASW D HRMM SECON CODA AMPLIT PERI AZIMU VELO AIN AR TRES W  DIS CAZ7
 BAR2 SZ EP   1   1648 17.24                             171    0.03 7 24.5 176 
 BAR2 SZ ES   1   1648 33.59                             171    0.44 7 24.5 176 
 BAR2 SZ I        1648 34.22         8.1 0.20            168           24.5 176 
 RUS  HZ EP   1   1648 20.79                             145   -0.52 7  103 173 
 RUS  HN ES   1   1648 40.16                             145   -0.29 7  103 173 
 RUS  HZ I        1648 42.16         5.1 0.30            144            103 173 
 PTB  HZ EP   1   1648 23.72                             135   -0.11 7  143 258 
 PTB  HN ES   1   1648 44.79                             135   -0.13 7  143 258 
 PTB  HZ I        1648 47.37         7.0 0.18            134            143 258 
 CHI  HZ EP   1   1648 35.74                             118    0.89 6  249 194 
                                                                                
