 2012  916 1403 35.1 L   6.782 -73.152151.9  RSN  7 0.3 1.8LRSN                1
 GAP=137        0.71       4.8     4.3  6.2  0.1200E+01  0.4835E+01  0.2498E+01E
 Epicentro: LOS SANTOS - SANTANDER                                             3
 ACTION:UPD 12-10-22 14:19 OP:ep   STATUS:               ID:20120916140335 L   I
 2012-09-16-1400-00M.COL___227                                                 6
 STAT SP IPHASW D HRMM SECON CODA AMPLIT PERI AZIMU VELO AIN AR TRES W  DIS CAZ7
 BAR2 SZ EP   1   14 3 55.44                             172    0.02 7 21.2 189 
 BAR2 SZ ES   1   14 4 11.33                             172    0.05 7 21.2 189 
 GIR2 SZ EP   1   14 3 55.48                             167   -0.07 7 33.2 352 
 GIR2 SZ ES   1   14 4 11.28                             167   -0.22 7 33.2 352 
 BRR  HZ EP   1   14 3 57.36                             153    0.43 7 71.6 300 
 BRR  HN ES   1   14 4 14.65                             153    0.69 7 71.6 300 
 BRR  HZ I        14 4 16.45        16.4 0.14                          71.6 300 
 PAM  SZ EP   1   14 3 58.38                             151    0.30 7 79.4  39 
 PAM  SZ I        14 3 58.57         4.0 0.20                          79.4  39 
 PAM  SN ES   1   14 4 15.44                             151   -0.57 7 79.4  39 
 RUS  HZ EP   1   14 3 59.35                             146    0.03 7 98.6 176 
 RUS  HZ I        14 4  0.51         7.2 0.16                          98.6 176 
 RUS  HE ES   1   14 4 18.34                             146    0.13 7 98.6 176 
 PTB  HZ EP   1   14 4  2.03                             134   -0.44 7  147 260 
 PTB  HN ES   1   14 4 23.36                             134   -0.47 7  147 260 
 PTB  HZ I        14 4 26.54         5.1 0.14                           147 260 
 ZAR  HN ES   1   14 4 33.59                             124    0.00 6  204 293 
 ZAR  HZ I        14 4 39.90        12.2 0.30                           204 293 
                                                                                
