 2011 1016 1738 49.1 L   6.781 -73.125147.7  RSN  9 0.3 2.4LRSN                1
 GAP=140        0.60       2.8     3.4  4.2 -0.9569E+00  0.3763E+01  0.7075E+00E
 Epicentro: LOS SANTOS - SANTANDER                                             3
 ACTION:UPD 12-07-13 16:04 OP:ep   STATUS:               ID:20111016173849 L   I
 2011-10-16-1737-16S.COL___168                                                 6
 STAT SP IPHASW D HRMM SECON CODA AMPLIT PERI AZIMU VELO AIN AR TRES W  DIS CAZ7
 BAR2 SZ EP   1   1739  8.89                             171   -0.08 7 21.9 197 
 BAR2 SZ ES   1   1739 24.14                             171   -0.30 7 21.9 197 
 BAR2 SZ I        1739 25.62        69.6 0.30                          21.9 197 
 BRR  HZ EP       1739 10.74                             152    0.0810 74.2 299 
 BRR  HZ I        1739 11.05        50.5 0.19                          74.2 299 
 BRR  HN ES       1739 27.75                             152    0.2910 74.2 299 
 PAM  SZ IP       1739 11.65                             151    0.0910 77.6  37 
 PAM  SZ I        1739 11.93        48.0 0.18                          77.6  37 
 PAM  SN ES   1   1739 29.00                             151   -0.06 7 77.6  37 
 RUS  HZ EP   1   1739 12.80                             145   -0.12 7 98.4 177 
 RUS  HN ES   1   1739 31.47                             145    0.00 7 98.4 177 
 RUS  HZ I        1739 32.35        20.3 0.29                          98.4 177 
 OCA  SZ EP   1   1739 17.33                             130   -0.48 7  163 352 
 OCA  SZ ES   1   1739 40.57                             130    0.39 7  163 352 
 OCA  SZ I        1739 45.46        39.9 0.34                           163 352 
 ZAR  HZ EP   1   1739 21.73                             122   -0.27 6  207 292 
 ZAR  HN ES   1   1739 47.01                             122   -0.63 6  207 292 
 ZAR  HZ I        1739 54.27        26.7 0.29                           207 292 
 NOR  SZ EP   1   1739 24.83                             119   -0.22 6  235 235 
 NOR  SN ES   1   1739 53.26                             119    0.20 6  235 235 
 HEL  HZ EP   1   1739 29.96                             115    0.32 6  274 256 
 HEL  HZ I        1740  7.80         8.2 0.32                           274 256 
 RREF HZ EP   1   1739 36.05                             111    0.64 5  322 230 
 RREF HZ I        1740 21.28        15.5 0.30                           322 230 
                                                                                
