 2012  216 1040 21.3 L   6.786 -73.136151.5  RSN 10 0.4 1.8LRSN                1
 GAP=188        0.63       4.6     5.2  6.6  0.3682E+01  0.8443E+01  0.8180E+01E
 ACTION:UP  12-03-07 16:31 OP:epov STATUS:               ID:20120216104021 L   I
 2012-02-16-1040-00M.COL___188                                                 6
 STAT SP IPHASW D HRMM SECON CODA AMPLIT PERI AZIMU VELO AIN AR TRES W  DIS CAZ7
 BAR2 SZ EP   1   1040 41.53                             172   -0.04 7 22.0 193 
 BAR2 SZ ES   2   1040 57.27                             172   -0.13 5 22.0 193 
 BAR2 SZ I        1041  0.12        10.4 0.42                          22.0 193 
 GIR2 SZ EP   1   1040 41.78                             167    0.10 7 33.0 349 
 GIR2 SZ ES   2   1040 57.81                             167    0.22 5 33.0 349 
 BRR  HZ EP   1   1040 43.43                             153    0.29 7 72.8 299 
 BRR  HE ES   2   1041  0.74                             153    0.55 5 72.8 299 
 BRR  HZ I        1041  2.35        16.3 0.17                          72.8 299 
 RUS  HZ EP   1   1040 45.02                             145   -0.47 7 99.0 177 
 RUS  HN ES   2   1041  4.32                             145   -0.05 5 99.0 177 
 RUS  HZ I        1041  5.88         4.9 0.43                          99.0 177 
 PTB  HZ EP   1   1040 48.12                             133   -0.66 7  148 259 
 PTB  HN ES   2   1041  9.68                             133   -0.56 5  148 259 
 ZAR  HZ EP   2   1040 54.80                             123    0.54 4  206 292 
 ZAR  HN ES   2   1041 19.48                             123   -0.51 4  206 292 
 ZAR  HZ I        1041 25.67         6.9 0.37                           206 292 
 NOR  SN ES   2   1041 25.65                             120    0.18 4  235 235 
 CHI  HZ EP   1   1040 59.43                             118    0.26 6  247 195 
 CHI  HN ES   2   1041 29.29                             118    0.56 4  247 195 
 CHI  HZ I        1041 38.15         2.8 0.58                           247 195 
 HEL  HZ EP   2   1041  2.76                             116    0.90 4  273 256 
 RREF HN ES   2   1041 44.02                             112    0.20 3  322 230 
 RREF HZ I        1041 52.73         3.1 0.40                           322 230 
                                                                                
