 2017 1116 1702 45.6 L   6.765 -73.161143.0  RSN  7 0.4 1.7LRSN                1
 GAP=136        0.87       3.5     4.0  5.8  0.5183E+00  0.7185E+01  0.3059E+01E
 Epicentro: LOS SANTOS - SANTANDER                                             3
 ACTION:UPD 17-12-12 19:56 OP:rebc STATUS:               ID:20171116170245 L   I
 OLDACT:UP  17-11-16 23:45 OP:l    STATUS:               ID:20171116165745     3
 OLDACT:REG 17-11-16 21:08 OP:lv   STATUS:               ID:20171116165745     3
 2017-11-16-1658-00M.COL___471                                                 6
 STAT SP IPHASW D HRMM SECON CODA AMPLIT PERI AZIMU VELO AIN AR TRES W  DIS CAZ7
 BAR2 EZ EP       17 3  4.84                             172    0.0210 19.3 187 
 BAR2 EZ ES       17 3 20.27                             172    0.4610 19.3 187 
 BAR2 EZ I        17 3 22.57        15.3 0.34            169           19.3 187 
 PAM  HZ EP       17 3  7.79                             149    0.0210 81.5  39 
 PAM  HE ES       17 3 24.73                             149   -0.3410 81.5  39 
 PAM  HZ I        17 3 27.87         4.4 0.66            154           81.5  39 
 RUS  HZ EP       17 3  9.16                             144    0.3510 96.9 175 
 RUS  HN ES       17 3 26.74                             144   -0.1810 96.9 175 
 RUS  HZ I        17 3 28.83         7.0 0.26            145           96.9 175 
 PTB  HE ES       17 3 32.66                             132   -0.15 9  145 260 
 PTB  HZ I        17 3 38.15         4.0 0.14            131            145 260 
 ZAR  HZ EP       17 3 17.31                             122   -0.54 9  204 293 
 ZAR  HE ES       17 3 43.33                             122    0.31 9  204 293 
 ZAR  HZ I        17 3 48.15         6.1 0.32            122            204 293 
 CHI  HZ EP       17 3 23.10                             117    0.41 8  244 195 
 CHI  HN ES       17 3 50.96                             117   -0.66 8  244 195 
 CHI  HZ I        17 3 58.44         2.3 0.30            118            244 195 
 PRA  HZ EP       17 3 38.88                             106    0.35 6  388 210 
 PRA  HN ES   4   17 4 18.39                             106   -1.43 0  388 210 
 PRA  HZ I        17 4 27.04         3.5 0.34            107            388 210 
 SJC  HZ EP   4   17 3 38.73                             105   -2.61 0  412 327 
 SJC  HN ES   4   17 4 18.93                             105   -5.89 0  412 327 
                                                                                
