 2012  516 1556 46.6 L   6.793 -73.182147.0  RSN  5 0.1 1.6LRSN                1
 GAP=132        0.38       4.4     4.3  4.6  0.7864E+01  0.5214E+01 -0.3210E+01E
 Epicentro: LOS SANTOS - SANTANDER                                             3
 ACTION:UP  12-07-05 12:05 OP:pat  STATUS:               ID:20120516155646 L   I
 2012-05-16-1550-00M.COL___198                                                 6
 STAT SP IPHASW D HRMM SECON CODA AMPLIT PERI AZIMU VELO SNR AR TRES W  DIS CAZ7
 BAR2 SZ EP       1557  6.34                             171     0.010   22 180 
 BAR2 SZ ES   1   1557 21.65                             171    -0.1 7   22 180 
 BAR2 SZ I        1557 23.03        13.3 0.16                            22 180 
 PAM  SZ EP   2   1557  9.01                             150    -0.1 5   81  41 
 RUS  HZ EP       1557 10.52                             144     0.110  100 174 
 RUS  HN ES   1   1557 28.94                             144    -0.1 7  100 174 
 RUS  HZ I        1557 30.03         5.6 0.36                           100 174 
 PTB  HZ EP       1557 13.12                             133    -0.1 9  144 259 
 PTB  HZ I        1557 37.69         5.4 0.12                           144 259 
 ZAR  HN ES   2   1557 44.12                             123     0.3 4  201 293 
                                                                                
