 2012 1216 1932 43.7 L   6.804 -73.144149.3  RSN  8 0.5 2.0LRSN                1
 GAP=137        1.25       5.8     5.2  8.2 -0.2781E+01  0.1054E+02  0.4885E+01E
 Epicentro: LOS SANTOS - SANTANDER                                             3
 ACTION:UPD 13-01-04 14:28 OP:ep   STATUS:               ID:20121216193243 L   I
 2012-12-16-1930-00M.COL___242                                                 6
 STAT SP IPHASW D HRMM SECON CODA AMPLIT PERI AZIMU VELO AIN AR TRES W  DIS CAZ7
 BAR2 SZ EP       1933  3.87                             171    0.1310 23.8 190 
 BAR2 SZ ES       1933 18.68                             171   -0.7110 23.8 190 
 BAR2 SZ I        1933 20.50        10.9 0.18                          23.8 190 
 GIR2 SZ EP       1933  4.08                             168    0.3210 30.9 350 
 BRR  HZ EP       1933  5.99                             153    0.7910 71.1 298 
 BRR  HN ES       1933 22.66                             153    0.6610 71.1 298 
 BRR  HN I        1933 23.06        28.1 0.18                          71.1 298 
 PAM  SZ EP       1933  5.71                             152   -0.5310 77.0  40 
 PAM  SN ES       1933 23.93                             152    0.0810 77.0  40 
 PAM  SN I        1933 24.92         9.8 0.70                          77.0  40 
 RUS  HZ EP       1933  7.91                             144    0.1110  101 176 
 RUS  HN ES       1933 26.72                             144    0.1010  101 176 
 RUS  HN I        1933 28.26         6.7 0.28                           101 176 
 PTB  HZ EP       1933 10.20                             133   -0.75 9  148 259 
 PTB  HN ES       1933 31.86                             133   -0.37 9  148 259 
 PTB  HN I        1933 37.01        16.4 0.38                           148 259 
 ZAR  HN ES       1933 41.37                             123   -0.47 9  204 292 
 ZAR  HN I        1933 46.81        15.4 0.54                           204 292 
 NOR  HZ EP       1933 19.65                             119    0.00 8  235 234 
 NOR  HN ES       1933 48.28                             119    0.57 8  235 234 
 NOR  HN I        1933 55.53         8.6 0.22                           235 234 
                                                                                
