 2011 1016 1516 41.6 L   6.781 -73.125149.2  RSN 14 0.4 3.4LRSN                1
 GAP=116        0.72       2.6     3.7  4.7  0.9548E+00  0.5363E+01  0.2686E+01E
 Epicentro: LOS SANTOS - SANTANDER                                             3
 ACTION:UPD 12-07-13 16:04 OP:ep   STATUS:               ID:20111016151641 L   I
 2011-10-16-1513-32S.COL___168                                                 6
 STAT SP IPHASW D HRMM SECON CODA AMPLIT PERI AZIMU VELO AIN AR TRES W  DIS CAZ7
 BAR2 SZ EP       1517  1.71                             171    0.0510 21.8 197 
 BAR2 SZ ES   1   1517 17.17                             171   -0.10 7 21.8 197 
 BAR2 SZ I        1517 19.71       449.8 0.42                          21.8 197 
 BRR  HZ EP       1517  3.56                             152    0.2310 74.2 299 
 BRR  HE ES   1   1517 21.08                             152    0.83 7 74.2 299 
 BRR  HZ I        1517 23.76       315.0 0.18                          74.2 299 
 PAM  SZ EP       1517  4.43                             151    0.1910 77.6  37 
 PAM  SZ I        1517  4.72       251.2 0.19                          77.6  37 
 PAM  SN ES   1   1517 21.61                             151   -0.25 7 77.6  37 
 RUS  HZ EP       1517  5.51                             145   -0.0710 98.4 177 
 RUS  HE ES   1   1517 24.20                             145   -0.05 7 98.4 177 
 RUS  HZ I        1517 27.02       217.5 0.36                          98.4 177 
 OCA  SZ EP       1517 10.32                             130   -0.12 9  163 352 
 OCA  SZ ES   1   1517 32.57                             130   -0.34 7  163 352 
 OCA  SZ I        1517 37.17       306.3 0.26                           163 352 
 YOP  SZ EP   1   1517 12.12                             128    0.47 7  176 154 
 YOP  SE ES   1   1517 34.53                             128   -0.53 7  176 154 
 YOP  SZ I        1517 36.73       161.1 0.32                           176 154 
 ZAR  HZ EP   1   1517 13.96                             123   -0.65 6  207 292 
 ZAR  HE ES   1   1517 39.97                             123   -0.36 6  207 292 
 ZAR  HZ I        1517 46.17       217.2 0.26                           207 292 
 NOR  SZ EP   1   1517 17.31                             119   -0.33 6  235 235 
 NOR  SN ES   1   1517 45.09                             119   -0.63 6  235 235 
 HEL  HZ EP   1   1517 22.78                             115    0.56 6  274 256 
 HEL  HZ I        1518  0.02       115.2 0.28                           274 256 
 VIL  SZ EP   1   1517 24.68                             113   -0.36 5  302 192 
 VIL  SN ES   1   1517 59.31                             113    0.42 5  302 192 
 VIL  SZ I        1518  8.89        76.5 0.43                           302 192 
 GUY  SZ EP   1   1517 25.77                             113    0.02 5  304 236 
 GUY  SZ I        1518  8.23       222.1 0.38                           304 236 
 RREF HZ EP   1   1517 28.58                             111    0.60 5  322 230 
 RREF HZ I        1518 12.73       123.9 0.28                           322 230 
 ANIL HZ EP   1   1517 31.91                             109    0.32 5  357 225 
 ANIL HZ I        1518 15.67       251.6 0.26                           357 225 
 PRA  HZ EP   1   1517 35.03                             107   -0.17 4  391 210 
                                                                                
