 2013 1216 1050 21.9 L   6.797 -73.210140.2  RSN  5 0.4 1.4LRSN                1
 GAP=195        0.96       4.8     6.9  8.2  0.1456E+02 -0.9063E+01 -0.1399E+02E
 Epicentro: ZAPATOCA - SANTANDER                                               3
 ACTION:UPD 14-01-13 10:18 OP:ep   STATUS:               ID:20131216105021 L   I
 OLDACT:REG 13-12-16 16:07 OP:nd   STATUS:               ID:20131216105000     3
 2013-12-16-1050-00M.COL___285                                                 6
 STAT SP IPHASW D HRMM SECON CODA AMPLIT PERI AZIMU VELO AIN AR TRES W  DIS CAZ7
 BAR2 SZ EP       1050 40.89                             170    0.0610 22.9 172 
 BAR2 SZ ES   2   1050 55.53                             170   -0.08 5 22.9 172 
 BAR2 SZ I        1050 59.29         6.0 0.18            174           22.9 172 
 BRR  HZ EP       1050 42.97                             154    0.8810 65.2 302 
 BRR  HN ES       1050 58.07                             154    0.2110 65.2 302 
 BRR  HZ I        1051  1.42         8.7 0.38            155           65.2 302 
 RUS  HZ EP       1050 45.07                             143   -0.0410  101 172 
 RUS  HN ES       1051  2.90                             143   -0.3410  101 172 
 RUS  HZ I        1051  4.32         1.5 0.28            148            101 172 
 PTB  HZ EP       1050 47.81                             132    0.06 9  141 258 
 PTB  HN ES       1051  7.68                             132   -0.26 9  141 258 
 PTB  HZ I        1051 10.89         3.1 0.12            136            141 258 
 SML  HZ EP       1050 57.52                             117   -0.39 8  241 337 
 SML  HN ES       1051 25.50                             117   -0.52 8  241 337 
 SML  HZ I        1051 29.75         2.6 0.24            120            241 337 
                                                                                
