 2017  416 1826 19.0 L   7.439 -73.389114.5  RSN  7 0.5 1.8LRSN                1
 GAP=134        0.94       5.9     4.6  6.9  0.1184E+01  0.1065E+02 -0.1216E+02E
 Epicentro: SABANA DE TORRES - SANTANDER                                       3
 ACTION:UPD 17-05-30 21:13 OP:jn   STATUS:               ID:20170416182619 L   I
 OLDACT:UP  17-04-16 23:28 OP:dani STATUS:               ID:20170416181738     3
 OLDACT:REG 17-04-16 23:14 OP:dani STATUS:               ID:20170416181738     3
 2017-04-16-1818-00M.COL___365                                                 6
 STAT SP IPHASW D HRMM SECON CODA AMPLIT PERI AZIMU VELO AIN AR TRES W  DIS CAZ7
 BRR  HZ EP       1826 35.70                             154    0.0610 51.1 224 
 BRR  HN ES       1826 48.79                             154    0.1610 51.1 224 
 BRR  HZ I        1826 49.96        18.3 0.14            154           51.1 224 
 PAM  EZ EP       1826 38.07                             144    0.1110 76.9  98 
 PAM  EN ES       1826 52.82                             144    0.0610 76.9  98 
 PAM  EZ I        1826 54.63        16.7 0.44            150           76.9  98 
 BAR2 EZ EP       1826 39.09                             137   -0.0310 96.3 166 
 BAR2 EZ ES       1826 54.30                             137   -0.5210 96.3 166 
 BAR2 EZ I        1826 55.30        28.7 0.28            141           96.3 166 
 PTB  HZ EP       1826 43.75                             123   -0.53 9  154 230 
 PTB  HN ES   3   1827  3.06                             123   -0.95 2  154 230 
 PTB  HZ I        1827  7.61         7.0 0.16            124            154 230 
 ZAR  HZ EP       1826 45.81                             121    0.71 9  162 272 
 ZAR  HN ES   3   1827  6.66                             121    1.19 2  162 272 
 ZAR  HZ I        1827 10.21         9.8 0.26            122            162 272 
 RUS  HZ EP       1826 47.43                             119    0.43 9  174 169 
 SJC  HZ EP       1827  4.35                             103   -0.58 7  336 324 
 SJC  HN ES   3   1827 38.37                             103   -2.38 2  336 324 
 SJC  HZ I        1827 41.02         1.1 0.25            105            336 324 
                                                                                
