 2014 1016 1112 41.7 L   6.765 -73.117145.3  RSN 13 0.6 2.2LRSN                1
 GAP=142        1.43       4.0     6.2  8.8 -0.1142E+01  0.1499E+02 -0.2648E+00E
 Epicentro: LOS SANTOS - SANTANDER                                             3
 ACTION:UPD 14-11-29 23:50 OP:nd   STATUS:               ID:20141016111241 L   I
 OLDACT:DUP 14-10-16 21:59 OP:fm   STATUS:               ID:20141016110744d    3
 2014-10-16-1107-43M.COL___292                                                 6
 STAT SP IPHASW D HRMM SECON CODA AMPLIT PERI AZIMU VELO AIN AR TRES W  DIS CAZ7
 BAR2 SZ EP       1113  1.75                             172    0.5710 20.5 201 
 BAR2 SZ ES   1   1113 16.52                             172    0.12 7 20.5 201 
 BAR2 SZ I        1113 17.92        56.8 0.22            168           20.5 201 
 BRR  HZ EP       1113  3.69                             151    0.6610 75.9 300 
 BRR  HN ES       1113 20.30                             151    0.6110 75.9 300 
 BRR  HZ I        1113 21.61        21.4 0.12            149           75.9 300 
 PAM  SZ EP     C 1113  4.66                             150    0.7710 78.4  36 
 PAM  SN ES       1113 21.11                             150   -0.1210 78.4  36 
 PAM  SZ I        1113 23.89        33.1 0.42            153           78.4  36 
 RUS  HZ EP       1113  4.21                             145   -0.8710 96.6 178 
 RUS  HN ES       1113 22.83                             145   -0.5210 96.6 178 
 PTB  HZ EP       1113  8.53                             131   -0.29 9  150 261 
 PTB  HN ES       1113 29.07                             131   -0.92 9  150 261 
 PTB  HZ I        1113 31.76        21.6 0.20            130            150 261 
 OCA  HZ EP   1   1113  9.30                             129   -1.03 7  164 352 
 OCA  HN ES       1113 32.26                             129   -0.43 9  164 352 
 OCA  HZ I        1113 36.79        17.5 0.30            129            164 352 
 ZAR  HZ EP       1113 15.23                             122    0.69 8  208 293 
 ZAR  HN ES       1113 40.35                             122    0.18 8  208 293 
 ZAR  HZ I        1113 48.51        18.1 0.48            121            208 293 
 CHI  HZ EP   4   1113 17.67                             117   -1.36 0  246 196 
 CHI  HN ES       1113 48.98                             117    0.81 8  246 196 
 CHI  HZ I        1113 58.83         3.1 0.42            117            246 196 
 SML  HZ EP       1113 18.14                             117   -0.65 8  249 335 
 SML  HE ES       1113 47.72                             117   -0.02 8  249 335 
 SML  HZ I        1113 50.99        15.9 0.10            117            249 335 
 TOL  SZ EP   4   1113 31.87                             109    2.02 0  343 225 
 TOL  SE ES   1   1114  7.60                             109    0.16 5  343 225 
 TOL  SZ I        1114 16.90         7.6 0.36            109            343 225 
 MON  HN ES   4   1114  7.74                             108   -2.12 0  359 309 
 MON  HZ I        1114  9.00         5.5 0.20            108            359 309 
 PRA  HZ EP   4   1113 35.79                             106    0.82 0  390 210 
 PRA  HN ES       1114 16.45                             106   -0.09 6  390 210 
 PRA  HZ I        1114 24.04         3.8 0.38            106            390 210 
 SJC  HZ EP   4   1113 35.99                             105   -1.80 0  414 327 
 SJC  HN ES   4   1114 15.09                             105   -6.48 0  414 327 
 SJC  HZ I        1114 21.81         5.2 0.36            105            414 327 
                                                                                
