 2012 1216 1209 44.7 L   6.807 -73.153141.4  RSN  6 0.3 2.1LRSN                1
 GAP=135        0.89       4.5     4.9  7.0  0.4480E+01  0.3430E+01 -0.1017E+01E
 Epicentro: LOS SANTOS - SANTANDER                                             3
 ACTION:UPD 13-01-04 14:28 OP:ep   STATUS:               ID:20121216120944 L   I
 2012-12-16-1206-37M.COL___186                                                 6
 STAT SP IPHASW D HRMM SECON CODA AMPLIT PERI AZIMU VELO AIN AR TRES W  DIS CAZ7
 BAR2 SZ EP       1210  3.70                             170   -0.1410 23.9 188 
 BAR2 SZ ES       1210 18.28                             170   -0.4710 23.9 188 
 BAR2 SZ I        1210 20.59        35.2 0.22                          23.9 188 
 GIR2 SZ EP       1210  3.66                             167   -0.1910 30.4 352 
 GIR2 SZ I        1210 20.62        15.8 0.32                          30.4 352 
 BRR  HZ EP       1210  5.55                             152    0.2210 70.1 298 
 BRR  HN ES       1210 22.11                             152    0.7010 70.1 298 
 BRR  HN I        1210 26.22        71.9 0.18                          70.1 298 
 PAM  SZ EP       1210  6.52                             150    0.0510 77.4  40 
 PAM  SN ES       1210 23.38                             150   -0.0510 77.4  40 
 PAM  SN I        1210 24.38        22.1 0.40                          77.4  40 
 RUS  HZ EP       1210  8.33                             143    0.2310  101 176 
 RUS  HN ES       1210 26.39                             143    0.0510  101 176 
 RUS  HN I        1210 27.70        16.4 0.30                           101 176 
 ZAR  HN ES       1210 41.22                             121   -0.55 9  203 292 
 ZAR  HN I        1210 49.97        15.1 0.58                           203 292 
                                                                                
