 2012  516 1620 16.0 L   6.791 -73.148144.0  RSN  8 0.5 2.4LRSN                1
 GAP=137        1.19       5.8     8.8 10.0 -0.9078E+01  0.4535E+02 -0.6797E+01E
 Epicentro: LOS SANTOS - SANTANDER                                             3
 ACTION:UP  12-07-05 12:05 OP:pat  STATUS:               ID:20120516162016 L   I
 2012-05-16-1620-00M.COL___207                                                 6
 STAT SP IPHASW D HRMM SECON CODA AMPLIT PERI AZIMU VELO SNR AR TRES W  DIS CAZ7
 BAR2 SZ IP       1620 35.61                             171     0.210   22 190 
 BAR2 SZ I        1620 35.76        52.9 0.12                            22 190 
 BAR2 SZ ES   1   1620 50.76                             171     0.2 7   22 190 
 PAM  SZ EP       1620 38.39                             150     0.310   78  39 
 PAM  SN ES   1   1620 55.22                             150    -0.1 7   78  39 
 RUS  HZ EP       1620 39.58                             144     0.110  100 176 
 RUS  HN ES   1   1620 57.72                             144    -0.1 7  100 176 
 RUS  HZ I        1620 58.80        20.7 0.26                           100 176 
 PTB  HZ EP       1620 42.28                             132    -0.5 9  147 259 
 PTB  HN ES   2   1621  3.46                             132    -0.2 5  147 259 
 PTB  HZ I        1621  8.11        25.0 0.18                           147 259 
 OCA  HZ EP       1620 44.06                             129    -0.2 9  161 353 
 OCA  HN ES   2   1621  5.62                             129    -0.7 5  161 353 
 OCA  HZ I        1621  9.60        61.6 0.18                           161 353 
 ZAR  HZ EP       1620 48.25                             122    -0.1 9  204 292 
 ZAR  HZ I        1621 19.40        44.4 0.40                           204 292 
 CHI  HZ EP       1620 52.74                             117    -0.7 8  248 195 
 HEL  HZ EP       1620 57.34                             114     1.3 8  272 256 
                                                                                
