 2013  416 1452 23.0 L   6.831 -73.127146.4  RSN  7 0.4 2.2LRSN                1
 GAP=137        1.03       4.0     6.0  6.4 -0.7258E+00  0.4561E+01 -0.4230E+01E
 Epicentro: LOS SANTOS - SANTANDER                                             3
 ACTION:UPD 13-05-22 14:38 OP:EP   STATUS:               ID:20130416145223 L   I
 2013-04-16-1448-41M.COL___215                                                 6
 STAT SP IPHASW D HRMM SECON CODA AMPLIT PERI AZIMU VELO AIN AR TRES W  DIS CAZ7
 BAR2 SZ EP       1452 42.73                             169   -0.0410 27.1 193 
 BAR2 SZ ES       1452 57.47                             169   -0.7310 27.1 193 
 BAR2 SZ I        1452 59.92        23.0 0.72            169           27.1 193 
 GIR2 SZ EP       1452 42.99                             168    0.3410 28.4 345 
 GIR2 SZ ES       1452 58.59                             168    0.5910 28.4 345 
 BRR  HZ EP       1452 44.39                             152    0.1710 71.5 295 
 BRR  HN ES       1453  1.04                             152    0.2610 71.5 295 
 BRR  HN I        1453  1.77        60.3 0.28            152           71.5 295 
 PAM  SZ EP       1452 45.54                             152    0.5110 73.4  40 
 PAM  SZ I        1452 45.73        18.7 0.18            153           73.4  40 
 PAM  SN ES       1453  2.26                             152    0.0210 73.4  40 
 RUS  HZ EP       1452 47.16                             143    0.1310  104 177 
 RUS  HN ES       1453  5.51                             143   -0.2810  104 177 
 RUS  HN I        1453  7.30        10.2 0.58            143            104 177 
 CAPV BZ ES       1453 10.82                             133   -0.38 9  145  38 
 SML  HZ EP       1452 58.89                             118   -0.51 8  242 335 
 SML  HN ES       1453 27.34                             118   -0.47 8  242 335 
 SML  HN I        1453 30.06        19.1 0.10            118            242 335 
                                                                                
