 2014  916 1037 16.1 L   6.789 -73.064144.5  RSN  6 0.3 1.2LRSN                1
 GAP=245        0.71       4.2     4.9  5.8  0.7731E+01  0.2863E+01  0.2861E+00E
 Epicentro: LOS SANTOS - SANTANDER                                             3
 ACTION:UPD 14-10-03 23:05 OP:nd   STATUS:               ID:20140916103716 L   I
 OLDACT:REG 14-09-16 21:34 OP:spq  STATUS:               ID:20140916102819     3
 2014-09-16-1028-19M.COL___263                                                 6
 STAT SP IPHASW D HRMM SECON CODA AMPLIT PERI AZIMU VELO AIN AR TRES W  DIS CAZ7
 BAR2 SZ EP       1037 35.70                             170    0.1110 25.3 211 
 BAR2 SZ ES   1   1037 50.49                             170   -0.32 7 25.3 211 
 BAR2 SZ I        1037 51.33         6.0 0.36            167           25.3 211 
 BRR  HZ EP       1037 37.65                             149    0.0610 79.8 296 
 BRR  HE ES       1037 54.46                             149    0.0910 79.8 296 
 RUS  HZ EP   1   1037 39.89                             144    0.30 7 99.1 181 
 RUS  HE ES   1   1037 57.82                             144   -0.11 7 99.1 181 
 RUS  HZ I        1038  0.56         1.4 0.36            143           99.1 181 
 PTB  HZ EP   1   1037 42.69                             130   -1.04 7  156 260 
 PTB  HE ES   1   1038  5.02                             130   -0.28 7  156 260 
 PTB  HZ I        1038  6.07         1.8 0.11            129            156 260 
 SPBC HZ EP       1037 45.00                             128    0.07 9  168 222 
 SPBC HE ES       1038  7.70                             128    0.25 9  168 222 
 SPBC HZ I        1038  9.90         1.7 0.10            127            168 222 
 ZAR  HZ EP   1   1037 49.36                             121    0.01 6  213 292 
 ZAR  HE ES       1038 15.56                             121    0.26 8  213 292 
 ZAR  HZ I        1038 19.99         2.1 0.35            121            213 292 
                                                                                
