 2010  616 1649 57.4 L   6.841 -72.986151.5  RSN  5 0.3 1.9LRSN                1
 GAP=182        0.66       5.8    13.4 11.9  0.1157E+02 -0.6196E+02 -0.6218E+00E
 Epicentro: CEPITA - SANTANDER                                                 3
 ACTION:UP  10-08-24 10:10 OP:vdl  STATUS:               ID:20100616164957 L   I
 2010-06-16-1646-15S.COL___114                                                 6
 STAT SP IPHASW D HRMM SECON CODA AMPLIT PERI AZIMU VELO SNR AR TRES W  DIS CAZ7
 BAR2 SZ EP       1650 17.76                             166    -0.210   35 218 
 BRR  HZ EP   1   1650 20.36                             149     0.4 7   85 290 
 BRR  HZ I        1650 20.59        17.7 0.14                            85 290 
 BRR  HN ES   2   1650 37.49                             149    -0.1 5   85 290 
 RUS  HZ EP   1   1650 22.51                             143     0.5 7  105 186 
 RUS  HN ES   2   1650 41.25                             143     0.0 5  105 186 
 RUS  HZ I        1650 42.05         7.7 0.25                           105 186 
 GUE  SZ EP   1   1650 22.01                             142    -0.1 7  110   4 
 CHI  HZ EP   1   1650 36.03                             117    -0.4 6  258 199 
                                                                                
