 2011  616 1956 22.2 L   6.784 -73.050140.4  RSN  4 0.2 1.8LRSN                1
 GAP=170        0.67       3.8     7.6  7.1 -0.1204E+01 -0.1362E+02 -0.5317E+01E
 Epicentro: LOS SANTOS - SANTANDER                                             3
 ACTION:UP  11-07-14 19:05 OP:ep   STATUS:               ID:20110616195622 L   I
 2011-06-16-1954-31S.COL___136                                                 6
 STAT SP IPHASW D HRMM SECON CODA AMPLIT PERI AZIMU VELO SNR AR TRES W  DIS CAZ7
 BAR2 SZ EP       1956 41.35                             169     0.110   26 215 
 BAR2 SZ ES   1   1956 56.31                             169     0.2 7   26 215 
 BAR2 SZ I        1956 57.63        14.0 0.21                            26 215 
 BRR  HZ EP       1956 43.26                             148    -0.210   81 296 
 BRR  HE ES   1   1957  0.01                             148     0.0 7   81 296 
 BRR  HZ I        1957  1.52        23.1 0.11                            81 296 
 RUS  HZ EP   1   1956 45.10                             143    -0.2 7   99 182 
 RUS  HN ES   1   1957  3.30                             143     0.0 7   99 182 
 RUS  HZ I        1957  5.17         6.5 0.42                            99 182 
 GRA  SZ EP       1956 47.33                             136     0.410  125  13 
 GRA  SZ ES   1   1957  5.82                             136    -0.4 7  125  13 
 GRA  SZ I        1957  7.91        12.5 0.28                           125  13 
                                                                                
