 2016 1016 1118 56.6 L   6.769 -73.122140.5  RSN  9 0.5 1.7LRSN                1
 GAP=141        0.96       3.9     4.6  6.3 -0.5459E+01  0.7462E+01  0.4259E+01E
 Epicentro: LOS SANTOS - SANTANDER                                             3
 ACTION:UPD 16-11-09 19:20 OP:rebc STATUS:               ID:20161016111856 L   I
 OLDACT:UP  16-10-16 22:44 OP:dnl  STATUS:               ID:20161016111744     3
 OLDACT:REG 16-10-16 20:46 OP:dnl  STATUS:               ID:20161016111744     3
 2016-10-16-1118-00M.COL___365                                                 6
 STAT SP IPHASW D HRMM SECON CODA AMPLIT PERI AZIMU VELO AIN AR TRES W  DIS CAZ7
 BAR2 EZ EP       1119 15.63                             171    0.0410 20.7 199 
 BAR2 EZ ES       1119 30.23                             171   -0.1410 20.7 199 
 BAR2 EZ I        1119 32.88         8.7 0.26            169           20.7 199 
 BRR  HZ EP       1119 17.41                             150   -0.0510 75.1 300 
 BRR  HN ES       1119 34.03                             150    0.3310 75.1 300 
 BRR  HZ I        1119 38.37        16.0 0.32            151           75.1 300 
 PAM  EZ EP       1119 18.59                             149    0.2210 78.5  37 
 PAM  EE ES       1119 35.34                             149    0.0210 78.5  37 
 PAM  EZ I        1119 37.36        10.8 0.48            155           78.5  37 
 RUS  HZ EP   2   1119 20.22                             144    0.59 5 97.0 177 
 RUS  HE ES       1119 37.51                             144   -0.0410 97.0 177 
 RUS  HZ I        1119 39.81         5.7 0.24            145           97.0 177 
 PTB  HZ EP       1119 22.72                             130   -0.65 9  150 260 
 PTB  HN ES       1119 43.51                             130   -0.70 9  150 260 
 PTB  HZ I        1119 46.45         7.2 0.12            132            150 260 
 SPBC HZ EP       1119 24.88                             128    0.22 9  162 220 
 SPBC HN ES       1119 46.92                             128    0.42 9  162 220 
 SPBC HZ I        1119 53.58         6.5 0.26            129            162 220 
 NOR  HZ EP   2   1119 31.65                             117   -0.44 4  235 236 
 NOR  HE ES   2   1119 59.97                             117    0.23 4  235 236 
 NOR  HZ I        1120  5.60         3.7 0.16            119            235 236 
 CHI  HZ EP   3   1119 32.94                             116   -0.84 2  246 196 
 CHI  HN ES       1120  2.05                             116   -0.69 8  246 196 
 CHI  HZ I        1120  6.60         1.9 0.36            118            246 196 
 GUY2CHZ EP   2   1119 40.67                             111    0.63 4  301 236 
 GUY2CHN ES       1120 14.91                             111    1.03 7  301 236 
 GUY2CHZ I        1120 22.99         1.7 0.52                           301 236 
                                                                                
