 2010  116 1120 22.2 L   5.975 -73.734120.2  RSN 11 0.5 2.1LRSN                1
 GAP= 83        0.95       4.9     5.9 12.5 -0.1264E+02  0.3981E+02 -0.5182E+01E
 Epicentro: GUAVATA - SANTANDER                                                3
 ACTION:UP  10-08-24 09:44 OP:vdl  STATUS:               ID:20100116112022 L   I
 2010-01-16-1117-08S.COL___096                                                 6
 STAT SP IPHASW D HRMM SECON CODA AMPLIT PERI AZIMU VELO SNR AR TRES W  DIS CAZ7
 RUS  BZ EP   1   1120 41.31                             147    -0.1 7   73  97 
 RUS  BN ES   2   1120 55.70                             147    -0.7 5   73  97 
 RUS  BZ I        1120 57.74        26.7 0.68                            73  97 
 BAR2 SZ IP       1120 42.88                             140     0.510   91  42 
 BAR2 SZ ES   2   1120 57.93                             140    -0.3 5   91  42 
 GIR2 SZ EP   1   1120 46.94                             128     0.7 7  136  26 
 ROSC BZ EP   1   1120 46.96                             127    -0.1 7  141 207 
 ROSC BN ES   2   1121  7.02                             127     0.6 5  141 207 
 ROSC BZ I        1121 10.05        17.6 0.39                           141 207 
 CHI  HZ EP       1120 47.17                             125    -0.6 9  149 180 
 HEL  HZ EP   1   1120 53.12                             117     0.0 6  200 277 
 HEL  HE ES   2   1121 17.03                             117    -0.2 4  200 277 
 HEL  HZ I        1121 19.85        12.8 0.47                           200 277 
 RREF BZ EP   1   1120 55.40                             115     0.3 6  215 236 
 RREF BN ES   2   1121 20.69                             115     0.0 4  215 236 
 RREF BZ I        1121 25.00        17.0 0.25                           215 236 
 TOL  SZ EP   1   1120 57.28                             113     0.5 6  234 229 
 TOL  SZ ES   2   1121 24.26                             113     0.5 4  234 229 
 ANIL BZ EP   1   1120 58.67                             111     0.4 6  247 229 
 ANIL BE ES   2   1121 26.29                             111    -0.2 4  247 229 
 PRA  HZ EP   1   1121  1.71                             108    -0.1 6  281 207 
 PRA  HN ES   2   1121 32.40                             108    -0.3 4  281 207 
 PRA  HZ I        1121 34.11         9.8 0.32                           281 207 
 MON  HZ EP   1   1121 11.72                             102    -1.2 5  375 326 
 MON  HE ES   2   1121 51.26                             102    -1.3 3  375 326 
 MON  HZ I        1122  3.98         1.8 0.50                           375 326 
                                                                                
