 2010  816 1948 24.6 L   6.763 -73.098147.1  RSN 13 0.5 2.7LRSN                1
 GAP=164        1.25       4.4     9.3  6.5 -0.8975E+01  0.4414E+01  0.6058E+01E
 Epicentro: LOS SANTOS - SANTANDER                                             3
 ACTION:UP  10-09-07 10:55 OP:vdl  STATUS:               ID:20100816194824 L   I
 2010-08-16-1946-23S.COL___111                                                 6
 STAT SP IPHASW D HRMM SECON CODA AMPLIT PERI AZIMU VELO SNR AR TRES W  DIS CAZ7
 BAR2 SZ IP       1948 44.16                             171    -0.210   21 206 
 BAR2 SZ ES       1948 59.26                             171    -0.510   21 206 
 BAR2 SZ I        1949  0.73       110.2 0.17                            21 206 
 GIR2 SZ EP       1948 45.29                             166     0.710   36 343 
 GIR2 SZ ES       1949  1.10                             166     0.910   36 343 
 BRR  HZ IP     D 1948 46.05                             151    -0.310   78 299 
 BRR  HN ES       1949  3.22                             151     0.010   78 299 
 BRR  HZ I        1949  6.75        92.9 0.10                            78 299 
 RUS  HZ EP       1948 48.05                             145    -0.210   96 179 
 RUS  HE ES   1   1949  6.02                             145    -0.6 7   96 179 
 RUS  HZ I        1949  8.53        40.3 0.45                            96 179 
 GUE  SZ EP       1948 50.24                             139     0.510  120   9 
 GRA  SZ EP       1948 50.02                             137    -0.210  128  15 
 GRA  SZ ES   1   1949  9.55                             137    -0.6 7  128  15 
 GRA  SZ I        1949 14.12        33.6 0.36                           128  15 
 OCA  SZ EP   1   1948 52.99                             129    -0.5 7  165 352 
 OCA  SZ ES   1   1949 15.80                             129    -0.2 7  165 352 
 CHI  HZ EP       1949  2.34                             118     0.2 8  246 197 
 CHI  HZ I        1949  3.11        23.9 0.15                           246 197 
 CHI  HE ES   1   1949 31.81                             118     0.4 6  246 197 
 CVER SZ EP       1949  5.40                             115     0.5 8  270 204 
 CVER SZ I        1949  7.10        47.4 0.38                           270 204 
 HEL  HZ EP   1   1949  4.73                             115    -0.6 6  276 257 
 HEL  HN ES   3   1949 37.67                                     0.5 2  276 257 
 HEL  HZ I        1949 44.61        32.8 0.44                           276 257 
 TOL  SZ EP   1   1949 13.80                             109     0.8 5  344 226 
 DBB  SZ EP   1   1949 12.13                             109    -0.7 5  345 275 
 PRA  HZ EP       1949 17.68                             107    -0.4 6  391 211 
 PRA  HZ I        1950  6.36        24.8 0.31                           391 211 
                                                                                
