 2017  416 1811  0.4 L   6.801 -73.179145.9  RSN  6 0.2 1.5LRSN                1
 GAP=132        0.62       2.9     2.9  4.4 -0.1345E+00  0.3861E+01  0.1803E+01E
 Epicentro: LOS SANTOS - SANTANDER                                             3
 ACTION:UPD 17-05-30 21:13 OP:jn   STATUS:               ID:20170416181100 L   I
 OLDACT:UP  17-04-16 23:24 OP:dani STATUS:               ID:20170416180740     3
 OLDACT:REG 17-04-16 23:13 OP:dani STATUS:               ID:20170416180740     3
 2017-04-16-1808-00M.COL___365                                                 6
 STAT SP IPHASW D HRMM SECON CODA AMPLIT PERI AZIMU VELO AIN AR TRES W  DIS CAZ7
 BAR2 EZ EP       1811 19.55                             171   -0.4910 23.1 181 
 BAR2 EZ ES       1811 35.38                             171    0.0210 23.1 181 
 BAR2 EZ I        1811 37.79         8.6 0.44            169           23.1 181 
 BRR  HZ EP       1811 21.76                             154    0.3710 68.0 300 
 BRR  HN ES       1811 37.88                             154    0.1310 68.0 300 
 BRR  HZ I        1811 39.37         7.1 0.14            151           68.0 300 
 PAM  EZ EP       1811 23.01                             150    0.2410 79.7  42 
 PAM  EN ES       1811 39.97                             150   -0.2410 79.7  42 
 PAM  EZ I        1811 42.20         5.4 0.48            154           79.7  42 
 RUS  HZ EP       1811 24.16                             144   -0.0310  101 174 
 RUS  HE ES       1811 42.94                             144    0.1910  101 174 
 RUS  HZ I        1811 43.71         4.4 0.28            145            101 174 
 ZAR  HZ EP   3   1811 32.57                             123    0.06 2  201 293 
 ZAR  HN ES       1811 57.41                             123   -0.14 9  201 293 
 ZAR  HZ I        1812  2.83         3.4 0.24            123            201 293 
 NOR  HZ EP       1811 35.84                             119    0.01 8  232 234 
 NOR  HN ES       1812  3.32                             119   -0.14 8  232 234 
 NOR  HZ I        1812 11.84         3.1 0.16            119            232 234 
                                                                                
