 2016 1116 1335 23.2 L   6.563 -73.549113.9  RSN  9 0.5 2.0LRSN                1
 GAP= 91        1.15       4.3     3.5  6.9 -0.1986E+01  0.1341E+01  0.9449E+01E
 Epicentro: EL CARMEN - SANTANDER                                              3
 ACTION:UPD 17-10-26 21:08 OP:lp   STATUS:               ID:20161116133523 L   I
 OLDACT:UP  16-11-16 22:46 OP:ar   STATUS:               ID:20161116132646d    3
 OLDACT:DUP 16-11-16 22:44 OP:ar   STATUS:               ID:20161116132646d    3
 OLDACT:UP  16-11-16 22:43 OP:ar   STATUS:               ID:20161116132645     3
 OLDACT:UP  16-11-16 22:42 OP:ar   STATUS:               ID:20161116132645     3
 OLDACT:REG 16-11-16 20:37 OP:ar   STATUS:               ID:20161116132645     3
 2016-11-16-1327-00M.COL___317                                                 6
 STAT SP IPHASW D HRMM SECON CODA AMPLIT PERI AZIMU VELO AIN AR TRES W  DIS CAZ7
 BAR2 EZ IP     D 1335 39.86                             159    0.2110 40.7  85 
 BAR2 EZ ES       1335 52.31                             159   -0.1410 40.7  85 
 BRR  HZ EP       1335 40.64                             149    0.1510 62.8 343 
 BRR  HN ES       1335 54.47                             149    0.5310 62.8 343 
 BRR  HZ I        1336  5.51        19.2 0.28            151           62.8 343 
 PTB  HZ IP     C 1335 42.67                             135   -0.6610  100 269 
 PTB  HN ES       1335 58.39                             135   -0.6110  100 269 
 PTB  HZ I        1336  1.06        22.7 0.14            138            100 269 
 PAM  HZ EP       1335 46.32                             128   -0.0910  127  47 
 PAM  HN ES       1336  4.52                             128    0.0310  127  47 
 PAM  HZ I        1336  8.63         7.0 0.20            133            127  47 
 ZAR  HZ EP       1335 51.89                             118    0.98 9  177 305 
 ZAR  HN ES   4   1336 14.80                             118    2.30 0  177 305 
 ZAR  HZ I        1336 16.18        24.3 0.40            121            177 305 
 TAM  HZ EP       1335 52.69                             116   -0.17 9  195  94 
 TAM  HN ES       1336 15.68                             116   -0.29 9  195  94 
 TAM  HZ I        1336 19.73        15.3 0.54            120            195  94 
 ROSC BZ EP   4   1335 56.74                             114    1.91 0  209 204 
 ROSC BN ES   4   1336 22.67                             114    3.19 0  209 204 
 CHI  HZ EP   4   1335 53.41                             113   -2.12 0  215 185 
 CHI  HN ES       1336 21.26                             113    0.54 8  215 185 
 CHI  HZ I        1336 25.16         3.3 0.40            117            215 185 
 URE  HZ EP       1335 59.34                             109   -0.33 8  256 301 
 URE  HN ES   4   1336 27.20                             109   -0.89 0  256 301 
 URE  HZ I        1336 34.19         8.1 0.28            112            256 301 
 PRA  HZ EP       1336  9.88                             102   -0.71 6  348 205 
 PRA  HN ES       1336 48.17                             102    0.63 6  348 205 
 PRA  HZ I        1336 51.33         4.4 0.24            106            348 205 
                                                                                
