 2017  316 1625  2.8 L   6.769 -73.151142.1  RSN  5 0.4 1.5LRSN                1
 GAP=137        1.02       5.3     5.3  8.0 -0.2544E+01  0.1275E+01  0.1665E+01E
 Epicentro: LOS SANTOS - SANTANDER                                             3
 ACTION:UPD 17-05-25 18:41 OP:jn   STATUS:               ID:20170316162502 L   I
 OLDACT:REG 17-03-16 22:06 OP:dnl  STATUS:               ID:20170316161748     3
 2017-03-16-1618-00M.COL___408                                                 6
 STAT SP IPHASW D HRMM SECON CODA AMPLIT PERI AZIMU VELO AIN AR TRES W  DIS CAZ7
 BAR2 EZ EP       1625 21.77                             172   -0.1210 19.8 190 
 BAR2 EZ ES       1625 36.13                             172   -0.6810 19.8 190 
 BAR2 EZ I        1625 37.16         6.8 0.40            172           19.8 190 
 BRR  HZ EP       1625 23.69                             151    0.1010 72.4 301 
 BRR  HN ES       1625 40.55                             151    0.7110 72.4 301 
 BRR  HZ I        1625 44.29        15.5 0.42            150           72.4 301 
 PAM  EZ IP     D 1625 24.76                             149   -0.0210 80.4  38 
 PAM  EN ES       1625 41.85                             149   -0.1010 80.4  38 
 PAM  EZ I        1625 43.85         6.3 0.50            152           80.4  38 
 RUS  HZ EP       1625 26.11                             144    0.2010 97.2 176 
 RUS  HE ES       1625 44.37                             144    0.4010 97.2 176 
 RUS  HZ I        1625 45.85         2.1 0.34            147           97.2 176 
 PTB  HZ EP   2   1625 28.56                             131   -0.77 5  147 260 
 PTB  HN ES       1625 49.69                             131   -0.36 9  147 260 
 PTB  HZ I        1625 54.48         2.4 0.42            132            147 260 
                                                                                
