 2014  816 1057 40.0 L   6.817 -73.122146.0  RSN 16 0.4 1.9LRSN                1
 GAP=139        0.95       3.0     4.0  5.4 -0.1635E+01  0.4267E+01  0.2183E+01E
 Epicentro: LOS SANTOS - SANTANDER                                             3
 ACTION:UPD 14-09-15 21:50 OP:nd   STATUS:               ID:20140816105740 L   I
 OLDACT:REG 14-08-16 20:10 OP:spq  STATUS:               ID:20140816104819     3
 2014-08-16-1048-19M.COL___266                                                 6
 STAT SP IPHASW D HRMM SECON CODA AMPLIT PERI AZIMU VELO AIN AR TRES W  DIS CAZ7
 BAR2 SZ IP     D 1057 59.61                             170   -0.0710 25.8 195 
 BAR2 SZ ES   1   1058 14.67                             170   -0.38 7 25.8 195 
 BAR2 SZ I        1058 16.03        14.2 0.20            167           25.8 195 
 BRR  HZ EP       1058  1.40                             152    0.1710 72.6 296 
 BRR  HN ES       1058 18.30                             152    0.5010 72.6 296 
 BRR  HZ I        1058 19.15        14.0 0.10            149           72.6 296 
 PAM  SZ EP       1058  2.52                             152    0.4910 74.2  39 
 PAM  SN ES   1   1058 19.47                             152    0.24 7 74.2  39 
 PAM  SZ I        1058 21.51        13.6 0.50            155           74.2  39 
 RUS  HZ EP       1058  3.93                             143    0.0610  102 178 
 RUS  HN ES   1   1058 22.41                             143   -0.11 7  102 178 
 RUS  HZ I        1058 23.92         6.4 0.32            144            102 178 
 PTB  HZ EP       1058  6.44                             131   -0.78 9  151 258 
 PTB  HE ES       1058 28.59                             131    0.11 9  151 258 
 PTB  HZ I        1058 30.04         8.6 0.10            130            151 258 
 OCA  HN ES       1058 29.37                             130   -0.76 9  159 352 
 OCA  HZ I        1058 32.78         7.9 0.32            131            159 352 
 SPBC HZ EP       1058  8.44                             129   -0.34 9  166 219 
 SPBC HN ES       1058 31.20                             129   -0.06 9  166 219 
 SPBC HZ I        1058 36.83        10.2 0.28            128            166 219 
 ZAR  HZ EP       1058 13.36                             122    0.75 8  206 291 
 ZAR  HE ES       1058 37.78                             122   -0.28 8  206 291 
 ZAR  HZ I        1058 44.65         7.5 0.02            121            206 291 
 NOR  HZ EP       1058 16.02                             118   -0.04 8  238 234 
 NOR  HN ES       1058 44.36                             118    0.15 8  238 234 
 NOR  HZ I        1058 49.78         6.5 0.19            118            238 234 
 SML  HZ EP   1   1058 16.12                             118   -0.42 6  243 335 
 SML  HE ES   1   1058 45.27                             118    0.21 6  243 335 
 SML  HZ I        1058 49.55         8.0 0.09            118            243 335 
 HEL  HZ EP   1   1058 21.32                             115    0.79 6  275 256 
 HEL  HE ES   4   1058 53.39                             115    1.23 0  275 256 
 HEL  HZ I        1058 57.90         5.3 0.30            114            275 256 
 GUY2CHZ EP   1   1058 23.96                             112    0.01 5  304 235 
 GUY2CHN ES   4   1059  0.70                             112    2.44 0  304 235 
 GUY2CHZ I        1059  2.78         3.5 0.30                           304 235 
 RREF HE ES   4   1059  3.03                             111    0.26 0  325 229 
 RREF HZ I        1059  6.95         2.6 0.52            111            325 229 
 TOL  SZ EP   1   1058 29.16                             109    0.56 5  347 225 
 TOL  SN ES   4   1059  9.98                             109    3.44 0  347 225 
 TOL  SZ I        1059 13.97         9.8 0.48            109            347 225 
 PRA  HZ EP       1058 33.31                             106   -0.53 6  395 210 
 PRA  HN ES   4   1059 17.54                             106    1.67 0  395 210 
 PRA  HZ I        1059 20.35         3.6 0.28            107            395 210 
 SJC  HZ EP   4   1058 34.03                             106   -1.49 0  409 327 
 SJC  HN ES   4   1059 17.22                             106   -1.63 0  409 327 
 SJC  HZ I        1059 20.47         1.6 0.62            106            409 327 
                                                                                
