 2012 1216 1523 35.8 L   6.782 -73.097140.0  RSN  5 0.3 1.7LRSN                1
 GAP=144        0.84       4.4     4.7  7.0  0.3447E+01  0.4764E+01 -0.2569E+01E
 Epicentro: LOS SANTOS - SANTANDER                                             3
 ACTION:UPD 13-01-04 14:28 OP:ep   STATUS:               ID:20121216152335 L   I
 2012-12-16-1520-00M.COL___239                                                 6
 STAT SP IPHASW D HRMM SECON CODA AMPLIT PERI AZIMU VELO AIN AR TRES W  DIS CAZ7
 BAR2 SZ EP       1523 54.84                             170    0.1410 23.1 204 
 BAR2 SZ ES       1524  9.14                             170   -0.3310 23.1 204 
 BAR2 SZ I        1524 12.32         9.1 0.38                          23.1 204 
 PAM  SZ EP       1523 57.71                             150    0.4410 75.6  35 
 PAM  SN ES       1524 13.75                             150   -0.2810 75.6  35 
 PAM  SN I        1524 15.26         4.9 0.20                          75.6  35 
 BRR  HZ EP       1523 56.59                             149   -0.0510 76.9 298 
 BRR  HN ES       1524 13.24                             149    0.3210 76.9 298 
 BRR  HN I        1524 14.44        15.9 0.22                          76.9 298 
 RUS  HZ EP   1   1523 58.14                             143   -0.66 7 98.4 179 
 RUS  HN ES       1524 17.04                             143    0.2810 98.4 179 
 RUS  HN I        1524 18.83         4.0 0.42                          98.4 179 
 ZAR  HN ES       1524 33.72                             120   -0.22 8  210 292 
 ZAR  HN I        1524 38.82        10.9 0.28                           210 292 
                                                                                
