 2010 1016 1816  7.4 L   6.801 -73.081143.2  RSN  5 0.1 1.6LRSN                1
 GAP=166        0.38       3.0     5.7  4.7  0.5796E+01 -0.1417E+02 -0.5162E+01E
 Epicentro: LOS SANTOS - SANTANDER                                             3
 ACTION:UP  11-02-18 11:10 OP:tino STATUS:               ID:20101016181607 L   I
 2010-10-16-1810-49S.COL___125                                                 6
 STAT SP IPHASW D HRMM SECON CODA AMPLIT PERI AZIMU VELO SNR AR TRES W  DIS CAZ7
 BAR2 SZ EP       1816 26.75                             169     0.010   26 206 
 BAR2 SZ ES   1   1816 41.77                             169    -0.1 7   26 206 
 BAR2 SZ I        1816 42.76         8.2 0.34                            26 206 
 BRR  HZ IP       1816 28.56                             150    -0.110   78 296 
 BRR  HZ I        1816 28.73        17.7 0.13                            78 296 
 BRR  HE ES   1   1816 45.42                             150     0.2 7   78 296 
 RUS  HZ EP       1816 30.98                             143     0.110  100 180 
 RUS  HN ES   2   1816 49.38                             143     0.1 5  100 180 
 RUS  HZ I        1816 50.56         2.4 0.34                           100 180 
 GUE  SZ EP       1816 31.77                             139     0.010  115   9 
 GRA  SZ EP   2   1816 32.55                             137     0.3 5  124  14 
                                                                                
