 2015  616 1107 24.0 L   6.834 -73.166137.9  RSN  8 0.6 2.1LRSN                1
 GAP=132        1.54       4.7     7.6  8.9  0.4056E+01  0.2043E+02 -0.2106E+01E
 Epicentro: LOS SANTOS - SANTANDER                                             3
 ACTION:UPD 15-09-10 22:13 OP:cam  STATUS:               ID:20150616110724 L   I
 OLDACT:REG 15-06-16 21:12 OP:stll STATUS:               ID:20150616105750     3
 2015-06-16-1057-50M.COL___306                                                 6
 STAT SP IPHASW D HRMM SECON CODA AMPLIT PERI AZIMU VELO AIN AR TRES W  DIS CAZ7
 BAR2 EZ EP       11 7 42.67                             168   -0.0710 26.8 184 
 BAR2 EZ ES       11 7 56.90                             168   -0.4810 26.8 184 
 BAR2 EZ I        11 7 58.75        22.9 0.16            170           26.8 184 
 BRR  HZ EP       11 7 44.46                             152    0.4010 67.4 297 
 BRR  HZ I        11 7 44.66        19.5 0.26            150           67.4 297 
 BRR  HN ES       11 8  0.37                             152    0.6410 67.4 297 
 PAM  SZ EP       11 7 45.49                             150    0.2110 76.0  43 
 PAM  SN ES       11 8  1.94                             150    0.0410 76.0  43 
 PAM  SZ I        11 8  4.33        28.8 0.54            151           76.0  43 
 RUS  HZ EP       11 7 48.81                             141    1.5410  105 175 
 RUS  HE ES       11 8  4.63                             141   -0.8010  105 175 
 OCA  HZ EP       11 7 51.04                             129   -0.26 9  156 354 
 OCA  HN ES       11 8 12.42                             129   -0.20 9  156 354 
 OCA  HZ I        11 8 17.66        16.8 0.26            128            156 354 
 ZAR  HZ EP       11 7 55.63                             121    0.08 9  201 291 
 ZAR  HN ES       11 8 20.48                             121    0.30 9  201 291 
 ZAR  HZ I        11 8 26.02        14.0 0.38            121            201 291 
 SML  HZ EP       11 7 58.80                             116   -0.89 8  239 335 
 SML  HE ES       11 8 26.96                             116   -0.59 8  239 335 
 SML  HZ I        11 8 33.13        10.8 0.26            116            239 335 
 PRA  HZ EP       11 8 17.47                             105   -0.03 6  394 209 
 PRA  HN ES       11 8 58.08                             105   -1.16 6  394 209 
 PRA  HZ I        11 9  4.73         2.9 0.18            106            394 209 
                                                                                
