 2011 1116 1317 31.9 L   6.771 -73.115142.4  RSN  5 0.2 1.8LRSN                1
 GAP=142        0.47       3.1     3.2  4.4  0.1627E+01  0.2410E+01 -0.1509E+01E
 Epicentro: LOS SANTOS - SANTANDER                                             3
 ACTION:UPD 12-07-13 16:10 OP:ep   STATUS:               ID:20111116131731 L   I
 2011-11-16-1316-13S.COL___179                                                 6
 STAT SP IPHASW D HRMM SECON CODA AMPLIT PERI AZIMU VELO AIN AR TRES W  DIS CAZ7
 BAR2 SZ EP   1   1317 51.16                             171    0.09 7 21.1 201 
 BAR2 SZ I        1317 51.54        12.4 0.09                          21.1 201 
 BAR2 SZ ES   1   1318  5.69                             171   -0.35 7 21.1 201 
 BRR  HZ EP   1   1317 53.01                             150    0.07 7 75.7 299 
 BRR  HZ I        1317 58.42        12.3 0.33                          75.7 299 
 BRR  HN ES   1   1318  9.63                             150    0.27 7 75.7 299 
 PAM  SZ EP       1317 53.91                             150    0.1310 77.9  36 
 PAM  SZ I        1317 54.26        14.3 0.18                          77.9  36 
 PAM  SN ES   1   1318 10.71                             150   -0.14 7 77.9  36 
 RUS  HZ EP   1   1317 55.13                             144    0.06 7 97.2 178 
 RUS  HN ES   1   1318 13.22                             144    0.07 7 97.2 178 
 RUS  HZ I        1318 15.44         5.9 0.31                          97.2 178 
 ZAR  HZ EP   1   1318  4.08                             121   -0.49 6  208 293 
 ZAR  HN ES   1   1318 30.11                             121    0.05 6  208 293 
 ZAR  HZ I        1318 34.97        10.7 0.44                           208 293 
                                                                                
