 2015  616 1123 51.6 L   6.885 -73.284119.1  RSN  9 0.5 2.3LRSN                1
 GAP=101        1.10       3.2     3.8  6.2  0.5773E-01 -0.7950E-01 -0.5024E+01E
 Epicentro: BETULIA - SANTANDER                                                3
 ACTION:UPD 15-09-10 22:13 OP:cam  STATUS:               ID:20150616112351 L   I
 OLDACT:REG 15-06-16 21:13 OP:stll STATUS:               ID:20150616111748     3
 2015-06-16-1117-48M.COL___306                                                 6
 STAT SP IPHASW D HRMM SECON CODA AMPLIT PERI AZIMU VELO AIN AR TRES W  DIS CAZ7
 BAR2 EZ IP     C 1124  8.78                             163    0.4610 34.3 161 
 BAR2 EZ ES       1124 21.32                             163   -0.0810 34.3 161 
 BAR2 EZ I        1124 23.07       149.2 0.44            164           34.3 161 
 BRR  HZ IP     C 1124  9.17                             154    0.3510 53.3 297 
 BRR  HN ES       1124 22.20                             154   -0.0910 53.3 297 
 BRR  HZ I        1124 24.84        22.3 0.16            150           53.3 297 
 PAM  SZ EP       1124 12.22                             143    0.9010 81.8  52 
 RUS  HZ EP       1124 13.53                             134   -0.2310  112 169 
 RUS  HN ES       1124 30.86                             134   -0.2210  112 169 
 OCA  HZ EP       1124 16.86                             125   -0.01 9  150 358 
 OCA  HN ES       1124 36.24                             125   -0.39 9  150 358 
 OCA  HZ I        1124 38.00        71.2 0.18            125            150 358 
 ZAR  HZ EP       1124 20.83                             118    0.33 9  186 291 
 ZAR  HN ES       1124 43.33                             118    0.26 9  186 291 
 ZAR  HZ I        1124 48.37        14.7 0.54            117            186 291 
 NOR  HZ EP       1124 25.24                             113    0.07 8  228 230 
 NOR  HN ES       1124 50.57                             113   -0.83 8  228 230 
 NOR  HZ I        1125  1.37         6.1 0.52            112            228 230 
 SML  HZ EP       1124 25.18                             113    0.01 8  229 338 
 SML  HN ES       1124 50.86                             113   -0.53 8  229 338 
 SML  HZ I        1124 57.15        23.5 0.28            112            229 338 
 SOCV BZ EP       1124 34.76                             106    0.30 7  309  60 
 SOCV BN ES       1125  6.88                             106   -1.05 7  309  60 
                                                                                
