 2011  416 1014 59.5 L   6.775 -73.119137.2  RSN 12 0.4 2.3LRSN                1
 GAP=117        0.73       3.0     4.4  5.3 -0.3776E+01  0.3694E+01  0.4458E+01E
 Epicentro: LOS SANTOS - SANTANDER                                             3
 ACTION:UP  11-06-22 15:31 OP:REBC STATUS:               ID:20110416101459 L   I
 2011-04-16-1000-00M.COL___141                                                 6
 STAT SP IPHASW D HRMM SECON CODA AMPLIT PERI AZIMU VELO SNR AR TRES W  DIS CAZ7
 BAR2 SZ IP       1015 18.08                             171     0.010   21 199 
 BAR2 SZ ES   1   1015 32.28                             171    -0.3 7   21 199 
 BAR2 SZ I        1015 34.27        45.5 0.17                            21 199 
 GIR2 SZ EP   1   1015 18.29                             165     0.0 7   35 346 
 BRR  HZ EP       1015 20.01                             150     0.010   75 299 
 BRR  HE ES   1   1015 36.64                             150     0.7 7   75 299 
 BRR  HZ I        1015 41.03        61.3 0.11                            75 299 
 PAM  SZ EP   1   1015 20.95                             149     0.1 7   78  37 
 PAM  SE ES   1   1015 37.27                             149    -0.2 7   78  37 
 GRA  SZ EP       1015 24.00                             135    -0.210  128  16 
 GRA  SZ ES   1   1015 43.61                             135     0.2 7  128  16 
 GRA  SZ I        1015 44.40        41.4 0.28                           128  16 
 OCA  SZ EP   1   1015 27.76                             127     0.3 7  163 352 
 OCA  SZ ES       1015 48.93                             127    -0.4 9  163 352 
 OCA  SZ I        1015 55.01        34.6 0.09                           163 352 
 YOP  SZ EP   1   1015 28.61                             125     0.0 7  175 154 
 YOP  SN ES   2   1015 51.82                             125     0.6 4  175 154 
 YOP  SZ I        1015 56.94        11.9 0.31                           175 154 
 NOR  SZ EP   1   1015 34.46                             116    -0.4 6  235 235 
 NOR  SN ES   1   1016  1.95                             116    -0.5 6  235 235 
 HEL  HZ EP   2   1015 39.86                             113     0.3 4  274 257 
 HEL  HZ I        1016 17.47         9.9 0.54                           274 257 
 GUY  SZ EP   1   1015 43.23                             110     0.1 5  304 236 
 GUY  SZ I        1016 28.76        13.9 0.61                           304 236 
 TOL  SZ EP   1   1015 48.33                             108     0.9 5  344 225 
 PRA  HZ EP   1   1015 52.51                             105    -0.1 4  391 210 
 PRA  HE ES   2   1016 33.24                             105    -0.8 3  391 210 
                                                                                
