 2017  116 1933 44.9 L   6.785 -73.159139.2  RSN 19 0.5 3.1LRSN                1
 GAP= 71        1.13       3.5     3.0  5.6  0.1014E+01  0.6360E+01  0.5513E+01E
 Epicentro: LOS SANTOS - SANTANDER                                             3
 ACTION:UPD 17-05-22 16:00 OP:jn   STATUS:               ID:20170116193344 L   I
 OLDACT:UP  17-01-16 23:50 OP:cog  STATUS:               ID:20170116192743     3
 OLDACT:UP  17-01-16 23:47 OP:cog  STATUS:               ID:20170116192743     3
 OLDACT:REG 17-01-16 20:58 OP:cog  STATUS:               ID:20170116192743     3
 2017-01-16-1928-00M.COL___314                                                 6
 STAT SP IPHASW D HRMM SECON CODA AMPLIT PERI AZIMU VELO AIN AR TRES W  DIS CAZ7
 BAR2 EZ EP       1934  3.80                             171    0.0910 21.5 187 
 BAR2 HE ES       1934 18.63                             171    0.2510 21.5 187 
 BAR2 EZ I        1934 19.95       592.4 0.48            164           21.5 187 
 BRR  HZ EP       1934  5.74                             151    0.4210 70.8 300 
 BRR  HE ES       1934 22.00                             151    0.7510 70.8 300 
 BRR  HZ I        1934 27.81       122.4 0.20            152           70.8 300 
 PAM  EZ IP     D 1934  6.72                             149    0.1610 79.6  40 
 PAM  EE ES       1934 23.46                             149    0.0010 79.6  40 
 PAM  EZ I        1934 25.80       188.1 0.50            161           79.6  40 
 RUS  HZ EP       1934  7.75                             143   -0.1510 99.0 175 
 RUS  HE ES       1934 25.28                             143   -0.5610 99.0 175 
 RUS  HZ I        1934 26.99       269.5 0.50            142           99.0 175 
 PTB  HZ EP       1934 10.44                             131   -0.74 9  146 259 
 PTB  HN ES       1934 30.97                             131   -0.72 9  146 259 
 PTB  HZ I        1934 34.72       151.4 0.26            132            146 259 
 TAM  HZ IP     D 1934 12.18                             129    0.02 9  156 104 
 TAM  HN ES       1934 33.52                             129    0.10 9  156 104 
 TAM  HZ I        1934 34.74        93.7 0.28            136            156 104 
 ZAR  HZ EP       1934 16.74                             121   -0.12 9  203 293 
 ZAR  HN ES       1934 41.48                             121   -0.30 9  203 293 
 ZAR  HZ I        1934 48.25       166.0 0.50            124            203 293 
 CHI  HZ EP       1934 22.01                             116   -0.02 8  247 195 
 CHI  HN ES       1934 50.89                             116   -0.10 8  247 195 
 CHI  HZ I        1934 58.68        48.6 0.60            118            247 195 
 ROSC BZ EP   4   1934 23.54                             115    1.11 0  251 211 
 ROSC BN ES       1934 51.40                             115   -0.31 8  251 211 
 ROSC BZ I        1935  1.36       120.2 0.35            117            251 211 
 URE  HZ EP   4   1934 24.33                             112   -1.25 0  283 292 
 URE  HN ES       1934 56.56                             112   -0.75 7  283 292 
 URE  HZ I        1935  6.70        84.5 0.28            116            283 292 
 GUY2CHZ EP       1934 28.63                             111    0.66 7  299 235 
 GUY2CHN ES   4   1935  3.26                             111    1.69 0  299 235 
 GUY2CHZ  IAML    1935 10.39        64.8 0.38                           299 235 
 PTGC HZ EP   4   1934 26.94                             110   -1.42 0  308 158 
 PTGC HN ES   4   1935  0.41                             110   -1.84 0  308 158 
 PTGC HZ I        1935  2.70        57.6 0.54            114            308 158 
 LL6C HZ EP   9   1934 10.28                             109   -20.2 0  326 358 
 LL6C HN ES       1934 44.26                             116   -1.60 7  326 358 
 LL6C HZ I        1934 47.10        39.6 0.40            114            326 358 
 ELA  HZ EP   4   1934 32.93                             109    1.70 0  327 230 
 ELA  HN ES   4   1935  6.31                             109   -1.06 0  327 230 
 ELA  HZ I        1935 16.99        65.8 0.46            111            327 230 
 CBOC HZ EP   4   1934 33.22                             109    1.88 0  332 252 
 CBOC HN ES       1935  7.82                             109    0.26 7  332 252 
 CBOC HZ I        1935 17.82        29.8 0.46            111            332 252 
 DBB  HZ EP       1934 32.00                             108    0.03 7  338 275 
 DBB  HN ES   4   1935  7.49                             108   -1.19 0  338 275 
 DBB  HZ ES       1935  9.67                             108    0.99 7  338 275 
 DBB  HZ I        1935 13.26        23.0 0.46            111            338 275 
 ORTC HZ EP       1934 38.24                             105   -0.11 6  393 216 
 ORTC HN ES       1935 20.94                             105    0.90 6  393 216 
 ORTC HZ I        1935 26.76        37.4 0.36            108            393 216 
 PAL  HZ EP       1934 39.47                             105   -0.14 6  404 239 
 PAL  HN ES       1935 22.65                             105    0.37 6  404 239 
 PAL  HZ I        1935 28.68        36.6 0.28            107            404 239 
 YOT  HZ EP       1934 46.88                             102   -0.63 5  470 229 
 YOT  HN ES       1935 36.73                             102    0.38 5  470 229 
                                                                                
