 2010 1016 1040  9.8 L   6.761 -73.065142.4  RSN  9 0.4 1.5LRSN                1
 GAP=168        1.05       6.9    12.2 10.5 -0.2385E+02 -0.3099E+02 -0.1085E+02E
 Epicentro: LOS SANTOS - SANTANDER                                             3
 ACTION:UP  11-02-18 11:10 OP:tino STATUS:               ID:20101016104009 L   I
 2010-10-16-1037-15S.COL___125                                                 6
 STAT SP IPHASW D HRMM SECON CODA AMPLIT PERI AZIMU VELO SNR AR TRES W  DIS CAZ7
 BAR2 SZ IP       1040 29.19                             170     0.210   23 215 
 BAR2 SZ ES   1   1040 43.55                             170    -0.4 7   23 215 
 BAR2 SZ I        1040 47.36         7.8 0.13                            23 215 
 BTL  SZ EP       1040 29.55                             168     0.410   28 308 
 GIR2 SZ EP       1040 28.30                             164    -1.010   38 338 
 BRR  HZ EP       1040 31.17                             148     0.010   81 298 
 BRR  HZ I        1040 34.68        14.0 0.17                            81 298 
 BRR  HN ES   1   1040 48.22                             148     0.4 7   81 298 
 RUS  HZ EP   3   1040 33.38                             144     0.5 2   96 181 
 RUS  HN ES   2   1040 51.51                             144     0.6 5   96 181 
 RUS  HZ I        1040 52.99         2.1 0.29                            96 181 
 GUE  SZ EP       1040 34.59                             138     0.210  119   7 
 GRA  SZ EP       1040 35.06                             136     0.210  128  13 
 GRA  SZ ES   1   1040 54.44                             136     0.0 7  128  13 
 GRA  SZ I        1040 55.74         6.5 0.44                           128  13 
 CHI  HE ES   3   1041 15.74                             116    -0.5 2  247 197 
 PRA  HZ EP   2   1041  3.01                             106    -0.3 3  393 211 
                                                                                
