 2015 1016 1653 19.6 L   6.602 -72.855  4.0  RSN  5 0.4 1.4LRSN                1
 GAP=186        1.04       2.6     3.8  7.7 -0.2518E+01  0.9928E+01 -0.4226E+01E
 Epicentro: MOLAGAVITA - SANTANDER                                             3
 ACTION:UPD 15-12-22 20:40 OP:cam  STATUS:               ID:20151016165319 L   I
 OLDACT:UP  15-10-16 22:45 OP:ak   STATUS:               ID:20151016164748     3
 OLDACT:REG 15-10-16 20:40 OP:ak   STATUS:               ID:20151016164748     3
 2015-10-16-1647-48M.COL___339                                                 6
 STAT SP IPHASW D HRMM SECON CODA AMPLIT PERI AZIMU VELO AIN AR TRES W  DIS CAZ7
 BAR2 EZ IP     D 1653 26.07                              47    0.1710 36.2 268 
 BAR2 EZ ES       1653 30.14                              47   -0.7010 36.2 268 
 BAR2 EZ I        1653 31.04        35.7 0.24             47           36.2 268 
 RUS  HZ EP   1   1653 33.23                              47    0.07 7 82.5 198 
 RUS  HN ES       1653 43.80                              47    0.0310 82.5 198 
 RUS  HZ I        1653 45.48         9.3 0.22             47           82.5 198 
 PAM  EZ EP   1   1653 33.78                              47    0.49 7 83.3  12 
 PAM  EN ES       1653 43.55                              47   -0.4410 83.3  12 
 PAM  EZ I        1653 44.74         9.3 0.16             47           83.3  12 
 BRR  HZ EP   4   1653 38.50                              47    1.68 0  110 301 
 BRR  HN ES       1653 50.90                              47    0.6210  110 301 
 ZAR  HE ES       1654 22.87                              37    0.03 8  242 294 
 ZAR  HZ I        1654 26.47         5.2 0.38             37            242 294 
                                                                                
