 2010 1216 1026 43.9 L   5.864 -73.751108.0  RSN  4 0.2 1.1LRSN                1
 GAP=143        0.41       5.4     3.6  8.0 -0.7554E+01  0.1132E+02  0.5561E+01E
 Epicentro: JESUS MARIA - SANTANDER                                            3
 ACTION:UP  11-01-14 15:25 OP:pat  STATUS:               ID:20101216102643 L   I
 2010-12-16-1023-32S.COL___134                                                 6
 STAT SP IPHASW D HRMM SECON CODA AMPLIT PERI AZIMU VELO SNR AR TRES W  DIS CAZ7
 RUS  HZ EP   1   1027  2.04                             143     0.1 7   74  88 
 RUS  HN ES   1   1027 16.00                             143    -0.1 7   74  88 
 RUS  HZ I        1027 17.91         1.9 0.29                            74  88 
 BAR2 SZ EP   2   1027  3.58                             133    -0.3 5  102  38 
 BAR2 SZ ES   2   1027 19.87                             133     0.3 5  102  38 
 BAR2 SZ I        1027 22.03         7.7 0.44                           102  38 
 NOR  SZ EP   2   1027  6.10                             126    -0.1 5  129 255 
 NOR  SE ES   2   1027 23.55                             126     0.0 5  129 255 
 CHI  HZ EP   2   1027  7.65                             124     0.2 5  137 179 
 CHI  HZ I        1027 27.81         1.1 0.34                           137 179 
                                                                                
