 2011 1216 1909 10.6 L   6.771 -73.115148.4  RSN  5 0.2 1.6LRSN                1
 GAP=142        0.38       3.5     5.0  5.2  0.9526E+00  0.6492E+00  0.3317E+01E
 Epicentro: LOS SANTOS - SANTANDER                                             3
 ACTION:UPD 12-07-13 16:16 OP:ep   STATUS:               ID:20111216190910 L   I
 2011-12-16-1908-59S.COL___184                                                 6
 STAT SP IPHASW D HRMM SECON CODA AMPLIT PERI AZIMU VELO AIN AR TRES W  DIS CAZ7
 BAR2 SZ EP   1   19 9 30.30                             172   -0.22 7 21.1 201 
 BAR2 SZ I        19 9 30.78        10.7 0.34                          21.1 201 
 GIR2 SZ EP   2   19 9 30.58                             166   -0.13 5 35.1 346 
 GIR2 SZ ES   2   19 9 46.29                             166   -0.10 5 35.1 346 
 BRR  HZ EP       19 9 32.37                             151    0.0610 75.7 299 
 BRR  HZ I        19 9 40.48        16.0 0.43                          75.7 299 
 BRR  HE ES   2   19 9 49.26                             151    0.03 5 75.7 299 
 PAM  SZ EP   1   19 9 33.39                             151    0.25 7 77.9  36 
 PAM  SN ES   2   19 9 50.55                             151   -0.16 5 77.9  36 
 RUS  HZ EP   1   19 9 34.28                             145   -0.11 7 97.2 178 
 RUS  HZ I        19 9 34.90         3.0 0.24                          97.2 178 
 RUS  HN ES   2   19 9 53.23                             145    0.30 5 97.2 178 
                                                                                
