 2014  816 1036 14.4 L   6.825 -73.132150.6  RSN 20 0.5 2.0LRSN                1
 GAP= 71        0.98       2.8     3.2  5.1 -0.6275E+00  0.2131E+01  0.2857E+01E
 Epicentro: LOS SANTOS - SANTANDER                                             3
 ACTION:UPD 14-09-15 21:50 OP:nd   STATUS:               ID:20140816103614 L   I
 OLDACT:DUP 14-08-16 23:05 OP:spq  STATUS:               ID:20140816102821d    3
 2014-08-16-1028-20M.COL___266                                                 6
 STAT SP IPHASW D HRMM SECON CODA AMPLIT PERI AZIMU VELO AIN AR TRES W  DIS CAZ7
 BAR2 SZ EP       1036 34.51                             170   -0.1710 26.3 192 
 BAR2 SZ ES   1   1036 50.21                             170   -0.28 7 26.3 192 
 BAR2 SZ I        1036 50.89        13.0 0.12            168           26.3 192 
 BRR  HZ IP     C 1036 36.42                             153    0.3410 71.3 296 
 BRR  HN ES       1036 53.88                             153    0.8910 71.3 296 
 BRR  HZ I        1036 58.07        14.5 0.30            148           71.3 296 
 PAM  SZ EP       1036 37.27                             153    0.3110 74.3  40 
 PAM  SE ES   1   1036 54.57                             153    0.02 7 74.3  40 
 PAM  SZ I        1036 55.30        11.7 0.22            152           74.3  40 
 RUS  HZ EP       1036 38.46                             144   -0.3610  103 177 
 RUS  HN ES   1   1036 57.40                             144   -0.47 7  103 177 
 RUS  HZ I        1036 59.17         6.1 0.32            142            103 177 
 PTB  HZ EP       1036 41.33                             133   -0.62 9  150 258 
 PTB  HN ES       1037  2.69                             133   -0.75 9  150 258 
 PTB  HZ I        1037  5.46        11.2 0.22            128            150 258 
 TAM  HZ EP       1036 42.73                             132    0.33 9  154 106 
 TAM  HE ES   1   1037  4.41                             132    0.17 7  154 106 
 TAM  HZ I        1037  4.95        10.9 0.45            131            154 106 
 OCA  HN ES       1037  4.57                             131   -0.48 9  158 352 
 OCA  HZ I        1037  8.65         8.7 0.20            128            158 352 
 SPBC HZ EP       1036 43.46                             130   -0.11 9  166 219 
 SPBC HN ES       1037  6.06                             130   -0.26 9  166 219 
 SPBC HZ I        1037 12.52        15.0 0.20            126            166 219 
 ZAR  HE ES       1037 13.11                             123    0.31 9  204 291 
 ZAR  HZ I        1037 19.05        10.5 0.30            119            204 291 
 NOR  HZ EP       1036 50.77                             119    0.05 8  238 234 
 NOR  HE ES       1037 19.59                             119    0.54 8  238 234 
 NOR  HZ I        1037 20.54         5.2 0.20            116            238 234 
 SML  HZ EP       1036 50.83                             119   -0.27 8  242 335 
 SML  HN ES   1   1037 19.91                             119    0.18 6  242 335 
 SML  HZ I        1037 22.14        11.1 0.10            115            242 335 
 CHI  HZ EP   1   1036 51.92                             118   -0.78 6  252 195 
 CHI  HE ES   1   1037 22.98                             118    0.40 6  252 195 
 CHI  HZ I        1037 27.58         4.9 0.32            115            252 195 
 HEL  HZ EP   1   1036 54.52                             115   -0.58 6  274 255 
 HEL  HN ES   4   1037 29.73                             115    2.88 0  274 255 
 HEL  HZ I        1037 35.14         5.4 0.30            112            274 255 
 GUY2CHZ EP       1036 59.02                             113    0.46 7  304 235 
 GUY2CHE ES   4   1037 37.56                             113    4.56 0  304 235 
 GUY2CHZ I        1037 41.40         7.6 0.76                           304 235 
 PTGC HZ EP   4   1036 57.52                             112   -1.19 0  311 159 
 RREF HZ EP   1   1037  0.94                             111   -0.15 5  325 229 
 RREF HN ES   1   1037 38.18                             111    0.67 5  325 229 
 RREF HZ I        1037 41.28         4.7 0.32            109            325 229 
 TOL  SZ EP   1   1037  3.89                             110    0.68 5  347 225 
 TOL  SE ES   4   1037 42.82                             110    1.55 0  347 225 
 TOL  SZ I        1037 48.69         7.6 0.20            107            347 225 
 ANIL HE ES   4   1037 48.27                             109    4.26 0  360 224 
 ANIL HZ I        1037 52.88         1.3 0.30            107            360 224 
 PRA  HZ EP       1037  9.10                             107    0.64 6  395 210 
 PRA  HN ES   4   1037 52.50                             107    1.87 0  395 210 
 PRA  HZ I        1037 56.91         3.7 0.31            105            395 210 
 ORTC HZ EP       1037  9.06                             107    0.20 6  399 216 
 ORTC HE ES   4   1037 53.85                             107    2.52 0  399 216 
 ORTC HZ I        1037 58.88         2.3 0.34            105            399 216 
 SJC  HZ EP   4   1037  8.90                             106   -1.05 0  408 327 
 SJC  HZ I        1037 46.74         1.5 0.55            104            408 327 
 SJC  HE ES   1   1037 52.81                             106   -0.47 4  408 327 
                                                                                
