 2010  516 1542 51.1 L   6.946 -73.171154.0  RSN  4 0.1 1.7LRSN                1
 GAP=261        0.29      19.8    16.3  9.9 -0.3117E+03 -0.1446E+03  0.1777E+03E
 Epicentro: BETULIA - SANTANDER                                                3
 ACTION:UP  10-08-24 10:05 OP:vdl  STATUS:               ID:20100516154251 L   I
 2010-05-16-1542-42S.COL___108                                                 6
 STAT SP IPHASW D HRMM SECON CODA AMPLIT PERI AZIMU VELO AIN AR TRES W  DIS CAZ7
 BRR  HZ EP   1   1543 12.76                             156     0.0 8   62 287 
 BRR  HE ES   2   1543 29.53                             156     0.0 5   62 287 
 BRR  HZ I        1543 35.74         8.4 0.51                            62 287 
 BRI  SZ EP   1   1543 14.73                             146    -0.1 8   95  26 
 BRI  SZ ES   2   1543 33.47                             146     0.1 5   95  26 
 GUE  SZ EP   1   1543 15.53                             145     0.0 8  102  16 
 GUE  SZ ES   2   1543 34.55                             145     0.0 5  102  16 
 GRA  SZ IP     D 1543 16.07                             142     0.110  111  21 
 GRA  SZ ES   2   1543 35.31                             142    -0.1 5  111  21 
                                                                                
