 2016  916 1339 59.8 L   6.785 -73.142138.6  RSN 10 0.4 2.0LRSN                1
 GAP=138        1.01       4.0     4.1  6.5 -0.2326E+01  0.8584E+01  0.1164E+00E
 Epicentro: LOS SANTOS - SANTANDER                                             3
 ACTION:UPD 17-08-17 21:13 OP:lp   STATUS:               ID:20160916133959 L   I
 OLDACT:UP  16-09-16 21:56 OP:dnl  STATUS:               ID:20160916133737     3
 OLDACT:REG 16-09-16 20:03 OP:lv   STATUS:               ID:20160916133737     3
 2016-09-16-1338-00M.COL___357                                                 6
 STAT SP IPHASW D HRMM SECON CODA AMPLIT PERI AZIMU VELO AIN AR TRES W  DIS CAZ7
 BAR2 EZ EP     D 1340 18.44                             171   -0.0810 21.8 192 
 BAR2 EZ ES       1340 32.65                             171   -0.4910 21.8 192 
 BAR2 EZ I        1340 35.94        22.4 0.34            170           21.8 192 
 BRR  HZ EP       1340 20.41                             151    0.1810 72.3 300 
 BRR  HN ES       1340 36.78                             151    0.6010 72.3 300 
 BRR  HZ I        1340 41.08        22.9 0.22            149           72.3 300 
 PAM  EZ EP       1340 21.22                             149   -0.0910 78.4  39 
 PAM  EN ES       1340 37.90                             149   -0.1910 78.4  39 
 PAM  EZ I        1340 40.23        13.3 0.44            154           78.4  39 
 RUS  HZ EP       1340 22.53                             143   -0.1810 98.9 176 
 RUS  HN ES       1340 41.25                             143    0.6510 98.9 176 
 RUS  HZ I        1340 42.83         9.4 0.30            147           98.9 176 
 PTB  HZ EP       1340 25.41                             130   -0.77 9  148 259 
 PTB  HN ES       1340 46.11                             130   -0.67 9  148 259 
 PTB  HZ I        1340 51.27         9.1 0.58            131            148 259 
 SPBC HZ EP   2   1340 27.89                             128    0.25 5  162 219 
 SPBC HE ES       1340 49.61                             128    0.24 9  162 219 
 SPBC HZ I        1340 54.83        12.6 0.42            130            162 219 
 ZAR  HZ EP       1340 32.27                             121    0.40 9  205 293 
 ZAR  HE ES       1340 57.35                             121    0.44 9  205 293 
 ZAR  HZ I        1341  2.17        12.8 0.28            122            205 293 
 NOR  HZ EP   3   1340 35.09                             117    0.05 2  234 235 
 NOR  HE ES       1341  2.44                             117   -0.10 8  234 235 
 NOR  HZ I        1341  4.49         7.8 0.26            119            234 235 
 URE  HZ EP   4   1340 39.48                             112   -1.14 0  285 292 
 URE  HN ES   4   1341 10.89                             112   -1.59 0  285 292 
 URE  HZ I        1341 18.76         6.7 0.16            114            285 292 
 GUY2CHZ EP   2   1340 43.78                             111    0.78 4  301 235 
 GUY2CHN ES   2   1341 16.33                             111   -0.37 4  301 235 
 GUY2CHZ I        1341 23.79         4.5 0.28                           301 235 
                                                                                
