 2010 1216 1151 36.3 L   6.772 -73.090143.6  RSN  5 0.3 1.6LRSN                1
 GAP=304        0.42       5.8     6.7  5.8 -0.8510E+01  0.1714E+02  0.5843E+00E
 Epicentro: LOS SANTOS - SANTANDER                                             3
 ACTION:UP  11-01-14 15:25 OP:pat  STATUS:               ID:20101216115136 L   I
 2010-12-16-1149-32S.COL___134                                                 6
 STAT SP IPHASW D HRMM SECON CODA AMPLIT PERI AZIMU VELO SNR AR TRES W  DIS CAZ7
 BAR2 SZ EP   2   1151 55.88                             171     0.2 5   22 207 
 BAR2 SZ ES   2   1152 10.75                             171     0.0 5   22 207 
 BAR2 SZ I        1152 14.75         9.7 0.51                            22 207 
 RUS  HZ EP   1   1151 59.77                             144     0.1 7   97 180 
 RUS  HE ES   1   1152 17.74                             144    -0.1 7   97 180 
 RUS  HZ I        1152 21.15         5.7 0.49                            97 180 
 NOR  SZ EP   2   1152 11.70                             118    -0.6 4  238 236 
 NOR  SN ES   2   1152 40.65                             118     0.3 4  238 236 
 CHI  HZ EP   2   1152 14.03                             117     0.2 4  247 197 
 CHI  HE ES   2   1152 42.78                             117    -0.2 4  247 197 
 CHI  HZ I        1152 51.57         2.8 0.29                           247 197 
 PRA  HZ EP   2   1152 29.46                             106    -0.4 3  392 211 
 PRA  HE ES   2   1153 11.92                             106     0.4 3  392 211 
                                                                                
