 2011  516 1147  4.5 L   6.826 -73.126139.9  RSN 12 0.4 2.6LRSN                1
 GAP=138        0.76       3.5     4.6  5.4 -0.7579E+01  0.7504E+01 -0.1509E+01E
 Epicentro: LOS SANTOS - SANTANDER                                             3
 ACTION:UP  11-06-29 08:53 OP:tino STATUS:               ID:20110516114704 L   I
 2011-05-16-1146-06S.COL___139                                                 6
 STAT SP IPHASW D HRMM SECON CODA AMPLIT PERI AZIMU VELO SNR AR TRES W  DIS CAZ7
 BAR2 SZ EP       1147 23.56                             169     0.110   27 194 
 BAR2 SZ ES   1   1147 37.89                             169    -0.4 7   27 194 
 BAR2 SZ I        1147 42.03        96.5 0.51                            27 194 
 BRR  HZ IP     D 1147 25.25                             151     0.210   72 296 
 BRR  HE ES   1   1147 41.63                             151     0.6 7   72 296 
 BRR  HZ I        1147 43.18       112.5 0.12                            72 296 
 PAM  SZ EP   1   1147 26.07                             151     0.2 7   74  40 
 PAM  SN ES   1   1147 42.84                             151     0.3 7   74  40 
 RUS  HZ EP   1   1147 27.80                             142    -0.1 7  103 177 
 RUS  HN ES   1   1147 46.10                             142     0.0 7  103 177 
 RUS  HZ I        1147 48.41        48.7 0.23                           103 177 
 BRI  SZ EP       1147 27.76                             141     0.210  105  20 
 GRA  SZ IP       1147 29.02                             136     0.110  122  17 
 GRA  SZ I        1147 30.33        56.6 0.18                           122  17 
 GRA  SZ ES   1   1147 47.40                             136    -0.6 7  122  17 
 OCA  SZ EP   1   1147 31.44                             129    -0.7 7  158 352 
 OCA  SZ ES   2   1147 53.31                             129    -0.3 5  158 352 
 OCA  SZ I        1147 56.97        44.2 0.24                           158 352 
 NOR  SZ EP   1   1147 39.82                             117    -0.4 6  238 234 
 NOR  SN ES   1   1148  7.61                             117    -0.6 6  238 234 
 HEL  HZ EP   1   1147 44.76                             113     0.0 6  275 255 
 HEL  HN ES   1   1148 16.28                             113     0.2 6  275 255 
 HEL  HZ I        1148 22.72        48.6 0.52                           275 255 
 DBB  SZ EP   2   1147 51.84                             108    -0.1 3  341 274 
 TOL  SZ EP   2   1147 53.44                             108     0.5 3  347 225 
 ANIL HZ EP   1   1147 55.08                             107     0.6 5  361 224 
                                                                                
