 2016  816 1458 52.2 L   6.795 -73.147144.0  RSN  8 0.5 1.8LRSN                1
 GAP=137        1.07       4.6     4.6  7.0 -0.2449E+01  0.1098E+02  0.4893E+01E
 Epicentro: LOS SANTOS - SANTANDER                                             3
 ACTION:UPD 16-10-29 15:36 OP:rebc STATUS:               ID:20160816145852 L   I
 OLDACT:UP  16-08-16 22:03 OP:dnl  STATUS:               ID:20160816145736     3
 OLDACT:REG 16-08-16 20:45 OP:dnl  STATUS:               ID:20160816145736     3
 2016-08-16-1458-00M.COL___374                                                 6
 STAT SP IPHASW D HRMM SECON CODA AMPLIT PERI AZIMU VELO AIN AR TRES W  DIS CAZ7
 BAR2 EZ EP       1459 11.53                             171   -0.1210 22.7 190 
 BAR2 EZ ES       1459 26.85                             171    0.0610 22.7 190 
 BAR2 EZ I        1459 28.16        16.6 0.54                          22.7 190 
 BRR  HZ EP       1459 13.33                             152    0.1210 71.3 299 
 BRR  HN ES       1459 30.37                             152    0.8010 71.3 299 
 BRR  HZ I        1459 33.95         9.6 0.14                          71.3 299 
 PAM  EZ EP       1459 14.24                             151   -0.0710 77.9  39 
 PAM  EN ES       1459 31.67                             151    0.1510 77.9  39 
 PAM  EZ I        1459 33.61        12.3 0.50                          77.9  39 
 RUS  HZ EP   2   1459 15.81                             144    0.03 5  100 176 
 RUS  HE ES       1459 33.72                             144   -0.4210  100 176 
 RUS  HZ I        1459 37.19         4.5 0.32                           100 176 
 PTB  HZ EP       1459 18.38                             132   -0.67 9  147 259 
 PTB  HN ES       1459 39.60                             132   -0.35 9  147 259 
 PTB  HZ I        1459 46.72        12.3 0.54                           147 259 
 ZAR  HZ EP   2   1459 25.57                             122    0.98 4  204 292 
 ZAR  HN ES       1459 49.19                             122   -0.62 9  204 292 
 ZAR  HZ I        1459 56.02         8.0 0.26                           204 292 
 NOR  HZ EP       1459 27.66                             118   -0.16 8  234 235 
 NOR  HE ES       1459 56.14                             118    0.57 8  234 235 
 NOR  HZ I        15 0  1.58         5.7 0.16                           234 235 
 PRA  HZ EP   2   1459 45.56                             106   -0.08 3  391 210 
 PRA  HN ES       15 0 28.37                             106    1.09 6  391 210 
 PRA  HZ I        15 0 36.00         3.5 0.56                           391 210 
                                                                                
