 2013  516 1608 26.8 L   6.508 -73.591105.1  RSN  7 0.4 1.6LRSN                1
 GAP= 93        0.98       4.1     4.5  9.6 -0.2265E+01  0.1827E+02 -0.4928E+01E
 Epicentro: SANTA HELENA DEL OPON - SANTANDER                                  3
 ACTION:UPD 13-06-20 09:51 OP:ep   STATUS:               ID:20130516160826 L   I
 2013-05-16-1606-37M.COL___231                                                 6
 STAT SP IPHASW D HRMM SECON CODA AMPLIT PERI AZIMU VELO AIN AR TRES W  DIS CAZ7
 BAR2 SZ IP       16 8 42.56                             154    0.0610 46.2  78 
 BAR2 SZ ES   1   16 8 54.80                             154    0.06 7 46.2  78 
 BAR2 SZ I        16 8 56.15        53.0 0.48            160           46.2  78 
 BRR  HZ EP   1   16 8 43.52                             144    0.04 7 67.6 349 
 GIR2 SZ EP       16 8 44.11                             141   -0.2610 76.9  35 
 GIR2 SZ ES   1   16 8 58.50                             141    0.43 7 76.9  35 
 GIR2 SZ I        16 8 58.60        11.3 0.12            146           76.9  35 
 RUS  HZ EP       16 8 45.80                             137    0.0310 88.3 140 
 RUS  HN ES   1   16 9  0.47                             137   -0.08 7 88.3 140 
 RUS  HZ I        16 9  1.36         3.7 0.20            139           88.3 140 
 PTB  HZ EP       16 8 44.91                             134   -0.8410 95.7 272 
 PTB  HN ES   1   16 9  0.24                             134   -0.28 7 95.7 272 
 PTB  HZ I        16 9  1.38         8.6 0.32            134           95.7 272 
 NOR  HZ EP   1   16 8 54.42                             116    0.54 7  176 234 
 NOR  HN ES   1   16 9 15.94                             116    0.94 7  176 234 
 NOR  HZ I        16 9 22.29         2.5 0.14            116            176 234 
 SML  HN ES       16 9 32.23                             106    0.44 8  259 348 
                                                                                
