 2013 1116 1840 33.3 L   6.460 -73.025139.4  RSN  5 0.5 1.6LRSN                1
 GAP=181        1.20       6.4     7.3 11.0 -0.1694E+02  0.1763E+01  0.2256E+02E
 Epicentro: MOGOTES - SANTANDER                                                3
 ACTION:UPD 14-01-09 16:28 OP:ep   STATUS:               ID:20131116184033 L   I
 OLDACT:REG 13-11-16 16:32 OP:stll STATUS:               ID:20131116183808     3
 2013-11-16-1838-08M.COL___229                                                 6
 STAT SP IPHASW D HRMM SECON CODA AMPLIT PERI AZIMU VELO AIN AR TRES W  DIS CAZ7
 BAR2 SZ ES       1841  7.50                             170    0.6410 22.7 310 
 BAR2 SZ I        1841 12.12        15.7 0.40            168           22.7 310 
 BRR  HN ES       1841 13.75                             141    0.0010  104 313 
 PAM  SZ EP       1840 57.07                             142    0.4110  104  20 
 PAM  SZ I        1840 57.35         5.7 0.22            146            104  20 
 PAM  SN ES       1841 14.12                             142   -0.7610  104  20 
 PTB  HZ EP       1841  1.13                             128    0.35 9  159 273 
 PTB  HN ES       1841 21.80                             128   -0.41 9  159 273 
 PTB  HZ I        1841 29.39         4.8 0.26            129            159 273 
 CHI  HN ES       1841 33.35                             119   -0.37 8  217 201 
                                                                                
