 2017  416 1742  5.5 L   6.100 -73.727103.8  RSN  4 0.2 1.1LRSN                1
 GAP=137        0.46       3.5     1.8  5.6 -0.4731E+00  0.3251E+01 -0.2010E+01E
 Epicentro: CHIPATA - SANTANDER                                                3
 ACTION:UPD 17-05-30 21:12 OP:jn   STATUS:               ID:20170416174205 L   I
 OLDACT:UP  17-04-16 20:31 OP:dani STATUS:               ID:20170416173745     3
 OLDACT:REG 17-04-16 20:12 OP:dani STATUS:               ID:20170416173745     3
 2017-04-16-1738-00M.COL___365                                                 6
 STAT SP IPHASW D HRMM SECON CODA AMPLIT PERI AZIMU VELO AIN AR TRES W  DIS CAZ7
 RUS  HZ EP       1742 22.98                             142   -0.3110 74.9 108 
 RUS  HN ES       1742 37.28                             142    0.1210 74.9 108 
 RUS  HZ I        1742 38.41         1.8 0.18             47           74.9 108 
 BAR2 EZ EP       1742 23.53                             139    0.1010 81.3  48 
 BAR2 EZ I        1742 39.49         5.9 0.30             47           81.3  48 
 PTB  HZ EP       1742 24.28                             134    0.0810 94.2 301 
 PTB  HN ES   1   1742 38.64                             134   -0.15 7 94.2 301 
 PTB  HZ I        1742 41.26         3.3 0.11             47           94.2 301 
 NOR  HZ EP       1742 28.74                             122    0.10 9  140 245 
 NOR  HN ES       1742 46.68                             122   -0.00 9  140 245 
 NOR  HZ I        1742 49.22         2.3 0.28             47            140 245 
                                                                                
