 2010  616 1617 50.4 L   6.832 -73.030147.5  RSN  5 0.3 1.9LRSN                1
 GAP=177        0.50       4.7    10.1  6.9  0.1332E+02 -0.2890E+02 -0.7792E+01E
 Epicentro: CEPITA - SANTANDER                                                 3
 ACTION:UP  10-08-24 10:10 OP:vdl  STATUS:               ID:20100616161750 L   I
 2010-06-16-1614-24S.COL___114                                                 6
 STAT SP IPHASW D HRMM SECON CODA AMPLIT PERI AZIMU VELO SNR AR TRES W  DIS CAZ7
 BAR2 SZ EP   1   1618 10.50                             167     0.1 7   32 213 
 BAR2 SZ ES   2   1618 25.52                             167    -0.5 5   32 213 
 GIR2 SZ EP   1   1618 10.38                             167     0.1 7   33 327 
 GIR2 SZ ES   2   1618 26.29                             167     0.5 5   33 327 
 BRR  HZ EP   1   1618 12.12                             150    -0.2 7   81 292 
 BRR  HZ I        1618 12.36        29.1 0.13                            81 292 
 BRR  HN ES   2   1618 29.48                             150     0.1 5   81 292 
 RUS  HZ EP   1   1618 14.72                             143     0.2 7  104 183 
 RUS  HE ES   2   1618 33.16                             143    -0.2 5  104 183 
 RUS  HZ I        1618 34.18         5.7 0.27                           104 183 
 GUE  SZ EP   1   1618 14.60                             141    -0.2 7  111   6 
                                                                                
