 2010  816 1907 52.5 L   6.667 -73.535107.4  RSN  5 0.3 1.4LRSN                1
 GAP=188        0.87       4.8     9.4  8.7  0.1160E+02 -0.6443E+01  0.3924E+00E
 Epicentro: EL CARMEN DE CHUCURI - SANTANDER                                   3
 ACTION:UP  10-09-07 10:55 OP:vdl  STATUS:               ID:20100816190752 L   I
 2010-08-16-1902-42S.COL___111                                                 6
 STAT SP IPHASW D HRMM SECON CODA AMPLIT PERI AZIMU VELO SNR AR TRES W  DIS CAZ7
 BAR2 SZ EP       19 8  8.14                             158     0.010   40 102 
 BAR2 SZ ES   1   19 8 20.19                             158    -0.1 7   40 102 
 BAR2 SZ I        19 8 21.40        12.3 0.18                            40 102 
 BRR  HZ EP       19 8  8.14                             152    -0.310   53 338 
 BRR  HE ES   1   19 8 20.97                             152     0.1 7   53 338 
 BRR  HZ I        19 8 22.57         9.4 0.11                            53 338 
 GIR2 SZ EP       19 8  9.75                             149     0.710   59  40 
 RUS  HZ EP       19 8 12.46                             134    -0.110   99 150 
 RUS  HN ES   2   19 8 28.23                             134     0.0 5   99 150 
 RUS  HZ I        19 8 29.56         4.0 0.64                            99 150 
 GUE  SZ EP   1   19 8 16.74                             122     0.0 7  145  28 
 GUE  SZ ES   1   19 8 35.33                             122    -0.4 7  145  28 
                                                                                
