 2015  916 1916 35.2 L   6.838 -73.148140.5  RSN 16 0.4 2.4LRSN                1
 GAP=183        0.98       2.4     3.9  5.3 -0.7792E+00  0.5549E+01  0.3692E+00E
 Epicentro: LOS SANTOS - SANTANDER                                             3
 ACTION:UPD 15-10-28 16:26 OP:cam  STATUS:               ID:20150916191635 L   I
 OLDACT:REG 15-09-16 22:03 OP:drio STATUS:               ID:20150916190749     3
 2015-09-16-1907-49M.COL___349                                                 6
 STAT SP IPHASW D HRMM SECON CODA AMPLIT PERI AZIMU VELO AIN AR TRES W  DIS CAZ7
 BAR2 EZ EP       1916 54.58                             168    0.3010 27.4 188 
 BAR2 EZ ES       1917  8.89                             168   -0.2810 27.4 188 
 BAR2 EZ I        1917 10.73        46.1 0.26            167           27.4 188 
 BRR  HZ EP       1916 56.43                             152    0.7810 69.1 296 
 BRR  HE ES   4   1917 13.43                             152    1.82 0 69.1 296 
 BRR  HZ I        1917 17.40        30.2 0.40            149           69.1 296 
 RUS  HZ EP       1916 58.53                             141   -0.2110  105 176 
 RUS  HN ES       1917 17.61                             141    0.5010  105 176 
 RUS  HZ I        1917 18.82        19.7 0.40            145            105 176 
 PTB  HZ EP       1917  1.33                             131   -0.46 9  148 257 
 PTB  HN ES       1917 22.15                             131   -0.39 9  148 257 
 PTB  HZ I        1917 28.59        19.8 0.28            131            148 257 
 OCA  HZ EP       1917  2.53                             129   -0.17 9  156 353 
 OCA  HE ES       1917 24.23                             129    0.08 9  156 353 
 OCA  HZ I        1917 32.82        41.9 0.46            132            156 353 
 SPBC HZ EP       1917  3.56                             127   -0.03 9  166 218 
 SPBC HE ES       1917 25.61                             127   -0.14 9  166 218 
 SPBC HZ I        1917 30.19        36.4 0.32            129            166 218 
 ZAR  HZ EP       1917  7.25                             121    0.14 9  202 291 
 ZAR  HN ES       1917 31.54                             121   -0.47 9  202 291 
 ZAR  HZ I        1917 37.71        23.1 0.32            122            202 291 
 NOR  HZ EP       1917 10.62                             117   -0.25 8  237 234 
 NOR  HE ES       1917 39.31                             117    0.62 8  237 234 
 NOR  HZ I        1917 44.48        13.6 0.20            119            237 234 
 SML  HZ EP       1917 10.54                             117   -0.56 8  240 335 
 SML  HN ES       1917 39.37                             117    0.26 8  240 335 
 SML  HZ I        1917 42.97        18.8 0.26            119            240 335 
 CHI  HZ EP       1917 12.80                             116   -0.24 8  253 195 
 CHI  HE ES       1917 42.14                             116   -0.43 8  253 195 
 CHI  HZ I        1917 45.59        19.6 0.60            119            253 195 
 ROSC BZ EP       1917 13.33                             115   -0.08 8  256 210 
 ROSC BE ES   4   1917 41.83                             115   -1.40 0  256 210 
 ROSC BZ I        1917 48.93        41.9 0.40            118            256 210 
 HEL  HZ EP   4   1917 16.88                             114    1.65 0  273 255 
 HEL  HN ES       1917 45.74                             114   -0.73 8  273 255 
 HEL  HZ I        1917 52.77        12.8 0.46            115            273 255 
 GUY2CHZ EP       1917 19.42                             111    0.60 7  303 234 
 GUY2CHN ES       1917 52.85                             111    0.01 7  303 234 
 GUY2CHZ I        1918  0.99        12.2 0.50                           303 234 
 CBOC HZ EP       1917 22.92                             109    0.90 7  335 251 
 CBOC HN ES       1917 59.55                             109    1.01 7  335 251 
 CBOC HZ I        1918 11.01         3.9 0.44            111            335 251 
 PRA  HZ EP       1917 28.75                             105   -0.20 6  396 209 
 PRA  HN ES       1918 10.48                             105   -0.40 6  396 209 
 PRA  HZ I        1918 16.72        12.8 0.68            108            396 209 
 ORTC HZ EP       1917 29.07                             105   -0.25 6  399 216 
 ORTC HE ES       1918 11.77                             105    0.23 6  399 216 
 ORTC HZ I        1918 15.98         8.2 0.28            107            399 216 
 SJC  HZ EP   4   1917 28.53                             105   -1.62 0  406 327 
 SJC  HN ES   4   1918  9.42                             105   -3.60 0  406 327 
                                                                                
