 2012  216 1723  6.6 L   6.799 -73.112148.4  RSN  8 0.3 1.8LRSN                1
 GAP=141        0.48       4.2     3.6  6.2 -0.1544E+00  0.4171E+01  0.1137E+02E
 ACTION:UP  12-03-07 16:31 OP:epov STATUS:               ID:20120216172306 L   I
 2012-02-16-1720-00M.COL___188                                                 6
 STAT SP IPHASW D HRMM SECON CODA AMPLIT PERI AZIMU VELO AIN AR TRES W  DIS CAZ7
 BAR2 SZ EP   1   1723 26.56                             170    0.02 7 24.1 199 
 BAR2 SZ I        1723 26.88        15.6 0.11                          24.1 199 
 GIR2 SZ EP   1   1723 26.65                             167    0.06 7 32.3 344 
 GIR2 SZ ES   2   1723 41.79                             167   -0.41 5 32.3 344 
 BRR  HZ EP   1   1723 28.41                             152    0.21 7 74.6 297 
 BRR  HZ I        1723 28.87        22.0 0.12                          74.6 297 
 BRR  HN ES   1   1723 45.37                             152    0.30 7 74.6 297 
 PAM  SN ES   1   1723 46.37                             152   -0.02 7 75.2  37 
 RUS  HZ EP   1   1723 30.54                             144   -0.03 7  100 178 
 RUS  HE ES   2   1723 49.21                             144   -0.07 5  100 178 
 RUS  HZ I        1723 50.56         4.1 0.27                           100 178 
 PTB  HZ EP   2   1723 33.54                             132   -0.55 5  151 259 
 PTB  HE ES   2   1723 55.03                             132   -0.52 5  151 259 
 ZAR  HE ES   2   1724  5.03                             122   -0.25 4  208 292 
 NOR  SN ES   2   1724 11.61                             119    0.59 4  238 235 
                                                                                
