 2010  816 1514 21.5 L   6.796 -73.067138.9  RSN  5 0.2 1.6LRSN                1
 GAP=167        0.61       3.4     6.2  6.3  0.7129E+00 -0.1426E+02 -0.4103E+01E
 Epicentro: LOS SANTOS - SANTANDER                                             3
 ACTION:UP  10-09-07 10:55 OP:vdl  STATUS:               ID:20100816151421 L   I
 2010-08-16-1511-59S.COL___111                                                 6
 STAT SP IPHASW D HRMM SECON CODA AMPLIT PERI AZIMU VELO SNR AR TRES W  DIS CAZ7
 BTL  SZ EP       1514 40.37                             169     0.010   26 301 
 BAR2 SZ ES   1   1514 54.79                             169    -0.3 7   26 210 
 BAR2 SZ I        1514 55.88        12.0 0.21                            26 210 
 BRR  HZ EP       1514 42.14                             149    -0.310   79 296 
 BRR  HZ I        1514 42.50        11.2 0.03                            79 296 
 BRR  HE ES       1514 58.90                             149     0.210   79 296 
 RUS  HZ EP   1   1514 44.49                             143    -0.1 7  100 181 
 RUS  HE ES   1   1515  2.79                             143     0.3 7  100 181 
 RUS  HZ I        1515  4.12         2.7 0.46                           100 181 
 GRA  SZ EP       1514 46.19                             136     0.210  124  14 
 GRA  SZ I        1514 47.63         8.0 0.22                           124  14 
 GRA  SZ ES   1   1515  5.03                             136    -0.1 7  124  14 
                                                                                
