 2013  416 1842 47.3 L   6.308 -73.650109.9  RSN  4 0.1 1.4LRSN                1
 GAP=160        0.29       1.7     1.4  2.9  0.1030E+01  0.1256E+01  0.9636E+00E
 Epicentro: SANTA HELENA DEL OPON - SANTANDER                                  3
 ACTION:UPD 13-05-22 14:38 OP:EP   STATUS:               ID:20130416184247 L   I
 2013-04-16-1838-48M.COL___215                                                 6
 STAT SP IPHASW D HRMM SECON CODA AMPLIT PERI AZIMU VELO AIN AR TRES W  DIS CAZ7
 BAR2 SZ EP   1   1843  4.18                             149   -0.13 7 60.5  59 
 BAR2 SZ ES       1843 17.59                             149   -0.0110 60.5  59 
 RUS  HZ EP       1843  5.85                             142    0.0010 77.7 126 
 RUS  HZ I        1843  6.31         2.3 0.36            144           77.7 126 
 RUS  HN ES       1843 20.37                             142    0.0310 77.7 126 
 BRR  HZ EP       1843  6.11                             138    0.1010 88.6 356 
 BRR  HN ES       1843 20.62                             138   -0.0110 88.6 356 
 PTB  HZ EP       1843  6.35                             137   -0.0310 92.8 286 
 PTB  HN ES       1843 21.28                             137   -0.0110 92.8 286 
 PTB  HN I        1843 23.48        14.0 0.28            137           92.8 286 
                                                                                
