 2014 1016 1007 23.0 L   6.606 -73.261141.0  RSN  6 0.4 1.4LRSN                1
 GAP=142        0.86       5.1     5.2  7.2  0.1135E+02  0.8280E+01 -0.2666E+01E
 Epicentro: CABRERA - SANTANDER                                                3
 ACTION:UPD 14-11-29 23:50 OP:nd   STATUS:               ID:20141016100723 L   I
 OLDACT:DUP 14-10-16 21:21 OP:fm   STATUS:               ID:20141016095747d    3
 2014-10-16-0957-46M.COL___301                                                 6
 STAT SP IPHASW D HRMM SECON CODA AMPLIT PERI AZIMU VELO AIN AR TRES W  DIS CAZ7
 BAR2 SZ EP       10 7 41.43                             176   -0.3910 8.83 100 
 BAR2 SZ ES   1   10 7 56.28                             176   -0.23 7 8.83 100 
 BAR2 SZ I        10 7 57.34         8.3 0.32            174           8.83 100 
 BRR  HZ EP   1   10 7 43.34                             150   -0.46 7 74.5 318 
 BRR  HE ES       10 7 60.00                             150   -0.0510 74.5 318 
 BRR  HZ I        10 8  1.20         6.4 0.24            151           74.5 318 
 RUS  HZ EP   1   10 7 45.29                             149    0.36 7 81.3 166 
 RUS  HN ES       10 8  2.51                             149    0.4510 81.3 166 
 RUS  HZ I        10 8  4.96         2.2 0.28            147           81.3 166 
 PTB  HZ EP       10 7 48.30                             134    0.1310  132 267 
 PTB  HN ES       10 8  8.02                             134    0.1910  132 267 
 PTB  HZ I        10 8 10.62         2.9 0.20            133            132 267 
 SPBC HN ES   1   10 8  8.12                             133   -0.86 7  139 220 
 SPBC HZ I        10 8 15.07         3.1 0.26            131            139 220 
 ZAR  HZ EP   1   10 7 55.08                             122    0.20 6  202 299 
 ZAR  HN ES       10 8 20.07                             122    0.31 9  202 299 
 ZAR  HZ I        10 8 23.21         2.2 0.10            122            202 299 
                                                                                
