 2010  916 1445 50.3 L   6.802 -73.051142.2  RSN  5 0.2 1.6LRSN                1
 GAP=169        0.42       3.7     7.8  7.3  0.6665E+01 -0.2920E+02 -0.1225E+02E
 Epicentro: LOS SANTOS - SANTANDER                                             3
 ACTION:UP  11-02-18 11:03 OP:tino STATUS:               ID:20100916144550 L   I
 2010-09-16-1442-58S.COL___119                                                 6
 STAT SP IPHASW D HRMM SECON CODA AMPLIT PERI AZIMU VELO SNR AR TRES W  DIS CAZ7
 BAR2 SZ EP   1   1446  9.65                             169     0.0 7   28 212 
 BAR2 SZ ES   2   1446 24.42                             169    -0.3 5   28 212 
 BAR2 SZ I        1446 26.94         9.4 0.28                            28 212 
 BRR  HZ EP   1   1446 11.59                             149    -0.1 7   81 295 
 BRR  HZ I        1446 12.13        13.2 0.14                            81 295 
 BRR  HE ES   2   1446 28.45                             149     0.1 5   81 295 
 RUS  HZ EP   1   1446 13.65                             143    -0.1 7  101 182 
 RUS  HN ES   2   1446 32.35                             143     0.3 5  101 182 
 RUS  HZ I        1446 33.65         3.4 0.43                           101 182 
 GUE  SZ EP   1   1446 14.79                             139     0.2 7  115   7 
 GRA  SZ EP   1   1446 14.92                             137    -0.1 7  123  13 
                                                                                
