 2017  416 1831 26.8 L   7.220 -73.456 22.1  RSN  6 0.6 1.5LRSN                1
 GAP=160        1.63       5.3     3.4  5.0  0.1145E+01  0.4646E+01  0.1009E+01E
 Epicentro: SABANA DE TORRES - SANTANDER                                       3
 ACTION:UPD 17-05-30 21:13 OP:jn   STATUS:               ID:20170416183126 L   I
 OLDACT:UP  17-04-16 23:31 OP:dani STATUS:               ID:20170416182743     3
 OLDACT:UP  17-04-16 23:30 OP:dani STATUS:               ID:20170416182743     3
 OLDACT:REG 17-04-16 23:14 OP:dani STATUS:               ID:20170416182743     3
 2017-04-16-1828-00M.COL___365                                                 6
 STAT SP IPHASW D HRMM SECON CODA AMPLIT PERI AZIMU VELO AIN AR TRES W  DIS CAZ7
 BRR  HZ EP       1831 33.95                             123    1.0610 30.9 246 
 BRR  HE ES       1831 37.20                             123   -0.4510 30.9 246 
 BRR  HZ I        1831 39.45        23.9 0.14            119           30.9 246 
 BAR2 EZ EP       1831 39.42                             105   -0.0410 75.8 156 
 BAR2 EZ ES       1831 49.14                             105   -0.2010 75.8 156 
 BAR2 EZ I        1831 50.29        14.4 0.34            103           75.8 156 
 PAM  EZ EP       1831 41.45                             103    0.4110 84.6  81 
 PAM  EN ES       1831 51.25                             103   -0.8910 84.6  81 
 PAM  EZ I        1831 53.26        26.8 0.22            102           84.6  81 
 PTB  HZ EP       1831 46.73                              56   -0.5110  134 236 
 PTB  HN ES       1832  2.25                              56   -0.9410  134 236 
 PTB  HZ I        1832  5.47         6.8 0.14             56            134 236 
 RUS  HZ EP       1831 50.97                              56    0.81 9  153 164 
 RUS  HE ES       1832  8.78                              56    0.39 9  153 164 
 RUS  HZ I        1832 10.34        12.3 0.22             56            153 164 
 ZAR  HZ EP       1831 50.91                              56    0.69 9  158 281 
 ZAR  HE ES       1832  8.28                              56   -0.22 9  158 281 
 ZAR  HZ I        1832 13.66         5.9 0.26             56            158 281 
                                                                                
