 2017  516 1509 55.3 L   6.719 -73.099137.7  RSN  4 0.3 1.6LRSN                1
 GAP=230        0.74       9.8     4.2  8.6 -0.2121E+02 -0.3396E+01  0.4192E+02E
 Epicentro: JORDAN - SANTANDER                                                 3
 ACTION:UPD 17-06-16 13:36 OP:jn   STATUS:               ID:20170516150955 L   I
 OLDACT:REG 17-05-16 20:25 OP:lv   STATUS:               ID:20170516145820     3
 2017-05-16-1508-00M.COL___362                                                 6
 STAT SP IPHASW D HRMM SECON CODA AMPLIT PERI AZIMU VELO AIN AR TRES W  DIS CAZ7
 BRR  HZ EP       1510 16.35                             148    0.2210 80.1 302 
 BRR  HN ES       1510 32.58                             148    0.2010 80.1 302 
 PAM  EZ EP       1510 17.26                             148    0.3410 81.6  33 
 PAM  EE ES       1510 33.44                             148   -0.3510 81.6  33 
 PAM  EZ I        1510 36.01         8.5 0.74            148           81.6  33 
 PTB  HZ EP       1510 21.52                             129   -0.43 9  151 263 
 PTB  HN ES       1510 42.82                             129    0.07 9  151 263 
 ZAR  HN ES       1510 53.53                             119   -0.14 8  212 294 
                                                                                
