 2016  916 1551 45.0 L   6.812 -73.182136.0  RSN  6 0.6 1.7LRSN                1
 GAP=131        1.07       5.4     4.8  8.5 -0.1335E+01  0.1543E+02 -0.2831E+01E
 Epicentro: ZAPATOCA - SANTANDER                                               3
 ACTION:UPD 17-08-17 21:13 OP:lp   STATUS:               ID:20160916155145 L   I
 OLDACT:REG 16-09-16 20:11 OP:lv   STATUS:               ID:20160916154739     3
 2016-09-16-1548-00M.COL___357                                                 6
 STAT SP IPHASW D HRMM SECON CODA AMPLIT PERI AZIMU VELO AIN AR TRES W  DIS CAZ7
 BAR2 EZ EP       1552  3.33                             170   -0.1510 24.3 180 
 BAR2 EZ ES       1552 17.95                             170    0.0610 24.3 180 
 BAR2 EZ I        1552 19.52        15.4 0.26            172           24.3 180 
 PAM  EZ EP       1552  6.30                             149    0.0110 79.0  42 
 PAM  EE ES       1552 23.11                             149    0.2110 79.0  42 
 PAM  EZ I        1552 25.44         6.4 0.50            151           79.0  42 
 RUS  HZ EP       1552  7.58                             142   -0.3510  102 174 
 RUS  HE ES       1552 26.17                             142    0.3510  102 174 
 RUS  HZ I        1552 27.05         6.3 0.28            146            102 174 
 PTB  HZ EP       1552 10.05                             131   -0.79 9  144 258 
 PTB  HN ES       1552 30.84                             131   -0.16 9  144 258 
 PTB  HZ I        1552 32.99         8.1 0.42            132            144 258 
 ZAR  HZ EP   2   1552 17.27                             121    0.89 4  200 292 
 ZAR  HN ES       1552 41.14                             121    0.29 9  200 292 
 ZAR  HZ I        1552 47.47         7.5 0.30            122            200 292 
 GUY2CHZ EP   2   1552 27.98                             111    0.09 4  299 234 
 GUY2CHN ES   2   1553  3.79                             111    2.45 4  299 234 
 GUY2CHZ I        1553  9.53         3.2 0.36                           299 234 
                                                                                
