 2013  516 1019 46.8 L   6.800 -73.172146.3  RSN 15 0.4 2.1LRSN 2.7WRSN        1
 SPEC AVERAGE  MO 13.2 ST0.792 OM  1.7 f0 3.11 R0.5532 AL 1.91 WI 12.0 MW  2.7 3
 SPEC SD       MO  0.3 ST0.786 OM  0.3 f00.830 R0.2088 AL      WI      MW  0.2 3
 GAP=133        0.84       2.2     4.0  4.0 -0.1057E+01  0.3411E+01 -0.5520E+00E
 Epicentro: LOS SANTOS - SANTANDER                                             3
 SPEC PRA HH N MO 13.1 ST  1.1 OM  1.1 f0 4.12 R0.3772 AL 2.33 WI 14.6 MW  2.7 3
 SPEC PRA HH N T102121 K 0.000 GD  417 VS 4.20 DE 3.20 Q0300.0 QA 0.60 VS 4.20 3
 SPEC CHI HH N MO 13.3 ST0.452 OM  1.4 f0 2.78 R0.5590 AL 1.83 WI 16.4 MW  2.8 3
 SPEC CHI HH N T102051 K 0.000 GD  287 VS 4.20 DE 3.20 Q0300.0 QA 0.60 VS 4.20 3
 SPEC NOR HH N MO 13.4 ST0.101 OM  1.6 f0 1.47 R1.0571 AL 0.91 WI 12.9 MW  2.9 3
 SPEC NOR HH N T102049 K 0.000 GD  274 VS 4.20 DE 3.20 Q0300.0 QA 0.60 VS 4.20 3
 SPEC OCA HH N MO 13.7 ST  2.8 OM  2.0 f0 3.53 R0.4402 AL 2.03 WI 19.5 MW  3.1 3
 SPEC OCA HH N T102036 K 0.000 GD  216 VS 4.20 DE 3.20 Q0300.0 QA 0.60 VS 4.20 3
 SPEC PTB HH N MO 13.2 ST0.930 OM  1.5 f0 3.66 R0.4246 AL 1.98 WI 11.2 MW  2.8 3
 SPEC PTB HH N T102033 K 0.000 GD  205 VS 4.20 DE 3.20 Q0300.0 QA 0.60 VS 4.20 3
 SPEC RUS HH N MO 13.0 ST0.324 OM  1.4 f0 2.92 R0.5322 AL 2.15 WI  6.3 MW  2.6 3
 SPEC RUS HH N T102028 K 0.000 GD  177 VS 4.20 DE 3.20 Q0300.0 QA 0.60 VS 4.20 3
 SPEC PAM SH N MO 12.7 ST0.053 OM  1.1 f0 2.06 R0.7544 AL 1.83 WI 10.5 MW  2.4 3
 SPEC PAM SH N T102025 K 0.000 GD  166 VS 4.20 DE 3.20 Q0300.0 QA 0.60 VS 4.20 3
 SPEC BRR HH N MO 13.2 ST0.987 OM  1.6 f0 3.75 R0.4144 AL 2.11 WI  9.5 MW  2.7 3
 SPEC BRR HH N T102024 K 0.000 GD  161 VS 4.20 DE 3.20 Q0300.0 QA 0.60 VS 4.20 3
 SPEC BAR2SH Z MO 12.9 ST0.436 OM  1.3 f0 3.70 R0.4200 AL 2.01 WI  7.4 MW  2.5 3
 SPEC BAR2SH Z T102021 K 0.000 GD  148 VS 4.20 DE 3.20 Q0300.0 QA 0.60 VS 4.20 3
 ACTION:UPD 13-06-20 09:50 OP:ep   STATUS:               ID:20130516101946 L   I
 2013-05-16-1017-50M.COL___223                                                 6
 STAT SP IPHASW D HRMM SECON CODA AMPLIT PERI AZIMU VELO AIN AR TRES W  DIS CAZ7
 BAR2 SZ IP     D 1020  6.66                             171    0.1310 23.0 183 
 BAR2 SZ ES       1020 21.70                             171   -0.1910 23.0 183 
 BAR2 SZ I        1020 23.39        42.6 0.14            168           23.0 183 
 GIR2 SZ EP     C 1020  6.72                             167    0.1510 30.9 356 
 GIR2 SZ ES       1020 22.14                             167    0.1910 30.9 356 
 GIR2 SZ I        1020 24.08        16.1 0.12            164           30.9 356 
 BRR  HZ IP     C 1020  8.52                             153    0.6110 68.6 300 
 BRR  HN ES       1020 24.44                             153    0.1010 68.6 300 
 BRR  HZ I        1020 29.30        18.1 0.30            147           68.6 300 
 PAM  SZ IP     C 1020  9.43                             150    0.2010 79.3  41 
 PAM  SN ES       1020 26.48                             150   -0.2110 79.3  41 
 PAM  SZ I        1020 29.32         8.5 0.44            153           79.3  41 
 RUS  HZ EP       1020 10.88                             144    0.2110  101 174 
 RUS  HN ES       1020 28.69                             144   -0.5610  101 174 
 RUS  HZ I        1020 30.49        16.6 0.36            144            101 174 
 PTB  HZ EP       1020 13.35                             133   -0.25 9  145 259 
 PTB  HN ES       1020 34.24                             133   -0.22 9  145 259 
 PTB  HZ I        1020 41.79        15.2 0.42            129            145 259 
 OCA  HZ EP       1020 15.75                             130    0.59 9  160 354 
 OCA  HN ES       1020 37.41                             130    0.16 9  160 354 
 OCA  HZ I        1020 42.59        14.2 0.46            129            160 354 
 NOR  HZ EP       1020 22.63                             119    0.28 8  232 234 
 NOR  HN ES   4   1020 49.58                             119   -0.47 0  232 234 
 NOR  HZ I        1020 54.72        10.9 0.24            117            232 234 
 SML  HZ EP       1020 23.17                             118   -0.20 8  242 336 
 SML  HN ES       1020 51.44                             118   -0.41 8  242 336 
 SML  HZ I        1020 59.10        27.4 0.10            116            242 336 
 CHI  HZ EP       1020 24.52                             117    0.03 8  248 195 
 CHI  HN ES       1020 53.63                             117   -0.23 8  248 195 
 CHI  HZ I        1021  2.12         6.1 0.50            117            248 195 
 ROSC BZ EP   4   1020 26.66                             117    1.83 0  251 210 
 ROSC BN ES   2   1020 54.94                             117    0.48 4  251 210 
 ROSC BZ I        1021  2.78        15.5 0.45            116            251 210 
 HEL  HZ EP   4   1020 28.33                             115    1.56 0  269 256 
 HEL  HE ES   4   1021  0.87                             115    2.96 0  269 256 
 HEL  HZ I        1021  5.07         4.5 0.26            113            269 256 
 COD  HZ EP       1020 34.53                             109   -0.68 6  348 355 
 COD  HN ES       1021 12.15                             109   -0.78 6  348 355 
 COD  HZ I        1021 31.30         4.2 0.62            108            348 355 
 PRA  HZ EP   4 D 1020 40.31                             107    0.09 0  391 209 
 PRA  HN ES   4   1021 22.60                             107    0.75 0  391 209 
 PRA  HZ I        1021 29.18         5.6 0.24            106            391 209 
 SJC  HZ EP   4   1020 40.57                             106   -1.66 0  408 327 
 SJC  HN ES   4   1021 22.20                             106   -3.24 0  408 327 
 SJC  HZ I        1021 24.13         1.6 0.40            105            408 327 
                                                                                
