 2015 1016 1520 55.4 L   6.814 -73.149141.0  RSN  8 0.4 1.8LRSN                1
 GAP=135        1.08       3.6     4.9  6.8 -0.1074E+01  0.1159E+02 -0.2357E+01E
 Epicentro: LOS SANTOS - SANTANDER                                             3
 ACTION:UPD 15-12-22 20:40 OP:cam  STATUS:               ID:20151016152055 L   I
 OLDACT:UP  15-10-16 22:31 OP:ak   STATUS:               ID:20151016151750     3
 OLDACT:UP  15-10-16 22:30 OP:ak   STATUS:               ID:20151016151750     3
 OLDACT:REG 15-10-16 20:35 OP:ak   STATUS:               ID:20151016151750     3
 2015-10-16-1517-50M.COL___342                                                 6
 STAT SP IPHASW D HRMM SECON CODA AMPLIT PERI AZIMU VELO AIN AR TRES W  DIS CAZ7
 BAR2 EZ EP       1521 14.67                             170    0.1510 24.8 189 
 BAR2 EZ ES       1521 28.54                             170   -0.8710 24.8 189 
 BAR2 EZ I        1521 30.50        18.8 0.34            169           24.8 189 
 BRR  HZ EP       1521 16.43                             152    0.4210 70.2 298 
 BRR  HN ES       1521 32.66                             152    0.6010 70.2 298 
 PAM  EZ EP       1521 17.58                             150    0.5010 76.4  40 
 PAM  EN ES       1521 34.33                             150    0.3610 76.4  40 
 PAM  EZ I        1521 36.19        10.7 0.16            154           76.4  40 
 RUS  HZ EP       1521 18.69                             142   -0.1410  102 176 
 RUS  HE ES       1521 36.83                             142   -0.2610  102 176 
 RUS  HZ I        1521 38.90         5.9 0.46            145            102 176 
 SPBC HZ EP   1   1521 23.97                             128    0.30 7  164 219 
 SPBC HE ES       1521 45.60                             128   -0.09 9  164 219 
 SPBC HZ I        1521 49.99         7.3 0.18            129            164 219 
 ZAR  HZ EP   1   1521 27.25                             121   -0.23 6  203 292 
 ZAR  HN ES       1521 52.34                             121   -0.14 9  203 292 
 ZAR  HZ I        1522  0.78         9.2 0.05            122            203 292 
 SML  HZ EP       1521 30.96                             116   -0.66 8  242 335 
 SML  HE ES       1521 59.21                             116   -0.65 8  242 335 
 GUY2CHZ EP   1   1521 38.75                             111   -0.15 5  302 234 
 GUY2CHE ES       1522 13.27                             111    0.47 7  302 234 
 GUY2CHZ I        1522 21.03         2.3 0.28                           302 234 
 MON  HZ EP   4   1521 45.58                             108    1.47 0  352 308 
 MON  HN ES   4   1522 20.09                             108   -1.99 0  352 308 
                                                                                
