 2015  316 1246 19.2 L   6.799 -73.142135.5  RSN  6 0.4 1.9LRSN                1
 GAP=137        0.97       4.1     4.9  7.3 -0.5153E+01  0.1802E+02 -0.2759E+01E
 Epicentro: LOS SANTOS - SANTANDER                                             3
 ACTION:UPD 15-04-30 16:26 OP:nd   STATUS:               ID:20150316124619 L   I
 OLDACT:REG 15-03-16 22:28 OP:cam  STATUS:               ID:20150316123749     3
 2015-03-16-1237-49M.COL___260                                                 6
 STAT SP IPHASW D HRMM SECON CODA AMPLIT PERI AZIMU VELO AIN AR TRES W  DIS CAZ7
 BAR2 EZ EP       1246 37.87                             170    0.2410 23.2 191 
 BAR2 EZ ES       1246 52.02                             170    0.0410 23.2 191 
 BAR2 EZ I        1246 53.86        11.9 0.34            168           23.2 191 
 PAM  SZ EP       1246 40.60                             149    0.2410 77.2  39 
 PAM  SN ES       1246 56.35                             149   -0.4910 77.2  39 
 PAM  SZ I        1246 59.35         9.3 0.54            154           77.2  39 
 RUS  HZ EP       1246 41.79                             142   -0.1910  100 176 
 RUS  HN ES       1247  0.10                             142    0.3810  100 176 
 RUS  HZ I        1247  1.33         7.7 0.26            145            100 176 
 SPBC HZ EP       1246 46.63                             127   -0.35 9  163 219 
 SPBC HN ES       1247  8.67                             127    0.05 9  163 219 
 SPBC HZ I        1247 14.80        14.6 0.22            128            163 219 
 ZAR  HZ EP       1246 51.99                             120    0.91 9  204 292 
 ZAR  HN ES       1247 15.76                             120   -0.16 9  204 292 
 ZAR  HN I        1247 21.27        19.5 0.48            121            204 292 
 NOR  HZ EP       1246 53.77                             116   -0.64 8  235 235 
 NOR  HN ES       1247 21.70                             116   -0.16 8  235 235 
 NOR  HZ I        1247 27.02         6.3 0.18            118            235 235 
                                                                                
