 2017  516 1825 55.6 L   6.647 -73.139142.4  RSN  4 0.3 1.5LRSN                1
 GAP=233        0.67       8.5     3.8  6.7 -0.1572E+02 -0.1107E+01  0.2323E+02E
 Epicentro: VILLANUEVA - SANTANDER                                             3
 ACTION:UPD 17-06-16 13:36 OP:jn   STATUS:               ID:20170516182555 L   I
 OLDACT:DUP 17-05-17 00:36 OP:lv   STATUS:               ID:20170516181737d    3
 2017-05-16-1818-00M.COL___359                                                 6
 STAT SP IPHASW D HRMM SECON CODA AMPLIT PERI AZIMU VELO AIN AR TRES W  DIS CAZ7
 BRR  HZ EP       1826 17.24                             149    0.2310 81.2 309 
 BRR  HN ES       1826 34.12                             149    0.4210 81.2 309 
 PAM  EZ EP       1826 18.47                             146    0.1310 90.6  32 
 PAM  EE ES       1826 35.69                             146   -0.3610 90.6  32 
 PAM  EZ I        1826 37.77         3.5 0.10            143           90.6  32 
 PTB  HZ EP       1826 22.12                             132   -0.05 9  146 265 
 PTB  HN ES       1826 42.64                             132   -0.23 9  146 265 
 PTB  HZ I        1826 45.38         4.1 0.18            130            146 265 
 ZAR  HZ EP       1826 28.61                             121   -0.03 8  212 296 
 ZAR  HN ES       1826 54.18                             121   -0.22 8  212 296 
 ZAR  HZ I        1827  0.36         4.2 0.30            119            212 296 
                                                                                
