 2010  816 1130 17.2 L   6.757 -73.086145.3  RSN  6 0.2 1.5LRSN                1
 GAP=166        0.70       4.0     8.1  7.9 -0.2293E+01 -0.2000E+02 -0.7412E+01E
 Epicentro: LOS SANTOS - SANTANDER                                             3
 ACTION:UP  10-09-07 10:55 OP:vdl  STATUS:               ID:20100816113016 L   I
 2010-08-16-1128-26S.COL___111                                                 6
 STAT SP IPHASW D HRMM SECON CODA AMPLIT PERI AZIMU VELO SNR AR TRES W  DIS CAZ7
 BAR2 SZ EP       1130 36.63                             172    -0.110   21 210 
 BAR2 SZ I        1130 36.83         9.4 0.21                            21 210 
 BAR2 SZ ES   2   1130 51.95                             172    -0.1 5   21 210 
 BTL  SZ EP       1130 36.83                             170    -0.110   27 312 
 BRR  HZ EP       1130 38.56                             151    -0.310   79 299 
 BRR  HZ I        1130 38.93        16.7 0.08                            79 299 
 BRR  HN ES   1   1130 55.83                             151     0.2 7   79 299 
 RUS  HZ EP   1   1130 40.64                             146     0.0 7   96 180 
 RUS  HE ES   1   1130 58.95                             146     0.1 7   96 180 
 RUS  HZ I        1131  0.30         2.8 0.41                            96 180 
 GUE  SZ EP       1130 42.72                             139     0.510  120   9 
 GUE  SZ I        1131  6.20         1.4 0.19                           120   9 
 GRA  SZ EP       1130 42.54                             137    -0.110  129  14 
 GRA  SZ ES   1   1131  2.33                             137    -0.2 7  129  14 
 GRA  SZ I        1131  3.38         6.8 0.39                           129  14 
                                                                                
