 2010 1216 1607 44.3 L   6.791 -73.138146.0  RSN  6 0.2 1.7LRSN                1
 GAP=184        0.38       2.7     6.5  5.9 -0.5074E+01  0.1440E+02 -0.1444E+01E
 Epicentro: LOS SANTOS - SANTANDER                                             3
 ACTION:UP  11-01-14 15:25 OP:pat  STATUS:               ID:20101216160744 L   I
 2010-12-16-1605-46S.COL___137                                                 6
 STAT SP IPHASW D HRMM SECON CODA AMPLIT PERI AZIMU VELO SNR AR TRES W  DIS CAZ7
 BTL  SZ EP       16 8  3.89                             172     0.010   20 315 
 BAR2 SZ EP   2   16 8  3.58                             171    -0.3 5   23 193 
 BAR2 SZ ES   2   16 8 19.42                             171     0.2 5   23 193 
 BAR2 SZ I        16 8 20.43        12.2 0.35                            23 193 
 RUS  HZ EP   2   16 8  7.89                             144    -0.1 5  100 176 
 RUS  HE ES   2   16 8 26.27                             144    -0.2 5  100 176 
 RUS  HZ I        16 8 27.85         4.8 0.47                           100 176 
 OCA  SZ EP   2   16 8 12.48                             129    -0.2 5  161 353 
 OCA  SZ ES   2   16 8 35.13                             129     0.3 5  161 353 
 OCA  SZ I        16 8 40.51        12.5 0.88                           161 353 
 NOR  SZ EP   2   16 8 20.14                             118     0.1 4  235 235 
 NOR  SN ES   2   16 8 47.68                             118    -0.2 4  235 235 
 CHI  HZ EP   2   16 8 22.26                             117     0.4 4  248 195 
 CHI  HE ES   2   16 8 51.48                             117     0.2 4  248 195 
 CHI  HZ I        16 8 53.19         2.9 0.44                           248 195 
                                                                                
