 2016  316 1621 13.1 L   6.806 -73.176137.4  RSN  7 0.3 2.0LRSN                1
 GAP=132        0.70       3.0     3.0  4.8 -0.1693E+01  0.6384E+01 -0.7335E+00E
 Epicentro: LOS SANTOS - SANTANDER                                             3
 ACTION:UPD 16-05-13 21:24 OP:cam  STATUS:               ID:20160316162113 L   I
 OLDACT:UP  16-03-17 00:30 OP:cara STATUS:               ID:20160316161751d    3
 OLDACT:DUP 16-03-17 00:25 OP:cara STATUS:               ID:20160316161751d    3
 2016-03-16-1617-50M.COL___289                                                 6
 STAT SP IPHASW D HRMM SECON CODA AMPLIT PERI AZIMU VELO AIN AR TRES W  DIS CAZ7
 BAR2 EZ IP       1621 31.66                             170   -0.0610 23.7 182 
 BAR2 EZ ES       1621 46.02                             170   -0.2410 23.7 182 
 BAR2 EZ I        1621 48.25        21.2 0.20            170           23.7 182 
 PAM  EZ IP       1621 34.59                             149    0.0610 79.1  42 
 PAM  EZ I        1621 34.67        24.2 0.22            152           79.1  42 
 PAM  EE ES       1621 51.62                             149    0.3710 79.1  42 
 RUS  HZ EP       1621 35.73                             142   -0.3710  102 174 
 RUS  HN ES       1621 54.07                             142    0.0210  102 174 
 RUS  HZ I        1621 55.25         8.8 0.20            144            102 174 
 PTB  HZ EP       1621 38.58                             131   -0.51 9  145 258 
 PTB  HN ES       1621 59.34                             131   -0.03 9  145 258 
 PTB  HZ I        1622  1.20        11.4 0.42            131            145 258 
 SPBC HZ EP       1621 40.77                             127   -0.04 9  162 218 
 SPBC HN ES       1622  2.83                             127    0.40 9  162 218 
 SPBC HZ I        1622  6.98        22.4 0.18            129            162 218 
 ZAR  HZ EP       1621 44.76                             121    0.11 9  201 292 
 ZAR  HN ES       1622  9.16                             121   -0.10 9  201 292 
 ZAR  HZ I        1622 14.77        12.4 0.22            122            201 292 
 GUY2CHZ EP       1621 56.56                             111    0.51 7  299 234 
 GUY2CHE ES       1622 29.85                             111    0.28 7  299 234 
 GUY2CHZ I        1622 37.70         6.6 0.36                           299 234 
                                                                                
