 2016  816 1714 29.0 L   6.803 -73.146145.4  RSN 10 0.4 2.4LRSN                1
 GAP=136        1.00       3.6     4.0  6.1 -0.9984E+00  0.5594E+01  0.3706E+01E
 Epicentro: LOS SANTOS - SANTANDER                                             3
 ACTION:UPD 16-10-29 15:36 OP:rebc STATUS:               ID:20160816171429 L   I
 OLDACT:REG 16-08-16 20:47 OP:dnl  STATUS:               ID:20160816170736     3
 2016-08-16-1708-00M.COL___374                                                 6
 STAT SP IPHASW D HRMM SECON CODA AMPLIT PERI AZIMU VELO AIN AR TRES W  DIS CAZ7
 BAR2 EZ EP       1714 48.36                             170   -0.2310 23.7 190 
 BAR2 EZ ES       1715  3.76                             170   -0.1210 23.7 190 
 BAR2 EZ I        1715  6.20        72.0 0.32                          23.7 190 
 BRR  HZ EP       1714 50.16                             152    0.0610 71.0 298 
 BRR  HN ES       1715  7.37                             152    0.8110 71.0 298 
 BRR  HZ I        1715 11.36        42.7 0.16                          71.0 298 
 PAM  EZ EP       1714 51.16                             151   -0.0010 77.1  40 
 PAM  EN ES       1715  8.42                             151   -0.0310 77.1  40 
 PAM  EZ I        1715 10.55        47.7 0.50                          77.1  40 
 RUS  HZ EP       1714 52.49                             144   -0.2510  101 176 
 RUS  HE ES       1715 11.13                             144   -0.1310  101 176 
 RUS  HZ I        1715 12.28        42.3 0.32                           101 176 
 PTB  HZ EP   4   1714 54.54                             132   -1.40 0  148 259 
 PTB  HN ES       1715 15.97                             132   -0.99 9  148 259 
 PTB  HZ I        1715 21.17        19.9 0.24                           148 259 
 SPBC HE ES       1715 19.68                             129   -0.04 9  163 219 
 SPBC HZ I        1715 24.19        52.6 0.10                           163 219 
 ZAR  HZ EP       1715  1.62                             122    0.21 9  204 292 
 ZAR  HE ES       1715 26.59                             122   -0.10 9  204 292 
 ZAR  HZ I        1715 32.08        18.7 0.24                           204 292 
 NOR  HZ EP       1715  4.88                             118    0.15 8  235 234 
 NOR  HN ES       1715 32.84                             118    0.24 8  235 234 
 NOR  HZ I        1715 38.02        21.5 0.18                           235 234 
 CHI  HZ EP       1715  6.61                             117   -0.10 8  249 195 
 CHI  HN ES       1715 36.93                             117    0.80 8  249 195 
 CHI  HZ I        1715 41.50         8.2 0.22                           249 195 
 SJC  HZ EP   4   1715 22.52                             106   -2.00 0  409 327 
 SJC  HN ES   4   1716  3.32                             106   -4.50 0  409 327 
 SJC  HZ I        1716 14.48         3.7 0.36                           409 327 
                                                                                
