 2011  816 1245 10.2 L   6.748 -73.101145.5  RSN  5 0.1 1.6LRSN                1
 GAP=145        0.33       2.4     5.1  4.0  0.3670E+01 -0.9621E+01 -0.2420E+01E
 Epicentro: LOS SANTOS - SANTANDER                                             3
 ACTION:UPD 12-07-13 15:52 OP:ep   STATUS:               ID:20110816124510 L   I
 2011-08-16-1240-09S.COL___150                                                 6
 STAT SP IPHASW D HRMM SECON CODA AMPLIT PERI AZIMU VELO AIN AR TRES W  DIS CAZ7
 BAR2 SZ EP   1   1245 29.62                             172   -0.10 7 19.4 208 
 BAR2 SZ ES   1   1245 44.86                             172   -0.09 7 19.4 208 
 BAR2 SZ I        1245 45.58         9.9 0.17                          19.4 208 
 BRR  HZ EP   1   1245 31.80                             150    0.06 7 78.3 301 
 BRR  HZ I        1245 33.98        12.2 0.33                          78.3 301 
 BRR  HN ES   1   1245 48.59                             150    0.06 7 78.3 301 
 PAM  SZ EP   1   1245 32.63                             150    0.14 7 79.1  34 
 RUS  HZ EP   1   1245 33.57                             145    0.07 7 94.6 179 
 RUS  HZ I        1245 34.33         2.6 0.18                          94.6 179 
 OCA  SZ EP   1   1245 38.89                             128   -0.21 7  167 352 
 OCA  SZ ES   1   1246  1.67                             128    0.04 7  167 352 
 OCA  SZ I        1246  5.91         8.6 0.21                           167 352 
                                                                                
