 2017 1016 1921 25.1 L   6.776 -73.105141.9  RSN  8 0.4 1.5LRSN                1
 GAP=143        0.92       4.0     3.8  5.8 -0.1874E+01  0.7324E+01  0.4378E+01E
 Epicentro: LOS SANTOS - SANTANDER                                             3
 ACTION:UPD 17-11-07 19:32 OP:rebc STATUS:               ID:20171016192125 L   I
 OLDACT:UP  17-10-17 00:03 OP:edw  STATUS:               ID:20171016190755     3
 OLDACT:UP  17-10-17 00:02 OP:edw  STATUS:               ID:20171016190755     3
 OLDACT:REG 17-10-16 20:52 OP:edw  STATUS:               ID:20171016190755     3
 2017-10-16-1918-00M.COL___444                                                 6
 STAT SP IPHASW D HRMM SECON CODA AMPLIT PERI AZIMU VELO AIN AR TRES W  DIS CAZ7
 BAR2 EZ EP       1921 44.01                             171   -0.2810 22.1 203 
 BAR2 EZ ES       1921 59.18                             171   -0.0410 22.1 203 
 BAR2 EZ I        1922  0.43         8.8 0.24            170           22.1 203 
 BRR  HZ EP       1921 45.77                             150   -0.4210 76.4 299 
 BRR  HN ES       1922  2.91                             150    0.3110 76.4 299 
 BRR  HZ I        1922  5.99         8.9 0.32            151           76.4 299 
 PAM  EZ EP       1921 46.97                             150    0.0510 76.7  36 
 PAM  EN ES       1922  4.26                             150    0.3710 76.7  36 
 PAM  EZ I        1922  7.03         5.4 0.30            153           76.7  36 
 RUS  HZ EP       1921 48.45                             144    0.1310 97.7 179 
 RUS  HN ES       1922  6.15                             144   -0.2410 97.7 179 
 RUS  HZ I        1922  8.09         3.2 0.28            145           97.7 179 
 PTB  HZ EP       1921 52.05                             130   -0.11 9  152 260 
 PTB  HN ES       1922 12.66                             130   -0.58 9  152 260 
 PTB  HZ I        1922 14.35         2.8 0.14            132            152 260 
 ZAR  HN ES       1922 23.36                             121   -0.05 8  209 292 
 NOR  HZ EP       1922  0.40                             117   -0.49 8  237 236 
 NOR  HN ES       1922 29.45                             117    0.69 8  237 236 
 NOR  HZ I        1922 35.87         2.7 0.20            119            237 236 
 GUY2CHZ EP       1922  9.56                             111    0.74 7  303 236 
 GUY2CHN ES       1922 43.34                             111    0.45 7  303 236 
 GUY2CHZ I        1922 51.99         2.9 0.74                           303 236 
                                                                                
