 2016  416 1421 19.7 L   6.724 -73.150141.4  RSN  4 0.3 1.8LRSN                1
 GAP=158        0.70       6.7     4.1  6.1 -0.1264E+02  0.1150E+02 -0.1115E+02E
 Epicentro: JORDAN - SANTANDER                                                 3
 ACTION:UPD 16-05-05 14:22 OP:rebc STATUS:               ID:20160416142119 L   I
 OLDACT:REG 16-04-16 21:07 OP:mh   STATUS:               ID:20160416141744     3
 2016-04-16-1417-44M.COL___316                                                 6
 STAT SP IPHASW D HRMM SECON CODA AMPLIT PERI AZIMU VELO AIN AR TRES W  DIS CAZ7
 BAR2 EZ EP     C 1421 39.15                             173    0.4510 15.0 194 
 BAR2 EZ ES       1421 53.55                             173    0.0610 15.0 194 
 BAR2 EZ I        1421 55.58        15.2 0.13            174           15.0 194 
 PAM  EZ EP       1421 41.98                             148    0.0510 84.3  36 
 PAM  EN ES       1421 58.98                             148   -0.2610 84.3  36 
 PAM  EZ I        1422  1.14        11.8 0.56            147           84.3  36 
 PTB  HZ EP       1421 45.96                             131   -0.22 9  146 262 
 PTB  HN ES       1422  6.59                             131   -0.22 9  146 262 
 PTB  HZ I        1422  8.29         5.2 0.32            132            146 262 
 ZAR  HZ EP       1421 52.01                             121   -0.20 8  207 294 
 ZAR  HN ES   1   1422 18.07                             121    0.54 6  207 294 
 ZAR  HZ I        1422 23.62         8.1 0.32            121            207 294 
                                                                                
