 2010 1216 1854 58.9 L   7.295 -73.311122.0  RSN  5 0.2 2.0LRSN                1
 GAP=156        0.49       3.7     4.8  5.3 -0.7750E+01 -0.8474E+01  0.3126E+01E
 Epicentro: RIONEGRO - SANTANDER                                               3
 ACTION:UP  11-01-14 15:25 OP:pat  STATUS:               ID:20101216185458 L   I
 2010-12-16-1854-18S.COL___134                                                 6
 STAT SP IPHASW D HRMM SECON CODA AMPLIT PERI AZIMU VELO SNR AR TRES W  DIS CAZ7
 GIR2 SZ EP   2   1855 15.31                             167    -0.3 5   27 151 
 BRR  HZ EP       1855 16.04                             157    -0.210   49 245 
 BRR  HE ES       1855 29.97                             157     0.210   49 245 
 BAR2 SZ EP       1855 18.45                             145     0.010   79 170 
 BAR2 SZ ES   1   1855 33.60                             145     0.0 7   79 170 
 BAR2 SZ I        1855 35.09        37.7 0.21                            79 170 
 GRA  SZ EP   1   1855 19.09                             143     0.3 7   86  41 
 GRA  SZ ES   1   1855 34.20                             143    -0.1 7   86  41 
 GRA  SZ I        1855 35.06        14.0 0.31                            86  41 
 RUS  HZ EP   2   1855 25.76                             125     0.1 5  157 171 
                                                                                
