 2011  516 1355 59.1 L   6.842 -73.277117.6  RSN  4 0.3 1.8LRSN                1
 GAP=152        0.59       9.0    13.7  7.2  0.9980E+02 -0.2227E+02 -0.7321E+01E
 Epicentro: ZAPATOCA - SANTANDER                                               3
 ACTION:UP  11-06-29 08:53 OP:tino STATUS:               ID:20110516135559 L   I
 2011-05-16-1353-48S.COL___141                                                 6
 STAT SP IPHASW D HRMM SECON CODA AMPLIT PERI AZIMU VELO SNR AR TRES W  DIS CAZ7
 BTL  SZ EP       1356 15.29                             175     0.210    8   7 
 BAR2 SZ EP   1   1356 15.60                             165     0.1 7   30 159 
 BAR2 SZ ES   1   1356 28.01                             165    -0.3 7   30 159 
 BAR2 SZ I        1356 30.04        23.5 0.23                            30 159 
 BRR  HZ EP   1   1356 16.08                             153    -0.2 7   56 301 
 BRR  HE ES   1   1356 29.85                             153     0.1 7   56 301 
 BRR  HZ I        1356 31.04        12.0 0.15                            56 301 
 RUS  HZ EP   1   1356 20.47                             135    -0.3 7  107 168 
 RUS  HN ES   2   1356 38.08                             135     0.5 5  107 168 
                                                                                
