 2012  416 1408 30.4 L   6.483 -73.604109.6  RSN  4 0.1 1.7LRSN                1
 GAP=135        0.38       2.8     2.0  4.1  0.1672E+01  0.1242E+01  0.1432E+01E
 Epicentro: SANTA HELENA DEL OPON - SANTANDER                                  3
 ACTION:UPD 12-07-05 11:53 OP:tino STATUS:               ID:20120416140830 L   I
 2012-04-16-1400-00M.COL___189                                                 6
 STAT SP IPHASW D HRMM SECON CODA AMPLIT PERI AZIMU VELO AIN AR TRES W  DIS CAZ7
 BAR2 SZ EP       14 8 46.75                             155     0.110   48  75 
 BAR2 SZ I        14 8 47.00        12.1 0.18                            48  75 
 BAR2 SZ ES   1   14 8 59.20                             155    -0.2 7   48  75 
 BRR  HZ EP       14 8 47.66                             145     0.010   70 350 
 BRR  HN ES   1   14 9  1.22                             145     0.1 7   70 350 
 BRR  HZ I        14 9  2.33        16.5 0.46                            70 350 
 RUS  HZ EP   1   14 8 49.41                             139    -0.2 7   87 139 
 RUS  HN ES   1   14 9  4.84                             139     0.2 7   87 139 
 PTB  HZ EP       14 8 49.64                             136     0.110   94 274 
 PTB  HN ES       14 9  4.53                             136    -0.110   94 274 
                                                                                
