 2014  316 1755 32.6 L   6.550 -73.542109.3  RSN  6 1.0 2.2LRSN                1
 GAP=150        2.36      11.2     8.8 16.5 -0.4917E+02  0.2981E+02  0.2163E+02E
 Epicentro: EL CARMEN DE CHUCURI - SANTANDER                                   3
 ACTION:UPD 14-04-09 23:17 OP:nd   STATUS:               ID:20140316175532 L   I
 OLDACT:REG 14-03-16 16:15 OP:mh   STATUS:               ID:20140316174817     3
 2014-03-16-1748-17M.COL___257                                                 6
 STAT SP IPHASW D HRMM SECON CODA AMPLIT PERI AZIMU VELO AIN AR TRES W  DIS CAZ7
 BAR2 SZ EP     C 1755 48.81                             158    0.3710 40.0  83 
 BAR2 SZ ES       1756  1.23                             158    0.4110 40.0  83 
 BRR  HZ EP       1755 49.33                             147   -0.1310 64.5 343 
 BRR  HN ES       1756  3.05                             147    0.4210 64.5 343 
 BRR  HZ I        1756  9.38        10.7 0.09            146           64.5 343 
 PTB  HZ EP       1755 51.56                             134   -0.7910  101 269 
 PTB  HN ES       1756  6.26                             134   -1.5110  101 269 
 PTB  HZ I        1756  7.88        16.6 0.13            136            101 269 
 PAM  SZ EP       1755 55.38                             127   -0.0710  128  47 
 PAM  SN ES       1756 12.85                             127   -0.4410  128  47 
 PAM  SZ I        1756 15.06        16.4 0.26            129            128  47 
 ZAR  HZ EP       1756  1.18                             116    1.02 9  179 306 
 ZAR  HN ES   1   1756 22.52                             116    0.85 7  179 306 
 NOR  HZ EP       1755 59.82                             116   -0.84 9  183 233 
 NOR  HN ES       1756 21.70                             116   -0.86 9  183 233 
 NOR  HZ I   s_20 1756 24.91       296.0 0.14            116    2.35 9  183 233 
                                                                                
