 2010  416 1406  4.4 L   6.850 -73.057154.0  RSN 12 0.6 3.0LRSN                1
 GAP=208        1.01       5.3     8.7  8.8 -0.1283E+02  0.9466E+01  0.1587E+02E
 Epicentro: LOS SANTOS - SANTANDER                                             3
 ACTION:UPD 10-08-24 09:59 OP:vdl  STATUS:               ID:20100416140604 L   I
 2010-04-16-1404-29S.COL___100                                                 6
 STAT SP IPHASW D HRMM SECON CODA AMPLIT PERI AZIMU VELO AIN AR TRES W  DIS CAZ7
 BAR2 SZ IP       14 6 24.75                             168    -0.510   32 206 
 BAR2 SZ ES   2   14 6 40.79                             168    -0.7 5   32 206 
 BRR  HZ EP       14 6 27.08                             152     0.210   78 291 
 BRR  HN ES   1   14 6 44.40                             152     0.1 7   78 291 
 BRR  HZ I        14 6 46.92       123.5 0.16                            78 291 
 OCA  SZ EP   1   14 6 33.82                             132     0.8 7  156 349 
 OCA  SZ ES   2   14 6 55.94                             132     0.6 5  156 349 
 OCA  SZ I        14 7  1.16       158.1 0.21                           156 349 
 CHI  HZ EP   1   14 6 42.89                             118    -0.6 6  257 197 
 CHI  HN ES   2   14 7 13.69                             118    -0.2 4  257 197 
 CHI  HZ I        14 7 20.67        35.4 0.60                           257 197 
 ROSC BZ EP       14 6 44.35                             117     0.3 8  263 212 
 ROSC BN ES   1   14 7 15.98                             117     1.0 6  263 212 
 ROSC BZ I        14 7 22.78        61.2 0.38                           263 212 
 HEL  HZ EP   1   14 6 46.30                             115     0.0 6  283 255 
 HEL  HN ES   2   14 7 17.83                             115    -1.1 4  283 255 
 HEL  HZ I        14 7 25.50        30.5 0.26                           283 255 
 RREF BZ EP   1   14 6 52.52                             111     0.3 5  333 230 
 RREF BN ES   2   14 7 30.17                             111     0.7 3  333 230 
 RREF BZ I        14 7 36.57        58.2 0.42                           333 230 
 DBB  SZ EP   1   14 6 52.53                             110    -0.8 5  349 273 
 DBB  SZ ES   2   14 7 29.60                             110    -1.9 3  349 273 
 TOL  SZ EP   1   14 6 54.13                             110    -0.2 5  354 225 
 TOL  SZ ES   1   14 7 33.89                             110     0.7 5  354 225 
 MON  HZ EP   2   14 6 53.58                             110    -0.7 3  357 307 
 MON  HZ I        14 7 46.53        16.6 0.47                           357 307 
 ANIL BZ EP   1   14 6 56.14                             109     0.3 5  368 225 
 ANIL BE ES   1   14 7 36.18                             109     0.3 5  368 225 
 PRA  HZ EP   1   14 6 58.87                             107    -0.5 4  402 210 
 PRA  HN ES   2   14 7 42.06                             107    -0.2 3  402 210 
 PRA  HZ I        14 7 46.41        46.1 0.39                           402 210 
                                                                                
