 2015  316 1213 17.8 L   6.713 -73.099144.8  RSN  4 0.1 1.9LRSN                1
 GAP=182        0.38       2.7     3.1  3.2 -0.5149E+01 -0.5978E+00  0.2226E+01E
 Epicentro: JORDAN - SANTANDER                                                 3
 ACTION:UPD 15-04-30 16:26 OP:nd   STATUS:               ID:20150316121317 L   I
 OLDACT:UP  15-03-16 23:21 OP:cam  STATUS:               ID:20150316120748     3
 OLDACT:REG 15-03-16 22:26 OP:cam  STATUS:               ID:20150316120748     3
 2015-03-16-1207-48M.COL___260                                                 6
 STAT SP IPHASW D HRMM SECON CODA AMPLIT PERI AZIMU VELO AIN AR TRES W  DIS CAZ7
 BAR2 EZ EP       1213 37.27                             173    0.1210 16.3 215 
 BAR2 EZ ES       1213 52.19                             173   -0.0810 16.3 215 
 BAR2 EZ I        1213 53.74        13.4 0.20            170           16.3 215 
 BRR  HZ EP       1213 39.13                             149   -0.2310 80.6 303 
 BRR  HN ES       1213 56.34                             149    0.1310 80.6 303 
 BRR  HN I        1213 56.66        35.4 0.36            152           80.6 303 
 PAM  SZ EP       1213 40.21                             149    0.0510 82.1  32 
 PAM  SN ES       1213 57.62                             149   -0.0110 82.1  32 
 PAM  SZ I        1213 58.86         4.0 0.16            153           82.1  32 
 SPBC HZ EP       1213 45.89                             129    0.07 9  159 223 
 SPBC HN ES       1214  7.68                             129   -0.02 9  159 223 
 SPBC HN I        1214 13.58        15.5 0.10            130            159 223 
                                                                                
