 2011 1216 1000 43.8 L   6.839 -73.288122.5  RSN  4 0.1 1.6LRSN                1
 GAP=136        0.37       4.4     7.7  4.9  0.2083E+02  0.2457E+01  0.4534E+01E
 Epicentro: ZAPATOCA - SANTANDER                                               3
 ACTION:UPD 12-07-13 16:16 OP:ep   STATUS:               ID:20111216100043 L   I
 2011-12-16-1000-00M.COL___187                                                 6
 STAT SP IPHASW D HRMM SECON CODA AMPLIT PERI AZIMU VELO AIN AR TRES W  DIS CAZ7
 GIR2 SZ EP   1   10 1  0.64                             166    0.01 7 28.5  21 
 GIR2 SZ ES   2   10 1 13.70                             166   -0.05 5 28.5  21 
 BAR2 SZ EP       10 1  0.99                             166    0.1810 29.7 157 
 BAR2 SZ ES   2   10 1 13.82                             166   -0.26 5 29.7 157 
 BAR2 SZ I        10 1 15.30        14.8 0.26                          29.7 157 
 BRR  HZ EP   1   10 1  1.39                             154   -0.16 7 55.5 302 
 BRR  HE ES   2   10 1 15.53                             154    0.14 5 55.5 302 
 BRR  HZ I        10 1 20.95         7.6 0.29                          55.5 302 
 RUS  HZ EP   1   10 1  5.73                             136   -0.14 7  107 168 
 RUS  HN ES   2   10 1 23.16                             136    0.07 5  107 168 
                                                                                
