 2011  516 1013 39.3 L   6.755 -73.043143.6  RSN  5 0.3 1.5LRSN                1
 GAP=171        0.56       4.1     8.9  8.6  0.5636E+01 -0.3329E+02 -0.7504E+01E
 Epicentro: ARATOCA - SANTANDER                                                3
 ACTION:UP  11-06-29 08:53 OP:tino STATUS:               ID:20110516101339 L   I
 2011-05-16-1011-53S.COL___139                                                 6
 STAT SP IPHASW D HRMM SECON CODA AMPLIT PERI AZIMU VELO SNR AR TRES W  DIS CAZ7
 BAR2 SZ EP   1   1013 58.53                             170    -0.2 7   24 221 
 BAR2 SZ ES   2   1014 13.15                             170    -0.7 5   24 221 
 BAR2 SZ I        1014 16.17         8.4 0.87                            24 221 
 BRR  HZ EP   2   1014  0.86                             148    -0.1 5   84 298 
 BRR  HZ I        1014  2.68         5.5 0.17                            84 298 
 BRR  HN ES   1   1014 18.01                             148     0.1 7   84 298 
 RUS  HZ EP   2   1014  2.52                             145     0.0 5   95 183 
 RUS  HE ES   2   1014 21.23                             145     0.7 5   95 183 
 RUS  HZ I        1014 23.13         4.0 0.32                            95 183 
 GRA  SZ EP   2   1014  4.50                             136    -0.1 5  128  12 
 GRA  SZ ES   2   1014 24.40                             136     0.2 5  128  12 
 GRA  SZ I        1014 25.49         5.0 0.44                           128  12 
 OCA  SZ EP   2   1014  8.15                             128     0.0 5  167 349 
 OCA  SZ ES   2   1014 30.75                             128     0.2 5  167 349 
                                                                                
