 2012  816 1458 14.3 L   6.745 -73.418118.3  RSN  4 0.1 1.9LRSN                1
 GAP=162        0.32       4.9     4.2  4.3  0.1398E+02  0.1087E+02  0.1272E+02E
 Epicentro: EL CARMEN DE CHUCURI - SANTANDER                                   3
 ACTION:UPD 12-09-10 11:56 OP:ep   STATUS:               ID:20120816145814 L   I
 2012-08-16-1450-00M.COL___217                                                 6
 STAT SP IPHASW D HRMM SECON CODA AMPLIT PERI AZIMU VELO AIN AR TRES W  DIS CAZ7
 BAR2 SZ EP       1458 30.96                             164    0.0610 31.0 123 
 BAR2 SZ ES   1   1458 43.74                             164   -0.08 7 31.0 123 
 BAR2 SZ I        1458 45.53        73.6 0.34                          31.0 123 
 BRR  HZ EP       1458 31.35                             155   -0.0710 51.6 321 
 BRR  HE ES   1   1458 44.83                             155    0.08 7 51.6 321 
 BRR  HZ I        1458 46.25        24.8 0.12                          51.6 321 
 RUS  HZ EP   1   1458 35.58                             137    0.02 7  101 159 
 PTB  HZ EP       1458 36.28                             132    0.0010  117 259 
 PTB  HZ I        1458 38.97         4.1 0.07                           117 259 
                                                                                
