 2016  716 1316 15.9 L   6.835 -73.166148.3  RSN  5 0.4 1.6LRSN                1
 GAP=132        1.12       5.9     5.1  9.7  0.2086E+01  0.7987E+01  0.7148E+01E
 Epicentro: LOS SANTOS - SANTANDER                                             3
 ACTION:UPD 17-03-29 16:51 OP:lp   STATUS:               ID:20160716131615 L   I
 OLDACT:UP  16-07-16 22:09 OP:dani STATUS:               ID:20160716130759     3
 OLDACT:UP  16-07-16 22:09 OP:dani STATUS:               ID:20160716130759     3
 OLDACT:REG 16-07-16 20:01 OP:dani STATUS:               ID:20160716130759     3
 2016-07-16-1307-59S.COL___319                                                 6
 STAT SP IPHASW D HRMM SECON CODA AMPLIT PERI AZIMU VELO AIN AR TRES W  DIS CAZ7
 BRR  HZ EP       1316 37.26                             154    0.1510 67.4 297 
 BRR  HE ES       1316 54.18                             154    0.5310 67.4 297 
 BRR  HZ I        1316 55.84        15.1 0.33            153           67.4 297 
 PAM  HZ EP       1316 38.62                             152    0.3310 75.9  43 
 PAM  HE ES       1316 55.14                             152   -0.6210 75.9  43 
 RUS  HZ EP       1316 39.94                             143   -0.2410  105 175 
 RUS  HN ES       1316 59.52                             143    0.3910  105 175 
 RUS  HZ I        1317  1.01         1.6 0.32            145            105 175 
 PTB  HZ EP       1316 42.88                             133   -0.06 9  146 257 
 PTB  HE ES       1317  3.26                             133   -0.78 9  146 257 
 PTB  HZ I        1317  5.60         4.2 0.24            133            146 257 
 ZAR  HZ EP   4   1316 50.56                             123    2.42 0  201 291 
 ZAR  HN ES       1317 13.56                             123    0.26 9  201 291 
 ZAR  HZ I        1317 18.87         9.7 0.32            124            201 291 
                                                                                
