 2010  116 1942 14.7 L   6.361 -73.590115.2  RSN 11 0.5 2.8LRSN                1
 GAP=124        0.74       3.5     5.2  9.6 -0.5394E+01  0.2915E+02  0.4562E+01E
 Epicentro: SANTA HELENA DEL OPON - SANTANDER                                  3
 ACTION:UP  10-08-24 09:44 OP:vdl  STATUS:               ID:20100116194214 L   I
 2010-01-16-1940-33S.COL___096                                                 6
 STAT SP IPHASW D HRMM SECON CODA AMPLIT PERI AZIMU VELO SNR AR TRES W  DIS CAZ7
 BAR2 SZ IP       1942 31.67                             154    -0.210   52  60 
 BAR2 SZ ES   2   1942 44.99                             154    -0.2 5   52  60 
 GIR2 SZ EP   1   1942 34.30                             139     0.0 7   91  29 
 GIR2 SZ ES   2   1942 49.93                             139     0.3 5   91  29 
 CHI  HZ EP   1   1942 44.02                             117    -0.6 7  192 185 
 CHI  HN ES   2   1943  7.73                             117    -0.1 4  192 185 
 CHI  HZ I        1943 11.03        42.1 0.47                           192 185 
 OCA  SZ EP   1   1942 46.53                             114     0.3 6  210   8 
 OCA  SZ ES   2   1943 11.26                             114     0.5 4  210   8 
 HEL  HZ EP   1   1942 47.29                             113     0.2 6  215 265 
 HEL  HN ES   2   1943 11.88                             113    -0.5 4  215 265 
 HEL  HZ I        1943 16.81        60.5 0.41                           215 265 
 RREF BZ EP   1   1942 51.45                             110    -0.2 6  253 230 
 RREF BE ES   2   1943 20.96                             110     0.4 4  253 230 
 RREF BZ I        1943 25.99        38.8 0.24                           253 230 
 TOL  SZ EP   1   1942 54.55                             108     0.7 6  274 224 
 TOL  SZ ES   2   1943 25.54                             108     1.2 4  274 224 
 ANIL BZ EP   1   1942 55.93                             107     0.6 5  288 224 
 ANIL BE ES   2   1943 27.56                             107     0.5 4  288 224 
 ANIL BZ I        1943 34.95        66.0 0.46                           288 224 
 DBB  SZ EP   1   1942 56.16                             106    -0.2 5  299 284 
 DBB  SZ ES   2   1943 27.99                             106    -0.8 4  299 284 
 PRA  HZ EP   1   1942 58.84                             104    -0.7 5  326 206 
 PRA  HE ES   2   1943 34.25                             104    -0.2 3  326 206 
 PRA  HZ I        1943 41.65        45.5 0.39                           326 206 
 MON  HN ES   2   1943 38.86                             103    -0.9 3  351 320 
                                                                                
