 2011 1116 1227 51.4 L   6.786 -73.097141.3  RSN  7 0.4 2.3LRSN                1
 GAP=143        0.82       4.1     5.8  6.8  0.2796E+01  0.9026E+01 -0.1420E+01E
 Epicentro: LOS SANTOS - SANTANDER                                             3
 ACTION:UPD 12-07-13 16:10 OP:ep   STATUS:               ID:20111116122751 L   I
 2011-11-16-1226-04S.COL___179                                                 6
 STAT SP IPHASW D HRMM SECON CODA AMPLIT PERI AZIMU VELO AIN AR TRES W  DIS CAZ7
 BAR2 SZ EP   1   1228 10.58                             170    0.12 7 23.4 204 
 BAR2 SZ ES   1   1228 24.90                             170   -0.46 7 23.4 204 
 BAR2 SZ I        1228 27.08        71.5 0.23                          23.4 204 
 PAM  SZ EP   1   1228 13.56                             151    0.58 7 75.3  36 
 PAM  SZ I        1228 13.95        31.4 0.18                          75.3  36 
 PAM  SN ES   1   1228 29.92                             151    0.07 7 75.3  36 
 BRR  HZ EP   1   1228 12.63                             150    0.27 7 76.7 298 
 BRR  HN ES   1   1228 29.41                             150    0.67 7 76.7 298 
 BRR  HZ I        1228 33.88        38.8 0.18                          76.7 298 
 RUS  HZ EP   1   1228 14.76                             143    0.21 7 98.8 179 
 RUS  HN ES   1   1228 32.30                             143   -0.33 7 98.8 179 
 RUS  HZ I        1228 34.76        16.5 0.22                          98.8 179 
 OCA  SZ EP   1   1228 18.88                             128   -0.67 7  163 351 
 OCA  SZ ES   1   1228 41.04                             128   -0.49 7  163 351 
 OCA  SZ I        1228 44.53        28.6 0.24                           163 351 
 ZAR  HZ EP   1   1228 24.47                             121    0.36 6  210 292 
 ZAR  HN ES   1   1228 49.24                             121   -0.41 6  210 292 
 ZAR  HZ I        1228 55.61        12.8 0.19                           210 292 
 PRA  HZ EP   1   1228 44.50                             106   -0.39 4  393 210 
                                                                                
