 2017  516 1104 20.7 L   6.785 -73.154147.4  RSN 14 0.4 2.3LRSN                1
 GAP=112        0.81       2.8     3.1  5.4  0.5973E+00  0.6623E+00  0.3373E+01E
 Epicentro: LOS SANTOS - SANTANDER                                             3
 ACTION:UPD 17-06-16 13:36 OP:jn   STATUS:               ID:20170516110420 L   I
 OLDACT:DUP 17-05-16 21:07 OP:lv   STATUS:               ID:20170516105738d    3
 2017-05-16-1058-00M.COL___353                                                 6
 STAT SP IPHASW D HRMM SECON CODA AMPLIT PERI AZIMU VELO AIN AR TRES W  DIS CAZ7
 BRR  HZ EP       11 4 42.23                             153    0.2110 71.2 300 
 BRR  HN ES       11 4 59.31                             153    0.6610 71.2 300 
 BRR  HZ I        11 5  2.65        47.2 0.29            146           71.2 300 
 PAM  EZ EP       11 4 43.23                             150    0.0410 79.2  39 
 PAM  HN ES       11 5  0.62                             150   -0.1210 79.2  39 
 PAM  EZ I        11 5  2.80        64.9 0.34            150           79.2  39 
 PTB  HZ EP   1   11 4 47.72                             133    0.03 7  147 259 
 PTB  HN ES   1   11 5  8.18                             133   -0.57 7  147 259 
 SPBC HZ EP   4   11 4 46.09                             130   -3.06 0  161 219 
 SPBC HN ES       11 5 11.17                             130   -0.17 9  161 219 
 SPBC HZ I        11 5 15.90        45.9 0.09            122            161 219 
 YPLC HZ EP       11 4 50.25                             127   -0.26 9  176 151 
 YPLC HN ES       11 5 13.55                             127   -0.22 9  176 151 
 YPLC HZ I        11 5 18.15        11.8 0.21            121            176 151 
 ZAR  HZ EP       11 4 53.10                             123   -0.13 9  204 293 
 ZAR  HN ES       11 5 17.90                             123   -0.70 9  204 293 
 ZAR  HZ I        11 5 24.19        25.4 0.14            116            204 293 
 TABC EZ EP   4   11 4 57.78                             120    1.43 0  228 211 
 TABC EZ I        11 5 31.28        19.9 0.11            113            228 211 
 NOR  HZ EP       11 4 56.79                             119    0.44 8  233 235 
 NOR  HN ES   4   11 5 22.93                             119   -1.22 0  233 235 
 NOR  HZ I        11 5 30.06         9.8 0.07            112            233 235 
 CHI  HZ EP       11 4 58.49                             118    0.20 8  247 195 
 CHI  HN ES       11 5 27.92                             118    0.31 8  247 195 
 CHI  HZ I        11 5 31.42         7.8 0.39            111            247 195 
 ROSC BZ EP   9   11 5  0.94                             117    2.23 0  251 211 
 ROSC BN ES       11 5 30.52                                   -0.06 8  251 211 
 ROSC BZ I        11 5 37.78        20.3 0.36            111            251 211 
 HEL  HZ EP   9   11 5  2.70                             115    1.84 0  271 256 
 HEL  HN ES   1   11 5 34.08                                    0.06 6  271 256 
 HEL  HZ I        11 5 39.55         7.1 0.07            109            271 256 
 PTGC HZ EP   9   11 5  3.49                             112   -1.00 0  307 158 
 PTGC HN ES       11 5 37.06                                   -0.59 7  307 158 
 PTGC HZ I        11 5 39.26        12.4 0.16            107            307 158 
 ORTC HZ EP   9   11 5 15.49                             107    1.03 0  394 216 
 ORTC HN ES       11 5 57.25                                   -0.17 6  394 216 
 ORTC HZ I        11 6  3.42         5.0 0.23            102            394 216 
 SJC  HZ EP   4   11 5 14.71                             106   -1.71 0  410 327 
 SJC  HN ES   4   11 5 53.18                             106   -6.70 0  410 327 
 SJC  HZ I        11 6  3.46         2.3 0.25            102            410 327 
                                                                                
