 2013 1216 1010  3.6 L   6.783 -73.144141.0  RSN  8 0.4 1.6LRSN                1
 GAP=201        0.82       3.4     4.3  5.7  0.2721E+01  0.6220E+01 -0.5407E+01E
 Epicentro: LOS SANTOS - SANTANDER                                             3
 ACTION:UPD 14-01-13 10:18 OP:ep   STATUS:               ID:20131216101003 L   I
 OLDACT:DUP 13-12-16 16:38 OP:nd   STATUS:               ID:20131216101001d    3
 2013-12-16-1010-00M.COL___285                                                 6
 STAT SP IPHASW D HRMM SECON CODA AMPLIT PERI AZIMU VELO AIN AR TRES W  DIS CAZ7
 BAR2 SZ EP       1010 22.82                             171    0.2010 21.5 191 
 BAR2 SZ ES       1010 37.31                             171   -0.1510 21.5 191 
 BAR2 SZ I        1010 39.08        18.4 0.16            169           21.5 191 
 BRR  HZ EP       1010 24.77                             151    0.4710 72.2 300 
 BRR  HN ES   2   1010 40.97                             151    0.53 5 72.2 300 
 BRR  HZ I        1010 44.26        13.3 0.28            148           72.2 300 
 RUS  HZ EP       1010 26.85                             143    0.1010 98.7 176 
 RUS  HN ES       1010 44.55                             143   -0.2610 98.7 176 
 RUS  HZ I        1010 46.00         2.6 0.44            146           98.7 176 
 PTB  HZ EP       1010 29.78                             131   -0.39 9  148 260 
 PTB  HN ES       1010 50.34                             131   -0.55 9  148 260 
 PTB  HZ I        1010 51.91         3.4 0.50            130            148 260 
 ZAR  HZ EP   2   1010 36.03                             121    0.20 4  205 293 
 ZAR  HN ES       1011  1.06                             121    0.10 9  205 293 
 ZAR  HZ I        1011  6.57         2.8 0.10            121            205 293 
 NOR  HZ EP       1010 38.83                             117   -0.13 8  234 235 
 NOR  HN ES       1011  7.33                             117    0.80 8  234 235 
 NOR  HZ I        1011 13.08         3.0 0.24            118            234 235 
 SML  HZ EP       1010 39.99                             116   -0.16 8  245 335 
 SML  HN ES       1011  8.71                             116    0.05 8  245 335 
 SML  HZ I        1011 11.53         3.7 0.10            117            245 335 
 URE  HZ EP       1010 44.27                             112   -0.27 7  285 292 
 URE  HN ES   4   1011 14.00                             112   -2.47 0  285 292 
 URE  HZ I        1011 25.74         2.0 0.16            113            285 292 
                                                                                
