 2012  316 1644  8.8 L   6.752 -73.111138.8  RSN  9 0.4 1.9LRSN                1
 GAP=143        0.97       4.6     4.9  7.3  0.3571E+01  0.1029E+02  0.8843E+01E
 ACTION:UP  12-03-31 23:20 OP:EP   STATUS:               ID:20120316164408 L   I
 2012-03-16-1640-00M.COL___202                                                 6
 STAT SP IPHASW D HRMM SECON CODA AMPLIT PERI AZIMU VELO SNR AR TRES W  DIS CAZ7
 BAR2 SZ EP   1   1644 26.69                             172    -0.8 7   19 204 
 BAR2 SZ ES   1   1644 41.77                             172    -0.4 7   19 204 
 BAR2 SZ I        1644 44.05        26.4 0.22                            19 204 
 BRR  HZ EP   1   1644 29.55                             149     0.0 7   77 301 
 BRR  HZ I        1644 33.59        25.5 0.13                            77 301 
 BRR  HE ES       1644 46.25                             149     0.510   77 301 
 PAM  SZ EP   1   1644 30.81                             149     0.4 7   79  35 
 PAM  SZ I        1644 31.06        20.5 0.00                            79  35 
 PAM  SN ES   1   1644 47.12                             149    -0.1 7   79  35 
 RUS  HZ EP   1   1644 31.89                             144     0.4 7   95 178 
 RUS  HN ES   1   1644 49.43                             144     0.3 7   95 178 
 RUS  HZ I        1644 51.78         9.8 0.28                            95 178 
 PTB  HZ EP   1   1644 34.81                             130    -0.7 7  151 261 
 PTB  HN ES   1   1644 56.40                             130     0.1 7  151 261 
 PTB  HZ I        1644 58.01         9.4 0.13                           151 261 
 ZAR  HZ EP   1   1644 41.40                             120     0.0 6  210 293 
 ZAR  HN ES       1645  6.53                             120    -0.3 8  210 293 
 ZAR  HZ I        1645 12.17        11.6 0.11                           210 293 
 NOR  SZ EP   1   1644 44.75                             117     0.6 6  235 236 
 NOR  SN ES   2   1645 11.42                             117    -0.3 4  235 236 
 CHI  HZ EP   1   1644 46.00                             116     0.3 6  245 196 
 CHI  HN ES   1   1645 14.12                             116    -0.3 6  245 196 
 CHI  HZ I        1645 21.28         3.4 0.53                           245 196 
 HEL  HN ES   2   1645 20.93                             113     0.6 4  275 257 
                                                                                
