 2017  816 1021 10.4 L   6.775 -73.124136.8  RSN  6 0.3 1.3LRSN                1
 GAP=140        0.79       3.3     3.9  5.7 -0.4756E+00  0.4581E+01  0.1874E+01E
 Epicentro: LOS SANTOS - SANTANDER                                             3
 ACTION:UPD 17-09-04 20:21 OP:rebc STATUS:               ID:20170816102110 L   I
 OLDACT:UP  17-08-16 20:58 OP:lv   STATUS:               ID:20170816101741d    3
 OLDACT:DUP 17-08-16 20:54 OP:lv   STATUS:               ID:20170816101741d    3
 2017-08-16-1018-00M.COL___413                                                 6
 STAT SP IPHASW D HRMM SECON CODA AMPLIT PERI AZIMU VELO AIN AR TRES W  DIS CAZ7
 BAR2 EZ EP       1021 28.78                             171   -0.0910 21.3 198 
 BAR2 EZ ES       1021 42.94                             171   -0.3610 21.3 198 
 BAR2 EZ I        1021 44.48        10.4 0.14            168           21.3 198 
 BRR  HZ EP       1021 30.68                             150   -0.0710 74.6 299 
 BRR  HN ES       1021 47.27                             150    0.6110 74.6 299 
 PAM  EZ EP       1021 31.71                             149    0.0410 78.0  37 
 PAM  EN ES       1021 48.12                             149   -0.1710 78.0  37 
 RUS  HZ EP       1021 33.51                             143    0.4910 97.7 177 
 RUS  HN ES       1021 50.69                             143   -0.0110 97.7 177 
 RUS  HZ I        1021 52.75         2.5 0.29            142           97.7 177 
 SPBC HZ EP       1021 37.90                             127   -0.23 9  163 220 
 SPBC HN ES       1021 59.78                             127   -0.01 9  163 220 
 SPBC HZ I        1022  3.67         2.4 0.25            126            163 220 
 ZAR  HN ES       1022  7.38                             120   -0.33 8  207 293 
 ZAR  HZ I        1022 10.17         1.8 0.14            120            207 293 
                                                                                
