 2016  716 1610 13.1 L   6.833 -73.171145.9  RSN  4 0.4 1.2LRSN                1
 GAP=146        0.93       5.4     5.5 10.2 -0.1283E+02  0.1534E+02 -0.4009E+01E
 Epicentro: ZAPATOCA - SANTANDER                                               3
 ACTION:UPD 17-03-29 16:51 OP:lp   STATUS:               ID:20160716161013 L   I
 OLDACT:REG 16-07-17 00:38 OP:dani STATUS:               ID:20160716160759     3
 2016-07-16-1607-58S.COL___331                                                 6
 STAT SP IPHASW D HRMM SECON CODA AMPLIT PERI AZIMU VELO AIN AR TRES W  DIS CAZ7
 PAM  EZ EP       1610 35.47                             151    0.2410 76.5  43 
 PAM  EE ES       1610 52.61                             151    0.0910 76.5  43 
 PAM  EZ I        1610 54.84         4.2 0.54            152           76.5  43 
 RUS  HZ EP     D 1610 36.94                             143   -0.1610  104 175 
 RUS  HE ES       1610 55.47                             143   -0.3810  104 175 
 RUS  HZ I        1610 56.57         1.6 0.39            145            104 175 
 PTB  HZ EP       1610 39.61                             132   -0.24 9  146 257 
 PTB  HN ES       1611  0.46                             132   -0.28 9  146 257 
 PTB  HZ I        1611  1.26         1.8 0.28            135            146 257 
 SPBC HE ES       1611  4.77                             129    0.79 9  164 217 
                                                                                
