 2011  716 1052 27.8 L   6.811 -73.113133.3  RSN  6 0.4 1.6LRSN                1
 GAP=159        0.86       4.5     7.0  8.5 -0.9847E+01 -0.6376E+00 -0.4387E+01E
 Epicentro: LOS SANTOS - SANTANDER                                             3
 ACTION:UPD 12-07-25 14:01 OP:epov STATUS:               ID:20110716105227 L   I
 2011-07-16-1047-44S.COL___131                                                 6
 STAT SP IPHASW D HRMM SECON CODA AMPLIT PERI AZIMU VELO AIN AR TRES W  DIS CAZ7
 BAR2 SZ EP   1   1052 45.63                             169   -0.36 7 25.4 198 
 BAR2 SZ ES   1   1052 59.89                             169   -0.29 7 25.4 198 
 BAR2 SZ I        1053  3.06         8.3 0.27                          25.4 198 
 BRR  HZ EP       1052 47.62                             149   -0.1710 73.9 296 
 BRR  HE ES   1   1053  4.02                             149    0.64 7 73.9 296 
 BRR  HZ I        1053  6.26        14.9 0.35                          73.9 296 
 RUS  HZ EP   1   1052 50.75                             141    0.31 7  102 178 
 RUS  HN ES   1   1053  8.26                             141    0.17 7  102 178 
 BRI  SZ EP   1   1052 51.12                             139    0.78 7  106  19 
 GRA  SZ EP   1   1052 51.53                             135   -0.24 7  123  16 
 GRA  SZ ES   1   1053  9.98                             135   -0.48 7  123  16 
 GRA  SZ I        1053 12.28         4.4 0.43                           123  16 
 NOR  SE ES   1   1053 30.50                             115   -0.40 6  238 235 
                                                                                
