 2011 1016 1729 28.4 L   6.762 -73.122137.9  RSN  8 0.3 2.2LRSN                1
 GAP=141        0.61       2.9     4.1  4.9 -0.1986E+01  0.7579E+01 -0.7789E+00E
 Epicentro: LOS SANTOS - SANTANDER                                             3
 ACTION:UPD 12-07-13 16:04 OP:ep   STATUS:               ID:20111016172928 L   I
 2011-10-16-1726-34S.COL___168                                                 6
 STAT SP IPHASW D HRMM SECON CODA AMPLIT PERI AZIMU VELO AIN AR TRES W  DIS CAZ7
 BAR2 SZ EP   1   1729 47.00                             171   -0.04 7 19.9 199 
 BAR2 SZ ES   1   1730  1.39                             171   -0.17 7 19.9 199 
 BAR2 SZ I        1730  3.02        45.3 0.31                          19.9 199 
 BRR  HZ EP   1   1729 48.76                             149   -0.23 7 75.5 300 
 BRR  HN ES   1   1730  5.58                             149    0.55 7 75.5 300 
 BRR  HZ I        1730  6.43        32.1 0.10                          75.5 300 
 PAM  SZ EP   1   1729 49.81                             149   -0.11 7 79.2  36 
 PAM  SN ES   1   1730  6.74                             149    0.05 7 79.2  36 
 RUS  HZ EP   1   1729 51.07                             143   -0.01 7 96.2 177 
 RUS  HE ES   1   1730  8.83                             143    0.07 7 96.2 177 
 RUS  HZ I        1730 11.47        22.0 0.28                          96.2 177 
 OCA  SZ EP   1   1729 56.41                             127   -0.16 7  165 352 
 OCA  SZ ES   1   1730 18.31                             127   -0.22 7  165 352 
 OCA  SZ I        1730 21.05        14.0 0.15                           165 352 
 ZAR  HZ EP   1   1730  1.32                             120    0.53 6  208 293 
 ZAR  HN ES   2   1730 25.22                             120   -0.81 4  208 293 
 ZAR  HZ I        1730 32.78        15.2 0.36                           208 293 
 NOR  SZ EP   1   1730  3.48                             117   -0.19 6  234 236 
 NOR  SN ES   1   1730 30.87                             117   -0.29 6  234 236 
 HEL  HZ EP   1   1730  9.09                             113    0.68 6  274 257 
 HEL  HZ I        1730 45.38         7.7 0.50                           274 257 
                                                                                
