 2011  516 1155 39.2 L   6.737 -73.455114.0  RSN  5 0.3 1.9LRSN                1
 GAP=169        0.63       3.8     7.6  7.5  0.7920E+00 -0.2306E+02 -0.2533E+01E
 Epicentro: EL CARMEN DE CHUCURI - SANTANDER                                   3
 ACTION:UP  11-06-29 08:53 OP:tino STATUS:               ID:20110516115539 L   I
 2011-05-16-1155-28S.COL___139                                                 6
 STAT SP IPHASW D HRMM SECON CODA AMPLIT PERI AZIMU VELO SNR AR TRES W  DIS CAZ7
 BAR2 SZ EP   1   1155 55.56                             162     0.2 7   34 118 
 BAR2 SZ ES   2   1156  7.17                             162    -0.8 5   34 118 
 BAR2 SZ I        1156  9.09        33.1 0.42                            34 118 
 BRR  HZ EP   1   1155 55.39                             155    -0.3 7   50 325 
 BRR  HZ I        1155 56.06        26.3 0.08                            50 325 
 BRR  HN ES   1   1156  8.78                             155     0.2 7   50 325 
 RUS  HZ EP   1   1156  0.05                             135     0.0 7  102 156 
 RUS  HN ES   2   1156 16.73                             135     0.4 5  102 156 
 BRI  SZ EP   1   1156  2.36                             128     0.1 7  130  34 
 GRA  SZ EP   1   1156  3.46                             124    -0.3 7  146  30 
 GRA  SZ I        1156  5.33         5.5 0.22                           146  30 
 GRA  SZ ES   1   1156 23.06                             124     0.2 7  146  30 
                                                                                
