 2015  816 1458 33.2 L   6.808 -73.149142.9  RSN 18 0.5 2.6LRSN                1
 GAP= 71        1.14       2.4     3.2  5.1 -0.8194E+00  0.5239E+01  0.7542E+00E
 Epicentro: LOS SANTOS - SANTANDER                                             3
 ACTION:UPD 15-09-15 23:02 OP:cam  STATUS:               ID:20150816145833 L   I
 OLDACT:REG 15-08-16 21:15 OP:ar   STATUS:               ID:20150816145747     3
 2015-08-16-1457-47M.COL___343                                                 6
 STAT SP IPHASW D HRMM SECON CODA AMPLIT PERI AZIMU VELO AIN AR TRES W  DIS CAZ7
 BAR2 EZ EP       1458 52.14                             170   -0.3210 24.1 189 
 BAR2 EZ ES       1459  6.72                             170   -0.7910 24.1 189 
 BAR2 EZ I        1459  8.34        80.8 0.24            169           24.1 189 
 BRR  HZ IP     C 1458 53.93                             152   -0.0210 70.4 298 
 BRR  HE ES       1459 11.13                             152    0.9610 70.4 298 
 BRR  HZ I        1459 14.11        62.3 0.26            151           70.4 298 
 PAM  EZ EP       1458 55.10                             150    0.0610 76.9  40 
 PAM  EN ES       1459 12.18                             150    0.0710 76.9  40 
 PAM  EZ I        1459 12.63        37.0 0.26            149           76.9  40 
 RUS  HZ EP       1458 56.09                             143   -0.6010  102 176 
 RUS  HN ES       1459 15.50                             143    0.4510  102 176 
 RUS  HZ I        1459 16.42        27.5 0.42            141            102 176 
 TAM  HZ EP       1459  0.60                             130   -0.06 9  156 105 
 TAM  HZ I        1459 21.54        27.4 0.26            127            156 105 
 TAM  HN ES       1459 22.37                             130    0.25 9  156 105 
 OCA  HZ EP       1459  0.59                             129   -0.57 9  159 353 
 OCA  HN ES       1459 22.89                             129   -0.11 9  159 353 
 OCA  HZ I        1459 30.27        86.7 0.22            127            159 353 
 SPBC HZ EP       1459  1.16                             128   -0.32 9  164 219 
 SPBC HN ES       1459 23.45                             128   -0.12 9  164 219 
 SPBC HZ I        1459 27.90        65.9 0.12            127            164 219 
 ZAR  HZ EP       1459  5.17                             122   -0.18 9  203 292 
 ZAR  HN ES       1459 29.99                             122   -0.46 9  203 292 
 ZAR  HZ I        1459 36.08        40.1 0.34            120            203 292 
 SML  HZ EP       1459  9.56                             117    0.04 8  243 335 
 SML  HN ES       1459 38.77                             117    0.89 8  243 335 
 SML  HZ I        1459 43.22        40.4 0.10            115            243 335 
 ROSC BZ EP       1459 12.06                             116    0.88 8  253 211 
 ROSC BN ES       1459 41.21                             116    0.37 8  253 211 
 ROSC BZ I        1459 46.51        57.6 0.40            114            253 211 
 HEL  HZ EP       1459 13.75                             114    0.54 8  272 256 
 HEL  HN ES       1459 44.04                             114   -0.41 8  272 256 
 HEL  HZ I        1459 50.61        20.6 0.26            113            272 256 
 URE  HZ EP   4   1459 12.68                             113   -1.33 0  283 292 
 URE  HE ES   4   1459 43.44                             113   -2.44 0  283 292 
 URE  HZ I        1459 54.16        31.2 0.20            112            283 292 
 GUY2CHZ EP       1459 17.26                             112    0.60 7  301 235 
 GUY2CHN ES       1459 50.20                             112   -0.38 7  301 235 
 GUY2CHZ I        1459 58.33        20.4 0.58                           301 235 
 VIL  SZ EP       1459 16.03                             111   -0.51 7  304 191 
 VIL  SN ES       1459 50.15                             111   -0.22 7  304 191 
 VIL  SZ I        1459 58.54        29.6 0.40            110            304 191 
 LL2C HZ EP       1459 16.41                             111   -0.10 7  305 354 
 LL2C HN ES       1459 50.66                             111    0.34 7  305 354 
 DBB  SZ EP       1459 19.99                             109   -0.48 7  339 274 
 DBB  SZ ES       1459 56.39                             109   -0.98 7  339 274 
 DBB  SZ I        1459 57.66        47.7 0.70            108            339 274 
 TOL  SZ EP       1459 21.85                             109    0.51 7  344 224 
 TOL  SN ES       1459 59.81                             109    0.89 7  344 224 
 TOL  SZ I        15 0  8.43        16.6 0.32            107            344 224 
 ORTC HZ EP       1459 26.74                             106   -0.30 6  396 216 
 ORTC HN ES       15 0  9.84                             106    0.78 6  396 216 
 ORTC HZ I        15 0 14.30        10.3 0.32            104            396 216 
                                                                                
