 2012  516 1024 10.8 L   6.765 -73.157146.2  RSN  8 0.5 1.8LRSN                1
 GAP=137        1.00       6.0     6.2  8.1  0.9152E+00  0.1312E+02  0.1975E+01E
 Epicentro: LOS SANTOS - SANTANDER                                             3
 ACTION:UP  12-07-05 12:05 OP:pat  STATUS:               ID:20120516102410 L   I
 2012-05-16-1020-00M.COL___195                                                 6
 STAT SP IPHASW D HRMM SECON CODA AMPLIT PERI AZIMU VELO SNR AR TRES W  DIS CAZ7
 BAR2 SZ EP       1024 30.31                             173     0.010   19 188 
 BAR2 SZ ES   1   1024 45.66                             173     0.0 7   19 188 
 BAR2 SZ I        1024 48.68        10.9 0.24                            19 188 
 BRR  HZ EP       1024 32.34                             152     0.310   72 302 
 BRR  HZ I        1024 33.69        16.1 0.46                            72 302 
 BRR  HE ES   1   1024 49.53                             152     1.0 7   72 302 
 PAM  SZ EP       1024 33.44                             149     0.210   81  38 
 PAM  SN ES   1   1024 50.28                             149    -0.5 7   81  38 
 RUS  HZ EP       1024 34.24                             145     0.010   97 175 
 RUS  HN ES   2   1024 52.17                             145    -0.5 5   97 175 
 RUS  HZ I        1024 53.49         6.7 0.58                            97 175 
 PTB  HZ EP       1024 37.11                             133    -0.5 9  146 260 
 PTB  HN ES   2   1024 57.87                             133    -0.6 5  146 260 
 PTB  HZ I        1024 59.48         5.2 0.14                           146 260 
 OCA  HZ EP   2   1024 39.96                             129     0.5 5  164 354 
 OCA  HE ES   2   1025  1.17                             129    -0.7 5  164 354 
 OCA  HZ I        1025 12.31        17.3 0.32                           164 354 
 ZAR  HZ EP       1024 43.39                             122     0.1 9  204 293 
 ZAR  HN ES   2   1025  7.82                             122    -0.8 4  204 293 
 ZAR  HZ I        1025 14.14         8.4 0.32                           204 293 
 CHI  HZ EP   3   1024 48.25                             118     0.2 2  245 195 
                                                                                
