 2014  316 1841 19.1 L   6.801 -73.129148.2  RSN 12 0.4 2.6LRSN                1
 GAP=139        1.03       3.0     4.4  5.6 -0.3200E+00  0.7297E+01  0.7745E+00E
 Epicentro: LOS SANTOS - SANTANDER                                             3
 ACTION:UPD 14-04-09 23:17 OP:nd   STATUS:               ID:20140316184119 L   I
 OLDACT:REG 14-03-16 16:18 OP:mh   STATUS:               ID:20140316183815     3
 2014-03-16-1838-15M.COL___257                                                 6
 STAT SP IPHASW D HRMM SECON CODA AMPLIT PERI AZIMU VELO AIN AR TRES W  DIS CAZ7
 BAR2 SZ EP       1841 39.22                             170    0.1610 23.8 194 
 BAR2 SZ ES       1841 54.40                             170   -0.2010 23.8 194 
 BAR2 SZ I        1841 56.01        44.3 0.19            169           23.8 194 
 BRR  HZ EP       1841 40.82                             152    0.2010 72.7 298 
 BRR  HN ES       1841 58.14                             152    0.7510 72.7 298 
 BRR  HZ I        1842  2.04        17.7 0.48            150           72.7 298 
 PAM  SZ EP     C 1841 42.00                             152    0.4710 76.1  39 
 PAM  SN ES       1841 59.19                             152    0.1910 76.1  39 
 PAM  SZ I        1842  1.43        27.6 0.21            156           76.1  39 
 RUS  HZ EP       1841 43.08                             144   -0.0410  101 177 
 RUS  HN ES       1842  1.35                             144   -0.4810  101 177 
 RUS  HZ I        1842  3.49        10.9 0.37            147            101 177 
 PTB  HZ EP       1841 45.89                             132   -0.57 9  150 259 
 PTB  HN ES   1   1842  6.90                             132   -0.87 7  150 259 
 PTB  HZ I        1842 13.13        19.8 0.15            132            150 259 
 OCA  HZ EP   1   1841 47.74                             130    0.10 7  160 352 
 OCA  HN ES       1842  9.35                             130   -0.52 9  160 352 
 SPBC HZ EP       1841 48.15                             129    0.22 9  164 219 
 ZAR  HZ EP       1841 52.44                             123    0.54 8  206 292 
 ZAR  HN ES       1842 17.80                             123    0.34 8  206 292 
 ZAR  HZ I        1842 23.73     43446.8 0.02            123            206 292 
 NOR  HZ EP       1841 55.19                             119    0.03 8  236 235 
 NOR  HN ES       1842 23.60                             119    0.33 8  236 235 
 NOR  HZ I        1842 29.06        12.6 0.27            120            236 235 
 SML  HZ EP       1841 55.58                             118   -0.38 8  244 335 
 SML  HE ES       1842 23.92                             118   -0.77 8  244 335 
 SML  HZ I        1842 28.47        31.1 0.11            120            244 335 
 CHI  HZ EP       1841 57.06                             118    0.03 8  249 196 
 CHI  HN ES   2   1842 25.96                             118   -0.63 4  249 196 
 ROSC BZ EP   4   1841 59.25                             117    1.76 0  254 211 
 ROSC BN ES   4   1842 29.96                             117    2.54 0  254 211 
 GUY2CHZ EP   4   1842  3.96                             113    0.94 0  303 235 
 GUY2CHE ES   4   1842 39.78                             113    2.52 0  303 235 
 GUY2CHZ I        1842 46.13        11.3 0.71                           303 235 
                                                                                
