 2012  116 1254 44.6 L   6.725 -73.147139.5  RSN  6 0.3 1.3LRSN                1
 GAP=140        0.69       6.0     5.6 11.9  0.7396E+00  0.1721E+02 -0.1883E+01E
 Epicentro: JORDAN - SANTANDER                                                 3
 ACTION:UP  12-02-03 08:17 OP:REBC STATUS:               ID:20120116125444 L   I
 2012-01-16-1250-00M.COL___185                                                 6
 STAT SP IPHASW D HRMM SECON CODA AMPLIT PERI AZIMU VELO SNR AR TRES W  DIS CAZ7
 BAR2 SZ EP       1255  3.52                             173     0.210   15 195 
 BAR2 SZ I        1255 22.03         4.6 0.25                            15 195 
 BRR  HZ EP       1255  5.73                             150     0.410   75 304 
 BRR  HN ES   3   1255 21.71                             150     0.2 2   75 304 
 PAM  SZ EP   1   1255  6.19                             147    -0.4 7   84  36 
 PAM  SZ I        1255  6.99         3.8 0.19                            84  36 
 PAM  SN ES   2   1255 23.37                             147    -0.3 5   84  36 
 RUS  HZ EP   1   1255  7.08                             145     0.0 7   92 176 
 RUS  HN ES   2   1255 24.58                             145    -0.1 5   92 176 
 RUS  HZ I        1255 27.70         3.0 0.40                            92 176 
 PTB  HZ EP   1   1255 10.49                             131    -0.4 7  146 262 
 PTB  HN ES   2   1255 31.18                             131    -0.3 5  146 262 
 PTB  HZ I        1255 32.89                                            146 262 
 ZAR  HN ES   2   1255 41.98                             120    -0.2 4  207 294 
                                                                                
