 2015  316 1158 42.8 L   6.695 -73.065134.6  RSN  4 0.2 1.7LRSN                1
 GAP=199        0.51       4.8     4.2  4.4 -0.8669E+01 -0.1258E+01  0.6830E+01E
 Epicentro: ARATOCA - SANTANDER                                                3
 ACTION:UPD 15-04-30 16:26 OP:nd   STATUS:               ID:20150316115842 L   I
 OLDACT:REG 15-03-16 22:26 OP:cam  STATUS:               ID:20150316114747     3
 2015-03-16-1147-47M.COL___251                                                 6
 STAT SP IPHASW D HRMM SECON CODA AMPLIT PERI AZIMU VELO AIN AR TRES W  DIS CAZ7
 BAR2 EZ EP     D 1159  1.04                             172    0.0510 17.3 229 
 BAR2 EZ ES       1159 15.09                             172   -0.0810 17.3 229 
 BAR2 EZ I        1159 18.62         7.5 0.52            172           17.3 229 
 PAM  SZ EP       1159  3.88                             147   -0.2710 81.9  30 
 PAM  SN ES       1159 21.03                             147    0.2410 81.9  30 
 PAM  SZ I        1159 22.74         8.6 0.60            150           81.9  30 
 BRR  HN ES       1159 19.85                             146   -0.0510 84.8 303 
 BRR  HN I        1159 22.82        17.1 0.16            148           84.8 303 
 GUY2CHZ EP       1159 26.27                             110    0.23 7  302 238 
                                                                                
