 2015  716 1043 55.1 L   6.820 -73.143144.0  RSN  7 0.3 1.8LRSN                1
 GAP=183        0.60       2.3     3.9  6.0  0.1274E+00  0.8392E+01 -0.3435E+01E
 Epicentro: LOS SANTOS - SANTANDER                                             3
 ACTION:UPD 15-09-08 21:49 OP:cam  STATUS:               ID:20150716104355 L   I
 OLDACT:REG 15-07-16 20:38 OP:spq  STATUS:               ID:20150716103748     3
 2015-07-16-1037-48M.COL___343                                                 6
 STAT SP IPHASW D HRMM SECON CODA AMPLIT PERI AZIMU VELO AIN AR TRES W  DIS CAZ7
 BAR2 EZ EP       1044 14.57                             169   -0.0110 25.6 190 
 BAR2 EZ ES   1   1044 29.57                             169   -0.19 7 25.6 190 
 BAR2 EZ I        1044 32.41         8.6 0.26            169           25.6 190 
 RUS  HZ EP   1   1044 18.94                             143    0.08 7  103 176 
 RUS  HN ES       1044 37.47                             143    0.1010  103 176 
 RUS  HZ I        1044 38.15         6.1 0.26            147            103 176 
 OCA  HZ EP   1   1044 23.50                             130    0.42 7  158 353 
 OCA  HE ES       1044 44.86                             130   -0.04 9  158 353 
 OCA  HZ I        1044 48.93         8.3 0.16            131            158 353 
 ZAR  HE ES       1044 53.04                             122    0.47 9  204 292 
 ZAR  HZ I        1044 58.61         9.6 0.38            123            204 292 
 NOR  HZ EP   1   1044 30.89                             118   -0.02 6  236 234 
 NOR  HE ES       1044 58.49                             118   -0.34 8  236 234 
 NOR  HZ I        1045  4.11         5.2 0.28            120            236 234 
 SML  HZ EP   1   1044 31.18                             117   -0.26 6  242 335 
 SML  HE ES   1   1044 59.19                             117   -0.58 6  242 335 
 SML  HZ I        1045  4.32         6.4 0.10            119            242 335 
 GUY2CHZ EP   4   1044 40.26                             112    1.44 0  303 234 
 GUY2CHN ES   4   1045 14.58                             112    1.67 0  303 234 
 GUY2CHZ I        1045 23.31         4.0 0.52                           303 234 
                                                                                
