 2010 1016 1754 54.7 L   6.769 -73.093143.4  RSN  9 0.2 2.1LRSN                1
 GAP=140        0.53       2.2     5.5  4.0  0.1631E+01 -0.6890E+01 -0.1591E+01E
 Epicentro: LOS SANTOS - SANTANDER                                             3
 ACTION:UP  11-02-18 11:10 OP:tino STATUS:               ID:20101016175454 L   I
 2010-10-16-1752-12S.COL___125                                                 6
 STAT SP IPHASW D HRMM SECON CODA AMPLIT PERI AZIMU VELO SNR AR TRES W  DIS CAZ7
 BAR2 SZ EP       1755 14.04                             171     0.010   22 207 
 BAR2 SZ I        1755 14.31        26.9 0.18                            22 207 
 BAR2 SZ ES   2   1755 28.63                             171    -0.4 5   22 207 
 BTL  SZ EP       1755 14.33                             169     0.310   25 311 
 BTL  SZ ES   1   1755 29.39                             169     0.2 7   25 311 
 GIR2 SZ EP       1755 14.18                             165     0.010   36 342 
 GIR2 SZ ES   1   1755 29.20                             165    -0.2 7   36 342 
 BRR  HZ EP       1755 15.94                             150     0.010   78 299 
 BRR  HN ES   1   1755 32.78                             150     0.2 7   78 299 
 BRR  HZ I        1755 33.98        28.9 0.17                            78 299 
 RUS  HZ EP       1755 17.97                             144     0.010   97 179 
 RUS  HN ES   1   1755 35.86                             144    -0.2 7   97 179 
 RUS  HZ I        1755 37.72        12.2 0.35                            97 179 
 GUE  SZ EP       1755 19.45                             138     0.110  119   9 
 GRA  SZ EP       1755 19.96                             136     0.110  127  15 
 GRA  SZ ES   1   1755 39.69                             136     0.2 7  127  15 
 GRA  SZ I        1755 40.94        19.5 0.31                           127  15 
 OCA  SZ EP       1755 22.81                             128    -0.4 9  164 351 
 OCA  SZ ES   1   1755 45.18                             128    -0.3 7  164 351 
 OCA  SZ I        1755 47.84        19.4 0.43                           164 351 
 YOP  SN ES   2   1755 46.78                             127    -0.1 4  173 155 
                                                                                
