 2013  616 1758 48.9 L   6.735 -73.188153.7  RSN  4 0.3 1.7LRSN                1
 GAP=227        0.83       7.2     6.6  7.4  0.2233E+02  0.3258E+01 -0.3908E+01E
 Epicentro: VILLANUEVA - SANTANDER                                             3
 ACTION:UPD 14-01-08 09:55 OP:ep   STATUS:               ID:20130616175848 L   I
 OLDACT:UP  13-06-16 19:25 OP:cam  STATUS:               ID:20130616174960d    3
 OLDACT:UP  13-06-16 19:24 OP:cam  STATUS:               ID:20130616174960d    3
 OLDACT:DUP 13-06-16 19:21 OP:cam  STATUS:               ID:20130616174960d    3
 2013-06-16-1749-59M.COL___261                                                 6
 STAT SP IPHASW D HRMM SECON CODA AMPLIT PERI AZIMU VELO AIN AR TRES W  DIS CAZ7
 BAR2 SZ EP   1   1759  9.28                             174   -0.08 7 15.8 178 
 BAR2 SZ ES       1759 24.88                             174   -0.4410 15.8 178 
 BAR2 SZ I        1759 25.20        10.6 0.40            172           15.8 178 
 BRR  HZ EP       1759 10.67                             154   -0.2310 71.1 305 
 BRR  HZ I        1759 11.08        19.2 0.24            153           71.1 305 
 BRR  HN ES   1   1759 28.80                             154    0.74 7 71.1 305 
 RUS  HZ EP       1759 13.40                             147    0.4210 93.9 173 
 RUS  HN ES       1759 31.77                             147    0.0010 93.9 173 
 RUS  HZ I        1759 32.71         4.5 0.28            146           93.9 173 
 PTB  HZ EP   1   1759 15.85                             135   -0.16 7  142 261 
 PTB  HN ES       1759 37.11                             135   -0.05 9  142 261 
 PTB  HZ I        1759 38.68         4.5 0.40            134            142 261 
                                                                                
