 2017 1016 1342 50.1 L   6.818 -73.161146.5  RSN  7 0.4 1.7LRSN                1
 GAP=213        0.89       5.4     4.4  6.1  0.1233E+02  0.4451E+01  0.6803E+01E
 Epicentro: LOS SANTOS - SANTANDER                                             3
 ACTION:UPD 17-11-07 19:32 OP:rebc STATUS:               ID:20171016134250 L   I
 OLDACT:UP  17-10-16 22:19 OP:edw  STATUS:               ID:20171016133735     3
 OLDACT:UP  17-10-16 22:15 OP:edw  STATUS:               ID:20171016133735     3
 OLDACT:REG 17-10-16 20:06 OP:edw  STATUS:               ID:20171016133735     3
 2017-10-16-1338-00M.COL___426                                                 6
 STAT SP IPHASW D HRMM SECON CODA AMPLIT PERI AZIMU VELO AIN AR TRES W  DIS CAZ7
 BAR2 EZ EP       1343  9.65                             170   -0.2010 25.1 185 
 BAR2 EZ ES       1343 24.84                             170   -0.4210 25.1 185 
 BAR2 EZ I        1343 28.16         9.4 0.54            165           25.1 185 
 BRR  HZ EP       1343 11.70                             153    0.5110 68.8 298 
 BRR  HN ES       1343 28.11                             153    0.4710 68.8 298 
 BRR  HZ I        1343 29.78         8.6 0.22            152           68.8 298 
 PTB  HZ EP       1343 16.54                             132   -0.47 9  146 258 
 PTB  HN ES       1343 37.66                             132   -0.34 9  146 258 
 PTB  HZ I        1343 44.83         5.3 0.42            131            146 258 
 YPLC HZ EP       1343 20.11                             126   -0.09 9  179 151 
 YPLC HN ES       1343 43.95                             126    0.28 9  179 151 
 YPLC HZ I        1343 44.76         4.6 0.28            129            179 151 
 ZAR  HZ EP       1343 22.00                             123   -0.36 9  202 292 
 ZAR  HN ES       1343 47.60                             123    0.09 9  202 292 
 ZAR  HZ I        1343 53.47         7.8 0.34            124            202 292 
 NOR  HZ EP       1343 26.23                             119    0.38 8  234 234 
 NOR  HN ES       1343 53.96                             119    0.23 8  234 234 
 NOR  HZ I        1343 59.24         3.6 0.54            119            234 234 
 GUY2CHZ EP   4   1343 35.40                             112    1.69 0  301 234 
 GUY2CHE ES   4   1344  9.81                             112    2.08 0  301 234 
 GUY2CHZ I        1344 18.44         2.7 0.54                           301 234 
                                                                                
