 2011  916 1459 14.4 L   6.801 -73.134143.7  RSN 11 0.4 2.2LRSN                1
 GAP=138        0.81       3.4     4.4  6.2 -0.2234E+01  0.7908E+01  0.5324E+01E
 Epicentro: LOS SANTOS - SANTANDER                                             3
 ACTION:UPD 12-07-13 15:57 OP:ep   STATUS:               ID:20110916145914 L   I
 2011-09-16-1455-29S.COL___170                                                 6
 STAT SP IPHASW D HRMM SECON CODA AMPLIT PERI AZIMU VELO AIN AR TRES W  DIS CAZ7
 BAR2 SZ EP       1459 33.68                             170   -0.1510 23.7 193 
 BAR2 SZ I        1459 49.96        51.8 0.20                          23.7 193 
 BRR  HZ EP       1459 35.47                             152    0.0410 72.3 298 
 BRR  HE ES   1   1459 52.24                             152    0.44 7 72.3 298 
 BRR  HZ I        1459 52.87        33.1 0.16                          72.3 298 
 PAM  SZ EP       1459 36.55                             151    0.1710 76.5  39 
 PAM  SN ES   1   1459 53.57                             151    0.08 7 76.5  39 
 RUS  HZ EP       1459 37.69                             143   -0.3010  101 177 
 RUS  HN ES   1   1459 56.38                             143    0.02 7  101 177 
 RUS  HZ I        1459 57.38        26.2 0.24                           101 177 
 OCA  SZ EP       1459 42.46                             129   -0.14 9  160 353 
 ZAR  HN ES   1   15 0 11.65                             122   -0.52 6  205 292 
 ZAR  HZ I        15 0 18.21        18.1 0.60                           205 292 
 NOR  SZ EP       1459 50.18                             118    0.00 8  236 235 
 NOR  SN ES   1   15 0 17.26                             118   -0.79 6  236 235 
 CHI  HZ EP       1459 51.93                             117   -0.15 8  249 195 
 CHI  HE ES   1   15 0 21.46                             117    0.03 6  249 195 
 CHI  HZ I        15 0 26.64         6.7 0.36                           249 195 
 HEL  HZ EP       1459 54.55                             114   -0.15 8  273 256 
 HEL  HZ I        15 0 34.24         8.2 0.24                           273 256 
 RREF HZ EP       15 0  1.80                             110    1.18 7  323 230 
 RREF HN ES   1   15 0 37.42                             110    0.79 5  323 230 
 RREF HZ I        15 0 45.66         9.8 0.26                           323 230 
 PRA  HZ EP       15 0  7.86                             106   -0.12 6  393 210 
                                                                                
