 2011  416 1838 37.4 L   6.734 -73.068143.8  RSN  4 0.3 2.1LRSN                1
 GAP=188        0.78      10.1     8.2  8.2 -0.2676E+02 -0.1757E+01 -0.1329E+02E
 Epicentro: JORDAN - SANTANDER                                                 3
 ACTION:UP  11-06-22 15:31 OP:REBC STATUS:               ID:20110416183837 L   I
 2011-04-16-1836-22S.COL___139                                                 6
 STAT SP IPHASW D HRMM SECON CODA AMPLIT PERI AZIMU VELO SNR AR TRES W  DIS CAZ7
 BAR2 SZ EP   1   1838 57.00                             172     0.3 7   20 219 
 BAR2 SZ ES   1   1839 11.53                             172    -0.3 7   20 219 
 BAR2 SZ I        1839 13.21        31.8 0.29                            20 219 
 PAM  SZ EP   1   1838 59.98                             150     0.5 7   78  31 
 PAM  SN ES   1   1839 16.69                             150     0.0 7   78  31 
 BRR  HZ IP     C 1838 58.87                             149    -0.210   82 300 
 BRR  HZ I        1838 59.12        67.5 0.13                            82 300 
 BRR  HN ES   1   1839 16.13                             149     0.3 7   82 300 
 GRA  SZ EP   1   1839  2.42                             135    -0.5 7  131  13 
 GRA  SZ I        1839 34.79         4.5 0.26                           131  13 
                                                                                
