 2012  716 1806 30.6 L   6.805 -73.164145.5  RSN 10 0.4 2.9LRSN                1
 GAP=112        0.90       3.5     4.5  6.4  0.2736E+01 -0.1029E+01  0.1637E+01E
 Epicentro: LOS SANTOS - SANTANDER                                             3
 SPEC SD       MO  0.1 ST 22.5 OM  1.8 f0 1.88 R0.0946 AL      WI      MW  0.1 3
 SPEC OCA HH Z MO 13.9 ST 48.3 OM  2.2 f0 7.59 R0.1937 AL 3.44 WI 17.6 MW  3.2 3
 SPEC OCA HH Z T18 718 K 0.000 GD  215 VS 4.20 DE 3.00 Q0230.0 QA 0.60 VS 4.20 3
 SPEC CHI HH Z MO 13.6 ST  3.3 OM  1.8 f0 3.84 R0.3828 AL 2.17 WI 35.5 MW  3.0 3
 SPEC CHI HH Z T18 731 K 0.000 GD  287 VS 4.20 DE 3.00 Q0230.0 QA 0.60 VS 4.20 3
 ACTION:UPD 12-08-14 11:45 OP:ep   STATUS:               ID:20120716180630 L   I
 2012-07-16-1800-00M.COL___197                                                 6
 STAT SP IPHASW D HRMM SECON CODA AMPLIT PERI AZIMU VELO AIN AR TRES W  DIS CAZ7
 BAR2 SZ IP       18 6 50.10                             170    -0.110   24 185 
 BAR2 SZ ES   1   18 7  5.11                             170    -0.3 7   24 185 
 BAR2 SZ I        18 7  6.64       143.0 0.13            171             24 185 
 BRR  HZ IP     C 18 6 51.87                             153     0.310   69 299 
 BRR  HN ES   1   18 7  8.91                             153     1.0 7   69 299 
 BRR  HZ I        18 7  9.96       237.2 0.13            151             69 299 
 PAM  SZ EP   1   18 6 52.89                             150     0.1 7   78  41 
 PAM  SE ES   2   18 7  9.72                             150    -0.4 5   78  41 
 RUS  HZ EP       18 6 54.15                             144    -0.210  101 175 
 RUS  HZ I        18 6 55.38        95.8 0.12            145            101 175 
 RUS  HN ES   1   18 7 12.96                             144     0.1 7  101 175 
 PTB  HZ EP   1   18 6 56.96                             132    -0.4 7  146 258 
 PTB  HZ I        18 6 57.87        78.4 0.15            132            146 258 
 PTB  HN ES       18 7 17.55                             132    -0.7 9  146 258 
 OCA  HZ EP       18 6 58.45                             130    -0.3 9  160 354 
 OCA  HN ES   1   18 7 21.00                             130     0.2 7  160 354 
 OCA  HZ I        18 7 22.96       227.7 0.24            129            160 354 
 YOP  SZ EP   1   18 7  1.01                             126     0.3 7  180 153 
 YOP  SZ I        18 7  1.28        44.5 0.12            128            180 153 
 YOP  SE ES   2   18 7 24.18                             126    -0.1 4  180 153 
 ZAR  HZ EP   1   18 7  2.69                             123    -0.1 6  202 292 
 ZAR  HN ES   1   18 7 28.15                             123     0.3 6  202 292 
 ZAR  HZ I        18 7 34.25        99.5 0.22            122            202 292 
 CHI  HZ EP   1   18 7  8.51                             117     0.3 6  249 195 
 CHI  HN ES   2   18 7 38.37                             117     0.7 4  249 195 
 VIL  SZ EP   1   18 7 13.91                             112    -0.1 5  303 191 
 VIL  SN ES   2   18 7 48.53                             112     0.7 4  303 191 
