 2016  616 1646 20.3 L   6.786 -73.163146.3  RSN  4 0.1 1.7LRSN                1
 GAP=141        0.31       2.6     2.0  4.5 -0.1009E+01  0.7494E+00 -0.5311E+01E
 Epicentro: LOS SANTOS - SANTANDER                                             3
 ACTION:UPD 16-07-21 22:19 OP:rebc STATUS:               ID:20160616164620 L   I
 OLDACT:REG 16-06-16 21:47 OP:dnl  STATUS:               ID:20160616163749     3
 2016-06-16-1637-49M.COL___343                                                 6
 STAT SP IPHASW D HRMM SECON CODA AMPLIT PERI AZIMU VELO AIN AR TRES W  DIS CAZ7
 BAR2 EZ EP       1646 39.76                             171   -0.1610 21.6 186 
 BAR2 EZ ES   2   1646 55.31                             171    0.06 5 21.6 186 
 BAR2 EZ I        1646 56.47        12.1 0.14                          21.6 186 
 PAM  EZ EP       1646 42.77                             150    0.1010 79.8  40 
 PAM  EE ES   2   1647  0.11                             150   -0.05 5 79.8  40 
 PAM  EZ I        1647  2.05        13.7 0.48                          79.8  40 
 RUS  HZ EP   2   1646 44.03                             144    0.06 5 99.2 175 
 RUS  HN ES       1647  2.48                             144    0.0210 99.2 175 
 RUS  HZ I        1647  3.79         9.1 0.28                          99.2 175 
 PTB  HZ EP   2   1646 47.13                             133    0.06 5  146 259 
 PTB  HE ES       1647  8.00                             133    0.01 9  146 259 
 PTB  HZ I        1647 12.68         4.9 0.24                           146 259 
                                                                                
