 2017  316 1156 13.7 L   6.761 -73.125140.0  RSN  6 0.4 1.6LRSN                1
 GAP=141        0.78       3.9     3.6  6.2  0.2286E+00  0.6241E+01 -0.3746E+01E
 Epicentro: LOS SANTOS - SANTANDER                                             3
 ACTION:UPD 17-05-25 18:41 OP:jn   STATUS:               ID:20170316115613 L   I
 OLDACT:REG 17-03-16 21:17 OP:dnl  STATUS:               ID:20170316114743     3
 2017-03-16-1148-00M.COL___397                                                 6
 STAT SP IPHASW D HRMM SECON CODA AMPLIT PERI AZIMU VELO AIN AR TRES W  DIS CAZ7
 BAR2 EZ IP     C 1156 32.51                             171   -0.0610 19.7 199 
 BAR2 EZ ES       1156 46.76                             171   -0.5210 19.7 199 
 BAR2 EZ I        1156 52.56         7.0 0.22            171           19.7 199 
 BRR  HZ IP     C 1156 34.41                             150   -0.0610 75.3 301 
 BRR  HZ EP       1156 34.42                             150   -0.0510 75.3 301 
 BRR  HN ES   2   1156 51.55                             150    0.88 5 75.3 301 
 BRR  HZ I        1156 52.82        16.3 0.44            149           75.3 301 
 PAM  EZ EP       1156 35.63                             149    0.2010 79.3  36 
 PAM  EN ES       1156 52.29                             149   -0.0810 79.3  36 
 PAM  EZ I        1156 52.93         5.8 0.36            153           79.3  36 
 RUS  HZ EP       1156 36.59                             143    0.0210 96.2 177 
 RUS  HE ES       1156 54.80                             143    0.4010 96.2 177 
 RUS  HZ I        1156 55.52         3.1 0.50            148           96.2 177 
 PTB  HZ EP   2   1156 39.37                             130   -0.97 5  149 261 
 PTB  HE ES       1157  0.94                             130   -0.18 9  149 261 
 PTB  HZ I        1157  2.49         5.5 0.10            131            149 261 
 ZAR  HZ EP   2   1156 46.86                             120    0.69 4  208 293 
 ZAR  HE ES       1157 11.72                             120    0.23 8  208 293 
 ZAR  HZ I        1157 20.27         4.8 0.26            122            208 293 
                                                                                
