 2016 1016 1631 59.1 L   6.761 -73.202144.2  RSN  6 0.4 1.6LRSN                1
 GAP=228        0.83       4.7     4.8  7.1  0.2143E+01  0.7660E+01  0.6391E+01E
 Epicentro: ZAPATOCA - SANTANDER                                               3
 ACTION:UPD 16-11-09 19:20 OP:rebc STATUS:               ID:20161016163159 L   I
 OLDACT:UP  16-10-16 23:54 OP:dnl  STATUS:               ID:20161016162745d    3
 OLDACT:UP  16-10-16 23:54 OP:dnl  STATUS:               ID:20161016162745d    3
 OLDACT:DUP 16-10-16 23:47 OP:dnl  STATUS:               ID:20161016162745d    3
 2016-10-16-1628-00M.COL___374                                                 6
 STAT SP IPHASW D HRMM SECON CODA AMPLIT PERI AZIMU VELO AIN AR TRES W  DIS CAZ7
 BAR2 EZ EP   2   1632 17.72                             172   -0.75 5 18.8 173 
 BAR2 EZ ES       1632 33.58                             172    0.0110 18.8 173 
 BAR2 EZ I        1632 34.50        11.4 0.22            172           18.8 173 
 BRR  HZ EP       1632 20.31                             153    0.3910 68.1 304 
 BRR  HN ES       1632 36.42                             153    0.2710 68.1 304 
 BRR  HZ I        1632 40.78         9.6 0.26            153           68.1 304 
 RUS  HZ EP       1632 22.32                             145   -0.1310 96.9 172 
 RUS  HN ES       1632 40.50                             145   -0.1510 96.9 172 
 RUS  HZ I        1632 42.98         4.2 0.30            147           96.9 172 
 PTB  HZ EP   2   1632 24.80                             133   -0.53 5  141 260 
 PTB  HN ES       1632 45.12                             133   -0.66 9  141 260 
 PTB  HZ I        1632 48.32         4.5 0.26            134            141 260 
 SPBC HZ EP   2   1632 27.21                             130    0.40 5  156 218 
 SPBC HE ES       1632 48.90                             130    0.49 9  156 218 
 SPBC HZ I        1632 51.83         6.0 0.24            131            156 218 
 NOR  HZ EP   3   1632 34.46                             119    0.51 2  227 234 
 NOR  HN ES       1633  1.10                             119   -0.01 8  227 234 
 NOR  HZ I        1633  4.08         4.1 0.18            120            227 234 
                                                                                
