 2011 1016 1905 12.9 L   6.763 -73.101150.9  RSN  6 0.3 1.7LRSN                1
 GAP=144        0.65       4.0     6.2  5.8  0.1117E+01  0.5895E+01 -0.4042E+01E
 Epicentro: LOS SANTOS - SANTANDER                                             3
 ACTION:UPD 12-07-13 16:04 OP:ep   STATUS:               ID:20111016190513 L   I
 2011-10-16-1903-22S.COL___168                                                 6
 STAT SP IPHASW D HRMM SECON CODA AMPLIT PERI AZIMU VELO AIN AR TRES W  DIS CAZ7
 BAR2 SZ EP   1   19 5 33.12                             172   -0.02 7 20.9 205 
 BAR2 SZ ES   1   19 5 48.46                             172   -0.44 7 20.9 205 
 BAR2 SZ I        19 5 49.41        15.7 0.42                          20.9 205 
 BRR  HZ EP   1   19 5 35.00                             151    0.00 7 77.5 299 
 BRR  HN ES   1   19 5 52.70                             151    0.49 7 77.5 299 
 PAM  SZ EP   1   19 5 35.99                             152    0.27 7 77.7  35 
 PAM  SE ES   1   19 5 53.31                             152   -0.18 7 77.7  35 
 PAM  SZ I        19 5 55.77         5.2 0.34                          77.7  35 
 RUS  HZ EP   1   19 5 37.35                             146    0.45 7 96.2 179 
 RUS  HN ES   1   19 5 55.49                             146   -0.09 7 96.2 179 
 RUS  HZ I        19 5 56.99         5.0 0.22                          96.2 179 
 OCA  SZ EP   1   19 5 41.93                             130   -0.16 7  165 352 
 OCA  SZ ES   2   19 6  5.04                             130    0.21 5  165 352 
 OCA  SZ I        19 6  9.54         9.9 0.27                           165 352 
 ZAR  HZ EP   1   19 5 45.75                             123   -0.60 6  210 293 
 ZAR  HZ I        19 6 16.93         6.7 0.35                           210 293 
                                                                                
