 2011 1016 1224 56.2 L   6.784 -73.132138.2  RSN  4 0.2 1.6LRSN                1
 GAP=139        0.49       3.4     5.0  5.3 -0.2798E+00 -0.1788E+01  0.7368E+00E
 Epicentro: LOS SANTOS - SANTANDER                                             3
 ACTION:UPD 12-07-13 16:04 OP:ep   STATUS:               ID:20111016122456 L   I
 2011-10-16-1222-20S.COL___168                                                 6
 STAT SP IPHASW D HRMM SECON CODA AMPLIT PERI AZIMU VELO AIN AR TRES W  DIS CAZ7
 BAR2 SZ EP   1   1225 14.74                             171   -0.16 7 21.9 195 
 BAR2 SZ ES   1   1225 29.07                             171   -0.41 7 21.9 195 
 BAR2 SZ I        1225 31.06        10.4 0.16                          21.9 195 
 BRR  HZ EP   1   1225 16.53                             150   -0.15 7 73.3 299 
 BRR  HN ES   1   1225 32.89                             150    0.25 7 73.3 299 
 BRR  HZ I        1225 40.29        12.3 0.34                          73.3 299 
 PAM  SZ EP   1   1225 17.61                             149   -0.04 7 77.8  38 
 PAM  SZ I        1225 17.86         6.2 0.20                          77.8  38 
 PAM  SN ES   1   1225 34.54                             149    0.16 7 77.8  38 
 RUS  HZ EP   1   1225 19.23                             143    0.14 7 98.7 177 
 RUS  HN ES   1   1225 37.15                             143    0.21 7 98.7 177 
 RUS  HZ I        1225 39.05         4.5 0.39                          98.7 177 
                                                                                
