 2016  116 1749  1.4 L   6.824 -73.156138.5  RSN 20 0.5 2.5LRSN                1
 GAP= 70        1.11       3.0     3.0  5.7 -0.1748E+01  0.6722E+01  0.6969E+00E
 Epicentro: LOS SANTOS - SANTANDER                                             3
 ACTION:UPD 16-03-09 23:25 OP:cam  STATUS:               ID:20160116174901 L   I
 OLDACT:UP  16-01-16 22:50 OP:drio STATUS:               ID:20160116174217     3
 OLDACT:UP  16-01-16 22:49 OP:drio STATUS:               ID:20160116174217     3
 OLDACT:UP  16-01-16 22:49 OP:drio STATUS:               ID:20160116174217     3
 OLDACT:UP  16-01-16 22:48 OP:drio STATUS:               ID:20160116174217     3
 OLDACT:REG 16-01-16 20:13 OP:drio STATUS:               ID:20160116174217     3
 2016-01-16-174800_840.mseed                                                   6
 STAT SP IPHASW D HRMM SECON CODA AMPLIT PERI AZIMU VELO AIN AR TRES W  DIS CAZ7
 BAR2 EZ EP       1749 20.26                             169    0.0610 25.8 187 
 BAR2 EZ ES       1749 35.01                             169    0.1310 25.8 187 
 BAR2 EZ I        1749 37.13        45.8 0.22            167           25.8 187 
 PAM  EZ EP       1749 22.90                             150    0.1510 76.0  41 
 PAM  EE ES       1749 39.89                             150    0.4710 76.0  41 
 PAM  EZ I        1749 41.96        87.1 0.56            154           76.0  41 
 RUS  HZ EP       1749 24.27                             141   -0.3710  103 176 
 RUS  HN ES       1749 42.36                             141   -0.4210  103 176 
 RUS  HZ I        1749 43.73        26.9 0.36            142            103 176 
 PTB  HZ EP       1749 26.74                             130   -0.98 9  147 258 
 PTB  HN ES       1749 47.83                             130   -0.44 9  147 258 
 PTB  HZ I        1749 50.09        37.5 0.16            130            147 258 
 TAM  HZ EP       1749 28.28                             128   -0.39 9  157 106 
 TAM  HE ES       1749 50.30                             128    0.35 9  157 106 
 SPBC HE ES       1749 51.48                             127    0.09 9  165 218 
 SPBC HZ I        1749 56.77        52.2 0.12            127            165 218 
 ZAR  HZ EP       1749 33.34                             121    0.18 9  202 292 
 ZAR  HN ES       1749 58.78                             121    0.84 9  202 292 
 ZAR  HZ I        1750  4.93        51.8 0.38            122            202 292 
 NOR  HZ EP       1749 36.54                             117   -0.24 8  235 234 
 NOR  HN ES       1750  3.87                             117   -0.52 8  235 234 
 NOR  HZ I        1750  5.42        43.9 0.18            117            235 234 
 SML  HZ EP       1749 36.51                             116   -0.79 8  241 335 
 SML  HN ES       1750  5.02                             116   -0.28 8  241 335 
 SML  HZ I        1750 10.99        52.3 0.28            118            241 335 
 CHI  HZ EP   4   1749 37.83                             115   -1.12 0  251 195 
 CHI  HN ES   4   1750  7.41                             115   -0.84 0  251 195 
 CHI  HZ I        1750 15.07        15.6 0.28            116            251 195 
 ROSC BZ EP       1749 40.21                             115    0.89 8  255 211 
 ROSC BE ES       1750  8.65                             115   -0.25 8  255 211 
 ROSC BZ I        1750 16.89        25.4 0.30            116            255 211 
 HEL  HZ EP       1749 41.89                             113    0.69 8  272 255 
 HEL  HN ES       1750 12.16                             113   -0.09 8  272 255 
 HEL  HZ I        1750 18.59        15.1 0.32            114            272 255 
 URE  HZ EP   4   1749 37.96                             112   -3.93 0  282 291 
 URE  HE ES   4   1750 10.38                             112   -3.09 0  282 291 
 SOCV BZ EP   4   1749 42.17                             111   -1.88 0  301  57 
 SOCV BN ES   4   1750 13.50                             111   -3.82 0  301  57 
 GUY2CHZ EP       1749 45.37                             111    0.62 7  302 234 
 GUY2CHN ES       1750 18.23                             111   -0.34 7  302 234 
 GUY2CHZ I        1750 24.59        17.9 0.38                           302 234 
 ELA  HZ EP   4   1749 49.88                             109    1.83 0  330 229 
 ELA  HN ES       1750 24.56                             109    0.12 7  330 229 
 ELA  HZ I        1750 32.27        12.5 0.28            110            330 229 
 CBOC HZ EP       1749 48.33                             108    0.34 7  333 252 
 CBOC HE ES       1750 24.12                             108   -0.21 7  333 252 
 CBOC HZ I        1750 28.67         5.1 0.18            109            333 252 
 MON  HZ EP   4   1749 55.17                             107    5.35 0  351 308 
 MON  HE ES   4   1750 26.10                             107   -1.50 0  351 308 
 MON  HZ I        1750 26.74         8.8 0.20            108            351 308 
 ANIL HN ES       1750 31.15                             107    1.35 6  359 224 
 ANIL HZ I        1750 36.07        33.5 0.40            108            359 224 
 PRA  HZ EP       1749 54.65                             105   -0.23 6  394 209 
 PRA  HN ES       1750 36.56                             105   -0.04 6  394 209 
 PRA  HZ I        1750 41.25        15.0 0.44            106            394 209 
 ORTC HZ EP       1749 55.17                             105   -0.08 6  397 216 
 ORTC HN ES       1750 37.84                             105    0.58 6  397 216 
 ORTC HZ I        1750 43.97         8.0 0.44            106            397 216 
 SJC  HZ EP   4   1749 54.54                             105   -1.84 0  406 327 
 SJC  HE ES   4   1750 35.56                             105   -3.71 0  406 327 
 SJC  HZ I        1750 40.95         6.9 0.32            106            406 327 
 CRJC HZ EP   4   1750  0.39                             102   -2.99 0  465   4 
 CRJC HN ES   4   1750 50.17                             102   -1.56 0  465   4 
                                                                                
