 2017  816 1640 48.9 L   6.802 -73.125149.6  RSN 10 0.5 2.0LRSN                1
 GAP=121        1.09       3.1     4.3  5.7  0.1408E+00  0.3988E+01  0.2217E+01E
 Epicentro: LOS SANTOS - SANTANDER                                             3
 ACTION:UPD 17-09-04 20:21 OP:rebc STATUS:               ID:20170816164048 L   I
 OLDACT:REG 17-08-16 20:30 OP:lv   STATUS:               ID:20170816163737     3
 2017-08-16-1638-00M.COL___398                                                 6
 STAT SP IPHASW D HRMM SECON CODA AMPLIT PERI AZIMU VELO AIN AR TRES W  DIS CAZ7
 BAR2 EZ EP       1641  9.26                             170    0.3010 24.1 195 
 BAR2 EZ ES       1641 24.48                             170   -0.1610 24.1 195 
 BAR2 EZ I        1641 25.90        37.3 0.16            169           24.1 195 
 BRR  HZ EP       1641 10.52                             153   -0.0010 73.1 298 
 BRR  HE ES       1641 27.92                             153    0.5010 73.1 298 
 PAM  EZ EP       1641 12.15                             152    0.7710 75.8  38 
 PAM  EN ES       1641 28.62                             152   -0.3410 75.8  38 
 PAM  EZ I        1641 31.41        23.3 0.56            155           75.8  38 
 RUS  HZ EP       1641 13.42                             144    0.4310  101 177 
 RUS  HN ES       1641 31.49                             144   -0.3310  101 177 
 RUS  HZ I        1641 33.02         8.7 0.19            145            101 177 
 ZAR  HZ EP       1641 21.80                             123    0.05 8  206 292 
 ZAR  HN ES       1641 47.28                             123   -0.14 8  206 292 
 ZAR  HZ I        1641 52.61        12.6 0.40            123            206 292 
 NOR  HZ EP       1641 25.53                             119    0.51 8  237 235 
 NOR  HN ES       1641 52.41                             119   -0.82 8  237 235 
 NOR  HZ I        1641 58.78         5.0 0.13            119            237 235 
 CHI  HZ EP       1641 27.49                             118    0.63 8  249 196 
 CHI  HE ES       1641 56.37                             118   -0.13 8  249 196 
 CHI  HZ I        1642  0.78         6.5 0.39            118            249 196 
 GUY2CHZ EP   4   1641 34.73                             113    1.86 0  303 235 
 GUY2CHN ES       1642  7.12                             113   -0.07 7  303 235 
 GUY2CHZ I        1642 15.52         5.8 0.34                           303 235 
 PTGC HZ EP       1641 32.47                             112   -0.35 7  308 159 
 PTGC HN ES       1642  6.56                             112   -0.55 7  308 159 
 LL6C HZ EP       1641 33.90                             111   -0.80 7  325 357 
 LL6C HN ES       1642  9.70                             111   -0.76 7  325 357 
 DBB  EN ES   4   1642 11.18                             110   -2.92 0  342 274 
 ANIL HN ES   4   1642 22.82                             109    4.69 0  359 225 
                                                                                
