 2013  616 1728 43.1 L   6.770 -73.139146.0  RSN  7 0.4 2.3LRSN                1
 GAP=186        0.93       5.0     4.8  6.4  0.6287E+01  0.6957E+01  0.9182E+00E
 Epicentro: LOS SANTOS - SANTANDER                                             3
 ACTION:UPD 14-01-08 09:55 OP:ep   STATUS:               ID:20130616172843 L   I
 OLDACT:DUP 13-06-16 19:06 OP:cam  STATUS:               ID:20130616171960d    3
 2013-06-16-1719-59M.COL___261                                                 6
 STAT SP IPHASW D HRMM SECON CODA AMPLIT PERI AZIMU VELO AIN AR TRES W  DIS CAZ7
 BAR2 SZ IP     D 1729  2.56                             172   -0.1510 20.2 194 
 BAR2 SZ I        1729  2.65        56.3 0.38            169           20.2 194 
 BAR2 SZ ES       1729 18.30                             172    0.3110 20.2 194 
 GIR2 SZ EP       1729  2.50                             166   -0.4010 34.7 350 
 BRR  HZ IP     C 1729  4.40                             152   -0.0110 73.5 301 
 BRR  HZ I        1729  4.65        51.3 0.24            150           73.5 301 
 BRR  HN ES       1729 21.15                             152    0.1210 73.5 301 
 RUS  HZ EP       1729  6.59                             145   -0.0510 97.2 176 
 RUS  HN ES       1729 25.12                             145    0.1310 97.2 176 
 RUS  HZ I        1729 26.94        16.7 0.34            145           97.2 176 
 PTB  HZ EP   1   1729  9.64                             132   -0.46 7  148 260 
 PTB  HN ES       1729 30.33                             132   -0.83 9  148 260 
 PTB  HZ I        1729 33.54        25.1 0.48            131            148 260 
 ZAR  HZ EP   1   1729 16.15                             122    0.38 6  206 293 
 ZAR  HN ES       1729 41.78                             122    0.53 8  206 293 
 ZAR  HZ I        1729 46.21        21.3 0.32            122            206 293 
 NOR  HZ EP       1729 19.27                             119    0.56 8  233 235 
 NOR  HN ES       1729 46.60                             119    0.13 8  233 235 
 NOR  HZ I        1729 49.50        10.6 0.26            118            233 235 
                                                                                
