 2011  416 1501  8.7 L   6.803 -73.031141.9  RSN  5 0.4 1.7LRSN                1
 GAP=204        0.97      10.9    13.9 13.0 -0.1801E+02 -0.6420E+02 -0.3280E+02E
 Epicentro: CEPITA - SANTANDER                                                 3
 ACTION:UP  11-06-22 15:31 OP:REBC STATUS:               ID:20110416150108 L   I
 2011-04-16-1455-44S.COL___140                                                 6
 STAT SP IPHASW D HRMM SECON CODA AMPLIT PERI AZIMU VELO SNR AR TRES W  DIS CAZ7
 BAR2 SZ EP   1   15 1 28.12                             168     0.1 7   29 216 
 BAR2 SZ ES   1   15 1 42.97                             168    -0.1 7   29 216 
 BAR2 SZ I        15 1 44.90        15.8 0.40                            29 216 
 BTL  SZ EP   1   15 1 28.57                             168     0.6 7   29 296 
 GIR2 SZ EP   1   15 1 27.27                             165    -0.8 7   35 330 
 BRR  HZ EP   1   15 1 29.74                             148    -0.4 7   82 294 
 BRR  HZ I        15 1 30.23        19.6 0.11                            82 294 
 BRR  HE ES   1   15 1 47.07                             148     0.2 7   82 294 
 GRA  SZ EP   1   15 1 33.77                             137     0.5 7  122  12 
 GRA  SZ ES   2   15 1 52.24                             137    -0.3 5  122  12 
 GRA  SZ I        15 1 59.45         3.3 0.27                           122  12 
                                                                                
