 2016  916 1200 43.8 L   6.576 -73.472118.1  RSN 10 0.4 1.9LRSN                1
 GAP= 70        0.99       3.7     3.7  6.9 -0.2696E+01  0.8869E+01  0.1106E+01E
 Epicentro: EL CARMEN - SANTANDER                                              3
 ACTION:UPD 17-08-17 21:13 OP:lp   STATUS:               ID:20160916120043 L   I
 OLDACT:UP  16-09-16 21:21 OP:dnl  STATUS:               ID:20160916115729     3
 OLDACT:REG 16-09-16 19:52 OP:lv   STATUS:               ID:20160916115729     3
 2016-09-16-1158-00M.COL___351                                                 6
 STAT SP IPHASW D HRMM SECON CODA AMPLIT PERI AZIMU VELO AIN AR TRES W  DIS CAZ7
 BAR2 EZ EP       12 1  0.38                             164    0.0110 32.0  87 
 BAR2 EZ ES       12 1 13.07                             164   -0.2210 32.0  87 
 BAR2 EZ I        12 1 15.02        33.3 0.28            170           32.0  87 
 BRR  HZ EP     C 12 1  1.84                             149    0.2410 64.4 336 
 BRR  HE ES       12 1 15.99                             149    0.5110 64.4 336 
 BRR  HZ I        12 1 16.93        21.5 0.16            150           64.4 336 
 RUS  HZ EP       12 1  3.70                             142   -0.1610 87.0 150 
 RUS  HN ES       12 1 19.70                             142    0.1910 87.0 150 
 RUS  HZ I        12 1 20.65        17.3 0.26            145           87.0 150 
 PTB  HZ EP       12 1  4.19                             134   -0.8210  109 268 
 PTB  HN ES       12 1 20.97                             134   -0.5810  109 268 
 PTB  HZ I        12 1 24.79        22.0 0.16            134            109 268 
 PAM  EZ EP   3   12 1  7.14                             132    0.50 2  120  45 
 PAM  EN ES       12 1 24.25                             132   -0.2010  120  45 
 PAM  EZ I        12 1 26.42         7.0 0.24            136            120  45 
 SPBC HZ EP       12 1  6.32                             131    0.0510  122 213 
 SPBC HN ES       12 1 23.94                             131    0.1410  122 213 
 SPBC HZ I        12 1 30.17        20.6 0.18            132            122 213 
 ZAR  HZ EP       12 1 12.95                             118    0.56 9  184 304 
 ZAR  HN ES   4   12 1 36.45                             118    1.76 0  184 304 
 ZAR  HZ I        12 1 40.54        14.0 0.40            119            184 304 
 NOR  HZ EP   2   12 1 12.61                             117   -0.63 4  191 234 
 NOR  HN ES       12 1 36.84                             117    0.64 9  191 234 
 NOR  HZ I        12 1 41.52         9.8 0.12            118            191 234 
 HEL  HZ EP   4   12 1 19.49                             112    1.36 0  232 260 
 HEL  HE ES   2   12 1 44.78                             112   -0.13 4  232 260 
 HEL  HZ I        12 1 49.72         4.7 0.26            114            232 260 
 GUY2CHZ EP   9   12 1 22.91                             110    1.69 0  257 235 
 GUY2CHN ES   4   12 1 51.79                                   -0.31 0  257 235 
 GUY2CHZ I        12 1 59.46         4.1 0.50                           257 235 
                                                                                
