 2015  516 1723 16.0 L   6.749 -73.174140.1  RSN  5 0.4 2.0LRSN                1
 GAP=230        0.88       5.2     6.1  6.5  0.1593E+02  0.1791E+02  0.7238E+01E
 Epicentro: LOS SANTOS - SANTANDER                                             3
 ACTION:UPD 15-09-10 22:04 OP:cam  STATUS:               ID:20150516172316 L   I
 OLDACT:REG 15-05-16 20:46 OP:drio STATUS:               ID:20150516171748     3
 2015-05-16-1717-48M.COL___273                                                 6
 STAT SP IPHASW D HRMM SECON CODA AMPLIT PERI AZIMU VELO AIN AR TRES W  DIS CAZ7
 BAR2 EZ EP       1723 34.59                             173   -0.2610 17.4 183 
 BAR2 EZ ES       1723 49.04                             173   -0.5010 17.4 183 
 BAR2 EZ I        1723 50.89        24.0 0.40            171           17.4 183 
 BRR  HZ EP       1723 36.61                             151    0.0610 71.4 304 
 BRR  HN ES       1723 52.95                             151    0.3710 71.4 304 
 BRR  HZ I        1723 54.60        18.9 0.18            150           71.4 304 
 RUS  HZ EP       1723 38.64                             144   -0.1810 95.3 174 
 RUS  HE ES       1723 57.13                             144    0.5210 95.3 174 
 RUS  HZ I        1723 58.07        12.3 0.34            146           95.3 174 
 ZAR  HZ EP       1723 48.54                             121    0.53 9  203 294 
 ZAR  HE ES       1724 12.63                             121   -0.35 9  203 294 
 ZAR  HZ I        1724 19.41        13.7 0.52            122            203 294 
 GUY2CHZ EP       1723 58.57                             112   -0.13 7  295 235 
 GUY2CHE ES       1724 31.86                             112   -0.14 7  295 235 
 GUY2CHZ I        1724 40.75         3.7 0.30                           295 235 
                                                                                
