 2010  716 1045 58.3 L   6.776 -73.119139.7  RSN  7 0.5 1.8LRSN                1
 GAP=162        1.34       7.5    11.4 12.2  0.6187E+01 -0.4389E+02 -0.3564E+02E
 Epicentro: LOS SANTOS - SANTANDER                                             3
 ACTION:UPD 10-12-01 15:18 OP:pat  STATUS:               ID:20100716104558 L   I
 2010-07-16-1040-36S.COL___120                                                 6
 STAT SP IPHASW D HRMM SECON CODA AMPLIT PERI AZIMU VELO AIN AR TRES W  DIS CAZ7
 BAR2 SZ EP       1046 16.81                             171    -0.310   22 199 
 BAR2 SZ ES   1   1046 31.67                             171    -0.2 7   22 199 
 BAR2 SZ I        1046 32.54        23.2 0.32                            22 199 
 BRR  HZ EP       1046 18.65                             150    -0.310   75 299 
 BRR  HZ I        1046 19.16        24.3 0.15                            75 299 
 BRR  HN ES       1046 35.48                             150     0.310   75 299 
 RUS  HZ EP   1   1046 21.40                             143     0.2 7   98 178 
 RUS  HN ES   1   1046 39.12                             143     0.0 7   98 178 
 RUS  HZ I        1046 40.23         6.2 0.05                            98 178 
 GUE  SZ EP       1046 23.19                             137     0.610  118  10 
 GUE  SZ I        1046 43.19         3.6 0.37                           118  10 
 GRA  SZ EP       1046 23.74                             135     0.610  127  16 
 GRA  SZ ES   2   1046 41.62                             135    -0.9 5  127  16 
 GRA  SZ I        1046 45.26        11.5 0.14                           127  16 
 OCA  SZ EP       1046 25.67                             128    -0.7 9  163 352 
 OCA  SZ I        1046 50.22         9.0 1.02                           163 352 
 HEL  HN ES   2   1047  9.83                             113     0.1 4  274 256 
 HEL  HZ I        1047 18.65         3.6 0.74                           274 256 
                                                                                
