 2014  216 1619 24.3 L   6.815 -73.171136.8  RSN 11 0.5 2.2LRSN                1
 GAP=133        0.99       3.4     3.9  5.9 -0.3537E+01  0.1013E+02 -0.2093E+01E
 Epicentro: LOS SANTOS - SANTANDER                                             3
 ACTION:UPD 14-03-10 08:10 OP:ep   STATUS:               ID:20140216161924 L   I
 OLDACT:REG 14-02-16 19:26 OP:mh   STATUS:               ID:20140216161847     3
 2014-02-16-1618-47M.COL___221                                                 6
 STAT SP IPHASW D HRMM SECON CODA AMPLIT PERI AZIMU VELO AIN AR TRES W  DIS CAZ7
 BAR2 SZ EP       1619 42.97                             169    0.1410 24.7 183 
 BAR2 SZ ES       1619 57.09                             169   -0.2310 24.7 183 
 BAR2 SZ I        1620  0.10        60.9 0.29            169           24.7 183 
 BRR  HZ EP   1   1619 44.88                             152    0.63 7 67.9 298 
 BRR  HN ES   1   1620  0.29                             152    0.45 7 67.9 298 
 BRR  HZ I        1620  3.50        40.1 0.20            151           67.9 298 
 PAM  SZ EP     C 1619 45.79                             149    0.2410 77.9  42 
 PAM  SN ES       1620  2.47                             149    0.3010 77.9  42 
 PAM  SZ I        1620  5.16        25.3 0.33            154           77.9  42 
 RUS  HZ EP   1   1619 46.95                             141   -0.33 7  102 175 
 RUS  HN ES       1620  5.14                             141   -0.0910  102 175 
 RUS  HZ I        1620  7.13        17.6 0.28            145            102 175 
 PTB  HZ EP       1619 49.48                             130   -0.80 9  145 258 
 PTB  HN ES       1620 10.26                             130   -0.32 9  145 258 
 PTB  HZ I        1620 13.44        21.3 0.16            131            145 258 
 OCA  HZ EP       1619 51.32                             128   -0.37 9  158 354 
 OCA  HN ES       1620 12.73                             128   -0.36 9  158 354 
 SPBC HZ EP   1   1619 51.72                             127   -0.32 7  163 218 
 SPBC HN ES   2   1620 13.20                             127   -0.51 5  163 218 
 SPBC HZ I        1620 18.53        20.1 0.24            129            163 218 
 ZAR  HZ EP       1619 56.25                             121    0.46 9  201 292 
 ZAR  HN ES   1   1620 20.43                             121    0.04 6  201 292 
 ZAR  HZ I        1620 27.86        19.2 0.31            123            201 292 
 NOR  HZ EP       1619 59.13                             117   -0.21 8  233 234 
 NOR  HN ES       1620 27.74                             117    1.04 8  233 234 
 NOR  HZ I        1620 29.75        11.5 0.19            119            233 234 
 HEL  HZ EP       1620  4.33                             113    0.56 8  270 255 
 HEL  HN ES       1620 34.31                             113   -0.27 8  270 255 
 HEL  HZ I        1620 42.39         5.9 0.32            115            270 255 
 URE  HZ EP   2   1620  5.18                             112    0.64 4  281 292 
 URE  HN ES   2   1620 35.28                             112   -0.67 4  281 292 
 DBB  SZ EP   4   1620 10.82                             108   -0.22 0  337 274 
                                                                                
