 2016 1016 1421 49.4 L   6.604 -73.862 74.6  RSN 10 0.5 1.8LRSN                1
 GAP=113        1.29       3.9     3.2  9.9 -0.5189E+01  0.6824E+01 -0.6940E+01E
 Epicentro: PUERTO PARRA - SANTANDER                                           3
 ACTION:UPD 16-11-09 19:20 OP:rebc STATUS:               ID:20161016142149 L   I
 OLDACT:DUP 16-10-16 22:59 OP:dnl  STATUS:               ID:20161016141736d    3
 2016-10-16-1418-00M.COL___377                                                 6
 STAT SP IPHASW D HRMM SECON CODA AMPLIT PERI AZIMU VELO AIN AR TRES W  DIS CAZ7
 BRR  HZ EP       1422  2.98                             138    0.6110 58.0  17 
 BRR  HN ES   4   1422 14.20                             138    1.69 0 58.0  17 
 BRR  HZ I        1422 15.50        20.5 0.14             61           58.0  17 
 PTB  HZ EP       1422  2.52                             134   -0.5710 66.1 264 
 PTB  HN ES       1422 13.52                             134   -0.2610 66.1 264 
 PTB  HZ I        1422 14.21        39.0 0.22             61           66.1 264 
 BAR2 EZ EP       1422  4.50                             130    0.2910 75.2  91 
 BAR2 EZ ES       1422 16.58                             130    0.8010 75.2  91 
 BAR2 EZ I        1422 18.27        34.3 0.32             61           75.2  91 
 SPBC HZ EP   2   1422  6.74                             119   -0.60 5  108 192 
 SPBC HN ES       1422 21.37                             119    0.0210  108 192 
 SPBC HZ I        1422 22.86        16.4 0.28             61            108 192 
 RUS  HZ EP   2   1422  8.19                             117   -0.63 5  117 132 
 RUS  HN ES       1422 23.15                             117   -0.8310  117 132 
 RUS  HZ I        1422 25.27         9.0 0.28             61            117 132 
 PAM  EZ EP       1422 13.21                             110    0.40 9  152  58 
 PAM  EN ES       1422 30.48                             110   -0.60 9  152  58 
 PAM  EZ I        1422 32.82        10.0 0.20             61            152  58 
 NOR  HZ EP       1422 13.31                             109    0.09 9  160 224 
 NOR  HN ES       1422 32.59                             109    0.77 9  160 224 
 NOR  HZ I        1422 33.66        12.4 0.14             61            160 224 
 HEL  HZ EP       1422 17.58                             106    0.46 9  190 256 
 HEL  HE ES       1422 38.12                             106   -0.64 9  190 256 
 HEL  HZ I        1422 42.40         6.8 0.20             61            190 256 
 OCA  HZ EP   2   1422 17.68                             105    0.78 4  190  18 
 OCA  HN ES       1422 37.90                             105   -0.48 9  190  18 
 OCA  HZ I        1422 46.28        15.4 0.46             61            190  18 
 GUY2CHZ EP       1422 21.51                             103   -0.03 8  226 228 
 GUY2CHE ES   4   1422 42.51                             103   -4.11 0  226 228 
 GUY2CHZ I        1422 52.54         3.1 0.32                           226 228 
                                                                                
