 2016 1116 1123 20.8 L   6.595 -73.533110.6  RSN 20 0.6 2.7LRSN                1
 GAP= 91        1.40       3.8     3.4  6.7 -0.2969E+01  0.4566E+01  0.6564E+01E
 Epicentro: EL CARMEN - SANTANDER                                              3
 ACTION:UPD 17-10-26 21:08 OP:lp   STATUS:               ID:20161116112320 L   I
 OLDACT:UP  16-11-16 21:41 OP:ar   STATUS:               ID:20161116111745     3
 OLDACT:UP  16-11-16 21:40 OP:ar   STATUS:               ID:20161116111745     3
 OLDACT:REG 16-11-16 20:29 OP:ar   STATUS:               ID:20161116111745     3
 2016-11-16-1118-00M.COL___326                                                 6
 STAT SP IPHASW D HRMM SECON CODA AMPLIT PERI AZIMU VELO AIN AR TRES W  DIS CAZ7
 BAR2 EZ IP     C 1123 37.14                             159    0.3610 38.8  90 
 BAR2 EZ ES       1123 49.53                             159    0.3010 38.8  90 
 BRR  HZ EP       1123 37.94                             149    0.3910 60.0 341 
 BRR  HN ES       1123 51.49                             149    0.8910 60.0 341 
 BRR  HZ I        1123 52.57        84.7 0.14            152           60.0 341 
 PTB  HZ EP       1123 39.98                             134   -0.8210  102 267 
 PTB  HE ES       1123 55.52                             134   -0.8710  102 267 
 PTB  HZ I        1123 56.28       197.6 0.18            133            102 267 
 PAM  EZ EP       1123 43.48                             128    0.0810  124  48 
 PAM  EN ES       1124  1.14                             128    0.1410  124  48 
 PAM  EZ I        1124  2.57        56.7 0.40            131            124  48 
 ZAR  HZ EP       1123 48.91                             117    0.66 9  177 304 
 ZAR  HN ES   4   1124 11.62                             117    1.98 0  177 304 
 ZAR  HZ I        1124 13.33       179.5 0.56            118            177 304 
 NOR  HZ EP       1123 48.90                             116   -0.49 9  187 232 
 NOR  HN ES       1124 10.64                             116   -1.04 9  187 232 
 NOR  HZ I        1124 13.87        86.3 0.16            115            187 232 
 TAM  HZ EP       1123 50.01                             115   -0.10 9  193  95 
 TAM  HN ES       1124 12.34                             115   -0.62 9  193  95 
 TAM  HZ I        1124 17.95        27.1 0.18            115            193  95 
 ROSC BZ EP       1123 53.57                             113    0.86 8  213 204 
 ROSC BN ES   4   1124 19.69                             113    2.10 0  213 204 
 ROSC BZ I        1124 23.82        55.5 0.65            112            213 204 
 CHI  HZ EP       1123 53.10                             112   -0.28 8  218 186 
 CHI  HN ES       1124 18.19                             112   -0.59 8  218 186 
 CHI  HZ I        1124 28.44        19.0 0.34            111            218 186 
 URE  HZ EP       1123 56.58                             108   -0.52 8  255 300 
 URE  HN ES       1124 25.03                             108   -0.37 8  255 300 
 URE  HZ I        1124 27.83        56.4 0.16            108            255 300 
 ELA  HZ EP   4   1124  3.74                             106    2.86 0  282 227 
 ELA  HN ES       1124 32.53                             106    0.41 7  282 227 
 ELA  HZ I        1124 44.54        34.3 0.70            106            282 227 
 CBOC HZ EP       1124  1.62                             106    0.73 7  286 254 
 CBOC HN ES       1124 33.06                             106    0.91 7  286 254 
 CBOC HZ I        1124 40.02        16.7 0.48            105            286 254 
 PTGC HZ EP   4   1124  1.53                             104   -1.63 0  307 150 
 PTGC HN ES   4   1124 33.58                             104   -2.60 0  307 150 
 PTGC HZ I        1124 35.42        25.3 0.40            104            307 150 
 ANIL HZ EP       1124  5.74                             104    1.68 7  312 222 
 ANIL HE ES   4   1124 37.70                             104   -0.08 0  312 222 
 ANIL HZ I        1124 47.08        71.9 0.32            104            312 222 
 PRA  HZ EP       1124  8.55                             102   -0.03 6  352 205 
 PRA  HN ES       1124 45.84                             102    0.01 6  352 205 
 PRA  HZ I        1124 50.43        34.2 0.34            101            352 205 
 ORTC HZ EP       1124  8.55                             102   -0.07 6  353 213 
 ORTC HN ES   4   1124 47.99                             102    2.09 0  353 213 
 ORTC HZ I        1124 51.83        18.3 0.46            101            353 213 
 PAL  HZ EP       1124  9.38                             101    0.15 6  357 239 
 PAL  HN ES       1124 46.66                             101   -0.33 6  357 239 
 PAL  HZ I        1124 50.85        24.1 0.32            101            357 239 
 SJC  HZ EP       1124 14.39                              99   -0.88 6  408 334 
 SJC  HE ES   4   1124 55.28                              99   -2.46 0  408 334 
 SJC  HZ I        1124 58.94         9.3 0.46             99            408 334 
 CRJC HZ EP       1124 25.28                              96   -0.54 4  495   8 
 CRJC HE ES       1125 16.14                              96   -0.38 4  495   8 
 CRJC HZ I        1125 21.25        16.9 0.24             96            495   8 
 URI  HZ EP       1124 36.18                              94   -1.06 3  590  17 
                                                                                
