 2015  316 1803 17.7 L   6.814 -73.161144.1  RSN  4 0.1 1.8LRSN                1
 GAP=177        0.44       4.4     3.7  4.6 -0.1212E+02  0.2042E+00  0.5767E+01E
 Epicentro: LOS SANTOS - SANTANDER                                             3
 ACTION:UPD 15-04-30 16:26 OP:nd   STATUS:               ID:20150316180317 L   I
 OLDACT:DUP 15-03-17 00:29 OP:cam  STATUS:               ID:20150316175749d    3
 2015-03-16-1757-48M.COL___269                                                 6
 STAT SP IPHASW D HRMM SECON CODA AMPLIT PERI AZIMU VELO AIN AR TRES W  DIS CAZ7
 PAM  SZ EP       18 3 39.84                             151    0.0710 77.3  41 
 PAM  SN ES       18 3 56.92                             151   -0.0410 77.3  41 
 PAM  SZ I        18 3 57.13         7.4 0.20            158           77.3  41 
 PTB  HZ EP       18 3 44.17                             132   -0.28 9  146 258 
 PTB  HN ES       18 4  5.43                             132    0.15 9  146 258 
 PTB  HZ I        18 4  7.71         8.3 0.28            135            146 258 
 SPBC HZ EP       18 3 46.31                             129    0.19 9  163 218 
 SPBC HN ES       18 4  8.15                             129   -0.11 9  163 218 
 SPBC HZ I        18 4 16.62         9.1 0.26            129            163 218 
 GUY2CHZ EP       18 4  1.23                             112    0.02 7  301 234 
 GUY2CHZ I        18 4 45.89         4.4 0.52                           301 234 
                                                                                
