 2013  516 1259 46.9 L   6.492 -73.583108.5  RSN  7 0.4 1.7LRSN                1
 GAP=133        0.81       3.8     3.9  7.1  0.1258E+01  0.3929E+01 -0.4905E+01E
 Epicentro: SANTA HELENA DEL OPON - SANTANDER                                  3
 ACTION:UPD 13-06-20 09:50 OP:ep   STATUS:               ID:20130516125946 L   I
 2013-05-16-1257-50M.COL___224                                                 6
 STAT SP IPHASW D HRMM SECON CODA AMPLIT PERI AZIMU VELO AIN AR TRES W  DIS CAZ7
 BAR2 SZ EP       13 0  3.17                             156    0.2110 45.7  76 
 BAR2 SZ ES   1   13 0 15.36                             156   -0.12 7 45.7  76 
 BAR2 SZ I        13 0 16.79        74.0 0.48            164           45.7  76 
 BRR  HZ EP       13 0  4.09                             145    0.0210 69.5 348 
 BRR  HN ES   1   13 0 18.07                             145    0.63 7 69.5 348 
 BRR  HZ I        13 0 23.54        12.4 0.42            149           69.5 348 
 GIR2 SZ EP       13 0  4.78                             142   -0.1010 77.9  34 
 GIR2 SZ ES   1   13 0 18.79                             142   -0.10 7 77.9  34 
 GIR2 SZ I        13 0 19.28        16.1 0.62            149           77.9  34 
 RUS  HZ EP   1   13 0  6.18                             139    0.15 7 86.3 140 
 RUS  HE ES   1   13 0 21.34                             139    0.41 7 86.3 140 
 RUS  HZ I        13 0 23.35         6.5 0.26            147           86.3 140 
 PTB  HZ EP   1   13 0  5.94                             135   -0.30 7 96.7 273 
 PTB  HN ES   1   13 0 20.76                             135   -0.54 7 96.7 273 
 PTB  HZ I        13 0 25.61        13.1 0.16            138           96.7 273 
 PAM  SZ EP   1   13 0 10.40                             125   -0.10 7  135  46 
 PAM  SE ES   1   13 0 28.04                             125   -0.85 7  135  46 
 PAM  SZ I        13 0 29.16         4.8 0.16            133            135  46 
 SML  HN ES       13 0 52.98                             107    0.47 8  261 348 
                                                                                
