 2010  316 1047  2.9 L   6.753 -73.096152.0  RSN  6 0.2 1.9LRSN                1
 GAP=188        0.45       2.6     7.0  4.5  0.2316E+01 -0.2501E+00  0.1436E+01E
 Epicentro: LOS SANTOS - SANTANDER                                             3
 ACTION:UP  10-08-24 09:54 OP:vdl  STATUS:               ID:20100316104702 L   I
 2010-03-16-1044-31S.COL___096                                                 6
 STAT SP IPHASW D HRMM SECON CODA AMPLIT PERI AZIMU VELO SNR AR TRES W  DIS CAZ7
 BAR2 SZ IP       1047 23.06                             172    -0.210   20 208 
 BAR2 SZ ES   1   1047 39.05                             172     0.0 7   20 208 
 BRR  HZ EP       1047 24.97                             151    -0.210   79 300 
 BRR  HZ I        1047 25.23        26.7 0.11                            79 300 
 BRR  HE ES   1   1047 42.51                             151     0.0 7   79 300 
 RUS  HZ EP   2   1047 27.28                             147     0.4 5   95 179 
 RUS  HE ES   2   1047 45.80                             147     0.2 5   95 179 
 RUS  HZ I        1047 46.90         3.6 0.23                            95 179 
 OCA  SZ EP   2   1047 32.13                             130    -0.1 5  166 351 
 OCA  SZ ES   1   1047 55.44                             130     0.3 7  166 351 
 OCA  SZ I        1047 59.26        24.5 0.28                           166 351 
 CHI  HZ EP   2   1047 40.25                             119    -0.3 4  245 197 
 CHI  HZ I        1047 43.74         2.6 0.35                           245 197 
 CHI  HE ES   2   1048 10.15                             119     0.2 4  245 197 
 PRA  HZ EP   2   1047 56.83                             108     0.4 3  390 211 
 PRA  HE ES   2   1048 38.50                             108     0.3 3  390 211 
 PRA  HZ I        1048 43.48         2.2 0.44                           390 211 
                                                                                
