 2013  116 1938  2.2 L   6.828 -73.164140.7  RSN  4 0.3 1.3LRSN                1
 GAP=145        0.62       4.1     4.8  7.9 -0.5031E+01  0.9135E+01  0.7308E+01E
 Epicentro: LOS SANTOS - SANTANDER                                             3
 ACTION:UPD 13-02-15 09:14 OP:ep   STATUS:               ID:20130116193802 L   I
 2013-01-16-1930-00M.COL___241                                                 6
 STAT SP IPHASW D HRMM SECON CODA AMPLIT PERI AZIMU VELO AIN AR TRES W  DIS CAZ7
 PAM  SZ EP   1   1938 24.42                             150    0.59 7 76.3  42 
 PAM  SN ES   1   1938 40.27                             150   -0.42 7 76.3  42 
 RUS  HZ EP   1   1938 25.57                             142   -0.15 7  104 175 
 RUS  HN ES   1   1938 44.28                             142    0.23 7  104 175 
 RUS  HZ I        1938 45.18         2.2 0.20            141            104 175 
 PTB  HZ EP   1   1938 28.44                             131   -0.21 7  146 257 
 PTB  HN ES   1   1938 49.41                             131    0.14 7  146 257 
 PTB  HZ I        1938 51.26         3.6 0.38            131            146 257 
 CHI  HZ EP   1   1938 39.72                             116   -0.19 6  251 195 
 CHI  HN ES   1   1939  9.20                             116   -0.12 6  251 195 
 CHI  HZ I        1939 12.24         1.5 0.50            116            251 195 
                                                                                
