 2012 1216 1533  2.2 L   6.823 -73.166142.5  RSN  8 0.5 2.1LRSN                1
 GAP=133        1.18       4.7     4.8  7.9 -0.1573E-01  0.8059E+01  0.9645E+01E
 Epicentro: LOS SANTOS - SANTANDER                                             3
 ACTION:UPD 13-01-04 14:28 OP:ep   STATUS:               ID:20121216153302 L   I
 2012-12-16-1530-00M.COL___239                                                 6
 STAT SP IPHASW D HRMM SECON CODA AMPLIT PERI AZIMU VELO AIN AR TRES W  DIS CAZ7
 BAR2 SZ EP       1533 21.15                             169   -0.3310 25.5 184 
 BAR2 SZ ES       1533 35.60                             169   -0.9210 25.5 184 
 BAR2 SZ I        1533 37.15        16.8 0.36                          25.5 184 
 BRR  HZ EP       1533 23.02                             153    0.2110 68.1 298 
 BRR  HN ES       1533 39.60                             153    0.7110 68.1 298 
 BRR  HN I        1533 40.83        30.6 0.18                          68.1 298 
 PAM  SZ EP       1533 24.26                             150    0.2310 76.9  42 
 PAM  SN ES       1533 41.20                             150    0.1310 76.9  42 
 PAM  SN I        1533 42.40        16.2 0.68                          76.9  42 
 RUS  HZ EP       1533 25.82                             142    0.0010  103 175 
 RUS  HN ES       1533 44.60                             142    0.3510  103 175 
 RUS  HN I        1533 45.55        11.9 0.36                           103 175 
 PTB  HZ EP       1533 28.14                             132   -0.60 9  146 258 
 PTB  HN ES       1533 48.98                             132   -0.47 9  146 258 
 PTB  HN I        1533 54.26        15.4 0.46                           146 258 
 ZAR  HE ES       1533 59.19                             122    0.18 9  201 292 
 ZAR  HE I        1534  4.65        18.7 0.16                           201 292 
 NOR  HN ES       1534  5.62                             118    0.23 8  234 234 
 NOR  HN I        1534 12.47        11.7 0.14                           234 234 
 CHI  HZ EP       1533 39.60                             116   -0.31 8  250 195 
 CHI  HN ES       1534 10.11                             116    0.78 8  250 195 
 CHI  HN I        1534 11.24         6.2 0.28                           250 195 
                                                                                
