 2013  116 1637  8.1 L   6.797 -73.189146.1  RSN  7 0.5 1.9LRSN                1
 GAP=233        0.92       5.5     6.3  7.6  0.1354E+02  0.1012E+02  0.6721E+01E
 Epicentro: ZAPATOCA - SANTANDER                                               3
 ACTION:UPD 13-02-15 09:14 OP:ep   STATUS:               ID:20130116163708 L   I
 2013-01-16-1630-00M.COL___241                                                 6
 STAT SP IPHASW D HRMM SECON CODA AMPLIT PERI AZIMU VELO AIN AR TRES W  DIS CAZ7
 BAR2 SZ EP   1   1637 27.74                             171   -0.07 7 22.7 178 
 BAR2 SZ ES   1   1637 43.37                             171    0.23 7 22.7 178 
 BAR2 SZ I        1637 44.40        30.2 0.38            163           22.7 178 
 BRR  HZ EP     C 1637 29.53                             154    0.4210 67.2 301 
 BRR  HN ES   1   1637 45.78                             154    0.31 7 67.2 301 
 BRR  HZ I        1637 49.97        27.8 0.42            148           67.2 301 
 RUS  HZ EP       1637 31.55                             144   -0.3910  101 173 
 RUS  HN ES   1   1637 49.94                             144   -0.56 7  101 173 
 RUS  HZ I        1637 51.52         7.6 0.26            144            101 173 
 PTB  HZ EP       1637 34.47                             133   -0.25 9  143 259 
 PTB  HN ES   1   1637 55.64                             133    0.20 7  143 259 
 PTB  HZ I        1638  2.98        15.5 0.28            130            143 259 
 ZAR  HZ EP   1   1637 40.80                             123    0.63 6  200 293 
 ZAR  HE ES   1   1638  4.17                             123   -0.98 6  200 293 
 ZAR  HZ I        1638 12.76        11.1 0.40            122            200 293 
 NOR  HZ EP   2   1637 43.26                             119   -0.20 4  231 234 
 NOR  HN ES   1   1638 10.80                             119   -0.21 6  231 234 
 NOR  HZ I        1638 16.91         6.6 0.18            118            231 234 
 CHI  HZ EP   1   1637 45.87                             117    0.17 6  247 194 
 CHI  HE ES   1   1638 15.97                             117    0.98 6  247 194 
 CHI  HZ I        1638 20.55         2.0 0.24            118            247 194 
                                                                                
