 2010  916 1718 20.3 L   6.810 -73.079141.6  RSN  5 0.3 1.8LRSN                1
 GAP=166        0.56       5.0    10.5  9.7  0.1241E+02 -0.5171E+02 -0.2179E+02E
 Epicentro: LOS SANTOS - SANTANDER                                             3
 ACTION:UP  11-02-18 11:03 OP:tino STATUS:               ID:20100916171820 L   I
 2010-09-16-1715-33S.COL___118                                                 6
 STAT SP IPHASW D HRMM SECON CODA AMPLIT PERI AZIMU VELO SNR AR TRES W  DIS CAZ7
 BAR2 SZ EP   1   1718 39.47                             169     0.0 7   27 206 
 BAR2 SZ ES   2   1718 53.99                             169    -0.5 5   27 206 
 BAR2 SZ I        1718 55.68        14.0 0.43                            27 206 
 BRR  HZ EP   1   1718 41.20                             150    -0.1 7   77 295 
 BRR  HN ES   2   1718 58.01                             150     0.2 5   77 295 
 BRR  HZ I        1719  1.12        21.5 0.32                            77 295 
 RUS  HZ EP   1   1718 43.51                             143    -0.2 7  101 180 
 RUS  HZ I        1718 44.20         5.7 0.34                           101 180 
 RUS  HE ES   2   1719  2.50                             143     0.6 5  101 180 
 GUE  SZ EP   1   1718 44.68                             139     0.3 7  114   9 
 GRA  SZ EP   1   1718 44.81                             137    -0.1 7  123  14 
                                                                                
