 2012  716 1356 12.1 L   6.695 -73.135154.5  RSN  4 0.2 1.6LRSN                1
 GAP=171        0.46       9.3     4.5  5.8 -0.1528E+02  0.1839E+01 -0.1383E+02E
 Epicentro: VILLANUEVA - SANTANDER                                             3
 ACTION:UPD 12-08-14 11:45 OP:ep   STATUS:               ID:20120716135612 L   I
 2012-07-16-1350-00M.COL___197                                                 6
 STAT SP IPHASW D HRMM SECON CODA AMPLIT PERI AZIMU VELO AIN AR TRES W  DIS CAZ7
 BAR2 SZ EP   1   1356 32.90                             175     0.2 7   13 205 
 BAR2 SZ ES   1   1356 48.58                             175    -0.1 7   13 205 
 BAR2 SZ I        1356 49.62         5.3 0.30            167             13 205 
 BRR  HZ EP   1   1356 34.74                             152     0.1 7   78 306 
 BRR  HZ I        1356 35.02        13.8 0.27            148             78 306 
 BRR  HE ES   2   1356 52.41                             152     0.2 5   78 306 
 PAM  SZ EP   1   1356 35.56                             150    -0.2 7   86  34 
 PTB  HZ EP   1   1356 39.79                             134     0.0 7  147 263 
 PTB  HN ES   1   1357  1.13                             134    -0.2 7  147 263 
 PTB  HZ I        1357  8.20         3.7 0.34            130            147 263 
