 2010  316 1636 10.8 L   6.799 -73.113143.1  RSN  8 0.3 2.4LRSN                1
 GAP=180        0.68       3.4     6.8  5.5 -0.1019E+02  0.2988E+01  0.2711E+01E
 Epicentro: LOS SANTOS - SANTANDER                                             3
 ACTION:UP  10-08-24 09:54 OP:vdl  STATUS:               ID:20100316163610 L   I
 2010-03-16-1631-37S.COL___096                                                 6
 STAT SP IPHASW D HRMM SECON CODA AMPLIT PERI AZIMU VELO SNR AR TRES W  DIS CAZ7
 BAR2 SZ IP       1636 29.98                             170    -0.210   24 199 
 BAR2 SZ ES   1   1636 44.76                             170    -0.5 7   24 199 
 BRR  HZ IP       1636 31.87                             151     0.010   74 297 
 BRR  HZ I        1636 32.34       111.4 0.10                            74 297 
 BRR  HE ES   1   1636 48.65                             151     0.4 7   74 297 
 GRA  SZ IP       1636 35.91                             136     0.210  125  16 
 GRA  SZ ES   1   1636 55.56                             136     0.4 7  125  16 
 OCA  SZ EP   1   1636 38.78                             129    -0.2 7  161 352 
 OCA  SZ ES   2   1637  0.22                             129    -0.7 5  161 352 
 OCA  SZ I        1637  4.56        60.0 0.09                           161 352 
 CHI  HZ EP   2   1636 48.53                             116     0.1 4  249 196 
 CHI  HE ES   1   1637 18.07                             116     0.3 6  249 196 
 CHI  HZ I        1637 24.31         7.7 0.46                           249 196 
 HEL  HZ EP   2   1636 51.77                             114     0.5 4  276 256 
 HEL  HZ I        1637 26.86         8.7 0.24                           276 256 
 DBB  SZ EP   1   1636 57.94                             109    -0.6 5  343 274 
 PRA  HZ EP   1   1637  4.61                             106     0.2 4  394 210 
 PRA  HE ES   1   1637 46.30                             106     0.0 4  394 210 
 PRA  HZ I        1637 52.73         6.0 0.26                           394 210 
                                                                                
