 2011 1216 1649  9.8 L   6.777 -73.074151.2  RSN  5 0.2 1.7LRSN                1
 GAP=147        0.41       3.5     4.8  4.7  0.1225E+01 -0.2205E+01  0.4703E+01E
 Epicentro: LOS SANTOS - SANTANDER                                             3
 ACTION:UPD 12-07-13 16:16 OP:ep   STATUS:               ID:20111216164909 L   I
 2011-12-16-1647-59S.COL___186                                                 6
 STAT SP IPHASW D HRMM SECON CODA AMPLIT PERI AZIMU VELO AIN AR TRES W  DIS CAZ7
 BAR2 SZ EP       1649 29.97                             171   -0.1710 23.7 210 
 BAR2 SZ I        1649 30.37        11.0 0.36                          23.7 210 
 BAR2 SZ ES   2   1649 46.18                             171    0.21 5 23.7 210 
 PAM  SZ EP   1   1649 32.78                             153    0.29 7 74.7  34 
 PAM  SN ES   2   1649 50.02                             153   -0.14 5 74.7  34 
 BRR  HZ EP       1649 31.95                             151   -0.1010 79.4 297 
 BRR  HZ I        1649 33.47        17.6 0.13                          79.4 297 
 BRR  HE ES   1   1649 49.48                             151    0.10 7 79.4 297 
 RUS  HZ EP   1   1649 33.85                             146   -0.10 7 97.8 181 
 RUS  HZ I        1649 36.18         2.9 0.57                          97.8 181 
 RUS  HN ES   2   1649 52.68                             146   -0.06 5 97.8 181 
 CHI  HZ EP   1   1649 48.13                             118    0.30 6  248 197 
                                                                                
