 2014  816 1309 23.8 L   6.773 -73.143152.0  RSN 20 0.4 2.2LRSN                1
 GAP=138        0.82       2.4     3.3  4.3 -0.1188E+01  0.2257E+01  0.9405E+00E
 Epicentro: LOS SANTOS - SANTANDER                                             3
 ACTION:UPD 14-09-15 21:50 OP:nd   STATUS:               ID:20140816130923 L   I
 OLDACT:REG 14-08-16 20:54 OP:spq  STATUS:               ID:20140816130819     3
 2014-08-16-1308-19M.COL___269                                                 6
 STAT SP IPHASW D HRMM SECON CODA AMPLIT PERI AZIMU VELO AIN AR TRES W  DIS CAZ7
 BAR2 SZ EP       13 9 43.95                             172   -0.2210 20.5 192 
 BAR2 SZ ES   1   1310  0.02                             172   -0.00 7 20.5 192 
 BAR2 SZ I        1310  2.47        18.4 0.14            167           20.5 192 
 BRR  HZ IP     D 13 9 45.84                             153    0.0810 72.9 300 
 BRR  HE ES       1310  3.53                             153    0.6710 72.9 300 
 BRR  HZ I        1310  8.14        19.1 0.16            150           72.9 300 
 PAM  SZ EP       13 9 46.97                             151    0.1210 79.5  38 
 PAM  SN ES   1   1310  4.30                             151   -0.49 7 79.5  38 
 RUS  HZ EP       13 9 47.88                             146   -0.1210 97.6 176 
 RUS  HN ES   1   1310  6.58                             146   -0.27 7 97.6 176 
 RUS  HZ I        1310  7.82        11.5 0.26            146           97.6 176 
 PTB  HZ EP       13 9 50.59                             133   -0.71 9  147 260 
 PTB  HE ES       1310 12.19                             133   -0.53 9  147 260 
 PTB  HZ I        1310 14.94        15.3 0.14            132            147 260 
 SPBC HZ EP       13 9 52.93                             131    0.30 9  161 220 
 SPBC HN ES       1310 15.07                             131   -0.01 9  161 220 
 SPBC HZ I        1310 22.01        27.7 0.22            130            161 220 
 OCA  HZ EP       13 9 52.94                             131    0.02 9  163 353 
 OCA  HN ES       1310 16.08                             131    0.48 9  163 353 
 OCA  HZ I        1310 19.88        16.7 0.26            133            163 353 
 ZAR  HZ EP       13 9 56.74                             124   -0.10 8  205 293 
 ZAR  HE ES       1310 22.50                             124   -0.08 8  205 293 
 ZAR  HZ I        1310 28.51        12.2 0.52            123            205 293 
 NOR  HZ EP     C 1310  0.06                             120    0.28 8  233 235 
 NOR  HN ES       1310 28.44                             120    0.63 8  233 235 
 NOR  HZ I        1310 35.22        11.9 0.16            120            233 235 
 CHI  HZ EP   1   1310  1.52                             119   -0.07 6  246 195 
 CHI  HE ES   1   1310 31.32                             119    0.28 6  246 195 
 CHI  HZ I        1310 39.68         6.3 0.30            119            246 195 
 SML  HZ EP       1310  1.31                             118    0.18 8  247 336 
 SML  HN ES   1   1310 29.59                             118   -0.62 6  247 336 
 SML  HZ I        1310 36.20        20.5 0.10            120            247 336 
 ROSC BN ES   4   1310 35.10                             118    3.25 0  250 211 
 ROSC BZ I        1310 41.72        14.5 0.40            118            250 211 
 URE  HN ES   4   1310 43.73                             115    5.96 0  285 292 
 URE  HZ I        1310 45.85         9.2 0.20            115            285 292 
 GUY2CHZ EP       1310  7.28                             114   -0.30 7  300 235 
 GUY2CHN ES   4   1310 46.25                             114    4.56 0  300 235 
 GUY2CHZ I        1310 49.33         5.3 0.24                           300 235 
 RREF HZ EP   1   1310 10.15                             112    0.09 5  320 230 
 RREF HE ES   4   1310 47.61                             112    1.49 0  320 230 
 RREF HZ I        1310 50.73         7.1 0.24            112            320 230 
 DBB  SZ EP   1   1310 11.01                             111   -0.62 5  340 275 
 DBB  SZ ES   1   1310 48.69                             111   -0.22 5  340 275 
 DBB  SZ I        1310 50.42        10.3 0.34            111            340 275 
 TOL  SZ EP   4   1310 14.05                             111    1.92 0  342 225 
 TOL  SN ES   4   1310 51.87                             111    2.07 0  342 225 
 TOL  SZ I        1310 57.35        12.6 0.42            111            342 225 
 PRA  HZ EP       1310 17.94                             108    0.64 6  390 210 
 PRA  HN ES   4   1311  1.11                             108    2.12 0  390 210 
 PRA  HZ I        1311  5.59         7.4 0.36            108            390 210 
 ORTC HZ EP   1   1310 17.71                             107   -0.01 4  393 216 
 ORTC HN ES   4   1311  1.07                             107    1.33 0  393 216 
 ORTC HZ I        1311  5.70         4.8 0.52            108            393 216 
 SJC  HZ EP   4   1310 17.86                             107   -2.06 0  412 327 
 SJC  HN ES   4   1311  1.45                             107   -2.22 0  412 327 
 SJC  HZ I        1311  4.58         3.0 0.28            108            412 327 
                                                                                
