 2013  516 1845 20.8 L   6.799 -73.142150.8  RSN  8 0.5 1.7LRSN                1
 GAP=137        1.01       4.7     6.0  8.6  0.3966E+01  0.1845E+02  0.1964E+01E
 Epicentro: LOS SANTOS - SANTANDER                                             3
 ACTION:UPD 13-06-20 09:51 OP:ep   STATUS:               ID:20130516184520 L   I
 2013-05-16-1840-00M.COL___253                                                 6
 STAT SP IPHASW D HRMM SECON CODA AMPLIT PERI AZIMU VELO AIN AR TRES W  DIS CAZ7
 BAR2 SZ EP   1   1845 41.25                             171    0.21 9 23.3 191 
 BAR2 SZ ES   1   1845 56.00                             171   -0.82 9 23.3 191 
 BAR2 SZ I        1845 57.10        15.3 0.36            169           23.3 191 
 GIR2 SZ ES   1   1845 57.14                             168    0.24 9 31.5 350 
 BRR  HZ EP   1   1845 43.04                             153    0.52 9 71.6 298 
 BRR  HN ES   1   1846  0.21                             153    0.75 9 71.6 298 
 BRR  HZ I        1846  4.14        12.7 0.70            152           71.6 298 
 PAM  SZ EP   1   1845 43.71                             152    0.16 9 77.2  39 
 PAM  SN ES   1   1846  1.20                             152   -0.09 9 77.2  39 
 PAM  SZ I        1846  2.62         6.0 0.38            156           77.2  39 
 RUS  HZ EP   1   1845 45.67                             145    0.62 9  100 176 
 RUS  HN ES   1   1846  3.51                             145   -0.44 9  100 176 
 RUS  HZ I        1846  4.75         6.5 0.26            146            100 176 
 ZAR  HN ES       1846 19.24                             123    0.0210  204 292 
 NOR  HZ EP   1   1845 55.98                             119   -0.88 7  235 235 
 NOR  HN ES   1   1846 25.19                             119    0.21 7  235 235 
 NOR  HZ I        1846 30.24         2.8 0.18            120            235 235 
 SML  HE ES       1846 25.92                             118   -0.64 9  244 335 
                                                                                
