 2016  216 1032 11.3 L   6.817 -73.193143.2  RSN  5 0.2 1.3LRSN                1
 GAP=130        0.54       3.0     2.6  5.0 -0.7511E+00  0.4709E+01 -0.2963E+01E
 Epicentro: ZAPATOCA - SANTANDER                                               3
 ACTION:UPD 16-03-04 21:26 OP:rebc STATUS:               ID:20160216103211 L   I
 OLDACT:REG 16-02-16 21:24 OP:ak   STATUS:               ID:20160216102748     3
 2016-02-16-1027-48M.COL___309                                                 6
 STAT SP IPHASW D HRMM SECON CODA AMPLIT PERI AZIMU VELO AIN AR TRES W  DIS CAZ7
 BAR2 EZ EP       1032 30.90                             170    0.2410 24.9 177 
 BAR2 EZ ES       1032 45.58                             170   -0.1710 24.9 177 
 BAR2 EZ I        1032 47.20         3.8 0.22            171           24.9 177 
 PAM  EZ EP       1032 33.25                             150   -0.1110 79.4  43 
 PAM  EN ES       1032 50.58                             150    0.0010 79.4  43 
 PAM  EZ I        1032 52.83         4.6 0.34            152           79.4  43 
 RUS  HZ EP   2   1032 34.77                             143   -0.21 5  103 173 
 RUS  HN ES       1032 53.65                             143    0.2010  103 173 
 RUS  HZ I        1032 54.51         3.0 0.36            145            103 173 
 PTB  HZ EP       1032 37.44                             132   -0.19 9  143 258 
 PTB  HN ES       1032 57.96                             132   -0.21 9  143 258 
 PTB  HZ I        1033  0.96         1.8 0.18            134            143 258 
 ZAR  HN ES       1033  8.06                             123    0.33 9  198 292 
                                                                                
