 2017 1016 1200 45.2 L   6.796 -73.133142.9  RSN 16 0.5 2.2LRSN                1
 GAP=113        1.05       3.3     3.4  5.5  0.2238E+01  0.6594E+01  0.4885E+01E
 Epicentro: LOS SANTOS - SANTANDER                                             3
 ACTION:UPD 17-11-07 19:32 OP:rebc STATUS:               ID:20171016120045 L   I
 OLDACT:UP  17-10-16 21:56 OP:edw  STATUS:               ID:20171016115509     3
 OLDACT:UP  17-10-16 21:55 OP:edw  STATUS:               ID:20171016115509     3
 OLDACT:UP  17-10-16 21:55 OP:edw  STATUS:               ID:20171016115509     3
 OLDACT:UP  17-10-16 21:52 OP:edw  STATUS:               ID:20171016115509     3
 OLDACT:REG 17-10-16 19:57 OP:edw  STATUS:               ID:20171016115509     3
 2017-10-16-1158-00M.COL___432                                                 6
 STAT SP IPHASW D HRMM SECON CODA AMPLIT PERI AZIMU VELO AIN AR TRES W  DIS CAZ7
 BAR2 EZ EP       12 1  4.32                             170   -0.2010 23.2 194 
 BAR2 EZ ES       12 1 19.03                             170   -0.5410 23.2 194 
 BAR2 EZ I        12 1 20.00        64.0 0.20            169           23.2 194 
 BRR  HZ IP     C 12 1  6.20                             151    0.0310 72.7 298 
 BRR  HN ES       12 1 23.04                             151    0.5510 72.7 298 
 BRR  HZ I        12 1 27.57        39.0 0.14            149           72.7 298 
 PAM  EZ EP       12 1  7.36                             150    0.2410 76.8  38 
 PAM  EE ES       12 1 24.44                             150    0.2510 76.8  38 
 PAM  EZ I        12 1 26.27        42.6 0.46            153           76.8  38 
 RUS  HZ EP       12 1  8.71                             143    0.0410  100 177 
 RUS  HN ES       12 1 26.85                             143   -0.1010  100 177 
 RUS  HZ I        12 1 27.56        32.2 0.24            144            100 177 
 PTB  HZ EP       12 1 12.04                             131   -0.06 9  149 259 
 PTB  HE ES       12 1 32.81                             131   -0.24 9  149 259 
 PTB  HZ I        12 1 34.31        14.5 0.28            130            149 259 
 YPLC HZ EP       12 1 14.75                             126    0.03 9  176 152 
 YPLC HN ES       12 1 37.54                             126   -0.18 9  176 152 
 YPLC HZ I        12 1 41.19        21.4 0.26            128            176 152 
 ZAR  HZ EP       12 1 17.23                             121   -0.43 8  206 292 
 ZAR  HE ES       12 1 43.44                             121    0.50 8  206 292 
 ZAR  HZ I        12 1 50.23        23.3 0.26            121            206 292 
 NOR  HZ EP       12 1 21.92                             118    1.02 8  236 235 
 NOR  HN ES       12 1 48.74                             118    0.02 8  236 235 
 NOR  HZ I        12 1 54.05         7.6 0.20            118            236 235 
 CHI  HZ EP   1   12 1 23.88                             116    1.11 6  249 196 
 CHI  HN ES   1   12 1 51.56                             116   -0.49 6  249 196 
 CHI  HZ I        12 1 55.00         5.9 0.30            117            249 196 
 ROSC BZ EP   1   12 1 22.29                             116   -0.95 6  253 211 
 ROSC BN ES   4   12 1 55.62                             116    2.73 0  253 211 
 ROSC BZ I        12 1 59.01         9.5 0.35            116            253 211 
 URE  HZ EP       12 1 25.50                             113   -0.84 7  285 292 
 URE  HN ES       12 1 57.65                             113   -0.75 7  285 292 
 URE  HZ I        12 2 12.12        12.2 0.18            113            285 292 
 GUY2CHZ EP   4   12 1 30.82                             112    2.00 0  302 235 
 GUY2CHN ES       12 2  3.49                             112    0.67 7  302 235 
 GUY2CHZ I        12 2  7.24         3.8 0.28                           302 235 
 DBB  EZ EP   2   12 1 31.83                             109   -0.94 3  341 274 
 DBB  EN ES   4   12 2  8.54                             109   -1.31 0  341 274 
 DBB  EZ I        12 2 13.24         4.6 0.40            109            341 274 
 PRA  HZ EP       12 1 39.22                             106    0.52 6  392 210 
 PRA  HE ES       12 2 20.50                             106    0.10 6  392 210 
 PRA  HZ I        12 2 26.13         7.4 0.40            106            392 210 
 ORTC HE ES       12 2 20.86                             106   -0.29 6  396 216 
 SJC  HZ EP   4   12 1 39.30                             105   -1.54 0  410 327 
 SJC  HN ES   4   12 2 20.78                             105   -3.44 0  410 327 
 SJC  HZ I        12 2 24.61         8.5 0.64            106            410 327 
                                                                                
