 2017  116 1035 17.6 L   6.787 -73.138147.8  RSN  9 0.5 1.9LRSN                1
 GAP=120        1.17       4.3     4.7  6.7  0.4518E+01  0.2873E+01  0.7289E+01E
 Epicentro: LOS SANTOS - SANTANDER                                             3
 ACTION:UPD 17-05-22 16:00 OP:jn   STATUS:               ID:20170116103517 L   I
 OLDACT:REG 17-01-16 20:12 OP:cog  STATUS:               ID:20170116102742     3
 2017-01-16-1028-00M.COL___329                                                 6
 STAT SP IPHASW D HRMM SECON CODA AMPLIT PERI AZIMU VELO AIN AR TRES W  DIS CAZ7
 BAR2 EZ IP     C 1035 37.43                             171   -0.0610 22.1 193 
 BAR2 EZ ES       1035 53.24                             171    0.2710 22.1 193 
 BAR2 EZ I        1035 56.13        15.0 0.18            170           22.1 193 
 BRR  HZ EP       1035 39.22                             152    0.1410 72.6 299 
 BRR  HN ES       1035 56.20                             152    0.3910 72.6 299 
 BRR  HZ I        1035 58.65        21.6 0.16            152           72.6 299 
 PAM  EZ EP       1035 40.32                             151    0.2210 78.0  38 
 PAM  EN ES       1035 57.28                             151   -0.3410 78.0  38 
 PAM  EZ I        1035 59.13        11.3 0.36            155           78.0  38 
 RUS  HZ EP       1035 41.50                             145    0.0210 99.1 176 
 RUS  HN ES       1036  0.08                             145   -0.0010 99.1 176 
 RUS  HZ I        1036  1.51        11.0 0.24            146           99.1 176 
 PTB  HZ EP       1035 44.27                             132   -0.55 9  148 259 
 PTB  HN ES       1036  5.13                             132   -0.89 9  148 259 
 PTB  HZ I        1036  8.75        11.7 0.14            133            148 259 
 ZAR  HZ EP       1035 50.85                             123    0.50 8  205 292 
 ZAR  HE ES       1036 15.71                             123   -0.15 8  205 292 
 ZAR  HZ I        1036 21.19        15.3 0.68            124            205 292 
 CHI  HZ EP       1035 56.19                             118    0.87 8  247 195 
 CHI  HN ES       1036 25.38                             118    0.66 8  247 195 
 CHI  HZ I        1036 28.96         3.3 0.32            119            247 195 
 GUY2CHZ EP   9   1036  2.86                             113    1.54 0  301 235 
 GUY2CHE ES       1036 37.91                                    0.98 7  301 235 
 GUY2CHZ  IAML    1036 47.92         3.9 0.54                           301 235 
 PTGC HZ EP       1036  0.87                             112   -0.53 7  307 159 
 PTGC HE ES       1036 34.84                             112   -0.70 7  307 159 
                                                                                
