 2012  816 1958 25.7 L   6.750 -73.198151.2  RSN  4 0.2 1.7LRSN                1
 GAP=227        0.54       5.1     5.3  6.0  0.1548E+02 -0.2723E+01 -0.6174E+01E
 Epicentro: VILLANUEVA - SANTANDER                                             3
 ACTION:UPD 12-09-10 11:56 OP:ep   STATUS:               ID:20120816195825 L   I
 2012-08-16-1950-00M.COL___216                                                 6
 STAT SP IPHASW D HRMM SECON CODA AMPLIT PERI AZIMU VELO AIN AR TRES W  DIS CAZ7
 BAR2 SZ EP   1   1958 45.40                             173   -0.49 7 17.5 174 
 BAR2 SZ I        1959  3.72         6.6 0.14                          17.5 174 
 BRR  HZ EP       1958 47.55                             154    0.2110 69.2 305 
 BRR  HZ I        1958 50.29        13.3 0.34                          69.2 305 
 BRR  HE ES   1   1959  4.22                             154    0.01 7 69.2 305 
 RUS  HZ EP       1958 49.61                             146   -0.0510 95.6 172 
 RUS  HN ES       1959  8.46                             146    0.1310 95.6 172 
 PTB  HZ EP       1958 52.64                             135    0.10 9  141 261 
 PTB  HN ES   1   1959 13.25                             135   -0.21 7  141 261 
                                                                                
