 2010  816 1326 19.4 L   6.754 -73.076142.5  RSN  4 0.1 1.4LRSN                1
 GAP=200        0.34       5.3     6.4  3.5 -0.7781E+01 -0.3588E+01 -0.7985E+01E
 Epicentro: LOS SANTOS - SANTANDER                                             3
 ACTION:UP  10-09-07 10:55 OP:vdl  STATUS:               ID:20100816132619 L   I
 2010-08-16-1323-48S.COL___111                                                 6
 STAT SP IPHASW D HRMM SECON CODA AMPLIT PERI AZIMU VELO SNR AR TRES W  DIS CAZ7
 BAR2 SZ EP   1   1326 38.58                             171     0.0 7   22 214 
 BAR2 SZ ES   1   1326 53.42                             171    -0.1 7   22 214 
 BAR2 SZ I        1326 54.05         4.1 0.35                            22 214 
 BTL  SZ EP       1326 38.83                             169     0.110   28 311 
 BTL  SZ ES       1326 53.86                             169     0.110   28 311 
 BRR  HZ EP       1326 40.67                             149    -0.110   80 299 
 BRR  HZ I        1326 51.58         8.3 0.63                            80 299 
 BRR  HN ES   3   1326 57.29                             149    -0.1 2   80 299 
 GRA  SZ EP       1326 44.52                             136     0.010  129  14 
 GRA  SZ I        1327  5.79         2.4 0.29                           129  14 
                                                                                
