 2014  416 1953  2.4 L   6.818 -73.128143.9  RSN 20 0.6 2.6LRSN 3.0WRSN        1
 SPEC AVERAGE  MO 13.7 ST0.395 OM  1.8 f0 2.09 R1.1649 AL 0.00 WI 20.0 MW  3.0 3
 SPEC SD       MO  0.3 ST  3.4 OM  0.4 f0 1.22 R0.5160 AL      WI      MW  0.2 3
 GAP= 71        1.39       3.2     3.9  7.0 -0.1574E+01  0.6665E+01  0.6382E+01E
 Epicentro: LOS SANTOS - SANTANDER                                             3
 SPEC BRR HH Z MO 13.6 ST0.857 OM  1.7 f0 3.22 R0.5975 AL-0.00 WI 20.0 MW  3.0 3
 SPEC BRR HH Z T195339 K 0.000 GD  160 VS 5.20 DE 3.50 Q0750.0 QA 1.50 VS 5.20 3
 SPEC PAM SH Z MO 13.5 ST0.116 OM  1.6 f0 1.78 R1.0809 AL-0.00 WI 20.0 MW  3.0 3
 SPEC PAM SH Z T195340 K 0.000 GD  162 VS 5.20 DE 3.50 Q0750.0 QA 1.50 VS 5.20 3
 SPEC TAM HH Z MO 13.5 ST0.170 OM  1.5 f0 2.00 R0.9620 AL-0.00 WI 20.0 MW  3.0 3
 SPEC TAM HH Z T195349 K 0.000 GD  210 VS 5.20 DE 3.50 Q0750.0 QA 1.50 VS 5.20 3
 SPEC SPBCHH Z MO 13.5 ST  2.1 OM  1.4 f0 4.91 R0.3919 AL-0.00 WI 20.0 MW  2.9 3
 SPEC SPBCHH Z T195351 K 0.000 GD  219 VS 5.20 DE 3.50 Q0750.0 QA 1.50 VS 5.20 3
 SPEC NOR HH Z MO 13.5 ST0.668 OM  1.3 f0 3.36 R0.5726 AL-0.00 WI 20.0 MW  2.9 3
 SPEC NOR HH Z T1954 4 K 0.000 GD  277 VS 5.20 DE 3.50 Q0750.0 QA 1.50 VS 5.20 3
 SPEC CHI HH Z MO 13.6 ST0.085 OM  1.4 f0 1.54 R1.2494 AL-0.00 WI 20.0 MW  3.0 3
 SPEC CHI HH Z T1954 6 K 0.000 GD  289 VS 5.20 DE 3.50 Q0750.0 QA 1.50 VS 5.20 3
 SPEC ROSCBH Z MO 14.0 ST0.083 OM  1.8 f0 1.12 R1.7179 AL-0.00 WI 20.0 MW  3.3 3
 SPEC ROSCBH Z T1954 9 K 0.000 GD  292 VS 5.20 DE 3.50 Q0750.0 QA 1.50 VS 5.20 3
 SPEC HEL HH Z MO 13.6 ST0.080 OM  1.4 f0 1.48 R1.3000 AL-0.00 WI 20.0 MW  3.0 3
 SPEC HEL HH Z T195414 K 0.000 GD  309 VS 5.20 DE 3.50 Q0750.0 QA 1.50 VS 5.20 3
 SPECGUY2CHH Z MO 14.0 ST  0.1 OM  1.8 f00.910 R  2.11 AL-0.00 WI 20.0 MW  3.3 3
 SPECGUY2CHH Z T195418 K       GD336.2 VS 5.20 DE 3.50 Q0750.0 QA 1.50 VS 5.20 3
 SPEC RREFHH Z MO 13.9 ST0.045 OM  1.6 f0 1.00 R1.9240 AL-0.00 WI 20.0 MW  3.2 3
 SPEC RREFHH Z T195423 K 0.000 GD  354 VS 5.20 DE 3.50 Q0750.0 QA 1.50 VS 5.20 3
 SPEC TOL SH Z MO 13.9 ST0.082 OM  1.6 f0 1.20 R1.6033 AL-0.00 WI 20.0 MW  3.2 3
 SPEC TOL SH Z T195426 K 0.000 GD  374 VS 5.20 DE 3.50 Q0750.0 QA 1.50 VS 5.20 3
 SPEC ORTCHH Z MO 13.7 ST0.085 OM  1.4 f0 1.36 R1.4147 AL-0.00 WI 20.0 MW  3.1 3
 SPEC ORTCHH Z T195437 K 0.000 GD  423 VS 5.20 DE 3.50 Q0750.0 QA 1.50 VS 5.20 3
 OLDACT:REG 14-04-16 21:29 OP:stll STATUS:               ID:20140416194814     3
 ACTION:UPD 14-05-13 23:09 OP:nd   STATUS:               ID:20140416195302 L   I
 OLDACT:UP  14-04-18 07:31 OP:CAM  STATUS:               ID:20140416195302 L   3
 OLDACT:UP  14-04-17 01:52 OP:stll STATUS:               ID:20140416194814     3
 2014-04-16-1948-14M.COL___257                                                 6
 STAT SP IPHASW D HRMM SECON CODA AMPLIT PERI AZIMU VELO AIN AR TRES W  DIS CAZ7
 BRR  HZ IP     D 1953 23.85                             152    0.4810 72.0 296 
 BRR  HN ES       1953 40.81                             152    1.0710 72.0 296 
 BRR  HZ I        1953 43.62        44.7 0.32            146           72.0 296 
 PAM  SZ IP     D 1953 24.80                             151    0.5710 74.7  39 
 PAM  SN ES       1953 41.77                             151    0.4910 74.7  39 
 RUS  HZ EP       1953 25.79                             143   -0.2910  102 177 
 RUS  HN ES       1953 43.78                             143   -0.7810  102 177 
 PTB  HZ EP       1953 28.87                             131   -0.53 9  150 258 
 PTB  HN ES       1953 50.04                             131   -0.44 9  150 258 
 PTB  HZ I        1953 55.06        35.5 0.36            127            150 258 
 TAM  HZ IP     D 1953 30.13                             130    0.34 9  154 106 
 TAM  HN ES       1953 51.04                             130   -0.12 9  154 106 
 OCA  HE ES       1953 51.52                             129   -0.71 9  159 352 
 SPBC HZ EP       1953 30.88                             128   -0.12 9  166 219 
 SPBC HE ES       1953 53.13                             128   -0.18 9  166 219 
 SPBC HZ I        1953 59.06        60.2 0.20            125            166 219 
 ZAR  HZ EP       1953 34.53                             122   -0.28 9  205 291 
 ZAR  HN ES       1954  0.08                             122   -0.03 9  205 291 
 ZAR  HZ I        1954  8.89        26.5 0.12            118            205 291 
 NOR  HZ EP       1953 37.71                             118   -0.58 8  237 234 
 NOR  HN ES       1954  5.52                             118   -0.78 8  237 234 
 NOR  HZ I        1954  9.55        41.7 0.18            115            237 234 
 SML  HZ EP       1953 38.19                             117   -0.61 8  243 335 
 SML  HE ES       1954  6.75                             117   -0.45 8  243 335 
 SML  HZ I        1954 10.57        58.4 0.08            115            243 335 
 CHI  HZ EP       1953 39.84                             116   -0.40 8  251 195 
 CHI  HN ES   1   1954  9.41                             116   -0.35 6  251 195 
 ROSC BZ EP       1953 41.84                             116    1.15 8  255 211 
 ROSC BN ES       1954 11.35                             116    0.78 8  255 211 
 ROSC HZ I        1954 19.57        41.1 0.55            114            255 211 
 HEL  HZ EP       1953 43.63                             114    0.87 8  274 256 
 HEL  HZ I        1954 19.12        13.3 0.78            112            274 256 
 GUY2CHZ EP       1953 46.13                             112   -0.08 7  304 235 
 GUY2CHN ES       1954 20.38                             112   -0.01 7  304 235 
 GUY2CHZ I        1954 28.36        22.0 0.34                           304 235 
 VIL  SN ES       1954 18.83                             111   -1.14 7  306 192 
 RREF HZ EP       1953 48.95                             110    0.20 7  324 229 
 RREF HN ES       1954 25.16                             110    0.24 7  324 229 
 RREF HZ I        1954 31.18        21.6 0.26            108            324 229 
 TOL  SZ EP       1953 51.40                             109    0.52 6  346 225 
 TOL  SZ ES       1954 28.01                             109   -0.69 6  346 225 
 ANIL HZ EP       1953 53.77                             108    1.34 6  360 225 
 ANIL HN ES       1954 32.73                             108    1.26 6  360 225 
 PRA  HZ EP       1953 55.42                             106   -0.73 6  395 210 
 PRA  HN ES       1954 39.12                             106    1.04 6  395 210 
 PRA  HZ I        1954 42.21        18.6 0.30            105            395 210 
 ORTC HZ EP       1953 55.85                             106   -0.70 6  398 216 
 ORTC HN ES       1954 38.86                             106    0.05 6  398 216 
 ORTC HZ I        1954 44.38        12.2 0.36            104            398 216 
                                                                                
