 2017 1216 1304  9.8 L   6.790 -73.164143.3  RSN  5 0.4 1.7LRSN                1
 GAP=145        0.99       7.4     5.1  7.7 -0.1167E+02  0.1664E+02 -0.1644E+01E
 Epicentro: LOS SANTOS - SANTANDER                                             3
 ACTION:UPD 18-01-04 13:21 OP:rebc STATUS:               ID:20171216130409 L   I
 OLDACT:REG 17-12-16 20:23 OP:osc  STATUS:               ID:20171216125737     3
 2017-12-16-1258-00M.COL___467                                                 6
 STAT SP IPHASW D HRMM SECON CODA AMPLIT PERI AZIMU VELO AIN AR TRES W  DIS CAZ7
 BAR2 EZ EP       13 4 28.79                             171   -0.2810 22.0 185 
 BAR2 EZ ES       13 4 44.64                             171    0.5110 22.0 185 
 BAR2 EZ I        13 4 45.22        18.0 0.18            172           22.0 185 
 PAM  EZ EP       13 4 31.82                             150   -0.0210 79.5  40 
 PAM  EN ES       13 4 48.87                             150   -0.2010 79.5  40 
 PAM  EZ I        13 4 50.88         3.7 0.18            152           79.5  40 
 PTB  HZ EP       13 4 35.68                             132   -0.65 9  146 259 
 PTB  HN ES       13 4 56.74                             132   -0.31 9  146 259 
 PTB  HZ I        13 5  2.43         4.4 0.32            132            146 259 
 ZAR  HZ EP       13 4 42.67                             122    0.77 9  203 293 
 ZAR  HN ES       13 5  7.05                             122    0.08 9  203 293 
 ZAR  HZ I        13 5 13.19         5.0 0.13            122            203 293 
 GUY2CHZ EP       13 4 53.39                             112    0.39 7  299 235 
 GUY2CHN ES   2   13 5 26.79                             112    0.07 4  299 235 
 GUY2CHZ I        13 5 35.33         3.5 0.46                           299 235 
                                                                                
