 2012  216 1219 30.3 L   6.780 -73.101145.6  RSN  8 0.4 1.6LRSN                1
 GAP=143        0.66       4.8     5.8  6.9  0.1092E+01  0.6907E+01  0.8133E+01E
 ACTION:UP  12-03-07 16:31 OP:epov STATUS:               ID:20120216121930 L   I
 2012-02-16-1218-59S.COL___188                                                 6
 STAT SP IPHASW D HRMM SECON CODA AMPLIT PERI AZIMU VELO AIN AR TRES W  DIS CAZ7
 BAR2 SZ EP   1   1219 49.78                             171   -0.08 7 22.6 203 
 BAR2 SZ ES   1   1220  4.74                             171   -0.40 7 22.6 203 
 BAR2 SZ I        1220  6.60         7.7 0.31                          22.6 203 
 GIR2 SZ EP   2   1219 49.86                             166   -0.15 5 34.6 343 
 PAM  SZ EP   2   1219 52.90                             151    0.51 5 76.1  36 
 PAM  SE ES   2   1220  8.98                             151   -0.66 5 76.1  36 
 BRR  HZ EP   1   1219 51.70                             151   -0.01 7 76.6 298 
 BRR  HN ES   1   1220  9.08                             151    0.64 7 76.6 298 
 RUS  HZ EP   2   1219 54.23                             144    0.40 5 98.1 179 
 RUS  HE ES   2   1220 12.73                             144    0.53 5 98.1 179 
 RUS  HZ I        1220 14.21         6.2 0.27                          98.1 179 
 ZAR  HN ES   2   1220 28.24                             122   -0.76 4  209 292 
 ZAR  HZ I        1220 34.24         4.4 0.28                           209 292 
 NOR  SZ EP   2   1220  6.07                             118   -0.22 4  237 236 
 NOR  SE ES   2   1220 34.19                             118   -0.19 4  237 236 
 CHI  HZ EP   2   1220  8.10                             117    0.23 4  248 196 
 CHI  HN ES   2   1220 36.73                             117   -0.47 4  248 196 
                                                                                
