 2012  916 1753  8.5 L   6.766 -73.162142.6  RSN  9 0.4 2.1LRSN                1
 GAP=136        0.77       3.9     4.3  5.8  0.1075E+01  0.8168E+01  0.3200E+01E
 Epicentro: LOS SANTOS - SANTANDER                                             3
 ACTION:UPD 12-10-22 14:19 OP:ep   STATUS:               ID:20120916175308 L   I
 2012-09-16-1750-00M.COL___227                                                 6
 STAT SP IPHASW D HRMM SECON CODA AMPLIT PERI AZIMU VELO AIN AR TRES W  DIS CAZ7
 BAR2 SZ EP       1753 27.61                             172   -0.0610 19.3 187 
 BAR2 SZ ES   1   1753 42.24                             172   -0.39 7 19.3 187 
 BAR2 SZ I        1753 43.24        49.1 0.24                          19.3 187 
 GIR2 SZ EP   1   1753 27.70                             166   -0.19 7 34.8 354 
 GIR2 SZ ES   1   1753 43.39                             166    0.37 7 34.8 354 
 BRR  HZ EP       1753 29.51                             152    0.1910 71.5 302 
 BRR  HZ I        1753 29.94        48.0 0.12                          71.5 302 
 BRR  HE ES   1   1753 46.36                             152    0.80 7 71.5 302 
 PAM  SZ EP   1   1753 30.63                             149    0.00 7 81.5  39 
 PAM  SN ES   1   1753 47.44                             149   -0.45 7 81.5  39 
 PAM  SZ I        1753 49.60        37.0 0.46                          81.5  39 
 RUS  HZ EP   1   1753 31.80                             144    0.13 7 97.0 175 
 RUS  HE ES   1   1753 49.91                             144    0.16 7 97.0 175 
 PTB  HZ EP   1   1753 34.49                             132   -0.48 7  145 260 
 PTB  HN ES   1   1753 54.84                             132   -0.79 7  145 260 
 PTB  HZ I        1753 58.12        12.0 0.15                           145 260 
 ZAR  HZ EP   1   1753 40.96                             122    0.25 6  204 293 
 ZAR  HN ES   1   1754  5.74                             122   -0.10 6  204 293 
 ZAR  HZ I        1754  8.42         8.4 0.17                           204 293 
 CHI  HN ES   1   1754 14.76                             117    0.28 6  245 195 
 CHI  HN I        1754 21.01         8.0 0.46                           245 195 
 HEL  HZ EP   1   1753 48.55                             114    0.31 6  269 256 
 HEL  HZ I        1754 26.60         4.5 0.32                           269 256 
                                                                                
