 2014 1216 1031 39.4 L   6.811 -73.154142.2  RSN 27 0.4 2.7LRSN                1
 GAP= 70        0.95       1.9     2.3  4.3 -0.5631E+00  0.2536E+01  0.1192E+01E
 Epicentro: LOS SANTOS - SANTANDER                                             3
 ACTION:UPD 15-02-10 17:04 OP:nd   STATUS:               ID:20141216103139 L   I
 OLDACT:REG 14-12-16 20:15 OP:fm   STATUS:               ID:20141216102748     3
 2014-12-16-1027-48M.COL___287                                                 6
 STAT SP IPHASW D HRMM SECON CODA AMPLIT PERI AZIMU VELO AIN AR TRES W  DIS CAZ7
 BAR2 EZ IP     D 1031 58.93                             170    0.3110 24.4 187 
 BAR2 EZ I        1032 16.72       159.2 0.28            170           24.4 187 
 BRR  HZ IP     C 1032  0.76                             152    0.6810 69.8 298 
 BRR  HN ES       1032 16.31                             152    0.1010 69.8 298 
 BRR  HZ I        1032 21.74       102.3 0.26            150           69.8 298 
 PAM  SZ IP     C 1032  1.72                             150    0.5110 77.0  41 
 PAM  SN ES       1032 18.39                             150    0.1710 77.0  41 
 PAM  SZ I        1032 22.13        71.8 0.50            154           77.0  41 
 RUS  HZ EP       1032  2.88                             143   -0.0110  102 176 
 RUS  HE ES       1032 20.85                             143   -0.3610  102 176 
 RUS  HZ I        1032 22.98        54.4 0.28            146            102 176 
 PTB  HZ EP       1032  5.33                             131   -0.68 9  147 258 
 PTB  HE ES       1032 26.12                             131   -0.66 9  147 258 
 PTB  HZ I        1032 29.25        40.9 0.16            132            147 258 
 TAM  HZ IP     C 1032  7.34                             129    0.44 9  156 105 
 TAM  HE ES       1032 27.73                             129   -0.62 9  156 105 
 TAM  HZ I        1032 28.43        39.1 0.28            135            156 105 
 OCA  HZ EP       1032  7.01                             129   -0.29 9  159 353 
 OCA  HE ES       1032 28.92                             129   -0.15 9  159 353 
 OCA  HZ I        1032 37.34        75.2 0.24            131            159 353 
 SPBC HZ EP       1032  7.85                             128    0.19 9  164 218 
 SPBC HN ES       1032 29.61                             128   -0.09 9  164 218 
 SPBC HZ I        1032 36.89        88.6 0.34            130            164 218 
 ZAR  HZ EP       1032 11.44                             122   -0.04 9  203 292 
 ZAR  HN ES       1032 36.76                             122    0.26 9  203 292 
 ZAR  HZ I        1032 42.11        73.4 0.30            123            203 292 
 NOR  HZ EP     D 1032 15.11                             118    0.19 8  235 234 
 NOR  HN ES       1032 42.56                             118   -0.07 8  235 234 
 NOR  HZ I        1032 49.81        33.7 0.20            119            235 234 
 SML  HZ EP       1032 15.23                             117   -0.43 8  242 335 
 SML  HE ES       1032 43.93                             117   -0.02 8  242 335 
 SML  HZ I        1032 45.93        59.5 0.32            118            242 335 
 CHI  HZ EP       1032 17.26                             116    0.26 8  250 195 
 CHI  HN ES       1032 45.92                             116   -0.41 8  250 195 
 CHI  HZ I        1032 51.78        39.0 0.30            119            250 195 
 ROSC BZ EP       1032 18.66                             116    1.27 8  253 211 
 ROSC BN ES       1032 47.42                             116    0.40 8  253 211 
 ROSC BZ I        1032 53.59       104.2 0.45            118            253 211 
 HEL  HZ EP       1032 19.25                             114   -0.11 8  272 256 
 HEL  HN ES       1032 51.11                             114    0.57 8  272 256 
 HEL  HZ I        1032 57.37        29.5 0.38            115            272 256 
 URE  HZ EP       1032 19.50                             113   -0.65 7  283 292 
 URE  HN ES   4   1032 49.02                             113   -2.92 0  283 292 
 URE  HZ I        1033  2.59        31.7 0.38            114            283 292 
 VIL  SZ EP       1032 22.81                             111    0.05 7  304 191 
 VIL  SE ES       1032 56.49                             111   -0.10 7  304 191 
 VIL  SZ I        1032 59.75        56.1 0.36            114            304 191 
 CBOC HZ EP       1032 25.80                             109   -0.31 7  333 252 
 CBOC HN ES       1033  2.40                             109   -0.15 7  333 252 
 CBOC HZ I        1033 15.43         9.8 0.46            111            333 252 
 DBB  SZ EP       1032 27.14                             109    0.53 7  339 274 
 DBB  SZ ES       1033  3.23                             109   -0.22 7  339 274 
 TOL  SZ EP       1032 28.05                             109    0.51 7  344 224 
 TOL  SE ES       1033  5.21                             109    0.12 7  344 224 
 TOL  SZ I        1033 15.31        65.8 0.32            110            344 224 
 MON  HZ EP   4   1032 26.03                             108   -2.06 0  352 308 
 MON  HE ES   4   1033  4.10                             108   -1.97 0  352 308 
 MON  HZ I        1033 19.81        16.4 0.48            109            352 308 
 ANIL HZ EP       1032 28.72                             108   -0.37 6  358 224 
 ANIL HN ES       1033  8.25                             108    0.39 6  358 224 
 ANIL HZ I        1033 19.07        10.1 0.30            109            358 224 
 ARGC HN ES       1033  7.46                             108    0.22 6  358 340 
 ARGC HZ I        1033 16.32        20.5 0.28            109            358 340 
 SDV  BZ EP       1032 28.25                             108   -1.04 6  360  50 
 SDV  BE ES   4   1033  5.33                             108   -2.87 0  360  50 
 SDV  BZ I        1033  9.79         5.6 0.30            110            360  50 
 ORTC HZ EP       1032 33.37                             106    0.12 6  396 216 
 ORTC HE ES       1033 15.04                             106   -0.21 6  396 216 
 ORTC HZ I        1033 20.38        18.2 0.22            107            396 216 
 PAL  HZ EP       1032 34.41                             105   -0.01 6  406 239 
 PAL  HN ES       1033 16.67                             105   -0.67 6  406 239 
 PAL  HZ I        1033 22.50         8.1 0.22            107            406 239 
 SJC  HZ EP   4   1032 32.90                             105   -1.76 0  408 327 
 SJC  HN ES   4   1033 12.89                             105   -4.88 0  408 327 
 SJC  HZ I        1033 28.67        11.2 0.70            107            408 327 
 YOT  HZ EP       1032 41.90                             103   -0.46 5  472 229 
 YOT  HN ES       1033 31.03                             103   -0.44 5  472 229 
                                                                                
