 2012 1216 1846 20.3 L   6.773 -73.227145.8  RSN  4 0.2 1.8LRSN                1
 GAP=289        0.49       4.3     5.1  7.2 -0.7725E+01  0.1528E+01  0.9527E+01E
 Epicentro: ZAPATOCA - SANTANDER                                               3
 ACTION:UPD 13-01-04 14:28 OP:ep   STATUS:               ID:20121216184620 L   I
 2012-12-16-1840-00M.COL___242                                                 6
 STAT SP IPHASW D HRMM SECON CODA AMPLIT PERI AZIMU VELO AIN AR TRES W  DIS CAZ7
 BRR  HZ EP       1846 41.17                             155    0.0710 65.1 305 
 BRR  HN ES       1846 57.22                             155   -0.1210 65.1 305 
 BRR  HN I        1847  1.48        12.1 0.20                          65.1 305 
 PTB  HN ES       1847  7.06                             134    0.27 9  138 259 
 PTB  HN I        1847 12.04         6.3 0.50                           138 259 
 ZAR  HN ES       1847 16.65                             123   -0.08 9  197 294 
 ZAR  HN I        1847 22.42         7.1 0.44                           197 294 
 NOR  HE ES       1847 21.95                             120   -0.20 8  226 234 
                                                                                
