 2013  516 1821 56.2 L   6.785 -73.154142.8  RSN 11 0.5 2.2LRSN                1
 GAP=136        0.99       3.6     4.8  6.2 -0.1367E+01  0.9083E+01  0.1204E+01E
 Epicentro: LOS SANTOS - SANTANDER                                             3
 ACTION:UPD 13-06-20 09:51 OP:ep   STATUS:               ID:20130516182156 L   I
 2013-05-16-1820-00M.COL___253                                                 6
 STAT SP IPHASW D HRMM SECON CODA AMPLIT PERI AZIMU VELO AIN AR TRES W  DIS CAZ7
 BAR2 SZ EP       1822 15.37                             171   -0.0210 21.6 188 
 BAR2 SZ ES   1   1822 29.60                             171   -0.80 7 21.6 188 
 BAR2 SZ I        1822 31.17        42.0 0.16            171           21.6 188 
 GIR2 SZ EP   1   1822 15.55                             166    0.03 7 32.8 352 
 GIR2 SZ ES   1   1822 30.76                             166    0.14 7 32.8 352 
 GIR2 SZ I        1822 31.12        26.8 0.64            166           32.8 352 
 BRR  HZ IP       1822 17.25                             152    0.2610 71.2 300 
 BRR  HN ES   1   1822 34.11                             152    0.88 7 71.2 300 
 BRR  HZ I        1822 35.75        37.1 0.14            150           71.2 300 
 PAM  SZ EP       1822 18.28                             150    0.1110 79.2  39 
 PAM  SN ES   1   1822 35.32                             150   -0.02 7 79.2  39 
 PAM  SZ I        1822 37.54        17.7 0.62            152           79.2  39 
 RUS  HZ EP       1822 19.43                             144   -0.0710 99.0 175 
 RUS  HN ES   1   1822 37.92                             144    0.21 7 99.0 175 
 RUS  HZ I        1822 39.52        12.2 0.42            145           99.0 175 
 PTB  HZ EP       1822 22.02                             132   -0.75 9  147 259 
 PTB  HN ES   1   1822 42.86                             132   -0.68 7  147 259 
 PTB  HZ I        1822 45.82        24.7 0.16            131            147 259 
 OCA  HZ EP   1   1822 25.09                             129    0.71 7  162 354 
 OCA  HE ES   4   1822 45.92                             129   -0.48 0  162 354 
 OCA  HZ I        1822 49.76        22.0 0.28            129            162 354 
 ZAR  HZ EP   1   1822 28.14                             122   -0.25 6  204 293 
 ZAR  HN ES   1   1822 54.48                             122    0.95 6  204 293 
 ZAR  HZ I        1822 56.47        14.2 0.28            122            204 293 
 NOR  HZ EP       1822 31.78                             118    0.25 8  233 235 
 NOR  HN ES   1   1822 59.02                             118   -0.11 6  233 235 
 NOR  HZ I        1823  3.60         9.9 0.24            118            233 235 
 SML  HZ EP   1   1822 32.22                             117   -0.52 6  245 336 
 SML  HN ES       1823  0.71                             117   -0.56 8  245 336 
 SML  HZ I        1823  4.53        24.7 0.10            117            245 336 
 PRA  HZ EP   1   1822 50.04                             106    0.68 4  390 210 
 PRA  HN ES       1823 31.22                             106    0.37 6  390 210 
 PRA  HZ I        1823 37.75         3.1 0.28            107            390 210 
                                                                                
