 2017  416 1046 50.6 L   6.665 -73.195146.0  RSN  4 0.2 1.2LRSN                1
 GAP=220        0.63       8.1     4.5  5.4  0.7507E+01  0.1366E+01  0.1159E+02E
 Epicentro: VILLANUEVA - SANTANDER                                             3
 ACTION:UPD 17-05-30 21:12 OP:jn   STATUS:               ID:20170416104650 L   I
 OLDACT:UP  17-04-16 20:57 OP:edw  STATUS:               ID:20170416103630     3
 OLDACT:REG 17-04-16 19:45 OP:dani STATUS:               ID:20170416103630     3
 2017-04-16-1038-00M.COL___365                                                 6
 STAT SP IPHASW D HRMM SECON CODA AMPLIT PERI AZIMU VELO AIN AR TRES W  DIS CAZ7
 BAR2 EZ IP     D 1047 10.33                             177    0.3110 8.12 170 
 BAR2 EZ ES       1047 25.13                             177   -0.0610 8.12 170 
 BAR2 EZ I        1047 26.17         5.2 0.34            176           8.12 170 
 BRR  HZ EP       1047 12.09                             151    0.1210 75.2 311 
 BRR  HN ES       1047 28.44                             151   -0.2310 75.2 311 
 PTB  HZ EP       1047 16.69                             134   -0.19 9  140 264 
 PTB  HN ES       1047 37.43                             134    0.03 9  140 264 
 PTB  HZ I        1047 39.72         1.2 0.36            132            140 264 
 ZAR  HZ EP   9   1047 21.13                             122   -2.02 0  205 297 
 ZAR  HN ES       1047 47.00                             125    0.45 8  205 297 
 ZAR  HZ I        1047 53.85         1.5 0.28            120            205 297 
                                                                                
