 2016  316 1327 26.5 L   6.802 -73.165140.8  RSN  9 0.3 2.1LRSN                1
 GAP=134        0.77       2.8     3.1  4.7 -0.1454E+01  0.5678E+01  0.1138E+01E
 Epicentro: LOS SANTOS - SANTANDER                                             3
 ACTION:UPD 16-05-13 21:24 OP:cam  STATUS:               ID:20160316132726 L   I
 OLDACT:REG 16-03-16 20:51 OP:cara STATUS:               ID:20160316131748     3
 2016-03-16-1317-48M.COL___297                                                 6
 STAT SP IPHASW D HRMM SECON CODA AMPLIT PERI AZIMU VELO AIN AR TRES W  DIS CAZ7
 BAR2 EZ IP     C 1327 45.46                             170   -0.0410 23.2 185 
 BAR2 EZ ES       1328  0.13                             170   -0.2110 23.2 185 
 BAR2 EZ I        1328  3.19        25.6 0.24            169           23.2 185 
 PAM  EZ IP     C 1327 48.45                             149    0.2110 78.6  41 
 PAM  EN ES       1328  5.37                             149    0.1610 78.6  41 
 PAM  EZ I        1328  7.71        19.9 0.54            155           78.6  41 
 RUS  HZ EP       1327 49.53                             143   -0.2410  101 175 
 RUS  HN ES       1328  8.02                             143    0.0910  101 175 
 RUS  HZ I        1328  9.36         7.1 0.34            145            101 175 
 PTB  HZ EP       1327 52.32                             131   -0.53 9  146 259 
 PTB  HN ES       1328 13.59                             131    0.16 9  146 259 
 PTB  HZ I        1328 17.22        15.6 0.32            132            146 259 
 SPBC HZ EP       1327 54.44                             128   -0.04 9  162 218 
 SPBC HE ES       1328 16.79                             128    0.46 9  162 218 
 SPBC HZ I        1328 22.41        18.9 0.22            130            162 218 
 ZAR  HZ EP       1327 58.84                             121    0.45 9  202 292 
 ZAR  HN ES       1328 22.70                             121   -0.58 9  202 292 
 ZAR  HZ I        1328 29.63        20.8 0.56            123            202 292 
 NOR  HZ IP       1328  2.03                             118    0.28 8  233 234 
 NOR  HN ES       1328 29.60                             118    0.34 8  233 234 
 NOR  HZ I        1328 33.64        12.5 0.42            120            233 234 
 CHI  HZ EP       1328  3.52                             116   -0.34 8  248 195 
 CHI  HN ES       1328 32.64                             116   -0.38 8  248 195 
 CHI  HZ I        1328 38.72         5.1 0.36            119            248 195 
 GUY2CHZ EP       1328 10.06                             111    0.39 7  300 235 
 GUY2CHN ES       1328 43.25                             111   -0.12 7  300 235 
 GUY2CHZ I        1328 52.14        11.6 0.34                           300 235 
                                                                                
