 2011  916 1939 50.2 L   6.790 -73.149146.7  RSN  8 0.3 2.0LRSN                1
 GAP=137        0.72       3.5     4.9  5.5  0.9843E+00  0.2970E+01  0.5687E+01E
 Epicentro: LOS SANTOS - SANTANDER                                             3
 ACTION:UPD 12-07-13 15:57 OP:ep   STATUS:               ID:20110916193950 L   I
 2011-09-16-1938-00S.COL___171                                                 6
 STAT SP IPHASW D HRMM SECON CODA AMPLIT PERI AZIMU VELO AIN AR TRES W  DIS CAZ7
 BTL  SZ EP       1940 10.13                             172    0.2210 19.3 317 
 BAR2 SZ EP       1940  9.92                             171   -0.0410 22.1 190 
 BAR2 SZ ES   1   1940 24.75                             171   -0.59 7 22.1 190 
 BAR2 SZ I        1940 25.95        18.9 0.28                          22.1 190 
 GIR2 SZ EP       1940  9.80                             167   -0.2510 32.3 351 
 GIR2 SZ ES   1   1940 25.26                             167   -0.25 7 32.3 351 
 BRR  HZ EP       1940 11.64                             152    0.1410 71.4 299 
 BRR  HZ I        1940 11.83        23.7 0.12                          71.4 299 
 BRR  HN ES   1   1940 28.92                             152    0.83 7 71.4 299 
 PAM  SZ EP       1940 12.78                             151    0.1610 78.5  39 
 PAM  SN ES   1   1940 29.97                             151   -0.11 7 78.5  39 
 RUS  HZ EP       1940 14.03                             144    0.0310 99.5 176 
 RUS  HN ES   1   1940 32.77                             144    0.23 7 99.5 176 
 ZAR  HN ES   1   1940 47.62                             122   -0.50 6  204 292 
 ZAR  HZ I        1940 53.07         8.2 0.54                           204 292 
 CHI  HZ EP       1940 27.65                             117   -0.21 8  247 195 
 CHI  HN ES   1   1940 57.29                             117    0.09 6  247 195 
 CHI  HZ I        1941  0.54         4.9 0.40                           247 195 
                                                                                
