 2014  716 1601  0.4 L   6.735 -73.176148.4  RSN  5 0.4 1.5LRSN                1
 GAP=229        0.97       7.7     7.1  7.8  0.2861E+02  0.1209E+02 -0.9961E+01E
 Epicentro: VILLANUEVA - SANTANDER                                             3
 ACTION:UPD 15-03-16 20:44 OP:nd   STATUS:               ID:20140716160100 L   I
 OLDACT:REG 14-07-16 21:20 OP:stll STATUS:               ID:20140716155818     3
 2014-07-16-1558-18M.COL___256                                                 6
 STAT SP IPHASW D HRMM SECON CODA AMPLIT PERI AZIMU VELO AIN AR TRES W  DIS CAZ7
 BAR2 SZ EP       16 1 19.94                             174   -0.2610 15.9 183 
 BAR2 SZ ES       16 1 35.35                             174   -0.3110 15.9 183 
 BAR2 SZ I        16 1 36.60         6.6 0.20            171           15.9 183 
 BRR  HZ EP       16 1 21.87                             153    0.0010 72.1 305 
 BRR  HZ I        16 1 22.10         8.3 0.14            152           72.1 305 
 BRR  HN ES       16 1 38.85                             153    0.2310 72.1 305 
 RUS  HN ES       16 1 42.72                             146    0.4410 93.8 174 
 RUS  HZ I        16 1 44.25         2.9 0.42            145           93.8 174 
 PTB  HZ EP       16 1 26.54                             134   -0.63 9  143 261 
 PTB  HN ES       16 1 47.98                             134   -0.07 9  143 261 
 PTB  HZ I        16 1 50.55         4.0 0.18            133            143 261 
 ZAR  HZ EP       16 1 33.74                             123    0.76 9  204 294 
 ZAR  HE ES       16 1 58.35                             123   -0.05 9  204 294 
 ZAR  HZ I        16 2  0.49         4.4 0.46            123            204 294 
                                                                                
