 2017  316 1237 21.2 L   6.723 -73.756 96.0  RSN  7 0.4 1.6LRSN                1
 GAP= 62        0.98       3.7     3.4  7.2 -0.2684E+01 -0.5088E+01  0.5607E+01E
 Epicentro: EL CARMEN - SANTANDER                                              3
 ACTION:UPD 17-05-25 18:41 OP:jn   STATUS:               ID:20170316123721 L   I
 OLDACT:UP  17-03-17 00:22 OP:dnl  STATUS:               ID:20170316122743     3
 OLDACT:UP  17-03-17 00:21 OP:dnl  STATUS:               ID:20170316122743     3
 OLDACT:REG 17-03-16 21:17 OP:dnl  STATUS:               ID:20170316122743     3
 2017-03-16-1228-00M.COL___406                                                 6
 STAT SP IPHASW D HRMM SECON CODA AMPLIT PERI AZIMU VELO AIN AR TRES W  DIS CAZ7
 BRR  HZ EP       1237 35.64                             155    0.2410 42.8   7 
 BRR  HE ES       1237 46.94                             155    0.4910 42.8   7 
 BRR  HZ I        1237 57.89        10.5 0.44            151           42.8   7 
 BAR2 EZ EP       1237 37.38                             144    0.2110 65.1 103 
 BAR2 EZ ES       1237 49.62                             144    0.0310 65.1 103 
 BAR2 EZ I        1237 50.57        14.2 0.34            143           65.1 103 
 PTB  HZ IP     C 1237 37.96                             138   -0.0810 80.0 255 
 PTB  HN ES       1237 50.54                             138   -0.6010 80.0 255 
 PTB  HZ I        1237 51.22        13.5 0.34            135           80.0 255 
 RUS  HZ EP       1237 42.40                             126    0.1810  118 141 
 RUS  HZ I        1237 58.15         4.3 0.72            125            118 141 
 RUS  HN ES       1237 58.80                             126    0.2110  118 141 
 SPBC HZ EP   2   1237 42.60                             125    0.37 5  123 196 
 SPBC HE ES       1237 58.55                             125   -0.0510  123 196 
 SPBC HZ I        1238  1.05         8.2 0.10            123            123 196 
 PAM  EZ EP       1237 43.95                             122   -0.02 9  135  60 
 PAM  EN ES       1238  0.94                             122   -0.76 9  135  60 
 PAM  EZ I        1238  2.50         5.9 0.40            120            135  60 
 ZAR  HZ EP   9   1237 46.36                             119    1.59 0  149 305 
 ZAR  HE ES       1238  5.35                             117    0.64 9  149 305 
 ZAR  HZ I        1238  8.31         7.2 0.34            116            149 305 
                                                                                
