 2017  316 1505 28.1 L   6.796 -73.101140.5  RSN 22 0.5 2.9LRSN                1
 GAP= 99        1.06       3.8     3.2  5.0 -0.1982E+00  0.3911E+01  0.5853E+01E
 Epicentro: LOS SANTOS - SANTANDER                                             3
 ACTION:UPD 17-05-25 18:41 OP:jn   STATUS:               ID:20170316150528 L   I
 OLDACT:UP  17-03-17 00:59 OP:dnl  STATUS:               ID:20170316145744     3
 OLDACT:UP  17-03-17 00:59 OP:dnl  STATUS:               ID:20170316145744     3
 OLDACT:UP  17-03-17 00:57 OP:dnl  STATUS:               ID:20170316145744     3
 OLDACT:REG 17-03-16 21:59 OP:dnl  STATUS:               ID:20170316145744     3
 2017-03-16-1458-00M.COL___412                                                 6
 STAT SP IPHASW D HRMM SECON CODA AMPLIT PERI AZIMU VELO AIN AR TRES W  DIS CAZ7
 BAR2 EZ IP     C 15 5 46.83                             170   -0.2910 24.2 202 
 BAR2 EZ ES       15 6  1.45                             170   -0.5010 24.2 202 
 BAR2 EZ I        15 6  2.89       290.7 0.18            164           24.2 202 
 PAM  EZ IP     D 15 5 49.66                             151    0.0610 74.7  36 
 PAM  EN ES       15 6  6.62                             151    0.2510 74.7  36 
 PAM  EZ I        15 6  9.02       187.8 0.58            158           74.7  36 
 BRR  HZ EP       15 5 48.87                             150   -0.0910 75.8 297 
 BRR  HN ES       15 6  5.64                             150    0.4110 75.8 297 
 BRR  HZ I        15 6 10.01        93.9 0.48            150           75.8 297 
 RUS  HZ EP       15 5 50.86                             143   -0.4310 99.9 179 
 RUS  HN ES       15 6  9.24                             143   -0.1310 99.9 179 
 RUS  HZ I        15 6 10.48        99.6 0.28            142           99.9 179 
 TAM  HZ IP     D 15 5 55.08                             130    0.17 9  150 105 
 TAM  HE ES       15 6 16.46                             130    0.65 9  150 105 
 TAM  HZ I        15 6 17.02        51.3 0.28            134            150 105 
 PTB  HZ EP   4   15 5 53.63                             130   -1.47 0  153 259 
 PTB  HE ES       15 6 16.48                             130    0.33 9  153 259 
 PTB  HZ I        15 6 17.26       164.6 0.50            129            153 259 
 SPBC HZ EP       15 5 55.80                             127   -0.68 9  166 220 
 SPBC HE ES       15 6 18.25                             127   -0.36 9  166 220 
 SPBC HZ I        15 6 25.45       113.8 0.20            127            166 220 
 ZAR  HZ EP       15 6  0.09                             120   -0.63 8  209 292 
 ZAR  HE ES       15 6 25.94                             120   -0.21 8  209 292 
 ZAR  HZ I        15 6 31.85        85.6 0.30            122            209 292 
 CHI  HZ EP       15 6  5.10                             116   -0.52 8  250 196 
 CHI  HE ES   4   15 6 36.53                             116    1.66 0  250 196 
 CHI  HZ I        15 6 44.71        26.9 0.44            116            250 196 
 ROSC BZ IP     C 15 6  6.73                             115    0.54 8  255 212 
 ROSC BN ES   4   15 6 39.10                             115    3.21 0  255 212 
 ROSC BZ I        15 6 44.14        42.2 0.35            116            255 212 
 HEL  HZ EP       15 6  9.30                             113    0.72 7  277 256 
 HEL  HE ES   4   15 6 38.64                             113   -1.52 0  277 256 
 HEL  HZ I        15 6 45.96        61.6 0.32            114            277 256 
 URE  HZ EP   4   15 6  7.01                             112   -2.46 0  289 292 
 URE  HE ES   4   15 6 38.94                             112   -2.79 0  289 292 
 URE  HZ I        15 6 41.11        56.4 0.12            113            289 292 
 VIL  EZ EP       15 6 10.76                             111   -0.59 7  304 193 
 VIL  EN ES   4   15 6 47.17                             111    2.09 0  304 193 
 VIL  EZ I        15 6 49.76        34.4 0.46            112            304 193 
 GUY2CHZ EP       15 6 12.24                             111    0.33 7  305 235 
 GUY2CHN ES   4   15 6 48.40                             111    2.33 0  305 235 
 GUY2CHZ  IAML    15 6 53.48        40.3 0.36                           305 235 
 PTGC HZ EP   4   15 6 10.07                             111   -1.41 0  306 159 
 PTGC HN ES   4   15 6 43.17                             111   -2.14 0  306 159 
 PTGC HZ I        15 6 44.60        32.1 0.38            112            306 159 
 ELA  HZ EP   2   15 6 16.12                             109    0.98 3  333 230 
 ELA  HN ES   4   15 6 54.64                             109    2.81 0  333 230 
 ELA  HZ I        15 6 59.31        27.1 0.38            110            333 230 
 CBOC HZ EP       15 6 15.35                             109    0.01 7  338 252 
 CBOC HN ES   4   15 6 50.55                             109   -1.63 0  338 252 
 CBOC HZ I        15 6 54.74        18.5 0.24            109            338 252 
 DBB  EZ EP   2   15 6 15.35                             108   -0.60 3  344 274 
 DBB  EE ES   4   15 6 51.34                             108   -1.93 0  344 274 
 DBB  EZ I        15 6 59.01        60.5 0.28            109            344 274 
 ANIL HZ EP       15 6 18.46                             107    0.38 6  361 225 
 ANIL HE ES       15 6 58.23                             107    1.17 6  361 225 
 ANIL HZ I        15 7  7.99        86.4 0.26            108            361 225 
 ORTC HZ EP       15 6 21.79                             105   -0.36 6  398 217 
 ORTC HN ES       15 7  5.41                             105    1.10 6  398 217 
 ORTC HZ I        15 7 11.15        16.6 0.58            106            398 217 
 SJC  HZ EP   4   15 6 21.37                             105   -2.50 0  412 326 
 SJC  HN ES   4   15 7  2.74                             105   -4.63 0  412 326 
 SJC  HZ I        15 7  7.42        17.4 0.44            106            412 326 
 SOTO HZ EP   2   15 6 52.91                              98    0.56 1  646 217 
 SOTO HE ES   4   15 8  2.82                              98    4.76 0  646 217 
                                                                                
