 2016  616 1313 57.1 L   6.803 -73.147150.0  RSN 23 0.4 2.6LRSN                1
 GAP= 71        0.84       2.6     2.6  4.1 -0.2400E+01  0.8016E+00  0.2069E+01E
 Epicentro: LOS SANTOS - SANTANDER                                             3
 ACTION:UPD 16-07-21 22:19 OP:rebc STATUS:               ID:20160616131357 L   I
 OLDACT:REG 16-06-16 21:31 OP:dnl  STATUS:               ID:20160616130746     3
 2016-06-16-1307-46M.COL___343                                                 6
 STAT SP IPHASW D HRMM SECON CODA AMPLIT PERI AZIMU VELO AIN AR TRES W  DIS CAZ7
 BAR2 EZ IP     D 1314 17.12                             171   -0.1310 23.6 190 
 BAR2 EZ ES       1314 32.58                             171   -0.3910 23.6 190 
 BAR2 EZ I        1314 34.69        72.1 0.20                          23.6 190 
 BRR  HZ EP     D 1314 19.10                             153    0.4010 71.0 298 
 BRR  HN ES       1314 36.49                             153    0.9410 71.0 298 
 BRR  HZ I        1314 41.63        92.7 0.14                          71.0 298 
 PAM  EZ IP     D 1314 20.00                             152    0.2410 77.2  40 
 PAM  EN ES       1314 37.18                             152   -0.2610 77.2  40 
 PAM  EZ I        1314 39.76        93.3 0.60                          77.2  40 
 RUS  HZ EP       1314 20.97                             145   -0.3310  101 176 
 RUS  HN ES       1314 40.17                             145   -0.0010  101 176 
 RUS  HZ I        1314 40.80        25.8 0.24                           101 176 
 PTB  HZ EP       1314 23.69                             133   -0.73 9  148 259 
 PTB  HN ES       1314 45.20                             133   -0.53 9  148 259 
 PTB  HZ I        1314 46.77        56.6 0.30                           148 259 
 TAM  HZ IP     D 1314 25.29                             131    0.15 9  155 105 
 TAM  HN IP     C 1314 25.33                             131    0.19 9  155 105 
 TAM  HZ I        1315 11.02        25.0 0.30                           155 105 
 OCA  HZ EP       1314 25.68                             131   -0.04 9  160 353 
 OCA  HN ES       1314 47.90                             131   -0.14 9  160 353 
 OCA  HZ I        1314 56.33       131.3 0.48                           160 353 
 SPBC HZ EP       1314 26.09                             130    0.14 9  163 219 
 SPBC HE ES       1314 48.67                             130    0.22 9  163 219 
 SPBC HZ I        1314 50.63        55.6 0.16                           163 219 
 ZAR  HZ EP   2   1314 29.93                             123    0.12 4  204 292 
 ZAR  HE ES   3   1314 54.83                             123   -0.49 2  204 292 
 ZAR  HZ I        1315  3.11        55.1 0.20                           204 292 
 NOR  HZ EP       1314 33.60                             119    0.50 8  235 234 
 NOR  HN ES       1315  1.23                             119    0.06 8  235 234 
 NOR  HZ I        1315  6.24        32.6 0.20                           235 234 
 CHI  HZ EP   2   1314 33.87                             118   -1.20 4  249 195 
 CHI  HN ES   2   1315  4.51                             118   -0.18 4  249 195 
 CHI  HZ I        1315  8.81        10.3 0.44                           249 195 
 HEL  HZ EP   4   1314 38.91                             116    1.37 0  272 256 
 HEL  HN ES       1315  8.92                             116   -0.15 8  272 256 
 HEL  HZ I        1315 16.81        23.6 0.26                           272 256 
 URE  HZ EP   4   1314 36.99                             114   -1.37 0  284 292 
 URE  HN ES   4   1315  8.60                             114   -1.94 0  284 292 
 URE  HZ I        1315 17.04        37.5 0.22                           284 292 
 GUY2CHZ EP   4   1314 42.18                             113    1.25 0  301 235 
 SOCV BZ EP   2   1314 39.67                             113   -0.67 4  301  57 
 GUY2CHZ I        1315 23.26        19.1 0.26                           301 235 
 SOCV BE ES   4   1315 12.14                             113   -1.92 0  301  57 
 GUY2CHN ES       1315 15.17                             113    0.07 7  301 235 
 PTGC HZ EP   4   1314 39.90                             112   -1.29 0  309 159 
 PTGC HN ES   4   1315 12.96                             112   -2.62 0  309 159 
 PTGC HZ I        1315 14.52        24.1 0.52                           309 159 
 CBOC HZ EP   4   1314 45.25                             111    1.05 0  334 252 
 CBOC HE ES   2   1315 20.02                             111   -0.91 3  334 252 
 CBOC HZ I        1315 27.92         7.3 0.22                           334 252 
 DBB  SZ EP   2   1314 44.33                             110   -0.41 3  339 274 
 DBB  SZ ES   4   1315 20.03                             110   -1.87 0  339 274 
 ANIL HN ES   2   1315 26.79                             109    0.70 3  358 224 
 ANIL HZ I        1315 34.86        42.6 0.32                           358 224 
 PRA  HZ EP       1314 51.19                             107    0.39 6  392 210 
 PRA  HE ES       1315 33.14                             107    0.45 6  392 210 
 PRA  HZ I        1315 36.23        11.1 0.24                           392 210 
 ORTC HZ EP   3   1314 51.61                             107    0.41 1  396 216 
 ORTC HN ES   2   1315 33.27                             107   -0.12 3  396 216 
 ORTC HZ I        1315 40.47         6.3 0.70                           396 216 
 PAL  HZ EP   2   1314 52.94                             106    0.52 3  406 239 
 PAL  HE ES       1315 35.32                             106   -0.24 6  406 239 
 PAL  HZ I        1315 37.99         5.4 0.28                           406 239 
 CRJC HZ EP   4   1314 57.23                             104   -2.46 0  467   4 
 CRJC HN ES   4   1315 44.56                             104   -3.94 0  467   4 
 CRJC HZ I        1315 52.89        10.5 0.60                           467   4 
                                                                                
