 2011 1016 1937 33.5 L   6.780 -73.106144.3  RSN  4 0.3 1.5LRSN                1
 GAP=143        0.64       4.5     6.8  7.0 -0.6672E+00 -0.3171E+01  0.1191E+01E
 Epicentro: LOS SANTOS - SANTANDER                                             3
 ACTION:UPD 12-07-13 16:04 OP:ep   STATUS:               ID:20111016193733 L   I
 2011-10-16-1935-55S.COL___168                                                 6
 STAT SP IPHASW D HRMM SECON CODA AMPLIT PERI AZIMU VELO AIN AR TRES W  DIS CAZ7
 BAR2 SZ EP   1   1937 52.86                             171   -0.05 7 22.4 202 
 BAR2 SZ ES   1   1938  7.63                             171   -0.44 7 22.4 202 
 BAR2 SZ I        1938  9.43         8.0 0.21                          22.4 202 
 BRR  HZ EP   1   1937 54.66                             151   -0.09 7 76.1 298 
 BRR  HN ES   1   1938 11.55                             151    0.21 7 76.1 298 
 BRR  HZ I        1938 12.62        14.1 0.14                          76.1 298 
 PAM  SZ EP   1   1937 55.82                             151    0.34 7 76.5  36 
 PAM  SZ I        1937 55.93         6.6 0.16                          76.5  36 
 PAM  SN ES   1   1938 12.57                             151   -0.07 7 76.5  36 
 RUS  HZ EP   1   1937 56.52                             144   -0.39 7 98.1 179 
 RUS  HZ I        1937 58.12         2.7 0.11                          98.1 179 
 RUS  HE ES   1   1938 15.66                             144    0.48 7 98.1 179 
                                                                                
