 2011 1216 2254 52.6 L   6.782 -73.073147.9  RSN  4 0.1 1.5LRSN                1
 GAP=147        0.37       3.3     5.1  5.5 -0.1448E+01  0.6035E+00  0.6711E+01E
 Epicentro: LOS SANTOS - SANTANDER                                             3
 ACTION:UPD 12-07-13 16:16 OP:ep   STATUS:               ID:20111216225452 L   I
 2011-12-16-2250-00M.COL___187                                                 6
 STAT SP IPHASW D HRMM SECON CODA AMPLIT PERI AZIMU VELO AIN AR TRES W  DIS CAZ7
 PAM  SZ EP   1   2255 14.71                             152   -0.19 7 74.2  34 
 PAM  SN ES   2   2255 32.43                             152    0.17 5 74.2  34 
 BRR  HZ EP   1   2255 14.43                             150   -0.06 7 79.2 297 
 BRR  HZ I        2255 15.01        12.4 0.13                          79.2 297 
 BRR  HN ES   2   2255 31.54                             150    0.01 5 79.2 297 
 RUS  HZ EP   1   2255 16.67                             145    0.23 7 98.3 181 
 RUS  HZ I        2255 18.00         2.5 0.15                          98.3 181 
 RUS  HN ES   2   2255 34.84                             145   -0.17 5 98.3 181 
 CHI  HZ EP   1   2255 30.52                             117    0.03 6  249 197 
                                                                                
