 2015  116 2142 41.2 L   6.815 -73.142139.3  RSN 22 0.5 2.6LRSN                1
 GAP= 55        1.19       2.6     3.1  5.1 -0.6640E+00  0.2702E+01  0.1482E+01E
 Epicentro: LOS SANTOS - SANTANDER                                             3
 OLDACT:REG 15-01-17 05:12 OP:fm   STATUS:               ID:20150116213746     3
 ACTION:UPD 15-03-02 15:40 OP:nd   STATUS:               ID:20150116214241 L   I
 OLDACT:UP  15-01-17 05:41 OP:fm   STATUS:               ID:20150116213746     3
 OLDACT:UP  15-01-17 05:34 OP:fm   STATUS:               ID:20150116213746     3
 2015-01-16-2137-46M.COL___253                                                 6
 STAT SP IPHASW D HRMM SECON CODA AMPLIT PERI AZIMU VELO AIN AR TRES W  DIS CAZ7
 BAR2 EZ EP     C 2143  0.42                             169    0.3210 25.1 190 
 BAR2 EZ ES       2143 14.87                             169    0.0310 25.1 190 
 BAR2 EZ I        2143 16.50       138.2 0.18            167           25.1 190 
 BRR  HZ EP     C 2143  2.27                             152    0.6310 70.7 297 
 BRR  HE ES       2143 17.93                             152    0.3610 70.7 297 
 BRR  HZ I        2143 22.30        74.0 0.20            151           70.7 297 
 PAM  SZ EP     D 2143  3.23                             150    0.5810 75.8  40 
 PAM  SE ES       2143 20.05                             150    0.6810 75.8  40 
 PAM  SZ I        2143 20.73        79.7 0.30            154           75.8  40 
 RUS  HZ EP       2143  4.42                             142   -0.0410  102 176 
 RUS  HE ES       2143 22.29                             142   -0.3010  102 176 
 RUS  HZ I        2143 24.10        26.8 0.40            143            102 176 
 PTB  HZ EP       2143  7.08                             130   -0.65 9  148 258 
 PTB  HE ES       2143 27.68                             130   -0.73 9  148 258 
 PTB  HZ I        2143 30.82        84.5 0.16            130            148 258 
 TAM  HZ EP       2143  8.88                             129    0.49 9  155 106 
 TAM  HN ES       2143 29.19                             129   -0.40 9  155 106 
 TAM  HZ I        2143 31.71        35.1 0.50            133            155 106 
 OCA  HZ EP       2143  8.69                             128   -0.18 9  159 353 
 OCA  HE ES       2143 29.66                             128   -0.78 9  159 353 
 OCA  HZ I        2143 33.66        60.2 0.36            131            159 353 
 SPBC HZ EP       2143  9.42                             127    0.04 9  165 219 
 SPBC HE ES       2143 31.15                             127   -0.19 9  165 219 
 SPBC HZ I        2143 39.13        81.6 0.20            128            165 219 
 ZAR  HZ EP       2143 13.50                             121    0.28 9  204 292 
 ZAR  HN ES       2143 38.70                             121    0.52 9  204 292 
 ZAR  HZ I        2143 45.00        56.2 0.28            122            204 292 
 NOR  HZ EP       2143 16.57                             117   -0.15 8  236 234 
 NOR  HE ES       2143 44.01                             117   -0.40 8  236 234 
 NOR  HZ I        2143 49.70        41.0 0.36            118            236 234 
 SML  HZ EP       2143 16.87                             116   -0.46 8  242 335 
 SML  HE ES       2143 44.49                             116   -1.01 8  242 335 
 SML  HZ I        2143 51.96        42.1 0.10            118            242 335 
 CHI  HZ EP       2143 18.83                             116    0.08 8  250 195 
 CHI  HN ES       2143 47.50                             116   -0.53 8  250 195 
 CHI  HZ I        2143 55.69        15.6 0.26            117            250 195 
 ROSC BZ EP       2143 20.06                             115    0.89 8  254 211 
 ROSC BE ES       2143 49.01                             115    0.23 8  254 211 
 ROSC BZ I        2143 56.89        41.5 0.60            116            254 211 
 HEL  HZ EP       2143 21.97                             113    0.78 8  273 255 
 HEL  HE ES       2143 52.56                             113    0.18 8  273 255 
 HEL  HZ I        2143 58.82        27.7 0.36            114            273 255 
 URE  HZ EP       2143 22.38                             112    0.43 7  284 292 
 URE  HE ES   4   2143 51.33                             112   -2.39 0  284 292 
 URE  HZ I        2143 56.16        29.0 0.36            113            284 292 
 VIL  SE ES       2143 58.39                             111    0.05 7  305 192 
 VIL  SZ I        2144  4.42        26.9 0.38            112            305 192 
 PTGC HZ EP       2143 23.88                             110   -1.07 7  310 159 
 PTGC HE ES   4   2143 55.97                             110   -3.10 0  310 159 
 PTGC HZ I        2143 59.64        24.8 0.26            112            310 159 
 CBOC HE ES   4   2144  5.52                             109    1.08 0  335 252 
 CBOC HZ I        2144  9.12         7.5 0.18            109            335 252 
 SDV  BZ EP       2143 30.19                             107   -0.66 6  359  50 
 SDV  BN ES   4   2144  6.29                             107   -3.28 0  359  50 
 ORTC HZ EP       2143 35.49                             105    0.38 6  397 216 
 ORTC HN ES       2144 16.69                             105   -0.45 6  397 216 
 ORTC HZ I        2144 22.56        12.1 0.26            106            397 216 
 PAL  HZ EP       2143 36.57                             105    0.26 6  407 239 
 PAL  HE ES   4   2144 17.91                             105   -1.37 0  407 239 
 PAL  HZ I        2144 21.44         9.0 0.50            106            407 239 
 SJC  HZ EP   4   2143 35.29                             105   -1.14 0  408 327 
 SJC  HN ES   4   2144 15.72                             105   -3.77 0  408 327 
 SJC  HZ I        2144 20.03        14.6 0.48            106            408 327 
 MACC HE ES   4   2144 39.28                             101   -4.34 0  522 189 
                                                                                
