 2016 1216 2145 20.0 L   6.810 -73.163146.9  RSN 25 0.5 3.0LRSN 3.6WRSN        1
 SPEC AVERAGE  MO 14.5 ST0.258 OM  2.6 f0 1.09 R2.0095 AL 0.00 WI 40.0 MW  3.6 3
 SPEC SD       MO  0.2 ST0.255 OM  0.5 f00.479 R0.6053 AL      WI      MW  0.2 3
 GAP= 70        1.03       3.3     2.8  4.6  0.4420E+00  0.4306E+01  0.3199E+01E
 Epicentro: LOS SANTOS - SANTANDER                                             3
 SPEC ZAR HH Z MO 14.1 ST0.943 OM  2.0 f0 2.28 R0.8439 AL-0.00 WI 40.0 MW  3.4 3
 SPEC ZAR HH Z T214616 K 0.000 GD  249 VS 5.20 DE 3.50 Q0750.0 QA 1.50 Q1 0.00 3
 SPEC ROSCBH Z MO 14.9 ST0.181 OM  2.7 f00.729 R2.6392 AL-0.00 WI 40.0 MW  3.9 3
 SPEC ROSCBH Z T214628 K 0.000 GD  292 VS 5.20 DE 3.50 Q0750.0 QA 1.50 Q1 0.00 3
 SPECGUY2CHH Z MO 14.7 ST0.113 OM  2.5 f00.696 R2.7644 AL-0.00 WI 40.0 MW  3.8 3
 SPECGUY2CHH Z T214640 K 0.000 GD  334 VS 5.20 DE 3.50 Q0750.0 QA 1.50 Q1 0.00 3
 SPEC VIL EH Z MO 14.5 ST0.201 OM  2.3 f00.979 R1.9653 AL-0.00 WI 40.0 MW  3.6 3
 SPEC VIL EH Z T214635 K 0.000 GD  337 VS 5.20 DE 3.50 Q0750.0 QA 1.50 Q1 0.00 3
 SPEC ELA HH Z MO 14.6 ST0.116 OM  2.3 f00.797 R2.4141 AL-0.00 WI 40.0 MW  3.7 3
 SPEC ELA HH Z T214643 K 0.000 GD  359 VS 5.20 DE 3.50 Q0750.0 QA 1.50 Q1 0.00 3
 SPEC ANILHH Z MO 14.3 ST0.383 OM  2.0 f0 1.46 R1.3178 AL-0.00 WI 40.0 MW  3.5 3
 SPEC ANILHH Z T214649 K 0.000 GD  386 VS 5.20 DE 3.50 Q0750.0 QA 1.50 Q1 0.00 3
 SPEC ORTCHH Z MO 14.6 ST0.136 OM  2.3 f00.797 R2.4141 AL-0.00 WI 40.0 MW  3.7 3
 SPEC ORTCHH Z T214655 K 0.000 GD  421 VS 5.20 DE 3.50 Q0750.0 QA 1.50 Q1 0.00 3
 SPEC PAL HH Z MO 14.3 ST0.104 OM  2.0 f00.912 R2.1096 AL-0.00 WI 40.0 MW  3.5 3
 SPEC PAL HH Z T214655 K 0.000 GD  430 VS 5.20 DE 3.50 Q0750.0 QA 1.50 Q1 0.00 3
 SPEC SJC HH Z MO 14.1 ST0.146 OM  1.8 f0 1.19 R1.6168 AL-0.00 WI 40.0 MW  3.4 3
 SPEC SJC HH Z T214653 K 0.000 GD  432 VS 5.20 DE 3.50 Q0750.0 QA 1.50 Q1 0.00 3
 OLDACT:UP  16-12-17 06:08 OP:dnl  STATUS:               ID:20161216213749     3
 OLDACT:UP  16-12-17 06:07 OP:dnl  STATUS:               ID:20161216213749     3
 OLDACT:REG 16-12-17 05:41 OP:dnl  STATUS:               ID:20161216213749     3
 ACTION:UPD 17-01-11 20:15 OP:rebc STATUS:               ID:20161216214520 L   I
 OLDACT:UP  16-12-17 06:09 OP:dnl  STATUS:               ID:20161216213749     3
 2016-12-16-2138-00M.COL___390                                                 6
 STAT SP IPHASW D HRMM SECON CODA AMPLIT PERI AZIMU VELO AIN AR TRES W  DIS CAZ7
 BAR2 EZ EP       2145 39.81                             170    0.0110 24.2 185 
 BAR2 EZ ES       2145 54.38                             170   -0.8510 24.2 185 
 BAR2 EZ I        2145 55.92       295.5 0.38            166           24.2 185 
 BRR  HZ IP     C 2145 41.63                             153    0.4610 69.0 298 
 BRR  HN ES       2145 58.63                             153    0.9610 69.0 298 
 BRR  HZ I        2146  1.93       124.2 0.28            152           69.0 298 
 PAM  EZ IP     C 2145 42.63                             151    0.2610 77.8  41 
 PAM  EN ES       2145 59.72                             151   -0.0910 77.8  41 
 PAM  EZ I        2146  2.06       162.2 0.46            158           77.8  41 
 RUS  HZ EP       2145 43.74                             144   -0.2310  102 175 
 RUS  HN ES       2146  2.68                             144    0.0310  102 175 
 RUS  HZ I        2146  4.17       111.3 0.36            144            102 175 
 PTB  HZ EP       2145 46.23                             133   -0.70 9  146 258 
 PTB  HN ES       2146  7.58                             133   -0.34 9  146 258 
 PTB  HZ I        2146 14.95       108.2 0.52            132            146 258 
 TAM  HZ IP     D 2145 48.26                             130    0.28 9  157 105 
 TAM  HN ES       2146  9.82                             130    0.03 9  157 105 
 TAM  HZ I        2146 11.39        89.1 0.44            136            157 105 
 ZAR  HZ EP       2145 52.49                             123    0.18 9  202 292 
 ZAR  HN ES       2146 17.50                             123   -0.01 9  202 292 
 ZAR  HZ I        2146 23.21       126.2 0.50            124            202 292 
 NOR  HZ EP       2145 55.51                             119   -0.21 8  234 234 
 NOR  HN ES       2146 23.48                             119   -0.08 8  234 234 
 NOR  HZ I        2146 33.21        69.5 0.42            119            234 234 
 CHI  HZ EP       2145 57.95                             117    0.11 8  249 195 
 CHI  HN ES       2146 27.27                             117   -0.07 8  249 195 
 CHI  HZ I        2146 32.45        77.1 0.46            119            249 195 
 ROSC BZ EP   9   2145 59.88                             117    1.68 0  253 211 
 ROSC BN ES       2146 30.15                             116    0.49 8  253 211 
 URE  HZ EP       2146  0.16                             114   -0.74 7  282 292 
 URE  HN ES   4   2146 30.26                             114   -2.53 0  282 292 
 URE  HZ I        2146 42.00        40.4 0.22            115            282 292 
 GUY2CHZ EP       2146  3.92                             113    0.34 7  300 234 
 GUY2CHE ES   4   2146 42.21                             113    4.66 0  300 234 
 GUY2CHZ I        2146 46.29        69.9 0.52                           300 234 
 VIL  EZ EP       2146  3.21                             112   -0.36 7  304 191 
 VIL  EE ES   4   2146 37.47                             112   -0.06 0  304 191 
 VIL  EZ I        2146 40.61       116.3 0.40            114            304 191 
 PTGC HZ IP   4 D 2146  2.96                             112   -1.16 0  310 158 
 PTGC HN ES   4   2146 36.74                             112   -1.78 0  310 158 
 PTGC HZ I        2146 39.13        48.1 0.38            114            310 158 
 LL6C HZ EP   9   2145 45.07                             111   -20.6 0  324 358 
 LL6C HE ES       2146 20.68                             111    0.03 7  324 358 
 LL6C HZ I        2146 27.36        32.5 0.52            114            324 358 
 ELA  HZ EP   4   2146  9.07                             111    2.24 0  328 229 
 ELA  HN ES   4   2146 44.97                             111    1.62 0  328 229 
 ELA  HZ I        2146 52.59        53.6 0.58            112            328 229 
 CBOC HZ EP       2146  7.71                             110    0.90 7  332 252 
 CBOC HE ES       2146 43.54                             110    0.23 7  332 252 
 CBOC HZ I        2146 49.46        17.4 0.52            111            332 252 
 DBB  EZ EP       2146  7.39                             110    0.08 7  338 274 
 DBB  EN ES       2146 43.75                             110   -0.46 7  338 274 
 DBB  EZ I        2146 44.60        29.0 0.26            111            338 274 
 ANIL HZ EP       2146 10.11                             109    0.31 6  357 224 
 ANIL HN ES   4   2146 51.20                             109    2.56 0  357 224 
 ORTC HZ EP       2146 13.88                             106   -0.07 6  395 216 
 ORTC HN ES       2146 57.33                             106    1.31 6  395 216 
 ORTC HZ I        2147  1.27        49.1 0.22            108            395 216 
 APAC HZ EP       2146 13.28                             106   -0.71 6  396 288 
 APAC HE ES   4   2146 54.45                             106   -1.65 0  396 288 
 APAC HZ I        2147  0.64        22.2 0.40            108            396 288 
 PAL  HZ EP       2146 15.25                             106    0.16 6  405 239 
 PAL  HN ES   4   2146 56.80                             106   -1.25 0  405 239 
 PAL  HZ I        2147  2.73        13.9 0.22            107            405 239 
 SJC  HZ EP   4   2146 13.75                             106   -1.64 0  407 327 
 SJC  HN ES   4   2146 54.69                             106   -3.89 0  407 327 
 SJC  HZ I        2147  9.71        18.3 0.56            108            407 327 
 CRJC HZ EP   4   2146 20.28                             104   -2.15 0  467   4 
 CRJC HN ES   4   2147  7.33                             104   -3.78 0  467   4 
 CRJC HZ I        2147 10.92        23.4 0.42            106            467   4 
 YOT  HZ EP       2146 22.37                             103   -0.64 5  471 229 
 YOT  HE ES   4   2147 16.55                             103    4.41 0  471 229 
                                                                                
