 2012  916 2226 20.7 L   6.785 -73.197144.7  RSN  6 0.3 1.7LRSN                1
 GAP=131        0.40       3.9     3.0  6.1 -0.1378E+01 -0.1734E+01 -0.3397E+01E
 Epicentro: ZAPATOCA - SANTANDER                                               3
 ACTION:UPD 12-10-22 14:19 OP:ep   STATUS:               ID:20120916222620 L   I
 2012-09-16-2220-00M.COL___227                                                 6
 STAT SP IPHASW D HRMM SECON CODA AMPLIT PERI AZIMU VELO AIN AR TRES W  DIS CAZ7
 BAR2 SZ ES   3   2226 54.88                             171   -0.43 2 21.3 176 
 BAR2 SZ I        2226 56.36        11.8 0.22                          21.3 176 
 GIR2 SZ ES   3   2226 55.12                             167   -0.40 2 32.5   1 
 BRR  HZ EP   3   2226 42.22                             154    0.74 2 67.2 302 
 BRR  HN ES   3   2226 58.74                             154    1.03 2 67.2 302 
 BRR  HN I        2226 59.24        30.2 0.18                          67.2 302 
 PAM  SZ EP       2226 43.05                             149   -0.0210 82.3  42 
 PAM  SZ I        2226 43.15         7.8 0.22                          82.3  42 
 RUS  HZ EP       2226 44.25                             144    0.0210 99.4 173 
 RUS  HN ES   2   2227  2.70                             144    0.09 5 99.4 173 
 RUS  HZ I        2227  4.52         2.5 0.38                          99.4 173 
 PTB  HZ EP       2226 46.96                             133   -0.06 9  142 259 
 PTB  HN ES   1   2227  7.50                             133   -0.07 7  142 259 
                                                                                
