 2012 1116 2025 13.5 L   6.822 -73.159147.3  RSN 10 0.4 1.8LRSN                1
 GAP=200        0.75       3.5     5.0  6.4  0.4433E+01  0.7945E+01  0.5731E+01E
 Epicentro: LOS SANTOS - SANTANDER                                             3
 ACTION:UPD 12-12-05 15:33 OP:}ep  STATUS:               ID:20121116202513 L   I
 2012-11-16-2020-00M.COL___233                                                 6
 STAT SP IPHASW D HRMM SECON CODA AMPLIT PERI AZIMU VELO AIN AR TRES W  DIS CAZ7
 BAR2 SZ EP   1   2025 33.34                             170    0.00 7 25.5 186 
 BAR2 SZ ES   1   2025 48.58                             170   -0.25 7 25.5 186 
 BAR2 SZ I        2025 50.23        16.8 0.28                          25.5 186 
 BRR  HZ EP   1   2025 34.98                             154    0.32 7 68.8 297 
 BRR  HN ES   1   2025 51.82                             154    0.64 7 68.8 297 
 RUS  HZ EP   1   2025 37.49                             143   -0.07 7  103 175 
 RUS  HN ES   1   2025 56.21                             143   -0.14 7  103 175 
 RUS  HZ I        2025 57.04         8.9 0.24                           103 175 
 PTB  HZ EP   1   2025 39.60                             133   -0.88 7  147 258 
 PTB  HN ES   1   2026  0.93                             133   -0.62 7  147 258 
 PTB  HZ I        2026  4.61         8.4 0.12                           147 258 
 ZAR  HN ES   1   2026 11.10                             123    0.11 6  202 292 
 NOR  HE ES   1   2026 17.10                             119   -0.18 6  235 234 
 NOR  HZ I        2026 23.60         5.4 0.14                           235 234 
 SML  HN ES   1   2026 18.36                             118    0.08 6  241 335 
 CHI  HZ EP   1   2025 51.62                             117    0.14 6  251 195 
 CHI  HN ES   1   2026 21.63                             117    0.52 6  251 195 
 CHI  HZ I        2026 24.21         4.1 0.36                           251 195 
 RREF HN ES   1   2026 36.57                             111    0.74 5  322 229 
 PRA  HZ EP   1   2026  7.32                             107    0.11 4  393 209 
 PRA  HE ES   1   2026 49.11                             107   -0.02 4  393 209 
 PRA  HZ I        2026 55.56         2.2 0.38                           393 209 
                                                                                
