 2010  316 2358 46.1 L   6.813 -73.017145.4  RSN 11 0.5 2.4LRSN                1
 GAP=135        0.94       3.4     5.7  5.7 -0.4498E+01 -0.1217E+01  0.8919E+00E
 Epicentro: CEPITA - SANTANDER                                                 3
 ACTION:UP  10-08-24 09:54 OP:vdl  STATUS:               ID:20100316235846 L   I
 2010-03-16-2357-42S.COL___098                                                 6
 STAT SP IPHASW D HRMM SECON CODA AMPLIT PERI AZIMU VELO SNR AR TRES W  DIS CAZ7
 BAR2 SZ EP       2359  5.77                             168    -0.110   31 217 
 BAR2 SZ ES   1   2359 21.05                             168    -0.2 7   31 217 
 BRR  HZ EP       2359  7.71                             149    -0.210   83 293 
 BRR  HZ I        2359  8.03        52.1 0.17                            83 293 
 BRR  HN ES       2359 25.10                             149     0.110   83 293 
 RUS  HZ EP       2359  9.59                             143    -0.310  102 184 
 RUS  HN ES       2359 28.81                             143     0.310  102 184 
 RUS  HZ I        2359 30.15        18.2 0.72                           102 184 
 OCA  SZ EP       2359 14.60                             129     0.1 9  161 348 
 OCA  SZ ES   2   2359 36.66                             129     0.1 5  161 348 
 OCA  SZ I        2359 40.95        50.3 0.42                           161 348 
 CHI  HZ EP       2359 23.96                             117    -0.4 8  254 198 
 CHI  HN ES       2359 54.06                             117    -0.1 8  254 198 
 CHI  HZ I        2359 56.76         8.5 0.53                           254 198 
 ROSC BN ES   2   2359 56.20                             116     0.6 4  262 214 
 ROSC BZ I        24 0  1.00        13.9 0.41                           262 214 
 RREF BZ EP   1   2359 34.24                             110     0.7 5  334 231 
 RREF BN ES       24 0 11.15                             110     0.6 7  334 231 
 RREF BZ I        24 0 17.72        14.0 0.30                           334 231 
 SDV  BZ EP       2359 35.52                             109     0.8 6  349  49 
 SDV  B1 ES   2   24 0 12.41                             109    -0.3 3  349  49 
 DBB  SZ EP       2359 34.26                             109    -0.9 6  354 274 
 TOL  SZ EP   2   2359 37.08                             109     1.5 3  355 226 
 PRA  HZ EP       2359 40.59                             106     0.0 6  400 211 
 PRA  HE ES   1   24 0 22.35                             106    -0.7 4  400 211 
 PRA  HZ I        24 0 25.28        10.9 0.39                           400 211 
                                                                                
