 2010  516 2250  9.6 L   6.718 -73.079154.8  RSN  4 0.2 1.8LRSN                1
 GAP=239        0.52      14.5    26.8 10.4  0.3656E+03 -0.1853E+03 -0.9960E+02E
 Epicentro: JORDAN - SANTANDER                                                 3
 ACTION:UP  10-08-24 10:05 OP:vdl  STATUS:               ID:20100516225009 L   I
 2010-05-16-2240-00S.COL___109                                                 6
 STAT SP IPHASW D HRMM SECON CODA AMPLIT PERI AZIMU VELO AIN AR TRES W  DIS CAZ7
 BAR2 SZ EP   3   2250 29.72                             174    -0.5 2   18 220 
 BRR  HZ EP       2250 32.58                             151     0.210   82 302 
 BRR  HN ES   1   2250 49.90                             151    -0.2 7   82 302 
 BRR  HZ I        2250 53.71        17.9 0.15                            82 302 
 RUS  HZ EP   1   2250 33.38                             148    -0.2 7   91 180 
 RUS  HE ES   1   2250 52.49                             148     0.1 7   91 180 
 RUS  HZ I        2250 53.62         5.3 0.40                            91 180 
 HEL  HZ EP   3   2250 50.62                             116    -0.2 2  277 258 
                                                                                
