 2012  516 2036 51.7 L   6.788 -73.109148.6  RSN  4 0.3 1.3LRSN                1
 GAP=142        0.59       4.7     6.2  9.0 -0.8449E+01  0.2658E+02 -0.5693E+01E
 Epicentro: LOS SANTOS - SANTANDER                                             3
 ACTION:UP  12-07-05 12:05 OP:pat  STATUS:               ID:20120516203651 L   I
 2012-05-16-2030-00M.COL___197                                                 6
 STAT SP IPHASW D HRMM SECON CODA AMPLIT PERI AZIMU VELO SNR AR TRES W  DIS CAZ7
 BRR  HZ EP   1   2037 13.69                             152     0.3 7   75 298 
 PAM  SZ EP   1   2037 14.49                             152     0.3 7   76  37 
 PAM  SN ES   1   2037 31.40                             152    -0.3 7   76  37 
 RUS  HZ EP   1   2037 15.40                             145    -0.3 7   99 178 
 RUS  HN ES   1   2037 34.48                             145     0.2 7   99 178 
 RUS  HZ I        2037 34.96         2.8 0.37                            99 178 
 PTB  HZ EP   1   2037 18.97                             132    -0.3 7  151 260 
 PTB  HE ES   2   2037 40.80                             132     0.1 5  151 260 
 PTB  HZ I        2037 46.86         3.2 0.36                           151 260 
                                                                                
