 2012  816 2250 56.9 L   7.257 -74.193  6.6  RSN 10 0.4 2.1LRSN                1
 GAP=112        0.73       2.5     1.6  5.3  0.9014E-01  0.1398E+01  0.5136E+01E
 Epicentro: PUERTO WILCHES - SANTANDER                                         3
 ACTION:UPD 12-09-10 11:56 OP:ep   STATUS:               ID:20120816225056 L   I
 2012-08-16-2250-00M.COL___216                                                 6
 STAT SP IPHASW D HRMM SECON CODA AMPLIT PERI AZIMU VELO AIN AR TRES W  DIS CAZ7
 BRR  HZ EP       2251  5.94                              93    0.0410 55.7 107 
 BRR  HE ES   1   2251 13.07                              93    0.12 7 55.7 107 
 BRR  HZ I        2251 15.01        73.5 0.16                          55.7 107 
 ZAR  HZ EP   1   2251  9.62                              92    0.34 7 77.9 290 
 ZAR  HN ES   1   2251 18.92                              92   -0.03 7 77.9 290 
 ZAR  HZ I        2251 19.93       108.3 0.38                          77.9 290 
 PTB  HZ EP   1   2251 10.26                              92   -0.02 7 84.5 200 
 PTB  HE ES   1   2251 20.37                              92   -0.38 7 84.5 200 
 PTB  HZ I        2251 21.99        35.9 0.23                          84.5 200 
 GIR2 SZ EP   1   2251 15.13                              91    0.53 7  112 100 
 GIR2 SZ ES   1   2251 28.35                              91   -0.09 7  112 100 
 BAR2 SZ EP   1   2251 18.17                              91    0.20 7  134 123 
 BAR2 SZ ES   1   2251 34.20                              91   -0.23 7  134 123 
 BAR2 SZ I        2251 35.56        63.9 0.25                           134 123 
 OCA  HE ES   1   2251 36.70                              91   -0.67 7  145  42 
 PAM  SZ EP   1   2251 23.48                              91    0.48 7  165  87 
 PAM  SN ES   1   2251 42.82                              91   -0.56 7  165  87 
 PAM  SZ I        2251 45.59        28.5 0.16                           165  87 
 HEL  HZ EP   1   2251 25.90                              56   -0.06 7  189 231 
 HEL  HZ I        2251 52.41        14.3 0.20                           189 231 
 RUS  HZ EP   1   2251 27.43                              56    0.62 6  195 141 
 RUS  HN ES   1   2251 50.38                              56    0.22 6  195 141 
 RUS  HZ I        2251 52.66        19.7 0.65                           195 141 
 NOR  SN ES   1   2251 50.23                              56   -0.58 6  202 202 
                                                                                
