 2016  116 2303 27.2 L   6.774 -73.085140.6  RSN  4 0.3 1.4LRSN                1
 GAP=146        0.77       4.0     4.9  6.9  0.7186E+00  0.1036E+02 -0.2831E+01E
 Epicentro: LOS SANTOS - SANTANDER                                             3
 ACTION:UPD 16-03-09 23:26 OP:cam  STATUS:               ID:20160116230327 L   I
 OLDACT:UP  16-01-17 10:29 OP:ak   STATUS:               ID:20160116225750     3
 OLDACT:REG 16-01-17 09:23 OP:ak   STATUS:               ID:20160116225750     3
 2016-01-16-2257-50M.COL___325                                                 6
 STAT SP IPHASW D HRMM SECON CODA AMPLIT PERI AZIMU VELO AIN AR TRES W  DIS CAZ7
 BAR2 EZ EP       23 3 46.17                             170   -0.0010 22.8 208 
 BAR2 EZ ES       23 4  1.02                             170    0.0310 22.8 208 
 PAM  EZ EP       23 3 48.22                             150   -0.5110 75.6  34 
 PAM  EE ES       23 4  5.83                             150    0.2810 75.6  34 
 PAM  EZ I        23 4  8.47         3.9 0.56            152           75.6  34 
 RUS  HZ EP       23 3 50.64                             144    0.4510 97.5 180 
 RUS  HN ES       23 4  7.88                             144   -0.2710 97.5 180 
 RUS  HZ I        23 4  9.56         1.9 0.20            147           97.5 180 
 ZAR  HZ EP   2   23 4  0.36                             120    0.31 4  211 292 
 ZAR  HN ES       23 4 25.65                             120   -0.05 8  211 292 
 ZAR  HZ I        23 4 31.46         5.7 0.18            121            211 292 
                                                                                
