 2012  216 2246 42.2 L   6.755 -73.182144.4  RSN  8 0.3 2.0LRSN                1
 GAP=134        0.67       3.6     3.6  6.7 -0.2414E+00  0.6569E+01 -0.2133E+01E
 ACTION:UP  12-03-07 16:31 OP:epov STATUS:               ID:20120216224642 L   I
 2012-02-16-2240-00M.COL___188                                                 6
 STAT SP IPHASW D HRMM SECON CODA AMPLIT PERI AZIMU VELO AIN AR TRES W  DIS CAZ7
 BAR2 SZ EP   1   2247  1.45                             173   -0.08 7 18.0 180 
 BAR2 SZ I        2247 18.35        13.4 0.07                          18.0 180 
 GIR2 SZ EP   1   2247  1.81                             165    0.00 7 35.8 358 
 BRR  HZ EP   1   2247  3.58                             153    0.47 7 70.3 304 
 BRR  HZ I        2247  3.92        35.6 0.16                          70.3 304 
 BRR  HN ES   1   2247 19.33                             153   -0.13 7 70.3 304 
 PAM  SZ EP   1   2247  4.44                             148   -0.19 7 83.8  39 
 PAM  SN ES   1   2247 21.87                             148   -0.29 7 83.8  39 
 RUS  HZ EP   1   2247  5.60                             145    0.15 7 96.0 173 
 RUS  HN ES       2247 23.78                             145    0.1610 96.0 173 
 RUS  HZ I        2247 25.63         7.5 0.35                          96.0 173 
 PTB  HZ EP   1   2247  8.37                             133   -0.21 7  143 260 
 PTB  HN ES   1   2247 29.64                             133    0.46 7  143 260 
 ZAR  HZ EP   1   2247 14.61                             122    0.27 6  202 294 
 ZAR  HN ES   1   2247 39.44                             122    0.01 6  202 294 
 ZAR  HZ I        2247 46.84        11.7 0.28                           202 294 
 NOR  SN ES   1   2247 43.47                             119   -0.97 6  229 235 
                                                                                
