 2014  416 2238  8.5 L   6.762 -73.161150.4  RSN  6 0.5 1.6LRSN                1
 GAP=136        1.13       5.4     5.2  9.3 -0.1322E+01  0.1077E+02 -0.4312E+01E
 Epicentro: LOS SANTOS - SANTANDER                                             3
 ACTION:UPD 14-05-13 23:09 OP:nd   STATUS:               ID:20140416223808 L   I
 OLDACT:REG 14-04-17 05:25 OP:cam  STATUS:               ID:20140416223745     3
 2014-04-16-2237-45M.COL___254                                                 6
 STAT SP IPHASW D HRMM SECON CODA AMPLIT PERI AZIMU VELO AIN AR TRES W  DIS CAZ7
 BRR  HZ EP       2238 30.56                             153    0.4110 71.9 302 
 BRR  HZ I        2238 47.79        15.6 0.46            147           71.9 302 
 BRR  HE ES       2238 47.93                             153    0.8610 71.9 302 
 PAM  SZ EP     C 2238 31.49                             150    0.0610 81.7  39 
 PAM  SN ES       2238 48.82                             150   -0.5210 81.7  39 
 PAM  SZ I        2238 50.60         8.6 0.58            146           81.7  39 
 RUS  HZ EP   1   2238 32.13                             146   -0.26 7 96.5 175 
 RUS  HN ES       2238 51.06                             146    0.0110 96.5 175 
 RUS  HZ I        2238 52.17         4.1 0.28            144           96.5 175 
 PTB  HZ EP   1   2238 36.08                             134    0.48 7  145 260 
 PTB  HN ES       2238 56.04                             134   -0.72 9  145 260 
 PTB  HZ I        2239  1.65         3.5 0.38            128            145 260 
 SPBC HN ES   1   2238 59.28                             131    0.16 7  159 219 
 ZAR  HZ EP       2238 41.16                             123   -0.06 9  204 293 
 ZAR  HE ES       2239  6.35                             123   -0.42 9  204 293 
 ZAR  HZ I        2239 13.37         3.8 0.24            118            204 293 
                                                                                
