 2014  216 2247 31.7 L   6.367 -73.615106.6  RSN 12 0.5 2.1LRSN                1
 GAP= 69        1.24       3.3     3.3  6.9 -0.3365E+01  0.8298E+01 -0.2040E+01E
 Epicentro: SANTA HELENA DEL OPON - SANTANDER                                  3
 ACTION:UPD 14-03-10 08:10 OP:ep   STATUS:               ID:20140216224731 L   I
 OLDACT:REG 14-02-17 00:29 OP:nd   STATUS:               ID:20140216224000     3
 2014-02-16-2240-00M.COL___212                                                 6
 STAT SP IPHASW D HRMM SECON CODA AMPLIT PERI AZIMU VELO AIN AR TRES W  DIS CAZ7
 BAR2 SZ EP     C 2247 48.42                             151    0.4510 53.9  63 
 BAR2 SZ ES       2248  0.76                             151    0.0910 53.9  63 
 BAR2 SZ I        2248  2.80        78.1 0.20            154           53.9  63 
 RUS  HZ IP     D 2247 49.70                             141   -0.3310 78.8 132 
 RUS  HN ES       2248  4.12                             141   -0.2210 78.8 132 
 RUS  HZ I        2248  5.68        11.5 0.30            144           78.8 132 
 SPBC HZ EP       2247 50.75                             135    0.0510 93.9 213 
 SPBC HN ES       2248  5.90                             135    0.3710 93.9 213 
 SPBC HZ I        2248  8.47        39.8 0.18            135           93.9 213 
 PTB  HZ EP     C 2247 50.16                             135   -0.5310 95.0 282 
 PTB  HN ES       2248  5.08                             135   -0.4410 95.0 282 
 PTB  HZ I        2248  8.51        49.2 0.12            134           95.0 282 
 PAM  SZ EP       2247 56.58                             122    0.20 9  148  43 
 PAM  SE ES       2248 16.34                             122    0.69 9  148  43 
 PAM  SZ I        2248 20.14        10.0 0.22            123            148  43 
 NOR  HZ EP       2247 57.67                             118    0.02 9  165 237 
 NOR  HN ES       2248 18.18                             118    0.27 9  165 237 
 NOR  HZ I        2248 23.31        33.3 0.18            118            165 237 
 CHI  HZ EP       2248  0.71                             114   -0.44 9  193 184 
 CHI  HN ES       2248 23.36                             114   -0.78 9  193 184 
 CHI  HZ I        2248 28.13         4.2 0.48            115            193 184 
 HEL  HZ EP       2248  3.71                             111    0.35 8  213 265 
 HEL  HN ES       2248 28.37                             111    0.30 8  213 265 
 HEL  HZ I        2248 37.08         8.0 0.30            111            213 265 
 GUY2CHZ EP   4   2248  5.80                             109    0.17 0  231 237 
 GUY2CHN ES       2248 32.05                             109   -0.07 8  231 237 
 GUY2CHZ I        2248 39.84        13.6 0.24                           231 237 
 CBOC HZ EP       2248 10.49                             106    0.61 8  271 258 
 CBOC HN ES       2248 39.64                             106   -0.03 8  271 258 
 CBOC HZ I        2248 44.61         5.2 0.28            106            271 258 
 SML  HZ EP       2248 10.47                             105    0.50 8  274 349 
 SML  HN ES       2248 38.53                             105   -1.30 8  274 349 
 SML  HZ I        2248 47.84        15.6 0.10            106            274 349 
 PRA  HZ EP       2248 15.22                             102   -0.94 7  326 206 
 PRA  HN ES       2248 52.14                             102    1.28 7  326 206 
 PRA  HZ I        2249  1.06         6.0 0.34            102            326 206 
                                                                                
