 2012  216 2055 58.8 L   6.773 -73.143142.6  RSN 11 0.5 2.6LRSN                1
 GAP=138        0.95       4.7     5.4  7.1 -0.2255E+01  0.1046E+02  0.8073E+01E
 ACTION:UP  12-03-07 16:31 OP:epov STATUS:               ID:20120216205558 L   I
 2012-02-16-2050-00M.COL___188                                                 6
 STAT SP IPHASW D HRMM SECON CODA AMPLIT PERI AZIMU VELO AIN AR TRES W  DIS CAZ7
 BAR2 SZ EP   1   2056 18.07                             171    0.10 7 20.5 192 
 BAR2 SZ ES   1   2056 32.95                             171    0.01 7 20.5 192 
 BAR2 SZ I        2056 35.87       119.8 0.24                          20.5 192 
 GIR2 SZ EP   1   2056 18.25                             166    0.10 7 34.2 351 
 BRR  HZ EP   1   2056 20.06                             151    0.38 7 72.9 300 
 BRR  HZ I        2056 20.36       191.8 0.18                          72.9 300 
 BRR  HN ES   1   2056 36.86                             151    0.88 7 72.9 300 
 PAM  SZ EP   1   2056 20.97                             150    0.19 7 79.5  38 
 PAM  SN ES   1   2056 36.93                             150   -1.02 7 79.5  38 
 PAM  SZ I        2056 40.36        52.6 0.26                          79.5  38 
 RUS  HZ EP   1   2056 21.97                             144   -0.03 7 97.6 176 
 RUS  HN ES   1   2056 40.66                             144    0.55 7 97.6 176 
 RUS  HZ I        2056 42.06        26.2 0.26                          97.6 176 
 PTB  HZ EP   1   2056 24.92                             131   -0.54 7  147 260 
 PTB  HN ES   1   2056 45.84                             131   -0.43 7  147 260 
 ZAR  HZ EP   1   2056 30.86                             121   -0.30 6  205 293 
 ZAR  HN ES   2   2056 56.28                             121   -0.14 4  205 293 
 ZAR  HZ I        2057  4.40        43.2 0.33                           205 293 
 NOR  SZ EP   1   2056 34.02                             118   -0.15 6  233 235 
 NOR  SN ES   1   2057  1.50                             118   -0.27 6  233 235 
 CHI  HZ EP   1   2056 35.89                             117   -0.11 6  246 195 
 CHI  HE ES   1   2057  4.12                             117   -0.91 6  246 195 
 CHI  HZ I        2057 15.04        21.6 0.53                           246 195 
 ROSC BZ EP   1   2056 37.30                             116    0.83 6  250 211 
 RREF HZ EP   1   2056 45.32                             110    0.73 5  320 230 
                                                                                
