 2013  216 2059 51.4 L   6.767 -73.112148.0  RSN  6 0.4 1.9LRSN                1
 GAP=142        0.88       5.3     6.4  8.8  0.3614E+01  0.9153E+01  0.1971E+02E
 Epicentro: LOS SANTOS - SANTANDER                                             3
 ACTION:UPD 13-03-12 09:33 OP:ep   STATUS:               ID:20130216205951 L   I
 2013-02-16-2100-00M.COL___241                                                 6
 STAT SP IPHASW D HRMM SECON CODA AMPLIT PERI AZIMU VELO AIN AR TRES W  DIS CAZ7
 BAR2 SZ EP   1   21 0 11.03                             172   -0.21 7 20.9 202 
 BAR2 SZ I        21 0 28.27        16.3 0.36            173           20.9 202 
 BRR  HZ EP       21 0 13.52                             151    0.4610 76.2 300 
 BRR  HE ES       21 0 30.18                             151    0.2110 76.2 300 
 BRR  HE I        21 0 33.14        25.0 0.12            153           76.2 300 
 PAM  SE ES   1   21 0 31.13                             151   -0.29 7 78.0  36 
 RUS  HZ EP   1   21 0 15.36                             145    0.27 7 96.8 178 
 RUS  HE ES   1   21 0 33.38                             145   -0.20 7 96.8 178 
 RUS  HE I        21 0 35.91         9.3 0.28            145           96.8 178 
 PTB  HZ EP       21 0 18.03                             132   -0.78 9  151 260 
 PTB  HE ES   1   21 0 40.26                             132    0.06 7  151 260 
 PTB  HZ I        21 0 41.49         6.6 0.17            134            151 260 
 CHI  HZ EP   1   21 0 29.60                             118    0.65 6  246 196 
 CHI  HN ES   1   21 0 58.19                             118   -0.05 6  246 196 
                                                                                
