 2012  216 2017 21.1 L   6.797 -73.156142.5  RSN 16 0.5 2.8LRSN                1
 GAP=113        0.87       3.3     3.5  5.5 -0.2557E+00  0.5618E+01  0.1863E+01E
 ACTION:UP  12-03-07 16:31 OP:epov STATUS:               ID:20120216201721 L   I
 2012-02-16-2010-00M.COL___188                                                 6
 STAT SP IPHASW D HRMM SECON CODA AMPLIT PERI AZIMU VELO AIN AR TRES W  DIS CAZ7
 BAR2 SZ EP   1   2017 40.42                             171    0.10 7 22.8 187 
 BAR2 SZ ES   1   2017 55.06                             171   -0.26 7 22.8 187 
 BAR2 SZ I        2017 58.39       130.5 0.22                          22.8 187 
 GIR2 SZ EP   1   2017 40.69                             167    0.31 7 31.4 352 
 BRR  HZ EP   1   2017 42.41                             152    0.57 7 70.4 299 
 BRR  HN ES   1   2017 58.74                             152    0.71 7 70.4 299 
 BRR  HZ I        2018  2.64       103.6 0.12                          70.4 299 
 PAM  SZ EP   1   2017 43.43                             150    0.41 7 78.4  40 
 PAM  SN ES   1   2018  0.12                             150   -0.01 7 78.4  40 
 PAM  SZ I        2018  2.70        73.5 0.47                          78.4  40 
 RUS  HZ EP   1   2017 44.56                             143    0.06 7  100 175 
 RUS  HN ES   1   2018  2.99                             143    0.22 7  100 175 
 RUS  HZ I        2018  4.99        89.0 0.25                           100 175 
 PTB  HZ EP   1   2017 47.15                             132   -0.54 7  147 259 
 PTB  HN ES   1   2018  8.19                             132   -0.24 7  147 259 
 OCA  SZ EP   1   2017 48.41                             129   -0.76 7  160 354 
 YOP  SZ EP   1   2017 50.98                             126    0.06 7  179 153 
 YOP  SE ES   1   2018 13.30                             126   -0.89 7  179 153 
 ZAR  HZ EP   1   2017 53.06                             122   -0.17 6  203 292 
 ZAR  HN ES   1   2018 17.95                             122   -0.35 6  203 292 
 ZAR  HZ I        2018 24.73        49.4 0.29                           203 292 
 NOR  SZ EP   1   2017 56.36                             118   -0.15 6  234 234 
 NOR  SN ES   1   2018 23.88                             118   -0.26 6  234 234 
 CHI  HZ EP   1   2017 58.67                             117    0.13 6  248 195 
 CHI  HN ES   1   2018 27.69                             117   -0.06 6  248 195 
 CHI  HZ I        2018 31.77        38.1 0.48                           248 195 
 HEL  HZ EP   1   2018  1.79                             114    0.78 6  271 256 
 HEL  HN ES   1   2018 31.28                             114   -0.86 6  271 256 
 HEL  HZ I        2018 38.80        36.4 0.29                           271 256 
 GUY  SZ EP   1   2018  5.15                             112    0.46 5  302 235 
 GUY  SN ES   1   2018 38.20                             112   -0.49 5  302 235 
 RREF HZ EP   1   2018  7.93                             110    0.96 5  321 229 
 RREF HN ES   1   2018 43.21                             110    0.46 5  321 229 
 RREF HZ I        2018 52.75        37.3 0.43                           321 229 
 DBB  SZ EP   1   2018  8.91                             109    0.60 5  338 274 
 COD  HZ EP   1   2018  8.40                             108   -0.97 5  349 355 
                                                                                
