 2017 1016 2127 16.8 L   6.796 -73.172142.0  RSN  9 0.5 1.8LRSN                1
 GAP=133        1.22       5.5     4.9  8.4 -0.2522E+01  0.8854E+01  0.2326E+01E
 Epicentro: LOS SANTOS - SANTANDER                                             3
 ACTION:UPD 17-11-07 19:32 OP:rebc STATUS:               ID:20171016212716 L   I
 OLDACT:UP  17-10-17 07:03 OP:dnl  STATUS:               ID:20171016211737d    3
 OLDACT:UP  17-10-17 07:03 OP:dnl  STATUS:               ID:20171016211737d    3
 OLDACT:UP  17-10-17 07:03 OP:dnl  STATUS:               ID:20171016211737d    3
 OLDACT:DUP 17-10-17 06:52 OP:dnl  STATUS:               ID:20171016211737d    3
 2017-10-16-2118-00M.COL___431                                                 6
 STAT SP IPHASW D HRMM SECON CODA AMPLIT PERI AZIMU VELO AIN AR TRES W  DIS CAZ7
 BAR2 EZ EP       2127 36.14                             171    0.1410 22.6 183 
 BAR2 EZ ES       2127 50.64                             171   -0.3010 22.6 183 
 BAR2 EZ I        2127 51.85        21.0 0.26            170           22.6 183 
 BRR  HZ EP       2127 37.69                             153    0.2510 68.8 300 
 BRR  HE ES       2127 54.57                             153    1.0610 68.8 300 
 BRR  HZ I        2127 55.17        15.3 0.30            152           68.8 300 
 PAM  EZ EP       2127 38.80                             150    0.0210 79.6  41 
 PAM  EN ES       2127 55.67                             150   -0.2410 79.6  41 
 PAM  EZ I        2127 57.77         7.5 0.52            152           79.6  41 
 RUS  HZ EP       2127 40.41                             143    0.2010  100 174 
 RUS  HN ES       2127 58.34                             143   -0.1010  100 174 
 RUS  HZ I        2128  0.49         6.8 0.16            144            100 174 
 PTB  HZ EP       2127 42.67                             132   -0.56 9  145 259 
 PTB  HN ES       2128  2.93                             132   -0.88 9  145 259 
 PTB  HZ I        2128  6.09         7.3 0.44            132            145 259 
 ZAR  HZ EP   4   2127 47.61                             122   -1.16 0  201 293 
 ZAR  HN ES       2128 13.36                             122   -0.32 9  201 293 
 ZAR  HZ I        2128 19.01         7.1 0.18            122            201 293 
 NOR  HZ EP   2   2127 52.44                             118    0.37 4  232 234 
 NOR  HN ES       2128 20.15                             118    0.61 8  232 234 
 NOR  HZ I        2128 23.73         4.3 0.34            118            232 234 
 GUY2CHZ EP   9   2128  1.16                             112    1.19 0  299 235 
 GUY2CHN ES       2128 35.34                             112    0.53 7  299 235 
 GUY2CHZ I        2128 44.01         3.3 0.62                           299 235 
 SJC  HZ EP   4   2128 10.15                             105   -1.97 0  408 327 
 SJC  HN ES   4   2128 49.36                             105   -5.89 0  408 327 
 SJC  HZ I        2128 55.38         1.3 0.58            106            408 327 
                                                                                
