 2016 1016 2329 45.2 L   6.803 -73.144149.1  RSN 10 0.4 1.8LRSN                1
 GAP=119        0.91       3.1     4.3  5.0 -0.4227E+01 -0.1254E+00  0.3422E+00E
 Epicentro: LOS SANTOS - SANTANDER                                             3
 ACTION:UPD 16-11-09 19:20 OP:rebc STATUS:               ID:20161016232945 L   I
 OLDACT:UP  16-10-17 09:06 OP:dani STATUS:               ID:20161016232733     3
 OLDACT:REG 16-10-17 05:56 OP:dani STATUS:               ID:20161016232733     3
 2016-10-16-2328-00M.COL___359                                                 6
 STAT SP IPHASW D HRMM SECON CODA AMPLIT PERI AZIMU VELO AIN AR TRES W  DIS CAZ7
 BAR2 EZ ES       2330 20.49                             171   -0.4010 23.6 190 
 BRR  HZ EP       2330  7.06                             153    0.3310 71.2 298 
 BRR  HE ES       2330 24.18                             153    0.6710 71.2 298 
 BRR  HZ I        2330 28.08        10.9 0.23            152           71.2 298 
 PAM  EZ EP       2330  8.22                             151    0.4510 77.0  40 
 PAM  EE ES       2330 25.26                             151   -0.1110 77.0  40 
 PAM  EZ I        2330 28.48         4.7 0.48            153           77.0  40 
 RUS  HZ EP       2330  9.24                             144   -0.0810  101 176 
 RUS  HE ES       2330 28.07                             144   -0.0510  101 176 
 RUS  HZ I        2330 29.19         6.0 0.38            146            101 176 
 PTB  HZ EP       2330 11.95                             133   -0.53 9  148 259 
 PTB  HN ES       2330 33.20                             133   -0.55 9  148 259 
 PTB  HZ I        2330 35.64         4.8 0.12            133            148 259 
 OCA  HZ EP       2330 13.38                             130   -0.39 9  160 353 
 OCA  HE ES       2330 36.04                             130    0.01 9  160 353 
 OCA  HZ I        2330 41.52        10.9 0.22            131            160 353 
 SPBC HZ EP       2330 14.27                             130    0.26 9  164 219 
 SPBC HE ES       2330 36.67                             130    0.21 9  164 219 
 SPBC HZ I        2330 41.03         9.6 0.28            130            164 219 
 CHI  HZ EP   4   2330 21.12                             118   -2.02 0  249 195 
 CHI  HN ES   2   2330 53.00                             118    0.28 4  249 195 
 CHI  HZ I        2330 56.48         3.3 0.30            119            249 195 
 SOCV BZ EP       2330 28.18                             113   -0.21 7  301  57 
 PRA  HZ EP       2330 39.31                             107    0.41 6  392 210 
 PRA  HN ES   4   2331 21.94                             107    1.18 0  392 210 
 PRA  HZ I        2331 27.80         3.3 0.43            108            392 210 
                                                                                
