 2010  916 2252 16.9 L   6.805 -73.034133.9  RSN  5 0.3 1.9LRSN                1
 GAP=171        0.86       4.7     9.4  9.2 -0.2999E+01 -0.2418E+02 -0.9922E+01E
 Epicentro: CEPITA - SANTANDER                                                 3
 ACTION:UP  11-02-18 11:03 OP:tino STATUS:               ID:20100916225216 L   I
 2010-09-16-2251-35S.COL___118                                                 6
 STAT SP IPHASW D HRMM SECON CODA AMPLIT PERI AZIMU VELO SNR AR TRES W  DIS CAZ7
 BAR2 SZ EP   1   2252 35.23                             167     0.0 7   29 215 
 BAR2 SZ ES   1   2252 49.14                             167    -0.4 7   29 215 
 BAR2 SZ I        2252 51.65        37.3 0.08                            29 215 
 BRR  HZ IP     C 2252 37.12                             147    -0.310   82 294 
 BRR  HZ I        2252 37.57        45.9 0.02                            82 294 
 BRR  HN ES   1   2252 53.86                             147     0.4 7   82 294 
 RUS  HZ EP   1   2252 39.21                             141    -0.3 7  101 183 
 RUS  HN ES   1   2252 57.59                             141     0.4 7  101 183 
 RUS  HZ I        2252 58.70         9.5 0.16                           101 183 
 GUE  SZ EP   2   2252 40.31                             137     0.0 5  114   6 
 GUE  SZ I        2252 41.15         4.1 0.14                           114   6 
 GRA  SZ IP       2252 41.16                             135     0.410  122  12 
 GRA  SZ ES   1   2252 59.19                             135    -0.2 7  122  12 
 GRA  SZ I        2253  1.82        12.9 0.42                           122  12 
                                                                                
