 2016  116 2235 20.5 L   6.797 -73.160143.9  RSN 11 0.4 1.9LRSN                1
 GAP=135        1.02       2.6     4.0  5.9 -0.2246E+01  0.8393E+01 -0.1184E+01E
 Epicentro: LOS SANTOS - SANTANDER                                             3
 ACTION:UPD 16-03-09 23:25 OP:cam  STATUS:               ID:20160116223520 L   I
 OLDACT:REG 16-01-17 09:21 OP:ak   STATUS:               ID:20160116222750     3
 2016-01-16-2227-50M.COL___325                                                 6
 STAT SP IPHASW D HRMM SECON CODA AMPLIT PERI AZIMU VELO AIN AR TRES W  DIS CAZ7
 BAR2 EZ EP       2235 40.00                             171    0.1510 22.8 186 
 BAR2 EZ ES       2235 54.97                             171   -0.0110 22.8 186 
 BAR2 EZ I        2235 56.28        14.3 0.34            170           22.8 186 
 PAM  EZ EP       2235 42.88                             150    0.3310 78.7  40 
 PAM  EN ES       2235 59.78                             150   -0.0110 78.7  40 
 PAM  EZ I        2236  2.11         9.7 0.22            154           78.7  40 
 RUS  HZ EP       2235 43.84                             143   -0.1710  100 175 
 RUS  HN ES       2236  1.95                             143   -0.4310  100 175 
 PTB  HZ EP       2235 46.14                             132   -0.98 9  146 259 
 PTB  HN ES       2236  7.73                             132   -0.19 9  146 259 
 PTB  HZ I        2236 13.65         7.1 0.26            132            146 259 
 OCA  HZ EP       2235 48.26                             129   -0.38 9  160 354 
 OCA  HN ES       2236 11.31                             129    0.69 9  160 354 
 OCA  HZ I        2236 14.12        24.3 0.10            131            160 354 
 SPBC HZ EP       2235 48.80                             129    0.11 9  162 219 
 SPBC HN ES       2236 11.04                             129    0.33 9  162 219 
 SPBC HZ I        2236 13.54         8.4 0.14            130            162 219 
 ZAR  HZ EP       2235 53.34                             122    0.70 9  203 292 
 ZAR  HE ES       2236 18.11                             122    0.37 9  203 292 
 NOR  HZ EP   2   2235 55.60                             118   -0.31 4  233 234 
 NOR  HE ES       2236 23.34                             118   -0.23 8  233 234 
 NOR  HZ I        2236 32.63         5.5 0.20            120            233 234 
 NOR  HZ E        2236 38.61                                            233 234 
 SML  HZ EP       2235 56.40                             117   -0.54 8  243 336 
 SML  HN ES       2236 24.80                             117   -0.60 8  243 336 
 SML  HZ I        2236 28.12        13.2 0.06            119            243 336 
 CHI  HZ EP       2235 58.18                             117    0.21 8  248 195 
 CHI  HN ES       2236 27.61                             117    0.38 8  248 195 
 CHI  HZ I        2236 29.96         2.2 0.32            119            248 195 
 GUY2CHZ EP       2236  4.39                             112    0.58 7  300 235 
 GUY2CHN ES       2236 37.64                             112    0.02 7  300 235 
 GUY2CHZ I        2236 46.96         3.3 0.70                           300 235 
                                                                                
