 2015  316 2357 59.9 L   6.778 -73.127153.1  RSN 10 0.4 1.6LRSN                1
 GAP=140        0.82       3.3     4.2  5.3 -0.3347E+01  0.5892E+01  0.3209E+00E
 Epicentro: LOS SANTOS - SANTANDER                                             3
 ACTION:UPD 15-04-30 16:26 OP:nd   STATUS:               ID:20150316235759 L   I
 OLDACT:UP  15-03-17 06:16 OP:spq  STATUS:               ID:20150316234736     3
 OLDACT:REG 15-03-17 02:51 OP:spq  STATUS:               ID:20150316234736     3
 2015-03-16-2347-36M.COL___266                                                 6
 STAT SP IPHASW D HRMM SECON CODA AMPLIT PERI AZIMU VELO AIN AR TRES W  DIS CAZ7
 BAR2 EZ EP       2358 20.38                             172   -0.0410 21.5 197 
 BAR2 EZ ES   1   2358 36.53                             172    0.14 7 21.5 197 
 BAR2 EZ I        2358 37.40         6.3 0.41            169           21.5 197 
 BRR  HZ EP       2358 22.39                             153    0.3410 74.2 299 
 BRR  HN ES       2358 39.87                             153    0.5810 74.2 299 
 BRR  HZ I        2358 41.45         9.8 0.48            149           74.2 299 
 PAM  SZ EP       2358 23.23                             152    0.2510 78.0  37 
 PAM  SN ES       2358 40.54                             152   -0.4010 78.0  37 
 PAM  SZ I        2358 42.39         3.2 0.58            155           78.0  37 
 RUS  HZ EP       2358 24.10                             146   -0.1510 98.1 177 
 RUS  HE ES       2358 43.16                             146   -0.0510 98.1 177 
 RUS  HZ I        2358 44.61         2.8 0.24            147           98.1 177 
 PTB  HZ EP       2358 27.46                             133   -0.20 9  149 260 
 PTB  HN ES   1   2358 48.72                             133   -0.56 7  149 260 
 PTB  HZ I        2358 53.38         5.5 0.27            131            149 260 
 SPBC HZ EP       2358 29.04                             131    0.07 9  163 220 
 SPBC HE ES   1   2358 50.96                             131   -0.64 7  163 220 
 SPBC HZ I        2358 58.42         8.7 0.32            130            163 220 
 NOR  HZ EP       2358 36.38                             120    0.24 8  235 235 
 NOR  HN ES       2359  4.62                             120    0.24 8  235 235 
 NOR  HZ I        2359  9.14         3.2 0.26            119            235 235 
 SML  HZ EP   1   2358 37.47                             119    0.15 6  247 335 
 SML  HE ES   1   2359  5.64                             119   -0.83 6  247 335 
 SML  HZ I        2359 13.75         4.9 0.32            119            247 335 
 GUY2CHZ EP   4   2358 45.88                             114    1.94 0  302 235 
 GUY2CHE ES   4   2359 20.32                             114    2.07 0  302 235 
 GUY2CHZ I        2359 26.77         1.9 0.30                           302 235 
 RREF HN ES   4   2359 27.77                             112    5.10 0  322 230 
 RREF HZ I        2359 30.03         2.4 0.30            112            322 230 
                                                                                
