 2016  716 2104 11.7 L   6.814 -73.124145.4  RSN  5 0.3 1.3LRSN                1
 GAP=139        0.72       3.8     3.5  5.6 -0.1111E+00  0.7303E+01 -0.3139E+01E
 Epicentro: LOS SANTOS - SANTANDER                                             3
 ACTION:UPD 17-03-29 16:52 OP:lp   STATUS:               ID:20160716210411 L   I
 OLDACT:REG 16-07-17 02:44 OP:edw  STATUS:               ID:20160716205759     3
 2016-07-16-2057-59S.COL___322                                                 6
 STAT SP IPHASW D HRMM SECON CODA AMPLIT PERI AZIMU VELO AIN AR TRES W  DIS CAZ7
 BAR2 EZ EP       21 4 30.83                             170   -0.4910 25.3 195 
 BAR2 EZ ES       21 4 46.82                             170    0.1910 25.3 195 
 PAM  EZ EP       21 4 33.62                             152   -0.0910 74.7  39 
 PAM  EE ES       21 4 50.89                             152    0.0110 74.7  39 
 PAM  EZ I        21 4 53.46         7.1 0.52            153           74.7  39 
 RUS  HZ EP       21 4 35.68                             143    0.1710  102 177 
 RUS  HN ES       21 4 54.21                             143    0.1310  102 177 
 RUS  HZ I        21 4 55.05         2.7 0.26            146            102 177 
 PTB  HZ EP       21 4 38.65                             131   -0.22 9  150 258 
 PTB  HN ES       21 4 59.84                             131   -0.23 9  150 258 
 PTB  HZ I        21 5  2.01         1.5 0.13            133            150 258 
 ZAR  HZ EP       21 4 44.89                             122    0.60 8  206 291 
 ZAR  HE ES       21 5  9.76                             122    0.06 8  206 291 
                                                                                
