 2012  516 2201 30.1 L   5.714 -73.875107.5  RSN  8 0.3 1.6LRSN                1
 GAP=134        0.66       2.3     3.7  9.0 -0.1344E+01  0.1102E+02  0.3076E+01E
 Epicentro: ALBANIA - SANTANDER                                                3
 ACTION:UP  12-07-05 12:05 OP:pat  STATUS:               ID:20120516220130 L   I
 2012-05-16-2200-00M.COL___197                                                 6
 STAT SP IPHASW D HRMM SECON CODA AMPLIT PERI AZIMU VELO SNR AR TRES W  DIS CAZ7
 PTB  HZ EP   1   22 1 49.89                             130    -0.8 7  112 325 
 PTB  HN ES   1   22 2  6.72                             130     0.0 7  112 325 
 PTB  HZ I        22 2 10.17         6.4 0.21                           112 325 
 CHI  HN ES   1   22 2  9.12                             128    -0.2 7  121 172 
 CHI  HZ I        22 2 14.45         4.8 0.46                           121 172 
 BAR2 SZ ES   1   22 2  9.53                             127     0.2 7  124  38 
 BAR2 SZ I        22 2 10.68        20.1 0.45                           124  38 
 BRR  HZ EP   1   22 1 55.13                             120     0.1 7  155   7 
 BRR  HN ES   1   22 2 14.76                             120     0.3 7  155   7 
 RREF HZ EP   1   22 1 59.26                             115     0.0 7  186 241 
 RREF HE ES   1   22 2 21.98                             115     0.1 7  186 241 
 RREF HZ I        22 2 26.66         3.7 0.30                           186 241 
 HEL  HZ EP   1   22 1 59.45                             115     0.1 7  191 286 
 HEL  HN ES   1   22 2 22.48                             115     0.3 7  191 286 
 HEL  HZ I        22 2 27.96         6.1 0.30                           191 286 
 ZAR  HN ES   1   22 2 28.00                             110    -0.2 6  225 331 
 PRA  HZ EP   1   22 2  5.65                             108     0.2 6  248 207 
 PRA  HE ES   1   22 2 33.21                             108     0.1 6  248 207 
                                                                                
