 2016  716 2102 59.3 L   6.807 -73.160137.3  RSN  4 0.3 1.0LRSN                1
 GAP=142        0.70       4.1     4.0  5.9 -0.5213E+01  0.6890E+01 -0.2201E+01E
 Epicentro: LOS SANTOS - SANTANDER                                             3
 ACTION:UPD 17-03-29 16:52 OP:lp   STATUS:               ID:20160716210259 L   I
 OLDACT:UP  16-07-17 03:28 OP:edw  STATUS:               ID:20160716205760d    3
 OLDACT:DUP 16-07-17 03:24 OP:edw  STATUS:               ID:20160716205760d    3
 OLDACT:REG 16-07-17 02:44 OP:edw  STATUS:               ID:20160716205759     3
 2016-07-16-2057-59S.COL___322                                                 6
 STAT SP IPHASW D HRMM SECON CODA AMPLIT PERI AZIMU VELO AIN AR TRES W  DIS CAZ7
 BAR2 HZ EP       21 3 18.11                             170    0.1710 23.9 186 
 BAR2 HZ ES       21 3 32.65                             170    0.1810 23.9 186 
 BAR2 HZ I        21 3 33.25         2.7 0.48            169           23.9 186 
 PAM  HZ EP       21 3 20.23                             149   -0.4310 77.7  41 
 PAM  HZ ES       21 3 37.42                             149    0.1110 77.7  41 
 RUS  HZ EP       21 3 22.65                             142    0.3410  102 175 
 RUS  HN ES       21 3 39.92                             142   -0.3310  102 175 
 RUS  HZ I        21 3 40.95         1.4 0.40            143            102 175 
 PTB  HZ EP       21 3 25.58                             130    0.10 9  146 258 
 PTB  HE ES       21 3 45.75                             130   -0.14 9  146 258 
 PTB  HZ I        21 3 48.50         1.4 0.16            130            146 258 
                                                                                
