 2016  516 2302 35.5 L   6.824 -73.169147.5  RSN  7 0.4 1.7LRSN                1
 GAP=237        1.05       5.3     6.4  6.9  0.6134E+01  0.1218E+02  0.1355E+02E
 Epicentro: LOS SANTOS - SANTANDER                                             3
 ACTION:UPD 16-08-18 17:46 OP:cam  STATUS:               ID:20160516230235 L   I
 OLDACT:UP  16-05-17 07:51 OP:dani STATUS:               ID:20160516225745     3
 OLDACT:UP  16-05-17 07:06 OP:ak   STATUS:               ID:20160516225745     3
 OLDACT:UP  16-05-17 07:04 OP:dani STATUS:               ID:20160516225745     3
 OLDACT:REG 16-05-17 04:07 OP:dani STATUS:               ID:20160516225745     3
 2016-05-16-2257-45M.COL___301                                                 6
 STAT SP IPHASW D HRMM SECON CODA AMPLIT PERI AZIMU VELO AIN AR TRES W  DIS CAZ7
 BAR2 EZ EP       23 2 55.06                             170   -0.2910 25.7 183 
 BAR2 EZ ES       23 3 10.60                             170   -0.2610 25.7 183 
 BAR2 EZ I        23 3 11.42        12.6 0.28            168           25.7 183 
 BRR  HZ EP     C 23 2 56.86                             154    0.2510 67.7 298 
 BRR  HN ES       23 3 13.85                             154    0.7510 67.7 298 
 BRR  HZ I        23 3 19.30        11.8 0.22            151           67.7 298 
 RUS  HZ EP   2   23 2 59.36                             143   -0.23 5  103 175 
 RUS  HE ES       23 3 18.52                             143    0.1110  103 175 
 RUS  HZ I        23 3 19.07         3.5 0.22            145            103 175 
 PTB  HZ EP       23 3  1.73                             133   -0.67 9  146 258 
 PTB  HN ES       23 3 22.75                             133   -0.66 9  146 258 
 PTB  HZ I        23 3 29.47         4.7 0.15            132            146 258 
 NOR  HZ EP       23 3 11.16                             119   -0.08 8  234 234 
 NOR  HN ES       23 3 39.57                             119    0.43 8  234 234 
 CHI  HZ EP       23 3 14.14                             117    0.68 8  251 194 
 CHI  HN ES       23 3 42.85                             117   -0.25 8  251 194 
 CHI  HZ I        23 3 44.72         3.9 0.38            119            251 194 
 PTGC HZ EP   4 D 23 3 18.07                             112   -1.71 0  312 158 
 PRA  HZ EP       23 3 29.22                             107    0.06 6  393 209 
 PRA  HN ES       23 4 11.50                             107    0.45 6  393 209 
 PRA  HZ I        23 4 17.12         3.7 0.38            108            393 209 
                                                                                
