 2010 1116 2359  5.9 L   6.779 -73.024143.3  RSN  9 0.3 2.0LRSN                1
 GAP=195        0.56       3.4     6.1  5.6 -0.2154E+01  0.1859E+01  0.2673E+01E
 Epicentro: CEPITA - SANTANDER                                                 3
 ACTION:UP  10-12-17 16:53 OP:REBC STATUS:               ID:20101116235905 L   I
 2010-11-16-2356-06S.COL___136                                                 6
 STAT SP IPHASW D HRMM SECON CODA AMPLIT PERI AZIMU VELO SNR AR TRES W  DIS CAZ7
 BAR2 SZ EP   2   2359 25.39                             169     0.0 5   27 220 
 BAR2 SZ ES   2   2359 40.46                             169     0.0 5   27 220 
 BAR2 SZ I        2359 43.78        21.7 0.15                            27 220 
 BRR  HZ EP       2359 27.50                             148    -0.110   84 296 
 BRR  HE ES   1   2359 44.92                             148     0.4 7   84 296 
 BRR  HZ I        2359 49.59        21.0 0.21                            84 296 
 RUS  HZ EP   1   2359 29.49                             144     0.2 7   98 184 
 RUS  HN ES   2   2359 47.25                             144    -0.2 5   98 184 
 RUS  HZ I        2359 49.62         9.1 0.27                            98 184 
 OCA  SZ EP   1   2359 34.64                             128     0.1 7  165 349 
 OCA  SZ ES   2   2359 56.14                             128    -0.6 5  165 349 
 OCA  SZ I        24 0  1.38        15.7 0.23                           165 349 
 NOR  SZ EP   2   2359 41.80                             117    -0.8 4  245 237 
 NOR  SE ES   2   24 0 10.66                             117    -0.5 4  245 237 
 CHI  HZ EP   3   2359 43.60                             116    -0.1 2  250 198 
 CHI  HZ I        24 0 18.72         5.6 0.36                           250 198 
 HEL  HZ EP   2   2359 47.67                             113     0.2 4  285 257 
 HEL  HZ I        24 0 23.94         4.2 0.37                           285 257 
 RREF HZ EP   2   2359 53.56                             110     0.6 3  331 231 
 RREF HN ES   2   24 0 29.86                             110     0.2 3  331 231 
 RREF HZ I        24 0 34.17         7.3 0.28                           331 231 
 PRA  HZ EP   2   24 0  0.07                             106     0.1 3  397 211 
 PRA  HE ES   2   24 0 42.11                             106     0.1 3  397 211 
                                                                                
