 2011  416 2037 57.1 L   7.000 -72.957  4.1  RSN  6 0.3 1.8LRSN                1
 GAP=172        0.82       2.8     3.2  5.9 -0.5079E+01  0.1448E+01 -0.1895E+01E
 Epicentro: SANTA BARBARA - SANTANDER                                          3
 ACTION:UP  11-06-22 15:31 OP:REBC STATUS:               ID:20110416203757 L   I
 2011-04-16-2036-15S.COL___140                                                 6
 STAT SP IPHASW D HRMM SECON CODA AMPLIT PERI AZIMU VELO SNR AR TRES W  DIS CAZ7
 GIR2 SZ IP       2038  1.52                              47    -0.510   28 288 
 PAM  SZ IP       2038  5.43                              47     0.110   47  37 
 PAM  SE ES   1   2038 11.44                              47    -0.3 7   47  37 
 PAM  SZ I        2038 11.70        60.8 0.25                            47  37 
 BAR2 SZ EP   1   2038  6.13                              47     0.4 7   52 209 
 BAR2 SZ ES   1   2038 12.18                              47    -0.3 7   52 209 
 BRI  SZ EP   1   2038 10.51                              47     0.3 7   81  13 
 BRI  SZ ES   1   2038 20.44                              47     0.0 7   81  13 
 BRI  SZ I        2038 21.69        28.8 0.23                            81  13 
 BRR  HZ EP   1   2038 10.96                              47     0.5 7   84 278 
 BRR  HZ I        2038 11.20        38.0 0.11                            84 278 
 BRR  HN ES   1   2038 20.99                              47     0.1 7   84 278 
 OCA  SZ EP   1   2038 19.79                              47     0.3 7  143 344 
 OCA  SZ ES   2   2038 36.64                              47    -0.3 5  143 344 
 OCA  SZ I        2038 38.70        22.5 0.26                           143 344 
                                                                                
