 2014  116 2358 56.3 L   6.773 -73.137146.6  RSN  8 0.5 1.8LRSN                1
 GAP=139        1.03       4.6     4.6  7.2 -0.2424E+01  0.7334E+01  0.3206E+01E
 Epicentro: LOS SANTOS - SANTANDER                                             3
 ACTION:UPD 14-03-13 09:55 OP:ep   STATUS:               ID:20140116235856 L   I
 OLDACT:REG 14-01-16 21:17 OP:jn   STATUS:               ID:20140116235742     3
 2014-01-16-2357-42M.COL___247                                                 6
 STAT SP IPHASW D HRMM SECON CODA AMPLIT PERI AZIMU VELO AIN AR TRES W  DIS CAZ7
 BAR2 SZ EP       2359 15.96                             172   -0.0210 20.6 194 
 BAR2 SZ ES       2359 30.58                             172   -0.7510 20.6 194 
 BAR2 SZ I        2359 32.26        16.4 0.24            169           20.6 194 
 BRR  HZ EP       2359 17.91                             152    0.2410 73.5 300 
 BRR  HN ES       2359 35.14                             152    0.8110 73.5 300 
 BRR  HZ I        2359 37.11         6.8 0.34            149           73.5 300 
 PAM  SZ EP       2359 18.93                             150    0.2310 79.1  38 
 PAM  SN ES       2359 36.05                             150   -0.1310 79.1  38 
 PAM  SZ I        2359 38.21        16.6 0.54            154           79.1  38 
 RUS  HZ EP       2359 19.82                             145   -0.1010 97.6 176 
 RUS  HN ES       2359 38.69                             145    0.3510 97.6 176 
 RUS  HZ I        2359 40.25         5.3 0.50            146           97.6 176 
 PTB  HN ES       2359 44.23                             132   -0.25 9  148 260 
 PTB  HZ I        2359 51.60         8.6 0.40            130            148 260 
 ZAR  HE ES   1   2359 54.30                             122   -0.22 6  206 293 
 ZAR  HZ I        24 0  0.54         7.7 0.46            122            206 293 
 NOR  HZ EP       2359 31.82                             119   -0.16 8  234 235 
 NOR  HN ES       2359 59.80                             119   -0.01 8  234 235 
 NOR  HZ I        24 0  7.35         5.3 0.36            119            234 235 
 SML  HN ES   2   24 0  0.76                             117   -1.41 4  247 335 
                                                                                
