 2017 1116 2216 27.3 L   6.807 -73.153144.0  RSN  9 0.2 2.0LRSN                1
 GAP=135        0.49       1.7     2.4  3.2 -0.1667E+01  0.2496E+01 -0.4786E+00E
 Epicentro: LOS SANTOS - SANTANDER                                             3
 ACTION:UPD 17-12-12 19:56 OP:rebc STATUS:               ID:20171116221627 L   I
 OLDACT:UP  17-11-17 05:30 OP:dnl  STATUS:               ID:20171116220749d    3
 OLDACT:DUP 17-11-17 05:17 OP:dnl  STATUS:               ID:20171116220749d    3
 2017-11-16-2208-00M.COL___480                                                 6
 STAT SP IPHASW D HRMM SECON CODA AMPLIT PERI AZIMU VELO AIN AR TRES W  DIS CAZ7
 BAR2 EZ EP       2216 46.65                             170   -0.1310 24.0 188 
 BAR2 EZ ES       2217  1.85                             170   -0.0810 24.0 188 
 BAR2 EZ I        2217  2.89        35.0 0.30            168           24.0 188 
 PAM  EZ EP       2216 49.58                             151    0.2110 77.3  40 
 PAM  EN ES       2217  6.53                             151   -0.0210 77.3  40 
 PAM  EZ I        2217  8.80        24.8 0.48            155           77.3  40 
 RUS  HZ EP       2216 50.68                             143   -0.3110  101 176 
 RUS  HE ES       2217  9.67                             143    0.2510  101 176 
 RUS  HZ I        2217 10.93         9.0 0.44            144            101 176 
 PTB  HZ EP       2216 53.85                             132   -0.26 9  147 258 
 PTB  HE ES       2217 14.91                             132   -0.08 9  147 258 
 PTB  HZ I        2217 16.45         8.2 0.10            131            147 258 
 SPBC HZ EP   2   2216 55.87                             129    0.15 5  163 219 
 SPBC HN ES       2217 18.12                             129    0.27 9  163 219 
 SPBC HZ I        2217 26.18        19.3 0.24            129            163 219 
 NOR  HZ EP       2217  2.81                             118   -0.14 8  234 234 
 NOR  HN ES       2217 30.95                             118    0.23 8  234 234 
 NOR  HZ I        2217 38.65         5.6 0.16            119            234 234 
 CHI  HZ EP       2217  5.02                             117    0.01 8  249 195 
 CHI  HN ES       2217 34.26                             117   -0.12 8  249 195 
 CHI  HZ I        2217 37.72         8.3 0.58            118            249 195 
 DRL03HZ EP   2   2217  9.23                             113    0.45 4  288 353 
 DRL03HE ES       2217 41.21                             113    0.12 7  288 353 
 GUY2CHN EP   4   2217 12.68                             112    1.83 0  301 235 
 GUY2CHZ ES   4   2217 48.73                             112    3.95 0  301 235 
 GUY2CHN I        2217 58.01         7.4 0.54                           301 235 
                                                                                
