 2012  416 2005 56.7 L   6.754 -73.140150.2  RSN  7 0.4 1.9LRSN                1
 GAP=139        0.88       5.5     5.0  8.3 -0.1882E+01  0.9968E+01  0.1073E+01E
 Epicentro: LOS SANTOS - SANTANDER                                             3
 ACTION:UPD 12-07-05 11:53 OP:tino STATUS:               ID:20120416200556 L   I
 2012-04-16-2000-00M.COL___190                                                 6
 STAT SP IPHASW D HRMM SECON CODA AMPLIT PERI AZIMU VELO AIN AR TRES W  DIS CAZ7
 BAR2 SZ EP   1   20 6 16.77                             173     0.0 7   19 195 
 BAR2 SZ I        20 6 16.97        13.0 0.20                            19 195 
 BAR2 SZ ES   1   20 6 32.03                             173    -0.4 7   19 195 
 BRR  HZ EP       20 6 18.68                             152     0.210   74 302 
 BRR  HZ I        20 6 19.05        30.5 0.09                            74 302 
 BRR  HE ES   1   20 6 36.05                             152     0.6 7   74 302 
 PAM  SZ EP   1   20 6 19.66                             150     0.1 7   81  37 
 PAM  SZ I        20 6 19.82         7.6 0.20                            81  37 
 PAM  SN ES   1   20 6 36.98                             150    -0.4 7   81  37 
 RUS  HZ EP   1   20 6 20.57                             146     0.1 7   96 176 
 RUS  HE ES   1   20 6 39.49                             146     0.4 7   96 176 
 RUS  HZ I        20 6 41.16         6.6 0.52                            96 176 
 PTB  HZ EP   1   20 6 23.40                             133    -0.6 7  147 261 
 PTB  HN ES   1   20 6 44.76                             133    -0.5 7  147 261 
 PTB  HZ I        20 6 47.02         6.9 0.31                           147 261 
 ZAR  HN ES   1   20 6 55.63                             123     0.2 6  207 293 
 ZAR  HZ I        20 7  1.89        13.7 0.25                           207 293 
 NOR  SN ES   1   20 7  0.25                             120     0.0 6  232 236 
                                                                                
