 2015  816 2019  9.9 L   6.766 -73.119147.9  RSN 11 0.4 2.2LRSN                1
 GAP=141        0.89       2.9     3.7  4.8 -0.2875E+01  0.7327E+01  0.1981E-03E
 Epicentro: LOS SANTOS - SANTANDER                                             3
 ACTION:UPD 15-09-15 23:02 OP:cam  STATUS:               ID:20150816201909 L   I
 OLDACT:REG 15-08-17 02:26 OP:drio STATUS:               ID:20150816201748     3
 2015-08-16-2017-48M.COL___343                                                 6
 STAT SP IPHASW D HRMM SECON CODA AMPLIT PERI AZIMU VELO AIN AR TRES W  DIS CAZ7
 BAR2 EZ EP       2019 29.89                             172    0.1310 20.4 200 
 BAR2 EZ ES       2019 44.92                             172   -0.3110 20.4 200 
 BAR2 EZ I        2019 48.17        31.0 0.28            170           20.4 200 
 BRR  HZ EP       2019 31.82                             151    0.2610 75.6 300 
 BRR  HN ES       2019 49.14                             151    0.7110 75.6 300 
 BRR  HZ I        2019 52.27        22.2 0.16            149           75.6 300 
 PAM  EZ EP       2019 32.72                             151    0.2810 78.6  36 
 PAM  EN ES       2019 50.14                             151    0.1310 78.6  36 
 PAM  EZ I        2019 52.15        24.1 0.36            154           78.6  36 
 RUS  HZ EP       2019 33.92                             145    0.3110 96.6 178 
 RUS  HN ES       2019 51.67                             145   -0.4210 96.6 178 
 RUS  HZ I        2019 54.89        11.2 0.58            149           96.6 178 
 OCA  HZ EP       2019 38.64                             129   -0.15 9  164 352 
 OCA  HN ES       2020  0.58                             129   -0.73 9  164 352 
 OCA  HZ I        2020  4.47        40.7 0.16            131            164 352 
 ZAR  HZ EP       2019 42.67                             122   -0.27 8  208 293 
 ZAR  HE ES       2020  8.42                             122   -0.27 8  208 293 
 ZAR  HZ I        2020 13.36        21.0 0.26            123            208 293 
 NOR  HZ EP       2019 46.17                             119    0.37 8  235 236 
 NOR  HE ES       2020 13.58                             119   -0.21 8  235 236 
 NOR  HZ I        2020 18.88        15.1 0.22            120            235 236 
 SML  HZ EP       2019 46.97                             117   -0.21 8  248 335 
 SML  HN ES   4   2020 14.81                             117   -1.42 0  248 335 
 SML  HZ I        2020 24.86        13.1 0.20            119            248 335 
 HEL  HZ EP       2019 50.77                             115    0.31 8  274 257 
 HEL  HN ES       2020 22.62                             115    0.54 8  274 257 
 HEL  HZ I        2020 29.22        10.5 0.32            116            274 257 
 GUY2CHZ EP       2019 53.71                             113    0.05 7  301 236 
 GUY2CHN ES       2020 27.63                             113   -0.14 7  301 236 
 GUY2CHZ I        2020 36.56        13.3 0.74                           301 236 
 TOL  SZ EP       2019 57.92                             110   -0.28 7  343 225 
 TOL  SE ES       2020 35.21                             110   -0.64 7  343 225 
 TOL  SZ I        2020 41.43         6.1 0.46            111            343 225 
                                                                                
