 2013  916 2206 33.6 L   6.797 -73.149155.7  RSN  4 0.4 1.7LRSN                1
 GAP=200        0.85       5.3     8.9 11.0  0.9598E+01  0.1337E+01 -0.1817E+02E
 Epicentro: LOS SANTOS - SANTANDER                                             3
 ACTION:UPD 13-10-22 09:23 OP:ep   STATUS:               ID:20130916220633 L   I
 OLDACT:UP  13-09-16 21:55 OP:cam  STATUS:               ID:20130916215960d    3
 OLDACT:UP  13-09-16 21:55 OP:cam  STATUS:               ID:20130916215960d    3
 OLDACT:DUP 13-09-16 21:52 OP:cam  STATUS:               ID:20130916215960d    3
 2013-09-16-2159-59M.COL___269                                                 6
 STAT SP IPHASW D HRMM SECON CODA AMPLIT PERI AZIMU VELO AIN AR TRES W  DIS CAZ7
 BRR  HZ EP   1   22 6 56.31                             154    0.49 7 71.0 299 
 BRR  HN ES       22 7 13.54                             154    0.3810 71.0 299 
 RUS  HN ES   1   22 7 17.17                             146   -0.43 7  100 176 
 RUS  HN I        22 7 17.87        10.5 0.26            144            100 176 
 PTB  HZ EP   1   22 7  1.57                             134    0.21 7  147 259 
 PTB  HE ES       22 7 22.77                             134   -0.24 9  147 259 
 PTB  HZ I        22 7 26.94         4.3 0.48            131            147 259 
 SML  HN ES       22 7 39.36                             120   -0.49 8  244 335 
                                                                                
