 2010  316 2033 40.7 L   6.797 -73.058149.1  RSN  8 0.4 1.9LRSN                1
 GAP=246        0.88       5.0     7.9  6.8  0.9307E+01  0.1943E+02  0.1096E+02E
 Epicentro: LOS SANTOS - SANTANDER                                             3
 ACTION:UP  10-08-24 09:54 OP:vdl  STATUS:               ID:20100316203340 L   I
 2010-03-16-2031-42S.COL___098                                                 6
 STAT SP IPHASW D HRMM SECON CODA AMPLIT PERI AZIMU VELO SNR AR TRES W  DIS CAZ7
 BAR2 SZ EP       2034  0.81                             169     0.010   27 212 
 BAR2 SZ ES   1   2034 16.47                             169     0.0 7   27 212 
 BRR  HZ EP       2034  2.58                             150    -0.210   80 295 
 BRR  HN ES       2034 20.06                             150     0.110   80 295 
 RUS  HZ EP       2034  4.75                             145     0.010  100 182 
 RUS  HN ES       2034 23.64                             145     0.110  100 182 
 RUS  HZ I        2034 24.37         5.7 0.04                           100 182 
 CHI  HN ES   1   2034 48.13                             117    -0.5 6  251 197 
 CHI  HZ I        2034 58.33         3.5 0.26                           251 197 
 HEL  HZ EP   1   2034 21.45                             115    -0.7 6  281 256 
 HEL  HZ I        2034 59.98         6.3 0.66                           281 256 
 RREF BZ EP       2034 28.73                             111     0.9 7  329 231 
 RREF BN ES   2   2035  5.42                             111     0.8 3  329 231 
 RREF BZ I        2035 13.31         4.8 0.12                           329 231 
 TOL  SZ EP   1   2034 30.21                             109     0.3 5  350 226 
 TOL  SZ ES   1   2035  7.35                             109    -0.9 5  350 226 
 PRA  HE ES   1   2035 17.51                             107     0.3 4  397 211 
 PRA  HZ I        2035 20.38         4.4 0.60                           397 211 
                                                                                
