 2016  416 2124 45.6 L   7.198 -73.343117.6  RSN  5 0.4 1.9LRSN                1
 GAP= 88        0.79       3.6     5.8  9.3  0.6335E+00  0.2668E+02 -0.1046E+01E
 Epicentro: LEBRIJA - SANTANDER                                                3
 ACTION:UPD 16-05-05 14:22 OP:rebc STATUS:               ID:20160416212445 L   I
 OLDACT:DUP 16-04-17 08:31 OP:dnl  STATUS:               ID:20160416211749d    3
 2016-04-16-2117-48M.COL___307                                                 6
 STAT SP IPHASW D HRMM SECON CODA AMPLIT PERI AZIMU VELO AIN AR TRES W  DIS CAZ7
 BAR2 EZ EP       2125  3.92                             147   -0.0810 69.3 165 
 BAR2 EZ ES       2125 18.01                             147   -0.3410 69.3 165 
 BAR2 EZ I        2125 19.22        77.6 0.94            148           69.3 165 
 PAM  EZ EP       2125  4.62                             145    0.0310 72.7  78 
 PAM  EE ES       2125 19.97                             145    0.5810 72.7  78 
 PAM  EZ I        2125 20.79        11.2 0.24            151           72.7  78 
 OCA  HZ EP   2   2125  7.20                             132   -0.30 5  115   1 
 OCA  HN ES       2125 24.19                             132   -0.3910  115   1 
 OCA  HZ I        2125 25.80        24.7 0.20            135            115   1 
 ZAR  HZ EP   2   2125 13.30                             120    0.54 4  170 281 
 ZAR  HN ES   2   2125 34.41                             120    0.47 4  170 281 
 ZAR  HZ I        2125 36.33         5.0 0.24            121            170 281 
 SPBC HZ EP   2   2125 15.17                             117    0.32 4  189 205 
 SPBC HN ES   4   2125 36.00                             117   -1.66 0  189 205 
 SPBC HZ I        2125 41.29         8.0 0.30            118            189 205 
                                                                                
