 2016  816 2217 59.7 L   6.735 -73.117138.5  RSN  6 0.3 1.7LRSN                1
 GAP=143        0.69       2.8     3.0  5.4 -0.4654E+00  0.3232E+01  0.6997E+00E
 Epicentro: JORDAN - SANTANDER                                                 3
 ACTION:UPD 16-10-29 15:36 OP:rebc STATUS:               ID:20160816221759 L   I
 OLDACT:REG 16-08-17 03:08 OP:cara STATUS:               ID:20160816220759     3
 2016-08-16-2207-59S.COL___349                                                 6
 STAT SP IPHASW D HRMM SECON CODA AMPLIT PERI AZIMU VELO AIN AR TRES W  DIS CAZ7
 BRR  HZ EP       2218 20.44                             149   -0.0710 77.6 302 
 BRR  HN ES       2218 37.05                             149    0.3510 77.6 302 
 BRR  HE ES       2218 37.52                             149           77.6 302 
 BRR  HZ I        2218 40.37        10.8 0.48                          77.6 302 
 PAM  EZ EP       2218 21.62                             148    0.1810 81.2  35 
 PAM  EE ES       2218 38.19                             148   -0.1710 81.2  35 
 PAM  EZ I        2218 39.83         6.2 0.20                          81.2  35 
 RUS  HZ EP       2218 22.50                             144    0.2410 93.2 178 
 RUS  HE ES       2218 39.47                             144   -0.3410 93.2 178 
 RUS  HZ I        2218 41.96         4.2 0.30                          93.2 178 
 PTB  HZ EP   4   2218 25.64                             130   -0.67 0  150 262 
 PTB  HE ES       2218 47.26                             130    0.23 9  150 262 
 PTB  HZ I        2218 48.45         8.1 0.28                           150 262 
 SPBC HZ EP       2218 27.64                             128    0.27 9  160 221 
 SPBC HE ES       2218 48.78                             128   -0.13 9  160 221 
 SPBC HZ I        2218 53.35         8.6 0.26                           160 221 
 ZAR  HZ EP       2218 31.94                             120   -0.39 8  210 294 
 ZAR  HN ES       2218 57.43                             120   -0.32 8  210 294 
 ZAR  HZ I        2219  6.76         6.3 0.34                           210 294 
                                                                                
