 2015  516 2035 48.2 L   6.265 -73.568115.0  RSN 12 0.5 2.0LRSN                1
 GAP= 92        1.18       3.3     3.6  6.6 -0.5140E+01  0.9309E+01 -0.6857E+01E
 Epicentro: EL GUACAMAYO - SANTANDER                                           3
 ACTION:UPD 15-09-10 22:04 OP:cam  STATUS:               ID:20150516203548 L   I
 OLDACT:REG 15-05-17 04:19 OP:stll STATUS:               ID:20150516202750     3
 2015-05-16-2027-50M.COL___279                                                 6
 STAT SP IPHASW D HRMM SECON CODA AMPLIT PERI AZIMU VELO AIN AR TRES W  DIS CAZ7
 BAR2 EZ EP       2036  5.84                             152    0.3710 55.9  50 
 BAR2 EZ ES       2036 19.23                             152    0.2710 55.9  50 
 BAR2 EZ I        2036 20.83        55.5 0.44            154           55.9  50 
 RUS  HZ EP       2036  6.43                             148   -0.1210 67.6 128 
 RUS  HN ES       2036 20.29                             148   -0.5910 67.6 128 
 RUS  HZ I        2036 23.37         8.9 0.40            151           67.6 128 
 SPBC HZ EP       2036  7.62                             140    0.1810 87.8 220 
 SPBC HE ES       2036 22.08                             140   -0.3910 87.8 220 
 SPBC HZ I        2036 24.80        18.3 0.42            143           87.8 220 
 BRR  HZ EP       2036  8.00                             137    0.1610 94.5 350 
 BRR  HZ I        2036  8.86        21.4 0.38            139           94.5 350 
 BRR  HE ES       2036 23.34                             137    0.1510 94.5 350 
 PAM  SZ EP       2036 15.08                             123    1.14 9  153  39 
 PAM  SN ES       2036 34.25                             123    0.20 9  153  39 
 PAM  SZ I        2036 39.63         9.2 0.32            126            153  39 
 NOR  HZ EP       2036 14.33                             121   -0.18 9  164 242 
 NOR  HN ES       2036 34.79                             121   -0.26 9  164 242 
 NOR  HZ I        2036 37.30        21.1 0.24            123            164 242 
 ZAR  HZ EP       2036 17.93                             115   -0.09 9  197 314 
 ZAR  HN ES       2036 41.69                             115    0.39 9  197 314 
 ZAR  HZ I        2036 44.24        14.4 0.46            118            197 314 
 HEL  HZ EP       2036 21.21                             113    0.47 8  217 268 
 HEL  HN ES       2036 45.93                             113   -0.21 8  217 268 
 HEL  HZ I        2036 50.77         7.8 0.46            115            217 268 
 OCA  HZ EP       2036 20.78                             113    0.00 8  220   7 
 OCA  HN ES       2036 46.05                             113   -0.16 8  220   7 
 OCA  HZ I        2036 48.54        21.9 0.50            115            220   7 
 GUY2CHZ EP       2036 22.67                             112    0.36 8  230 240 
 GUY2CHN ES       2036 49.20                             112    0.26 8  230 240 
 GUY2CHZ I        2036 56.55         5.6 0.50                           230 240 
 SML  HZ EP       2036 27.40                             106   -0.75 7  286 349 
 SML  HE ES       2036 57.92                             106   -1.42 7  286 349 
 SOCV BZ EP       2036 37.59                             101   -0.97 6  373  53 
                                                                                
