 2013 1016 2051 29.0 L   6.328 -73.571114.2  RSN  8 0.4 2.0LRSN                1
 GAP=108        0.97       3.9     3.1  7.1 -0.1802E+01  0.7606E+01 -0.4070E+01E
 Epicentro: SANTA HELENA DEL OPON - SANTANDER                                  3
 ACTION:UPD 13-11-25 09:22 OP:ep   STATUS:               ID:20131016205129 L   I
 OLDACT:REG 13-10-16 21:39 OP:nd   STATUS:               ID:20131016204959     3
 2013-10-16-2049-59M.COL___274                                                 6
 STAT SP IPHASW D HRMM SECON CODA AMPLIT PERI AZIMU VELO AIN AR TRES W  DIS CAZ7
 BAR2 SZ IP     D 2051 46.43                             154    0.4610 52.0  56 
 BAR2 SZ ES       2051 59.15                             154   -0.0910 52.0  56 
 BAR2 SZ I        2052  0.58       113.5 0.36            156           52.0  56 
 RUS  HZ EP       2051 47.69                             145    0.1010 72.3 132 
 RUS  HN ES       2052  2.06                             145   -0.0510 72.3 132 
 RUS  HZ I        2052  3.63        12.7 0.20            153           72.3 132 
 BRR  HZ EP       2051 48.00                             140   -0.0210 87.6 350 
 BRR  HN ES   2   2052  4.08                             140    1.20 5 87.6 350 
 BRR  HZ I        2052 10.09        15.2 0.32            140           87.6 350 
 PTB  HZ IP     C 2051 48.16                             135   -0.9710  101 283 
 PTB  HN ES       2052  4.65                             135   -0.2010  101 283 
 PTB  HZ I        2052  5.85        26.8 0.10            138            101 283 
 PAM  SZ EP       2051 54.35                             124    0.17 9  148  41 
 PAM  SE ES       2052 13.61                             124   -0.23 9  148  41 
 PAM  SZ I        2052 15.95         7.8 0.30            127            148  41 
 NOR  HZ EP       2051 55.88                             120    0.29 9  167 240 
 NOR  HN ES       2052 16.63                             120    0.28 9  167 240 
 NOR  HZ I        2052 18.08        13.5 0.14            124            167 240 
 ZAR  HZ EP       2051 58.23                             116   -0.00 9  192 312 
 ZAR  HN ES       2052 21.12                             116    0.06 9  192 312 
 ZAR  HZ I        2052 25.89        20.9 0.34            119            192 312 
 GUY2CHZ EP   4   2052  4.20                             111    0.75 0  233 239 
 GUY2CHN ES   4   2052 31.87                             111    1.53 0  233 239 
 GUY2CHZ I        2052 36.27         4.1 0.24                           233 239 
 SML  HZ EP   4   2052  7.83                             107   -0.29 0  279 349 
 SML  HN ES   4   2052 36.64                             107   -2.03 0  279 349 
                                                                                
