 2012  116 2137  6.8 L   6.789 -73.159146.3  RSN  6 0.2 1.7LRSN                1
 GAP=135        0.44       3.0     2.8  5.5  0.3576E+00  0.4119E+01  0.3043E+01E
 Epicentro: LOS SANTOS - SANTANDER                                             3
 ACTION:UP  12-02-03 08:18 OP:REBC STATUS:               ID:20120116213706 L   I
 2012-01-16-2137-00S.MAN___181                                                 6
 STAT SP IPHASW D HRMM SECON CODA AMPLIT PERI AZIMU VELO SNR AR TRES W  DIS CAZ7
 BAR2 SZ EP   2   2137 26.35                             171    -0.1 5   22 187 
 BAR2 SZ I        2137 43.27        11.0 0.25                            22 187 
 PAM  SZ EP   1   2137 29.38                             150     0.2 7   79  40 
 PAM  SE ES   1   2137 46.61                             150    -0.1 7   79  40 
 RUS  HZ EP   1   2137 30.35                             144    -0.2 7   99 175 
 RUS  HE ES   1   2137 49.15                             144     0.1 7   99 175 
 RUS  HZ I        2137 50.86         5.7 0.51                            99 175 
 PTB  HZ EP   1   2137 33.41                             132    -0.3 7  146 259 
 PTB  HN ES   1   2137 54.63                             132     0.0 7  146 259 
 ZAR  HE ES   1   2138  4.63                             123     0.2 6  203 293 
 ZAR  HZ I        2138 12.16         8.2 0.22                           203 293 
 CHI  HZ EP   1   2137 44.67                             117     0.3 6  247 195 
 CHI  HZ I        2138 19.82         3.5 0.59                           247 195 
                                                                                
