 2011  216 2000 11.6 L   6.758 -73.155140.7  RSN 11 0.3 2.8LRSN                1
 GAP=135        0.75       2.8     4.9  5.1 -0.3045E+01  0.7613E+01  0.1290E+01E
 Epicentro: LOS SANTOS - SANTANDER                                             3
 ACTION:UP  11-03-28 15:08 OP:jfem STATUS:               ID:20110216200011 L   I
 2011-02-16-1954-48S.COL___114                                                 6
 STAT SP IPHASW D HRMM SECON CODA AMPLIT PERI AZIMU VELO SNR AR TRES W  DIS CAZ7
 BAR2 SZ EP       20 0 30.53                             170     0.010   19 190 
 BAR2 SZ ES       20 0 45.00                                    -0.310   19 190 
 BAR2 SZ I        20 0 47.15       105.1 0.23                            19 190 
 BTL  SZ EP       20 0 31.12                             172     0.510   22 325 
 GIR2 SZ EP   1   20 0 30.91                                     0.1 7   36 353 
 GIR2 SZ ES   1   20 0 46.33                                     0.5 7   36 353 
 RUS  HZ EP       20 0 34.19                             141    -0.310   96 175 
 RUS  HN ES   1   20 0 52.58                             141     0.2 7   96 175 
 RUS  HZ I        20 0 54.56        67.9 0.25                            96 175 
 GRA  SZ EP   1   20 0 36.70                                    -0.1 7  130  17 
 GRA  SZ ES   1   20 0 56.09                                    -0.4 7  130  17 
 GRA  SZ I        20 0 57.50       113.5 0.30                           130  17 
 OCA  SZ EP   1   20 0 40.09                             125     0.1 7  165 354 
 OCA  SZ ES   2   20 1  1.75                             125    -0.3 5  165 354 
 OCA  SZ I        20 1  6.53       102.8 0.20                           165 354 
 YOP  SZ EP   1   20 0 41.40                                     0.5 7  175 152 
 YOP  SN ES   1   20 1  3.66                                    -0.2 7  175 152 
 YOP  SZ I        20 1  6.65        35.9 0.46                           175 152 
 NOR  SZ EP       20 0 46.35                             116    -0.3 8  231 235 
 NOR  SN ES   1   20 1 13.83                             116    -0.2 6  231 235 
 CHI  HE ES   1   20 1 17.33                             114     0.0 6  244 195 
 RREF HZ EP   1   20 0 57.02                                    -0.1 5  318 230 
 RREF HN ES   1   20 1 33.04                                     0.4 5  318 230 
 RREF HZ I        20 1 43.27        49.7 0.20                           318 230 
 TOL  SZ EP   2   20 0 59.60                                     0.4 3  340 225 
                                                                                
