 2017 1116 2154 34.3 L   6.821 -73.196144.6  RSN  5 0.2 1.4LRSN                1
 GAP=146        0.62       3.1     3.6  4.9 -0.3248E+01  0.4317E+01  0.1315E+01E
 Epicentro: ZAPATOCA - SANTANDER                                               3
 ACTION:UPD 17-12-12 19:56 OP:rebc STATUS:               ID:20171116215434 L   I
 OLDACT:REG 17-11-17 03:37 OP:dnl  STATUS:               ID:20171116214746     3
 2017-11-16-2148-00M.COL___483                                                 6
 STAT SP IPHASW D HRMM SECON CODA AMPLIT PERI AZIMU VELO AIN AR TRES W  DIS CAZ7
 BAR2 EZ EP       2154 54.08                             170    0.2010 25.3 176 
 BAR2 EZ ES       2155  8.93                             170   -0.1910 25.3 176 
 BAR2 EZ I        2155 10.01         9.4 0.26            168           25.3 176 
 PAM  EZ EP       2154 56.86                             150    0.3010 79.4  44 
 PAM  EN ES       2155 13.66                             150   -0.2310 79.4  44 
 PAM  EZ I        2155 14.56         4.1 0.18            154           79.4  44 
 RUS  HZ EP       2154 58.00                             143   -0.1910  103 173 
 RUS  HN ES       2155 17.10                             143    0.3110  103 173 
 RUS  HZ I        2155 17.52         3.1 0.24            144            103 173 
 PTB  HZ EP       2155  0.51                             133   -0.26 9  143 257 
 PTB  HN ES       2155 21.56                             133    0.19 9  143 257 
 PTB  HZ I        2155 28.26         2.8 0.60            131            143 257 
 CHI  HZ EP   2   2155 12.14                             117    0.07 4  249 194 
 CHI  HE ES       2155 41.23                             117   -0.26 8  249 194 
 CHI  HZ I        2155 46.65         2.4 0.40            117            249 194 
                                                                                
