 2010  516 2208 15.7 L   6.782 -72.999143.2  RSN  5 0.2 1.5LRSN                1
 GAP=173        0.50       3.8     7.2  7.7  0.9881E+01 -0.3185E+02 -0.1595E+02E
 Epicentro: CEPITA - SANTANDER                                                 3
 ACTION:UP  10-08-24 10:05 OP:vdl  STATUS:               ID:20100516220815 L   I
 2010-05-16-2206-35S.COL___108                                                 6
 STAT SP IPHASW D HRMM SECON CODA AMPLIT PERI AZIMU VELO AIN AR TRES W  DIS CAZ7
 BAR2 SZ EP       22 8 34.98                             168    -0.210   29 224 
 BAR2 SZ ES   2   22 8 50.03                             168    -0.3 5   29 224 
 BRR  HZ EP       22 8 37.62                             147     0.110   87 295 
 BRR  HZ I        22 8 37.87        10.1 0.11                            87 295 
 BRR  HN ES   1   22 8 54.54                             147     0.0 7   87 295 
 RUS  HZ EP   1   22 8 38.90                             144    -0.2 7   99 185 
 RUS  HN ES   1   22 8 57.55                             144     0.3 7   99 185 
 RUS  HZ I        22 8 58.48         3.0 0.07                            99 185 
 BRI  SZ EP   1   22 8 39.43                             142     0.3 7  106  12 
 GUE  SZ EP       22 8 40.04                             139    -0.110  116   4 
                                                                                
