 2011  716 2213 56.1 L   6.767 -73.109138.7  RSN  8 0.3 1.9LRSN                1
 GAP=143        0.71       3.2     6.7  5.6 -0.3473E+01 -0.1655E+00 -0.1994E+00E
 Epicentro: LOS SANTOS - SANTANDER                                             3
 ACTION:UPD 12-07-25 14:01 OP:epov STATUS:               ID:20110716221356 L   I
 2011-07-16-2211-26S.COL___132                                                 6
 STAT SP IPHASW D HRMM SECON CODA AMPLIT PERI AZIMU VELO AIN AR TRES W  DIS CAZ7
 BAR2 SZ EP       2214 14.52                             171   -0.2710 20.9 203 
 BAR2 SZ ES   1   2214 29.78                             171    0.38 7 20.9 203 
 BAR2 SZ I        2214 31.16        21.9 0.23                          20.9 203 
 BTL  SZ EP       2214 15.01                             170    0.1510 24.3 314 
 BRR  HZ EP       2214 16.73                             150   -0.0410 76.6 299 
 BRR  HZ I        2214 19.81        17.5 0.24                          76.6 299 
 BRR  HE ES   1   2214 32.81                             150   -0.12 7 76.6 299 
 PAM  SZ EP   2   2214 17.67                             149    0.11 5 77.8  35 
 PAM  SN ES   2   2214 33.69                             149   -0.63 5 77.8  35 
 RUS  HZ EP       2214 18.83                             143   -0.0110 96.7 178 
 RUS  HN ES   1   2214 36.61                             143    0.01 7 96.7 178 
 RUS  HZ I        2214 39.63         8.6 0.34                          96.7 178 
 GRA  SZ EP       2214 21.50                             135    0.6110  128  15 
 GRA  SZ I        2214 23.10         9.3 0.23                           128  15 
 GRA  SZ ES   1   2214 39.88                             135   -0.37 7  128  15 
 OCA  SZ EP   1   2214 23.68                             127   -0.56 7  164 352 
 OCA  SZ ES   2   2214 46.70                             127    0.49 5  164 352 
 OCA  SZ I        2214 51.04        10.2 0.34                           164 352 
 PRA  HZ EP       2214 49.05                             105   -0.16 6  391 210 
                                                                                
