 2014 1216 2149 12.2 L   6.807 -73.208145.2  RSN  6 0.3 1.7LRSN                1
 GAP=129        0.74       2.5     4.0  5.0 -0.7975E+00  0.6537E+01 -0.1031E+01E
 Epicentro: ZAPATOCA - SANTANDER                                               3
 ACTION:UPD 15-02-10 17:04 OP:nd   STATUS:               ID:20141216214912 L   I
 OLDACT:DUP 14-12-17 02:48 OP:cam  STATUS:               ID:20141216214816d    3
 2014-12-16-2148-15M.COL___293                                                 6
 STAT SP IPHASW D HRMM SECON CODA AMPLIT PERI AZIMU VELO AIN AR TRES W  DIS CAZ7
 BAR2 EZ EP       2149 31.90                             170    0.1610 23.9 173 
 BAR2 EZ ES       2149 47.22                             170    0.2210 23.9 173 
 BAR2 EZ I        2149 48.05        12.8 0.22            171           23.9 173 
 PAM  SZ EP       2149 34.68                             149    0.1210 81.3  44 
 PAM  SN ES       2149 51.81                             149   -0.2210 81.3  44 
 PAM  SZ I        2149 54.00         7.9 0.46            150           81.3  44 
 RUS  HZ EP       2149 36.00                             143    0.0310  102 172 
 RUS  HN ES       2149 54.29                             143   -0.2410  102 172 
 RUS  HZ I        2149 55.43         5.4 0.26            144            102 172 
 PTB  HZ EP       2149 37.77                             133   -0.72 9  141 258 
 PTB  HN ES       2149 59.22                             133    0.19 9  141 258 
 SML  HZ EP       2149 48.30                             118   -0.07 8  240 337 
 SML  HN ES       2150 16.84                             118    0.22 8  240 337 
 SML  HZ I        2150 22.71         6.4 0.10            117            240 337 
 CHI  HZ EP       2149 50.19                             117    0.46 8  248 194 
 CHI  HN ES       2150 19.04                             117    0.01 8  248 194 
 CHI  HZ I        2150 23.22         4.3 0.50            117            248 194 
                                                                                
