 2012  916 2249 41.2 L   6.294 -73.640109.6  RSN  7 0.2 2.0LRSN                1
 GAP=126        0.39       3.4     2.0  4.0  0.4028E+00  0.1879E+01  0.1728E+01E
 Epicentro: SANTA HELENA DEL OPON - SANTANDER                                  3
 ACTION:UPD 12-10-22 14:19 OP:ep   STATUS:               ID:20120916224941 L   I
 2012-09-16-2248-15M.COL___200                                                 6
 STAT SP IPHASW D HRMM SECON CODA AMPLIT PERI AZIMU VELO AIN AR TRES W  DIS CAZ7
 BAR2 SZ EP       2249 58.37                             149    0.2010 60.4  57 
 BAR2 SZ I        2249 58.49        41.2 0.34                          60.4  57 
 BAR2 SZ ES   1   2250 11.41                             149   -0.02 7 60.4  57 
 BRR  HZ EP       2250  0.11                             137    0.0910 90.2 355 
 BRR  HE ES   1   2250 14.71                             137   -0.01 7 90.2 355 
 BRR  HE I        2250 22.41        57.4 0.16                          90.2 355 
 PTB  HZ EP       2250  0.11                             136   -0.2610 94.2 287 
 PTB  HE ES   1   2250 15.27                             136   -0.08 7 94.2 287 
 PTB  HN I        2250 15.44        19.8 0.18                          94.2 287 
 GIR2 SZ EP       2250  0.99                             134   -0.0410 99.8  30 
 GIR2 SZ ES   3   2250 15.98                             134   -0.54 2 99.8  30 
 PAM  SZ EP   3   2250  6.15                             121   -0.74 2  155  42 
 PAM  SN ES   3   2250 26.57                             121   -0.37 2  155  42 
 PAM  SN I        2250 29.23         5.4 0.26                           155  42 
 CHI  HN ES   3   2250 32.54                             116    0.26 2  184 183 
 CHI  HN I        2250 37.72         7.6 0.26                           184 183 
 ZAR  HZ EP       2250  9.94                             115    0.08 9  189 315 
 ZAR  HN ES   1   2250 32.44                             115    0.21 7  189 315 
 ZAR  HZ I        2250 37.25        12.3 0.48                           189 315 
                                                                                
