 2011  816 2029  0.3 L   6.775 -73.117144.0  RSN  4 0.2 1.5LRSN                1
 GAP=186        0.46       3.1     9.1  7.0  0.1449E+02 -0.3693E+02 -0.7408E+01E
 Epicentro: LOS SANTOS - SANTANDER                                             3
 ACTION:UPD 12-07-13 15:52 OP:ep   STATUS:               ID:20110816202900 L   I
 2011-08-16-2026-16S.COL___150                                                 6
 STAT SP IPHASW D HRMM SECON CODA AMPLIT PERI AZIMU VELO AIN AR TRES W  DIS CAZ7
 BAR2 SZ EP       2029 19.62                             171   -0.0910 21.4 200 
 BAR2 SZ I        2029 20.07         6.9 0.36                          21.4 200 
 BAR2 SZ ES   3   2029 34.43                             171   -0.40 2 21.4 200 
 BRR  HZ EP       2029 21.56                             151    0.0310 75.3 299 
 BRR  HZ I        2029 32.43        10.5 0.40                          75.3 299 
 BRR  HE ES   1   2029 38.03                             151   -0.03 7 75.3 299 
 RUS  HZ EP       2029 23.83                             145    0.1310 97.6 178 
 RUS  HN ES   2   2029 42.01                             145    0.08 5 97.6 178 
 RUS  HZ I        2029 44.89         2.7 0.70                          97.6 178 
 OCA  SZ EP       2029 28.53                             129   -0.28 9  163 352 
 OCA  SZ ES   1   2029 51.41                             129    0.40 7  163 352 
 OCA  SZ I        2029 56.43         6.0 0.27                           163 352 
                                                                                
