 2014  716 2224 58.9 L   6.781 -73.175150.2  RSN  6 0.5 1.8LRSN                1
 GAP=198        1.23       6.8     8.0  9.5  0.2015E+02  0.1084E+02 -0.2256E+02E
 Epicentro: LOS SANTOS - SANTANDER                                             3
 ACTION:UPD 15-03-16 20:44 OP:nd   STATUS:               ID:20140716222458 L   I
 OLDACT:UP  14-07-17 04:48 OP:cam  STATUS:               ID:20140716222000     3
 OLDACT:REG 14-07-17 03:57 OP:cam  STATUS:               ID:20140716222000     3
 2014-07-16-2220-00M.COL___282                                                 6
 STAT SP IPHASW D HRMM SECON CODA AMPLIT PERI AZIMU VELO AIN AR TRES W  DIS CAZ7
 BAR2 SZ EP       2225 18.95                             172   -0.0810 20.9 182 
 BAR2 SZ ES       2225 34.28                             172   -0.4410 20.9 182 
 BAR2 SZ I        2225 36.80         8.6 0.26            171           20.9 182 
 BRR  HZ EP       2225 20.66                             154    0.2110 69.5 301 
 BRR  HN ES       2225 37.97                             154    0.7210 69.5 301 
 BRR  HN I        2225 38.72        28.5 0.18            150           69.5 301 
 RUS  HN ES       2225 41.97                             145    0.2310 98.7 174 
 RUS  HN I        2225 42.98         9.0 0.30            149           98.7 174 
 PTB  HZ EP       2225 25.96                             134    0.03 9  144 259 
 PTB  HN ES       2225 46.01                             134   -0.99 9  144 259 
 PTB  HZ I        2225 51.44         3.2 0.50            132            144 259 
 ZAR  HZ EP       2225 31.83                             124    0.40 9  202 293 
 ZAR  HN ES       2225 57.38                             124    0.58 9  202 293 
 ZAR  HZ I        2226  7.53         3.8 0.14            123            202 293 
 SML  HZ EP   1   2225 35.46                             118   -0.40 6  244 336 
 SML  HN ES       2226  4.08                             118   -0.59 8  244 336 
 SML  HZ I        2226 11.07         7.5 0.26            119            244 336 
                                                                                
