 2014  716 2229  4.2 L   6.163 -73.883102.7  RSN  4 0.3 1.5LRSN                1
 GAP=115        0.76       4.1     3.0  7.3  0.5371E+00 -0.2986E+01 -0.4195E+01E
 Epicentro: LANDAZURI - SANTANDER                                              3
 ACTION:UPD 15-03-16 20:44 OP:nd   STATUS:               ID:20140716222904 L   I
 OLDACT:DUP 14-07-17 04:48 OP:cam  STATUS:               ID:20140716222001d    3
 OLDACT:UP  14-07-17 04:48 OP:cam  STATUS:               ID:20140716222000     3
 OLDACT:REG 14-07-17 03:57 OP:cam  STATUS:               ID:20140716222000     3
 2014-07-16-2220-00M.COL___282                                                 6
 STAT SP IPHASW D HRMM SECON CODA AMPLIT PERI AZIMU VELO AIN AR TRES W  DIS CAZ7
 SPBC HZ EP       2229 20.58                             147    0.2710 60.2 200 
 SPBC HN ES       2229 33.04                             147    0.2110 60.2 200 
 SPBC HN I        2229 37.14        14.8 0.32            149           60.2 200 
 PTB  HZ EP     C 2229 21.14                             140   -0.1910 75.9 303 
 PTB  HN ES       2229 34.46                             140   -0.2010 75.9 303 
 PTB  HZ I        2229 34.93         7.4 0.32            146           75.9 303 
 BAR2 SZ EP       2229 22.99                             135    0.1210 90.9  58 
 BAR2 SZ ES       2229 37.78                             135    0.3810 90.9  58 
 BAR2 SZ I        2229 39.06         7.6 0.82            140           90.9  58 
 RUS  HZ EP       2229 23.33                             135   -0.1010 93.4 109 
 RUS  HE ES       2229 37.91                             135   -0.4910 93.4 109 
                                                                                
