 2011  716 2239 12.8 L   6.860 -73.077145.0  RSN  6 0.2 1.7LRSN                1
 GAP=162        0.45       2.7     5.3  6.2 -0.1643E+01 -0.9086E+01  0.1115E+00E
 Epicentro: LOS SANTOS - SANTANDER                                             3
 ACTION:UPD 12-07-25 14:01 OP:epov STATUS:               ID:20110716223912 L   I
 2011-07-16-2234-20S.COL___129                                                 6
 STAT SP IPHASW D HRMM SECON CODA AMPLIT PERI AZIMU VELO AIN AR TRES W  DIS CAZ7
 BTL  SZ EP       2239 32.31                             171    0.0110 22.0 287 
 BAR2 SZ EP   2   2239 32.15                             167   -0.37 5 31.8 201 
 BAR2 SZ I        2239 48.45        10.1 0.26                          31.8 201 
 BRR  HZ EP       2239 33.91                             151   -0.1810 75.3 291 
 BRR  HZ I        2239 34.26        15.0 0.14                          75.3 291 
 BRR  HE ES   1   2239 50.90                             151    0.20 7 75.3 291 
 BRI  SZ EP   2   2239 36.50                             144    0.55 5 99.6  18 
 RUS  HZ EP   1   2239 37.12                             142    0.19 7  107 180 
 RUS  HE ES   1   2239 55.71                             142   -0.06 7  107 180 
 RUS  HZ I        2239 57.10         3.4 0.41                           107 180 
 GRA  SZ EP   1   2239 37.27                             139    0.01 7  117  15 
 GRA  SZ ES   1   2239 56.23                             139   -0.13 7  117  15 
 GRA  SZ I        2239 57.90         9.0 0.18                           117  15 
                                                                                
