 2010  116 2246 20.0 L   6.821 -73.471 11.1  RSN  6 0.4 2.1LRSN                1
 GAP=113        0.77       3.1     6.5 10.6 -0.1031E+02  0.5989E+02 -0.2060E+02E
 Epicentro: SAN VICENTE DE CHUCURI - SANTANDER                                 3
 ACTION:UP  10-08-24 09:44 OP:vdl  STATUS:               ID:20100116224620 L   I
 2010-01-16-2244-44S.COL___096                                                 6
 STAT SP IPHASW D HRMM SECON CODA AMPLIT PERI AZIMU VELO SNR AR TRES W  DIS CAZ7
 BAR2 SZ EP   1   2246 27.21                             101     0.1 7   41 129 
 BAR2 SZ ES   2   2246 32.17                             101    -0.5 5   41 129 
 GIR2 SZ IP       2246 26.90                             101    -0.210   42  47 
 RUS  BZ EP   1   2246 38.37                              94     0.4 7  111 157 
 RUS  BN ES   1   2246 51.83                              94    -0.2 7  111 157 
 RUS  BZ I        2247  1.16        23.3 0.24                           111 157 
 OCA  SZ EP   1   2246 45.14                              56     0.6 7  158   6 
 OCA  SZ ES   1   2247  3.44                              56    -0.2 7  158   6 
 HEL  HZ EP   1   2246 54.74                              56    -0.1 6  238 253 
 HEL  HE ES   1   2247 21.39                              56    -0.6 6  238 253 
 HEL  HZ I        2247 24.01        19.8 0.30                           238 253 
 RREF BZ EP   1   2247  3.02                              55     0.5 5  297 224 
                                                                                
