 2017 1016 2226  1.7 L   6.797 -73.127140.0  RSN  8 0.5 1.6LRSN                1
 GAP=139        0.95       4.8     4.8  7.1 -0.7208E+01  0.6630E+01  0.8052E+01E
 Epicentro: LOS SANTOS - SANTANDER                                             3
 ACTION:UPD 17-11-07 19:32 OP:rebc STATUS:               ID:20171016222601 L   I
 OLDACT:UP  17-10-17 07:15 OP:dnl  STATUS:               ID:20171016221741d    3
 OLDACT:DUP 17-10-17 07:11 OP:dnl  STATUS:               ID:20171016221741d    3
 OLDACT:UP  17-10-17 07:10 OP:dnl  STATUS:               ID:20171016221740     3
 OLDACT:UP  17-10-17 07:09 OP:dnl  STATUS:               ID:20171016221740     3
 OLDACT:REG 17-10-17 05:36 OP:dnl  STATUS:               ID:20171016221740     3
 2017-10-16-2218-00M.COL___422                                                 6
 STAT SP IPHASW D HRMM SECON CODA AMPLIT PERI AZIMU VELO AIN AR TRES W  DIS CAZ7
 BAR2 EZ EP       2226 20.28                             170   -0.4110 23.5 195 
 BAR2 EZ ES       2226 35.61                             170    0.1510 23.5 195 
 BAR2 EZ I        2226 37.67        13.0 0.28            168           23.5 195 
 BRR  HZ EP   2   2226 22.02                             151   -0.37 5 73.1 298 
 BRR  HE ES       2226 39.14                             151    0.6510 73.1 298 
 BRR  HZ I        2226 39.46         6.6 0.34            152           73.1 298 
 PAM  EZ EP       2226 23.27                             150   -0.0210 76.3  38 
 PAM  EN ES       2226 40.07                             150   -0.0210 76.3  38 
 PAM  EZ I        2226 42.50         5.8 0.48            152           76.3  38 
 RUS  HZ EP   2   2226 25.00                             143    0.10 5  100 177 
 RUS  HN ES       2226 42.91                             143   -0.0610  100 177 
 RUS  HZ I        2226 44.59         4.2 0.26            142            100 177 
 PTB  HZ EP   2   2226 27.55                             131   -0.88 5  150 259 
 PTB  HN ES       2226 48.81                             131   -0.43 9  150 259 
 PTB  HZ I        2226 51.22         4.2 0.10            131            150 259 
 NOR  HZ EP   2   2226 37.04                             117   -0.27 4  236 235 
 NOR  HE ES       2227  4.72                             117   -0.32 8  236 235 
 NOR  HZ I        2227  7.46         2.5 0.36            117            236 235 
 GUY2CHZ EP   2   2226 47.08                             111    1.82 4  303 235 
 GUY2CHZ I        2227 26.78         1.9 0.38                           303 235 
 PRA  HZ EP   2   2226 55.12                             106   -0.04 3  393 210 
 PRA  HE IS       2227 37.84                             106    1.02 6  393 210 
 PRA  HZ I        2227 43.90         1.9 0.58            106            393 210 
                                                                                
