 2017 1216 2245 29.0 L   6.771 -73.158144.8  RSN 13 0.7 2.1LRSN                1
 GAP=112        1.09       3.5     4.3  6.9  0.3336E+00  0.2209E+01  0.7322E+01E
 Epicentro: LOS SANTOS - SANTANDER                                             3
 ACTION:UPD 18-01-04 13:21 OP:rebc STATUS:               ID:20171216224529 L   I
 OLDACT:UP  17-12-17 07:57 OP:mg   STATUS:               ID:20171216223739     3
 OLDACT:REG 17-12-17 06:17 OP:mg   STATUS:               ID:20171216223739     3
 2017-12-16-2238-00M.COL___473                                                 6
 STAT SP IPHASW D HRMM SECON CODA AMPLIT PERI AZIMU VELO AIN AR TRES W  DIS CAZ7
 BAR2 EZ EP       2245 48.63                             172    0.1910 20.0 188 
 BAR2 EZ ES   1   2246  3.01                             172   -0.60 7 20.0 188 
 BAR2 EZ I        2246  4.87        30.7 0.24            171           20.0 188 
 PAM  EZ EP       2245 51.60                             150    0.3010 80.7  39 
 PAM  EN ES       2246  8.71                             150    0.0110 80.7  39 
 PAM  EZ I        2246 11.86        12.3 0.46            153           80.7  39 
 PTB  HZ EP       2245 55.19                             132   -0.52 9  146 260 
 PTB  HN ES       2246 16.26                             132   -0.28 9  146 260 
 PTB  HZ I        2246 18.29        10.8 0.16            132            146 260 
 SPBC HZ EP       2245 57.57                             129    0.47 9  160 219 
 SPBC HN ES   2   2246 20.30                             129    1.27 5  160 219 
 SPBC HZ I        2246 23.81        24.9 0.17            130            160 219 
 OCA  HZ EP       2245 57.38                             129   -0.13 9  163 354 
 OCA  HN ES       2246 19.92                             129    0.17 9  163 354 
 OCA  HZ I        2246 23.18        24.7 0.22            131            163 354 
 YPLC HZ EP       2245 59.13                             127    0.62 9  175 150 
 ZAR  HZ EP   2   2246  2.19                             122    0.82 4  204 293 
 ZAR  HN ES       2246 26.40                             122   -0.23 9  204 293 
 ZAR  HZ I        2246 31.76        14.7 0.32            123            204 293 
 DRL03HZ EP       2246 10.48                             113   -0.41 7  292 353 
 DRL03HN ES   2   2246 44.84                             113    1.27 4  292 353 
 GUY2CHZ EP   2   2246 13.34                             112    1.11 4  298 235 
 GUY2CHN ES   4   2246 48.94                             112    2.99 0  298 235 
 GUY2CHZ I        2246 54.85         6.4 0.32                           298 235 
 PTGC HZ EP       2246 11.85                             112   -0.68 7  306 158 
 PTGC HN ES       2246 45.42                             112   -1.06 7  306 158 
 PTGC HZ I        2246 48.84         6.3 0.29            113            306 158 
 PRA  HZ EP       2246 22.66                             106    0.58 6  389 210 
 PRA  HN ES   2   2247  2.32                             106   -1.17 3  389 210 
 PRA  HZ I        2247  8.84         6.1 0.40            107            389 210 
 ORTC HZ EP       2246 23.06                             106    0.57 6  392 216 
 ORTC HE ES   3   2247  6.64                             106    2.43 1  392 216 
 ORTC HZ I        2247 10.02         4.1 0.20            107            392 216 
 SJC  HZ EP   2   2246 22.76                             105   -1.99 3  411 327 
 SJC  HN ES   3   2247  5.71                             105   -2.53 1  411 327 
 SJC  HZ I        2247  9.39         1.0 0.32            107            411 327 
                                                                                
