 2017 1016 2328 24.5 L   6.732 -73.110144.6  RSN  5 0.4 1.2LRSN                1
 GAP=144        1.02       5.7     7.8  8.8 -0.2742E+01  0.3812E+01 -0.6593E+01E
 Epicentro: JORDAN - SANTANDER                                                 3
 ACTION:UPD 17-11-07 19:32 OP:rebc STATUS:               ID:20171016232824 L   I
 OLDACT:UP  17-10-17 07:37 OP:dnl  STATUS:               ID:20171016232746d    3
 OLDACT:DUP 17-10-17 07:35 OP:dnl  STATUS:               ID:20171016232746d    3
 OLDACT:REG 17-10-17 05:41 OP:dnl  STATUS:               ID:20171016232745     3
 2017-10-16-2328-00M.COL___432                                                 6
 STAT SP IPHASW D HRMM SECON CODA AMPLIT PERI AZIMU VELO AIN AR TRES W  DIS CAZ7
 BAR2 EZ EP   2   2328 43.85                             172   -0.03 5 17.4 207 
 BAR2 EZ ES       2328 58.18                             172   -0.8210 17.4 207 
 BAR2 EZ I        2328 59.64         5.8 0.16            172           17.4 207 
 BRR  HZ EP       2328 45.87                             150   -0.0710 78.3 302 
 BRR  HE ES       2329  3.11                             150    0.4410 78.3 302 
 BRR  HZ I        2329  6.49         5.1 0.22            149           78.3 302 
 PAM  EZ EP       2328 46.88                             150    0.0710 81.0  34 
 PAM  EE ES       2329  4.20                             150   -0.0210 81.0  34 
 PAM  EZ I        2329  6.97         2.3 0.50            151           81.0  34 
 RUS  HZ EP   2   2328 47.57                             145   -0.02 5 92.9 178 
 RUS  HE ES       2329  6.16                             145    0.5610 92.9 178 
 RUS  HZ I        2329  7.11         2.4 0.26            148           92.9 178 
 PTB  HZ EP   2   2328 50.90                             131   -0.71 5  150 262 
 PTB  HE ES   4   2329 11.58                             131   -1.17 0  150 262 
 PTB  HZ I        2329 15.51         1.6 0.58            132            150 262 
                                                                                
