 2015  216 2118 24.7 L   6.788 -73.160146.0  RSN 11 0.6 1.8LRSN                1
 GAP= 71        1.39       4.6     5.1  7.3 -0.5291E+01  0.6072E+01  0.9439E+00E
 Epicentro: LOS SANTOS - SANTANDER                                             3
 ACTION:UPD 15-04-30 21:26 OP:nd   STATUS:               ID:20150216211824 L   I
 OLDACT:REG 15-02-17 02:52 OP:stll STATUS:               ID:20150216210748     3
 2015-02-16-2107-48M.COL___302                                                 6
 STAT SP IPHASW D HRMM SECON CODA AMPLIT PERI AZIMU VELO AIN AR TRES W  DIS CAZ7
 BAR2 EZ EP       2118 44.34                             171    0.0510 21.7 186 
 BAR2 EZ ES       2118 59.36                             171   -0.2410 21.7 186 
 BAR2 EZ I        2119  0.82        13.9 0.18            172           21.7 186 
 BRR  HZ EP       2118 46.38                             153    0.5810 70.5 300 
 BRR  HE ES       2119  3.70                             153    1.4210 70.5 300 
 PAM  SZ EP       2118 47.13                             150    0.1010 79.5  40 
 PAM  SN ES       2119  4.28                             150   -0.1910 79.5  40 
 PAM  SZ I        2119  6.59         8.3 0.46            151           79.5  40 
 RUS  HZ EP       2118 48.57                             144    0.2210 99.3 175 
 RUS  HN ES       2119  6.30                             144   -0.5210 99.3 175 
 RUS  HZ I        2119  9.68         6.2 0.38            146           99.3 175 
 PTB  HZ EP       2118 50.99                             132   -0.50 9  146 259 
 PTB  HN ES       2119 11.81                             132   -0.60 9  146 259 
 PTB  HZ I        2119 14.70         7.7 0.22            132            146 259 
 TAM  HZ EP       2118 52.40                             130   -0.07 9  156 104 
 TAM  HZ I        2118 52.73        14.9 0.20            133            156 104 
 SPBC HZ EP       2118 53.34                             130    0.35 9  161 219 
 SPBC HN ES       2119 15.09                             130    0.01 9  161 219 
 SPBC HZ I        2119 18.30        12.3 0.30            130            161 219 
 NOR  HZ EP       2119  0.21                             119    0.03 8  233 235 
 NOR  HE ES       2119 27.36                             119   -0.53 8  233 235 
 NOR  HZ I        2119 33.69         5.9 0.28            119            233 235 
 SML  HZ EP       2119  0.97                             117   -0.40 8  244 336 
 SML  HN ES       2119 28.99                             117   -1.01 8  244 336 
 SML  HZ I        2119 36.68         8.3 0.10            118            244 336 
 GUY2CHZ EP       2119  9.31                             113    1.26 7  299 235 
 GUY2CHN ES       2119 41.67                             113   -0.22 7  299 235 
 GUY2CHZ I        2119 51.15         2.8 0.38                           299 235 
 MON  HZ EP   9   2119 11.73                             109   -1.90 0  353 309 
 MON  HE ES       2119 50.01                                    0.09 6  353 309 
 MON  HZ I        2119 55.76         1.6 0.44            109            353 309 
                                                                                
