 2016  816 2038 52.8 L   6.753 -73.131141.8  RSN  5 0.3 1.6LRSN                1
 GAP=141        0.84       4.4     4.3  6.1 -0.1717E+01  0.3444E+01  0.9797E+00E
 Epicentro: LOS SANTOS - SANTANDER                                             3
 ACTION:UPD 16-10-29 15:36 OP:rebc STATUS:               ID:20160816203852 L   I
 OLDACT:REG 16-08-17 03:02 OP:cara STATUS:               ID:20160816203759     3
 2016-08-16-2037-59S.COL___349                                                 6
 STAT SP IPHASW D HRMM SECON CODA AMPLIT PERI AZIMU VELO AIN AR TRES W  DIS CAZ7
 BAR2 EZ IP       2039 12.12                             172    0.2410 18.7 198 
 BAR2 HN ES       2039 27.00                             172    0.2510 18.7 198 
 BAR2 EZ I        2039 30.21         7.4 0.10                          18.7 198 
 BRR  HZ EP       2039 13.76                             150   -0.0110 75.2 301 
 BRR  HE ES       2039 30.48                             150    0.3610 75.2 301 
 BRR  HZ I        2039 34.56        16.8 0.46                          75.2 301 
 PAM  EZ EP       2039 14.84                             149    0.0410 80.5  36 
 PAM  EE ES       2039 31.52                             149   -0.4210 80.5  36 
 PAM  EZ I        2039 33.86         4.8 0.42                          80.5  36 
 RUS  HZ EP       2039 16.23                             144    0.4410 95.3 177 
 RUS  HN ES       2039 33.32                             144   -0.3910 95.3 177 
 RUS  HZ I        2039 36.01         5.6 0.20                          95.3 177 
 PTB  HZ EP       2039 19.17                             131   -0.35 9  148 261 
 PTB  HE ES       2039 40.12                             131   -0.24 9  148 261 
 PTB  HZ I        2039 41.89         6.6 0.12                           148 261 
                                                                                
