 2016 1116 2221 41.8 L   6.779 -73.120145.4  RSN 17 0.5 2.3LRSN                1
 GAP=122        1.07       3.7     3.7  5.7 -0.7044E+00  0.3183E+01  0.9149E+01E
 Epicentro: LOS SANTOS - SANTANDER                                             3
 ACTION:UPD 17-10-26 21:08 OP:lp   STATUS:               ID:20161116222141 L   I
 OLDACT:REG 16-11-17 04:31 OP:lv   STATUS:               ID:20161116221745     3
 2016-11-16-2218-00M.COL___346                                                 6
 STAT SP IPHASW D HRMM SECON CODA AMPLIT PERI AZIMU VELO AIN AR TRES W  DIS CAZ7
 BAR2 EZ EP       2222  1.56                             171    0.2510 21.8 198 
 BAR2 EZ ES       2222 16.39                             171   -0.1710 21.8 198 
 BAR2 EZ I        2222 18.19        65.8 0.17            168           21.8 198 
 BRR  HZ IP     C 2222  3.28                             151    0.2110 74.8 299 
 BRR  HE ES       2222 20.22                             151    0.5310 74.8 299 
 BRR  HZ I        2222 24.77        28.2 0.16            150           74.8 299 
 PAM  EZ EP       2222  4.52                             151    0.5910 77.4  37 
 PAM  EN ES       2222 21.06                             151   -0.1710 77.4  37 
 PAM  EZ I        2222 23.97        34.6 0.49            156           77.4  37 
 PTB  HZ EP       2222  8.38                             132   -0.52 9  150 260 
 PTB  HN ES       2222 29.26                             132   -0.82 9  150 260 
 PTB  HZ I        2222 32.27        19.7 0.15            131            150 260 
 ZAR  HZ EP       2222 14.21                             122   -0.32 8  208 292 
 ZAR  HN ES       2222 39.55                             122   -0.55 8  208 292 
 ZAR  HZ I        2222 45.38        16.0 0.11            123            208 292 
 NOR  HZ EP       2222 17.61                             118    0.04 8  236 235 
 NOR  HN ES       2222 46.28                             118    0.78 8  236 235 
 NOR  HZ I        2222 51.61        13.3 0.14            119            236 235 
 CHI  HZ EP       2222 19.50                             117    0.23 8  247 196 
 CHI  HN ES       2222 49.29                             117    0.75 8  247 196 
 CHI  HZ I        2222 52.29        13.0 0.38            118            247 196 
 ROSC BZ EP   9   2222 22.32                             117    2.52 0  252 212 
 ROSC BE ES       2222 51.90                                   -0.10 8  252 212 
 ROSC BZ I        2222 55.62        25.3 0.75            117            252 212 
 PTGC HZ EP       2222 24.65                             112   -0.58 7  306 159 
 PTGC HN ES       2222 58.16                             112   -0.99 7  306 159 
 LL6C HZ EP   9   2222  7.42                             110   -20.3 0  327 357 
 LL6C HN ES       2222 42.88                                   -0.39 7  327 357 
 ELA  HZ EP   9   2222 31.23                             110    2.57 0  330 230 
 ELA  HN ES       2223  8.40                                    0.58 7  330 230 
 ELA  HZ I        2223 15.38         6.5 0.54            111            330 230 
 CBOC HZ EP       2222 29.33                             110    0.45 7  336 253 
 CBOC HN ES       2223  5.96                             110    0.32 7  336 253 
 CBOC HZ I        2223  9.96         3.0 0.17            110            336 253 
 PRA  HZ EP       2222 36.00                             106    0.81 6  391 210 
 PRA  HN ES       2223 16.83                             106   -0.04 6  391 210 
 PRA  HZ I        2223 21.82         8.3 0.25            107            391 210 
 ORTC HZ EP       2222 35.49                             106   -0.15 6  395 217 
 ORTC HE ES       2223 17.30                             106   -0.37 6  395 217 
 ORTC HZ I        2223 25.64         4.2 0.26            107            395 217 
 PAL  HZ EP       2222 36.67                             106   -0.38 6  407 240 
 PAL  HN ES       2223 19.82                             106   -0.36 6  407 240 
 PAL  HZ I        2223 22.97         5.0 0.11            107            407 240 
 SJC  HZ EP   4   2222 35.68                             106   -2.03 0  413 327 
 SJC  HN ES   4   2223 16.96                             106   -4.39 0  413 327 
 SJC  HZ I        2223 24.65         2.5 0.37            107            413 327 
 CRJC HZ EP   4   2222 42.02                             103   -2.47 0  470   3 
 CRJC HE ES   4   2223 30.55                             103   -2.88 0  470   3 
 CRJC HZ I        2223 32.63         5.8 0.24            105            470   3 
 URI  HZ EP   4   2222 52.33                             101   -2.61 0  558  13 
 URI  HN ES   4   2223 50.81                             101   -1.21 0  558  13 
                                                                                
