 2016  616 2115 44.7 L   6.803 -73.168147.5  RSN  7 0.3 1.5LRSN                1
 GAP=134        0.83       4.2     3.8  5.8  0.1241E+01  0.5146E+01  0.7260E+00E
 Epicentro: LOS SANTOS - SANTANDER                                             3
 ACTION:UPD 16-07-21 22:19 OP:rebc STATUS:               ID:20160616211544 L   I
 OLDACT:DUP 16-06-17 05:24 OP:edw  STATUS:               ID:20160616210745d    3
 2016-06-16-2107-44M.COL___346                                                 6
 STAT SP IPHASW D HRMM SECON CODA AMPLIT PERI AZIMU VELO AIN AR TRES W  DIS CAZ7
 BAR2 EZ EP       2116  4.18                             171   -0.3310 23.3 184 
 BAR2 EZ ES       2116 20.01                             171    0.0310 23.3 184 
 BAR2 EZ I        2116 22.26         9.1 0.34                          23.3 184 
 BRR  HZ EP       2116  6.49                             154    0.6110 68.9 299 
 BRR  HE ES       2116 22.53                             154    0.1110 68.9 299 
 PAM  EZ EP       2116  7.45                             151    0.3010 78.7  41 
 PAM  EN ES       2116 24.30                             151   -0.3810 78.7  41 
 PAM  EZ I        2116 28.55         3.9 0.52                          78.7  41 
 RUS  HZ EP       2116  8.24                             144   -0.3910  101 175 
 RUS  HE ES       2116 27.67                             144    0.3610  101 175 
 RUS  HZ I        2116 28.08         3.1 0.32                           101 175 
 PTB  HZ EP       2116 11.58                             133    0.02 9  145 259 
 PTB  HN ES       2116 32.27                             133   -0.27 9  145 259 
 PTB  HZ I        2116 35.76         5.0 0.12                           145 259 
 CHI  HZ EP   2   2116 22.17                             117   -0.26 4  248 195 
 CHI  HE ES   4   2116 54.53                             117    2.65 0  248 195 
 URE  HE ES       2116 57.33                             114   -0.11 7  281 292 
                                                                                
