 2012  616 2000  1.8 L   6.807 -73.141140.8  RSN 15 0.4 3.0LRSN 3.1WRSN        1
 SPEC AVERAGE  MO 13.7 ST  6.5 OM  3.4 f0 4.47 R0.3491 AL 2.34 WI 21.5 MW  3.1 3
 SPEC SD       MO  0.3 ST  3.2 OM  1.4 f00.290 R0.0226 AL      WI      MW  0.2 3
 GAP=137        0.77       2.4     3.4  4.9 -0.1944E+01  0.6674E+01  0.7864E+00E
 Epicentro: LOS SANTOS - SANTANDER                                             3
 SPEC HEL HH Z MO 14.1 ST  9.7 OM  2.2 f0 4.18 R0.3718 AL 2.42 WI 24.2 MW  3.3 3
 SPEC HEL HH Z T20 112 K 0.000 GD  307 VS 4.20 DE 3.00 Q0230.0 QA 0.60 VS 4.20 3
 SPEC RUS HH Z MO 13.4 ST  3.2 OM  1.8 f0 4.76 R0.3265 AL 2.26 WI 18.9 MW  2.9 3
 SPEC RUS HH Z T20 041 K 0.000 GD  173 VS 4.20 DE 3.00 Q0230.0 QA 0.60 VS 4.20 3
 ACTION:UP  12-08-06 17:50 OP:ep   STATUS:               ID:20120616200001 L   I
 2012-06-16-1958-40M.COL___175                                                 6
 STAT SP IPHASW D HRMM SECON CODA AMPLIT PERI AZIMU VELO AIN AR TRES W  DIS CAZ7
 BAR2 SZ EP   1   20 0 21.08                             170    0.20 7 24.2 191 
 BAR2 SZ ES   1   20 0 35.43                             170   -0.31 7 24.2 191 
 BAR2 SZ I        20 0 39.13       196.5 0.22                          24.2 191 
 PAM  SZ EP   1   20 0 23.85                             150    0.39 7 76.4  40 
 PAM  SN ES       20 0 40.65                             150    0.3110 76.4  40 
 RUS  HZ EP       20 0 24.91                             142   -0.2410  101 176 
 RUS  HN ES   1   20 0 43.36                             142    0.01 7  101 176 
 RUS  HZ I        20 0 44.81        82.4 0.24                           101 176 
 PTB  HZ EP   1   20 0 27.70                             131   -0.75 7  148 259 
 PTB  HN ES       20 0 48.79                             131   -0.43 9  148 259 
 PTB  HZ I        20 0 52.01       104.1 0.18                           148 259 
 OCA  HZ EP   1   20 0 29.33                             129   -0.36 7  160 353 
 OCA  HN ES       20 0 51.57                             129    0.15 9  160 353 
 ZAR  HZ EP   1   20 0 33.82                             121   -0.15 6  204 292 
 ZAR  HN ES   1   20 0 59.50                             121    0.46 6  204 292 
 ZAR  HZ I        20 1  5.64       155.9 0.29                           204 292 
 NOR  SZ EP   1   20 0 37.01                             117   -0.36 6  236 234 
 NOR  SN ES   1   20 1  5.29                             117    0.20 6  236 234 
 CHI  HZ EP   1   20 0 39.07                             116   -0.29 6  250 195 
 CHI  HZ I        20 0 41.23        56.0 0.18                           250 195 
 CHI  HN ES       20 1  8.50                             116   -0.13 8  250 195 
 ROSC BZ EP   1   20 0 40.63                             115    0.84 6  254 211 
 ROSC BZ I        20 1 19.14       139.4 0.46                           254 211 
 HEL  HZ EP   1   20 0 42.42                             114    0.55 6  273 256 
 HEL  HN ES   1   20 1 13.29                             114    0.19 6  273 256 
 HEL  HZ I        20 1 20.06        92.1 0.44                           273 256 
 GUY  SZ EP   1   20 0 46.14                             111    0.57 5  304 235 
 DBB  SZ EP   1   20 0 49.41                             108    0.25 5  340 274 
 TOL  SZ EP   1   20 0 50.64                             108    0.64 5  344 225 
 TOL  SZ ES   1   20 1 28.27                             108    0.70 5  344 225 
 COD  HZ EP   1   20 0 48.83                             108   -1.09 5  347 355 
 COD  HN ES   1   20 1 27.36                             108   -0.08 5  347 355 
 COD  HZ I        20 1 34.79        26.2 0.24                           347 355 
 PAL  HZ EP   1   20 0 56.78                             105   -0.15 4  407 239 
 PAL  HE ES   1   20 1 39.30                             105   -0.60 4  407 239 
                                                                                
