 2016  116 2133 29.5 L   6.522 -73.526101.9  RSN 15 0.6 2.2LRSN                1
 GAP= 66        1.32       2.8     3.5  7.1 -0.2242E+01  0.8553E+01 -0.2144E+01E
 Epicentro: EL CARMEN - SANTANDER                                              3
 ACTION:UPD 16-03-09 23:25 OP:cam  STATUS:               ID:20160116213329 L   I
 OLDACT:UP  16-01-17 09:49 OP:ak   STATUS:               ID:20160116212751     3
 OLDACT:REG 16-01-17 09:19 OP:ak   STATUS:               ID:20160116212751     3
 2016-01-16-2127-51M.COL___325                                                 6
 STAT SP IPHASW D HRMM SECON CODA AMPLIT PERI AZIMU VELO AIN AR TRES W  DIS CAZ7
 BAR2 EZ EP       2133 45.03                             158    0.5810 38.8  78 
 BAR2 EZ ES       2133 56.75                             158    0.6210 38.8  78 
 RUS  HZ EP       2133 47.73                             137   -0.1510 85.1 145 
 RUS  HN ES       2134  1.81                             137   -0.4410 85.1 145 
 RUS  HZ I        2134  5.10        17.4 0.39            141           85.1 145 
 PTB  HZ EP       2133 47.86                             131   -0.9310  103 271 
 PTB  HN ES       2134  2.93                             131   -0.9410  103 271 
 PTB  HZ I        2134  4.23        30.7 0.16            133            103 271 
 SPBC HZ EP       2133 49.24                             128   -0.6610  114 212 
 SPBC HN ES       2134  6.25                             128    0.4110  114 212 
 SPBC HZ I        2134 12.27        48.5 0.12            130            114 212 
 PAM  EZ EP       2133 51.55                             124   -0.3610  129  45 
 PAM  EN ES       2134  9.14                             124   -0.2810  129  45 
 PAM  EZ I        2134 13.67        10.6 0.22            127            129  45 
 ZAR  HZ EP       2133 56.92                             114   -0.10 9  182 306 
 ZAR  HN ES       2134 19.35                             114    0.83 9  182 306 
 ZAR  HZ I        2134 21.55        43.6 0.54            116            182 306 
 NOR  HZ EP       2133 56.89                             114   -0.24 9  183 235 
 NOR  HN ES       2134 18.24                             114   -0.46 9  183 235 
 NOR  HZ I        2134 22.60        18.1 0.14            116            183 235 
 OCA  HZ EP       2133 58.71                             112    0.47 9  191   7 
 OCA  HE ES       2134 20.59                             112   -0.08 9  191   7 
 OCA  HZ I        2134 27.69        43.3 0.32            115            191   7 
 CHI  HZ EP       2134  1.26                             110    0.52 8  210 186 
 CHI  HN ES       2134 25.97                             110    0.83 8  210 186 
 HEL  HZ EP       2134  2.64                             109    0.33 8  225 261 
 HEL  HN ES       2134 28.72                             109    0.80 8  225 261 
 HEL  HZ I        2134 32.79        10.9 0.26            111            225 261 
 GUY2CHZ EP   1   2134  5.61                             106    0.31 6  249 235 
 GUY2CHN ES       2134 33.28                             106    0.04 8  249 235 
 GUY2CHZ I        2134 43.34         7.0 0.32                           249 235 
 SML  HZ EP       2134  5.02                             105   -0.86 8  259 347 
 SML  HN ES       2134 35.02                             105    0.74 8  259 347 
 SML  HZ I        2134 37.79        32.5 0.12            107            259 347 
 URE  HZ EP   9   2134  4.49                             105   -1.52 0  260 302 
 URE  HN ES       2134 33.20                                    0.21 8  260 302 
 URE  HZ I        2134 35.75        17.1 0.16            107            260 302 
 PRA  HZ EP       2134 16.02                              99   -0.18 7  345 206 
 PRA  HE ES       2134 52.78                              99    0.14 7  345 206 
 PRA  HZ I        2134 56.85         5.7 0.24            102            345 206 
 SJC  HZ EP   9   2134 21.79                              96   -2.92 0  415 334 
 SJC  HE ES       2135  4.70                                   -0.17 6  415 334 
 SJC  HZ I        2135  8.56         2.3 0.39             98            415 334 
                                                                                
