 2010  116 2037 34.7 L   6.799 -73.252142.0  RSN  6 0.4 1.8LRSN                1
 GAP=164        0.64       2.5     8.3  9.1  0.2185E+01  0.4316E+02  0.1189E+01E
 Epicentro: ZAPATOCA - SANTANDER                                               3
 ACTION:UP  10-08-24 09:44 OP:vdl  STATUS:               ID:20100116203734 L   I
 2010-01-16-2020-00S.COL___096                                                 6
 STAT SP IPHASW D HRMM SECON CODA AMPLIT PERI AZIMU VELO SNR AR TRES W  DIS CAZ7
 BAR2 SZ EP   1   2037 53.85                             170    -0.1 8   24 162 
 RUS  BZ EP   1   2037 57.96                             142    -0.2 8  102 169 
 RUS  BE ES   1   2038 16.40                             142    -0.1 8  102 169 
 RUS  BZ I        2038 17.42         9.8 0.36                           102 169 
 OCA  SZ EP       2038  2.73                             129     0.110  159 357 
 OCA  SZ ES   1   2038 24.74                             129     0.3 7  159 357 
 CHI  HZ IP       2038 11.88                             116     0.0 9  246 193 
 CHI  HN ES   1   2038 40.80                             116    -0.1 6  246 193 
 CHI  HZ I        2038 46.85         5.4 0.36                           246 193 
 MON  HZ EP   2   2038 21.02                             108    -1.5 4  344 310 
 MON  HE ES   1   2038 59.58                             108    -0.2 5  344 310 
 PRA  HZ EP   1   2038 28.16                             106     0.7 5  386 208 
 PRA  HN ES   1   2039  9.07                             106     0.5 5  386 208 
                                                                                
