 2010  816 2039 42.7 L   6.775 -73.066141.3  RSN  5 0.4 1.4LRSN                1
 GAP=168        0.80       6.7    17.0 12.0 -0.1376E+02 -0.1221E+03 -0.8961E+01E
 Epicentro: LOS SANTOS - SANTANDER                                             3
 ACTION:UP  10-09-07 10:55 OP:vdl  STATUS:               ID:20100816203942 L   I
 2010-08-16-2038-16S.COL___110                                                 6
 STAT SP IPHASW D HRMM SECON CODA AMPLIT PERI AZIMU VELO SNR AR TRES W  DIS CAZ7
 BTL  SZ IP   1   2040  1.72                             170    -0.2 7   27 306 
 BTL  SZ ES   1   2040 16.76                             170    -0.1 7   27 306 
 BRR  HN ES   2   2040 20.63                             150     0.1 5   80 297 
 BRR  HZ I        2040 24.39         3.7 0.33                            80 297 
 RUS  HZ EP   2   2040  5.52                             144    -0.3 5   98 181 
 RUS  HN ES   2   2040 24.26                             144     0.4 5   98 181 
 GUE  SZ EP   1   2040  7.92                             138     0.8 7  118   8 
 GRA  SZ EP   1   2040  7.13                             136    -0.5 7  126  13 
 GRA  SZ ES   2   2040 26.96                             136    -0.1 5  126  13 
 GRA  SZ I        2040 28.09         4.3 0.47                           126  13 
                                                                                
