 2010  916 2003 25.7 L   6.830 -73.013140.0  RSN  4 0.1 1.5LRSN                1
 GAP=179        0.41       4.0     7.9  7.1  0.1838E+02 -0.3612E+02 -0.1520E+02E
 Epicentro: CEPITA - SANTANDER                                                 3
 ACTION:UP  11-02-18 11:03 OP:tino STATUS:               ID:20100916200325 L   I
 2010-09-16-2001-08S.COL___118                                                 6
 STAT SP IPHASW D HRMM SECON CODA AMPLIT PERI AZIMU VELO SNR AR TRES W  DIS CAZ7
 BAR2 SZ EP   1   20 3 44.75                             167    -0.1 7   32 216 
 BAR2 SZ ES   2   20 3 59.49                             167    -0.3 5   32 216 
 BAR2 SZ I        20 4  2.19         8.1 0.06                            32 216 
 BRR  HZ EP   1   20 3 46.78                             148    -0.1 7   83 292 
 BRR  HZ I        20 3 46.93        14.6 0.22                            83 292 
 BRR  HE ES   1   20 4  3.62                             148     0.1 7   83 292 
 RUS  HZ EP   1   20 3 49.02                             142    -0.1 7  104 184 
 RUS  HN ES   1   20 4  7.55                             142     0.2 7  104 184 
 RUS  HZ I        20 4  8.65         3.4 0.12                           104 184 
 GUE  SZ EP   1   20 3 49.51                             140     0.1 7  111   5 
 GUE  SZ I        20 3 50.36         2.2 0.14                           111   5 
                                                                                
