 2014 1216 2110 50.7 L   6.873 -73.185144.6  RSN  4 0.1 1.6LRSN                1
 GAP=151        0.44       2.7     2.5  4.9 -0.2754E+01  0.4094E+01  0.1955E+00E
 Epicentro: BETULIA - SANTANDER                                                3
 ACTION:UPD 15-02-10 17:04 OP:nd   STATUS:               ID:20141216211050 L   I
 OLDACT:UP  14-12-17 02:46 OP:cam  STATUS:               ID:20141216210814     3
 OLDACT:REG 14-12-17 02:34 OP:cam  STATUS:               ID:20141216210814     3
 2014-12-16-2108-14M.COL___293                                                 6
 STAT SP IPHASW D HRMM SECON CODA AMPLIT PERI AZIMU VELO AIN AR TRES W  DIS CAZ7
 PAM  SZ EP       2111 12.84                             152    0.1810 74.4  46 
 PAM  SN ES       2111 29.73                             152   -0.0210 74.4  46 
 PAM  SZ I        2111 30.73         6.5 0.28            153           74.4  46 
 RUS  HZ EP       2111 14.94                             141   -0.0710  109 174 
 RUS  HN ES       2111 33.90                             141   -0.0410  109 174 
 PTB  HZ EP       2111 17.17                             132   -0.22 9  145 255 
 PTB  HN ES       2111 38.13                             132   -0.05 9  145 255 
 PTB  HZ I        2111 39.92         5.5 0.48            133            145 255 
 NOR  HZ ES       2111 54.74                             118    0.27 8  236 232 
                                                                                
