 2017  716 2333  0.0 L   6.697 -73.540105.7  RSN  8 0.5 1.7LRSN                1
 GAP= 75        1.00       3.5     3.7  6.2 -0.3416E+01  0.5268E+01  0.6696E+00E
 Epicentro: EL CARMEN - SANTANDER                                              3
 ACTION:UPD 17-08-30 15:34 OP:rebc STATUS:               ID:20170716233300 L   I
 OLDACT:UP  17-07-17 08:06 OP:dani STATUS:               ID:20170716232742     3
 OLDACT:REG 17-07-17 06:44 OP:dani STATUS:               ID:20170716232742     3
 2017-07-16-2328-00M.COL___392                                                 6
 STAT SP IPHASW D HRMM SECON CODA AMPLIT PERI AZIMU VELO AIN AR TRES W  DIS CAZ7
 BAR2 EZ EP       2333 15.80                             157    0.2810 41.2 106 
 BAR2 EZ ES       2333 27.75                             157    0.1310 41.2 106 
 BAR2 EZ I        2333 28.95        28.9 0.22            159           41.2 106 
 BRR  HZ EP       2333 15.65                             153    0.0710 49.2 337 
 BRR  HN ES       2333 27.81                             153    0.0910 49.2 337 
 BRR  HZ I        2333 29.68         5.8 0.40            154           49.2 337 
 RUS  HZ EP       2333 20.32                             132    0.0910  102 150 
 RUS  HN ES       2333 36.11                             132    0.1110  102 150 
 RUS  HZ I        2333 38.18         5.4 0.36            134            102 150 
 PTB  HZ EP   9 C 2333 18.78                             132   -0.84 0  103 260 
 PTB  HN ES       2333 33.36                             131   -0.7210  103 260 
 PTB  HZ I        2333 34.66        12.1 0.16            132            103 260 
 PAM  EZ EP       2333 21.19                             128   -0.3910  117  53 
 PAM  EN ES       2333 38.07                             128   -0.3410  117  53 
 PAM  EZ I        2333 39.56         8.8 0.12            131            117  53 
 SPBC HZ EP   3   2333 24.37                             125    2.08 2  130 207 
 SPBC HE ES       2333 39.71                             125    0.0410  130 207 
 SPBC HZ I        2333 45.97        13.3 0.08            125            130 207 
 ZAR  HZ EP       2333 26.96                             116    0.53 9  170 301 
 ZAR  HE ES   3   2333 48.98                             116    1.95 2  170 301 
 ZAR  HZ I        2333 50.55         6.7 0.22            118            170 301 
 NOR  HZ EP       2333 28.79                             113   -0.25 9  193 230 
 NOR  HN ES       2333 50.95                             113   -0.74 9  193 230 
 NOR  HZ I        2333 56.32         5.0 0.14            114            193 230 
                                                                                
