 2016 1116 2143 44.9 L   6.397 -73.498116.5  RSN 24 0.5 2.8LRSN                1
 GAP= 59        1.08       2.5     2.7  5.4 -0.7800E+00  0.4224E+01  0.2902E+01E
 Epicentro: CONTRATACION - SANTANDER                                           3
 ACTION:UPD 17-10-26 21:08 OP:lp   STATUS:               ID:20161116214344 L   I
 OLDACT:REG 16-11-17 04:29 OP:lv   STATUS:               ID:20161116213747     3
 2016-11-16-2138-00M.COL___346                                                 6
 STAT SP IPHASW D HRMM SECON CODA AMPLIT PERI AZIMU VELO AIN AR TRES W  DIS CAZ7
 BAR2 EZ IP     D 2144  1.74                             159    0.1310 41.1  58 
 BAR2 EZ ES       2144 14.13                             159   -0.5310 41.1  58 
 BRR  HZ EP       2144  3.63                             142   -0.1010 82.0 343 
 BRR  HE ES       2144 18.71                             142    0.2910 82.0 343 
 BRR  HZ I        2144 22.44       119.4 0.14            146           82.0 343 
 PTB  HZ EP   9   2144  4.54                             134   -1.25 0  107 279 
 PTB  HN ES       2144 20.20                                   -0.6510  107 279 
 PTB  HZ I        2144 23.90       129.9 0.22            136            107 279 
 PAM  EZ EP       2144  9.22                             126    0.06 9  137  40 
 PAM  EN ES       2144 28.50                             126    0.41 9  137  40 
 PAM  EZ I        2144 30.49        88.1 0.21            132            137  40 
 NOR  HZ IP     C 2144 11.88                             118   -0.91 9  178 239 
 NOR  HN ES   4   2144 32.93                             118   -1.62 0  178 239 
 NOR  HZ I        2144 37.92       100.9 0.24            121            178 239 
 TAM  HZ IP     D 2144 14.02                             117    0.03 9  189  89 
 TAM  HN ES       2144 36.19                             117   -0.50 9  189  89 
 TAM  HZ I        2144 37.55        38.6 0.19            121            189  89 
 ZAR  HZ EP       2144 14.33                             116   -0.07 9  193 309 
 ZAR  HN ES       2144 37.68                             116    0.27 9  193 309 
 ZAR  HZ I        2144 42.51       154.0 0.28            119            193 309 
 ROSC BZ EP   4   2144 16.51                             116    1.43 0  195 208 
 ROSC BN ES       2144 39.13                             116    0.50 9  195 208 
 CHI  HZ EP       2144 15.12                             116   -0.25 9  197 188 
 CHI  HN ES       2144 39.21                             116    0.07 9  197 188 
 CHI  HZ I        2144 45.85        40.9 0.26            118            197 188 
 URE  HZ EP   4   2144 21.79                             108   -1.32 0  270 304 
 URE  HN ES       2144 52.19                             108   -0.74 8  270 304 
 URE  HZ I        2145  0.23        46.6 0.19            111            270 304 
 ELA  HZ EP   9   2144 25.82                             108    2.00 0  271 231 
 ELA  HE ES       2144 55.41                                   -0.78 8  271 231 
 ELA  HZ I        2144 58.92        32.6 0.50            110            271 231 
 CBOC HZ EP       2144 25.50                             107    0.53 7  284 258 
 CBOC HE ES       2144 56.80                             107    0.56 7  284 258 
 CBOC HZ I        2145  0.62        35.3 0.39            109            284 258 
 PTGC HZ EP   9   2144 23.84                             106   -1.13 0  286 148 
 PTGC HN ES       2144 54.61                                   -0.50 7  286 148 
 PTGC HZ I        2144 57.66        45.0 0.33            109            286 148 
 ANIL HZ EP       2144 27.69                             106    0.95 7  298 225 
 ANIL HN ES   4   2145  0.42                             106    1.03 0  298 225 
 DBB  HZ EP       2144 27.33                             105   -0.24 7  308 283 
 DBB  HN ES       2145  0.15                             105   -0.71 7  308 283 
 PRA  HZ EP       2144 30.27                             103   -0.40 7  334 207 
 PRA  HN ES       2145  7.11                             103    0.74 7  334 207 
 PRA  HZ I        2145  8.04        41.7 0.32            106            334 207 
 ORTC HZ EP       2144 30.63                             103   -0.30 7  336 215 
 ORTC HN ES       2145  6.80                             103   -0.05 7  336 215 
 ORTC HZ I        2145 15.72        25.4 0.47            106            336 215 
 LL1C HZ EP   4   2144 33.57                             103    1.35 0  348 359 
 LL1C HN ES   4   2145 13.81                             103    4.68 0  348 359 
 PAL  HZ EP       2144 33.18                             102    0.63 6  350 242 
 PAL  HN ES   4   2145  8.50                             102   -1.23 0  350 242 
 PAL  HZ I        2145 11.22        28.5 0.22            105            350 242 
 LL6C HZ EP   4   2144 15.40                             101   -19.5 0  370   4 
 LL6C HN ES   4   2144 57.44                             101   -16.4 0  370   4 
 LL6C HZ I        2145  0.19        16.5 0.30            104            370   4 
 ARGC HZ EP       2144 38.43                             100    0.98 6  392 348 
 ARGC HN ES       2145 18.90                             100    0.46 6  392 348 
 ARGC HZ I        2145 23.54        15.6 0.32            103            392 348 
 YOT  HZ EP       2144 39.28                             100   -0.92 6  413 230 
 YOT  HN ES   4   2145 27.21                             100    3.86 0  413 230 
 SJC  HZ EP   4   2144 40.92                              99   -1.11 0  429 335 
 SJC  HN ES   4   2145 22.97                              99   -3.63 0  429 335 
 SJC  HZ I        2145 26.28         8.8 0.26            102            429 335 
 CRJC HZ EP       2144 52.24                              96   -0.29 4  516   8 
 CRJC HN ES       2145 44.60                              96   -0.70 4  516   8 
 CRJC HZ I        2145 49.39        19.3 0.18             99            516   8 
 URI  HZ EP   9   2145  1.64                              94   -2.15 0  610  16 
 URI  HN ES       2146  2.65                                   -0.54 3  610  16 
 URI  HZ I        2146  7.88         2.6 0.13             97            610  16 
                                                                                
