 2010  616 2319 48.6 L   6.789 -72.930129.1  RSN  7 0.2 1.3LRSN                1
 GAP=182        0.46       5.8    13.1  9.0 -0.3044E+02 -0.1204E+02 -0.2761E+02E
 Epicentro: CEPITA - SANTANDER                                                 3
 ACTION:UP  10-08-24 10:10 OP:vdl  STATUS:               ID:20100616231948 L   I
 2010-06-16-2316-36S.COL___114                                                 6
 STAT SP IPHASW D HRMM SECON CODA AMPLIT PERI AZIMU VELO SNR AR TRES W  DIS CAZ7
 BAR2 SZ EP   2   2320  6.29                             164    -0.3 5   36 232 
 BAR2 SZ ES   2   2320 20.66                             164     0.1 5   36 232 
 GIR2 SZ EP   2   2320  6.51                             161    -0.2 5   43 318 
 RUS  HZ EP   2   2320 10.69                             140    -0.1 5  101 190 
 RUS  HE ES   3   2320 28.51                             140     0.5 3  101 190 
 RUS  HZ I        2320 34.36         2.0 0.58                           101 190 
 BRI  SZ EP   2   2320 10.82                             139     0.3 5  104   8 
 GUE  SZ IP       2320 11.50                             136    -0.210  115   0 
 GRA  SZ IP       2320 12.30                             134     0.210  122   7 
 MON  HZ EP   2   2320 39.62                             104     0.3 3  372 306 
 MON  HZ I        2320 40.12         1.0 0.56                           372 306 
                                                                                
