 2010  816 2313 38.8 L   6.786 -73.069139.9  RSN 13 0.5 2.3LRSN                1
 GAP=167        1.04       4.6     8.4  7.3 -0.1397E+02 -0.1189E+01  0.2814E+01E
 Epicentro: LOS SANTOS - SANTANDER                                             3
 ACTION:UP  10-09-07 10:55 OP:vdl  STATUS:               ID:20100816231338 L   I
 2010-08-16-2311-12S.COL___111                                                 6
 STAT SP IPHASW D HRMM SECON CODA AMPLIT PERI AZIMU VELO SNR AR TRES W  DIS CAZ7
 BAR2 SZ EP       2313 57.62                             169    -0.210   25 210 
 BAR2 SZ ES   2   2314 12.56                             169     0.0 5   25 210 
 BAR2 SZ I        2314 14.69        48.5 0.34                            25 210 
 BTL  SZ IP       2313 57.74                             169    -0.110   26 304 
 BTL  SZ ES   1   2314 11.91                             169    -0.7 7   26 304 
 GIR2 SZ EP       2313 58.70                             165     0.810   35 337 
 GIR2 SZ ES   2   2314 13.00                             165     0.2 5   35 337 
 BRR  HZ IP     C 2313 59.49                             148    -0.310   79 297 
 BRR  HZ I        2313 59.79        85.3 0.21                            79 297 
 BRR  HE ES   1   2314 16.62                             148     0.4 7   79 297 
 RUS  HZ EP       2314  1.61                             143    -0.310   99 181 
 RUS  HN ES   1   2314 20.26                             143     0.4 7   99 181 
 RUS  HZ I        2314 21.97        17.3 0.40                            99 181 
 GUE  SZ EP       2314  3.55                             138     0.610  117   8 
 GRA  SZ IP       2314  3.42                             136    -0.110  125  14 
 GRA  SZ ES   1   2314 22.02                             136    -0.7 7  125  14 
 GRA  SZ I        2314 24.32        28.5 0.30                           125  14 
 OCA  SZ EP   2   2314  6.32                             128    -0.6 5  163 350 
 OCA  SZ I        2314 33.84        24.1 0.30                           163 350 
 CHI  HZ EP   2   2314 15.52                             116    -0.8 4  250 197 
 CHI  HN ES   2   2314 45.31                             116    -0.2 4  250 197 
 ROSC BN ES   3   2314 46.07                             115    -0.7 2  256 213 
 ROSC BZ I        2314 53.27        11.7 0.34                           256 213 
 HEL  HZ EP   2   2314 19.22                             113    -0.4 4  280 257 
 HEL  HZ I        2314 56.52         9.5 0.29                           280 257 
 GUY  SZ EP   3   2314 23.49                             111     0.6 2  307 236 
 GUY  SN ES   2   2314 57.63                             111     0.4 4  307 236 
 GUY  SZ I        2315  2.55        24.5 0.36                           307 236 
 RREF HZ EP   1   2314 25.89                             109     0.6 5  327 231 
 RREF HE ES   2   2315  1.11                             109    -0.5 3  327 231 
 RREF HZ I        2315  7.04         9.4 0.39                           327 231 
                                                                                
