 2017  816 2326 44.2 L   6.806 -73.122138.8  RSN 14 0.5 2.1LRSN                1
 GAP=114        1.19       3.6     3.9  6.0  0.4696E+00  0.7256E+01  0.6007E+01E
 Epicentro: LOS SANTOS - SANTANDER                                             3
 ACTION:UPD 17-09-04 20:21 OP:rebc STATUS:               ID:20170816232644 L   I
 OLDACT:REG 17-08-17 02:06 OP:dhb  STATUS:               ID:20170816231745     3
 2017-08-16-2318-00M.COL___413                                                 6
 STAT SP IPHASW D HRMM SECON CODA AMPLIT PERI AZIMU VELO AIN AR TRES W  DIS CAZ7
 BAR2 EZ IP     C 2327  2.78                             169   -0.2410 24.6 196 
 BAR2 EZ ES       2327 17.13                             169   -0.5710 24.6 196 
 BAR2 EZ I        2327 19.13        18.5 0.13            167           24.6 196 
 BRR  HZ IP     C 2327  4.63                             151   -0.0910 73.2 297 
 BRR  HE ES       2327 21.48                             151    0.7610 73.2 297 
 BRR  HZ I        2327 24.81        20.8 0.15            150           73.2 297 
 PAM  EZ IP     D 2327  5.77                             150    0.2310 75.2  38 
 PAM  EN ES       2327 22.36                             150    0.1710 75.2  38 
 PAM  EZ I        2327 24.64        15.7 0.51            155           75.2  38 
 RUS  HZ EP       2327  6.76                             142   -0.5510  101 178 
 RUS  HE ES       2327 25.37                             142    0.0310  101 178 
 RUS  HZ I        2327 26.72        10.3 0.62            143            101 178 
 SPBC HZ EP       2327 11.84                             127   -0.54 9  165 220 
 SPBC HN ES       2327 34.00                             127   -0.37 9  165 220 
 SPBC HZ I        2327 36.92        26.0 0.07            127            165 220 
 YPLC HZ IP     C 2327 13.30                             125   -0.13 9  176 152 
 YPLC HN ES       2327 37.10                             125    0.86 9  176 152 
 YPLC HZ I        2327 39.76         8.2 0.28            127            176 152 
 ZAR  HZ EP       2327 15.49                             121   -0.94 8  206 292 
 ZAR  HE ES       2327 41.78                             121    0.22 8  206 292 
 ZAR  HZ I        2327 47.90        20.8 0.33            121            206 292 
 TABC EZ EP       2327 19.92                             118    0.17 8  232 211 
 TABC EZ ES   1   2327 46.71                             118   -0.78 6  232 211 
 TABC EZ I        2327 52.40        11.7 0.35            118            232 211 
 NOR  HZ IP     D 2327 19.51                             117   -0.30 8  237 235 
 NOR  HN ES       2327 46.81                             117   -0.77 8  237 235 
 NOR  HZ I        2327 49.27        10.3 0.28            117            237 235 
 CHI  HZ EP       2327 22.27                             116    0.60 8  250 196 
 CHI  HN ES       2327 51.42                             116    0.52 8  250 196 
 CHI  HZ I        2327 55.77         3.8 0.21            117            250 196 
 HEL  HZ EP       2327 24.51                             113    0.14 8  275 256 
 HEL  HN ES       2327 56.57                             113    0.87 8  275 256 
 HEL  HZ I        2328  1.32         9.2 0.53            114            275 256 
 GUY2CHZ EP       2327 28.22                             111    0.44 7  304 235 
 GUY2CHN ES       2328  2.35                             111    0.57 7  304 235 
 GUY2CHZ I        2328  8.33         5.2 0.31                           304 235 
 ELA  HZ EP   9   2327 34.16                             109    3.12 0  332 230 
 ELA  HN ES       2328 11.53                                    0.83 7  332 230 
 ELA  HZ I        2328 18.99         5.9 0.33            110            332 230 
 PRA  HZ EP       2327 37.89                             105    0.18 6  394 210 
 PRA  HE ES       2328 19.44                             105   -0.01 6  394 210 
 PRA  HZ I        2328 25.31         5.8 0.26            106            394 210 
                                                                                
