 2015 1016 2013  7.2 L   6.790 -73.117144.6  RSN 10 0.4 2.2LRSN                1
 GAP=141        0.92       3.0     3.9  5.4  0.2581E-01  0.7813E+01 -0.2752E+01E
 Epicentro: LOS SANTOS - SANTANDER                                             3
 OLDACT:REG 15-10-17 03:05 OP:mh   STATUS:               ID:20151016200748     3
 ACTION:UPD 15-12-22 20:40 OP:cam  STATUS:               ID:20151016201307 L   I
 OLDACT:UP  15-10-17 05:52 OP:mh   STATUS:               ID:20151016200748     3
 OLDACT:UP  15-10-17 04:02 OP:cara STATUS:               ID:20151016200748     3
 OLDACT:UP  15-10-17 04:01 OP:cara STATUS:               ID:20151016200748     3
 2015-10-16-2007-48M.COL___343                                                 6
 STAT SP IPHASW D HRMM SECON CODA AMPLIT PERI AZIMU VELO AIN AR TRES W  DIS CAZ7
 BAR2 EZ IP     C 2013 26.87                             170    0.1810 23.0 198 
 BAR2 EZ ES       2013 41.56                             170   -0.3210 23.0 198 
 BAR2 EZ I        2013 42.48        16.7 0.14            169           23.0 198 
 BRR  HZ EP       2013 28.83                             151    0.4110 74.5 298 
 BRR  HN ES       2013 45.08                             151    0.1210 74.5 298 
 BRR  HZ I        2013 48.91        28.8 0.36            149           74.5 298 
 PAM  EZ IP     C 2013 29.76                             151    0.5310 76.3  37 
 PAM  EZ I        2013 29.92        42.6 0.22            154           76.3  37 
 PAM  EN ES       2013 46.46                             151    0.0510 76.3  37 
 RUS  HZ EP       2013 30.67                             144   -0.0810 99.3 178 
 RUS  HE ES       2013 48.99                             144   -0.1310 99.3 178 
 RUS  HZ I        2013 50.10        14.9 0.30            146           99.3 178 
 OCA  HZ EP       2013 35.56                             129   -0.01 9  162 352 
 OCA  HE ES       2013 56.98                             129   -0.70 9  162 352 
 OCA  HZ I        2013 58.80        27.1 0.54            130            162 352 
 ZAR  HZ EP       2013 40.20                             122    0.28 8  207 292 
 ZAR  HE ES       2014  6.22                             122    0.79 8  207 292 
 ZAR  HZ I        2014 11.03        21.7 0.50            122            207 292 
 NOR  HZ EP   1   2013 43.04                             118   -0.04 6  237 235 
 NOR  HN ES       2014 10.75                             118   -0.31 8  237 235 
 NOR  HZ I        2014 15.80         7.8 0.22            118            237 235 
 SML  HZ EP       2013 43.49                             117   -0.53 8  246 335 
 SML  HE ES       2014 12.84                             117    0.11 8  246 335 
 SML  HZ I        2014 18.51        14.8 0.10            118            246 335 
 URE  HZ EP       2013 48.02                             113   -0.57 7  287 292 
 URE  HZ I        2013 50.55         9.5 0.10            113            287 292 
 URE  HE ES       2014 20.59                             113   -0.28 7  287 292 
 MON  HZ EP   4   2013 54.75                             108   -1.78 0  357 308 
 MON  HN ES   4   2014 32.97                             108   -2.03 0  357 308 
 MON  HZ I        2014 34.08         4.0 0.18            109            357 308 
                                                                                
