 2016  616 2007 17.3 L   6.721 -72.907171.6  RSN  5 0.3 1.4LRSN                1
 GAP=173        0.79       4.3     5.3  6.4 -0.5258E+01  0.6956E+01  0.3922E+00E
 Epicentro: CEPITA - SANTANDER                                                 3
 ACTION:UPD 16-07-21 22:19 OP:rebc STATUS:               ID:20160616200717 L   I
 OLDACT:UP  16-06-17 04:12 OP:edw  STATUS:               ID:20160616195748d    3
 OLDACT:UP  16-06-17 04:10 OP:edw  STATUS:               ID:20160616195748d    3
 OLDACT:DUP 16-06-17 03:39 OP:edw  STATUS:               ID:20160616195748d    3
 OLDACT:REG 16-06-17 02:33 OP:edw  STATUS:               ID:20160616195747     3
 2016-06-16-1957-47M.COL___346                                                 6
 STAT SP IPHASW D HRMM SECON CODA AMPLIT PERI AZIMU VELO AIN AR TRES W  DIS CAZ7
 BAR2 EZ EP       20 7 40.27                             169    0.0110 33.6 245 
 BAR2 EZ ES       20 7 57.75                             169   -0.4110 33.6 245 
 BAR2 EZ I        20 7 58.76         8.0 0.14                          33.6 245 
 PAM  EZ EP       20 7 41.79                             156   -0.2710 72.1  19 
 PAM  EN ES       20 8  1.54                             156    0.1810 72.1  19 
 RUS  HZ EP       20 7 43.72                             150    0.4810 93.7 192 
 RUS  HE ES       20 8  3.69                             150    0.2210 93.7 192 
 RUS  HZ I        20 8  6.00         2.2 0.24                          93.7 192 
 SPBC HZ EP       20 7 48.52                             132   -0.43 9  175 228 
 SPBC HE ES       20 8 13.54                             132   -0.08 9  175 228 
 ZAR  HE ES       20 8 23.45                             124    0.29 8  232 292 
 URE  HZ EP   4   20 7 50.30                             116   -12.5 0  312 292 
 URE  HN ES   4   20 8  8.23                             116   -30.0 0  312 292 
                                                                                
