 2017  316 2107 12.9 L   6.795 -73.124148.7  RSN 12 0.4 2.0LRSN                1
 GAP=121        0.80       2.9     3.4  5.0  0.8323E-01  0.3441E+01  0.4665E+01E
 Epicentro: LOS SANTOS - SANTANDER                                             3
 ACTION:UPD 17-05-25 18:41 OP:jn   STATUS:               ID:20170316210712 L   I
 OLDACT:UP  17-03-17 03:12 OP:and  STATUS:               ID:20170316205747d    3
 OLDACT:UP  17-03-17 03:11 OP:and  STATUS:               ID:20170316205747d    3
 OLDACT:UP  17-03-17 03:11 OP:and  STATUS:               ID:20170316205747d    3
 OLDACT:UP  17-03-17 03:10 OP:and  STATUS:               ID:20170316205747d    3
 OLDACT:UP  17-03-17 03:10 OP:and  STATUS:               ID:20170316205747d    3
 OLDACT:UP  17-03-17 03:09 OP:and  STATUS:               ID:20170316205747d    3
 OLDACT:UP  17-03-17 03:09 OP:and  STATUS:               ID:20170316205747d    3
 OLDACT:DUP 17-03-17 03:06 OP:and  STATUS:               ID:20170316205747d    3
 2017-03-16-2058-00M.COL___403                                                 6
 STAT SP IPHASW D HRMM SECON CODA AMPLIT PERI AZIMU VELO AIN AR TRES W  DIS CAZ7
 BAR2 EZ EP       21 7 32.86                             171   -0.0110 23.3 196 
 BRR  HZ EP       21 7 34.55                             152    0.0710 73.5 298 
 BRR  HN ES       21 7 51.78                             152    0.4510 73.5 298 
 BRR  HZ I        21 7 55.65        18.7 0.28            151           73.5 298 
 PAM  EZ IP     D 21 7 35.56                             152    0.2010 76.4  38 
 PAM  EN ES       21 7 52.57                             152   -0.3110 76.4  38 
 PAM  EZ I        21 7 54.94        23.4 0.54            157           76.4  38 
 RUS  HZ EP       21 7 37.34                             145    0.4710 99.8 177 
 RUS  HN ES       21 7 55.44                             145   -0.1410 99.8 177 
 RUS  HZ I        21 7 56.62        14.0 0.36            146           99.8 177 
 PTB  HZ EP       21 7 39.69                             132   -0.60 9  150 259 
 PTB  HN ES   3   21 8  0.26                             132   -1.40 2  150 259 
 PTB  HZ I        21 8  4.11         7.9 0.18            132            150 259 
 ZAR  HZ EP       21 7 45.86                             123    0.09 8  206 292 
 ZAR  HN ES       21 8 11.11                             123   -0.31 8  206 292 
 ZAR  HZ I        21 8 16.83        11.0 0.22            124            206 292 
 NOR  HZ EP       21 7 49.29                             119    0.34 8  236 235 
 NOR  HN ES       21 8 16.85                             119   -0.24 8  236 235 
 NOR  HZ I        21 8 22.35         6.4 0.18            120            236 235 
 CHI  HZ EP       21 7 51.03                             118    0.28 8  249 196 
 CHI  HN ES       21 8 20.28                             118   -0.01 8  249 196 
 CHI  HZ I        21 8 23.79         4.2 0.38            119            249 196 
 ROSC BZ EP   9   21 7 53.37                             117    2.13 0  253 212 
 ROSC BN ES       21 8 23.53                             116    0.24 8  253 212 
 ROSC BZ I        21 8 27.59         9.2 0.35            118            253 212 
 GUY2CHZ EP   4   21 7 58.70                             113    1.89 0  303 235 
 GUY2CHN ES   4   21 8 33.95                             113    2.88 0  303 235 
 GUY2CHZ  IAML    21 8 43.15         4.7 0.46                           303 235 
 PTGC HZ EP       21 7 55.97                             112   -0.75 7  307 159 
 PTGC HN ES   3   21 8 29.85                             112   -1.05 2  307 159 
 PRA  HZ EP       21 8  6.59                             107    0.01 6  393 210 
 PRA  HN ES       21 8 49.02                             107    0.55 6  393 210 
 PRA  HZ I        21 8 55.00         3.8 0.36            108            393 210 
                                                                                
