 2012  416 2213 51.5 L   6.744 -73.161149.3  RSN  6 0.4 1.7LRSN                1
 GAP=231        0.85       7.4     7.0  8.2  0.2521E+02  0.1082E+02 -0.3410E+01E
 Epicentro: VILLANUEVA - SANTANDER                                             3
 ACTION:UPD 12-07-05 11:53 OP:tino STATUS:               ID:20120416221351 L   I
 2012-04-16-2210-00M.COL___190                                                 6
 STAT SP IPHASW D HRMM SECON CODA AMPLIT PERI AZIMU VELO AIN AR TRES W  DIS CAZ7
 BAR2 SZ EP   1   2214 11.37                             173    -0.1 7   17 188 
 BAR2 SZ ES   1   2214 26.26                             173    -0.8 7   17 188 
 BAR2 SZ I        2214 28.09        13.0 0.32                            17 188 
 BRR  HZ EP   1   2214 13.15                             153     0.0 7   73 303 
 BRR  HE ES   1   2214 30.66                             153     0.7 7   73 303 
 RUS  HZ EP   1   2214 15.37                             146     0.2 7   95 175 
 RUS  HN ES   1   2214 34.05                             146     0.4 7   95 175 
 RUS  HZ I        2214 34.84         3.8 0.35                            95 175 
 PTB  HZ EP   1   2214 18.18                             133    -0.3 7  145 261 
 PTB  HE ES   1   2214 39.63                             133     0.0 7  145 261 
 PTB  HZ I        2214 45.22         9.5 0.31                           145 261 
 ZAR  HZ EP   1   2214 24.49                             123     0.2 6  205 294 
 ZAR  HN ES   1   2214 49.56                             123    -0.3 6  205 294 
 ZAR  HZ I        2214 55.05         5.0 0.48                           205 294 
 NOR  SN ES   2   2214 54.44                             120    -0.1 4  230 235 
                                                                                
