 2017  116 2212  7.2 L   7.408 -73.120142.9  RSN  5 0.2 1.7LRSN                1
 GAP=186        0.45       6.4     2.7  4.6 -0.4305E+01  0.4084E+01 -0.6504E+01E
 Epicentro: EL PLAYON - SANTANDER                                              3
 ACTION:UPD 17-05-22 16:00 OP:jn   STATUS:               ID:20170116221207 L   I
 OLDACT:UP  17-01-17 04:28 OP:and  STATUS:               ID:20170116220748     3
 OLDACT:UP  17-01-17 04:27 OP:and  STATUS:               ID:20170116220748     3
 OLDACT:REG 17-01-17 04:25 OP:and  STATUS:               ID:20170116220748     3
 2017-01-16-2208-00M.COL___335                                                 6
 STAT SP IPHASW D HRMM SECON CODA AMPLIT PERI AZIMU VELO AIN AR TRES W  DIS CAZ7
 PAM  EZ IP     D 2212 27.80                             161    0.2610 47.1  99 
 PAM  EN ES       2212 43.24                             161   -0.1910 47.1  99 
 PAM  EZ I        2212 44.60         8.4 0.30            164           47.1  99 
 BRR  HZ EP       2212 27.90                             151   -0.2210 73.3 243 
 BRR  HN ES       2212 44.56                             151    0.0910 73.3 243 
 BAR2 EZ EP   2   2212 29.76                             146    0.21 5 90.4 184 
 BAR2 EZ ES   2   2212 47.12                             146    0.10 5 90.4 184 
 BAR2 EZ I        2212 47.73        10.3 0.27            145           90.4 184 
 PTB  HZ EP   2   2212 36.18                             126   -0.42 4  176 237 
 PTB  HN ES   2   2212 59.53                             126   -0.03 4  176 237 
 PTB  HZ I        2213  3.96         5.6 0.17            125            176 237 
 ZAR  HZ EP   2   2212 38.26                             123    0.07 4  192 273 
 ZAR  HE ES   1   2213  2.51                             123    0.13 7  192 273 
 ZAR  HZ I        2213  5.19         6.0 0.10            123            192 273 
                                                                                
