 2017  316 2030 20.8 L   6.802 -73.125144.9  RSN 20 0.5 2.6LRSN                1
 GAP=121        0.92       2.9     3.1  4.3 -0.2361E+00  0.3296E+01  0.3013E+01E
 Epicentro: LOS SANTOS - SANTANDER                                             3
 ACTION:UPD 17-05-25 18:41 OP:jn   STATUS:               ID:20170316203020 L   I
 OLDACT:UP  17-03-17 02:56 OP:and  STATUS:               ID:20170316202124     3
 OLDACT:UP  17-03-17 02:54 OP:and  STATUS:               ID:20170316202124     3
 OLDACT:UP  17-03-17 02:54 OP:and  STATUS:               ID:20170316202124     3
 OLDACT:UP  17-03-17 02:53 OP:and  STATUS:               ID:20170316202124     3
 OLDACT:UP  17-03-17 02:53 OP:and  STATUS:               ID:20170316202124     3
 OLDACT:UP  17-03-17 02:51 OP:and  STATUS:               ID:20170316202124     3
 OLDACT:UP  17-03-17 02:49 OP:and  STATUS:               ID:20170316202124     3
 OLDACT:UP  17-03-17 02:49 OP:and  STATUS:               ID:20170316202124     3
 OLDACT:REG 17-03-17 02:30 OP:and  STATUS:               ID:20170316202124     3
 2017-03-16-2028-00M.COL___409                                                 6
 STAT SP IPHASW D HRMM SECON CODA AMPLIT PERI AZIMU VELO AIN AR TRES W  DIS CAZ7
 BAR2 EZ IP     D 2030 40.26                             170   -0.0610 24.1 195 
 BAR2 EZ ES       2030 55.04                             170   -0.5210 24.1 195 
 BAR2 EZ I        2030 56.92       155.4 0.28            167           24.1 195 
 BRR  HZ IP     C 2030 42.13                             152    0.1910 73.2 298 
 BRR  HN ES       2030 59.11                             152    0.6610 73.2 298 
 BRR  HZ I        2030 59.83        66.0 0.10            149           73.2 298 
 PAM  EZ IP     C 2030 43.06                             151    0.2610 75.7  38 
 PAM  EN ES       2031  0.16                             151    0.1810 75.7  38 
 PAM  EZ I        2031  2.51        96.2 0.52            155           75.7  38 
 RUS  HZ IP     D 2030 44.20                             144   -0.2510  101 177 
 RUS  HN ES       2031  2.95                             144    0.0410  101 177 
 RUS  HZ I        2031  3.95        30.9 0.24            144            101 177 
 PTB  HZ EP   9   2030 46.62                             131   -1.27 0  150 259 
 PTB  HN ES       2031  7.31                             132   -0.45 9  150 259 
 PTB  HZ I        2031 14.82        34.7 0.13            130            150 259 
 ZAR  HZ EP       2030 52.78                             122   -0.60 8  206 292 
 ZAR  HN ES       2031 18.37                             122   -0.44 8  206 292 
 ZAR  HZ I        2031 24.97        43.2 0.26            121            206 292 
 NOR  HZ IP     D 2030 56.44                             118   -0.24 8  237 235 
 NOR  HN ES       2031 24.81                             118    0.14 8  237 235 
 NOR  HZ I        2031 32.13        25.3 0.23            118            237 235 
 CHI  HZ EP       2030 58.45                             117   -0.07 8  249 196 
 CHI  HN ES       2031 27.68                             117   -0.28 8  249 196 
 CHI  HZ I        2031 31.31        30.4 0.58            117            249 196 
 ROSC BZ EP   9   2031  0.33                             116    1.33 0  254 211 
 ROSC BN ES       2031 30.10                             116   -0.04 8  254 211 
 ROSC BZ I        2031 34.15        60.8 0.50            116            254 211 
 HEL  HZ EP   2   2031  1.76                             114    0.56 4  274 256 
 HEL  HN ES       2031 32.60                             114   -0.13 8  274 256 
 HEL  HZ I        2031 38.41        16.6 0.28            114            274 256 
 GUY2CHZ EP       2031  5.33                             112    0.75 7  303 235 
 GUY2CHN ES   4   2031 41.66                             112    2.92 0  303 235 
 GUY2CHZ  IAML    2031 46.54        22.1 0.32                           303 235 
 VIL  EZ EP       2031  4.57                             112    0.34 7  304 192 
 VIL  EN ES       2031 38.19                             112    0.06 7  304 192 
 VIL  EZ I        2031 43.80        48.7 0.38            112            304 192 
 PTGC HZ EP       2031  3.80                             111   -0.72 7  308 159 
 ELA  HZ EP   3   2031  9.49                             110    1.68 2  331 230 
 ELA  HN ES       2031 45.28                             110    0.78 7  331 230 
 ELA  HZ I        2031 52.99        19.1 0.56            110            331 230 
 CBOC HZ EP       2031  8.44                             109    0.52 7  336 252 
 CBOC HE ES       2031 44.90                             109    0.21 7  336 252 
 CBOC HZ I        2031 49.94         5.5 0.37            109            336 252 
 DBB  EZ EP       2031  8.05                             109   -0.44 7  342 274 
 DBB  EN ES   2   2031 43.39                             109   -2.31 3  342 274 
 DBB  EZ I        2031 45.08         9.6 0.20            109            342 274 
 ANIL HZ EP   3   2031 11.97                             108    1.21 2  359 225 
 ARGC HN ES   4   2031 51.37                             108    2.14 0  360 340 
 PRA  HZ EP   9   2031 11.15                             106   -3.28 0  393 210 
 PRA  HN ES       2031 53.12                             106    0.13 6  393 210 
 PRA  HZ I        2031 59.78        24.5 0.33            106            393 210 
 SJC  HZ IP   4 C 2031 14.53                             105   -1.91 0  410 327 
 SJC  HN ES   4   2031 56.58                             105   -3.28 0  410 327 
 SJC  HZ I        2032  3.47         9.8 0.42            106            410 327 
 CRJC HZ EP   9   2031 20.74                             103   -2.47 0  467   3 
 CRJC HN ES       2032  9.31                             103   -0.13 5  467   3 
 CRJC HZ I        2032 15.66        15.1 0.32            104            467   3 
                                                                                
