 2010 1216 2305 46.5 L   6.790 -73.124147.7  RSN 14 0.4 2.4LRSN                1
 GAP=128        0.76       3.0     4.9  5.2 -0.5992E+01  0.3630E+01  0.2352E+01E
 Epicentro: LOS SANTOS - SANTANDER                                             3
 ACTION:UP  11-01-14 15:25 OP:pat  STATUS:               ID:20101216230546 L   I
 2010-12-16-2304-25S.COL___137                                                 6
 STAT SP IPHASW D HRMM SECON CODA AMPLIT PERI AZIMU VELO SNR AR TRES W  DIS CAZ7
 BTL  SZ EP       23 6  6.57                             171     0.310   21 312 
 BAR2 SZ EP   1   23 6  6.23                             171    -0.1 7   23 197 
 BAR2 SZ ES   1   23 6 21.32                             171    -0.5 7   23 197 
 BAR2 SZ I        23 6 23.13        76.6 0.18                            23 197 
 BRR  HZ EP   1   23 6  8.13                             152     0.2 7   74 298 
 BRR  HE ES   1   23 6 25.35                             152     0.6 7   74 298 
 BRR  HZ I        23 6 27.57        53.2 0.13                            74 298 
 RUS  HZ EP   1   23 6 10.19                             144    -0.1 7   99 177 
 RUS  HN ES   1   23 6 28.89                             144     0.0 7   99 177 
 RUS  HZ I        23 6 30.93        52.2 0.44                            99 177 
 GRA  SZ EP   1   23 6 12.22                             137     0.3 7  126  16 
 GRA  SZ ES   1   23 6 31.28                             137    -0.5 7  126  16 
 GRA  SZ I        23 6 33.14        37.6 0.25                           126  16 
 OCA  SZ EP   1   23 6 15.08                             130     0.0 7  162 352 
 OCA  SZ ES   1   23 6 37.09                             130    -0.3 7  162 352 
 OCA  SZ I        23 6 41.46        29.7 0.40                           162 352 
 NOR  SZ EP   1   23 6 22.21                             119    -0.2 6  236 235 
 NOR  SN ES   1   23 6 50.23                             119    -0.3 6  236 235 
 CHI  HZ EP   1   23 6 24.46                             117     0.2 6  248 196 
 CHI  HZ I        23 6 24.97        14.5 0.14                           248 196 
 CHI  HE ES   1   23 6 53.72                             117     0.1 6  248 196 
 ROSC BZ EP   1   23 6 25.40                             117     0.7 6  253 212 
 ROSC BZ I        23 7  1.82        24.9 0.47                           253 212 
 HEL  HZ EP   2   23 6 27.17                             115     0.2 4  274 256 
 HEL  HN ES   2   23 6 57.75                             115    -0.9 4  274 256 
 HEL  HZ I        23 7  3.85        12.7 0.65                           274 256 
 RREF HZ EP   1   23 6 32.99                             111     0.2 5  323 230 
 RREF HN ES   1   23 7  9.17                             111     0.2 5  323 230 
 RREF HZ I        23 7 18.57        24.9 0.48                           323 230 
 DBB  SZ EP   2   23 6 33.44                             109    -0.9 3  342 274 
 DBB  SZ I        23 7 12.46         3.5 0.40                           342 274 
 SDV  BZ EP   1   23 6 35.85                             109    -0.6 5  359  50 
 SDV  BZ I        23 7 15.30         5.9 0.28                           359  50 
 PRA  HZ EP   1   23 6 40.22                             107     0.2 4  392 210 
 PRA  HN ES   1   23 7 21.32                             107    -0.6 4  392 210 
                                                                                
