 2017 1216 2343 15.1 L   6.847 -73.161149.4  RSN 23 0.8 2.6LRSN                1
 GAP= 56        0.98       2.4     2.6  5.5 -0.6319E+00  0.3936E+01  0.6859E+00E
 Epicentro: LOS SANTOS - SANTANDER                                             3
 ACTION:UPD 18-01-04 13:21 OP:rebc STATUS:               ID:20171216234315 L   I
 OLDACT:UP  17-12-17 08:27 OP:mg   STATUS:               ID:20171216233743     3
 OLDACT:REG 17-12-17 06:24 OP:mg   STATUS:               ID:20171216233743     3
 2017-12-16-2338-00M.COL___464                                                 6
 STAT SP IPHASW D HRMM SECON CODA AMPLIT PERI AZIMU VELO AIN AR TRES W  DIS CAZ7
 BAR2 EZ EP       2343 35.20                             169   -0.1110 28.3 185 
 BAR2 EZ ES   2   2343 50.71                             169   -0.34 5 28.3 185 
 BAR2 EZ I        2343 52.97        70.3 0.25            168           28.3 185 
 PAM  EZ IP     D 2343 37.85                             152    0.2710 74.6  43 
 PAM  EN ES       2343 55.01                             152   -0.0810 74.6  43 
 PAM  EZ I        2343 56.56        57.7 0.26            155           74.6  43 
 PTB  HZ EP       2343 41.72                             133   -0.63 9  147 257 
 PTB  HN ES       2344  2.89                             133   -0.69 9  147 257 
 PTB  HZ I        2344  6.68        48.2 0.14            133            147 257 
 OCA  HZ EP       2343 43.40                             131    0.16 9  155 354 
 OCA  HN ES   1   2344  5.62                             131    0.47 7  155 354 
 OCA  HZ I        2344  9.17        78.7 0.14            133            155 354 
 TAM  HZ IP     D 2343 43.49                             131    0.10 9  158 107 
 TAM  HE ES       2344  5.20                             131   -0.22 9  158 107 
 TAM  HZ I        2344  5.74        19.7 0.30            133            158 107 
 SPBC HZ EP       2343 44.22                             129    0.02 9  166 217 
 SPBC HE ES       2344  6.85                             129   -0.02 9  166 217 
 SPBC HZ I        2344  9.88        69.7 0.10            130            166 217 
 YPLC HZ EP       2343 45.84                             126    0.12 9  182 152 
 YPLC HN ES       2344  9.74                             126    0.16 9  182 152 
 YPLC HZ I        2344 12.58        38.5 0.31            128            182 152 
 ZAR  HZ EP       2343 48.03                             124    0.57 9  201 291 
 ZAR  HN ES       2344 13.12                             124    0.44 9  201 291 
 ZAR  HZ I        2344 18.85        71.6 0.34            124            201 291 
 ROSC BZ EP   2   2343 55.26                             117    1.41 4  256 210 
 ROSC BN ES   3   2344 27.11                             117    3.07 2  256 210 
 ROSC BZ I        2344 30.65        28.8 0.40            118            256 210 
 URE  HZ EP   2   2343 54.91                             115   -1.08 4  280 291 
 URE  HN ES   3   2344 25.75                             115   -2.11 2  280 291 
 URE  HZ I        2344 29.84        33.7 0.16            115            280 291 
 DRL03HZ EP       2343 56.33                             114    0.01 7  284 353 
 DRL03HN ES       2344 29.08                             114    0.63 7  284 353 
 GUY2CHZ EP   1   2343 59.87                             113    0.77 5  303 234 
 GUY2CHN ES       2344 33.37                             113   -0.02 7  303 234 
 GUY2CHZ I        2344 41.58        22.6 0.66                           303 234 
 VIL  EZ EP   3   2344  1.24                             112    1.98 2  308 191 
 VIL  EN ES       2344 33.30                             112   -0.37 7  308 191 
 VIL  EZ I        2344 39.03        23.0 0.44            113            308 191 
 PTGC HZ EP   2   2343 58.52                             112   -1.26 3  314 159 
 PTGC HN ES   3   2344 31.72                             112   -2.87 2  314 159 
 PTGC HZ I        2344 34.43        17.3 0.30            113            314 159 
 LL6C HZ EP       2344  0.12                             111   -0.28 7  320 358 
 CBOC HZ EP   2   2344  3.74                             110    1.54 3  334 251 
 CBOC HN ES       2344 37.98                             110   -0.94 7  334 251 
 CBOC HZ I        2344 42.66         5.4 0.26            111            334 251 
 DBB  EZ EP       2344  2.76                             110    0.23 7  337 273 
 DBB  EN ES   2   2344 37.88                             110   -1.61 3  337 273 
 DBB  EZ I        2344 42.83        17.9 0.19            111            337 273 
 SDV  BZ EP   2 C 2344  3.85                             109   -1.24 3  358  51 
 SDV  B1 ES   3   2344 41.37                             109   -2.68 2  358  51 
 SDV  BZ I        2344 44.27         6.3 0.37            110            358  51 
 PRA  HZ EP       2344  9.09                             107   -0.12 6  396 209 
 PRA  HE ES       2344 51.74                             107    0.35 6  396 209 
 PRA  HZ I        2344 57.49        20.7 0.28            108            396 209 
 ORTC HZ EP       2344  9.59                             107    0.03 6  399 216 
 ORTC HN ES   2   2344 53.29                             107    1.29 3  399 216 
 ORTC HZ I        2344 59.57         8.8 0.20            107            399 216 
 SJC  HZ EP   2   2344  8.83                             106   -1.37 3  404 327 
 SJC  HN ES   4   2344 48.93                             106   -4.22 0  404 327 
 SJC  HZ I        2344 54.41         5.7 0.29            107            404 327 
 PAL  HZ EP       2344 10.97                             106    0.41 6  407 238 
 PAL  HN ES       2344 54.29                             106    0.50 6  407 238 
 PAL  HZ I        2344 58.21         6.2 0.22            107            407 238 
 CRJC HZ EP   2   2344 15.38                             104   -1.76 2  463   4 
 CRJC HN ES   4   2345  0.72                             104   -4.78 0  463   4 
 CRJC HZ I        2345 14.51         6.8 0.14            105            463   4 
                                                                                
