 2010  316 2156  5.4 L   6.801 -72.995148.7  RSN 13 0.5 3.0LRSN                1
 GAP=137        1.21       4.3     7.9  6.9 -0.4466E+01  0.9369E+01  0.3370E+01E
 Epicentro: CEPITA - SANTANDER                                                 3
 ACTION:UP  10-08-24 09:54 OP:vdl  STATUS:               ID:20100316215605 L   I
 2010-03-16-2152-38S.COL___098                                                 6
 STAT SP IPHASW D HRMM SECON CODA AMPLIT PERI AZIMU VELO SNR AR TRES W  DIS CAZ7
 BAR2 SZ EP       2156 25.66                             168     0.110   31 222 
 BAR2 SZ ES   1   2156 40.89                             168    -0.4 7   31 222 
 BRR  HZ IP       2156 27.59                             148    -0.210   86 293 
 BRR  HZ I        2156 27.91       359.9 0.17                            86 293 
 BRR  HN ES       2156 45.21                             148     0.010   86 293 
 RUS  HZ EP       2156 29.52                             144     0.110  101 186 
 RUS  HN ES       2156 47.94                             144    -0.310  101 186 
 RUS  HZ I        2156 49.61        74.9 0.54                           101 186 
 OCA  SZ EP       2156 34.18                             130     0.0 9  163 347 
 OCA  SZ ES   1   2156 57.05                             130     0.4 7  163 347 
 OCA  SZ I        2157  1.95       223.9 0.24                           163 347 
 CHI  HZ EP   1   2156 43.54                             117    -0.2 6  254 199 
 CHI  HN ES       2157 13.86                             117     0.1 8  254 199 
 CHI  HZ I        2157 18.98        25.9 0.51                           254 199 
 ROSC BZ EP       2156 45.75                             116     1.1 8  262 214 
 ROSC BZ I        2157 19.43        51.4 0.38                           262 214 
 HEL  HZ EP       2156 47.76                             114     0.2 7  288 257 
 HEL  HZ I        2157 24.74        39.8 0.58                           288 257 
 RREF BZ EP       2156 53.55                             110     0.4 7  335 231 
 RREF BN ES       2157 31.16                             110     0.8 7  335 231 
 RREF BZ I        2157 35.12        43.6 0.45                           335 231 
 SDV  BZ EP   1   2156 54.47                             109     0.4 5  348  48 
 SDV  BZ I        2158  8.39        15.7 0.08                           348  48 
 TOL  SZ EP   1   2156 54.24                             109    -0.9 5  355 227 
 DBB  SZ EP       2156 53.46                             109    -1.4 6  356 274 
 ANIL BZ EP   1   2156 55.89                             108    -0.8 5  369 226 
 ANIL BN ES   1   2157 37.00                             108     0.3 5  369 226 
 ANIL BZ I        2157 45.57        75.0 0.59                           369 226 
 PRA  HZ EP       2156 59.31                             106    -0.7 6  401 212 
 PRA  HN ES   2   2157 42.12                             106    -0.5 3  401 212 
 PRA  HZ I        2157 46.15        23.6 0.40                           401 212 
                                                                                
