 2010  716 2025 24.4 L   6.782 -73.079150.3  RSN  5 0.0 1.6LRSN                1
 GAP=172        0.26       2.5     4.4  3.3  0.4553E+01 -0.6370E+01 -0.1881E+01E
 Epicentro: LOS SANTOS - SANTANDER                                             3
 ACTION:UPD 10-12-01 15:18 OP:pat  STATUS:               ID:20100716202524 L   I
 2010-07-16-2022-26S.COL___120                                                 6
 STAT SP IPHASW D HRMM SECON CODA AMPLIT PERI AZIMU VELO AIN AR TRES W  DIS CAZ7
 BAR2 SZ EP       2025 44.61                             171     0.010   24 209 
 BAR2 SZ I        2025 44.86        15.2 0.18                            24 209 
 BAR2 SZ ES   2   2026  0.38                             171     0.0 5   24 209 
 GIR2 SZ EP   1   2025 44.77                             166     0.0 7   35 339 
 GIR2 SZ ES   2   2026  0.63                             166     0.0 5   35 339 
 BRR  HZ EP       2025 46.48                             151     0.010   79 297 
 BRR  HZ I        2025 46.91        12.6 0.12                            79 297 
 BRR  HN ES   1   2026  3.75                             151     0.0 7   79 297 
 RUS  HZ EP   1   2025 48.57                             145     0.1 7   98 180 
 RUS  HZ I        2025 49.35         3.3 0.15                            98 180 
 RUS  HE ES   2   2026  7.14                             145    -0.1 5   98 180 
 GUE  SZ EP   1   2025 49.62                             140     0.0 7  117   8 
 GUE  SZ I        2026  9.70         2.2 0.15                           117   8 
                                                                                
