 2016  416 2340 36.5 L   7.368 -73.208130.0  RSN  6 0.3 1.7LRSN                1
 GAP=179        0.45       4.3     3.4  7.8 -0.6889E+00  0.1458E+02  0.7656E+00E
 Epicentro: EL PLAYON - SANTANDER                                              3
 ACTION:UPD 16-05-05 14:22 OP:rebc STATUS:               ID:20160416234036 L   I
 OLDACT:REG 16-04-17 07:35 OP:dnl  STATUS:               ID:20160416233747     3
 2016-04-16-2337-47M.COL___307                                                 6
 STAT SP IPHASW D HRMM SECON CODA AMPLIT PERI AZIMU VELO AIN AR TRES W  DIS CAZ7
 PAM  EZ EP       2340 55.76                             156   -0.0210 56.2  93 
 PAM  EN ES   2   2341 10.85                             156   -0.01 5 56.2  93 
 PAM  EZ I        2341 13.71         4.8 0.12            165           56.2  93 
 RUS  HZ EP   2   2341  4.27                             125   -0.10 5  164 175 
 RUS  HN ES   2   2341 26.24                             125    0.09 5  164 175 
 RUS  HZ I        2341 27.12         2.1 0.20            131            164 175 
 PTB  HZ EP   2   2341  4.12                             125    0.19 5  166 236 
 PTB  HN ES   2   2341 25.16                             125   -0.21 5  166 236 
 PTB  HZ I        2341 28.95         9.6 0.10            129            166 236 
 ZAR  HZ EP       2341  5.51                             122   -0.15 9  183 274 
 ZAR  HN ES   2   2341 28.97                             122    0.52 4  183 274 
 ZAR  HZ I        2341 33.36         7.4 0.10            126            183 274 
 SPBC HZ EP   2   2341  9.61                             118    0.68 4  212 207 
 SPBC HN ES   4   2341 35.95                             118    1.69 0  212 207 
 SPBC HZ I        2341 38.89        10.4 0.24            123            212 207 
 GUY2CHE EP   4   2341 25.23                             107    1.77 0  336 225 
 GUY2CHZ ES   2   2341 59.51                             107   -0.62 3  336 225 
 GUY2CHE I        2342 11.00         3.6 0.40                           336 225 
                                                                                
