 2015  916 2046 17.2 L   6.774 -73.180146.0  RSN  8 0.4 1.9LRSN                1
 GAP=133        0.94       3.4     4.0  5.6  0.2334E+00  0.5173E+01  0.3014E+01E
 Epicentro: LOS SANTOS - SANTANDER                                             3
 ACTION:UPD 15-10-28 16:26 OP:cam  STATUS:               ID:20150916204617 L   I
 OLDACT:DUP 15-09-17 06:38 OP:stll STATUS:               ID:20150916203751d    3
 2015-09-16-2037-50M.COL___346                                                 6
 STAT SP IPHASW D HRMM SECON CODA AMPLIT PERI AZIMU VELO AIN AR TRES W  DIS CAZ7
 BAR2 EZ ES       2046 52.25                             172    0.1410 20.1 181 
 BAR2 EZ I        2046 53.08        28.9 0.46            172           20.1 181 
 BRR  HZ EP       2046 38.80                             153    0.5010 69.3 302 
 BRR  HN ES       2046 55.48                             153    0.7510 69.3 302 
 PAM  EZ EP       2046 39.62                             149   -0.1310 82.0  40 
 PAM  EN ES       2046 56.82                             149   -0.4910 82.0  40 
 PAM  EZ I        2046 59.18        12.0 0.62            151           82.0  40 
 RUS  HZ EP       2046 40.68                             145   -0.1410 98.1 174 
 RUS  HN ES       2046 59.23                             145    0.0010 98.1 174 
 RUS  HZ I        2047  0.57        10.9 0.28            145           98.1 174 
 PTB  HZ EP       2046 43.61                             133   -0.22 9  143 260 
 PTB  HN ES       2047  4.09                             133   -0.48 9  143 260 
 PTB  HZ I        2047  6.73         9.1 0.16            132            143 260 
 SPBC HZ EP       2046 45.71                             130    0.40 9  159 219 
 SPBC HN ES       2047  6.84                             130   -0.37 9  159 219 
 SPBC HZ I        2047  9.90        18.3 0.22            130            159 219 
 ZAR  HZ EP       2046 49.25                             123   -0.19 9  202 293 
 ZAR  HE ES       2047 14.36                             123   -0.20 9  202 293 
 ZAR  HZ I        2047 19.92         5.3 0.36            123            202 293 
 CHI  HZ EP       2046 54.90                             118    0.37 8  245 194 
 CHI  HZ I        2046 57.49         4.1 0.22            118            245 194 
 CHI  HN ES       2047 23.64                             118    0.01 8  245 194 
                                                                                
