 2013 1216 2140 22.1 L   6.727 -73.200145.8  RSN  4 0.5 1.7LRSN                1
 GAP=225        1.15       6.7     9.2 10.2  0.2846E+02  0.1716E+01  0.1660E+02E
 Epicentro: VILLANUEVA - SANTANDER                                             3
 ACTION:UPD 14-01-13 10:18 OP:ep   STATUS:               ID:20131216214022 L   I
 OLDACT:REG 13-12-16 21:39 OP:carl STATUS:               ID:20131216214000     3
 2013-12-16-2140-00M.COL___285                                                 6
 STAT SP IPHASW D HRMM SECON CODA AMPLIT PERI AZIMU VELO AIN AR TRES W  DIS CAZ7
 BRR  HZ EP       2140 43.12                             153   -0.1310 70.5 307 
 BRR  HN ES       2141  0.44                             153    0.7210 70.5 307 
 RUS  HZ EP       2140 45.31                             146   -0.0610 93.1 172 
 RUS  HN ES       2141  2.96                             146   -0.5310 93.1 172 
 RUS  HZ I        2141  5.44         5.2 0.40            139           93.1 172 
 PTB  HZ EP       2140 48.03                             133   -0.43 9  140 262 
 PTB  HN ES       2141  8.60                             133   -0.38 9  140 262 
 PTB  HZ I        2141 16.50        11.8 0.44            127            140 262 
 CHI  HZ EP       2140 59.37                             118    0.54 8  239 194 
 CHI  HN ES       2141 28.03                             118    0.59 8  239 194 
 CHI  HZ I        2141 38.29         3.2 0.70            115            239 194 
                                                                                
