 2017 1116 2329  6.8 L   6.793 -73.123145.2  RSN 18 0.4 2.3LRSN                1
 GAP= 67        0.96       2.5     2.7  5.8 -0.1115E+01  0.2645E+01 -0.1009E+01E
 Epicentro: LOS SANTOS - SANTANDER                                             3
 ACTION:UPD 17-12-12 19:56 OP:rebc STATUS:               ID:20171116232906 L   I
 OLDACT:UP  17-11-17 06:17 OP:dnl  STATUS:               ID:20171116232742     3
 OLDACT:UP  17-11-17 06:17 OP:dnl  STATUS:               ID:20171116232742     3
 OLDACT:UP  17-11-17 06:16 OP:dnl  STATUS:               ID:20171116232742     3
 OLDACT:REG 17-11-17 03:40 OP:dnl  STATUS:               ID:20171116232742     3
 2017-11-16-2328-00M.COL___471                                                 6
 STAT SP IPHASW D HRMM SECON CODA AMPLIT PERI AZIMU VELO AIN AR TRES W  DIS CAZ7
 BAR2 EZ EP       2329 26.30                             171   -0.0610 23.1 197 
 BAR2 EZ I        2329 42.45        49.8 0.24            170           23.1 197 
 PAM  EZ IP     D 2329 29.17                             151    0.2710 76.4  38 
 PAM  EN ES       2329 45.98                             151   -0.1510 76.4  38 
 PAM  EZ I        2329 48.19        38.3 0.48            150           76.4  38 
 RUS  HZ EP       2329 30.30                             144   -0.1310 99.6 177 
 RUS  HN ES       2329 48.45                             144   -0.4110 99.6 177 
 RUS  HZ I        2329 50.41        13.5 0.44            143           99.6 177 
 PTB  HZ EP       2329 33.27                             131   -0.66 9  150 259 
 PTB  HE ES       2329 55.51                             131    0.41 9  150 259 
 PTB  HZ I        2329 56.32        14.4 0.20            131            150 259 
 TAM  HZ IP     C 2329 34.69                             131    0.50 9  152 105 
 TAM  HZ I        2329 49.11        31.9 0.40            130            152 105 
 TAM  HE ES       2329 56.00                             131    0.45 9  152 105 
 SPBC HN ES       2329 57.13                             129   -0.49 9  164 220 
 SPBC HZ I        2330  4.74        22.7 0.16            128            164 220 
 YPLC HZ EP       2329 36.75                             127    0.38 9  175 152 
 YPLC HE ES   4   2329 54.78                             127   -4.65 0  175 152 
 YPLC HZ I        2330  3.21        29.1 0.30            126            175 152 
 ZAR  HZ EP       2329 39.37                             122   -0.11 8  207 292 
 ZAR  HN ES       2330  5.28                             122    0.31 8  207 292 
 ZAR  HZ I        2330 13.27        19.0 0.20            122            207 292 
 TABC EZ EP   4   2329 45.19                             119    2.61 0  231 211 
 TABC EZ ES   4   2330 12.48                             119    1.99 0  231 211 
 TABC EZ I        2330 15.50        14.1 0.48            119            231 211 
 NOR  HZ EP       2329 42.79                             118    0.12 8  236 235 
 NOR  HE ES       2330 10.55                             118   -0.10 8  236 235 
 NOR  HZ I        2330 12.10         7.9 0.16            118            236 235 
 CHI  HZ EP   4   2329 45.79                             117    1.33 0  249 196 
 CHI  HN ES       2330 13.65                             117   -0.18 8  249 196 
 CHI  HZ I        2330 17.00         6.0 0.32            117            249 196 
 ROSC BZ EP   9   2329 47.65                             116    2.69 0  253 212 
 ROSC BN ES       2330 18.09                             116    0.68 8  253 212 
 ROSC BZ I        2330 23.13        13.8 0.30            116            253 212 
 DRL03HZ EP       2329 48.05                             113   -0.46 7  290 352 
 DRL03HN ES       2330 21.40                             113    0.36 7  290 352 
 GUY2CHZ EP   4   2329 52.39                             112    1.82 0  303 235 
 GUY2CHN ES       2330 25.48                             112    0.78 7  303 235 
 GUY2CHZ I        2330 31.61         6.9 0.26                           303 235 
 PTGC HZ EP       2329 49.62                             112   -0.82 7  307 159 
 PTGC HN ES   4   2330 22.77                             112   -1.71 0  307 159 
 PTGC HZ I        2330 24.06        11.4 0.30            111            307 159 
 LL6C HZ EP   4   2329 51.27                             110   -1.31 0  326 357 
 LL6C HN ES       2330 27.82                             110   -0.47 7  326 357 
 LL6C HZ I        2330 36.56        11.8 0.66            110            326 357 
 PRA  HZ EP       2330  0.83                             106    0.46 6  393 210 
 PRA  HN ES       2330 42.32                             106    0.17 6  393 210 
 PRA  HZ I        2330 48.08         7.0 0.44            106            393 210 
 SJC  HZ EP   4   2330  0.69                             105   -1.90 0  411 327 
 SJC  HN ES   4   2330 41.67                             105   -4.43 0  411 327 
 SJC  HZ I        2330 46.02         7.8 0.52            105            411 327 
                                                                                
