 2014  216 2109  9.5 L   6.801 -73.146146.9  RSN 18 0.4 2.5LRSN                1
 GAP=136        0.99       2.5     4.0  4.9 -0.2439E+01  0.5037E+01  0.9496E+00E
 Epicentro: LOS SANTOS - SANTANDER                                             3
 ACTION:UPD 14-03-10 08:10 OP:ep   STATUS:               ID:20140216210909 L   I
 OLDACT:REG 14-02-17 04:13 OP:nd   STATUS:               ID:20140216210848     3
 2014-02-16-2108-48M.COL___221                                                 6
 STAT SP IPHASW D HRMM SECON CODA AMPLIT PERI AZIMU VELO AIN AR TRES W  DIS CAZ7
 BAR2 SZ EP       21 9 29.40                             170    0.1010 23.4 190 
 BAR2 SZ ES       21 9 44.59                             170   -0.1310 23.4 190 
 BAR2 SZ I        21 9 48.38        78.7 0.38            169           23.4 190 
 BRR  HZ EP       21 9 31.32                             153    0.5210 71.1 298 
 BRR  HN ES       21 9 47.94                             153    0.5610 71.1 298 
 BRR  HZ I        21 9 50.91        34.0 0.26            150           71.1 298 
 PAM  SZ EP       21 9 32.15                             151    0.2810 77.3  40 
 PAM  SN ES       21 9 49.24                             151   -0.0410 77.3  40 
 PAM  SZ I        21 9 51.59        45.3 0.48            154           77.3  40 
 RUS  HZ EP     C 21 9 33.23                             144   -0.1810  101 176 
 RUS  HN ES       21 9 51.89                             144   -0.1310  101 176 
 RUS  HZ I        21 9 52.99        25.4 0.40            145            101 176 
 PTB  HZ EP       21 9 35.94                             132   -0.66 9  148 259 
 PTB  HN ES       21 9 56.92                             132   -0.78 9  148 259 
 PTB  HZ I        21 9 59.47        42.9 0.10            131            148 259 
 OCA  HZ EP       21 9 37.47                             130   -0.45 9  160 353 
 OCA  HN ES       21 9 59.57                             130   -0.49 9  160 353 
 OCA  HZ I        2110  5.84        40.4 0.28            130            160 353 
 SPBC HZ EP       21 9 38.30                             129    0.17 9  163 219 
 SPBC HN ES       2110  0.82                             129    0.39 9  163 219 
 SPBC HZ I        2110  5.45        53.8 0.34            129            163 219 
 NOR  HZ EP       21 9 44.97                             119   -0.37 8  235 234 
 NOR  HN ES       2110 13.54                             119    0.28 8  235 234 
 NOR  HZ I        2110 20.55        21.3 0.18            118            235 234 
 SML  HZ EP       21 9 46.10                             118   -0.11 8  244 335 
 SML  HN ES       2110 15.52                             118    0.70 8  244 335 
 SML  HZ I        2110 19.22        57.6 0.11            118            244 335 
 CHI  HZ EP       21 9 47.42                             117    0.11 8  249 195 
 CHI  HN ES       2110 16.58                             117   -0.19 8  249 195 
 CHI  HZ I        2110 20.82        13.0 0.46            118            249 195 
 ROSC BZ EP   4   21 9 49.45                             117    1.72 0  253 211 
 ROSC BN ES   4   2110 19.78                             117    2.26 0  253 211 
 ROSC BZ I        2110 25.77        28.9 0.45            117            253 211 
 HEL  HZ EP       21 9 50.56                             115    0.75 8  272 256 
 HEL  HN ES       2110 20.75                             115   -0.46 8  272 256 
 HEL  HZ I        2110 28.27        14.9 0.38            115            272 256 
 URE  HZ EP   4   21 9 50.92                             114    0.27 0  284 292 
 URE  HN ES   4   2110 19.92                             114   -2.80 0  284 292 
 GUY2CHZ EP   4   21 9 53.57                             112    0.37 0  301 235 
 GUY2CHN ES   4   2110 31.60                             112    4.34 0  301 235 
 GUY2CHZ I        2110 35.91        19.7 0.28                           301 235 
 COD  HZ EP   4   21 9 56.99                             109   -0.95 0  348 355 
 COD  HN ES   4   2110 35.75                             109    0.05 0  348 355 
 COD  HZ I        2110 40.28         5.6 0.30            110            348 355 
 SDV  BZ EP   4   21 9 58.54                             108   -1.08 0  360  50 
 SDV  BN ES   4   2110 34.51                             108   -4.17 0  360  50 
 SDV  BZ I        2110 39.38         3.5 0.50            110            360  50 
 PRA  HZ EP       2110  2.80                             107   -0.31 6  392 210 
 PRA  HN ES       2110 45.67                             107    0.78 6  392 210 
 PRA  HZ I        2110 51.17        16.2 0.34            107            392 210 
 ORTC HZ EP   1   2110  3.57                             106    0.06 4  396 216 
 ORTC HN ES   2   2110 45.63                             106    0.03 3  396 216 
 ORTC HZ I        2110 54.03         8.8 0.26            107            396 216 
 SJC  HZ EP   4   2110  3.62                             106   -1.50 0  409 327 
 SJC  HN ES   4   2110 44.33                             106   -4.15 0  409 327 
 SJC  HZ I        2110 55.11         5.3 0.78            106            409 327 
                                                                                
