 2014  916 2316 16.6 L   6.831 -73.164140.3  RSN 14 0.4 2.4LRSN                1
 GAP=133        1.04       3.3     3.9  5.3 -0.1586E+01  0.7147E+01  0.1022E+01E
 Epicentro: LOS SANTOS - SANTANDER                                             3
 ACTION:UPD 14-10-03 23:05 OP:nd   STATUS:               ID:20140916231616 L   I
 OLDACT:UP  14-09-17 06:51 OP:mh   STATUS:               ID:20140916230820     3
 OLDACT:UP  14-09-17 06:50 OP:mh   STATUS:               ID:20140916230820     3
 OLDACT:REG 14-09-17 03:43 OP:mh   STATUS:               ID:20140916230820     3
 2014-09-16-2308-20M.COL___283                                                 6
 STAT SP IPHASW D HRMM SECON CODA AMPLIT PERI AZIMU VELO AIN AR TRES W  DIS CAZ7
 BAR2 SZ EP     C 2316 35.74                             169    0.0810 26.5 184 
 BAR2 SZ ES       2316 49.67                             169   -0.8410 26.5 184 
 BAR2 SZ I        2316 54.54        43.4 0.22            167           26.5 184 
 BRR  HZ EP       2316 37.24                             153    0.2610 67.8 297 
 BRR  HN ES       2316 53.71                             153    0.8510 67.8 297 
 BRR  HZ I        2316 57.42        34.9 0.38            151           67.8 297 
 PAM  SZ EP     C 2316 38.56                             150    0.3910 76.1  42 
 PAM  SN ES       2316 55.23                             150    0.2510 76.1  42 
 PAM  SZ I        2316 57.47        59.7 0.50            157           76.1  42 
 RUS  HZ EP       2316 39.86                             142   -0.2410  104 175 
 RUS  HN ES       2316 58.41                             142   -0.0110  104 175 
 RUS  HZ I        2317  0.44        15.1 0.20            144            104 175 
 PTB  HZ EP       2316 42.49                             131   -0.54 9  147 257 
 PTB  HN ES       2317  3.18                             131   -0.44 9  147 257 
 PTB  HZ I        2317  8.85        34.0 0.14            131            147 257 
 SPBC HZ EP       2316 44.83                             127   -0.01 9  165 218 
 SPBC HN ES       2317  7.08                             127    0.22 9  165 218 
 SPBC HZ I        2317 12.21        38.9 0.22            129            165 218 
 ZAR  HZ EP       2316 48.02                             122   -0.36 9  201 291 
 ZAR  HN ES       2317 13.05                             122   -0.11 9  201 291 
 ZAR  HZ I        2317 20.00        38.2 0.28            123            201 291 
 NOR  HZ EP       2316 51.77                             117   -0.31 8  235 233 
 NOR  HN ES       2317 19.82                             117    0.08 8  235 233 
 NOR  HZ I        2317 26.01        21.1 0.16            119            235 233 
 SML  HZ EP       2316 51.92                             117   -0.58 8  240 335 
 SML  HN ES   1   2317 19.98                             117   -0.52 6  240 335 
 SML  HZ I        2317 23.27        22.0 0.24            120            240 335 
 HEL  HZ EP       2316 56.87                             114    0.44 8  271 255 
 HEL  HN ES       2317 27.79                             114    0.30 8  271 255 
 HEL  HZ I        2317 35.48        18.7 0.32            115            271 255 
 URE  HZ EP   4   2316 55.07                             113   -2.00 0  281 291 
 URE  HN ES   4   2317 24.13                             113   -4.49 0  281 291 
 GUY2CHZ EP       2317  0.66                             111    0.64 7  302 234 
 GUY2CHN ES   4   2317 35.66                             111    1.79 0  302 234 
 GUY2CHZ I        2317 43.70        13.6 0.50                           302 234 
 TOL  SZ EP       2317  5.65                             108    0.87 7  345 224 
 TOL  SN ES   4   2317 43.80                             108    1.45 0  345 224 
 TOL  SZ I        2317 50.36        25.7 0.38            110            345 224 
 PRA  HZ EP   1   2317  9.91                             105   -0.28 4  394 209 
 PRA  HN ES       2317 51.75                             105   -0.23 6  394 209 
 PRA  HZ I        2317 56.35         9.3 0.24            108            394 209 
 SJC  HZ EP   4   2317  8.75                             105   -2.78 0  405 327 
 SJC  HN ES   4   2317 50.12                             105   -4.24 0  405 327 
 SJC  HZ I        2317 54.45         4.4 0.50            107            405 327 
                                                                                
