 2014  216 2311 43.2 L   6.829 -73.200133.4  RSN  8 0.5 1.9LRSN                1
 GAP=128        1.18       3.8     5.5  9.2 -0.6082E+01  0.2080E+02 -0.3746E+01E
 Epicentro: ZAPATOCA - SANTANDER                                               3
 ACTION:UPD 14-03-10 08:10 OP:ep   STATUS:               ID:20140216231143 L   I
 OLDACT:REG 14-02-17 00:59 OP:nd   STATUS:               ID:20140216231000     3
 2014-02-16-2310-00M.COL___212                                                 6
 STAT SP IPHASW D HRMM SECON CODA AMPLIT PERI AZIMU VELO AIN AR TRES W  DIS CAZ7
 PAM  SZ EP       2312  4.63                             148    0.3710 79.0  44 
 PAM  SN ES       2312 20.90                             148    0.2510 79.0  44 
 PAM  SZ I        2312 23.45        11.3 0.60            155           79.0  44 
 RUS  HZ EP       2312  5.63                             140   -0.4710  104 173 
 RUS  HN ES       2312 24.01                             140    0.0910  104 173 
 RUS  HZ I        2312 25.60        11.4 0.34            145            104 173 
 PTB  HZ EP       2312  8.39                             130   -0.35 9  143 257 
 PTB  HN ES       2312 29.19                             130    0.56 9  143 257 
 PTB  HZ I        2312 34.50         7.8 0.44            132            143 257 
 SPBC HZ EP       2312 10.62                             126   -0.09 9  162 217 
 SPBC HN ES       2312 31.37                             126   -0.77 9  162 217 
 SPBC HZ I        2312 39.85        11.7 0.26            130            162 217 
 NOR  HZ EP       2312 18.05                             116    0.09 8  232 233 
 NOR  HN ES       2312 45.31                             116    0.27 8  232 233 
 NOR  HZ I        2312 50.78         7.9 0.20            119            232 233 
 SML  HZ EP       2312 18.83                             115    0.23 8  238 336 
 SML  HN ES       2312 45.25                             115   -0.93 8  238 336 
 SML  HZ I        2312 50.47        13.0 0.10            119            238 336 
 CHI  HZ EP   2   2312 20.12                             114   -0.35 4  250 194 
 CHI  HN ES       2312 49.36                             114   -0.15 8  250 194 
 CHI  HZ I        2312 52.79         4.2 0.38            119            250 194 
 GUY2CHZ EP       2312 27.24                             110    1.27 7  298 234 
 GUY2CHN ES   4   2313  2.52                             110    3.23 0  298 234 
 GUY2CHZ I        2313  9.79         7.5 0.50                           298 234 
                                                                                
