 2014  616 2027 51.2 L   6.774 -73.183148.1  RSN  5 0.3 1.6LRSN                1
 GAP=240        0.54       5.1     4.6  6.7  0.1435E+02  0.1334E+01 -0.4263E+01E
 Epicentro: LOS SANTOS - SANTANDER                                             3
 ACTION:UPD 14-07-01 22:54 OP:nd   STATUS:               ID:20140616202751 L   I
 OLDACT:REG 14-06-17 02:48 OP:fm   STATUS:               ID:20140616201815     3
 2014-06-16-2018-15M.COL___262                                                 6
 STAT SP IPHASW D HRMM SECON CODA AMPLIT PERI AZIMU VELO AIN AR TRES W  DIS CAZ7
 RUS  HZ EP       2028 15.26                             145    0.2610 98.1 174 
 RUS  HN ES   1   2028 33.24                             145   -0.32 7 98.1 174 
 RUS  HZ I        2028 34.90         2.9 0.28             47           98.1 174 
 PTB  HZ EP   1   2028 17.92                             133   -0.02 7  143 260 
 PTB  HN ES   1   2028 39.08                             133    0.28 7  143 260 
 PTB  HZ I        2028 41.59         7.3 0.14             47            143 260 
 ZAR  HZ EP   1   2028 23.00                             123   -0.51 6  201 293 
 ZAR  HN ES       2028 48.75                             123    0.03 9  201 293 
 ZAR  HZ I        2028 57.90         3.6 0.28             37            201 293 
 NOR  HZ EP   1   2028 26.61                             119    0.09 6  230 234 
 NOR  HZ I        2028 58.38         3.9 0.20             37            230 234 
 GUY2CHZ EP   1   2028 34.46                             113    0.12 5  296 235 
 GUY2CHE ES   1   2029  7.70                             113   -0.30 5  296 235 
                                                                                
