 2013  816 2212  6.2 L   6.809 -73.152144.0  RSN  9 0.4 1.8LRSN                1
 GAP=135        0.95       3.8     4.3  7.0 -0.1368E+01  0.5735E+01  0.4454E+01E
 Epicentro: LOS SANTOS - SANTANDER                                             3
 ACTION:UPD 14-01-14 09:03 OP:ep   STATUS:               ID:20130816221206 L   I
 OLDACT:REG 13-08-17 03:25 OP:carl STATUS:               ID:20130816220959     3
 2013-08-16-2209-59M.COL___269                                                 6
 STAT SP IPHASW D HRMM SECON CODA AMPLIT PERI AZIMU VELO AIN AR TRES W  DIS CAZ7
 BAR2 SZ EP   1   2212 25.44                             170   -0.21 7 24.2 188 
 BAR2 SZ ES   1   2212 40.21                             170   -0.61 7 24.2 188 
 BAR2 SZ I        2212 43.23        14.7 0.24            170           24.2 188 
 BRR  HZ EP   1   2212 27.45                             153    0.34 7 70.1 298 
 BRR  HN ES   1   2212 44.29                             153    0.87 7 70.1 298 
 BRR  HN I        2212 45.06        24.1 0.34            151           70.1 298 
 PAM  SZ EP       2212 28.37                             151    0.1410 77.1  40 
 PAM  SN ES   1   2212 45.54                             151    0.14 7 77.1  40 
 PAM  SZ I        2212 48.21         4.8 0.16            153           77.1  40 
 RUS  HZ EP       2212 29.50                             143   -0.3710  102 176 
 RUS  HN ES   1   2212 48.44                             143    0.12 7  102 176 
 RUS  HZ I        2212 49.42         6.5 0.30            145            102 176 
 PTB  HZ EP   1   2212 32.69                             132   -0.30 7  147 258 
 PTB  HN ES   1   2212 53.21                             132   -0.67 7  147 258 
 PTB  HZ I        2212 55.57        10.3 0.54            132            147 258 
 SPBC HZ EP   1   2212 34.62                             129    0.01 7  163 219 
 SPBC HN ES       2212 56.22                             129   -0.53 9  163 219 
 SPBC HZ I        2212 59.44        12.5 0.18            129            163 219 
 ZAR  HZ EP   1   2212 38.15                             122   -0.29 6  203 292 
 ZAR  HN ES       2213  3.65                             122    0.07 9  203 292 
 ZAR  HZ I        2213 12.84         6.0 0.46            122            203 292 
 NOR  HZ EP   1   2212 41.59                             118   -0.25 6  235 234 
 NOR  HE ES       2213 10.11                             118    0.48 8  235 234 
 NOR  HZ I        2213 14.25         7.2 0.30            119            235 234 
 CHI  HZ EP   1   2212 44.01                             117    0.11 6  249 195 
 CHI  HE ES       2213 14.22                             117    0.93 8  249 195 
 CHI  HZ I        2213 18.55         3.4 0.26            118            249 195 
                                                                                
