 2011 1116 2130 11.1 L   6.763 -73.093144.6  RSN  4 0.2 1.8LRSN                1
 GAP=145        0.41       3.9     6.1  5.1 -0.5860E+01  0.5516E+01 -0.5183E+01E
 Epicentro: LOS SANTOS - SANTANDER                                             3
 ACTION:UPD 12-07-13 16:10 OP:ep   STATUS:               ID:20111116213011 L   I
 2011-11-16-2120-00M.COL___175                                                 6
 STAT SP IPHASW D HRMM SECON CODA AMPLIT PERI AZIMU VELO AIN AR TRES W  DIS CAZ7
 BAR2 SZ EP   1   2130 30.19                             171   -0.37 7 21.3 208 
 BAR2 SZ ES   1   2130 45.85                             171    0.12 7 21.3 208 
 BAR2 SZ I        2130 47.39        12.0 0.32                          21.3 208 
 PAM  SZ EP       2130 33.27                             151    0.0810 77.2  34 
 PAM  SE ES   2   2130 50.28                             151   -0.13 5 77.2  34 
 BRR  HZ EP       2130 32.58                             150    0.0410 78.2 299 
 BRR  HZ I        2130 51.00        11.7 0.45                          78.2 299 
 RUS  HZ EP   1   2130 34.54                             145    0.11 7 96.3 179 
 RUS  HE ES   2   2130 52.61                             145   -0.02 5 96.3 179 
                                                                                
