 2017 1016 2221 13.8 L   6.785 -73.139145.8  RSN 14 0.4 2.3LRSN                1
 GAP=113        1.01       3.5     3.5  5.8  0.1169E+01  0.4400E+01  0.4921E+01E
 Epicentro: LOS SANTOS - SANTANDER                                             3
 ACTION:UPD 17-11-07 19:32 OP:rebc STATUS:               ID:20171016222113 L   I
 OLDACT:UP  17-10-17 07:10 OP:dnl  STATUS:               ID:20171016221740     3
 OLDACT:UP  17-10-17 07:09 OP:dnl  STATUS:               ID:20171016221740     3
 OLDACT:REG 17-10-17 05:36 OP:dnl  STATUS:               ID:20171016221740     3
 2017-10-16-2218-00M.COL___422                                                 6
 STAT SP IPHASW D HRMM SECON CODA AMPLIT PERI AZIMU VELO AIN AR TRES W  DIS CAZ7
 BAR2 EZ IP     C 2221 33.28                             171   -0.1310 21.8 193 
 BAR2 EZ ES       2221 48.22                             171   -0.4810 21.8 193 
 BAR2 EZ I        2221 49.17        42.5 0.38            168           21.8 193 
 BRR  HZ IP     C 2221 35.21                             152    0.1710 72.6 299 
 BRR  HE ES       2221 52.30                             152    0.7010 72.6 299 
 BRR  HZ I        2221 56.13        26.0 0.14            150           72.6 299 
 PAM  EZ IP     C 2221 36.09                             151    0.0210 78.2  38 
 PAM  EN ES       2221 53.23                             151   -0.2110 78.2  38 
 PAM  EZ I        2221 55.29        43.5 0.58            154           78.2  38 
 RUS  HZ EP       2221 37.24                             144   -0.1910 98.9 176 
 RUS  HN ES       2221 56.08                             144    0.2110 98.9 176 
 RUS  HZ I        2221 56.66        22.1 0.24            144           98.9 176 
 PTB  HZ EP       2221 40.19                             132   -0.62 9  148 260 
 PTB  HN ES       2222  1.12                             132   -0.75 9  148 260 
 PTB  HZ I        2222  3.93        19.8 0.26            131            148 260 
 YPLC HZ IP     C 2221 43.53                             127    0.11 9  175 151 
 YPLC HE ES       2222  7.07                             127    0.54 9  175 151 
 YPLC HZ I        2222  8.22        21.9 0.22            128            175 151 
 ZAR  HZ EP   2   2221 46.79                             122    0.41 4  205 292 
 ZAR  HE ES       2222 12.13                             122    0.33 8  205 292 
 ZAR  HZ I        2222 18.50        18.3 0.34            122            205 292 
 NOR  HZ EP       2221 49.58                             119    0.09 8  234 235 
 NOR  HE ES       2222 18.19                             119    0.86 8  234 235 
 NOR  HZ I        2222 20.35        15.7 0.20            118            234 235 
 CHI  HZ EP   2   2221 50.83                             117   -0.52 4  247 195 
 CHI  HE ES       2222 20.18                             117   -0.46 8  247 195 
 CHI  HZ I        2222 24.49         6.9 0.30            117            247 195 
 ROSC BZ EP   9   2221 53.14                             117    1.33 0  252 211 
 ROSC BE ES       2222 23.57                             117    0.79 8  252 211 
 ROSC BZ I        2222 31.11        17.7 0.40            117            252 211 
 GUY2CHZ EP   4   2221 58.69                             112    1.32 0  301 235 
 GUY2CHE ES   2   2222 31.22                             112   -0.13 4  301 235 
 GUY2CHZ I        2222 38.34         9.5 0.28                           301 235 
 PRA  HZ EP   2   2222  7.37                             107    0.17 3  391 210 
 PRA  HE ES   4   2222 47.79                             107   -1.05 0  391 210 
 PRA  HZ I        2222 56.56         6.7 0.44            107            391 210 
 PAL  HZ EP   2   2222  9.30                             106    0.36 3  405 239 
 PAL  HE ES       2222 51.88                             106   -0.06 6  405 239 
 PAL  HZ I        2222 55.32         6.0 0.24            106            405 239 
 SJC  HZ EP   4   2222  7.99                             106   -1.58 0  411 327 
 SJC  HN ES   4   2222 48.77                             106   -4.31 0  411 327 
 SJC  HZ I        2222 53.43         4.4 0.46            106            411 327 
                                                                                
