 2010 1216 2021 28.0 L   6.795 -73.104144.0  RSN  6 0.3 1.8LRSN                1
 GAP=241        0.57       3.8     5.5  5.3  0.4389E+01  0.6286E+01  0.5629E+01E
 Epicentro: LOS SANTOS - SANTANDER                                             3
 ACTION:UP  11-01-14 15:25 OP:pat  STATUS:               ID:20101216202128 L   I
 2010-12-16-2021-05S.COL___137                                                 6
 STAT SP IPHASW D HRMM SECON CODA AMPLIT PERI AZIMU VELO SNR AR TRES W  DIS CAZ7
 BAR2 SZ EP   1   2021 47.39                             170     0.0 7   24 201 
 BAR2 SZ ES   1   2022  2.43                             170    -0.1 7   24 201 
 BAR2 SZ I        2022  3.68        19.5 0.24                            24 201 
 BRR  HZ IP     D 2021 49.23                             151     0.010   76 297 
 BRR  HZ I        2021 54.52        15.3 0.35                            76 297 
 BRR  HE ES   1   2022  6.01                             151     0.3 7   76 297 
 RUS  HZ IP     C 2021 51.43                             144    -0.110  100 179 
 RUS  HE ES   1   2022  9.74                             144    -0.1 7  100 179 
 RUS  HZ I        2022 11.44         6.1 0.23                           100 179 
 NOR  SZ EP   1   2022  4.09                             118     0.1 6  238 235 
 NOR  SE ES   1   2022 31.59                             118    -0.5 6  238 235 
 CHI  HZ EP   2   2022  5.80                             117     0.1 4  249 196 
 CHI  HE ES   1   2022 35.69                             117     0.6 6  249 196 
 CHI  HZ I        2022 39.27         2.9 0.83                           249 196 
 PRA  HZ EP   2   2022 21.20                             106    -0.5 3  394 210 
                                                                                
