 2016 1216 2305 13.1 L   6.801 -73.133135.0  RSN  8 0.4 1.9LRSN                1
 GAP=138        0.93       3.8     3.7  5.7 -0.1466E+01  0.7593E+01  0.2238E+01E
 Epicentro: LOS SANTOS - SANTANDER                                             3
 ACTION:UPD 17-01-11 20:15 OP:rebc STATUS:               ID:20161216230513 L   I
 OLDACT:UP  16-12-17 06:29 OP:dnl  STATUS:               ID:20161216225746     3
 OLDACT:REG 16-12-17 05:43 OP:dnl  STATUS:               ID:20161216225746     3
 2016-12-16-2258-00M.COL___387                                                 6
 STAT SP IPHASW D HRMM SECON CODA AMPLIT PERI AZIMU VELO AIN AR TRES W  DIS CAZ7
 BAR2 EZ EP       23 5 31.20                             170   -0.2110 23.7 193 
 BAR2 EZ ES       23 5 45.22                             170   -0.5010 23.7 193 
 BAR2 EZ I        23 5 48.11        17.9 0.18            170           23.7 193 
 BRR  HZ IP     C 23 5 32.84                             150   -0.2910 72.4 298 
 BRR  HZ EP       23 5 32.87                             150   -0.2610 72.4 298 
 BRR  HN ES       23 5 49.50                             150    0.7210 72.4 298 
 BRR  HZ I        23 5 54.67        17.1 0.24            149           72.4 298 
 PAM  EZ EP       23 5 33.90                             149   -0.1810 76.4  39 
 PAM  EN ES       23 5 50.91                             149    0.4310 76.4  39 
 PAM  EZ I        23 5 52.58        12.4 0.18            152           76.4  39 
 RUS  HZ EP       23 5 35.75                             141   -0.0310  101 177 
 RUS  HN ES       23 5 53.67                             141    0.1810  101 177 
 RUS  HZ I        23 5 55.39         7.4 0.30            146            101 177 
 PTB  HZ EP   4   23 5 37.78                             129   -1.53 0  149 259 
 PTB  HE ES       23 5 59.40                             129   -0.38 9  149 259 
 PTB  HZ I        23 6  1.72        10.7 0.22            131            149 259 
 ZAR  HZ EP       23 5 45.15                             120    0.19 8  205 292 
 ZAR  HE ES       23 6  9.52                             120   -0.33 8  205 292 
 ZAR  HZ I        23 6 18.47        10.9 0.14            121            205 292 
 NOR  HZ EP       23 5 48.67                             116    0.34 8  236 235 
 NOR  HN ES       23 6 15.69                             116   -0.14 8  236 235 
 NOR  HZ I        23 6 18.50         5.6 0.18            119            236 235 
 GUY2CHZ EP       23 5 56.43                             110    0.09 7  302 235 
 GUY2CHN ES       23 6 30.85                             110    0.76 7  302 235 
 GUY2CHZ I        23 6 39.77         5.2 0.74                           302 235 
                                                                                
