 2010  516 2254 40.9 L   6.749 -73.046153.6  RSN  6 0.2 1.6LRSN                1
 GAP=168        0.47       4.4     8.1  8.3  0.1787E+02 -0.3805E+02 -0.1941E+02E
 Epicentro: ARATOCA - SANTANDER                                                3
 *GUE-BRI-GRA                                                                  3
 ACTION:UP  10-08-24 10:05 OP:vdl  STATUS:               ID:20100516225440 L   I
 2010-05-16-2252-31S.COL___108                                                 6
 STAT SP IPHASW D HRMM SECON CODA AMPLIT PERI AZIMU VELO AIN AR TRES W  DIS CAZ7
 BAR2 SZ EP   2   2255  0.84                             171    -0.6 5   23 221 
 BRR  HZ EP       2255  3.69                             149     0.110   84 298 
 BRR  HZ I        2255  4.00        16.4 0.14                            84 298 
 BRR  HN ES   1   2255 21.32                             149     0.0 7   84 298 
 RUS  HZ EP   1   2255  5.17                             147     0.2 7   95 182 
 RUS  HN ES   1   2255 23.78                             147     0.0 7   95 182 
 RUS  HZ I        2255 27.15         2.7 0.39                            95 182 
 BRI  SZ EP   2   2255  5.71                             143     0.1 5  110  14 
 GUE  SZ EP   1   2255  6.45                             140    -0.1 7  120   6 
 HEL  HZ EP   3   2255 22.06                             115    -0.5 2  282 257 
 HEL  HZ I        2256  5.36         2.7 0.26                           282 257 
                                                                                
