 2016  516 2353 49.3 L   6.831 -73.092153.7  RSN 23 0.5 2.3LRSN                1
 GAP= 69        0.91       2.7     2.9  5.2 -0.6380E+00  0.4224E+01  0.5261E+01E
 Epicentro: LOS SANTOS - SANTANDER                                             3
 ACTION:UPD 16-08-18 17:46 OP:cam  STATUS:               ID:20160516235349 L   I
 OLDACT:UP  16-05-17 08:57 OP:dani STATUS:               ID:20160516234750     3
 OLDACT:UP  16-05-17 08:44 OP:dani STATUS:               ID:20160516234750     3
 OLDACT:UP  16-05-17 08:29 OP:dani STATUS:               ID:20160516234750     3
 OLDACT:REG 16-05-17 04:18 OP:dani STATUS:               ID:20160516234750     3
 2016-05-16-2347-50M.COL___301                                                 6
 STAT SP IPHASW D HRMM SECON CODA AMPLIT PERI AZIMU VELO AIN AR TRES W  DIS CAZ7
 BAR2 EZ EP     D 2354  9.71                             169   -0.2810 28.3 201 
 BAR2 EZ I        2354 25.98        39.6 0.22            168           28.3 201 
 PAM  EZ EP       2354 12.67                             154    0.6610 71.0  38 
 PAM  EE ES       2354 29.81                             154    0.0810 71.0  38 
 PAM  EZ I        2354 31.78        26.3 0.56            158           71.0  38 
 BRR  HZ IP     D 2354 11.63                             153    0.1110 74.9 294 
 BRR  HN ES       2354 28.85                             153   -0.0010 74.9 294 
 BRR  HZ I        2354 32.38        30.2 0.12            152           74.9 294 
 RUS  HZ EP       2354 14.07                             144    0.0010  104 179 
 RUS  HN ES   2   2354 32.44                             144   -0.95 5  104 179 
 RUS  HZ I        2354 32.86        19.9 0.40            146            104 179 
 TAM  HZ EP   2   2354 17.69                             133    0.49 5  150 107 
 TAM  HN ES       2354 39.43                             133    0.47 9  150 107 
 TAM  HZ I        2354 41.11        17.6 0.36            136            150 107 
 PTB  HZ EP   4   2354 16.02                             132   -1.48 0  154 258 
 PTB  HN ES   4   2354 36.76                             132   -2.74 0  154 258 
 PTB  HZ I        2354 39.97        20.4 0.16            133            154 258 
 OCA  HZ EP   1   2354 18.13                             132    0.13 7  158 351 
 OCA  HN ES       2354 39.90                             132   -0.49 9  158 351 
 OCA  HZ I        2354 44.55        52.0 0.30            134            158 351 
 SPBC HZ EP       2354 18.76                             130   -0.26 9  170 220 
 SPBC HN ES   4   2354 40.82                             130   -1.38 0  170 220 
 SPBC HZ I        2354 45.52        29.2 0.32            130            170 220 
 ZAR  HZ EP   2   2354 22.61                             123   -0.09 4  208 291 
 ZAR  HE ES       2354 49.02                             123    0.27 8  208 291 
 ZAR  HZ I        2354 54.79        29.0 0.30            125            208 291 
 NOR  HZ EP       2354 26.29                             119    0.07 8  241 235 
 NOR  HN ES       2354 54.64                             119   -0.38 8  241 235 
 NOR  HZ I        2355  0.45        16.8 0.18            120            241 235 
 CHI  HZ EP       2354 27.91                             118   -0.07 8  254 196 
 CHI  HE ES       2354 57.28                             118   -0.87 8  254 196 
 CHI  HZ I        2355  2.92        10.8 0.32            120            254 196 
 ROSC BZ EP   2   2354 28.95                             118    0.44 4  259 212 
 ROSC BE ES   4   2355  0.41                             118    1.31 0  259 212 
 ROSC BZ I        2355  5.96        14.7 0.40            119            259 212 
 HEL  HZ EP       2354 31.05                             116    0.40 7  279 255 
 HEL  HN ES       2355  2.96                             116    0.06 7  279 255 
 HEL  HZ I        2355  9.21         7.8 0.52            117            279 255 
 URE  HZ EP   4   2354 28.16                             115   -3.07 0  288 291 
 URE  HE ES   4   2355  2.34                             115   -1.60 0  288 291 
 URE  HZ I        2355  8.81        16.4 0.16            116            288 291 
 PTGC HZ EP       2354 32.75                             113   -0.90 7  310 160 
 PTGC HN ES   4   2355  6.36                             113   -1.89 0  310 160 
 PTGC HZ I        2355  8.34        14.2 0.38            115            310 160 
 LL6C HZ EP       2354 34.50                             112   -0.49 7  322 357 
 CBOC HZ EP       2354 37.75                             111    0.44 7  340 252 
 CBOC HN ES   2   2355 15.67                             111    0.91 3  340 252 
 CBOC HZ I        2355 16.91         2.6 0.24            112            340 252 
 DBB  SZ EP   2   2354 36.95                             110   -0.80 3  345 274 
 DBB  SZ ES   4   2355 14.13                             110   -1.41 0  345 274 
 ANIL HZ EP   2   2354 41.06                             109    0.88 3  364 225 
 ANIL HE ES       2355 20.64                             109    0.77 6  364 225 
 ANIL HZ I        2355 26.47        17.9 0.26            111            364 225 
 PRA  HZ EP       2354 43.34                             107   -0.45 6  398 210 
 PRA  HE ES       2355 27.09                             107    0.79 6  398 210 
 PRA  HZ I        2355 32.23         9.5 0.42            109            398 210 
 ORTC HZ EP       2354 44.49                             107    0.26 6  402 217 
 ORTC HE ES       2355 27.70                             107    0.62 6  402 217 
 ORTC HZ I        2355 34.13         5.6 0.52            108            402 217 
 SJC  HZ EP     D 2354 44.36                             107   -0.81 6  410 326 
 SJC  HN ES   4   2355 26.69                             107   -2.06 0  410 326 
 PAL  HZ EP       2354 45.83                             107    0.30 6  413 239 
 PAL  HN ES       2355 28.85                             107   -0.54 6  413 239 
 PAL  HZ I        2355 32.71         4.8 0.18            108            413 239 
                                                                                
