 2014  316 2014 25.4 L   6.697 -73.162141.8  RSN  5 0.4 1.6LRSN                1
 GAP=139        1.13       5.9     5.7  8.3 -0.2884E+01  0.6083E+01  0.9487E+00E
 Epicentro: VILLANUEVA - SANTANDER                                             3
 ACTION:UPD 14-04-09 23:17 OP:nd   STATUS:               ID:20140316201425 L   I
 OLDACT:REG 14-03-17 00:04 OP:stll STATUS:               ID:20140316200809     3
 2014-03-16-2008-09M.COL___256                                                 6
 STAT SP IPHASW D HRMM SECON CODA AMPLIT PERI AZIMU VELO AIN AR TRES W  DIS CAZ7
 BAR2 SZ EP       2014 44.48                             175    0.1310 11.8 191 
 BAR2 SZ ES       2014 58.99                             175   -0.1610 11.8 191 
 BAR2 SZ I        2015  0.54        16.1 0.30            172           11.8 191 
 BRR  HZ EP       2014 46.65                             150    0.2810 75.8 307 
 BRR  HN ES       2015  3.60                             150    0.8510 75.8 307 
 BRR  HZ I        2015  4.52         6.9 0.18            148           75.8 307 
 PAM  SZ EP       2014 47.89                             147    0.0710 87.5  36 
 PAM  SZ I        2014 47.94         8.4 0.26            150           87.5  36 
 PAM  SN ES       2015  4.71                             147   -0.6110 87.5  36 
 RUS  HZ EP       2014 48.23                             146    0.2810 89.4 174 
 RUS  HZ I        2014 49.39         3.5 0.44            146           89.4 174 
 RUS  HN ES       2015  5.60                             146    0.0510 89.4 174 
 PTB  HZ EP       2014 51.33                             132   -0.37 9  144 263 
 PTB  HN ES       2015 11.58                             132   -0.65 9  144 263 
 PTB  HZ I        2015 18.26         3.8 0.20            130            144 263 
                                                                                
