 2014  216 2137 45.8 L   7.288 -73.316115.4  RSN 11 0.5 1.9LRSN                1
 GAP= 90        1.17       2.9     5.1  8.5 -0.1480E+00  0.2185E+02  0.3295E+01E
 Epicentro: RIONEGRO - SANTANDER                                               3
 ACTION:UPD 14-03-10 08:10 OP:ep   STATUS:               ID:20140216213745 L   I
 OLDACT:REG 14-02-17 00:21 OP:nd   STATUS:               ID:20140216213000     3
 2014-02-16-2130-00M.COL___212                                                 6
 STAT SP IPHASW D HRMM SECON CODA AMPLIT PERI AZIMU VELO AIN AR TRES W  DIS CAZ7
 PAM  SZ EP       2138  4.54                             148    0.3110 68.3  85 
 PAM  SN ES       2138 18.99                             148    0.3610 68.3  85 
 PAM  SZ I        2138 21.02        12.5 0.22            157           68.3  85 
 BAR2 SZ EP       2138  4.60                             144    0.0410 78.3 169 
 BAR2 SZ ES       2138 18.62                             144   -0.6110 78.3 169 
 BAR2 SZ I        2138 20.26        70.0 0.44            150           78.3 169 
 OCA  HZ EP       2138  6.48                             135   -0.1210  105 360 
 OCA  HN ES       2138 22.76                             135   -0.0910  105 360 
 OCA  HZ I        2138 30.75        14.7 0.14            138            105 360 
 PTB  HZ EP       2138  9.93                             123   -0.82 9  151 237 
 PTB  HN ES       2138 30.61                             123    0.38 9  151 237 
 PTB  HZ I        2138 33.35        15.2 0.20            126            151 237 
 RUS  HZ EP       2138 11.41                             123   -0.54 9  156 171 
 RUS  HN ES       2138 32.58                             123    0.20 9  156 171 
 RUS  HZ I        2138 38.27         3.5 0.42            129            156 171 
 SML  HZ EP       2138 14.22                             117   -0.31 9  187 334 
 SML  HN ES       2138 37.26                             117    0.29 9  187 334 
 SML  HZ I        2138 47.11        20.2 0.10            120            187 334 
 NOR  HZ EP       2138 22.26                             109   -0.18 8  257 222 
 NOR  HN ES       2138 52.02                             109    0.97 8  257 222 
 NOR  HZ I        2138 56.03         7.4 0.26            113            257 222 
 HEL  HZ EP   2   2138 24.99                             108    0.26 4  273 244 
 HEL  HN ES   2   2138 54.15                             108   -0.98 4  273 244 
 HEL  HZ I        2139  3.89         4.8 0.50            111            273 244 
 CHI  HZ EP       2138 28.85                             106    1.21 7  298 189 
 CHI  HN ES       2138 59.90                             106   -0.41 7  298 189 
 CHI  HZ I        2139  3.65         2.7 0.38            110            298 189 
 GUY2CHZ EP   4   2138 32.19                             104    1.63 0  322 225 
 GUY2CHE ES   4   2139  7.81                             104    2.30 0  322 225 
 GUY2CHZ I        2139 17.36         4.1 0.64                           322 225 
 SJC  HZ EP   4   2138 33.02                             103   -0.87 0  354 325 
 SJC  HN ES   4   2139  8.37                             103   -3.05 0  354 325 
 SJC  HZ I        2139 12.83         2.9 0.62            106            354 325 
                                                                                
