 2015  916 2332 58.2 L   6.773 -73.153139.8  RSN  7 0.4 1.8LRSN                1
 GAP=137        1.04       4.2     4.4  6.6 -0.5956E+00  0.7751E+01  0.2990E+00E
 Epicentro: LOS SANTOS - SANTANDER                                             3
 ACTION:UPD 15-10-28 16:26 OP:cam  STATUS:               ID:20150916233258 L   I
 OLDACT:REG 15-09-17 05:09 OP:stll STATUS:               ID:20150916232750     3
 2015-09-16-2327-50M.COL___352                                                 6
 STAT SP IPHASW D HRMM SECON CODA AMPLIT PERI AZIMU VELO AIN AR TRES W  DIS CAZ7
 BAR2 EZ EP       2333 17.01                             171   -0.0610 20.2 189 
 BAR2 EZ I        2333 17.28        13.3 0.32            170           20.2 189 
 BAR2 EZ ES       2333 31.64                             171   -0.1410 20.2 189 
 BRR  HZ EP       2333 18.71                             151   -0.0610 72.0 301 
 BRR  HE ES       2333 35.71                             151    0.9110 72.0 301 
 PAM  EZ EP       2333 20.08                             149    0.1010 80.2  39 
 PAM  EZ I        2333 20.17        17.0 0.24            152           80.2  39 
 PAM  EN ES       2333 36.48                             149   -0.4810 80.2  39 
 RUS  HZ EP       2333 21.13                             143   -0.0510 97.7 175 
 RUS  HN ES       2333 39.34                             143    0.2610 97.7 175 
 RUS  HZ I        2333 41.47         6.7 0.46            144           97.7 175 
 PTB  HZ EP       2333 24.18                             131   -0.40 9  146 260 
 PTB  HE ES       2333 44.46                             131   -0.68 9  146 260 
 PTB  HZ I        2333 48.35         7.3 0.34            130            146 260 
 SPBC HZ EP       2333 26.32                             128    0.33 9  160 219 
 SPBC HN ES       2333 47.60                             128   -0.06 9  160 219 
 SPBC HZ I        2333 51.23         9.3 0.14            128            160 219 
 ZAR  HZ EP       2333 30.87                             121    0.55 9  204 293 
 ZAR  HN ES       2333 55.16                             121   -0.20 9  204 293 
 ZAR  HZ I        2334  3.73         9.8 0.50            121            204 293 
                                                                                
