 2010  716 2306 17.0 L   6.789 -73.061141.3  RSN 21 0.4 3.9LRSN                1
 GAP=125        0.87       3.0     4.5  4.3 -0.5516E+01  0.7570E+00  0.2701E+01E
 Epicentro: LOS SANTOS - SANTANDER                                             3
 ACTION:UPD 10-12-01 15:18 OP:pat  STATUS:               ID:20100716230617 L   I
 2010-07-16-2304-10S.COL___120                                                 6
 STAT SP IPHASW D HRMM SECON CODA AMPLIT PERI AZIMU VELO AIN AR TRES W  DIS CAZ7
 BAR2 SZ IP       23 6 36.21                             169     0.110   26 212 
 BAR2 SZ ES   1   23 6 50.70                             169    -0.3 7   26 212 
 BAR2 SZ I        23 6 52.41      1787.9 0.26                            26 212 
 GIR2 SZ IP       23 6 36.30                             165     0.110   35 336 
 GIR2 SZ ES   1   23 6 51.13                             165    -0.1 7   35 336 
 BRR  HZ IP     D 23 6 38.12                             149     0.010   80 296 
 BRR  HE ES       23 6 54.93                             149     0.210   80 296 
 BRR  HZ I        23 6 59.56      2595.0 0.16                            80 296 
 RUS  HZ EP       23 6 40.11                             143    -0.110   99 181 
 RUS  HN ES   1   23 6 58.36                             143     0.1 7   99 181 
 RUS  HZ I        23 7  0.89       564.1 0.23                            99 181 
 GUE  SZ EP       23 6 41.24                             138     0.010  116   7 
 GUE  SZ I        23 6 43.17       532.1 0.09                           116   7 
 GRA  SZ IP       23 6 42.18                             136     0.510  125  13 
 GRA  SZ I        23 6 43.57      1089.8 0.15                           125  13 
 OCA  SZ EP       23 6 44.80                             128    -0.4 9  163 350 
 OCA  SZ ES   1   23 7  6.78                             128    -0.4 7  163 350 
 OCA  SZ I        23 7 11.99      1194.6 0.23                           163 350 
 ROSC BZ EP       23 6 56.18                             115     0.9 8  257 213 
 ROSC BN ES   1   23 7 24.43                             115    -0.7 6  257 213 
 ROSC BZ I        23 7 32.95       336.7 0.46                           257 213 
 CVER SZ EP   2   23 6 57.66                             114     0.3 4  275 204 
 HEL  HZ EP       23 6 58.14                             113     0.2 7  281 257 
 HEL  HZ I        23 7 33.15       228.0 0.41                           281 257 
 GUY  SZ EP   1   23 7  1.21                             111     0.0 5  308 236 
 GUY  SN ES   2   23 7 35.72                             111     0.1 4  308 236 
 GUY  SZ I        23 7 40.15       572.1 0.45                           308 236 
 RREF HZ EP       23 7  2.99                             109    -0.6 7  328 231 
 RREF HN ES   1   23 7 39.42                             109    -0.6 5  328 231 
 RREF HZ I        23 7 48.15       241.9 0.40                           328 231 
 DBB  SZ EP       23 7  4.46                             108    -0.9 6  349 274 
 TOL  SZ EP       23 7  6.13                             108     0.4 6  349 226 
 SDV  BZ EP       23 7  6.02                             108    -0.1 6  354  49 
 SDV  BZ I        23 7  6.74       192.9 0.17                           354  49 
 SDV  BE ES   2   23 7 43.74                             108    -0.7 3  354  49 
 ANIL HZ EP       23 7  7.87                             107     0.6 6  363 226 
 ANIL HE ES   1   23 7 46.84                             107     0.3 5  363 226 
 ANIL HZ I        23 7 50.16       491.8 0.31                           363 226 
 PRA  HZ EP   1   23 7 10.35                             106    -0.4 4  396 211 
 PRA  HN ES   1   23 7 52.35                             106    -0.4 4  396 211 
 PRA  HZ I        23 7 58.00       281.0 0.43                           396 211 
 GUA  SZ EP   1   23 7 18.97                             102    -0.7 4  472 174 
 GUA  SZ ES   1   23 8  8.70                             102     0.0 4  472 174 
 HORQ SZ EP   1   23 7 27.81                             100    -0.2 3  538 227 
 MAL  SZ EP       23 7 31.63                             100     0.9 3  564 237 
 SOTA HZ EP   1   23 7 41.52                              98     0.1 2  648 218 
 SOTA HE ES   2   23 8 46.87                              98    -0.5 1  648 218 
                                                                                
