 2016 1216 2341 29.2 L   6.714 -73.143148.1  RSN  6 0.4 1.7LRSN                1
 GAP=140        0.96       4.9     4.3  7.0  0.1762E+01  0.5706E+01 -0.1173E+00E
 Epicentro: JORDAN - SANTANDER                                                 3
 ACTION:UPD 17-01-11 20:15 OP:rebc STATUS:               ID:20161216234129 L   I
 OLDACT:UP  16-12-17 06:34 OP:dnl  STATUS:               ID:20161216233744     3
 OLDACT:REG 16-12-17 05:44 OP:dnl  STATUS:               ID:20161216233744     3
 2016-12-16-2338-00M.COL___387                                                 6
 STAT SP IPHASW D HRMM SECON CODA AMPLIT PERI AZIMU VELO AIN AR TRES W  DIS CAZ7
 BAR2 EZ EP       2341 48.85                             174   -0.0710 14.2 198 
 BAR2 EZ ES       2342  4.53                             174    0.2010 14.2 198 
 BAR2 EZ I        2342  5.91        13.5 0.28            175           14.2 198 
 BRR  HZ EP       2341 51.11                             151    0.2510 76.4 305 
 BRR  HE ES       2342  8.41                             151    0.6310 76.4 305 
 BRR  HZ I        2342 10.20        15.0 0.30            151           76.4 305 
 PAM  EZ EP       2341 52.23                             149    0.1610 84.7  35 
 PAM  EN ES       2342  9.30                             149   -0.6410 84.7  35 
 PAM  EZ I        2342 12.25         8.2 0.40            150           84.7  35 
 RUS  HZ EP       2341 52.76                             147    0.2710 91.1 176 
 RUS  HN ES       2342 10.59                             147   -0.0910 91.1 176 
 RUS  HZ I        2342 12.79         3.9 0.34            150           91.1 176 
 PTB  HZ EP       2341 55.98                             133   -0.22 9  146 262 
 PTB  HE ES       2342 16.70                             133   -0.59 9  146 262 
 PTB  HZ I        2342 17.86         5.3 0.12            134            146 262 
 ZAR  HZ EP   4 C 2342  3.72                             122    1.55 0  208 295 
 ZAR  HN ES       2342 27.91                             122    0.00 8  208 295 
 ZAR  HZ I        2342 32.40         5.5 0.28            123            208 295 
                                                                                
