 2011  316 2353 14.4 L   6.775 -73.155143.5  RSN  8 0.4 1.8LRSN                1
 GAP=158        0.79       4.3     8.3  6.4 -0.1771E+02  0.1021E+02 -0.4506E+01E
 Epicentro: LOS SANTOS - SANTANDER                                             3
 ACTION:UP  11-06-16 14:34 OP:jfem STATUS:               ID:20110316235315 L   I
 2011-03-16-2350-39S.COL___138                                                 6
 STAT SP IPHASW D HRMM SECON CODA AMPLIT PERI AZIMU VELO SNR AR TRES W  DIS CAZ7
 BTL  SZ EP       2353 34.25                             172     0.510   20 322 
 BTL  SZ ES   1   2353 49.19                             172     0.4 7   20 322 
 BAR2 SZ ES   1   2353 48.54                             172    -0.3 7   21 189 
 BAR2 SZ I        2353 50.20        28.4 0.22                            21 189 
 GIR2 SZ EP       2353 33.90                             166     0.010   34 353 
 RUS  HZ EP       2353 37.89                             144     0.110   98 175 
 RUS  HN ES   1   2353 55.63                             144    -0.4 7   98 175 
 RUS  HZ I        2353 57.85         7.4 0.42                            98 175 
 GRA  SZ EP       2353 39.70                             136     0.010  129  18 
 GRA  SZ ES   1   2353 59.24                             136    -0.2 7  129  18 
 GRA  SZ I        2354  0.70         6.2 0.36                           129  18 
 OCA  SZ EP   1   2353 42.39                             129    -0.4 7  163 354 
 OCA  SZ I        2354  8.56        11.4 0.24                           163 354 
 NOR  SZ EP   2   2353 50.50                             118     0.7 4  232 235 
 NOR  SN ES   1   2354 16.95                             118    -0.4 6  232 235 
 CHI  HZ EP   2   2353 51.32                             117    -0.4 4  246 195 
 CHI  HN ES   3   2354 21.34                             117     0.6 2  246 195 
 CHI  HZ I        2354 27.19         3.1 0.28                           246 195 
                                                                                
