 2012  916 2020 50.1 L   6.771 -73.137136.2  RSN  6 0.5 2.5LRSN                1
 GAP=139        1.06       6.6     8.9 10.8 -0.8825E+01 -0.1896E+02  0.6208E+01E
 Epicentro: LOS SANTOS - SANTANDER                                             3
 ACTION:UPD 12-10-22 14:19 OP:ep   STATUS:               ID:20120916202050 L   I
 2012-09-16-2020-00M.COL___227                                                 6
 STAT SP IPHASW D HRMM SECON CODA AMPLIT PERI AZIMU VELO AIN AR TRES W  DIS CAZ7
 BAR2 SZ EP       2021  8.42                             171   -0.1310 20.4 194 
 BAR2 SZ ES   1   2021 22.39                             171   -0.53 7 20.4 194 
 BAR2 SZ I        2021 24.81       112.5 0.18                          20.4 194 
 GIR2 SZ EP       2021  9.33                             165    0.5610 34.6 350 
 BRR  HN ES   1   2021 26.87                             150    0.66 7 73.6 300 
 BRR  HN I        2021 30.37       156.7 0.18                          73.6 300 
 PAM  SZ EP       2021 11.13                             148   -0.3210 79.2  38 
 PAM  SN ES   1   2021 27.87                             148   -0.22 7 79.2  38 
 RUS  HZ EP       2021 12.78                             143    0.0710 97.4 177 
 RUS  HN ES   1   2021 30.68                             143    0.35 7 97.4 177 
 RUS  HZ I        2021 32.72        19.8 0.26                          97.4 177 
 PTB  HN ES   2   2021 35.36                             129   -1.48 5  148 260 
                                                                                
