 2010  916 2251 11.7 L   6.777 -73.079146.5  RSN  4 0.2 1.8LRSN                1
 GAP=166        0.52       4.3     7.8  6.6  0.1434E+02 -0.2621E+02 -0.1476E+02E
 Epicentro: LOS SANTOS - SANTANDER                                             3
 ACTION:UP  11-02-18 11:03 OP:tino STATUS:               ID:20100916225111 L   I
 2010-09-16-2249-35S.COL___118                                                 6
 STAT SP IPHASW D HRMM SECON CODA AMPLIT PERI AZIMU VELO SNR AR TRES W  DIS CAZ7
 BAR2 SZ EP       2251 31.39                             171     0.010   24 209 
 BAR2 SZ ES   1   2251 46.50                             171    -0.3 7   24 209 
 BAR2 SZ I        2251 48.29        13.1 0.13                            24 209 
 BRR  HZ EP       2251 33.24                             150    -0.110   79 298 
 BRR  HZ I        2251 33.54        30.4 0.27                            79 298 
 BRR  HE ES   1   2251 50.49                             150     0.2 7   79 298 
 RUS  HZ EP   1   2251 35.27                             145    -0.1 7   98 180 
 RUS  HE ES   1   2251 53.98                             145     0.2 7   98 180 
 RUS  HZ I        2251 55.22         4.5 0.23                            98 180 
 GRA  SZ IP       2251 37.16                             137     0.110  126  14 
 GRA  SZ I        2251 59.09         6.4 0.30                           126  14 
                                                                                
