 2010 1116 2142 28.2 L   6.557 -73.572105.4  RSN  5 0.2 1.6LRSN                1
 GAP=202        0.38       4.6     7.1  6.6  0.2196E+02  0.1893E+02  0.1650E+02E
 Epicentro: EL CARMEN DE CHUCURI - SANTANDER                                   3
 ACTION:UP  10-12-17 16:53 OP:REBC STATUS:               ID:20101116214228 L   I
 2010-11-16-2139-52S.COL___128                                                 6
 STAT SP IPHASW D HRMM SECON CODA AMPLIT PERI AZIMU VELO SNR AR TRES W  DIS CAZ7
 BAR2 SZ EP   1   2142 43.69                             156    -0.1 7   43  85 
 BAR2 SZ I        2142 44.10        17.0 0.15                            43  85 
 BAR2 SZ ES   2   2142 56.33                             156     0.4 5   43  85 
 BTL  SZ EP   2   2142 44.35                             151     0.1 5   52  40 
 BTL  SZ ES   2   2142 56.68                             151    -0.1 5   52  40 
 BRR  HZ EP   2   2142 44.87                             146     0.3 5   63 346 
 BRR  HE ES   1   2142 57.28                             146    -0.1 7   63 346 
 BRR  HZ I        2143  1.05        11.3 0.37                            63 346 
 GIR2 SZ EP   3   2142 44.99                             143    -0.4 2   71  36 
 GIR2 SZ ES   2   2142 58.79                             143     0.0 5   71  36 
 RUS  HZ EP   2   2142 47.55                             136     0.1 5   91 144 
 RUS  HE ES   2   2143  2.23                             136    -0.2 5   91 144 
 RUS  HZ I        2143  4.85         6.6 0.48                            91 144 
                                                                                
