 2010 1016 2242 14.2 L   6.811 -73.081147.2  RSN  7 0.4 1.8LRSN                1
 GAP=166        0.81       4.0    10.0  7.7  0.6779E+01 -0.2516E+02 -0.1222E+01E
 Epicentro: LOS SANTOS - SANTANDER                                             3
 ACTION:UP  11-02-18 11:10 OP:tino STATUS:               ID:20101016224214 L   I
 2010-10-16-2238-19S.COL___125                                                 6
 STAT SP IPHASW D HRMM SECON CODA AMPLIT PERI AZIMU VELO SNR AR TRES W  DIS CAZ7
 BTL  SZ EP       2242 34.34                             170     0.410   24 300 
 BAR2 SZ EP   1   2242 33.81                             169    -0.2 7   27 205 
 BAR2 SZ ES   2   2242 48.92                             169    -0.6 5   27 205 
 BAR2 SZ I        2242 52.01        12.1 1.01                            27 205 
 BRR  HZ EP       2242 35.68                             151    -0.110   77 295 
 BRR  HN ES       2242 52.88                             151     0.210   77 295 
 BRR  HZ I        2242 55.63        10.2 0.49                            77 295 
 RUS  HZ EP   1   2242 38.54                             144     0.4 7  102 180 
 RUS  HN ES   1   2242 56.60                             144    -0.2 7  102 180 
 RUS  HZ I        2242 57.82         7.8 0.09                           102 180 
 GRA  SZ ES   2   2242 59.32                             138     0.5 5  123  14 
 GRA  SZ I        2243  0.49        10.0 0.23                           123  14 
 OCA  SZ EP       2242 42.37                             130    -0.2 9  160 351 
 OCA  SZ ES   2   2243  3.84                             130    -0.9 5  160 351 
 OCA  SZ I        2243  8.83         8.4 0.21                           160 351 
 CHI  HZ EP   1   2242 52.20                             117    -0.1 6  252 197 
 CHI  HN ES   2   2243 21.68                             117    -0.3 4  252 197 
 CHI  HZ I        2243 24.99         4.2 0.48                           252 197 
                                                                                
