 2010  616 2055 30.7 L   6.859 -72.966150.0  RSN  4 0.2 1.7LRSN                1
 GAP=258        0.43       4.7     9.2  5.7  0.2790E+02 -0.2052E+02 -0.3597E+01E
 Epicentro: CEPITA - SANTANDER                                                 3
 ACTION:UP  10-08-24 10:10 OP:vdl  STATUS:               ID:20100616205530 L   I
 2010-06-16-2052-03S.COL___114                                                 6
 STAT SP IPHASW D HRMM SECON CODA AMPLIT PERI AZIMU VELO SNR AR TRES W  DIS CAZ7
 BAR2 SZ EP   1   2055 51.42                             165     0.2 8   38 219 
 BAR2 SZ ES   2   2056  6.87                             165    -0.4 5   38 219 
 BRR  HZ EP   1   2055 53.18                             148    -0.1 8   87 288 
 BRR  HZ I        2055 54.87        16.5 0.09                            87 288 
 BRR  HN ES   1   2056 10.96                             148     0.1 8   87 288 
 RUS  HZ IP     C 2055 55.47                             143     0.110  108 187 
 RUS  HE ES   1   2056 14.70                             143     0.0 7  108 187 
 RUS  HZ I        2056 16.01         4.8 0.38                           108 187 
 CHI  HZ EP   2   2056  9.51                             117    -0.5 4  261 199 
 CHI  HE ES   2   2056 40.73                             117     0.1 4  261 199 
 CHI  HZ I        2056 43.15         2.9 0.36                           261 199 
                                                                                
