 2012  716 2307  2.9 L   6.761 -73.144149.2  RSN  9 0.4 2.2LRSN                1
 GAP=138        1.03       4.4     4.9  6.4 -0.2030E+01  0.6543E+01  0.2847E+01E
 Epicentro: LOS SANTOS - SANTANDER                                             3
 ACTION:UPD 12-08-14 11:45 OP:ep   STATUS:               ID:20120716230702 L   I
 2012-07-16-2300-00M.COL___196                                                 6
 STAT SP IPHASW D HRMM SECON CODA AMPLIT PERI AZIMU VELO AIN AR TRES W  DIS CAZ7
 BAR2 SZ EP       23 7 22.90                             172     0.110   19 193 
 BAR2 SZ ES   1   23 7 38.08                             172    -0.3 7   19 193 
 BAR2 SZ I        23 7 40.13        28.4 0.15            162             19 193 
 BRR  HZ EP       23 7 24.88                             152     0.410   73 301 
 BRR  HE ES       23 7 42.10                             152     0.710   73 301 
 BRR  HZ I        23 7 45.46        37.1 0.12            147             73 301 
 PAM  SZ EP       23 7 25.81                             150     0.210   81  38 
 PAM  SN ES       23 7 43.26                             150    -0.110   81  38 
 RUS  HZ EP       23 7 26.96                             146     0.310   96 176 
 RUS  HE ES       23 7 44.88                             146    -0.310   96 176 
 RUS  HZ I        23 7 46.85        18.6 0.34            135             96 176 
 PTB  HZ EP       23 7 29.71                             133    -0.3 9  147 260 
 PTB  HN ES   1   23 7 50.79                             133    -0.5 7  147 260 
 PTB  HZ I        23 7 58.60        19.5 0.40            124            147 260 
 OCA  HZ EP       23 7 31.24                             130    -0.6 9  165 353 
 ZAR  HZ EP   2   23 7 35.76                             123     0.0 4  206 293 
 ZAR  HE ES   1   23 8  0.85                             123    -0.5 6  206 293 
 ZAR  HZ I        23 8  7.21        23.7 0.20            116            206 293 
 NOR  SZ EP       23 7 38.93                             119     0.4 8  232 235 
 NOR  SN ES   1   23 8  6.34                             119     0.0 6  232 235 
 CHI  HZ EP       23 7 40.34                             118     0.0 8  245 195 
 CHI  HZ I        23 8 16.28         9.5 0.24            111            245 195 
