 2013  816 2308 13.0 L   6.849 -73.378123.6  RSN  7 0.5 1.7LRSN                1
 GAP= 91        1.11       5.1     4.8  9.5  0.1348E+01  0.6756E+01 -0.2344E+00E
 Epicentro: SAN VICENTE DE CHUCURI - SANTANDER                                 3
 ACTION:UPD 14-01-14 09:03 OP:ep   STATUS:               ID:20130816230813 L   I
 OLDACT:REG 13-08-17 03:27 OP:carl STATUS:               ID:20130816225959     3
 2013-08-16-2259-59M.COL___269                                                 6
 STAT SP IPHASW D HRMM SECON CODA AMPLIT PERI AZIMU VELO AIN AR TRES W  DIS CAZ7
 BAR2 SZ EP       23 8 30.47                             163    0.1110 35.7 143 
 BAR2 SZ ES   1   23 8 44.11                             163    0.23 7 35.7 143 
 BAR2 SZ I        23 8 44.68        26.9 0.14            168           35.7 143 
 BRR  HZ EP       23 8 31.17                             158    0.7210 46.6 308 
 BRR  HN ES   1   23 8 44.67                             158    0.62 7 46.6 308 
 BRR  HN I        23 8 49.29        19.8 0.18            158           46.6 308 
 PAM  SZ EP   1   23 8 34.41                             141    0.39 7 92.5  54 
 PAM  SN ES   1   23 8 49.56                             141   -0.83 7 92.5  54 
 PAM  SZ I        23 8 52.68         5.9 0.32            146           92.5  54 
 RUS  HZ EP       23 8 35.52                             136    0.0210  111 163 
 RUS  HN ES   1   23 8 52.94                             136   -0.09 7  111 163 
 RUS  HZ I        23 8 54.89         3.4 0.32            141            111 163 
 PTB  HZ EP   1   23 8 35.29                             132   -0.74 7  124 254 
 PTB  HE ES       23 8 53.36                             132   -0.6210  124 254 
 PTB  HZ I        23 8 56.51        10.0 0.12            135            124 254 
 OCA  HN ES   1   23 8 58.68                             125   -0.68 7  154   2 
 ZAR  HZ EP   1   23 8 41.61                             121    0.24 7  178 294 
 ZAR  HN ES   1   23 9  3.83                             121    0.35 7  178 294 
 ZAR  HZ I        23 9  7.53        12.1 0.40            124            178 294 
                                                                                
