 2016  916 2248 22.6 L   6.185 -73.611117.5  RSN  9 0.1 1.9LRSN                1
 GAP= 72        0.42       1.2     1.5  2.5 -0.1033E+00  0.8159E+00  0.3710E-01E
 Epicentro: LA PAZ - SANTANDER                                                 3
 ACTION:UPD 17-08-17 21:13 OP:lp   STATUS:               ID:20160916224822 L   I
 OLDACT:REG 16-09-17 00:58 OP:lv   STATUS:               ID:20160916223734     3
 2016-09-16-2238-00M.COL___360                                                 6
 STAT SP IPHASW D HRMM SECON CODA AMPLIT PERI AZIMU VELO AIN AR TRES W  DIS CAZ7
 BAR2 EZ EP       2248 40.94                             149    0.2110 65.3  46 
 BAR2 EZ ES       2248 54.71                             149   -0.1710 65.3  46 
 BAR2 EZ I        2248 56.12        17.3 0.40            152           65.3  46 
 RUS  HZ EP       2248 41.06                             148   -0.1310 66.8 119 
 RUS  HN ES       2248 55.62                             148   -0.0710 66.8 119 
 SPBC HZ EP   4   2248 43.00                             144    1.63 0 78.0 221 
 SPBC HN ES       2248 55.99                             144   -0.0310 78.0 221 
 SPBC HZ I        2248 57.77        16.7 0.22            142           78.0 221 
 PTB  HZ EP   9   2248 42.33                             136   -0.77 0  101 293 
 PTB  HE ES       2248 58.09                                   -0.2310  101 293 
 PTB  HZ I        2249  0.50        10.1 0.34            135            101 293 
 BRR  HZ EP       2248 43.27                             136    0.1010  103 354 
 BRR  HN ES       2248 59.32                             136    0.1010  103 354 
 BRR  HZ I        2249  1.12        19.8 0.26            137            103 354 
 NOR  HZ EP       2248 48.10                             123   -0.15 9  155 244 
 NOR  HE ES       2249  8.22                             123   -0.03 9  155 244 
 NOR  HZ I        2249 12.58        13.7 0.18            122            155 244 
 CHI  HZ EP       2248 50.39                             120   -0.11 9  173 184 
 CHI  HN ES       2249 12.56                             120    0.30 9  173 184 
 CHI  HZ I        2249 18.92         3.8 0.34            120            173 184 
 ZAR  HZ EP       2248 52.75                             116   -0.15 9  200 316 
 ZAR  HE ES       2249 16.66                             116    0.13 9  200 316 
 ZAR  HZ I        2249 21.18        13.5 0.64            116            200 316 
 GUY2CHZ EP   9   2248 56.93                             113    1.03 0  221 241 
 GUY2CHE ES       2249 22.84                                   -0.07 8  221 241 
 GUY2CHZ I        2249 28.84         6.3 0.58                           221 241 
                                                                                
