 2011  216 2022 57.3 L   6.737 -73.140150.7  RSN  4 0.1 1.6LRSN                1
 GAP=211        0.34       4.5     5.7  6.0 -0.4767E+01  0.1504E+02 -0.6925E+01E
 Epicentro: JORDAN - SANTANDER                                                 3
 ACTION:UP  11-03-28 15:08 OP:jfem STATUS:               ID:20110216202257 L   I
 2011-02-16-2021-05S.COL___137                                                 6
 STAT SP IPHASW D HRMM SECON CODA AMPLIT PERI AZIMU VELO SNR AR TRES W  DIS CAZ7
 BTL  SZ EP   1   2023 17.53                             170    -0.1 7   25 325 
 RUS  HZ EP   1   2023 21.25                             147     0.2 7   94 176 
 RUS  HN ES   1   2023 39.57                             147    -0.1 7   94 176 
 RUS  HZ I        2023 41.31         9.0 0.25                            94 176 
 NOR  SZ EP   2   2023 32.98                             120     0.0 4  231 236 
 NOR  SN ES   2   2024  0.88                             120     0.1 4  231 236 
 NOR  SZ I        2024  6.61         1.3 0.23                           231 236 
 CHI  HZ EP   1   2023 34.50                             119    -0.1 6  242 196 
 CHI  HZ I        2024 13.65         4.3 0.58                           242 196 
                                                                                
