 2013  216 2030 41.6 L   6.777 -73.135149.2  RSN  5 0.3 1.5LRSN                1
 GAP=139        0.71       4.0     4.6  6.6 -0.2864E+01  0.5200E+01  0.3323E+01E
 Epicentro: LOS SANTOS - SANTANDER                                             3
 ACTION:UPD 13-03-12 09:33 OP:ep   STATUS:               ID:20130216203041 L   I
 2013-02-16-2030-00M.COL___241                                                 6
 STAT SP IPHASW D HRMM SECON CODA AMPLIT PERI AZIMU VELO AIN AR TRES W  DIS CAZ7
 BRR  HZ EP       2031  3.47                             152    0.1810 73.4 300 
 BRR  HZ I        2031 13.51         8.3 0.21            147           73.4 300 
 BRR  HN ES   1   2031 20.85                             152    0.68 7 73.4 300 
 PAM  SZ EP       2031  4.21                             151   -0.0910 78.6  38 
 PAM  SZ I        2031  4.76         6.3 0.37            149           78.6  38 
 PAM  SN ES       2031 21.78                             151   -0.1910 78.6  38 
 RUS  HZ EP   1   2031  5.77                             145    0.22 7 98.0 177 
 RUS  HE ES       2031 24.09                             145   -0.1110 98.0 177 
 RUS  HE I        2031 25.31         5.7 0.31            144           98.0 177 
 PTB  HZ EP   1   2031  8.61                             132   -0.34 7  148 260 
 PTB  HE ES   1   2031 29.74                             132   -0.51 7  148 260 
 PTB  HZ I        2031 31.71         2.5 0.33            128            148 260 
 CHI  HZ EP   1   2031 19.65                             118    0.34 6  247 196 
                                                                                
