 2011  716 2009 35.7 L   6.756 -73.117148.5  RSN  8 0.4 2.2LRSN                1
 GAP=142        0.79       3.6     5.4  6.2 -0.3362E+01  0.4910E+00 -0.1057E+01E
 Epicentro: LOS SANTOS - SANTANDER                                             3
 ACTION:UPD 12-07-25 14:01 OP:epov STATUS:               ID:20110716200935 L   I
 2011-07-16-2007-39S.COL___128                                                 6
 STAT SP IPHASW D HRMM SECON CODA AMPLIT PERI AZIMU VELO AIN AR TRES W  DIS CAZ7
 BAR2 SZ EP       20 9 55.63                             172    0.0010 19.5 202 
 BAR2 SZ ES   2   2010 10.44                             172   -0.70 5 19.5 202 
 BAR2 SZ I        2010 12.01        36.3 0.44                          19.5 202 
 BRR  HZ EP       20 9 57.57                             151    0.0910 76.4 301 
 BRR  HZ I        20 9 57.93        78.3 0.17                          76.4 301 
 BRR  HN ES       2010 14.98                             151    0.5410 76.4 301 
 PAM  SZ EP       20 9 58.52                             151    0.1610 79.3  36 
 PAM  SN ES   1   2010 15.29                             151   -0.71 7 79.3  36 
 RUS  HZ EP       20 9 59.59                             146    0.1810 95.6 178 
 RUS  HN ES       2010 18.07                             146    0.2010 95.6 178 
 RUS  HZ I        2010 19.61        10.8 0.25                          95.6 178 
 BRI  SZ EP   2   20 9 59.95                             141   -0.21 5  112  18 
 OCA  SZ EP       2010  4.49                             129   -0.27 9  165 352 
 OCA  SZ I        2010 32.76        20.6 0.41                           165 352 
 NOR  SZ EP   2   2010 11.65                             119    0.03 4  235 236 
 NOR  SN ES   1   2010 38.75                             119   -0.85 6  235 236 
 CHI  HZ EP   2   2010 13.31                             118    0.12 4  245 196 
 CHI  HN ES   2   2010 42.16                             118   -0.23 4  245 196 
 CHI  HZ I        2010 51.36         6.4 1.45                           245 196 
                                                                                
