 2012  316 2032 18.1 L   6.694 -73.136146.0  RSN  6 0.3 1.4LRSN                1
 GAP=142        0.87       5.6     4.8  7.9  0.2068E+01  0.4500E+01  0.2739E+01E
 ACTION:UP  12-03-31 23:20 OP:EP   STATUS:               ID:20120316203218 L   I
 2012-03-16-2030-00M.COL___202                                                 6
 STAT SP IPHASW D HRMM SECON CODA AMPLIT PERI AZIMU VELO SNR AR TRES W  DIS CAZ7
 BAR2 SZ EP       2032 37.63                             175     0.110   12 204 
 BAR2 SZ I        2032 38.09         6.4 0.07                            12 204 
 BRR  HZ EP       2032 39.86                             150     0.210   78 306 
 BRR  HN ES       2032 57.01                             150     0.510   78 306 
 PAM  SZ EP       2032 40.76                             148    -0.110   86  34 
 PAM  SN ES   1   2032 58.13                             148    -0.5 7   86  34 
 RUS  HZ EP   1   2032 41.20                             147     0.2 7   89 176 
 RUS  HE ES   1   2032 59.07                             147     0.1 7   89 176 
 RUS  HZ I        2033  0.94         3.5 0.24                            89 176 
 PTB  HZ EP       2032 44.60                             132    -0.4 9  147 263 
 PTB  HN ES   1   2033  5.45                             132    -0.5 7  147 263 
 PTB  HZ I        2033 10.60         3.0 0.09                           147 263 
 ZAR  HZ EP   1   2032 51.63                             122     0.5 6  210 295 
 ZAR  HE ES   1   2033 16.58                             122    -0.3 6  210 295 
                                                                                
