 2017 1016 2003 15.0 L   6.782 -73.162150.0  RSN  8 0.4 1.8LRSN                1
 GAP=135        0.86       4.1     3.7  6.1 -0.1001E+01  0.6023E+01  0.2208E+01E
 Epicentro: LOS SANTOS - SANTANDER                                             3
 ACTION:UPD 17-11-07 19:32 OP:rebc STATUS:               ID:20171016200315 L   I
 OLDACT:UP  17-10-17 05:45 OP:dnl  STATUS:               ID:20171016195743     3
 OLDACT:UP  17-10-17 05:45 OP:dnl  STATUS:               ID:20171016195743     3
 OLDACT:REG 17-10-17 05:19 OP:dnl  STATUS:               ID:20171016195743     3
 2017-10-16-1958-00M.COL___441                                                 6
 STAT SP IPHASW D HRMM SECON CODA AMPLIT PERI AZIMU VELO AIN AR TRES W  DIS CAZ7
 BAR2 EZ EP   2   20 3 35.02                             172   -0.08 5 21.1 186 
 BAR2 EZ ES       20 3 51.08                             172    0.3010 21.1 186 
 BAR2 EZ I        20 3 51.82        16.0 0.30            171           21.1 186 
 BRR  HZ EP       20 3 36.84                             153    0.2510 70.7 301 
 BRR  HE ES       20 3 54.12                             153    0.7010 70.7 301 
 BRR  HZ I        20 3 57.41        14.4 0.40            151           70.7 301 
 PAM  EZ EP       20 3 37.78                             151   -0.0510 80.0  40 
 PAM  EN ES       20 3 55.09                             151   -0.5410 80.0  40 
 PAM  EZ I        20 3 57.25        10.2 0.60            154           80.0  40 
 RUS  HZ EP       20 3 39.18                             145    0.1310 98.7 175 
 RUS  HN ES       20 3 57.64                             145   -0.1610 98.7 175 
 RUS  HZ I        20 3 58.84         4.9 0.30            148           98.7 175 
 PTB  HZ EP       20 3 42.16                             133    0.02 9  146 259 
 PTB  HN ES       20 4  3.00                             133   -0.30 9  146 259 
 PTB  HZ I        20 4  8.93         7.2 0.24            133            146 259 
 ZAR  HZ EP   4   20 3 50.29                             124    2.65 0  203 293 
 ZAR  HE ES       20 4 12.70                             124   -0.40 9  203 293 
 ZAR  HZ I        20 4 18.72         8.6 0.38            124            203 293 
 NOR  HZ EP   2   20 3 51.17                             120    0.46 4  232 235 
 NOR  HE ES       20 4 18.17                             120   -0.39 8  232 235 
 NOR  HZ I        20 4 23.62         4.1 0.22            120            232 235 
 GUY2CHZ EP   2   20 3 59.22                             113    0.70 4  299 235 
 GUY2CHN ES   4   20 4 35.60                             113    3.13 0  299 235 
 GUY2CHZ I        20 4 39.94         2.6 0.28                           299 235 
                                                                                
