 2016 1216 2148  2.7 L   6.792 -73.142141.5  RSN 21 0.4 2.7LRSN                1
 GAP=100        1.00       3.4     2.8  4.9  0.7890E-01  0.4009E+01  0.3594E+01E
 Epicentro: LOS SANTOS - SANTANDER                                             3
 OLDACT:UP  16-12-17 06:08 OP:dnl  STATUS:               ID:20161216213749     3
 OLDACT:UP  16-12-17 06:07 OP:dnl  STATUS:               ID:20161216213749     3
 OLDACT:REG 16-12-17 05:41 OP:dnl  STATUS:               ID:20161216213749     3
 ACTION:UPD 17-01-11 20:15 OP:rebc STATUS:               ID:20161216214802 L   I
 OLDACT:UP  16-12-17 06:19 OP:dnl  STATUS:               ID:20161216213750d    3
 OLDACT:UP  16-12-17 06:18 OP:dnl  STATUS:               ID:20161216213750d    3
 OLDACT:DUP 16-12-17 06:10 OP:dnl  STATUS:               ID:20161216213750d    3
 OLDACT:UP  16-12-17 06:09 OP:dnl  STATUS:               ID:20161216213749     3
 2016-12-16-2138-00M.COL___390                                                 6
 STAT SP IPHASW D HRMM SECON CODA AMPLIT PERI AZIMU VELO AIN AR TRES W  DIS CAZ7
 BAR2 EZ EP       2148 21.70                             170   -0.0910 22.6 191 
 BAR2 EZ ES       2148 36.16                             170   -0.5310 22.6 191 
 BAR2 EZ I        2148 37.87       122.5 0.22            166           22.6 191 
 BRR  HZ EP       2148 23.64                             151    0.2210 71.9 299 
 BRR  HN ES       2148 40.36                             151    0.7610 71.9 299 
 BRR  HZ I        2148 45.86       102.2 0.30            151           71.9 299 
 PAM  EZ IP     D 2148 24.53                             150    0.0510 77.8  39 
 PAM  EN ES       2148 41.30                             150   -0.1810 77.8  39 
 PAM  EZ I        2148 43.58       121.6 0.48            156           77.8  39 
 RUS  HZ EP       2148 25.66                             143   -0.3010 99.7 176 
 RUS  HN ES       2148 44.37                             143    0.2610 99.7 176 
 RUS  HZ I        2148 45.04        60.2 0.42            143           99.7 176 
 PTB  HZ EP       2148 28.76                             131   -0.57 9  148 259 
 PTB  HN ES       2148 50.06                             131   -0.05 9  148 259 
 PTB  HZ I        2148 52.61        93.4 0.12            130            148 259 
 TAM  HZ IP     C 2148 30.01                             130    0.03 9  155 105 
 TAM  HN ES       2148 51.36                             130    0.10 9  155 105 
 TAM  HZ I        2148 52.08        31.8 0.56            134            155 105 
 ZAR  HZ EP       2148 34.74                             121   -0.19 9  205 292 
 ZAR  HN ES       2149  0.67                             121    0.59 9  205 292 
 ZAR  HZ I        2149  3.77        66.6 0.30            122            205 292 
 NOR  HZ EP       2148 37.80                             118   -0.35 8  235 235 
 NOR  HN ES       2149  5.57                             118   -0.25 8  235 235 
 NOR  HZ I        2149 12.96        52.3 0.24            118            235 235 
 CHI  HZ EP       2148 40.47                             116    0.39 8  248 195 
 CHI  HN ES       2149  8.86                             116   -0.38 8  248 195 
 CHI  HZ I        2149 12.53        22.1 0.60            117            248 195 
 ROSC BZ EP   9   2148 42.23                             116    1.71 0  252 211 
 ROSC BN ES       2149 12.29                             116    0.55 8  252 211 
 ROSC BZ I        2149 18.51        42.2 0.40            116            252 211 
 GUY2CHZ EP       2148 46.45                             111    0.37 7  301 235 
 GUY2CHE ES   4   2149 19.11                             111   -0.82 0  301 235 
 GUY2CHZ I        2149 27.76        19.3 0.34                           301 235 
 PTGC HZ EP   4   2148 44.91                             111   -1.34 0  308 159 
 PTGC HN ES   4   2149 17.66                             111   -2.57 0  308 159 
 PTGC HZ I        2149 20.64        39.3 0.48            112            308 159 
 LL6C HZ EP   4   2148 27.24                             110   -21.1 0  326 358 
 LL6C HE ES   4   2149  0.88                             110   -23.0 0  326 358 
 LL6C HZ I        2149 16.07        13.2 0.62            112            326 358 
 ELA  HZ EP   4   2148 50.38                             109    1.05 0  329 230 
 ELA  HN ES   4   2149 23.97                             109   -1.74 0  329 230 
 ELA  HZ I        2149 33.06        24.4 0.70            110            329 230 
 CBOC HZ EP   4   2148 50.39                             109    0.95 0  334 252 
 CBOC HE ES       2149 25.76                             109   -0.15 7  334 252 
 CBOC HZ I        2149 29.53        15.2 0.68            110            334 252 
 DBB  EZ EP       2148 49.70                             109   -0.35 7  340 274 
 DBB  EN ES       2149 26.00                             109   -0.98 7  340 274 
 DBB  EZ I        2149 31.33        19.5 0.24            110            340 274 
 ANIL HZ EP       2148 53.18                             108    0.89 6  357 225 
 ANIL HN ES   4   2149 33.19                             108    2.21 0  357 225 
 ANIL HZ I        2149 40.84        53.1 0.30            108            357 225 
 ORTC HZ EP       2148 56.67                             106    0.26 6  395 216 
 ORTC HN ES       2149 39.37                             106    1.06 6  395 216 
 ORTC HZ I        2149 44.69        15.5 0.60            106            395 216 
 APAC HZ EP   4   2148 55.51                             105   -1.30 0  399 288 
 APAC HE ES   4   2149 34.88                             105   -4.14 0  399 288 
 APAC HZ I        2149 50.91        10.9 0.48            107            399 288 
 SJC  HZ EP   4   2148 56.08                             105   -2.14 0  410 327 
 SJC  HN ES   4   2149 37.79                             105   -3.75 0  410 327 
 SJC  HZ I        2149 41.50        28.0 0.46            106            410 327 
 CRJC HZ EP   4   2149  2.42                             103   -2.75 0  468   3 
 CRJC HN ES   4   2149 48.36                             103   -5.54 0  468   3 
 CRJC HZ I        2149 54.40        15.8 0.48            104            468   3 
                                                                                
