 2014 1216 2341 31.5 L   6.783 -73.158150.7  RSN  4 0.5 1.5LRSN                1
 GAP=136        1.26       5.6     7.2 12.1 -0.4819E+01  0.3003E+02 -0.1976E+02E
 Epicentro: LOS SANTOS - SANTANDER                                             3
 ACTION:UPD 15-02-10 17:04 OP:nd   STATUS:               ID:20141216234131 L   I
 OLDACT:REG 14-12-17 02:40 OP:cam  STATUS:               ID:20141216233816     3
 2014-12-16-2338-16M.COL___293                                                 6
 STAT SP IPHASW D HRMM SECON CODA AMPLIT PERI AZIMU VELO AIN AR TRES W  DIS CAZ7
 PAM  SZ EP     C 2341 55.10                             151    0.6910 79.7  39 
 PAM  SN ES       2342 12.47                             151    0.2210 79.7  39 
 PAM  SZ I        2342 14.37         4.2 0.50            156           79.7  39 
 RUS  HZ EP       2341 55.63                             145   -0.0110 98.8 175 
 RUS  HN ES       2342 13.74                             145   -0.7110 98.8 175 
 RUS  HZ I        2342 15.82         2.7 0.34            150           98.8 175 
 PTB  HZ EP       2341 59.17                             133    0.42 9  146 259 
 PTB  HN ES       2342 20.29                             133    0.31 9  146 259 
 PTB  HZ I        2342 27.48         4.8 0.42            134            146 259 
 SML  HZ EP       2342  7.80                             118   -0.76 8  245 336 
 SML  HN ES       2342 36.88                             118   -0.56 8  245 336 
 SML  HZ I        2342 40.80         4.7 0.10            121            245 336 
                                                                                
