 2017 1016 2331 38.1 L   6.719 -73.117148.0  RSN 13 0.4 2.0LRSN                1
 GAP=125        0.88       3.2     3.3  5.4 -0.1458E+00  0.4400E+00  0.8109E+01E
 Epicentro: JORDAN - SANTANDER                                                 3
 ACTION:UPD 17-11-07 19:32 OP:rebc STATUS:               ID:20171016233138 L   I
 OLDACT:REG 17-10-17 05:41 OP:dnl  STATUS:               ID:20171016232745     3
 2017-10-16-2328-00M.COL___432                                                 6
 STAT SP IPHASW D HRMM SECON CODA AMPLIT PERI AZIMU VELO AIN AR TRES W  DIS CAZ7
 BAR2 EZ EP       2331 57.98                             174    0.1010 15.8 207 
 BAR2 EZ ES       2332 13.10                             174   -0.2010 15.8 207 
 BAR2 EZ I        2332 15.27        15.0 0.22            177           15.8 207 
 BRR  HZ EP       2332  0.08                             151    0.1610 78.5 303 
 BRR  HE ES       2332 17.46                             151    0.5210 78.5 303 
 BRR  HZ I        2332 22.03        12.5 0.30            145           78.5 303 
 PAM  EZ EP       2332  1.20                             150    0.3210 82.6  34 
 PAM  EE ES       2332 18.47                             150   -0.1710 82.6  34 
 PAM  EZ I        2332 21.56         9.4 0.76            141           82.6  34 
 RUS  HZ EP       2332  1.82                             147    0.3710 91.5 178 
 RUS  HZ I        2332 20.94         7.2 0.32            144           91.5 178 
 PTB  HZ EP       2332  4.69                             132   -0.72 9  149 262 
 PTB  HE ES       2332 26.22                             132   -0.49 9  149 262 
 PTB  HZ I        2332 29.85         8.3 0.14            127            149 262 
 ZAR  HZ EP   2   2332 11.14                             122   -0.22 4  211 294 
 ZAR  HE ES       2332 37.18                             122   -0.12 8  211 294 
 ZAR  HZ I        2332 43.20        16.3 0.30            116            211 294 
 NOR  HZ EP       2332 13.66                             119   -0.05 8  232 237 
 NOR  HN ES       2332 41.55                             119    0.07 8  232 237 
 NOR  HZ I        2332 47.01        10.8 0.42            114            232 237 
 CHI  HZ EP       2332 15.62                             118    0.52 8  241 196 
 CHI  HN ES       2332 43.86                             118   -0.09 8  241 196 
 CHI  HZ I        2332 47.71         4.3 0.34            114            241 196 
 GUY2CHZ EP   9   2332 22.78                             113    1.23 0  299 237 
 GUY2CHE ES       2332 57.24                             113    0.58 7  299 237 
 GUY2CHZ I        2333  4.44         7.3 0.56                           299 237 
 PTGC HZ EP       2332 20.76                             113   -0.23 7  299 159 
 PTGC HN ES       2332 53.80                             113   -0.64 7  299 159 
 PTGC HZ I        2332 58.94         9.5 0.48            108            299 159 
 LL6C HZ EP   2   2332 24.38                             110   -0.56 3  334 357 
 LL6C HZ I        2332 54.51         6.5 0.62            105            334 357 
 PRA  HZ EP   2   2332 31.41                             107    0.42 3  386 211 
 PRA  HE ES       2333 12.96                             107    0.72 6  386 211 
 PRA  HZ I        2333 18.86         3.5 0.44            103            386 211 
 SJC  HZ EP   4   2332 33.02                             106   -1.81 0  418 327 
 SJC  HN ES   4   2333 13.80                             106   -5.27 0  418 327 
 SJC  HZ I        2333 22.68         1.2 0.42            101            418 327 
                                                                                
