 2011 1116 2301 46.6 L   6.776 -73.092141.4  RSN  5 0.1 1.5LRSN                1
 GAP=145        0.34       2.6     3.0  3.5 -0.1365E+01  0.5697E+00  0.1395E+01E
 Epicentro: LOS SANTOS - SANTANDER                                             3
 ACTION:UPD 12-07-13 16:10 OP:ep   STATUS:               ID:20111116230146 L   I
 2011-11-16-2300-08S.COL___179                                                 6
 STAT SP IPHASW D HRMM SECON CODA AMPLIT PERI AZIMU VELO AIN AR TRES W  DIS CAZ7
 BAR2 SZ EP       23 2  5.53                             170   -0.1210 22.6 206 
 BAR2 SZ ES   1   23 2 20.48                             170   -0.06 7 22.6 206 
 BAR2 SZ I        23 2 23.90         7.2 0.49                          22.6 206 
 PAM  SZ EP   1   23 2  8.37                             150    0.14 7 76.0  35 
 PAM  SE ES   1   23 2 25.02                             150   -0.11 7 76.0  35 
 BRR  HZ EP       23 2  7.61                             150   -0.0210 77.7 298 
 BRR  HZ I        23 2 12.86        13.8 0.38                          77.7 298 
 BRR  HN ES   1   23 2 24.21                             150    0.15 7 77.7 298 
 RUS  HZ EP   1   23 2  9.77                             144    0.10 7 97.6 179 
 RUS  HE ES   2   23 2 27.89                             144    0.19 5 97.6 179 
 RUS  HZ I        23 2 29.72         2.7 0.46                          97.6 179 
 NOR  SN ES   2   23 2 50.09                             117   -0.26 4  238 236 
                                                                                
