 2013  516 2214  9.0 L   6.757 -73.177151.6  RSN  5 0.3 1.8LRSN                1
 GAP=134        0.55       4.2     4.4  6.6  0.4878E+01 -0.7682E+01 -0.1127E+02E
 Epicentro: VILLANUEVA - SANTANDER                                             3
 ACTION:UPD 13-06-20 09:51 OP:ep   STATUS:               ID:20130516221409 L   I
 2013-05-16-2210-00M.COL___253                                                 6
 STAT SP IPHASW D HRMM SECON CODA AMPLIT PERI AZIMU VELO AIN AR TRES W  DIS CAZ7
 BAR2 SZ EP   1   2214 29.18                             173   -0.04 7 18.3 182 
 BAR2 SZ ES   2   2214 44.79                             173   -0.22 5 18.3 182 
 BRR  HZ EP       2214 30.91                             154    0.1810 70.6 303 
 BRR  HZ I        2214 38.69        19.5 0.44            146           70.6 303 
 BRR  HN ES   1   2214 48.02                             154    0.33 7 70.6 303 
 PAM  SZ EP       2214 31.91                             150   -0.2510 83.3  39 
 RUS  HZ EP   1   2214 33.21                             146    0.21 7 96.2 174 
 RUS  HN ES       2214 51.76                             146    0.0210 96.2 174 
 RUS  HZ I        2214 53.00         7.9 0.30            143           96.2 174 
 PTB  HZ EP   2   2214 36.31                             134    0.26 5  143 260 
 PTB  HN ES   1   2214 56.67                             134   -0.49 7  143 260 
 PTB  HZ I        2215  2.40         4.4 0.24            127            143 260 
                                                                                
