 2017  516 2124  7.8 L   6.805 -73.116141.6  RSN 12 0.4 2.5LRSN                1
 GAP=114        1.28       4.3     4.4  7.8 -0.3979E+00  0.3901E+01  0.1172E+02E
 Epicentro: LOS SANTOS - SANTANDER                                             3
 ACTION:UPD 17-06-16 13:36 OP:jn   STATUS:               ID:20170516212407 L   I
 OLDACT:DUP 17-05-17 06:57 OP:osc  STATUS:               ID:20170516211741d    3
 2017-05-16-2118-00M.COL___356                                                 6
 STAT SP IPHASW D HRMM SECON CODA AMPLIT PERI AZIMU VELO AIN AR TRES W  DIS CAZ7
 BRR  HZ EP       2124 28.44                             151   -0.1910 73.8 297 
 BRR  HE ES       2124 45.19                             151    0.3010 73.8 297 
 BRR  HZ I        2124 50.35        61.6 0.14            153           73.8 297 
 PAM  EZ EP       2124 29.46                             151    0.0610 74.9  38 
 PAM  EN ES       2124 46.08                             151   -0.1810 74.9  38 
 PAM  EZ I        2124 48.42       126.8 0.46            156           74.9  38 
 PTB  HZ EP   9   2124 33.93                             130   -0.79 0  151 259 
 PTB  HN ES       2124 54.51                                   -0.43 9  151 259 
 PTB  HZ I        2124 57.49        29.3 0.22            133            151 259 
 SPBC HZ EP       2124 36.53                             127    0.33 9  166 220 
 SPBC HN ES       2124 57.83                             127   -0.55 9  166 220 
 SPBC HZ I        2125  4.51        31.3 0.11            130            166 220 
 YPLC HZ IP     D 2124 37.30                             126    0.13 9  176 152 
 YPLC HE ES       2125  0.26                             126    0.17 9  176 152 
 YPLC HZ I        2125  3.78        50.4 0.26            129            176 152 
 ZAR  HZ EP       2124 39.99                             121   -0.26 8  207 292 
 ZAR  HN ES       2125  5.44                             121   -0.14 8  207 292 
 ZAR  HZ I        2125  8.12        31.0 0.09            124            207 292 
 TABC EZ EP   9   2124 44.87                             118    1.35 0  232 211 
 TABC EZ ES       2125 14.26                                    1.51 8  232 211 
 TABC EZ I        2125 16.19        29.2 0.40            121            232 211 
 NOR  HZ EP       2124 43.32                             117   -0.28 8  238 235 
 NOR  HE ES       2125 11.47                             117   -0.06 8  238 235 
 NOR  HZ I        2125 12.92        13.2 0.12            120            238 235 
 CHI  HZ EP       2124 45.23                             116   -0.18 8  250 196 
 CHI  HN ES       2125 14.28                             116   -0.48 8  250 196 
 PTGC HN ES   4   2125 23.39                             111   -1.99 0  308 159 
 CBOC HZ EP       2124 55.63                             109    0.73 7  337 252 
 CBOC HE ES       2125 31.96                             109    0.30 7  337 252 
 CBOC HZ I        2125 34.86         6.0 0.30            111            337 252 
 ORTC HZ EP       2125  2.07                             105    0.23 6  398 217 
 ORTC HE ES       2125 45.00                             105    0.99 6  398 217 
 ORTC HZ I        2125 50.23         7.8 0.52            108            398 217 
 SJC  HZ EP   9   2125  1.11                             105   -2.25 0  411 327 
 SJC  HN ES       2125 42.23                                   -2.23 6  411 327 
 SJC  HZ I        2125 46.17        13.4 0.48            108            411 327 
                                                                                
