 2015  116 2235 53.8 L   6.473 -73.367112.7  RSN  5 0.3 1.5LRSN                1
 GAP=116        0.82       3.6     3.5  9.3 -0.9199E+00  0.1627E+02 -0.2637E+01E
 Epicentro: SIMACOTA - SANTANDER                                               3
 ACTION:UPD 15-03-02 15:40 OP:nd   STATUS:               ID:20150116223553 L   I
 OLDACT:UP  15-01-17 06:00 OP:fm   STATUS:               ID:20150116222748     3
 OLDACT:REG 15-01-17 05:14 OP:fm   STATUS:               ID:20150116222748     3
 2015-01-16-2227-48M.COL___265                                                 6
 STAT SP IPHASW D HRMM SECON CODA AMPLIT PERI AZIMU VELO AIN AR TRES W  DIS CAZ7
 RUS  HZ EP       2236 12.40                             146    0.2410 71.4 154 
 RUS  HE ES       2236 26.53                             146    0.0210 71.4 154 
 RUS  HZ I        2236 29.41         4.2 0.24            155           71.4 154 
 PAM  SN ES       2236 33.71                             130   -0.0910  121  38 
 PAM  SZ I        2236 37.07         4.6 0.22            137            121  38 
 PTB  HZ EP       2236 14.90                             129   -0.6910  121 274 
 PTB  HN ES       2236 32.61                             129   -0.0110  121 274 
 PTB  HZ I        2236 38.33         4.9 0.24            132            121 274 
 NOR  HZ EP       2236 23.55                             115    0.29 9  194 239 
 NOR  HN ES       2236 46.19                             115   -0.09 9  194 239 
 NOR  HZ I        2236 54.20         4.6 0.36            120            194 239 
 ZAR  HN ES       2236 47.67                             115    0.44 9  200 304 
 ZAR  HZ I        2236 56.71         4.4 0.40            119            200 304 
                                                                                
