 2014  716 2356  4.2 L   5.963 -73.681129.8  RSN  7 0.3 1.8LRSN                1
 GAP=170        0.82       2.9     3.9  5.5 -0.4211E+01  0.7762E+00  0.2098E+01E
 Epicentro: GUAVATA - SANTANDER                                                3
 ACTION:UPD 15-03-16 20:44 OP:nd   STATUS:               ID:20140716235604 L   I
 OLDACT:UP  14-07-17 05:21 OP:cam  STATUS:               ID:20140716235000     3
 OLDACT:UP  14-07-17 05:21 OP:cam  STATUS:               ID:20140716235000     3
 OLDACT:REG 14-07-17 03:59 OP:cam  STATUS:               ID:20140716235000     3
 2014-07-16-2350-00M.COL___282                                                 6
 STAT SP IPHASW D HRMM SECON CODA AMPLIT PERI AZIMU VELO AIN AR TRES W  DIS CAZ7
 SPBC HZ EP       2356 22.65                             156   -0.2410 55.3 232 
 SPBC HN ES       2356 37.41                             156   -0.0510 55.3 232 
 SPBC HZ I        2356 38.29        12.2 0.20            153           55.3 232 
 BAR2 SZ EP     D 2356 25.34                             144    0.1510 88.8  38 
 BAR2 SZ ES       2356 41.20                             144   -0.3510 88.8  38 
 BAR2 SZ I        2356 42.32        28.9 0.16            146           88.8  38 
 PTB  HZ EP       2356 25.96                             138   -0.3110  107 307 
 PTB  HN ES       2356 43.17                             138   -0.3010  107 307 
 PTB  HZ I        2356 47.90         5.5 0.12            135            107 307 
 BRR  HZ EP       2356 28.35                             133    0.4110  127 358 
 BRR  HE ES       2356 47.08                             133    0.6410  127 358 
 BRR  HZ I        2356 47.97        12.2 0.14            132            127 358 
 NOR  HZ EP       2356 29.08                             130   -0.05 9  139 252 
 NOR  HE ES       2356 49.08                             130    0.52 9  139 252 
 NOR  HZ I        2356 52.56        14.2 0.50            128            139 252 
 GUY2CHZ EP   4   2356 37.84                             119    1.61 0  204 246 
 HEL  HZ EP   4   2356 37.94                             118    1.59 0  206 277 
 ZAR  HZ EP       2356 36.45                             117   -0.22 8  213 323 
 ZAR  HN ES       2357  1.74                             117   -0.25 8  213 323 
 ZAR  HZ I        2357  8.40         4.1 0.42            117            213 323 
 PRA  HZ EP       2356 44.47                             110    0.05 7  282 208 
 PRA  HZ ES       2357 15.76                             110   -0.02 7  282 208 
 PRA  HZ I        2357 21.71         3.4 0.22            111            282 208 
                                                                                
