 2016  116 2151 28.6 L   6.818 -73.136142.4  RSN 19 0.5 2.6LRSN                1
 GAP=137        0.98       2.3     3.4  5.2 -0.1942E+01  0.7906E+01 -0.2542E+00E
 Epicentro: LOS SANTOS - SANTANDER                                             3
 ACTION:UPD 16-03-09 23:25 OP:cam  STATUS:               ID:20160116215128 L   I
 OLDACT:UP  16-02-23 20:52 OP:AR   STATUS:               ID:20160116215128 L   3
 OLDACT:DUP 16-01-17 10:00 OP:ak   STATUS:               ID:20160116214750d    3
 2016-01-16-2147-49M.COL___325                                                 6
 STAT SP IPHASW D HRMM SECON CODA AMPLIT PERI AZIMU VELO AIN AR TRES W  DIS CAZ7
 BAR2 EZ EP       2151 48.01                             169    0.1110 25.5 192 
 BAR2 EZ ES       2152  2.98                             169    0.0510 25.5 192 
 BAR2 EZ I        2152  3.73        45.6 0.24            168           25.5 192 
 PAM  EZ EP       2151 50.87                             151    0.5110 75.2  40 
 PAM  EN ES       2152  7.68                             151    0.3810 75.2  40 
 PAM  EZ I        2152  9.93       122.9 0.46            154           75.2  40 
 RUS  HZ EP       2151 52.08                             143   -0.1210  103 177 
 RUS  HN ES       2152 10.23                             143   -0.3410  103 177 
 RUS  HZ I        2152 11.72        44.4 0.26            145            103 177 
 PTB  HZ EP       2151 55.12                             131   -0.34 9  149 258 
 PTB  HN ES       2152 16.34                             131   -0.04 9  149 258 
 PTB  HZ I        2152 18.18        35.5 0.36            130            149 258 
 OCA  HZ EP       2151 55.84                             129   -0.67 9  158 353 
 OCA  HN ES       2152 17.99                             129   -0.26 9  158 353 
 OCA  HZ I        2152 24.52       125.2 0.44            130            158 353 
 SPBC HZ EP       2151 57.19                             128    0.10 9  165 219 
 SPBC HN ES       2152 18.81                             128   -0.47 9  165 219 
 SPBC HZ I        2152 22.79        49.1 0.22            128            165 219 
 ZAR  HZ EP       2152  1.45                             122    0.56 9  204 292 
 ZAR  HN ES       2152 26.36                             122    0.32 9  204 292 
 ZAR  HZ I        2152 33.11        36.1 0.45            121            204 292 
 NOR  HZ EP       2152  4.42                             117    0.03 8  237 234 
 NOR  HN ES       2152 31.60                             117   -0.68 8  237 234 
 NOR  HZ I        2152 35.47        18.1 0.20            118            237 234 
 SML  HZ EP       2152  4.25                             117   -0.67 8  242 335 
 SML  HE ES       2152 33.34                             117    0.11 8  242 335 
 SML  HZ I        2152 39.84        38.2 0.15            117            242 335 
 CHI  HZ EP   2   2152  6.02                             116   -0.37 4  251 195 
 CHI  HN ES       2152 36.04                             116    0.20 8  251 195 
 ROSC BZ EP   4   2152  4.26                             116   -2.56 0  255 211 
 ROSC BN ES       2152 37.29                             116    0.69 8  255 211 
 ROSC BZ I        2152 42.63        25.0 0.65            117            255 211 
 HEL  HZ EP   2   2152  9.45                             114    0.60 4  274 255 
 HEL  HE ES       2152 40.29                             114    0.08 8  274 255 
 HEL  HZ I        2152 45.08        12.2 0.30            114            274 255 
 URE  HZ EP   4   2152  5.36                             113   -4.21 0  284 291 
 URE  HN ES   4   2152 39.24                             113   -2.26 0  284 291 
 GUY2CHZ EP   2   2152 13.17                             111    0.85 4  303 235 
 GUY2CHN ES       2152 46.70                             111    0.31 7  303 235 
 GUY2CHZ I        2152 54.65        14.6 0.30                           303 235 
 ELA  HZ EP   4   2152 18.67                             109    3.08 0  331 229 
 ELA  HE ES       2152 51.24                             109   -0.97 7  331 229 
 ELA  HZ I        2153  8.03        11.4 0.46            110            331 229 
 CBOC HZ EP       2152 16.12                             109    0.52 7  335 252 
 CBOC HN ES       2152 52.40                             109    0.17 7  335 252 
 CBOC HZ I        2153  3.31         6.0 0.42            110            335 252 
 DBB  SZ EP       2152 15.46                             109   -0.62 7  340 274 
 DBB  SZ ES       2152 53.32                             109    0.23 7  340 274 
 DBB  SZ I        2152 56.52        39.8 0.44            109            340 274 
 ANIL HZ EP       2152 19.36                             108    0.80 6  360 224 
 ANIL HN ES       2152 58.50                             108    0.99 6  360 224 
 ANIL HZ I        2153  4.03        40.5 0.24            108            360 224 
 PRA  HZ EP       2152 21.72                             106   -0.59 6  394 210 
 PRA  HN ES       2153  3.80                             106   -0.37 6  394 210 
 PRA  HZ I        2153 10.63        11.7 0.68            107            394 210 
 SJC  HZ EP   4   2152 22.82                             105   -1.14 0  408 327 
 SJC  HN ES   4   2153  4.25                             105   -2.86 0  408 327 
 SJC  HZ I        2153  7.60        11.8 0.38            106            408 327 
                                                                                
