 2012 1016 2238 37.3 L   6.765 -73.144141.1  RSN  5 0.4 2.0LRSN                1
 GAP=138        0.50       5.7     6.4  7.4 -0.1794E+01  0.1454E+02  0.1278E+02E
 Epicentro: LOS SANTOS - SANTANDER                                             3
 ACTION:UPD 12-11-22 17:04 OP:ep   STATUS:               ID:20121016223837 L   I
 2012-10-16-2230-00M.COL___231                                                 6
 STAT SP IPHASW D HRMM SECON CODA AMPLIT PERI AZIMU VELO AIN AR TRES W  DIS CAZ7
 BAR2 SZ EP       2238 56.25                             172   -0.0910 19.5 192 
 BAR2 SZ ES   2   2239 10.78                             172   -0.38 5 19.5 192 
 BAR2 SZ I        2239 12.62        13.7 0.20                          19.5 192 
 GIR2 SZ EP   3   2238 57.34                             165    0.76 2 35.1 351 
 GIR2 SZ ES   3   2239 12.14                             165    0.56 2 35.1 351 
 BRR  HZ EP       2238 57.98                             151   -0.1310 73.2 301 
 BRR  HE ES   2   2239 14.68                             151    0.37 5 73.2 301 
 BRR  HE I        2239 18.69        32.1 0.14                          73.2 301 
 PAM  SZ EP   3   2238 58.72                             149   -0.53 2 80.3  38 
 PAM  SN ES   1   2239 16.38                             149    0.05 7 80.3  38 
 RUS  HZ EP   2   2239  1.02                             144    0.66 5 96.7 176 
 RUS  HN ES   3   2239 18.03                             144   -0.28 2 96.7 176 
                                                                                
