 2015  216 2351 59.3 L   6.821 -73.176138.9  RSN 13 0.5 2.1LRSN                1
 GAP= 69        1.20       3.1     4.4  6.0 -0.2997E+01  0.4472E+01  0.3091E+01E
 Epicentro: ZAPATOCA - SANTANDER                                               3
 ACTION:UPD 15-04-30 21:26 OP:nd   STATUS:               ID:20150216235159 L   I
 OLDACT:REG 15-02-17 03:01 OP:stll STATUS:               ID:20150216234747     3
 2015-02-16-2347-47M.COL___299                                                 6
 STAT SP IPHASW D HRMM SECON CODA AMPLIT PERI AZIMU VELO AIN AR TRES W  DIS CAZ7
 BAR2 EZ EP   1   2352 18.34                             169    0.18 7 25.3 182 
 BAR2 EZ ES       2352 33.08                             169    0.2210 25.3 182 
 BAR2 EZ I        2352 34.97        18.7 0.14            171           25.3 182 
 BRR  HZ EP       2352 20.07                             153    0.5810 67.1 298 
 BRR  HN ES       2352 35.87                             153    0.6410 67.1 298 
 BRR  HZ I        2352 40.07        15.9 0.22            152           67.1 298 
 PAM  SZ EP       2352 21.50                             149    0.6710 77.9  43 
 PAM  SE ES       2352 36.96                             149   -0.6510 77.9  43 
 PAM  SZ I        2352 40.55        27.3 0.46            152           77.9  43 
 RUS  HZ EP       2352 22.61                             142    0.0210  103 174 
 RUS  HN ES       2352 40.51                             142   -0.2410  103 174 
 RUS  HZ I        2352 42.29        12.9 0.36            145            103 174 
 PTB  HZ EP       2352 25.04                             131   -0.43 9  145 258 
 PTB  HE ES       2352 46.18                             131    0.31 9  145 258 
 PTB  HZ I        2352 48.30        13.7 0.32            132            145 258 
 OCA  HN ES       2352 47.70                             128   -0.62 9  158 354 
 OCA  HN I        2352 56.45        38.3 0.24            130            158 354 
 TAM  HZ EP       2352 26.93                             128    0.10 9  159 105 
 TAM  HZ I        2352 27.13        19.3 0.38            132            159 105 
 SPBC HZ EP       2352 27.55                             127    0.28 9  163 218 
 SPBC HN ES       2352 48.37                             127   -0.70 9  163 218 
 SPBC HZ I        2352 55.74        20.1 0.20            129            163 218 
 NOR  HZ EP       2352 34.88                             117    0.37 8  233 234 
 NOR  HE ES       2353  1.89                             117   -0.06 8  233 234 
 NOR  HZ I        2353  7.11         9.0 0.34            119            233 234 
 SML  HZ EP       2352 34.80                             116   -0.38 8  240 336 
 SML  HE ES       2353  2.70                             116   -0.46 8  240 336 
 SML  HZ I        2353  6.48        12.1 0.10            118            240 336 
 CHI  HZ EP       2352 36.82                             115    0.03 8  250 194 
 CHI  HZ I        2352 37.59         5.5 0.40            118            250 194 
 CHI  HE ES       2353  6.06                             115    0.03 8  250 194 
 GUY2CHZ EP       2352 43.80                             111    1.34 7  300 234 
 GUY2CHE ES       2353 15.43                             111   -0.67 7  300 234 
 GUY2CHZ I        2353 24.33         5.7 0.48                           300 234 
 PRA  HZ EP       2352 51.87                             105   -0.78 6  392 209 
 PRA  HE ES       2353 33.59                             105   -0.66 6  392 209 
 PRA  HZ I        2353 40.94         4.3 0.38            107            392 209 
                                                                                
