 2013  316 2335 56.5 L   6.775 -73.147149.1  RSN  6 0.4 2.1LRSN                1
 GAP=137        1.06       5.5     5.3  8.0 -0.6367E+01 -0.1972E+01 -0.9128E+00E
 Epicentro: LOS SANTOS - SANTANDER                                             3
 ACTION:UPD 13-04-09 14:03 OP:ep   STATUS:               ID:20130316233556 L   I
 2013-03-16-2328-40M.COL___208                                                 6
 STAT SP IPHASW D HRMM SECON CODA AMPLIT PERI AZIMU VELO AIN AR TRES W  DIS CAZ7
 BAR2 SZ EP       2336 16.54                             172    0.0210 20.6 191 
 BAR2 SZ ES   2   2336 31.82                             172   -0.28 5 20.6 191 
 BAR2 SZ I        2336 34.11        21.1 0.20            171           20.6 191 
 BRR  HZ EP       2336 18.52                             153    0.4110 72.4 301 
 BRR  HN ES       2336 35.69                             153    0.7510 72.4 301 
 BRR  HN I        2336 38.36        40.3 0.18            152           72.4 301 
 PAM  SZ EP       2336 19.36                             151    0.1210 79.7  38 
 PAM  SN ES       2336 36.47                             151   -0.4810 79.7  38 
 RUS  HZ EP       2336 20.80                             145    0.3810 97.8 176 
 RUS  HN ES       2336 39.02                             145   -0.0310 97.8 176 
 RUS  HE I        2336 40.16        10.6 0.44            147           97.8 176 
 PTB  HZ EP       2336 23.39                             133   -0.33 9  147 260 
 PTB  HN ES       2336 44.22                             133   -0.70 9  147 260 
 PTB  HN I        2336 49.74        25.4 0.30            133            147 260 
 CAPV BZ EP       2336 24.17                             132   -0.24 9  152  37 
                                                                                
