 2017  316 2127 13.2 L   6.785 -73.028154.0  RSN  4 0.3 1.5LRSN                1
 GAP=153        0.50       3.4     5.0  5.2  0.3078E+01 -0.7959E+00  0.4473E+01E
 Epicentro: CEPITA - SANTANDER                                                 3
 ACTION:UPD 17-05-25 18:41 OP:jn   STATUS:               ID:20170316212713 L   I
 OLDACT:UP  17-03-17 03:20 OP:and  STATUS:               ID:20170316211145     3
 OLDACT:REG 17-03-17 02:32 OP:and  STATUS:               ID:20170316211145     3
 2017-03-16-2118-00M.COL___403                                                 6
 STAT SP IPHASW D HRMM SECON CODA AMPLIT PERI AZIMU VELO AIN AR TRES W  DIS CAZ7
 PAM  EZ EP   2   2127 35.31                             154   -0.67 5 71.2  31 
 PAM  EN ES   2   2127 54.23                             154    0.50 5 71.2  31 
 PAM  EZ I        2127 56.56         4.6 0.41            159           71.2  31 
 BRR  HZ EP   2   2127 36.03                             150    0.06 5 83.5 295 
 BRR  HN ES       2127 53.65                             150   -0.0710 83.5 295 
 RUS  HZ EP       2127 37.77                             146    0.1010 98.9 184 
 RUS  HZ ES       2127 56.62                             146   -0.1310 98.9 184 
 SPBC HZ EP       2127 43.18                             129    0.14 9  170 223 
 SPBC HN ES   2   2128  6.32                             129    0.02 4  170 223 
 SPBC HZ I        2128 12.61         4.8 0.18            131            170 223 
                                                                                
