 2012  316 2224 47.7 L   6.762 -73.144140.0  RSN  9 0.4 1.9LRSN                1
 GAP=138        0.94       3.4     4.6  6.2 -0.9728E+00  0.8215E+01  0.4086E+01E
 ACTION:UP  12-03-31 23:20 OP:EP   STATUS:               ID:20120316222447 L   I
 2012-03-16-2220-00M.COL___202                                                 6
 STAT SP IPHASW D HRMM SECON CODA AMPLIT PERI AZIMU VELO SNR AR TRES W  DIS CAZ7
 BAR2 SZ EP       2225  6.67                             172     0.110   19 193 
 BAR2 SZ I        2225  6.90        17.4 0.18                            19 193 
 BAR2 SZ ES       2225 21.21                             172    -0.110   19 193 
 BRR  HZ EP       2225  8.42                             151     0.010   73 301 
 BRR  HN ES       2225 25.00                             151     0.510   73 301 
 BRR  HZ I        2225 26.15        38.3 0.08                            73 301 
 PAM  SZ EP       2225  9.61                             149     0.110   81  38 
 PAM  SE ES       2225 26.12                             149    -0.410   81  38 
 RUS  HZ EP       2225 10.79                             144     0.210   96 176 
 RUS  HE ES   1   2225 28.24                             144    -0.2 7   96 176 
 RUS  HZ I        2225 31.83         9.7 0.34                            96 176 
 PTB  HZ EP       2225 13.34                             131    -0.8 9  147 260 
 PTB  HE ES   2   2225 34.94                             131     0.1 5  147 260 
 PTB  HZ I        2225 41.65         9.1 0.18                           147 260 
 OCA  SZ ES       2225 38.30                             128     0.3 9  164 353 
 ZAR  HZ EP   1   2225 19.49                             121    -0.5 6  206 293 
 ZAR  HE ES   1   2225 45.06                             121    -0.1 6  206 293 
 ZAR  HZ I        2225 50.88        10.2 0.13                           206 293 
 NOR  SZ EP   1   2225 23.30                             118     0.4 6  232 235 
 NOR  SN ES   1   2225 50.02                             118    -0.3 6  232 235 
 CHI  HZ EP   1   2225 25.09                             116     0.4 6  245 195 
 CHI  HN ES   1   2225 53.84                             116     0.4 6  245 195 
 CHI  HZ I        2225 56.90         3.8 0.37                           245 195 
                                                                                
