 2017 1216 2331 35.8 L   6.791 -73.117142.4  RSN 11 0.5 2.0LRSN                1
 GAP=115        0.93       3.1     3.7  7.4 -0.2007E+01  0.5938E+01  0.5593E+01E
 Epicentro: LOS SANTOS - SANTANDER                                             3
 ACTION:UPD 18-01-04 13:21 OP:rebc STATUS:               ID:20171216233135 L   I
 OLDACT:UP  17-12-17 08:16 OP:mg   STATUS:               ID:20171216232736     3
 OLDACT:UP  17-12-17 08:16 OP:mg   STATUS:               ID:20171216232736     3
 OLDACT:REG 17-12-17 06:22 OP:mg   STATUS:               ID:20171216232736     3
 2017-12-16-2328-00M.COL___473                                                 6
 STAT SP IPHASW D HRMM SECON CODA AMPLIT PERI AZIMU VELO AIN AR TRES W  DIS CAZ7
 BAR2 EZ EP       2331 55.10                             170    0.0510 23.2 198 
 BAR2 EZ ES   2   2332  9.89                             170   -0.15 5 23.2 198 
 BAR2 EZ I        2332 11.39        30.7 0.16            170           23.2 198 
 PAM  EZ EP       2331 58.05                             151    0.4410 76.2  37 
 PAM  EN ES       2332 14.85                             151    0.2510 76.2  37 
 PAM  EZ I        2332 17.38        13.0 0.44            151           76.2  37 
 PTB  HZ EP   2   2332  1.81                             131   -0.98 5  151 259 
 PTB  HN ES       2332 23.02                             131   -0.80 9  151 259 
 PTB  HZ I        2332 28.41         9.0 0.26            130            151 259 
 OCA  HZ EP       2332  3.64                             129   -0.37 9  162 352 
 OCA  HN ES       2332 25.78                             129   -0.20 9  162 352 
 OCA  HZ I        2332 32.90        10.2 0.18            128            162 352 
 SPBC HZ EP       2332  4.08                             128   -0.11 9  164 220 
 SPBC HN ES       2332 26.46                             128    0.15 9  164 220 
 SPBC HZ I        2332 30.99        16.3 0.10            128            164 220 
 YPLC HN ES   1   2332 28.08                             126    0.06 7  174 152 
 YPLC HZ I        2332 30.35        11.2 0.30            127            174 152 
 ZAR  HZ EP   1   2332  8.93                             121    0.54 6  207 292 
 ZAR  HN ES       2332 34.06                             121    0.27 8  207 292 
 ZAR  HZ I        2332 39.74        12.4 0.35            121            207 292 
 GUY2CHN ES       2332 53.99                             111    0.41 7  303 235 
 GUY2CHZ I        2333  1.72         5.2 0.48                           303 235 
 PTGC HZ EP   2   2332 18.35                             111   -0.95 4  307 159 
 PTGC HE ES   2   2332 51.58                             111   -1.64 4  307 159 
 PTGC HZ I        2332 58.20         7.1 0.31            111            307 159 
 PRA  HZ EP       2332 29.69                             106    0.37 6  393 210 
 PRA  HN ES       2333 11.62                             106    0.58 6  393 210 
 PRA  HZ I        2333 18.40         3.4 0.32            106            393 210 
 SJC  HZ EP   9   2332 29.88                             105   -1.70 0  412 327 
 SJC  HE ES   4   2333 11.66                             105   -1.70 0  412 327 
 SJC  HZ I        2333 22.61         1.9 0.77            105            412 327 
                                                                                
