 2011  416 2053 50.7 L   6.713 -73.103136.9  RSN  5 0.2 1.8LRSN                1
 GAP=180        0.49       6.3     6.5  6.3 -0.2198E+02 -0.9642E+00  0.5131E+01E
 Epicentro: JORDAN - SANTANDER                                                 3
 ACTION:UP  11-06-22 15:31 OP:REBC STATUS:               ID:20110416205350 L   I
 2011-04-16-2052-53S.COL___140                                                 6
 STAT SP IPHASW D HRMM SECON CODA AMPLIT PERI AZIMU VELO SNR AR TRES W  DIS CAZ7
 BAR2 SZ EP   1   2054  8.88                             173    -0.3 7   16 213 
 BAR2 SZ ES   2   2054 23.73                             173     0.2 5   16 213 
 BAR2 SZ I        2054 25.62        15.3 0.18                            16 213 
 BRR  HZ EP   1   2054 11.70                             148     0.2 7   80 303 
 BRR  HE ES   2   2054 27.36                             148    -0.3 5   80 303 
 BRR  HZ I        2055 14.16        29.2 0.11                            80 303 
 PAM  SZ EP   1   2054 12.45                             147     0.1 7   82  33 
 PAM  SE ES   2   2054 29.32                             147     0.1 5   82  33 
 PAM  SZ I        2054 31.19         6.5 0.69                            82  33 
 BRI  SZ EP   1   2054 14.20                             137    -0.2 7  116  17 
 BRI  SZ ES   2   2054 33.08                             137     0.2 5  116  17 
 NOR  SZ EP   2   2054 26.20                             117     0.4 4  233 237 
                                                                                
