 2012 1116 2332 16.3 L   6.809 -73.138148.0  RSN 10 0.5 1.8LRSN                1
 GAP=137        0.92       3.7     5.1  6.8  0.4469E-01  0.8585E+01  0.2630E+01E
 Epicentro: LOS SANTOS - SANTANDER                                             3
 ACTION:UPD 12-12-05 15:33 OP:}ep  STATUS:               ID:20121116233216 L   I
 2012-11-16-2330-00M.COL___233                                                 6
 STAT SP IPHASW D HRMM SECON CODA AMPLIT PERI AZIMU VELO AIN AR TRES W  DIS CAZ7
 BAR2 SZ EP   1   2332 36.16                             170   -0.04 7 24.4 192 
 BAR2 SZ ES   1   2332 51.19                             170   -0.54 7 24.4 192 
 BAR2 SZ I        2332 52.34        37.8 0.16                          24.4 192 
 BRR  HZ EP       2332 38.04                             153    0.3510 71.5 298 
 BRR  HN ES   1   2332 55.34                             153    0.96 7 71.5 298 
 BRR  HZ I        2332 55.62        13.4 0.28                          71.5 298 
 PAM  SZ EP   1   2332 39.01                             152    0.36 7 76.1  39 
 PAM  SN ES   1   2332 56.31                             152    0.21 7 76.1  39 
 PAM  SZ I        2332 59.95         4.4 0.20                          76.1  39 
 RUS  HZ EP   1   2332 40.05                             144   -0.26 7  101 177 
 RUS  HN ES   1   2332 58.57                             144   -0.49 7  101 177 
 RUS  HZ I        2332 59.88         7.8 0.32                           101 177 
 PTB  HZ EP   1   2332 42.93                             132   -0.59 7  149 259 
 PTB  HN ES   1   2333  3.98                             132   -0.79 7  149 259 
 PTB  HZ I        2333  7.88         7.8 0.24                           149 259 
 ZAR  HZ EP   2   2332 48.85                             123   -0.07 4  205 292 
 ZAR  HN ES   1   2333 14.69                             123    0.32 6  205 292 
 ZAR  HZ I        2333 21.90         7.3 0.12                           205 292 
 NOR  HN ES   1   2333 20.40                             119    0.05 6  236 234 
 SML  HZ EP   1   2332 52.70                             118   -0.28 6  243 335 
 SML  HN ES   1   2333 20.98                             118   -0.62 6  243 335 
 CHI  HZ EP   1   2332 54.16                             117   -0.07 6  250 195 
 CHI  HE ES   1   2333 24.58                             117    0.76 6  250 195 
 CHI  HZ I        2333 28.93         3.2 0.22                           250 195 
 PRA  HZ EP   1   2333  9.83                             107   -0.19 4  393 210 
 PRA  HN ES   1   2333 52.92                             107    0.98 4  393 210 
 PRA  HZ I        2333 58.86         3.5 0.22                           393 210 
                                                                                
