 2011  416 2324 46.9 L   6.720 -73.105142.9  RSN  7 0.3 2.2LRSN                1
 GAP=120        0.59       3.5     3.8  5.0 -0.8464E+00  0.3548E+01  0.4256E+01E
 Epicentro: JORDAN - SANTANDER                                                 3
 ACTION:UP  11-06-22 15:31 OP:REBC STATUS:               ID:20110416232446 L   I
 2011-04-16-2320-00M.COL___141                                                 6
 STAT SP IPHASW D HRMM SECON CODA AMPLIT PERI AZIMU VELO SNR AR TRES W  DIS CAZ7
 BAR2 SZ EP   1   2325  6.13                             173     0.0 7   17 211 
 BAR2 SZ ES   1   2325 20.77                             173    -0.3 7   17 211 
 BAR2 SZ I        2325 22.88        62.2 0.21                            17 211 
 BRR  HZ EP   1   2325  7.74                             149    -0.5 7   80 303 
 BRR  HN ES   1   2325 25.30                             149     0.4 7   80 303 
 BRR  HZ I        2325 26.21        37.5 0.12                            80 303 
 PAM  SZ EP   1   2325  9.10                             149     0.0 7   82  33 
 PAM  SE ES   1   2325 26.37                             149     0.0 7   82  33 
 PAM  SZ I        2325 28.29        19.6 0.45                            82  33 
 YOP  SZ EP   1   2325 15.73                             127    -0.1 7  169 153 
 YOP  SN ES   2   2325 38.87                             127     0.6 5  169 153 
 YOP  SZ I        2325 44.76        13.8 0.40                           169 153 
 OCA  SZ EP   1   2325 16.29                             127     0.4 7  170 352 
 OCA  SZ ES   2   2325 38.45                             127    -0.1 5  170 352 
 OCA  SZ I        2325 42.31        25.1 0.19                           170 352 
 NOR  SZ EP   1   2325 22.15                             118    -0.2 6  233 237 
 NOR  SE ES   2   2325 50.05                             118     0.1 4  233 237 
 HEL  HZ EP   1   2325 27.40                             114     0.1 6  274 258 
 HEL  HE ES   2   2325 58.82                             114     0.1 4  274 258 
                                                                                
