 2013  416 2256 44.1 L   6.805 -73.189127.1  RSN  5 0.4 1.1LRSN                1
 GAP=131        0.66       3.7     4.3 10.0 -0.5741E+01  0.1620E+02 -0.9304E+01E
 Epicentro: ZAPATOCA - SANTANDER                                               3
 ACTION:UPD 13-05-22 14:38 OP:EP   STATUS:               ID:20130416225644 L   I
 2013-04-16-2250-00M.COL___250                                                 6
 STAT SP IPHASW D HRMM SECON CODA AMPLIT PERI AZIMU VELO AIN AR TRES W  DIS CAZ7
 PAM  SZ EP       2257  4.55                             146    0.0510 80.1  42 
 PAM  SN ES   1   2257 20.75                             146    0.29 7 80.1  42 
 PAM  SZ I        2257 21.64         2.3 0.44            151           80.1  42 
 RUS  HZ EP   1   2257  6.12                             139    0.02 7  102 173 
 RUS  HN ES       2257 22.96                             139   -0.3410  102 173 
 RUS  HZ I        2257 25.62         2.0 0.34            143            102 173 
 PTB  HN ES   1   2257 28.84                             128    0.16 7  143 258 
 PTB  HZ I        2257 32.37         2.0 0.22            131            143 258 
 NOR  HN ES   1   2257 45.63                             115    0.48 6  231 234 
 SML  HE ES   2   2257 46.12                             113   -0.89 4  241 336 
                                                                                
