 2017  316 2056  5.6 L   6.491 -73.739108.0  RSN  6 0.4 1.1LRSN                1
 GAP= 98        0.81       5.1     4.1  6.3 -0.1007E+02  0.2405E+01  0.3265E+01E
 Epicentro: SANTA HELENA DEL OPON - SANTANDER                                  3
 ACTION:UPD 17-05-25 18:41 OP:jn   STATUS:               ID:20170316205605 L   I
 OLDACT:UP  17-03-17 03:02 OP:and  STATUS:               ID:20170316204743     3
 OLDACT:UP  17-03-17 03:02 OP:and  STATUS:               ID:20170316204743     3
 OLDACT:REG 17-03-17 02:31 OP:and  STATUS:               ID:20170316204743     3
 2017-03-16-2048-00M.COL___409                                                 6
 STAT SP IPHASW D HRMM SECON CODA AMPLIT PERI AZIMU VELO AIN AR TRES W  DIS CAZ7
 BAR2 EZ ES       2056 36.22                             148    0.4610 62.5  80 
 BRR  HZ EP       2056 22.58                             145    0.0210 68.2   2 
 BRR  HE ES   2   2056 34.93                             145   -0.90 5 68.2   2 
 PTB  HZ EP   9   2056 21.75                             141   -1.67 0 79.5 274 
 PTB  HN ES       2056 35.67                             139   -0.0210 79.5 274 
 PTB  HZ I        2056 38.31         2.2 0.10            139           79.5 274 
 RUS  HZ EP       2056 25.06                             135   -0.5510 98.2 132 
 RUS  HN ES   2   2056 41.26                             135    0.01 5 98.2 132 
 PAM  EZ EP       2056 30.46                             122    0.04 9  148  51 
 NOR  HZ EP       2056 31.57                             119    0.30 9  162 231 
 NOR  HE ES       2056 51.33                             119    0.00 9  162 231 
 NOR  HZ I        2056 56.62         2.8 0.30            118            162 231 
                                                                                
