 2011 1016 2340 37.5 L   6.780 -73.173142.8  RSN  7 0.3 2.1LRSN                1
 GAP=134        0.72       3.7     4.7  7.2 -0.1856E+01  0.1710E+02 -0.4858E+01E
 Epicentro: LOS SANTOS - SANTANDER                                             3
 ACTION:UPD 12-07-13 16:04 OP:ep   STATUS:               ID:20111016234037 L   I
 2011-10-16-2338-24S.COL___168                                                 6
 STAT SP IPHASW D HRMM SECON CODA AMPLIT PERI AZIMU VELO AIN AR TRES W  DIS CAZ7
 BAR2 SZ EP   1   2340 56.59                             171   -0.09 7 20.8 183 
 BAR2 SZ ES   1   2341 11.93                             171    0.26 7 20.8 183 
 BAR2 SZ I        2341 13.76        43.3 0.20                          20.8 183 
 BRR  HZ IP     C 2340 58.86                             152    0.6610 69.7 301 
 BRR  HZ I        2340 59.23        53.3 0.11                          69.7 301 
 PAM  SZ EP   1   2340 59.83                             149    0.25 7 81.0  40 
 PAM  SN ES   1   2341 16.74                             149   -0.10 7 81.0  40 
 PAM  SZ I        2341 21.91        10.0 0.46                          81.0  40 
 RUS  HZ EP   1   2341  0.56                             144   -0.22 7 98.6 174 
 RUS  HN ES   1   2341 18.54                             144   -0.42 7 98.6 174 
 RUS  HZ I        2341 20.88        17.0 0.20                          98.6 174 
 OCA  SZ EP   1   2341  5.38                             128   -0.34 7  162 354 
 OCA  SZ ES   1   2341 27.47                             128   -0.29 7  162 354 
 OCA  SZ I        2341 37.86        14.1 0.21                           162 354 
 ZAR  HZ EP   1   2341  9.12                             122   -0.39 6  202 293 
 ZAR  HN ES   1   2341 34.24                             122   -0.27 6  202 293 
 ZAR  HZ I        2341 40.85        12.9 0.24                           202 293 
 HEL  HZ EP   1   2341 17.49                             114    0.35 6  269 256 
 HEL  HN ES   1   2341 48.02                             114   -0.07 6  269 256 
                                                                                
