 2013  716 2359 25.1 L   6.788 -73.156140.2  RSN 10 0.4 2.3LRSN                1
 GAP=136        0.99       3.2     4.0  5.8 -0.2033E+01  0.3864E+01 -0.2239E+01E
 Epicentro: LOS SANTOS - SANTANDER                                             3
 ACTION:UPD 13-08-12 10:38 OP:ep   STATUS:               ID:20130716235925 L   I
 OLDACT:DUP 13-07-17 01:58 OP:stll STATUS:               ID:20130716234852d    3
 2013-07-16-2348-51M.COL___225                                                 6
 STAT SP IPHASW D HRMM SECON CODA AMPLIT PERI AZIMU VELO AIN AR TRES W  DIS CAZ7
 BAR2 SZ EP       2359 44.24                             171    0.1810 21.8 188 
 BAR2 SZ ES       2359 58.39                             171   -0.4410 21.8 188 
 BAR2 SZ I        24 0  1.25        24.6 0.22            171           21.8 188 
 GIR2 SZ EP       2359 44.46                             166    0.2810 32.4 353 
 BRR  HZ EP       2359 46.26                             152    0.6010 70.8 300 
 BRR  HN ES       24 0  2.05                             152    0.3710 70.8 300 
 BRR  HN I        24 0  7.95        39.0 0.14            150           70.8 300 
 PAM  SN ES       24 0  4.08                             149    0.2610 79.1  40 
 RUS  HZ EP       2359 47.91                             143   -0.3410 99.3 175 
 RUS  HN ES       24 0  6.51                             143    0.2310 99.3 175 
 RUS  HN I        24 0  8.29        27.1 0.28            147           99.3 175 
 PTB  HZ EP       2359 51.73                             131    0.21 9  146 259 
 PTB  HN ES       24 0 11.64                             131   -0.47 9  146 259 
 CAPV BZ EP       2359 52.08                             130   -0.16 9  151  38 
 SPBC HZ EP       2359 53.06                             128    0.02 9  161 219 
 SPBC HN ES       24 0 14.55                             128   -0.26 9  161 219 
 OCA  HZ EP       2359 52.33                             128   -0.80 9  161 354 
 OCA  HE ES       24 0 14.65                             128   -0.32 9  161 354 
 ZAR  HZ EP       2359 57.75                             121    0.59 9  203 293 
 ZAR  HE ES       24 0 22.05                             121   -0.10 9  203 293 
 ZAR  HE I        24 0 30.89        45.4 0.20            122            203 293 
                                                                                
