 2016  216 2124 11.5 L   6.507 -73.607 96.0  RSN  5 0.4 1.3LRSN                1
 GAP=130        0.59       7.8     5.3  9.4  0.1933E+02  0.3488E+02  0.2833E+02E
 Epicentro: SANTA HELENA DEL OPON - SANTANDER                                  3
 ACTION:UPD 16-03-04 21:26 OP:rebc STATUS:               ID:20160216212411 L   I
 OLDACT:REG 16-02-17 03:30 OP:dnl  STATUS:               ID:20160216211750     3
 2016-02-16-2117-50M.COL___322                                                 6
 STAT SP IPHASW D HRMM SECON CODA AMPLIT PERI AZIMU VELO AIN AR TRES W  DIS CAZ7
 BAR2 EZ EP   2   2124 26.04                             152   -0.30 5 47.9  79 
 BAR2 EZ ES       2124 37.95                             152    0.0710 47.9  79 
 RUS  HZ EP   3   2124 30.01                             135    0.21 2 89.4 140 
 RUS  HE ES   3   2124 43.58                             135   -0.46 2 89.4 140 
 RUS  HZ I        2124 46.55         3.9 0.40            125           89.4 140 
 PTB  HZ EP   2   2124 28.66                             132   -0.91 5 94.0 272 
 PTB  HN ES   2   2124 44.03                             132    0.40 5 94.0 272 
 PTB  HZ I        2124 45.80         5.6 0.06            123           94.0 272 
 ZAR  HZ EP   2   2124 38.72                             115    0.61 4  176 308 
 ZAR  HN ES   2   2124 58.64                             115   -0.19 4  176 308 
 ZAR  HZ I        2125  3.83         6.1 0.18            109            176 308 
 CHI  HZ EP   2   2124 42.62                             111    0.33 4  208 184 
 CHI  HN ES   4   2125  7.13                             111    0.86 0  208 184 
 CHI  HZ I        2125 14.38         1.2 0.34            104            208 184 
                                                                                
