 2013 1116 2253 14.3 L   6.755 -73.141148.3  RSN  4 0.4 1.1LRSN                1
 GAP=235        0.91       9.9    10.2  8.7  0.7074E+02  0.3234E+02  0.2995E+02E
 Epicentro: LOS SANTOS - SANTANDER                                             3
 ACTION:UPD 14-01-09 16:28 OP:ep   STATUS:               ID:20131116225314 L   I
 OLDACT:REG 13-11-16 21:37 OP:j    STATUS:               ID:20131116225000     3
 2013-11-16-2250-00M.COL___279                                                 6
 STAT SP IPHASW D HRMM SECON CODA AMPLIT PERI AZIMU VELO AIN AR TRES W  DIS CAZ7
 BAR2 SZ ES       2253 49.53                             173   -0.1410 18.6 194 
 BRR  HN ES       2253 52.89                             152    0.1210 74.2 302 
 RUS  HZ EP       2253 38.52                             146    0.5310 95.6 176 
 RUS  HN ES       2253 56.22                             146   -0.2210 95.6 176 
 RUS  HZ I        2253 58.78         1.7 0.28            143           95.6 176 
 PTB  HZ EP       2253 40.92                             133   -0.56 9  147 261 
 PTB  HN ES   1   2254  3.07                             133    0.41 7  147 261 
 PTB  HZ I        2254  5.08         2.3 0.16            131            147 261 
                                                                                
