 2012 1016 2156 22.9 L   6.763 -73.086140.0  RSN  5 0.3 1.5LRSN                1
 GAP=146        0.57       3.8     6.0  6.0  0.2736E+01 -0.7221E+01  0.4944E+00E
 Epicentro: LOS SANTOS - SANTANDER                                             3
 ACTION:UPD 12-11-22 17:04 OP:ep   STATUS:               ID:20121016215622 L   I
 2012-10-16-2150-00M.COL___231                                                 6
 STAT SP IPHASW D HRMM SECON CODA AMPLIT PERI AZIMU VELO AIN AR TRES W  DIS CAZ7
 BAR2 SZ EP       2156 41.88                             171    0.0810 21.7 209 
 BAR2 SZ ES   2   2156 56.66                             171    0.11 5 21.7 209 
 BAR2 SZ I        2156 58.27        17.4 0.18                          21.7 209 
 GIR2 SZ ES   2   2156 57.23                             165    0.23 5 36.9 341 
 PAM  SZ EP       2156 44.78                             150    0.3210 76.7  34 
 PAM  SN ES   2   2157  0.69                             150   -0.59 5 76.7  34 
 PAM  SZ I        2157  3.75         5.8 0.52                          76.7  34 
 BRR  HZ EP       2156 43.55                             149   -0.3510 79.0 299 
 BRR  HN ES   1   2157  0.40                             149    0.12 7 79.0 299 
 RUS  HZ EP       2156 45.69                             144   -0.0810 96.2 180 
 RUS  HZ I        2156 46.65         2.2 0.10                          96.2 180 
 RUS  HN ES   1   2157  3.67                             144    0.06 7 96.2 180 
                                                                                
