 2012  816 2009 46.1 L   6.780 -73.163146.5  RSN  8 0.3 1.7LRSN                1
 GAP=135        0.58       3.3     3.8  5.2  0.2115E+01  0.2080E+01 -0.2781E+00E
 Epicentro: LOS SANTOS - SANTANDER                                             3
 ACTION:UPD 12-09-10 11:56 OP:ep   STATUS:               ID:20120816200946 L   I
 2012-08-16-2008-59S.COL___216                                                 6
 STAT SP IPHASW D HRMM SECON CODA AMPLIT PERI AZIMU VELO AIN AR TRES W  DIS CAZ7
 BAR2 SZ EP   1   2010  5.88                             172    0.08 7 20.8 186 
 BAR2 SZ ES   1   2010 20.86                             172   -0.29 7 20.8 186 
 BAR2 SZ I        2010 22.31        19.4 0.19                          20.8 186 
 GIR2 SZ ES   1   2010 21.50                             166    0.09 7 33.3 354 
 BRR  HZ EP   1   2010  7.76                             153    0.43 7 70.7 301 
 BRR  HN ES   1   2010 24.36                             153    0.49 7 70.7 301 
 BRR  HZ I        2010 26.48        13.8 0.18                          70.7 301 
 PAM  SZ EP   1   2010  8.74                             150    0.14 7 80.3  40 
 RUS  HZ EP   1   2010  9.90                             145    0.09 7 98.5 175 
 RUS  HZ I        2010 11.07         7.3 0.14                          98.5 175 
 RUS  HN ES   1   2010 28.10                             145   -0.17 7 98.5 175 
 PTB  HZ EP   1   2010 12.67                             133   -0.29 7  145 260 
 PTB  HN ES   1   2010 33.73                             133   -0.15 7  145 260 
 PTB  HZ I        2010 35.93         3.8 0.17                           145 260 
 OCA  HN ES   1   2010 36.47                             129   -0.50 7  162 354 
 ZAR  HN ES   1   2010 43.74                             123   -0.07 6  203 293 
                                                                                
