 2014 1216 2250 23.7 L   6.807 -73.146146.8  RSN  5 0.5 1.5LRSN                1
 GAP=136        1.09       4.6     5.2 10.3  0.1066E+00  0.1670E+02 -0.1164E+02E
 Epicentro: LOS SANTOS - SANTANDER                                             3
 ACTION:UPD 15-02-10 17:04 OP:nd   STATUS:               ID:20141216225023 L   I
 OLDACT:REG 14-12-17 02:38 OP:cam  STATUS:               ID:20141216224814     3
 2014-12-16-2248-14M.COL___293                                                 6
 STAT SP IPHASW D HRMM SECON CODA AMPLIT PERI AZIMU VELO AIN AR TRES W  DIS CAZ7
 PAM  SZ EP       2250 46.39                             151    0.4410 76.8  40 
 PAM  SN ES       2251  3.38                             151    0.0510 76.8  40 
 PAM  SZ I        2251  5.88         3.9 0.62            153           76.8  40 
 RUS  HZ EP       2250 47.54                             144   -0.0310  101 176 
 RUS  HN ES       2251  6.00                             144   -0.2110  101 176 
 RUS  HZ I        2251  7.14         3.4 0.30            147            101 176 
 PTB  HZ EP       2250 51.11                             132    0.39 9  148 259 
 PTB  HN ES       2251 11.31                             132   -0.52 9  148 259 
 PTB  HZ I        2251 15.26         2.8 0.16            134            148 259 
 ZAR  HN ES       2251 22.28                             122    0.80 9  204 292 
 SML  HZ EP       2250 59.62                             118   -0.64 8  243 335 
 SML  HN ES       2251 28.33                             118   -0.49 8  243 335 
 SML  HZ I        2251 31.39         5.0 0.10            120            243 335 
                                                                                
