 2017 1016 2109 19.5 L   6.796 -73.091144.7  RSN  4 0.3 1.3LRSN                1
 GAP=144        0.74       4.0     5.8  6.2 -0.6469E+00 -0.2456E+01  0.7713E+00E
 Epicentro: LOS SANTOS - SANTANDER                                             3
 ACTION:UPD 17-11-07 19:32 OP:rebc STATUS:               ID:20171016210919 L   I
 OLDACT:REG 17-10-17 05:34 OP:dnl  STATUS:               ID:20171016210738     3
 2017-10-16-2108-00M.COL___440                                                 6
 STAT SP IPHASW D HRMM SECON CODA AMPLIT PERI AZIMU VELO AIN AR TRES W  DIS CAZ7
 BAR2 EZ EP   2   21 9 38.71                             170   -0.31 5 24.7 204 
 BAR2 EZ ES       21 9 53.76                             170   -0.4910 24.7 204 
 BAR2 EZ I        21 9 54.69         6.5 0.20            170           24.7 204 
 PAM  EZ EP       21 9 41.49                             152    0.1010 74.0  36 
 PAM  EN ES       21 9 58.55                             152    0.0810 74.0  36 
 PAM  EZ I        2110  0.49         3.8 0.58            154           74.0  36 
 BRR  HZ EP       21 9 40.51                             150   -0.3310 76.7 297 
 BRR  HE ES       21 9 57.85                             150    0.3510 76.7 297 
 BRR  HZ I        2110  1.79         4.2 0.32            150           76.7 297 
 RUS  HZ EP       21 9 43.21                             144    0.1310 99.9 179 
 RUS  HE ES       2110  1.73                             144    0.2410 99.9 179 
 RUS  HZ I        2110  3.34         2.2 0.14            146           99.9 179 
                                                                                
