 2015 1116 2034 34.1 L   6.334 -73.543115.2  RSN 11 0.4 1.7LRSN                1
 GAP= 79        0.89       2.4     3.2  6.5 -0.3102E+01  0.1175E+02 -0.5706E+01E
 Epicentro: SANTA HELENA DEL OPON - SANTANDER                                  3
 ACTION:UPD 15-12-28 16:11 OP:cam  STATUS:               ID:20151116203434 L   I
 OLDACT:REG 15-11-17 02:51 OP:cara STATUS:               ID:20151116202748     3
 2015-11-16-2027-48M.COL___319                                                 6
 STAT SP IPHASW D HRMM SECON CODA AMPLIT PERI AZIMU VELO AIN AR TRES W  DIS CAZ7
 BAR2 EZ EP       2034 51.49                             155    0.4210 49.0  54 
 BAR2 EZ ES       2035  3.85                             155   -0.4510 49.0  54 
 BAR2 EZ I        2035  6.09        16.3 0.46            157           49.0  54 
 RUS  HZ EP       2034 52.80                             147    0.0910 70.5 134 
 RUS  HE ES       2035  7.81                             147    0.6010 70.5 134 
 RUS  HZ I        2035  8.44         5.9 0.16            149           70.5 134 
 SPBC HZ EP       2034 53.74                             137   -0.2910 95.5 218 
 SPBC HN ES       2035  9.00                             137   -0.5610 95.5 218 
 SPBC HZ I        2035 11.62        14.8 0.22            139           95.5 218 
 PAM  EN ES       2035 18.46                             125   -0.19 9  145  40 
 NOR  HZ EP       2035  0.94                             120   -0.18 9  170 240 
 NOR  HN ES       2035 22.01                             120   -0.17 9  170 240 
 NOR  HZ I        2035 23.23         8.7 0.16            121            170 240 
 CHI  HE ES       2035 26.87                             117    0.07 9  190 186 
 CHI  HZ I        2035 31.05         1.9 0.60            118            190 186 
 ZAR  HZ IP     C 2035  3.49                             116   -0.15 9  194 311 
 ZAR  HE ES       2035 27.23                             116    0.56 9  194 311 
 ZAR  HZ I        2035 30.52         9.2 0.46            117            194 311 
 OCA  HE ES       2035 30.90                             114    0.29 8  212   7 
 HEL  HN ES       2035 33.02                             113    0.27 8  220 266 
 GUY2CHZ EP       2035  9.06                             111    0.08 8  236 239 
 GUY2CHN ES       2035 36.56                             111    0.38 8  236 239 
 GUY2CHZ I        2035 43.42         3.6 0.32                           236 239 
 SML  HZ EP       2035 12.80                             107   -0.51 7  279 348 
 SML  HE ES       2035 43.63                             107   -0.24 7  279 348 
 SML  HZ I        2035 50.08         5.5 0.22            108            279 348 
                                                                                
