 2013  816 2157 23.4 L   7.365 -73.200132.0  RSN  5 0.4 1.7LRSN                1
 GAP=178        0.95      10.2     6.2  9.8  0.1220E+02  0.1568E+02 -0.1340E+02E
 Epicentro: RIONEGRO - SANTANDER                                               3
 ACTION:UPD 14-01-14 09:03 OP:ep   STATUS:               ID:20130816215723 L   I
 OLDACT:REG 13-08-17 03:24 OP:carl STATUS:               ID:20130816215001d    3
 2013-08-16-2150-00M.COL___268                                                 6
 STAT SP IPHASW D HRMM SECON CODA AMPLIT PERI AZIMU VELO AIN AR TRES W  DIS CAZ7
 PAM  SZ EP   1   2157 43.29                             156    0.39 7 55.4  93 
 PAM  SN ES   1   2157 58.14                             156    0.02 7 55.4  93 
 PAM  SZ I        2158  0.70         8.3 0.78            159           55.4  93 
 BRR  HZ EP       2157 41.76                             153   -0.8510 63.3 243 
 BRR  HN ES   1   2157 57.98                             153    0.38 7 63.3 243 
 BRR  HN I        2157 58.70        19.4 0.14            155           63.3 243 
 BAR2 SZ ES   1   2158  0.74                             145    0.04 7 85.5 179 
 RUS  HZ EP   1   2157 51.66                             126    0.24 7  163 175 
 ZAR  HZ EP   1   2157 53.23                             122    0.40 7  184 274 
 ZAR  HN ES   1   2158 16.00                             122    0.22 7  184 274 
 ZAR  HZ I        2158 19.70         4.7 0.28            124            184 274 
                                                                                
