 2014  116 2040 48.5 L   6.781 -73.166143.8  RSN  6 0.4 1.6LRSN                1
 GAP=135        1.06       5.1     4.6  9.9 -0.1963E+01  0.1303E+02  0.8896E+01E
 Epicentro: LOS SANTOS - SANTANDER                                             3
 ACTION:UPD 14-03-13 09:55 OP:ep   STATUS:               ID:20140116204048 L   I
 OLDACT:REG 14-01-16 21:04 OP:jn   STATUS:               ID:20140116204000     3
 2014-01-16-2040-00M.COL___285                                                 6
 STAT SP IPHASW D HRMM SECON CODA AMPLIT PERI AZIMU VELO AIN AR TRES W  DIS CAZ7
 PAM  SZ EP       2041 10.77                             149    0.0310 80.4  40 
 PAM  SN ES       2041 27.89                             149   -0.1610 80.4  40 
 PAM  SZ I        2041 29.32         7.2 0.40             47           80.4  40 
 RUS  HZ EP       2041 11.80                             144   -0.1610 98.7 175 
 RUS  HN ES       2041 30.66                             144    0.4310 98.7 175 
 RUS  HZ I        2041 32.23         4.7 0.42             47           98.7 175 
 PTB  HZ EP       2041 14.83                             132   -0.28 9  145 259 
 PTB  HN ES       2041 35.05                             132   -0.79 9  145 259 
 PTB  HZ I        2041 37.71         6.2 0.32             47            145 259 
 ZAR  HN ES       2041 46.69                             122    0.86 9  203 293 
 NOR  HE ES       2041 51.52                             118    0.16 8  232 235 
 NOR  HZ I        2041 57.05         5.0 0.26             37            232 235 
 CHI  HZ EP       2041 25.96                             117    0.11 8  246 195 
 CHI  HZ I        2042  0.35         1.8 0.39             37            246 195 
                                                                                
