 2016  716 2054 43.6 L   6.794 -73.182140.3  RSN 10 0.3 1.8LRSN                1
 GAP=132        0.66       2.3     2.4  3.7 -0.2838E+00  0.2797E+01  0.1445E+01E
 Epicentro: LOS SANTOS - SANTANDER                                             3
 ACTION:UPD 17-03-29 16:52 OP:lp   STATUS:               ID:20160716205443 L   I
 OLDACT:DUP 16-07-17 03:09 OP:edw  STATUS:               ID:20160716204760d    3
 2016-07-16-2047-59S.COL___322                                                 6
 STAT SP IPHASW D HRMM SECON CODA AMPLIT PERI AZIMU VELO AIN AR TRES W  DIS CAZ7
 BAR2 EZ EP       2055  2.39                             171   -0.1310 22.3 180 
 BAR2 EZ ES       2055 17.47                             171    0.1710 22.3 180 
 BAR2 EZ I        2055 18.70        23.1 0.20            168           22.3 180 
 BRR  HZ EP       2055  4.23                             153    0.2810 68.1 301 
 BRR  HN ES       2055 20.13                             153    0.2810 68.1 301 
 PAM  EZ EP       2055  5.33                             149   -0.0710 80.5  41 
 PAM  EN ES       2055 22.24                             149   -0.1910 80.5  41 
 PAM  EZ I        2055 22.84         9.1 0.34            153           80.5  41 
 RUS  HZ EP       2055  6.83                             143    0.0710  100 174 
 RUS  HE ES       2055 24.95                             143    0.1010  100 174 
 RUS  HZ I        2055 26.04         8.2 0.32            143            100 174 
 PTB  HZ EP       2055  9.30                             132   -0.42 9  144 259 
 PTB  HN ES       2055 29.38                             132   -0.74 9  144 259 
 PTB  HZ I        2055 32.93         7.6 0.32            130            144 259 
 SPBC HZ EP       2055 11.20                             128   -0.16 9  160 218 
 SPBC HN ES       2055 33.05                             128    0.01 9  160 218 
 SPBC HZ I        2055 34.96        18.1 0.10            128            160 218 
 ZAR  HZ EP       2055 15.52                             122    0.21 9  201 293 
 ZAR  HE ES       2055 40.14                             122    0.08 9  201 293 
 ZAR  HZ I        2055 46.27         8.7 0.32            122            201 293 
 NOR  HZ EP       2055 18.95                             118    0.36 8  231 234 
 NOR  HN ES       2055 46.16                             118    0.25 8  231 234 
 NOR  HZ I        2055 50.41         6.1 0.34            118            231 234 
 CHI  HZ EP       2055 20.73                             116   -0.06 8  247 194 
 CHI  HN ES       2055 49.77                             116   -0.05 8  247 194 
 CHI  HZ I        2055 57.74         2.0 0.17            116            247 194 
 HEL  HZ EP       2055 23.03                             114   -0.03 8  268 256 
 HEL  HE ES       2055 54.07                             114    0.21 8  268 256 
 HEL  HZ I        2056  0.63         3.9 0.44            114            268 256 
                                                                                
