 2017 1216 2045 55.2 L   6.813 -73.166143.4  RSN 20 0.7 2.6LRSN                1
 GAP= 64        1.08       2.8     2.8  6.1 -0.1888E+00  0.3694E+01  0.1733E+01E
 Epicentro: LOS SANTOS - SANTANDER                                             3
 ACTION:UPD 18-01-04 13:21 OP:rebc STATUS:               ID:20171216204555 L   I
 OLDACT:UP  17-12-17 07:13 OP:mg   STATUS:               ID:20171216203337     3
 OLDACT:REG 17-12-17 06:06 OP:mg   STATUS:               ID:20171216203337     3
 2017-12-16-2038-00M.COL___473                                                 6
 STAT SP IPHASW D HRMM SECON CODA AMPLIT PERI AZIMU VELO AIN AR TRES W  DIS CAZ7
 BAR2 EZ EP       2046 14.71                             170    0.1710 24.5 184 
 BAR2 EZ ES   2   2046 29.44                             170   -0.21 5 24.5 184 
 BAR2 EZ I        2046 30.35        97.8 0.26            169           24.5 184 
 PAM  EZ EP       2046 17.60                             150    0.4410 77.8  41 
 PAM  EN ES       2046 34.37                             150    0.0610 77.8  41 
 PAM  EZ I        2046 36.64       152.1 0.46            155           77.8  41 
 PTB  HZ EP       2046 21.45                             132   -0.32 9  146 258 
 PTB  HN ES       2046 41.96                             132   -0.55 9  146 258 
 PTB  HZ I        2046 49.86        29.2 0.35            133            146 258 
 TAM  HZ EP       2046 23.08                             129    0.18 9  158 105 
 TAM  HN ES       2046 44.26                             129   -0.27 9  158 105 
 TAM  HZ I        2046 47.28        15.4 0.23            133            158 105 
 OCA  HZ EP       2046 23.09                             129   -0.05 9  159 354 
 OCA  HN ES       2046 44.72                             129   -0.23 9  159 354 
 OCA  HZ I        2046 49.89       132.3 0.16            132            159 354 
 SPBC HZ EP   1   2046 23.65                             129    0.19 7  163 218 
 SPBC HE ES   1   2046 45.91                             129    0.39 7  163 218 
 SPBC HZ I        2046 50.88        37.0 0.09            130            163 218 
 YPLC HZ EP       2046 25.20                             126    0.18 9  179 151 
 YPLC HE ES   2   2046 49.19                             126    0.88 4  179 151 
 YPLC HZ I        2046 51.39        41.6 0.44            128            179 151 
 ZAR  HZ EP   1   2046 27.72                             122    0.53 6  201 292 
 ZAR  HN ES       2046 52.47                             122    0.31 9  201 292 
 ZAR  HZ I        2046 59.11        61.8 0.34            124            201 292 
 ROSC BZ EP   9   2046 35.33                             116    2.16 0  253 210 
 ROSC BE ES       2047  4.90                             116   -0.07 8  253 210 
 ROSC BZ I        2047 11.39        32.9 0.47            118            253 210 
 URE  HZ EP       2046 35.20                             113   -0.63 7  281 292 
 URE  HN ES   1   2047  6.24                             113   -1.30 6  281 292 
 URE  HZ I        2047  8.56        41.6 0.14            115            281 292 
 DRL03HZ EP       2046 36.57                             113    0.10 7  287 353 
 DRL03HN ES       2047  9.70                             113    1.01 7  287 353 
 GUY2CHZ EP   2   2046 39.94                             112    1.39 4  300 234 
 GUY2CHN ES   2   2047 13.44                             112    1.05 4  300 234 
 GUY2CHZ I        2047 22.37        15.3 0.56                           300 234 
 PTGC HZ EP       2046 38.07                             111   -1.10 7  311 158 
 PTGC HE ES   2   2047 11.38                             111   -2.11 3  311 158 
 PTGC HZ I        2047 14.00        24.0 0.46            113            311 158 
 LL6C HZ EP       2046 39.84                             110   -0.76 7  323 358 
 LL6C HN ES   3   2047 18.33                             110    2.30 2  323 358 
 LL6C HZ I        2047 22.01        10.5 0.30            112            323 358 
 CBOC HZ EP   2   2046 42.96                             110    1.17 3  332 252 
 CBOC HN ES       2047 18.11                             110   -0.04 7  332 252 
 DBB  EZ EP   1   2046 43.10                             109    0.82 5  337 274 
 DBB  EN ES       2047 18.57                             109   -0.45 7  337 274 
 DBB  EZ I        2047 22.25        13.9 0.30            111            337 274 
 PRA  HZ EP   1   2046 49.18                             106    0.56 4  392 209 
 PRA  HN ES       2047 30.08                             106   -0.24 6  392 209 
 PRA  HZ I        2047 39.33        15.3 0.45            108            392 209 
 ORTC HZ EP       2046 49.53                             106    0.54 6  395 216 
 ORTC HN ES   1   2047 32.15                             106    1.18 4  395 216 
 ORTC HZ I        2047 37.84        10.2 0.21            107            395 216 
 SJC  HZ EP   2   2046 49.14                             105   -1.23 3  407 327 
 SJC  HN ES   4   2047 29.90                             105   -3.52 0  407 327 
 SJC  HZ I        2047 34.77        14.7 0.38            107            407 327 
 CRJC HZ EP   2   2046 55.51                             103   -1.94 2  466   4 
 CRJC HN ES   4   2047 40.93                             103   -5.10 0  466   4 
 CRJC HZ I        2047 47.65        10.6 0.22            105            466   4 
                                                                                
