 2014  116 2005 29.9 L   6.766 -73.148145.9  RSN  5 0.5 1.6LRSN                1
 GAP=138        1.19       6.4     6.0 10.7 -0.1122E+02  0.1174E+02  0.7809E+01E
 Epicentro: LOS SANTOS - SANTANDER                                             3
 ACTION:UPD 14-03-13 09:55 OP:ep   STATUS:               ID:20140116200529 L   I
 OLDACT:REG 14-01-16 21:02 OP:jn   STATUS:               ID:20140116200000     3
 2014-01-16-2000-00M.COL___285                                                 6
 STAT SP IPHASW D HRMM SECON CODA AMPLIT PERI AZIMU VELO AIN AR TRES W  DIS CAZ7
 BRR  HZ EP       20 5 51.60                             152    0.4310 72.8 301 
 BRR  HN ES       20 6  8.47                             152    0.7210 72.8 301 
 BRR  HZ I        20 6 13.10        20.4 0.52            150           72.8 301 
 PAM  SZ EP       20 5 52.53                             150    0.2010 80.4  38 
 PAM  SN ES       20 6  9.20                             150   -0.6110 80.4  38 
 PAM  SZ I        20 6 10.64         3.4 0.16            155           80.4  38 
 RUS  HZ EP   1   20 5 53.78                             145    0.36 7 96.9 176 
 RUS  HN ES       20 6 11.73                             145   -0.0210 96.9 176 
 RUS  HZ I        20 6 12.97         4.1 0.44            149           96.9 176 
 PTB  HZ EP       20 5 56.22                             132   -0.59 9  147 260 
 PTB  HN ES       20 6 17.19                             132   -0.60 9  147 260 
 PTB  HZ I        20 6 24.26         4.7 0.58            133            147 260 
 NOR  HE ES       20 6 33.25                             119    0.17 8  232 235 
 NOR  HZ I        20 6 35.90         3.2 0.18            121            232 235 
                                                                                
