 2013  316 2359 47.7 L   6.803 -73.155144.7  RSN  9 0.4 1.9LRSN                1
 GAP=135        0.78       3.9     4.1  6.7 -0.2844E+01  0.5511E+01  0.3231E+01E
 Epicentro: LOS SANTOS - SANTANDER                                             3
 ACTION:UPD 13-04-09 14:03 OP:ep   STATUS:               ID:20130316235947 L   I
 2013-03-17-0000-00M.COL___244                                                 6
 STAT SP IPHASW D HRMM SECON CODA AMPLIT PERI AZIMU VELO AIN AR TRES W  DIS CAZ7
 BAR2 SZ EP   1   24 0  7.50                             170    0.27 7 23.6 187 
 BAR2 SZ ES   1   24 0 22.34                             170   -0.11 7 23.6 187 
 BAR2 SZ I        24 0 24.70        25.3 0.26            170           23.6 187 
 BRR  HN ES   1   24 0 25.57                             153    0.52 7 70.1 299 
 BRR  HZ I        24 0 29.63        10.8 0.32            149           70.1 299 
 PAM  SZ EP       24 0 10.28                             150    0.4310 77.8  40 
 PAM  SN ES   1   24 0 27.13                             150    0.02 7 77.8  40 
 PAM  SZ I        24 0 29.38        13.7 0.52            154           77.8  40 
 RUS  HZ EP       24 0 11.38                             143   -0.0210  101 175 
 RUS  HN ES   1   24 0 29.54                             143   -0.33 7  101 175 
 RUS  HZ I        24 0 32.07         8.8 0.36            147            101 175 
 PTB  HZ EP       24 0 14.15                             132   -0.37 9  147 259 
 PTB  HN ES   1   24 0 34.93                             132   -0.49 7  147 259 
 PTB  HZ I        24 0 39.31         8.9 0.14            131            147 259 
 OCA  HN ES   1   24 0 37.12                             129   -0.76 7  160 353 
 OCA  HZ I        24 0 42.14         8.0 0.46            130            160 353 
 ZAR  HN ES   2   24 0 45.63                             122    0.48 4  203 292 
 ZAR  HZ I        24 0 51.15         5.7 0.32            122            203 292 
 NOR  HZ EP   2   24 0 23.23                             118   -0.09 4  234 234 
 NOR  HE ES   1   24 0 51.68                             118    0.59 6  234 234 
 NOR  HZ I        24 0 56.43         8.0 0.18            119            234 234 
 HEL  HN ES   2   24 0 59.13                             115    0.11 4  271 256 
 HEL  HZ I        24 1  5.94         4.8 0.32            115            271 256 
                                                                                
