 2011 1016 2110 11.7 L   6.346 -73.561113.2  RSN  8 0.4 2.1LRSN                1
 GAP= 98        0.86       4.0     3.8  8.3 -0.3554E+01  0.1654E+02 -0.4764E+00E
 Epicentro: SANTA HELENA DEL OPON - SANTANDER                                  3
 ACTION:UPD 12-07-13 16:04 OP:ep   STATUS:               ID:20111016210943 L   I
 2011-10-16-2108-08S.COL___168                                                 6
 STAT SP IPHASW D HRMM SECON CODA AMPLIT PERI AZIMU VELO AIN AR TRES W  DIS CAZ7
 BAR2 SZ EP       2110 29.04                             155    0.5810 50.0  57 
 BAR2 SZ ES   1   2110 40.90                             155   -0.65 7 50.0  57 
 BAR2 SZ I        2110 43.36        97.9 0.16                          50.0  57 
 RUS  HZ EP   1   2110 30.32                             145    0.10 7 72.9 133 
 RUS  HZ I        2110 30.94        15.4 0.25                          72.9 133 
 RUS  HN ES   1   2110 44.75                             145    0.05 7 72.9 133 
 BRR  HZ EP   1   2110 30.61                             140    0.12 7 85.8 349 
 BRR  HZ I        2110 33.95        57.2 0.11                          85.8 349 
 BRR  HN ES   1   2110 45.75                             140    0.58 7 85.8 349 
 PAM  SZ EP   1   2110 36.00                             124   -0.59 7  145  41 
 PAM  SN ES   1   2110 56.00                             124   -0.02 7  145  41 
 PAM  SZ I        2111  1.53         8.3 0.26                           145  41 
 NOR  SZ EP   1   2110 38.39                             119   -0.04 7  169 239 
 NOR  SE ES   1   2110 58.62                             119   -0.69 7  169 239 
 ZAR  HZ EP   1   2110 40.54                             116   -0.28 7  191 312 
 ZAR  HN ES   1   2111  3.05                             116   -0.51 7  191 312 
 ZAR  HZ I        2111  7.68        27.6 0.23                           191 312 
 HEL  HZ EP   1   2110 44.29                             113    0.00 6  218 266 
 HEL  HN ES   1   2111 10.33                             113    0.59 6  218 266 
 HEL  HZ I        2111 15.72        10.3 0.29                           218 266 
 RREF HN ES   1   2111 17.76                             109    0.14 6  254 231 
                                                                                
