 2015 1016 2154 42.8 L   6.800 -73.104147.2  RSN  8 0.4 1.9LRSN                1
 GAP=142        0.83       3.1     4.3  5.7 -0.6334E+00  0.9608E+01 -0.3876E+00E
 Epicentro: LOS SANTOS - SANTANDER                                             3
 ACTION:UPD 15-12-22 20:40 OP:cam  STATUS:               ID:20151016215442 L   I
 OLDACT:UP  15-10-17 05:46 OP:mh   STATUS:               ID:20151016214752d    3
 OLDACT:UP  15-10-17 05:44 OP:mh   STATUS:               ID:20151016214752d    3
 OLDACT:DUP 15-10-17 05:44 OP:mh   STATUS:               ID:20151016214752d    3
 2015-10-16-2147-50M.COL___343                                                 6
 STAT SP IPHASW D HRMM SECON CODA AMPLIT PERI AZIMU VELO AIN AR TRES W  DIS CAZ7
 BAR2 EZ IP     D 2155  2.73                             170    0.0810 24.5 201 
 BAR2 EZ ES       2155 17.52                             170   -0.5910 24.5 201 
 BAR2 EZ I        2155 18.98        13.7 0.24            169           24.5 201 
 PAM  EZ EP   1   2155  5.57                             152    0.54 7 74.5  37 
 PAM  EN ES       2155 22.12                             152   -0.2210 74.5  37 
 PAM  EZ I        2155 24.63        13.5 0.52            150           74.5  37 
 BRR  HZ EP   1   2155  4.79                             151    0.42 7 75.3 297 
 BRR  HZ I        2155 21.07        14.8 0.56            146           75.3 297 
 BRR  HN ES       2155 21.72                             151    0.5510 75.3 297 
 RUS  HZ EP   1   2155  6.58                             144   -0.12 7  100 179 
 RUS  HE ES       2155 25.53                             144    0.2110  100 179 
 RUS  HZ I        2155 27.65         7.7 0.38            142            100 179 
 OCA  HN ES       2155 33.45                             130   -0.08 9  161 352 
 ZAR  HZ EP   1   2155 15.48                             122   -0.33 6  208 292 
 ZAR  HN ES       2155 41.24                             122   -0.30 8  208 292 
 ZAR  HZ I        2155 46.96        10.9 0.62            118            208 292 
 NOR  HZ EP       2155 19.03                             118   -0.02 8  238 235 
 NOR  HN ES       2155 47.38                             118    0.09 8  238 235 
 NOR  HZ I        2155 53.29         7.3 0.26            115            238 235 
 SML  HZ EP   1   2155 19.09                             117   -0.66 6  246 334 
 SML  HE ES   2   2155 49.22                             117    0.67 4  246 334 
 SML  HZ I        2155 53.82         9.3 0.26            114            246 334 
                                                                                
