 2012  316 2344 56.0 L   6.759 -73.169136.0  RSN  4 0.4 1.4LRSN                1
 GAP=232        0.82       8.1     8.7  9.7  0.3668E+02  0.3280E+01 -0.3358E+01E
 ACTION:UP  12-03-31 23:20 OP:EP   STATUS:               ID:20120316234456 L   I
 2012-03-16-2340-00M.COL___202                                                 6
 STAT SP IPHASW D HRMM SECON CODA AMPLIT PERI AZIMU VELO SNR AR TRES W  DIS CAZ7
 BAR2 SZ ES   2   2345 27.99                             172    -0.7 5   18 185 
 BAR2 SZ I        2345 31.10         5.8 0.12                            18 185 
 BRR  HZ EP       2345 15.98                             151    -0.210   71 303 
 BRR  HZ I        2345 30.88         9.8 0.48                            71 303 
 BRR  HE ES   1   2345 32.33                             151     0.5 7   71 303 
 RUS  HZ EP   1   2345 18.31                             143    -0.2 7   96 174 
 RUS  HE ES   1   2345 36.42                             143     0.4 7   96 174 
 PTB  HZ EP   1   2345 22.05                             131     0.2 7  144 260 
 PTB  HE ES   1   2345 41.80                             131    -0.3 7  144 260 
 PTB  HZ I        2345 44.82         2.6 0.16                           144 260 
                                                                                
