 2017  716 2109 59.4 L   6.800 -73.134144.4  RSN  7 0.4 1.6LRSN                1
 GAP=138        0.90       3.8     3.8  7.0 -0.2112E+01  0.4689E+01  0.5964E+01E
 Epicentro: LOS SANTOS - SANTANDER                                             3
 ACTION:UPD 17-08-30 15:33 OP:rebc STATUS:               ID:20170716210959 L   I
 OLDACT:UP  17-07-17 06:56 OP:y    STATUS:               ID:20170716210740     3
 OLDACT:UP  17-07-17 06:55 OP:dani STATUS:               ID:20170716210740     3
 OLDACT:REG 17-07-17 06:18 OP:dani STATUS:               ID:20170716210740     3
 2017-07-16-2108-00M.COL___392                                                 6
 STAT SP IPHASW D HRMM SECON CODA AMPLIT PERI AZIMU VELO AIN AR TRES W  DIS CAZ7
 BRR  HZ EP       2110 20.58                             152    0.0710 72.3 298 
 BRR  HE ES       2110 37.53                             152    0.5910 72.3 298 
 BRR  HZ I        2110 41.28         6.8 0.12            150           72.3 298 
 PAM  EZ EP       2110 21.59                             151    0.1210 76.6  39 
 PAM  EE ES       2110 38.31                             151   -0.3410 76.6  39 
 PAM  EZ I        2110 39.16         9.6 0.22            156           76.6  39 
 RUS  HZ EP       2110 22.84                             144   -0.2110  100 177 
 RUS  HN ES       2110 41.51                             144    0.0410  100 177 
 RUS  HZ I        2110 43.79         2.7 0.32            146            100 177 
 PTB  HZ EP   3   2110 25.47                             131   -0.94 2  149 259 
 PTB  HN ES       2110 46.60                             131   -0.85 9  149 259 
 PTB  HZ I        2110 49.19         4.8 0.48            131            149 259 
 SPBC HZ EP       2110 27.96                             129    0.05 9  164 219 
 SPBC HE ES       2110 50.61                             129    0.50 9  164 219 
 SPBC HZ I        2110 56.28         7.7 0.22            129            164 219 
 ZAR  HZ EP   3   2110 33.28                             122    1.36 2  205 292 
 ZAR  HN ES       2110 57.26                             122    0.01 8  205 292 
 ZAR  HZ I        2111  6.27         4.5 0.12            123            205 292 
 NOR  HZ EP       2110 35.32                             118    0.12 8  236 235 
 NOR  HN ES       2111  2.96                             118   -0.13 8  236 235 
 NOR  HZ I        2111  9.00         3.8 0.26            119            236 235 
                                                                                
