 2012  116 2157  0.8 L   6.790 -73.147139.9  RSN 13 0.4 2.5LRSN                1
 GAP=137        0.95       3.6     4.5  6.2 -0.2315E+01  0.7982E+01  0.4515E+01E
 Epicentro: LOS SANTOS - SANTANDER                                             3
 ACTION:UP  12-02-03 08:18 OP:REBC STATUS:               ID:20120116215700 L   I
 2012-01-16-2150-00M.COL___188                                                 6
 STAT SP IPHASW D HRMM SECON CODA AMPLIT PERI AZIMU VELO SNR AR TRES W  DIS CAZ7
 BAR2 SZ EP   1   2157 19.54                             171    -0.2 7   22 190 
 BAR2 SZ ES   1   2157 34.52                             171     0.1 7   22 190 
 BAR2 SZ I        2157 36.09        70.6 0.18                            22 190 
 BRR  HZ EP       2157 21.73                             151     0.410   72 299 
 BRR  HN ES   1   2157 38.22                             151     0.8 7   72 299 
 BRR  HZ I        2157 43.03        73.3 0.11                            72 299 
 PAM  SZ EP       2157 22.68                             149     0.210   78  39 
 PAM  SN ES   1   2157 39.42                             149     0.1 7   78  39 
 RUS  HZ EP   1   2157 23.76                             143    -0.1 7   99 176 
 RUS  HN ES   1   2157 41.75                             143    -0.2 7   99 176 
 RUS  HZ I        2157 43.74        27.5 0.45                            99 176 
 PTB  HZ EP   1   2157 26.65                             131    -0.6 7  147 259 
 PTB  HN ES   1   2157 47.08                             131    -0.8 7  147 259 
 OCA  SZ EP   1   2157 28.18                             128    -0.6 7  161 353 
 OCA  SZ ES   1   2157 50.03                             128    -0.6 7  161 353 
 OCA  SZ I        2157 54.92        39.8 0.28                           161 353 
 ZAR  HZ EP   1   2157 32.82                             121    -0.1 6  204 292 
 ZAR  HE ES   1   2157 58.04                             121     0.1 6  204 292 
 ZAR  HZ I        2158  4.44        55.6 0.52                           204 292 
 NOR  SZ EP       2157 36.43                             117     0.3 8  234 235 
 NOR  SE ES   1   2158  3.74                             117     0.1 6  234 235 
 CHI  HZ EP   1   2157 37.98                             116    -0.1 6  247 195 
 CHI  HN ES   1   2158  6.50                             116    -0.6 6  247 195 
 CHI  HZ I        2158 13.55        16.4 0.35                           247 195 
 HEL  HZ EP   1   2157 41.48                             114     0.8 6  272 256 
 HEL  HN ES   1   2158 11.62                             114    -0.2 6  272 256 
 HEL  HZ I        2158 18.26        18.9 0.27                           272 256 
 GUY  SZ EP   2   2157 44.45                             111     0.1 4  303 235 
 GUY  SZ I        2158 24.30        17.2 0.37                           303 235 
 RREF HZ EP   1   2157 46.46                             110    -0.2 5  321 230 
 RREF HZ I        2158 28.59        15.0 0.30                           321 230 
 PRA  HZ EP       2157 54.44                             106     0.4 6  391 210 
 PRA  HN ES   1   2158 36.24                             106     0.7 4  391 210 
                                                                                
