 2016  916 2013  1.0 L   6.790 -73.210135.5  RSN  4 0.2 1.5LRSN                1
 GAP=129        0.49       2.5     2.2  5.5 -0.1295E+00  0.4162E+01 -0.3637E+00E
 Epicentro: ZAPATOCA - SANTANDER                                               3
 ACTION:UPD 17-08-17 21:13 OP:lp   STATUS:               ID:20160916201301 L   I
 OLDACT:DUP 16-09-17 03:10 OP:cara STATUS:               ID:20160916200736d    3
 OLDACT:REG 16-09-17 00:50 OP:lv   STATUS:               ID:20160916200735     3
 2016-09-16-2008-00M.COL___360                                                 6
 STAT SP IPHASW D HRMM SECON CODA AMPLIT PERI AZIMU VELO AIN AR TRES W  DIS CAZ7
 PAM  EZ EP       2013 22.46                             147    0.0110 82.9  43 
 PAM  EE ES       2013 39.24                             147    0.0310 82.9  43 
 PAM  EZ I        2013 41.59         4.9 0.54            150           82.9  43 
 RUS  HZ EP       2013 23.45                             142   -0.2410  100 172 
 RUS  HN ES       2013 41.46                             142    0.0410  100 172 
 RUS  HZ I        2013 43.16         3.0 0.20            147            100 172 
 PTB  HZ EP       2013 26.76                             131    0.32 9  141 259 
 PTB  HE ES       2013 46.34                             131    0.03 9  141 259 
 PTB  HZ I        2013 48.58         5.6 0.16            133            141 259 
 ZAR  HE ES       2013 56.21                             121   -0.19 9  198 293 
 ZAR  HZ I        2014  3.80         6.1 0.34            123            198 293 
                                                                                
