 2017  816 2103 17.3 L   6.851 -73.097152.1  RSN 14 0.6 2.2LRSN                1
 GAP=115        1.21       3.5     4.3  6.1  0.1026E+01  0.8642E+01  0.3554E+01E
 Epicentro: LOS SANTOS - SANTANDER                                             3
 ACTION:UPD 17-09-04 20:21 OP:rebc STATUS:               ID:20170816210317 L   I
 OLDACT:REG 17-08-17 01:54 OP:dhb  STATUS:               ID:20170816205737     3
 2017-08-16-2058-00M.COL___413                                                 6
 STAT SP IPHASW D HRMM SECON CODA AMPLIT PERI AZIMU VELO AIN AR TRES W  DIS CAZ7
 BAR2 EZ EP       21 3 37.25                             169   -0.6010 30.1 198 
 BAR2 EZ ES       21 3 53.32                             169   -0.5510 30.1 198 
 BAR2 EZ I        21 3 55.31        23.4 0.13            167           30.1 198 
 PAM  EZ IP     D 21 3 40.40                             154    0.6310 69.6  39 
 PAM  EE ES       21 3 57.62                             154    0.3210 69.6  39 
 PAM  EZ I        21 3 59.93        14.7 0.49            158           69.6  39 
 BRR  HZ EP       21 3 39.66                             153    0.3810 73.6 293 
 BRR  HN ES       21 3 57.30                             153    0.8810 73.6 293 
 BRR  HZ I        21 4  0.28        21.1 0.31            151           73.6 293 
 RUS  HZ EP       21 3 41.98                             144   -0.0910  106 179 
 RUS  HN ES       21 4  0.67                             144   -0.7210  106 179 
 RUS  HZ I        21 4  1.51       359.2 0.14            145            106 179 
 SPBC HZ EP       21 3 46.79                             129   -0.23 9  171 219 
 SPBC HN ES       21 4  9.80                             129   -0.41 9  171 219 
 SPBC HZ I        21 4 13.14        21.6 0.18            130            171 219 
 YPLC HZ EP       21 3 47.74                             128   -0.07 9  179 154 
 YPLC HE ES       21 4 12.21                             128    0.61 9  179 154 
 YPLC HZ I        21 4 12.96        14.3 0.22            130            179 154 
 ZAR  HZ EP       21 3 50.90                             123    0.43 8  207 290 
 ZAR  HN ES       21 4 16.05                             123   -0.30 8  207 290 
 ZAR  HZ I        21 4 21.77        28.7 0.27            124            207 290 
 NOR  HZ EP       21 3 53.86                             119   -0.36 8  242 234 
 NOR  HE ES       21 4 22.81                             119   -0.21 8  242 234 
 NOR  HZ I        21 4 27.34        12.1 0.18            120            242 234 
 CHI  HZ EP       21 3 55.97                             118   -0.13 8  255 196 
 CHI  HN ES       21 4 26.05                             118   -0.31 8  255 196 
 CHI  HZ I        21 4 29.56         2.5 0.16            119            255 196 
 HEL  HZ EP   1   21 3 59.99                             115    1.42 6  279 255 
 HEL  HN ES   1   21 4 30.57                             115   -0.20 6  279 255 
 HEL  HZ I        21 4 37.72         8.8 0.48            116            279 255 
 GUY2CHZ EP       21 4  2.29                             113    0.22 7  309 235 
 GUY2CHE ES   1   21 4 37.47                             113    0.49 5  309 235 
 GUY2CHZ I        21 4 44.78         4.9 0.45                           309 235 
 ELA  HN ES       21 4 43.11                             111    0.36 7  337 229 
 ELA  HZ I        21 4 50.10         5.2 0.30            112            337 229 
 PRA  HZ EP       21 4 11.48                             107   -0.45 6  400 210 
 PRA  HE ES       21 4 55.55                             107    1.02 6  400 210 
 PRA  HZ I        21 4 57.95         3.7 0.59            108            400 210 
 SJC  HZ EP       21 4 11.86                             107   -1.02 6  408 326 
 SJC  HN ES       21 4 55.27                             107   -0.96 6  408 326 
 SJC  HZ I        21 4 55.75         2.9 0.24            108            408 326 
                                                                                
