 2011  616 2010 46.1 L   5.951 -73.740114.9  RSN  4 0.2 1.8LRSN                1
 GAP=156        0.51       3.9     3.5  8.6 -0.5809E+01  0.7234E+01  0.2359E+00E
 Epicentro: GUAVATA - SANTANDER                                                3
 ACTION:UP  11-07-14 19:05 OP:ep   STATUS:               ID:20110616201046 L   I
 2011-06-16-2007-03S.COL___135                                                 6
 STAT SP IPHASW D HRMM SECON CODA AMPLIT PERI AZIMU VELO SNR AR TRES W  DIS CAZ7
 RUS  HZ EP   1   2011  5.18                             145     0.3 7   73  95 
 RUS  HN ES   2   2011 19.20                             145    -0.2 5   73  95 
 RUS  HZ I        2011 21.57         5.2 0.41                            73  95 
 BAR2 SZ EP   2   2011  5.53                             138    -0.5 5   94  41 
 BAR2 SZ ES   2   2011 21.60                             138     0.0 5   94  41 
 BAR2 SZ I        2011 23.57        31.1 0.38                            94  41 
 BRR  HZ EP   1   2011  8.85                             128     0.1 7  128   1 
 BRR  HN ES   1   2011 26.49                             128     0.0 7  128   1 
 BRR  HZ I        2011 28.37        13.9 0.47                           128   1 
 NOR  SZ EP   1   2011  9.10                             127    -0.2 7  132 251 
 NOR  SE ES   1   2011 27.36                             127     0.0 7  132 251 
                                                                                
