 2011  816 2018  4.1 L   6.795 -73.077151.6  RSN 14 0.4 3.3LRSN                1
 GAP=187        0.59       2.6     4.7  3.9 -0.1786E+01  0.6986E+01  0.8136E+00E
 Epicentro: LOS SANTOS - SANTANDER                                             3
 ACTION:UPD 12-07-13 15:52 OP:ep   STATUS:               ID:20110816201804 L   I
 2011-08-16-2016-32S.COL___149                                                 6
 STAT SP IPHASW D HRMM SECON CODA AMPLIT PERI AZIMU VELO AIN AR TRES W  DIS CAZ7
 BAR2 SZ IP       2018 24.58                             170    0.1210 25.3 207 
 BAR2 SZ ES   1   2018 40.21                             170   -0.14 7 25.3 207 
 BRR  HZ IP     C 2018 26.54                             151    0.2710 78.2 296 
 BRR  HZ I        2018 26.73       625.8 0.28                          78.2 296 
 BRR  HN ES   1   2018 43.69                             151    0.12 7 78.2 296 
 RUS  HZ IP     C 2018 28.40                             145    0.0310 99.8 180 
 RUS  HN ES   1   2018 47.07                             145   -0.23 7 99.8 180 
 OCA  SZ EP       2018 33.00                             131   -0.01 9  162 351 
 OCA  SZ ES   3   2018 55.62                             131    0.05 2  162 351 
 OCA  SZ I        2019  0.39       186.0 0.43                           162 351 
 NOR  SZ EP       2018 40.49                             119   -0.30 8  241 236 
 NOR  SN ES   3   2019  7.48                             119   -1.94 2  241 236 
 CHI  HZ EP       2018 42.33                             118    0.04 8  250 197 
 CHI  HE ES   1   2019 11.89                             118   -0.19 6  250 197 
 GUY  SZ EP       2018 48.42                             113   -0.48 7  309 236 
 GUY  SE ES   2   2019 23.75                             113   -0.11 4  309 236 
 GUY  SZ I        2019 33.31       103.8 0.48                           309 236 
 RREF HZ EP       2018 50.67                             111   -0.44 7  327 230 
 RREF HE ES   2   2019 28.31                             111    0.53 3  327 230 
 RREF HZ I        2019 35.86        83.4 0.28                           327 230 
 DBB  SZ EP       2018 53.18                             110    0.50 6  347 274 
 TOL  SZ EP       2018 53.27                             110    0.11 6  348 226 
 COD  HZ EP   2   2018 52.62                             110   -0.24 3  350 353 
 COD  HZ I        2019 36.88        75.4 0.24                           350 353 
 ANIL HZ EP       2018 55.05                             109    0.35 6  362 225 
 ANIL HN ES   1   2019 34.86                             109    0.69 5  362 225 
 ANIL HZ I        2019 44.60       109.3 0.34                           362 225 
 PRA  HZ EP       2018 58.28                             107    0.07 6  395 211 
 PRA  HE ES   1   2019 40.45                             107    0.04 4  395 211 
 SJC  HZ EP   2   2018 58.79                             106   -1.61 3  414 326 
 SJC  HZ I        2019 44.60        32.2 0.46                           414 326 
                                                                                
