 2012  916 2055 37.0 L   6.779 -73.116129.1  RSN  4 0.3 1.8LRSN                1
 GAP=214        0.42      11.7     9.5 12.8  0.5745E+02  0.2461E+02  0.2511E+02E
 Epicentro: LOS SANTOS - SANTANDER                                             3
 ACTION:UPD 12-10-22 14:19 OP:ep   STATUS:               ID:20120916205537 L   I
 2012-09-16-2050-00M.COL___227                                                 6
 STAT SP IPHASW D HRMM SECON CODA AMPLIT PERI AZIMU VELO AIN AR TRES W  DIS CAZ7
 BAR2 SZ EP       2055 54.66                             170    0.0610 21.9 200 
 GIR2 SZ ES   3   2056  7.98                             165   -0.69 2 34.3 346 
 BRR  HZ EP       2055 56.59                             148   -0.0310 75.2 299 
 BRR  HN ES   3   2056 12.72                             148    0.79 2 75.2 299 
 BRR  HN I        2056 13.98        12.6 0.22                          75.2 299 
 PTB  HZ EP   3   2056  2.47                             128   -0.46 2  151 260 
 PTB  HE ES   3   2056 22.94                             128   -0.21 2  151 260 
                                                                                
