 2014  916 2217 35.0 L   6.827 -73.195135.3  RSN 13 0.4 2.1LRSN                1
 GAP=129        0.83       2.4     3.6  5.0 -0.2354E+01  0.8087E+01 -0.2999E+00E
 Epicentro: ZAPATOCA - SANTANDER                                               3
 ACTION:UPD 14-10-03 23:05 OP:nd   STATUS:               ID:20140916221735 L   I
 OLDACT:UP  14-09-17 06:13 OP:mh   STATUS:               ID:20140916220819     3
 OLDACT:REG 14-09-17 03:41 OP:mh   STATUS:               ID:20140916220819     3
 2014-09-16-2208-19M.COL___289                                                 6
 STAT SP IPHASW D HRMM SECON CODA AMPLIT PERI AZIMU VELO AIN AR TRES W  DIS CAZ7
 BAR2 SZ EP       2217 53.44                             169   -0.0210 26.0 177 
 BAR2 SZ ES       2218  7.93                             169    0.0910 26.0 177 
 BAR2 SZ I        2218  9.49        57.3 0.18            167           26.0 177 
 BRR  HZ EP       2217 55.19                             153    0.5010 65.0 298 
 BRR  HN ES   4   2218 12.00                             153    1.97 0 65.0 298 
 BRR  HZ I        2218 15.76        19.6 0.12            148           65.0 298 
 PAM  SZ EP   1   2217 56.46                             148    0.24 7 78.7  44 
 PAM  SN ES       2218 13.01                             148    0.2510 78.7  44 
 PAM  SZ I        2218 15.12        24.3 0.48            156           78.7  44 
 RUS  HZ EP     C 2217 57.61                             140   -0.4210  104 173 
 RUS  HN ES       2218 16.05                             140    0.0710  104 173 
 RUS  HZ I        2218 17.63        12.9 0.32            145            104 173 
 PTB  HZ EP   1   2218  0.65                             130   -0.07 7  143 257 
 PTB  HN ES       2218 20.48                             130   -0.29 9  143 257 
 PTB  HZ I        2218 26.82        15.1 0.20            130            143 257 
 OCA  HZ EP   1   2218  2.57                             128    0.37 7  157 355 
 OCA  HN ES       2218 22.80                             128   -0.59 9  157 355 
 OCA  HZ I        2218 26.58        13.4 0.22            131            157 355 
 SPBC HZ EP       2218  2.51                             127   -0.14 9  162 217 
 SPBC HN ES       2218 23.76                             127   -0.44 9  162 217 
 SPBC HZ I        2218 32.53        15.3 0.33            128            162 217 
 ZAR  HZ EP   1   2218  6.53                             121    0.37 6  198 292 
 ZAR  HN ES   1   2218 30.72                             121    0.27 6  198 292 
 ZAR  HZ I        2218 37.87        15.5 0.20            121            198 292 
 NOR  HZ IP       2218 10.28                             116    0.40 8  232 233 
 NOR  HZ EP       2218 10.29                             116            232 233 
 NOR  HN ES       2218 37.27                             116    0.19 8  232 233 
 NOR  HZ I        2218 46.15        12.0 0.18            118            232 233 
 SML  HZ EP   1   2218 10.33                             116   -0.21 6  239 336 
 SML  HN ES   1   2218 37.80                             116   -0.43 6  239 336 
 SML  HZ I        2218 44.73         7.7 0.25            118            239 336 
 GUY2CHZ EP       2218 17.95                             110    0.08 7  299 234 
 GUY2CHN ES   4   2218 52.24                             110    0.95 0  299 234 
 GUY2CHZ I        2218 58.60         4.7 0.38                           299 234 
 TOL  SN ES       2219  0.82                             107    0.95 7  342 224 
 TOL  SZ I        2219  9.10        12.0 0.36            110            342 224 
 PRA  HZ EP       2218 27.72                             105   -0.48 6  392 209 
 PRA  HN ES       2219  8.99                             105   -0.69 6  392 209 
 PRA  HZ I        2219 15.21         7.0 0.26            107            392 209 
 SJC  HZ EP   4   2218 26.28                             104   -3.33 0  404 327 
 SJC  HN ES   4   2219  8.28                             104   -3.91 0  404 327 
                                                                                
