 2015  916 2208  3.5 L   6.818 -73.190142.8  RSN  4 0.2 1.7LRSN                1
 GAP=145        0.58       3.5     3.4  4.9 -0.3740E+01  0.4633E+01 -0.1661E+01E
 Epicentro: ZAPATOCA - SANTANDER                                               3
 ACTION:UPD 15-10-28 16:26 OP:cam  STATUS:               ID:20150916220803 L   I
 OLDACT:REG 15-09-17 05:04 OP:stll STATUS:               ID:20150916215749     3
 2015-09-16-2157-49M.COL___343                                                 6
 STAT SP IPHASW D HRMM SECON CODA AMPLIT PERI AZIMU VELO AIN AR TRES W  DIS CAZ7
 BAR2 EZ EP       22 8 23.06                             170    0.2610 24.9 178 
 BAR2 EZ ES       22 8 37.78                             170   -0.0910 24.9 178 
 BAR2 EZ I        22 8 39.48        17.4 0.12            172           24.9 178 
 PAM  EZ EP       22 8 25.08                             150   -0.4210 79.1  43 
 PAM  EN ES       22 8 42.88                             150    0.2110 79.1  43 
 PAM  EZ I        22 8 45.11        11.1 0.50            152           79.1  43 
 RUS  HZ EP       22 8 27.22                             142    0.0910  103 173 
 RUS  HZ I        22 8 28.02         3.9 0.14            146            103 173 
 RUS  HN ES       22 8 45.49                             142   -0.0810  103 173 
 PTB  HZ EP       22 8 29.95                             132    0.12 9  143 258 
 PTB  HN ES       22 8 50.28                             132   -0.09 9  143 258 
 PTB  HZ I        22 8 55.46         7.7 0.18            132            143 258 
                                                                                
