 2015  316 2033  2.8 L   6.583 -73.549106.2  RSN 16 0.4 1.9LRSN                1
 GAP= 75        0.97       3.4     3.0  5.9 -0.3444E+01  0.3064E+01  0.1731E+01E
 Epicentro: EL CARMEN - SANTANDER                                              3
 ACTION:UPD 15-04-30 16:26 OP:nd   STATUS:               ID:20150316203302 L   I
 OLDACT:REG 15-03-17 02:35 OP:spq  STATUS:               ID:20150316202749     3
 2015-03-16-2027-49M.COL___272                                                 6
 STAT SP IPHASW D HRMM SECON CODA AMPLIT PERI AZIMU VELO AIN AR TRES W  DIS CAZ7
 BAR2 EZ EP       2033 18.61                             157    0.2710 40.6  88 
 BAR2 EZ ES   1   2033 30.86                             157    0.40 7 40.6  88 
 BRR  HZ EP       2033 19.44                             148    0.3210 60.7 343 
 RUS  HZ EP   1   2033 21.90                             136   -0.27 7 92.1 146 
 RUS  HN ES   1   2033 37.84                             136    0.55 7 92.1 146 
 RUS  HZ I        2033 38.50        11.8 0.64            135           92.1 146 
 PTB  HZ EP     D 2033 21.49                             133   -0.7610  100 267 
 PTB  HE ES       2033 36.92                             133   -0.5010  100 267 
 PTB  HZ I        2033 37.93        16.9 0.12            130            100 267 
 SPBC HZ EP       2033 24.02                             128    0.0410  118 209 
 SPBC HE ES   1   2033 40.26                             128   -0.25 7  118 209 
 SPBC HZ I        2033 45.99        20.7 0.22            125            118 209 
 PAM  SZ EP       2033 25.04                             126   -0.2210  126  48 
 PAM  SN ES       2033 42.90                             126    0.1110  126  48 
 PAM  SZ I        2033 43.65         6.7 0.44            127            126  48 
 NOR  HZ EP       2033 30.70                             115   -0.19 9  185 232 
 NOR  HN ES   4   2033 54.07                             115    1.27 0  185 232 
 NOR  HZ I        2033 55.16        11.9 0.38            112            185 232 
 TAM  HZ EP       2033 31.47                             113   -0.59 9  195  95 
 TAM  HE ES   1   2033 54.50                             113   -0.38 6  195  95 
 TAM  HZ I        2033 55.66         7.8 0.22            113            195  95 
 HEL  HE ES   4   2034  4.06                             110    2.77 0  223 259 
 HEL  HZ I        2034  7.50         5.8 0.20            108            223 259 
 GUY2CHN ES   4   2034  9.59                             107    2.36 0  251 233 
 GUY2CHZ I        2034 14.57         7.0 0.76                           251 233 
 SML  HZ EP   1   2033 38.53                             107    0.01 6  252 347 
 SML  HE ES   1   2034  7.24                             107    0.86 6  252 347 
 SML  HZ I        2034 10.44        20.6 0.10            106            252 347 
 RREF HZ EP       2033 42.37                             105    0.66 8  272 227 
 RREF HN ES   1   2034 12.57                             105    0.50 6  272 227 
 RREF HZ I        2034 17.04         4.1 0.20            104            272 227 
 CBOC HZ EP   4   2033 43.85                             104    1.36 0  284 254 
 CBOC HN ES   4   2034 15.02                             104    1.58 0  284 254 
 CBOC HZ I        2034 17.48         2.3 0.17            103            284 254 
 TOL  SZ EP       2033 44.72                             104    0.67 7  295 222 
 TOL  SN ES   4   2034 17.66                             104    1.43 0  295 222 
 TOL  SZ I        2034 22.94         2.5 0.31            102            295 222 
 PRA  HZ EP       2033 50.09                             100   -0.12 6  350 205 
 PRA  HN ES   4   2034 28.79                             100    1.59 0  350 205 
 PRA  HZ I        2034 32.13         3.1 0.30             99            350 205 
 ORTC HZ EP       2033 50.45                             100    0.21 6  350 213 
 ORTC HE ES   4   2034 29.67                             100    2.42 0  350 213 
 ORTC HZ I        2034 33.81         3.6 0.50             99            350 213 
                                                                                
