 2017  116 2249 14.9 L   6.792 -73.132149.9  RSN  4 0.2 1.1LRSN                1
 GAP=139        0.47       2.9     4.0  5.4  0.3150E+00  0.4978E+01  0.1440E+01E
 Epicentro: LOS SANTOS - SANTANDER                                             3
 ACTION:UPD 17-05-22 16:00 OP:jn   STATUS:               ID:20170116224914 L   I
 OLDACT:UP  17-01-17 04:47 OP:and  STATUS:               ID:20170116224744     3
 OLDACT:UP  17-01-17 04:38 OP:and  STATUS:               ID:20170116224744     3
 OLDACT:REG 17-01-17 02:47 OP:and  STATUS:               ID:20170116224744     3
 2017-01-16-2248-00M.COL___335                                                 6
 STAT SP IPHASW D HRMM SECON CODA AMPLIT PERI AZIMU VELO AIN AR TRES W  DIS CAZ7
 BAR2 EZ ES   4   2249 50.66                             171   -0.04 0 22.8 194 
 BRR  HZ EP       2249 36.57                             152   -0.0110 72.9 299 
 BRR  HN ES       2249 53.70                             152    0.2010 72.9 299 
 PAM  EZ EP   2   2249 37.95                             152    0.42 5 77.1  38 
 PAM  EN ES       2249 54.98                             152   -0.2110 77.1  38 
 PAM  EZ I        2249 55.87         2.5 0.28             47           77.1  38 
 RUS  HZ EP   2   2249 39.01                             145    0.03 5 99.6 177 
 RUS  HN ES       2249 57.75                             145   -0.0210 99.6 177 
 RUS  HZ I        2249 58.28         1.3 0.20             47           99.6 177 
 PTB  HZ EP   2   2249 41.96                             132   -0.35 5  149 259 
 PTB  HZ I        2250  8.24         2.1 0.12             47            149 259 
 ZAR  HE ES   4   2250 12.84                             123   -0.59 0  206 292 
                                                                                
