 2015 1216 2349 15.0 L   6.782 -73.144145.2  RSN  6 0.2 1.6LRSN                1
 GAP=138        0.64       3.1     3.7  4.3 -0.4535E+01  0.3264E+01  0.1844E+01E
 Epicentro: LOS SANTOS - SANTANDER                                             3
 ACTION:UPD 16-02-04 15:05 OP:cam  STATUS:               ID:20151216234915 L   I
 OLDACT:UP  15-12-17 03:51 OP:mh   STATUS:               ID:20151216234747     3
 OLDACT:REG 15-12-17 02:57 OP:mh   STATUS:               ID:20151216234747     3
 2015-12-16-2347-47M.COL___334                                                 6
 STAT SP IPHASW D HRMM SECON CODA AMPLIT PERI AZIMU VELO AIN AR TRES W  DIS CAZ7
 BAR2 EZ EP       2349 34.46                             171   -0.0510 21.4 192 
 BAR2 EZ ES       2349 49.87                             171    0.1410 21.4 192 
 BAR2 EZ I        2349 50.95         7.7 0.46            171           21.4 192 
 BRR  HZ EP       2349 36.49                             152    0.3510 72.4 300 
 BRR  HN ES       2349 52.77                             152    0.1310 72.4 300 
 PAM  EZ EP       2349 37.19                             150   -0.0410 78.8  38 
 PAM  EN ES       2349 54.21                             150   -0.3610 78.8  38 
 PAM  EZ I        2349 56.34         9.1 0.46            152           78.8  38 
 RUS  HZ EP       2349 38.36                             144   -0.1810 98.5 176 
 RUS  HN ES       2349 57.17                             144    0.2710 98.5 176 
 RUS  HZ I        2349 58.09         2.5 0.34            145           98.5 176 
 SPBC HZ EP       2349 43.40                             129    0.09 9  162 220 
 SPBC HN ES       2350  5.20                             129   -0.19 9  162 220 
 SPBC HZ I        2350  7.72         9.4 0.22            130            162 220 
 NOR  HZ EP       2349 50.79                             118    0.21 8  234 235 
 NOR  HN ES       2350 17.85                             118   -0.49 8  234 235 
 NOR  HZ I        2350 21.66         3.1 0.16            119            234 235 
                                                                                
