 2012 1216 2200 16.6 L   6.833 -73.160147.9  RSN 11 0.4 1.8LRSN                1
 GAP=133        0.84       3.5     4.1  6.1 -0.9002E+00  0.6981E+01  0.1605E+00E
 Epicentro: LOS SANTOS - SANTANDER                                             3
 ACTION:UPD 13-01-04 14:28 OP:ep   STATUS:               ID:20121216220016 L   I
 2012-12-16-2200-00M.COL___242                                                 6
 STAT SP IPHASW D HRMM SECON CODA AMPLIT PERI AZIMU VELO AIN AR TRES W  DIS CAZ7
 BAR2 SZ ES   1   22 0 52.08                             169   -0.05 7 26.8 185 
 BAR2 SZ I        22 0 52.89        41.7 0.22                          26.8 185 
 GIR2 SZ EP   1   22 0 36.60                             169    0.17 7 27.4 352 
 GIR2 SZ ES   2   22 0 51.75                             169   -0.14 5 27.4 352 
 GIR2 SZ I        22 0 53.30         8.3 0.52                          27.4 352 
 BRR  HZ EP   1   22 0 38.47                             154    0.66 7 68.1 296 
 BRR  HN ES   1   22 0 54.85                             154    0.49 7 68.1 296 
 BRR  HZ I        22 0 56.13        21.0 0.16                          68.1 296 
 PAM  SZ EP       22 0 39.50                             152    0.5610 75.6  42 
 PAM  SN ES   1   22 0 56.42                             152    0.06 7 75.6  42 
 PAM  SZ I        22 0 58.87         4.6 0.46                          75.6  42 
 RUS  HZ EP       22 0 40.62                             143   -0.2210  104 175 
 RUS  HN ES   1   22 0 59.35                             143   -0.39 7  104 175 
 RUS  HZ I        22 1  0.90         8.6 0.36                           104 175 
 PTB  HZ EP   1   22 0 43.35                             133   -0.33 7  147 257 
 PTB  HN ES   1   22 1  4.27                             133   -0.52 7  147 257 
 PTB  HZ I        22 1  7.18         8.2 0.26                           147 257 
 OCA  HZ EP   1   22 0 43.97                             131   -0.75 7  156 354 
 OCA  HN ES   1   22 1  6.00                             131   -0.65 7  156 354 
 OCA  HZ I        22 1 16.34         6.5 0.22                           156 354 
 ZAR  HZ EP   1   22 0 48.88                             123   -0.02 6  201 291 
 ZAR  HN ES   1   22 1 14.74                             123    0.65 6  201 291 
 ZAR  HZ I        22 1 21.92         8.9 0.16                           201 291 
 SML  HN ES   1   22 1 21.02                             118   -0.22 6  240 335 
 HEL  HZ EP   1   22 0 57.11                             115    0.25 6  271 255 
 HEL  HE ES   1   22 1 28.06                             115   -0.20 6  271 255 
 HEL  HZ I        22 1 42.51         3.1 0.38                           271 255 
 PRA  HN ES   1   22 1 52.83                             107    0.32 4  394 209 
 PRA  HZ I        22 1 56.00         3.2 0.26                           394 209 
                                                                                
