 2013 1216 2143 58.0 L   7.540 -73.269  4.0  RSN  6 0.5 2.0LRSN                1
 GAP=113        1.15       6.9     7.0 17.1  0.4291E+02  0.1095E+03  0.1087E+03E
 Epicentro: EL PLAYON - SANTANDER                                              3
 ACTION:UPD 14-01-13 10:18 OP:ep   STATUS:               ID:20131216214358 L   I
 OLDACT:DUP 13-12-17 05:40 OP:carl STATUS:               ID:20131216214001d    3
 2013-12-16-2140-00M.COL___285                                                 6
 STAT SP IPHASW D HRMM SECON CODA AMPLIT PERI AZIMU VELO AIN AR TRES W  DIS CAZ7
 PAM  SZ IP     D 2144  9.11                              93   -0.0710 66.7 109 
 PAM  SN ES       2144 17.49                              93   -0.4310 66.7 109 
 PAM  SZ I        2144 18.04        53.1 0.30             47           66.7 109 
 OCA  HN ES       2144 20.05                              93   -0.1810 77.5 356 
 OCA  HZ I        2144 21.77        28.4 0.16             47           77.5 356 
 SML  HZ EP       2144 24.34                              91    0.75 9  165 328 
 SML  HN ES       2144 43.33                              91   -0.24 9  165 328 
 SML  HZ I        2144 45.68        53.7 0.24             47            165 328 
 PTB  HZ EP       2144 24.66                              56    0.07 9  172 230 
 PTB  HN ES       2144 44.83                              56   -0.51 9  172 230 
 ZAR  HN ES       2144 46.14                              56   -0.23 9  175 268 
 RUS  HZ EP       2144 27.80                              56    1.05 9  183 174 
 RUS  HN ES       2144 49.15                              56   -0.03 9  183 174 
 RUS  HZ I        2144 53.42        16.3 0.24             37            183 174 
                                                                                
