 2013  516 2011 55.9 L   6.786 -73.104146.2  RSN  4 0.2 1.6LRSN                1
 GAP=143        0.52       3.0     4.5  5.1  0.1548E+01 -0.4194E+01 -0.1711E-01E
 Epicentro: LOS SANTOS - SANTANDER                                             3
 ACTION:UPD 13-06-20 09:51 OP:ep   STATUS:               ID:20130516201155 L   I
 2013-05-16-2010-00M.COL___253                                                 6
 STAT SP IPHASW D HRMM SECON CODA AMPLIT PERI AZIMU VELO AIN AR TRES W  DIS CAZ7
 BAR2 SZ EP   1   2012 15.27                             171   -0.27 7 23.1 202 
 BAR2 SZ ES   2   2012 30.82                             171   -0.07 5 23.1 202 
 PAM  SZ EP       2012 18.24                             151    0.2110 75.8  36 
 PAM  SN ES   1   2012 35.20                             151   -0.12 7 75.8  36 
 PAM  SZ I        2012 37.22         7.6 0.54            151           75.8  36 
 BRR  HZ IP     D 2012 17.04                             151   -0.2910 76.0 298 
 BRR  HN ES       2012 34.26                             151    0.1810 76.0 298 
 RUS  HZ EP       2012 19.70                             144    0.1710 98.9 179 
 RUS  HN ES       2012 37.97                             144   -0.0310 98.9 179 
 RUS  HZ I        2012 39.27         7.3 0.28            146           98.9 179 
                                                                                
