 2012  216 2225 44.8 L   6.769 -73.140138.1  RSN 13 0.4 2.9LRSN                1
 GAP=139        0.89       3.8     4.0  6.0 -0.1636E+01  0.8070E+01  0.6666E+01E
 ACTION:UP  12-03-07 16:31 OP:epov STATUS:               ID:20120216222544 L   I
 2012-02-16-2220-00M.COL___188                                                 6
 STAT SP IPHASW D HRMM SECON CODA AMPLIT PERI AZIMU VELO AIN AR TRES W  DIS CAZ7
 BAR2 SZ EP   1   2226  3.64                             171    0.16 7 20.1 193 
 BAR2 SZ ES   1   2226 18.32                             171    0.30 7 20.1 193 
 BAR2 SZ I        2226 20.46       143.6 0.34                          20.1 193 
 GIR2 SZ EP       2226  3.84                             165    0.1410 34.7 350 
 BRR  HZ EP       2226  5.65                             150    0.3610 73.4 301 
 BRR  HZ I        2226  7.33       149.2 0.12                          73.4 301 
 BRR  HN ES   1   2226 21.99                             150    0.75 7 73.4 301 
 PAM  SZ EP       2226  6.53                             149    0.1510 79.7  38 
 PAM  SN ES       2226 22.66                             149   -0.5310 79.7  38 
 RUS  HZ EP       2226  7.61                             143    0.0310 97.1 176 
 RUS  HN ES   1   2226 24.81                             143   -0.52 7 97.1 176 
 RUS  HZ I        2226 31.05        52.2 0.30                          97.1 176 
 PTB  HZ EP       2226 10.45                             130   -0.73 9  148 260 
 PTB  HN ES   1   2226 31.24                             130   -0.49 7  148 260 
 ZAR  HZ EP   1   2226 17.03                             120    0.05 6  206 293 
 ZAR  HN ES   1   2226 42.21                             120    0.15 6  206 293 
 ZAR  HZ I        2226 48.22        94.8 0.34                           206 293 
 NOR  SZ EP   1   2226 19.74                             117   -0.22 6  233 235 
 NOR  SN ES   1   2226 46.74                             117   -0.63 6  233 235 
 CHI  HZ EP   1   2226 21.76                             116   -0.01 6  245 196 
 CHI  HZ I        2226 23.31        24.1 0.23                           245 196 
 CHI  HN ES   1   2226 51.55                             116    0.97 6  245 196 
 ROSC BZ EP   1   2226 22.86                             115    0.61 6  250 212 
 HEL  HZ EP   1   2226 24.49                             113   -0.15 6  272 257 
 HEL  HE ES   1   2226 55.91                             113    0.23 6  272 257 
 HEL  HZ I        2227  3.04        57.5 0.34                           272 257 
 RREF HZ EP   1   2226 30.92                             109    0.47 5  320 230 
 RREF HZ I        2227 15.81        54.1 0.24                           320 230 
 PRA  HZ EP   1   2226 37.05                             105   -0.73 4  389 210 
 PRA  HZ I        2226 39.59       111.2 0.13                           389 210 
 PRA  HN ES   2   2227 19.22                             105    0.14 3  389 210 
                                                                                
