 2014  716 2004 16.5 L   7.186 -73.299118.7  RSN  8 0.3 1.8LRSN                1
 GAP=194        0.70       2.4     3.6  5.1  0.1729E+01  0.4280E+01 -0.1548E+01E
 Epicentro: LEBRIJA - SANTANDER                                                3
 ACTION:UPD 15-03-16 20:44 OP:nd   STATUS:               ID:20140716200416 L   I
 OLDACT:REG 14-07-17 03:46 OP:cam  STATUS:               ID:20140716200000     3
 2014-07-16-2000-00M.COL___282                                                 6
 STAT SP IPHASW D HRMM SECON CODA AMPLIT PERI AZIMU VELO AIN AR TRES W  DIS CAZ7
 BRR  HZ EP     D 20 4 33.20                             157   -0.1610 46.4 259 
 BRR  HE ES       20 4 46.39                             157   -0.1310 46.4 259 
 BAR2 SZ EP     C 20 4 35.12                             149    0.2710 67.0 169 
 BAR2 SZ ES       20 4 49.27                             149    0.1010 67.0 169 
 BAR2 SZ I        20 4 50.00        34.0 0.16            150           67.0 169 
 RUS  HN ES   1   20 5  1.47                             126    0.00 7  145 171 
 PTB  HZ EP       20 4 40.70                             125   -0.57 9  147 241 
 PTB  HN ES       20 5  0.36                             125   -0.25 9  147 241 
 PTB  HZ I        20 5  2.85         7.4 0.34            124            147 241 
 ZAR  HZ EP       20 4 44.21                             120   -0.02 9  175 281 
 ZAR  HN ES       20 5  6.55                             120    0.67 9  175 281 
 ZAR  HZ I        20 5 11.89         8.1 0.24            118            175 281 
 SPBC HZ EP   1   20 4 46.19                             118    0.29 7  190 207 
 SPBC HN ES       20 5  8.94                             118    0.10 9  190 207 
 SPBC HZ I        20 5 13.29         4.4 0.18            117            190 207 
 SML  HZ EP   1   20 4 46.68                             117    0.06 6  198 335 
 SML  HN ES       20 5 10.02                             117   -0.11 9  198 335 
 SML  HZ I        20 5 16.77         7.4 0.28            116            198 335 
 NOR  HE ES       20 5 20.59                             111   -0.02 8  250 224 
 NOR  HZ I        20 5 25.30         4.8 0.18            110            250 224 
                                                                                
