 2014  316 2348 54.1 L   6.728 -73.168136.0  RSN  4 0.5 1.0LRSN                1
 GAP=137        1.38       7.1     6.9 12.4 -0.4990E+01  0.8338E+01  0.1022E+02E
 Epicentro: VILLANUEVA - SANTANDER                                             3
 ACTION:UPD 14-04-09 23:18 OP:nd   STATUS:               ID:20140316234854 L   I
 OLDACT:DUP 14-03-17 04:21 OP:stll STATUS:               ID:20140316234806d    3
 2014-03-16-2348-05M.COL___254                                                 6
 STAT SP IPHASW D HRMM SECON CODA AMPLIT PERI AZIMU VELO AIN AR TRES W  DIS CAZ7
 BRR  HZ EP       2349 14.21                             150   -0.0910 73.3 305 
 BRR  HE ES       2349 30.95                             150    0.8710 73.3 305 
 BRR  HZ I        2349 35.65         4.1 0.36            152           73.3 305 
 PAM  SZ EP       2349 15.49                             146   -0.2710 85.1  37 
 PAM  SN ES       2349 32.34                             146   -0.3410 85.1  37 
 PAM  SZ I        2349 35.40         1.7 0.50            150           85.1  37 
 RUS  HZ EP       2349 16.59                             144    0.2910 92.9 174 
 RUS  HN ES       2349 33.64                             144   -0.0110 92.9 174 
 RUS  HZ I        2349 35.90         1.1 0.36            149           92.9 174 
 PTB  HZ EP       2349 20.43                             130    0.52 9  144 262 
 PTB  HE ES       2349 39.03                             130   -1.03 9  144 262 
 PTB  HZ I        2349 42.52         1.9 0.20            134            144 262 
                                                                                
