 2012  316 2248 32.9 L   6.790 -73.161143.8  RSN  5 0.3 1.2LRSN                1
 GAP=135        0.65       4.8     6.9  8.9 -0.2633E+01  0.2579E+02  0.1056E+01E
 ACTION:UP  12-03-31 23:20 OP:EP   STATUS:               ID:20120316224832 L   I
 2012-03-16-2240-00M.COL___202                                                 6
 STAT SP IPHASW D HRMM SECON CODA AMPLIT PERI AZIMU VELO SNR AR TRES W  DIS CAZ7
 BAR2 SZ EP   2   2248 52.29                             171     0.0 5   22 186 
 BAR2 SZ I        2248 52.72         4.6 0.11                            22 186 
 BRR  HZ EP       2248 54.12                             152     0.410   70 300 
 BRR  HN ES   2   2249  9.81                             152    -0.2 5   70 300 
 PAM  SZ EP   1   2248 55.11                             150     0.1 7   79  40 
 PAM  SN ES   1   2249 12.03                             150    -0.2 7   79  40 
 RUS  HZ EP   1   2248 55.96                             144    -0.4 7  100 175 
 RUS  HE ES   1   2249 14.95                             144     0.3 7  100 175 
 RUS  HZ I        2249 16.74         1.7 0.59                           100 175 
 PTB  HZ EP   1   2248 59.23                             132    -0.3 7  146 259 
                                                                                
