 2013  616 2026 13.8 L   6.798 -73.119148.4  RSN  9 0.2 1.8LRSN                1
 GAP=186        0.60       2.3     3.4  3.9  0.2782E+00  0.1962E+01 -0.1710E+01E
 Epicentro: LOS SANTOS - SANTANDER                                             3
 ACTION:UPD 14-01-08 09:55 OP:ep   STATUS:               ID:20130616202613 L   I
 OLDACT:REG 13-06-16 22:46 OP:nd   STATUS:               ID:20130616201959     3
 2013-06-16-2019-59M.COL___261                                                 6
 STAT SP IPHASW D HRMM SECON CODA AMPLIT PERI AZIMU VELO AIN AR TRES W  DIS CAZ7
 BAR2 SZ EP       2026 33.75                             171    0.0210 23.8 197 
 BAR2 SZ ES       2026 49.39                             171    0.0910 23.8 197 
 BAR2 SZ I        2026 50.45        14.3 0.38            174           23.8 197 
 GIR2 SZ EP       2026 33.79                             167    0.0010 32.1 345 
 GIR2 SZ I        2026 51.60         4.9 0.18            164           32.1 345 
 BRR  HZ IP     C 2026 35.63                             152    0.2610 73.9 298 
 BRR  HN ES       2026 52.44                             152    0.2410 73.9 298 
 BRR  HZ I        2026 57.61        11.2 0.12            152           73.9 298 
 RUS  HZ EP       2026 37.86                             144    0.1010  100 178 
 RUS  HN ES       2026 56.17                             144   -0.3010  100 178 
 RUS  HZ I        2026 57.41         6.9 0.40            146            100 178 
 PTB  HZ EP       2026 40.79                             132   -0.43 9  151 259 
 PTB  HN ES       2027  2.25                             132   -0.37 9  151 259 
 PTB  HZ I        2027  3.86        12.3 0.14            133            151 259 
 OCA  HZ EP   2   2026 42.21                             130   -0.14 5  161 352 
 OCA  HN ES   2   2027  4.83                             130    0.19 5  161 352 
 OCA  HZ I        2027  7.96        10.9 0.24            129            161 352 
 NOR  HZ EP       2026 50.19                             119    0.28 8  237 235 
 NOR  HN ES       2027 18.45                             119    0.37 8  237 235 
 NOR  HZ I        2027 23.02         4.9 0.22            120            237 235 
 SML  HZ EP       2026 50.65                             118   -0.06 8  245 335 
 SML  HN ES       2027 19.33                             118   -0.19 8  245 335 
 SML  HZ I        2027 23.35        14.8 0.24            117            245 335 
 GUY2CHZ EP   4   2026 59.52                             113    1.75 0  303 235 
 GUY2CHN ES   4   2027 28.67                             113   -3.41 0  303 235 
 GUY2CHZ I        2027 43.57         2.9 0.48                           303 235 
                                                                                
