 2012  616 2101 23.6 L   6.776 -73.153138.5  RSN  6 0.4 1.3LRSN                1
 GAP=137        0.72       5.4     4.3  8.5 -0.1063E+01  0.1043E+02 -0.9830E+01E
 Epicentro: LOS SANTOS - SANTANDER                                             3
 ACTION:UPD 12-08-06 17:50 OP:ep   STATUS:               ID:20120616210123 L   I
 2012-06-16-2100-00M.COL___198                                                 6
 STAT SP IPHASW D HRMM SECON CODA AMPLIT PERI AZIMU VELO AIN AR TRES W  DIS CAZ7
 BAR2 SZ EP   1   21 1 42.55                             171    0.25 9 20.6 189 
 BAR2 SZ ES   1   21 1 57.18                             171    0.29 9 20.6 189 
 BAR2 SZ I        21 2  0.23         8.6 0.24                          20.6 189 
 PAM  SZ EP   1   21 1 45.08                             149   -0.12 9 79.9  39 
 RUS  HZ EP   1   21 1 46.68                             143    0.23 9 98.0 175 
 RUS  HN ES   1   21 2  3.87                             143   -0.41 9 98.0 175 
 RUS  HZ I        21 2  6.83         2.9 0.25                          98.0 175 
 PTB  HZ EP   1   21 1 49.39                             130   -0.47 9  146 260 
 PTB  HN ES   1   21 2  9.79                             130   -0.56 9  146 260 
 PTB  HZ I        21 2 15.86         1.7 0.11                           146 260 
 ZAR  HE ES   1   21 2 20.83                             121    0.26 8  204 293 
 NOR  SE ES       21 2 26.45                             117    0.4110  233 235 
                                                                                
