 2010  816 2042  3.4 L   6.785 -73.110142.0  RSN  5 0.3 1.7LRSN                1
 GAP=163        0.59       4.5     9.0  8.6  0.1309E+02 -0.4656E+02 -0.1343E+02E
 Epicentro: LOS SANTOS - SANTANDER                                             3
 ACTION:UP  10-09-07 10:55 OP:vdl  STATUS:               ID:20100816204203 L   I
 2010-08-16-2038-16S.COL___110                                                 6
 STAT SP IPHASW D HRMM SECON CODA AMPLIT PERI AZIMU VELO SNR AR TRES W  DIS CAZ7
 BAR2 SZ EP   2   2042 22.03                             171    -0.6 5   23 201 
 BAR2 SZ ES   2   2042 37.17                             171    -0.4 5   23 201 
 BAR2 SZ I        2042 38.64        13.1 0.04                            23 201 
 BRR  HZ IP     C 2042 24.25                             151    -0.210   76 298 
 BRR  HZ I        2042 24.57        27.4 0.19                            76 298 
 BRR  HN ES   1   2042 41.04                             151     0.2 7   76 298 
 RUS  HZ EP       2042 26.74                             144     0.110   99 178 
 RUS  HN ES   2   2042 45.14                             144     0.3 5   99 178 
 RUS  HZ I        2042 46.87         3.0 0.40                            99 178 
 GUE  SZ EP   2   2042 28.25                             138     0.4 5  117  10 
 GRA  SZ EP       2042 28.38                             136     0.010  126  16 
                                                                                
