 2017  216 2213 55.5 L   6.741 -73.136147.1  RSN  9 0.5 2.2LRSN                1
 GAP=122        1.16       4.5     4.5  7.4  0.2418E+01  0.6609E+01  0.3780E+01E
 Epicentro: LOS SANTOS - SANTANDER                                             3
 ACTION:UPD 17-05-24 15:37 OP:jn   STATUS:               ID:20170216221355 L   I
 OLDACT:UP  17-02-17 05:09 OP:ar   STATUS:               ID:20170216220743     3
 OLDACT:REG 17-02-17 04:17 OP:ar   STATUS:               ID:20170216220743     3
 2017-02-16-2208-00M.COL___355                                                 6
 STAT SP IPHASW D HRMM SECON CODA AMPLIT PERI AZIMU VELO AIN AR TRES W  DIS CAZ7
 BAR2 EZ EP       2214 15.29                             173    0.1510 17.2 197 
 BAR2 EZ ES       2214 30.52                             173    0.0310 17.2 197 
 BAR2 EZ I        2214 31.10        61.1 0.26            170           17.2 197 
 BRR  HZ EP       2214 17.08                             151    0.0910 75.4 303 
 BRR  HE ES       2214 34.27                             151    0.4810 75.4 303 
 BRR  HZ I        2214 37.14        28.3 0.19            149           75.4 303 
 PAM  EZ EP       2214 18.20                             149    0.1110 81.9  36 
 PAM  EN ES       2214 35.05                             149   -0.6810 81.9  36 
 PAM  EZ I        2214 37.04        38.3 0.58            153           81.9  36 
 RUS  HZ EP       2214 19.25                             146    0.3710 94.0 176 
 RUS  HN ES       2214 37.61                             146    0.4710 94.0 176 
 RUS  HZ I        2214 38.80        11.4 0.36            146           94.0 176 
 PTB  HZ EP       2214 21.98                             132   -0.55 9  148 261 
 PTB  HN ES       2214 42.71                             132   -0.93 9  148 261 
 PTB  HZ I        2214 50.08        15.4 0.50            131            148 261 
 ZAR  HZ EP       2214 28.96                             122    0.61 8  208 294 
 ZAR  HN ES       2214 54.05                             122    0.04 8  208 294 
 ZAR  HZ I        2214 59.96        22.0 0.24            122            208 294 
 NOR  HN ES       2214 58.80                             119    0.15 8  232 236 
 NOR  HZ I        2215  0.74         7.3 0.16            119            232 236 
 PTGC HN ES       2215 11.71                             112   -0.61 7  302 158 
 PRA  HZ EP   9   2214 51.13                             107    2.71 0  387 210 
 PRA  HN ES       2215 31.77                             106   -0.67 6  387 210 
 PRA  HZ I        2215 37.23         4.9 0.32            107            387 210 
                                                                                
