 2015 1016 2036 23.0 L   6.782 -73.132143.3  RSN 10 0.5 1.9LRSN                1
 GAP=139        1.07       3.0     4.6  5.8 -0.1355E+01  0.9376E+01  0.9588E+00E
 Epicentro: LOS SANTOS - SANTANDER                                             3
 OLDACT:REG 15-10-17 03:06 OP:mh   STATUS:               ID:20151016202748     3
 ACTION:UPD 15-12-22 20:40 OP:cam  STATUS:               ID:20151016203623 L   I
 OLDACT:UP  15-10-17 05:54 OP:mh   STATUS:               ID:20151016202748     3
 OLDACT:UP  15-10-17 05:08 OP:cara STATUS:               ID:20151016202748     3
 2015-10-16-2027-48M.COL___343                                                 6
 STAT SP IPHASW D HRMM SECON CODA AMPLIT PERI AZIMU VELO AIN AR TRES W  DIS CAZ7
 BAR2 EZ IP     D 2036 42.64                             171    0.3510 21.7 195 
 BAR2 EZ ES       2036 57.13                             171   -0.2110 21.7 195 
 BAR2 EZ I        2036 59.43        15.7 0.18            170           21.7 195 
 BRR  HZ EP       2036 44.09                             151    0.0910 73.5 299 
 BRR  HN ES       2037  0.90                             151    0.5010 73.5 299 
 BRR  HZ I        2037  6.13        22.4 0.46            149           73.5 299 
 PAM  EZ IP     C 2036 45.52                             150    0.5410 78.0  38 
 PAM  EZ I        2036 45.58        19.9 0.22            154           78.0  38 
 PAM  EN ES       2037  1.98                             150   -0.1510 78.0  38 
 RUS  HZ EP     D 2036 46.38                             144    0.0410 98.5 177 
 RUS  HE ES       2037  4.39                             144   -0.1710 98.5 177 
 RUS  HZ I        2037  7.08         6.8 0.30            147           98.5 177 
 SPBC HZ EP       2036 50.87                             129   -0.37 9  163 220 
 SPBC HE ES       2037 12.95                             129   -0.32 9  163 220 
 SPBC HZ I        2037 17.84        10.1 0.10            130            163 220 
 ZAR  HZ EP       2036 55.65                             122    0.16 8  206 293 
 ZAR  HE ES       2037 21.42                             122    0.57 8  206 293 
 ZAR  HZ I        2037 26.54        12.7 0.42            122            206 293 
 NOR  HZ EP       2036 57.88                             118   -0.70 8  235 235 
 NOR  HN ES       2037 25.74                             118   -0.60 8  235 235 
 NOR  HZ I        2037 29.48         5.6 0.18            119            235 235 
 SML  HZ EP       2036 59.01                             117   -0.73 8  246 335 
 SML  HE ES       2037 27.64                             117   -0.77 8  246 335 
 SML  HZ I        2037 37.20         8.7 0.10            118            246 335 
 CHI  HZ EP       2037  0.70                             117    0.33 8  247 196 
 CHI  HE ES       2037 29.56                             117    0.02 8  247 196 
 CHI  HZ I        2037 34.03         3.3 0.30            119            247 196 
 GUY2CHZ EP       2037  7.40                             112    0.91 7  301 235 
 GUY2CHN ES       2037 40.75                             112    0.33 7  301 235 
 GUY2CHZ I        2037 48.81         3.7 0.50                           301 235 
                                                                                
