 2011  716 2120 22.8 L   7.056 -73.389120.8  RSN 11 0.4 2.6LRSN                1
 GAP= 84        0.69       2.4     4.1  4.8 -0.2971E+01  0.1308E+01  0.2038E+01E
 Epicentro: SAN VICENTE DE CHUCURI - SANTANDER                                 3
 ACTION:UPD 12-07-25 14:01 OP:epov STATUS:               ID:20110716212022 L   I
 2011-07-16-2117-44S.COL___132                                                 6
 STAT SP IPHASW D HRMM SECON CODA AMPLIT PERI AZIMU VELO AIN AR TRES W  DIS CAZ7
 BTL  SZ EP       2120 39.80                             170    0.4810 20.3 139 
 BRR  HZ EP       2120 39.59                             162    0.1610 36.2 279 
 BRR  HN ES       2120 52.55                             162    0.1110 36.2 279 
 BRR  HZ I        2120 53.34       179.8 0.16                          36.2 279 
 BAR2 SZ EP       2120 40.93                             154    0.2210 56.2 156 
 BAR2 SZ ES   1   2120 54.63                             154   -0.08 7 56.2 156 
 BAR2 SZ I        2120 56.07       101.7 0.39                          56.2 156 
 PAM  SZ EP       2120 42.95                             144    0.2210 82.3  68 
 PAM  SN ES   1   2120 58.16                             144   -0.15 7 82.3  68 
 BRI  SZ EP   2   2120 43.69                             138    0.20 5 98.0  42 
 GRA  SZ EP   2   2120 44.32                             134   -0.33 5  112  35 
 GRA  SZ ES   1   2121  1.02                             134   -0.72 7  112  35 
 GRA  SZ I        2121  1.51        83.7 0.27                           112  35 
 OCA  SZ EP       2120 46.42                             129    0.0510  131   3 
 OCA  SZ ES   1   2121  4.51                             129   -0.29 7  131   3 
 OCA  SZ I        2121  7.90       103.3 0.32                           131   3 
 RUS  HZ EP   1   2120 46.86                             129   -0.16 7  133 165 
 RUS  HN ES   1   2121  5.74                             129   -0.21 7  133 165 
 RUS  HZ I        2121  7.33        26.6 0.23                           133 165 
 NOR  SZ EP   2   2120 56.46                             113   -0.47 4  233 225 
 CHI  HZ EP   2   2121  2.44                             109    0.68 4  271 188 
 CHI  HN ES       2121 31.90                             109   -0.29 8  271 188 
 CHI  HZ I        2121 38.00        12.4 0.23                           271 188 
 RREF HZ EP   2   2121  8.35                             106    0.36 3  322 222 
 RREF HE ES   1   2121 42.38                             106   -0.90 5  322 222 
 RREF HZ I        2121 52.24        17.6 0.19                           322 222 
                                                                                
