 2012  316 2357 58.5 L   6.781 -73.134142.5  RSN  5 0.4 1.5LRSN                1
 GAP=139        0.80       4.2     5.8  8.5  0.4233E+00  0.1371E+02  0.6166E+01E
 ACTION:UP  12-03-31 23:20 OP:EP   STATUS:               ID:20120316235758 L   I
 2012-03-16-2350-00M.COL___202                                                 6
 STAT SP IPHASW D HRMM SECON CODA AMPLIT PERI AZIMU VELO SNR AR TRES W  DIS CAZ7
 BRR  HZ EP   2   2358 19.65                             151     0.3 5   73 299 
 BRR  HZ I        2358 21.09        12.0 0.20                            73 299 
 BRR  HN ES   2   2358 36.76                             151     1.1 5   73 299 
 PAM  SZ EP       2358 20.49                             150     0.110   78  38 
 PAM  SE ES       2358 37.32                             150    -0.210   78  38 
 RUS  HZ EP       2358 21.76                             144     0.010   98 177 
 RUS  HN ES       2358 39.73                             144    -0.210   98 177 
 RUS  HZ I        2358 41.72         3.1 0.21                            98 177 
 ZAR  HE ES   1   2358 55.64                             121    -0.6 6  206 293 
 ZAR  HZ I        2359  1.98         3.4 0.17                           206 293 
 CHI  HZ EP   1   2358 36.01                             116     0.2 6  247 196 
                                                                                
