 2015  116 2314 45.4 L   6.756 -73.155146.2  RSN  6 0.3 1.4LRSN                1
 GAP=137        0.87       3.6     3.9  7.5  0.8335E+00  0.5197E+01  0.5518E+01E
 Epicentro: LOS SANTOS - SANTANDER                                             3
 ACTION:UPD 15-03-02 15:40 OP:nd   STATUS:               ID:20150116231445 L   I
 OLDACT:REG 15-01-17 05:16 OP:fm   STATUS:               ID:20150116230746     3
 2015-01-16-2307-46M.COL___265                                                 6
 STAT SP IPHASW D HRMM SECON CODA AMPLIT PERI AZIMU VELO AIN AR TRES W  DIS CAZ7
 BRR  HZ EP       2315  7.06                             152    0.4210 72.7 302 
 BRR  HE ES       2315 23.70                             152    0.4610 72.7 302 
 BRR  HZ I        2315 38.27         8.3 0.36            153           72.7 302 
 PAM  SZ EP       2315  7.96                             149    0.0710 81.8  38 
 PAM  SE ES       2315 25.14                             149   -0.3210 81.8  38 
 PAM  SZ I        2315 27.72         2.5 0.46            157           81.8  38 
 RUS  HZ EP       2315  8.62                             145   -0.2010 95.8 175 
 RUS  HN ES       2315 27.14                             145    0.0310 95.8 175 
 RUS  HZ I        2315 29.47         2.4 0.42            151           95.8 175 
 PTB  HZ EP       2315 11.93                             132   -0.26 9  146 261 
 PTB  HE ES       2315 32.50                             132   -0.62 9  146 261 
 PTB  HZ I        2315 35.25         3.3 0.38            137            146 261 
 ZAR  HN ES       2315 43.44                             122    0.11 9  205 294 
 ZAR  HZ I        2315 48.27         4.1 0.28            127            205 294 
 CHI  HN ES       2315 51.91                             118    0.36 8  244 195 
 CHI  HZ I        2315 57.47         1.6 0.52            124            244 195 
                                                                                
