 2017  416 2130 35.7 L   6.806 -73.157144.5  RSN 19 0.5 2.3LRSN                1
 GAP=111        1.07       3.3     3.5  5.4  0.1165E+00  0.1995E+01  0.2787E+01E
 Epicentro: LOS SANTOS - SANTANDER                                             3
 ACTION:UPD 17-05-30 21:13 OP:jn   STATUS:               ID:20170416213035 L   I
 OLDACT:UP  17-04-17 07:00 OP:and  STATUS:               ID:20170416212738     3
 OLDACT:UP  17-04-17 06:59 OP:and  STATUS:               ID:20170416212738     3
 OLDACT:UP  17-04-17 06:58 OP:and  STATUS:               ID:20170416212738     3
 OLDACT:UP  17-04-17 06:58 OP:and  STATUS:               ID:20170416212738     3
 OLDACT:UP  17-04-17 06:53 OP:and  STATUS:               ID:20170416212738     3
 OLDACT:REG 17-04-17 05:30 OP:and  STATUS:               ID:20170416212738     3
 2017-04-16-2128-00M.COL___365                                                 6
 STAT SP IPHASW D HRMM SECON CODA AMPLIT PERI AZIMU VELO AIN AR TRES W  DIS CAZ7
 BAR2 EZ EP       2130 55.09                             170   -0.1410 23.8 187 
 BAR2 EZ ES       2131 10.27                             170   -0.1610 23.8 187 
 BAR2 EZ I        2131 12.91        69.0 0.30            166           23.8 187 
 BRR  HZ IP     D 2130 56.92                             153    0.2410 69.8 299 
 BRR  HN ES       2131 13.91                             153    0.9010 69.8 299 
 BRR  HZ I        2131 17.91        37.2 0.28            148           69.8 299 
 PAM  EZ IP     C 2130 58.08                             151    0.2410 77.6  41 
 PAM  EN ES       2131 14.78                             151   -0.2910 77.6  41 
 PAM  EZ I        2131 18.32        20.2 0.48            155           77.6  41 
 RUS  HZ EP       2130 58.97                             143   -0.4610  101 175 
 RUS  HN ES       2131 17.80                             143   -0.1010  101 175 
 RUS  HZ I        2131 19.02        35.3 0.38            143            101 175 
 PTB  HZ EP       2131  1.86                             132   -0.65 9  147 258 
 PTB  HN ES       2131 22.56                             132   -0.83 9  147 258 
 PTB  HZ I        2131 25.47        18.8 0.12            128            147 258 
 SPBC HZ EP   2   2131  4.08                             129   -0.04 5  163 219 
 SPBC HN ES       2131 25.97                             129   -0.29 9  163 219 
 SPBC HZ I        2131 32.33        29.7 0.22            126            163 219 
 YPLC HZ IP     C 2131  5.55                             126   -0.01 9  178 151 
 YPLC HN ES       2131 29.55                             126    0.73 9  178 151 
 YPLC HZ I        2131 30.49        24.3 0.26            127            178 151 
 ZAR  HZ EP       2131  8.33                             123    0.36 9  203 292 
 ZAR  HN ES       2131 33.39                             123    0.29 9  203 292 
 ZAR  HZ I        2131 38.30        22.5 0.26            120            203 292 
 TABC EZ EP   9   2131 12.73                             119    1.32 0  230 210 
 TABC EZ ES       2131 41.54                             119    0.99 8  230 210 
 TABC EZ I        2131 44.00        24.0 0.38            118            230 210 
 NOR  HZ EP       2131 11.54                             118    0.20 8  234 234 
 NOR  HN ES       2131 39.20                             118    0.10 8  234 234 
 NOR  HZ I        2131 46.98        12.2 0.18            116            234 234 
 CHI  HZ EP       2131 13.38                             117   -0.03 8  249 195 
 CHI  HN ES       2131 42.57                             117   -0.22 8  249 195 
 CHI  HZ I        2131 46.46         9.4 0.39            116            249 195 
 ROSC BZ EP   9   2131 15.26                             117    1.47 0  253 211 
 ROSC BN ES       2131 45.85                             116    0.91 8  253 211 
 ROSC BZ I        2131 49.81        26.9 0.45            115            253 211 
 HEL  HZ EP   9   2131 17.40                             115    1.62 0  271 256 
 HEL  HE ES       2131 48.43                             115   -0.20 8  271 256 
 HEL  HZ I        2131 55.38         8.5 0.36            113            271 256 
 URE  HN ES   4   2131 45.55                             114   -2.92 0  282 292 
 URE  HZ I        2131 58.73         9.1 0.09            112            282 292 
 PTGC HZ EP   3   2131 18.24                             111   -1.42 2  310 158 
 PTGC HN ES   4   2131 51.73                             111   -2.19 0  310 158 
 ELA  HN ES   3   2132  0.17                             110    1.22 2  329 229 
 ELA  HZ I        2132 14.40         9.1 0.44            109            329 229 
 ANIL HN ES   4   2132  8.64                             108    4.41 0  357 224 
 PRA  HZ EP   2   2131 29.09                             106   -0.13 3  392 209 
 PRA  HN ES       2132 11.52                             106    0.59 6  392 209 
 PRA  HZ I        2132 17.41        11.4 0.38            106            392 209 
 ORTC HZ EP   2   2131 30.07                             106    0.47 3  395 216 
 ORTC HN ES   3   2132 13.50                             106    1.89 1  395 216 
 ORTC HZ I        2132 18.76         3.2 0.56            105            395 216 
 PAL  HN ES   4   2132 12.57                             106   -1.14 0  405 239 
 SJC  HZ EP   3   2131 29.21                             106   -1.91 1  408 327 
 SJC  HN ES   4   2132 10.49                             106   -3.82 0  408 327 
 SJC  HZ I        2132 22.52         3.3 0.28            105            408 327 
                                                                                
