 2010 1016 2038 41.7 L   6.791 -73.129146.6  RSN 10 0.4 2.3LRSN                1
 GAP=161        0.93       3.3     7.2  7.2 -0.6493E+01  0.5366E+01  0.7067E+00E
 Epicentro: LOS SANTOS - SANTANDER                                             3
 ACTION:UP  11-02-18 11:10 OP:tino STATUS:               ID:20101016203841 L   I
 2010-10-16-2035-01S.COL___125                                                 6
 STAT SP IPHASW D HRMM SECON CODA AMPLIT PERI AZIMU VELO SNR AR TRES W  DIS CAZ7
 BAR2 SZ EP       2039  1.39                             171    -0.110   23 195 
 BAR2 SZ ES   2   2039 16.33                             171    -0.5 5   23 195 
 BAR2 SZ I        2039 17.59        43.8 0.41                            23 195 
 BRR  HZ EP       2039  3.18                             152     0.110   73 299 
 BRR  HZ I        2039  3.40        54.7 0.08                            73 299 
 BRR  HN ES   1   2039 20.03                             152     0.3 7   73 299 
 RUS  HZ EP       2039  5.44                             144    -0.110   99 177 
 RUS  HN ES       2039 23.95                             144    -0.110   99 177 
 RUS  HZ I        2039 25.15        13.9 0.23                            99 177 
 GUE  SZ EP   1   2039  5.48                             139    -1.1 7  117  11 
 GRA  SZ EP   1   2039  7.06                             137     0.0 7  126  17 
 GRA  SZ ES   1   2039 27.65                             137     0.8 7  126  17 
 GRA  SZ I        2039 31.26        11.0 0.37                           126  17 
 OCA  SZ EP       2039 10.41                             130     0.2 9  162 353 
 OCA  SZ ES   1   2039 32.28                             130    -0.2 7  162 353 
 OCA  SZ I        2039 36.54        24.0 0.30                           162 353 
 NOR  SZ EP   2   2039 17.22                             119    -0.4 4  236 235 
 NOR  SN ES   1   2039 45.14                             119    -0.5 6  236 235 
 CHI  HZ EP   1   2039 19.70                             117     0.3 6  248 196 
 CHI  HN ES   1   2039 49.34                             117     0.5 6  248 196 
 CHI  HZ I        2039 53.62        12.1 0.75                           248 196 
 HEL  HN ES   3   2039 54.09                             115     0.4 2  274 256 
 HEL  HZ I        2039 59.90        10.5 0.13                           274 256 
 PRA  HZ EP       2039 35.71                             107     0.4 6  392 210 
 PRA  HZ I        2039 37.77        22.8 0.32                           392 210 
 PRA  HN ES   2   2040 17.29                             107     0.2 3  392 210 
                                                                                
