 2011  617 0200 41.1 L   6.620 -72.936170.1  RSN  7 0.3 1.6LRSN                1
 GAP=184        0.61       5.3    10.8  6.3 -0.1439E+02 -0.1920E+02 -0.7044E+00E
 Epicentro: ARATOCA - SANTANDER                                                3
 ACTION:UP  11-07-14 19:05 OP:ep   STATUS:               ID:20110617020041 L   I
 2011-06-17-0200-00M.COL___122                                                 6
 STAT SP IPHASW D HRMM SECON CODA AMPLIT PERI AZIMU VELO SNR AR TRES W  DIS CAZ7
 BAR2 SZ EP   1    2 1  3.27                             171    -0.5 7   27 264 
 BAR2 SZ ES   1    2 1 21.64                             171     0.3 7   27 264 
 BAR2 SZ I         2 1 23.03        11.0 0.21                            27 264 
 BTL  SZ IP        2 1  4.48                             163     0.110   49 312 
 BTL  SZ ES   2    2 1 22.35                             163    -0.1 5   49 312 
 GIR2 SZ EP   2    2 1  4.65                             160     0.1 5   58 331 
 GIR2 SZ ES   2    2 1 22.73                             160    -0.1 5   58 331 
 RUS  HZ EP   2    2 1  5.80                             153    -0.4 5   82 191 
 RUS  HN ES   2    2 1 25.96                             153     0.2 5   82 191 
 RUS  HZ I         2 1 26.57         4.5 0.30                            82 191 
 BRR  HZ EP   1    2 1  6.51                             148    -0.1 7  101 302 
 BRR  HZ I         2 1  7.04         8.3 0.12                           101 302 
 BRR  HN ES   2    2 1 26.62                             148     0.0 5  101 302 
 BRI  SZ EP   1    2 1  8.88                             143     0.5 7  122   7 
 BRI  SZ ES   2    2 1 29.50                             143    -0.1 5  122   7 
 BRI  SZ I         2 1 36.32         5.1 0.62                           122   7 
 GRA  SZ EP   2    2 1  9.90                             139     0.1 5  141   6 
 GRA  SZ ES   2    2 1 31.49                             139    -0.6 5  141   6 
 GRA  SZ I         2 1 37.15         2.6 0.51                           141   6 
                                                                                
