 2012  417 0946 44.8 L   6.798 -73.138150.6  RSN 18 0.3 3.4LRSN                1
 GAP=126        0.61       2.2     2.8  3.5 -0.1555E+01  0.2312E+01  0.5271E+00E
 Epicentro: LOS SANTOS - SANTANDER                                             3
 ACTION:UPD 12-07-05 11:53 OP:tino STATUS:               ID:20120417094644 L   I
 2012-04-17-0940-00M.COL___190                                                 6
 STAT SP IPHASW D HRMM SECON CODA AMPLIT PERI AZIMU VELO AIN AR TRES W  DIS CAZ7
 BAR2 SZ IP        947  5.03                             171     0.110   23 192 
 BAR2 SZ ES   1    947 20.22                             171    -0.5 7   23 192 
 BAR2 SZ I         947 22.92       611.3 0.30                            23 192 
 BRR  HZ IP     C  947  6.85                             153     0.410   72 298 
 BRR  HE ES   1    947 23.76                             153     0.3 7   72 298 
 BRR  HZ I         947 26.65       358.3 0.10                            72 298 
 PAM  SZ IP        947  7.81                             152     0.310   77  39 
 PAM  SE ES   1    947 24.96                             152    -0.2 7   77  39 
 RUS  HZ IP     D  947  8.92                             145     0.010  100 177 
 RUS  HE ES   1    947 27.68                             145    -0.2 7  100 177 
 RUS  HZ I         947 28.99       177.9 0.41                           100 177 
 OCA  SZ EP        947 13.40                             131    -0.1 9  161 353 
 ZAR  HZ EP   1    947 17.44                             123    -0.2 6  205 292 
 ZAR  HN ES   1    947 42.81                             123    -0.4 6  205 292 
 ZAR  HZ I         947 48.83       251.3 0.26                           205 292 
 NOR  SZ EP        947 20.93                             119     0.1 8  235 235 
 NOR  SE ES   1    947 48.71                             119    -0.2 6  235 235 
 CHI  HZ EP        947 23.14                             118     0.4 8  249 195 
 CHI  HN ES   1    947 52.55                             118     0.2 6  249 195 
 CHI  HZ I         947 56.27       148.5 0.61                           249 195 
 ROSC BN ES   2    947 53.15                             118     0.0 4  253 211 
 ROSC BZ I         947 59.64       392.9 0.44                           253 211 
 HEL  HZ EP   1    947 25.57                             116     0.3 6  273 256 
 HEL  HN ES   2    947 57.20                             116     0.3 4  273 256 
 HEL  HZ I         948  3.23       124.4 0.47                           273 256 
 GUY  SZ EP   1    947 29.04                             113     0.1 5  304 235 
 GUY  SN ES   2    948  3.17                             113    -0.2 4  304 235 
 GUY  SZ I         948 12.70       222.8 0.45                           304 235 
 RREF HZ EP   1    947 30.80                             112    -0.4 5  322 230 
 RREF HE ES   1    948  7.59                             112     0.2 5  322 230 
 RREF HZ I         948 16.75       122.0 0.44                           322 230 
 DBB  SZ EP        947 32.58                             110     0.1 7  340 274 
 DBB  SZ ES   2    948  9.41                             110    -0.4 3  340 274 
 COD  HZ EP   2    947 32.92                             110    -0.4 3  349 354 
 COD  HE ES   2    948 11.24                             110     0.0 3  349 354 
 COD  HZ I         948 21.48        79.1 0.51                           349 354 
 SDV  BZ EP        947 34.39                             109    -0.5 6  360  50 
 PRA  HZ EP        947 38.36                             107    -0.1 6  392 210 
 PRA  HE ES   1    948 19.97                             107    -0.4 4  392 210 
 SJA  SZ EP   1    947 38.83                             107    -0.6 4  400 193 
 POP2 HZ EP        948  4.60                             100    -0.3 3  613 220 
                                                                                
