 2015  417 0209 42.1 L   6.892 -73.183151.0  RSN  6 0.4 1.3LRSN                1
 GAP=127        0.93       5.1     5.0  7.9 -0.3317E+01  0.8409E+01 -0.1350E+01E
 Epicentro: BETULIA - SANTANDER                                                3
 ACTION:UPD 15-06-03 16:55 OP:cam  STATUS:               ID:20150417020942 L   I
 OLDACT:REG 15-04-17 12:33 OP:spq  STATUS:               ID:20150417020749     3
 2015-04-17-0207-49M.COL___278                                                 6
 STAT SP IPHASW D HRMM SECON CODA AMPLIT PERI AZIMU VELO AIN AR TRES W  DIS CAZ7
 BAR2 EZ EP        210  2.59                             167    0.0210 33.1 180 
 BAR2 EZ ES   1    210 18.79                             167    0.23 7 33.1 180 
 BAR2 EZ I         210 19.53         3.0 0.13            168           33.1 180 
 BRR  HZ EP        210  3.83                             156    0.4510 63.1 292 
 BRR  HE ES   1    210 20.81                             156    0.82 7 63.1 292 
 BRR  HZ I         210 26.07         5.2 0.32            155           63.1 292 
 PAM  SZ EP        210  4.87                             153    0.2710 72.9  47 
 PAM  SE ES        210 21.64                             153   -0.5310 72.9  47 
 PAM  SZ I         210 22.77         4.9 0.26            158           72.9  47 
 RUS  HZ EP   1    210  7.25                             142    0.14 7  111 174 
 RUS  HE ES   1    210 26.42                             142   -0.22 7  111 174 
 RUS  HZ I         210 28.20         1.5 0.18            146            111 174 
 PTB  HZ EP        210  9.12                             133   -0.21 9  146 255 
 PTB  HN ES        210 30.10                             133   -0.48 9  146 255 
 PTB  HZ I         210 34.66         2.5 0.33            134            146 255 
 SML  HN ES   1    210 45.34                             120   -0.39 6  233 335 
                                                                                
