 2017  717 0250 33.1 L   6.759 -73.145144.7  RSN  7 0.5 1.5LRSN                1
 GAP=138        1.02       4.4     4.5  7.3 -0.2090E+01  0.7828E+01 -0.1351E+00E
 Epicentro: LOS SANTOS - SANTANDER                                             3
 ACTION:UPD 17-08-30 15:34 OP:rebc STATUS:               ID:20170717025033 L   I
 OLDACT:REG 17-07-17 12:51 OP:dnl  STATUS:               ID:20170717024746     3
 2017-07-17-0248-00M.COL___386                                                 6
 STAT SP IPHASW D HRMM SECON CODA AMPLIT PERI AZIMU VELO AIN AR TRES W  DIS CAZ7
 BAR2 EZ IP     C  250 52.47                             172   -0.0610 18.9 193 
 BAR2 EZ ES        251  7.60                             172   -0.0810 18.9 193 
 BAR2 EZ I         251  8.66        13.7 0.14            169           18.9 193 
 BRR  HZ IP     C  250 54.35                             152    0.0710 73.5 302 
 BRR  HN ES        251 11.50                             152    0.7110 73.5 302 
 BRR  HZ I         251 12.81         6.1 0.52            150           73.5 302 
 PAM  EZ EP        250 55.39                             149   -0.0410 80.9  37 
 PAM  EN ES        251 12.53                             149   -0.3010 80.9  37 
 PAM  EZ I         251 13.10         4.0 0.32            153           80.9  37 
 RUS  HZ EP   2    250 56.51                             145    0.08 5 96.1 176 
 RUS  HN ES        251 14.67                             145    0.0410 96.1 176 
 RUS  HZ I         251 17.14         2.8 0.30            144           96.1 176 
 PTB  HZ EP   2    250 58.86                             132   -1.06 5  147 261 
 PTB  HN ES        251 19.88                             132   -0.95 9  147 261 
 PTB  HZ I         251 22.13         2.5 0.18            131            147 261 
 SPBC HZ EP        251  1.40                             129    0.20 9  160 220 
 SPBC HN ES        251 23.44                             129    0.33 9  160 220 
 SPBC HZ I         251 30.49         5.4 0.20            129            160 220 
 ZAR  HZ EP   2    251  6.66                             122    0.99 4  206 293 
 ZAR  HN ES        251 31.17                             122    0.10 8  206 293 
 ZAR  HZ I         251 37.11         5.0 0.44            122            206 293 
                                                                                
