 2013  317 0957 22.5 L   6.764 -73.136148.6  RSN  8 0.5 1.9LRSN                1
 GAP=139        0.99       5.7     5.1  8.1 -0.1606E+01  0.1213E+02 -0.1549E+01E
 Epicentro: LOS SANTOS - SANTANDER                                             3
 ACTION:UPD 13-04-09 14:03 OP:ep   STATUS:               ID:20130317095722 L   I
 2013-03-17-0950-00M.COL___244                                                 6
 STAT SP IPHASW D HRMM SECON CODA AMPLIT PERI AZIMU VELO AIN AR TRES W  DIS CAZ7
 BAR2 SZ EP        957 42.34                             172   -0.0210 19.6 195 
 BAR2 SZ ES   1    957 57.78                             172   -0.11 7 19.6 195 
 BAR2 SZ I         957 59.22        32.6 0.18            171           19.6 195 
 BRR  HZ EP     C  957 44.35                             152    0.2710 74.1 301 
 BRR  HN ES   1    958  1.68                             152    0.74 7 74.1 301 
 BRR  HZ I         958  4.02        16.1 0.12            149           74.1 301 
 PAM  SZ EP     C  957 45.47                             150    0.3510 79.9  37 
 PAM  SN ES   1    958  2.14                             150   -0.67 7 79.9  37 
 PAM  SZ I         958  3.70         6.9 0.18            153           79.9  37 
 RUS  HZ EP   1    957 46.11                             145   -0.09 7 96.5 177 
 RUS  HN ES   1    958  5.06                             145    0.34 7 96.5 177 
 RUS  HZ I         958  6.34         9.3 0.22            149           96.5 177 
 PTB  HZ EP   1    957 48.96                             133   -0.73 7  148 260 
 PTB  HN ES   1    958 10.11                             133   -0.82 7  148 260 
 PTB  HZ I         958 16.06        11.0 0.12            132            148 260 
 OCA  HN ES   2    958 12.90                             129   -1.03 5  164 353 
 OCA  HZ I         958 18.17         5.7 0.24            130            164 353 
 ZAR  HZ EP   1    957 55.20                             123   -0.15 6  207 293 
 ZAR  HN ES   1    958 21.79                             123    0.79 6  207 293 
 ZAR  HZ I         958 26.27         9.3 0.34            123            207 293 
 HEL  HZ EP   1    958  3.20                             115    0.38 6  272 257 
 HEL  HN ES   1    958 33.92                             115   -0.39 6  272 257 
 HEL  HZ I         958 39.89         2.5 0.26            116            272 257 
                                                                                
