 2014 1117 0013 30.8 L   6.714 -73.180138.6  RSN  4 0.3 1.3LRSN                1
 GAP=227        0.86       6.5     6.3  6.9  0.2046E+02  0.6332E+01  0.2454E+01E
 Epicentro: VILLANUEVA - SANTANDER                                             3
 ACTION:UPD 14-12-19 15:43 OP:nd   STATUS:               ID:20141117001330 L   I
 OLDACT:UP  14-11-17 14:42 OP:stll STATUS:               ID:20141117000753d    3
 OLDACT:DUP 14-11-17 14:38 OP:stll STATUS:               ID:20141117000753d    3
 2014-11-17-0007-51M.COL___280                                                 6
 STAT SP IPHASW D HRMM SECON CODA AMPLIT PERI AZIMU VELO AIN AR TRES W  DIS CAZ7
 BAR2 SZ EP        013 49.22                             174   -0.2110 13.5 181 
 BAR2 SZ ES        014  4.23                             174    0.3010 13.5 181 
 BAR2 SZ I         014  6.62         4.2 0.18            173           13.5 181 
 BRR  HZ EP        013 50.86                             151   -0.4510 73.1 306 
 BRR  HN ES        014  7.40                             151    0.1110 73.1 306 
 RUS  HZ EP        013 53.73                             145    0.5110 91.5 173 
 RUS  HE ES        014 10.28                             145   -0.4110 91.5 173 
 PTB  HZ EP        013 56.94                             131    0.21 9  142 262 
 PTB  HE ES        014 16.88                             131   -0.05 9  142 262 
 PTB  HZ I         014 19.69         3.1 0.22            132            142 262 
                                                                                
