 2011  717 0632 48.6 L   6.775 -73.086142.7  RSN  8 0.2 2.0LRSN                1
 GAP=145        0.48       2.2     3.5  3.8 -0.2984E+01  0.2292E+01 -0.6615E+00E
 Epicentro: LOS SANTOS - SANTANDER                                             3
 ACTION:UPD 12-07-25 14:01 OP:epov STATUS:               ID:20110717063248 L   I
 2011-07-17-0630-26S.COL___143                                                 6
 STAT SP IPHASW D HRMM SECON CODA AMPLIT PERI AZIMU VELO AIN AR TRES W  DIS CAZ7
 BAR2 SZ EP   1    633  7.91                             170    0.03 7 22.8 208 
 BAR2 SZ I         633  8.24        22.9 0.08                          22.8 208 
 BAR2 SZ ES   1    633 22.77                             170   -0.13 7 22.8 208 
 PAM  SZ EP   1    633 10.80                             151    0.38 7 75.7  34 
 PAM  SN ES   1    633 27.47                             151    0.06 7 75.7  34 
 BRR  HZ EP        633  9.76                             150   -0.1110 78.3 298 
 BRR  HZ I         633 10.05        41.1 0.17                          78.3 298 
 BRR  HN ES   1    633 26.64                             150    0.20 7 78.3 298 
 RUS  HZ EP   1    633 11.82                             144   -0.04 7 97.5 180 
 RUS  HN ES   1    633 29.75                             144   -0.23 7 97.5 180 
 RUS  HZ I         633 32.00        11.4 0.27                          97.5 180 
 BRI  SZ EP   1    633 12.49                             141    0.22 7  109  17 
 BRI  SZ I         633 36.39        12.0 0.54                           109  17 
 GRA  SZ EP   1    633 13.76                             136    0.08 7  127  14 
 GRA  SZ ES   1    633 33.31                             136    0.09 7  127  14 
 GRA  SZ I         633 34.44        14.5 0.39                           127  14 
 OCA  SZ EP   1    633 16.67                             128   -0.38 7  164 351 
 OCA  SZ ES   1    633 38.88                             128   -0.35 7  164 351 
 OCA  SZ I         633 41.67        12.2 0.21                           164 351 
 NOR  SZ EP   1    633 24.38                             117   -0.21 6  238 236 
 NOR  SE ES   1    633 53.05                             117    0.41 6  238 236 
                                                                                
