 2013 1017 0823 52.5 L   6.746 -73.157142.8  RSN  7 0.4 1.2LRSN                1
 GAP=137        1.01       5.3     4.8  8.7 -0.4838E+01  0.9430E+01  0.3050E+01E
 Epicentro: JORDAN - SANTANDER                                                 3
 ACTION:UPD 13-11-25 09:22 OP:ep   STATUS:               ID:20131017082352 L   I
 OLDACT:DUP 13-10-17 12:41 OP:jn   STATUS:               ID:20131017081838d    3
 OLDACT:REG 13-10-17 08:51 OP:jn   STATUS:               ID:20131017081837     3
 2013-10-17-0818-37M.COL___223                                                 6
 STAT SP IPHASW D HRMM SECON CODA AMPLIT PERI AZIMU VELO AIN AR TRES W  DIS CAZ7
 BAR2 SZ ES   2    824 26.47                             173   -0.18 5 17.2 189 
 BAR2 SZ I         824 27.89         9.0 0.72            170           17.2 189 
 BRR  HZ EP        824 13.79                             151    0.3010 73.2 303 
 BRR  HN ES        824 30.34                             151    0.5210 73.2 303 
 BRR  HZ I         824 38.69         2.1 0.40            153           73.2 303 
 PAM  SZ EP        824 14.98                             148    0.2010 82.9  38 
 PAM  SN ES        824 31.58                             148   -0.5510 82.9  38 
 PAM  SZ I         824 34.05         3.0 0.54            156           82.9  38 
 RUS  HN ES   1    824 34.01                             145    0.46 7 94.7 175 
 RUS  HZ I         824 36.75         0.9 0.16            148           94.7 175 
 PTB  HZ EP        824 18.62                             132   -0.44 9  145 261 
 PTB  HN ES        824 39.03                             132   -0.72 9  145 261 
 PTB  HZ I         824 43.60         2.3 0.62            135            145 261 
 SPBC HZ EP   1    824 20.45                             129    0.15 7  158 220 
 SPBC HN ES   1    824 41.99                             129    0.04 7  158 220 
 SPBC HZ I         824 49.83         1.6 0.14            132            158 220 
 ZAR  HE ES        824 50.52                             121    0.35 8  205 294 
                                                                                
