 2017  117 0013 15.1 L   6.796 -73.151142.0  RSN 15 0.8 2.0LRSN                1
 GAP=101        1.42       5.3     4.1  7.8  0.6215E-01  0.7380E+01  0.1230E+02E
 Epicentro: LOS SANTOS - SANTANDER                                             3
 ACTION:UPD 17-05-22 16:00 OP:jn   STATUS:               ID:20170117001314 L   I
 OLDACT:UP  17-03-29 20:31 OP:nlst STATUS:               ID:20170117001314 L   3
 OLDACT:UP  17-01-17 14:05 OP:dani STATUS:               ID:20170117000749     3
 OLDACT:REG 17-01-17 12:20 OP:dani STATUS:               ID:20170117000749     3
 2017-01-17-0008-00M.COL___326                                                 6
 STAT SP IPHASW D HRMM SECON CODA AMPLIT PERI AZIMU VELO AIN AR TRES W  DIS CAZ7
 BAR2 HZ EP        013 33.94                             170   -0.3510 22.8 189 
 BAR2 HZ ES        013 49.14                             170   -0.0910 22.8 189 
 BAR2 HZ I         013 52.00        31.5 0.36            168           22.8 189 
 BRR  HZ EP        013 35.94                             152    0.1010 70.9 299 
 BRR  HE ES        013 52.74                             152    0.7310 70.9 299 
 BRR  HZ I         013 53.82        13.4 0.32            150           70.9 299 
 PAM  HZ EP     D  013 36.85                             150   -0.1310 78.1  40 
 PAM  HE ES        013 54.11                             150    0.0810 78.1  40 
 PAM  HZ I         013 56.20        19.7 0.58            154           78.1  40 
 RUS  HZ EP        013 38.12                             143   -0.3510  100 176 
 RUS  HN ES        013 57.03                             143    0.3410  100 176 
 RUS  HZ I         013 59.64        12.6 0.30            143            100 176 
 PTB  HZ EP   1    013 41.30                             131   -0.42 7  147 259 
 PTB  HN ES        014  1.64                             131   -0.83 9  147 259 
 PTB  HZ I         014  9.59        15.1 0.25            130            147 259 
 TAM  HZ EP     D  013 42.31                             130   -0.23 9  156 105 
 TAM  HN ES        014  4.01                             130    0.08 9  156 105 
 TAM  HZ I         014  5.54        11.2 0.34            133            156 105 
 ZAR  HZ EP   1    013 47.03                             122   -0.25 6  204 292 
 ZAR  HE ES        014 12.63                             122    0.26 9  204 292 
 ZAR  HZ I         014 18.74        11.7 0.24            122            204 292 
 CHI  HZ EP        013 52.41                             116   -0.14 8  248 195 
 CHI  HN ES        014 21.43                             116   -0.31 8  248 195 
 CHI  HZ I         014 27.31         4.5 0.38            117            248 195 
 URE  HN ES   3    014 25.81                             113   -2.01 2  283 292 
 URE  HZ I         014 36.08         6.3 0.33            113            283 292 
 GUY2CHZ EP   3    013 58.95                             112    0.48 2  300 235 
 GUY2CHN ES        014 31.96                             112   -0.33 7  300 235 
 GUY2CHZ I         014 44.93         6.0 0.44                           300 235 
 PTGC HZ EP   4    013 57.11                             111   -1.68 0  308 159 
 PTGC HE ES   4    014 30.35                             111   -2.50 0  308 159 
 PTGC HZ I         014 32.69         9.3 0.44            112            308 159 
 ELA  HZ EP        014  4.10                             110    2.37 7  328 229 
 ELA  HN ES   1    014 40.48                             110    2.40 5  328 229 
 ELA  HZ I         014 45.51         4.6 0.36            110            328 229 
 CBOC HZ EP   3    014  2.04                             109    0.24 2  333 252 
 CBOC HN ES        014 37.07                             109   -1.14 7  333 252 
 CBOC HZ I         014 45.12         2.4 0.48            110            333 252 
 ORTC HZ EP        014  8.59                             106   -0.24 6  395 216 
 ORTC HN ES   3    014 52.17                             106    1.45 1  395 216 
 ORTC HZ I         014 58.05         3.7 0.33            106            395 216 
 SJC  HZ EP   4    014  8.69                             105   -1.87 0  409 327 
 SJC  HN ES   4    014 49.44                             105   -4.37 0  409 327 
 SJC  HZ I         014 53.05         2.3 0.27            106            409 327 
                                                                                
