 2016  717 0621 29.9 L   6.836 -73.114144.4  RSN  9 0.3 1.7LRSN                1
 GAP=139        0.83       3.8     3.3  5.5 -0.1312E+01  0.4221E+01  0.3124E+01E
 Epicentro: LOS SANTOS - SANTANDER                                             3
 ACTION:UPD 17-03-29 16:52 OP:lp   STATUS:               ID:20160717062129 L   I
 OLDACT:REG 16-07-17 14:47 OP:lv   STATUS:               ID:20160717061659     3
 2016-07-17-0616-59S.COL___313                                                 6
 STAT SP IPHASW D HRMM SECON CODA AMPLIT PERI AZIMU VELO AIN AR TRES W  DIS CAZ7
 BAR2 EZ IP     C  621 49.12                             168   -0.3210 28.0 196 
 BAR2 EZ ES        622  4.53                             168   -0.1710 28.0 196 
 BAR2 EZ I         622  5.31        11.0 0.23            167           28.0 196 
 PAM  EZ EP        621 51.60                             152   -0.0310 72.0  39 
 PAM  EE ES        622  8.73                             152    0.1410 72.0  39 
 PAM  EZ I         622 10.77         9.7 0.33            156           72.0  39 
 BRR  HZ IP     C  621 50.70                             152   -0.2410 72.5 294 
 BRR  HN ES        622  7.84                             152    0.4610 72.5 294 
 BRR  HZ I         622 11.78        12.0 0.18            151           72.5 294 
 RUS  HZ EP        621 54.11                             142    0.3410  104 178 
 RUS  HN ES   2    622 12.42                             142    0.01 5  104 178 
 RUS  HZ I         622 13.73         3.1 0.32            144            104 178 
 PTB  HZ EP   4    621 55.85                             131   -1.26 0  152 258 
 PTB  HN ES        622 17.86                             131   -0.50 9  152 258 
 PTB  HZ I         622 19.46         7.2 0.13            131            152 258 
 SPBC HZ EP        621 58.35                             128   -0.42 9  169 219 
 SPBC HN ES        622 21.61                             128    0.29 9  169 219 
 SPBC HZ I         622 27.81         4.4 0.11            129            169 219 
 ZAR  HZ EP        622  2.83                             122    0.42 8  206 291 
 ZAR  HN ES        622 27.45                             122   -0.34 8  206 291 
 ZAR  HZ I         622 32.63         9.5 0.28            123            206 291 
 HEL  HN ES        622 42.71                             114    0.52 7  276 255 
 HEL  HZ I         622 47.59         1.8 0.21            115            276 255 
 SJC  HZ EP   9    622 22.58                             106   -2.64 0  408 326 
 SJC  HE ES        623  5.50                                   -0.25 6  408 326 
 SJC  HZ I         623  7.86         1.3 0.35            107            408 326 
                                                                                
