 2017 1217 0222 39.1 L   6.823 -73.175140.5  RSN 11 0.3 2.0LRSN                1
 GAP= 63        0.76       2.8     2.4  5.1  0.1238E+01  0.2856E+01  0.3900E+01E
 Epicentro: ZAPATOCA - SANTANDER                                               3
 ACTION:UPD 18-01-04 13:21 OP:rebc STATUS:               ID:20171217022239 L   I
 OLDACT:UP  17-12-17 14:31 OP:edw  STATUS:               ID:20171217021736d    3
 OLDACT:DUP 17-12-17 14:21 OP:edw  STATUS:               ID:20171217021736d    3
 2017-12-17-0218-00M.COL___467                                                 6
 STAT SP IPHASW D HRMM SECON CODA AMPLIT PERI AZIMU VELO AIN AR TRES W  DIS CAZ7
 BAR2 EZ EP        222 58.05                             169   -0.0510 25.5 182 
 BAR2 EZ ES        223 12.57                             169   -0.3810 25.5 182 
 BAR2 EZ I         223 13.91        17.7 0.34            168           25.5 182 
 PAM  EZ EP        223  0.85                             150    0.1310 77.6  43 
 PAM  EN ES        223 17.62                             150   -0.0110 77.6  43 
 PAM  EZ I         223 19.82        16.4 0.52            154           77.6  43 
 PTB  HZ EP        223  4.87                             131   -0.48 9  145 258 
 PTB  HE ES        223 25.79                             131   -0.07 9  145 258 
 PTB  HZ I         223 27.94         6.9 0.16            132            145 258 
 OCA  HZ EP   4    223  8.71                             129    2.03 0  157 354 
 OCA  HN ES        223 28.37                             129    0.13 9  157 354 
 OCA  HZ I         223 32.27        21.9 0.16            131            157 354 
 TAM  HZ EP     D  223  6.44                             129   -0.24 9  159 106 
 TAM  HE ES        223 28.46                             129    0.23 9  159 106 
 SPBC HZ EP        223  7.50                             128    0.35 9  163 218 
 SPBC HN ES   4    223 27.95                             128   -1.11 0  163 218 
 SPBC HZ I         223 35.92        12.0 0.46            129            163 218 
 YPLC HZ EP        223  8.63                             125   -0.22 9  181 151 
 YPLC HE ES        223 32.41                             125    0.32 9  181 151 
 YPLC HZ I         223 35.45         7.3 0.30            127            181 151 
 ZAR  HZ EP   4    223 12.43                             122    1.69 0  200 292 
 ZAR  HN ES        223 36.07                             122    0.61 9  200 292 
 ZAR  HZ I         223 41.66         8.9 0.28            123            200 292 
 URE  HZ EP        223 18.95                             113   -0.47 7  280 292 
 URE  HN ES   4    223 48.56                             113   -2.35 0  280 292 
 URE  HZ I         223 50.21         5.8 0.14            114            280 292 
 GUY2CHZ EP   4    223 23.69                             111    1.40 0  300 234 
 GUY2CHE ES   4    223 58.30                             111    2.29 0  300 234 
 GUY2CHZ I         224  6.31         2.9 0.40                           300 234 
 PTGC HN ES   4    223 54.44                             110   -2.99 0  312 158 
 PRA  HZ EP   4    223 29.64                             106   -2.83 0  393 209 
 PRA  HE ES        224 14.46                             106    0.33 6  393 209 
 PRA  HZ I         224 19.30         3.5 0.70            107            393 209 
 SJC  HZ EP   4    223 31.97                             105   -2.01 0  405 327 
 SJC  HN ES   4    224 13.15                             105   -3.68 0  405 327 
                                                                                
