 2016  417 0417 26.4 L   6.791 -73.174131.4  RSN  6 0.2 1.4LRSN                1
 GAP=133        0.55       2.4     2.4  4.3 -0.9365E+00  0.3415E+01 -0.1679E+00E
 Epicentro: LOS SANTOS - SANTANDER                                             3
 ACTION:UPD 16-05-05 14:22 OP:rebc STATUS:               ID:20160417041726 L   I
 OLDACT:UP  16-04-17 22:14 OP:mh   STATUS:               ID:20160417040749     3
 OLDACT:REG 16-04-17 14:18 OP:ak   STATUS:               ID:20160417040749     3
 2016-04-17-0407-49M.COL___307                                                 6
 STAT SP IPHASW D HRMM SECON CODA AMPLIT PERI AZIMU VELO AIN AR TRES W  DIS CAZ7
 BAR2 EZ EP        417 44.24                             170   -0.0210 22.0 182 
 BAR2 EZ ES        417 58.04                             170   -0.1610 22.0 182 
 BAR2 EZ I         418  0.10         4.8 0.28            170           22.0 182 
 PAM  EZ EP        417 47.22                             147   -0.0610 80.2  41 
 PAM  EN ES        418  3.71                             147    0.1410 80.2  41 
 PAM  EZ I         418  6.13         5.0 0.56            151           80.2  41 
 RUS  HZ EP        417 48.51                             141   -0.1910 99.8 174 
 RUS  HN ES        418  6.24                             141    0.1510 99.8 174 
 RUS  HZ I         418  7.62         2.0 0.36            143           99.8 174 
 PTB  HZ EP   1    417 51.91                             129   -0.01 7  145 259 
 PTB  HN ES        418 11.43                             129   -0.40 9  145 259 
 PTB  HZ I         418 14.98         2.2 0.19            130            145 259 
 SPBC HZ EP        417 53.56                             126    0.00 9  160 218 
 SPBC HN ES        418 15.07                             126    0.33 9  160 218 
 SPBC HZ I         418 21.12        12.9 0.04            128            160 218 
 ZAR  HN ES        418 22.37                             119    0.29 9  202 293 
 ZAR  HZ I         418 25.39         3.1 0.29            121            202 293 
                                                                                
