 2016  817 0246  5.0 L   6.798 -73.124143.4  RSN 19 0.6 2.2LRSN                1
 GAP= 72        1.35       3.9     3.6  6.2 -0.3409E+01  0.5463E+01  0.2288E+01E
 Epicentro: LOS SANTOS - SANTANDER                                             3
 ACTION:UPD 16-10-29 15:36 OP:rebc STATUS:               ID:20160817024605 L   I
 OLDACT:REG 16-08-17 15:33 OP:ak   STATUS:               ID:20160817024336     3
 2016-08-17-0244-00M.COL___377                                                 6
 STAT SP IPHASW D HRMM SECON CODA AMPLIT PERI AZIMU VELO AIN AR TRES W  DIS CAZ7
 BAR2 EZ IP     C  246 24.25                             170   -0.0810 23.6 196 
 BAR2 EZ ES        246 39.21                             170   -0.2110 23.6 196 
 BAR2 EZ I         246 40.30        63.9 0.22                          23.6 196 
 BRR  HZ IP     C  246 26.15                             151    0.1510 73.4 298 
 BRR  HN ES        246 42.96                             151    0.5610 73.4 298 
 BRR  HZ I         246 47.52        38.8 0.08                          73.4 298 
 PAM  EZ IP     D  246 27.30                             151    0.4310 76.1  38 
 PAM  EN ES        246 44.35                             151    0.4110 76.1  38 
 PAM  EZ I         246 46.42        28.9 0.60                          76.1  38 
 RUS  HZ EP        246 28.28                             144   -0.1910  100 177 
 RUS  HN ES        246 46.34                             144   -0.4610  100 177 
 RUS  HZ I         246 47.90        28.1 0.30                           100 177 
 PTB  HZ EP        246 31.09                             131   -0.88 9  150 259 
 PTB  HN ES   4    246 51.58                             131   -1.43 0  150 259 
 PTB  HZ I         246 56.18        15.2 0.14                           150 259 
 TAM  HZ IP     C  246 32.63                             130    0.38 9  153 105 
 TAM  HN ES        246 53.59                             130    0.07 9  153 105 
 TAM  HZ I         246 54.50         8.4 0.51                           153 105 
 SPBC HZ EP        246 33.27                             128   -0.16 9  164 220 
 SPBC HN ES        246 55.01                             128   -0.60 9  164 220 
 SPBC HZ I         246 58.56        26.6 0.17                           164 220 
 ZAR  HZ EP        246 37.95                             121    0.44 8  206 292 
 ZAR  HN ES        247  3.19                             121    0.31 8  206 292 
 ZAR  HZ I         247  8.85        21.2 0.24                           206 292 
 NOR  HZ EP        246 40.87                             118    0.10 8  236 235 
 NOR  HN ES        247  8.04                             118   -0.64 8  236 235 
 NOR  HZ I         247 11.91         9.0 0.19                           236 235 
 CHI  HZ EP        246 42.80                             117    0.21 8  249 196 
 CHI  HN ES        247 11.40                             117   -0.53 8  249 196 
 CHI  HZ I         247 18.90         5.2 0.38                           249 196 
 ROSC BZ EP   4    246 44.38                             116    1.29 0  254 212 
 ROSC BN ES        247 13.77                             116    0.96 8  254 212 
 ROSC BZ I         247 25.28         7.5 0.35                           254 212 
 HEL  HZ EP   2    246 45.15                             114   -0.17 4  274 256 
 HEL  HN ES        247 16.28                             114   -0.51 8  274 256 
 HEL  HZ I         247 24.65         5.9 0.50                           274 256 
 URE  HZ EP   4    246 48.99                             113    2.80 0  286 292 
 URE  HN ES   4    247 15.46                             113   -2.88 0  286 292 
 URE  HZ I         247 30.11        11.4 0.26                           286 292 
 SOCV BZ EP        246 47.26                             112   -0.45 7  299  57 
 SOCV BN ES   4    247 18.92                             112   -2.12 0  299  57 
 GUY2CHZ EP        246 49.60                             112    0.91 7  303 235 
 GUY2CHN ES        247 22.17                             112   -0.60 7  303 235 
 GUY2CHZ I         247 30.87         6.5 0.36                           303 235 
 LL6C HZ EP        246 49.12                             110   -1.50 7  325 357 
 LL6C HE ES   4    247 23.81                             110   -2.41 0  325 357 
 CBOC HZ EP        246 53.18                             109    1.13 7  336 252 
 CBOC HN ES        247 28.09                             109   -0.67 7  336 252 
 CBOC HZ I         247 38.02         2.3 0.40                           336 252 
 ANIL HZ EP   4    246 56.99                             108    2.12 0  359 225 
 ANIL HE ES        247 35.66                             108    1.88 6  359 225 
 ANIL HZ I         247 42.20        14.8 0.32                           359 225 
 PRA  HZ EP        246 58.24                             106   -0.30 6  393 210 
 PRA  HN ES        247 40.45                             106    0.14 6  393 210 
 PRA  HZ I         247 46.13         4.8 0.30                           393 210 
 CRJC HZ EP   4    247  5.15                             103   -2.28 0  468   3 
 CRJC HN ES   4    247 52.53                             103   -3.60 0  468   3 
                                                                                
