 2016  417 0104 32.5 L   6.845 -73.149132.0  RSN  9 0.5 1.7LRSN                1
 GAP=134        1.20       4.3     4.9  9.7 -0.4555E+01  0.2452E+02 -0.8263E+00E
 Epicentro: LOS SANTOS - SANTANDER                                             3
 ACTION:UPD 16-05-05 14:22 OP:rebc STATUS:               ID:20160417010432 L   I
 OLDACT:DUP 16-04-17 17:04 OP:ak   STATUS:               ID:20160417005753d    3
 OLDACT:DUP 16-04-17 16:47 OP:ak   STATUS:               ID:20160417005752d    3
 2016-04-17-0057-51M.COL___307                                                 6
 STAT SP IPHASW D HRMM SECON CODA AMPLIT PERI AZIMU VELO AIN AR TRES W  DIS CAZ7
 BAR2 EZ EP        1 4 49.95                             167   -0.6110 28.2 187 
 BAR2 EZ ES        1 5  5.05                             167    0.3810 28.2 187 
 BAR2 EZ I         1 5  6.51         8.5 0.23            170           28.2 187 
 PAM  EZ EP        1 4 52.87                             149   -0.1410 73.9  42 
 PAM  EN ES        1 5  9.25                             149    0.2110 73.9  42 
 PAM  EZ I         1 5 12.28        15.0 0.58            152           73.9  42 
 RUS  HZ EP        1 4 55.91                             139    0.6310  106 176 
 RUS  HN ES        1 5 12.85                             139   -0.2210  106 176 
 RUS  HZ I         1 5 13.84         6.7 0.26            144            106 176 
 PTB  HZ EP        1 4 58.32                             129   -0.09 9  148 257 
 PTB  HE ES        1 5 18.28                             129   -0.36 9  148 257 
 PTB  HZ I         1 5 20.82         5.3 0.27            131            148 257 
 OCA  HE ES        1 5 19.72                             127   -0.43 9  155 353 
 ZAR  HZ EP   2    1 5  4.39                             120    0.57 4  202 291 
 ZAR  HN ES        1 5 29.25                             120    0.97 9  202 291 
 ZAR  HZ I         1 5 34.56         9.8 0.42            121            202 291 
 NOR  HN ES        1 5 34.80                             115   -0.42 8  237 233 
 HEL  HE ES        1 5 42.33                             112   -0.71 8  273 255 
 SOCV BN ES   4    1 5 45.38                             110   -2.17 0  299  58 
 GUY2CHE ES        1 5 50.30                             109    0.75 7  304 234 
                                                                                
