 2010 1017 0706 29.4 L   6.259 -73.632112.6  RSN  4 0.2 1.3LRSN                1
 GAP=144        0.56       6.2     9.8 11.5  0.4003E+02  0.8857E+02  0.4081E+02E
 Epicentro: SANTA HELENA DEL OPON - SANTANDER                                  3
 ACTION:UP  11-02-18 11:10 OP:tino STATUS:               ID:20101017070629 L   I
 2010-10-17-0705-19S.COL___125                                                 6
 STAT SP IPHASW D HRMM SECON CODA AMPLIT PERI AZIMU VELO SNR AR TRES W  DIS CAZ7
 BAR2 SZ IP        7 6 47.08                             149     0.310   62  53 
 BAR2 SZ ES   1    7 7  0.19                             149    -0.2 7   62  53 
 BAR2 SZ I         7 7  2.09        13.4 0.15                            62  53 
 RUS  HZ EP        7 6 47.81                             145    -0.110   73 124 
 RUS  HZ I         7 6 48.23         3.2 0.33                            73 124 
 RUS  HN ES   2    7 7  2.38                             145     0.1 5   73 124 
 BRR  HZ EP        7 6 48.64                             137    -0.210   94 355 
 BRR  HZ I         7 6 49.06         4.0 0.13                            94 355 
 BRR  HN ES   2    7 7  4.25                             137     0.2 5   94 355 
 HEL  HZ EP   2    7 7  1.11                             113     0.1 4  210 268 
 HEL  HZ I         7 7 26.02         1.4 0.19                           210 268 
                                                                                
