 2013  317 0705 20.0 L   6.718 -73.192147.1  RSN  5 0.5 1.3LRSN                1
 GAP=226        0.92       9.5     8.8  9.8  0.4663E+02  0.1230E+02  0.2546E+01E
 Epicentro: VILLANUEVA - SANTANDER                                             3
 ACTION:UPD 13-04-09 14:03 OP:ep   STATUS:               ID:20130317070520 L   I
 2013-03-17-0700-00M.COL___244                                                 6
 STAT SP IPHASW D HRMM SECON CODA AMPLIT PERI AZIMU VELO AIN AR TRES W  DIS CAZ7
 BAR2 SZ EP   1    7 5 39.50                             174   -0.09 7 13.9 175 
 BAR2 SZ ES   1    7 5 54.21                             174   -0.69 7 13.9 175 
 BAR2 SZ I         7 5 55.58         9.0 0.22            169           13.9 175 
 BRR  HZ EP   1    7 5 41.39                             153    0.11 7 71.8 307 
 BRR  HN ES   1    7 5 58.33                             153    0.42 7 71.8 307 
 BRR  HZ I         7 6  1.34         4.6 0.44            150           71.8 307 
 RUS  HZ EP   1    7 5 43.80                             146    0.56 7 92.1 172 
 RUS  HN ES   1    7 6  1.66                             146    0.26 7 92.1 172 
 RUS  HZ I         7 6  3.31         1.5 0.28            147           92.1 172 
 PTB  HZ EP   1    7 5 45.54                             134   -0.90 7  141 262 
 PTB  HE ES   1    7 6  7.17                             134    0.07 7  141 262 
 PTB  HZ I         7 6 12.90         3.0 0.22            132            141 262 
 ZAR  HN ES   2    7 6 18.16                             123    0.50 4  203 295 
                                                                                
