 2016 1217 0134 25.0 L   6.020 -73.734122.5  RSN 10 0.1 1.7LRSN                1
 GAP= 79        0.38       1.3     1.7  2.6  0.7468E-01  0.1154E+01 -0.1714E+00E
 Epicentro: BOLIVAR - SANTANDER                                                3
 ACTION:UPD 17-01-11 20:15 OP:rebc STATUS:               ID:20161217013425 L   I
 OLDACT:UP  16-12-17 14:00 OP:e    STATUS:               ID:20161217012744     3
 OLDACT:UP  16-12-17 13:58 OP:e    STATUS:               ID:20161217012744     3
 OLDACT:UP  16-12-17 13:57 OP:e    STATUS:               ID:20161217012744     3
 OLDACT:UP  16-12-17 13:55 OP:e    STATUS:               ID:20161217012744     3
 OLDACT:REG 16-12-17 12:43 OP:and  STATUS:               ID:20161217012744     3
 2016-12-17-0128-00M.COL___381                                                 6
 STAT SP IPHASW D HRMM SECON CODA AMPLIT PERI AZIMU VELO AIN AR TRES W  DIS CAZ7
 RUS  HZ EP        134 44.46                             147   -0.0710 73.4 101 
 RUS  HE ES        134 59.68                             147   -0.0910 73.4 101 
 RUS  HZ I         135  0.53         5.9 0.34            153           73.4 101 
 BAR2 EZ EP        134 45.31                             142    0.1210 87.9  44 
 BAR2 EZ ES        135  1.00                             142    0.0610 87.9  44 
 BAR2 EZ I         135  2.40        16.2 0.32            147           87.9  44 
 PTB  HZ IP   2 C  134 45.58                             138   -0.13 5 98.4 306 
 PTB  HN ES   2    135  1.51                             138   -0.34 5 98.4 306 
 PTB  HZ I         135  4.08         9.2 0.10            138           98.4 306 
 BRR  HZ EP        134 47.78                             132    0.2310  120   1 
 BRR  HN ES   4    135  6.98                             132    1.85 0  120   1 
 BRR  HZ I         135  7.96        12.0 0.12            135            120   1 
 NOR  HZ EP   9    134 49.28                             129    0.24 0  136 248 
 NOR  HN ES        135  8.11                             127    0.08 9  136 248 
 NOR  HZ I         135 10.96        15.1 0.32            129            136 248 
 CHI  HZ EP        134 51.35                             125    0.05 9  154 180 
 CHI  HN ES        135 11.77                             125   -0.05 9  154 180 
 CHI  HZ I         135 15.09         4.6 0.30            127            154 180 
 PAM  EE EP        134 54.51                             120   -0.14 9  185  38 
 PAM  EN ES   4    135 20.22                             120    2.44 0  185  38 
 GUY2CHZ EP   9    134 57.72                             117    1.40 0  201 244 
 GUY2CHN ES        135 22.38                             116    0.24 9  201 244 
 GUY2CHZ I         135 27.60         5.5 0.74                           201 244 
 ZAR  HZ EP        134 55.93                             117   -0.20 9  205 323 
 ZAR  HN ES        135 20.48                             117    0.08 9  205 323 
 ZAR  HZ I         135 24.55         7.0 0.33            118            205 323 
 ORTC HZ EP        135  5.64                             108    0.14 7  287 216 
 ORTC HN ES   4    135 40.02                             108    2.93 0  287 216 
 ORTC HZ I         135 43.27         1.4 0.29            109            287 216 
                                                                                
