 2014  217 0608  2.2 L   6.782 -73.176143.8  RSN  7 0.2 1.5LRSN                1
 GAP=134        0.49       1.5     3.1  3.4 -0.4734E+00  0.4138E+01 -0.5571E+00E
 Epicentro: LOS SANTOS - SANTANDER                                             3
 ACTION:UPD 14-03-10 08:10 OP:ep   STATUS:               ID:20140217060802 L   I
 OLDACT:DUP 14-02-17 11:42 OP:cam  STATUS:               ID:20140217060001d    3
 2014-02-17-0600-00M.COL___212                                                 6
 STAT SP IPHASW D HRMM SECON CODA AMPLIT PERI AZIMU VELO AIN AR TRES W  DIS CAZ7
 BAR2 SZ EP        6 8 21.53                             171   -0.0410 21.0 182 
 BAR2 SZ ES        6 8 36.63                             171   -0.0310 21.0 182 
 BAR2 SZ I         6 8 37.70        10.7 0.20            172           21.0 182 
 PAM  SZ EP        6 8 24.71                             149    0.2610 81.1  40 
 PAM  SN ES        6 8 41.97                             149    0.1810 81.1  40 
 PAM  SZ I         6 8 46.36         3.4 0.54            150           81.1  40 
 RUS  HZ EP   1 C  6 8 25.43                             144   -0.23 7 98.9 174 
 RUS  HN ES        6 8 43.76                             144   -0.1810 98.9 174 
 RUS  HZ I         6 8 44.45         3.0 0.44            146           98.9 174 
 PTB  HZ EP   1    6 8 28.88                             132    0.19 7  144 259 
 PTB  HN ES   1    6 8 49.43                             132    0.09 7  144 259 
 PTB  HZ I         6 8 52.38         3.9 0.20            131            144 259 
 OCA  HZ EP   2    6 8 30.60                             129    0.07 5  162 354 
 OCA  HN ES   1    6 8 52.13                             129   -0.48 7  162 354 
 OCA  HZ I         6 8 54.08         3.9 0.48            129            162 354 
 SML  HZ EP        6 8 38.47                             117   -0.31 8  244 336 
 SML  HN ES        6 9  7.44                             117    0.14 8  244 336 
 SML  HZ I         6 9 15.72         5.6 0.10            117            244 336 
 CHI  HZ EP        6 8 39.69                             117    0.18 8  246 195 
 CHI  HN ES        6 9  8.59                             117   -0.00 8  246 195 
 CHI  HZ I         6 9 14.78         1.0 0.28            118            246 195 
                                                                                
