 2012  117 0005  8.5 L   6.794 -73.145143.5  RSN  5 0.3 1.5LRSN                1
 GAP=137        0.61       4.2     4.1  5.8 -0.2720E+01  0.1547E+01 -0.2072E+00E
 Epicentro: LOS SANTOS - SANTANDER                                             3
 ACTION:UP  12-02-03 08:18 OP:REBC STATUS:               ID:20120117000508 L   I
 2012-01-17-0000-00M.COL___188                                                 6
 STAT SP IPHASW D HRMM SECON CODA AMPLIT PERI AZIMU VELO SNR AR TRES W  DIS CAZ7
 BAR2 SZ EP   1    0 5 27.77                             171    -0.1 7   23 191 
 BAR2 SZ ES   1    0 5 43.06                             171     0.1 7   23 191 
 BAR2 SZ I         0 5 47.26         5.6 0.28                            23 191 
 BRR  HZ EP   1    0 5 29.69                             152     0.2 7   72 299 
 BRR  HZ I         0 5 30.09        12.7 0.05                            72 299 
 BRR  HN ES   1    0 5 46.09                             152     0.3 7   72 299 
 PAM  SZ EP        0 5 30.71                             150     0.210   78  39 
 PAM  SE ES   1    0 5 47.22                             150    -0.5 7   78  39 
 RUS  HZ EP   1    0 5 32.11                             143     0.1 7  100 176 
 RUS  HE ES   1    0 5 50.31                             143     0.0 7  100 176 
 RUS  HZ I         0 5 51.86         3.1 0.28                           100 176 
 PTB  HZ EP   1    0 5 34.92                             131    -0.4 7  148 259 
 PTB  HE ES   1    0 5 55.95                             131    -0.2 7  148 259 
                                                                                
