 2015  417 0444  9.0 L   6.660 -73.236135.1  RSN  4 0.2 1.0LRSN                1
 GAP=215        0.53       4.0     4.5  6.0  0.1012E+02  0.6763E+01 -0.1658E+01E
 Epicentro: BARICHARA - SANTANDER                                              3
 ACTION:UPD 15-06-03 16:55 OP:cam  STATUS:               ID:20150417044409 L   I
 OLDACT:DUP 15-04-17 17:02 OP:fm   STATUS:               ID:20150417043750d    3
 2015-04-17-0437-49M.COL___278                                                 6
 STAT SP IPHASW D HRMM SECON CODA AMPLIT PERI AZIMU VELO AIN AR TRES W  DIS CAZ7
 BRR  HZ EP        444 28.85                             150   -0.2710 72.2 313 
 BRR  HN ES        444 44.85                             150    0.0810 72.2 313 
 BRR  HZ I         444 50.01         4.6 0.44            151           72.2 313 
 RUS  HN ES        444 47.75                             146    0.0710 86.5 169 
 RUS  HZ I         444 50.68         1.5 0.36            151           86.5 169 
 PTB  HZ EP        444 34.24                             132    0.19 9  136 264 
 PTB  HN ES        444 53.32                             132   -0.22 9  136 264 
 PTB  HZ I         444 59.44         1.2 0.28            134            136 264 
 ZAR  HN ES        445  5.31                             120    0.19 9  201 297 
 ZAR  HZ I         445 10.66         1.0 0.26            124            201 297 
                                                                                
