 2010 1217 0916 15.4 L   6.938 -72.860137.3  RSN  4 0.2 1.4LRSN                1
 GAP=271        0.50       9.1    16.5  9.0  0.1149E+03 -0.9531E+02 -0.4111E+02E
 Epicentro: GUACA - SANTANDER                                                  3
 ACTION:UP  11-01-14 15:25 OP:pat  STATUS:               ID:20101217091615 L   I
 2010-12-17-0913-47S.COL___137                                                 6
 STAT SP IPHASW D HRMM SECON CODA AMPLIT PERI AZIMU VELO SNR AR TRES W  DIS CAZ7
 BTL  SZ EP   1    916 34.43                             161    -0.2 7   45 267 
 BTL  SZ ES   2    916 49.59                             161    -0.1 5   45 267 
 BAR2 SZ EP   1    916 35.43                             158     0.5 7   52 223 
 BAR2 SZ ES   2    916 50.22                             158     0.0 5   52 223 
 BRR  HZ EP   1    916 37.25                             143     0.0 7   96 281 
 BRR  HN ES   2    916 54.38                             143     0.0 5   96 281 
 BRR  HZ I         916 59.11         7.3 0.40                            96 281 
 RUS  HZ EP   1    916 39.49                             137    -0.2 7  118 192 
 RUS  HN ES   2    916 58.67                             137     0.0 5  118 192 
 RUS  HZ I         917  0.01         2.3 0.40                           118 192 
                                                                                
