 2015  417 0737 36.5 L   6.672 -73.437114.3  RSN  5 0.7 1.3LRSN                1
 GAP=155        1.55      12.0     9.2 13.2  0.2719E+01 -0.3309E+01 -0.1220E+02E
 Epicentro: EL CARMEN - SANTANDER                                              3
 ACTION:UPD 15-06-03 16:55 OP:cam  STATUS:               ID:20150417073736 L   I
 OLDACT:DUP 15-04-17 19:47 OP:spq  STATUS:               ID:20150417072747d    3
 OLDACT:REG 15-04-17 13:14 OP:spq  STATUS:               ID:20150417072746     3
 2015-04-17-0727-46M.COL___275                                                 6
 STAT SP IPHASW D HRMM SECON CODA AMPLIT PERI AZIMU VELO AIN AR TRES W  DIS CAZ7
 BAR2 EZ EP        737 53.18                             164    0.6710 29.5 107 
 BAR2 EZ I         737 53.36         9.1 0.34            166           29.5 107 
 BRR  HZ IP     D  737 53.24                             152   -0.1810 56.9 328 
 BRR  HZ I         737 53.41         7.2 0.12            154           56.9 328 
 BRR  HN ES        738  6.54                             152   -0.0910 56.9 328 
 PTB  HZ EP        737 57.69                             132   -0.0910  114 263 
 PTB  HN ES        738 13.65                             132   -0.7510  114 263 
 PTB  HZ I         738 20.36         2.9 0.32            130            114 263 
 ZAR  HZ EP        738  5.19                             118    0.60 9  181 300 
 ZAR  HN ES        738 27.41                             118    0.89 9  181 300 
 ZAR  HZ I         738 28.14         2.1 0.40            119            181 300 
 SML  HZ EP        738 10.57                             110   -1.21 8  246 344 
                                                                                
