 2012 1217 0736 57.1 L   6.821 -73.337123.9  RSN  6 0.3 1.8LRSN                1
 GAP=103        0.75       3.5     3.2  5.3  0.1203E+01  0.4115E+01  0.3358E+00E
 Epicentro: ZAPATOCA - SANTANDER                                               3
 ACTION:UPD 13-01-04 14:28 OP:ep   STATUS:               ID:20121217073657 L   I
 2012-12-17-0730-00M.COL___238                                                 6
 STAT SP IPHASW D HRMM SECON CODA AMPLIT PERI AZIMU VELO AIN AR TRES W  DIS CAZ7
 BAR2 SZ IP        737 14.63                             165    0.3010 30.5 146 
 BAR2 SZ ES        737 27.38                             165   -0.3710 30.5 146 
 BRR  HZ EP        737 14.95                             156    0.0910 52.1 307 
 BRR  HN ES        737 28.99                             156    0.3010 52.1 307 
 BRR  HZ I         737 36.26        10.2 0.13                          52.1 307 
 PAM  SZ EP        737 17.84                             142   -0.1810 90.7  51 
 PAM  SN ES        737 34.24                             142   -0.0810 90.7  51 
 PAM  SZ I         737 36.39         8.5 0.30                          90.7  51 
 RUS  HZ EP        737 19.45                             137    0.1710  106 165 
 RUS  HN ES        737 36.77                             137    0.2110  106 165 
 RUS  HN I         737 38.25        10.4 0.27                           106 165 
 PTB  HZ EP        737 19.88                             131   -0.6110  128 256 
 PTB  HN ES   1    737 38.50                             131   -0.22 7  128 256 
 PTB  HZ I         737 41.66        14.4 0.16                           128 256 
 ZAR  HZ EP   1    737 26.46                             120    0.39 7  184 294 
 ZAR  HN ES   1    737 48.84                             120    0.20 7  184 294 
 ZAR  HZ I         737 54.05         8.6 0.44                           184 294 
                                                                                
