 2014 1117 0030 24.4 L   5.752 -73.908103.4  RSN 16 0.5 2.2LRSN                1
 GAP= 91        1.70       3.6     4.2  8.2 -0.6322E+01  0.2452E+01  0.1554E+01E
 Epicentro: ALBANIA - SANTANDER                                                3
 ACTION:UPD 14-12-19 15:43 OP:nd   STATUS:               ID:20141117003024 L   I
 OLDACT:ARG 14-11-17 13:50 OP:stll STATUS:               ID:20141117002746     3
 2014-11-17-0027-46M.COL___283                                                 6
 STAT SP IPHASW D HRMM SECON CODA AMPLIT PERI AZIMU VELO AIN AR TRES W  DIS CAZ7
 SPBC HZ IP     D  030 39.07                             168    0.3710 21.3 239 
 SPBC HN ES        030 50.47                             168    0.6210 21.3 239 
 RUS  HZ EP     C  030 43.76                             135    0.1610 92.7  80 
 RUS  HZ I         030 44.50        22.9 0.14            136           92.7  80 
 RUS  HE ES        030 57.80                             135   -0.7610 92.7  80 
 PTB  HZ EP        030 43.44                             131   -0.7110  106 325 
 PTB  HN ES        030 58.63                             131   -0.9210  106 325 
 PTB  HZ I         031  2.32        21.9 0.28            128            106 325 
 NOR  HZ EP        030 44.34                             130   -0.0910  108 259 
 NOR  HE ES        031  0.26                             130    0.2210  108 259 
 NOR  HZ I         031  2.15        58.9 0.16            128            108 259 
 BAR2 SZ IP     D  030 46.48                             126    0.4310  123  41 
 BAR2 SZ I         030 46.73        70.5 0.20            126            123  41 
 BAR2 SZ ES        031  3.21                             126    0.2810  123  41 
 CHI  HZ EP        030 46.03                             125   -0.5510  126 171 
 CHI  HZ I         030 47.27        14.1 0.36            126            126 171 
 CHI  HN ES        031  3.89                             125    0.0310  126 171 
 BRR  HZ EP     C  030 48.74                             119    0.06 9  151   8 
 BRR  HN ES        031  8.27                             119    0.66 9  151   8 
 HEL  HZ EP        030 53.48                             114    0.56 9  186 285 
 HEL  HN ES        031 14.41                             114   -0.74 9  186 285 
 HEL  HZ I         031 16.85        14.2 0.50            114            186 285 
 TOL  SZ EP        030 54.94                             111    0.15 9  203 231 
 TOL  SN ES        031 18.22                             111   -0.27 9  203 231 
 ANIL HZ EP        030 56.88                             110    0.58 8  217 230 
 ANIL HE ES        031 21.92                             110    0.74 8  217 230 
 PAM  SZ EP        030 56.95                             109   -0.06 8  221  37 
 PAM  SZ I         030 58.93        30.0 0.18            110            221  37 
 PAM  SE ES        031 22.61                             109    0.18 8  221  37 
 PRA  HZ EP        030 59.30                             106   -0.58 8  250 206 
 PRA  HE ES        031 27.33                             106   -0.21 8  250 206 
 PRA  HZ I         031 32.89        11.1 0.28            108            250 206 
 ORTC HZ EP        030 59.93                             106   -0.18 8  252 216 
 ORTC HZ I         031  0.88        10.8 0.20            107            252 216 
 ORTC HN ES        031 28.31                             106    0.36 8  252 216 
 OCA  HZ EP        031  3.55                             104   -0.28 7  283  13 
 OCA  HN ES        031 34.67                             104    0.09 7  283  13 
 OCA  HZ I         031 38.21        11.7 0.60            105            283  13 
 URE  HZ EP   9    031  2.05                             103   -1.88 0  285 321 
 URE  HN ES        031 29.45                                   -3.42 7  285 321 
 URE  HZ I         031 43.08         9.5 0.22            105            285 321 
 MON  HZ EP   9    031 14.09                              97   -2.04 0  387 330 
 MON  HN ES        031 54.26                                   -0.17 6  387 330 
 MON  HZ I         031 56.11         2.2 0.26            101            387 330 
                                                                                
