 2017  317 0650 36.1 L   6.815 -73.130143.7  RSN  8 0.4 1.4LRSN                1
 GAP=138        0.92       3.9     4.0  6.1 -0.3994E+00  0.5478E+01  0.5068E+00E
 Epicentro: LOS SANTOS - SANTANDER                                             3
 ACTION:UPD 17-05-25 18:41 OP:jn   STATUS:               ID:20170317065036 L   I
 OLDACT:UP  17-03-17 16:55 OP:cog  STATUS:               ID:20170317064740     3
 OLDACT:REG 17-03-17 13:37 OP:cog  STATUS:               ID:20170317064740     3
 2017-03-17-0648-00M.COL___402                                                 6
 STAT SP IPHASW D HRMM SECON CODA AMPLIT PERI AZIMU VELO AIN AR TRES W  DIS CAZ7
 BAR2 EZ EP        650 55.34                             170   -0.1910 25.3 193 
 BAR2 EZ ES        651 10.63                             170   -0.0410 25.3 193 
 BRR  HZ EP        650 56.99                             152   -0.0810 71.9 297 
 BRR  HN ES        651 13.59                             152    0.1710 71.9 297 
 PAM  EZ EP        650 58.19                             151    0.2310 75.0  39 
 PAM  EE ES        651 14.82                             151   -0.1810 75.0  39 
 PAM  EZ I         651 15.58         5.0 0.20            155           75.0  39 
 RUS  HZ EP        650 59.37                             143   -0.3910  102 177 
 RUS  HN ES        651 18.81                             143    0.5910  102 177 
 RUS  HZ I         651 20.27         1.7 0.38            143            102 177 
 PTB  HZ EP   3    651  1.95                             131   -1.14 2  150 258 
 PTB  HN ES        651 23.35                             131   -0.78 9  150 258 
 PTB  HZ I         651 28.11         3.9 0.26            131            150 258 
 SPBC HZ EP        651  4.40                             128   -0.27 9  166 219 
 SPBC HN ES        651 27.16                             128    0.21 9  166 219 
 SPBC HZ I         651 31.54         3.9 0.10            128            166 219 
 ZAR  HZ EP        651  8.92                             122    0.41 9  205 292 
 ZAR  HN ES        651 34.26                             122    0.47 9  205 292 
 GUY2CHZ EP   3    651 21.41                             112    1.53 2  304 235 
 GUY2CHE ES   4    651 56.33                             112    2.30 0  304 235 
                                                                                
