 2014 1217 0338  6.0 L   6.797 -73.168138.0  RSN  4 0.4 1.2LRSN                1
 GAP=242        0.91      10.4     7.4  9.6  0.4871E+02 -0.3503E+01 -0.3787E+02E
 Epicentro: LOS SANTOS - SANTANDER                                             3
 ACTION:UPD 15-02-10 17:04 OP:nd   STATUS:               ID:20141217033806 L   I
 OLDACT:REG 14-12-17 18:29 OP:spq  STATUS:               ID:20141217033746     3
 2014-12-17-0337-46M.COL___293                                                 6
 STAT SP IPHASW D HRMM SECON CODA AMPLIT PERI AZIMU VELO AIN AR TRES W  DIS CAZ7
 BAR2 EZ EP   1    338 25.33                             170    0.67 8 22.7 184 
 BAR2 EZ ES   1    338 38.81                             170   -0.42 8 22.7 184 
 BAR2 EZ I         338 42.43         4.1 0.48            176           22.7 184 
 RUS  HZ EP        338 29.02                             142    0.0610  100 175 
 RUS  HE ES   1    338 46.99                             142    0.10 7  100 175 
 RUS  HZ I         338 48.84         1.8 0.42            151            100 175 
 PTB  HZ EP        338 31.36                             131   -0.73 9  145 259 
 PTB  HE ES        338 52.75                             131    0.30 9  145 259 
 PTB  HZ I         338 54.82         2.3 0.12            135            145 259 
 ZAR  HZ EP        338 37.80                             121    0.10 9  202 292 
 ZAR  HN ES   1    339  2.58                             121    0.14 6  202 292 
 ZAR  HZ I         339  9.59         2.0 0.47            124            202 292 
                                                                                
