 2013  517 0903 18.4 L   6.811 -73.151146.2  RSN  8 0.5 1.8LRSN                1
 GAP=185        0.99       4.6     6.5  6.8 -0.1104E+01  0.2044E+02  0.5669E+01E
 Epicentro: LOS SANTOS - SANTANDER                                             3
 ACTION:UPD 13-06-20 09:51 OP:ep   STATUS:               ID:20130517090318 L   I
 2013-05-17-0900-00M.COL___253                                                 6
 STAT SP IPHASW D HRMM SECON CODA AMPLIT PERI AZIMU VELO AIN AR TRES W  DIS CAZ7
 BAR2 SZ EP        9 3 38.04                             170   -0.0410 24.4 188 
 BAR2 SZ ES        9 3 52.90                             170   -0.5410 24.4 188 
 BAR2 SZ I         9 3 54.52        10.5 0.38            168           24.4 188 
 GIR2 SZ EP        9 3 38.03                             168   -0.0310 30.0 351 
 GIR2 SZ ES        9 3 54.06                             168    0.6410 30.0 351 
 RUS  HZ EP        9 3 42.25                             143   -0.0110  102 176 
 RUS  HN ES        9 4  1.00                             143    0.1210  102 176 
 RUS  HZ I         9 4  3.64         6.1 0.38            143            102 176 
 PTB  HZ EP        9 3 45.07                             132   -0.28 9  147 258 
 PTB  HN ES   1    9 4  5.75                             132   -0.63 7  147 258 
 PTB  HZ I         9 4  8.29        10.7 0.34            132            147 258 
 NOR  HE ES   1    9 4 22.91                             118    0.85 6  235 234 
 SML  HN ES   1    9 4 22.99                             118   -0.36 6  242 335 
 GUY2CHZ EP        9 4  2.80                             112    0.77 7  301 235 
 GUY2CHN ES   1    9 4 36.42                             112    0.34 5  301 235 
 GUY2CHZ I         9 4 44.29         2.8 0.59                           301 235 
 PRA  HZ EP        9 4 12.02                             106    0.02 6  393 209 
 PRA  HN ES        9 4 53.01                             106   -0.82 6  393 209 
 PRA  HZ I         9 4 58.21         2.2 0.30            107            393 209 
                                                                                
