 2013  117 0630 29.3 L   6.754 -73.143142.7  RSN  5 0.2 1.1LRSN                1
 GAP=234        0.47       4.7     5.1  5.7  0.1081E+02  0.8556E+01 -0.3276E+01E
 Epicentro: LOS SANTOS - SANTANDER                                             3
 ACTION:UPD 13-02-15 09:14 OP:ep   STATUS:               ID:20130117063029 L   I
 2013-01-17-0630-00M.COL___241                                                 6
 STAT SP IPHASW D HRMM SECON CODA AMPLIT PERI AZIMU VELO AIN AR TRES W  DIS CAZ7
 BAR2 SZ ES   1    631  3.13                             172   -0.32 7 18.5 194 
 BAR2 SZ I         631  4.37         5.8 0.40            167           18.5 194 
 BRR  HZ EP     C  630 50.45                             151    0.1410 74.0 302 
 BRR  HE ES   1    631  6.80                             151    0.12 7 74.0 302 
 RUS  HN ES   1    631 10.61                             145    0.19 7 95.5 176 
 RUS  HZ I         631 14.37         0.8 0.36            142           95.5 176 
 PTB  HZ EP   1    630 55.68                             131   -0.31 7  147 261 
 PTB  HN ES   1    631 16.84                             131    0.05 7  147 261 
 PTB  HZ I         631 18.95         1.0 0.17            129            147 261 
 ZAR  HE ES   2    631 27.12                             121   -0.02 4  206 293 
 ZAR  HZ I         631 32.70         2.1 0.40            120            206 293 
                                                                                
