 2017  417 0944 16.4 L   6.805 -73.156139.1  RSN  7 0.4 1.3LRSN                1
 GAP=135        1.05       4.3     4.4  6.7 -0.4540E+00  0.7993E+01  0.5763E+00E
 Epicentro: LOS SANTOS - SANTANDER                                             3
 ACTION:UPD 17-05-30 21:13 OP:jn   STATUS:               ID:20170417094416 L   I
 OLDACT:REG 17-04-17 13:48 OP:dani STATUS:               ID:20170417093742     3
 2017-04-17-0938-00M.COL___362                                                 6
 STAT SP IPHASW D HRMM SECON CODA AMPLIT PERI AZIMU VELO AIN AR TRES W  DIS CAZ7
 BAR2 EZ EP        944 35.01                             170   -0.2110 23.7 187 
 BAR2 EZ ES        944 49.77                             170   -0.1510 23.7 187 
 BAR2 EZ I         944 55.43         3.9 0.46            172           23.7 187 
 BRR  HZ EP        944 36.80                             152    0.0610 69.9 299 
 BRR  HN ES        944 53.24                             152    0.6210 69.9 299 
 BRR  HZ I         945  0.27        10.0 0.30            152           69.9 299 
 PAM  EZ EP        944 37.79                             149   -0.1210 77.7  40 
 PAM  EN ES        944 54.69                             149   -0.0110 77.7  40 
 PAM  EZ I         944 56.79         2.2 0.44            153           77.7  40 
 RUS  HZ EP        944 39.56                             142    0.0310  101 175 
 RUS  HN ES        944 57.50                             142   -0.0910  101 175 
 RUS  HZ I         944 59.61         2.0 0.30            149            101 175 
 PTB  HZ EP        944 42.01                             131   -0.70 9  147 259 
 PTB  HN ES        945  2.60                             131   -0.66 9  147 259 
 PTB  HZ I         945  4.66         2.3 0.36            134            147 259 
 SPBC HZ EP        944 45.31                             128    0.96 9  163 219 
 SPBC HN ES        945  6.35                             128    0.19 9  163 219 
 SPBC HZ I         945  6.96         1.9 0.26            132            163 219 
 ZAR  HZ EP        944 48.27                             121    0.01 9  203 292 
 ZAR  HN ES        945 13.25                             121    0.12 9  203 292 
 ZAR  HZ I         945 19.27         3.5 0.42            124            203 292 
                                                                                
