 2013  117 0511 41.9 L   6.870 -73.297126.4  RSN  6 0.4 1.3LRSN                1
 GAP=159        0.86       5.1     7.4  9.1  0.1792E+02  0.1593E+02  0.2467E+01E
 Epicentro: BETULIA - SANTANDER                                                3
 ACTION:UPD 13-02-15 09:14 OP:ep   STATUS:               ID:20130117051141 L   I
 2013-01-17-0510-00M.COL___241                                                 6
 STAT SP IPHASW D HRMM SECON CODA AMPLIT PERI AZIMU VELO AIN AR TRES W  DIS CAZ7
 BAR2 SZ EP   1    512  0.00                             164    0.47 7 33.2 158 
 BAR2 SZ ES   1    512 12.74                             164   -0.51 7 33.2 158 
 BRR  HZ EP        512  0.34                             156    0.3510 52.8 300 
 BRR  HN ES   1    512 14.44                             156    0.37 7 52.8 300 
 BRR  HZ I         512 14.87         4.1 0.14            125           52.8 300 
 RUS  HZ EP   1    512  4.87                             136    0.20 7  111 168 
 RUS  HN ES   1    512 22.31                             136   -0.09 7  111 168 
 RUS  HZ I         512 24.77         1.1 0.30            112            111 168 
 PTB  HZ EP   1    512  5.22                             130   -0.82 7  133 254 
 PTB  HZ I         512 27.05         6.8 0.14            105            133 254 
 OCA  HN ES   1    512 27.83                             126   -0.40 7  151 359 
 OCA  HZ I         512 29.65         5.8 0.20            108            151 359 
 ZAR  HE ES   1    512 34.15                             120    0.04 7  186 292 
                                                                                
