 2010  717 0957 56.1 L   6.792 -73.038143.4  RSN 10 0.3 2.2LRSN                1
 GAP=171        0.74       3.4     5.7  5.4 -0.6354E+01  0.4163E+01 -0.3199E+00E
 Epicentro: CEPITA - SANTANDER                                                 3
 ACTION:UPD 10-12-01 15:18 OP:pat  STATUS:               ID:20100717095756 L   I
 2010-07-17-0955-26S.COL___120                                                 6
 STAT SP IPHASW D HRMM SECON CODA AMPLIT PERI AZIMU VELO AIN AR TRES W  DIS CAZ7
 BAR2 SZ IP        958 15.45                             169    -0.110   27 216 
 BAR2 SZ ES   1    958 30.50                             169    -0.2 7   27 216 
 BAR2 SZ I         958 31.30        35.7 0.21                            27 216 
 GIR2 SZ EP   1    958 15.51                             165    -0.1 7   36 332 
 GIR2 SZ ES   2    958 30.71                             165    -0.1 5   36 332 
 BRR  HZ IP     D  958 17.35                             149    -0.310   82 295 
 BRR  HN ES   1    958 34.34                             149    -0.1 7   82 295 
 BRR  HZ I         958 35.95        16.9 0.12                            82 295 
 RUS  HZ IP     C  958 19.50                             143     0.010  100 183 
 RUS  HE ES   1    958 37.96                             143     0.1 7  100 183 
 RUS  HZ I         958 39.02        16.9 0.28                           100 183 
 GRA  SZ IP        958 21.37                             137     0.410  124  12 
 GRA  SZ ES   1    958 40.99                             137     0.7 7  124  12 
 GRA  SZ I         958 41.80        15.0 0.53                           124  12 
 OCA  SZ IP        958 24.01                             128    -0.5 9  163 349 
 OCA  SZ I         958 50.59        14.8 0.33                           163 349 
 HEL  HZ EP   2    958 37.63                             113     0.2 4  283 257 
 HEL  HN ES   2    959 10.30                             113     0.6 4  283 257 
 HEL  HZ I         959 13.96         7.0 0.51                           283 257 
 GUY  SZ EP   2    958 40.62                             111     0.0 3  311 236 
 GUY  SE ES   2    959 15.53                             111     0.1 3  311 236 
 GUY  SZ I         959 22.41        19.4 0.62                           311 236 
 RREF HZ EP   2    958 43.80                             110     0.7 3  330 231 
 RREF HN ES   2    959 20.57                             110     0.8 3  330 231 
 RREF HZ I         959 24.04         4.9 0.42                           330 231 
 PRA  HZ EP   1    958 50.28                             106     0.1 4  397 211 
 PRA  HE ES   2    959 32.02                             106    -0.3 3  397 211 
 PRA  HZ I         959 37.51         6.3 0.40                           397 211 
                                                                                
