 2017  517 0252  9.0 L   6.852 -73.134150.9  RSN 26 0.5 3.1LRSN 3.6WRSN        1
 SPEC AVERAGE  MO 14.4 ST 91.2 OM  2.5 f0 3.88 R1.5641 AL 0.00 WI 40.0 MW  3.6 3
 SPEC SD       MO  0.2 ST287.4 OM  0.4 f0 8.39 R0.6897 AL      WI      MW  0.1 3
 GAP=111        0.96       3.3     3.3  5.7  0.2136E+01  0.6685E+01  0.7232E+01E
 Epicentro: LOS SANTOS - SANTANDER                                             3
 SPEC PAM EH Z MO 14.3 ST0.820 OM  2.4 f0 1.83 R1.0514 AL-0.00 WI 40.0 MW  3.5 3
 SPEC PAM EH Z T 25247 K 0.000 GD  167 VS 5.20 DE 3.50 Q0750.0 QA 1.50 VS 5.20 3
 SPEC PTB HH Z MO 14.4 ST0.530 OM  2.4 f0 1.46 R1.3178 AL-0.00 WI 40.0 MW  3.6 3
 SPEC PTB HH Z T 25255 K 0.000 GD  212 VS 5.20 DE 3.50 Q0750.0 QA 1.50 VS 5.20 3
 SPEC YPLCHN Z MO 14.4 ST999.9 OM  2.3 f0 30.4 R0.0633 AL-0.00 WI 40.0 MW  3.5 3
 SPEC YPLCHN Z T 253 2 K 0.000 GD  235 VS 5.20 DE 3.50 Q0750.0 QA 1.50 VS 5.20 3
 SPEC CHI HH Z MO 14.6 ST0.118 OM  2.4 f00.792 R2.4293 AL-0.00 WI 40.0 MW  3.7 3
 SPEC CHI HH Z T 25316 K 0.000 GD  296 VS 5.20 DE 3.50 Q0750.0 QA 1.50 VS 5.20 3
 SPEC ROSCBH Z MO 14.8 ST0.175 OM  2.6 f00.773 R2.4890 AL-0.00 WI 40.0 MW  3.8 3
 SPEC ROSCBH Z T 25318 K 0.000 GD  298 VS 5.20 DE 3.50 Q0750.0 QA 1.50 VS 5.20 3
 SPEC HEL HH Z MO 14.3 ST0.223 OM  2.1 f0 1.21 R1.5901 AL-0.00 WI 40.0 MW  3.5 3
 SPEC HEL HH Z T 25320 K 0.000 GD  313 VS 5.20 DE 3.50 Q0750.0 QA 1.50 VS 5.20 3
 SPEC PTGCHH Z MO 14.2 ST0.303 OM  1.9 f0 1.51 R1.2742 AL-0.00 WI 40.0 MW  3.4 3
 SPEC PTGCHH Z T 25324 K 0.000 GD  348 VS 5.20 DE 3.50 Q0750.0 QA 1.50 VS 5.20 3
 SPEC CBOCHH Z MO 14.4 ST0.075 OM  2.1 f00.797 R2.4141 AL-0.00 WI 40.0 MW  3.5 3
 SPEC CBOCHH Z T 25332 K 0.000 GD  369 VS 5.20 DE 3.50 Q0750.0 QA 1.50 VS 5.20 3
 SPEC ANILHH Z MO 14.3 ST0.624 OM  2.0 f0 1.71 R1.1251 AL-0.00 WI 40.0 MW  3.5 3
 SPEC ANILHH Z T 25340 K 0.000 GD  392 VS 5.20 DE 3.50 Q0750.0 QA 1.50 VS 5.20 3
 SPEC ORTCHH Z MO 14.4 ST0.235 OM  2.1 f0 1.11 R1.7333 AL-0.00 WI 40.0 MW  3.6 3
 SPEC ORTCHH Z T 25347 K 0.000 GD  428 VS 5.20 DE 3.50 Q0750.0 QA 1.50 VS 5.20 3
 SPEC SJC HH Z MO 14.5 ST0.306 OM  2.2 f0 1.12 R1.7179 AL-0.00 WI 40.0 MW  3.6 3
 SPEC SJC HH Z T 25342 K 0.000 GD  432 VS 5.20 DE 3.50 Q0750.0 QA 1.50 VS 5.20 3
 OLDACT:UP  17-05-17 14:53 OP:dnl  STATUS:               ID:20170517024743     3
 OLDACT:UP  17-05-17 14:53 OP:dnl  STATUS:               ID:20170517024743     3
 OLDACT:UP  17-05-17 14:51 OP:dnl  STATUS:               ID:20170517024743     3
 OLDACT:REG 17-05-17 13:30 OP:dnl  STATUS:               ID:20170517024743     3
 ACTION:UPD 17-06-16 13:36 OP:jn   STATUS:               ID:20170517025209 L   I
 OLDACT:UP  17-05-30 22:44 OP:nlst STATUS:               ID:20170517025209 L   3
 OLDACT:UP  17-05-17 14:54 OP:dnl  STATUS:               ID:20170517024743     3
 2017-05-17-0248-00M.COL___350                                                 6
 STAT SP IPHASW D HRMM SECON CODA AMPLIT PERI AZIMU VELO AIN AR TRES W  DIS CAZ7
 BRR  HZ EP     C  252 30.79                             154    0.1310 69.8 294 
 BRR  HE ES        252 47.74                             154    0.2010 69.8 294 
 BRR  HZ I         252 52.05       221.0 0.14            155           69.8 294 
 PAM  EZ EP     C  252 31.72                             154    0.2210 72.1  42 
 PAM  EN ES        252 48.78                             154   -0.2410 72.1  42 
 PAM  EZ I         252 50.83       286.8 0.58            163           72.1  42 
 PTB  HZ EP        252 35.57                             133   -1.07 9  150 257 
 PTB  HN ES   4    252 56.73                             133   -1.46 0  150 257 
 PTB  HZ I         252 59.82       132.2 0.30            134            150 257 
 SPBC HZ EP        252 38.14                             129   -0.29 9  169 218 
 SPBC HE ES   4    253  0.76                             129   -0.60 0  169 218 
 SPBC HZ I         253  6.51       164.4 0.28            130            169 218 
 YPLC HZ IP     D  252 39.63                             127   -0.00 9  181 153 
 YPLC HN ES        253  4.07                             127    0.56 9  181 153 
 YPLC HZ I         253 11.85        74.5 0.30            129            181 153 
 ZAR  HZ EP        252 41.53                             124   -0.19 9  203 290 
 ZAR  HE ES        253  7.36                             124    0.13 9  203 290 
 ZAR  HZ I         253 12.88       150.7 0.30            127            203 290 
 NOR  HZ EP        252 45.37                             119   -0.17 8  239 234 
 NOR  HN ES        253 13.85                             119   -0.16 8  239 234 
 NOR  HZ I         253 19.34        94.6 0.24            121            239 234 
 CHI  HZ EP        252 47.57                             118   -0.09 8  255 195 
 CHI  HE ES        253 17.59                             118   -0.20 8  255 195 
 CHI  HZ I         253 23.51       112.9 0.38            119            255 195 
 ROSC BZ EP   9    252 49.09                             117    1.05 0  258 211 
 ROSC BN ES        253 19.98                             117    0.46 8  258 211 
 ROSC BZ I         253 23.30       113.4 0.40            119            258 211 
 HEL  HZ EP        252 50.59                             116    0.78 8  275 255 
 HEL  HN ES        253 21.70                             116    0.08 8  275 255 
 HEL  HZ I         253 28.63        99.0 0.38            118            275 255 
 VIL  EZ EP        252 53.02                             113   -0.33 7  309 192 
 VIL  EE ES        253 27.27                             113   -0.66 7  309 192 
 VIL  EZ I         253 38.03       122.1 0.44            115            309 192 
 PTGC HZ IP   4 D  252 52.30                             112   -1.37 0  314 159 
 PTGC HN ES   4    253 26.07                             112   -2.43 0  314 159 
 PTGC HZ I         253 32.99        62.6 0.86            115            314 159 
 ELA  HZ EP   4    252 58.05                             111    1.41 0  334 229 
 ELA  HN ES   4    253 39.76                             111    5.97 0  334 229 
 ELA  HZ I         253 41.47        45.7 0.72            113            334 229 
 CBOC HZ EP        252 57.13                             111    0.62 7  337 251 
 CBOC HE ES        253 34.20                             111    0.65 7  337 251 
 CBOC HZ I         253 44.32        26.0 0.34            113            337 251 
 DBB  EZ EP        252 57.52                             110    0.70 7  340 273 
 DBB  EN ES   4    253 32.76                             110   -1.35 0  340 273 
 DBB  EZ I         253 38.29        37.5 0.18            113            340 273 
 ANIL HZ EP        253  0.43                             109    0.81 6  362 224 
 ANIL HE ES   4    253 42.39                             109    3.31 0  362 224 
 ANIL HZ I         253 46.90       135.1 0.30            111            362 224 
 APAC HZ EP        253  3.10                             107   -0.24 6  398 287 
 APAC HN ES        253 44.83                             107   -0.87 6  398 287 
 APAC HZ I         253 48.33        18.5 0.32            110            398 287 
 ORTC HZ EP        253  3.74                             107   -0.02 6  401 216 
 ORTC HN ES   4    253 48.89                             107    2.43 0  401 216 
 ORTC HZ I         253 53.63        36.8 0.24            109            401 216 
 SJC  HZ EP   4    253  2.72                             107   -1.56 0  405 326 
 SJC  HN ES   4    253 44.42                             107   -2.96 0  405 326 
 SJC  HZ I         253 48.49        53.4 0.52            110            405 326 
 PAL  HZ EP        253  4.95                             107    0.11 6  410 238 
 PAL  HN ES   4    253 46.09                             107   -2.29 0  410 238 
 PAL  HZ I         253 53.70        18.2 0.28            109            410 238 
 YOT  HZ EP        253 11.94                             104   -0.85 5  477 228 
 YOT  HN ES        254  3.27                             104    0.75 5  477 228 
 GUA  EZ EP   4    253 11.55                             104   -1.44 0  480 173 
 GUA  EN ES   4    254  0.73                             104   -2.15 0  480 173 
 GUA  EZ I         254  6.24        21.2 0.28            106            480 173 
 CAP2 HZ EP   4    253 13.03                             103   -3.16 0  507 293 
 CAP2 HN ES   4    254  4.69                             103   -3.89 0  507 293 
 CAP2 HZ I         254  7.72        11.1 0.30            105            507 293 
 JAMC HZ EP   2    253 22.73                             101   -0.33 2  562 224 
 JAMC HN ES   4    254 19.60                             101   -1.21 0  562 224 
 JAMC HZ I         254 31.70         4.2 0.32            103            562 224 
 GARC HZ EP   4 C  253 23.61                             101   -1.47 0  579 207 
 GARC HN ES   4    254 22.30                             101   -2.11 0  579 207 
 GARC HZ I         254 25.79        19.6 0.22            103            579 207 
 CONO HZ EP        253 30.61                             100    0.45 3  618 216 
 CONO HN ES   4    254 31.74                             100   -1.70 0  618 216 
 CONO HZ I         254 48.45         4.3 0.40            102            618 216 
                                                                                
