 2016 1217 0746  8.7 L   5.951 -73.850103.9  RSN  5 0.2 0.9LRSN                1
 GAP=220        0.59       3.8     2.9  6.0  0.5769E+01  0.7229E+01  0.2720E+01E
 Epicentro: SUCRE - SANTANDER                                                  3
 ACTION:UPD 17-01-11 20:16 OP:rebc STATUS:               ID:20161217074608 L   I
 OLDACT:UP  16-12-17 17:52 OP:and  STATUS:               ID:20161217073739     3
 OLDACT:REG 16-12-17 13:00 OP:and  STATUS:               ID:20161217073739     3
 2016-12-17-0738-00M.COL___354                                                 6
 STAT SP IPHASW D HRMM SECON CODA AMPLIT PERI AZIMU VELO AIN AR TRES W  DIS CAZ7
 RUS  HZ EP        746 27.45                             138    0.1110 85.2  94 
 RUS  HN ES        746 41.96                             138    0.1210 85.2  94 
 RUS  HZ I         746 43.73         1.2 0.26            140           85.2  94 
 PTB  HZ EP        746 27.29                             134   -0.0910 93.4 314 
 PTB  HN ES        746 41.79                             134   -0.1310 93.4 314 
 PTB  HZ I         746 43.56         1.1 0.10            136           93.4 314 
 BAR2 EZ EP   4    746 26.76                             132   -1.72 0  102  46 
 BAR2 EZ ES        746 43.80                             132   -0.0710  102  46 
 BAR2 EZ I         746 46.25         6.2 0.42            133            102  46 
 BRR  HZ EP        746 30.21                             124   -0.4810  129   7 
 BRR  HN ES        746 47.93                             124    0.1210  129   7 
 ZAR  HZ EP        746 39.04                             111    0.23 9  204 327 
 ZAR  HE ES        747  2.56                             111    0.30 9  204 327 
 ZAR  HZ I         747  6.26         0.9 0.22            113            204 327 
                                                                                
