 2010  917 0546 30.8 L   6.804 -73.048138.0  RSN  6 0.3 1.5LRSN                1
 GAP=169        0.67       3.6     8.1  8.0  0.1683E+01 -0.3000E+02 -0.6827E+01E
 Epicentro: LOS SANTOS - SANTANDER                                             3
 ACTION:UP  11-02-18 11:03 OP:tino STATUS:               ID:20100917054630 L   I
 2010-09-17-0543-22S.COL___118                                                 6
 STAT SP IPHASW D HRMM SECON CODA AMPLIT PERI AZIMU VELO SNR AR TRES W  DIS CAZ7
 BAR2 SZ EP        546 49.57                             168    -0.110   28 212 
 BAR2 SZ ES   2    547  4.30                             168     0.0 5   28 212 
 BAR2 SZ I         547  5.99        10.9 0.31                            28 212 
 BRR  HZ EP        546 51.55                             148    -0.210   81 295 
 BRR  HE ES   1    547  8.39                             148     0.3 7   81 295 
 BRR  HZ I         547 10.96         8.6 0.39                            81 295 
 RUS  HZ EP        546 53.75                             142    -0.110  101 182 
 RUS  HZ I         546 54.55         3.4 0.11                           101 182 
 RUS  HN ES   2    547 11.91                             142     0.1 5  101 182 
 GUE  SZ EP        546 54.95                             138     0.310  114   7 
 GRA  SZ EP        546 55.31                             136     0.210  123  13 
 GRA  SZ ES   2    547 13.96                             136    -0.1 5  123  13 
 GRA  SZ I         547 18.89         3.4 0.34                           123  13 
 OCA  SZ EP        546 58.56                             128    -0.1 9  161 349 
 OCA  SZ ES   2    547 19.45                             128    -0.9 5  161 349 
 OCA  SZ I         547 23.06         6.9 0.23                           161 349 
                                                                                
