 2017 1117 0203 36.1 L   6.800 -73.197134.0  RSN  9 0.4 1.3LRSN                1
 GAP=110        0.96       3.8     3.5  7.5  0.1195E+01  0.7056E+01  0.4891E+01E
 Epicentro: ZAPATOCA - SANTANDER                                               3
 ACTION:UPD 17-12-12 19:56 OP:rebc STATUS:               ID:20171117020336 L   I
 OLDACT:UP  17-11-17 16:01 OP:lv   STATUS:               ID:20171117015741d    3
 OLDACT:DUP 17-11-17 15:54 OP:lv   STATUS:               ID:20171117015741d    3
 2017-11-17-0158-00M.COL___480                                                 6
 STAT SP IPHASW D HRMM SECON CODA AMPLIT PERI AZIMU VELO AIN AR TRES W  DIS CAZ7
 BAR2 EZ EP        2 3 54.31                             170    0.0310 23.0 176 
 PAM  HZ EP        2 3 57.30                             147    0.0110 81.1  43 
 PAM  EN ES        2 4 14.07                             147    0.2310 81.1  43 
 PAM  HZ I         2 4 16.22         2.7 0.42            152           81.1  43 
 RUS  HZ EP        2 3 58.37                             141   -0.3610  101 173 
 RUS  HN ES        2 4 16.22                             141   -0.1810  101 173 
 RUS  HZ I         2 4 17.68         2.5 0.26            144            101 173 
 PTB  HZ EP        2 4  1.46                             130   -0.13 9  142 258 
 PTB  HN ES        2 4 22.11                             130    0.62 9  142 258 
 PTB  HZ I         2 4 25.27         2.0 0.26            132            142 258 
 SPBC HZ EP        2 4  3.33                             127   -0.02 9  160 217 
 SPBC HN ES        2 4 24.29                             127   -0.34 9  160 217 
 SPBC HZ I         2 4 28.93         3.0 0.06            129            160 217 
 YPLC HZ EP        2 4  4.74                             123   -0.58 9  180 150 
 YPLC HN ES        2 4 28.65                             123    0.52 9  180 150 
 ZAR  HN ES        2 4 30.93                             120   -0.60 9  199 293 
 NOR  HZ EP        2 4 11.20                             116    0.56 8  230 234 
 NOR  HN ES   3    2 4 36.48                             116   -1.13 2  230 234 
 NOR  HZ I         2 4 41.39         1.9 0.18            119            230 234 
 GUY2CHZ EP        2 4 19.23                             110    0.59 7  297 234 
 GUY2CHN ES   4    2 4 55.60                             110    3.77 0  297 234 
 GUY2CHZ I         2 5  1.52         1.3 0.46                           297 234 
                                                                                
