 2010  617 0526 48.6 L   6.792 -73.097139.7  RSN  8 0.2 1.6LRSN                1
 GAP=161        0.47       2.9     5.3  4.3 -0.5378E+01 -0.3740E+01 -0.1463E+01E
 Epicentro: LOS SANTOS - SANTANDER                                             3
 ACTION:UP  10-08-24 10:11 OP:vdl  STATUS:               ID:20100617052648 L   I
 2010-06-17-0524-19S.COL___114                                                 6
 STAT SP IPHASW D HRMM SECON CODA AMPLIT PERI AZIMU VELO SNR AR TRES W  DIS CAZ7
 BAR2 SZ EP   1    527  7.71                             170     0.2 8   24 203 
 BAR2 SZ ES   1    527 22.07                             170    -0.2 8   24 203 
 GIR2 SZ EP   1    527  7.67                             166     0.0 8   33 341 
 BRR  HZ EP   1    527  9.42                             150     0.0 8   76 297 
 BRR  HE ES   1    527 25.81                             150     0.1 8   76 297 
 BRR  HZ I         527 30.05        16.6 0.20                            76 297 
 RUS  HZ EP   2    527 12.19                             143     0.5 5  100 179 
 RUS  HE ES   2    527 29.43                             143    -0.3 5  100 179 
 RUS  HZ I         527 31.93         2.7 0.17                           100 179 
 BRI  SZ EP   1    527 12.15                             140     0.3 8  107  18 
 BRI  SZ ES   1    527 30.29                             140     0.3 8  107  18 
 GUE  SZ EP        527 12.60                             138    -0.210  116   9 
 GUE  SZ ES   2    527 31.50                             138    -0.1 5  116   9 
 GRA  SZ EP   1    527 13.17                             136    -0.1 7  125  15 
 GRA  SZ ES   1    527 32.42                             136    -0.1 7  125  15 
 OCA  SZ EP   1    527 16.36                             128    -0.3 7  162 351 
 OCA  SZ I         527 42.31         6.1 0.57                           162 351 
                                                                                
