 2014 1017 0536 57.3 L   6.495 -73.727101.3  RSN  5 0.2 1.5LRSN                1
 GAP=166        0.48       3.0     2.1  5.3  0.3626E+00  0.1661E+01 -0.5706E+00E
 Epicentro: SANTA HELENA DEL OPON - SANTANDER                                  3
 ACTION:UPD 14-11-29 23:50 OP:nd   STATUS:               ID:20141017053657 L   I
 OLDACT:REG 14-10-17 14:21 OP:mh   STATUS:               ID:20141017052739     3
 2014-10-17-0527-39M.COL___283                                                 6
 STAT SP IPHASW D HRMM SECON CODA AMPLIT PERI AZIMU VELO AIN AR TRES W  DIS CAZ7
 BAR2 SZ EP   1    537 13.17                             146   -0.36 7 61.2  80 
 BAR2 SZ ES   1    537 26.41                             146    0.25 7 61.2  80 
 BAR2 SZ I         537 28.40        29.2 0.31            148           61.2  80 
 PTB  HZ EP        537 14.87                             138    0.1910 80.8 274 
 PTB  HN ES   1    537 28.00                             138   -0.21 7 80.8 274 
 PTB  HZ I         537 28.52         8.2 0.28            140           80.8 274 
 RUS  HZ EP        537 16.87                             133    0.1010 97.6 133 
 RUS  HN ES        537 31.82                             133   -0.1110 97.6 133 
 RUS  HZ I         537 34.67         2.9 0.40            136           97.6 133 
 SPBC HZ EP        537 16.47                             131   -0.0410  101 202 
 SPBC HN ES        537 31.52                             131    0.0410  101 202 
 SPBC HZ I         537 34.47         4.5 0.28            135            101 202 
 ZAR  HZ EP   4    537 17.68                             116   -5.46 0  167 311 
 ZAR  HN ES   4    537 45.64                             116    2.37 0  167 311 
 ZAR  HZ I         537 47.93         7.8 0.40            118            167 311 
                                                                                
