 2017  217 0256 39.3 L   5.861 -73.682121.9  RSN  5 0.2 1.2LRSN                1
 GAP=224        0.63       4.6     3.8  7.0  0.8678E+01  0.1284E+02  0.4402E+01E
 Epicentro: PUENTE NACIONAL - SANTANDER                                        3
 ACTION:UPD 17-05-24 15:37 OP:jn   STATUS:               ID:20170217025639 L   I
 OLDACT:DUP 17-02-17 14:44 OP:cog  STATUS:               ID:20170217024743d    3
 OLDACT:DUP 17-02-17 14:32 OP:cog  STATUS:               ID:20170217024742d    3
 2017-02-17-0248-00M.COL___355                                                 6
 STAT SP IPHASW D HRMM SECON CODA AMPLIT PERI AZIMU VELO AIN AR TRES W  DIS CAZ7
 RUS  HZ EP        256 58.47                             150    0.1210 66.4  87 
 RUS  HN ES        257 13.32                             150    0.1310 66.4  87 
 RUS  HZ I         257 15.53         1.9 0.22             37           66.4  87 
 BAR2 EZ ES        257 16.49                             139   -0.0610 97.9  34 
 PTB  HZ EP        257  0.93                             134   -0.3510  114 311 
 PTB  HN ES        257 18.35                             134   -0.0610  114 311 
 PTB  HZ I         257 20.51         1.9 0.14             37            114 311 
 BRR  HZ I         255 40.53         7.8 0.62            120            138 359 
 BRR  HZ EP        257  3.50                             128    0.03 9  138 359 
 BRR  HN ES        257 22.08                             128   -0.21 9  138 359 
 ZAR  HE ES        257 38.66                             114    0.55 8  222 324 
                                                                                
