 2016 1017 0713 58.7 L   6.739 -73.167144.8  RSN  5 0.3 1.1LRSN                1
 GAP=230        0.75       4.5     5.0  6.8  0.3512E+01  0.5538E+01  0.4508E+00E
 Epicentro: LOS SANTOS - SANTANDER                                             3
 ACTION:UPD 16-11-09 19:20 OP:rebc STATUS:               ID:20161017071358 L   I
 OLDACT:UP  16-10-17 19:39 OP:and  STATUS:               ID:20161017070630d    3
 OLDACT:UP  16-10-17 19:38 OP:and  STATUS:               ID:20161017070630d    3
 OLDACT:DUP 16-10-17 19:35 OP:and  STATUS:               ID:20161017070630d    3
 2016-10-17-0707-00M.COL___344                                                 6
 STAT SP IPHASW D HRMM SECON CODA AMPLIT PERI AZIMU VELO AIN AR TRES W  DIS CAZ7
 BAR2 EZ EP        714 17.94                             173   -0.1510 16.3 186 
 BAR2 EZ ES        714 33.12                             173   -0.1010 16.3 186 
 BRR  HZ EP        714 19.70                             152   -0.1310 72.7 304 
 BRR  HE ES        714 36.83                             152    0.5210 72.7 304 
 RUS  HZ EP   2    714 22.11                             146    0.22 5 94.0 174 
 RUS  HE ES        714 39.86                             146   -0.1210 94.0 174 
 RUS  HZ I         714 42.36         1.4 0.20            140           94.0 174 
 PTB  HZ EP   2    714 24.94                             133   -0.33 5  144 261 
 PTB  HN ES        714 45.52                             133   -0.48 9  144 261 
 PTB  HZ I         714 48.14         1.6 0.11            129            144 261 
 SPBC HZ EP   2    714 27.05                             130    0.56 5  156 220 
 SPBC HN ES        714 48.51                             130    0.35 9  156 220 
 SPBC HZ I         714 56.97         1.7 0.11            126            156 220 
                                                                                
