 2010  617 0623 48.1 L   6.809 -73.064141.7  RSN 12 0.4 2.1LRSN                1
 GAP=132        0.86       3.1     6.4  6.0 -0.8707E+01 -0.5676E+01  0.1777E+01E
 Epicentro: LOS SANTOS - SANTANDER                                             3
 ACTION:UP  10-08-24 10:11 OP:vdl  STATUS:               ID:20100617062348 L   I
 2010-06-17-0621-06S.COL___114                                                 6
 STAT SP IPHASW D HRMM SECON CODA AMPLIT PERI AZIMU VELO SNR AR TRES W  DIS CAZ7
 BAR2 SZ IP        624  7.25                             169    -0.110   27 209 
 BAR2 SZ ES   1    624 22.09                             169    -0.3 7   27 209 
 GIR2 SZ EP   1    624  7.31                             166     0.0 7   33 334 
 BRR  HZ EP        624  8.94                             149    -0.310   79 295 
 BRR  HN ES   1    624 25.94                             149     0.2 7   79 295 
 BRR  HZ I         624 30.12        39.6 0.16                            79 295 
 RUS  HZ EP        624 11.33                             143    -0.210  101 181 
 RUS  HN ES   1    624 29.86                             143     0.1 7  101 181 
 RUS  HZ I         624 31.31         8.6 0.54                           101 181 
 BRI  SZ IP        624 11.72                             141     0.410  105  16 
 BRI  SZ ES   1    624 29.99                             141     0.6 7  105  16 
 GUE  SZ EP        624 12.19                             139     0.010  114   8 
 GRA  SZ IP        624 13.01                             137     0.310  122  14 
 GRA  SZ ES   1    624 31.65                             137    -0.2 7  122  14 
 OCA  SZ EP   1    624 16.36                             129     0.2 7  161 350 
 OCA  SZ ES   1    624 37.27                             129    -0.7 7  161 350 
 OCA  SZ I         624 40.64        18.7 0.15                           161 350 
 CHI  HZ EP   1    624 25.72                             116    -0.2 6  252 197 
 CHI  HN ES   1    624 55.10                             116    -0.4 6  252 197 
 CHI  HZ I         625  2.13         6.2 0.53                           252 197 
 ROSC BN ES   1    624 57.61                             115     0.9 6  258 213 
 ROSC BZ I         625  4.05         9.7 0.23                           258 213 
 HEL  HZ EP   1    624 29.29                             113     0.2 6  281 256 
 HEL  HZ I         625  6.33         6.3 0.49                           281 256 
 SDV  BZ IP        624 36.82                             108    -0.3 6  353  49 
 SDV  BZ I         624 37.56         3.9 0.18                           353  49 
                                                                                
