 2012  117 0834 45.0 L   6.751 -73.127144.2  RSN  9 0.3 1.8LRSN                1
 GAP=141        0.57       2.8     3.4  4.3 -0.2759E+01  0.2309E+01  0.1203E+01E
 Epicentro: LOS SANTOS - SANTANDER                                             3
 ACTION:UP  12-02-03 08:18 OP:REBC STATUS:               ID:20120117083445 L   I
 2012-01-17-0830-00M.COL___188                                                 6
 STAT SP IPHASW D HRMM SECON CODA AMPLIT PERI AZIMU VELO SNR AR TRES W  DIS CAZ7
 BAR2 SZ EP   1    835  4.02                             172    -0.3 7   19 199 
 BAR2 SZ ES   1    835 19.59                             172     0.1 7   19 199 
 BAR2 SZ I         835 22.47        20.1 0.38                            19 199 
 BRR  HZ EP        835  6.29                             151     0.010   76 301 
 BRR  HN ES   1    835 23.22                             151     0.4 7   76 301 
 BRR  HZ I         835 26.31        16.5 0.14                            76 301 
 PAM  SZ EP        835  7.22                             150     0.010   80  36 
 PAM  SE ES   1    835 24.61                             150     0.0 7   80  36 
 RUS  HZ EP   1    835  8.03                             145    -0.2 7   95 177 
 RUS  HN ES   1    835 26.22                             145    -0.1 7   95 177 
 RUS  HZ I         835 28.32         6.0 0.10                            95 177 
 PTB  HZ EP   1    835 11.57                             132    -0.4 7  149 261 
 PTB  HE ES   1    835 32.66                             132    -0.3 7  149 261 
 OCA  SZ EP   1    835 13.91                             128     0.2 7  166 353 
 OCA  SZ I         835 43.43         8.4 0.36                           166 353 
 NOR  SZ EP   1    835 20.34                             118    -0.2 6  233 236 
 NOR  SE ES   1    835 48.14                             118     0.0 6  233 236 
 CHI  HZ EP   1    835 22.45                             117     0.3 6  244 196 
 CHI  HN ES   1    835 51.44                             117     0.4 6  244 196 
 CHI  HZ I         836  0.01         3.3 0.40                           244 196 
 RREF HZ EP   2    835 31.54                             111     0.7 3  320 230 
 RREF HZ I         836 12.85         3.3 0.26                           320 230 
                                                                                
