 2013 1117 0454 11.9 L   6.799 -73.175144.9  RSN  6 0.4 1.3LRSN                1
 GAP=133        1.08       5.3     5.7  7.9 -0.3448E+01  0.1073E+02  0.8784E+01E
 Epicentro: LOS SANTOS - SANTANDER                                             3
 ACTION:UPD 14-01-09 16:28 OP:ep   STATUS:               ID:20131117045411 L   I
 OLDACT:REG 13-11-17 09:03 OP:stll STATUS:               ID:20131117044810     3
 2013-11-17-0448-10M.COL___220                                                 6
 STAT SP IPHASW D HRMM SECON CODA AMPLIT PERI AZIMU VELO AIN AR TRES W  DIS CAZ7
 BAR2 SZ EP        454 31.60                             171    0.1610 22.9 182 
 BAR2 SZ ES        454 46.90                             171    0.2410 22.9 182 
 BAR2 SZ I         454 49.20         5.9 0.60            168           22.9 182 
 BRR  HZ EP        454 33.28                             153    0.4610 68.5 300 
 BRR  HN ES        454 49.55                             153    0.4310 68.5 300 
 BRR  HZ I         454 51.46         3.3 0.44            154           68.5 300 
 PAM  SN ES        454 50.75                             150   -0.7810 79.5  41 
 PAM  SZ I         454 53.37         4.2 0.58            156           79.5  41 
 RUS  HZ EP        454 35.69                             144    0.0910  101 174 
 RUS  HN ES        454 54.38                             144    0.3210  101 174 
 RUS  HZ I         454 56.25         2.1 0.24            145            101 174 
 PTB  HZ EP        454 38.34                             132   -0.19 9  145 259 
 PTB  HN ES        454 59.06                             132   -0.23 9  145 259 
 PTB  HZ I         455  3.61         2.1 0.18            133            145 259 
 SPBC HZ EP        454 40.25                             129    0.10 9  161 218 
 SPBC HE ES        455  1.41                             129   -0.77 9  161 218 
 SPBC HZ I         455  9.81         2.3 0.22            130            161 218 
                                                                                
