 2017  217 0947  0.2 L   6.472 -73.614104.8  RSN  4 0.3 0.7LRSN                1
 GAP=137        0.83       6.0     4.1  7.6  0.1438E+02  0.9426E+01 -0.3268E+01E
 Epicentro: SANTA HELENA DEL OPON - SANTANDER                                  3
 ACTION:UPD 17-05-24 15:37 OP:jn   STATUS:               ID:20170217094700 L   I
 OLDACT:DUP 17-02-17 17:10 OP:cog  STATUS:               ID:20170217093744d    3
 2017-02-17-0938-00M.COL___324                                                 6
 STAT SP IPHASW D HRMM SECON CODA AMPLIT PERI AZIMU VELO AIN AR TRES W  DIS CAZ7
 BAR2 EZ EP        947 15.75                             153   -0.3410 49.5  74 
 BAR2 EZ ES        947 28.40                             153   -0.0510 49.5  74 
 BAR2 EZ I         947 29.11         3.8 0.44            140           49.5  74 
 RUS  HZ EP        947 19.48                             137    0.4110 86.9 137 
 RUS  HZ I         947 33.86         0.6 0.50            120           86.9 137 
 RUS  HE ES        947 33.90                             137    0.1410 86.9 137 
 PTB  HZ EP        947 18.67                             135   -0.3010 93.5 275 
 PTB  HN ES        947 33.42                             135   -0.1610 93.5 275 
 PTB  HZ I         947 34.62         1.4 0.12            124           93.5 275 
 ZAR  HZ EP        947 27.24                             115   -0.23 9  178 309 
 ZAR  HN ES        947 49.31                             115    0.60 9  178 309 
                                                                                
