 2012  817 0532 23.3 L   6.823 -73.159144.7  RSN 16 0.4 2.9LRSN 3.4WRSN        1
 SPEC AVERAGE  MO 14.2 ST 43.8 OM  3.2 f0 5.41 R0.2789 AL 3.63 WI 24.8 MW  3.4 3
 SPEC SD       MO  0.2 ST 26.8 OM  0.8 f00.806 R0.0470 AL      WI      MW  0.1 3
 GAP= 64        0.82       2.5     2.5  5.4  0.7667E+00  0.3189E+01  0.2366E+01E
 Epicentro: LOS SANTOS - SANTANDER                                             3
 SPEC OCA HH N MO 14.4 ST 57.6 OM  2.7 f0 5.50 R0.2673 AL 3.38 WI 19.9 MW  3.5 3
 SPEC OCA HH N T 53311 K 0.000 GD  214 VS 4.20 DE 3.00 Q0230.0 QA 0.60 VS 4.20 3
 SPEC PTB HH N MO 14.0 ST 32.7 OM  2.3 f0 6.27 R0.2344 AL 3.55 WI 17.8 MW  3.3 3
 SPEC PTB HH N T 533 8 K 0.000 GD  206 VS 4.20 DE 3.00 Q0230.0 QA 0.60 VS 4.20 3
 SPEC RUS HH N MO 14.4 ST 86.1 OM  2.8 f0 6.20 R0.2371 AL 4.14 WI 18.6 MW  3.6 3
 SPEC RUS HH N T 533 1 K 0.000 GD  177 VS 4.20 DE 3.00 Q0230.0 QA 0.60 VS 4.20 3
 SPEC HEL HH N MO 14.1 ST 10.0 OM  2.2 f0 3.99 R0.3684 AL 2.89 WI 40.0 MW  3.3 3
 SPEC HEL HH N T 53330 K 0.000 GD  307 VS 4.20 DE 3.00 Q0230.0 QA 0.60 VS 4.20 3
 SPEC CHI HH N MO 14.0 ST 16.0 OM  2.2 f0 4.76 R0.3088 AL 4.00 WI 14.0 MW  3.3 3
 SPEC CHI HH N T 53329 K 0.000 GD  289 VS 4.20 DE 3.00 Q0230.0 QA 0.60 VS 4.20 3
 SPEC BRR HH N MO 14.4 ST 60.7 OM  2.8 f0 5.71 R0.2574 AL 3.81 WI 38.3 MW  3.5 3
 SPEC BRR HH N T 53258 K 0.000 GD  160 VS 4.20 DE 3.00 Q0230.0 QA 0.60 VS 4.20 3
 ACTION:UPD 12-09-10 11:56 OP:ep   STATUS:               ID:20120817053223 L   I
 2012-08-17-0530-00M.COL___217                                                 6
 STAT SP IPHASW D HRMM SECON CODA AMPLIT PERI AZIMU VELO AIN AR TRES W  DIS CAZ7
 BAR2 SZ IP        532 42.79                             169   -0.1010 25.7 186 
 BAR2 SZ ES   1    532 57.86                             169   -0.28 7 25.7 186 
 BAR2 SZ I         532 59.57       334.3 0.30                          25.7 186 
 GIR2 SZ EP        532 42.86                             168    0.0510 28.5 352 
 BRR  HZ IP     C  532 44.68                             153    0.4510 68.7 297 
 BRR  HZ I         532 44.99       390.8 0.15                          68.7 297 
 PAM  SZ EP   1    532 45.50                             151    0.12 7 76.4  42 
 PAM  SZ I         532 45.81       118.3 0.22                          76.4  42 
 PAM  SN ES   1    533  3.07                             151    0.50 7 76.4  42 
 RUS  HZ EP   1    532 46.73                             143   -0.45 7  103 175 
 RUS  HN ES   1    533  5.48                             143   -0.29 7  103 175 
 RUS  HZ I         533  6.67        97.4 0.39                           103 175 
 PTB  HZ EP   1    532 49.31                             132   -0.83 7  147 258 
 PTB  HN ES        533 10.79                             132   -0.25 9  147 258 
 PTB  HZ I         533 12.54        60.1 0.25                           147 258 
 TAM  HZ IP     D  532 50.94                             130   -0.19 9  157 106 
 TAM  HZ I         532 51.10        58.1 0.35                           157 106 
 TAM  HN ES        533 12.71                             130   -0.09 9  157 106 
 OCA  HZ EP   1    532 50.95                             130   -0.36 7  158 354 
 OCA  HN ES        533 13.04                             130   -0.09 9  158 354 
 OCA  HZ I         533 18.73       233.6 0.34                           158 354 
 YOP  SZ EP   1    532 53.24                             126   -0.36 7  182 153 
 YOP  SN ES        533 17.72                             126    0.52 9  182 153 
 YOP  SZ I         533 18.27        51.1 0.19                           182 153 
 ZAR  HZ EP   1    532 55.68                             122    0.21 6  202 292 
 ZAR  HN ES        533 20.71                             122    0.17 9  202 292 
 ZAR  HZ I         533 27.90       134.9 0.29                           202 292 
 NOR  SZ EP   1    532 58.51                             118   -0.53 6  235 234 
 NOR  SN ES        533 26.81                             118   -0.08 8  235 234 
 NOR  SZ I         533 34.81        43.9 0.30                           235 234 
 CHI  HZ EP   1    533  0.78                             117   -0.43 6  251 195 
 CHI  HN ES        533 31.26                             117    0.52 8  251 195 
 CHI  HZ I         533 36.04        22.2 0.27                           251 195 
 ROSC BZ EP   1    533  2.44                             116    0.88 6  254 210 
 HEL  HZ EP   1    533  4.05                             115    0.64 6  271 255 
 HEL  HZ I         533 41.46        44.7 0.30                           271 255 
 VIL  SZ EP   1    533  6.43                             112   -0.53 5  306 191 
 DBB  SZ EP   1    533 11.27                             109    0.69 5  338 274 
                                                                                
