 2012  217 0949 14.2 L   6.802 -73.130146.4  RSN  8 0.3 1.6LRSN                1
 GAP=138        0.54       3.9     4.3  6.0  0.8052E+00 -0.6486E+00  0.7293E+01E
 ACTION:UP  12-03-07 16:31 OP:epov STATUS:               ID:20120217094914 L   I
 2012-02-17-0947-59S.COL___188                                                 6
 STAT SP IPHASW D HRMM SECON CODA AMPLIT PERI AZIMU VELO AIN AR TRES W  DIS CAZ7
 BAR2 SZ EP   1    949 33.85                             170   -0.06 7 23.9 194 
 BAR2 SZ ES   2    949 48.93                             170   -0.36 5 23.9 194 
 BAR2 SZ I         949 50.08         9.0 0.28                          23.9 194 
 GIR2 SZ EP   2    949 33.60                             167   -0.34 5 31.4 347 
 BRR  HZ EP   1    949 35.67                             152    0.18 7 72.7 298 
 BRR  HE ES   1    949 52.50                             152    0.39 7 72.7 298 
 BRR  HZ I         949 56.70        10.3 0.22                          72.7 298 
 PAM  SZ EP   1    949 36.63                             151    0.23 7 76.1  39 
 PAM  SN ES   2    949 53.57                             151   -0.15 5 76.1  39 
 RUS  HZ EP   1    949 37.86                             144   -0.15 7  101 177 
 RUS  HE ES   2    949 56.37                             144   -0.23 5  101 177 
 RUS  HZ I         949 57.82         3.4 0.24                           101 177 
 PTB  HZ EP   2    949 40.56                             132   -0.81 5  150 259 
 PTB  HN ES   2    950  2.37                             132   -0.20 5  150 259 
 ZAR  HE ES   2    950 12.05                             122   -0.25 4  206 292 
 ZAR  HZ I         950 17.40         4.4 0.30                           206 292 
 CHI  HZ EP   1    949 52.27                             117    0.27 6  249 196 
 CHI  HN ES   2    950 22.22                             117    0.73 4  249 196 
 CHI  HZ I         950 25.58         2.0 1.29                           249 196 
                                                                                
