 2016  917 0204 49.5 L   6.791 -73.150145.6  RSN  8 0.3 1.7LRSN                1
 GAP=136        0.67       3.1     3.4  4.6 -0.2852E+01  0.1363E+01  0.2814E+01E
 Epicentro: LOS SANTOS - SANTANDER                                             3
 *NOR-GUY2C                                                                    3
 ACTION:UPD 17-08-17 21:13 OP:lp   STATUS:               ID:20160917020449 L   I
 OLDACT:UP  16-09-17 20:33 OP:and  STATUS:               ID:20160917015742d    3
 OLDACT:DUP 16-09-17 20:21 OP:and  STATUS:               ID:20160917015742d    3
 2016-09-17-0158-00M.COL___366                                                 6
 STAT SP IPHASW D HRMM SECON CODA AMPLIT PERI AZIMU VELO AIN AR TRES W  DIS CAZ7
 BAR2 EZ EP        2 5  8.80                             171   -0.3010 22.3 189 
 BAR2 EZ ES        2 5 24.10                             171   -0.2810 22.3 189 
 BAR2 EZ I         2 5 25.02        11.0 0.20            170           22.3 189 
 BRR  HZ EP        2 5 10.66                             153    0.0110 71.2 299 
 BRR  HN ES        2 5 27.68                             153    0.5510 71.2 299 
 BRR  HZ I         2 5 31.72         7.6 0.14            153           71.2 299 
 PAM  EZ EP     D  2 5 11.79                             151    0.0110 78.5  39 
 PAM  EN ES        2 5 28.97                             151   -0.1710 78.5  39 
 PAM  EZ I         2 5 30.92        14.4 0.48            153           78.5  39 
 RUS  HZ EP        2 5 13.40                             144    0.2210 99.6 176 
 RUS  HN ES        2 5 31.93                             144    0.2910 99.6 176 
 RUS  HZ I         2 5 32.69         7.1 0.28            145           99.6 176 
 PTB  HZ EP   2    2 5 16.32                             132   -0.09 5  147 259 
 PTB  HN ES        2 5 37.09                             132   -0.29 9  147 259 
 PTB  HZ I         2 5 38.60         4.5 0.16            133            147 259 
 SPBC HZ EP        2 5 17.76                             129   -0.14 9  162 219 
 SPBC HN ES        2 5 40.07                             129    0.04 9  162 219 
 SPBC HZ I         2 5 43.06         9.3 0.10            130            162 219 
 CHI  HZ EP   2    2 5 27.10                             117    0.01 4  248 195 
 CHI  HN ES   2    2 5 56.48                             117    0.09 4  248 195 
 CHI  HZ I         2 6  1.92         2.9 0.29            118            248 195 
 GUY2CHZ EP   2    2 5 33.94                             112    0.93 4  300 235 
 GUY2CHN ES   2    2 6  6.09                             112   -0.84 4  300 235 
 GUY2CHZ I         2 6 14.95         2.3 0.26                           300 235 
                                                                                
