 2013  717 0658 32.9 L   6.781 -73.136145.3  RSN 10 0.4 2.1LRSN                1
 GAP=188        1.06       3.6     5.0  5.8  0.1115E+01  0.7919E+01 -0.9429E+00E
 Epicentro: LOS SANTOS - SANTANDER                                             3
 ACTION:UPD 13-08-12 10:38 OP:ep   STATUS:               ID:20130717065832 L   I
 OLDACT:REG 13-07-17 07:24 OP:nd.  STATUS:               ID:20130717064959     3
 2013-07-17-0649-59M.COL___267                                                 6
 STAT SP IPHASW D HRMM SECON CODA AMPLIT PERI AZIMU VELO AIN AR TRES W  DIS CAZ7
 BAR2 SZ IP     D  658 52.56                             171    0.1510 21.5 194 
 BAR2 SZ ES        659  7.16                             171   -0.4910 21.5 194 
 BAR2 SZ I         659  8.65        30.4 0.38            170           21.5 194 
 GIR2 SZ EP        658 52.61                             166    0.0610 33.5 349 
 GIR2 SZ ES        659  7.61                             166   -0.3010 33.5 349 
 GIR2 SZ I         659  8.80        32.6 0.10            164           33.5 349 
 BRR  HZ IP     C  658 54.48                             152    0.3910 73.2 300 
 BRR  HN ES        659 11.52                             152    0.8910 73.2 300 
 BRR  HZ I         659 12.56        29.9 0.18            149           73.2 300 
 RUS  HZ EP        658 56.43                             144    0.0110 98.4 177 
 RUS  HN ES        659 14.90                             144    0.1110 98.4 177 
 RUS  HZ I         659 15.99        13.0 0.22            146           98.4 177 
 PTB  HZ EP        658 59.19                             132   -0.68 9  148 260 
 PTB  HN ES        659 20.12                             132   -0.80 9  148 260 
 PTB  HZ I         659 22.20        20.0 0.32            131            148 260 
 SPBC HZ EP     C  659  1.61                             129    0.36 9  162 220 
 SPBC HN ES        659 23.65                             129    0.27 9  162 220 
 ZAR  HZ EP        659  5.67                             122    0.19 8  206 293 
 ZAR  HE ES        659 31.20                             122    0.29 8  206 293 
 ZAR  HZ I         659 37.04        14.4 0.40            121            206 293 
 NOR  HZ EP        659  8.58                             118    0.04 8  234 235 
 NOR  HN ES        659 36.30                             118   -0.06 8  234 235 
 NOR  HZ I         659 41.56        10.3 0.24            118            234 235 
 SML  HZ EP        659  9.19                             117   -0.54 8  246 335 
 SML  HN ES        659 38.41                             117   -0.07 8  246 335 
 SML  HZ I         659 43.04         9.7 0.24            117            246 335 
 HEL  HZ EP   4    659 14.56                             115    1.44 0  273 256 
 HEL  HN ES   4    659 42.82                             115   -1.70 0  273 256 
 HEL  HZ I         659 46.50         2.1 0.20            114            273 256 
                                                                                
