 2010  217 0919 54.1 L   6.959 -73.583129.9  RSN  5 0.5 1.6LRSN                1
 GAP=170        0.66       6.0    24.3 15.2 -0.4873E+02  0.3074E+03 -0.4195E+00E
 Epicentro: SAN VICENTE DE CHUCURI - SANTANDER                                 3
 ACTION:UP  10-08-24 09:49 OP:vdl  STATUS:               ID:20100217091954 L   I
 2010-02-17-0917-21S.COL___094                                                 6
 STAT SP IPHASW D HRMM SECON CODA AMPLIT PERI AZIMU VELO SNR AR TRES W  DIS CAZ7
 GIR2 SZ EP   3    920 13.33                             159     0.9 2   45  73 
 GIR2 SZ ES        920 26.85                             159     0.210   45  73 
 BAR2 SZ EP        920 13.27                             153     0.010   60 133 
 BAR2 SZ ES   2    920 27.79                             153    -0.4 5   60 133 
 OCA  SZ ES   2    920 39.08                             129    -0.6 5  145  12 
 OCA  SZ I         920 51.71         5.8 0.25                           145  12 
 CHI  HZ EP   3    920 31.15                             113    -0.9 2  258 184 
 CHI  HN ES   2    921  1.06                             113    -0.6 4  258 184 
 CHI  HZ I         921  5.16         2.4 0.50                           258 184 
 PRA  HZ EP   2    920 47.54                             104     1.0 3  387 202 
 PRA  HN ES   2    921 27.28                             104    -0.1 3  387 202 
 PRA  HZ I         921 34.12         1.6 0.77                           387 202 
                                                                                
