 2012 1017 0458 27.8 L   6.779 -73.149143.1  RSN  7 0.4 1.9LRSN                1
 GAP=137        0.80       4.2     5.7  6.8  0.2499E+01  0.6942E+01  0.8667E+01E
 Epicentro: LOS SANTOS - SANTANDER                                             3
 ACTION:UPD 12-11-22 17:04 OP:ep   STATUS:               ID:20121017045827 L   I
 2012-10-17-0456-59S.COL___230                                                 6
 STAT SP IPHASW D HRMM SECON CODA AMPLIT PERI AZIMU VELO AIN AR TRES W  DIS CAZ7
 BAR2 SZ EP   1    458 46.91                             171   -0.13 7 21.0 190 
 BAR2 SZ ES   1    459  1.65                             171   -0.41 7 21.0 190 
 BAR2 SZ I         459  4.67        22.0 0.22                          21.0 190 
 GIR2 SZ EP   1    458 47.30                             166    0.11 7 33.5 352 
 GIR2 SZ ES   1    459  2.17                             166   -0.16 7 33.5 352 
 BRR  HZ EP   1    458 48.65                             152   -0.03 7 72.0 300 
 BRR  HZ I         458 50.20        14.9 0.10                          72.0 300 
 BRR  HN ES   1    459  5.75                             152    0.77 7 72.0 300 
 PAM  SZ EP   1    458 49.71                             150   -0.12 7 79.4  39 
 PAM  SZ I         458 49.94         9.9 0.15                          79.4  39 
 PAM  SN ES   1    459  6.76                             150   -0.27 7 79.4  39 
 RUS  HZ EP   1    458 51.49                             144    0.39 7 98.3 176 
 RUS  HN ES   1    459  9.79                             144    0.50 7 98.3 176 
 RUS  HN I         459 11.44        21.6 0.26                          98.3 176 
 ZAR  HN ES   1    459 24.87                             122   -0.44 6  205 293 
 CHI  HZ EP   1    459  5.37                             117    0.30 6  246 195 
 CHI  HZ I         459  6.65         2.9 0.20                           246 195 
 CHI  HN ES   1    459 33.32                             117   -0.85 6  246 195 
 CHI  HN I         459 37.90         6.5 0.40                           246 195 
                                                                                
