 2015  517 0525 52.1 L   6.812 -73.102146.0  RSN 14 0.4 1.9LRSN                1
 GAP=115        0.91       2.9     3.8  5.7 -0.9447E+00  0.6638E+00  0.9478E+00E
 Epicentro: LOS SANTOS - SANTANDER                                             3
 ACTION:UPD 15-09-10 22:04 OP:cam  STATUS:               ID:20150517052552 L   I
 OLDACT:REG 15-05-17 12:52 OP:spq  STATUS:               ID:20150517051735     3
 2015-05-17-0517-35M.COL___274                                                 6
 STAT SP IPHASW D HRMM SECON CODA AMPLIT PERI AZIMU VELO AIN AR TRES W  DIS CAZ7
 BAR2 EZ EP        526 11.85                             170    0.0010 25.8 200 
 BAR2 EZ ES   1    526 26.85                             170   -0.37 7 25.8 200 
 BAR2 EZ I         526 29.09        10.2 0.26            168           25.8 200 
 BRR  HZ EP        526 13.74                             151    0.2210 74.9 296 
 BRR  HN ES        526 30.90                             151    0.6910 74.9 296 
 BRR  HZ I         526 34.06        11.6 0.30            148           74.9 296 
 RUS  HZ EP   1    526 15.80                             144   -0.19 7  102 179 
 RUS  HN ES   1    526 34.43                             144   -0.16 7  102 179 
 RUS  HZ I         526 35.32         8.9 0.32            146            102 179 
 TAM  HZ EP     D  526 20.09                             132    0.65 9  151 106 
 OCA  HZ EP        526 20.15                             130   -0.26 9  160 351 
 OCA  HN ES        526 41.96                             130   -0.50 9  160 351 
 OCA  HZ I         526 46.70        20.6 0.50            130            160 351 
 SPBC HZ EP        526 20.38                             128   -0.66 9  167 220 
 SPBC HN ES        526 43.35                             128   -0.23 9  167 220 
 SPBC HZ I         526 45.35        15.1 0.28            129            167 220 
 ZAR  HN ES        526 50.93                             122    0.28 8  208 291 
 ZAR  HZ I         526 59.91         8.1 0.22            121            208 291 
 NOR  HZ EP        526 28.31                             118   -0.07 8  239 235 
 NOR  HN ES        526 56.74                             118    0.09 8  239 235 
 NOR  HZ I         527  2.88         8.6 0.18            118            239 235 
 SML  HZ EP   1    526 28.51                             117   -0.36 6  245 334 
 SML  HN ES   1    526 57.34                             117   -0.19 6  245 334 
 SML  HZ I         527  2.02        10.6 0.10            118            245 334 
 HEL  HZ EP   1    526 33.78                             114    0.86 6  277 256 
 HEL  HE ES   1    527  4.80                             114    0.08 6  277 256 
 HEL  HZ I         527 10.57         4.8 0.30            115            277 256 
 GUY2CHZ EP   4    526 37.70                             112    1.41 0  306 235 
 GUY2CHE ES   4    527 13.77                             112    3.05 0  306 235 
 GUY2CHZ I         527 16.87         4.1 0.31                           306 235 
 CBOC HZ EP   4    526 40.74                             110    1.11 0  339 252 
 CBOC HN ES   1    527 16.12                             110   -0.56 5  339 252 
 CBOC HZ I         527 19.68         1.5 0.54            110            339 252 
 ORTC HZ EP        526 46.92                             106    0.40 6  399 217 
 SJC  HZ EP   4    526 46.76                             106   -1.13 0  411 326 
 RAC02EN E      C  528 48.50                                            538 225 
                                                                                
