 2016  817 0916 32.3 L   6.846 -73.170149.6  RSN  6 0.3 1.5LRSN                1
 GAP=278        0.70       4.5     4.8  5.4  0.1651E+01  0.7055E+01  0.4201E+01E
 Epicentro: ZAPATOCA - SANTANDER                                               3
 ACTION:UPD 16-10-29 15:36 OP:rebc STATUS:               ID:20160817091632 L   I
 OLDACT:DUP 16-08-17 19:04 OP:ar   STATUS:               ID:20160817090637d    3
 OLDACT:UP  16-08-17 19:03 OP:ar   STATUS:               ID:20160817090636     3
 OLDACT:REG 16-08-17 13:38 OP:ak   STATUS:               ID:20160817090636     3
 2016-08-17-0907-00M.COL___368                                                 6
 STAT SP IPHASW D HRMM SECON CODA AMPLIT PERI AZIMU VELO AIN AR TRES W  DIS CAZ7
 BAR2 EZ EP        916 52.41                             169   -0.0510 28.1 183 
 BAR2 EZ ES        917  8.66                             169    0.4610 28.1 183 
 BAR2 EZ I         917 10.30         7.0 0.46                          28.1 183 
 RUS  HZ EP   2    916 56.82                             143    0.05 5  106 175 
 RUS  HE ES        917 15.42                             143   -0.4610  106 175 
 RUS  HZ I         917 16.24         2.6 0.27                           106 175 
 PTB  HZ EP        916 59.53                             133    0.13 9  146 257 
 PTB  HN ES        917 20.35                             133   -0.22 9  146 257 
 PTB  HZ I         917 22.51         4.7 0.36                           146 257 
 SPBC HZ EP        917  1.40                             130    0.13 9  165 217 
 SPBC HN ES        917 23.74                             130   -0.16 9  165 217 
 SPBC HZ I         917 30.87         5.4 0.44                           165 217 
 CHI  HZ EP        917 10.30                             117   -0.33 8  253 194 
 CHI  HN ES        917 40.89                             117    0.34 8  253 194 
 PRA  HN ES        918  8.82                             107    0.41 6  395 209 
                                                                                
