 2010  517 0401 18.5 L   6.997 -73.130137.0  RSN  4 0.4 1.5LRSN                1
 GAP=163        1.07      12.0    15.2 19.1 -0.1619E+02 -0.1638E+03 -0.7552E+02E
 Epicentro: FLORIDABLANCA - SANTANDER                                          3
 ACTION:UP  10-08-24 10:05 OP:vdl  STATUS:               ID:20100517040118 L   I
 2010-05-17-0359-57S.COL___108                                                 6
 STAT SP IPHASW D HRMM SECON CODA AMPLIT PERI AZIMU VELO AIN AR TRES W  DIS CAZ7
 BAR2 SZ EP        4 1 37.66                             161    -0.110   45 188 
 BAR2 SZ ES   2    4 1 52.80                             161     0.0 5   45 188 
 BRR  HZ EP        4 1 38.57                             153     0.210   65 281 
 BRR  HZ I         4 1 38.90         7.3 0.12                            65 281 
 BRR  HN ES   1    4 1 53.90                             153     0.0 7   65 281 
 BRI  SZ EP        4 1 40.69                             146     0.610   88  25 
 GUE  SZ EP        4 1 40.11                             143    -0.710   95  14 
                                                                                
