 2015  817 0214 57.4 L   6.781 -73.100141.2  RSN 11 0.5 2.2LRSN                1
 GAP=187        0.91       3.0     5.3  5.3 -0.2661E+01  0.7107E+01  0.1730E+00E
 Epicentro: LOS SANTOS - SANTANDER                                             3
 ACTION:UPD 15-09-15 23:02 OP:cam  STATUS:               ID:20150817021457 L   I
 OLDACT:REG 15-08-17 13:16 OP:ar   STATUS:               ID:20150817020746     3
 2015-08-17-0207-46M.COL___334                                                 6
 STAT SP IPHASW D HRMM SECON CODA AMPLIT PERI AZIMU VELO AIN AR TRES W  DIS CAZ7
 BAR2 EZ EP        215 16.61                             170    0.1610 22.8 204 
 BAR2 EZ ES        215 30.78                             170   -0.5510 22.8 204 
 BAR2 EZ I         215 32.45        33.1 0.36            165           22.8 204 
 BRR  HZ EP     D  215 18.49                             150    0.1210 76.6 298 
 BRR  HN ES        215 35.50                             150    0.7710 76.6 298 
 BRR  HZ I         215 38.47        21.1 0.26            145           76.6 298 
 RUS  HZ EP   2    215 20.42                             144   -0.10 5 98.3 179 
 RUS  HN ES   2    215 39.37                             144    0.80 5 98.3 179 
 RUS  HZ I         215 40.53        12.6 0.46            145           98.3 179 
 OCA  HZ EP        215 25.89                             128    0.28 9  163 351 
 OCA  HN ES        215 47.07                             128   -0.55 9  163 351 
 OCA  HZ I         215 49.93        24.6 0.30            129            163 351 
 SPBC HZ EP   2    215 25.20                             128   -0.50 5  165 221 
 SPBC HN ES   2    215 47.39                             128   -0.39 5  165 221 
 SPBC HZ I         215 54.26        63.0 0.90            127            165 221 
 ZAR  HZ EP   1    215 30.19                             121    0.08 6  210 292 
 ZAR  HN ES        215 55.71                             121    0.08 8  210 292 
 ZAR  HZ I         216  3.50        36.2 0.20            120            210 292 
 NOR  HZ EP        215 32.77                             117   -0.40 8  238 236 
 NOR  HN ES        216  0.77                             117   -0.32 8  238 236 
 NOR  HZ I         216  5.30        11.3 0.18            117            238 236 
 SML  HZ EP        215 33.44                             116   -0.76 8  248 334 
 SML  HE ES        216  3.07                             116    0.16 8  248 334 
 SML  HZ I         216  8.92        11.5 0.10            117            248 334 
 HEL  HZ EP        215 38.15                             113    0.29 7  276 256 
 HEL  HN ES   2    216  9.06                             113   -0.38 4  276 256 
 HEL  HZ I         216 16.26         5.7 0.28            113            276 256 
 GUY2CHZ EP        215 41.64                             111    0.52 7  304 236 
 GUY2CHN ES   2    216 15.50                             111    0.26 4  304 236 
 GUY2CHZ I         216 23.09         9.2 0.36                           304 236 
 ORTC HZ EP        215 51.76                             106    0.45 6  397 217 
 ORTC HN ES   2    216 32.51                             106   -0.86 3  397 217 
 ORTC HZ I         216 38.68         3.4 0.22            106            397 217 
                                                                                
