 2014  417 0635 59.1 L   6.832 -73.182137.5  RSN  4 0.3 1.6LRSN                1
 GAP=198        0.76       3.8     5.4  9.8  0.5247E+01 -0.7365E+01 -0.2062E+02E
 Epicentro: ZAPATOCA - SANTANDER                                               3
 ACTION:UPD 14-05-13 23:09 OP:nd   STATUS:               ID:20140417063559 L   I
 OLDACT:DUP 14-04-17 16:47 OP:nd   STATUS:               ID:20140417063041d    3
 2014-04-17-0630-40M.COL___242                                                 6
 STAT SP IPHASW D HRMM SECON CODA AMPLIT PERI AZIMU VELO AIN AR TRES W  DIS CAZ7
 RUS  HZ EP        636 22.59                             141    0.2210  104 174 
 RUS  HN ES        636 40.49                             141   -0.0110  104 174 
 PTB  HZ EP        636 24.99                             131   -0.14 9  145 257 
 PTB  HN ES        636 45.91                             131    0.49 9  145 257 
 PTB  HZ I         636 49.13         4.7 0.40            134            145 257 
 SPBC HZ EP        636 27.03                             127   -0.00 9  163 217 
 SPBC HN ES        636 48.28                             127   -0.52 9  163 217 
 SPBC HZ I         636 51.75         5.3 0.24            133            163 217 
 SML  HZ EP        636 35.00                             116    0.23 8  239 336 
 SML  HN ES        637  2.20                             116   -0.37 8  239 336 
 SML  HZ I         637 11.35         3.7 0.10            119            239 336 
                                                                                
