 2016 1017 0938 30.1 L   6.824 -73.198141.2  RSN  6 0.3 1.2LRSN                1
 GAP=129        0.80       3.0     4.3  5.8 -0.4727E+01  0.7526E+01 -0.2841E+01E
 Epicentro: ZAPATOCA - SANTANDER                                               3
 ACTION:UPD 16-11-09 19:20 OP:rebc STATUS:               ID:20161017093830 L   I
 OLDACT:REG 16-10-17 12:07 OP:and  STATUS:               ID:20161017092727     3
 2016-10-17-0928-00M.COL___343                                                 6
 STAT SP IPHASW D HRMM SECON CODA AMPLIT PERI AZIMU VELO AIN AR TRES W  DIS CAZ7
 BAR2 EZ EP        938 49.27                             169   -0.0010 25.7 176 
 BAR2 EZ ES        939  4.02                             169   -0.1710 25.7 176 
 BAR2 EZ I         939  5.45         6.9 0.52            171           25.7 176 
 PAM  EZ EP        938 52.23                             149    0.2510 79.2  44 
 PAM  HN ES        939  9.51                             149    0.4910 79.2  44 
 PAM  EZ I         939 11.23         2.0 0.40            153           79.2  44 
 RUS  HZ EP        938 53.34                             142   -0.3410  104 173 
 RUS  HE ES        939 11.68                             142   -0.3610  104 173 
 RUS  HZ I         939 13.60         1.7 0.32            146            104 173 
 PTB  HZ EP        938 56.29                             132    0.02 9  143 257 
 PTB  HN ES        939 16.56                             132   -0.09 9  143 257 
 PTB  HZ I         939 23.33         1.8 0.40            132            143 257 
 OCA  HZ EP        938 57.44                             129   -0.35 9  157 355 
 OCA  HN ES        939 19.14                             129   -0.21 9  157 355 
 OCA  HZ I         939 23.36         4.7 0.52            131            157 355 
 SPBC HZ EP        938 58.58                             128    0.43 9  162 217 
 SPBC HE ES        939 20.39                             128    0.39 9  162 217 
 SPBC HZ I         939 22.71         1.6 0.18            130            162 217 
                                                                                
