 2010 1017 0517 50.9 L   6.786 -73.075139.4  RSN  8 0.3 1.5LRSN                1
 GAP=167        0.63       3.1     7.2  5.4 -0.7293E+01 -0.1109E+02  0.2887E+01E
 Epicentro: LOS SANTOS - SANTANDER                                             3
 ACTION:UP  11-02-18 11:10 OP:tino STATUS:               ID:20101017051750 L   I
 2010-10-17-0516-16S.COL___125                                                 6
 STAT SP IPHASW D HRMM SECON CODA AMPLIT PERI AZIMU VELO SNR AR TRES W  DIS CAZ7
 BAR2 SZ EP   2    518 10.10                             170     0.3 5   25 209 
 BAR2 SZ ES   2    518 24.22                             170    -0.3 5   25 209 
 BAR2 SZ I         518 25.98         7.3 0.03                            25 209 
 BTL  SZ EP        518 10.02                             169     0.210   26 305 
 BTL  SZ ES   1    518 24.42                             169    -0.1 7   26 305 
 BRR  HZ IP     D  518 11.66                             149    -0.110   79 297 
 BRR  HZ I         518 11.85        16.9 0.13                            79 297 
 BRR  HE ES   1    518 28.38                             149     0.3 7   79 297 
 RUS  HZ EP   1    518 14.27                             143     0.4 7   99 181 
 RUS  HN ES   2    518 31.48                             143    -0.3 5   99 181 
 RUS  HZ I         518 34.45         2.8 0.27                            99 181 
 GUE  SZ EP   2    518 15.05                             138     0.0 5  117   8 
 GRA  SZ EP        518 15.64                             136     0.110  125  14 
 GRA  SZ ES   1    518 34.57                             136    -0.1 7  125  14 
 GRA  SZ I         518 39.62         2.8 0.16                           125  14 
 OCA  SZ EP   1    518 18.39                             128    -0.6 7  163 350 
 OCA  SZ I         518 44.77         5.0 0.32                           163 350 
 CHI  HZ EP   1    518 28.24                             116    -0.1 6  249 197 
 CHI  HN ES   1    518 57.15                             116    -0.3 6  249 197 
 CHI  HZ I         519  0.49         1.6 0.46                           249 197 
                                                                                
