 2016  817 0551 39.0 L   6.795 -73.169149.2  RSN 11 0.4 1.6LRSN                1
 GAP=235        1.01       4.1     5.0  6.1  0.4149E+01  0.5619E+01  0.8421E+01E
 Epicentro: LOS SANTOS - SANTANDER                                             3
 ACTION:UPD 16-10-29 15:36 OP:rebc STATUS:               ID:20160817055139 L   I
 OLDACT:REG 16-08-17 12:43 OP:ak   STATUS:               ID:20160817054759     3
 2016-08-17-0547-59S.COL___343                                                 6
 STAT SP IPHASW D HRMM SECON CODA AMPLIT PERI AZIMU VELO AIN AR TRES W  DIS CAZ7
 BAR2 EZ EP        551 59.04                             171   -0.0310 22.5 184 
 BAR2 EZ ES        552 14.69                             171   -0.0010 22.5 184 
 BAR2 EZ I         552 15.38         5.3 0.23                          22.5 184 
 BRR  HZ IP     D  552  0.77                             154    0.3210 69.2 300 
 BRR  HN ES        552 17.80                             154    0.6410 69.2 300 
 BRR  HZ I         552 21.63         7.4 0.35                          69.2 300 
 RUS  HZ EP        552  2.97                             145   -0.1410  100 175 
 RUS  HN ES        552 21.68                             145   -0.2010  100 175 
 RUS  HZ I         552 22.48         3.5 0.31                           100 175 
 PTB  HZ EP        552  5.45                             133   -0.60 9  145 259 
 PTB  HN ES        552 26.39                             133   -0.73 9  145 259 
 PTB  HZ I         552 33.95         4.2 0.28                           145 259 
 SPBC HZ EP        552  8.04                             130    0.43 9  161 218 
 SPBC HN ES        552 29.70                             130   -0.20 9  161 218 
 SPBC HZ I         552 33.23         8.7 0.10                           161 218 
 ZAR  HN ES        552 36.76                             123   -0.04 9  202 293 
 NOR  HN ES        552 42.83                             120    0.30 8  232 234 
 CHI  HZ EP        552 16.16                             118   -0.64 8  247 195 
 CHI  HN ES        552 46.37                             118    0.12 8  247 195 
 CHI  HZ I         552 49.15         2.9 0.21                           247 195 
 ROSC BZ EP        552 17.89                             118    0.74 8  251 211 
 ROSC BN ES        552 46.76                             118   -0.12 8  251 211 
 ROSC BZ I         552 52.83         7.4 0.35                           251 211 
 GUY2CHZ EP   4    552 24.61                             113    2.08 0  299 235 
 GUY2CHN ES   4    552 59.83                             113    3.37 0  299 235 
 GUY2CHZ I         553  3.41         1.3 0.60                           299 235 
 PRA  HZ EP        552 32.19                             107   -0.28 6  390 209 
 PRA  HN ES        553 14.94                             107    0.79 6  390 209 
 PRA  HZ I         553 17.93         2.6 0.26                           390 209 
                                                                                
