 2017 1017 0732  5.6 L   6.629 -73.126156.8  RSN  4 0.2 1.3LRSN                1
 GAP=287        0.66       8.0     5.0  6.0  0.1484E+02  0.6780E+01  0.4571E+01E
 Epicentro: CURITI - SANTANDER                                                 3
 ACTION:UPD 17-11-07 19:32 OP:rebc STATUS:               ID:20171017073205 L   I
 OLDACT:REG 17-10-17 12:44 OP:dani STATUS:               ID:20171017072734     3
 2017-10-17-0728-00M.COL___417                                                 6
 STAT SP IPHASW D HRMM SECON CODA AMPLIT PERI AZIMU VELO AIN AR TRES W  DIS CAZ7
 BAR2 EZ EP        732 26.43                             177    0.1110 7.45 236 
 BAR2 EZ ES        732 42.78                             177    0.2610 7.45 236 
 BAR2 EZ I         732 44.39         3.2 0.60            172           7.45 236 
 BRR  HZ EP        732 28.51                             151   -0.1010 83.5 309 
 BRR  HN ES        732 46.23                             151   -0.3610 83.5 309 
 BRR  HZ I         732 50.39         3.1 0.34            149           83.5 309 
 PTB  HZ EP        732 33.29                             135   -0.13 9  147 266 
 PTB  HE ES        732 55.03                             135   -0.12 9  147 266 
 PTB  HZ I         733  0.36         1.8 0.20            134            147 266 
 ZAR  HZ EP   4    732 39.00                             123   -0.73 0  214 297 
 ZAR  HE ES        733  6.83                             123    0.44 8  214 297 
 ZAR  HZ I         733 10.20         2.3 0.28            124            214 297 
                                                                                
