 2013  317 0538 46.0 L   6.778 -73.177149.6  RSN  5 0.3 1.9LRSN                1
 GAP=134        0.66       4.7     4.3  5.9 -0.3247E+01  0.3249E+01 -0.3592E+00E
 Epicentro: LOS SANTOS - SANTANDER                                             3
 ACTION:UPD 13-04-09 14:03 OP:ep   STATUS:               ID:20130317053846 L   I
 2013-03-17-0530-00M.COL___244                                                 6
 STAT SP IPHASW D HRMM SECON CODA AMPLIT PERI AZIMU VELO AIN AR TRES W  DIS CAZ7
 BAR2 SZ EP   1    539  6.06                             172    0.00 7 20.6 182 
 BAR2 SZ ES   1    539 21.36                             172   -0.34 7 20.6 182 
 BAR2 SZ I         539 22.71        35.9 0.16            171           20.6 182 
 BRR  HZ EP   1    539  7.90                             154    0.41 7 69.4 302 
 BRR  HN ES   1    539 24.67                             154    0.44 7 69.4 302 
 BRR  HZ I         539 29.20        14.1 0.16            150           69.4 302 
 PAM  SZ EP        539  9.05                             150    0.1610 81.5  40 
 PAM  SE ES   1    539 26.37                             150   -0.36 7 81.5  40 
 PAM  SZ I         539 28.26        10.1 0.48            154           81.5  40 
 RUS  HZ EP   1    539  9.99                             145   -0.01 7 98.5 174 
 RUS  HN ES   1    539 29.01                             145    0.30 7 98.5 174 
 RUS  HZ I         539 29.75         7.4 0.18            150           98.5 174 
 PTB  HZ EP        539 12.59                             134   -0.37 9  144 259 
 PTB  HN ES   1    539 33.80                             134   -0.17 7  144 259 
 PTB  HZ I         539 40.67        10.3 0.48            133            144 259 
                                                                                
