 2011  617 0512 14.5 L   5.938 -73.655123.7  RSN  4 0.3 1.2LRSN                1
 GAP=158        0.57       4.9     5.4  9.9 -0.9237E+01  0.1679E+02 -0.2575E+01E
 Epicentro: BARBOSA - SANTANDER                                                3
 ACTION:UP  11-07-14 19:05 OP:ep   STATUS:               ID:20110617051214 L   I
 2011-06-17-0500-00M.COL___122                                                 6
 STAT SP IPHASW D HRMM SECON CODA AMPLIT PERI AZIMU VELO SNR AR TRES W  DIS CAZ7
 RUS  HZ EP   2    512 33.56                             151     0.0 5   64  94 
 RUS  HN ES   2    512 48.27                             151    -0.1 5   64  94 
 RUS  HZ I         512 50.21         2.1 0.23                            64  94 
 BTL  SZ EP   1    512 37.47                             134     0.3 7  117  22 
 BRR  HZ EP   1    512 37.48                             130    -0.5 7  129 357 
 BRR  HN ES   1    512 56.44                             130     0.1 7  129 357 
 BRR  HZ I         512 58.34         4.3 0.25                           129 357 
 NOR  SZ EP   1    512 39.27                             128     0.1 7  141 253 
 NOR  SN ES   2    512 58.24                             128    -0.1 5  141 253 
                                                                                
