 2013 1017 0719 30.7 L   6.762 -73.172146.2  RSN  5 0.4 1.0LRSN                1
 GAP=135        1.00       6.8     5.5  8.4 -0.9811E+01  0.6249E+01 -0.4543E+01E
 Epicentro: LOS SANTOS - SANTANDER                                             3
 ACTION:UPD 13-11-25 09:22 OP:ep   STATUS:               ID:20131017071930 L   I
 OLDACT:REG 13-10-17 08:44 OP:jn   STATUS:               ID:20131017071836     3
 2013-10-17-0718-36M.COL___223                                                 6
 STAT SP IPHASW D HRMM SECON CODA AMPLIT PERI AZIMU VELO AIN AR TRES W  DIS CAZ7
 BAR2 SZ EP        719 50.47                             172    0.1410 18.8 183 
 BAR2 SZ ES        720  5.48                             172   -0.1310 18.8 183 
 BRR  HZ EP        719 52.18                             153    0.2810 70.8 303 
 BRR  HN ES        720  9.11                             153    0.6910 70.8 303 
 BRR  HZ I         720 10.07         2.6 0.46            153           70.8 303 
 PAM  SZ EP        719 53.35                             149    0.0510 82.5  39 
 PAM  SN ES        720 10.40                             149   -0.5010 82.5  39 
 PAM  SZ I         720 13.04         2.8 0.36            151           82.5  39 
 RUS  HN ES   1    720 12.86                             145    0.27 7 96.7 174 
 RUS  HZ I         720 13.98         1.1 0.30            147           96.7 174 
 PTB  HZ EP   1    719 57.12                             133   -0.29 7  144 260 
 PTB  HN ES        720 17.60                             133   -0.61 9  144 260 
 PTB  HZ I         720 20.15         1.2 0.12            134            144 260 
                                                                                
