 2013 1117 0339 17.3 L   7.519 -73.190138.5  RSN  7 0.6 1.4LRSN                1
 GAP=103        1.42       6.3     6.5 10.4 -0.2045E+01  0.5045E+01 -0.5901E+01E
 Epicentro: EL PLAYON - SANTANDER                                              3
 ACTION:UPD 14-01-09 16:28 OP:ep   STATUS:               ID:20131117033917 L   I
 OLDACT:REG 13-11-17 09:00 OP:stll STATUS:               ID:20131117033810     3
 2013-11-17-0338-10M.COL___220                                                 6
 STAT SP IPHASW D HRMM SECON CODA AMPLIT PERI AZIMU VELO AIN AR TRES W  DIS CAZ7
 PAM  SZ EP        339 37.82                             156    0.1910 57.7 110 
 PAM  SN ES        339 53.38                             156   -0.1210 57.7 110 
 PAM  SZ I         339 56.04         5.4 0.44            147           57.7 110 
 BRR  HZ EP        339 38.31                             150    0.5310 73.4 232 
 BRR  HN ES        339 54.69                             150    0.9210 73.4 232 
 BRR  HZ I         339 55.62         6.7 0.12            143           73.4 232 
 BAR2 SZ EP        339 39.90                             142   -0.2110  102 180 
 BAR2 SZ ES        339 56.97                             142   -0.9410  102 180 
 BAR2 SZ I         339 58.26         9.7 0.10            132            102 180 
 CAPV BZ EP        339 40.79                             141    0.5810  104  68 
 SML  HN ES        340  7.51                             126   -0.82 9  172 326 
 SML  HZ I         340 16.15         4.4 0.10            116            172 326 
 PTB  HZ EP        339 46.53                             125    0.04 9  177 232 
 PTB  HN ES        340  9.28                             125    0.01 9  177 232 
 PTB  HZ I         340 11.16         3.9 0.16            116            177 232 
 RUS  HZ EP        339 47.04                             125   -0.41 9  180 176 
 RUS  HZ I         340 11.55         0.6 0.24            115            180 176 
                                                                                
