 2013  317 0340  1.8 L   6.732 -73.184145.8  RSN  5 0.4 1.4LRSN                1
 GAP=228        0.78       8.1     6.7  8.6  0.1343E+02  0.8749E+01  0.1327E+02E
 Epicentro: VILLANUEVA - SANTANDER                                             3
 ACTION:UPD 13-04-09 14:03 OP:ep   STATUS:               ID:20130317034002dL   I
 2013-03-17-0340-00M.COL___244                                                 6
 STAT SP IPHASW D HRMM SECON CODA AMPLIT PERI AZIMU VELO AIN AR TRES W  DIS CAZ7
 BAR2 SZ EP   1    340 21.44                             174    0.15 7 15.4 179 
 BAR2 SZ ES   1    340 36.40                             174   -0.10 7 15.4 179 
 BAR2 SZ I         340 39.89        11.8 0.60            171           15.4 179 
 BRR  HZ EP   1    340 23.14                             153    0.18 7 71.7 305 
 BRR  HN ES   1    340 39.74                             153    0.26 7 71.7 305 
 BRR  HZ I         340 40.60         5.1 0.32            157           71.7 305 
 RUS  HZ EP   1    340 25.44                             146    0.40 7 93.4 173 
 RUS  HN ES   2    340 42.69                             146   -0.48 5 93.4 173 
 RUS  HZ I         340 46.26         2.2 0.24            146           93.4 173 
 PTB  HZ EP   1    340 27.49                             133   -0.78 7  142 261 
 PTB  HN ES   1    340 48.60                             133   -0.32 7  142 261 
 PTB  HZ I         340 50.55         3.3 0.12            137            142 261 
 NOR  HN ES   2    341  4.88                             119    0.97 4  227 235 
                                                                                
