 2013  217 0354 34.8 L   6.751 -73.148157.1  RSN  5 0.1 1.3LRSN                1
 GAP=200        0.38       2.2     3.1  3.8  0.3411E+01 -0.1572E+01 -0.2001E+01E
 Epicentro: LOS SANTOS - SANTANDER                                             3
 ACTION:UPD 13-03-12 09:33 OP:ep   STATUS:               ID:20130217035434 L   I
 2013-02-17-0350-00M.COL___241                                                 6
 STAT SP IPHASW D HRMM SECON CODA AMPLIT PERI AZIMU VELO AIN AR TRES W  DIS CAZ7
 BRR  HZ EP        354 57.26                             154   -0.0410 73.7 302 
 BRR  HN ES        355 14.96                             154    0.0910 73.7 302 
 BRR  HN I         355 19.01         4.4 0.16            153           73.7 302 
 RUS  HZ EP        354 59.45                             147    0.1410 95.2 176 
 RUS  HN ES        355 18.37                             147   -0.0710 95.2 176 
 RUS  HN I         355 19.73         1.5 0.42            151           95.2 176 
 PTB  HZ EP        355  2.60                             135    0.00 9  147 261 
 PTB  HN ES        355 24.14                             135   -0.15 9  147 261 
 PTB  HN I         355 28.99         2.1 0.32            136            147 261 
 ZAR  HE ES   2    355 34.65                             124    0.42 4  206 294 
 SML  HE ES        355 41.95                             119   -0.11 8  248 336 
 SML  HE I         355 45.19         2.8 0.10            121            248 336 
                                                                                
