 2011 1017 0916 35.9 L   6.797 -73.023134.0  RSN  4 0.3 1.3LRSN                1
 GAP=195        0.55      11.1    21.9 17.5  0.2109E+03 -0.3229E+03 -0.1484E+03E
 Epicentro: CEPITA - SANTANDER                                                 3
 ACTION:UPD 12-07-13 16:04 OP:ep   STATUS:               ID:20111017091635 L   I
 2011-10-17-0913-34S.COL___168                                                 6
 STAT SP IPHASW D HRMM SECON CODA AMPLIT PERI AZIMU VELO AIN AR TRES W  DIS CAZ7
 BAR2 SZ EP   1    916 54.61                             169    0.40 7 28.7 218 
 BRR  HZ EP   1    916 56.34                             147   -0.20 7 83.6 294 
 BRR  HN ES   1    917 12.77                             147    0.09 7 83.6 294 
 BRR  HZ I         917 17.26         4.8 0.06                          83.6 294 
 RUS  HZ EP   2    916 58.56                             142    0.12 5  100 184 
 RUS  HN ES   2    917 15.60                             142   -0.46 5  100 184 
 RUS  HZ I         917 18.34         1.8 0.21                           100 184 
 OCA  SZ EP   2    917  3.14                             127   -0.39 5  163 348 
 OCA  SZ I         917 25.84         3.4 0.50                           163 348 
                                                                                
