 2013 1217 0356 58.9 L   6.475 -73.633109.1  RSN  4 0.2 1.4LRSN                1
 GAP=138        0.59       3.3     2.8  5.3  0.2702E+01  0.1608E+01 -0.7230E+01E
 Epicentro: SANTA HELENA DEL OPON - SANTANDER                                  3
 ACTION:UPD 14-01-13 10:18 OP:ep   STATUS:               ID:20131217035658 L   I
 OLDACT:REG 13-12-17 06:32 OP:nd   STATUS:               ID:20131217035000     3
 2013-12-17-0350-00M.COL___285                                                 6
 STAT SP IPHASW D HRMM SECON CODA AMPLIT PERI AZIMU VELO AIN AR TRES W  DIS CAZ7
 BAR2 SZ EP        357 15.34                             153    0.0710 51.5  75 
 BAR2 SZ ES        357 27.96                             153   -0.1210 51.5  75 
 BAR2 SZ I         357 29.30        19.4 0.50            154           51.5  75 
 RUS  HZ EP        357 18.33                             138    0.1210 88.6 137 
 RUS  HN ES        357 33.32                             138    0.0210 88.6 137 
 RUS  HZ I         357 35.28         2.2 0.42            141           88.6 137 
 PTB  HZ EP        357 17.88                             137    0.1110 91.3 275 
 PTB  HN ES        357 32.43                             137   -0.0910 91.3 275 
 PTB  HZ I         357 34.34         3.5 0.32            138           91.3 275 
 SML  HZ EP        357 35.23                             107   -0.59 8  262 349 
 SML  HN ES        358  5.03                             107    0.39 8  262 349 
 SML  HZ I         358  7.37         2.2 0.10            108            262 349 
                                                                                
