 2014  417 0305 40.1 L   6.857 -73.219130.1  RSN 11 0.6 1.9LRSN                1
 GAP=125        1.25       3.6     5.0  9.3 -0.4256E+01  0.2407E+02 -0.1966E+01E
 Epicentro: ZAPATOCA - SANTANDER                                               3
 ACTION:UPD 14-05-13 23:09 OP:nd   STATUS:               ID:20140417030540 L   I
 OLDACT:UP  14-04-18 12:10 OP:nlst STATUS:               ID:20140417030540 L   3
 OLDACT:REG 14-04-17 13:25 OP:nd   STATUS:               ID:20140417030037     3
 2014-04-17-0300-37M.COL___245                                                 6
 STAT SP IPHASW D HRMM SECON CODA AMPLIT PERI AZIMU VELO AIN AR TRES W  DIS CAZ7
 PAM  SZ EP        3 6  0.68                             148   -0.0110 78.4  47 
 PAM  SN ES        3 6 17.39                             148    0.6110 78.4  47 
 PAM  SZ I         3 6 18.20        10.2 0.34            153           78.4  47 
 RUS  HZ EP        3 6  2.18                             139   -0.6810  108 172 
 RUS  HN ES        3 6 20.24                             139   -0.4110  108 172 
 RUS  HZ I         3 6 21.47        11.9 0.24            145            108 172 
 PTB  HZ EP        3 6  4.67                             130   -0.49 9  141 256 
 PTB  HN ES        3 6 24.93                             130    0.18 9  141 256 
 PTB  HZ I         3 6 27.88        15.6 0.20            130            141 256 
 OCA  HZ EP        3 6  6.10                             127   -0.40 9  153 356 
 OCA  HN ES        3 6 27.53                             127    0.41 9  153 356 
 OCA  HZ I         3 6 29.88        11.5 0.44            129            153 356 
 ZAR  HZ EP        3 6 10.96                             120    0.49 9  194 291 
 ZAR  HN ES   1    3 6 34.09                             120   -0.11 6  194 291 
 ZAR  HZ I         3 6 39.77         7.3 0.10            121            194 291 
 SML  HZ EP        3 6 14.57                             115   -0.27 8  235 336 
 SML  HN ES        3 6 41.06                             115   -0.91 8  235 336 
 SML  HZ I         3 6 51.61         9.2 0.10            117            235 336 
 HEL  HZ EP        3 6 20.17                             112    1.36 8  266 254 
 HEL  HN ES   2    3 6 47.62                             112   -1.41 4  266 254 
 HEL  HZ I         3 6 57.14         7.2 0.34            114            266 254 
 URE  HZ EP   1    3 6 19.02                             111   -0.25 6  274 291 
 URE  HN ES   1    3 6 50.24                             111    0.37 6  274 291 
 URE  HZ I         3 7  2.77         7.8 0.30            113            274 291 
 GUY2CHZ EP        3 6 22.90                             110    0.25 7  298 233 
 GUY2CHN ES        3 6 57.04                             110    1.16 7  298 233 
 GUY2CHZ I         3 7  5.20         4.1 0.50                           298 233 
 RREF HZ EP   2    3 6 25.31                             108   -0.03 3  320 228 
 RREF HN ES        3 7  0.27                             108   -0.39 7  320 228 
 RREF HZ I         3 7  8.20         3.7 0.32            111            320 228 
 CBOC HZ EP        3 6 25.90                             107    0.20 7  328 251 
 CBOC HN ES   1    3 7  0.97                             107   -0.33 5  328 251 
                                                                                
