 2014  717 0021 16.9 L   6.808 -73.136139.2  RSN 17 0.5 1.9LRSN                1
 GAP=137        1.02       2.9     4.2  5.7 -0.1417E+01  0.5514E+01  0.3418E+01E
 Epicentro: LOS SANTOS - SANTANDER                                             3
 ACTION:UPD 15-03-16 20:44 OP:nd   STATUS:               ID:20140717002116 L   I
 OLDACT:REG 14-07-17 12:33 OP:fm   STATUS:               ID:20140717001812     3
 2014-07-17-0018-12M.COL___269                                                 6
 STAT SP IPHASW D HRMM SECON CODA AMPLIT PERI AZIMU VELO AIN AR TRES W  DIS CAZ7
 BAR2 SZ EP        021 36.19                             170    0.4710 24.4 192 
 BAR2 SZ ES   1    021 49.88                             170   -0.55 7 24.4 192 
 BAR2 SZ I         021 52.17        13.9 0.24            167           24.4 192 
 BRR  HZ IP     D  021 38.01                             151    0.6810 71.7 298 
 BRR  HN ES        021 53.09                             151   -0.2110 71.7 298 
 BRR  HZ I         022  2.98        12.1 0.46            150           71.7 298 
 PAM  SZ EP   1    021 38.64                             150    0.34 7 76.0  39 
 PAM  SN ES   1    021 55.55                             150    0.53 7 76.0  39 
 PAM  SZ I         021 58.73        10.1 0.60            157           76.0  39 
 RUS  HZ EP   1    021 39.30                             142   -0.73 7  101 177 
 RUS  HN ES   1    021 57.67                             142   -0.43 7  101 177 
 RUS  HZ I         021 59.72         6.3 0.26            145            101 177 
 PTB  HZ EP        021 42.81                             130   -0.60 9  149 259 
 PTB  HN ES        022  3.64                             130   -0.48 9  149 259 
 PTB  HZ I         022  8.60         7.3 0.12            131            149 259 
 OCA  HN ES   1    022  5.76                             128   -0.47 7  160 353 
 OCA  HZ I         022 10.63         6.8 0.28            132            160 353 
 SPBC HZ EP        021 44.93                             127   -0.06 9  165 219 
 SPBC HN ES        022  7.51                             127    0.58 9  165 219 
 SPBC HZ I         022 12.30        10.4 0.10            129            165 219 
 ZAR  HZ EP        021 49.73                             121    0.78 9  205 292 
 ZAR  HN ES        022 14.65                             121    0.67 9  205 292 
 ZAR  HZ I         022 19.97         6.8 0.20            123            205 292 
 NOR  HZ EP        021 52.44                             117    0.08 8  236 234 
 NOR  HN ES        022 20.20                             117    0.15 8  236 234 
 NOR  HZ I         022 26.44         7.8 0.20            119            236 234 
 SML  HZ EP   1    021 52.70                             116   -0.39 6  243 335 
 SML  HE ES        022 20.64                             116   -0.70 8  243 335 
 SML  HZ I         022 23.90         7.8 0.10            119            243 335 
 CHI  HZ EP   1    021 54.32                             115   -0.00 6  250 195 
 CHI  HN ES   1    022 23.89                             115    0.34 6  250 195 
 CHI  HZ I         022 29.48         3.8 0.24            118            250 195 
 HEL  HE ES   1    022 27.82                             113   -0.28 6  273 256 
 HEL  HZ I         022 33.90         3.4 0.21            115            273 256 
 GUY2CHE ES   1    022 33.84                             111   -0.39 5  303 235 
 GUY2CHZ I         022 41.09         3.5 0.40                           303 235 
 RREF HZ EP   1    022  2.63                             109   -0.25 5  323 229 
 RREF HE ES   1    022 39.40                             109    0.62 5  323 229 
 RREF HZ I         022 45.49         3.8 0.26            112            323 229 
 TOL  SZ EP   4    022  7.18                             108    2.16 0  345 225 
 TOL  SE ES   4    022 44.41                             108    1.83 0  345 225 
 TOL  SZ I         022 52.96         6.6 0.46            110            345 225 
 PRA  HZ EP        022 10.10                             105   -0.21 6  393 210 
 PRA  HN ES        022 51.94                             105   -0.06 6  393 210 
 PRA  HZ I         022 58.60         3.2 0.40            108            393 210 
 ORTC HZ EP        022 10.20                             105   -0.52 6  397 216 
 ORTC HN ES   1    022 52.14                             105   -0.58 4  397 216 
 ORTC HZ I         022 59.97         2.4 0.58            107            397 216 
                                                                                
