 2011  217 0641 58.4 L   6.811 -73.197137.3  RSN  7 0.3 1.8LRSN                1
 GAP=153        0.74       3.2     9.2  7.3 -0.1323E+02  0.3260E+02 -0.3485E+01E
 Epicentro: ZAPATOCA - SANTANDER                                               3
 ACTION:UP  11-03-28 15:09 OP:jfem STATUS:               ID:20110217064158 L   I
 2011-02-17-0639-33S.COL___137                                                 6
 STAT SP IPHASW D HRMM SECON CODA AMPLIT PERI AZIMU VELO SNR AR TRES W  DIS CAZ7
 BAR2 SZ IP        642 17.29                             169     0.210   24 176 
 BAR2 SZ I         642 17.61        11.4 0.10                            24 176 
 BAR2 SZ ES   1    642 31.62                             169     0.0 7   24 176 
 RUS  HZ EP   1    642 21.38                             141    -0.1 7  102 173 
 RUS  HZ I         642 22.55         7.9 0.14                           102 173 
 RUS  HN ES   1    642 39.01                             141    -0.5 7  102 173 
 GRA  SZ EP   1    642 22.90                             135    -0.1 7  126  20 
 GRA  SZ ES   1    642 42.25                             135     0.1 7  126  20 
 GRA  SZ I         642 43.61        11.7 0.25                           126  20 
 OCA  SZ EP   1    642 26.20                             128     0.3 7  158 355 
 OCA  SZ ES   1    642 47.05                             128    -0.3 7  158 355 
 NOR  SN ES   2    643  0.94                             117     0.5 4  231 233 
 CHI  HZ EP   1    642 35.95                             115     0.3 6  248 194 
 CHI  HN ES   1    643  5.11                             115     0.4 6  248 194 
 CHI  HZ I         643  6.82         5.5 0.69                           248 194 
 RREF HZ EP        642 43.17                             109    -0.6 7  318 229 
 RREF HZ I         643 25.28         4.1 0.50                           318 229 
                                                                                
