 2017  817 0941 40.8 L   6.817 -73.149149.0  RSN  8 0.3 1.6LRSN                1
 GAP=111        0.76       3.0     3.2  6.2  0.1484E+01  0.3243E+01  0.2134E+01E
 Epicentro: LOS SANTOS - SANTANDER                                             3
 ACTION:UPD 17-09-04 20:21 OP:rebc STATUS:               ID:20170817094140 L   I
 OLDACT:DUP 17-08-17 17:26 OP:l    STATUS:               ID:20170817093743d    3
 2017-08-17-0938-00M.COL___407                                                 6
 STAT SP IPHASW D HRMM SECON CODA AMPLIT PERI AZIMU VELO AIN AR TRES W  DIS CAZ7
 BAR2 EZ EP        942  0.51                             170   -0.3310 25.1 189 
 BAR2 EZ I         942 17.16        10.1 0.15            171           25.1 189 
 BRR  HN ES   1    942 19.40                             153    0.47 7 70.0 297 
 PAM  EZ EP        942  3.54                             152    0.2710 76.1  41 
 PAM  EN ES        942 20.72                             152   -0.0910 76.1  41 
 PAM  EZ I         942 23.66         4.6 0.20            151           76.1  41 
 RUS  HZ EP        942  4.81                             144   -0.1810  103 176 
 RUS  HN ES        942 23.38                             144   -0.4910  103 176 
 RUS  HZ ES        942 23.85                             144            103 176 
 RUS  HZ I         942 25.29         3.4 0.26            144            103 176 
 SPBC HE ES        942 32.58                             129    0.42 9  164 218 
 SPBC HZ I         942 37.62         6.8 0.10            129            164 218 
 YPLC HZ EP        942 11.02                             127    0.03 9  179 152 
 YPLC HN ES        942 34.98                             127    0.43 9  179 152 
 YPLC HZ I         942 36.05         6.6 0.26            127            179 152 
 ZAR  HZ EP        942 13.38                             123    0.04 9  203 292 
 ZAR  HE ES        942 38.57                             123   -0.16 9  203 292 
 ZAR  HZ I         942 44.19         3.3 0.18            122            203 292 
 NOR  HN ES   1    942 44.62                             119   -0.26 6  236 234 
                                                                                
