 2016 1017 0639 58.8 L   6.816 -73.093156.6  RSN  4 0.2 1.5LRSN                1
 GAP=244        0.38       4.5     7.6  6.9  0.1133E+02 -0.1813E+02  0.8649E+01E
 Epicentro: LOS SANTOS - SANTANDER                                             3
 ACTION:UPD 16-11-09 19:20 OP:rebc STATUS:               ID:20161017063958 L   I
 OLDACT:UP  16-10-19 19:41 OP:nlst STATUS:               ID:20161017063958 L   3
 OLDACT:UP  16-10-17 19:02 OP:and  STATUS:               ID:20161017063738     3
 OLDACT:REG 16-10-17 11:54 OP:and  STATUS:               ID:20161017063738     3
 2016-10-17-0638-00M.COL___359                                                 6
 STAT SP IPHASW D HRMM SECON CODA AMPLIT PERI AZIMU VELO AIN AR TRES W  DIS CAZ7
 BAR2 EZ EP   2    640 19.36                             170   -0.40 5 26.6 202 
 BAR2 EZ I         640 21.15        11.7 0.34            167           26.6 202 
 BRR  HZ EP   2    640 21.67                             153    0.34 5 75.6 295 
 BRR  HZ I         640 34.72         4.0 0.50                          75.6 295 
 BRR  HN ES        640 38.91                             153   -0.0210 75.6 295 
 RUS  HZ EP   2    640 23.77                             145    0.07 5  102 179 
 RUS  HZ I         640 30.32         2.9 0.84                           102 179 
 RUS  HE ES   2    640 43.31                             145    0.16 5  102 179 
 SPBC HZ EP   2    640 28.55                             130   -0.03 5  168 220 
 SPBC HE ES   2    640 51.76                             130   -0.07 5  168 220 
 SPBC HZ I         640 53.82         3.1 0.88             90            168 220 
                                                                                
