 2016  317 0744 33.5 L   6.832 -73.196138.3  RSN  6 0.4 1.4LRSN                1
 GAP=129        0.91       3.4     4.8  8.5 -0.7864E+01  0.1426E+02 -0.4141E+01E
 Epicentro: ZAPATOCA - SANTANDER                                               3
 ACTION:UPD 16-05-13 21:24 OP:cam  STATUS:               ID:20160317074433 L   I
 OLDACT:UP  16-03-17 18:35 OP:mh   STATUS:               ID:20160317073749     3
 OLDACT:REG 16-03-17 14:42 OP:dnl  STATUS:               ID:20160317073749     3
 2016-03-17-0737-49M.COL___297                                                 6
 STAT SP IPHASW D HRMM SECON CODA AMPLIT PERI AZIMU VELO AIN AR TRES W  DIS CAZ7
 PAM  EN EP        744 54.79                             149   -0.1910 78.4  44 
 PAM  EZ ES        745 11.96                             149    0.2210 78.4  44 
 PAM  EN I         745 13.12         7.1 0.38            152           78.4  44 
 RUS  HZ EP   1    744 56.74                             141   -0.08 7  105 173 
 RUS  HN ES        745 15.01                             141   -0.0110  105 173 
 RUS  HZ I         745 15.47         3.1 0.28            146            105 173 
 PTB  HZ EP        744 59.36                             131   -0.07 9  143 257 
 PTB  HN ES        745 20.10                             131    0.45 9  143 257 
 PTB  HZ I         745 23.12         2.0 0.38            133            143 257 
 OCA  HZ EP        745  1.58                             129    0.74 9  156 355 
 OCA  HN ES        745 21.47                             129   -0.69 9  156 355 
 OCA  HZ I         745 26.65         5.9 0.46            131            156 355 
 SPBC HZ EP        745  1.30                             127   -0.07 9  163 217 
 SPBC HN ES        745 23.07                             127   -0.05 9  163 217 
 SPBC HZ I         745 26.52         3.8 0.51            130            163 217 
 NOR  HN ES        745 35.51                             117   -0.37 8  232 233 
                                                                                
