 2010  617 0531  3.0 L   6.788 -73.168151.9  RSN  4 0.1 1.4LRSN                1
 GAP=153        0.42       3.1     5.1  6.0 -0.2004E+01 -0.8027E+01  0.5977E+01E
 Epicentro: LOS SANTOS - SANTANDER                                             3
 ACTION:UP  10-08-24 10:11 OP:vdl  STATUS:               ID:20100617053103 L   I
 2010-06-17-0528-35S.COL___114                                                 6
 STAT SP IPHASW D HRMM SECON CODA AMPLIT PERI AZIMU VELO SNR AR TRES W  DIS CAZ7
 BAR2 SZ EP   1    531 23.07                             171    -0.3 7   22 185 
 BRR  HZ IP     D  531 24.85                             154     0.110   70 300 
 BRR  HZ I         531 25.05         4.5 0.15                            70 300 
 BRR  HE ES   1    531 41.67                             154     0.0 7   70 300 
 RUS  HZ EP        531 27.43                             145     0.110   99 175 
 RUS  HE ES   2    531 46.21                             145     0.0 5   99 175 
 RUS  HZ I         531 47.61         4.1 0.32                            99 175 
 BRI  SZ EP   1    531 27.54                             142    -0.1 7  111  22 
 BRI  SZ ES   1    531 46.99                             142     0.1 7  111  22 
                                                                                
