 2011  117 0233  3.3 L   6.875 -73.330116.0  RSN  7 0.4 1.7LRSN                1
 GAP=125        0.84       3.2     7.6  8.8 -0.8692E+01  0.3235E+02 -0.5702E+01E
 Epicentro: BETULIA - SANTANDER                                                3
 ACTION:UP  11-02-08 08:41 OP:pat  STATUS:               ID:20110117023303 L   I
 2011-01-17-0230-02S.COL___135                                                 6
 STAT SP IPHASW D HRMM SECON CODA AMPLIT PERI AZIMU VELO SNR AR TRES W  DIS CAZ7
 BAR2 SZ EP        233 19.90                             162     0.210   35 153 
 BAR2 SZ ES   1    233 32.60                             162     0.1 7   35 153 
 BAR2 SZ I         233 34.23        26.6 0.22                            35 153 
 RUS  HZ EP   1    233 24.66                             133    -0.6 7  112 166 
 RUS  HE ES   1    233 42.06                             133    -0.3 7  112 166 
 RUS  HZ I         233 43.61         5.0 0.28                           112 166 
 GRA  SZ EP   1    233 26.39                             129     0.3 7  126  27 
 GRA  SZ ES   1    233 44.35                             129     0.5 7  126  27 
 GRA  SZ I         233 47.10         8.5 0.25                           126  27 
 OCA  SZ IP        233 28.11                             124    -0.4 9  151   0 
 OCA  SZ ES   1    233 47.83                             124    -0.3 7  151   0 
 OCA  SZ I         233 51.01        11.8 0.31                           151   0 
 NOR  SE ES   2    234  2.05                             113     0.1 4  224 230 
 CHI  HZ EP   1    233 39.91                             110     0.0 6  252 190 
 CHI  HE ES   1    234  9.01                             110     0.5 6  252 190 
 CHI  HZ I         234 12.05         2.5 0.55                           252 190 
 HEL  HZ EP   2    233 40.98                             110     0.8 4  255 253 
 HEL  HE ES   2    234  8.90                             110     0.0 4  255 253 
 HEL  HZ I         234 15.15         2.9 0.45                           255 253 
                                                                                
