 2013  417 0801 57.9 L   6.794 -73.122151.6  RSN  5 0.3 1.6LRSN                1
 GAP=222        0.66       4.4     6.1  7.2 -0.9044E+01 -0.1090E+02  0.2512E+01E
 Epicentro: LOS SANTOS - SANTANDER                                             3
 ACTION:UPD 13-05-22 14:39 OP:EP   STATUS:               ID:20130417080157 L   I
 2013-04-17-0800-00M.COL___250                                                 6
 STAT SP IPHASW D HRMM SECON CODA AMPLIT PERI AZIMU VELO AIN AR TRES W  DIS CAZ7
 BAR2 SZ EP        8 2 18.16                             171   -0.0510 23.3 197 
 BAR2 SZ I         8 2 33.99         9.6 0.26            160           23.3 197 
 BRR  HZ EP        8 2 20.06                             153    0.2610 73.8 298 
 BRR  HN ES   1    8 2 36.90                             153    0.00 7 73.8 298 
 BRR  HZ I         8 2 40.74         5.1 0.17            171           73.8 298 
 PTB  HZ EP        8 2 25.30                             133   -0.24 9  150 259 
 PTB  HN ES        8 2 46.88                             133   -0.24 9  150 259 
 NOR  HZ EP        8 2 34.54                             119    0.41 8  236 235 
 NOR  HN ES   1    8 3  2.54                             119    0.13 6  236 235 
 NOR  HZ I         8 3  3.60         2.3 0.14            127            236 235 
 SML  HZ EP        8 2 34.54                             118   -0.47 8  245 335 
 SML  HN ES   1    8 3  4.48                             118    0.50 6  245 335 
 SML  HZ I         8 3  6.55         4.5 0.10            125            245 335 
                                                                                
