 2017 1017 0955 29.9 L   6.799 -73.178151.4  RSN  6 0.5 1.8LRSN                1
 GAP=183        1.04       7.4     6.9  8.6  0.3398E+02  0.2845E+01 -0.6864E+01E
 Epicentro: LOS SANTOS - SANTANDER                                             3
 ACTION:UPD 17-11-07 19:32 OP:rebc STATUS:               ID:20171017095529 L   I
 OLDACT:UP  17-10-17 16:24 OP:dani STATUS:               ID:20171017094738     3
 OLDACT:UP  17-10-17 16:24 OP:dani STATUS:               ID:20171017094738     3
 OLDACT:UP  17-10-17 16:23 OP:dani STATUS:               ID:20171017094738     3
 OLDACT:REG 17-10-17 12:53 OP:dani STATUS:               ID:20171017094738     3
 2017-10-17-0948-00M.COL___398                                                 6
 STAT SP IPHASW D HRMM SECON CODA AMPLIT PERI AZIMU VELO AIN AR TRES W  DIS CAZ7
 BAR2 EZ EP     C  955 49.88                             171   -0.2910 22.9 181 
 BAR2 EZ ES        956  5.35                             171   -0.6510 22.9 181 
 BAR2 EZ I         956  7.30        10.0 0.22            168           22.9 181 
 BRR  HZ EP     C  955 51.60                             154    0.1310 68.1 300 
 BRR  HE ES        956  8.85                             154    0.5410 68.1 300 
 BRR  HZ I         956 12.61        15.6 0.42            151           68.1 300 
 PTB  HZ EP        955 56.64                             134   -0.35 9  144 259 
 PTB  HN ES        956 17.83                             134   -0.31 9  144 259 
 PTB  HZ I         956 24.76         5.6 0.52            132            144 259 
 YPLC HN ES        956 24.56                             127    0.64 9  178 150 
 ZAR  HZ EP   3    956  3.40                             124    1.04 2  201 293 
 ZAR  HE ES        956 28.24                             124    0.54 9  201 293 
 ZAR  HZ I         956 33.40         8.2 0.34            124            201 293 
 SJC  HZ EP   3    956 24.05                             107   -1.36 1  407 327 
 SJC  HE ES        957  8.48                             107   -0.25 6  407 327 
 SJC  HZ I         957 12.11         1.0 0.34            108            407 327 
                                                                                
