 2012 1017 0850 56.7 L   6.782 -73.095144.7  RSN  5 0.2 1.5LRSN                1
 GAP=144        0.44       3.0     4.7  4.2 -0.2323E+00 -0.1664E+01  0.1353E+01E
 Epicentro: LOS SANTOS - SANTANDER                                             3
 ACTION:UPD 12-11-22 17:04 OP:ep   STATUS:               ID:20121017085056 L   I
 2012-10-17-0850-00M.COL___231                                                 6
 STAT SP IPHASW D HRMM SECON CODA AMPLIT PERI AZIMU VELO AIN AR TRES W  DIS CAZ7
 BAR2 SZ EP   1    851 16.02                             170   -0.17 7 23.1 205 
 BAR2 SZ ES   1    851 31.46                             170    0.06 7 23.1 205 
 BAR2 SZ I         851 33.16         7.0 0.22                          23.1 205 
 GIR2 SZ EP   1    851 16.16                             166   -0.17 7 34.5 342 
 GIR2 SZ ES   1    851 31.62                             166   -0.03 7 34.5 342 
 PAM  SZ EP   1    851 18.93                             151    0.24 7 75.5  35 
 PAM  SZ I         851 19.12         9.0 0.20                          75.5  35 
 PAM  SN ES   1    851 35.77                             151   -0.07 7 75.5  35 
 PAM  SN I         851 37.21         5.5 0.22                          75.5  35 
 BRR  HZ EP   1    851 17.80                             150   -0.27 7 77.0 298 
 BRR  HN ES   1    851 34.96                             150    0.22 7 77.0 298 
 BRR  HZ I         851 38.59         5.0 0.14                          77.0 298 
 RUS  HZ EP   1    851 20.50                             144    0.32 7 98.4 179 
 RUS  HN ES   1    851 38.36                             144   -0.14 7 98.4 179 
 RUS  HN I         851 40.38         8.0 0.20                          98.4 179 
 RUS  HZ I         851 40.52         4.2 0.40                          98.4 179 
                                                                                
