 2010  417 0811  8.4 L   6.793 -73.036140.1  RSN  8 0.6 2.1LRSN                1
 GAP=222        1.18       6.3    10.8  8.9 -0.2620E+02 -0.3393E+01  0.2063E+02E
 Epicentro: CEPITA - SANTANDER                                                 3
 ACTION:UP  10-08-24 09:59 OP:vdl  STATUS:               ID:20100417081116 L   I
 2010-04-17-0808-51S.COL___100                                                 6
 STAT SP IPHASW D HRMM SECON CODA AMPLIT PERI AZIMU VELO AIN AR TRES W  DIS CAZ7
 BAR2 SZ EP        811 27.32                             168    -0.110   28 216 
 BAR2 SZ ES   1    811 42.11                             168    -0.2 7   28 216 
 BRR  HZ IP     D  811 29.60                             148     0.010   82 295 
 BRR  HN ES        811 46.61                             148     0.410   82 295 
 BRR  HZ I         811 47.53        28.4 0.07                            82 295 
 OCA  SZ EP        811 36.27                             128    -0.3 9  163 349 
 OCA  SZ ES   1    811 58.32                             128    -0.2 7  163 349 
 ROSC BZ EP        811 47.47                             115     0.6 8  259 213 
 ROSC BZ I         812 23.43         6.9 0.36                           259 213 
 HEL  HN ES   2    812 20.60                             113    -1.2 4  284 257 
 HEL  HZ I         812 25.83         3.7 0.38                           284 257 
 RREF BZ EP        811 56.61                             109     1.3 7  331 231 
 RREF BN ES        812 31.22                             109    -0.7 7  331 231 
 RREF BZ I         812 35.63         5.9 0.20                           331 231 
 DBB  SZ EP   2    811 57.07                             108     0.0 3  352 274 
 PRA  HZ EP        812  1.75                             105    -0.6 6  397 211 
 PRA  HN ES   1    812 44.16                             105    -0.3 4  397 211 
 PRA  HZ I         812 48.47         6.7 0.64                           397 211 
                                                                                
