 2010  317 0551 10.1 L   6.805 -73.027136.9  RSN  5 0.3 1.4LRSN                1
 GAP=195        0.57       4.8    10.2  7.3  0.2371E+02 -0.3219E+02 -0.1543E+02E
 Epicentro: CEPITA - SANTANDER                                                 3
 ACTION:UP  10-08-24 09:54 OP:vdl  STATUS:               ID:20100317055110 L   I
 2010-03-17-0549-36S.COL___098                                                 6
 STAT SP IPHASW D HRMM SECON CODA AMPLIT PERI AZIMU VELO SNR AR TRES W  DIS CAZ7
 BAR2 SZ EP        551 28.95                             166     0.110   29 216 
 BAR2 SZ ES   1    551 43.01                             166    -0.4 7   29 216 
 BRR  HZ IP        551 30.87                             146    -0.110   83 294 
 BRR  HE ES   1    551 47.64                             146     0.3 7   83 294 
 BRR  HZ I         551 51.95        11.7 0.15                            83 294 
 RUS  HZ EP   2    551 33.33                             141     0.3 5  101 184 
 RUS  HN ES   2    551 51.24                             141     0.3 5  101 184 
 RUS  HZ I         551 52.88         3.0 0.55                           101 184 
 OCA  SZ EP   1    551 37.73                             127    -0.1 7  162 349 
 OCA  SZ ES   2    551 59.51                             127     0.0 5  162 349 
 CHI  HN ES   3    552 16.37                             114    -0.8 2  253 198 
 CHI  HZ I         552 20.59         1.2 0.50                           253 198 
                                                                                
