 2017  317 0519  0.4 L   6.798 -73.067150.8  RSN  6 0.4 1.3LRSN                1
 GAP=147        0.66       3.6     4.1  6.1 -0.3055E+01  0.9588E+01 -0.1263E+01E
 Epicentro: LOS SANTOS - SANTANDER                                             3
 ACTION:UPD 17-05-25 18:41 OP:jn   STATUS:               ID:20170317051900 L   I
 OLDACT:DUP 17-03-17 16:13 OP:cog  STATUS:               ID:20170317050740d    3
 2017-03-17-0508-00M.COL___408                                                 6
 STAT SP IPHASW D HRMM SECON CODA AMPLIT PERI AZIMU VELO AIN AR TRES W  DIS CAZ7
 PAM  EZ EP        519 23.11                             153    0.2410 72.3  34 
 PAM  EE ES        519 40.07                             153   -0.3210 72.3  34 
 PAM  EZ I         519 42.63         3.2 0.60            152           72.3  34 
 BRR  HZ EP        519 22.60                             151    0.0610 79.0 296 
 BRR  HE ES   3    519 41.68                             151    1.87 2 79.0 296 
 BRR  HZ I         519 44.70         4.1 0.50            143           79.0 296 
 RUS  HZ EP        519 24.77                             145    0.1510  100 181 
 RUS  HN ES        519 43.53                             145    0.0210  100 181 
 RUS  HZ I         519 44.89         1.8 0.44            137            100 181 
 PTB  HN ES        519 50.30                             131   -0.20 9  156 260 
 SPBC HZ EP        519 29.55                             129   -0.25 9  169 221 
 SPBC HZ I         519 55.35         2.6 0.30            121            169 221 
 ZAR  HZ EP        519 34.14                             122    0.13 8  212 291 
 ZAR  HN ES   4    519 58.84                             122   -1.38 0  212 291 
 ZAR  HZ I         520  4.46         3.1 0.30            115            212 291 
                                                                                
