 2017  217 0801 21.8 L   6.795 -73.179144.5  RSN  7 0.5 1.5LRSN                1
 GAP=133        1.26       5.0     5.5  7.8  0.3394E+01  0.1057E+02  0.6776E+01E
 Epicentro: LOS SANTOS - SANTANDER                                             3
 ACTION:UPD 17-05-24 15:37 OP:jn   STATUS:               ID:20170217080121 L   I
 OLDACT:DUP 17-02-17 16:26 OP:cog  STATUS:               ID:20170217075743d    3
 2017-02-17-0758-00M.COL___330                                                 6
 STAT SP IPHASW D HRMM SECON CODA AMPLIT PERI AZIMU VELO AIN AR TRES W  DIS CAZ7
 BAR2 EZ EP        8 1 41.19                             171   -0.0710 22.4 181 
 BAR2 EZ ES        8 1 55.52                             171   -0.9210 22.4 181 
 BAR2 EZ I         8 1 57.30         8.4 0.24            170           22.4 181 
 BRR  HZ EP        8 1 43.03                             153    0.3810 68.3 300 
 BRR  HE ES        8 2  0.12                             153    1.2110 68.3 300 
 BRR  HZ I         8 2 11.65         7.7 0.22            153           68.3 300 
 PAM  EZ EP        8 1 44.08                             150    0.0310 80.2  41 
 PAM  EE ES        8 2  1.32                             150   -0.0910 80.2  41 
 RUS  HZ EP        8 1 45.29                             144   -0.1210  100 174 
 RUS  HE ES        8 2  4.02                             144    0.2010  100 174 
 RUS  HZ I         8 2  4.94         5.0 0.30            147            100 174 
 PTB  HZ EP        8 1 48.16                             132   -0.17 9  144 259 
 PTB  HN ES        8 2  8.74                             132   -0.28 9  144 259 
 PTB  HZ I         8 2 11.75         2.8 0.16            134            144 259 
 ZAR  HZ EP        8 1 53.82                             122   -0.01 9  201 293 
 ZAR  HE ES        8 2 18.14                             122   -0.68 9  201 293 
 CHI  HZ EP        8 1 59.32                             117    0.06 8  247 194 
 CHI  HN ES        8 2 28.89                             117    0.40 8  247 194 
 CHI  HZ I         8 2 34.31         1.7 0.28            120            247 194 
                                                                                
