 2015  117 0623 43.7 L   6.753 -73.200147.3  RSN  5 0.4 1.4LRSN                1
 GAP=195        1.11       5.7     7.8  8.1  0.1802E+02 -0.1186E+01 -0.1432E+02E
 Epicentro: VILLANUEVA - SANTANDER                                             3
 ACTION:UPD 15-03-02 15:40 OP:nd   STATUS:               ID:20150117062343 L   I
 OLDACT:REG 15-01-17 14:21 OP:carl STATUS:               ID:20150117061739     3
 2015-01-17-0617-39M.COL___262                                                 6
 STAT SP IPHASW D HRMM SECON CODA AMPLIT PERI AZIMU VELO AIN AR TRES W  DIS CAZ7
 BAR2 EZ EP        624  3.54                             173    0.1710 17.9 174 
 BAR2 EZ ES        624 18.38                             173   -0.3710 17.9 174 
 BAR2 EZ I         624 19.76         8.9 0.20            171           17.9 174 
 BRR  HZ EP        624  5.33                             153    0.5010 68.8 305 
 BRR  HN ES        624 22.04                             153    0.6910 68.8 305 
 BRR  HZ I         624 26.14         3.4 0.14            150           68.8 305 
 RUS  HZ EP        624  7.64                             145    0.4110 96.0 172 
 RUS  HN ES        624 25.09                             145   -0.5310 96.0 172 
 RUS  HZ I         624 26.84         2.5 0.22            148           96.0 172 
 PTB  HZ EP        624 10.13                             134   -0.00 9  141 260 
 PTB  HN ES        624 30.53                             134   -0.26 9  141 260 
 PTB  HZ I         624 36.90         2.0 0.42            132            141 260 
 SML  HZ EP        624 20.11                             117   -0.50 8  246 337 
 SML  HE ES        624 48.94                             117   -0.50 8  246 337 
 SML  HZ I         624 51.88         3.4 0.10            119            246 337 
                                                                                
