 2015  517 0623  4.2 L   6.625 -73.492107.2  RSN 11 0.4 1.9LRSN                1
 GAP= 60        0.87       2.4     3.1  5.7 -0.1587E+01  0.6619E+01 -0.1465E+01E
 Epicentro: EL CARMEN - SANTANDER                                              3
 ACTION:UPD 15-09-10 22:04 OP:cam  STATUS:               ID:20150517062304 L   I
 OLDACT:UP  15-05-17 14:47 OP:spq  STATUS:               ID:20150517061750     3
 OLDACT:REG 15-05-17 12:55 OP:spq  STATUS:               ID:20150517061750     3
 2015-05-17-0617-50M.COL___273                                                 6
 STAT SP IPHASW D HRMM SECON CODA AMPLIT PERI AZIMU VELO AIN AR TRES W  DIS CAZ7
 BAR2 EZ EP        623 20.00                             161    0.4210 34.5  96 
 BAR2 EZ ES   1    623 31.68                             161    0.09 7 34.5  96 
 BRR  HZ EP     D  623 20.16                             149   -0.3210 58.5 336 
 BRR  HN ES        623 33.23                             149    0.0510 58.5 336 
 BRR  HZ I         623 41.35        10.6 0.14            152           58.5 336 
 RUS  HZ EP        623 23.86                             136    0.1510 92.8 151 
 RUS  HE ES   1    623 38.91                             136   -0.04 7 92.8 151 
 RUS  HZ I         623 40.47        15.3 0.24            146           92.8 151 
 PAM  SZ EP   1    623 26.19                             129    0.22 7  118  48 
 PAM  SN ES   1    623 43.46                             129    0.49 7  118  48 
 PAM  SZ I         623 44.56         9.7 0.16            138            118  48 
 SPBC HZ EP   1    623 25.73                             127   -0.42 7  125 211 
 SPBC HE ES   1    623 42.86                             127   -0.42 7  125 211 
 SPBC HZ I         623 50.32        15.6 0.10            133            125 211 
 OCA  HZ EP        623 31.38                             116   -0.52 9  179   6 
 OCA  HN ES        623 52.81                             116   -0.71 9  179   6 
 OCA  HZ I         623 59.91        29.6 0.38            123            179   6 
 ZAR  HZ EP        623 31.64                             116    0.00 9  179 303 
 ZAR  HN ES        623 53.48                             116    0.43 9  179 303 
 ZAR  HZ I         623 55.72        16.2 0.40            121            179 303 
 NOR  HE ES        623 55.35                             114   -0.49 9  192 232 
 NOR  HZ I         624  1.20         5.2 0.20            120            192 232 
 HEL  HZ EP   1    623 38.58                             110    0.68 6  230 258 
 HEL  HN ES   1    624  4.06                             110   -0.15 6  230 258 
 HEL  HZ I         624  8.47         3.2 0.28            115            230 258 
 SML  HZ EP   1    623 39.56                             108   -0.03 6  249 345 
 SML  HE ES   1    624  7.78                             108    0.58 6  249 345 
 SML  HZ I         624 10.24        13.4 0.11            113            249 345 
 GUY2CHZ EP   1    623 41.94                             107    0.60 6  259 233 
 GUY2CHN ES   1    624 10.75                             107    0.43 6  259 233 
 GUY2CHZ I         624 16.87         2.9 0.58                           259 233 
                                                                                
