 2013 1117 0254 24.4 L   6.781 -73.172154.0  RSN  4 0.6 1.0LRSN                1
 GAP=198        1.40       7.9    11.8 14.1  0.4462E+02 -0.2371E+02 -0.2532E+02E
 Epicentro: LOS SANTOS - SANTANDER                                             3
 ACTION:UPD 14-01-09 16:28 OP:ep   STATUS:               ID:20131117025424 L   I
 OLDACT:REG 13-11-17 08:58 OP:stll STATUS:               ID:20131117024810     3
 2013-11-17-0248-10M.COL___220                                                 6
 STAT SP IPHASW D HRMM SECON CODA AMPLIT PERI AZIMU VELO AIN AR TRES W  DIS CAZ7
 BRR  HZ EP        254 47.15                             154    0.7910 69.7 301 
 BRR  HZ I         254 47.44         2.9 0.54            150           69.7 301 
 BRR  HN ES        255  4.07                             154    0.5710 69.7 301 
 RUS  HZ EP        254 49.06                             146    0.2210 98.8 174 
 RUS  HN ES        255  7.27                             146   -0.6410 98.8 174 
 RUS  HZ I         255  9.02         0.9 0.30            144           98.8 174 
 PTB  HZ EP        254 51.69                             135   -0.07 9  145 259 
 PTB  HN ES        255 12.78                             135   -0.34 9  145 259 
 PTB  HZ I         255 19.21         1.5 0.34            131            145 259 
 SML  HN ES        255 29.64                             119   -0.93 8  244 336 
                                                                                
