 2016 1117 0556 43.4 L   6.725 -73.159157.2  RSN  4 0.2 1.4LRSN                1
 GAP=153        0.55       7.0     3.8  4.7 -0.6339E+01 -0.1390E+01 -0.2031E+01E
 Epicentro: VILLANUEVA - SANTANDER                                             3
 ACTION:UPD 17-10-26 21:09 OP:lp   STATUS:               ID:20161117055643 L   I
 OLDACT:DUP 16-11-17 16:46 OP:and  STATUS:               ID:20161117054748d    3
 2016-11-17-0548-00M.COL___343                                                 6
 STAT SP IPHASW D HRMM SECON CODA AMPLIT PERI AZIMU VELO AIN AR TRES W  DIS CAZ7
 BAR2 EZ EP        557  4.18                             174   -0.0810 14.9 190 
 BAR2 EZ ES        557 20.66                             174    0.1210 14.9 190 
 BAR2 EZ I         557 22.65         4.5 0.19            172           14.9 190 
 BRR  HZ EP        557  6.23                             153    0.2810 74.3 305 
 BRR  HN ES        557 23.57                             153    0.0210 74.3 305 
 PAM  EZ EP        557  7.01                             150   -0.2510 84.8  37 
 PAM  EN ES   4    557 24.14                             150   -1.74 0 84.8  37 
 PTB  HZ EP        557 11.23                             135    0.17 9  145 262 
 PTB  HN ES        557 32.38                             135   -0.27 9  145 262 
                                                                                
