 2010  317 0524 17.5 L   6.797 -73.031150.0  RSN 11 0.4 2.3LRSN                1
 GAP=195        0.80       3.7     7.8  6.3  0.2066E+01  0.1570E+02  0.3845E+01E
 Epicentro: CEPITA - SANTANDER                                                 3
 ACTION:UP  10-08-24 09:54 OP:vdl  STATUS:               ID:20100317052417 L   I
 2010-03-17-0521-14S.COL___098                                                 6
 STAT SP IPHASW D HRMM SECON CODA AMPLIT PERI AZIMU VELO SNR AR TRES W  DIS CAZ7
 BAR2 SZ EP        524 37.75                             169     0.010   28 217 
 BAR2 SZ ES   2    524 53.04                             169    -0.5 5   28 217 
 BRR  HZ EP        524 39.65                             150    -0.110   83 295 
 BRR  HE ES   1    524 57.46                             150     0.3 7   83 295 
 BRR  HZ I         525  0.02        35.6 0.15                            83 295 
 RUS  HZ EP        524 41.61                             145     0.010  100 183 
 RUS  HE ES   1    525  0.53                             145     0.1 7  100 183 
 RUS  HZ I         525  1.67        10.0 0.31                           100 183 
 OCA  SZ EP        524 46.63                             130     0.3 9  163 349 
 OCA  SZ ES   1    525  8.78                             130    -0.1 7  163 349 
 CHI  HZ EP   1    524 55.75                             118    -0.1 6  252 198 
 CHI  HZ I         525 32.92         6.9 0.37                           252 198 
 HEL  HZ EP   1    524 59.61                             114     0.3 6  284 257 
 HEL  HZ I         525 37.48         9.5 0.10                           284 257 
 RREF BZ EP   1    525  5.44                             111     0.5 5  331 231 
 RREF BZ I         525 46.25        10.4 0.19                           331 231 
 TOL  SZ EP   1    525  7.17                             109     0.2 5  352 226 
 DBB  SZ EP        525  5.64                             109    -1.0 6  352 274 
 ANIL BZ EP   1    525  9.41                             109     0.9 5  366 226 
 ANIL BN ES   2    525 48.73                             109     0.5 3  366 226 
 ANIL BZ I         525 53.58        18.8 0.27                           366 226 
 PRA  HZ EP   1    525 11.21                             107    -0.7 4  398 211 
 PRA  HE ES   2    525 53.81                             107    -0.5 3  398 211 
 PRA  HZ I         525 59.07         8.5 0.22                           398 211 
                                                                                
