 2017  117 0740 57.4 L   6.770 -73.115140.9  RSN  6 0.5 1.3LRSN                1
 GAP=142        1.01       5.1     4.9  7.6  0.3020E+01  0.7016E+01  0.5390E-02E
 Epicentro: LOS SANTOS - SANTANDER                                             3
 ACTION:UPD 17-05-22 16:00 OP:jn   STATUS:               ID:20170117074056 L   I
 OLDACT:UP  17-03-29 21:21 OP:nlst STATUS:               ID:20170117074056 L   3
 OLDACT:UP  17-01-17 17:50 OP:dani STATUS:               ID:20170117073744     3
 OLDACT:UP  17-01-17 17:49 OP:dani STATUS:               ID:20170117073744     3
 OLDACT:REG 17-01-17 13:14 OP:dani STATUS:               ID:20170117073744     3
 2017-01-17-0738-00M.COL___323                                                 6
 STAT SP IPHASW D HRMM SECON CODA AMPLIT PERI AZIMU VELO AIN AR TRES W  DIS CAZ7
 BAR2 EZ EP        741 16.17                             171   -0.1910 21.0 201 
 BAR2 EZ ES        741 30.75                             171   -0.4310 21.0 201 
 BAR2 EZ I         741 37.08         3.1 0.22            170           21.0 201 
 BRR  HZ EP        741 18.07                             150   -0.1910 75.8 300 
 BRR  HE ES        741 35.27                             150    0.7110 75.8 300 
 BRR  HZ I         741 36.19         6.6 0.23            151           75.8 300 
 PAM  EZ EP        741 19.03                             150   -0.0610 77.9  36 
 PAM  EN ES        741 36.12                             150    0.0810 77.9  36 
 PAM  EZ I         741 38.48         5.6 0.76            155           77.9  36 
 RUS  HZ EP        741 20.09                             144   -0.2910 97.1 178 
 RUS  HN ES        741 38.80                             144    0.4710 97.1 178 
 RUS  HZ I         741 40.11         1.5 0.35            147           97.1 178 
 PTB  HZ EP   1    741 24.86                             131    0.67 7  151 260 
 PTB  HE ES   1    741 44.79                             131   -0.33 7  151 260 
 PTB  HZ I         741 49.76         3.1 0.14            132            151 260 
 ZAR  HZ EP   3    741 31.88                             121    1.92 2  208 293 
 ZAR  HN ES        741 54.91                             121   -0.47 8  208 293 
 ZAR  HZ I         742  0.53         3.3 0.14            123            208 293 
                                                                                
