 2017 1217 0600  5.3 L   6.794 -73.129153.2  RSN  5 0.3 1.4LRSN                1
 GAP=157        0.65       4.4     3.6  5.6 -0.1752E+01  0.3055E+01 -0.6475E+01E
 Epicentro: LOS SANTOS - SANTANDER                                             3
 ACTION:UPD 18-01-04 13:21 OP:rebc STATUS:               ID:20171217060005 L   I
 OLDACT:REG 17-12-17 13:12 OP:edw  STATUS:               ID:20171217055739     3
 2017-12-17-0558-00M.COL___466                                                 6
 STAT SP IPHASW D HRMM SECON CODA AMPLIT PERI AZIMU VELO AIN AR TRES W  DIS CAZ7
 BAR2 EZ EP        6 0 25.76                             171   -0.0610 23.0 195 
 BAR2 EZ ES        6 0 41.58                             171   -0.2410 23.0 195 
 PAM  EZ EP        6 0 28.63                             152    0.3610 76.8  38 
 PTB  HZ EP        6 0 32.83                             133   -0.20 9  149 259 
 PTB  HE ES        6 0 54.64                             133   -0.02 9  149 259 
 PTB  HZ I         6 0 59.00         1.4 0.54            132            149 259 
 SPBC HZ EP        6 0 34.50                             131    0.06 9  164 220 
 SPBC HN ES        6 0 57.39                             131    0.23 9  164 220 
 SPBC HZ I         6 1  3.92         2.4 0.10            130            164 220 
 ZAR  HZ EP        6 0 37.98                             124   -0.46 8  206 292 
 ZAR  HN ES        6 1  4.59                             124    0.30 8  206 292 
 ZAR  HZ I         6 1 10.06         3.8 0.46            123            206 292 
                                                                                
