 2013 1117 0531 56.6 L   6.757 -73.163139.1  RSN  6 0.4 1.1LRSN                1
 GAP=136        1.14       5.7     5.8  7.9 -0.3678E+01  0.8386E+01  0.6021E+01E
 Epicentro: LOS SANTOS - SANTANDER                                             3
 ACTION:UPD 14-01-09 16:28 OP:ep   STATUS:               ID:20131117053156 L   I
 OLDACT:DUP 13-11-17 13:14 OP:stll STATUS:               ID:20131117052811d    3
 2013-11-17-0528-10M.COL___220                                                 6
 STAT SP IPHASW D HRMM SECON CODA AMPLIT PERI AZIMU VELO AIN AR TRES W  DIS CAZ7
 BAR2 SZ ES        532 30.38                             172    0.4610 18.4 187 
 BAR2 SZ I         532 33.47         7.3 0.38            170           18.4 187 
 BRR  HZ EP        532 17.06                             151    0.0110 71.9 303 
 BRR  HN ES        532 33.53                             151    0.5110 71.9 303 
 PAM  SZ EP        532 18.91                             148    0.5110 82.3  38 
 PAM  SZ I         532 18.92         2.1 0.22            152           82.3  38 
 PAM  SN ES        532 34.61                             148   -0.8010 82.3  38 
 RUS  HZ EP        532 19.18                             144   -0.1710 96.0 175 
 RUS  HZ I         532 20.54         1.3 0.44            145           96.0 175 
 RUS  HN ES        532 37.03                             144   -0.0710 96.0 175 
 PTB  HZ EP        532 22.83                             131    0.08 9  145 261 
 PTB  HN ES        532 42.49                             131   -0.68 9  145 261 
 PTB  HZ I         532 49.41         1.9 0.28            131            145 261 
 SPBC HZ EP        532 24.19                             128    0.09 9  158 220 
                                                                                
