 2013 1017 0832 48.6 L   6.799 -73.191145.5  RSN  5 0.2 1.3LRSN                1
 GAP=131        0.46       2.3     2.3  4.5 -0.1257E+01  0.2751E+01 -0.1503E-02E
 Epicentro: ZAPATOCA - SANTANDER                                               3
 ACTION:UPD 13-11-25 09:22 OP:ep   STATUS:               ID:20131017083248 L   I
 OLDACT:REG 13-10-17 08:51 OP:jn   STATUS:               ID:20131017082837     3
 2013-10-17-0828-37M.COL___223                                                 6
 STAT SP IPHASW D HRMM SECON CODA AMPLIT PERI AZIMU VELO AIN AR TRES W  DIS CAZ7
 PAM  SZ EP        833 10.98                             150   -0.0110 80.8  42 
 PAM  SE ES        833 28.38                             150   -0.0810 80.8  42 
 PAM  SZ I         833 30.18         3.8 0.56            157           80.8  42 
 RUS  HZ EP        833 12.34                             144   -0.0010  101 173 
 RUS  HN ES        833 31.03                             144    0.1610  101 173 
 RUS  HZ I         833 33.51         1.8 0.36            148            101 173 
 PTB  HZ EP        833 15.15                             133    0.06 9  143 258 
 PTB  HN ES        833 35.99                             133    0.23 9  143 258 
 PTB  HZ I         833 43.54         2.6 0.46            135            143 258 
 SPBC HZ EP        833 16.82                             130    0.05 9  160 218 
 SPBC HN ES        833 38.37                             130   -0.37 9  160 218 
 SPBC HZ I         833 44.06         2.9 0.18            133            160 218 
 ZAR  HE ES   1    833 45.36                             123   -0.12 6  199 293 
                                                                                
