 2013  617 0608 28.7 L   6.829 -73.147146.8  RSN  7 0.4 1.8LRSN                1
 GAP=201        0.98       4.5     5.9  9.8  0.7510E+01  0.1207E+02 -0.5330E+01E
 Epicentro: LOS SANTOS - SANTANDER                                             3
 ACTION:UPD 14-01-08 09:55 OP:ep   STATUS:               ID:20130617060828 L   I
 OLDACT:DUP 13-06-17 09:05 OP:carl STATUS:               ID:20130617055960d    3
 2013-06-17-0559-59M.COL___261                                                 6
 STAT SP IPHASW D HRMM SECON CODA AMPLIT PERI AZIMU VELO AIN AR TRES W  DIS CAZ7
 BAR2 SZ EP   1    6 8 48.51                             169    0.01 7 26.5 188 
 BAR2 SZ ES   1    6 9  3.61                             169   -0.35 7 26.5 188 
 BAR2 SZ I         6 9  4.98         8.8 0.16            169           26.5 188 
 BRR  HZ EP   1    6 8 50.44                             153    0.59 7 69.6 296 
 BRR  HE ES        6 9  7.02                             153    0.6610 69.6 296 
 BRR  HZ I         6 9  9.81         7.2 0.12            152           69.6 296 
 RUS  HZ EP   1    6 8 52.96                             143    0.20 7  104 176 
 RUS  HN ES        6 9 11.34                             143   -0.2110  104 176 
 RUS  HZ I         6 9 13.20         7.1 0.36            144            104 176 
 PTB  HE ES        6 9 16.35                             132   -0.56 9  148 258 
 ZAR  HN ES        6 9 26.42                             123    0.12 9  203 291 
 ZAR  HZ I         6 9 28.36         6.0 0.28            123            203 291 
 NOR  HE ES        6 9 32.85                             119    0.14 8  236 234 
 NOR  HZ I         6 9 37.88         3.7 0.22            118            236 234 
 SML  HN ES        6 9 32.76                             118   -0.64 8  241 335 
 SML  HZ I         6 9 36.67        11.1 0.10            118            241 335 
                                                                                
