 2015  517 0449  2.1 L   6.435 -73.865 23.5  RSN  4 0.4 1.0LRSN                1
 GAP=137        0.94       8.1     4.9 12.3  0.2979E+02  0.4824E+02  0.9220E+02E
 Epicentro: CIMITARRA - SANTANDER                                              3
 ACTION:UPD 15-09-10 22:04 OP:cam  STATUS:               ID:20150517044902 L   I
 OLDACT:REG 15-05-17 12:49 OP:spq  STATUS:               ID:20150517044750     3
 2015-05-17-0447-50M.COL___274                                                 6
 STAT SP IPHASW D HRMM SECON CODA AMPLIT PERI AZIMU VELO AIN AR TRES W  DIS CAZ7
 BRR  HZ EP        449 14.67                             105    0.0110 76.2  13 
 BRR  HN ES        449 24.59                             105    0.1610 76.2  13 
 BRR  HZ I         449 24.91         4.4 0.12            105           76.2  13 
 BAR2 EZ EP        449 15.44                             105    0.3510 77.4  77 
 BAR2 EZ ES   1    449 24.21                             105   -0.99 7 77.4  77 
 BAR2 EZ I         449 26.19         5.8 0.32            105           77.4  77 
 RUS  HZ EP        449 19.75                              56    0.2910  105 125 
 RUS  HE ES   1    449 33.00                              56    0.02 7  105 125 
 RUS  HZ I         449 33.99         4.2 0.26            101            105 125 
 HEL  HN ES        449 50.38                              56   -0.34 9  186 262 
 HEL  HZ I         449 51.70         1.4 0.40             56            186 262 
                                                                                
