 2015 1017 0948 49.8 L   6.783 -73.155145.7  RSN  9 0.4 1.5LRSN                1
 GAP=136        0.95       3.0     4.5  5.5  0.1287E+01  0.9299E+01  0.4432E+00E
 Epicentro: LOS SANTOS - SANTANDER                                             3
 ACTION:UPD 15-12-22 20:40 OP:cam  STATUS:               ID:20151017094849 L   I
 OLDACT:UP  15-10-17 18:13 OP:ak   STATUS:               ID:20151017094737     3
 OLDACT:UP  15-10-17 18:13 OP:ak   STATUS:               ID:20151017094737     3
 OLDACT:REG 15-10-17 13:03 OP:ak   STATUS:               ID:20151017094737     3
 2015-10-17-0947-37M.COL___340                                                 6
 STAT SP IPHASW D HRMM SECON CODA AMPLIT PERI AZIMU VELO AIN AR TRES W  DIS CAZ7
 BAR2 EZ EP        949  9.52                             171    0.1810 21.3 188 
 BAR2 EZ ES        949 24.13                             171   -0.4910 21.3 188 
 BAR2 EZ I         949 26.81         4.9 0.25            173           21.3 188 
 BRR  HZ EP        949 11.01                             152    0.1110 71.2 300 
 BRR  HE ES        949 27.77                             152    0.3810 71.2 300 
 PAM  EZ EP        949 12.55                             150    0.4610 79.4  39 
 PAM  EN ES        949 29.64                             150    0.1310 79.4  39 
 PAM  EZ I         949 31.84         5.5 0.64            152           79.4  39 
 RUS  HZ EP        949 13.78                             144    0.4010 98.8 175 
 RUS  HN ES        949 31.07                             144   -0.7310 98.8 175 
 RUS  HZ I         949 33.17         3.2 0.28            148           98.8 175 
 ZAR  HZ EP        949 22.09                             122   -0.09 9  204 293 
 ZAR  HN ES        949 47.55                             122    0.09 9  204 293 
 ZAR  HZ I         949 56.30         2.9 0.20            123            204 293 
 SML  HZ EP        949 26.01                             117   -0.51 8  245 336 
 SML  HE ES        949 54.98                             117   -0.21 8  245 336 
 SML  HZ I         950  3.60         3.7 0.07            118            245 336 
 CHI  HZ EP        949 27.57                             117    0.34 8  247 195 
 CHI  HN ES        949 56.36                             117   -0.10 8  247 195 
 GUY2CHZ EP   1    949 33.24                             112    0.09 5  299 235 
 GUY2CHN ES        950  7.40                             112    0.40 7  299 235 
 GUY2CHZ I         950 14.57         1.7 0.36                           299 235 
 MON  HZ EP        949 37.87                             108   -0.93 6  354 309 
 MON  HN ES   4    950 14.32                             108   -2.73 0  354 309 
 MON  HZ I         950 18.16         0.8 0.18            109            354 309 
                                                                                
