 2010  917 0759 37.2 L   6.835 -73.070140.7  RSN  7 0.4 1.6LRSN                1
 GAP=167        1.03       4.8    11.3  9.8 -0.9633E+00 -0.2934E+02 -0.1284E+02E
 Epicentro: LOS SANTOS - SANTANDER                                             3
 ACTION:UP  11-02-18 11:03 OP:tino STATUS:               ID:20100917075937 L   I
 2010-09-17-0757-23S.COL___118                                                 6
 STAT SP IPHASW D HRMM SECON CODA AMPLIT PERI AZIMU VELO SNR AR TRES W  DIS CAZ7
 BTL  SZ EP        759 56.78                             170     0.510   24 293 
 BAR2 SZ EP        759 56.29                             167    -0.110   30 205 
 BAR2 SZ ES   1    8 0 11.09                             167    -0.3 7   30 205 
 BAR2 SZ I         8 0 12.18        11.3 0.29                            30 205 
 BRR  HZ EP        759 57.94                             150    -0.310   77 293 
 BRR  HZ I         759 58.04        11.6 0.16                            77 293 
 BRR  HE ES   1    8 0 14.83                             150     0.3 7   77 293 
 RUS  HZ EP   1    8 0  0.44                             142    -0.3 7  104 181 
 RUS  HE ES   1    8 0 19.24                             142     0.1 7  104 181 
 RUS  HZ I         8 0 20.77         3.7 0.37                           104 181 
 GUE  SZ EP   1    8 0  0.74                             140    -0.3 7  111   8 
 GRA  SZ EP        8 0  1.44                             137    -0.110  120  14 
 GRA  SZ ES   1    8 0 20.87                             137     0.4 7  120  14 
 GRA  SZ I         8 0 21.90         8.0 0.37                           120  14 
 OCA  SZ EP        8 0  5.45                             129     0.5 9  158 350 
 OCA  SZ ES   1    8 0 25.64                             129    -0.9 7  158 350 
 OCA  SZ I         8 0 27.51         5.9 0.49                           158 350 
                                                                                
