 2012  417 0755 29.4 L   6.781 -73.113140.7  RSN 14 0.5 3.1LRSN                1
 GAP=142        1.01       3.4     5.3  6.6 -0.1267E+01  0.1453E+02  0.3422E+01E
 Epicentro: LOS SANTOS - SANTANDER                                             3
 ACTION:UPD 12-07-05 11:53 OP:tino STATUS:               ID:20120417075529 L   I
 2012-04-17-0750-00M.COL___190                                                 6
 STAT SP IPHASW D HRMM SECON CODA AMPLIT PERI AZIMU VELO AIN AR TRES W  DIS CAZ7
 BAR2 SZ EP   1    755 48.66                             171     0.3 7   22 200 
 BAR2 SZ ES   1    756  2.75                             171    -0.4 7   22 200 
 BAR2 SZ I         756  5.71       303.6 0.27                            22 200 
 BRR  HZ EP   1    755 50.58                             150     0.3 7   75 299 
 BRR  HN ES   1    756  7.19                             150     0.7 7   75 299 
 BRR  HZ I         756 12.17       324.4 0.14                            75 299 
 PAM  SZ EP   1    755 51.53                             150     0.5 7   77  36 
 PAM  SZ I         755 51.90       288.4 0.18                            77  36 
 PAM  SN ES   1    756  7.99                             150     0.1 7   77  36 
 RUS  HZ EP   1    755 52.65                             143     0.2 7   98 178 
 RUS  HN ES        756 10.38                             143    -0.110   98 178 
 RUS  HZ I         756 12.36       115.9 0.32                            98 178 
 OCA  SZ EP   1    755 57.28                             128    -0.3 7  163 352 
 OCA  SZ ES   1    756 18.73                             128    -0.8 7  163 352 
 ZAR  HZ EP   1    756  1.10                             121    -0.8 6  208 292 
 ZAR  HN ES   1    756 27.26                             121    -0.1 6  208 292 
 ZAR  HZ I         756 33.52       163.0 0.29                           208 292 
 NOR  SZ EP   1    756  5.10                             117     0.1 6  236 235 
 NOR  SN ES   1    756 32.02                             117    -0.8 6  236 235 
 CHI  HZ EP   1    756  6.92                             116     0.2 6  248 196 
 CHI  HN ES        756 35.58                             116    -0.2 8  248 196 
 CHI  HZ I         756 42.96        20.1 0.25                           248 196 
 HEL  HZ EP   1    756  9.81                             113     0.1 6  275 256 
 HEL  HE ES   1    756 40.90                             113    -0.2 6  275 256 
 HEL  HZ I         756 45.74        44.5 0.26                           275 256 
 GUY  SZ EP   1    756 13.92                             111     0.7 5  305 236 
 GUY  SE ES   1    756 48.42                             111     1.0 5  305 236 
 GUY  SZ I         756 51.88        55.8 0.36                           305 236 
 DBB  SZ EP   1    756 17.27                             108     0.2 5  343 275 
 TOL  SZ EP   1    756 18.47                             108     0.9 5  345 225 
 PRA  HZ EP   1    756 22.28                             106    -0.5 4  392 210 
 PRA  HN ES   1    757  3.68                             106    -0.7 4  392 210 
 PRA  HZ I         757  9.91        97.3 0.37                           392 210 
 SJA  SZ EP   1    756 22.70                             105    -0.9 4  399 194 
                                                                                
