 2013  917 0925 34.3 L   6.072 -73.722108.6  RSN  7 0.5 1.5LRSN                1
 GAP= 75        1.24       3.6     4.7  9.8 -0.2347E+01  0.9743E+01 -0.1841E+01E
 Epicentro: BOLIVAR - SANTANDER                                                3
 ACTION:UPD 13-10-22 09:23 OP:ep   STATUS:               ID:20130917091960dL   I
 OLDACT:DUP 13-09-17 11:44 OP:carl STATUS:               ID:20130917091960dL   3
 2013-09-17-0919-59M.COL___269                                                 6
 STAT SP IPHASW D HRMM SECON CODA AMPLIT PERI AZIMU VELO AIN AR TRES W  DIS CAZ7
 SPBC HZ EP        925 50.97                             149   -0.0710 60.5 220 
 SPBC HN ES        926  3.76                             149   -0.3010 60.5 220 
 SPBC HZ I         926  5.82        10.5 0.34            148           60.5 220 
 RUS  HZ EP        925 52.69                             144    0.2010 73.4 106 
 RUS  HN ES        926  6.96                             144    0.3210 73.4 106 
 RUS  HZ I         926  7.83         8.4 0.20            145           73.4 106 
 BAR2 SZ EP        925 52.70                             140   -0.1410 82.9  46 
 BAR2 SZ ES        926  6.74                             140   -0.5310 82.9  46 
 BAR2 SZ I         926  7.78         8.5 0.16            143           82.9  46 
 PTB  HZ EP   4    925 51.54                             135   -2.10 0 96.3 302 
 PTB  HN ES   4    926  6.16                             135   -2.53 0 96.3 302 
 BRR  HZ EP     C  925 54.37                             130   -0.8910  114   1 
 BRR  HN ES        926 12.54                             130    0.9810  114   1 
 BRR  HZ I         926 13.46         8.2 0.12            132            114   1 
 NOR  HN ES        926 16.11                             124    0.15 9  139 246 
 NOR  HZ I         926 19.11         6.2 0.20            124            139 246 
 CHI  HZ EP        926  0.92                             120    0.59 9  160 180 
 CHI  HN ES        926 20.38                             120   -0.21 9  160 180 
 CHI  HZ I         926 27.01         2.0 0.22            120            160 180 
 ZAR  HZ EP   4    926  2.91                             113   -1.44 0  201 321 
 ZAR  HE ES        926 27.71                             113   -0.04 9  201 321 
 URE  HN ES   4    926 39.26                             106   -3.24 0  273 313 
                                                                                
