 2011 1117 0728  8.4 L   6.776 -73.094152.6  RSN  4 0.2 1.4LRSN                1
 GAP=241        0.47       7.4     9.9  5.6  0.6077E+02 -0.1315E+02 -0.1185E+02E
 Epicentro: LOS SANTOS - SANTANDER                                             3
 ACTION:UPD 12-07-13 16:10 OP:ep   STATUS:               ID:20111117072808 L   I
 2011-11-17-0725-10S.COL___179                                                 6
 STAT SP IPHASW D HRMM SECON CODA AMPLIT PERI AZIMU VELO AIN AR TRES W  DIS CAZ7
 BAR2 SZ EP   1    728 28.73                             171   -0.12 7 22.6 206 
 BAR2 SZ I         728 30.51         8.5 0.86                          22.6 206 
 BAR2 SZ ES   1    728 44.57                             171   -0.23 7 22.6 206 
 BRR  HZ EP        728 30.88                             151    0.2210 77.5 298 
 BRR  HZ I         728 31.16         5.8 0.16                          77.5 298 
 BRR  HE ES   1    728 48.03                             151    0.02 7 77.5 298 
 RUS  HZ EP   1    728 32.44                             146   -0.21 7 97.7 179 
 RUS  HN ES   1    728 51.78                             146    0.23 7 97.7 179 
 RUS  HZ I         728 52.44         1.3 0.41                          97.7 179 
 ZAR  HN ES   2    729  7.82                             123   -0.30 4  210 292 
 ZAR  HZ I         729 14.08         2.1 0.25                           210 292 
                                                                                
