 2014 1217 0210 46.7 L   6.496 -74.142 21.7  RSN 19 0.5 2.4LRSN                1
 GAP= 56        1.19       2.2     2.1  3.0 -0.6524E+00 -0.3801E-01 -0.2580E+00E
 Epicentro: PUERTO PARRA - SANTANDER                                           3
 ACTION:UPD 15-02-10 17:04 OP:nd   STATUS:               ID:20141217021046 L   I
 OLDACT:UP  14-12-17 14:30 OP:spq  STATUS:               ID:20141217020742     3
 OLDACT:REG 14-12-17 12:22 OP:spq  STATUS:               ID:20141217020742     3
 2014-12-17-0207-42M.COL___293                                                 6
 STAT SP IPHASW D HRMM SECON CODA AMPLIT PERI AZIMU VELO AIN AR TRES W  DIS CAZ7
 PTB  HZ IP     D  210 53.51                             119    0.1410 35.0 278 
 PTB  HN ES        210 58.78                             119    0.2310 35.0 278 
 PTB  HZ I         210 59.04       544.4 0.18             47           35.0 278 
 BRR  HZ EP        210 59.98                             103   -0.1810 82.6  35 
 BRR  HN ES        211 10.38                             103   -0.2410 82.6  35 
 BRR  HZ I         211 11.22       209.1 0.12             47           82.6  35 
 SPBC HZ EP     C  211  2.09                             101    0.2110 93.6 175 
 SPBC HE ES        211 13.31                             101   -0.3810 93.6 175 
 SPBC HZ I         211 14.80       212.6 0.20             47           93.6 175 
 BAR2 EZ EP        211  3.67                             100   -0.3210  107  84 
 BAR2 EZ ES   4    211 16.33                             100   -1.11 0  107  84 
 BAR2 EZ I         211 18.04       124.7 0.32             47            107  84 
 NOR  HZ EP        211  6.46                              56   -0.4310  131 218 
 NOR  HE ES   1    211 21.71                              56   -0.90 7  131 218 
 NOR  HZ I         211 26.16        34.9 0.32             47            131 218 
 RUS  HZ IP     D  211  8.35                              56    0.4110  135 120 
 RUS  HN ES        211 24.03                              56   -0.4410  135 120 
 RUS  HZ I         211 26.60        78.2 0.24             47            135 120 
 ZAR  HZ EP        211  7.08                              56   -0.36 9  136 324 
 ZAR  HN ES        211 22.94                              56   -0.65 9  136 324 
 ZAR  HZ I         211 24.68       159.5 0.20             47            136 324 
 HEL  HZ EP     D  211 10.95                              56    0.39 9  157 258 
 HEL  HE ES        211 29.09                              56   -0.04 9  157 258 
 PAM  SZ EP        211 15.04                              56    0.88 9  185  60 
 PAM  SN ES        211 36.39                              56    0.84 9  185  60 
 URE  HZ EP   4    211 18.27                              56    1.89 0  207 312 
 URE  HN ES   4    211 40.82                              56    1.33 0  207 312 
 URE  HZ I         211 46.45        29.0 0.58             37            207 312 
 CHI  HZ EP   4    211 21.38                              56    3.98 0  211 168 
 CHI  HE ES   4    211 43.66                              56    2.35 0  211 168 
 CHI  HZ I         211 52.89        20.3 0.40             37            211 168 
 OCA  HZ EP        211 17.14                              56   -0.16 8  213  25 
 OCA  HN ES   1    211 41.42                              56    0.28 6  213  25 
 OCA  HZ I         211 49.96        19.6 0.30             37            213  25 
 CBOC HZ EP        211 19.07                              56    1.08 8  218 251 
 CBOC HN ES   4    211 44.60                              56    2.24 0  218 251 
 CBOC HZ I         211 52.06        15.1 0.42             37            218 251 
 DBB  SZ EP   4    211 22.50                              56    2.46 0  236 284 
 DBB  SZ ES   1    211 46.68                              56    0.66 6  236 284 
 DBB  SZ I         212  3.06        46.5 0.54             37            236 284 
 TOL  SZ EP   4    211 23.89                              56    1.96 0  248 212 
 TOL  SN ES   4    211 51.20                              56    1.83 0  248 212 
 TOL  SZ I         211 55.73        23.4 0.20             37            248 212 
 SML  HZ EP   1    211 21.62                              56   -0.73 6  255   2 
 SML  HN ES   4    211 53.51                              56    3.38 0  255   2 
 SML  HZ I         211 58.87        49.9 0.36             37            255   2 
 ANIL HZ EP   4    211 28.15                              56    4.56 0  262 212 
 ANIL HN ES   1    211 52.67                              56    0.34 6  262 212 
 PAL  HZ EP   4    211 31.64                              55    4.22 0  295 234 
 PAL  HN ES   4    212  5.38                              55    6.22 0  295 234 
 PAL  HZ I         212  8.54         7.8 0.46             36            295 234 
 SJC  HZ EP   4    211 41.27                              55    1.78 0  393 343 
 SJC  HE ES   1    212 19.86                              55   -0.78 4  393 343 
 SJC  HZ I         212 26.41         4.6 0.68             36            393 343 
                                                                                
