 2013  817 0358 14.5 L   6.841 -73.151138.0  RSN 11 0.5 1.7LRSN 2.3WRSN        1
 SPEC AVERAGE  MO 12.5 ST0.897 OM  1.1 f0 5.65 R0.2813 AL 0.00 WI 20.0 MW  2.3 3
 SPEC SD       MO  0.3 ST0.578 OM  0.3 f00.829 R0.0444 AL      WI      MW  0.2 3
 GAP=134        1.25       4.3     5.1  7.7 -0.2226E+01  0.1707E+02  0.4387E+01E
 Epicentro: LOS SANTOS - SANTANDER                                             3
 SPEC BAR2SH Z MO 12.3 ST0.757 OM  0.8 f0 6.64 R0.2340 AL-0.00 WI 20.0 MW  2.2 3
 SPEC BAR2SH Z T 35846 K 0.000 GD  140 VS 4.20 DE 3.20 Q0300.0 QA 0.60 VS 4.20 3
 SPEC BRR HH Z MO 12.7 ST  1.2 OM  1.1 f0 5.95 R0.2612 AL-0.00 WI 20.0 MW  2.4 3
 SPEC BRR HH Z T 35849 K 0.000 GD  154 VS 4.20 DE 3.20 Q0300.0 QA 0.60 VS 4.20 3
 SPEC PAM SH Z MO 12.2 ST0.425 OM  0.6 f0 6.16 R0.2523 AL-0.00 WI 20.0 MW  2.1 3
 SPEC PAM SH Z T 35850 K 0.000 GD  156 VS 4.20 DE 3.20 Q0300.0 QA 0.60 VS 4.20 3
 SPEC RUS HH Z MO 12.1 ST0.236 OM  0.5 f0 5.29 R0.2938 AL-0.00 WI 20.0 MW  2.0 3
 SPEC RUS HH Z T 35854 K 0.000 GD  173 VS 4.20 DE 3.20 Q0300.0 QA 0.60 VS 4.20 3
 SPEC PTB HH Z MO 12.8 ST  2.0 OM  1.1 f0 6.50 R0.2391 AL-0.00 WI 20.0 MW  2.5 3
 SPEC PTB HH Z T 35858 K 0.000 GD  202 VS 4.20 DE 3.20 Q0300.0 QA 0.60 VS 4.20 3
 SPEC ZAR HH Z MO 13.0 ST  1.2 OM  1.2 f0 4.71 R0.3299 AL-0.00 WI 20.0 MW  2.6 3
 SPEC ZAR HH Z T 359 9 K 0.000 GD  244 VS 4.20 DE 3.20 Q0300.0 QA 0.60 VS 4.20 3
 SPEC HEL HH Z MO 12.7 ST0.456 OM  0.8 f0 4.33 R0.3589 AL-0.00 WI 20.0 MW  2.4 3
 SPEC HEL HH Z T 35923 K 0.000 GD  305 VS 4.20 DE 3.20 Q0300.0 QA 0.60 VS 4.20 3
 2013-08-17-0348-49M.COL___216                                                 6
 OLDACT:REG 13-08-17 08:25 OP:stll STATUS:               ID:20130817034849     3
 ACTION:UPD 14-01-14 09:03 OP:ep   STATUS:               ID:20130817035815 L   I
 OLDACT:UP  13-08-19 05:25 OP:CF   STATUS:               ID:20130817035815 L   3
 OLDACT:UP  13-08-17 13:06 OP:stll STATUS:               ID:20130817034849     3
 STAT SP IPHASW D HRMM SECON CODA AMPLIT PERI AZIMU VELO AIN AR TRES W  DIS CAZ7
 BAR2 SZ EP        358 32.77                             168   -0.4810 27.7 187 
 BAR2 SZ ES        358 47.67                             168   -0.2510 27.7 187 
 BAR2 SZ I         358 49.01        10.4 0.30            168           27.7 187 
 BRR  HZ IP     D  358 34.91                             152    0.2910 68.6 295 
 BRR  HN IP     C  358 34.91                             152    0.2910 68.6 295 
 BRR  HN ES        358 51.10                             152    0.7510 68.6 295 
 BRR  HN I         358 54.80        24.5 0.14            151           68.6 295 
 BRR  SZ I         358 54.86        10.4 0.10                          68.6 295 
 PAM  SZ EP        358 35.91                             150    0.2410 74.4  42 
 PAM  SN ES        358 52.30                             150    0.0910 74.4  42 
 PAM  SZ I         358 56.91         5.0 0.88            155           74.4  42 
 RUS  HZ EP        358 37.74                             141   -0.0610  105 176 
 RUS  HN ES        358 56.10                             141    0.1010  105 176 
 RUS  SZ I         358 57.75         5.1 0.82            145            105 176 
 PTB  HZ EP        358 39.95                             130   -0.88 9  148 257 
 PTB  HN ES   4    359  0.08                             130   -1.32 0  148 257 
 PTB  SZ I         359  7.79         7.1 0.34            132            148 257 
 OCA  HN ES        359  2.16                             129   -0.86 9  156 353 
 ZAR  HZ EP        358 47.34                             121    1.17 9  202 291 
 ZAR  HN ES        359 10.73                             121   -0.18 9  202 291 
 ZAR  SZ I         359 13.47         5.4 0.10            123            202 291 
 NOR  HN ES        359 17.88                             117    0.19 8  237 233 
 HEL  HZ EP   4    358 55.94                             113    1.60 0  273 255 
 HEL  HN ES        359 24.75                             113   -0.71 8  273 255 
 HEL  SZ I         359 32.77         4.2 1.58            115            273 255 
 GUY2CHZ EP        358 58.17                             111    0.21 7  303 234 
 GUY2CHN ES        359 31.78                             111   -0.11 7  303 234 
 GUY2CHZ I         359 40.79         2.8 0.66                           303 234 
 PRA  HZ EP        359  8.19                             105    0.05 6  396 209 
                                                                                
