 2014 1117 0909 49.0 L   6.761 -73.528113.4  RSN  6 0.4 1.4LRSN                1
 GAP=108        1.17       3.7     5.2  7.8 -0.1246E+01  0.3489E+01 -0.1328E+01E
 Epicentro: EL CARMEN - SANTANDER                                              3
 ACTION:UPD 14-12-19 15:43 OP:nd   STATUS:               ID:20141117090949 L   I
 OLDACT:DUP 14-11-17 18:21 OP:stll STATUS:               ID:20141117090747d    3
 2014-11-17-0907-46M.COL___274                                                 6
 STAT SP IPHASW D HRMM SECON CODA AMPLIT PERI AZIMU VELO AIN AR TRES W  DIS CAZ7
 BAR2 SZ EP        910  5.81                             158    0.3210 42.5 116 
 BAR2 SZ I         910  6.02        10.8 0.26            159           42.5 116 
 BAR2 SZ ES        910 18.12                             158   -0.2010 42.5 116 
 BRR  HZ EP        910  5.80                             158    0.6210 43.4 332 
 BRR  HN ES        910 18.43                             158    0.6710 43.4 332 
 BRR  HZ I         910 19.50         6.9 0.48            157           43.4 332 
 PTB  HZ EP        910  9.59                             134    0.0410  106 257 
 PTB  HN ES        910 24.80                             134   -0.7510  106 257 
 PTB  HZ I         910 26.13         4.4 0.14            133            106 257 
 RUS  HZ EP        910 10.29                             134   -0.1210  108 153 
 RUS  HN ES        910 26.71                             134   -0.3610  108 153 
 RUS  HZ I         910 27.65         3.4 0.24            133            108 153 
 SPBC HZ EP        910 12.66                             126    0.09 9  137 206 
 SPBC HZ I         910 15.84         6.1 0.14            125            137 206 
 SPBC HN ES        910 31.18                             126    0.26 9  137 206 
 OCA  HZ EP        910 15.66                             120    0.10 9  165   8 
 OCA  HN ES        910 35.46                             120   -0.79 9  165   8 
                                                                                
