 2013  717 0411 48.9 L   6.843 -73.382123.7  RSN  4 0.6 1.2LRSN                1
 GAP=193        1.36       9.0     8.8 12.3 -0.6424E+01  0.2114E+02  0.2793E+02E
 Epicentro: SAN VICENTE DE CHUCURI - SANTANDER                                 3
 ACTION:UPD 13-08-12 10:38 OP:ep   STATUS:               ID:20130717041149 L   I
 OLDACT:UP  13-07-25 11:37 OP:ep   STATUS:               ID:20130717041149 L   3
 OLDACT:REG 13-07-17 07:18 OP:nd.  STATUS:               ID:20130717040959     3
 2013-07-17-0409-59M.COL___267                                                 6
 STAT SP IPHASW D HRMM SECON CODA AMPLIT PERI AZIMU VELO AIN AR TRES W  DIS CAZ7
 BAR2 SZ EP        412  6.26                             163   -0.0210 35.4 141 
 BAR2 SZ ES        412 19.21                             163   -0.6010 35.4 141 
 BAR2 SZ I         412 20.75        10.4 0.26            165           35.4 141 
 BRR  HZ IP     D  412  6.65                             158    0.2610 46.7 309 
 BRR  HN ES        412 20.70                             158    0.7010 46.7 309 
 BRR  HZ I         412 21.06         2.8 0.12            156           46.7 309 
 PTB  HZ EP   1    412 11.35                             132   -0.55 7  123 254 
 PTB  HN ES        412 29.03                             132   -0.7810  123 254 
 PTB  HZ I         412 34.65         1.6 0.14            131            123 254 
 SPBC HZ EP   1    412 14.77                             126    0.03 7  152 210 
 SPBC HN ES        412 35.65                             126    0.78 9  152 210 
 SPBC HZ I         412 36.96         1.6 0.12            126            152 210 
                                                                                
