 2017  917 0437 44.7 L   7.163 -73.409 10.0  RSN  5 0.3 1.0LRSN                1
 GAP=235        0.84       4.8     3.8  5.4  0.1423E+02 -0.1241E+01 -0.8828E+01E
 Epicentro: LEBRIJA - SANTANDER                                                3
 ACTION:UPD 17-10-05 19:13 OP:rebc STATUS:               ID:20170917043744 L   I
 OLDACT:DUP 17-09-17 13:53 OP:lv   STATUS:               ID:20170917042744d    3
 2017-09-17-0428-00M.COL___411                                                 6
 STAT SP IPHASW D HRMM SECON CODA AMPLIT PERI AZIMU VELO AIN AR TRES W  DIS CAZ7
 BRR  HZ IP     D  437 50.50                              99   -0.0410 34.0 260 
 BRR  HN ES        437 55.07                              99   -0.0210 34.0 260 
 BRR  HZ I         437 55.61        12.5 0.12             47           34.0 260 
 BAR2 EZ EP        437 56.59                              95    0.7110 67.9 158 
 BAR2 EZ ES        438  4.51                              95   -0.0910 67.9 158 
 BAR2 EZ I         438  6.24         8.0 0.46             47           67.9 158 
 RUS  HZ EP        438  7.45                              92   -0.35 9  145 166 
 RUS  HN ES        438 25.61                              92   -0.21 9  145 166 
 RUS  HZ I         438 27.82         1.1 0.13             47            145 166 
 ZAR  HZ EP        438  9.72                              56   -0.24 9  164 283 
 ZAR  HE ES        438 29.81                              56    0.15 9  164 283 
 ZAR  HZ I         438 31.66         3.3 0.12             47            164 283 
 SPBC HZ EP   9    438 14.58                              56    2.22 0  182 204 
 SPBC HN ES        438 36.57                                    0.42 9  182 204 
 SPBC HZ I         438 40.11         2.6 0.13             37            182 204 
                                                                                
