 2012  117 0125 58.4 L   6.720 -73.154142.3  RSN  4 0.2 1.5LRSN                1
 GAP=230        0.62       6.7     7.2  6.3  0.2695E+02  0.1001E+02  0.3387E+01E
 Epicentro: VILLANUEVA - SANTANDER                                             3
 ACTION:UP  12-02-03 08:18 OP:REBC STATUS:               ID:20120117012558 L   I
 2012-01-17-0120-00M.COL___188                                                 6
 STAT SP IPHASW D HRMM SECON CODA AMPLIT PERI AZIMU VELO SNR AR TRES W  DIS CAZ7
 BAR2 SZ EP        126 17.48                             174     0.010   14 192 
 BAR2 SZ ES   1    126 31.83                             174    -0.5 7   14 192 
 BAR2 SZ I         126 34.28         4.5 0.26                            14 192 
 BRR  HZ EP   1    126 19.41                             151     0.0 7   75 305 
 BRR  HN ES   1    126 36.09                             151     0.3 7   75 305 
 BRR  HN I         126 37.86        26.4 0.19                            75 305 
 RUS  HZ EP   1    126 21.36                             146     0.2 7   92 175 
 RUS  HE ES   1    126 39.10                             146     0.2 7   92 175 
 RUS  HZ I         126 41.44         2.1 0.37                            92 175 
 PTB  HZ EP        126 24.60                             132    -0.2 9  145 262 
 PTB  HN ES   2    126 45.59                             132     0.1 5  145 262 
                                                                                
