 2010  517 0528 57.4 L   7.539 -73.110141.7  RSN  5 0.4 1.5LRSN                1
 GAP=143        0.76       6.9     9.2  8.8 -0.3641E+02  0.5618E+01 -0.7253E+01E
 Epicentro: EL PLAYON - SANTANDER                                              3
 ACTION:UP  10-08-24 10:05 OP:vdl  STATUS:               ID:20100517052857 L   I
 2010-05-17-0524-04S.COL___108                                                 6
 STAT SP IPHASW D HRMM SECON CODA AMPLIT PERI AZIMU VELO AIN AR TRES W  DIS CAZ7
 GUE  SZ EP        529 17.02                             164    -0.110   38  32 
 GRA  SZ EP        529 17.42                             159     0.110   51  41 
 GRA  SZ ES   1    529 33.22                             159     0.3 7   51  41 
 OCA  SZ EP        529 18.76                             149    -0.210   81 343 
 OCA  SZ ES   2    529 35.09                             149    -0.6 5   81 343 
 OCA  SZ I         529 38.12         4.7 0.31                            81 343 
 BRR  HZ EP        529 19.06                             148     0.310   82 234 
 BRR  HN ES   1    529 35.62                             148     0.2 7   82 234 
 BRR  HZ I         529 36.66         8.1 0.05                            82 234 
 BAR2 SZ ES   2    529 38.08                             141    -0.9 5  105 184 
                                                                                
