 2012 1117 0522 28.4 L   6.545 -73.553104.0  RSN  9 0.4 1.5LRSN                1
 GAP=126        0.82       3.8     4.0  7.6 -0.1678E+01  0.1102E+02 -0.1011E+02E
 Epicentro: EL CARMEN DE CHUCURI - SANTANDER                                   3
 ACTION:UPD 12-12-05 15:33 OP:}ep  STATUS:               ID:20121117052228 L   I
 2012-11-17-0520-00M.COL___233                                                 6
 STAT SP IPHASW D HRMM SECON CODA AMPLIT PERI AZIMU VELO AIN AR TRES W  DIS CAZ7
 BAR2 SZ EP   1    522 44.13                             157    0.45 7 41.3  83 
 BAR2 SZ ES   1    522 56.35                             157    0.71 7 41.3  83 
 BRR  HZ EP   1    522 44.98                             146    0.27 7 64.6 344 
 BRR  HZ I         522 59.66         7.4 0.10                          64.6 344 
 GIR2 SZ EP   1    522 45.67                             143    0.29 7 71.2  34 
 GIR2 SZ ES   1    522 58.03                             143   -0.63 7 71.2  34 
 RUS  HZ EP   1    522 47.10                             137   -0.17 7 88.9 144 
 RUS  HE ES   1    523  1.92                             137   -0.10 7 88.9 144 
 RUS  HZ I         523  4.06         4.7 0.46                          88.9 144 
 PTB  HZ EP   1    522 46.89                             132   -0.68 7 99.9 270 
 PTB  HN ES   1    523  2.49                             132   -0.08 7 99.9 270 
 PTB  HZ I         523  6.62        11.2 0.14                          99.9 270 
 PAM  SZ EP   1    522 50.89                             125   -0.09 7  129  47 
 PAM  SN ES   1    523  8.34                             125   -0.28 7  129  47 
 PAM  SZ I         523 10.15         3.2 0.13                           129  47 
 ZAR  HZ EP   1    522 55.86                             115    0.28 7  178 306 
 ZAR  HZ I         523 20.83         6.5 0.46                           178 306 
 OCA  HE ES   1    523 18.83                             113   -0.47 7  189   8 
 SML  HZ EP   1    523  4.52                             106    0.06 6  256 347 
 SML  HE ES   1    523 33.26                             106    0.63 6  256 347 
                                                                                
