 2017  317 0057  7.8 L   6.802 -73.144145.4  RSN  9 0.4 2.1LRSN                1
 GAP=137        0.90       4.1     4.1  6.4 -0.5757E+01  0.4005E+01  0.7896E+01E
 Epicentro: LOS SANTOS - SANTANDER                                             3
 ACTION:UPD 17-05-25 18:41 OP:jn   STATUS:               ID:20170317005707 L   I
 OLDACT:UP  17-03-17 14:21 OP:cog  STATUS:               ID:20170317004723d    3
 OLDACT:UP  17-03-17 14:18 OP:cog  STATUS:               ID:20170317004723d    3
 OLDACT:DUP 17-03-17 14:10 OP:cog  STATUS:               ID:20170317004723d    3
 OLDACT:REG 17-03-17 13:03 OP:cog  STATUS:               ID:20170317004720     3
 2017-03-17-0048-00M.COL___409                                                 6
 STAT SP IPHASW D HRMM SECON CODA AMPLIT PERI AZIMU VELO AIN AR TRES W  DIS CAZ7
 BAR2 EZ EP        057 27.21                             170   -0.2210 23.5 190 
 BAR2 EZ ES        057 42.46                             170   -0.2510 23.5 190 
 BAR2 EZ I         057 43.46        40.4 0.22            171           23.5 190 
 BRR  HN ES        057 46.03                             152    0.6110 71.2 298 
 BRR  HZ I         057 47.14        15.3 0.12            153           71.2 298 
 PAM  EZ EP        057 30.00                             151   -0.0010 77.2  40 
 PAM  EN ES        057 47.41                             151    0.1210 77.2  40 
 PAM  EZ I         057 49.33        15.0 0.48            152           77.2  40 
 RUS  HZ EP        057 31.65                             144    0.0910  101 176 
 RUS  HN ES        057 49.99                             144   -0.0810  101 176 
 RUS  HZ I         057 50.84        14.3 0.22            145            101 176 
 PTB  HZ EP   3    057 34.26                             132   -0.53 2  148 259 
 PTB  HN ES        057 55.13                             132   -0.69 9  148 259 
 PTB  HZ I         057 57.11        16.3 0.18            133            148 259 
 SPBC HE ES        057 58.42                             129   -0.13 9  163 219 
 SPBC HZ I         058  0.80        29.5 0.18            130            163 219 
 NOR  HZ EP        057 43.28                             118   -0.29 8  235 234 
 NOR  HE ES        058 11.33                             118   -0.11 8  235 234 
 CHI  HZ EP   4    057 47.59                             117    2.05 0  249 195 
 CHI  HE ES        058 15.42                             117    0.48 8  249 195 
 GUY2CHE ES        058 26.32                             112    0.85 7  301 235 
                                                                                
