 2014  817 0105 38.7 L   6.693 -73.528118.0  RSN  4 0.3 1.2LRSN                1
 GAP=130        0.82       6.0     4.6  7.9  0.8987E+01  0.5582E+01  0.1315E+02E
 Epicentro: EL CARMEN - SANTANDER                                              3
 ACTION:UPD 14-09-15 21:50 OP:nd   STATUS:               ID:20140817010538 L   I
 OLDACT:REG 14-08-17 12:58 OP:spq  STATUS:               ID:20140817005819     3
 2014-08-17-0058-19M.COL___269                                                 6
 STAT SP IPHASW D HRMM SECON CODA AMPLIT PERI AZIMU VELO AIN AR TRES W  DIS CAZ7
 BAR2 SZ EP        1 5 55.27                             160   -0.3110 39.8 106 
 BAR2 SZ ES   1    1 6  8.17                             160   -0.55 7 39.8 106 
 BAR2 SZ I         1 6  8.83        12.9 0.34            161           39.8 106 
 BRR  HZ EP        1 5 55.54                             155   -0.1710 50.1 336 
 BRR  HE ES        1 6  9.41                             155    0.4610 50.1 336 
 BRR  HZ I         1 6 10.08         5.4 0.12            157           50.1 336 
 RUS  HZ EP   1    1 6  0.29                             137    0.37 7  101 151 
 RUS  HN ES   1    1 6 16.86                             137    0.41 7  101 151 
 RUS  HZ I         1 6 17.88         1.2 0.41            138            101 151 
 PTB  HZ EP     C  1 5 59.61                             136    0.1110  104 261 
 PTB  HE ES        1 6 15.49                             136   -0.2210  104 261 
 PTB  HZ I         1 6 16.59         3.4 0.10            137            104 261 
                                                                                
