 2011 1017 0559 32.8 L   7.442 -73.161138.0  RSN  7 0.3 2.0LRSN                1
 GAP=114        0.62       4.1     3.9  6.4 -0.1193E+01  0.6583E+01  0.6318E+01E
 Epicentro: EL PLAYON - SANTANDER                                              3
 ACTION:UPD 12-07-13 16:04 OP:ep   STATUS:               ID:20111017055932 L   I
 2011-10-17-0556-59S.COL___168                                                 6
 STAT SP IPHASW D HRMM SECON CODA AMPLIT PERI AZIMU VELO AIN AR TRES W  DIS CAZ7
 PAM  SZ EP   1    559 52.99                             158    0.11 7 52.2 103 
 PAM  SN ES   1    6 0  8.48                             158   -0.02 7 52.2 103 
 BRR  HZ EP   1    559 53.17                             151    0.01 7 71.2 239 
 BRR  HN ES   1    6 0  8.88                             151   -0.12 7 71.2 239 
 BRR  HZ I         6 0 10.45        24.4 0.10                          71.2 239 
 OCA  SZ EP   1    559 55.03                             145    0.45 7 89.8 349 
 OCA  SZ ES   1    6 0 11.53                             145    0.00 7 89.8 349 
 OCA  SZ I         6 0 14.95        21.1 0.27                          89.8 349 
 BAR2 SZ EP   1    559 54.78                             144   -0.22 7 94.0 181 
 BAR2 SZ I         6 0 14.87        14.5 0.26                          94.0 181 
 RUS  HZ EP   2    6 0  1.52                             126   -0.59 4  172 177 
 ZAR  HZ EP   1    6 0  2.70                             123   -0.37 7  187 272 
 ZAR  HN ES   1    6 0 26.42                             123   -0.22 7  187 272 
 ZAR  HZ I         6 0 30.58         9.4 0.14                           187 272 
 NOR  SE ES   1    6 0 45.62                             112    0.84 6  281 222 
                                                                                
