 2015  517 0948 45.0 L   6.827 -73.138147.8  RSN 23 0.4 2.7LRSN                1
 GAP= 66        0.93       2.4     3.0  4.7  0.4560E-01  0.2735E+01  0.1704E+01E
 Epicentro: LOS SANTOS - SANTANDER                                             3
 ACTION:UPD 15-09-10 22:04 OP:cam  STATUS:               ID:20150517094845 L   I
 OLDACT:UP  15-05-17 13:29 OP:spq  STATUS:               ID:20150517094745     3
 OLDACT:REG 15-05-17 13:14 OP:spq  STATUS:               ID:20150517094745     3
 2015-05-17-0947-45M.COL___282                                                 6
 STAT SP IPHASW D HRMM SECON CODA AMPLIT PERI AZIMU VELO AIN AR TRES W  DIS CAZ7
 BAR2 EZ EP     C  949  4.82                             169   -0.1510 26.4 191 
 BAR2 EZ ES   1    949 19.89                             169   -0.63 7 26.4 191 
 BAR2 EZ I         949 20.69       160.8 0.32            167           26.4 191 
 BRR  HZ IP     D  949  6.64                             153    0.2810 70.6 296 
 BRR  HN ES        949 23.62                             153    0.6210 70.6 296 
 BRR  HZ I         949 26.62       107.7 0.32            149           70.6 296 
 PAM  SZ EP        949  7.59                             152    0.2910 74.6  41 
 PAM  SN ES        949 24.67                             152    0.0010 74.6  41 
 PAM  SZ I         949 26.68       131.1 0.48            155           74.6  41 
 RUS  HZ EP        949  8.74                             143   -0.4510  104 177 
 RUS  HN ES        949 27.76                             143   -0.2810  104 177 
 RUS  HZ I         949 29.33        56.5 0.20            143            104 177 
 TAM  HZ IP     C  949 13.18                             131    0.31 9  155 106 
 TAM  HE ES        949 35.17                             131    0.59 9  155 106 
 OCA  HZ EP        949 12.85                             131   -0.38 9  157 353 
 OCA  HE ES        949 34.91                             131   -0.32 9  157 353 
 OCA  HZ I         949 37.82       158.9 0.18            130            157 353 
 SPBC HZ EP        949 14.04                             129    0.09 9  166 219 
 SPBC HN ES        949 36.22                             129   -0.29 9  166 219 
 SPBC HZ I         949 40.92        83.6 0.16            127            166 219 
 ZAR  HZ EP        949 17.77                             123    0.20 9  204 291 
 ZAR  HN ES        949 43.14                             123    0.19 9  204 291 
 ZAR  HZ I         949 52.04        62.1 0.24            121            204 291 
 NOR  HZ EP        949 21.29                             119    0.16 8  237 234 
 NOR  HN ES        949 49.04                             119   -0.25 8  237 234 
 NOR  HZ I         949 53.01        25.3 0.14            117            237 234 
 SML  HZ EP        949 21.06                             118   -0.45 8  241 335 
 SML  HE ES   1    949 49.50                             118   -0.47 6  241 335 
 SML  HZ I         949 54.20        46.7 0.10            118            241 335 
 CHI  HZ EP   1    949 23.06                             117   -0.12 6  252 195 
 CHI  HE ES   1    949 53.37                             117    0.44 6  252 195 
 CHI  HZ I         949 55.91        16.2 0.26            117            252 195 
 ROSC BZ EP   4    949 24.90                             117    1.32 0  256 211 
 ROSC BN ES   4    949 56.09                             117    2.43 0  256 211 
 ROSC BZ I         949 59.92        39.8 0.40            116            256 211 
 HEL  HZ EP   1    949 26.13                             115    0.62 6  274 255 
 HEL  HE ES   4    949 59.03                             115    1.94 0  274 255 
 HEL  HZ I         950  2.95        32.7 0.42            114            274 255 
 LL2C HN ES   4    950  4.43                             112    2.24 0  304 354 
 LL2C HZ I         950  8.23        33.5 0.67            112            304 354 
 GUY2CHZ EP   4    949 30.32                             112    1.32 0  304 234 
 GUY2CHE ES   4    950  6.43                             112    3.13 0  304 234 
 GUY2CHZ I         950 11.38        23.0 0.66                           304 234 
 VIL  SE ES        950  3.25                             112    0.15 7  306 192 
 VIL  SN I         950 10.56        62.3 0.44            112            306 192 
 PTGC HZ EP        949 28.21                             112   -1.05 7  311 159 
 PTGC HE ES   4    950  1.51                             112   -2.25 0  311 159 
 PTGC HZ I         950  4.24        20.5 0.40            112            311 159 
 RREF HZ EP   4    949 33.94                             111    2.39 0  324 229 
 RREF HN ES   4    950  9.99                             111    2.15 0  324 229 
 RREF HZ I         950 16.72        10.1 0.24            110            324 229 
 MON  HZ EP   4    949 32.21                             109   -1.76 0  352 308 
 MON  HN ES   4    950 10.90                             109   -1.24 0  352 308 
 MON  HZ I         950 11.57        12.1 0.26            108            352 308 
 SDV  BE ES   4    950 11.75                             109   -1.97 0  358  50 
 SDV  BZ I         950 15.42         9.0 0.65            109            358  50 
 ANIL HZ EP   1    949 36.19                             109    0.97 5  360 224 
 ANIL HE ES   4    950 17.53                             109    3.15 0  360 224 
 ANIL HZ I         950 22.32        41.2 0.28            108            360 224 
 ORTC HZ EP        949 39.88                             106    0.52 6  398 216 
 ORTC HE ES   4    950 23.49                             106    1.76 0  398 216 
 ORTC HZ I         950 27.55        11.3 0.26            106            398 216 
 SJC  HZ EP   4    949 39.32                             106   -1.10 0  407 327 
 SJC  HN ES   4    950 20.26                             106   -3.36 0  407 327 
 SJC  HZ I         950 24.46        14.7 0.48            106            407 327 
                                                                                
