 2011  117 0824  9.4 L   6.788 -73.103143.9  RSN  8 0.4 1.8LRSN                1
 GAP=164        0.78       3.1     7.2  7.2 -0.8588E+01  0.1575E+02 -0.1451E+01E
 Epicentro: LOS SANTOS - SANTANDER                                             3
 ACTION:UP  11-02-08 08:41 OP:pat  STATUS:               ID:20110117082409 L   I
 2011-01-17-0821-19S.COL___135                                                 6
 STAT SP IPHASW D HRMM SECON CODA AMPLIT PERI AZIMU VELO SNR AR TRES W  DIS CAZ7
 BAR2 SZ EP   1    824 28.89                             170     0.1 8   23 202 
 BAR2 SZ ES   1    824 44.53                             170     0.6 8   23 202 
 BAR2 SZ I         824 46.72        14.2 0.40                            23 202 
 RUS  HZ EP   1    824 32.76                             144    -0.1 8   99 179 
 RUS  HN ES   1    824 50.93                             144    -0.2 8   99 179 
 RUS  HZ I         824 52.59         5.2 0.47                            99 179 
 GRA  SZ IP        824 34.73                             137     0.210  126  15 
 GRA  SZ I         824 36.03        10.5 0.35                           126  15 
 GRA  SZ ES   1    824 53.36                             137    -0.7 7  126  15 
 OCA  SZ EP   1    824 37.44                             129    -0.3 7  162 352 
 OCA  SZ ES        825  0.18                             129     0.3 9  162 352 
 OCA  SZ I         825  5.68        11.4 0.33                           162 352 
 NOR  SN ES   2    825 12.56                             118    -0.9 4  238 235 
 CHI  HZ EP   1    824 47.03                             117     0.0 6  249 196 
 CHI  HE ES   1    825 16.37                             117     0.0 6  249 196 
 CHI  HZ I         825 20.21         3.0 0.46                           249 196 
 HEL  HZ EP   2    824 50.52                             114     0.5 4  276 256 
 HEL  HN ES   2    825 21.51                             114    -0.2 4  276 256 
 HEL  HZ I         825 28.63         2.4 0.31                           276 256 
 RREF HZ EP   2    824 56.05                             110     0.3 4  324 230 
 RREF HN ES   2    825 32.06                             110     0.1 4  324 230 
 RREF HZ I         825 38.44         5.1 0.21                           324 230 
                                                                                
