 2016 1117 0815 39.7 L   6.753 -73.111140.3  RSN  7 0.3 1.5LRSN                1
 GAP=124        0.89       5.8     4.2  5.5  0.2596E+01  0.2621E+01  0.9856E+01E
 Epicentro: LOS SANTOS - SANTANDER                                             3
 ACTION:UPD 17-10-26 21:09 OP:lp   STATUS:               ID:20161117081539 L   I
 OLDACT:UP  16-11-17 18:15 OP:and  STATUS:               ID:20161117080749     3
 OLDACT:REG 16-11-17 12:54 OP:and  STATUS:               ID:20161117080749     3
 2016-11-17-0808-00M.COL___340                                                 6
 STAT SP IPHASW D HRMM SECON CODA AMPLIT PERI AZIMU VELO AIN AR TRES W  DIS CAZ7
 BAR2 EZ IP     C  815 58.55                             172   -0.0310 19.5 204 
 BAR2 EZ ES        816 13.23                             172   -0.0910 19.5 204 
 BAR2 EZ I         816 14.62         7.1 0.18            170           19.5 204 
 BRR  HZ EP        816  0.64                             149    0.0410 77.1 301 
 BRR  HE ES        816 17.30                             149    0.3910 77.1 301 
 PAM  EZ EP     C  816  1.47                             149    0.0410 79.2  35 
 PAM  EN ES        816 18.25                             149   -0.1410 79.2  35 
 PAM  EZ I         816 20.48         6.0 0.46            152           79.2  35 
 PTB  HZ EP   9    816  5.43                             130   -1.05 0  151 261 
 PTB  HN ES        816 25.80                                   -0.53 9  151 261 
 PTB  HZ I         816 33.55         2.3 0.20            129            151 261 
 ZAR  HZ EP        816 12.81                             120    0.45 8  210 293 
 ZAR  HE ES        816 37.14                             120   -0.70 8  210 293 
 ZAR  HZ I         816 42.59         4.2 0.42            120            210 293 
 NOR  HZ EP        816 15.52                             117    0.39 8  235 236 
 PTGC HZ EP        816 22.04                             111   -0.56 7  302 159 
                                                                                
