 2017  117 0341 40.8 L   6.790 -73.148148.2  RSN  5 0.3 1.2LRSN                1
 GAP=137        0.72       3.8     3.5  6.4  0.1520E+01  0.4509E+01  0.2871E+01E
 Epicentro: LOS SANTOS - SANTANDER                                             3
 ACTION:UPD 17-05-22 16:00 OP:jn   STATUS:               ID:20170117034140 L   I
 OLDACT:UP  17-01-17 16:25 OP:dani STATUS:               ID:20170117033743d    3
 OLDACT:DUP 17-01-17 16:22 OP:dani STATUS:               ID:20170117033743d    3
 OLDACT:UP  17-01-17 16:22 OP:dani STATUS:               ID:20170117033742     3
 OLDACT:UP  17-01-17 16:21 OP:dani STATUS:               ID:20170117033742     3
 OLDACT:UP  17-01-17 16:18 OP:dani STATUS:               ID:20170117033742     3
 OLDACT:REG 17-01-17 12:50 OP:dani STATUS:               ID:20170117033742     3
 2017-01-17-0338-00M.COL___329                                                 6
 STAT SP IPHASW D HRMM SECON CODA AMPLIT PERI AZIMU VELO AIN AR TRES W  DIS CAZ7
 BRR  HZ EP        342  2.43                             153    0.2010 71.5 299 
 BRR  HN ES        342 19.09                             153    0.1510 71.5 299 
 BRR  HZ I         342 24.35         8.4 0.45            155           71.5 299 
 PAM  HZ EP        342  3.46                             151    0.1310 78.4  39 
 PAM  EE ES        342 20.67                             151   -0.2410 78.4  39 
 PAM  HZ I         342 24.61         1.7 0.33            154           78.4  39 
 RUS  HZ EP        342  5.05                             145    0.3410 99.5 176 
 RUS  HN ES        342 23.24                             145   -0.1210 99.5 176 
 RUS  HZ I         342 24.89         1.3 0.24            150           99.5 176 
 PTB  HZ EP        342  7.30                             133   -0.62 9  147 259 
 PTB  HE ES   1    342 29.22                             133    0.14 7  147 259 
 PTB  HZ I         342 31.18         1.8 0.17            137            147 259 
 ZAR  HN ES        342 38.89                             123    0.02 9  204 292 
                                                                                
