 2012 1117 0750 48.5 L   7.470 -73.484110.4  RSN  7 0.4 1.2LRSN                1
 GAP= 87        0.81       3.3     4.6  8.1  0.5020E+01  0.7059E+01  0.1872E+01E
 Epicentro: SABANA DE TORRES - SANTANDER                                       3
 ACTION:UPD 12-12-05 15:33 OP:}ep  STATUS:               ID:20121117075048 L   I
 2012-11-17-0750-00M.COL___233                                                 6
 STAT SP IPHASW D HRMM SECON CODA AMPLIT PERI AZIMU VELO AIN AR TRES W  DIS CAZ7
 BRR  HZ EP   1    751  4.68                             155    0.20 7 47.4 212 
 BRR  HN ES   1    751 16.75                             155   -0.20 7 47.4 212 
 BRR  HZ I         751 20.78         2.0 0.26                          47.4 212 
 OCA  HN ES   1    751 21.95                             139   -0.11 7 86.9  12 
 PAM  SN ES   1    751 23.68                             139    0.67 7 87.8  99 
 PAM  SZ I         751 25.26         4.1 0.26                          87.8  99 
 BAR2 SZ EP   1    751  9.06                             134    0.27 7  103 161 
 BAR2 SZ ES   1    751 24.30                             134   -0.33 7  103 161 
 BAR2 SZ I         751 25.41         7.0 0.32                           103 161 
 ZAR  HN ES   1    751 33.15                             122    0.62 7  152 271 
 SML  HZ EP   1    751 14.20                             120    0.03 7  161 336 
 SML  HN ES   1    751 33.52                             120   -0.67 7  161 336 
 RUS  HZ EP   1    751 16.84                             117   -0.03 7  180 166 
 RUS  HN ES   1    751 38.41                             117   -0.60 7  180 166 
 MON  HZ EP   4    751 25.96                             106   -1.73 0  281 301 
 MON  HN ES   4    751 55.05                             106   -3.22 0  281 301 
                                                                                
