 2013  317 0526 43.8 L   6.718 -73.199150.7  RSN  4 0.2 1.3LRSN                1
 GAP=225        0.47       5.5     6.6  6.6  0.2546E+02 -0.5520E+01 -0.6044E+01E
 Epicentro: VILLANUEVA - SANTANDER                                             3
 ACTION:UPD 13-04-09 14:03 OP:ep   STATUS:               ID:20130317052643 L   I
 2013-03-17-0520-00M.COL___244                                                 6
 STAT SP IPHASW D HRMM SECON CODA AMPLIT PERI AZIMU VELO AIN AR TRES W  DIS CAZ7
 BRR  HZ EP        527  5.34                             153   -0.1810 71.2 307 
 BRR  HN ES   1    527 22.62                             153    0.19 7 71.2 307 
 BRR  HZ I         527 26.48         4.6 0.54            151           71.2 307 
 RUS  HZ EP   1    527  7.86                             147    0.36 7 92.1 172 
 RUS  HN ES   1    527 25.74                             147   -0.22 7 92.1 172 
 PTB  HZ EP   2    527 10.47                             135   -0.09 5  140 262 
 PTB  HN ES   2    527 31.51                             135    0.10 5  140 262 
 PTB  HZ I         527 36.38         1.9 0.32            134            140 262 
 ZAR  HN ES   2    527 41.77                             124   -0.08 4  202 295 
                                                                                
