 2014  617 0225 31.2 L   6.804 -73.157141.1  RSN 16 0.5 2.1LRSN                1
 GAP=182        1.00       2.7     4.6  5.6  0.8283E-01  0.4466E+01  0.1418E+01E
 Epicentro: LOS SANTOS - SANTANDER                                             3
 ACTION:UPD 14-07-01 22:54 OP:nd   STATUS:               ID:20140617022532dL   I
 OLDACT:DUP 14-06-17 16:41 OP:mh   STATUS:               ID:20140617021816d    3
 OLDACT:UP  14-06-17 16:34 OP:mh   STATUS:               ID:20140617021815     3
 OLDACT:UP  14-06-17 16:34 OP:mh   STATUS:               ID:20140617021815     3
 OLDACT:REG 14-06-17 13:11 OP:mh   STATUS:               ID:20140617021815     3
 2014-06-17-0218-15M.COL___259                                                 6
 STAT SP IPHASW D HRMM SECON CODA AMPLIT PERI AZIMU VELO AIN AR TRES W  DIS CAZ7
 BAR2 SZ EP        225 50.62                             170    0.3610 23.6 187 
 BAR2 SZ ES   1    226  5.21                             170    0.07 7 23.6 187 
 BAR2 SZ I         226  6.65        40.8 0.02            168           23.6 187 
 BRR  HZ EP     C  225 52.23                             152    0.4710 69.9 299 
 BRR  HN ES   1    226  7.70                             152   -0.10 7 69.9 299 
 BRR  HZ I         226 12.66        16.7 0.19            150           69.9 299 
 RUS  HZ EP        225 54.57                             143    0.0510  101 175 
 RUS  HN ES        226 12.73                             143    0.0110  101 175 
 RUS  HZ I         226 14.25         9.1 0.27            144            101 175 
 PTB  HZ EP        225 56.98                             131   -0.69 9  147 259 
 PTB  HN ES        226 18.39                             131    0.06 9  147 259 
 PTB  HZ I         226 20.69         8.4 0.21            130            147 259 
 OCA  HZ EP        225 58.89                             129   -0.19 9  160 354 
 OCA  HN ES   1    226 20.85                             129    0.01 7  160 354 
 OCA  HZ I         226 29.04        11.5 0.33            130            160 354 
 SPBC HZ EP        225 59.55                             128    0.26 9  163 219 
 SPBC HN ES        226 20.87                             128   -0.34 9  163 219 
 SPBC HZ I         226 26.51        17.6 0.15            128            163 219 
 ZAR  HZ EP        226  3.67                             121    0.48 9  203 292 
 ZAR  HN ES        226 28.36                             121    0.20 9  203 292 
 ZAR  HZ I         226 34.30        10.1 0.08            122            203 292 
 NOR  HZ EP   1    226  6.51                             118   -0.05 6  234 234 
 NOR  HN ES   1    226 33.82                             118   -0.34 6  234 234 
 NOR  HZ I         226 38.44         5.5 0.20            118            234 234 
 SML  HZ EP   2    226  6.81                             116   -0.64 4  243 336 
 SML  HN ES        226 35.01                             116   -0.73 8  243 336 
 SML  HZ I         226 39.47        14.1 0.15            118            243 336 
 CHI  HZ EP        226  7.78                             116   -0.86 8  249 195 
 CHI  HN ES   1    226 37.97                             116    0.12 6  249 195 
 CHI  HZ I         226 43.42         6.7 0.32            118            249 195 
 GUY2CHZ EP        226 15.48                             111    0.99 7  300 235 
 GUY2CHN ES   4    226 51.43                             111    3.16 0  300 235 
 RREF HZ EP        226 18.16                             110    1.11 7  321 229 
 RREF HN ES        226 52.69                             110   -0.14 7  321 229 
 RREF HZ I         227  0.42         7.2 0.41            111            321 229 
 TOL  SZ EP   4    226 21.56                             108    2.37 0  343 224 
 TOL  SN ES   4    226 58.12                             108    1.49 0  343 224 
 TOL  SZ I         227  5.01        10.4 0.15            109            343 224 
 PRA  HZ EP        226 24.36                             106   -0.16 6  392 209 
 PRA  HN ES        227  5.15                             106   -0.97 6  392 209 
 PRA  HZ I         227 12.52         4.6 0.28            107            392 209 
 ORTC HZ EP        226 24.62                             106   -0.28 6  395 216 
 ORTC HE ES   1    227  7.41                             106    0.61 4  395 216 
 ORTC HZ I         227 14.61         2.5 0.44            107            395 216 
 SJC  HZ EP   4    226 24.84                             105   -1.63 0  408 327 
 SJC  HN ES   4    227  4.95                             105   -4.65 0  408 327 
 SJC  HZ I         227  9.31         1.9 0.31            106            408 327 
                                                                                
