 2015 1117 0102 45.0 L   6.768 -73.119149.1  RSN 11 0.4 1.8LRSN                1
 GAP=141        0.95       3.1     4.2  5.6 -0.2249E+01  0.8816E+01 -0.7700E+00E
 Epicentro: LOS SANTOS - SANTANDER                                             3
 ACTION:UPD 15-12-28 16:11 OP:cam  STATUS:               ID:20151117010245 L   I
 OLDACT:REG 15-11-17 12:32 OP:ak   STATUS:               ID:20151117005746     3
 2015-11-17-0057-46M.COL___313                                                 6
 STAT SP IPHASW D HRMM SECON CODA AMPLIT PERI AZIMU VELO AIN AR TRES W  DIS CAZ7
 BAR2 EZ EP        1 3  4.56                             172   -0.3710 20.7 200 
 BAR2 EZ ES        1 3 19.99                             172   -0.5210 20.7 200 
 BAR2 EZ I         1 3 22.72        12.4 0.40            170           20.7 200 
 BRR  HZ EP   1    1 3  7.01                             152    0.31 7 75.5 300 
 BRR  HN ES        1 3 24.64                             152    0.9810 75.5 300 
 PAM  EZ EP        1 3  7.84                             151    0.2610 78.3  36 
 PAM  EN ES        1 3 25.16                             151   -0.0610 78.3  36 
 PAM  EZ I         1 3 26.15         5.4 0.16            155           78.3  36 
 RUS  HZ EP        1 3  8.95                             146    0.1810 96.9 178 
 RUS  HE ES        1 3 27.37                             146    0.0210 96.9 178 
 RUS  HZ I         1 3 30.50         6.6 0.40            147           96.9 178 
 SPBC HZ EP        1 3 13.82                             130    0.19 9  162 221 
 SPBC HN ES        1 3 36.00                             130    0.00 9  162 221 
 SPBC HZ I         1 3 41.91        11.2 0.22            130            162 221 
 ZAR  HZ EP   1    1 3 18.23                             123    0.20 6  208 293 
 ZAR  HN ES        1 3 43.35                             123   -0.48 8  208 293 
 ZAR  HZ I         1 3 50.22         4.8 0.24            123            208 293 
 NOR  HZ EP        1 3 20.46                             119   -0.46 8  235 236 
 NOR  HE ES        1 3 48.50                             119   -0.47 8  235 236 
 NOR  HZ I         1 3 52.91         4.5 0.18            120            235 236 
 SML  HZ EP        1 3 22.02                             118   -0.22 8  248 335 
 SML  HE ES        1 3 51.00                             118   -0.33 8  248 335 
 SML  HZ I         1 3 56.64        10.5 0.10            119            248 335 
 HEL  HZ EP   2    1 3 25.92                             115    0.36 4  274 257 
 GUY2CHZ EP   1    1 3 29.13                             113    0.37 5  302 236 
 GUY2CHE ES        1 4  3.42                             113    0.49 7  302 236 
 GUY2CHZ I         1 4 13.77         3.2 0.50                           302 236 
 PRA  HZ EP   4    1 3 39.67                             107    1.26 0  390 210 
 PRA  HE ES   4    1 4 18.25                             107   -1.85 0  390 210 
 PRA  HZ I         1 4 25.31         2.3 0.18            108            390 210 
 SJC  HZ EP   4    1 3 39.29                             106   -1.87 0  414 327 
 SJC  HN ES   4    1 4 20.76                             106   -4.24 0  414 327 
                                                                                
