 2012  917 0324 27.8 L   6.715 -73.178152.2  RSN  4 0.2 1.6LRSN                1
 GAP=227        0.47       4.8     4.7  4.9  0.1063E+02  0.1441E+01 -0.1456E+01E
 Epicentro: VILLANUEVA - SANTANDER                                             3
 ACTION:UPD 12-10-22 14:19 OP:ep   STATUS:               ID:20120917032427 L   I
 2012-09-17-0320-00M.COL___227                                                 6
 STAT SP IPHASW D HRMM SECON CODA AMPLIT PERI AZIMU VELO AIN AR TRES W  DIS CAZ7
 BAR2 SZ EP   1    324 47.75                             175   -0.28 7 13.6 182 
 BAR2 SZ ES   1    325  3.88                             175    0.05 7 13.6 182 
 BAR2 SZ I         325  4.44        11.0 0.36                          13.6 182 
 BRR  HZ EP        324 49.72                             153   -0.0110 73.2 306 
 BRR  HN ES   1    325  6.96                             153    0.10 7 73.2 306 
 BRR  HZ I         325 11.49        10.6 0.14                          73.2 306 
 RUS  HZ EP   1    324 51.99                             148    0.44 7 91.6 173 
 RUS  HN ES   1    325  9.93                             148   -0.18 7 91.6 173 
 RUS  HZ I         325 11.60         3.6 0.38                          91.6 173 
 PTB  HZ EP   1    324 54.66                             134   -0.17 7  143 262 
 PTB  HN ES   1    325 15.99                             134    0.05 7  143 262 
 PTB  HZ I         325 19.34         3.1 0.16                           143 262 
                                                                                
