 2012  617 0007 34.5 L   6.613 -73.227146.5  RSN  4 0.3 1.4LRSN                1
 GAP=176        0.55       8.9     5.5  7.0  0.2643E+02  0.9049E+01  0.3511E+01E
 Epicentro: BARICHARA - SANTANDER                                              3
 ACTION:UPD 12-08-06 17:50 OP:ep   STATUS:               ID:20120617000734 L   I
 2012-06-17-0000-00M.COL___199                                                 6
 STAT SP IPHASW D HRMM SECON CODA AMPLIT PERI AZIMU VELO AIN AR TRES W  DIS CAZ7
 BAR2 SZ EP   1    0 7 53.56                             178   -0.43 7 5.42 115 
 BAR2 SZ ES   1    0 8  9.34                             178    0.14 7 5.42 115 
 BAR2 SZ I         0 8 11.35         4.9 0.34                          5.42 115 
 RUS  HZ EP   1    0 7 57.27                             150    0.24 7 81.2 169 
 RUS  HN ES   2    0 8 14.66                             150    0.06 5 81.2 169 
 PTB  HZ EP   1    0 8  0.62                             135    0.12 7  136 267 
 PTB  HN ES   1    0 8 20.51                             135   -0.27 7  136 267 
 PTB  HZ I         0 8 22.11         3.7 0.35                           136 267 
 ZAR  HN ES   2    0 8 32.98                             122    0.51 4  205 298 
                                                                                
