 2013 1017 0534 33.8 L   6.780 -73.145146.9  RSN 12 0.4 1.8LRSN                1
 GAP=137        0.98       3.2     3.9  5.3 -0.1086E+01  0.6046E+01 -0.8149E+00E
 Epicentro: LOS SANTOS - SANTANDER                                             3
 ACTION:UPD 13-11-25 09:22 OP:ep   STATUS:               ID:20131017053433 L   I
 OLDACT:REG 13-10-17 08:31 OP:jn   STATUS:               ID:20131017052844     3
 2013-10-17-0528-44M.COL___223                                                 6
 STAT SP IPHASW D HRMM SECON CODA AMPLIT PERI AZIMU VELO AIN AR TRES W  DIS CAZ7
 BAR2 SZ EP        534 53.49                             171   -0.0010 21.2 191 
 BAR2 SZ ES        535  8.60                             171   -0.2810 21.2 191 
 BAR2 SZ I         535 10.45        15.1 0.14            162           21.2 191 
 BRR  HZ EP        534 55.50                             152    0.4010 72.3 300 
 BRR  HN ES        535 12.59                             152    0.8510 72.3 300 
 BRR  HZ I         535 15.20        11.0 0.10            145           72.3 300 
 PAM  SZ EP        534 56.61                             151    0.4010 79.1  39 
 PAM  SN ES        535 13.67                             151   -0.0310 79.1  39 
 PAM  SZ I         535 16.80         5.5 0.16            144           79.1  39 
 RUS  HZ EP        534 57.19                             145   -0.2910 98.4 176 
 RUS  HN ES        535 15.84                             145   -0.1310 98.4 176 
 RUS  HZ I         535 16.88         3.3 0.22            130           98.4 176 
 PTB  HZ EP        535  0.17                             132   -0.62 9  147 260 
 PTB  HN ES        535 21.18                             132   -0.69 9  147 260 
 PTB  HZ I         535 28.76        10.3 0.32            120            147 260 
 SPBC HZ EP        535  2.39                             130    0.19 9  161 219 
 SPBC HN ES        535 24.38                             130    0.01 9  161 219 
 SPBC HZ I         535 31.22        13.2 0.34            117            161 219 
 ZAR  HZ EP        535  6.30                             123   -0.08 9  205 293 
 ZAR  HE ES        535 32.04                             123    0.23 9  205 293 
 ZAR  HZ I         535 37.41         9.2 0.38            112            205 293 
 NOR  HE ES        535 37.56                             119    0.31 8  233 235 
 SML  HZ EP        535 10.25                             118   -0.43 8  246 336 
 SML  HE ES        535 38.93                             118   -0.53 8  246 336 
 CHI  HZ EP   1    535 11.44                             118    0.14 6  247 195 
 CHI  HZ I         535 46.49         2.8 0.30            107            247 195 
 GUY2CHZ EP   1    535 17.70                             113    0.41 5  300 235 
 GUY2CHN ES   4    535 54.11                             113    2.87 0  300 235 
 GUY2CHZ I         535 59.59         4.6 0.26                           300 235 
 CBOC HZ EP        535 21.03                             110    0.37 7  333 252 
 CBOC HZ I         536  4.45         1.3 0.46            101            333 252 
                                                                                
