 2014  517 0340 24.2 L   6.822 -73.161147.5  RSN 15 0.4 1.7LRSN                1
 GAP=134        0.92       2.7     3.9  5.9 -0.3267E+01  0.3533E+01  0.1877E+01E
 Epicentro: LOS SANTOS - SANTANDER                                             3
 ACTION:UPD 15-03-16 16:58 OP:nd   STATUS:               ID:20140517034024 L   I
 OLDACT:REG 14-05-17 12:25 OP:stll STATUS:               ID:20140517033807     3
 2014-05-17-0338-07M.COL___242                                                 6
 STAT SP IPHASW D HRMM SECON CODA AMPLIT PERI AZIMU VELO AIN AR TRES W  DIS CAZ7
 BRR  HZ IP     D  340 45.98                             154    0.5910 68.6 297 
 BRR  HN ES        341  2.49                             154    0.5710 68.6 297 
 BRR  HZ I         341  3.40         9.6 0.11            149           68.6 297 
 PAM  SZ IP     D  340 47.10                             151    0.5510 76.6  42 
 PAM  SN ES        341  3.65                             151   -0.3410 76.6  42 
 PAM  SZ I         341  6.18        11.5 0.44            154           76.6  42 
 RUS  HZ EP        340 48.11                             143   -0.2010  103 175 
 RUS  HN ES   1    341  7.25                             143    0.14 7  103 175 
 RUS  HZ I         341  8.37         3.2 0.38            144            103 175 
 PTB  HZ EP        340 50.89                             133   -0.32 9  147 258 
 PTB  HN ES        341 11.77                             133   -0.50 9  147 258 
 PTB  HZ I         341 13.91         4.9 0.14            130            147 258 
 OCA  HZ EP        340 52.18                             131   -0.22 9  158 354 
 OCA  HN ES        341 13.91                             131   -0.48 9  158 354 
 OCA  HZ I         341 18.64         5.8 0.28            130            158 354 
 SPBC HZ EP        340 53.10                             129    0.18 9  164 218 
 SPBC HN ES        341 14.99                             129   -0.33 9  164 218 
 SPBC HZ I         341 21.01         6.0 0.28            128            164 218 
 SML  HZ EP        341  0.06                             118   -0.55 8  241 335 
 SML  HN ES        341 29.55                             118    0.55 8  241 335 
 SML  HZ I         341 37.42         5.5 0.14            117            241 335 
 CHI  HZ EP   1    341  2.12                             117   -0.09 6  251 195 
 CHI  HN ES   1    341 31.88                             117    0.03 6  251 195 
 CHI  HZ I         341 35.22         4.4 0.50            117            251 195 
 ROSC BE ES   4    341 33.16                             117    0.69 0  254 210 
 ROSC BZ I         341 38.06         6.1 0.35            116            254 210 
 HEL  HN ES        341 35.84                             115    0.10 8  271 255 
 HEL  HZ I         341 43.05         3.8 0.54            114            271 255 
 URE  HN ES   4    341 41.83                             114    4.86 0  281 292 
 URE  HZ I         341 46.29         2.7 0.16            113            281 292 
 GUY2CHZ EP   1    341  8.32                             113    0.42 5  301 234 
 GUY2CHN ES   1    341 41.57                             113   -0.41 5  301 234 
 GUY2CHZ I         341 49.56         1.7 0.23                           301 234 
 RREF HN ES   1    341 46.79                             111    0.25 5  322 229 
 RREF HZ I         341 53.13         2.2 0.24            110            322 229 
 PRA  HN ES   1    342  0.26                             107    0.41 4  393 209 
 PRA  HZ I         342  4.50         2.7 0.26            106            393 209 
 SJC  HZ EP   4    341 17.83                             106   -1.64 0  406 327 
 SJC  HN ES   4    342  2.21                             106   -0.37 0  406 327 
 SJC  HZ I         342  5.74         1.6 0.58            106            406 327 
                                                                                
