 2013  617 0051  7.5 L   6.796 -73.157152.0  RSN  5 0.5 1.6LRSN                1
 GAP=200        0.90       7.4     9.4  9.3  0.3045E+02  0.3742E+01 -0.1284E+02E
 Epicentro: LOS SANTOS - SANTANDER                                             3
 ACTION:UPD 14-01-08 09:55 OP:ep   STATUS:               ID:20130617005107 L   I
 OLDACT:REG 13-06-17 07:01 OP:carl STATUS:               ID:20130617004959     3
 2013-06-17-0049-59M.COL___261                                                 6
 STAT SP IPHASW D HRMM SECON CODA AMPLIT PERI AZIMU VELO AIN AR TRES W  DIS CAZ7
 BAR2 SZ ES   1    051 43.20                             172   -0.59 7 22.7 187 
 BAR2 SZ I         051 44.65         7.7 0.18            170           22.7 187 
 BRR  HZ EP   1    051 29.79                             154    0.47 7 70.3 299 
 BRR  HE ES   1    051 47.13                             154    0.83 7 70.3 299 
 BRR  HZ I         051 49.91         6.3 0.36            150           70.3 299 
 RUS  HZ EP   1    051 31.94                             145    0.05 7  100 175 
 RUS  HN ES   1    051 50.89                             145    0.02 7  100 175 
 RUS  HZ I         051 51.55         2.7 0.30            148            100 175 
 PTB  HZ EP   1    051 34.93                             134    0.02 7  146 259 
 PTB  HN ES   1    051 55.71                             134   -0.55 7  146 259 
 PTB  HZ I         052  0.91         3.5 0.26            132            146 259 
 SML  HZ EP   2    051 44.30                             119   -0.21 4  244 336 
 SML  HN ES   2    052 12.41                             119   -0.93 4  244 336 
 SML  HZ I         052 17.04         6.6 0.24            119            244 336 
                                                                                
