 2017  417 0135 32.8 L   6.792 -73.155142.0  RSN 10 0.4 1.5LRSN                1
 GAP=111        1.02       3.7     3.8  5.6 -0.7321E+00  0.4255E+01  0.4765E+01E
 Epicentro: LOS SANTOS - SANTANDER                                             3
 ACTION:UPD 17-05-30 21:13 OP:jn   STATUS:               ID:20170417013532 L   I
 OLDACT:UP  17-04-17 14:56 OP:dani STATUS:               ID:20170417012737d    3
 OLDACT:UP  17-04-17 14:55 OP:dani STATUS:               ID:20170417012737d    3
 OLDACT:DUP 17-04-17 14:51 OP:dani STATUS:               ID:20170417012737d    3
 2017-04-17-0128-00M.COL___362                                                 6
 STAT SP IPHASW D HRMM SECON CODA AMPLIT PERI AZIMU VELO AIN AR TRES W  DIS CAZ7
 BAR2 EZ EP        135 51.83                             171   -0.0910 22.3 188 
 BAR2 EZ ES        136  7.09                             171    0.2210 22.3 188 
 BAR2 EZ I         136  8.21        11.3 0.42            169           22.3 188 
 BRR  HZ EP        135 53.63                             152    0.1510 70.7 300 
 BRR  HN ES        136 10.21                             152    0.5810 70.7 300 
 BRR  HZ I         136 13.71         5.9 0.14            150           70.7 300 
 PAM  EZ EP        135 54.80                             150    0.1410 78.7  40 
 PAM  EN ES        136 11.50                             150   -0.2410 78.7  40 
 PAM  EZ I         136 12.46         4.3 0.20            154           78.7  40 
 RUS  HZ EP        135 55.76                             143   -0.3310 99.8 175 
 RUS  HN ES        136 14.33                             143    0.0410 99.8 175 
 RUS  HZ I         136 14.85         2.2 0.22            145           99.8 175 
 PTB  HZ EP        135 58.65                             131   -0.67 9  147 259 
 PTB  HE ES        136 19.28                             131   -0.75 9  147 259 
 PTB  HZ I         136 25.30         3.2 0.31            130            147 259 
 SPBC HZ EP        136  0.73                             128   -0.12 9  162 219 
 SPBC HN ES        136 23.13                             128    0.37 9  162 219 
 YPLC HZ EP        136  2.09                             126   -0.18 9  177 151 
 ZAR  HZ EP        136  5.89                             122    0.99 9  203 292 
 ZAR  HE ES        136 29.57                             122   -0.39 9  203 292 
 ZAR  HZ I         136 35.42         3.6 0.15            122            203 292 
 NOR  HZ EP        136  7.99                             118   -0.14 8  233 234 
 NOR  HN ES        136 35.84                             118    0.12 8  233 234 
 NOR  HZ I         136 42.17         3.7 0.22            118            233 234 
 PRA  HZ EP        136 26.25                             106    0.24 6  391 209 
 PRA  HN ES        137  8.16                             106    0.62 6  391 209 
 PRA  HZ I         137 14.99         1.8 0.31            107            391 209 
                                                                                
