 2013  617 0947 27.1 L   6.800 -73.162153.1  RSN  8 0.4 2.0LRSN                1
 GAP=181        0.82       3.5     6.8  6.0  0.3424E+01  0.2919E+01 -0.1290E+01E
 Epicentro: LOS SANTOS - SANTANDER                                             3
 ACTION:UPD 14-01-08 09:55 OP:ep   STATUS:               ID:20130617094727 L   I
 OLDACT:REG 13-06-17 07:18 OP:carl STATUS:               ID:20130617093959     3
 2013-06-17-0939-59M.COL___261                                                 6
 STAT SP IPHASW D HRMM SECON CODA AMPLIT PERI AZIMU VELO AIN AR TRES W  DIS CAZ7
 BAR2 SZ EP   1    947 47.76                             171    0.11 7 23.1 186 
 BAR2 SZ ES   1    948  3.26                             171   -0.38 7 23.1 186 
 BAR2 SZ I         948  4.32        29.1 0.20            167           23.1 186 
 GIR2 SZ EP   1    947 47.98                             168    0.30 7 31.0 353 
 GIR2 SZ ES   1    948  3.20                             168   -0.50 7 31.0 353 
 GIR2 SZ I         948  6.58         6.6 0.18            164           31.0 353 
 BRR  HZ EP   1    947 49.63                             154    0.63 7 69.7 299 
 BRR  HE ES   1    948  6.78                             154    0.72 7 69.7 299 
 BRR  HZ I         948 13.11        10.7 0.28            149           69.7 299 
 RUS  HZ EP   1    947 51.75                             145    0.12 7  101 175 
 RUS  HN ES   1    948 10.58                             145   -0.15 7  101 175 
 RUS  HZ I         948 11.47         7.8 0.42            147            101 175 
 PTB  HZ EP   1    947 54.67                             134    0.11 7  146 259 
 PTB  HN ES   1    948 15.61                             134   -0.34 7  146 259 
 PTB  HZ I         948 23.18        14.0 0.40            131            146 259 
 OCA  HZ EP   1    947 55.48                             131   -0.53 7  160 354 
 OCA  HE ES   1    948 19.11                             131    0.58 7  160 354 
 OCA  HZ I         948 24.07        14.7 0.36            132            160 354 
 SML  HZ EP   1    948  3.86                             119   -0.25 6  243 336 
 SML  HN ES   1    948 32.19                             119   -0.75 6  243 336 
 SML  HZ I         948 35.35        20.7 0.10            120            243 336 
 CHI  HZ EP   1    948  5.20                             119   -0.01 6  248 195 
 CHI  HN ES   2    948 34.68                             119   -0.22 4  248 195 
 CHI  HZ I         948 40.71         5.3 0.30            120            248 195 
                                                                                
