 2017  417 0519 27.9 L   6.786 -73.136148.8  RSN  7 0.4 1.4LRSN                1
 GAP=138        1.11       4.8     4.8  7.5 -0.1266E+01  0.7044E+01  0.3047E+01E
 Epicentro: LOS SANTOS - SANTANDER                                             3
 ACTION:UPD 17-05-30 21:13 OP:jn   STATUS:               ID:20170417051927 L   I
 OLDACT:UP  17-04-17 16:51 OP:dani STATUS:               ID:20170417051743     3
 OLDACT:REG 17-04-17 13:25 OP:dani STATUS:               ID:20170417051743     3
 2017-04-17-0518-00M.COL___362                                                 6
 STAT SP IPHASW D HRMM SECON CODA AMPLIT PERI AZIMU VELO AIN AR TRES W  DIS CAZ7
 BAR2 EZ EP        519 47.74                             171   -0.1310 22.1 193 
 BAR2 EZ ES        520  3.06                             171   -0.3910 22.1 193 
 BRR  HZ EP        519 49.60                             152    0.1310 72.9 299 
 BRR  HN ES        520  7.18                             152    0.8810 72.9 299 
 BRR  HZ I         520  9.18         3.4 0.26            150           72.9 299 
 PAM  HZ EP        519 50.55                             151    0.0810 77.9  38 
 PAM  EN ES        520  7.84                             151   -0.2310 77.9  38 
 PAM  HZ I         520  8.55         3.2 0.29            155           77.9  38 
 RUS  HZ EP        519 51.99                             145    0.1510 99.0 177 
 RUS  HN ES        520 10.53                             145    0.0210 99.0 177 
 RUS  HZ I         520 11.02         1.6 0.24            146           99.0 177 
 PTB  HZ EP        519 54.78                             132   -0.41 9  149 259 
 PTB  HN ES        520 15.55                             132   -0.92 9  149 259 
 PTB  HZ I         520 20.37         4.1 0.16            131            149 259 
 SPBC HZ EP        519 56.78                             130    0.19 9  163 220 
 SPBC HN ES        520 19.48                             130    0.52 9  163 220 
 SPBC HZ I         520 25.35         4.9 0.07            130            163 220 
 ZAR  HN ES        520 26.38                             123    0.08 8  206 292 
 ZAR  HZ I         520 32.47         4.4 0.39            122            206 292 
                                                                                
