 2016  117 0748  6.6 L   6.790 -73.194140.0  RSN 14 0.5 2.0LRSN                1
 GAP=131        1.07       2.7     4.0  6.0 -0.1801E+01  0.8613E+01  0.1242E+01E
 Epicentro: ZAPATOCA - SANTANDER                                               3
 ACTION:UPD 16-03-09 23:26 OP:cam  STATUS:               ID:20160117074806 L   I
 OLDACT:UP  16-02-23 20:53 OP:AR   STATUS:               ID:20160117074806 L   3
 OLDACT:REG 16-01-17 14:00 OP:mh   STATUS:               ID:20160117074735     3
 2016-01-17-0747-35M.COL___319                                                 6
 STAT SP IPHASW D HRMM SECON CODA AMPLIT PERI AZIMU VELO AIN AR TRES W  DIS CAZ7
 BAR2 EZ IP     D  748 25.66                             171    0.1410 21.9 177 
 BAR2 EZ ES        748 40.57                             171    0.3110 21.9 177 
 BAR2 EZ I         748 41.74        16.7 0.30            170           21.9 177 
 PAM  EZ IP        748 28.75                             148    0.2610 81.8  42 
 PAM  EN ES        748 46.05                             148    0.4910 81.8  42 
 PAM  EZ I         748 48.14        15.3 0.48            152           81.8  42 
 RUS  HZ EP        748 29.36                             143   -0.3910100.0 173 
 RUS  HN ES        748 47.80                             143   -0.0010100.0 173 
 RUS  HZ I         748 48.64         9.9 0.30            146          100.0 173 
 PTB  HZ EP        748 32.15                             132   -0.46 9  142 259 
 PTB  HN ES        748 52.66                             132   -0.23 9  142 259 
 PTB  HZ I         748 59.06         9.8 0.18            129            142 259 
 SPBC HZ IP     C  748 34.56                             129    0.29 9  159 218 
 SPBC HN ES        748 55.75                             129   -0.09 9  159 218 
 SPBC HZ I         748 58.53        16.5 0.22            128            159 218 
 OCA  HZ EP   1    748 34.55                             128    0.02 7  161 355 
 OCA  HN IS        748 55.44                             128   -0.88 9  161 355 
 OCA  HN ES   1    748 55.44                             128   -0.88 7  161 355 
 OCA  HZ I         748 59.27        24.2 0.50            128            161 355 
 ZAR  HZ EP   1    748 39.02                             122    0.81 6  200 293 
 ZAR  HN ES        749  3.85                             122    0.98 9  200 293 
 ZAR  HZ I         749 10.58        12.2 0.28            120            200 293 
 NOR  HZ EP        748 41.18                             118   -0.29 8  230 234 
 NOR  HN ES        749  8.21                             118   -0.44 8  230 234 
 NOR  HZ I         749 16.64         8.0 0.16            118            230 234 
 SML  HZ EP   1    748 42.68                             116   -0.11 6  243 337 
 SML  HN ES   1    749 10.99                             116   -0.03 6  243 337 
 SML  HZ I         749 19.77         9.9 0.10            116            243 337 
 CHI  HZ EP        748 43.50                             116   -0.22 8  246 194 
 CHI  HN ES        749 12.23                             116   -0.44 8  246 194 
 CHI  HZ I         749 15.07         2.5 0.36            118            246 194 
 HEL  HZ EP        748 46.85                             114    0.93 8  267 256 
 HEL  HN ES   1    749 16.05                             114   -0.53 6  267 256 
 HEL  HZ I         749 28.33         4.3 0.26            114            267 256 
 GUY2CHZ EP   1    748 49.00                             112   -0.38 5  296 234 
 GUY2CHN ES   4    749 26.14                             112    3.39 0  296 234 
 GUY2CHZ I         749 31.89         4.1 0.48                           296 234 
 PRA  HZ EP        748 59.97                             106    0.46 6  388 209 
 PRA  HN ES        749 41.46                             106    0.69 6  388 209 
 PRA  HZ I         749 47.64         2.8 0.28            107            388 209 
 SJC  HZ EP   9    748 58.88                             105   -2.88 0  407 328 
 SJC  HN ES        749 42.08                             105    0.18 6  407 328 
 SJC  HZ I         749 57.58         3.2 0.10            105            407 328 
                                                                                
