 2012 1017 0745 18.0 L   6.784 -73.142137.4  RSN  9 0.4 2.4LRSN                1
 GAP= 72        0.79       4.7     3.5  5.8 -0.1205E+01  0.3701E+01  0.5294E+01E
 Epicentro: LOS SANTOS - SANTANDER                                             3
 ACTION:UPD 12-11-22 17:04 OP:ep   STATUS:               ID:20121017074518 L   I
 2012-10-17-0740-00M.COL___231                                                 6
 STAT SP IPHASW D HRMM SECON CODA AMPLIT PERI AZIMU VELO AIN AR TRES W  DIS CAZ7
 BAR2 SZ IP        745 36.54                             171   -0.0810 21.7 192 
 BAR2 SZ I         745 36.95        74.9 0.09                          21.7 192 
 BAR2 SZ ES   1    745 51.12                             171    0.00 7 21.7 192 
 GIR2 SZ EP   1    745 36.64                             166   -0.12 7 33.0 350 
 GIR2 SZ ES   1    745 50.62                             166   -0.75 7 33.0 350 
 BRR  HZ I         745 38.88        78.8 0.10                          72.4 300 
 BRR  HN ES   1    745 55.12                             151    0.92 7 72.4 300 
 PAM  SZ EP   1    745 39.40                             149   -0.03 7 78.5  39 
 PAM  SZ I         745 39.82        20.6 0.20                          78.5  39 
 PAM  SN ES   1    745 56.14                             149    0.02 7 78.5  39 
 PAM  SN I         745 57.37       110.5 0.48                          78.5  39 
 RUS  HZ EP   1    745 40.53                             142   -0.31 7 98.8 176 
 RUS  HN ES   1    745 58.60                             142   -0.02 7 98.8 176 
 RUS  HN I         745 59.91        24.9 0.16                          98.8 176 
 TAM  HZ EP   1    745 44.93                             129   -0.05 7  154 104 
 TAM  HN ES   1    746  6.54                             129    0.54 7  154 104 
 ZAR  HZ EP   1    745 49.73                             120   -0.32 6  205 293 
 ZAR  HN I         746 17.08        36.4 0.11                           205 293 
 NOR  SN ES   1    746 20.75                             117    0.10 6  234 235 
 HEL  HZ EP   1    745 58.47                             113    0.65 6  272 256 
 HEL  HN ES   1    746 28.52                             113   -0.34 6  272 256 
 HEL  HZ I         746 35.57        11.8 0.26                           272 256 
                                                                                
