 2014  717 0327 43.4 L   6.801 -73.173148.5  RSN  6 0.3 1.4LRSN                1
 GAP=188        0.72       3.1     5.9  7.1 -0.2798E+01  0.6159E+01 -0.6034E+01E
 Epicentro: LOS SANTOS - SANTANDER                                             3
 ACTION:UPD 15-03-16 20:44 OP:nd   STATUS:               ID:20140717032743 L   I
 OLDACT:REG 14-07-17 12:43 OP:fm   STATUS:               ID:20140717031820     3
 2014-07-17-0318-20M.COL___260                                                 6
 STAT SP IPHASW D HRMM SECON CODA AMPLIT PERI AZIMU VELO AIN AR TRES W  DIS CAZ7
 BAR2 SZ ES   1    328 18.63                             171   -0.27 8 23.1 183 
 BAR2 SZ I         328 20.93         5.7 0.18            172           23.1 183 
 PTB  HN ES   1    328 30.82                             133   -0.49 8  145 259 
 PTB  HZ I         328 33.09         2.2 0.09            135            145 259 
 OCA  HN ES   1    328 34.29                             130    0.22 8  160 354 
 OCA  HZ I         328 39.72         2.7 0.16            133            160 354 
 SPBC HZ EP        328 11.74                             130   -0.1810  161 218 
 SPBC HE ES        328 34.66                             130    0.4810  161 218 
 SPBC HZ I         328 41.31         2.9 0.36            132            161 218 
 ZAR  HZ EP   1    328 15.10                             123   -0.61 7  201 292 
 ZAR  HE ES        328 41.12                             123    0.19 9  201 292 
 ZAR  HZ I         328 47.62         2.6 0.16            125            201 292 
 SML  HZ EP        328 20.23                             118    0.22 9  242 336 
 SML  HN ES        328 48.60                             118    0.01 9  242 336 
 SML  HZ I         328 51.84         3.4 0.09            120            242 336 
                                                                                
