 2015  617 0053 18.5 L   5.838 -73.749124.4  RSN 12 0.4 1.7LRSN                1
 GAP= 94        0.96       2.4     3.3  6.4 -0.2920E+01  0.9121E+01 -0.9118E+00E
 Epicentro: JESUS MARIA - SANTANDER                                            3
 ACTION:UPD 15-09-10 22:13 OP:cam  STATUS:               ID:20150617005318 L   I
 OLDACT:REG 15-06-17 12:26 OP:drio STATUS:               ID:20150617004749     3
 2015-06-17-0047-49M.COL___318                                                 6
 STAT SP IPHASW D HRMM SECON CODA AMPLIT PERI AZIMU VELO AIN AR TRES W  DIS CAZ7
 RUS  HZ EP        053 38.16                             148   -0.1210 74.0  85 
 RUS  HN ES        053 53.30                             148   -0.4010 74.0  85 
 RUS  HZ I         053 56.96         7.1 0.56            153           74.0  85 
 BAR2 EZ EP        053 40.51                             137    0.3310  104  37 
 BAR2 EZ ES        053 56.59                             137   -0.4910  104  37 
 NOR  HZ EP        053 41.64                             131   -0.3410  128 256 
 NOR  HN ES        054  0.71                             131    0.4310  128 256 
 NOR  HZ I         054  2.80         9.2 0.32            135            128 256 
 CHI  HZ EP        053 43.27                             130    0.2610  134 179 
 CHI  HN ES        054  2.32                             130    0.2010  134 179 
 CHI  HZ I         054  9.56         5.0 0.72            135            134 179 
 BRR  HZ EP        053 43.26                             128    0.17 9  140   2 
 BRR  HN ES        054  3.07                             128    0.81 9  140   2 
 BRR  HZ I         054 11.41         9.0 0.42            133            140   2 
 GUY2CHZ EP   4    053 46.53                             119   -2.39 0  191 249 
 GUY2CHN ES   4    054 11.01                             119   -1.63 0  191 249 
 GUY2CHZ I         054 17.60         3.8 0.30                           191 249 
 HEL  HZ EP        053 48.89                             118   -0.90 9  201 281 
 HEL  HN ES        054 13.84                             118   -0.34 9  201 281 
 HEL  HZ I         054 18.16         4.5 0.28            122            201 281 
 ZAR  HZ EP        053 51.51                             115    0.07 8  220 326 
 ZAR  HN ES   4    054 15.34                             115   -1.77 0  220 326 
 TOL  SZ EP        053 52.22                             115    0.11 8  223 232 
 TOL  SN ES        054 17.96                             115   -0.36 8  223 232 
 TOL  SZ I         054 21.00         2.4 0.42            119            223 232 
 PRA  HZ EP        053 56.78                             110    0.08 8  267 208 
 PRA  HN ES        054 26.59                             110    0.11 8  267 208 
 PRA  HZ I         054 29.31         3.6 0.26            115            267 208 
 ORTC HZ EP        053 57.30                             110    0.18 8  270 218 
 ORTC HN ES        054 27.54                             110    0.31 8  270 218 
 ORTC HZ I         054 32.72         2.0 0.16            114            270 218 
 SML  HZ EP        054  3.44                             106   -0.50 7  330 354 
 SML  HE ES        054 39.77                             106    0.40 7  330 354 
 SML  HZ I         054 44.61         5.1 0.24            110            330 354 
                                                                                
