 2015  117 0925 56.8 L   6.807 -73.155148.1  RSN  9 0.5 1.5LRSN                1
 GAP=135        1.22       3.8     5.2  7.2 -0.5559E+00  0.7986E+01  0.4347E+01E
 Epicentro: LOS SANTOS - SANTANDER                                             3
 ACTION:UPD 15-03-02 15:40 OP:nd   STATUS:               ID:20150117092556 L   I
 OLDACT:REG 15-01-17 14:27 OP:carl STATUS:               ID:20150117091737     3
 2015-01-17-0917-37M.COL___256                                                 6
 STAT SP IPHASW D HRMM SECON CODA AMPLIT PERI AZIMU VELO AIN AR TRES W  DIS CAZ7
 BAR2 EZ EP        926 16.79                             170    0.1210 23.9 187 
 BAR2 EZ ES        926 31.84                             170   -0.3710 23.9 187 
 BAR2 EZ I         926 33.21         9.6 0.28            168           23.9 187 
 BRR  HZ EP        926 18.59                             153    0.5110 70.0 298 
 BRR  HN ES        926 35.46                             153    0.7410 70.0 298 
 BRR  HZ I         926 39.39         7.9 0.36            152           70.0 298 
 PAM  SZ EP        926 19.35                             151    0.1310 77.5  40 
 PAM  SN ES        926 36.53                             151   -0.2110 77.5  40 
 PAM  SZ I         926 37.31         4.4 0.18            156           77.5  40 
 RUS  HZ EP        926 20.75                             144   -0.0410  101 176 
 RUS  HN ES        926 39.61                             144    0.0810  101 176 
 RUS  HZ I         926 41.56         2.2 0.26            145            101 176 
 PTB  HZ EP        926 22.91                             133   -0.92 9  147 258 
 PTB  HN ES        926 44.18                             133   -0.78 9  147 258 
 PTB  HZ I         926 48.52         3.4 0.12            132            147 258 
 OCA  HE ES        926 47.03                             130   -0.30 9  159 353 
 SPBC HZ EP        926 25.82                             130    0.40 9  163 219 
 SPBC HN ES        926 47.73                             130   -0.05 9  163 219 
 SPBC HZ I         926 53.65         6.6 0.24            130            163 219 
 ZAR  HZ EP        926 28.61                             123   -0.62 9  203 292 
 ZAR  HN ES        926 55.39                             123    0.84 9  203 292 
 ZAR  HZ I         927  0.18         3.7 0.26            124            203 292 
 CHI  HZ EP        926 35.04                             118    0.41 8  249 195 
 CHI  HN ES        927  4.29                             118    0.12 8  249 195 
 CHI  HZ I         927  8.11         2.0 0.36            119            249 195 
                                                                                
