 2012  517 0020 44.9 L   6.782 -73.180143.4  RSN 10 0.3 2.2LRSN                1
 GAP=133        0.70       3.2     4.2  6.0  0.9207E-01  0.9871E+01  0.2736E+01E
 Epicentro: LOS SANTOS - SANTANDER                                             3
 ACTION:UP  12-07-05 12:05 OP:pat  STATUS:               ID:20120517002044 L   I
 2012-05-17-0020-00M.COL___197                                                 6
 STAT SP IPHASW D HRMM SECON CODA AMPLIT PERI AZIMU VELO SNR AR TRES W  DIS CAZ7
 BAR2 SZ EP   1    021  4.24                             171     0.0 7   21 181 
 BAR2 SZ ES   1    021 19.16                             171    -0.1 7   21 181 
 BAR2 SZ I         021 21.03        39.8 0.29                            21 181 
 BRR  HZ EP        021  6.12                             153     0.410   69 301 
 BRR  HZ I         021  6.42        56.9 0.15                            69 301 
 PAM  SZ EP   1    021  7.04                             149    -0.1 7   81  41 
 PAM  SN ES   1    021 24.30                             149    -0.1 7   81  41 
 RUS  HZ EP   1    021  8.08                             144    -0.2 7   99 174 
 RUS  HE ES   1    021 26.68                             144     0.1 7   99 174 
 RUS  HZ I         021 28.65        17.2 0.42                            99 174 
 PTB  HZ EP   1    021 10.69                             132    -0.6 7  144 259 
 PTB  HN ES   1    021 31.83                             132    -0.1 7  144 259 
 PTB  HZ I         021 33.96        10.7 0.15                           144 259 
 OCA  HN ES   1    021 35.44                             129     0.2 7  162 355 
 ZAR  HZ EP   1    021 16.83                             122    -0.1 6  201 293 
 ZAR  HN ES   1    021 41.71                             122    -0.2 6  201 293 
 ZAR  HZ I         021 48.40        19.9 0.38                           201 293 
 CHI  HZ EP   1    021 22.27                             117     0.1 6  246 194 
 CHI  HZ I         021 57.52         9.1 0.35                           246 194 
 HEL  HZ EP   2    021 25.14                             115     0.6 4  268 256 
 HEL  HZ I         022  3.27         9.1 0.44                           268 256 
 PRA  HZ EP   1    021 37.41                             106    -0.5 4  388 209 
 PRA  HE ES   1    022 20.04                             106     0.7 4  388 209 
                                                                                
