 2016  917 0536  0.4 L   6.804 -73.181145.7  RSN  7 0.4 1.6LRSN                1
 GAP=132        0.97       4.2     4.1  6.6 -0.7982E+00  0.5292E+01  0.2490E+01E
 Epicentro: ZAPATOCA - SANTANDER                                               3
 ACTION:UPD 17-08-17 21:13 OP:lp   STATUS:               ID:20160917053600 L   I
 OLDACT:UP  16-09-17 19:34 OP:ar   STATUS:               ID:20160917052734     3
 OLDACT:REG 16-09-17 14:10 OP:and  STATUS:               ID:20160917052734     3
 2016-09-17-0528-00M.COL___354                                                 6
 STAT SP IPHASW D HRMM SECON CODA AMPLIT PERI AZIMU VELO AIN AR TRES W  DIS CAZ7
 BAR2 EZ EP        536 19.94                             170   -0.1010 23.4 180 
 BAR2 EZ ES        536 35.03                             170   -0.3210 23.4 180 
 BAR2 EZ I         536 36.40        11.8 0.16            171           23.4 180 
 BRR  HZ EP        536 21.66                             154    0.3010 67.6 300 
 BRR  HN ES        536 38.61                             154    0.9110 67.6 300 
 BRR  HZ I         536 39.28         7.7 0.10            152           67.6 300 
 PAM  EZ EP        536 22.75                             150   -0.0110 79.6  42 
 PAM  EE ES        536 39.83                             150   -0.3510 79.6  42 
 PAM  EZ I         536 41.92         9.7 0.54            152           79.6  42 
 RUS  HZ EP        536 24.43                             144    0.2110  101 174 
 RUS  HN ES        536 42.80                             144    0.0110  101 174 
 RUS  HZ I         536 43.68         3.2 0.30            145            101 174 
 PTB  HZ EP        536 27.24                             133    0.20 9  144 258 
 PTB  HE ES        536 47.40                             133   -0.41 9  144 258 
 PTB  HZ I         536 50.06         1.9 0.24            132            144 258 
 SPBC HZ EP        536 28.57                             129   -0.14 9  161 218 
 SPBC HN ES        536 50.87                             129    0.08 9  161 218 
 SPBC HZ I         536 55.47         6.7 0.24            130            161 218 
 ZAR  HZ EP   4    536 34.90                             123    2.43 0  200 292 
 ZAR  HN ES        536 56.91                             123   -0.56 9  200 292 
 ZAR  HZ I         537  4.51         4.3 0.46            123            200 292 
                                                                                
