 2017  717 0908 19.2 L   6.678 -73.197144.8  RSN  5 0.3 1.4LRSN                1
 GAP=221        0.64       5.3     5.0  6.7  0.1656E+02  0.3056E+01 -0.3309E+01E
 Epicentro: VILLANUEVA - SANTANDER                                             3
 ACTION:UPD 17-08-30 15:34 OP:rebc STATUS:               ID:20170717090819 L   I
 OLDACT:REG 17-07-17 13:05 OP:dnl  STATUS:               ID:20170717085738     3
 2017-07-17-0858-00M.COL___368                                                 6
 STAT SP IPHASW D HRMM SECON CODA AMPLIT PERI AZIMU VELO AIN AR TRES W  DIS CAZ7
 BAR2 EZ EP        9 8 38.25                             176   -0.2510 9.63 170 
 BAR2 EZ I         9 8 55.11         5.8 0.28            146           9.63 170 
 BRR  HZ EP   2    9 8 40.36                             152   -0.04 5 74.1 310 
 BRR  HN ES        9 8 56.92                             152   -0.0310 74.1 310 
 BRR  HZ I         9 8 58.62         7.0 0.42            125           74.1 310 
 RUS  HZ EP   2    9 8 42.11                             148    0.15 5 87.8 172 
 RUS  HN ES        9 8 59.97                             148    0.2510 87.8 172 
 RUS  HZ I         9 9  1.44         2.4 0.50            123           87.8 172 
 PTB  HZ EP        9 8 45.04                             134   -0.35 9  140 264 
 PTB  HN ES        9 9  5.73                             134   -0.10 9  140 264 
 PTB  HZ I         9 9  6.98         2.1 0.14            114            140 264 
 ZAR  HZ EP   2    9 8 52.48                             122    0.87 4  204 296 
 ZAR  HZ I         9 9 12.15         4.5 0.76            102            204 296 
 ZAR  HN ES        9 9 17.23                             122    0.33 9  204 296 
                                                                                
