 2011 1117 0759 27.3 L   6.785 -73.072150.2  RSN  4 0.3 1.4LRSN                1
 GAP=244        0.58      10.1    15.8  6.9  0.1344E+03 -0.3949E+02 -0.2636E+02E
 Epicentro: LOS SANTOS - SANTANDER                                             3
 ACTION:UPD 12-07-13 16:10 OP:ep   STATUS:               ID:20111117075927 L   I
 2011-11-17-0757-57S.COL___179                                                 6
 STAT SP IPHASW D HRMM SECON CODA AMPLIT PERI AZIMU VELO AIN AR TRES W  DIS CAZ7
 BAR2 SZ EP        759 47.62                             169    0.1110 24.6 210 
 BAR2 SZ I         759 47.93         7.3 0.09                          24.6 210 
 BAR2 SZ ES   1    8 0  2.78                             169   -0.48 7 24.6 210 
 BRR  HZ EP   1    759 49.41                             150    0.00 7 79.1 297 
 BRR  HN ES   1    8 0  6.94                             150    0.30 7 79.1 297 
 BRR  HZ I         8 0  8.42         6.6 0.20                          79.1 297 
 RUS  HZ EP   1    759 51.47                             145    0.09 7 98.7 181 
 RUS  HE ES   1    8 0 10.27                             145    0.12 7 98.7 181 
 RUS  HZ I         8 0 11.63         2.4 0.35                          98.7 181 
 ZAR  HZ EP   2    8 0  0.25                             122   -0.65 4  212 292 
 ZAR  HZ I         8 0 31.36         2.3 0.27                           212 292 
                                                                                
