 2011  917 0945  8.1 L   6.737 -73.076141.7  RSN  5 0.1 1.4LRSN                1
 GAP=199        0.28       4.0     6.7  4.0  0.2017E+02 -0.6072E+01  0.6724E+00E
 Epicentro: JORDAN - SANTANDER                                                 3
 ACTION:UPD 12-07-13 15:57 OP:ep   STATUS:               ID:20110917094508 L   I
 2011-09-17-0940-00M.COL___173                                                 6
 STAT SP IPHASW D HRMM SECON CODA AMPLIT PERI AZIMU VELO AIN AR TRES W  DIS CAZ7
 BAR2 SZ EP        945 27.19                             172    0.0110 19.9 216 
 BAR2 SZ I         945 51.13         5.8 0.56                          19.9 216 
 BTL  SZ EP   3    945 27.67                             168    0.29 2 29.1 313 
 GIR2 SZ EP   3    945 27.29                             163   -0.27 2 39.9 341 
 GIR2 SZ ES   2    945 42.74                             163    0.00 5 39.9 341 
 BRR  HZ EP        945 29.40                             148   -0.0310 81.3 300 
 BRR  HZ I         945 34.49         4.1 0.66                          81.3 300 
 BRR  HN ES   1    945 46.07                             148    0.01 7 81.3 300 
 RUS  HZ EP        945 30.96                             145    0.0210 93.4 180 
 RUS  HN ES   2    945 48.70                             145   -0.06 5 93.4 180 
                                                                                
