 2015  217 0307 54.2 L   6.776 -73.104148.1  RSN  6 0.5 1.4LRSN                1
 GAP=143        1.31       4.8     8.7 10.3 -0.1129E+02  0.4801E+01  0.1955E+01E
 Epicentro: LOS SANTOS - SANTANDER                                             3
 ACTION:UPD 15-04-30 21:26 OP:nd   STATUS:               ID:20150217030754 L   I
 OLDACT:REG 15-02-17 14:47 OP:mh   STATUS:               ID:20150217030748     3
 2015-02-17-0307-48M.COL___302                                                 6
 STAT SP IPHASW D HRMM SECON CODA AMPLIT PERI AZIMU VELO AIN AR TRES W  DIS CAZ7
 BAR2 EZ EP        3 8 14.52                             171    0.4410 22.1 203 
 BAR2 EZ I         3 8 30.14         3.2 0.30            163           22.1 203 
 BRR  HZ EP        3 8 16.48                             151    0.5810 76.5 299 
 BRR  HN ES        3 8 33.37                             151    0.5410 76.5 299 
 BRR  HZ I         3 8 37.58         4.5 0.42            142           76.5 299 
 PAM  SZ EP        3 8 16.64                             151    0.0210 76.7  36 
 PAM  SN ES        3 8 34.26                             151    0.1510 76.7  36 
 PAM  SZ I         3 8 36.77         4.0 0.24            149           76.7  36 
 RUS  HZ EP        3 8 18.58                             145    0.6110 97.7 179 
 RUS  HN ES        3 8 35.84                             145   -0.6810 97.7 179 
 RUS  HZ I         3 8 37.82         3.0 0.24            135           97.7 179 
 OCA  HZ EP        3 8 22.41                             130   -0.58 9  164 352 
 OCA  HN ES        3 8 44.68                             130   -0.77 9  164 352 
 OCA  HZ I         3 8 48.61         4.0 0.28            122            164 352 
 SPBC HZ EP        3 8 22.72                             129   -0.23 9  164 221 
 SPBC HN ES        3 8 44.95                             129   -0.44 9  164 221 
 SPBC HZ I         3 8 49.00         3.7 0.30            119            164 221 
                                                                                
