 2011  517 0257 30.8 L   6.785 -72.944148.6  RSN  4 0.1 1.4LRSN                1
 GAP=182        0.30       3.1    15.6  7.3  0.8413E+01 -0.8478E+02 -0.1046E+02E
 Epicentro: CEPITA - SANTANDER                                                 3
 ACTION:UP  11-06-29 08:53 OP:tino STATUS:               ID:20110517025730 L   I
 2011-05-17-0253-32S.COL___141                                                 6
 STAT SP IPHASW D HRMM SECON CODA AMPLIT PERI AZIMU VELO SNR AR TRES W  DIS CAZ7
 BAR2 SZ ES   2    258  6.94                             166     0.1 5   34 231 
 BAR2 SZ I         258  7.27         9.7 0.14                            34 231 
 BTL  SZ EP   1    257 51.24                             165     0.0 7   39 293 
 BTL  SZ ES   2    258  7.02                             165    -0.1 5   39 293 
 RUS  HZ EP   2    257 54.80                             145     0.0 5  100 189 
 RUS  HN ES   1    258 13.50                             145     0.0 7  100 189 
 RUS  HZ I         258 14.78         2.0 0.26                           100 189 
 GRA  SZ EP   1    257 56.07                             138     0.0 7  123   7 
 GRA  SZ I         258 18.19         3.1 0.52                           123   7 
                                                                                
