 2017  117 0211  5.6 L   7.147 -73.906 11.7  RSN  6 0.4 1.5LRSN                1
 GAP=151        0.93       3.4     1.7  5.0  0.2019E+00  0.5212E+00  0.6444E+01E
 Epicentro: BARRANCABERMEJA - SANTANDER                                        3
 ACTION:UPD 17-05-22 16:00 OP:jn   STATUS:               ID:20170117021105 L   I
 OLDACT:DUP 17-01-17 15:31 OP:dani STATUS:               ID:20170117020741d    3
 OLDACT:REG 17-01-17 12:29 OP:dani STATUS:               ID:20170117020740     3
 2017-01-17-0208-00M.COL___329                                                 6
 STAT SP IPHASW D HRMM SECON CODA AMPLIT PERI AZIMU VELO AIN AR TRES W  DIS CAZ7
 BRR  HZ EP     C  211  9.89                             113    0.1610 21.9 102 
 BRR  HN ES        211 13.00                             113    0.0410 21.9 102 
 BRR  HZ I         211 14.49        81.5 0.26             47           21.9 102 
 PTB  HZ EP        211 19.97                              95   -0.0010 90.6 222 
 PTB  HE ES        211 30.99                              95   -0.2110 90.6 222 
 PTB  HZ I         211 31.59        11.0 0.28             47           90.6 222 
 BAR2 EZ EP        211 21.83                              95    0.0910  101 127 
 ZAR  HZ EP        211 23.26                              94    0.0910  112 290 
 ZAR  HN ES        211 36.71                              94   -0.1710  112 290 
 ZAR  HZ I         211 39.07         8.6 0.40             47            112 290 
 PAM  EZ EP        211 27.53                              93    0.3710  135  81 
 PAM  EE ES        211 43.32                              93   -0.6710  135  81 
 PAM  EZ I         211 47.23         7.5 0.24             47            135  81 
 RUS  HZ EP        211 32.28                              56    0.77 9  166 147 
 RUS  HE ES        211 51.30                              56   -0.43 9  166 147 
 RUS  HZ I         211 54.73         5.8 0.40             47            166 147 
                                                                                
