 2017  117 0107 58.0 L   6.785 -73.090149.4  RSN  5 0.4 1.4LRSN                1
 GAP=144        0.83       3.8     6.3  7.2 -0.3543E+01  0.1365E+01  0.1018E+02E
 Epicentro: LOS SANTOS - SANTANDER                                             3
 ACTION:UPD 17-05-22 16:00 OP:jn   STATUS:               ID:20170117010758 L   I
 OLDACT:UP  17-01-17 14:27 OP:dani STATUS:               ID:20170117005743     3
 OLDACT:UP  17-01-17 14:27 OP:dani STATUS:               ID:20170117005743     3
 OLDACT:UP  17-01-17 14:27 OP:dani STATUS:               ID:20170117005743     3
 OLDACT:REG 17-01-17 12:24 OP:dani STATUS:               ID:20170117005743     3
 2017-01-17-0058-00M.COL___326                                                 6
 STAT SP IPHASW D HRMM SECON CODA AMPLIT PERI AZIMU VELO AIN AR TRES W  DIS CAZ7
 PAM  EZ EP        1 8 20.86                             152    0.4310 74.9  35 
 PAM  EN ES        1 8 37.71                             152   -0.2410 74.9  35 
 PAM  EZ I         1 8 40.12         7.7 0.48            156           74.9  35 
 BRR  HZ EP        1 8 19.92                             151    0.0610 77.4 297 
 BRR  HE ES        1 8 37.01                             151    0.0810 77.4 297 
 BRR  HZ I         1 8 41.31         5.4 0.28            150           77.4 297 
 RUS  HZ EP        1 8 21.37                             145   -0.5810 98.7 180 
 RUS  HE ES        1 8 40.80                             145    0.1510 98.7 180 
 RUS  HZ I         1 8 41.83         3.5 0.28            146           98.7 180 
 ZAR  HN ES   3    1 8 55.35                             122   -1.94 2  210 292 
 CHI  HZ EP        1 8 36.21                             118    0.33 8  249 197 
 CHI  HN ES        1 9  5.41                             118   -0.05 8  249 197 
 CHI  HZ I         1 9 11.13         1.2 0.33            119            249 197 
                                                                                
