 2014  717 0234  4.3 L   6.812 -73.156145.1  RSN 10 0.4 1.7LRSN                1
 GAP=211        0.86       3.0     5.5  7.2 -0.3546E+01  0.8150E+01 -0.9170E+00E
 Epicentro: LOS SANTOS - SANTANDER                                             3
 ACTION:UPD 15-03-16 20:44 OP:nd   STATUS:               ID:20140717023404 L   I
 OLDACT:REG 14-07-17 12:40 OP:fm   STATUS:               ID:20140717022817     3
 2014-07-17-0228-17M.COL___260                                                 6
 STAT SP IPHASW D HRMM SECON CODA AMPLIT PERI AZIMU VELO AIN AR TRES W  DIS CAZ7
 BAR2 SZ EP        234 23.75                             170   -0.1310 24.5 187 
 BAR2 SZ ES   1    234 39.54                             170    0.39 7 24.5 187 
 BAR2 SZ I         234 41.60         5.6 0.16            168           24.5 187 
 PTB  HZ EP        234 30.52                             132   -0.62 9  147 258 
 PTB  HN ES   1    234 51.47                             132   -0.61 7  147 258 
 PTB  HZ I         234 57.80         3.6 0.18            131            147 258 
 SPBC HZ EP        234 32.67                             129   -0.11 9  163 218 
 SPBC HN ES        234 54.71                             129   -0.29 9  163 218 
 SPBC HZ I         235  1.80         6.1 0.24            130            163 218 
 ZAR  HZ EP   1    234 36.10                             122   -0.45 6  203 292 
 ZAR  HN ES        235  2.04                             122    0.34 9  203 292 
 ZAR  HZ I         235  8.30         3.3 0.38            123            203 292 
 NOR  HN ES        235  8.58                             118    0.77 8  235 234 
 NOR  HZ I         235 11.93         2.6 0.16            120            235 234 
 SML  HZ EP        234 41.03                             118    0.32 8  242 335 
 SML  HE ES        235  9.29                             118    0.18 8  242 335 
 SML  HZ I         235 15.99         4.2 0.10            120            242 335 
 GUY2CHZ EP   1    234 47.83                             112   -0.03 5  301 234 
 GUY2CHN ES   1    235 21.29                             112   -0.55 5  301 234 
 GUY2CHZ I         235 30.72         1.6 0.34                           301 234 
 TOL  SN ES        235 30.59                             109    0.41 7  344 224 
 TOL  SZ I         235 37.60         3.4 0.50            111            344 224 
 PRA  HN ES        235 39.92                             106    0.27 6  393 209 
 PRA  HZ I         235 45.07         1.6 0.66            108            393 209 
 ORTC HN ES        235 40.61                             106    0.29 6  396 216 
 ORTC HZ I         235 43.54         3.0 0.12            108            396 216 
                                                                                
