 2014 1117 0037 16.9 L   6.762 -73.144135.0  RSN  7 0.6 1.9LRSN                1
 GAP= 96        1.48       6.4     5.0  9.4 -0.4668E+01 -0.3312E+00  0.8942E+01E
 Epicentro: LOS SANTOS - SANTANDER                                             3
 ACTION:UPD 14-12-19 15:43 OP:nd   STATUS:               ID:20141117003716 L   I
 OLDACT:DUP 14-11-17 15:08 OP:stll STATUS:               ID:20141117002747d    3
 OLDACT:ARG 14-11-17 13:50 OP:stll STATUS:               ID:20141117002746     3
 2014-11-17-0027-46M.COL___283                                                 6
 STAT SP IPHASW D HRMM SECON CODA AMPLIT PERI AZIMU VELO AIN AR TRES W  DIS CAZ7
 BAR2 SZ EP        037 35.60                             171    0.4410 19.2 193 
 BAR2 SZ I         037 35.66        17.9 0.40            169           19.2 193 
 BAR2 SZ ES        037 49.31                             171   -0.0810 19.2 193 
 BRR  HZ EP        037 37.31                             150    0.2810 73.4 301 
 BRR  HE ES        037 53.24                             150    0.5110 73.4 301 
 BRR  HZ I         037 55.25         8.0 0.12            150           73.4 301 
 PAM  SZ EP        037 38.46                             148    0.2710 80.6  38 
 PAM  SZ I         037 38.65        32.4 0.18            152           80.6  38 
 PAM  SN ES        037 54.40                             148   -0.3910 80.6  38 
 RUS  HZ EP        037 39.76                             143    0.4710 96.3 176 
 RUS  HE ES        037 57.56                             143    0.8110 96.3 176 
 RUS  HZ I         037 59.94         9.3 0.32            142           96.3 176 
 PTB  HZ EP        037 42.20                             129   -0.76 9  147 260 
 PTB  HE ES        038  2.68                             129   -0.59 9  147 260 
 PTB  HZ I         038  8.61         9.2 0.14            129            147 260 
 TAM  HZ EP        037 43.83                             128    0.19 9  154 103 
 TAM  HZ I         037 43.87        11.9 0.68            131            154 103 
 TAM  HE ES        038  3.41                             128   -1.07 9  154 103 
 SPBC HZ EP        037 44.70                             127    0.41 9  160 220 
 SPBC HN ES        038  4.78                             127   -0.86 9  160 220 
 SPBC HZ I         038 10.93        12.3 0.38            127            160 220 
                                                                                
