 2010  917 0852 17.6 L   6.869 -73.091146.1  RSN  7 0.2 1.6LRSN                1
 GAP=164        0.49       2.5     5.6  5.8 -0.1147E+01 -0.9967E+01 -0.1033E+01E
 Epicentro: LOS SANTOS - SANTANDER                                             3
 ACTION:UP  11-02-18 11:03 OP:tino STATUS:               ID:20100917085217 L   I
 2010-09-17-0850-44S.COL___118                                                 6
 STAT SP IPHASW D HRMM SECON CODA AMPLIT PERI AZIMU VELO SNR AR TRES W  DIS CAZ7
 BTL  SZ EP        852 37.44                             172     0.210   20 286 
 BAR2 SZ EP        852 37.38                             167    -0.110   32 198 
 BAR2 SZ I         852 37.73         9.3 0.24                            32 198 
 BRR  HZ EP        852 38.80                             152    -0.110   74 291 
 BRR  HZ I         852 39.94        18.9 0.09                            74 291 
 BRR  HN ES   1    852 55.66                             152     0.1 7   74 291 
 GUE  SZ EP   2    852 41.67                             142     0.0 5  108  10 
 RUS  HZ EP        852 42.10                             142     0.210  108 180 
 RUS  HZ I         852 42.59         3.5 0.19                           108 180 
 RUS  HN ES   1    853  0.68                             142    -0.2 7  108 180 
 GRA  SZ EP        852 42.23                             139     0.110  117  16 
 GRA  SZ ES   1    853  1.24                             139     0.0 7  117  16 
 GRA  SZ I         853  2.56         2.8 0.10                           117  16 
 OCA  SZ EP   1    852 45.02                             131    -0.3 7  154 351 
                                                                                
