 2014  417 0854 38.0 L   6.305 -73.912 27.2  RSN  5 0.5 1.6LRSN                1
 GAP=183        1.26       4.8     3.7  6.6  0.7489E+01 -0.8407E+01 -0.2245E+01E
 Epicentro: CIMITARRA - SANTANDER                                              3
 ACTION:UPD 14-05-13 23:09 OP:nd   STATUS:               ID:20140417085438 L   I
 OLDACT:REG 14-04-17 13:59 OP:nd   STATUS:               ID:20140417085040     3
 2014-04-17-0850-40M.COL___241                                                 6
 STAT SP IPHASW D HRMM SECON CODA AMPLIT PERI AZIMU VELO AIN AR TRES W  DIS CAZ7
 PTB  HZ EP        854 49.19                             102    0.0910 65.5 293 
 PTB  HN ES        854 57.81                             102    0.0410 65.5 293 
 PTB  HZ I         854 59.07        49.1 0.16            104           65.5 293 
 SPBC HZ EP        854 50.47                              99    0.0510 74.3 194 
 SPBC HN ES        854 59.71                              99   -0.4110 74.3 194 
 SPBC HZ I         855  0.50        12.5 0.34            101           74.3 194 
 RUS  HZ EP        854 55.00                              61    0.3110  102 116 
 RUS  HN ES        855  7.39                              61   -0.3310  102 116 
 RUS  HZ I         855  8.66        13.7 0.18             61            102 116 
 HEL  HZ EP        855  4.08                              61   -0.07 9  179 266 
 HEL  HN ES        855 23.56                              61   -1.01 9  179 266 
 HEL  HZ I         855 24.78         7.5 0.18             61            179 266 
 GUY2CHZ EP        855  7.83                              61    0.91 9  200 233 
 GUY2CHE ES   1    855 30.53                              61    1.04 6  200 233 
                                                                                
