 2017 1117 0933 42.4 L   6.583 -73.413111.8  RSN 12 0.4 1.7LRSN                1
 GAP= 56        1.04       2.9     3.3  5.7 -0.2468E+01  0.1990E+01  0.2172E+00E
 Epicentro: HATO - SANTANDER                                                   3
 ACTION:UPD 17-12-12 19:56 OP:rebc STATUS:               ID:20171117093342 L   I
 OLDACT:REG 17-11-17 14:23 OP:lv   STATUS:               ID:20171117092613     3
 2017-11-17-0928-00M.COL___420                                                 6
 STAT SP IPHASW D HRMM SECON CODA AMPLIT PERI AZIMU VELO AIN AR TRES W  DIS CAZ7
 BAR2 EZ EP        933 58.18                             166    0.1710 25.6  88 
 BAR2 EZ ES        934 10.55                             166    0.3510 25.6  88 
 BAR2 EZ I         934 12.60        14.5 0.26            161           25.6  88 
 PTB  HZ EP   9    934  2.32                             130   -1.34 0  115 268 
 PTB  HN ES        934 18.38                                   -0.5310  115 268 
 PTB  HZ I         934 21.25         5.8 0.18            129            115 268 
 PAM  EZ EP        934  4.53                             130    0.2710  115  43 
 PAM  EN ES        934 20.53                             130   -0.7910  115  43 
 PAM  EZ I         934 24.22         5.3 0.30            129            115  43 
 SPBC HN ES        934 21.99                             127   -0.2410  126 215 
 SPBC HZ I         934 26.83        14.2 0.10            124            126 215 
 YPLC HZ EP        934  9.43                             118   -0.24 9  174 139 
 YPLC HZ I         934 33.53        12.5 0.32            114            174 139 
 TAM  HZ EP        934 10.17                             117   -0.12 9  180  95 
 TAM  HN ES   4    934 30.31                             117   -1.73 0  180  95 
 TAM  HZ I         934 31.02         7.9 0.22            114            180  95 
 ZAR  HZ EP        934 10.63                             115   -0.54 9  189 302 
 ZAR  HN ES        934 33.91                             115    0.29 9  189 302 
 ZAR  HZ I         934 38.05         5.3 0.52            115            189 302 
 NOR  HZ EP        934 11.63                             114   -0.48 9  197 235 
 NOR  HN ES        934 35.24                             114   -0.05 9  197 235 
 NOR  HZ I         934 37.48         4.7 0.14            112            197 235 
 CHI  HZ EP        934 15.47                             112    0.42 8  219 189 
 CHI  HN ES        934 40.66                             112    0.13 8  219 189 
 CHI  HZ I         934 44.54         1.5 0.46            109            219 189 
 GUY2CHZ EP        934 20.54                             107    0.33 8  263 235 
 GUY2CHN ES   4    934 51.40                             107    1.68 0  263 235 
 GUY2CHZ I         934 57.32         2.8 0.78                           263 235 
 URE  HZ EP   9    934 18.25                             107   -1.88 0  267 299 
 URE  HN ES        934 46.81                                   -0.88 8  267 299 
 URE  HZ I         934 49.07         3.8 0.18            106            267 299 
 DRL03HZ EP        934 25.52                             104    0.33 7  311 359 
 DRL03HN ES        934 59.26                             104    0.69 7  311 359 
                                                                                
