 2015 1117 0331 52.9 L   6.865 -73.320122.1  RSN  7 0.3 1.6LRSN                1
 GAP=153        0.76       2.3     4.0  5.0  0.2070E+01  0.3136E+01 -0.2674E+01E
 Epicentro: BETULIA - SANTANDER                                                3
 ACTION:UPD 15-12-28 16:11 OP:cam  STATUS:               ID:20151117033152 L   I
 OLDACT:REG 15-11-17 12:41 OP:ak   STATUS:               ID:20151117032745     3
 2015-11-17-0327-45M.COL___313                                                 6
 STAT SP IPHASW D HRMM SECON CODA AMPLIT PERI AZIMU VELO AIN AR TRES W  DIS CAZ7
 BAR2 EZ EP        332 10.28                             164    0.2810 33.8 153 
 BAR2 EZ ES        332 23.16                             164   -0.1810 33.8 153 
 BAR2 EZ I         332 24.70        27.0 0.26            166           33.8 153 
 BRR  HZ EP        332 10.72                             156    0.3410 51.0 302 
 BRR  HN ES        332 24.33                             156    0.3210 51.0 302 
 BRR  HZ I         332 26.00         5.2 0.12            156           51.0 302 
 RUS  HZ EP        332 15.13                             135   -0.1210  111 166 
 RUS  HN ES        332 32.54                             135   -0.1410  111 166 
 OCA  HZ EP        332 18.37                             125   -0.28 9  152   0 
 OCA  HE ES        332 38.49                             125   -0.24 9  152   0 
 OCA  HZ I         332 45.08        10.6 0.24            127            152   0 
 SPBC HZ EP   1    332 19.38                             124    0.22 7  158 212 
 SPBC HN ES        332 39.59                             124   -0.05 9  158 212 
 SPBC HZ I         332 43.82         3.3 0.13            126            158 212 
 ZAR  HZ EP        332 22.06                             120    0.34 9  184 292 
 ZAR  HE ES        332 43.55                             120   -0.64 9  184 292 
 SML  HZ EP        332 26.50                             114   -0.23 8  230 339 
 SML  HN ES        332 53.53                             114    0.41 8  230 339 
                                                                                
