 2017  717 0413 46.2 L   6.777 -73.183150.9  RSN  4 0.4 1.1LRSN                1
 GAP=232        0.92       8.5     7.3  8.9  0.3173E+02  0.3148E+01  0.1417E+02E
 Epicentro: LOS SANTOS - SANTANDER                                             3
 ACTION:UPD 17-08-30 15:34 OP:rebc STATUS:               ID:20170717041346 L   I
 OLDACT:REG 17-07-17 12:53 OP:dnl  STATUS:               ID:20170717040743     3
 2017-07-17-0408-00M.COL___386                                                 6
 STAT SP IPHASW D HRMM SECON CODA AMPLIT PERI AZIMU VELO AIN AR TRES W  DIS CAZ7
 BAR2 EZ EP        414  6.17                             172   -0.1810 20.4 180 
 BAR2 EZ ES        414 21.52                             172   -0.5710 20.4 180 
 BAR2 EZ I         414 22.29         4.2 0.42            175           20.4 180 
 BRR  HZ EP   4    414  6.87                             154   -0.87 0 68.9 302 
 BRR  HZ I         414 22.76         3.2 0.34            138           68.9 302 
 BRR  HE ES        414 25.09                             154    0.5210 68.9 302 
 RUS  HZ EP        414 10.38                             145    0.1210 98.4 174 
 RUS  HN ES        414 29.42                             145    0.3610 98.4 174 
 RUS  HZ I         414 29.79         1.2 0.28            142           98.4 174 
 PTB  HZ EP   2    414 12.96                             134   -0.19 5  143 260 
 PTB  HN ES        414 33.96                             134   -0.23 9  143 260 
 PTB  HZ I         414 39.35         0.8 0.56            122            143 260 
                                                                                
