 2014  417 0238 53.3 L   6.813 -73.183145.5  RSN  5 0.2 1.8LRSN                1
 GAP=131        0.60       2.6     3.3  5.5 -0.2648E+01  0.6114E+01 -0.2743E+01E
 Epicentro: ZAPATOCA - SANTANDER                                               3
 ACTION:UPD 14-05-13 23:09 OP:nd   STATUS:               ID:20140417023853 L   I
 OLDACT:REG 14-04-17 13:24 OP:nd   STATUS:               ID:20140417023037     3
 2014-04-17-0230-37M.COL___245                                                 6
 STAT SP IPHASW D HRMM SECON CODA AMPLIT PERI AZIMU VELO AIN AR TRES W  DIS CAZ7
 PAM  SZ EP        239 15.88                             150    0.2610 79.0  43 
 PAM  SN ES        239 33.14                             150    0.1310 79.0  43 
 PAM  SZ I         239 35.21        11.0 0.56            157           79.0  43 
 RUS  HZ EP        239 17.09                             143   -0.1110  102 174 
 RUS  HN ES        239 35.41                             143   -0.4010  102 174 
 PTB  HZ EP        239 19.84                             133   -0.10 9  144 258 
 PTB  HN ES        239 40.88                             133    0.18 9  144 258 
 PTB  HZ I         239 48.46         8.4 0.42            133            144 258 
 SPBC HZ EP        239 21.86                             129    0.18 9  162 218 
 SPBC HN ES        239 43.98                             129    0.19 9  162 218 
 SPBC HZ I         239 51.20         4.8 0.18            132            162 218 
 SML  HZ EP   1    239 29.33                             118   -0.28 6  241 336 
 SML  HN ES   1    239 57.48                             118   -0.43 6  241 336 
 SML  HZ I         240  2.47         7.2 0.24            121            241 336 
                                                                                
