 2011  217 0616 17.4 L   6.792 -73.137135.5  RSN  7 0.3 1.6LRSN                1
 GAP=160        0.69       2.9     7.3  9.1 -0.9403E+01  0.2979E+02 -0.1753E+01E
 Epicentro: LOS SANTOS - SANTANDER                                             3
 ACTION:UP  11-03-28 15:09 OP:jfem STATUS:               ID:20110217061617 L   I
 2011-02-17-0612-10S.COL___137                                                 6
 STAT SP IPHASW D HRMM SECON CODA AMPLIT PERI AZIMU VELO SNR AR TRES W  DIS CAZ7
 BAR2 SZ EP        616 35.67                             170    -0.110   23 193 
 BAR2 SZ I         616 51.53        12.9 0.31                            23 193 
 RUS  HZ EP   1    616 40.14                             142     0.1 7  100 177 
 RUS  HN ES   1    616 57.53                             142    -0.2 7  100 177 
 RUS  HZ I         617  0.69         5.9 0.36                           100 177 
 GRA  SZ EP   1    616 41.74                             134     0.0 7  126  17 
 GRA  SZ ES   1    617  0.80                             134     0.0 7  126  17 
 GRA  SZ I         617 10.41         3.4 0.38                           126  17 
 OCA  SZ EP   1    616 44.82                             127    -0.2 7  161 353 
 OCA  SZ ES   1    617  6.88                             127     0.3 7  161 353 
 OCA  SZ I         617 12.47         6.1 0.43                           161 353 
 NOR  SZ EP   1    616 52.03                             116    -0.5 6  235 235 
 NOR  SN ES   1    617 19.92                             116    -0.1 6  235 235 
 CHI  HZ EP   1    616 54.32                             115    -0.1 6  248 195 
 CHI  HN ES   1    617 24.10                             115     0.7 6  248 195 
 CHI  HZ I         617 27.61         2.8 0.57                           248 195 
 RREF HZ EP   2    617  3.97                             109     0.9 3  322 230 
 RREF HZ I         617 45.71         2.8 0.39                           322 230 
                                                                                
