 2012 1017 0855 30.0 L   6.728 -73.130154.3  RSN  5 0.4 1.8LRSN                1
 GAP=142        0.86       6.1     7.6  9.0  0.4507E+01  0.1253E+02  0.7698E+00E
 Epicentro: JORDAN - SANTANDER                                                 3
 ACTION:UPD 12-11-22 17:04 OP:ep   STATUS:               ID:20121017085530 L   I
 2012-10-17-0850-00M.COL___231                                                 6
 STAT SP IPHASW D HRMM SECON CODA AMPLIT PERI AZIMU VELO AIN AR TRES W  DIS CAZ7
 BAR2 SZ EP   1    855 50.93                             174    0.42 7 16.1 201 
 BAR2 SZ ES   1    856  6.58                             174    0.04 7 16.1 201 
 BAR2 SZ I         856  7.03        14.4 0.20                          16.1 201 
 GIR2 SZ EP   1    855 51.15                             165    0.26 7 39.4 350 
 GIR2 SZ ES   1    856  7.44                             165    0.23 7 39.4 350 
 PAM  SZ EP   1    855 53.88                             151    0.47 7 82.6  35 
 PAM  SZ I         855 54.10        10.4 0.20                          82.6  35 
 PAM  SN ES   1    856 11.05                             151   -0.64 7 82.6  35 
 RUS  HZ EP   1    855 53.24                             148   -0.79 7 92.6 177 
 RUS  HE ES   1    856 12.98                             148    0.18 7 92.6 177 
 RUS  HN I         856 14.97        11.6 0.32                          92.6 177 
 ZAR  HN ES   1    856 29.35                             123   -0.24 6  209 294 
                                                                                
