 2014  717 0242 37.1 L   6.810 -73.216140.9  RSN 10 0.4 1.5LRSN                1
 GAP=175        0.90       3.0     5.5  7.2 -0.5304E+01  0.1128E+01 -0.3592E+00E
 Epicentro: ZAPATOCA - SANTANDER                                               3
 ACTION:UPD 15-03-16 20:44 OP:nd   STATUS:               ID:20140717024237 L   I
 OLDACT:DUP 14-07-17 16:17 OP:spq  STATUS:               ID:20140717023814d    3
 2014-07-17-0238-12M.COL___260                                                 6
 STAT SP IPHASW D HRMM SECON CODA AMPLIT PERI AZIMU VELO AIN AR TRES W  DIS CAZ7
 BAR2 SZ ES   1    243 11.21                             170    0.14 8 24.3 171 
 BAR2 SZ I         243 13.45         5.6 0.18            171           24.3 171 
 PTB  HZ EP        243  2.78                             132   -0.2510  140 258 
 PTB  HN ES        243 23.35                             132    0.1210  140 258 
 PTB  HZ I         243 29.75         3.1 0.10            133            140 258 
 OCA  HZ EP   1    243  4.55                             129   -0.34 7  158 356 
 OCA  HE ES   1    243 25.81                             129   -0.74 7  158 356 
 OCA  HZ I         243 31.51         3.3 0.18            132            158 356 
 SPBC HZ EP        243  4.80                             129   -0.0810  159 217 
 SPBC HN ES        243 26.75                             129    0.2210  159 217 
 SPBC HZ I         243 32.64         5.4 0.18            131            159 217 
 ZAR  HN ES        243 32.47                             122   -0.45 9  196 293 
 ZAR  HZ I         243 42.56         2.7 0.29            124            196 293 
 NOR  HN ES        243 39.68                             118    0.54 9  229 233 
 NOR  HZ I         243 44.12         2.5 0.18            120            229 233 
 SML  HZ EP        243 13.80                             117    0.77 8  240 337 
 SML  HE ES        243 41.44                             117    0.40 8  240 337 
 SML  HZ I         243 44.04         4.2 0.10            119            240 337 
 HEL  HN ES   1    243 46.92                             114    0.09 6  265 255 
 HEL  HZ I         243 51.25         2.7 0.50            116            265 255 
 GUY2CHE ES   1    243 52.54                             112   -0.67 6  295 234 
 GUY2CHZ I         244  1.15         1.5 0.28                           295 234 
 PRA  HZ EP        243 30.38                             106    0.23 6  389 208 
 PRA  HN ES        244 10.76                             106   -0.75 6  389 208 
 PRA  HZ I         244 17.61         1.3 0.36            108            389 208 
                                                                                
