 2017 1117 0440  8.2 L   6.768 -73.174142.0  RSN 17 0.5 1.9LRSN                1
 GAP=110        1.31       3.8     4.3  6.5 -0.1267E+01  0.8530E+01 -0.1114E+01E
 Epicentro: LOS SANTOS - SANTANDER                                             3
 ACTION:UPD 17-12-12 19:56 OP:rebc STATUS:               ID:20171117044008 L   I
 OLDACT:UP  17-11-17 16:43 OP:lv   STATUS:               ID:20171117043743     3
 OLDACT:REG 17-11-17 13:41 OP:lv   STATUS:               ID:20171117043743     3
 2017-11-17-0438-00M.COL___477                                                 6
 STAT SP IPHASW D HRMM SECON CODA AMPLIT PERI AZIMU VELO AIN AR TRES W  DIS CAZ7
 BAR2 EZ EP        440 27.21                             172   -0.0910 19.5 183 
 BAR2 EZ ES        440 42.08                             172   -0.1210 19.5 183 
 BAR2 EZ I         440 43.43        34.8 0.16            170           19.5 183 
 PAM  EZ IP     C  440 30.23                             148   -0.0710 82.1  40 
 PAM  EN ES        440 47.05                             148   -0.4910 82.1  40 
 PAM  EZ I         440 48.81         6.5 0.38            151           82.1  40 
 RUS  HZ IP     D  440 31.20                             143   -0.1410 97.3 174 
 RUS  HE ES        440 49.35                             143   -0.0410 97.3 174 
 RUS  HZ I         440 50.18         5.9 0.26            143           97.3 174 
 PTB  HZ EP   9    440 34.31                             131   -0.21 0  144 260 
 PTB  HN ES        440 53.53                                   -1.31 9  144 260 
 PTB  HZ I         440 57.09         4.7 0.44            130            144 260 
 SPBC HZ EP        440 36.24                             128    0.28 9  158 219 
 SPBC HN ES        440 58.31                             128    0.69 9  158 219 
 SPBC HZ I         441  0.42        10.7 0.22            128            158 219 
 YPLC HZ IP     C  440 37.55                             125   -0.01 9  175 150 
 YPLC HN ES        441  0.47                             125    0.00 9  175 150 
 YPLC HZ I         441  2.22        10.4 0.26            126            175 150 
 ZAR  HZ EP        440 41.20                             121    0.96 9  203 293 
 ZAR  HN ES        441  5.73                             121    0.49 9  203 293 
 ZAR  HZ I         441 13.15         7.0 0.26            121            203 293 
 NOR  HZ EP        440 43.13                             118   -0.09 8  230 235 
 NOR  HN ES        441 10.71                             118    0.18 8  230 235 
 NOR  HZ I         441 13.15         7.2 0.16            117            230 235 
 CHI  HZ EP        440 45.39                             116    0.16 8  244 195 
 CHI  HN ES        441 14.02                             116   -0.09 8  244 195 
 CHI  HZ I         441 20.38         4.0 0.22            116            244 195 
 URE  HZ EP        440 48.70                             112   -0.21 7  282 293 
 URE  HN ES   4    441 18.58                             112   -2.10 0  282 293 
 URE  HZ I         441 23.10         4.5 0.12            112            282 293 
 DRL03HZ EP        440 49.84                             111   -0.14 7  292 353 
 DRL03HN ES   4    441 23.92                             111    1.35 0  292 353 
 GUY2CHZ EP   9    440 52.80                             111    1.68 0  297 235 
 GUY2CHN ES        441 26.26                                   -0.02 7  297 235 
 GUY2CHZ I         441 35.02         4.0 0.28                           297 235 
 PTGC HZ IP   9 D  440 50.40                             110   -1.24 0  307 158 
 PTGC HE ES        441 23.38                                   -0.91 7  307 158 
 CBOC HZ EP        440 54.47                             109   -0.02 7  330 253 
 CBOC HE ES        441 28.43                             109   -2.18 7  330 253 
 CBOC HZ I         441 36.46         1.8 0.36            109            330 253 
 PRA  HZ EP        441  1.65                             106    0.60 6  387 209 
 PRA  HN ES        441 42.20                             106   -0.07 6  387 209 
 PRA  HZ I         441 48.99         5.3 0.28            106            387 209 
 ORTC HZ EP   9    441  2.82                             105    1.38 0  391 216 
 ORTC HN ES        441 44.74                                    0.39 6  391 216 
 ORTC HZ I         441 51.55         3.1 0.30            106            391 216 
 SJC  HZ EP   4    441  1.45                             104   -2.34 0  411 328 
 SJC  HN ES   4    441 42.97                             104   -4.18 0  411 328 
 SJC  HZ I         441 47.35         2.4 0.48            105            411 328 
                                                                                
