 2016  617 0119 31.9 L   6.781 -73.135143.4  RSN  8 0.4 1.6LRSN                1
 GAP=139        0.85       3.8     4.0  6.2 -0.3985E+01  0.5167E+01  0.2630E+01E
 Epicentro: LOS SANTOS - SANTANDER                                             3
 ACTION:UPD 16-07-21 22:19 OP:rebc STATUS:               ID:20160617011931 L   I
 OLDACT:REG 16-06-17 12:18 OP:dnl  STATUS:               ID:20160617011746     3
 2016-06-17-0117-46M.COL___346                                                 6
 STAT SP IPHASW D HRMM SECON CODA AMPLIT PERI AZIMU VELO AIN AR TRES W  DIS CAZ7
 BAR2 EZ EP   2    119 50.87                             171   -0.37 5 21.6 194 
 BAR2 EZ ES        120  6.07                             171   -0.2310 21.6 194 
 BAR2 EZ I         120  7.59        11.8 0.24                          21.6 194 
 BRR  HZ EP        119 52.95                             152    0.0110 73.2 299 
 BRR  HE ES        120 10.10                             152    0.7710 73.2 299 
 BRR  HZ I         120 11.07         9.2 0.32                          73.2 299 
 PAM  EZ EP        119 53.98                             150    0.0410 78.2  38 
 PAM  EN ES        120 10.80                             150   -0.3210 78.2  38 
 PAM  EZ I         120 13.10         5.8 0.42                          78.2  38 
 RUS  HZ EP        119 55.46                             144    0.1710 98.5 177 
 RUS  HE ES        120 13.84                             144    0.3210 98.5 177 
 RUS  HZ I         120 15.15         6.0 0.24                          98.5 177 
 PTB  HZ EP   2    119 58.10                             131   -0.67 5  149 260 
 PTB  HE ES        120 19.00                             131   -0.71 9  149 260 
 PTB  HZ I         120 20.35         2.3 0.15                           149 260 
 SPBC HZ EP   2    120  0.21                             129    0.05 5  162 220 
 SPBC HN ES        120 22.08                             129   -0.11 9  162 220 
 SPBC HZ I         120 24.80        11.1 0.24                           162 220 
 ZAR  HZ EP   3    120  4.93                             122    0.52 2  206 293 
 ZAR  HN ES   2    120 30.23                             122    0.48 4  206 293 
 ZAR  HZ I         120 35.42         2.9 0.10                           206 293 
 GUY2CHZ EP   2    120 15.76                             112    0.36 4  301 235 
 GUY2CHE ES        120 49.34                             112    0.03 7  301 235 
 GUY2CHZ I         120 57.51         2.2 0.34                           301 235 
                                                                                
