 2010  117 0730  3.6 L   6.830 -73.144143.6  RSN  6 0.3 1.9LRSN                1
 GAP=188        0.50       4.0     6.4  4.9 -0.9309E+00  0.1373E+02  0.6732E+00E
 Epicentro: LOS SANTOS - SANTANDER                                             3
 ACTION:UP  10-08-24 09:44 OP:vdl  STATUS:               ID:20100117073003 L   I
 2010-01-17-0720-00S.COL___095                                                 6
 STAT SP IPHASW D HRMM SECON CODA AMPLIT PERI AZIMU VELO SNR AR TRES W  DIS CAZ7
 BAR2 SZ IP        730 23.03                             169     0.010   27 190 
 BAR2 SZ ES   1    730 38.34                             169     0.1 7   27 190 
 GIR2 SZ EP   1    730 22.93                             168     0.0 7   28 349 
 RUS  BZ IP        730 27.07                             142    -0.310  104 176 
 RUS  BE ES        730 45.94                             142     0.010  104 176 
 RUS  BZ I         730 47.55         6.8 0.52                           104 176 
 CHI  HZ IP        730 41.73                             116     0.2 8  252 195 
 CHI  HE ES   2    731 10.85                             116    -0.3 4  252 195 
 CHI  HZ I         731 21.01         2.9 0.44                           252 195 
 HEL  HZ EP   2    730 44.39                             114     0.6 4  273 255 
 HEL  HN ES   2    731 14.68                             114    -0.5 4  273 255 
 HEL  HZ I         731 23.06         6.5 0.28                           273 255 
 PRA  HZ EP   1    730 57.41                             106     0.0 4  395 209 
 PRA  HN ES   2    731 39.80                             106     0.5 3  395 209 
 PRA  HZ I         731 45.78         4.6 0.30                           395 209 
                                                                                
