 2012 1217 0433 31.6 L   6.789 -73.161145.1  RSN 10 0.3 2.4LRSN                1
 GAP= 71        0.73       3.3     3.0  4.2  0.1046E+01  0.1389E+01  0.1633E+01E
 Epicentro: LOS SANTOS - SANTANDER                                             3
 ACTION:UPD 13-01-04 14:28 OP:ep   STATUS:               ID:20121217043331 L   I
 2012-12-17-0430-00M.COL___238                                                 6
 STAT SP IPHASW D HRMM SECON CODA AMPLIT PERI AZIMU VELO AIN AR TRES W  DIS CAZ7
 BAR2 SZ EP        433 51.22                             171    0.0510 21.9 186 
 BAR2 SZ ES        434  6.14                             171   -0.2610 21.9 186 
 BAR2 SZ I         434  8.42        70.7 0.28                          21.9 186 
 BRR  HZ EP        433 52.95                             153    0.2710 70.3 300 
 BRR  HN ES        434  9.65                             153    0.5710 70.3 300 
 BRR  HZ I         434 11.21        29.6 0.26                          70.3 300 
 PAM  SZ EP        433 54.02                             150    0.1010 79.4  40 
 PAM  SN ES        434 11.14                             150   -0.1510 79.4  40 
 PAM  SZ I         434 13.62        39.6 0.46                          79.4  40 
 RUS  HZ EP        433 55.16                             144   -0.1010 99.5 175 
 RUS  HN ES        434 13.65                             144   -0.0310 99.5 175 
 RUS  HN I         434 15.89        63.9 0.40                          99.5 175 
 PTB  HZ EP        433 57.89                             132   -0.50 9  146 259 
 PTB  HE ES   1    434 19.22                             132   -0.03 7  146 259 
 PTB  HZ I         434 25.78        31.5 0.45                           146 259 
 TAM  HZ EP        433 59.59                             130    0.19 9  156 104 
 OCA  HZ EP   1    433 59.58                             129   -0.43 7  161 354 
 ZAR  HE ES        434 28.77                             122   -0.35 9  203 293 
 ZAR  HZ I         434 30.74        13.7 0.13                           203 293 
 CHI  HZ EP        434  9.21                             117    0.08 8  247 195 
 HEL  HZ EP        434 12.05                             115    0.44 8  270 256 
 HEL  HZ I         434 49.28        11.8 0.32                           270 256 
                                                                                
