 2012  517 0950 27.2 L   6.702 -73.227135.0  RSN  5 0.3 1.4LRSN                1
 GAP=208        0.60       6.1     6.7 10.9  0.2038E+02  0.2210E+02 -0.6280E+01E
 Epicentro: VILLANUEVA - SANTANDER                                             3
 ACTION:UP  12-07-05 12:05 OP:pat  STATUS:               ID:20120517095027 L   I
 2012-05-17-0948-59S.COL___207                                                 6
 STAT SP IPHASW D HRMM SECON CODA AMPLIT PERI AZIMU VELO SNR AR TRES W  DIS CAZ7
 BAR2 SZ ES   2    951  0.04                             174     0.5 5   13 158 
 BAR2 SZ I         951  1.49         3.5 0.20                            13 158 
 BRR  HZ EP   1    950 47.21                             151     0.1 7   70 310 
 BRR  HZ I         950 47.65        10.9 0.10                            70 310 
 BRR  HN ES   1    951  2.37                             151    -0.3 7   70 310 
 RUS  HN ES   1    951  6.12                             144    -0.2 7   91 170 
 PTB  HN ES   1    951 12.05                             132     0.2 7  137 263 
 PTB  HZ I         951 15.18         2.1 0.12                           137 263 
 ZAR  HN ES   2    951 22.84                             120    -0.2 4  200 296 
 ZAR  HZ I         951 28.48         5.6 0.30                           200 296 
                                                                                
