 2017  417 0243 28.0 L   6.818 -73.150145.8  RSN 15 0.6 1.9LRSN                1
 GAP=111        1.19       3.7     3.9  6.0  0.7289E+00  0.5732E+01  0.2324E+01E
 Epicentro: LOS SANTOS - SANTANDER                                             3
 ACTION:UPD 17-05-30 21:13 OP:jn   STATUS:               ID:20170417024328 L   I
 OLDACT:UP  17-04-17 15:20 OP:dani STATUS:               ID:20170417023737     3
 OLDACT:UP  17-04-17 15:19 OP:dani STATUS:               ID:20170417023737     3
 OLDACT:REG 17-04-17 13:17 OP:dani STATUS:               ID:20170417023737     3
 2017-04-17-0238-00M.COL___362                                                 6
 STAT SP IPHASW D HRMM SECON CODA AMPLIT PERI AZIMU VELO AIN AR TRES W  DIS CAZ7
 BAR2 EZ EP        243 47.57                             170   -0.0710 25.3 188 
 BAR2 EZ ES        244  2.50                             170   -0.4810 25.3 188 
 BAR2 EZ I         244  3.83        20.0 0.22            168           25.3 188 
 BRR  HZ EP        243 49.52                             153    0.4810 69.8 297 
 BRR  HE ES        244  6.29                             153    0.8110 69.8 297 
 BRR  HZ I         244  8.18         8.8 0.34            151           69.8 297 
 PAM  EZ EP        243 50.55                             151    0.4410 76.1  41 
 PAM  EN ES        244  7.58                             151    0.2010 76.1  41 
 PAM  EZ I         244  9.79        19.1 0.48            154           76.1  41 
 RUS  HZ EP        243 51.73                             143   -0.1410  103 176 
 RUS  HN ES        244 10.24                             143   -0.2710  103 176 
 RUS  HZ I         244 11.35         8.9 0.24            143            103 176 
 PTB  HZ EP        243 54.59                             132   -0.34 9  148 258 
 PTB  HN ES        244 15.47                             132   -0.49 9  148 258 
 PTB  HZ I         244 21.66         7.1 0.20            131            148 258 
 SPBC HZ EP        243 56.51                             129   -0.08 9  164 218 
 SPBC HN ES        244 18.82                             129   -0.09 9  164 218 
 SPBC HZ I         244 21.13        16.4 0.40            128            164 218 
 YPLC HZ EP        243 57.99                             126    0.03 9  179 152 
 YPLC HN ES        244 21.40                             126    0.05 9  179 152 
 YPLC HZ I         244 22.92         8.5 0.30            127            179 152 
 ZAR  HZ EP   4    243 57.78                             122   -2.51 0  203 292 
 ZAR  HN ES        244 24.83                             122   -0.67 9  203 292 
 ZAR  HZ I         244 31.15         9.1 0.43            122            203 292 
 NOR  HZ EP        244  3.80                             118    0.02 8  235 234 
 NOR  HN ES        244 31.98                             118    0.26 8  235 234 
 NOR  HZ I         244 34.21         4.4 0.28            118            235 234 
 ROSC BZ EP   9    244  7.68                             116    1.43 0  254 211 
 ROSC BN ES        244 37.88                             117    0.34 8  254 211 
 ROSC BZ I         244 41.99        10.9 0.43            116            254 211 
 HEL  HZ EP   3    244  9.88                             115    1.69 2  272 255 
 HEL  HN ES   3    244 38.50                             115   -1.05 2  272 255 
 HEL  HZ I         244 45.65         5.0 0.34            114            272 255 
 PTGC HZ EP   9    244 10.80                             111   -1.26 0  311 159 
 PTGC HN ES        244 44.45                             112   -0.74 7  311 159 
 PTGC HZ I         244 49.00         6.4 0.28            112            311 159 
 CBOC HZ EP        244 15.98                             110    1.08 7  334 252 
 CBOC HN ES        244 52.68                             110    1.17 7  334 252 
 CBOC HZ I         244 56.50         1.0 0.24            110            334 252 
 PRA  HZ EP        244 21.93                             106    0.26 6  394 209 
 PRA  HN ES        245  2.93                             106   -0.62 6  394 209 
 PRA  HZ I         245  9.55         3.9 0.15            106            394 209 
 SJC  HZ EP        244 21.75                             106   -1.55 6  407 327 
 SJC  HE ES   1    245  4.93                             106   -1.53 4  407 327 
 SJC  HZ I         245 12.55         1.0 0.16            106            407 327 
                                                                                
