 2014 1117 0003 34.2 L   6.731 -73.152146.5  RSN  6 0.4 1.6LRSN                1
 GAP=139        0.96       4.5     4.8  6.6 -0.5506E+01  0.4157E+01  0.2712E+01E
 Epicentro: LOS SANTOS - SANTANDER                                             3
 ACTION:UPD 14-12-19 15:43 OP:nd   STATUS:               ID:20141117000334 L   I
 OLDACT:DUP 14-11-17 14:00 OP:stll STATUS:               ID:20141117000001d    3
 2014-11-17-0000-00M.COL___280                                                 6
 STAT SP IPHASW D HRMM SECON CODA AMPLIT PERI AZIMU VELO AIN AR TRES W  DIS CAZ7
 BAR2 SZ EP        0 3 54.09                             174    0.3310 15.7 192 
 BAR2 SZ ES        0 4  8.33                             174   -0.7010 15.7 192 
 BAR2 SZ I         0 4 10.39        14.2 0.20            171           15.7 192 
 BRR  HZ EP        0 3 55.69                             151    0.1010 74.6 304 
 BRR  HN ES        0 4 12.86                             151    0.5610 74.6 304 
 BRR  HZ I         0 4 14.31         4.5 0.18            152           74.6 304 
 PAM  SZ EP        0 3 56.68                             149   -0.1810 83.8  37 
 PAM  SZ I         0 3 56.93        12.6 0.24            153           83.8  37 
 PAM  SE ES        0 4 14.69                             149    0.1410 83.8  37 
 RUS  HZ EP        0 3 57.36                             146   -0.1010 93.0 175 
 RUS  HN ES        0 4 15.75                             146    0.1210 93.0 175 
 RUS  HZ I         0 4 17.68         3.8 0.32            146           93.0 175 
 PTB  HZ EP        0 4  0.68                             133   -0.34 9  146 262 
 PTB  HE ES        0 4 21.47                             133   -0.49 9  146 262 
 PTB  HZ I         0 4 24.37         2.6 0.14            132            146 262 
 SPBC HZ EP        0 4  2.20                             130    0.07 9  157 221 
 SPBC HN ES        0 4 24.41                             130    0.47 9  157 221 
 SPBC HZ I         0 4 30.48         6.0 0.12            130            157 221 
                                                                                
