 2012  817 0502  2.4 L   6.741 -73.146143.5  RSN  7 0.4 2.1LRSN                1
 GAP=182        0.69       5.3     5.6  7.1  0.7374E+01  0.3257E+01  0.1438E+01E
 Epicentro: JORDAN - SANTANDER                                                 3
 ACTION:UP  12-09-10 11:56 OP:ep   STATUS:               ID:20120817050202 L   I
 2012-08-17-0500-00M.COL___217                                                 6
 STAT SP IPHASW D HRMM SECON CODA AMPLIT PERI AZIMU VELO AIN AR TRES W  DIS CAZ7
 BAR2 SZ EP   1    5 2 21.66                             173    0.00 7 16.9 194 
 BAR2 SZ ES   2    5 2 36.27                             173   -0.40 5 16.9 194 
 BAR2 SZ I         5 2 37.95        62.0 0.21                          16.9 194 
 GIR2 SZ EP   1    5 2 21.71                             165   -0.31 7 37.7 352 
 GIR2 SZ ES   2    5 2 37.02                             165   -0.28 5 37.7 352 
 BRR  HZ EP   1    5 2 23.49                             151   -0.03 7 74.5 303 
 BRR  HN ES   1    5 2 40.41                             151    0.44 7 74.5 303 
 BRR  HZ I         5 2 41.64        27.3 0.15                          74.5 303 
 RUS  HZ EP   1    5 2 25.56                             145    0.07 7 94.1 176 
 RUS  HN ES   2    5 2 44.34                             145    0.87 5 94.1 176 
 RUS  HZ I         5 2 46.28         8.4 0.24                          94.1 176 
 PTB  HZ EP   2    5 2 28.55                             132   -0.54 5  147 261 
 PTB  HN ES   1    5 2 49.31                             132   -0.59 7  147 261 
 OCA  HN ES   2    5 2 53.54                             128   -0.06 5  167 353 
 ZAR  HZ EP   1    5 2 35.32                             122    0.34 6  207 294 
 ZAR  HN ES   2    5 3  1.09                             122    0.72 4  207 294 
                                                                                
