 2014  317 0311 44.7 L   6.835 -73.136150.6  RSN  4 0.4 1.1LRSN                1
 GAP=136        0.93       6.1     4.7 11.9  0.1146E+01  0.7905E+01  0.1457E+01E
 Epicentro: LOS SANTOS - SANTANDER                                             3
 ACTION:UPD 14-04-09 23:18 OP:nd   STATUS:               ID:20140317031144 L   I
 OLDACT:REG 14-03-17 09:01 OP:mh   STATUS:               ID:20140317030817     3
 2014-03-17-0308-17M.COL___242                                                 6
 STAT SP IPHASW D HRMM SECON CODA AMPLIT PERI AZIMU VELO AIN AR TRES W  DIS CAZ7
 PAM  SZ EP        312  6.70                             153   -0.5310 73.8  41 
 PAM  SN ES   1    312 25.15                             153    0.35 7 73.8  41 
 PAM  SZ I         312 27.61         1.7 0.30            155           73.8  41 
 RUS  HZ EP        312  9.54                             144    0.3410  104 177 
 RUS  HN ES   1    312 28.35                             144    0.04 7  104 177 
 RUS  HZ I         312 28.98         1.8 0.16            148            104 177 
 PTB  HZ EP   1    312 12.44                             133    0.21 7  150 257 
 PTB  HN ES        312 33.19                             133   -0.51 9  150 257 
 PTB  HZ I         312 36.54         1.9 0.11            136            150 257 
 ZAR  HN ES        312 43.38                             123    0.44 9  204 291 
                                                                                
