 2010  817 0813 35.9 L   6.604 -73.428112.2  RSN  5 0.4 1.5LRSN                1
 GAP=102        0.80       4.8     8.2  7.8 -0.3797E+00 -0.1496E+01 -0.1313E+01E
 Epicentro: EL CARMEN DE CHUCURI - SANTANDER                                   3
 ACTION:UP  10-09-07 10:55 OP:vdl  STATUS:               ID:20100817081335 L   I
 2010-08-17-0808-09S.COL___111                                                 6
 STAT SP IPHASW D HRMM SECON CODA AMPLIT PERI AZIMU VELO SNR AR TRES W  DIS CAZ7
 BAR2 SZ EP        813 51.81                             165     0.210   27  93 
 BAR2 SZ ES   1    814  4.16                             165     0.3 7   27  93 
 BAR2 SZ I         814  5.45        47.3 0.59                            27  93 
 BRR  HN ES   1    814  6.15                             148    -0.2 7   64 331 
 BRR  HZ I         814 13.62         8.4 0.24                            64 331 
 RUS  HZ EP   1    813 55.12                             140    -0.3 7   87 154 
 RUS  HN ES   2    814 10.01                             140    -0.6 5   87 154 
 RUS  HZ I         814 14.97         1.7 0.79                            87 154 
 GUE  SZ EP        814  0.82                             123     0.2 9  147  22 
 GUE  SZ ES   2    814 19.02                             123    -0.9 5  147  22 
 RREF HN ES   2    814 47.85                             106     0.0 4  284 229 
                                                                                
