 2012 1117 0655 31.4 L   6.746 -73.176144.4  RSN  7 0.4 1.3LRSN                1
 GAP=135        0.82       4.5     4.8  7.2  0.2374E+01  0.6257E+01 -0.6832E+01E
 Epicentro: VILLANUEVA - SANTANDER                                             3
 ACTION:UPD 12-12-05 15:33 OP:}ep  STATUS:               ID:20121117065531 L   I
 2012-11-17-0650-00M.COL___233                                                 6
 STAT SP IPHASW D HRMM SECON CODA AMPLIT PERI AZIMU VELO AIN AR TRES W  DIS CAZ7
 BAR2 SZ EP   1    655 51.02                             173    0.24 7 17.0 182 
 BAR2 SZ ES   1    656  5.30                             173   -0.58 7 17.0 182 
 BAR2 SZ I         656  7.78         8.8 0.26                          17.0 182 
 BRR  HZ EP   1    655 52.97                             152    0.52 7 71.5 304 
 BRR  HN ES   1    656  9.67                             152    0.83 7 71.5 304 
 BRR  HZ I         656 14.55         2.1 0.18                          71.5 304 
 PAM  SZ EP   1    655 54.11                             148    0.19 7 84.1  39 
 PAM  SE ES   1    656 11.29                             148   -0.17 7 84.1  39 
 PAM  SZ I         656 12.33         3.0 0.22                          84.1  39 
 RUS  HZ EP   1    655 54.88                             145    0.24 7 94.9 174 
 RUS  HN ES   1    656 12.48                             145   -0.26 7 94.9 174 
 RUS  HZ I         656 14.27         2.8 0.32                          94.9 174 
 PTB  HZ EP   1    655 57.87                             132   -0.02 7  143 261 
 PTB  HN ES   1    656 18.13                             132   -0.40 7  143 261 
 PTB  HZ I         656 19.35         3.2 0.14                           143 261 
 ZAR  HN ES   1    656 28.89                             122    0.00 6  203 294 
 SML  HZ EP   1    656  7.77                             117   -0.66 6  248 337 
 SML  HE ES   1    656 36.94                             117   -0.35 6  248 337 
                                                                                
