 2012  117 0210 42.8 L   6.884 -73.213120.4  RSN  4 0.2 1.4LRSN                1
 GAP=238        0.54       6.9    10.7  5.3  0.6083E+02 -0.5206E+01  0.2864E+01E
 Epicentro: BETULIA - SANTANDER                                                3
 ACTION:UP  12-02-03 08:18 OP:REBC STATUS:               ID:20120117021042 L   I
 2012-01-17-0210-00M.COL___188                                                 6
 STAT SP IPHASW D HRMM SECON CODA AMPLIT PERI AZIMU VELO SNR AR TRES W  DIS CAZ7
 BAR2 SZ EP        210 59.97                             164     0.310   32 174 
 BAR2 SZ ES   1    211 12.55                             164    -0.3 7   32 174 
 BAR2 SZ I         211 14.51        10.4 0.25                            32 174 
 BRR  HZ EP        211  0.48                             152    -0.210   60 294 
 BRR  HE ES        211 14.63                             152     0.110   60 294 
 BRR  HZ I         211 16.08         5.3 0.18                            60 294 
 RUS  HZ EP   1    211  4.87                             135    -0.2 7  111 173 
 RUS  HE ES   1    211 22.49                             135     0.1 7  111 173 
 CHI  HZ EP   1    211 20.02                             111    -0.1 6  256 193 
                                                                                
