 2011  517 0646  6.7 L   6.806 -73.068143.5  RSN  5 0.1 1.6LRSN                1
 GAP=194        0.40       6.2     7.0  6.0  0.9995E+00 -0.2376E+02  0.1769E+01E
 Epicentro: LOS SANTOS - SANTANDER                                             3
 ACTION:UP  11-06-29 08:54 OP:tino STATUS:               ID:20110517064613dL   I
 2011-05-17-0644-32S.COL___141                                                 6
 STAT SP IPHASW D HRMM SECON CODA AMPLIT PERI AZIMU VELO SNR AR TRES W  DIS CAZ7
 BTL  SZ EP   1    646 26.20                             170     0.1 7   25 299 
 BTL  SZ ES   2    646 41.25                             170     0.0 5   25 299 
 BAR2 SZ EP        646 26.25                             169     0.110   27 208 
 GIR2 SZ EP   1    646 25.91                             166    -0.3 7   33 335 
 GIR2 SZ ES   2    646 41.19                             166    -0.2 5   33 335 
 BRR  HZ EP   1    646 27.91                             150    -0.2 7   79 295 
 BRR  HE ES   1    646 44.83                             150     0.1 7   79 295 
 BRR  HZ I         646 48.64         9.1 0.17                            79 295 
 GRA  SZ EP   1    646 31.67                             137     0.2 7  123  14 
 GRA  SZ I         646 33.11         5.3 0.24                           123  14 
                                                                                
