 2017 1117 0107 58.4 L   6.259 -73.581114.7  RSN  4 0.3 1.0LRSN                1
 GAP=122        0.82       5.7     3.4  8.8  0.3378E+00  0.1154E+02  0.6364E+01E
 Epicentro: LA PAZ - SANTANDER                                                 3
 ACTION:UPD 17-12-12 19:56 OP:rebc STATUS:               ID:20171117010758 L   I
 OLDACT:REG 17-11-17 13:17 OP:lv   STATUS:               ID:20171117005741     3
 2017-11-17-0058-00M.COL___480                                                 6
 STAT SP IPHASW D HRMM SECON CODA AMPLIT PERI AZIMU VELO AIN AR TRES W  DIS CAZ7
 BAR2 EZ EP        1 8 15.38                             152   -0.3710 57.4  50 
 BAR2 EZ ES        1 8 29.76                             152    0.4710 57.4  50 
 RUS  HZ EP        1 8 16.99                             147    0.2010 68.4 126 
 RUS  HN ES        1 8 30.83                             147   -0.3210 68.4 126 
 RUS  HZ I         1 8 34.32         1.7 0.42            148           68.4 126 
 PTB  HZ EP        1 8 18.77                             135    0.1010  102 288 
 PTB  HN ES        1 8 34.19                             135   -0.3010  102 288 
 PTB  HZ I         1 8 36.24         1.5 0.18            138            102 288 
 NOR  HZ EP   4    1 8 26.46                             121    1.92 0  162 242 
 NOR  HN ES        1 8 45.21                             121    0.26 9  162 242 
 NOR  HZ I         1 8 49.92         2.4 0.42            122            162 242 
                                                                                
