 2016 1117 0013 27.2 L   6.642 -73.108135.4  RSN  4 0.1 1.4LRSN                1
 GAP=235        0.40       5.3     2.2  4.9 -0.6242E+01 -0.1546E+01  0.1350E+02E
 Epicentro: CURITI - SANTANDER                                                 3
 ACTION:UPD 17-10-26 21:08 OP:lp   STATUS:               ID:20161117001327 L   I
 OLDACT:UP  16-11-17 13:06 OP:and  STATUS:               ID:20161117000744     3
 OLDACT:REG 16-11-17 12:22 OP:and  STATUS:               ID:20161117000744     3
 2016-11-17-0008-00M.COL___340                                                 6
 STAT SP IPHASW D HRMM SECON CODA AMPLIT PERI AZIMU VELO AIN AR TRES W  DIS CAZ7
 BRR  HZ EP        013 48.17                             146    0.1210 84.2 308 
 BRR  HN ES        014  4.35                             146    0.0210 84.2 308 
 PAM  EZ IP     C  013 49.22                             145    0.1210 89.3  30 
 PAM  EE ES        014  6.08                             145   -0.1210 89.3  30 
 PAM  EZ I         014 19.78         2.9 0.44            140           89.3  30 
 PTB  HZ EP        013 53.27                             129   -0.21 9  150 266 
 PTB  HN ES        014 14.08                             129    0.07 9  150 266 
 PTB  HZ I         014 16.23         3.1 0.12            133            150 266 
 ZAR  HN ES        014 25.79                             118   -0.04 8  215 296 
 ZAR  HZ I         014 33.52         3.3 0.15            120            215 296 
                                                                                
