 2011  517 0235 15.8 L   6.786 -73.088147.2  RSN  7 0.2 1.5LRSN                1
 GAP=145        0.44       2.5     4.8  4.6 -0.1465E+01 -0.2594E+01 -0.1502E+01E
 Epicentro: LOS SANTOS - SANTANDER                                             3
 ACTION:UP  11-06-29 08:53 OP:tino STATUS:               ID:20110517023515 L   I
 2011-05-17-0232-03S.COL___141                                                 6
 STAT SP IPHASW D HRMM SECON CODA AMPLIT PERI AZIMU VELO SNR AR TRES W  DIS CAZ7
 BAR2 SZ EP   1    235 35.31                             170    -0.3 7   24 206 
 BAR2 SZ ES   2    235 51.02                             170    -0.1 5   24 206 
 BAR2 SZ I         235 52.36         7.3 0.20                            24 206 
 BTL  SZ EP   1    235 35.89                             170     0.2 7   25 306 
 PAM  SZ EP   2    235 38.43                             152     0.4 5   75  35 
 PAM  SE ES   2    235 55.35                             152     0.0 5   75  35 
 BRR  HZ EP   1    235 37.30                             151    -0.2 7   78 297 
 BRR  HZ I         235 37.73        14.1 0.16                            78 297 
 BRR  HN ES   1    235 54.53                             151     0.1 7   78 297 
 RUS  HZ EP   1    235 39.71                             145     0.1 7   99 180 
 RUS  HZ I         235 40.33         1.9 0.38                            99 180 
 RUS  HE ES   1    235 58.15                             145     0.0 7   99 180 
 GRA  SZ EP   1    235 41.15                             137     0.0 7  125  14 
 GRA  SZ ES   1    236  0.88                             137    -0.1 7  125  14 
 GRA  SZ I         236  3.27         5.1 0.17                           125  14 
 OCA  SZ EP   1    235 44.54                             129     0.1 7  163 351 
 OCA  SZ I         235 50.05         5.5 0.44                           163 351 
                                                                                
