 2012  717 0305 20.1 L   6.748 -73.129142.2  RSN  5 0.4 1.4LRSN                1
 GAP=141        0.97       9.2     8.0 10.6  0.1209E+02  0.1545E+02  0.2075E+02E
 Epicentro: LOS SANTOS - SANTANDER                                             3
 ACTION:UPD 12-08-14 11:45 OP:ep   STATUS:               ID:20120717030520 L   I
 2012-07-17-0300-00M.COL___197                                                 6
 STAT SP IPHASW D HRMM SECON CODA AMPLIT PERI AZIMU VELO AIN AR TRES W  DIS CAZ7
 BAR2 SZ EP   1    3 5 39.36                             172     0.2 7   18 199 
 BAR2 SZ I         3 5 39.81         5.6 0.10            170             18 199 
 BAR2 SZ ES   1    3 5 53.46                             172    -0.6 7   18 199 
 BRR  HZ EP   1    3 5 41.37                             150     0.3 7   76 302 
 BRR  HZ I         3 5 41.80         8.7 0.11            149             76 302 
 BRR  HN ES   1    3 5 57.97                             150     0.5 7   76 302 
 PAM  SN ES   2    3 5 59.08                             149    -0.3 5   81  36 
 RUS  HZ EP   1    3 5 43.34                             145     0.3 7   95 177 
 RUS  HZ I         3 5 44.28         2.2 0.12            143             95 177 
 RUS  HN ES   2    3 6  1.49                             145     0.5 5   95 177 
 PTB  HZ EP   1    3 5 46.06                             131    -0.8 7  149 261 
 PTB  HN ES   1    3 6  7.72                             131     0.0 7  149 261 
 PTB  HZ I         3 6  9.36         2.5 0.14            129            149 261 
