 2014  317 0736 41.2 L   6.499 -73.556116.0  RSN  4 0.3 1.2LRSN                1
 GAP=136        0.66       3.1     5.0  7.0 -0.2519E+01  0.1581E+02 -0.1196E+02E
 Epicentro: SANTA HELENA DEL OPON - SANTANDER                                  3
 ACTION:UPD 14-04-09 23:18 OP:nd   STATUS:               ID:20140317073641 L   I
 OLDACT:REG 14-03-17 09:12 OP:mh   STATUS:               ID:20140317072806     3
 2014-03-17-0728-06M.COL___242                                                 6
 STAT SP IPHASW D HRMM SECON CODA AMPLIT PERI AZIMU VELO AIN AR TRES W  DIS CAZ7
 BAR2 SZ EP        736 58.01                             158    0.0210 42.6  76 
 BAR2 SZ ES        737 11.04                             158   -0.0110 42.6  76 
 BAR2 SZ I         737 12.15        12.4 0.22            159           42.6  76 
 RUS  HZ EP        737  1.33                             141    0.3710 85.1 142 
 RUS  HN ES        737 16.11                             141   -0.2310 85.1 142 
 RUS  HZ I         737 18.24         1.0 0.15            145           85.1 142 
 SPBC HN ES        737 18.96                             133   -0.0110  110 211 
 SML  HZ EP        737 17.84                             109   -0.52 8  261 347 
 SML  HN ES        737 47.58                             109    0.27 8  261 347 
 SML  HZ I         737 53.40         1.8 0.08            109            261 347 
                                                                                
