 2014  717 0457  7.8 L   6.839 -73.125150.0  RSN  7 0.5 1.6LRSN                1
 GAP=201        0.90       4.4     5.5  8.5 -0.5100E+01  0.1091E+02 -0.1275E+02E
 Epicentro: LOS SANTOS - SANTANDER                                             3
 ACTION:UPD 15-03-16 20:44 OP:nd   STATUS:               ID:20140717045707 L   I
 OLDACT:REG 14-07-17 12:49 OP:fm   STATUS:               ID:20140717044809     3
 2014-07-17-0448-09M.COL___260                                                 6
 STAT SP IPHASW D HRMM SECON CODA AMPLIT PERI AZIMU VELO AIN AR TRES W  DIS CAZ7
 BAR2 SZ EP        457 28.21                             169    0.1810 28.0 193 
 BAR2 SZ ES   1    457 43.83                             169    0.02 7 28.0 193 
 BAR2 SZ I         457 44.20         9.6 0.26            170           28.0 193 
 PTB  HZ EP   1    457 35.03                             132   -0.35 7  151 257 
 PTB  HN ES        457 56.41                             132   -0.49 9  151 257 
 PTB  HZ I         457 59.09         3.2 0.10            131            151 257 
 OCA  HZ EP   1    457 35.32                             131   -0.74 7  156 352 
 OCA  HN ES        457 58.15                             131    0.04 9  156 352 
 OCA  HZ I         458  2.27         4.1 0.22            130            156 352 
 ZAR  HZ EP        457 41.27                             123    0.71 9  205 291 
 ZAR  HN ES        458  6.36                             123    0.23 9  205 291 
 ZAR  HZ I         458  8.03         4.1 0.10            122            205 291 
 SML  HZ EP   1    457 44.54                             119    0.21 6  241 334 
 SML  HN ES        458 13.19                             119    0.35 8  241 334 
 SML  HZ I         458 17.39         4.0 0.10            118            241 334 
 HEL  HN ES   1    458 20.76                             115    0.37 6  275 255 
 HEL  HZ I         458 26.24         1.8 0.52            115            275 255 
 SJC  HZ EP   1    458  2.54                             106   -0.67 4  407 326 
 SJC  HN ES        458 45.61                             106   -0.83 6  407 326 
 SJC  HZ I         458 55.96         1.3 0.64            106            407 326 
                                                                                
