 2010 1017 0837 59.4 L   6.798 -73.068138.8  RSN  9 0.3 2.1LRSN                1
 GAP=167        0.57       3.4     6.5  5.5  0.6177E+01 -0.1038E+02  0.5373E+00E
 Epicentro: LOS SANTOS - SANTANDER                                             3
 ACTION:UP  11-02-18 11:10 OP:tino STATUS:               ID:20101017083759 L   I
 2010-10-17-0836-36S.COL___125                                                 6
 STAT SP IPHASW D HRMM SECON CODA AMPLIT PERI AZIMU VELO SNR AR TRES W  DIS CAZ7
 BAR2 SZ EP        838 18.30                             169     0.110   26 209 
 BAR2 SZ ES   2    838 32.76                             169    -0.2 5   26 209 
 BAR2 SZ I         838 38.13        27.3 0.76                            26 209 
 BRR  HZ EP   1    838 20.24                             148     0.0 7   79 296 
 BRR  HN ES        838 36.59                             148     0.110   79 296 
 BRR  HZ I         838 39.72        94.6 0.67                            79 296 
 RUS  HZ EP   1    838 22.41                             142     0.0 7  100 181 
 RUS  HN ES   1    838 40.22                             142    -0.1 7  100 181 
 GRA  SZ EP   1    838 24.18                             136     0.4 7  124  14 
 GRA  SZ I         838 27.88        10.6 0.67                           124  14 
 OCA  SZ ES   2    838 48.11                             127    -0.9 5  162 350 
 NOR  SZ EP   3    838 35.16                             116    -0.3 2  242 236 
 CHI  HZ EP   1    838 36.75                             115    -0.2 6  251 197 
 CHI  HZ I         838 37.57        13.4 0.66                           251 197 
 HEL  HZ EP   2    838 40.51                             112     0.4 4  280 256 
 HEL  HZ I         839 17.40         3.1 0.42                           280 256 
 PRA  HZ EP   2    838 52.71                             105    -0.4 3  396 211 
                                                                                
