 2016  217 0453 27.3 L   6.824 -73.195146.1  RSN  7 0.4 1.5LRSN                1
 GAP=129        0.94       4.2     5.1  6.5 -0.7276E+01  0.8135E+01  0.2232E+01E
 Epicentro: ZAPATOCA - SANTANDER                                               3
 ACTION:UPD 16-03-04 21:26 OP:rebc STATUS:               ID:20160217045327 L   I
 OLDACT:UP  16-02-17 16:48 OP:drio STATUS:               ID:20160217044750     3
 OLDACT:REG 16-02-17 12:47 OP:drio STATUS:               ID:20160217044750     3
 2016-02-17-0447-50M.COL___312                                                 6
 STAT SP IPHASW D HRMM SECON CODA AMPLIT PERI AZIMU VELO AIN AR TRES W  DIS CAZ7
 BAR2 EZ EP        453 47.01                             170   -0.0110 25.7 177 
 BAR2 EZ ES        454  2.85                             170    0.4510 25.7 177 
 BAR2 EZ I         454  4.91         8.6 0.30            170           25.7 177 
 BRR  HZ EP        453 47.39                             155   -0.7610 65.1 299 
 BRR  HE ES   4    454  6.12                             155    1.70 0 65.1 299 
 PAM  EZ EP        453 50.08                             150    0.4410 79.0  44 
 PAM  EE ES        454  6.89                             150   -0.1910 79.0  44 
 PAM  EZ I         454 10.35         4.5 0.52            155           79.0  44 
 RUS  HZ EP        453 51.17                             143   -0.1410  104 173 
 RUS  HE ES        454  9.80                             143   -0.2410  104 173 
 RUS  HZ I         454 11.00         3.5 0.36            146            104 173 
 PTB  HZ EP        453 54.25                             133    0.39 9  143 257 
 PTB  HN ES        454 14.79                             133    0.21 9  143 257 
 PTB  HZ I         454 22.07         2.7 0.44            134            143 257 
 SPBC HZ EP        453 55.86                             129    0.16 9  162 217 
 SPBC HN ES        454 17.38                             129   -0.48 9  162 217 
 SPBC HZ I         454 19.89         4.8 0.22            131            162 217 
 CHI  HZ EP        454  5.04                             117   -0.10 8  250 194 
 CHI  HE ES        454 35.04                             117    0.38 8  250 194 
 CHI  HZ I         454 39.91         1.8 0.30            120            250 194 
                                                                                
