 2015 1217 0429 46.4 L   6.860 -73.131149.1  RSN  7 0.3 1.6LRSN                1
 GAP=135        0.80       3.8     4.3  6.9 -0.1668E+01  0.1161E+02 -0.2428E+01E
 Epicentro: LOS SANTOS - SANTANDER                                             3
 ACTION:UPD 16-02-04 15:05 OP:cam  STATUS:               ID:20151217042946 L   I
 OLDACT:DUP 15-12-17 16:19 OP:cara STATUS:               ID:20151217042750d    3
 2015-12-17-0427-49M.COL___334                                                 6
 STAT SP IPHASW D HRMM SECON CODA AMPLIT PERI AZIMU VELO AIN AR TRES W  DIS CAZ7
 BRR  HZ EP        430  7.93                             154    0.0710 69.7 293 
 BRR  HN ES        430 24.75                             154    0.1710 69.7 293 
 BRR  HZ I         430 25.46         6.0 0.50            152           69.7 293 
 PAM  EZ EP        430  8.86                             153    0.2010 71.3  42 
 PAM  EN ES        430 25.88                             153   -0.1210 71.3  42 
 PAM  EZ I         430 26.74         6.2 0.20            155           71.3  42 
 RUS  HE ES        430 29.92                             143   -0.2210  107 177 
 RUS  HZ I         430 30.95         2.1 0.44            144            107 177 
 PTB  HZ EP        430 13.32                             132   -0.62 9  151 256 
 PTB  HN ES   4    430 34.19                             132   -1.21 0  151 256 
 PTB  HZ I         430 35.69         5.5 0.32            132            151 256 
 OCA  HE ES   4    430 34.90                             132   -1.34 0  154 352 
 OCA  HZ I         430 37.17         6.6 0.18            132            154 352 
 SPBC HN ES        430 39.05                             129    0.39 9  169 218 
 SPBC HZ I         430 42.01         4.6 0.10            129            169 218 
 ZAR  HZ EP        430 19.42                             123    0.42 9  203 290 
 ZAR  HE ES        430 44.13                             123   -0.28 9  203 290 
 ZAR  HZ I         430 49.63         6.6 0.26            123            203 290 
                                                                                
