 2013  817 0633  1.6 L   6.802 -73.129144.0  RSN 10 0.6 1.8LRSN 2.4WRSN        1
 SPEC AVERAGE  MO 12.7 ST  3.8 OM  1.3 f0 7.27 R0.3900 AL 0.00 WI 20.0 MW  2.4 3
 SPEC SD       MO  0.3 ST  6.6 OM  0.4 f0 6.11 R0.2602 AL      WI      MW  0.2 3
 GAP=138        1.39       4.8     5.2  8.7 -0.5741E+01  0.5870E+01 -0.1705E+01E
 Epicentro: LOS SANTOS - SANTANDER                                             3
 SPEC BAR2SH Z MO 12.9 ST0.238 OM  1.3 f0 3.04 R0.5112 AL-0.00 WI 20.0 MW  2.5 3
 SPEC BAR2SH Z T 63334 K 0.000 GD  145 VS 4.20 DE 3.20 Q0300.0 QA 0.60 VS 4.20 3
 SPEC BRR HH Z MO 12.5 ST  1.1 OM  0.9 f0 6.74 R0.2306 AL-0.00 WI 20.0 MW  2.3 3
 SPEC BRR HH Z T 63338 K 0.000 GD  161 VS 4.20 DE 3.20 Q0300.0 QA 0.60 VS 4.20 3
 SPEC PAM SH Z MO 13.1 ST0.093 OM  1.5 f0 1.84 R0.8446 AL-0.00 WI 20.0 MW  2.7 3
 SPEC PAM SH Z T 63339 K 0.000 GD  162 VS 4.20 DE 3.20 Q0300.0 QA 0.60 VS 4.20 3
 SPEC PTB HH Z MO 12.3 ST 18.4 OM  0.6 f0 19.7 R0.0789 AL-0.00 WI 20.0 MW  2.2 3
 SPEC PTB HH Z T 63347 K 0.000 GD  207 VS 4.20 DE 3.20 Q0300.0 QA 0.60 VS 4.20 3
 SPEC SPBCHH Z MO 12.4 ST  2.5 OM  0.7 f0 9.23 R0.1684 AL-0.00 WI 20.0 MW  2.2 3
 SPEC SPBCHH Z T 63349 K 0.000 GD  219 VS 4.20 DE 3.20 Q0300.0 QA 0.60 VS 4.20 3
 SPEC ZAR HH Z MO 13.1 ST0.422 OM  1.3 f0 3.07 R0.5062 AL-0.00 WI 20.0 MW  2.7 3
 SPEC ZAR HH Z T 63358 K 0.000 GD  251 VS 4.20 DE 3.20 Q0300.0 QA 0.60 VS 4.20 3
 SPECGUY2CHH Z MO 12.4 ST  1.1 OM  0.5 f0 7.29 R 0.213 AL-0.00 WI 20.0 MW  2.2 3
 SPECGUY2CHH Z T 63421 K       GD335.1 VS 4.20 DE 3.20 Q0300.0 QA 0.60 VS 4.20 3
 2013-08-17-0628-50M.COL___204                                                 6
 OLDACT:REG 13-08-17 08:31 OP:stll STATUS:               ID:20130817062850     3
 ACTION:UPD 14-01-14 09:04 OP:ep   STATUS:               ID:20130817063302 L   I
 OLDACT:UP  13-08-19 05:25 OP:CF   STATUS:               ID:20130817063302 L   3
 OLDACT:UP  13-08-17 14:04 OP:stll STATUS:               ID:20130817062850     3
 STAT SP IPHASW D HRMM SECON CODA AMPLIT PERI AZIMU VELO AIN AR TRES W  DIS CAZ7
 BAR2 SZ EP        633 21.09                             170    0.0810 24.0 194 
 BAR2 SZ I         633 42.47         6.8 0.48            164           24.0 194 
 BRR  HZ EP        633 23.08                             152    0.4610 72.7 298 
 BRR  HN ES        633 39.72                             152    0.6910 72.7 298 
 BRR  SZ I         633 54.38         7.2 1.80            139           72.7 298 
 PAM  SZ EP        633 24.04                             151    0.5210 76.0  39 
 PAM  SN ES        633 40.94                             151    0.3010 76.0  39 
 PAM  SZ I         633 42.76        15.7 0.44            142           76.0  39 
 RUS  HZ EP        633 25.69                             143    0.5310  101 177 
 RUS  HN ES        633 42.96                             143   -0.6010  101 177 
 RUS  SZ I         633 44.74         5.4 0.24            131            101 177 
 CAPV BZ EP        633 29.41                             132    0.70 9  148  37 
 CAPV BZ ES        633 48.96                             132   -0.91 9  148  37 
 PTB  HZ EP        633 28.79                             131    0.22 9  150 259 
 PTB  HN ES        633 48.98                             131   -0.64 9  150 259 
 PTB  SZ I         633 54.08         5.4 0.30            118            150 259 
 OCA  HZ EP        633 29.55                             129   -0.20 9  160 352 
 OCA  HN ES        633 51.07                             129   -0.65 9  160 352 
 OCA  SZ I         633 55.16         8.8 0.16            117            160 352 
 SPBC HZ EP        633 29.31                             128   -0.76 9  165 219 
 SPBC SZ I         633 57.63         6.9 0.56            115            165 219 
 ZAR  HZ EP        633 34.30                             122    0.23 8  206 292 
 ZAR  HN ES        633 59.55                             122    0.13 8  206 292 
 ZAR  SZ I         634  6.00         5.1 0.28            109            206 292 
 GUY2CHZ EP   4    633 47.38                             112    2.09 0  303 235 
 COD  HZ EP        633 49.02                             108   -0.85 6  348 354 
 COD  SZ I         634 51.96         6.3 2.20             99            348 354 
                                                                                
