 2011 1117 0521  5.5 L   6.814 -73.128139.8  RSN  6 0.3 1.8LRSN                1
 GAP=155        0.68       3.7     6.1  6.1 -0.5446E+01  0.3277E+01  0.2273E+01E
 Epicentro: LOS SANTOS - SANTANDER                                             3
 ACTION:UPD 12-07-13 16:10 OP:ep   STATUS:               ID:20111117052105 L   I
 2011-11-17-0519-31S.COL___179                                                 6
 STAT SP IPHASW D HRMM SECON CODA AMPLIT PERI AZIMU VELO AIN AR TRES W  DIS CAZ7
 BAR2 SZ EP   1    521 24.20                             169   -0.24 7 25.3 194 
 BAR2 SZ ES   1    521 38.87                             169   -0.36 7 25.3 194 
 BAR2 SZ I         521 41.75        13.2 0.46                          25.3 194 
 BRR  HZ EP        521 25.95                             151   -0.1010 72.2 297 
 BRR  HN ES   1    521 42.63                             151    0.53 7 72.2 297 
 BRR  HZ I         521 44.71        12.1 0.13                          72.2 297 
 PAM  SZ EP        521 27.17                             151    0.2510 74.9  39 
 PAM  SN ES   1    521 43.86                             151    0.22 7 74.9  39 
 OCA  SZ EP   1    521 33.40                             128    0.19 7  159 352 
 OCA  SZ ES   1    521 54.14                             128   -0.70 7  159 352 
 OCA  SZ I         521 58.15         9.4 0.16                           159 352 
 CHI  HZ EP   2    521 42.76                             116   -0.32 4  251 196 
 CHI  HN ES   1    522 12.42                             116    0.01 6  251 196 
 CHI  HZ I         522 19.69         3.8 0.33                           251 196 
 HEL  HZ EP   2    521 46.02                             113    0.36 4  274 256 
 HEL  HZ I         522 23.22         2.9 0.46                           274 256 
                                                                                
