 2015  417 0623 37.5 L   6.815 -73.182143.6  RSN  7 0.6 1.7LRSN                1
 GAP=179        1.40       5.2     7.3  9.2  0.8922E+01  0.3489E+01 -0.1515E+02E
 Epicentro: ZAPATOCA - SANTANDER                                               3
 ACTION:UPD 15-06-03 16:55 OP:cam  STATUS:               ID:20150417062337 L   I
 OLDACT:REG 15-04-17 13:07 OP:spq  STATUS:               ID:20150417061747     3
 2015-04-17-0617-47M.COL___275                                                 6
 STAT SP IPHASW D HRMM SECON CODA AMPLIT PERI AZIMU VELO AIN AR TRES W  DIS CAZ7
 BAR2 EZ EP        623 57.16                             170    0.2810 24.6 180 
 BAR2 EZ ES        624 11.68                             170   -0.3310 24.6 180 
 BAR2 EZ I         624 13.36         7.2 0.34            170           24.6 180 
 BRR  HZ EP        623 58.99                             154    0.8410 66.9 299 
 BRR  HZ I         623 59.28         9.0 0.12            150           66.9 299 
 BRR  HE ES        624 15.27                             154    0.9910 66.9 299 
 RUS  HZ EP        624  1.16                             143   -0.0110  103 174 
 RUS  HN ES        624 19.03                             143   -0.6110  103 174 
 RUS  HZ I         624 20.48         2.3 0.36            146            103 174 
 PTB  HZ EP        624  4.07                             132    0.13 9  144 258 
 PTB  HN ES        624 24.48                             132   -0.10 9  144 258 
 PTB  HZ I         624 32.51         6.7 0.30            131            144 258 
 OCA  HZ EP        624  4.98                             129   -0.45 9  158 355 
 OCA  HN ES        624 27.15                             129   -0.07 9  158 355 
 OCA  HZ I         624 31.95        10.8 0.16            130            158 355 
 ZAR  HZ EP        624  9.97                             122    0.64 9  200 292 
 ZAR  HN ES        624 33.10                             122   -1.08 9  200 292 
 ZAR  HZ I         624 40.75         3.5 0.60            122            200 292 
 SML  HZ EP        624 13.56                             117   -0.08 8  241 336 
 SML  HN ES        624 41.27                             117   -0.57 8  241 336 
 SML  HZ I         624 46.69         6.8 0.10            118            241 336 
                                                                                
