 2014 1217 0835 25.2 L   6.166 -74.057 92.5  RSN  7 0.3 1.2LRSN                1
 GAP= 80        0.69       2.2     2.4  5.5 -0.4873E+00 -0.1185E+01 -0.2212E+01E
 Epicentro: CIMITARRA - SANTANDER                                              3
 ACTION:UPD 15-02-10 17:04 OP:nd   STATUS:               ID:20141217083525 L   I
 OLDACT:REG 14-12-17 12:54 OP:spq  STATUS:               ID:20141217082736     3
 2014-12-17-0827-36M.COL___290                                                 6
 STAT SP IPHASW D HRMM SECON CODA AMPLIT PERI AZIMU VELO AIN AR TRES W  DIS CAZ7
 SPBC HZ EP        835 40.24                             146    0.3010 56.9 182 
 SPBC HE ES        835 51.76                             146    0.2910 56.9 182 
 SPBC HZ I         835 52.90        10.2 0.22            146           56.9 182 
 PTB  HZ EP        835 39.91                             144   -0.1710 60.4 313 
 PTB  HN ES        835 51.36                             144   -0.3710 60.4 313 
 PTB  HZ I         835 52.31         6.9 0.16            141           60.4 313 
 BAR2 EZ ES   1    835 59.60                             127    0.02 7  108  64 
 BAR2 EZ I         836  0.17         8.2 0.18            127            108  64 
 BRR  HZ EP        835 44.61                             126    0.1110  111  20 
 BRR  HN ES        835 59.80                             126    0.2210  111  20 
 BRR  HZ I         836  0.01         6.2 0.48            125            111  20 
 RUS  HZ EP        835 45.15                             126   -0.1110  112 106 
 RUS  HN ES   1    836  0.48                             126   -0.47 7  112 106 
 RUS  HZ I         836  2.08         1.2 0.28            127            112 106 
 NOR  HZ EP   1    835 44.10                             126   -0.58 7  112 233 
 NOR  HN ES        836  0.04                             126    0.1310  112 233 
 NOR  HZ I         836  3.40         2.2 0.14            124            112 233 
 ZAR  HZ EP   1    835 51.36                             114    0.35 7  171 329 
 ZAR  HN ES   1    836 11.25                             114    0.06 7  171 329 
 ZAR  HZ I         836 18.64         2.1 0.52            112            171 329 
                                                                                
