 2013 1117 0700 12.7 L   6.772 -73.148145.1  RSN  6 0.3 1.4LRSN                1
 GAP=137        0.91       4.3     4.5  6.2 -0.4853E+01  0.3838E+01  0.2790E+01E
 Epicentro: LOS SANTOS - SANTANDER                                             3
 ACTION:UPD 14-01-09 16:28 OP:ep   STATUS:               ID:20131117070012 L   I
 OLDACT:DUP 13-11-17 13:42 OP:stll STATUS:               ID:20131117065810d    3
 2013-11-17-0658-09M.COL___219                                                 6
 STAT SP IPHASW D HRMM SECON CODA AMPLIT PERI AZIMU VELO AIN AR TRES W  DIS CAZ7
 BAR2 SZ EP        7 0 32.05                             172   -0.1510 20.2 191 
 BAR2 SZ ES        7 0 47.61                             172    0.2010 20.2 191 
 BAR2 SZ I         7 0 48.31         8.3 0.28            169           20.2 191 
 BRR  HZ EP        7 0 34.04                             152    0.1810 72.5 301 
 BRR  HN ES        7 0 50.94                             152    0.5810 72.5 301 
 BRR  HZ I         7 0 51.28         4.4 0.32            152           72.5 301 
 PAM  SZ EP        7 0 34.99                             150   -0.0210 80.0  38 
 PAM  SZ I         7 0 35.31        11.6 0.20            153           80.0  38 
 PAM  SN ES        7 0 51.96                             150   -0.4410 80.0  38 
 RUS  HZ EP        7 0 36.04                             145   -0.1310 97.5 176 
 RUS  HN ES        7 0 54.62                             145    0.1410 97.5 176 
 RUS  HZ I         7 0 56.20         1.6 0.32            144           97.5 176 
 PTB  HZ EP        7 0 39.72                             132    0.18 9  147 260 
 PTB  HN ES        7 0 59.72                             132   -0.76 9  147 260 
 PTB  HZ I         7 1  1.93         2.5 0.42            132            147 260 
 SPBC HZ EP        7 0 41.28                             129    0.37 9  161 220 
 SPBC HN ES        7 1  2.71                             129   -0.20 9  161 220 
 SPBC HZ I         7 1  7.56         2.8 0.22            129            161 220 
                                                                                
