 2015  417 0136  7.0 L   6.778 -73.153148.8  RSN  6 0.4 1.4LRSN                1
 GAP=137        0.77       4.5     5.7  7.5  0.7898E+01 -0.6766E+01 -0.1115E+02E
 Epicentro: LOS SANTOS - SANTANDER                                             3
 ACTION:UPD 15-06-03 16:55 OP:cam  STATUS:               ID:20150417013607 L   I
 OLDACT:DUP 15-04-17 17:03 OP:spq  STATUS:               ID:20150417012749d    3
 OLDACT:REG 15-04-17 12:29 OP:spq  STATUS:               ID:20150417012748     3
 2015-04-17-0127-48M.COL___278                                                 6
 STAT SP IPHASW D HRMM SECON CODA AMPLIT PERI AZIMU VELO AIN AR TRES W  DIS CAZ7
 BAR2 EZ EP        136 26.85                             172   -0.0610 20.8 189 
 BAR2 EZ ES   1    136 41.91                             172   -0.56 7 20.8 189 
 BAR2 EZ I         136 43.11         8.6 0.22            169           20.8 189 
 BRR  HZ EP   1    136 28.83                             153    0.36 7 71.7 301 
 BRR  HN ES   1    136 46.01                             153    0.77 7 71.7 301 
 BRR  HZ I         136 51.12         5.3 0.22            150           71.7 301 
 PAM  SZ EP        136 29.74                             150    0.0910 79.8  39 
 RUS  HZ EP        136 30.90                             145    0.0510 98.2 175 
 RUS  HE ES        136 49.48                             145    0.0010 98.2 175 
 RUS  HZ I         136 50.70         3.4 0.24            148           98.2 175 
 PTB  HZ EP   1    136 33.99                             133   -0.08 7  146 260 
 PTB  HE ES   1    136 54.91                             133   -0.30 7  146 260 
 PTB  HZ I         137  0.27         2.3 0.30            132            146 260 
 SML  HN ES   1    137 12.19                             118   -0.63 6  246 336 
                                                                                
