 2014 1117 0838 26.9 L   6.754 -73.155143.7  RSN  7 0.6 1.7LRSN                1
 GAP=137        1.62       5.8     8.4 10.6 -0.1079E+02  0.1859E+02 -0.1698E+01E
 Epicentro: LOS SANTOS - SANTANDER                                             3
 ACTION:UPD 14-12-19 15:43 OP:nd   STATUS:               ID:20141117083826 L   I
 OLDACT:DUP 14-11-17 18:12 OP:stll STATUS:               ID:20141117082747d    3
 OLDACT:ARG 14-11-17 13:51 OP:stll STATUS:               ID:20141117082746     3
 2014-11-17-0827-46M.COL___274                                                 6
 STAT SP IPHASW D HRMM SECON CODA AMPLIT PERI AZIMU VELO AIN AR TRES W  DIS CAZ7
 BAR2 SZ EP        838 46.35                             172    0.1410 18.2 190 
 BAR2 SZ I         838 46.43        11.7 0.40            169           18.2 190 
 BAR2 SZ ES        839  0.81                             172   -0.4410 18.2 190 
 BRR  HZ EP        838 48.30                             152    0.3510 72.9 302 
 BRR  HE ES        839  4.84                             152    0.5010 72.9 302 
 BRR  HZ I         839  8.30        10.0 0.26            148           72.9 302 
 PAM  SE ES        839  5.95                             149   -0.6210 81.9  38 
 RUS  HZ EP        838 50.35                             145    0.2310 95.6 175 
 RUS  HN ES        839  8.44                             145    0.2310 95.6 175 
 RUS  HZ I         839  9.78         4.0 0.30            147           95.6 175 
 PTB  HZ EP        838 53.10                             132   -0.45 9  146 261 
 PTB  HN ES        839 13.41                             132   -0.91 9  146 261 
 PTB  HZ I         839 21.12         5.7 0.32            131            146 261 
 SPBC HZ EP        838 55.33                             129    0.50 9  159 220 
 SPBC HE ES        839 16.93                             129    0.33 9  159 220 
 SPBC HZ I         839 22.99         6.7 0.20            130            159 220 
 OCA  HZ EP        838 54.38                             128   -1.16 9  165 354 
 OCA  HN ES        839 19.15                             128    1.29 9  165 354 
 OCA  HZ I         839 21.70         7.2 0.28            130            165 354 
                                                                                
