 2010  917 0854 23.0 L   6.789 -73.073151.3  RSN  5 0.2 1.6LRSN                1
 GAP=173        0.57       6.8    13.7 10.7  0.7005E+02 -0.9744E+02 -0.4092E+02E
 Epicentro: LOS SANTOS - SANTANDER                                             3
 ACTION:UP  11-02-18 11:03 OP:tino STATUS:               ID:20100917085423 L   I
 2010-09-17-0850-44S.COL___118                                                 6
 STAT SP IPHASW D HRMM SECON CODA AMPLIT PERI AZIMU VELO SNR AR TRES W  DIS CAZ7
 BAR2 SZ EP        854 43.29                             170     0.010   25 209 
 BAR2 SZ I         855  2.10         8.3 0.35                            25 209 
 BTL  SZ EP        854 43.69                             170     0.410   26 304 
 BRR  HZ EP        854 45.04                             151    -0.110   79 297 
 BRR  HN ES   1    855  2.38                             151    -0.1 7   79 297 
 RUS  HZ EP        854 47.12                             145     0.010   99 181 
 RUS  HN ES   1    855  5.88                             145    -0.1 7   99 181 
 GUE  SZ EP   2    854 47.66                             140    -0.5 5  116   8 
                                                                                
