 2011  117 0502 30.3 L   6.785 -73.073146.3  RSN  4 0.2 1.3LRSN                1
 GAP=167        0.50       5.3    20.1  6.7 -0.9293E+02  0.4248E+02 -0.1120E+02E
 Epicentro: LOS SANTOS - SANTANDER                                             3
 ACTION:UP  11-02-08 08:41 OP:pat  STATUS:               ID:20110117050230 L   I
 2011-01-17-0458-02S.COL___135                                                 6
 STAT SP IPHASW D HRMM SECON CODA AMPLIT PERI AZIMU VELO SNR AR TRES W  DIS CAZ7
 BAR2 SZ EP   2    5 2 49.66                             170    -0.4 5   25 210 
 BAR2 SZ ES   2    5 3  5.77                             170     0.4 5   25 210 
 BAR2 SZ I         5 3  7.68         4.8 0.46                            25 210 
 RUS  HZ EP   1    5 2 54.15                             144     0.2 8   99 181 
 RUS  HN ES   1    5 3 12.30                             144    -0.1 8   99 181 
 RUS  HZ I         5 3 13.64         2.2 0.21                            99 181 
 GRA  SZ IP        5 2 55.70                             137     0.110  125  14 
 GRA  SZ I         5 2 56.95         3.1 0.33                           125  14 
 GRA  SZ ES   2    5 3 14.85                             137    -0.4 5  125  14 
 CHI  HZ EP   2    5 3  8.05                             117    -0.1 4  249 197 
 CHI  HZ I         5 3 10.39         1.1 0.32                           249 197 
 CHI  HN ES        5 3 37.53                             117    -0.1 8  249 197 
                                                                                
