 2010  917 0154  9.8 L   6.789 -73.085150.0  RSN  4 0.1 1.5LRSN                1
 GAP=171        0.36       5.3     9.6  8.0  0.3391E+02 -0.5240E+02 -0.2233E+02E
 Epicentro: LOS SANTOS - SANTANDER                                             3
 ACTION:UP  11-02-18 11:03 OP:tino STATUS:               ID:20100917015409 L   I
 2010-09-17-0151-05S.COL___118                                                 6
 STAT SP IPHASW D HRMM SECON CODA AMPLIT PERI AZIMU VELO SNR AR TRES W  DIS CAZ7
 BTL  SZ EP   1    154 30.15                             170     0.2 7   25 305 
 BRR  HZ EP        154 31.71                             151    -0.110   78 297 
 BRR  HZ I         154 32.00        10.1 0.17                            78 297 
 BRR  HE ES   1    154 48.98                             151     0.0 7   78 297 
 RUS  HZ EP   2    154 33.93                             145     0.1 5   99 180 
 RUS  HE ES   2    154 52.54                             145    -0.1 5   99 180 
 RUS  HZ I         154 53.73         2.9 0.43                            99 180 
 GUE  SZ EP   2    154 34.79                             140    -0.1 5  117   9 
                                                                                
