 2011  417 0323 42.8 L   6.735 -73.107144.7  RSN  6 0.3 1.9LRSN                1
 GAP=174        0.60       8.5     7.9  8.1 -0.4162E+02  0.7331E+01  0.2198E+01E
 Epicentro: JORDAN - SANTANDER                                                 3
 ACTION:UP  11-06-22 15:31 OP:REBC STATUS:               ID:20110417032342 L   I
 2011-04-17-0321-24S.COL___139                                                 6
 STAT SP IPHASW D HRMM SECON CODA AMPLIT PERI AZIMU VELO SNR AR TRES W  DIS CAZ7
 BAR2 SZ EP   1    324  2.25                             173     0.1 7   18 208 
 BAR2 SZ I         324  2.41        11.3 0.16                            18 208 
 BAR2 SZ ES   2    324 16.68                             173    -0.6 5   18 208 
 GIR2 SZ EP   1    324  2.43                             164    -0.1 7   39 346 
 BRR  HZ EP   2    324  3.93                             150    -0.3 5   79 302 
 BRR  HZ I         324 20.32        50.2 0.16                            79 302 
 BRR  HN ES   2    324 21.31                             150     0.3 5   79 302 
 PAM  SZ EP   1    324  5.36                             149     0.3 7   81  34 
 PAM  SN ES   1    324 22.54                             149     0.1 7   81  34 
 OCA  SZ EP   2    324 11.12                             128    -0.6 5  168 352 
 OCA  SZ I         324 39.36         5.5 0.12                           168 352 
 NOR  SE ES   2    324 46.44                             118     0.3 4  234 237 
                                                                                
