 2016  417 0839 11.2 L   6.816 -73.145140.0  RSN 18 0.5 2.2LRSN                1
 GAP=119        0.89       3.1     3.8  5.8 -0.4518E+01  0.4972E+01 -0.1333E+01E
 Epicentro: LOS SANTOS - SANTANDER                                             3
 ACTION:UPD 16-05-05 14:22 OP:rebc STATUS:               ID:20160417083912dL   I
 OLDACT:UP  16-04-18 06:52 OP:dnl  STATUS:               ID:20160417083748     3
 OLDACT:REG 16-04-17 14:35 OP:ak   STATUS:               ID:20160417083748     3
 2016-04-17-0837-48M.COL___300                                                 6
 STAT SP IPHASW D HRMM SECON CODA AMPLIT PERI AZIMU VELO AIN AR TRES W  DIS CAZ7
 BAR2 EZ EP        839 30.26                             169    0.1210 25.1 189 
 BAR2 EZ ES   2    839 44.11                             169   -0.83 5 25.1 189 
 BAR2 EZ I         839 46.06        20.8 0.38            168           25.1 189 
 PAM  EZ EP        839 33.13                             150    0.4510 76.0  40 
 PAM  EN ES        839 49.84                             150    0.3710 76.0  40 
 PAM  EZ I         839 52.22        47.4 0.46            145           76.0  40 
 RUS  HZ EP        839 34.36                             142   -0.1210  102 176 
 RUS  HE ES        839 52.82                             142    0.1510  102 176 
 RUS  HZ I         839 54.44        12.7 0.40            139            102 176 
 PTB  HZ EP        839 37.13                             131   -0.57 9  148 258 
 PTB  HN ES        839 58.86                             131    0.45 9  148 258 
 PTB  HZ I         840  0.46        13.9 0.38            123            148 258 
 OCA  HZ EP        839 38.61                             129   -0.25 9  159 353 
 OCA  HN ES        840  0.17                             129   -0.30 9  159 353 
 OCA  HZ I         840  5.35        51.4 0.18            121            159 353 
 SPBC HZ EP        839 39.21                             128   -0.15 9  165 219 
 SPBC HE ES        840  0.84                             128   -0.52 9  165 219 
 SPBC HZ I         840  3.73        14.7 0.28            121            165 219 
 ZAR  HZ EP   2    839 43.66                             121    0.48 4  203 292 
 ZAR  HN ES   2    840  8.52                             121    0.38 4  203 292 
 ZAR  HZ I         840 14.09        15.2 0.28            114            203 292 
 NOR  HZ EP   4    839 50.67                             117    3.99 0  236 234 
 NOR  HE ES   2    840 14.15                             117   -0.23 4  236 234 
 NOR  HZ I         840 22.26         8.9 0.16            111            236 234 
 CHI  HZ EP   2    839 48.74                             116    0.00 4  250 195 
 CHI  HE ES   2    840 17.83                             116   -0.21 4  250 195 
 CHI  HZ I         840 21.02         5.7 0.28            111            250 195 
 ROSC BZ EP   4    839 50.58                             115    1.44 0  254 211 
 ROSC BN ES   4    840 19.98                             115    1.21 0  254 211 
 ROSC BZ I         840 26.59        13.1 0.50            110            254 211 
 HEL  HZ EP   2    839 51.80                             114    0.66 4  273 255 
 HEL  HE ES   2    840 21.87                             114   -0.46 4  273 255 
 HEL  HZ I         840 27.38         5.3 0.30            108            273 255 
 URE  HZ EP   4    839 50.96                             113   -0.93 0  283 292 
 URE  HN ES   4    840 21.15                             113   -2.51 0  283 292 
 URE  HZ I         840 35.21        10.9 0.24            107            283 292 
 SOCV BZ EP   2    839 53.51                             111   -0.33 4  300  57 
 SOCV BE ES   4    840 24.92                             111   -2.20 0  300  57 
 GUY2CHZ EP        839 55.67                             111    1.04 7  302 235 
 GUY2CHN ES   2    840 29.47                             111    0.93 4  302 235 
 GUY2CHZ I         840 37.88         6.4 0.62                           302 235 
 PTGC HZ EP   4    839 53.59                             110   -1.36 0  310 159 
 PTGC HN ES   4    840 26.96                             110   -2.15 0  310 159 
 PTGC HZ I         840 31.68        14.3 0.40            107            310 159 
 LL6C HZ EP   4    839 55.21                             110   -1.21 0  323 358 
 LL6C HZ ES   4    840 29.00                             110   -2.72 0  323 358 
 CBOC HZ EP   2    839 58.29                             109    0.38 3  334 252 
 CBOC HE ES   2    840 33.27                             109   -1.11 3  334 252 
 CBOC HZ I         840 39.09         1.8 0.25            104            334 252 
 SDV  BZ EP        840  0.16                             107   -0.69 6  359  50 
 SDV  BN ES   4    840 37.25                             107   -2.36 0  359  50 
 SJC  HZ EP   4    840  4.96                             105   -1.41 0  408 327 
 SJC  HZ I         840 50.06         6.6 0.52            100            408 327 
 CRJC HZ EP   4    840 10.83                             103   -2.47 0  466   4 
 CRJC HN ES   4    840 55.79                             103   -5.97 0  466   4 
                                                                                
