 2014  317 0344  2.0 L   6.814 -73.131146.2  RSN 10 0.5 2.1LRSN                1
 GAP=138        1.03       3.1     4.5  7.4 -0.2310E+01  0.1050E+02  0.3031E+00E
 Epicentro: LOS SANTOS - SANTANDER                                             3
 ACTION:UPD 14-04-09 23:18 OP:nd   STATUS:               ID:20140317034402 L   I
 OLDACT:UP  14-03-17 13:27 OP:mher STATUS:               ID:20140317033807     3
 OLDACT:UP  14-03-17 13:27 OP:mher STATUS:               ID:20140317033807     3
 OLDACT:REG 14-03-17 09:02 OP:mh   STATUS:               ID:20140317033807     3
 2014-03-17-0338-07M.COL___248                                                 6
 STAT SP IPHASW D HRMM SECON CODA AMPLIT PERI AZIMU VELO AIN AR TRES W  DIS CAZ7
 PAM  SZ EP        344 24.84                             152    0.7410 75.2  39 
 PAM  SN ES        344 41.69                             152    0.3210 75.2  39 
 PAM  SZ  AMP      344 42.80       965.1 0.13                          75.2  39 
 RUS  HZ EP        344 25.99                             143    0.1210  102 177 
 RUS  HN ES        344 44.34                             143   -0.1710  102 177 
 RUS  HZ I         344 45.73         7.4 0.33            146            102 177 
 PTB  HZ EP        344 29.04                             132   -0.10 9  150 258 
 PTB  HN ES        344 50.20                             132   -0.14 9  150 258 
 PTB  HZ I         344 53.12        11.1 0.15            132            150 258 
 OCA  HZ EP        344 29.44                             130   -0.75 9  159 352 
 OCA  HN ES        344 51.47                             130   -0.73 9  159 352 
 OCA  HZ I         344 55.75        12.3 0.25            132            159 352 
 SPBC HZ EP   1    344 30.71                             129    0.00 7  165 219 
 SPBC HN ES   2    344 52.57                             129   -0.56 5  165 219 
 SPBC HZ I         344 56.95        10.8 0.26            130            165 219 
 ZAR  HZ EP        344 35.36                             122    0.82 9  205 292 
 ZAR  HN ES        345  0.42                             122    0.48 9  205 292 
 ZAR  HZ I         345  6.35         9.6 0.31            123            205 292 
 NOR  HZ EP        344 38.27                             118    0.31 8  237 234 
 NOR  HN ES   1    345  6.27                             118    0.24 6  237 234 
 NOR  HZ I         345 11.36         5.2 0.19            119            237 234 
 SML  HZ EP        344 38.36                             118   -0.18 8  243 335 
 SML  HN ES   2    345  6.73                             118   -0.34 4  243 335 
 SML  HZ I         345 10.19        20.7 0.05            119            243 335 
 CHI  HZ EP        344 39.45                             117   -0.45 8  251 195 
 CHI  HN ES   1    345  9.13                             117   -0.35 6  251 195 
 CHI  HZ I         345 13.73         2.0 0.14            119            251 195 
 GUY2CHZ EP   4    344 47.95                             112    2.11 0  303 235 
 GUY2CHN ES   1    345 19.67                             112   -0.40 5  303 235 
 GUY2CHZ I         345 29.64         3.2 0.37                           303 235 
 RREF HN ES   4    345 26.35                             111    1.76 0  324 229 
 SJC  HZ EP   4    344 55.72                             106   -1.78 0  409 327 
 SJC  HN ES   4    345 38.21                             106   -2.60 0  409 327 
                                                                                
