 2014 1217 0737 22.6 L   6.752 -73.169150.3  RSN  6 0.4 1.1LRSN                1
 GAP=136        0.84       6.2     5.3  6.9  0.1257E+02 -0.1121E+01 -0.4163E+01E
 Epicentro: LOS SANTOS - SANTANDER                                             3
 ACTION:UPD 15-02-10 17:04 OP:nd   STATUS:               ID:20141217073722 L   I
 OLDACT:DUP 14-12-17 16:59 OP:spq  STATUS:               ID:20141217072741d    3
 2014-12-17-0727-40M.COL___293                                                 6
 STAT SP IPHASW D HRMM SECON CODA AMPLIT PERI AZIMU VELO AIN AR TRES W  DIS CAZ7
 BAR2 EZ EP   1    737 42.43                             173   -0.22 7 17.7 185 
 BAR2 EZ ES   1    737 58.26                             173   -0.04 7 17.7 185 
 BAR2 EZ I         737 59.94         4.0 0.18            172           17.7 185 
 BRR  HZ EP        737 44.41                             153    0.1710 71.7 303 
 BRR  HN ES        738  1.35                             153    0.2110 71.7 303 
 BRR  HZ I         738  2.83         2.4 0.68            151           71.7 303 
 PAM  SZ EP   1    737 45.07                             150   -0.54 7 83.2  39 
 RUS  HZ EP        737 46.92                             146    0.5010 95.5 174 
 RUS  HE ES   1    738  5.03                             146    0.02 7 95.5 174 
 RUS  HZ I         738  6.08         1.7 0.20            148           95.5 174 
 PTB  HZ EP        737 49.09                             134   -0.51 9  144 261 
 PTB  HN ES        738 10.28                             134   -0.40 9  144 261 
 PTB  HZ I         738 14.33         1.1 0.36            133            144 261 
 ZAR  HZ EP   1    737 55.73                             123    0.45 6  204 294 
 ZAR  HN ES   1    738 21.22                             123    0.42 6  204 294 
 ZAR  HZ I         738 26.86         1.1 0.29            123            204 294 
                                                                                
