 2012 1117 0338 40.3 L   6.788 -73.157150.1  RSN  8 0.4 1.8LRSN                1
 GAP=136        0.76       3.6     5.1  6.0  0.8561E-01  0.5548E+01 -0.2562E+01E
 Epicentro: LOS SANTOS - SANTANDER                                             3
 ACTION:UPD 12-12-05 15:33 OP:}ep  STATUS:               ID:20121117033840 L   I
 2012-11-17-0336-44M.COL___213                                                 6
 STAT SP IPHASW D HRMM SECON CODA AMPLIT PERI AZIMU VELO AIN AR TRES W  DIS CAZ7
 BAR2 SZ EP   1    339  0.41                             171   -0.03 7 21.8 187 
 BAR2 SZ ES   1    339 15.61                             171   -0.53 7 21.8 187 
 BAR2 SZ I         339 17.40        24.4 0.38                          21.8 187 
 GIR2 SZ EP   1    339  0.56                             167    0.02 7 32.4 353 
 GIR2 SZ ES   1    339 16.39                             167    0.08 7 32.4 353 
 BRR  HZ EP   1    339  2.51                             153    0.60 7 70.8 300 
 BRR  HE ES   1    339 19.61                             153    0.85 7 70.8 300 
 BRR  HZ I         339 22.98         7.6 0.23                          70.8 300 
 PAM  SZ EP   1    339  3.42                             151    0.32 7 79.2  40 
 PAM  SE ES   1    339 20.82                             151   -0.05 7 79.2  40 
 PAM  SZ I         339 23.12        10.0 0.53                          79.2  40 
 RUS  HZ EP   1    339  4.53                             145    0.12 7 99.4 175 
 RUS  HN ES   1    339 22.97                             145   -0.24 7 99.4 175 
 RUS  HZ I         339 24.49         3.8 0.36                          99.4 175 
 PTB  HZ EP   1    339  7.49                             133   -0.02 7  146 259 
 PTB  HN ES   1    339 28.36                             133   -0.37 7  146 259 
 PTB  HZ I         339 34.37        11.3 0.38                           146 259 
 OCA  HN ES   1    339 31.24                             130   -0.27 7  161 354 
 SML  HZ EP   1    339 16.89                             118   -0.37 6  244 336 
 SML  HN ES   1    339 45.55                             118   -0.53 6  244 336 
                                                                                
