 2013  117 0553 33.5 L   6.758 -73.286139.2  RSN  5 0.2 1.3LRSN                1
 GAP=199        0.54       5.9     5.3  6.6  0.9933E+01  0.6866E+01 -0.7152E-03E
 Epicentro: ZAPATOCA - SANTANDER                                               3
 ACTION:UPD 13-02-15 09:14 OP:ep   STATUS:               ID:20130117055333 L   I
 2013-01-17-0550-00M.COL___241                                                 6
 STAT SP IPHASW D HRMM SECON CODA AMPLIT PERI AZIMU VELO AIN AR TRES W  DIS CAZ7
 BAR2 SZ EP   1    553 51.94                             171   -0.38 7 21.6 148 
 BAR2 SZ ES   1    554  6.89                             171   -0.10 7 21.6 148 
 BAR2 SZ I         554  8.10         7.2 0.26            169           21.6 148 
 BRR  HZ EP   1    553 53.76                             155    0.38 7 60.9 309 
 BRR  HE ES   4    554 10.80                             155    1.91 0 60.9 309 
 RUS  HN ES   1    554 14.58                             143    0.23 7 98.3 167 
 RUS  HZ I         554 15.99         2.5 0.36            143           98.3 167 
 PTB  HN ES   1    554 17.90                             134   -0.09 7  132 259 
 CHI  HZ EP   1    554  9.89                             117   -0.07 6  241 192 
                                                                                
