 2011  617 0020 56.1 L   6.778 -73.087149.1  RSN 12 0.3 2.1LRSN                1
 GAP=163        0.51       2.3     4.3  3.6 -0.4624E+01  0.2097E+01  0.4594E+00E
 Epicentro: LOS SANTOS - SANTANDER                                             3
 ACTION:UP  11-07-14 19:05 OP:ep   STATUS:               ID:20110617002056 L   I
 2011-06-17-0017-47S.COL___135                                                 6
 STAT SP IPHASW D HRMM SECON CODA AMPLIT PERI AZIMU VELO SNR AR TRES W  DIS CAZ7
 BAR2 SZ EP   1    021 15.92                             171    -0.2 7   23 207 
 BAR2 SZ ES   1    021 31.42                             171    -0.3 7   23 207 
 BAR2 SZ I         021 32.74        46.0 0.26                            23 207 
 BTL  SZ EP   1    021 16.20                             170     0.1 7   25 308 
 GIR2 SZ EP   1    021 16.06                             166    -0.2 7   35 340 
 GIR2 SZ ES   2    021 31.53                             166    -0.4 5   35 340 
 BRR  HZ IP     C  021 17.84                             151    -0.110   78 298 
 BRR  HZ I         021 18.10        45.3 0.14                            78 298 
 BRR  HN ES   1    021 35.43                             151     0.4 7   78 298 
 RUS  HZ EP   1    021 19.80                             145    -0.1 7   98 180 
 RUS  HZ I         021 20.66         8.0 0.23                            98 180 
 RUS  HN ES   1    021 38.81                             145     0.2 7   98 180 
 BRI  SZ EP   1    021 20.54                             142     0.3 7  109  17 
 BRI  SZ ES   1    021 39.24                             142     0.1 7  109  17 
 BRI  SZ I         021 45.78        10.5 0.75                           109  17 
 GRA  SZ IP        021 21.75                             138     0.110  126  14 
 GRA  SZ ES   2    021 41.95                             138     0.4 5  126  14 
 GRA  SZ I         021 43.06        15.8 0.39                           126  14 
 OCA  SZ EP   1    021 24.59                             130    -0.3 7  164 351 
 NOR  SZ EP   1    021 32.35                             119    -0.1 6  239 236 
 NOR  SN ES   2    022  0.30                             119    -0.5 4  239 236 
 CHI  HZ EP   2    021 34.00                             118     0.1 4  248 197 
 CHI  HN ES   1    022  3.62                             118     0.2 6  248 197 
 CHI  HZ I         022 12.89         6.4 0.31                           248 197 
 RREF HZ EP   1    021 42.75                             111     0.0 5  325 230 
 RREF HN ES   2    022 19.88                             111     0.7 3  325 230 
 RREF HZ I         022 28.46         7.9 0.29                           325 230 
 PRA  HZ EP   2    021 49.65                             107    -0.2 3  393 211 
 PRA  HN ES   2    022 31.76                             107     0.0 3  393 211 
                                                                                
