 2016  917 0343 10.2 L   6.823 -73.109142.0  RSN 14 0.6 2.2LRSN                1
 GAP=140        1.13       3.5     4.3  6.3 -0.2649E+01  0.7157E+01  0.2580E+01E
 Epicentro: LOS SANTOS - SANTANDER                                             3
 ACTION:UPD 17-08-17 21:13 OP:lp   STATUS:               ID:20160917034310 L   I
 OLDACT:UP  16-09-18 00:16 OP:and  STATUS:               ID:20160917033733     3
 OLDACT:UP  16-09-18 00:13 OP:and  STATUS:               ID:20160917033733     3
 OLDACT:REG 16-09-17 13:55 OP:and  STATUS:               ID:20160917033733     3
 2016-09-17-0338-00M.COL___366                                                 6
 STAT SP IPHASW D HRMM SECON CODA AMPLIT PERI AZIMU VELO AIN AR TRES W  DIS CAZ7
 BAR2 EZ EP        343 29.35                             169   -0.1310 26.8 198 
 BAR2 EZ ES        343 44.25                             169   -0.2410 26.8 198 
 BAR2 EZ I         343 45.55        18.3 0.21            165           26.8 198 
 PAM  EZ EP        343 32.27                             152    0.5010 72.8  38 
 PAM  EN ES        343 49.14                             152    0.5710 72.8  38 
 BRR  HZ EP        343 31.18                             151    0.0710 73.7 295 
 BRR  HZ ES        343 47.94                             151    0.5410 73.7 295 
 BRR  HE ES        343 48.04                                           73.7 295 
 BRR  HZ I         343 51.89        38.6 0.12            148           73.7 295 
 RUS  HZ EP        343 33.91                             142    0.1310  103 178 
 RUS  HN ES        343 51.94                             142   -0.2110  103 178 
 RUS  HZ I         343 53.41        15.2 0.32            142            103 178 
 PTB  HZ EP        343 36.40                             130   -0.90 9  152 258 
 PTB  HN ES        343 58.54                             130    0.12 9  152 258 
 PTB  HZ I         343 59.71        13.7 0.18            128            152 258 
 OCA  HZ EP        343 37.55                             129   -0.50 9  158 352 
 OCA  HE ES        343 59.15                             129   -0.61 9  158 352 
 OCA  HZ I         344  3.38        30.8 0.18            130            158 352 
 SPBC HZ EP        343 38.46                             127   -0.41 9  168 220 
 SPBC HN ES        344  0.51                             127   -0.71 9  168 220 
 SPBC HZ I         344  7.66        25.1 0.22            126            168 220 
 ZAR  HZ EP   2    343 43.06                             121    0.34 4  207 291 
 ZAR  HE ES        344  8.16                             121    0.09 8  207 291 
 ZAR  HZ I         344 13.12        22.1 0.26            120            207 291 
 CHI  HZ EP        343 48.17                             116    0.07 8  252 196 
 CHI  HN ES   2    344 17.16                             116   -0.49 4  252 196 
 CHI  HZ I         344 21.53         4.3 0.26            116            252 196 
 ROSC BZ EP   2    343 49.96                             116    1.35 4  257 212 
 ROSC BN ES   2    344 21.05                             116    2.50 4  257 212 
 ROSC BZ I         344 26.10        12.9 0.41            115            257 212 
 HEL  HZ EP   2    343 51.10                             114    0.34 4  277 255 
 HEL  HE ES   2    344 23.11                             114    0.74 4  277 255 
 HEL  HZ I         344 29.87         8.0 0.30            113            277 255 
 GUY2CHZ EP   2    343 54.93                             111    0.73 4  306 235 
 GUY2CHN ES        344 29.05                             111    0.54 7  306 235 
 GUY2CHZ I         344 36.86         9.1 0.46                           306 235 
 ELA  HZ EP   4    344  0.38                             109    2.92 0  334 230 
 ELA  HE ES   4    344 35.35                             109    1.04 0  334 230 
 ELA  HZ I         344 46.07         5.9 0.40            109            334 230 
 CBOC HZ EP   2    343 57.76                             109    0.24 3  338 252 
 CBOC HE ES        344 34.59                             109    0.18 7  338 252 
 CBOC HZ I         344 37.94         2.9 0.24            109            338 252 
                                                                                
