 2014 1117 0233 49.3 L   6.683 -74.085 28.8  RSN 12 0.7 2.3LRSN                1
 GAP= 63        1.91       4.8     4.1  7.2 -0.1057E+02 -0.1205E+02  0.1501E+02E
 Epicentro: PUERTO PARRA - SANTANDER                                           3
 ACTION:UPD 14-12-19 15:43 OP:nd   STATUS:               ID:20141117023349 L   I
 OLDACT:ARG 14-11-17 13:50 OP:stll STATUS:               ID:20141117022745     3
 2014-11-17-0227-45M.COL___283                                                 6
 STAT SP IPHASW D HRMM SECON CODA AMPLIT PERI AZIMU VELO AIN AR TRES W  DIS CAZ7
 PTB  HZ IP     C  233 57.54                             114   -0.0510 44.0 249 
 PTB  HN ES        234  3.49                             114   -0.5610 44.0 249 
 PTB  HZ I         234  4.39       334.4 0.16             95           44.0 249 
 BRR  HZ IP     D  233 59.91                             102   -0.1110 62.4  41 
 BRR  HE ES        234  7.86                             102   -0.5210 62.4  41 
 BRR  HZ I         234  8.78       110.3 0.10             94           62.4  41 
 BAR2 SZ IP     C  234  5.53                              61    0.2110  100  96 
 BAR2 SZ ES        234 16.89                              61   -0.9310  100  96 
 BAR2 SZ I         234 19.14       104.8 0.20             93            100  96 
 SPBC HZ EP        234  6.82                              61   -0.0410  114 179 
 SPBC HE ES        234 19.43                              61   -1.1110  114 179 
 SPBC HZ I         234 22.62        36.2 0.10             92            114 179 
 RUS  HZ EP        234 11.63                              61    0.90 9  141 128 
 RUS  HN ES        234 27.96                              61    0.51 9  141 128 
 RUS  HZ I         234 29.81       106.0 0.64             92            141 128 
 NOR  HZ EP        234 12.97                              61    1.51 9  151 215 
 NOR  HN ES        234 28.37                              61   -0.38 9  151 215 
 NOR  HZ I         234 33.11        13.0 0.18             92            151 215 
 PAM  SZ EP        234 15.39                              61    1.13 9  169  65 
 PAM  SN ES        234 33.99                              61    0.26 9  169  65 
 PAM  SZ I         234 36.10        58.0 0.52             56            169  65 
 HEL  HZ EP     D  234 14.60                              61    0.56 9  169 251 
 HEL  HE ES        234 32.58                              61   -0.75 9  169 251 
 HEL  HZ I         234 35.61        25.6 0.42             56            169 251 
 OCA  HZ EP        234 16.75                              61    0.10 9  192  26 
 OCA  HE ES        234 37.71                              61   -0.26 9  192  26 
 OCA  HZ I         234 53.10        14.3 0.24             56            192  26 
 DBB  SZ EP        234 22.04                              61   -0.28 8  238 279 
 DBB  SZ I         235  5.32        33.8 0.44             56            238 279 
 TOL  SE ES        234 55.89                              60    0.29 8  269 211 
 MON  HZ EP   9    234 30.93                              60    2.24 0  290 323 
 MON  HN ES        235  3.89                                    2.24 7  290 323 
 MON  HZ I         235 16.84         3.9 0.52             55            290 323 
                                                                                
