 2013  417 0044 18.1 L   6.816 -73.153152.9  RSN 18 0.4 2.9LRSN 3.1WRSN        1
 SPEC AVERAGE  MO 13.8 ST  1.7 OM  2.3 f0 2.61 R0.5966 AL 2.17 WI 17.5 MW  3.1 3
 SPEC SD       MO  0.3 ST  1.1 OM  0.4 f00.657 R0.1366 AL      WI      MW  0.2 3
 GAP= 65        0.89       2.8     2.8  4.5  0.1139E+01  0.4186E+01  0.2471E+01E
 Epicentro: LOS SANTOS - SANTANDER                                             3
 SPEC PRA HH Z MO 14.0 ST0.979 OM  2.0 f0 1.89 R0.7778 AL 1.88 WI 17.4 MW  3.3 3
 SPEC PRA HH Z T 04552 K 0.000 GD  421 VS 4.20 DE 3.20 Q0300.0 QA 0.60 VS 4.20 3
 SPEC DBB SH Z MO 14.2 ST  1.3 OM  2.2 f0 1.85 R0.7946 AL 2.09 WI 27.3 MW  3.4 3
 SPEC DBB SH Z T 04542 K 0.000 GD  370 VS 4.20 DE 3.20 Q0300.0 QA 0.60 VS 4.20 3
 SPEC URE HH Z MO 13.8 ST  3.9 OM  1.9 f0 3.54 R0.4153 AL 1.74 WI 22.4 MW  3.1 3
 SPEC URE HH Z T 04529 K 0.000 GD  320 VS 4.20 DE 3.20 Q0300.0 QA 0.60 VS 4.20 3
 SPEC HEL HH Z MO 13.9 ST  1.4 OM  2.0 f0 2.35 R0.6255 AL 2.47 WI 22.8 MW  3.2 3
 SPEC HEL HH Z T 04531 K 0.000 GD  312 VS 4.20 DE 3.20 Q0300.0 QA 0.60 VS 4.20 3
 SPEC ROSCBH Z MO 14.2 ST  2.3 OM  2.3 f0 2.24 R0.6562 AL 3.11 WI 19.4 MW  3.4 3
 SPEC ROSCBH Z T 04525 K 0.000 GD  296 VS 4.20 DE 3.20 Q0300.0 QA 0.60 VS 4.20 3
 SPEC YOP SH Z MO 13.7 ST0.699 OM  1.9 f0 2.21 R0.6652 AL 2.11 WI  9.1 MW  3.1 3
 SPEC YOP SH Z T 04512 K 0.000 GD  236 VS 4.20 DE 3.20 Q0300.0 QA 0.60 VS 4.20 3
 SPEC TAM HH Z MO 13.7 ST  1.4 OM  2.0 f0 2.62 R0.5611 AL 2.39 WI  7.4 MW  3.1 3
 SPEC TAM HH Z T 045 6 K 0.000 GD  218 VS 4.20 DE 3.20 Q0300.0 QA 0.60 VS 4.20 3
 SPEC PTB HH Z MO 13.7 ST  3.6 OM  2.0 f0 3.66 R0.4016 AL 2.63 WI  9.2 MW  3.1 3
 SPEC PTB HH Z T 045 6 K 0.000 GD  212 VS 4.20 DE 3.20 Q0300.0 QA 0.60 VS 4.20 3
 SPEC PAM SH Z MO 13.4 ST0.434 OM  1.8 f0 2.27 R0.6476 AL 1.72 WI 30.0 MW  2.9 3
 SPEC PAM SH Z T 04458 K 0.000 GD  170 VS 4.20 DE 3.20 Q0300.0 QA 0.60 VS 4.20 3
 SPEC GIR2SH Z MO 13.1 ST0.720 OM  1.5 f0 3.49 R0.4212 AL 1.55 WI 10.1 MW  2.7 3
 SPEC GIR2SH Z T 04453 K 0.000 GD  155 VS 4.20 DE 3.20 Q0300.0 QA 0.60 VS 4.20 3
 ACTION:UPD 13-05-22 14:38 OP:EP   STATUS:               ID:20130417004418 L   I
 2013-04-17-0040-00M.COL___250                                                 6
 STAT SP IPHASW D HRMM SECON CODA AMPLIT PERI AZIMU VELO AIN AR TRES W  DIS CAZ7
 GIR2 SZ EP        044 38.69                             169    0.0810 29.3 351 
 GIR2 SZ ES        044 54.40                             169   -0.1810 29.3 351 
 GIR2 SZ I         044 55.77        72.7 0.12            165           29.3 351 
 BRR  HZ EP        044 40.47                             154    0.4910 69.6 298 
 BRR  HN ES   1    044 57.81                             154    0.80 7 69.6 298 
 BRR  HZ I         045  1.85        70.1 0.10            149           69.6 298 
 PAM  SZ IP     C  044 41.34                             152    0.2710 76.5  41 
 PAM  SN ES        044 58.74                             152   -0.2210 76.5  41 
 PAM  SZ I         045  2.31        41.9 0.76            148           76.5  41 
 RUS  HZ IP     D  044 42.39                             145   -0.3410  102 176 
 RUS  HN ES   1    045  1.33                             145   -0.58 7  102 176 
 RUS  HZ I         045  2.91        82.9 0.36            142            102 176 
 PTB  HZ EP        044 45.18                             134   -0.47 9  147 258 
 PTB  HN ES   1    045  6.45                             134   -0.67 7  147 258 
 PTB  HZ I         045 12.42       123.0 0.42            129            147 258 
 TAM  HZ IP     C  044 46.73                             132    0.22 9  156 106 
 TAM  HZ I         045  7.46        49.3 0.32            128            156 106 
 TAM  HN ES   1    045  8.63                             132   -0.01 7  156 106 
 YOP  SZ EP        044 48.98                             127    0.08 9  181 153 
 YOP  SE ES   1    045 13.00                             127    0.11 7  181 153 
 YOP  SZ I         045 14.59        68.0 0.26            124            181 153 
 ZAR  HZ EP        044 51.22                             124    0.31 9  203 292 
 ZAR  HN ES   1    045 16.61                             124    0.14 6  203 292 
 ZAR  HZ I         045 23.42        82.0 0.42            119            203 292 
 NOR  HZ EP        044 54.28                             120   -0.05 8  235 234 
 NOR  HN ES   1    045 22.45                             120   -0.11 6  235 234 
 NOR  HZ I         045 26.85        91.2 0.20            116            235 234 
 SML  HZ EP        044 55.28                             119    0.32 8  242 335 
 SML  HN ES   1    045 23.89                             119    0.21 6  242 335 
 SML  HZ I         045 31.27        72.0 0.09            114            242 335 
 CHI  HZ EP        044 56.65                             118    0.24 8  250 195 
 CHI  HN ES   1    045 26.31                             118    0.06 6  250 195 
 CHI  HZ I         045 31.14        30.0 0.62            114            250 195 
 ROSC BZ EP   4    044 58.16                             118    1.38 0  254 211 
 ROSC BN ES   4    045 29.67                             118    2.75 0  254 211 
 ROSC BZ I         045 33.39        59.9 0.35            114            254 211 
 HEL  HZ EP        044 59.09                             116    0.41 8  272 255 
 HEL  HN ES   1    045 31.04                             116    0.73 6  272 255 
 HEL  HZ I         045 37.76        49.7 0.30            112            272 255 
 URE  HZ EP        044 58.45                             115   -0.95 7  282 292 
 URE  HZ I         045 42.82        49.7 0.28            111            282 292 
 DBB  SZ EP        045  5.94                             111    0.14 7  338 274 
 DBB  SZ ES        045 42.82                             111   -0.16 7  338 274 
 DBB  SZ I         045 46.92        35.8 0.78            107            338 274 
 PRA  HZ EP        045 12.12                             108    0.07 6  393 209 
 PRA  HN ES   1    045 54.43                             108    0.33 4  393 209 
 PRA  HZ I         045 59.69        29.3 0.28            104            393 209 
 SJC  HZ EP        045 12.30                             107   -1.41 6  407 327 
 SJC  HN ES   4    045 54.03                             107   -3.02 0  407 327 
 SJC  HZ I         045 58.82        12.9 0.44            103            407 327 
 SMAR HZ EP   1    045 23.48                             103   -0.49 3  495 346 
 SMAR HE ES   4    046 12.06                             103   -3.25 0  495 346 
 SMAR HZ I         046 14.28        23.3 0.18            100            495 346 
                                                                                
