 2012 1117 0429 28.1 L   6.815 -73.148148.0  RSN 23 0.5 3.6LRSN 3.8WRSN        1
 SPEC AVERAGE  MO 14.7 ST 15.7 OM  2.7 f0 2.70 R0.5457 AL 3.58 WI 24.7 MW  3.8 3
 SPEC SD       MO  0.1 ST  4.5 OM  0.5 f00.132 R0.0262 AL      WI      MW  0.1 3
 GAP= 70        0.89       2.5     3.1  4.7 -0.5151E+00  0.5315E+01  0.1923E+01E
 Epicentro: LOS SANTOS - SANTANDER                                             3
 SPEC COD HH Z MO 14.6 ST 13.5 OM  1.9 f0 2.81 R0.5231 AL 3.10 WI 30.1 MW  3.7 3
 SPEC COD HH Z T 43014 K 0.000 GD  377 VP 7.60 DE 3.20 Q0300.0 QA 0.60 VS 4.20 3
 SPEC HEL HH Z MO 14.7 ST 15.4 OM  2.0 f0 2.90 R0.5069 AL 4.47 WI 30.8 MW  3.7 3
 SPEC HEL HH Z T 430 7 K 0.000 GD  309 VP 7.60 DE 3.20 Q0300.0 QA 0.60 VS 4.20 3
 SPEC CHI HH Z MO 14.9 ST 21.7 OM  2.3 f0 2.64 R0.5568 AL 5.09 WI 26.6 MW  3.9 3
 SPEC CHI HH Z T 430 5 K 0.000 GD  290 VP 7.60 DE 3.20 Q0300.0 QA 0.60 VS 4.20 3
 SPEC BRR HH Z MO 14.6 ST  8.9 OM  2.2 f0 2.56 R0.5742 AL 2.55 WI 16.4 MW  3.7 3
 SPEC BRR HH Z T 42949 K 0.000 GD  163 VP 7.60 DE 3.20 Q0300.0 QA 0.60 VS 4.20 3
 SPEC TAM HH Z MO 14.9 ST 19.1 OM  2.4 f0 2.59 R0.5676 AL 2.68 WI 19.8 MW  3.9 3
 SPEC TAM HH Z T 42955 K 0.000 GD  215 VP 7.60 DE 3.20 Q0300.0 QA 0.60 VS 4.20 3
 ACTION:UPD 12-12-05 15:33 OP:}ep  STATUS:               ID:20121117042928 L   I
 2012-11-17-0427-39M.COL___209                                                 6
 STAT SP IPHASW D HRMM SECON CODA AMPLIT PERI AZIMU VELO AIN AR TRES W  DIS CAZ7
 BAR2 SZ EP        429 47.98                             170   -0.0110 24.9 189 
 BAR2 SZ ES   1    430  2.92                             170   -0.61 7 24.9 189 
 BAR2 SZ I         430  7.14      1179.5 0.46                          24.9 189 
 GIR2 SZ EP        429 48.03                             168    0.0810 29.6 350 
 GIR2 SZ ES   1    430  3.75                             168    0.28 7 29.6 350 
 BRR  HZ EP        429 49.82                             153    0.4310 70.2 297 
 BRR  HN ES   4    430  7.23                             153    1.20 0 70.2 297 
 BRR  HZ I         430 13.10       351.1 0.22                          70.2 297 
 PAM  SZ IP        429 50.76                             151    0.3210 76.3  40 
 PAM  SN ES        430  8.18                             151    0.2710 76.3  40 
 PAM  SZ I         430 10.36       618.9 0.48                          76.3  40 
 RUS  HZ IP     D  429 51.85                             144   -0.2910  102 176 
 RUS  HN ES   1    430 10.24                             144   -0.69 7  102 176 
 RUS  HZ I         430 13.34       432.7 0.48                           102 176 
 PTB  HZ EP   1    429 54.49                             132   -0.72 7  148 258 
 PTB  HN ES   1    430 15.90                             132   -0.49 7  148 258 
 PTB  HZ I         430 18.21       666.8 0.38                           148 258 
 TAM  HZ IP     C  429 56.14       339.3 0.36            131    0.17 9  156 106 
 TAM  HZ I         430 16.91       339.3 0.36                           156 106 
 TAM  HN ES   1    430 17.85                             131    0.10 7  156 106 
 OCA  HZ EP   1    429 56.20                             130   -0.18 7  159 353 
 OCA  HN ES   1    430 18.73                             130    0.25 7  159 353 
 ZAR  HZ EP        430  0.10                             123   -0.46 9  203 292 
 ZAR  HN ES   1    430 26.07                             123    0.16 6  203 292 
 ZAR  HZ I         430 33.17       524.3 0.48                           203 292 
 CTAB SZ EP   3    430  5.16                             119    1.09 2  231 210 
 SML  HZ EP   1    430  4.51                             118   -0.12 6  242 335 
 SML  HN ES   1    430 32.82                             118   -0.35 6  242 335 
 CHI  HZ EP        430  5.91                             117   -0.13 8  250 195 
 CHI  HN ES   1    430 35.05                             117   -0.62 6  250 195 
 CHI  HZ I         430 43.30       168.1 0.52                           250 195 
 ROSC BZ IP     D  430  7.51                             117    1.08 8  254 211 
 ROSC BN ES   4    430 40.50                             117    4.13 0  254 211 
 HEL  HZ EP        430  7.94                             115   -0.46 8  272 255 
 HEL  HN ES   1    430 40.53                             115    0.66 6  272 255 
 HEL  HZ I         430 46.23       209.0 0.28                           272 255 
 GUY  SZ EP   1    430 12.78                             112    0.67 5  304 235 
 GUY  SN ES   1    430 47.37                             112    0.90 5  304 235 
 GUY  SZ I         430 56.13       480.8 0.28                           304 235 
 VIL  SZ EP   1    430 10.85                             112   -0.90 5  305 191 
 VIL  SE ES   1    430 46.34                             112    0.51 5  305 191 
 VIL  SZ I         430 55.24       268.8 0.42                           305 191 
 RREF HZ EP   4    430 14.17                             111   -0.22 0  323 229 
 DBB  SZ EP   1    430 15.53                             110   -0.05 5  339 274 
 TOL  SZ EP   4    430 17.12                             110    0.61 0  344 224 
 COD  HZ EP   1    430 15.47                             109   -0.86 5  347 355 
 COD  HN ES   1    430 53.67                             109   -0.31 5  347 355 
 COD  HZ I         431  0.64        76.8 0.54                           347 355 
 MON  HZ EP   4    430 15.00                             109   -2.00 0  352 308 
 MON  HE ES   4    430 53.90                             109   -1.28 0  352 308 
 ANIL HZ EP   1    430 18.83                             109    0.77 5  358 224 
 ANIL HN ES   1    430 57.66                             109    0.60 5  358 224 
 SDV  BZ EP   4    430 17.12                             109   -0.96 0  360  50 
 PRA  HZ EP   1    430 21.34                             107   -0.46 4  393 209 
 PRA  HN ES   1    431  3.38                             107   -0.35 4  393 209 
 PRA  HZ I         431  8.64       190.9 0.30                           393 209 
 PAL  HZ EP   1    430 23.59                             106    0.23 4  406 239 
 SJC  HZ EP   4    430 21.80                             106   -1.71 0  408 327 
 SJC  HE ES   4    431  3.18                             106   -3.59 0  408 327 
 SJC  HZ I         431  7.89        58.7 0.36                           408 327 
 SMAR HZ EP   1    430 33.58                             103   -0.20 3  495 346 
 SMAR HE ES   4    431 20.74                             103   -4.32 0  495 346 
                                                                                
