 2013 1117 0155  9.4 L   6.773 -73.152138.6  RSN  8 0.4 1.6LRSN                1
 GAP= 98        0.92       3.9     4.0  5.6 -0.2202E+01 -0.3636E+00  0.6563E+01E
 Epicentro: LOS SANTOS - SANTANDER                                             3
 ACTION:UPD 14-01-09 16:28 OP:ep   STATUS:               ID:20131117015509 L   I
 OLDACT:REG 13-11-17 08:56 OP:stll STATUS:               ID:20131117014806     3
 2013-11-17-0148-06M.COL___220                                                 6
 STAT SP IPHASW D HRMM SECON CODA AMPLIT PERI AZIMU VELO AIN AR TRES W  DIS CAZ7
 BAR2 SZ EP        155 28.21                             171    0.1410 20.2 190 
 BAR2 SZ I         155 28.31        16.4 0.40            168           20.2 190 
 BAR2 SZ ES        155 42.62                             171   -0.0410 20.2 190 
 BRR  HZ IP     C  155 30.08                             151    0.2910 72.1 301 
 BRR  HZ I         155 30.27         8.2 0.26            151           72.1 301 
 BRR  HN ES        155 46.20                             151    0.4710 72.1 301 
 PAM  SZ IP     C  155 31.19                             149    0.2010 80.2  39 
 PAM  SZ I         155 31.35         7.6 0.22            151           80.2  39 
 PAM  SN ES        155 47.25                             149   -0.6210 80.2  39 
 RUS  HZ EP        155 32.20                             143    0.0110 97.6 176 
 RUS  HZ I         155 33.03         3.0 0.10            141           97.6 176 
 RUS  HN ES        155 50.16                             143    0.1610 97.6 176 
 PTB  HZ EP        155 34.81                             131   -0.82 9  146 260 
 PTB  HN ES        155 56.02                             131   -0.11 9  146 260 
 PTB  HZ I         155 58.37         6.6 0.44            129            146 260 
 TAM  HZ EP        155 36.61                             129    0.14 9  155 104 
 SPBC HZ EP        155 37.24                             128    0.20 9  160 219 
 CHI  HZ EP        155 46.62                             116    0.30 8  246 195 
 CHI  HN ES        156 14.73                             116   -0.43 8  246 195 
 CHI  HZ I         156 22.34         1.6 0.32            115            246 195 
                                                                                
