 2017  417 0522 11.6 L   6.790 -73.121141.0  RSN  7 0.4 1.6LRSN                1
 GAP=140        1.00       4.1     4.2  6.3 -0.5631E+00  0.7254E+01  0.4055E+00E
 Epicentro: LOS SANTOS - SANTANDER                                             3
 ACTION:UPD 17-05-30 21:13 OP:jn   STATUS:               ID:20170417052211 L   I
 OLDACT:UP  17-04-17 16:53 OP:dani STATUS:               ID:20170417051744d    3
 OLDACT:DUP 17-04-17 16:51 OP:dani STATUS:               ID:20170417051744d    3
 OLDACT:UP  17-04-17 16:51 OP:dani STATUS:               ID:20170417051743     3
 OLDACT:REG 17-04-17 13:25 OP:dani STATUS:               ID:20170417051743     3
 2017-04-17-0518-00M.COL___362                                                 6
 STAT SP IPHASW D HRMM SECON CODA AMPLIT PERI AZIMU VELO AIN AR TRES W  DIS CAZ7
 BAR2 EZ EP        522 30.50                             170   -0.1410 22.9 197 
 BAR2 EZ ES        522 45.54                             170    0.0410 22.9 197 
 BAR2 EZ I         522 47.64        11.6 0.21            170           22.9 197 
 BRR  HZ EP        522 32.35                             151   -0.0510 74.1 298 
 BRR  HE ES        522 48.37                             151   -0.2610 74.1 298 
 BRR  HZ I         522 50.98         6.5 0.17            151           74.1 298 
 PAM  EZ EP        522 33.47                             150    0.2210 76.6  37 
 PAM  EN ES        522 50.27                             150    0.1210 76.6  37 
 PAM  EZ I         522 52.77         6.3 0.46            154           76.6  37 
 RUS  HZ EP        522 34.66                             143   -0.1310 99.3 178 
 RUS  HN ES        522 52.80                             143   -0.0710 99.3 178 
 RUS  HZ I         522 54.95         3.8 0.41            145           99.3 178 
 PTB  HZ EP        522 37.44                             130   -0.97 9  150 259 
 PTB  HN ES        522 59.47                             130    0.15 9  150 259 
 PTB  HZ I         523  0.34         4.8 0.18            131            150 259 
 SPBC HZ EP        522 39.73                             128   -0.09 9  164 220 
 SPBC HN ES        523  2.39                             128    0.56 9  164 220 
 SPBC HZ I         523  7.95         5.6 0.30            129            164 220 
 ZAR  HZ EP        522 44.95                             121    0.91 8  207 292 
 ZAR  HN ES        523  9.24                             121   -0.11 8  207 292 
 ZAR  HZ I         523 14.97         3.2 0.41            122            207 292 
                                                                                
