 2012  817 0739 22.3 L   6.182 -73.692114.8  RSN 13 0.5 3.0LRSN 3.2WRSN        1
 SPEC AVERAGE  MO 13.9 ST 19.2 OM  3.1 f0 5.12 R0.3065 AL 3.41 WI 19.2 MW  3.2 3
 SPEC SD       MO  0.2 ST 14.7 OM  0.9 f0 1.14 R0.0883 AL      WI      MW  0.2 3
 GAP= 57        1.05       3.3     3.5  9.2 -0.2859E+01 -0.9728E+01  0.1112E+02E
 Epicentro: LANDAZURI - SANTANDER                                              3
 SPEC ROSCBH Z MO 13.7 ST  2.1 OM  2.0 f0 3.21 R0.4579 AL 3.58 WI 14.8 MW  3.1 3
 SPEC ROSCBH Z T 74011 K 0.000 GD  200 VS 4.20 DE 3.00 Q0230.0 QA 0.60 VS 4.20 3
 SPEC CHI HH N MO 13.9 ST 17.7 OM  2.2 f0 5.51 R0.2668 AL 4.24 WI 23.4 MW  3.2 3
 SPEC CHI HH N T 740 9 K 0.000 GD  206 VS 4.20 DE 3.00 Q0230.0 QA 0.60 VS 4.20 3
 SPEC PTB HH N MO 13.6 ST 14.4 OM  2.1 f0 6.21 R0.2367 AL 3.21 WI 22.4 MW  3.0 3
 SPEC PTB HH N T 73954 K 0.000 GD  147 VS 4.20 DE 3.00 Q0230.0 QA 0.60 VS 4.20 3
 SPEC BRR HH N MO 14.3 ST 42.7 OM  2.7 f0 5.56 R0.2644 AL 2.62 WI 16.2 MW  3.4 3
 SPEC BRR HH N T 73957 K 0.000 GD  153 VS 4.20 DE 3.00 Q0230.0 QA 0.60 VS 4.20 3
 ACTION:UPD 12-09-10 11:56 OP:ep   STATUS:               ID:20120817073922 L   I
 2012-08-17-0737-48M.COL___149                                                 6
 STAT SP IPHASW D HRMM SECON CODA AMPLIT PERI AZIMU VELO AIN AR TRES W  DIS CAZ7
 BAR2 SZ IP     D  739 40.67                             145    0.0510 72.4  51 
 BAR2 SZ I         739 56.19      1107.7 0.41                          72.4  51 
 PTB  HZ EP        739 41.29                             138   -0.6010 93.3 295 
 PTB  HE ES        739 56.34                             138   -0.8310 93.3 295 
 PTB  HZ I         739 59.45        83.9 0.13                          93.3 295 
 BRR  HZ IP     C  739 42.78                             135    0.1510  102 359 
 BRR  HZ I         739 43.14       480.8 0.11                           102 359 
 BRR  HE ES        739 59.13                             135    0.6510  102 359 
 GIR2 SZ IP        739 43.98                             132    0.1710  113  29 
 GIR2 SZ ES   1    740  1.08                             132    0.50 7  113  29 
 NOR  SZ EP   1    739 46.94                             124    0.01 7  147 242 
 NOR  SN ES        740  6.22                             124    0.07 9  147 242 
 NOR  SZ I         740  8.34        92.8 0.20                           147 242 
 ROSC BZ EP   1    739 49.78                             121    0.68 7  164 205 
 ROSC BZ I         740 18.34        60.0 0.41                           164 205 
 YOP  SZ EP   1    739 49.15                             120   -0.01 7  168 123 
 YOP  SZ I         739 49.64       102.6 0.18                           168 123 
 YOP  SN ES   1    740 10.32                             120    0.22 7  168 123 
 PAM  SZ EP   1    739 49.69                             120   -0.03 7  169  41 
 PAM  SN ES        740 10.29                             120   -0.81 9  169  41 
 PAM  SZ I         740 15.07        45.5 0.23                           169  41 
 CHI  HZ EP   1    739 49.61                             120   -0.34 7  172 181 
 CHI  HZ I         739 50.69        62.3 0.19                           172 181 
 CHI  HN ES   1    740 11.95                             120    0.44 7  172 181 
 ZAR  HZ EP   1    739 52.16                             116    0.34 6  194 318 
 ZAR  HE ES   1    740 15.80                             116    0.95 6  194 318 
 ZAR  HZ I         740 17.26       176.4 0.24                           194 318 
 TAM  HZ EP   1    739 53.54                             113   -0.35 6  212  82 
 TAM  HZ I         740 17.04        95.8 0.09                           212  82 
 VIL  SZ EP   1    739 55.87                             112   -0.01 6  229 180 
 VIL  SZ I         740 26.89        78.2 0.58                           229 180 
 OCA  HZ EP   1    739 55.94                             111   -0.23 6  231  10 
 OCA  HZ I         740 28.57       121.5 0.19                           231  10 
                                                                                
