 2012  917 0411 12.1 L   6.751 -73.142141.6  RSN  7 0.5 1.8LRSN                1
 GAP=139        1.02       6.4     6.6  8.3 -0.2921E+00  0.1044E+02  0.1095E+02E
 Epicentro: LOS SANTOS - SANTANDER                                             3
 ACTION:UPD 12-10-22 14:19 OP:ep   STATUS:               ID:20120917041112 L   I
 2012-09-17-0410-00M.COL___227                                                 6
 STAT SP IPHASW D HRMM SECON CODA AMPLIT PERI AZIMU VELO AIN AR TRES W  DIS CAZ7
 BAR2 SZ EP        411 31.14                             172    0.0410 18.1 194 
 BAR2 SZ ES   1    411 45.51                             172   -0.44 7 18.1 194 
 BAR2 SZ I         411 48.81        31.5 0.32                          18.1 194 
 BRR  HZ EP        411 33.09                             151    0.1410 74.3 302 
 BRR  HN ES   1    411 50.03                             151    0.80 7 74.3 302 
 BRR  HZ I         411 51.39        14.5 0.26                          74.3 302 
 PAM  SZ EP   1    411 34.09                             149    0.00 7 81.4  37 
 PAM  SN ES   1    411 51.00                             149   -0.27 7 81.4  37 
 RUS  HZ EP        411 34.68                             144   -0.3410 95.2 176 
 RUS  HN ES   1    411 53.64                             144    0.72 7 95.2 176 
 PTB  HZ EP   1    411 38.04                             131   -0.61 7  147 261 
 PTB  HN ES   1    411 58.63                             131   -0.75 7  147 261 
 PTB  HZ I         412  3.61         6.2 0.44                           147 261 
 CHI  HZ EP   1    411 49.13                             117    0.15 6  244 196 
 CHI  HZ I         412 24.43         3.1 0.30                           244 196 
 HEL  HZ EP   1    411 52.96                             114    0.98 6  271 257 
 HEL  HZ I         412 31.00         4.2 0.26                           271 257 
                                                                                
