 2013  417 0823 31.5 L   6.878 -73.324121.7  RSN 12 0.4 1.9LRSN                1
 GAP= 53        0.88       3.2     3.3  6.1 -0.1220E+01  0.2491E+01  0.2308E+01E
 Epicentro: BETULIA - SANTANDER                                                3
 ACTION:UPD 13-05-22 14:39 OP:EP   STATUS:               ID:20130417082331 L   I
 2013-04-17-0820-00M.COL___250                                                 6
 STAT SP IPHASW D HRMM SECON CODA AMPLIT PERI AZIMU VELO AIN AR TRES W  DIS CAZ7
 GIR2 SZ IP     C  823 48.13                             167   -0.0110 26.5  33 
 GIR2 SZ I         824  1.87        22.9 0.21            162           26.5  33 
 BAR2 SZ EP     D  823 48.52                             163   -0.0510 35.3 154 
 BAR2 SZ I         824  2.76       181.9 0.28            150           35.3 154 
 BRR  HZ EP        823 48.86                             156    0.0310 49.8 301 
 BRR  HN ES   1    824  3.05                             156    0.67 7 49.8 301 
 BRR  HZ I         824  3.93        20.2 0.14            157           49.8 301 
 PAM  SZ EP        823 51.84                             143    0.0610 85.8  53 
 PAM  SN ES   1    824  8.24                             143    0.61 7 85.8  53 
 PAM  SZ I         824 10.20         9.5 0.28            133           85.8  53 
 RUS  HZ EP        823 53.94                             135    0.0310  112 166 
 RUS  HE ES   1    824 10.95                             135   -0.46 7  112 166 
 RUS  HZ I         824 12.64         8.5 0.34            123            112 166 
 PTB  HZ EP   3    823 53.77                             130   -1.16 2  131 253 
 PTB  HN ES   1    824 12.26                             130   -0.98 7  131 253 
 PTB  HZ I         824 15.50        13.7 0.18            123            131 253 
 OCA  HZ EP        823 56.67                             125   -0.37 9  151   0 
 OCA  HN ES   1    824 16.53                             125   -0.46 7  151   0 
 OCA  HZ I         824 17.91        13.3 0.22            119            151   0 
 TAM  HZ IP     C  823 59.45                             121   -0.10 9  176 106 
 TAM  HZ I         824 20.15         6.5 0.20            112            176 106 
 TAM  HN ES   1    824 21.35                             121   -0.10 7  176 106 
 ZAR  HN ES   4    824 23.84                             120    1.32 0  183 292 
 NOR  HZ EP        824  4.91                             114    0.14 8  224 230 
 NOR  HN ES   1    824 30.95                             114    0.21 6  224 230 
 NOR  HZ I         824 31.25         3.9 0.26            108            224 230 
 SML  HZ EP        824  5.00                             114   -0.11 8  228 339 
 SML  HE ES   4    824 33.41                             114    2.06 0  228 339 
 SML  HZ I         824 34.50        14.9 0.10            109            228 339 
 HEL  HZ EP        824  9.56                             111    0.90 8  255 253 
 HEL  HN ES   4    824 36.09                             111   -1.59 0  255 253 
 HEL  HZ I         824 42.72         4.6 0.32            106            255 253 
 PRA  HZ EP        824 24.27                             102    0.21 6  390 206 
 PRA  HN EP        825  6.63                                            390 206 
 PRA  HZ I         825 10.40         2.7 0.28             99            390 206 
                                                                                
