 2013  717 0556 33.6 L   6.829 -73.138147.9  RSN 12 0.5 2.1LRSN                1
 GAP=203        1.17       4.2     5.8  6.2 -0.3898E+01  0.9721E+01  0.2230E+01E
 Epicentro: LOS SANTOS - SANTANDER                                             3
 ACTION:UPD 13-08-12 10:38 OP:ep   STATUS:               ID:20130717055633 L   I
 OLDACT:REG 13-07-17 07:21 OP:nd.  STATUS:               ID:20130717054959     3
 2013-07-17-0549-59M.COL___267                                                 6
 STAT SP IPHASW D HRMM SECON CODA AMPLIT PERI AZIMU VELO AIN AR TRES W  DIS CAZ7
 BAR2 SZ EP        556 53.59                             169    0.0210 26.6 191 
 BAR2 SZ ES        557  8.57                             169   -0.5610 26.6 191 
 BAR2 SZ I         557 10.06        17.3 0.16            167           26.6 191 
 GIR2 SZ EP        556 53.49                             169    0.0310 28.3 347 
 GIR2 SZ ES        557  9.53                             169    0.5910 28.3 347 
 GIR2 SZ I         557  9.94        18.9 0.10            165           28.3 347 
 BRR  HZ EP     D  556 55.37                             153    0.4210 70.5 296 
 BRR  HN ES        557 12.32                             153    0.7210 70.5 296 
 BRR  HZ I         557 16.56        18.7 0.58            149           70.5 296 
 PTB  HZ EP        557  0.30                             132   -0.59 9  149 258 
 PTB  HN ES        557 21.44                             132   -0.72 9  149 258 
 PTB  HZ I         557 24.10        20.1 0.16            130            149 258 
 SPBC HZ EP        557  2.64                             129    0.08 9  166 219 
 SPBC HN ES        557 24.73                             129   -0.41 9  166 219 
 ZAR  HZ EP        557  6.34                             123    0.18 9  204 291 
 ZAR  HE ES        557 31.74                             123    0.19 9  204 291 
 ZAR  HZ I         557 39.08        12.8 0.28            122            204 291 
 NOR  HZ EP        557  9.84                             119    0.10 8  237 234 
 NOR  HN ES        557 37.51                             119   -0.41 8  237 234 
 NOR  HZ I         557 42.84         9.9 0.34            119            237 234 
 SML  HZ EP        557  9.95                             118   -0.14 8  241 335 
 SML  HN ES        557 37.57                             118   -0.97 8  241 335 
 SML  HZ I         557 40.20        16.0 0.32            119            241 335 
 HEL  HZ EP   2    557 15.47                             115    1.35 4  274 255 
 HEL  HN ES        557 46.38                             115    0.67 8  274 255 
 HEL  HZ I         557 54.56         6.5 0.26            115            274 255 
 GUY2CHZ EP   4    557 19.13                             113    1.52 0  304 234 
 GUY2CHN ES   4    557 53.75                             113    1.82 0  304 234 
 GUY2CHZ I         558  0.21         6.7 0.40                           304 234 
 PRA  HZ EP        557 27.82                             107    0.24 6  395 209 
 PRA  HN ES        558 10.24                             107    0.56 6  395 209 
 PRA  HZ I         558 14.36         4.7 0.24            108            395 209 
 SJC  HZ EP   4    557 27.79                             106   -1.20 0  407 327 
 SJC  HN ES   4    558  8.41                             106   -3.77 0  407 327 
 SJC  HZ I         558 12.13         2.2 0.44            107            407 327 
                                                                                
