 2011  217 0744  7.9 L   6.804 -73.077136.9  RSN  5 0.4 1.6LRSN                1
 GAP=166        0.91       4.4     9.8  9.5 -0.2027E+02  0.3590E+02 -0.1073E+02E
 Epicentro: LOS SANTOS - SANTANDER                                             3
 ACTION:UP  11-03-28 15:09 OP:jfem STATUS:               ID:20110217074407 L   I
 2011-02-17-0740-14S.COL___137                                                 6
 STAT SP IPHASW D HRMM SECON CODA AMPLIT PERI AZIMU VELO SNR AR TRES W  DIS CAZ7
 BAR2 SZ IP        744 26.46                             169     0.010   26 207 
 BAR2 SZ ES   1    744 41.08                             169     0.0 7   26 207 
 BAR2 SZ I         744 42.58        13.2 0.75                            26 207 
 RUS  HZ EP   1    744 30.56                             142    -0.2 7  101 180 
 RUS  HN ES   1    744 48.57                             142    -0.1 7  101 180 
 RUS  HZ I         744 50.56         5.3 0.25                           101 180 
 GRA  SZ EP   1    744 32.50                             135     0.4 7  123  14 
 GRA  SZ ES   1    744 51.29                             135     0.3 7  123  14 
 GRA  SZ I         744 53.10         6.3 0.34                           123  14 
 OCA  SZ EP   1    744 35.96                             127     0.4 7  161 350 
 OCA  SZ ES   1    744 56.41                             127    -0.8 7  161 350 
 OCA  SZ I         745  0.96         3.0 0.21                           161 350 
 NOR  SZ EP   1    744 43.15                             116    -0.7 6  241 236 
 NOR  SN ES   1    745 12.52                             116     0.6 6  241 236 
                                                                                
