 2013 1017 0819 54.0 L   6.804 -73.141147.0  RSN  6 0.3 1.5LRSN                1
 GAP=238        0.81       4.7     5.2  6.0  0.1062E+02  0.5710E+01  0.2184E+01E
 Epicentro: LOS SANTOS - SANTANDER                                             3
 ACTION:UPD 13-11-25 09:22 OP:ep   STATUS:               ID:20131017081954 L   I
 OLDACT:REG 13-10-17 08:51 OP:jn   STATUS:               ID:20131017081837     3
 2013-10-17-0818-37M.COL___223                                                 6
 STAT SP IPHASW D HRMM SECON CODA AMPLIT PERI AZIMU VELO AIN AR TRES W  DIS CAZ7
 BAR2 SZ EP        820 13.96                             170    0.1210 23.9 191 
 BAR2 SZ ES        820 28.96                             170   -0.3110 23.9 191 
 BAR2 SZ I         820 30.50         8.9 0.20            164           23.9 191 
 BRR  HZ EP        820 15.63                             153    0.2910 71.4 298 
 BRR  HN ES        820 32.19                             153    0.2410 71.4 298 
 BRR  HZ I         820 33.12         5.5 0.10            152           71.4 298 
 RUS  HZ EP        820 17.90                             144   -0.0510  101 176 
 RUS  HN ES        820 36.51                             144   -0.0810  101 176 
 RUS  HZ I         820 38.43         2.3 0.18            142            101 176 
 PTB  HZ EP        820 20.56                             132   -0.61 9  148 259 
 PTB  HN ES   1    820 41.72                             132   -0.60 7  148 259 
 PTB  HZ I         820 44.17         5.4 0.24            131            148 259 
 SPBC HZ EP        820 22.86                             129    0.16 9  164 219 
 SPBC HN ES        820 45.53                             129    0.48 9  164 219 
 SPBC HZ I         820 52.00         3.8 0.26            127            164 219 
 ZAR  HE ES        820 52.10                             122    0.11 9  204 292 
                                                                                
