 2017  917 0504 30.7 L   6.809 -73.101147.9  RSN 18 0.5 2.0LRSN                1
 GAP=163        1.13       3.2     4.6  6.3 -0.3868E+00  0.2093E+01 -0.1975E+00E
 Epicentro: LOS SANTOS - SANTANDER                                             3
 ACTION:UPD 17-10-05 19:13 OP:rebc STATUS:               ID:20170917050430 L   I
 OLDACT:REG 17-09-17 12:23 OP:lv   STATUS:               ID:20170917045640     3
 2017-09-17-0457-00M.COL___408                                                 6
 STAT SP IPHASW D HRMM SECON CODA AMPLIT PERI AZIMU VELO AIN AR TRES W  DIS CAZ7
 BAR2 EZ EP        5 4 50.79                             170    0.1910 25.6 200 
 BAR2 EZ I         5 5  7.40        14.7 0.19            165           25.6 200 
 BRR  HZ EP        5 4 52.62                             152    0.3510 75.1 296 
 BRR  HN ES        5 5  9.91                             152    0.7910 75.1 296 
 BRR  HZ I         5 5 13.71        17.0 0.12            153           75.1 296 
 RUS  HZ EP        5 4 55.03                             144    0.3410  101 179 
 RUS  HN ES        5 5 13.09                             144   -0.3310  101 179 
 RUS  HZ I         5 5 14.57         9.0 0.40            137            101 179 
 SPBC HZ EP        5 4 59.84                             129    0.14 9  167 220 
 SPBC HN ES        5 5 21.82                             129   -0.53 9  167 220 
 SPBC HZ I         5 5 28.20        17.0 0.18            124            167 220 
 ZAR  HZ EP        5 5  4.09                             122    0.41 8  208 291 
 ZAR  HN ES        5 5 28.09                             122   -1.34 8  208 291 
 ZAR  HZ I         5 5 34.49        17.2 0.54            119            208 291 
 CHI  HZ EP        5 5  8.90                             117    0.16 8  251 196 
 CHI  HE ES        5 5 37.90                             117   -0.53 8  251 196 
 CHI  HZ I         5 5 42.08         4.1 0.32            112            251 196 
 ROSC BZ EP   9    5 5 11.12                             117    1.84 0  256 212 
 ROSC BN ES        5 5 40.97                                   -0.27 8  256 212 
 ROSC BZ I         5 5 47.26        10.6 0.40            112            256 212 
 HEL  HZ EP        5 5 12.06                             115    0.51 7  277 256 
 HEL  HN ES        5 5 43.60                             115    0.17 7  277 256 
 HEL  HZ I         5 5 50.25         5.5 0.46            111            277 256 
 URE  HZ EP        5 5 11.33                             114   -0.98 7  288 291 
 URE  HN ES   4    5 5 41.90                             114   -2.89 0  288 291 
 URE  HZ I         5 5 43.75         9.9 0.14            110            288 291 
 GUY2CHZ EP   4    5 5 15.86                             112    0.96 0  306 235 
 GUY2CHN ES        5 5 49.78                             112    0.39 7  306 235 
 GUY2CHZ I         5 5 57.32         6.4 0.44                           306 235 
 PTGC HZ EP        5 5 13.78                             112   -0.76 7  308 160 
 PTGC HZ I         5 5 49.57         4.4 0.28            107            308 160 
 LL6C HZ EP        5 5 16.16                             111   -0.21 7  324 357 
 LL6C HN ES        5 5 51.61                             111   -0.41 7  324 357 
 ELA  HZ EP   4    5 5 16.83                             110   -1.29 0  334 230 
 ELA  HN ES        5 5 55.34                             110    0.22 7  334 230 
 ELA  HZ I         5 6  4.84         4.2 0.32            107            334 230 
 CBOC HZ EP        5 5 18.74                             110    0.50 7  339 252 
 CBOC HN ES        5 5 55.23                             110   -0.12 7  339 252 
 CBOC HZ I         5 5 59.47         1.3 0.28            106            339 252 
 DBB  EN ES   4    5 5 53.11                             110   -3.20 0  344 274 
 DBB  EZ I         5 5 56.73         3.6 0.22            106            344 274 
 PRA  HZ EP        5 5 24.63                             107   -0.03 6  395 210 
 PRA  HN ES        5 6  6.18                             107   -0.58 6  395 210 
 PRA  HZ I         5 6 14.84         4.1 0.34            103            395 210 
 ORTC HZ EP        5 5 25.49                             107    0.39 6  399 217 
 ORTC HN ES        5 6  8.28                             107    0.72 6  399 217 
 ORTC HZ I         5 6 13.96         3.2 0.20            103            399 217 
 PAL  HZ EP        5 5 26.68                             106    0.22 6  410 239 
 PAL  HZ I         5 6 13.56         1.9 0.26            103            410 239 
 SJC  HZ EP   4    5 5 24.61                             106   -1.91 0  411 326 
 SJC  HN ES   4    5 6  7.94                             106   -2.14 0  411 326 
                                                                                
