 2010 1117 0731 58.8 L   6.783 -73.071148.2  RSN  9 0.3 1.9LRSN                1
 GAP=167        0.63       2.9     5.2  5.0 -0.3283E+01  0.5111E+01  0.4587E+00E
 Epicentro: LOS SANTOS - SANTANDER                                             3
 ACTION:UP  10-12-17 16:53 OP:REBC STATUS:               ID:20101117073158 L   I
 2010-11-17-0728-14S.COL___127                                                 6
 STAT SP IPHASW D HRMM SECON CODA AMPLIT PERI AZIMU VELO SNR AR TRES W  DIS CAZ7
 BAR2 SZ IP        732 18.67                             170    -0.110   25 210 
 BAR2 SZ ES   1    732 34.43                             170     0.1 7   25 210 
 BAR2 SZ I         732 35.54        19.8 0.36                            25 210 
 BRR  HZ IP     D  732 20.57                             150    -0.110   79 297 
 BRR  HN ES   1    732 37.96                             150     0.2 7   79 297 
 BRR  HZ I         732 39.63        19.3 0.28                            79 297 
 RUS  HZ EP   1    732 22.65                             145     0.0 7   99 181 
 RUS  HE ES   1    732 41.19                             145    -0.1 7   99 181 
 RUS  HZ I         732 42.34         9.3 0.39                            99 181 
 GRA  SZ EP   1    732 24.55                             138     0.3 7  125  14 
 GRA  SZ ES   2    732 44.33                             138     0.3 5  125  14 
 GRA  SZ I         732 49.45         4.8 0.43                           125  14 
 OCA  SZ EP   1    732 27.36                             130    -0.2 7  163 350 
 OCA  SZ ES   1    732 49.79                             130    -0.3 7  163 350 
 OCA  SZ I         732 56.03         7.1 0.35                           163 350 
 NOR  SZ EP   2    732 34.56                             118    -0.8 4  241 236 
 NOR  SE ES   2    733  3.01                             118    -0.8 4  241 236 
 ROSC BZ EP   2    732 38.10                             117     0.7 4  256 213 
 ROSC BZ I         733 12.89         6.1 0.40                           256 213 
 HEL  HZ EP   1    732 40.53                             115     0.5 6  280 257 
 HEL  HE ES   2    733 12.59                             115     0.5 4  280 257 
 HEL  HZ I         733 17.28         3.2 0.34                           280 257 
 PRA  HZ EP   1    732 52.52                             107    -0.2 4  395 211 
 PRA  HN ES   1    733 34.92                             107     0.2 4  395 211 
 PRA  HZ I         733 37.99         9.2 0.34                           395 211 
                                                                                
