 2014  917 0442 31.9 L   6.824 -73.151146.1  RSN 20 0.5 2.6LRSN                1
 GAP=125        1.17       2.9     4.3  5.2 -0.4013E+01  0.5189E+01  0.1506E+01E
 Epicentro: LOS SANTOS - SANTANDER                                             3
 ACTION:UPD 14-10-03 23:05 OP:nd   STATUS:               ID:20140917044231 L   I
 OLDACT:REG 14-09-17 12:56 OP:carl STATUS:               ID:20140917043819     3
 2014-09-17-0438-19M.COL___257                                                 6
 STAT SP IPHASW D HRMM SECON CODA AMPLIT PERI AZIMU VELO AIN AR TRES W  DIS CAZ7
 BAR2 SZ IP     C  442 51.70                             169    0.0810 25.8 188 
 BAR2 SZ ES        443  6.15                             169   -0.8510 25.8 188 
 BAR2 SZ I         443  7.92       147.0 0.26            172           25.8 188 
 BRR  HZ EP        442 53.55                             153    0.5710 69.4 297 
 BRR  HN ES        443 10.33                             153    0.9010 69.4 297 
 BRR  HZ I         443 13.84        52.0 0.44            149           69.4 297 
 PAM  SZ EP        442 54.68                             151    0.6310 75.8  41 
 PAM  SN ES        443 11.66                             151    0.3310 75.8  41 
 PAM  SZ I         443 13.86        91.9 0.46            146           75.8  41 
 RUS  HZ EP        442 55.64                             143   -0.2310  103 176 
 RUS  HN ES        443 14.79                             143    0.2210  103 176 
 RUS  HZ I         443 15.48        43.3 0.26            142            103 176 
 PTB  HZ EP        442 58.31                             132   -0.57 9  148 258 
 PTB  HN ES        443 19.19                             132   -0.74 9  148 258 
 PTB  HZ I         443 21.43        38.4 0.14            129            148 258 
 OCA  HZ EP        442 59.58                             130   -0.40 9  158 353 
 OCA  HN ES        443 21.54                             130   -0.35 9  158 353 
 OCA  HZ I         443 30.11        33.5 0.20            125            158 353 
 SPBC HZ EP        443  0.45                             129   -0.12 9  165 218 
 SPBC HN ES        443 22.96                             129    0.01 9  165 218 
 SPBC HZ I         443 27.18        49.8 0.20            126            165 218 
 NOR  HZ EP        443  7.70                             118   -0.05 8  236 234 
 NOR  HN ES        443 36.25                             118    0.53 8  236 234 
 NOR  HZ I         443 43.60        30.6 0.14            116            236 234 
 SML  HZ EP        443  7.91                             118   -0.34 8  241 335 
 SML  HN ES        443 36.53                             118   -0.08 8  241 335 
 SML  HZ I         443 40.15        46.1 0.10            114            241 335 
 CHI  HZ EP        443  9.79                             117   -0.08 8  251 195 
 CHI  HN ES        443 39.42                             117   -0.07 8  251 195 
 CHI  HZ I         443 42.75        30.5 0.50            114            251 195 
 HEL  HZ EP        443 12.56                             115    0.43 8  272 255 
 HEL  HN ES        443 42.88                             115   -0.63 8  272 255 
 HEL  HZ I         443 49.68        23.0 0.28            112            272 255 
 GUY2CHZ EP        443 16.36                             112    0.73 7  302 234 
 GUY2CHN ES   4    443 49.99                             112    0.24 0  302 234 
 GUY2CHZ I         443 57.94        18.2 0.32                           302 234 
 PTGC HZ EP   4    443 14.77                             111   -1.29 0  311 159 
 PTGC HN ES   4    443 48.26                             111   -2.26 0  311 159 
 PTGC HZ I         443 50.07        22.9 0.28            109            311 159 
 CBOC HZ EP        443 20.01                             110    1.16 7  334 252 
 CBOC HN ES   4    443 54.62                             110   -0.85 0  334 252 
 TOL  SZ EP        443 20.04                             109   -0.29 7  345 224 
 TOL  SN ES        443 57.67                             109   -0.44 7  345 224 
 TOL  SZ I         444  5.21        41.8 0.54            107            345 224 
 MON  HZ EP   4    443 18.75                             109   -1.91 0  352 308 
 MON  HN ES   4    443 57.24                             109   -1.46 0  352 308 
 MON  HZ I         444 12.55         8.2 0.58            106            352 308 
 ANIL HZ EP   4    443 23.31                             108    1.43 0  359 224 
 ANIL HN ES   4    444  2.16                             108    1.30 0  359 224 
 SDV  BZ EP        443 21.19                             108   -0.62 6  359  51 
 SDV  BN ES   4    443 58.96                             108   -1.78 0  359  51 
 SDV  BZ I         444  1.92         7.7 0.35            105            359  51 
 PRA  HZ EP        443 25.65                             106   -0.00 6  394 209 
 PRA  HN ES        444  7.03                             106   -0.56 6  394 209 
 PRA  HZ I         444 11.97        17.7 0.54            104            394 209 
 ORTC HZ EP        443 25.88                             106   -0.15 6  397 216 
 ORTC HN ES        444  9.15                             106    0.90 6  397 216 
 ORTC HZ I         444 13.10        15.5 0.32            104            397 216 
 SJC  HZ EP   4    443 25.51                             106   -1.66 0  407 327 
 SJC  HN ES   4    444  7.06                             106   -3.22 0  407 327 
 SJC  HZ I         444 13.43         6.0 0.56            103            407 327 
                                                                                
