 2013 1217 0211  1.1 L   6.743 -73.169150.0  RSN  5 0.3 1.4LRSN                1
 GAP=230        0.57       3.5     4.9  5.1  0.6704E+01  0.1225E+01 -0.9448E-01E
 Epicentro: VILLANUEVA - SANTANDER                                             3
 ACTION:UPD 14-01-13 10:18 OP:ep   STATUS:               ID:20131217021101 L   I
 OLDACT:REG 13-12-17 06:29 OP:nd   STATUS:               ID:20131217021000     3
 2013-12-17-0210-00M.COL___285                                                 6
 STAT SP IPHASW D HRMM SECON CODA AMPLIT PERI AZIMU VELO AIN AR TRES W  DIS CAZ7
 BRR  HZ IP     D  211 22.74                             153   -0.0510 72.2 304 
 BRR  HN ES        211 39.73                             153    0.0410 72.2 304 
 BRR  HZ I         211 45.31         6.3 0.30            149           72.2 304 
 RUS  HZ EP        211 24.63                             146   -0.2510 94.6 174 
 RUS  HN ES        211 43.61                             146    0.2010 94.6 174 
 RUS  HZ I         211 46.25         1.7 0.44            151           94.6 174 
 PTB  HZ EP        211 27.83                             134   -0.29 9  144 261 
 PTB  HN ES   2    211 48.88                             134   -0.29 5  144 261 
 PTB  HZ I         211 54.48         4.5 0.30            133            144 261 
 SPBC HZ EP        211 29.64                             131    0.29 9  157 220 
 SPBC HN ES        211 51.30                             131   -0.07 9  157 220 
 SPBC HZ I         211 54.49         4.1 0.32            133            157 220 
 ZAR  HZ EP   2    211 34.60                             123    0.74 4  204 294 
 ZAR  HN ES   2    211 59.78                             123    0.39 4  204 294 
 ZAR  HZ I         212  9.68         3.1 0.38            124            204 294 
                                                                                
