 2011 1117 0559 43.6 L   6.776 -73.094151.1  RSN  4 0.2 1.4LRSN                1
 GAP=144        0.41       3.0     4.3  5.1  0.3466E+00  0.7494E+00  0.1538E+01E
 Epicentro: LOS SANTOS - SANTANDER                                             3
 ACTION:UPD 12-07-13 16:10 OP:ep   STATUS:               ID:20111117055943 L   I
 2011-11-17-0558-34S.COL___179                                                 6
 STAT SP IPHASW D HRMM SECON CODA AMPLIT PERI AZIMU VELO AIN AR TRES W  DIS CAZ7
 BAR2 SZ EP   1    6 0  3.69                             171   -0.17 7 22.6 206 
 BAR2 SZ I         6 0  4.26         4.2 0.18                          22.6 206 
 PAM  SZ EP   1    6 0  6.60                             152    0.29 7 76.0  35 
 PAM  SZ I         6 0  6.70         2.8 0.25                          76.0  35 
 PAM  SN ES   1    6 0 23.88                             152   -0.14 7 76.0  35 
 BRR  HZ EP        6 0  5.57                             151   -0.1210 77.5 298 
 BRR  HZ I         6 0  5.86        12.6 0.17                          77.5 298 
 BRR  HE ES   1    6 0 23.06                             151    0.15 7 77.5 298 
 RUS  HZ EP   1    6 0  7.72                             146    0.04 7 97.7 179 
 RUS  HZ I         6 0 26.48         4.2 0.60                          97.7 179 
 RUS  HN ES   1    6 0 26.50                             146    0.04 7 97.7 179 
                                                                                
