 2017  517 0959 27.2 L   6.886 -73.107157.9  RSN 22 0.5 3.0LRSN                1
 GAP=112        1.09       3.8     3.8  5.9 -0.2329E+00  0.1587E+01  0.7744E+01E
 Epicentro: PIEDECUESTA - SANTANDER                                            3
 ACTION:UPD 17-06-16 13:36 OP:jn   STATUS:               ID:20170517095927 L   I
 OLDACT:UP  17-05-17 16:29 OP:dnl  STATUS:               ID:20170517095633     3
 OLDACT:UP  17-05-17 16:29 OP:dnl  STATUS:               ID:20170517095633     3
 OLDACT:UP  17-05-17 16:28 OP:dnl  STATUS:               ID:20170517095633     3
 OLDACT:REG 17-05-17 16:21 OP:dnl  STATUS:               ID:20170517095633     3
 2017-05-17-0957-00M.COL___338                                                 6
 STAT SP IPHASW D HRMM SECON CODA AMPLIT PERI AZIMU VELO AIN AR TRES W  DIS CAZ7
 PAM  EZ IP     D  959 50.50                             156    0.3110 67.3  42 
 PAM  EN ES       10 0  7.93                             156   -0.1910 67.3  42 
 PAM  EZ I        10 0  8.37       205.4 0.22            166           67.3  42 
 BRR  HZ IP     C  959 49.94                             155    0.2710 71.2 290 
 BRR  HE ES       10 0  7.62                             155    0.4210 71.2 290 
 BRR  HZ I        10 0 12.51       126.1 0.18            153           71.2 290 
 PTB  HZ IP     C  959 54.98                             133   -0.75 9  154 256 
 PTB  HN ES       10 0 16.98                             133   -1.01 9  154 256 
 PTB  HZ I        10 0 18.68       185.0 0.40            132            154 256 
 SPBC HZ EP        959 57.57                             130   -0.02 9  173 218 
 SPBC HN ES       10 0 21.46                             130    0.17 9  173 218 
 SPBC HZ I        10 0 30.34       113.2 0.24            129            173 218 
 YPLC HZ IP     C  959 58.72                             128    0.21 9  183 154 
 YPLC HN ES   4   10 0 21.00                             128   -1.94 0  183 154 
 YPLC HZ I        10 0 24.83        91.8 0.30            129            183 154 
 ZAR  HZ EP       10 0  0.24                             125   -0.29 9  205 289 
 ZAR  HN ES       10 0 26.67                             125    0.14 9  205 289 
 ZAR  HZ I        10 0 33.72       142.3 0.44            126            205 289 
 NOR  HZ EP       10 0  4.58                             120   -0.03 8  244 233 
 NOR  HN ES       10 0 33.03                             120   -0.77 8  244 233 
 NOR  HZ I        10 0 40.48        70.3 0.24            120            244 233 
 CHI  HZ EP       10 0  6.68                             118   -0.01 8  259 196 
 CHI  HE ES       10 0 37.59                             118    0.09 8  259 196 
 CHI  HZ I        10 0 42.03        24.7 0.32            119            259 196 
 ROSC BZ EP   9   10 0  8.45                             118    1.33 0  263 211 
 ROSC BN ES       10 0 40.28                             117    0.69 8  263 211 
 ROSC BZ I        10 0 45.44        89.2 0.35            118            263 211 
 HEL  HZ EP   4   10 0 10.78                             117    2.00 0  279 254 
 HEL  HN ES       10 0 41.96                             117    0.75 7  279 254 
 HEL  HZ I        10 0 49.29        40.5 0.30            117            279 254 
 VIL  EZ EP       10 0 12.83                             113    0.50 7  314 192 
 VIL  EE ES       10 0 48.15                             113    0.62 7  314 192 
 VIL  EZ I        10 1  1.51        40.0 0.40            114            314 192 
 PTGC HZ EP       10 0 11.45                             113   -0.99 7  316 160 
 PTGC HN ES   4   10 0 45.35                             113   -2.39 0  316 160 
 PTGC HZ I        10 0 52.78        19.3 0.48            115            316 160 
 ELA  HZ EP   4   10 0 18.46                             112    2.80 0  339 229 
 ELA  HN ES   4   10 0 57.51                             112    4.05 0  339 229 
 ELA  HZ I        10 1  6.26        47.0 0.40            113            339 229 
 CBOC HZ EP       10 0 16.49                             112    1.05 7  341 251 
 CBOC HE ES   4   10 0 50.99                             112   -2.09 0  341 251 
 CBOC HZ I        10 1  0.97        16.7 0.36            113            341 251 
 DBB  EZ EP       10 0 15.55                             111   -0.06 7  343 273 
 DBB  EN ES   4   10 0 51.75                             111   -1.63 0  343 273 
 DBB  EZ I        10 0 56.57        30.8 0.40            113            343 273 
 ANIL HZ EP   4   10 0 20.01                             110    1.39 0  367 224 
 ANIL HE ES   4   10 1  2.83                             110    4.10 0  367 224 
 ANIL HZ I        10 1  9.50        70.4 0.34            111            367 224 
 APAC HZ EP       10 0 21.28                             108   -0.69 6  400 287 
 APAC HE ES       10 1  5.26                             108    0.56 6  400 287 
 APAC HZ I        10 1  8.59        47.3 0.42            110            400 287 
 SJC  HZ EP   4   10 0 21.49                             108   -1.05 0  404 326 
 SJC  HN ES   4   10 1  2.52                             108   -3.19 0  404 326 
 SJC  HZ I        10 1  5.83        24.4 0.50            111            404 326 
 ORTC HZ EP       10 0 22.85                             108    0.11 6  406 216 
 ORTC HE ES   4   10 1  7.76                             108    1.70 0  406 216 
 ORTC HZ I        10 1 11.11        23.5 0.40            109            406 216 
 PAL  HZ EP       10 0 24.02                             107    0.23 6  414 238 
 PAL  HN ES       10 1  8.18                             107    0.25 6  414 238 
 PAL  HZ I        10 1 14.04        18.7 0.42            108            414 238 
 YOT  HZ EP       10 0 31.35                             105   -0.37 5  481 228 
 YOT  HE ES   4   10 1 16.56                             105   -5.49 0  481 228 
 JAMC HZ EP   4   10 0 40.03                             102   -1.94 0  567 224 
 JAMC HE ES   4   10 1 34.47                             102   -5.83 0  567 224 
 JAMC HZ I        10 1 50.54         2.7 0.56            103            567 224 
                                                                                
