 2010  817 0445  1.0 L   6.767 -73.041137.2  RSN  7 0.2 1.2LRSN                1
 GAP=177        0.54       3.7     7.6  7.4  0.7015E+01 -0.2882E+02 -0.3475E+01E
 Epicentro: LOS SANTOS - SANTANDER                                             3
 ACTION:UP  10-09-07 10:55 OP:vdl  STATUS:               ID:20100817044501 L   I
 2010-08-17-0442-57S.COL___111                                                 6
 STAT SP IPHASW D HRMM SECON CODA AMPLIT PERI AZIMU VELO SNR AR TRES W  DIS CAZ7
 BAR2 SZ EP   1    445 19.50                             170    -0.1 7   25 219 
 BAR2 SZ I         445 36.59         5.6 0.78                            25 219 
 BTL  SZ EP        445 19.67                             167    -0.110   30 304 
 BTL  SZ ES   1    445 34.06                             167    -0.3 7   30 304 
 BRR  HN ES        445 38.54                             147     0.210   83 297 
 RUS  HN ES   1    445 41.40                             143     0.1 7   97 183 
 RUS  HZ I         445 43.13         2.3 0.30                            97 183 
 GUE  SZ EP   1    445 25.31                             137     0.2 7  118   6 
 GUE  SZ I         445 45.67         1.0 0.19                           118   6 
 CHI  HN ES   2    446  7.33                             115     0.1 4  248 198 
 CHI  HZ I         446  8.98         1.5 0.24                           248 198 
 RREF HN ES   3    446 23.25                             109    -0.6 2  328 231 
 RREF HZ I         446 28.70         1.4 0.25                           328 231 
                                                                                
