 2017  817 0100 22.4 L   6.793 -73.112145.3  RSN  4 0.4 1.3LRSN                1
 GAP=241        1.05       6.4     9.6  8.5  0.1329E+02  0.4287E+01  0.6919E+01E
 Epicentro: LOS SANTOS - SANTANDER                                             3
 ACTION:UPD 17-09-04 20:21 OP:rebc STATUS:               ID:20170817010022 L   I
 OLDACT:REG 17-08-17 12:22 OP:lv   STATUS:               ID:20170817005739     3
 2017-08-17-0058-00M.COL___413                                                 6
 STAT SP IPHASW D HRMM SECON CODA AMPLIT PERI AZIMU VELO AIN AR TRES W  DIS CAZ7
 BAR2 EZ EP        1 0 41.86                             170   -0.0810 23.6 199 
 BAR2 EZ ES        1 0 56.55                             170   -0.6610 23.6 199 
 BAR2 EZ I         1 0 58.35         4.7 0.16            166           23.6 199 
 BRR  HZ EP        1 0 43.79                             151    0.1210 74.8 298 
 BRR  HN ES        1 1  0.63                             151    0.3410 74.8 298 
 RUS  HZ EP        1 0 45.76                             144   -0.2410 99.7 178 
 RUS  HN ES        1 1  5.17                             144    0.7310 99.7 178 
 RUS  HZ I         1 1  5.64         2.3 0.38            142           99.7 178 
 SPBC HZ EP        1 0 51.05                             129    0.06 9  165 220 
 SPBC HN ES        1 1 12.99                             129   -0.34 9  165 220 
 SPBC HZ I         1 1 17.47         3.3 0.06            127            165 220 
                                                                                
