 2011  917 0353  9.9 L   6.774 -73.151147.5  RSN  9 0.3 2.1LRSN                1
 GAP=137        0.68       3.7     5.1  4.8 -0.9842E+00  0.4482E+01  0.3564E+00E
 Epicentro: LOS SANTOS - SANTANDER                                             3
 ACTION:UPD 12-07-13 15:57 OP:ep   STATUS:               ID:20110917035309 L   I
 2011-09-17-0340-00M.COL___173                                                 6
 STAT SP IPHASW D HRMM SECON CODA AMPLIT PERI AZIMU VELO AIN AR TRES W  DIS CAZ7
 BAR2 SZ IP        353 29.56                             172   -0.0910 20.4 190 
 BAR2 SZ I         353 29.89        30.2 0.10                          20.4 190 
 BAR2 SZ ES   1    353 44.71                             172   -0.37 7 20.4 190 
 BTL  SZ EP        353 29.83                             172    0.1710 20.6 321 
 GIR2 SZ EP        353 29.67                             166   -0.1510 34.0 352 
 GIR2 SZ ES   1    353 45.42                             166    0.04 7 34.0 352 
 BRR  HZ IP     D  353 31.49                             152    0.2310 72.2 301 
 BRR  HN ES   1    353 48.66                             152    0.72 7 72.2 301 
 BRR  HZ I         353 51.23        26.2 0.14                          72.2 301 
 PAM  SZ EP        353 32.45                             151    0.0310 80.0  39 
 PAM  SN ES   1    353 49.71                             151   -0.30 7 80.0  39 
 RUS  HZ EP        353 33.47                             145   -0.1210 97.7 176 
 RUS  HN ES   1    353 52.36                             145    0.27 7 97.7 176 
 RUS  HZ I         353 53.35         9.9 0.36                          97.7 176 
 OCA  SZ EP        353 38.50                             130   -0.08 9  163 353 
 OCA  SZ I         354  5.01        19.8 0.23                           163 353 
 ZAR  HN ES   2    354  6.77                             123   -1.16 4  205 293 
 ZAR  HZ I         354 15.49         8.6 0.36                           205 293 
 NOR  SZ EP        353 45.48                             119    0.00 8  233 235 
                                                                                
