 2011  917 0348 50.6 L   6.603 -73.328115.0  RSN  4 0.5 1.3LRSN                1
 GAP=162        0.82      15.1    24.0 19.1  0.3011E+03  0.7083E+02  0.1032E+03E
 Epicentro: HATO - SANTANDER                                                   3
 ACTION:UPD 12-07-13 15:57 OP:ep   STATUS:               ID:20110917034850 L   I
 2011-09-17-0340-00M.COL___173                                                 6
 STAT SP IPHASW D HRMM SECON CODA AMPLIT PERI AZIMU VELO AIN AR TRES W  DIS CAZ7
 BAR2 SZ EP        349  5.75                             175   -0.6010 16.1  94 
 GIR2 SZ EP   3    349  8.45                             156    0.78 2 54.7  16 
 GIR2 SZ ES   3    349 21.90                             156    0.90 2 54.7  16 
 BRR  HZ EP        349  8.58                             146    0.1610 70.1 323 
 BRR  HZ I         349  9.34         4.9 0.30                          70.1 323 
 BRR  HN ES   2    349 22.19                             146   -0.15 5 70.1 323 
 RUS  HZ EP        349 10.34                             141    0.3110 83.0 161 
 RUS  HN ES   3    349 26.29                             141    1.07 2 83.0 161 
                                                                                
