 2014  517 0544 18.5 L   6.786 -73.147142.9  RSN  5 0.3 1.4LRSN                1
 GAP=137        0.86       4.1     4.3  7.0 -0.4509E+01  0.2517E+01  0.5289E+01E
 Epicentro: LOS SANTOS - SANTANDER                                             3
 ACTION:UPD 15-03-16 16:58 OP:nd   STATUS:               ID:20140517054418 L   I
 OLDACT:DUP 14-05-17 16:32 OP:stll STATUS:               ID:20140517053809d    3
 2014-05-17-0538-07M.COL___242                                                 6
 STAT SP IPHASW D HRMM SECON CODA AMPLIT PERI AZIMU VELO AIN AR TRES W  DIS CAZ7
 BRR  HZ EP        544 39.53                             152    0.1410 71.9 300 
 BRR  HN ES        544 56.16                             152    0.4910 71.9 300 
 BRR  HZ I         544 59.24         6.0 0.22            151           71.9 300 
 PAM  SZ EP        544 40.56                             150    0.0610 78.7  39 
 PAM  SN ES        544 57.37                             150   -0.2810 78.7  39 
 PAM  SZ I         544 59.49         6.9 0.46            151           78.7  39 
 RUS  HZ EP        544 41.78                             144   -0.0810 99.0 176 
 RUS  HZ I         544 42.89         2.7 0.12            146           99.0 176 
 RUS  HE ES        545  0.07                             144   -0.0110 99.0 176 
 PTB  HZ EP        544 45.39                             131    0.18 9  147 259 
 PTB  HN ES        545  5.26                             131   -0.77 9  147 259 
 PTB  HZ I         545  8.67         3.2 0.12            132            147 259 
 SPBC HZ EP        544 46.56                             129   -0.10 9  162 219 
 SPBC HZ I         544 48.51         3.7 0.52            130            162 219 
 SPBC HN ES        545  8.96                             129    0.34 9  162 219 
                                                                                
