 2012  717 0058 39.7 L   6.811 -73.150142.3  RSN 18 0.4 2.7LRSN                1
 GAP= 65        0.73       2.4     2.6  4.5 -0.1717E+00  0.2673E+01  0.1571E+01E
 Epicentro: LOS SANTOS - SANTANDER                                             3
 SPEC SD       MO  0.1 ST  1.3 OM  1.9 f00.835 R0.0835 AL      WI      MW  0.1 3
 SPEC ROSCBH Z MO 13.8 ST  2.8 OM  2.0 f0 3.09 R0.4757 AL 4.40 WI 19.8 MW  3.2 3
 SPEC ROSCBH Z T 05945 K 0.000 GD  291 VS 4.20 DE 3.00 Q0230.0 QA 0.60 VS 4.20 3
 SPEC HEL HH Z MO 13.6 ST  5.4 OM  1.7 f0 4.76 R0.3088 AL 4.39 WI 20.4 MW  3.0 3
 SPEC HEL HH Z T 05952 K 0.000 GD  307 VS 4.20 DE 3.00 Q0230.0 QA 0.60 VS 4.20 3
 ACTION:UPD 12-08-14 11:45 OP:ep   STATUS:               ID:20120717005839 L   I
 2012-07-17-0057-48M.COL___214                                                 6
 STAT SP IPHASW D HRMM SECON CODA AMPLIT PERI AZIMU VELO AIN AR TRES W  DIS CAZ7
 BAR2 SZ EP        058 58.97                             170     0.110   24 189 
 BAR2 SZ ES   1    059 13.85                             170    -0.1 7   24 189 
 BAR2 SZ I         059 15.14       146.9 0.24            167             24 189 
 BRR  HZ IP     C  059  0.83                             152     0.510   70 298 
 BRR  HE ES   2    059 17.22                             152     0.7 5   70 298 
 BRR  HZ I         059 20.96        84.0 0.15            152             70 298 
 PAM  SZ EP        059  1.83                             150     0.410   77  40 
 PAM  SN ES   1    059 18.51                             150     0.0 7   77  40 
 RUS  HZ EP   1    059  3.02                             143    -0.1 7  102 176 
 RUS  HN ES   1    059 20.88                             143    -0.6 7  102 176 
 RUS  HZ I         059 22.57        69.0 0.24            143            102 176 
 PTB  HZ EP   1    059  5.65                             131    -0.7 7  148 258 
 PTB  HN ES   1    059 26.83                             131    -0.3 7  148 258 
 PTB  HZ I         059 29.26        40.7 0.28            131            148 258 
 TAM  HZ IP        059  7.30                             130     0.2 9  156 105 
 TAM  HZ I         059  7.74       111.8 0.25            133            156 105 
 TAM  HN ES   2    059 28.64                             130     0.1 5  156 105 
 OCA  HZ EP   1    059  7.05                             129    -0.5 7  159 353 
 OCA  HE ES   2    059 29.07                             129    -0.3 5  159 353 
 YOP  SZ EP   1    059  9.39                             125    -0.2 7  180 153 
 YOP  SE ES   1    059 32.99                             125     0.1 7  180 153 
 YOP  SZ I         059 36.71        41.3 0.39            127            180 153 
 ZAR  HZ EP   1    059 11.35                             122    -0.4 6  203 292 
 ZAR  HN ES   1    059 37.40                             122     0.6 6  203 292 
 ZAR  HZ I         059 43.84        66.1 0.25            123            203 292 
 NOR  SZ EP   1    059 15.39                             118     0.2 6  235 234 
 NOR  SN ES   1    059 42.54                             118    -0.4 6  235 234 
 CHI  HZ EP   1    059 17.21                             116    -0.1 6  250 195 
 CHI  HN ES   1    059 46.32                             116    -0.3 6  250 195 
 CHI  HZ I         059 49.96        22.8 0.51            117            250 195 
 ROSC BZ EP   1    059 18.34                             116     0.7 6  254 211 
 ROSC BE ES   1    059 47.87                             116     0.5 6  254 211 
 ROSC BZ I         059 55.73        47.2 0.33            117            254 211 
 HEL  HZ EP   1    059 19.62                             114    -0.1 6  272 256 
 HEL  HN ES   2    059 51.15                             114     0.3 4  272 256 
 HEL  HZ I         059 57.76        23.5 0.27            115            272 256 
 VIL  SZ EP   1    059 22.87                             111    -0.2 5  304 191 
 VIL  SE ES   2    059 56.37                             111    -0.5 4  304 191 
 VIL  SZ I         1 0  4.23        17.7 0.42            112            304 191 
 DBB  SZ EP   1    059 26.74                             109    -0.2 5  339 274 
 DBB  SZ ES   2    1 0  3.76                             109     0.0 3  339 274 
 TOL  SZ EP   1    059 28.11                             109     0.3 5  344 224 
 TOL  SZ ES   1    1 0  5.37                             109    -0.1 5  344 224 
 COD  HZ EP   2    059 27.09                             108    -0.7 3  347 355 
 COD  HN ES   2    1 0  4.54                             108    -0.7 3  347 355 
 PRA  HZ EP   1    059 33.46                             106     0.3 4  393 209 
 PRA  HE ES   2    1 0 14.61                             106    -0.3 3  393 209 
