 2012 1117 0203 14.6 L   6.801 -73.195133.7  RSN  4 0.2 1.1LRSN                1
 GAP=130        0.39       3.0     3.1  7.8  0.1929E+01 -0.2439E+01 -0.1536E+02E
 Epicentro: ZAPATOCA - SANTANDER                                               3
 ACTION:UPD 12-12-05 15:33 OP:}ep  STATUS:               ID:20121117020314 L   I
 2012-11-17-0200-00M.COL___233                                                 6
 STAT SP IPHASW D HRMM SECON CODA AMPLIT PERI AZIMU VELO AIN AR TRES W  DIS CAZ7
 PAM  SZ EP   1    2 3 35.85                             147    0.04 7 80.9  43 
 RUS  HZ EP   1    2 3 37.07                             141   -0.20 7  101 173 
 RUS  HN ES   1    2 3 55.01                             141    0.09 7  101 173 
 RUS  HZ I         2 3 56.68         1.4 0.22                           101 173 
 RUS  HN I         2 3 56.84         2.6 0.32                           101 173 
 PTB  HZ EP   1    2 3 40.44                             130    0.29 7  142 258 
 PTB  HN ES   1    2 3 59.90                             130   -0.15 7  142 258 
 PTB  HZ I         2 4  1.23         2.5 0.27                           142 258 
 SML  HZ EP   1    2 3 50.25                             115   -0.11 6  241 336 
 SML  HE ES   1    2 4 18.26                             115    0.03 6  241 336 
                                                                                
