 2017  217 0937 40.6 L   7.154 -73.393 48.2  RSN  6 0.3 1.4LRSN                1
 GAP=152        0.52       2.3     1.4  4.3  0.2218E+00 -0.1440E+00 -0.1854E+01E
 Epicentro: LEBRIJA - SANTANDER                                                3
 ACTION:UPD 17-05-24 15:37 OP:jn   STATUS:               ID:20170217093740 L   I
 OLDACT:UP  17-02-17 17:10 OP:cog  STATUS:               ID:20170217092743     3
 OLDACT:REG 17-02-17 13:51 OP:cog  STATUS:               ID:20170217092743     3
 2017-02-17-0928-00M.COL___324                                                 6
 STAT SP IPHASW D HRMM SECON CODA AMPLIT PERI AZIMU VELO AIN AR TRES W  DIS CAZ7
 BRR  HZ EP        937 49.45                             137    0.1310 35.6 262 
 BRR  HN ES        937 56.13                             137    0.0110 35.6 262 
 BRR  HZ I         937 57.21        26.2 0.12            127           35.6 262 
 BAR2 EZ EP        937 52.75                             116    0.0610 66.3 159 
 BAR2 EZ ES        938  1.98                             116   -0.1510 66.3 159 
 BAR2 EZ I         938  2.65        43.7 0.14            105           66.3 159 
 PAM  EZ EP        937 54.53                             111    0.0610 79.2  75 
 PAM  EE ES        938  5.25                             111   -0.0410 79.2  75 
 PAM  EZ I         938  5.92         8.3 0.14            102           79.2  75 
 PTB  HZ EP        938  0.87                              98    0.21 9  136 240 
 PTB  HN ES   3    938 15.86                              98   -0.46 2  136 240 
 PTB  HZ I         938 19.32         3.3 0.36             91            136 240 
 RUS  HZ EP   9    938  3.63                              98    1.43 0  144 166 
 RUS  HE ES        938 20.79                              93    0.31 9  144 166 
 RUS  HZ I         938 22.22         2.9 0.14             91            144 166 
 ZAR  HZ EP   3    938  5.51                              96    1.14 2  166 283 
 ZAR  HE ES        938 22.56                              96   -0.34 9  166 283 
 ZAR  HZ I         938 24.74         3.3 0.36             90            166 283 
                                                                                
