 2012  217 0732 21.8 L   6.802 -73.108148.7  RSN 21 0.4 2.9LRSN                1
 GAP=105        0.59       2.1     2.7  3.4 -0.1122E+01  0.1515E+01  0.1097E+01E
 ACTION:UP  12-03-07 16:31 OP:epov STATUS:               ID:20120217073221 L   I
 2012-02-17-0730-00M.COL___188                                                 6
 STAT SP IPHASW D HRMM SECON CODA AMPLIT PERI AZIMU VELO AIN AR TRES W  DIS CAZ7
 BAR2 SZ EP        732 41.77                             170    0.0110 24.6 200 
 BAR2 SZ ES   1    732 57.09                             170   -0.27 7 24.6 200 
 BAR2 SZ I         732 58.59       247.8 0.26                          24.6 200 
 GIR2 SZ EP   1    732 41.85                             167    0.06 7 32.1 343 
 GIR2 SZ ES   2    732 56.93                             167   -0.49 5 32.1 343 
 PAM  SZ EP        732 44.57                             152    0.4510 74.6  37 
 PAM  SN ES   1    733  1.63                             152    0.07 7 74.6  37 
 BRR  HZ IP     C  732 43.65                             152    0.2310 74.8 297 
 BRR  HZ I         732 43.98       235.4 0.19                          74.8 297 
 BRR  HN ES   1    733  1.10                             152    0.78 7 74.8 297 
 RUS  HZ EP   1    732 45.62                             144   -0.17 7  101 178 
 RUS  HN ES   1    733  4.34                             144   -0.20 7  101 178 
 RUS  HZ I         733  5.69        46.3 0.43                           101 178 
 PTB  HZ EP   1    732 48.58                             132   -0.75 7  152 259 
 PTB  HE ES   2    733 10.33                             132   -0.52 5  152 259 
 OCA  SZ EP   1    732 49.92                             130   -0.40 7  161 352 
 OCA  SZ ES   2    733 12.83                             130    0.22 5  161 352 
 YOP  SZ EP   1    732 51.83                             127   -0.02 7  177 155 
 YOP  SN ES   2    733 15.49                             127    0.17 4  177 155 
 ZAR  HZ EP   1    732 54.86                             123    0.08 6  208 292 
 ZAR  HE ES   2    733 20.05                             123   -0.49 4  208 292 
 ZAR  HZ I         733 26.83        73.2 0.37                           208 292 
 NOR  SZ EP   1    732 57.52                             119   -0.51 6  238 235 
 NOR  SN ES   2    733 26.04                             119   -0.29 4  238 235 
 CHI  HZ EP   1    732 59.80                             118    0.04 6  250 196 
 CHI  HN ES   1    733 29.27                             118   -0.13 6  250 196 
 CHI  HZ I         733 38.67        33.9 0.86                           250 196 
 ROSC BZ EP   2    733  0.45                             117    0.16 4  255 212 
 ROSC BN ES   2    733 30.73                             117    0.38 4  255 212 
 ROSC BZ I         733 39.91        65.0 0.59                           255 212 
 HEL  HZ EP   2    733  2.95                             115    0.38 4  276 256 
 HEL  HN ES   2    733 33.83                             115   -0.58 4  276 256 
 HEL  HZ I         733 40.42        33.6 0.33                           276 256 
 VIL  SZ EP   2    733  5.44                             113    0.01 4  304 192 
 VIL  SN ES   2    733 39.43                             113   -0.06 4  304 192 
 VIL  SZ I         733 49.67        26.1 0.50                           304 192 
 GUY  SZ EP   1    733  6.84                             112    0.68 5  307 235 
 GUY  SZ I         733 49.20        53.8 0.36                           307 235 
 RREF HZ EP   1    733  8.51                             111    0.11 5  325 230 
 RREF HN ES   2    733 45.08                             111    0.29 3  325 230 
 RREF HZ I         733 54.30        41.8 0.33                           325 230 
 TOL  SZ EP   2    733 11.23                             110    0.75 3  347 225 
 TOL  SZ ES   2    733 48.20                             110   -0.29 3  347 225 
 COD  HZ EP   2    733  9.53                             109   -0.74 3  348 354 
 COD  HN ES   2    733 48.06                             109   -0.05 3  348 354 
 COD  HZ I         733 54.76        46.1 0.46                           348 354 
 SDV  BZ EP   1    733 11.32                             109   -0.20 5  357  50 
 SDV  BN ES   2    733 49.75                             109   -0.59 3  357  50 
 SDV  BZ I         733 50.59         9.2 0.47                           357  50 
 PRA  HZ EP   1    733 15.53                             107   -0.11 4  394 210 
 PRA  HN ES   2    733 58.17                             107    0.50 3  394 210 
 SJA  SZ EP   2    733 16.67                             107    0.13 3  401 194 
                                                                                
