 2012 1017 0427 46.0 L   6.765 -73.141142.8  RSN  9 0.3 2.5LRSN                1
 GAP= 73        0.64       3.2     3.1  4.5  0.1925E+01  0.3015E+01  0.3525E+01E
 Epicentro: LOS SANTOS - SANTANDER                                             3
 ACTION:UPD 12-11-22 17:04 OP:ep   STATUS:               ID:20121017042746 L   I
 2012-10-17-0425-59S.COL___229                                                 6
 STAT SP IPHASW D HRMM SECON CODA AMPLIT PERI AZIMU VELO AIN AR TRES W  DIS CAZ7
 BAR2 SZ EP   1    428  5.12                             172   -0.09 7 19.7 193 
 BAR2 SZ ES   1    428 19.91                             172   -0.28 7 19.7 193 
 BAR2 SZ I         428 21.80       179.7 0.20                          19.7 193 
 GIR2 SZ EP   1    428  5.18                             165   -0.26 7 35.1 350 
 GIR2 SZ ES   1    428 20.23                             165   -0.37 7 35.1 350 
 BRR  HZ EP        428  6.99                             151    0.0210 73.6 301 
 BRR  HZ I         428  7.20        76.4 0.16                          73.6 301 
 BRR  HN ES   1    428 24.11                             151    0.78 7 73.6 301 
 PAM  SZ EP   1    428  7.90                             149   -0.17 7 80.1  37 
 PAM  SZ I         428  8.18        62.8 0.21                          80.1  37 
 PAM  SE ES   1    428 25.42                             149    0.14 7 80.1  37 
 PAM  SE I         428 26.41        67.6 0.60                          80.1  37 
 RUS  HZ EP   1    428  8.96                             144   -0.23 7 96.7 176 
 RUS  HN ES   1    428 27.48                             144    0.21 7 96.7 176 
 RUS  HN I         428 28.30        38.6 0.28                          96.7 176 
 TAM  HZ EP   1    428 13.31                             130    0.00 7  154 104 
 TAM  HZ I         428 13.43        20.9 0.10                           154 104 
 TAM  HN ES   1    428 34.94                             130    0.33 7  154 104 
 ZAR  HZ EP   1    428 18.37                             121   -0.09 6  206 293 
 ZAR  HN ES   1    428 43.40                             121   -0.38 6  206 293 
 ZAR  HZ I         428 50.11        25.7 0.32                           206 293 
 CHI  HZ EP   1    428 23.20                             117    0.05 6  245 196 
 CHI  HZ I         428 24.01         7.1 0.22                           245 196 
 CHI  HN ES   1    428 51.91                             117   -0.22 6  245 196 
 CHI  HN I         428 55.02        32.9 0.38                           245 196 
 HEL  HZ EP   1    428 26.75                             114    0.73 6  272 257 
 HEL  HN I         429  5.56        11.5 0.44                           272 257 
                                                                                
