 2014  317 0459 18.1 L   6.827 -73.157143.5  RSN 10 0.4 2.1LRSN                1
 GAP=134        0.92       2.8     4.4  6.3 -0.2880E+01  0.1270E+02 -0.2852E+01E
 Epicentro: LOS SANTOS - SANTANDER                                             3
 ACTION:UPD 14-04-09 23:18 OP:nd   STATUS:               ID:20140317045918 L   I
 OLDACT:REG 14-03-17 09:05 OP:mh   STATUS:               ID:20140317045812     3
 2014-03-17-0458-12M.COL___245                                                 6
 STAT SP IPHASW D HRMM SECON CODA AMPLIT PERI AZIMU VELO AIN AR TRES W  DIS CAZ7
 BAR2 SZ EP        459 37.58                             169    0.0310 26.1 186 
 BAR2 SZ ES   1    459 52.01                             169   -0.68 7 26.1 186 
 BAR2 SZ I         459 54.36        30.4 0.21            170           26.1 186 
 PAM  SZ EP        459 40.54                             151    0.5210 76.0  42 
 PAM  SN ES        459 57.73                             151    0.6410 76.0  42 
 PAM  SZ I         459 59.84        20.4 0.18            156           76.0  42 
 RUS  HZ EP        459 41.51                             142   -0.3810  104 175 
 RUS  HN ES        5 0  0.34                             142   -0.0710  104 175 
 RUS  HZ I         5 0  1.99         9.8 0.21            148            104 175 
 PTB  HZ EP   1    459 44.41                             132   -0.45 7  147 258 
 PTB  HN ES   1    5 0  5.44                             132   -0.26 7  147 258 
 PTB  HZ I         5 0 11.73         9.4 0.15            133            147 258 
 OCA  HZ EP        459 45.56                             130   -0.42 9  157 353 
 OCA  HN ES        5 0  7.34                             130   -0.35 9  157 353 
 OCA  HZ I         5 0 12.73        12.2 0.29            132            157 353 
 SPBC HZ EP   1    459 46.60                             128   -0.01 7  165 218 
 SPBC HN ES   1    5 0  8.56                             128   -0.25 7  165 218 
 ZAR  HZ EP        459 50.34                             122    0.14 9  202 291 
 ZAR  HN ES   1    5 0 15.50                             122    0.30 6  202 291 
 ZAR  HZ I         5 0 22.04         9.4 0.15            124            202 291 
 NOR  HZ EP        459 53.75                             118   -0.06 8  235 234 
 NOR  HN ES        5 0 22.32                             118    0.69 8  235 234 
 NOR  HZ I         5 0 26.36         8.1 0.25            121            235 234 
 SML  HZ EP        459 53.89                             117   -0.39 8  240 335 
 SML  HN ES        5 0 22.62                             117    0.14 8  240 335 
 SML  HZ I         5 0 25.60        22.8 0.09            120            240 335 
 URE  HZ EP   4    459 58.16                             113   -0.68 0  282 291 
 URE  HN ES   4    5 0 28.27                             113   -2.32 0  282 291 
 GUY2CHZ EP        5 0  2.29                             112    0.57 7  302 234 
 GUY2CHN ES   4    5 0 39.03                             112    3.32 0  302 234 
 GUY2CHZ I         5 0 44.67         8.2 0.75                           302 234 
 SJC  HZ EP   4    5 0 11.49                             105   -1.76 0  406 327 
 SJC  HN ES   4    5 0 51.61                             105   -4.62 0  406 327 
                                                                                
