 2012  217 0114 56.1 L   6.784 -73.159151.0  RSN  5 0.4 1.4LRSN                1
 GAP=136        0.67       6.7     6.3  8.8 -0.6169E+01  0.3269E+01  0.1495E+02E
 ACTION:UP  12-03-07 16:31 OP:epov STATUS:               ID:20120217011456 L   I
 2012-02-17-0110-00M.COL___188                                                 6
 STAT SP IPHASW D HRMM SECON CODA AMPLIT PERI AZIMU VELO AIN AR TRES W  DIS CAZ7
 GIR2 SZ ES   2    115 32.42                             167    0.11 5 32.8 353 
 BRR  HZ EP   2    115 18.22                             154    0.41 5 70.7 300 
 BRR  HZ I         115 19.74         9.5 0.36                          70.7 300 
 BRR  HN ES   2    115 35.50                             154    0.77 5 70.7 300 
 PAM  SZ EP   1    115 19.07                             151    0.05 7 79.7  40 
 PAM  SN ES   2    115 36.10                             151   -0.79 5 79.7  40 
 RUS  HZ EP   1    115 20.51                             145    0.24 7 99.0 175 
 RUS  HN ES   2    115 39.08                             145   -0.03 5 99.0 175 
 RUS  HZ I         115 42.14         2.2 0.41                          99.0 175 
 PTB  HZ EP   1    115 23.07                             134   -0.28 7  146 259 
 PTB  HN ES   2    115 43.95                             134   -0.65 5  146 259 
                                                                                
