 2014  917 0809 43.8 L   6.359 -73.388126.4  RSN 16 0.5 2.4LRSN                1
 GAP= 60        1.26       2.9     3.5  6.2 -0.2092E+01  0.5795E+01  0.4865E+00E
 Epicentro: CHIMA - SANTANDER                                                  3
 ACTION:UPD 14-10-03 23:05 OP:nd   STATUS:               ID:20140917080943 L   I
 OLDACT:REG 14-09-17 13:09 OP:carl STATUS:               ID:20140917080811     3
 2014-09-17-0808-11M.COL___287                                                 6
 STAT SP IPHASW D HRMM SECON CODA AMPLIT PERI AZIMU VELO AIN AR TRES W  DIS CAZ7
 BAR2 SZ IP     C  810  1.35                             164   -0.0710 34.3  41 
 BAR2 SZ ES        810 15.41                             164    0.2510 34.3  41 
 BAR2 SZ I         810 16.46       122.4 0.28            160           34.3  41 
 RUS  HZ EP        810  2.99                             153   -0.0310 61.6 147 
 RUS  HN ES        810 17.99                             153   -0.0310 61.6 147 
 RUS  HZ I         810 19.76        48.6 0.28            149           61.6 147 
 BRR  HN ES        810 20.24                             142    0.1310 90.1 337 
 BRR  HZ I         810 22.76        17.9 0.14            138           90.1 337 
 SPBC HZ EP        810  5.57                             137   -0.2510  109 224 
 SPBC HN ES        810 22.13                             137   -0.8610  109 224 
 SPBC HZ I         810 31.15        28.3 0.22            133            109 224 
 PTB  HZ EP   4    810  5.16                             134   -1.50 0  120 280 
 PTB  HN ES   4    810 21.95                             134   -2.55 0  120 280 
 PTB  HZ I         810 25.58        35.8 0.48            130            120 280 
 TAM  HZ EP        810 12.64                             122    0.42 9  177  87 
 TAM  HZ I         810 34.62        17.1 0.26            117            177  87 
 TAM  HN ES        810 34.83                             122    0.44 9  177  87 
 NOR  HZ EP        810 12.47                             120   -0.73 9  186 242 
 NOR  HN ES        810 36.09                             120   -0.05 9  186 242 
 NOR  HZ I         810 40.57        43.9 0.26            117            186 242 
 CHI  HZ EP        810 14.86                             119    0.25 9  195 191 
 CHI  HN ES        810 38.44                             119   -0.21 9  195 191 
 CHI  HZ I         810 44.75        10.9 0.38            115            195 191 
 ZAR  HZ EP   4    810 14.52                             118   -0.66 0  205 308 
 ZAR  HN ES        810 40.74                             118    1.08 9  205 308 
 ZAR  HZ I         810 43.23        36.9 0.36            114            205 308 
 OCA  HZ EP        810 16.21                             117    0.54 8  208   2 
 OCA  HE ES        810 40.02                             117   -0.52 8  208   2 
 OCA  HZ I         810 44.88        23.0 0.28            113            208   2 
 HEL  HZ EP        810 19.02                             114   -0.19 8  238 266 
 HEL  HN ES        810 46.60                             114   -0.23 8  238 266 
 HEL  HZ I         810 50.45        26.2 0.32            110            238 266 
 GUY2CHZ EP        810 21.75                             112    0.75 8  252 240 
 GUY2CHN ES        810 51.39                             112    1.37 8  252 240 
 GUY2CHZ I         810 57.51        29.2 0.60                           252 240 
 SML  HZ EP        810 22.78                             110   -0.80 7  280 344 
 SML  HE ES        810 53.70                             110   -0.90 7  280 344 
 SML  HZ I         810 57.21        19.8 0.32            106            280 344 
 URE  HZ EP   4    810 21.81                             110   -2.05 0  283 303 
 URE  HN ES   4    810 53.30                             110   -1.80 0  283 303 
 TOL  SZ EP        810 25.41                             109    0.25 7  290 228 
 TOL  SN ES        810 57.53                             109    0.11 7  290 228 
 TOL  SZ I         811  3.43        27.8 0.42            106            290 228 
 PRA  HZ EP        810 29.48                             106   -0.67 7  336 210 
 PRA  HN ES        811  6.18                             106   -0.12 7  336 210 
 PRA  HZ I         811 12.68        10.5 0.28            103            336 210 
 MON  HZ EP   4    810 31.29                             104   -2.40 0  367 317 
 MON  HN ES   4    811  9.87                             104   -2.75 0  367 317 
 MON  HZ I         811 37.72         3.3 0.46            101            367 317 
 ARGC HZ EP   4    810 39.45                             103    2.04 0  398 346 
 ARGC HE ES   4    811 23.10                             103    3.87 0  398 346 
                                                                                
