 2010  717 0752 59.6 L   6.783 -73.093147.0  RSN  5 0.3 1.3LRSN                1
 GAP=170        0.57       6.0    11.1  8.2  0.2599E+02 -0.4424E+02 -0.1831E+02E
 Epicentro: LOS SANTOS - SANTANDER                                             3
 ACTION:UPD 10-12-01 15:18 OP:pat  STATUS:               ID:20100717075259 L   I
 2010-07-17-0751-28S.COL___120                                                 6
 STAT SP IPHASW D HRMM SECON CODA AMPLIT PERI AZIMU VELO AIN AR TRES W  DIS CAZ7
 GIR2 SZ ES   2    753 35.43                             166     0.4 5   35 341 
 BRR  HZ IP     D  753 21.32                             151     0.110   77 298 
 BRR  HZ I         753 21.47         7.7 0.16                            77 298 
 BRR  HE ES   1    753 37.92                             151    -0.2 7   77 298 
 RUS  HZ EP   2    753 23.63                             145     0.3 5   98 179 
 RUS  HN ES   2    753 41.43                             145    -0.4 5   98 179 
 RUS  HZ I         753 44.01         3.3 0.52                            98 179 
 GUE  SZ EP   2    753 24.05                             139    -0.4 5  117   9 
 GUE  SZ I         753 37.34         1.3 0.06                           117   9 
 OCA  SZ EP   1    753 28.20                             129     0.0 7  163 351 
 OCA  SZ I         753 55.96         2.9 0.41                           163 351 
                                                                                
