 2017  217 0805 25.0 L   6.766 -73.158140.0  RSN  7 0.5 1.3LRSN                1
 GAP=137        1.38       5.5     6.0  9.2  0.2957E+01  0.1530E+02  0.3659E+01E
 Epicentro: LOS SANTOS - SANTANDER                                             3
 ACTION:UPD 17-05-24 15:37 OP:jn   STATUS:               ID:20170217080525 L   I
 OLDACT:DUP 17-02-17 16:30 OP:cog  STATUS:               ID:20170217075744d    3
 2017-02-17-0758-00M.COL___330                                                 6
 STAT SP IPHASW D HRMM SECON CODA AMPLIT PERI AZIMU VELO AIN AR TRES W  DIS CAZ7
 BAR2 EZ EP        8 5 43.73                             172   -0.0910 19.4 188 
 BAR2 EZ ES        8 5 57.64                             172   -0.9010 19.4 188 
 BAR2 EZ I         8 5 59.82         6.0 0.24            172           19.4 188 
 BRR  HZ EP        8 5 45.66                             151    0.1310 71.9 302 
 BRR  HZ I         8 5 48.21                                           71.9 302 
 BRR  HN ES        8 6  2.60                             151    1.0210 71.9 302 
 BRR  HZ I         8 6  3.58         4.7 0.20            152           71.9 302 
 PAM  EZ EP        8 5 46.69                             149   -0.1110 81.2  39 
 PAM  EN ES        8 6  3.99                             149    0.1510 81.2  39 
 PAM  EZ I         8 6  6.15         3.7 0.64            150           81.2  39 
 RUS  HZ EP        8 5 47.72                             144   -0.1610 96.9 175 
 RUS  HE ES        8 6  6.05                             144    0.2910 96.9 175 
 RUS  HZ I         8 6  7.44         1.7 0.28            146           96.9 175 
 PTB  HZ EP        8 5 50.69                             131   -0.59 9  146 260 
 PTB  HN ES        8 6 11.06                             131   -0.75 9  146 260 
 PTB  HZ I         8 6 13.75         3.0 0.10            133            146 260 
 ZAR  HZ EP        8 5 57.15                             121    0.09 9  204 293 
 ZAR  HN ES        8 6 22.34                             121    0.24 9  204 293 
 CHI  HN ES        8 6 31.69                             116    0.96 8  245 195 
                                                                                
