 2017 1017 0627 19.9 L   6.236 -73.735100.2  RSN  4 0.4 0.3LRSN                1
 GAP=236        0.99       8.4     4.4  9.5  0.5001E+01  0.1272E+02  0.1226E+02E
 Epicentro: LANDAZURI - SANTANDER                                              3
 ACTION:UPD 17-11-07 19:32 OP:rebc STATUS:               ID:20171017062719 L   I
 OLDACT:UP  17-10-17 15:33 OP:dani STATUS:               ID:20171017061738     3
 OLDACT:REG 17-10-17 12:37 OP:dani STATUS:               ID:20171017061738     3
 2017-10-17-0618-00M.COL___416                                                 6
 STAT SP IPHASW D HRMM SECON CODA AMPLIT PERI AZIMU VELO AIN AR TRES W  DIS CAZ7
 BAR2 EZ EP        627 36.66                             142   -0.1310 72.7  57 
 BAR2 EZ ES        627 50.16                             142    0.1810 72.7  57 
 PTB  HZ EP        627 38.32                             136    0.7210 86.5 293 
 PTB  HE ES        627 50.97                             136   -0.4610 86.5 293 
 PTB  HZ I         627 53.11         0.5 0.06            136           86.5 293 
 BRR  HZ EP        627 38.00                             133   -0.4410 96.3   2 
 BRR  HE ES        627 53.02                             133    0.1010 96.3   2 
 BRR  HZ I         628  0.22         0.6 0.23            129           96.3   2 
 ZAR  HZ EP        627 47.55                             114   -0.26 9  186 318 
 ZAR  HE ES        628  9.90                             114    0.30 9  186 318 
                                                                                
