 2010  917 0720 53.0 L   6.827 -73.036139.4  RSN  7 0.4 1.5LRSN                1
 GAP=171        1.09       6.3    13.0 11.6  0.2835E+01 -0.6195E+02 -0.2323E+02E
 Epicentro: CEPITA - SANTANDER                                                 3
 ACTION:UP  11-02-18 11:03 OP:tino STATUS:               ID:20100917072053 L   I
 2010-09-17-0719-29S.COL___118                                                 6
 STAT SP IPHASW D HRMM SECON CODA AMPLIT PERI AZIMU VELO SNR AR TRES W  DIS CAZ7
 BTL  SZ EP        721 12.43                             169     0.510   28 292 
 BAR2 SZ EP        721 11.98                             167     0.010   31 212 
 BAR2 SZ ES   1    721 26.37                             167    -0.5 7   31 212 
 BAR2 SZ I         721 28.48        10.8 0.67                            31 212 
 BRR  HZ EP        721 13.80                             148    -0.210   81 293 
 BRR  HZ I         721 14.05        12.5 0.18                            81 293 
 BRR  HN ES   1    721 30.88                             148     0.4 7   81 293 
 RUS  HZ EP        721 16.39                             142     0.110  103 183 
 RUS  HN ES   2    721 34.22                             142    -0.3 5  103 183 
 RUS  HZ I         721 35.49         2.9 0.25                           103 183 
 GUE  SZ EP        721 16.77                             139     0.110  112   6 
 GRA  SZ EP        721 17.62                             137     0.510  120  12 
 GRA  SZ I         721 18.12         2.7 0.46                           120  12 
 GRA  SZ ES   2    721 35.95                             137    -0.1 5  120  12 
 OCA  SZ EP        721 19.95                             128    -0.8 9  159 349 
 OCA  SZ I         721 46.31         3.2 0.40                           159 349 
                                                                                
