 2017  117 0548 41.3 L   5.971 -73.829102.8  RSN  5 0.2 1.0LRSN                1
 GAP=136        0.43       1.6     2.6  5.6  0.7561E+00  0.7519E+00  0.1476E+01E
 Epicentro: BOLIVAR - SANTANDER                                                3
 ACTION:UPD 17-05-22 16:00 OP:jn   STATUS:               ID:20170117054842 L   I
 OLDACT:UP  17-03-29 21:21 OP:nlst STATUS:               ID:20170117054842 L   3
 OLDACT:UP  17-01-17 17:04 OP:dani STATUS:               ID:20170117053738     3
 OLDACT:UP  17-01-17 17:04 OP:dani STATUS:               ID:20170117053738     3
 OLDACT:REG 17-01-17 13:03 OP:dani STATUS:               ID:20170117053738     3
 2017-01-17-0538-00M.COL___329                                                 6
 STAT SP IPHASW D HRMM SECON CODA AMPLIT PERI AZIMU VELO AIN AR TRES W  DIS CAZ7
 RUS  HZ EP     D  548 59.49                             138   -0.1710 83.0  96 
 RUS  HN ES   1    549 13.76                             138   -0.19 7 83.0  96 
 RUS  HZ I         549 14.59         1.5 0.14            146           83.0  96 
 PTB  HZ EP   1    548 59.58                             134   -0.32 7 93.6 312 
 PTB  HN ES   1    549 14.42                             134    0.04 7 93.6 312 
 PTB  HZ I         549 17.36         2.4 0.13            138           93.6 312 
 BAR2 EZ EP        549  0.84                             132    0.1410 99.2  46 
 BAR2 EZ ES   3    549 16.40                             132    0.60 2 99.2  46 
 BAR2 EZ I         549 18.23         7.3 0.46            139           99.2  46 
 BRR  HZ EP   1    549  3.07                             125    0.10 7  126   6 
 BRR  HN ES        549 19.90                             125    0.0610  126   6 
 BRR  HZ I         549 29.37         2.0 0.36            130            126   6 
 CHI  HZ EP   1    549  5.84                             120    0.02 7  149 176 
 CHI  HN ES        549 25.09                             120    0.17 9  149 176 
 CHI  HZ I         549 29.93         1.4 0.38            127            149 176 
                                                                                
