 2012  217 0648 15.0 L   6.758 -73.152156.3  RSN  4 0.2 0.9LRSN                1
 GAP=233        0.37       7.4     6.6  6.5  0.3842E+02  0.4086E+00  0.2171E+01E
 ACTION:UP  12-03-07 16:31 OP:epov STATUS:               ID:20120217064815 L   I
 2012-02-17-0647-59S.COL___188                                                 6
 STAT SP IPHASW D HRMM SECON CODA AMPLIT PERI AZIMU VELO AIN AR TRES W  DIS CAZ7
 BRR  HN ES   2    648 54.92                             153    0.07 5 72.9 302 
 RUS  HZ EP   1    648 39.35                             147   -0.13 7 96.0 175 
 RUS  HE ES   2    648 58.59                             147    0.00 5 96.0 175 
 RUS  HZ I         648 59.61         1.1 0.40                          96.0 175 
 PTB  HZ EP   1    648 42.94                             134    0.24 7  146 261 
 PTB  HN ES   2    649  4.24                             134   -0.08 5  146 261 
 ZAR  HN ES   2    649 13.99                             124   -0.22 4  205 293 
                                                                                
