 2017 1117 0601 22.7 L   6.909 -73.344111.3  RSN 25 0.6 2.1LRSN                1
 GAP= 52        1.20       2.7     2.8  6.3 -0.9992E-02  0.4897E+01 -0.4596E+01E
 Epicentro: BETULIA - SANTANDER                                                3
 ACTION:UPD 17-12-12 19:56 OP:rebc STATUS:               ID:20171117060122 L   I
 OLDACT:REG 17-11-17 18:54 OP:lv   STATUS:               ID:20171117055738     3
 2017-11-17-0558-00M.COL___435                                                 6
 STAT SP IPHASW D HRMM SECON CODA AMPLIT PERI AZIMU VELO AIN AR TRES W  DIS CAZ7
 BAR2 EZ EP     C  6 1 39.31                             160    0.5810 39.3 153 
 BAR2 EZ ES        6 1 51.91                             160    0.6510 39.3 153 
 PAM  EZ EP        6 1 42.79                             140    0.8210 85.6  56 
 PAM  EN ES   4    6 1 58.72                             140    1.69 0 85.6  56 
 PAM  EZ I         6 2  1.09        47.1 0.22            137           85.6  56 
 RUS  HZ EP        6 1 44.40                             131   -0.2010  116 166 
 RUS  HN ES        6 2  1.34                             131   -0.3710  116 166 
 RUS  HZ I         6 2  2.96        21.8 0.24            125            116 166 
 PTB  HZ IP     C  6 1 44.56                             127   -0.6910  130 252 
 PTB  HN ES        6 2  2.19                             127   -0.6810  130 252 
 PTB  HZ I         6 2  6.40        33.9 0.40            120            130 252 
 SPBC HZ EP        6 1 48.70                             120    0.19 9  161 210 
 SPBC HN ES   4    6 2  7.49                             120   -1.19 0  161 210 
 SPBC HZ I         6 2 11.11        21.1 0.12            115            161 210 
 TAM  HZ EP        6 1 50.27                             117   -0.19 9  179 107 
 TAM  HN ES        6 2 11.99                             117   -0.15 9  179 107 
 ZAR  HZ EP        6 1 51.10                             117    0.71 9  179 291 
 ZAR  HN ES   4    6 2 14.46                             117    2.44 0  179 291 
 ZAR  HZ I         6 2 16.72        33.0 0.30            112            179 291 
 YPLC HZ EP        6 1 52.15                             115   -0.43 9  198 147 
 YPLC HE ES        6 2 15.39                             115   -0.52 9  198 147 
 NOR  HZ EP        6 1 54.84                             111   -0.71 8  225 229 
 NOR  HN ES        6 2 21.54                             111    0.33 8  225 229 
 NOR  HZ I         6 2 30.32         9.8 0.18            107            225 229 
 CHI  HZ EP        6 1 59.44                             108   -0.09 8  256 190 
 CHI  HE ES        6 2 28.15                             108   -0.13 8  256 190 
 CHI  HZ I         6 2 35.22         6.1 0.24            106            256 190 
 URE  HZ EP        6 1 59.45                             108    0.04 8  259 291 
 URE  HE ES        6 2 27.12                             108   -0.95 8  259 291 
 URE  HN ES   4    6 2 28.22                             108    0.15 0  259 291 
 URE  HZ I         6 2 29.35        18.5 0.16            105            259 291 
 DRL03HZ EP        6 2  1.46                             107    0.23 8  275 357 
 DRL03HN ES        6 2 30.23                             107   -1.08 8  275 357 
 GUY2CHZ EP   4    6 2  4.43                             106    0.69 0  291 230 
 GUY2CHN ES   4    6 2 34.02                             106   -1.77 0  291 230 
 GUY2CHZ I         6 2 42.96         9.7 0.38                           291 230 
 LL6C HZ EP   4    6 2  4.39                             104   -1.29 0  313   1 
 LL6C HN ES   4    6 2 40.61                             104    1.37 0  313   1 
 LL6C HZ I         6 2 50.57         5.8 0.64            102            313   1 
 DBB  EZ EP        6 2  6.83                             104    0.53 7  317 272 
 DBB  EN ES        6 2 40.50                             104    0.17 7  317 272 
 DBB  EZ I         6 2 43.75         7.5 0.14            102            317 272 
 CBOC HZ EP        6 2  7.05                             104    0.63 7  317 249 
 CBOC HN ES        6 2 40.93                             104    0.38 7  317 249 
 CBOC HZ I         6 2 43.94         5.4 0.28            102            317 249 
 PTGC HZ EP   9    6 2  5.32                             103   -2.23 0  328 156 
 PTGC HN ES        6 2 39.76                                   -0.57 7  328 156 
 PTGC HZ I         6 2 42.63         6.5 0.26            102            328 156 
 ARGC HZ EP        6 2 10.47                             102    1.43 7  341 343 
 ARGC HN ES        6 2 45.13                             102   -0.09 7  341 343 
 ARGC HZ I         6 2 56.89         4.0 0.34            101            341 343 
 SDV  BZ EP        6 2 12.12                             101   -0.67 6  370  54 
 SDV  B1 ES   4    6 2 49.01                             101   -2.88 0  370  54 
 SDV  BZ I         6 2 51.62         4.4 0.50            100            370  54 
 APAC HZ EP        6 2 12.66                             101   -0.30 6  374 287 
 APAC HN ES   4    6 2 50.36                             101   -1.83 0  374 287 
 APAC HZ I         6 2 58.28         4.3 0.42            100            374 287 
 SJC  HZ EP   4    6 2 13.61                             100   -1.07 0  387 329 
 SJC  HN ES   4    6 2 52.54                             100   -2.71 0  387 329 
 SJC  HZ I         6 2 58.36         3.1 0.34            100            387 329 
 PRA  HZ EP        6 2 15.21                             100   -0.07 6  393 206 
 PRA  HE ES        6 2 57.07                             100    0.75 6  393 206 
 PRA  HZ I         6 3  3.47         3.8 0.30             99            393 206 
 ORTC HZ EP        6 2 15.92                             100    0.58 6  393 213 
 ORTC HN ES        6 2 56.09                             100   -0.34 6  393 213 
 ORTC HZ I         6 3  4.21         2.4 0.22             99            393 213 
 PAL  HZ EP        6 2 15.74                             100    0.28 6  394 236 
 PAL  HN ES   4    6 2 55.43                             100   -1.21 0  394 236 
 PAL  HZ I         6 2 59.63         4.4 0.46             99            394 236 
 CRJC HZ EP        6 2 23.32                              97    0.15 5  457   6 
 CRJC HN ES        6 3 10.19                              97   -0.18 5  457   6 
                                                                                
