 2011  217 0140 36.0 L   6.780 -73.261142.6  RSN  5 0.2 1.2LRSN                1
 GAP=160        0.56       5.6     6.5  6.7 -0.1057E+02  0.1465E+02  0.2005E+01E
 Epicentro: ZAPATOCA - SANTANDER                                               3
 ACTION:UP  11-03-28 15:08 OP:jfem STATUS:               ID:20110217014036 L   I
 2011-02-17-0140-02S.COL___137                                                 6
 STAT SP IPHASW D HRMM SECON CODA AMPLIT PERI AZIMU VELO SNR AR TRES W  DIS CAZ7
 BTL  SZ EP   1    140 55.18                             174     0.1 7   15 357 
 BAR2 SZ EP   1    140 55.13                             171    -0.1 7   22 158 
 BAR2 SZ ES   1    141 10.32                             171     0.1 7   22 158 
 BAR2 SZ I         141 11.58         5.0 0.11                            22 158 
 RUS  HZ EP   1    140 58.92                             143    -0.4 7  100 169 
 RUS  HN ES   1    141 17.64                             143     0.0 7  100 169 
 RUS  HZ I         141 18.86         2.3 0.24                           100 169 
 NOR  SN ES   1    141 36.95                             119    -0.1 6  223 233 
 CHI  HZ EP   1    141 13.41                             117     0.5 6  243 192 
 CHI  HZ I         141 15.79         1.3 0.47                           243 192 
 CHI  HN ES   2    141 41.73                             117     0.0 4  243 192 
                                                                                
