 2011 1117 0036 54.7 L   6.769 -73.106145.1  RSN  6 0.3 1.8LRSN                1
 GAP=143        0.58       3.7     5.4  5.0 -0.1200E+01  0.1549E+01  0.2155E+01E
 Epicentro: LOS SANTOS - SANTANDER                                             3
 ACTION:UPD 12-07-13 16:10 OP:ep   STATUS:               ID:20111117003654 L   I
 2011-11-17-0034-16S.COL___179                                                 6
 STAT SP IPHASW D HRMM SECON CODA AMPLIT PERI AZIMU VELO AIN AR TRES W  DIS CAZ7
 BAR2 SZ EP        037 14.08                             171   -0.1710 21.3 203 
 BAR2 SZ ES   1    037 29.22                             171   -0.25 7 21.3 203 
 BAR2 SZ I         037 32.13        15.8 0.46                          21.3 203 
 BRR  HZ EP   1    037 16.00                             151   -0.14 7 76.7 299 
 BRR  HZ I         037 16.26        17.0 0.19                          76.7 299 
 BRR  HN ES   1    037 33.20                             151    0.38 7 76.7 299 
 PAM  SZ EP        037 16.93                             151    0.0410 77.4  35 
 PAM  SZ I         037 17.16        13.3 0.18                          77.4  35 
 PAM  SN ES   1    037 34.29                             151    0.13 7 77.4  35 
 RUS  HZ EP        037 18.31                             145    0.1410 96.9 178 
 RUS  HN ES   1    037 36.35                             145   -0.09 7 96.9 178 
 RUS  HZ I         037 37.96         5.9 0.25                          96.9 178 
 ZAR  HZ EP   2    037 26.83                             121   -0.87 4  209 293 
 PRA  HZ EP   1    037 48.80                             106    0.65 4  391 210 
                                                                                
