 2010  917 0347 51.8 L   6.794 -73.110148.0  RSN  8 0.3 1.7LRSN                1
 GAP=163        0.78       4.5    13.7 18.3 -0.2666E+02 -0.3785E+02  0.4446E+00E
 Epicentro: LOS SANTOS - SANTANDER                                             3
 ACTION:UP  11-02-18 11:03 OP:tino STATUS:               ID:20100917034751 L   I
 2010-09-17-0344-18S.COL___118                                                 6
 STAT SP IPHASW D HRMM SECON CODA AMPLIT PERI AZIMU VELO SNR AR TRES W  DIS CAZ7
 BTL  SZ EP        348 12.14                             171     0.510   22 308 
 BAR2 SZ EP        348 11.55                             171    -0.210   24 200 
 BAR2 SZ I         348 20.76        10.9 0.71                            24 200 
 BRR  HZ EP        348 13.36                             152    -0.110   75 298 
 BRR  HZ I         348 13.57        14.0 0.10                            75 298 
 RUS  HZ EP        348 15.66                             145     0.010  100 178 
 RUS  HZ I         348 16.39         4.3 0.36                           100 178 
 GUE  SZ EP        348 16.48                             140    -0.210  116  10 
 GRA  SZ EP        348 17.33                             138     0.110  125  16 
 GRA  SZ I         348 41.50         4.3 0.35                           125  16 
 OCA  SZ EP   1    348 20.17                             130    -0.2 7  161 352 
 OCA  SZ I         348 48.85         5.6 0.29                           161 352 
 CHI  HZ EP   1    348 30.09                             118     0.4 6  249 196 
 CHI  HE ES   1    348 58.84                             118    -0.4 6  249 196 
 CHI  HZ I         349  5.33         3.8 0.72                           249 196 
                                                                                
