 2010  117 0600 15.7 L   6.783 -72.863144.4  RSN  7 0.4 1.8LRSN                1
 GAP=211        0.81       3.6    11.3  7.0 -0.1244E+02  0.1285E+02  0.7918E+00E
 Epicentro: SAN ANDRES - SANTANDER                                             3
 ACTION:UP  10-08-24 09:44 OP:vdl  STATUS:               ID:20100117060015 L   I
 2010-01-17-0556-23S.COL___096                                                 6
 STAT SP IPHASW D HRMM SECON CODA AMPLIT PERI AZIMU VELO SNR AR TRES W  DIS CAZ7
 BAR2 SZ EP   1    6 0 35.87                             164     0.2 8   41 239 
 BAR2 SZ ES   1    6 0 50.88                             164    -0.4 8   41 239 
 GIR2 SZ EP   2    6 0 36.02                             161     0.2 5   49 312 
 RUS  BZ IP        6 0 40.00                             143     0.610  101 194 
 RUS  BN ES   1    6 0 57.64                             143    -0.2 7  101 194 
 RUS  BZ I         6 0 59.80         6.4 0.36                           101 194 
 OCA  SZ IP        6 0 44.44                             128    -0.3 9  169 343 
 OCA  SZ ES   1    6 1  7.60                             128     0.2 7  169 343 
 OCA  SZ I         6 1 12.70        13.6 0.33                           169 343 
 CHI  HZ IP        6 0 53.93                             116    -0.3 8  257 202 
 CHI  HZ I         6 0 56.60         2.3 0.40                           257 202 
 CHI  HE ES        6 1 24.28                             116     0.0 8  257 202 
 RREF BZ EP   2    6 1  4.18                             109    -0.3 3  345 233 
 RREF BE ES   1    6 1 42.98                             109     0.5 5  345 233 
 RREF BZ I         6 1 47.14         3.2 0.47                           345 233 
 PRA  HZ IP        6 1 10.36                             106    -0.6 6  407 214 
 PRA  HN ES   2    6 1 53.74                             106    -0.2 3  407 214 
 PRA  HZ I         6 1 57.65         2.0 0.68                           407 214 
                                                                                
