 2016  217 0847 36.0 L   6.867 -73.147150.7  RSN  9 0.5 1.6LRSN                1
 GAP=133        1.17       4.5     5.3  7.3 -0.1002E+01  0.1333E+02 -0.4762E+00E
 Epicentro: LOS SANTOS - SANTANDER                                             3
 ACTION:UPD 16-03-04 21:26 OP:rebc STATUS:               ID:20160217084736 L   I
 OLDACT:UP  16-02-17 17:35 OP:drio STATUS:               ID:20160217083737     3
 OLDACT:UP  16-02-17 17:35 OP:drio STATUS:               ID:20160217083737     3
 OLDACT:REG 16-02-17 12:57 OP:drio STATUS:               ID:20160217083737     3
 2016-02-17-0837-37M.COL___309                                                 6
 STAT SP IPHASW D HRMM SECON CODA AMPLIT PERI AZIMU VELO AIN AR TRES W  DIS CAZ7
 BAR2 EZ EP        847 56.28                             168   -0.1110 30.6 187 
 BAR2 EZ ES        848 12.30                             168    0.0210 30.6 187 
 BAR2 EZ I         848 13.45         7.4 0.18            166           30.6 187 
 PAM  EZ EP        847 59.11                             153    0.6710 72.0  43 
 PAM  EE ES        848 15.93                             153   -0.0010 72.0  43 
 PAM  EZ I         848 17.21         7.3 0.36            158           72.0  43 
 RUS  HZ EP        848  0.73                             143   -0.0410  108 176 
 RUS  HE ES        848 19.50                             143   -0.5910  108 176 
 RUS  HZ I         848 21.23         2.4 0.36            144            108 176 
 PTB  HZ EP        848  3.01                             133   -0.49 9  149 256 
 PTB  HE ES        848 24.91                             133   -0.04 9  149 256 
 PTB  HZ I         848 26.83        11.4 0.22            132            149 256 
 SPBC HZ EP        848  5.65                             129    0.23 9  169 217 
 SPBC HN ES        848 27.97                             129   -0.39 9  169 217 
 SPBC HZ I         848 35.22         6.5 0.42            129            169 217 
 ZAR  HZ EP   4    848 10.31                             124    1.83 0  201 290 
 ZAR  HE ES        848 34.56                             124    0.75 9  201 290 
 ZAR  HZ I         848 39.90         6.8 0.42            124            201 290 
 CHI  HZ EP        848 15.04                             117    0.30 8  256 195 
 CHI  HE ES        848 45.73                             117    0.77 8  256 195 
 CHI  HZ I         848 50.37         1.3 0.32            118            256 195 
 URE  HZ EP        848 16.99                             115   -0.01 7  281 291 
 URE  HN ES   4    848 45.60                             115   -3.37 0  281 291 
 URE  HZ I         848 57.56         3.8 0.18            115            281 291 
 MON  HZ EP        848 23.29                             110   -1.37 6  349 307 
 MON  HE ES   4    849  2.10                             110   -0.51 0  349 307 
 MON  HZ I         849  2.32         1.4 0.18            110            349 307 
                                                                                
