 2015  317 0156  7.0 L   6.754 -73.152140.7  RSN  6 0.4 1.7LRSN                1
 GAP=138        1.12       5.2     5.5  8.2 -0.6838E+01  0.5847E+01  0.1347E+01E
 Epicentro: LOS SANTOS - SANTANDER                                             3
 ACTION:UPD 15-04-30 16:26 OP:nd   STATUS:               ID:20150317015607 L   I
 OLDACT:DUP 15-03-17 15:46 OP:stll STATUS:               ID:20150317014748d    3
 2015-03-17-0147-47M.COL___269                                                 6
 STAT SP IPHASW D HRMM SECON CODA AMPLIT PERI AZIMU VELO AIN AR TRES W  DIS CAZ7
 BAR2 EZ IP        156 26.04                             172    0.0910 18.2 191 
 BAR2 EZ ES        156 40.35                             172   -0.3610 18.2 191 
 BAR2 EZ I         156 42.18        15.1 0.38            171           18.2 191 
 BRR  HZ IP     C  156 27.94                             151    0.2010 73.2 302 
 BRR  HZ I         156 28.16        20.4 0.28            152           73.2 302 
 BRR  HN ES        156 44.66                             151    0.7610 73.2 302 
 PAM  SZ EP        156 28.89                             148   -0.0910 81.8  38 
 PAM  SZ I         156 29.13         7.6 0.24            151           81.8  38 
 PAM  SN ES        156 45.93                             148   -0.1710 81.8  38 
 RUS  HZ EP        156 30.36                             144    0.4510 95.6 175 
 RUS  HN ES        156 47.52                             144   -0.2510 95.6 175 
 RUS  HZ I         156 49.52         4.7 0.26            144           95.6 175 
 PTB  HZ EP        156 32.85                             131   -0.59 9  146 261 
 PTB  HN ES        156 53.40                             131   -0.64 9  146 261 
 PTB  HZ I         156 55.76         5.0 0.28            131            146 261 
 SPBC HN ES        156 56.83                             129    0.51 9  159 220 
 SPBC HZ I         156 58.88         7.0 0.12            129            159 220 
                                                                                
