 2012 1117 0656 52.2 L   6.823 -73.278130.7  RSN  6 0.4 1.0LRSN                1
 GAP=109        0.80       5.6     5.0  8.6  0.4224E+01  0.1279E+02  0.8734E+01E
 Epicentro: ZAPATOCA - SANTANDER                                               3
 ACTION:UPD 12-12-05 15:33 OP:}ep  STATUS:               ID:20121117065652 L   I
 2012-11-17-0650-00M.COL___233                                                 6
 STAT SP IPHASW D HRMM SECON CODA AMPLIT PERI AZIMU VELO AIN AR TRES W  DIS CAZ7
 BAR2 SZ EP   1    657 10.76                             167    0.58 7 27.6 158 
 BAR2 SZ ES   1    657 24.34                             167    0.18 7 27.6 158 
 BRR  HZ EP   1    657 11.29                             155    0.29 7 57.3 303 
 BRR  HN ES   1    657 25.71                             155    0.08 7 57.3 303 
 PAM  SE ES   1    657 29.60                             145   -0.38 7 85.7  48 
 RUS  HZ EP   1    657 15.26                             139    0.35 7  105 168 
 RUS  HN ES   1    657 32.06                             139   -0.53 7  105 168 
 RUS  HZ I         657 32.77         0.9 0.56                           105 168 
 PTB  HZ EP   1    657 16.05                             131   -0.70 7  134 257 
 PTB  HN ES   1    657 36.08                             131    0.23 7  134 257 
 PTB  HZ I         657 37.65         2.7 0.12                           134 257 
 ZAR  HN ES   2    657 45.19                             121   -0.42 4  190 293 
                                                                                
