 2012  317 0113 48.3 L   6.767 -73.135143.3  RSN  6 0.4 1.7LRSN                1
 GAP=139        0.89       5.8     5.3  8.0  0.3000E+01  0.1089E+02 -0.2181E+01E
 ACTION:UP  12-03-31 23:20 OP:EP   STATUS:               ID:20120317011348 L   I
 2012-03-17-0110-00M.COL___202                                                 6
 STAT SP IPHASW D HRMM SECON CODA AMPLIT PERI AZIMU VELO SNR AR TRES W  DIS CAZ7
 BAR2 SZ EP   1    114  7.61                             172     0.0 7   20 195 
 BAR2 SZ ES   1    114 22.38                             172    -0.2 7   20 195 
 BAR2 SZ I         114 27.49         8.3 0.29                            20 195 
 BRR  HZ EP   1    114  9.40                             151     0.0 7   74 301 
 BRR  HE ES   1    114 26.39                             151     0.6 7   74 301 
 BRR  HZ I         114 29.30        12.3 0.17                            74 301 
 PAM  SZ EP   1    114 10.42                             150     0.0 7   80  37 
 PAM  SN ES   1    114 27.23                             150    -0.4 7   80  37 
 RUS  HZ EP   1    114 11.66                             144     0.1 7   97 177 
 RUS  HE ES   1    114 30.06                             144     0.4 7   97 177 
 RUS  HZ I         114 34.14         3.6 0.51                            97 177 
 PTB  HZ EP   1    114 14.50                             131    -0.6 7  148 260 
 PTB  HN ES   1    114 35.46                             131    -0.6 7  148 260 
 PTB  HZ I         114 38.88         6.0 0.15                           148 260 
 ZAR  HZ EP   1    114 21.38                             121     0.5 6  207 293 
 ZAR  HN ES   1    114 46.43                             121     0.2 6  207 293 
 ZAR  HZ I         114 51.56        10.1 0.42                           207 293 
                                                                                
