 2014 1017 0158  4.3 L   6.803 -73.170146.4  RSN 18 0.4 2.8LRSN                1
 GAP=133        0.93       2.3     3.3  4.7 -0.3137E+00  0.4378E+01  0.2712E+01E
 Epicentro: LOS SANTOS - SANTANDER                                             3
 ACTION:UPD 14-11-29 23:50 OP:nd   STATUS:               ID:20141017015804 L   I
 OLDACT:UP  14-10-17 16:35 OP:mh   STATUS:               ID:20141017015736     3
 OLDACT:UP  14-10-17 16:33 OP:mh   STATUS:               ID:20141017015736     3
 OLDACT:REG 14-10-17 13:53 OP:mh   STATUS:               ID:20141017015736     3
 2014-10-17-0157-36M.COL___286                                                 6
 STAT SP IPHASW D HRMM SECON CODA AMPLIT PERI AZIMU VELO AIN AR TRES W  DIS CAZ7
 BAR2 SZ IP     D  158 24.00                             170    0.0210 23.3 183 
 BAR2 SZ ES   1    158 39.18                             170   -0.18 7 23.3 183 
 BAR2 SZ I         158 42.02       183.4 0.34            168           23.3 183 
 BRR  HZ EP        158 25.91                             153    0.5510 68.7 299 
 BRR  HN ES        158 41.90                             153    0.1010 68.7 299 
 BRR  HZ I         158 45.56        79.4 0.36            153           68.7 299 
 PAM  SZ EP     D  158 26.82                             150    0.1710 78.9  41 
 PAM  SN ES        158 44.00                             150   -0.1010 78.9  41 
 PAM  SZ I         158 46.28        75.6 0.62            156           78.9  41 
 RUS  HZ EP     C  158 27.84                             144   -0.2910  101 175 
 RUS  HN ES        158 46.77                             144    0.0310  101 175 
 RUS  HZ I         158 48.04        49.3 0.22            144            101 175 
 PTB  HZ EP     C  158 30.45                             133   -0.61 9  145 259 
 PTB  HN ES        158 51.93                             133   -0.03 9  145 259 
 PTB  HZ I         158 53.70        92.9 0.16            132            145 259 
 OCA  HZ EP   1    158 32.26                             130   -0.32 7  160 354 
 OCA  HN ES        158 55.06                             130    0.41 9  160 354 
 OCA  HZ I         158 59.07        68.8 0.18            133            160 354 
 SPBC HZ EP   1    158 32.83                             129    0.14 7  162 218 
 SPBC HN ES   1    158 54.80                             129   -0.05 7  162 218 
 SPBC HZ I         159  0.85        93.8 0.14            130            162 218 
 ZAR  HZ EP        158 35.78                             123   -0.71 9  201 292 
 ZAR  HN ES        159  1.49                             123   -0.14 9  201 292 
 ZAR  HZ I         159  8.92        88.9 0.42            124            201 292 
 SML  HZ EP   1    158 40.83                             118    0.05 6  242 336 
 SML  HN ES        159  8.71                             118   -0.55 8  242 336 
 SML  HZ I         159 11.65        82.5 0.10            120            242 336 
 CHI  HZ EP   1    158 41.95                             117   -0.02 6  248 195 
 CHI  HN ES        159 11.32                             117   -0.05 8  248 195 
 CHI  HZ I         159 16.74        21.3 0.72            118            248 195 
 ROSC BZ EP     C  158 43.28                             117    0.97 8  252 210 
 ROSC BN ES   4    159 16.28                             117    4.30 0  252 210 
 ROSC BZ I         159 21.36        59.1 0.45            118            252 210 
 HEL  HZ EP        158 44.63                             115    0.39 8  270 256 
 HEL  HN ES        159 16.29                             115    0.87 8  270 256 
 HEL  HZ I         159 22.64        30.2 0.42            116            270 256 
 VIL  SZ EP        158 47.24                             112   -0.46 7  303 191 
 VIL  SN ES   1    159 21.54                             112   -0.03 5  303 191 
 VIL  SZ I         159 36.96        25.7 0.44            113            303 191 
 RREF HZ EP   4    158 46.99                             111   -3.25 0  320 229 
 RREF HN ES   4    159 22.44                             111   -3.65 0  320 229 
 CBOC HZ EP   1    158 51.54                             110    0.61 5  331 252 
 CBOC HN ES        159 26.71                             110   -0.62 7  331 252 
 CBOC HZ I         159 33.04        11.9 0.46            111            331 252 
 TOL  SZ EP        158 53.26                             109    0.89 7  342 224 
 TOL  SN ES   4    159 31.64                             109    1.76 0  342 224 
 MON  HZ EP   4    158 51.25                             109   -1.78 0  351 309 
 MON  HN ES   4    159 29.70                             109   -1.37 0  351 309 
 ANIL HZ EP   4    158 54.78                             109    0.87 0  356 224 
 ANIL HN ES   4    159 36.87                             109    4.24 0  356 224 
 PRA  HZ EP        158 57.42                             107   -0.27 6  391 209 
 PRA  HN ES        159 38.67                             107   -0.69 6  391 209 
 ORTC HZ EP        158 58.00                             106   -0.06 6  394 216 
 ORTC HN ES        159 39.85                             106   -0.17 6  394 216 
 ORTC HN I         159 46.94        45.2 0.40            108            394 216 
 SJC  HZ EP   4    158 56.92                             106   -2.73 0  407 327 
 SJC  HN ES   4    159 38.97                             106   -3.88 0  407 327 
 SJC  HZ I         159 43.74         8.4 0.34            107            407 327 
                                                                                
