 2014  317 0952 37.3 L   6.251 -73.644104.9  RSN  5 0.4 1.5LRSN                1
 GAP=118        0.97       4.6     3.6  8.5  0.2319E+01  0.1492E+02  0.4450E+00E
 Epicentro: SANTA HELENA DEL OPON - SANTANDER                                  3
 ACTION:UPD 14-04-09 23:18 OP:nd   STATUS:               ID:20140317095237 L   I
 OLDACT:REG 14-03-17 09:18 OP:mh   STATUS:               ID:20140317094813     3
 2014-03-17-0948-13M.COL___239                                                 6
 STAT SP IPHASW D HRMM SECON CODA AMPLIT PERI AZIMU VELO AIN AR TRES W  DIS CAZ7
 BAR2 SZ EP        952 54.22                             146    0.1910 63.5  53 
 BAR2 SZ ES        953  7.41                             146    0.3410 63.5  53 
 BAR2 SZ I         953  8.42        39.1 0.58            153           63.5  53 
 RUS  HZ EP        952 54.93                             142   -0.1810 73.6 123 
 RUS  HN ES        953  8.86                             142   -0.1310 73.6 123 
 RUS  HZ I         953 16.68         1.2 0.58            147           73.6 123 
 PTB  HZ EP        952 55.57                             134   -0.6510 95.4 290 
 PTB  HN ES        953 10.48                             134   -0.4810 95.4 290 
 PTB  HZ I         953 13.68         9.3 0.10            139           95.4 290 
 NOR  HZ EP        953  2.23                             119    0.04 9  156 241 
 NOR  HN ES        953 22.20                             119    0.62 9  156 241 
 NOR  HZ I         953 24.29         4.8 0.20            124            156 241 
 ZAR  HZ EP        953  6.20                             113    0.07 9  192 316 
 ZAR  HE ES        953 28.99                             113    0.40 9  192 316 
 ZAR  HZ I         953 32.78         3.2 0.26            119            192 316 
                                                                                
