 2014  917 0436  8.9 L   6.787 -73.155152.7  RSN  7 0.4 1.8LRSN                1
 GAP=182        0.95       3.5     5.0  6.5  0.1371E+01  0.1332E+01 -0.2355E+01E
 Epicentro: LOS SANTOS - SANTANDER                                             3
 ACTION:UPD 14-10-03 23:05 OP:nd   STATUS:               ID:20140917043608 L   I
 OLDACT:REG 14-09-17 12:56 OP:carl STATUS:               ID:20140917042819     3
 2014-09-17-0428-19M.COL___257                                                 6
 STAT SP IPHASW D HRMM SECON CODA AMPLIT PERI AZIMU VELO AIN AR TRES W  DIS CAZ7
 BAR2 SZ EP        436 29.31                             172   -0.0010 21.7 188 
 BAR2 SZ ES        436 45.13                             172   -0.1210 21.7 188 
 BAR2 SZ I         436 45.82        25.6 0.20            172           21.7 188 
 BRR  HZ EP        436 31.23                             154    0.4610 71.0 300 
 BRR  HN ES        436 48.52                             154    0.6710 71.0 300 
 BRR  HZ I         436 52.09         9.3 0.38            151           71.0 300 
 RUS  HZ EP        436 33.22                             146   -0.0010 99.2 175 
 RUS  HN ES        436 52.12                             146   -0.0910 99.2 175 
 RUS  HZ I         436 52.90         4.8 0.26            149           99.2 175 
 PTB  HZ EP        436 36.16                             134   -0.15 9  147 259 
 PTB  HN ES        436 56.99                             134   -0.72 9  147 259 
 PTB  HZ I         437  4.48         9.0 0.36            134            147 259 
 SPBC HZ EP        436 38.21                             131    0.45 9  161 219 
 SPBC HN ES        437  0.16                             131   -0.12 9  161 219 
 SPBC HZ I         437  3.79         7.6 0.20            132            161 219 
 OCA  HZ EP        436 37.51                             131   -0.35 9  162 354 
 OCA  HN ES        437  0.10                             131   -0.36 9  162 354 
 OCA  HZ I         437  6.09         4.5 0.32            132            162 354 
 ZAR  HE ES        437  7.60                             124    0.21 9  204 293 
                                                                                
