 2013  217 0701 48.6 L   6.721 -73.288133.4  RSN  9 0.3 1.9LRSN                1
 GAP= 97        0.73       2.4     3.3  4.4  0.5981E+00  0.2738E+01 -0.1790E+01E
 Epicentro: GALAN - SANTANDER                                                  3
 ACTION:UPD 13-03-12 09:33 OP:ep   STATUS:               ID:20130217070148 L   I
 2013-02-17-0700-00M.COL___241                                                 6
 STAT SP IPHASW D HRMM SECON CODA AMPLIT PERI AZIMU VELO AIN AR TRES W  DIS CAZ7
 BAR2 SZ EP        7 2  6.58                             172   -0.0810 18.4 141 
 BAR2 SZ ES        7 2 20.60                             172   -0.1310 18.4 141 
 BRR  HZ EP        7 2  8.29                             153    0.3110 63.4 312 
 BRR  HN ES        7 2 23.53                             153    0.4410 63.4 312 
 BRR  HN I         7 2 24.51        14.7 0.16            149           63.4 312 
 PAM  SZ EP        7 2 11.04                             143    0.3510 94.4  44 
 PAM  SN ES        7 2 28.01                             143    0.0910 94.4  44 
 RUS  HZ EP        7 2 10.44                             143   -0.2610 94.4 166 
 RUS  HE ES        7 2 27.88                             143   -0.0510 94.4 166 
 PTB  HZ EP        7 2 13.09                             133    0.0610  131 261 
 PTB  HN ES   1    7 2 31.45                             133   -0.62 7  131 261 
 PTB  HN I         7 2 33.24         7.1 0.26            131            131 261 
 OCA  HZ EP        7 2 16.55                             125   -0.19 9  168 359 
 OCA  HN ES        7 2 38.09                             125   -0.59 9  168 359 
 OCA  HN I         7 2 42.60        19.2 0.30            124            168 359 
 ZAR  HN ES   1    7 2 43.16                             121    0.20 7  193 296 
 ZAR  HN I         7 2 47.18        12.0 0.24            120            193 296 
 CHI  HZ EP   1    7 2 24.70                             116    0.39 6  236 192 
 SML  HZ EP        7 2 24.71                             115   -0.08 8  246 339 
 SML  HE ES        7 2 53.10                             115    0.08 8  246 339 
 SML  HE I         7 3  0.89         6.4 0.10            113            246 339 
                                                                                
