 2017  617 0841 13.1 L   6.941 -73.136154.9  RSN 13 0.4 2.5LRSN                1
 GAP=182        1.07       5.4     4.0  7.3  0.4747E+01  0.2295E+01  0.1213E+02E
 Epicentro: PIEDECUESTA - SANTANDER                                            3
 ACTION:UPD 17-09-14 16:52 OP:jn   STATUS:               ID:20170617084113 L   I
 OLDACT:UP  17-06-17 17:11 OP:cog  STATUS:               ID:20170617083733     3
 OLDACT:UP  17-06-17 17:11 OP:cog  STATUS:               ID:20170617083733     3
 OLDACT:UP  17-06-17 17:10 OP:cog  STATUS:               ID:20170617083733     3
 OLDACT:REG 17-06-17 14:13 OP:cog  STATUS:               ID:20170617083733     3
 2017-06-17-0838-00M.COL___347                                                 6
 STAT SP IPHASW D HRMM SECON CODA AMPLIT PERI AZIMU VELO AIN AR TRES W  DIS CAZ7
 BRR  HZ EP   2    841 35.08                             156    0.09 5 66.2 286 
 BRR  HN ES        841 52.09                             156    0.0310 66.2 286 
 BRR  HZ I         841 59.24        22.5 0.28            152           66.2 286 
 PTB  HZ EP   9    841 41.16                             133   -0.10 0  153 253 
 PTB  HN ES        842  2.38                             132   -0.74 9  153 253 
 PTB  HZ I         842  9.53        35.2 0.46            130            153 253 
 TAM  HN ES        842  4.40                             132    0.11 9  159 111 
 SPBC HZ EP        841 43.10                             129   -0.44 9  176 216 
 SPBC HN ES   4    842  5.69                             129   -1.59 0  176 216 
 SPBC HZ I         842 10.94        58.7 0.16            126            176 216 
 ZAR  HZ EP   9    841 46.76                             125    1.03 0  200 288 
 ZAR  HN ES        842 13.07                             124    0.87 9  200 288 
 ZAR  HZ I         842 18.53        32.6 0.24            122            200 288 
 TABC EZ EP        841 51.43                             119    0.53 8  244 209 
 TABC EZ I         842 28.92        21.3 0.36            117            244 209 
 NOR  HZ EP        841 49.95                             119   -0.52 8  245 232 
 NOR  HN ES        842 19.30                             119   -0.31 8  245 232 
 NOR  HZ I         842 21.84        32.5 0.22            117            245 232 
 CHI  HZ EP        841 52.41                             117   -0.57 8  264 195 
 CHI  HN ES        842 23.72                             117   -0.36 8  264 195 
 CHI  HZ I         842 30.22         9.2 0.23            115            264 195 
 ROSC BZ EP        841 53.95                             117    0.69 8  267 209 
 ROSC BE ES   4    842 26.25                             117    1.68 0  267 209 
 ROSC BZ I         842 31.99        30.1 0.45            115            267 209 
 HEL  HZ EP   4    841 55.44                             116    1.06 0  277 253 
 HEL  HE ES        842 27.24                             116    0.67 7  277 253 
 HEL  HZ I         842 33.29        18.8 0.36            114            277 253 
 URE  HZ EP        841 54.23                             116    0.08 7  279 289 
 URE  HN ES        842 25.62                             116   -0.54 7  279 289 
 URE  HZ I         842 34.83        13.0 0.18            113            279 289 
 VIL  HE ES        842 34.77                             112    0.51 7  319 191 
 CBOC HZ EP   3    842  1.97                             111    0.86 2  340 250 
 CBOC HN ES        842 38.89                             111    0.33 7  340 250 
 CBOC HZ I         842 42.31         6.8 0.20            109            340 250 
                                                                                
