 2013  117 0910 54.0 L   7.319 -73.190129.6  RSN  5 0.1 1.2LRSN                1
 GAP=260        0.35       5.8     3.7 12.1  0.8653E+01 -0.2118E+02  0.3461E+01E
 Epicentro: RIONEGRO - SANTANDER                                               3
 ACTION:UPD 13-02-15 09:14 OP:ep   STATUS:               ID:20130117091054 L   I
 2013-01-17-0910-00M.COL___241                                                 6
 STAT SP IPHASW D HRMM SECON CODA AMPLIT PERI AZIMU VELO AIN AR TRES W  DIS CAZ7
 BRR  HZ EP   1    911 12.70                             153   -0.14 7 62.2 248 
 BAR2 SZ EP   1    911 14.37                             146    0.06 7 80.3 179 
 RUS  HZ EP   1    911 21.41                             126    0.12 7  158 176 
 PTB  HZ EP   1    911 21.16                             125   -0.12 7  164 238 
 PTB  HN ES   1    911 42.55                             125   -0.04 7  164 238 
 PTB  HZ I         911 45.06         1.9 0.22            126            164 238 
 ZAR  HN ES   1    911 46.51                             121    0.15 7  185 276 
 ZAR  HZ I         911 49.49         1.5 0.26            122            185 276 
                                                                                
