 2011  417 0702 28.8 L   6.814 -73.187141.1  RSN  5 0.4 1.9LRSN                1
 GAP=136        0.78       6.9    11.7 13.8 -0.4481E+02  0.5419E+02 -0.4567E+01E
 Epicentro: ZAPATOCA - SANTANDER                                               3
 ACTION:UP  11-06-22 15:31 OP:REBC STATUS:               ID:20110417070228 L   I
 2011-04-17-0701-25S.COL___139                                                 6
 STAT SP IPHASW D HRMM SECON CODA AMPLIT PERI AZIMU VELO SNR AR TRES W  DIS CAZ7
 BAR2 SZ EP        7 2 47.82                             169     0.010   25 179 
 PAM  SZ EP   1    7 2 50.74                             149     0.1 7   79  43 
 PAM  SN ES   2    7 3  8.19                             149     0.6 5   79  43 
 GRA  SZ EP        7 2 53.77                             135     0.210  126  20 
 GRA  SZ ES   1    7 3 12.15                             135    -0.8 7  126  20 
 GRA  SZ I         7 3 15.07        11.9 0.26                           126  20 
 OCA  SZ EP   1    7 2 56.42                             129    -0.1 7  158 355 
 OCA  SZ ES   2    7 3 18.93                             129     0.8 5  158 355 
 NOR  SN ES   2    7 3 31.27                             117    -0.1 4  232 233 
                                                                                
