 2012 1017 0200 20.6 L   6.773 -73.086151.3  RSN  6 0.1 1.4LRSN                1
 GAP=146        0.35       2.4     3.1  3.4  0.8226E+00  0.3971E+00  0.8495E+00E
 Epicentro: LOS SANTOS - SANTANDER                                             3
 ACTION:UPD 12-11-22 17:04 OP:ep   STATUS:               ID:20121017020020 L   I
 2012-10-17-0200-00M.COL___231                                                 6
 STAT SP IPHASW D HRMM SECON CODA AMPLIT PERI AZIMU VELO AIN AR TRES W  DIS CAZ7
 BAR2 SZ EP   1    2 0 40.76                             171   -0.17 7 22.6 208 
 BAR2 SZ ES   1    2 0 56.76                             171    0.01 7 22.6 208 
 BAR2 SZ I         2 0 56.93        10.2 0.30                          22.6 208 
 GIR2 SZ ES   1    2 0 56.96                             166   -0.10 7 35.9 341 
 PAM  SZ EP   1    2 0 43.64                             152    0.28 7 75.8  34 
 PAM  SZ I         2 0 43.78         6.4 0.21                          75.8  34 
 PAM  SE ES   1    2 1  1.00                             152   -0.08 7 75.8  34 
 BRR  HZ EP   1    2 0 42.69                             151   -0.12 7 78.5 298 
 BRR  HN ES   1    2 1  0.23                             151    0.14 7 78.5 298 
 RUS  HZ EP   1    2 0 44.66                             146   -0.06 7 97.3 180 
 RUS  HZ I         2 0 45.81         1.9 0.15                          97.3 180 
 RUS  HN ES   1    2 1  3.59                             146    0.09 7 97.3 180 
 ZAR  HE ES   2    2 1 20.39                             123    0.02 4  211 292 
                                                                                
