 2017  917 0800 48.2 L   6.815 -73.014136.2  RSN  5 0.3 1.6LRSN                1
 GAP=153        0.70       3.6     3.9  5.0 -0.1575E+01  0.5769E+01  0.1469E+01E
 Epicentro: CEPITA - SANTANDER                                                 3
 ACTION:UPD 17-10-05 19:13 OP:rebc STATUS:               ID:20170917080048 L   I
 OLDACT:REG 17-09-17 12:42 OP:lv   STATUS:               ID:20170917075739     3
 2017-09-17-0758-00M.COL___402                                                 6
 STAT SP IPHASW D HRMM SECON CODA AMPLIT PERI AZIMU VELO AIN AR TRES W  DIS CAZ7
 BAR2 EZ EP        8 1  7.05                             167    0.1510 30.8 217 
 BAR2 EZ ES        8 1 21.18                             167   -0.2710 30.8 217 
 BAR2 EZ I         8 1 23.28        14.3 0.20            163           30.8 217 
 PAM  EZ EP        8 1  8.48                             152   -0.3710 67.7  31 
 PAM  EN ES        8 1 25.10                             152    0.1710 67.7  31 
 BRR  HZ EP        8 1  8.91                             147   -0.2310 83.6 293 
 BRR  HE ES        8 1 25.77                             147    0.3310 83.6 293 
 BRR  HZ I         8 1 28.87        11.1 0.32            145           83.6 293 
 RUS  HZ EP        8 1 11.33                             141    0.1510  102 184 
 RUS  HN ES        8 1 29.12                             141    0.0510  102 184 
 RUS  HZ I         8 1 31.25         3.2 0.30            142            102 184 
 HEL  HZ EP        8 1 30.05                             112    0.44 7  287 256 
 HEL  HN ES        8 2  1.49                             112   -0.39 7  287 256 
 HEL  HZ I         8 2  7.30         1.7 0.50            112            287 256 
                                                                                
