 2012  317 0048 28.1 L   6.775 -73.173144.6  RSN  5 0.3 1.6LRSN                1
 GAP=134        0.77       5.1     4.4  8.6  0.1118E+00  0.3584E+01  0.1126E+01E
 ACTION:UP  12-03-31 23:20 OP:EP   STATUS:               ID:20120317004828 L   I
 2012-03-17-0045-35M.COL___184                                                 6
 STAT SP IPHASW D HRMM SECON CODA AMPLIT PERI AZIMU VELO SNR AR TRES W  DIS CAZ7
 BRR  HZ EP        048 49.33                             153     0.310   70 302 
 BRR  HE ES   1    049  5.75                             153     0.4 7   70 302 
 BRR  HZ I         049  8.13        11.0 0.25                            70 302 
 PAM  SZ EP        048 50.49                             149     0.110   81  40 
 PAM  SN ES   1    049  7.32                             149    -0.5 7   81  40 
 RUS  HZ EP   1    048 51.60                             144     0.1 7   98 174 
 RUS  HN ES   1    049  9.76                             144     0.0 7   98 174 
 RUS  HZ I         049 11.66         6.1 0.21                            98 174 
 PTB  HZ EP   1    048 54.15                             132    -0.5 7  144 260 
 PTB  HN ES   1    049 15.15                             132    -0.2 7  144 260 
 PTB  HZ I         049 17.67         2.4 0.11                           144 260 
 ZAR  HE ES   1    049 25.10                             122    -0.2 6  202 293 
 ZAR  HZ I         049 31.36         5.0 0.07                           202 293 
                                                                                
