 2017  117 0520 16.5 L   6.763 -73.152142.9  RSN  5 0.3 1.1LRSN                1
 GAP=137        0.79       5.3     7.3  7.3  0.1555E+02 -0.1911E+02 -0.1099E+02E
 Epicentro: LOS SANTOS - SANTANDER                                             3
 ACTION:UPD 17-05-22 16:00 OP:jn   STATUS:               ID:20170117052016 L   I
 OLDACT:UP  17-01-17 16:59 OP:dani STATUS:               ID:20170117051743     3
 OLDACT:REG 17-01-17 12:59 OP:dani STATUS:               ID:20170117051743     3
 2017-01-17-0518-00M.COL___329                                                 6
 STAT SP IPHASW D HRMM SECON CODA AMPLIT PERI AZIMU VELO AIN AR TRES W  DIS CAZ7
 BAR2 EZ EP        520 35.52                             171   -0.1710 19.1 190 
 BAR2 EZ ES        520 50.23                             171   -0.4410 19.1 190 
 BAR2 EZ I         520 51.52         3.1 0.17            171           19.1 190 
 BRR  HZ EP        520 37.66                             151    0.2510 72.7 302 
 BRR  HN ES        520 54.03                             151    0.3010 72.7 302 
 BRR  HZ I         520 56.16         3.8 0.35            151           72.7 302 
 PAM  EZ EP        520 38.44                             149   -0.1810 81.0  38 
 RUS  HZ EP        520 39.69                             144    0.0310 96.5 175 
 RUS  HE ES        520 58.10                             144    0.3610 96.5 175 
 RUS  HZ I         520 59.71         1.3 0.34            145           96.5 175 
 PTB  HN ES   2    521  3.07                             131   -0.77 5  146 260 
                                                                                
