 2015  417 0217 17.9 L   6.772 -73.158150.8  RSN 10 0.4 1.7LRSN                1
 GAP=136        0.86       3.8     4.0  6.2 -0.2989E+01  0.4831E+01 -0.3254E+01E
 Epicentro: LOS SANTOS - SANTANDER                                             3
 ACTION:UPD 15-06-03 16:55 OP:cam  STATUS:               ID:20150417021717 L   I
 OLDACT:DUP 15-04-17 17:18 OP:spq  STATUS:               ID:20150417020750d    3
 2015-04-17-0207-49M.COL___278                                                 6
 STAT SP IPHASW D HRMM SECON CODA AMPLIT PERI AZIMU VELO AIN AR TRES W  DIS CAZ7
 BAR2 EZ EP        217 37.98                             172   -0.0510 20.0 188 
 BAR2 EZ ES   1    217 53.41                             172   -0.35 7 20.0 188 
 BAR2 EZ I         217 54.65         8.0 0.21            170           20.0 188 
 BRR  HZ EP        217 39.88                             153    0.3110 71.6 301 
 BRR  HN ES        217 57.19                             153    0.6910 71.6 301 
 BRR  HZ I         218  0.32        11.8 0.30            148           71.6 301 
 PAM  SZ EP        217 40.96                             151    0.1610 80.7  39 
 PAM  SN ES        217 58.25                             151   -0.4410 80.7  39 
 PAM  SZ I         217 59.88         7.6 0.56            153           80.7  39 
 RUS  HZ EP   1    217 42.14                             146    0.25 7 97.6 175 
 RUS  HN ES   1    218  0.77                             146    0.13 7 97.6 175 
 RUS  HZ I         218  1.69         5.7 0.28            148           97.6 175 
 PTB  HZ EP        217 44.67                             133   -0.39 9  146 260 
 PTB  HN ES        218  5.81                             133   -0.48 9  146 260 
 PTB  HZ I         218 12.71         6.7 0.40            131            146 260 
 SPBC HN ES   1    218  9.06                             131    0.33 7  160 219 
 SPBC HZ I         218 11.56        13.5 0.28            130            160 219 
 ZAR  HN ES   1    218 16.46                             123    0.28 6  204 293 
 ZAR  HZ I         218 22.35         7.5 0.30            122            204 293 
 NOR  HN ES   1    218 21.05                             120   -0.38 6  232 235 
 NOR  HZ I         218 26.18         3.5 0.20            119            232 235 
 SML  HZ EP        217 55.18                             118    0.17 8  246 336 
 SML  HE ES   1    218 23.50                             118   -0.49 6  246 336 
 MON  HZ EP   4    218  5.25                             109   -1.90 0  355 309 
 MON  HN ES   4    218 44.10                             109   -1.51 0  355 309 
 MON  HZ I         218 59.31         1.6 0.56            109            355 309 
 SJC  HZ EP   4    218 12.35                             106   -1.45 0  411 327 
                                                                                
