 2015  717 0818 35.6 L   6.806 -73.137149.2  RSN  8 0.3 1.8LRSN                1
 GAP=137        0.73       2.3     3.6  5.0 -0.1648E+01  0.8930E+01 -0.1939E+01E
 Epicentro: LOS SANTOS - SANTANDER                                             3
 ACTION:UPD 15-09-08 21:49 OP:cam  STATUS:               ID:20150717081835 L   I
 OLDACT:DUP 15-07-17 16:44 OP:ak   STATUS:               ID:20150717080742d    3
 OLDACT:UP  15-07-17 16:43 OP:ak   STATUS:               ID:20150717080741     3
 OLDACT:REG 15-07-17 15:14 OP:ak   STATUS:               ID:20150717080741     3
 2015-07-17-0807-41M.COL___337                                                 6
 STAT SP IPHASW D HRMM SECON CODA AMPLIT PERI AZIMU VELO AIN AR TRES W  DIS CAZ7
 BAR2 EZ EP        818 55.75                             170    0.1110 24.1 192 
 BAR2 EZ ES        819 10.95                             170   -0.3310 24.1 192 
 BAR2 EZ I         819 13.86        13.6 0.34            171           24.1 192 
 PAM  EZ EP        818 58.34                             152    0.2410 76.3  39 
 PAM  EN ES        819 15.79                             152    0.1310 76.3  39 
 PAM  EZ I         819 18.09         6.5 0.22            155           76.3  39 
 RUS  HZ EP        818 59.55                             144   -0.1610  101 177 
 RUS  HN ES        819 18.72                             144    0.1910  101 177 
 RUS  HZ I         819 20.03         5.8 0.18            150            101 177 
 OCA  HZ EP        819  3.93                             130   -0.18 9  160 353 
 OCA  HN ES        819 26.36                             130   -0.00 9  160 353 
 OCA  HZ I         819 32.33         9.8 0.20            132            160 353 
 ZAR  HZ EP        819  8.05                             123   -0.26 9  205 292 
 ZAR  HN ES        819 34.56                             123    0.71 9  205 292 
 ZAR  HZ I         819 40.92         6.6 0.24            124            205 292 
 NOR  HZ EP        819 11.91                             119    0.28 8  236 234 
 NOR  HN ES        819 39.18                             119   -0.57 8  236 234 
 NOR  HZ I         819 43.87         7.4 0.19            122            236 234 
 SML  HZ EP        819 12.22                             118   -0.16 8  244 335 
 SML  HN ES        819 40.73                             118   -0.35 8  244 335 
 SML  HZ I         819 48.01         7.2 0.13            120            244 335 
 GUY2CHZ EP   1    819 19.81                             113    0.34 5  302 235 
 GUY2CHN ES        819 53.80                             113    0.09 7  302 235 
 GUY2CHZ I         820  0.59         4.7 0.34                           302 235 
 SJC  HZ EP   4    819 29.82                             106   -1.43 0  409 327 
 SJC  HN ES   4    820 11.88                             106   -2.80 0  409 327 
                                                                                
