 2014  317 0110 12.7 L   6.776 -73.146144.2  RSN  7 0.4 1.7LRSN                1
 GAP=138        0.85       3.5     4.2  6.8 -0.1893E+01  0.1100E+02 -0.5400E+01E
 Epicentro: LOS SANTOS - SANTANDER                                             3
 ACTION:UPD 14-04-09 23:18 OP:nd   STATUS:               ID:20140317011012 L   I
 OLDACT:REG 14-03-17 08:50 OP:mh   STATUS:               ID:20140317010811     3
 2014-03-17-0108-11M.COL___251                                                 6
 STAT SP IPHASW D HRMM SECON CODA AMPLIT PERI AZIMU VELO AIN AR TRES W  DIS CAZ7
 BAR2 SZ EP        110 32.07                             171    0.0010 20.8 191 
 BAR2 SZ ES        110 47.23                             171    0.0410 20.8 191 
 BAR2 SZ I         110 48.33        30.2 0.19            172           20.8 191 
 PAM  SZ EP        110 34.73                             150   -0.1210 79.4  38 
 PAM  SN ES        110 51.90                             150   -0.2410 79.4  38 
 PAM  SZ I         110 53.82         3.8 0.22            151           79.4  38 
 RUS  HZ EP   1    110 36.01                             144   -0.07 7 98.0 176 
 RUS  HN ES        110 54.64                             144    0.3010 98.0 176 
 RUS  HZ I         110 55.65         4.4 0.19            146           98.0 176 
 PTB  HZ EP   1    110 38.80                             132   -0.67 7  147 260 
 PTB  HN ES        110 59.71                             132   -0.65 9  147 260 
 PTB  HZ I         111  2.12         7.4 0.13            133            147 260 
 SPBC HZ EP   1    110 41.03                             129    0.17 7  161 220 
 SPBC HN ES   1    111  3.43                             129    0.59 7  161 220 
 ZAR  HZ EP   1    110 45.25                             122    0.13 6  205 293 
 ZAR  HN ES   1    111 10.78                             122    0.36 6  205 293 
 SML  HE ES        111 18.80                             117    0.63 8  246 336 
                                                                                
