 2011  917 0537 56.3 L   6.794 -73.106144.0  RSN 12 0.4 2.0LRSN                1
 GAP=142        0.70       2.8     4.5  5.1 -0.1988E+01  0.6028E+01  0.3098E+01E
 Epicentro: LOS SANTOS - SANTANDER                                             3
 ACTION:UPD 12-07-13 15:57 OP:ep   STATUS:               ID:20110917053756 L   I
 2011-09-17-0536-22S.COL___171                                                 6
 STAT SP IPHASW D HRMM SECON CODA AMPLIT PERI AZIMU VELO AIN AR TRES W  DIS CAZ7
 BTL  SZ EP        538 15.90                             171    0.1510 22.5 308 
 BAR2 SZ IP        538 15.62                             170   -0.1610 23.8 201 
 BAR2 SZ I         538 15.75        14.7 0.18                          23.8 201 
 BAR2 SZ ES   2    538 30.26                             170   -0.67 5 23.8 201 
 GIR2 SZ EP        538 15.72                             166   -0.1410 33.0 343 
 GIR2 SZ ES   2    538 30.86                             166   -0.21 5 33.0 343 
 PAM  SZ EP        538 18.51                             151    0.2610 75.2  37 
 PAM  SN ES   1    538 35.71                             151    0.38 7 75.2  37 
 BRR  HZ IP     D  538 17.53                             151   -0.0210 75.4 297 
 BRR  HN ES   1    538 34.86                             151    0.77 7 75.4 297 
 BRR  HZ I         538 37.20        34.9 0.12                          75.4 297 
 RUS  HZ EP        538 19.49                             144   -0.3710 99.7 179 
 RUS  HE ES   1    538 38.31                             144    0.11 7 99.7 179 
 RUS  HZ I         538 39.24         7.8 0.38                          99.7 179 
 OCA  SZ EP        538 24.64                             129    0.00 9  162 352 
 OCA  SZ ES   1    538 46.17                             129   -0.54 7  162 352 
 OCA  SZ I         538 51.18        12.5 0.23                           162 352 
 ZAR  HZ EP   3    538 29.01                             121   -0.11 2  208 292 
 ZAR  HE ES   2    538 53.71                             121   -0.98 4  208 292 
 ZAR  HZ I         538 59.33        16.6 0.56                           208 292 
 CHI  HZ EP   2    538 33.67                             117   -0.34 4  249 196 
 CHI  HN ES   2    539  2.84                             117   -0.54 4  249 196 
 CHI  HZ I         539 12.56         4.9 0.38                           249 196 
 HEL  HZ EP   2    538 36.58                             114   -0.34 4  276 256 
 HEL  HE ES   2    539  8.22                             114   -0.35 4  276 256 
 HEL  HZ I         539 16.26         4.4 0.24                           276 256 
 RREF HZ EP        538 43.26                             110    0.52 7  325 230 
 RREF HN ES   2    539 19.60                             110    0.67 3  325 230 
 PRA  HZ EP        538 50.29                             106    0.30 6  394 210 
 PRA  HE ES   1    539 32.02                             106    0.19 4  394 210 
                                                                                
