 2010  217 0745  6.4 L   6.813 -73.033138.0  RSN  8 0.4 1.9LRSN                1
 GAP=134        0.67       3.7     6.4  6.7 -0.8287E+01  0.6967E+01 -0.4457E+01E
 Epicentro: CEPITA - SANTANDER                                                 3
 ACTION:UP  10-08-24 09:49 OP:vdl  STATUS:               ID:20100217074506 L   I
 2010-02-17-0740-00S.COL___093                                                 6
 STAT SP IPHASW D HRMM SECON CODA AMPLIT PERI AZIMU VELO SNR AR TRES W  DIS CAZ7
 BAR2 SZ IP        745 25.61                             167     0.410   30 214 
 BAR2 SZ ES   2    745 39.19                             167    -0.7 5   30 214 
 RUS  BZ EP        745 29.34                             142    -0.110  102 183 
 RUS  BE ES   2    745 48.15                             142     0.7 5  102 183 
 OCA  SZ EP        745 33.95                             128    -0.2 9  161 349 
 OCA  SZ ES   2    745 55.68                             128    -0.1 5  161 349 
 OCA  SZ I         745 59.91        15.4 0.18                           161 349 
 CHI  HZ EP   2    745 43.66                             115    -0.5 4  254 198 
 CHI  HE ES   2    746 13.10                             115    -0.6 4  254 198 
 CHI  HZ I         746 15.63         2.8 0.08                           254 198 
 HEL  HZ EP        745 47.71                             112     0.1 7  285 256 
 RREF BZ EP   3    745 53.16                             109    -0.2 2  332 231 
 RREF BN ES   2    746 30.57                             109     0.5 3  332 231 
 RREF BZ I         746 35.20         3.8 0.69                           332 231 
 SDV  BZ EP        745 55.02                             107     0.1 6  350  49 
 PRA  HZ EP        746  0.26                             105    -0.3 6  400 211 
                                                                                
