 2017  317 0646 15.5 L   6.818 -73.092141.4  RSN 10 0.5 2.0LRSN                1
 GAP=143        1.14       4.3     5.7  6.4 -0.7366E+01  0.3739E+01  0.4078E+01E
 Epicentro: LOS SANTOS - SANTANDER                                             3
 ACTION:UPD 17-05-25 18:41 OP:jn   STATUS:               ID:20170317064615 L   I
 OLDACT:UP  17-03-17 16:49 OP:cog  STATUS:               ID:20170317063741     3
 OLDACT:UP  17-03-17 16:48 OP:cog  STATUS:               ID:20170317063741     3
 OLDACT:REG 17-03-17 13:37 OP:cog  STATUS:               ID:20170317063741     3
 2017-03-17-0638-00M.COL___402                                                 6
 STAT SP IPHASW D HRMM SECON CODA AMPLIT PERI AZIMU VELO AIN AR TRES W  DIS CAZ7
 BAR2 EZ EP        646 34.52                             169   -0.2110 26.9 202 
 BAR2 EZ ES        646 48.93                             169   -0.7710 26.9 202 
 BAR2 EZ I         646 51.31        29.6 0.24            166           26.9 202 
 PAM  EZ EP        646 37.27                             152    0.2910 72.1  37 
 PAM  EN ES        646 54.32                             152    0.6110 72.1  37 
 PAM  EZ I         646 56.26        49.7 0.50            157           72.1  37 
 BRR  HZ EP        646 36.26                             150   -0.2210 75.6 295 
 BRR  HN ES        646 53.20                             150    0.3810 75.6 295 
 BRR  HZ I         646 56.24        26.0 0.32            149           75.6 295 
 RUS  HZ EP        646 38.71                             142   -0.2910  102 179 
 RUS  HN ES        646 57.35                             142    0.0510  102 179 
 RUS  HZ I         646 59.20         5.1 0.46            143            102 179 
 PTB  HZ EP   9    646 41.31                             130   -1.43 0  154 259 
 PTB  HN ES        647  2.20                             130   -0.32 9  154 259 
 PTB  HZ I         647  7.79        15.2 0.30            130            154 259 
 SPBC HZ EP        646 43.70                             127   -0.53 9  169 220 
 SPBC HN ES        647  6.43                             127   -0.18 9  169 220 
 SPBC HZ I         647 13.60        11.7 0.14            127            169 220 
 ZAR  HZ EP        646 48.09                             121   -0.12 8  209 291 
 ZAR  HE ES   3    647 11.62                             121   -2.07 2  209 291 
 CHI  HZ EP        646 53.21                             116   -0.18 8  252 196 
 CHI  HE ES        647 23.75                             116    0.83 8  252 196 
 CHI  HZ I         647 26.41         3.8 0.22            117            252 196 
 ROSC BZ EP   9    646 55.13                             115    1.17 0  258 212 
 ROSC BN ES        647 25.80                             115    0.70 8  258 212 
 ROSC BZ I         647 30.37         8.8 0.45            116            258 212 
 GUY2CHZ EP   3    647  0.67                             111    1.03 2  307 235 
 GUY2CHN ES        647 35.01                             111    0.98 7  307 235 
                                                                                
