 2012  917 0405 14.9 L   6.772 -73.148144.8  RSN  6 0.3 1.6LRSN                1
 GAP=137        0.65       4.5     4.2  6.5  0.4197E+01  0.8315E+01  0.3036E+01E
 Epicentro: LOS SANTOS - SANTANDER                                             3
 ACTION:UPD 12-10-22 14:19 OP:ep   STATUS:               ID:20120917040514 L   I
 2012-09-17-0400-00M.COL___227                                                 6
 STAT SP IPHASW D HRMM SECON CODA AMPLIT PERI AZIMU VELO AIN AR TRES W  DIS CAZ7
 BAR2 SZ EP        4 5 34.45                             172    0.0710 20.2 191 
 BAR2 SZ ES   1    4 5 49.59                             172    0.04 7 20.2 191 
 BAR2 SZ I         4 5 52.69        10.2 0.16                          20.2 191 
 BRR  HZ EP        4 5 36.27                             152    0.2310 72.5 301 
 BRR  HN ES   1    4 5 52.98                             152    0.47 7 72.5 301 
 BRR  HZ I         4 5 53.97        14.2 0.10                          72.5 301 
 PAM  SN ES   1    4 5 54.05                             150   -0.51 7 80.0  38 
 RUS  HZ EP   1    4 5 38.56                             144    0.20 7 97.5 176 
 RUS  HN ES   1    4 5 56.61                             144   -0.03 7 97.5 176 
 RUS  HZ I         4 5 58.34         4.8 0.38                          97.5 176 
 PTB  HZ EP   1    4 5 41.34                             132   -0.39 7  147 260 
 PTB  HN ES   1    4 6  2.17                             132   -0.47 7  147 260 
 PTB  HZ I         4 6  5.27         3.7 0.14                           147 260 
 ZAR  HN ES   1    4 6 12.79                             122    0.06 6  205 293 
                                                                                
