 2010  917 0531 31.4 L   6.770 -73.034143.2  RSN  9 0.3 1.6LRSN                1
 GAP=172        0.71       3.0     7.0  5.5 -0.6712E+01 -0.3873E+01  0.1410E+01E
 Epicentro: CEPITA - SANTANDER                                                 3
 ACTION:UP  11-02-18 11:03 OP:tino STATUS:               ID:20100917053131 L   I
 2010-09-17-0530-04S.COL___118                                                 6
 STAT SP IPHASW D HRMM SECON CODA AMPLIT PERI AZIMU VELO SNR AR TRES W  DIS CAZ7
 BAR2 SZ EP        531 50.73                             169    -0.110   26 220 
 BAR2 SZ ES   1    532  5.78                             169    -0.2 7   26 220 
 BAR2 SZ I         532  7.75         9.9 0.22                            26 220 
 BTL  SZ EP        531 51.21                             167     0.310   31 302 
 BRR  HZ EP        531 52.77                             148    -0.310   84 297 
 BRR  HE ES   1    532 10.03                             148     0.1 7   84 297 
 BRR  HZ I         532 10.99        10.7 0.18                            84 297 
 RUS  HZ EP        531 54.52                             144    -0.210   97 183 
 RUS  HZ I         531 55.21         4.1 0.21                            97 183 
 RUS  HN ES   1    532 13.18                             144     0.3 7   97 183 
 GUE  SZ EP        531 55.96                             138    -0.110  118   6 
 GRA  SZ EP        531 56.84                             136     0.410  126  12 
 GRA  SZ ES   1    532 15.80                             136    -0.2 7  126  12 
 GRA  SZ I         532 17.83         5.3 0.46                           126  12 
 OCA  SZ EP   2    532  0.09                             128     0.0 5  165 349 
 OCA  SZ I         532 25.87         5.4 0.29                           165 349 
 CHI  HZ EP        532  8.66                             117    -0.4 8  249 198 
 CHI  HN ES   1    532 38.56                             117     0.2 6  249 198 
 CHI  HZ I         532 41.52         2.1 1.08                           249 198 
 RREF HZ EP   1    532 18.98                             110     0.7 5  329 231 
 RREF HN ES   3    532 54.99                             110     0.1 2  329 231 
 RREF HZ I         533  0.14         3.5 0.25                           329 231 
                                                                                
