 2016 1017 0734  7.6 L   6.752 -73.137145.8  RSN  4 0.3 1.7LRSN                1
 GAP=235        0.76       6.1     6.0  6.6  0.1626E+02  0.6267E+01 -0.2450E+01E
 Epicentro: LOS SANTOS - SANTANDER                                             3
 ACTION:UPD 16-11-09 19:20 OP:rebc STATUS:               ID:20161017073407 L   I
 OLDACT:UP  16-10-19 19:41 OP:nlst STATUS:               ID:20161017073407 L   3
 OLDACT:DUP 16-10-17 20:00 OP:and  STATUS:               ID:20161017072737d    3
 OLDACT:REG 16-10-17 11:58 OP:and  STATUS:               ID:20161017072736     3
 2016-10-17-0728-00M.COL___344                                                 6
 STAT SP IPHASW D HRMM SECON CODA AMPLIT PERI AZIMU VELO AIN AR TRES W  DIS CAZ7
 BAR2 EZ EP        734 27.16                             172    0.0210 18.4 196 
 BAR2 EZ I         734 34.18        21.2 0.88            172           18.4 196 
 BAR2 EZ ES        734 41.93                             172   -0.4610 18.4 196 
 BRR  HZ EP        734 28.92                             151   -0.0310 74.7 302 
 BRR  HZ I         734 34.16         7.1 0.78            150           74.7 302 
 BRR  HE ES        734 45.96                             151    0.3510 74.7 302 
 RUS  HZ EP   2    734 31.65                             145    0.68 5 95.2 176 
 RUS  HZ I         734 34.09         6.2 1.14            143           95.2 176 
 RUS  HE ES        734 49.40                             145    0.1910 95.2 176 
 PTB  HZ EP        734 34.19                             132   -0.37 9  148 261 
 PTB  HZ I         734 35.45         4.5 1.16            132            148 261 
 PTB  HN ES        734 55.70                             132    0.10 9  148 261 
                                                                                
