 2011  517 0239 46.2 L   6.778 -73.097141.2  RSN  7 0.2 1.5LRSN                1
 GAP=144        0.35       2.3     5.1  4.2 -0.1172E+01 -0.3332E+01 -0.1410E+01E
 Epicentro: LOS SANTOS - SANTANDER                                             3
 ACTION:UP  11-06-29 08:53 OP:tino STATUS:               ID:20110517023946 L   I
 2011-05-17-0239-19S.COL___141                                                 6
 STAT SP IPHASW D HRMM SECON CODA AMPLIT PERI AZIMU VELO SNR AR TRES W  DIS CAZ7
 BAR2 SZ ES   2    240 19.84                             170    -0.3 5   23 205 
 BAR2 SZ I         240 21.43         8.0 0.52                            23 205 
 BTL  SZ EP   1    240  5.20                             170    -0.1 7   24 310 
 PAM  SZ EP   1    240  7.85                             150     0.0 7   76  35 
 PAM  SN ES   2    240 24.78                             150     0.1 5   76  35 
 BRR  HN ES   2    240 23.87                             150     0.3 5   77 298 
 RUS  HZ EP   1    240  9.37                             144     0.1 7   98 179 
 RUS  HN ES   2    240 27.29                             144     0.0 5   98 179 
 RUS  HZ I         240 28.27         2.7 0.26                            98 179 
 GRA  SZ EP   1    240 11.22                             136     0.1 7  127  15 
 GRA  SZ ES   2    240 30.68                             136     0.2 5  127  15 
 GRA  SZ I         240 31.62         4.3 0.32                           127  15 
 OCA  SZ EP   1    240 14.28                             128    -0.2 7  163 351 
 OCA  SZ ES   2    240 36.26                             128    -0.2 5  163 351 
 OCA  SZ I         240 37.55         5.7 0.21                           163 351 
                                                                                
