 2015  917 0856 24.4 L   6.815 -73.199132.0  RSN  4 0.3 1.0LRSN                1
 GAP=129        0.63       3.2     2.9  6.7 -0.1656E+00  0.7622E+01 -0.1326E+01E
 Epicentro: ZAPATOCA - SANTANDER                                               3
 ACTION:UPD 15-10-28 16:26 OP:cam  STATUS:               ID:20150917085624 L   I
 OLDACT:DUP 15-09-17 19:51 OP:drio STATUS:               ID:20150917084749d    3
 2015-09-17-0847-48M.COL___343                                                 6
 STAT SP IPHASW D HRMM SECON CODA AMPLIT PERI AZIMU VELO AIN AR TRES W  DIS CAZ7
 PAM  EZ EP        856 45.17                             147   -0.1310 80.1  44 
 PAM  EE ES        857  1.70                             147    0.0610 80.1  44 
 PAM  EZ I         857  4.39         2.4 0.48            153           80.1  44 
 RUS  HZ EP        856 46.85                             140   -0.0910  103 173 
 RUS  HE ES        857  4.75                             140    0.1810  103 173 
 RUS  HZ I         857  5.88         1.1 0.33            147            103 173 
 PTB  HZ EP        856 49.33                             130   -0.38 9  142 258 
 PTB  HN ES        857  9.51                             130    0.01 9  142 258 
 PTB  HZ I         857 14.99         1.5 0.11            133            142 258 
 ZAR  HZ EP   1    856 56.00                             120    0.71 6  198 292 
 ZAR  HE ES        857 19.44                             120    0.02 9  198 292 
 ZAR  HZ I         857 26.08         1.5 0.16            123            198 292 
                                                                                
