 2011  717 0855 11.9 L   7.406 -73.230133.9  RSN  5 0.2 1.5LRSN                1
 GAP=119        0.42       2.7     4.5  4.7 -0.3367E+01  0.3592E+01 -0.4661E+01E
 Epicentro: EL PLAYON - SANTANDER                                              3
 ACTION:UPD 12-07-25 14:01 OP:epov STATUS:               ID:20110717085511 L   I
 2011-07-17-0851-16S.COL___142                                                 6
 STAT SP IPHASW D HRMM SECON CODA AMPLIT PERI AZIMU VELO AIN AR TRES W  DIS CAZ7
 GIR2 SZ ES        855 44.85                             164    0.1710 36.4 174 
 BRI  SZ EP   1    855 31.56                             155    0.24 7 58.8  54 
 BRI  SZ ES   1    855 46.30                             155   -0.19 7 58.8  54 
 BRI  SZ I         855 49.28         5.2 0.16                          58.8  54 
 BRR  HZ EP   1    855 31.09                             153   -0.18 7 62.7 238 
 BRR  HN ES   1    855 46.45                             153    0.06 7 62.7 238 
 BRR  HZ I         855 47.78         7.8 0.12                          62.7 238 
 BAR2 SZ ES   1    855 49.89                             144   -0.21 7 90.1 177 
 BAR2 SZ I         855 50.49         8.3 0.10                          90.1 177 
 OCA  SZ EP   1    855 33.46                             143    0.05 7 92.6 354 
 OCA  SZ ES   1    855 50.13                             143   -0.08 7 92.6 354 
 OCA  SZ I         855 54.01         5.0 0.53                          92.6 354 
                                                                                
