 2011  617 0452 28.6 L   6.820 -73.031134.8  RSN  7 0.4 1.3LRSN                1
 GAP=169        0.73       5.2    10.6 10.2 -0.1225E+02 -0.1571E+02  0.2591E+01E
 Epicentro: CEPITA - SANTANDER                                                 3
 ACTION:UP  11-07-14 19:05 OP:ep   STATUS:               ID:20110617045228 L   I
 2011-06-17-0452-26S.COL___135                                                 6
 STAT SP IPHASW D HRMM SECON CODA AMPLIT PERI AZIMU VELO SNR AR TRES W  DIS CAZ7
 BTL  SZ EP   1    452 47.27                             168     0.2 7   28 293 
 BAR2 SZ ES   2    453  1.37                             167    -0.2 5   30 214 
 BAR2 SZ I         453  3.19         6.9 0.24                            30 214 
 GIR2 SZ EP   2    452 46.97                             165    -0.1 5   34 328 
 BRR  HZ EP   1    452 48.83                             147    -0.4 7   82 293 
 BRR  HZ I         452 49.18         7.7 0.10                            82 293 
 BRR  HE ES   2    453  5.79                             147     0.4 5   82 293 
 BRI  SZ EP   2    452 50.93                             141    -0.1 5  102  15 
 BRI  SZ ES   2    453  7.82                             141    -0.7 5  102  15 
 BRI  SZ I         453 15.26         3.2 0.41                           102  15 
 RUS  HZ EP   1    452 51.34                             141    -0.1 7  103 183 
 RUS  HN ES   2    453  9.74                             141     0.4 5  103 183 
 RUS  HZ I         453 10.73         1.2 0.22                           103 183 
 GRA  SZ EP   2    452 53.20                             136     0.7 5  120  12 
 GRA  SZ ES   2    453 11.43                             136     0.4 5  120  12 
 GRA  SZ I         453 13.38         3.2 0.47                           120  12 
                                                                                
