 2017  117 0209 20.3 L   7.153 -73.909 13.0  RSN  5 0.4 1.2LRSN                1
 GAP=151        1.05       3.9     2.0  5.4  0.1434E+00  0.6024E+00  0.7687E+01E
 Epicentro: BARRANCABERMEJA - SANTANDER                                        3
 ACTION:UPD 17-05-22 16:00 OP:jn   STATUS:               ID:20170117020920 L   I
 OLDACT:REG 17-01-17 12:29 OP:dani STATUS:               ID:20170117020740     3
 2017-01-17-0208-00M.COL___329                                                 6
 STAT SP IPHASW D HRMM SECON CODA AMPLIT PERI AZIMU VELO AIN AR TRES W  DIS CAZ7
 BRR  HZ EP        2 9 24.61                             116   -0.0310 22.4 103 
 BRR  HE ES        2 9 28.39                             116    0.4010 22.4 103 
 BRR  HZ I         2 9 29.20        45.0 0.24             47           22.4 103 
 PTB  HZ EP        2 9 34.80                              96    0.0010 90.9 222 
 PTB  HE ES        2 9 45.70                              96   -0.3710 90.9 222 
 PTB  HZ I         2 9 46.30         6.6 0.28             47           90.9 222 
 ZAR  HZ EP        2 9 38.17                              95    0.3110  111 290 
 ZAR  HE ES        2 9 51.38                              95   -0.1510  111 290 
 ZAR  HZ I         2 9 53.88         5.3 0.07             47            111 290 
 PAM  EZ EP        2 9 42.25                              94    0.28 9  135  81 
 PAM  EE ES        2 9 57.97                              94   -0.87 9  135  81 
 PAM  EZ I         210  1.96         3.9 0.20             47            135  81 
 RUS  HZ EP        2 9 46.91                              56    0.65 9  167 147 
 RUS  HN ES     D  210  6.29                              56   -0.19 9  167 147 
 RUS  HZ I         210  9.44         3.7 0.40             47            167 147 
                                                                                
