 2013  517 0400 28.9 L   6.788 -73.158139.3  RSN  9 0.5 1.9LRSN                1
 GAP=136        1.23       4.5     5.6  7.0 -0.1402E+01  0.5251E+01  0.4607E+00E
 Epicentro: LOS SANTOS - SANTANDER                                             3
 ACTION:UPD 13-06-20 09:51 OP:ep   STATUS:               ID:20130517040028 L   I
 2013-05-17-0400-00M.COL___253                                                 6
 STAT SP IPHASW D HRMM SECON CODA AMPLIT PERI AZIMU VELO AIN AR TRES W  DIS CAZ7
 BAR2 SZ EP        4 0 47.81                             171    0.0410 21.8 187 
 BAR2 SZ ES        4 1  2.16                             171   -0.2910 21.8 187 
 BAR2 SZ I         4 1  3.62        13.8 0.14            163           21.8 187 
 GIR2 SZ EP        4 0 47.97                             166    0.0910 32.4 353 
 GIR2 SZ ES        4 1  2.65                             166   -0.0010 32.4 353 
 GIR2 SZ I         4 1  4.45        14.5 0.46            168           32.4 353 
 BRR  HZ EP        4 0 49.95                             152    0.5810 70.7 300 
 BRR  HE ES        4 1  6.38                             152    1.0810 70.7 300 
 BRR  HZ I         4 1 10.79        12.7 0.12            147           70.7 300 
 PAM  SZ EP        4 0 50.85                             149    0.2610 79.2  40 
 PAM  SE ES        4 1  7.49                             149    0.0110 79.2  40 
 PAM  SZ I         4 1  9.75        26.3 0.42            149           79.2  40 
 RUS  HZ EP        4 0 51.92                             143   -0.0610 99.4 175 
 RUS  HN ES        4 1  9.81                             143   -0.1310 99.4 175 
 RUS  HZ I         4 1 11.83         8.6 0.28            135           99.4 175 
 PTB  HZ EP   1    4 0 55.16                             131   -0.09 7  146 259 
 PTB  HN ES        4 1 14.83                             131   -0.94 9  146 259 
 PTB  HZ I         4 1 18.87        10.1 0.14            124            146 259 
 OCA  HZ EP        4 0 56.60                             128   -0.27 9  161 354 
 OCA  HN ES        4 1 17.76                             128   -0.90 9  161 354 
 OCA  HZ I         4 1 21.94        11.9 0.20            125            161 354 
 ZAR  HN ES   1    4 1 26.24                             121    0.41 6  203 293 
 PRA  HZ EP        4 1 22.28                             105    0.25 6  390 209 
 PRA  HZ I         4 2  9.00         2.4 0.26            101            390 209 
                                                                                
