 2014 1217 0302 50.3 L   6.806 -73.156144.1  RSN 19 0.5 2.3LRSN                1
 GAP= 70        1.02       2.7     2.9  5.1 -0.7396E+00  0.3476E+01  0.1024E+01E
 Epicentro: LOS SANTOS - SANTANDER                                             3
 ACTION:UPD 15-02-10 17:04 OP:nd   STATUS:               ID:20141217030250 L   I
 OLDACT:REG 14-12-17 12:32 OP:spq  STATUS:               ID:20141217025735     3
 2014-12-17-0257-35M.COL___293                                                 6
 STAT SP IPHASW D HRMM SECON CODA AMPLIT PERI AZIMU VELO AIN AR TRES W  DIS CAZ7
 BAR2 EZ EP        3 3  9.81                             170    0.0310 23.9 187 
 BAR2 EZ ES   1    3 3 24.52                             170   -0.42 7 23.9 187 
 BAR2 EZ I         3 3 26.18        69.7 0.18            168           23.9 187 
 BRR  HZ EP     C  3 3 11.72                             153    0.4910 69.9 298 
 BRR  HN ES        3 3 28.49                             153    0.9610 69.9 298 
 BRR  HZ I         3 3 31.59        41.5 0.30            151           69.9 298 
 PAM  SZ EP     C  3 3 12.67                             150    0.2810 77.6  41 
 PAM  SN ES        3 3 29.63                             150    0.0510 77.6  41 
 PAM  SZ I         3 3 32.14        55.0 0.42            155           77.6  41 
 RUS  HZ EP        3 3 13.79                             143   -0.1910  101 175 
 RUS  HE ES        3 3 32.07                             143   -0.3610  101 175 
 RUS  HZ I         3 3 33.20        18.6 0.24            144            101 175 
 PTB  HZ EP        3 3 16.51                             132   -0.57 9  147 258 
 PTB  HE ES        3 3 37.23                             132   -0.71 9  147 258 
 PTB  HZ I         3 3 39.84        17.2 0.12            131            147 258 
 TAM  HZ EP     D  3 3 18.18                             130    0.18 9  156 105 
 TAM  HN ES        3 3 39.68                             130    0.10 9  156 105 
 TAM  HZ I         3 3 40.38        14.6 0.54            134            156 105 
 OCA  HZ EP        3 3 18.11                             129   -0.33 9  159 354 
 OCA  HN ES        3 3 39.88                             129   -0.48 9  159 354 
 OCA  HZ I         3 3 45.12        27.3 0.28            132            159 354 
 SPBC HZ EP        3 3 18.77                             129    0.07 9  163 219 
 SPBC HE ES        3 3 40.93                             129    0.12 9  163 219 
 SPBC HZ I         3 3 47.79        21.5 0.42            128            163 219 
 ZAR  HZ EP        3 3 22.57                             122    0.03 9  203 292 
 ZAR  HN ES        3 3 48.27                             122    0.61 9  203 292 
 ZAR  HZ I         3 3 54.80        26.9 0.66            123            203 292 
 NOR  HZ EP   1    3 3 26.18                             118    0.26 6  234 234 
 NOR  HN ES        3 3 53.66                             118   -0.01 8  234 234 
 NOR  HZ I         3 4  1.02        11.9 0.12            118            234 234 
 SML  HZ EP        3 3 26.14                             117   -0.61 8  243 335 
 SML  HN ES   1    3 3 54.91                             117   -0.24 6  243 335 
 SML  HZ I         3 3 58.96        30.0 0.10            119            243 335 
 CHI  HZ EP   1    3 3 27.53                             117   -0.46 6  249 195 
 CHI  HE ES   1    3 3 57.13                             117   -0.22 6  249 195 
 CHI  HZ I         3 4  4.03         7.9 0.34            117            249 195 
 ROSC BN ES   4    3 4  0.51                             116    2.47 0  253 211 
 ROSC BZ I         3 4  7.61         9.7 0.45            117            253 211 
 HEL  HZ EP   1    3 3 30.61                             114    0.24 6  271 256 
 HEL  HN ES   4    3 4  2.90                             114    1.32 0  271 256 
 HEL  HZ I         3 4  8.99         9.0 0.46            115            271 256 
 CBOC HZ EP        3 3 37.81                             110    0.72 7  333 252 
 CBOC HN ES        3 4 12.71                             110   -0.84 7  333 252 
 CBOC HZ I         3 4 18.61         2.3 0.18            110            333 252 
 TOL  SZ EP   1    3 3 39.18                             109    0.68 5  343 224 
 TOL  SN ES   1    3 4 16.63                             109    0.57 5  343 224 
 TOL  SZ I         3 4 22.91        12.7 0.52            110            343 224 
 MON  HZ EP   4    3 3 37.41                             108   -1.71 0  352 308 
 MON  HN ES   4    3 4 15.92                             108   -1.25 0  352 308 
 MON  HZ I         3 4 16.78         5.2 0.18            109            352 308 
 ORTC HZ EP        3 3 44.83                             106    0.64 6  395 216 
 ORTC HE ES   4    3 4 27.26                             106    1.06 0  395 216 
 ORTC HZ I         3 4 33.13         4.6 0.30            107            395 216 
 SJC  HZ EP   4    3 3 44.43                             105   -1.28 0  408 327 
 SJC  HN ES   4    3 4 26.04                             105   -2.85 0  408 327 
 SJC  HZ I         3 4 29.96         7.5 0.46            107            408 327 
                                                                                
