 2012  917 0220 21.6 L   6.704 -73.217147.2  RSN  5 0.3 1.6LRSN                1
 GAP=213        0.63       6.1     6.0  6.0  0.1801E+02  0.5215E+01 -0.3810E+01E
 Epicentro: VILLANUEVA - SANTANDER                                             3
 ACTION:UPD 12-10-22 14:19 OP:ep   STATUS:               ID:20120917022021 L   I
 2012-09-17-0220-00M.COL___227                                                 6
 STAT SP IPHASW D HRMM SECON CODA AMPLIT PERI AZIMU VELO AIN AR TRES W  DIS CAZ7
 BAR2 SZ EP   1    220 41.08                             175   -0.15 7 12.9 163 
 BAR2 SZ ES   1    220 56.18                             175   -0.37 7 12.9 163 
 BAR2 SZ I         220 57.52        18.7 0.18                          12.9 163 
 BRR  HZ EP        220 42.70                             153   -0.1610 70.6 309 
 BRR  HZ I         220 42.89        16.3 0.14                          70.6 309 
 BRR  HN ES   1    220 59.87                             153    0.42 7 70.6 309 
 RUS  HZ EP   1    220 44.91                             147    0.10 7 90.9 171 
 RUS  HN ES   1    221  3.27                             147    0.34 7 90.9 171 
 RUS  HZ I         221  4.52         3.8 0.32                          90.9 171 
 PTB  HZ EP   1    220 47.52                             134   -0.31 7  138 263 
 PTB  HN ES   1    221  8.13                             134   -0.16 7  138 263 
 PTB  HZ I         221 13.75         2.5 0.32                           138 263 
 ZAR  HZ EP   1    220 54.32                             123    0.49 6  201 296 
 ZAR  HZ I         221 21.31         3.3 0.14                           201 296 
                                                                                
