 2017  117 0346 28.2 L   6.779 -73.154144.1  RSN  7 0.5 1.4LRSN                1
 GAP=136        0.95       4.8     4.2  7.4  0.1756E+01  0.7794E+01  0.1267E+01E
 Epicentro: LOS SANTOS - SANTANDER                                             3
 ACTION:UPD 17-05-22 16:00 OP:jn   STATUS:               ID:20170117034628 L   I
 OLDACT:UP  17-01-17 16:22 OP:dani STATUS:               ID:20170117033742     3
 OLDACT:UP  17-01-17 16:21 OP:dani STATUS:               ID:20170117033742     3
 OLDACT:UP  17-01-17 16:18 OP:dani STATUS:               ID:20170117033742     3
 OLDACT:REG 17-01-17 12:50 OP:dani STATUS:               ID:20170117033742     3
 2017-01-17-0338-00M.COL___329                                                 6
 STAT SP IPHASW D HRMM SECON CODA AMPLIT PERI AZIMU VELO AIN AR TRES W  DIS CAZ7
 BRR  HZ EP        346 49.53                             152    0.3610 71.5 300 
 BRR  HN ES        347  5.63                             152    0.0910 71.5 300 
 BRR  HZ I         347 10.46         3.6 0.15            153           71.5 300 
 PAM  EZ EP        346 50.38                             150    0.0110 79.7  39 
 PAM  EE ES        347  7.40                             150   -0.2710 79.7  39 
 PAM  EZ I         347  9.75         5.0 0.66            152           79.7  39 
 RUS  HZ EP        346 51.57                             144   -0.0510 98.4 175 
 RUS  HN ES        347  9.92                             144    0.0310 98.4 175 
 RUS  HZ I         347 11.13         2.1 0.37            148           98.4 175 
 PTB  HZ EP        346 55.39                             132    0.49 9  146 260 
 PTB  HN ES        347 15.23                             132   -0.50 9  146 260 
 PTB  HZ I         347 17.44         3.2 0.28            134            146 260 
 ZAR  HN ES        347 26.23                             122    0.48 9  204 293 
 URE  HZ EP        347  8.29                             113   -0.88 7  284 292 
 URE  HN ES   3    347 38.86                             113   -2.29 2  284 292 
 URE  HZ I         347 43.56         3.3 0.13            115            284 292 
 GUY2CHZ EP   3    347 12.80                             112    1.32 2  299 235 
                                                                                
