 2013  817 0224  7.9 L   7.500 -73.531 94.0  RSN  4 0.5 1.5LRSN                1
 GAP=123        1.14       6.4     4.8 17.1 -0.3075E+01  0.3366E+02  0.4900E+02E
 Epicentro: SABANA DE TORRES - SANTANDER                                       3
 2013-08-17-0218-40M.COL___214                                                 6
 OLDACT:DUP 13-08-17 11:23 OP:stll STATUS:               ID:20130817021841d    3
 ACTION:UPD 14-01-14 09:03 OP:ep   STATUS:               ID:20130817022408 L   I
 OLDACT:UP  13-08-19 05:25 OP:CF   STATUS:               ID:20130817022408 L   3
 OLDACT:UP  13-08-17 11:34 OP:stll STATUS:               ID:20130817021841d    3
 STAT SP IPHASW D HRMM SECON CODA AMPLIT PERI AZIMU VELO AIN AR TRES W  DIS CAZ7
 OCA  HN ES        224 38.15                             134   -0.4410 85.0  16 
 PAM  SZ EP        224 26.77                             132    0.4110 93.5 101 
 PAM  SN ES        224 40.92                             132    0.1710 93.5 101 
 PAM  SZ I         224 45.86         3.9 1.52            148           93.5 101 
 ZAR  HZ EP   1    224 31.16                             118    0.06 7  146 270 
 ZAR  HN ES   1    224 50.32                             118    1.14 7  146 270 
 ZAR  HZ I         224 57.28         4.4 4.28            129            146 270 
 PTB  HZ EP        224 30.73                             118   -0.48 9  147 224 
 PTB  HN ES        224 49.02                             118   -0.36 9  147 224 
 PTB  SZ I         225  4.74        12.7 0.04            126            147 224 
                                                                                
