 2012  317 0630 56.0 L   6.778 -73.144147.1  RSN  7 0.5 1.6LRSN                1
 GAP=138        1.24       8.0     7.8 11.5 -0.1236E+02  0.2091E+02 -0.4653E+01E
 ACTION:UP  12-03-31 23:20 OP:EP   STATUS:               ID:20120317063056 L   I
 2012-03-17-0630-00M.COL___202                                                 6
 STAT SP IPHASW D HRMM SECON CODA AMPLIT PERI AZIMU VELO SNR AR TRES W  DIS CAZ7
 BAR2 SZ EP   1    631 15.50                             172    -0.2 7   21 192 
 BAR2 SZ ES   1    631 30.90                             172    -0.2 7   21 192 
 BAR2 SZ I         631 32.27         7.6 0.26                            21 192 
 BRR  HZ EP        631 17.43                             152     0.110   73 300 
 BRR  HE ES   1    631 34.88                             152     0.9 7   73 300 
 BRR  HZ I         631 37.63         9.0 0.15                            73 300 
 PAM  SZ EP   1    631 19.28                             150     0.8 7   79  38 
 PAM  SN ES   1    631 35.40                             150    -0.6 7   79  38 
 RUS  HZ EP   1    631 19.43                             145    -0.3 7   98 176 
 RUS  HN ES   1    631 38.32                             145     0.1 7   98 176 
 RUS  HZ I         631 39.42         3.0 0.24                            98 176 
 PTB  HN ES   1    631 43.28                             132    -0.8 7  147 260 
 ZAR  HZ EP   1    631 28.05                             122    -0.6 6  205 293 
 ZAR  HZ I         631 59.98         8.9 0.36                           205 293 
 NOR  SN ES   1    632  0.07                             119     0.6 6  233 235 
                                                                                
