 2017  917 0957  2.8 L   6.721 -73.202142.2  RSN  4 0.5 1.4LRSN                1
 GAP=224        1.18      12.7    14.5  9.4  0.1546E+03  0.2600E+02  0.4708E+01E
 Epicentro: VILLANUEVA - SANTANDER                                             3
 ACTION:UPD 17-10-05 19:13 OP:rebc STATUS:               ID:20170917095702 L   I
 OLDACT:REG 17-09-17 13:34 OP:lv   STATUS:               ID:20170917094738     3
 2017-09-17-0948-00M.COL___405                                                 6
 STAT SP IPHASW D HRMM SECON CODA AMPLIT PERI AZIMU VELO AIN AR TRES W  DIS CAZ7
 BAR2 EZ EP        957 21.59                             174   -0.2910 14.4 171 
 BAR2 EZ ES        957 36.27                             174   -0.4710 14.4 171 
 BAR2 EZ I         957 37.52         8.2 0.34            165           14.4 171 
 BRR  HZ EP        957 23.24                             152   -0.3310 70.7 307 
 BRR  HE ES        957 40.57                             152    0.8310 70.7 307 
 RUS  HZ EP        957 26.14                             145    0.4810 92.6 172 
 RUS  HN ES        957 43.46                             145   -0.0110 92.6 172 
 RUS  HZ I         957 45.21         2.7 0.30            142           92.6 172 
 ZAR  HZ EP        957 35.09                             122    0.27 9  202 295 
 ZAR  HE ES        957 59.21                             122   -0.56 9  202 295 
 ZAR  HZ I         958  5.51         2.8 0.30            120            202 295 
                                                                                
