 2012  317 0514 54.1 L   6.752 -73.185149.0  RSN  7 0.2 1.7LRSN                1
 GAP=134        0.62       4.6     4.2  6.1  0.5894E+01 -0.3216E+01 -0.1008E+02E
 ACTION:UP  12-03-31 23:20 OP:EP   STATUS:               ID:20120317051454 L   I
 2012-03-17-0510-00M.COL___201                                                 6
 STAT SP IPHASW D HRMM SECON CODA AMPLIT PERI AZIMU VELO SNR AR TRES W  DIS CAZ7
 BAR2 SZ EP   1    515 13.84                             173    -0.2 7   18 179 
 BAR2 SZ ES   1    515 29.45                             173    -0.1 7   18 179 
 BAR2 SZ I         515 31.23         6.9 0.30                            18 179 
 BRR  HZ EP        515 15.58                             153     0.010   70 304 
 BRR  HN ES   1    515 32.47                             153     0.2 7   70 304 
 BRR  HZ I         515 33.58        11.7 0.17                            70 304 
 PAM  SZ EP   1    515 16.70                             150    -0.4 7   84  40 
 RUS  HZ EP   1    515 18.23                             146     0.4 7   96 173 
 RUS  HN ES   1    515 36.45                             146     0.1 7   96 173 
 RUS  HZ I         515 38.96         5.3 0.30                            96 173 
 PTB  HZ EP   1    515 20.60                             133    -0.3 7  142 261 
 PTB  HN ES   1    515 41.61                             133    -0.1 7  142 261 
 PTB  HZ ES   1    515 42.19                             133            142 261 
 PTB  HZ I         515 44.06         6.7 0.06                           142 261 
 OCA  SZ EP   1    515 23.49                             130     0.4 7  165 355 
 ZAR  HE ES   1    515 51.98                             123     0.1 6  202 294 
 ZAR  HZ I         515 58.03         7.8 0.34                           202 294 
                                                                                
