 2017 1017 0143 10.5 L   6.360 -73.696102.0  RSN  5 0.2 1.1LRSN                1
 GAP=156        0.54       3.1     2.4  4.7  0.3253E+01  0.1723E+01  0.4931E+01E
 Epicentro: SANTA HELENA DEL OPON - SANTANDER                                  3
 ACTION:UPD 17-11-07 19:32 OP:rebc STATUS:               ID:20171017014310 L   I
 OLDACT:REG 17-10-17 12:20 OP:dani STATUS:               ID:20171017013743     3
 2017-10-17-0138-00M.COL___434                                                 6
 STAT SP IPHASW D HRMM SECON CODA AMPLIT PERI AZIMU VELO AIN AR TRES W  DIS CAZ7
 BAR2 EZ EP        143 26.98                             146    0.0910 62.4  66 
 BAR2 EZ ES        143 39.56                             146   -0.0710 62.4  66 
 BAR2 EZ I         143 40.62         7.8 0.26            147           62.4  66 
 BRR  HZ EP        143 27.86                             138   -0.2210 82.6 359 
 BRR  HE ES        143 41.92                             138    0.1610 82.6 359 
 BRR  HZ I         143 52.15         4.0 0.41            137           82.6 359 
 RUS  HZ EP        143 28.81                             137   -0.1710 85.3 127 
 RUS  HE ES        143 43.31                             137   -0.0510 85.3 127 
 RUS  HZ I         143 45.04         2.1 0.23            144           85.3 127 
 PTB  HZ EP        143 28.19                             136   -0.2210 86.4 283 
 PTB  HE ES        143 42.53                             136    0.1810 86.4 283 
 PTB  HZ I         143 45.09         1.6 0.14            139           86.4 283 
 YPLC HZ EP        143 38.39                             114    0.38 9  181 126 
                                                                                
