 2017 1017 0308 58.2 L   6.873 -73.193153.1  RSN  7 0.7 1.6LRSN                1
 GAP=105        1.66       6.8     7.6 10.0  0.1543E+02  0.4825E+01 -0.2455E+01E
 Epicentro: BETULIA - SANTANDER                                                3
 ACTION:UPD 17-11-07 19:32 OP:rebc STATUS:               ID:20171017030858 L   I
 OLDACT:UP  17-10-17 14:17 OP:dani STATUS:               ID:20171017030736     3
 OLDACT:REG 17-10-17 12:25 OP:dani STATUS:               ID:20171017030736     3
 2017-10-17-0308-00M.COL___425                                                 6
 STAT SP IPHASW D HRMM SECON CODA AMPLIT PERI AZIMU VELO AIN AR TRES W  DIS CAZ7
 BAR2 EZ EP        3 9 18.74                             168   -0.1610 31.0 178 
 BAR2 EZ ES        3 9 34.17                             168   -0.8710 31.0 178 
 BAR2 EZ I         3 9 34.68         7.7 0.26            169           31.0 178 
 BRR  HZ EP        3 9 20.48                             156    0.7410 63.0 294 
 BRR  HN ES        3 9 37.57                             156    1.0410 63.0 294 
 BRR  HZ I         3 9 41.35         5.9 0.20            156           63.0 294 
 PAM  EZ EP        3 9 21.57                             152    0.4810 75.0  47 
 PAM  EE ES        3 9 38.59                             152   -0.3310 75.0  47 
 PAM  EZ I         3 9 40.53         7.8 0.52            154           75.0  47 
 RUS  HZ EP        3 9 22.86                             143   -0.4510  109 174 
 RUS  HN ES        3 9 42.04                             143   -0.8310  109 174 
 RUS  HZ I         3 9 43.36         5.1 0.24            145            109 174 
 PTB  HZ EP        3 9 25.61                             134    0.10 9  144 255 
 PTB  HN ES        3 9 46.64                             134   -0.15 9  144 255 
 PTB  HZ I         3 9 49.12         4.0 0.16            135            144 255 
 YPLC HZ EP        3 9 29.25                             126   -0.23 9  186 151 
 YPLC HN ES        3 9 55.10                             126    1.23 9  186 151 
 YPLC HZ I         3 9 55.97         3.8 0.30            128            186 151 
 SJC  HZ EP        3 9 52.99                             107    0.07 6  400 327 
 SJC  HN ES        310 34.36                             107   -1.22 6  400 327 
 SJC  HZ I         310 38.16         1.3 0.56            108            400 327 
                                                                                
