 2012  517 0949 54.1 L   6.754 -73.151147.7  RSN  6 0.3 1.2LRSN                1
 GAP=182        0.75       4.8     7.3  7.3  0.1215E+02  0.1028E+02 -0.1435E+01E
 Epicentro: LOS SANTOS - SANTANDER                                             3
 ACTION:UP  12-07-05 12:05 OP:pat  STATUS:               ID:20120517094954 L   I
 2012-05-17-0948-59S.COL___207                                                 6
 STAT SP IPHASW D HRMM SECON CODA AMPLIT PERI AZIMU VELO SNR AR TRES W  DIS CAZ7
 BAR2 SZ EP   1    950 14.07                             173     0.2 7   18 191 
 BAR2 SZ ES        950 29.16                             173    -0.210   18 191 
 BAR2 SZ I         950 30.24         5.0 0.30                            18 191 
 BRR  HZ EP   1    950 15.45                             152    -0.1 7   73 302 
 BRR  HN ES   1    950 33.00                             152     0.7 7   73 302 
 RUS  HZ EP   1    950 18.21                             146     0.5 7   96 176 
 RUS  HZ I         950 18.96         1.3 0.06                            96 176 
 RUS  HE ES   1    950 35.77                             146    -0.3 7   96 176 
 PTB  HZ EP   1    950 20.92                             133    -0.2 7  146 261 
 PTB  HN ES   2    950 41.94                             133    -0.2 5  146 261 
 PTB  HZ I         950 47.93         2.9 0.31                           146 261 
 OCA  HN ES   1    950 45.32                             129    -0.3 7  165 354 
 ZAR  HN ES   2    950 52.23                             122    -0.1 4  206 293 
                                                                                
