 2017  117 0820 54.3 L   6.800 -73.147147.6  RSN  5 0.2 0.9LRSN                1
 GAP=237        0.59       4.6     4.2  4.6  0.1233E+02  0.1966E+01 -0.1068E+01E
 Epicentro: LOS SANTOS - SANTANDER                                             3
 ACTION:UPD 17-05-22 16:00 OP:jn   STATUS:               ID:20170117082054 L   I
 OLDACT:DUP 17-01-17 17:50 OP:edw  STATUS:               ID:20170117081741d    3
 2017-01-17-0818-00M.COL___323                                                 6
 STAT SP IPHASW D HRMM SECON CODA AMPLIT PERI AZIMU VELO AIN AR TRES W  DIS CAZ7
 BAR2 EZ IP     D  821 14.18                             171    0.0410 23.3 190 
 BAR2 EZ ES        821 29.61                             171   -0.0110 23.3 190 
 BAR2 EZ I         821 30.26         1.8 0.10            169           23.3 190 
 BRR  HZ EP        821 15.83                             153    0.2010 71.1 299 
 BRR  HN ES        821 32.13                             153   -0.1510 71.1 299 
 RUS  HZ EP        821 18.39                             144    0.1710  101 176 
 RUS  HN ES        821 36.82                             144   -0.0610  101 176 
 RUS  HZ I         821 39.20         1.0 0.26            144            101 176 
 PTB  HZ EP        821 20.84                             132   -0.56 9  148 259 
 PTB  HN ES        821 42.79                             132    0.25 9  148 259 
 PTB  HZ I         821 43.80         1.0 0.13            131            148 259 
 ZAR  HZ EP   2    821 27.05                             123    0.20 4  204 292 
 ZAR  HN ES        821 52.30                             123    0.06 9  204 292 
 ZAR  HZ I         821 58.42         1.3 0.32            122            204 292 
                                                                                
