 2014  117 0957 45.9 L   6.817 -73.130145.1  RSN  7 0.5 1.6LRSN                1
 GAP=138        1.01       4.3     5.3  9.9  0.7175E+00  0.2296E+02  0.2634E+01E
 Epicentro: LOS SANTOS - SANTANDER                                             3
 ACTION:UPD 14-03-13 09:56 OP:ep   STATUS:               ID:20140117095745 L   I
 OLDACT:REG 14-01-17 08:49 OP:mh   STATUS:               ID:20140117095000     3
 2014-01-17-0950-00M.COL___285                                                 6
 STAT SP IPHASW D HRMM SECON CODA AMPLIT PERI AZIMU VELO AIN AR TRES W  DIS CAZ7
 BAR2 SZ EP   1    958  5.79                             170    0.26 7 25.5 193 
 BAR2 SZ I         958 21.98        11.4 0.22            168           25.5 193 
 PAM  SZ EP        958  8.44                             152    0.5110 74.8  39 
 PAM  SN ES        958 25.01                             152   -0.0710 74.8  39 
 PAM  SZ I         958 27.52         8.5 0.38            152           74.8  39 
 RUS  HZ EP        958  9.25                             143   -0.5010  102 177 
 RUS  HN ES   1    958 28.77                             143    0.45 7  102 177 
 RUS  HZ I         958 30.78         2.6 0.31            141            102 177 
 PTB  HZ EP        958 12.80                             131   -0.23 9  150 258 
 PTB  HN ES   1    958 33.40                             131   -0.77 7  150 258 
 PTB  HZ I         958 35.70         4.7 0.06            131            150 258 
 OCA  HN ES        958 35.56                             130   -0.39 9  159 352 
 ZAR  HZ EP        958 18.63                             122    0.21 9  205 291 
 ZAR  HN ES        958 44.53                             122    0.76 9  205 291 
 ZAR  HZ I         958 49.58         5.2 0.23            122            205 291 
 SML  HZ EP   1    958 22.30                             117   -0.11 6  243 335 
 SML  HN ES   2    958 50.19                             117   -0.67 4  243 335 
 SML  HZ I         958 54.40         4.0 0.12            117            243 335 
                                                                                
