 2012  117 0808 53.0 L   6.782 -73.140139.5  RSN  5 0.3 1.4LRSN                1
 GAP=138        0.64       5.9     5.3  7.0 -0.6925E+01  0.6299E+01 -0.4122E+01E
 Epicentro: LOS SANTOS - SANTANDER                                             3
 ACTION:UP  12-02-03 08:18 OP:REBC STATUS:               ID:20120117080853 L   I
 2012-01-17-0800-00M.COL___188                                                 6
 STAT SP IPHASW D HRMM SECON CODA AMPLIT PERI AZIMU VELO SNR AR TRES W  DIS CAZ7
 BAR2 SZ EP   1    8 9 11.61                             171    -0.2 7   22 192 
 BAR2 SZ ES   1    8 9 26.59                             171     0.1 7   22 192 
 BAR2 SZ I         8 9 28.02         4.1 0.24                            22 192 
 BRR  HZ EP        8 9 13.66                             151     0.110   73 300 
 BRR  HZ I         8 9 14.70         5.8 0.13                            73 300 
 BRR  HE ES   1    8 9 29.93                             151     0.4 7   73 300 
 PAM  SZ EP   1    8 9 14.66                             149     0.1 7   79  38 
 PAM  SN ES   1    8 9 31.16                             149    -0.3 7   79  38 
 RUS  HN ES   2    8 9 33.94                             143     0.0 5   99 176 
 PTB  HZ EP   2    8 9 19.83                             130     0.4 5  148 260 
 PTB  HN ES   2    8 9 39.18                             130    -0.9 5  148 260 
                                                                                
