 2015 1117 0729 40.7 L   6.808 -73.149145.6  RSN  7 0.4 1.8LRSN                1
 GAP=149        0.96       5.2     4.9  6.7  0.2354E+01  0.9804E+01 -0.9945E+01E
 Epicentro: LOS SANTOS - SANTANDER                                             3
 ACTION:UPD 15-12-28 16:11 OP:cam  STATUS:               ID:20151117072940 L   I
 OLDACT:UP  15-11-17 17:22 OP:ak   STATUS:               ID:20151117072748     3
 OLDACT:UP  15-11-17 17:21 OP:ak   STATUS:               ID:20151117072748     3
 OLDACT:REG 15-11-17 13:11 OP:y    STATUS:               ID:20151117072748     3
 2015-11-17-0727-48M.COL___313                                                 6
 STAT SP IPHASW D HRMM SECON CODA AMPLIT PERI AZIMU VELO AIN AR TRES W  DIS CAZ7
 BAR2 EZ EP        730  0.12                             170   -0.1710 24.1 189 
 BAR2 EZ ES        730 14.98                             170   -0.6110 24.1 189 
 BAR2 EZ I         730 16.42         9.4 0.13            173           24.1 189 
 BRR  HZ EP        730  2.28                             153    0.5310 70.5 298 
 BRR  HN ES        730 18.48                             153    0.2810 70.5 298 
 BRR  HZ I         730 23.79         8.2 0.12            149           70.5 298 
 PAM  EZ EP        730  3.23                             151    0.4010 76.9  40 
 PAM  EN ES        730 20.11                             151   -0.0110 76.9  40 
 PAM  EZ I         730 22.44         9.5 0.38            151           76.9  40 
 OCA  HZ EP   1    730  8.61                             130   -0.27 7  159 353 
 OCA  HE ES        730 30.87                             130   -0.01 9  159 353 
 OCA  HZ I         730 37.97        13.3 0.46            130            159 353 
 ZAR  HZ EP        730 13.11                             122    0.08 9  203 292 
 ZAR  HN ES        730 38.68                             122    0.40 9  203 292 
 ZAR  HZ I         730 47.03         7.5 0.52            123            203 292 
 SML  HZ EP        730 16.69                             117   -0.49 8  243 335 
 SML  HN ES        730 45.79                             117    0.13 8  243 335 
 SML  HZ I         730 52.64         5.9 0.10            118            243 335 
 MON  HZ EP   4    730 28.23                             108   -1.34 0  353 308 
 MON  HN ES        731  6.74                             108   -0.97 6  353 308 
                                                                                
