 2017 1117 0346 36.9 L   6.759 -73.128134.9  RSN  6 0.2 1.5LRSN                1
 GAP=141        0.54       2.4     2.9  4.2 -0.1275E+01  0.5006E+01  0.1292E+01E
 Epicentro: LOS SANTOS - SANTANDER                                             3
 ACTION:UPD 17-12-12 19:56 OP:rebc STATUS:               ID:20171117034636 L   I
 OLDACT:REG 17-11-17 13:37 OP:lv   STATUS:               ID:20171117033745     3
 2017-11-17-0338-00M.COL___483                                                 6
 STAT SP IPHASW D HRMM SECON CODA AMPLIT PERI AZIMU VELO AIN AR TRES W  DIS CAZ7
 BAR2 EZ EP        346 55.01                             171   -0.1610 19.4 198 
 BAR2 EZ ES        347  9.07                             171   -0.3310 19.4 198 
 BAR2 EZ I         347 11.09        13.2 0.26            170           19.4 198 
 PAM  EZ IP     D  346 58.06                             148   -0.0810 79.7  36 
 PAM  EN ES        347 14.98                             148    0.2910 79.7  36 
 PAM  EZ I         347 16.87         7.0 0.68            150           79.7  36 
 RUS  HZ EP        346 59.12                             143   -0.1510 96.0 177 
 RUS  HN ES        347 16.99                             143    0.2810 96.0 177 
 RUS  HZ I         347 18.28         3.6 0.24            144           96.0 177 
 ZAR  HN ES        347 34.19                             119    0.06 8  208 293 
 ZAR  HZ I         347 39.29         3.2 0.14            119            208 293 
 NOR  HZ EP   4    347  9.48                             116   -2.46 0  234 236 
 NOR  HN ES        347 39.35                             116    0.10 8  234 236 
 NOR  HZ I         347 42.64         1.3 0.22            116            234 236 
 PRA  HZ EP        347 29.77                             105    0.03 6  389 210 
 PRA  HN ES        348 11.04                             105    0.10 6  389 210 
 PRA  HZ I         348 16.92         1.0 0.36            105            389 210 
                                                                                
