 2017  417 0714 21.5 L   6.802 -73.151148.2  RSN 12 0.5 1.8LRSN                1
 GAP=111        1.21       4.0     4.0  6.5  0.2129E+01  0.2871E+01  0.9785E+01E
 Epicentro: LOS SANTOS - SANTANDER                                             3
 ACTION:UPD 17-05-30 21:13 OP:jn   STATUS:               ID:20170417071421 L   I
 OLDACT:UP  17-04-17 17:43 OP:dani STATUS:               ID:20170417070640     3
 OLDACT:REG 17-04-17 13:39 OP:dani STATUS:               ID:20170417070640     3
 2017-04-17-0707-00M.COL___362                                                 6
 STAT SP IPHASW D HRMM SECON CODA AMPLIT PERI AZIMU VELO AIN AR TRES W  DIS CAZ7
 BAR2 EZ EP        714 41.37                             171   -0.0710 23.5 189 
 BAR2 EZ ES        714 56.36                             171   -0.6210 23.5 189 
 BAR2 EZ I         714 59.04        20.4 0.24            168           23.5 189 
 BRR  HZ EP        714 43.21                             153    0.3210 70.6 299 
 BRR  HN ES        715  0.22                             153    0.6610 70.6 299 
 BRR  HZ I         715  4.29        13.2 0.19            154           70.6 299 
 PAM  EZ EP        714 44.28                             151    0.2910 77.6  40 
 PAM  EN ES        715  1.26                             151   -0.2810 77.6  40 
 PAM  EZ I         715  3.51         8.2 0.56            156           77.6  40 
 RUS  HZ EP        714 45.38                             144   -0.1410  101 176 
 RUS  HN ES        715  4.71                             144    0.4610  101 176 
 RUS  HZ I         715  5.47         4.9 0.30            145            101 176 
 PTB  HZ EP        714 48.38                             133   -0.25 9  147 259 
 PTB  HN ES        715  9.11                             133   -0.67 9  147 259 
 PTB  HZ I         715 11.75         7.2 0.12            133            147 259 
 SPBC HZ EP        714 50.35                             130    0.17 9  163 219 
 SPBC HN ES        715 12.59                             130    0.05 9  163 219 
 SPBC HZ I         715 16.61        11.6 0.14            130            163 219 
 YPLC HZ EP        714 51.83                             127    0.30 9  177 151 
 YPLC HE ES        715 15.74                             127    0.79 9  177 151 
 YPLC HZ I         715 18.57         4.7 0.23            129            177 151 
 ZAR  HE ES        715 18.93                             123   -0.50 9  203 292 
 NOR  HZ EP        714 57.56                             119    0.22 8  234 234 
 NOR  HN ES        715 25.61                             119    0.31 8  234 234 
 NOR  HZ I         715 34.96         4.7 0.38            120            234 234 
 CHI  HZ EP        714 59.98                             118    0.63 8  249 195 
 CHI  HE ES        715 28.75                             118   -0.12 8  249 195 
 CHI  HZ I         715 34.14         2.8 0.19            119            249 195 
 PTGC HZ EP        715  4.57                             112   -0.95 7  309 159 
 PTGC HN ES        715 38.34                             112   -1.52 7  309 159 
 PTGC HZ I         715 39.48         3.0 0.24            114            309 159 
 PRA  HN EP        715 15.37                             107    0.27 6  392 209 
 PRA  HE ES        715 56.79                             107   -0.12 6  392 209 
 PRA  HN I         716  2.36         4.4 0.40            108            392 209 
                                                                                
