 2016 1017 0548 51.1 L   6.702 -73.195151.0  RSN  5 0.4 1.4LRSN                1
 GAP=224        0.80       6.3     6.1  6.9  0.1494E+02  0.8120E+01 -0.1581E+01E
 Epicentro: VILLANUEVA - SANTANDER                                             3
 ACTION:UPD 16-11-09 19:20 OP:rebc STATUS:               ID:20161017054851 L   I
 OLDACT:DUP 16-10-17 18:32 OP:and  STATUS:               ID:20161017053738d    3
 OLDACT:UP  16-10-17 18:30 OP:and  STATUS:               ID:20161017053737     3
 OLDACT:UP  16-10-17 18:28 OP:and  STATUS:               ID:20161017053737     3
 OLDACT:REG 16-10-17 11:50 OP:and  STATUS:               ID:20161017053737     3
 2016-10-17-0538-00M.COL___359                                                 6
 STAT SP IPHASW D HRMM SECON CODA AMPLIT PERI AZIMU VELO AIN AR TRES W  DIS CAZ7
 BAR2 EZ EP     D  549 11.17                             176   -0.0610 12.2 173 
 BAR2 EZ ES        549 26.50                             176   -0.4010 12.2 173 
 BAR2 EZ I         549 27.80         7.7 0.30            178           12.2 173 
 BRR  HZ EP     C  549 12.97                             153    0.0410 72.6 308 
 BRR  HE ES        549 30.48                             153    0.5510 72.6 308 
 BRR  HZ I         549 34.76         3.6 0.14            153           72.6 308 
 RUS  HZ EP   2    549 15.29                             148    0.58 5 90.3 172 
 RUS  HE ES        549 33.17                             148    0.0710 90.3 172 
 RUS  HZ I         549 34.52         2.6 0.19            152           90.3 172 
 PTB  HZ EP        549 17.81                             135   -0.10 9  141 263 
 PTB  HN ES        549 38.41                             135   -0.37 9  141 263 
 PTB  HZ I         549 39.83         2.8 0.14            137            141 263 
 SPBC HN ES   3    549 41.95                             133    1.30 2  151 220 
                                                                                
