 2012  917 0852  9.5 L   6.787 -73.164145.2  RSN  6 0.3 1.8LRSN                1
 GAP=135        0.72       5.0     4.9  6.8 -0.2373E+01  0.4225E+01 -0.6275E+00E
 Epicentro: LOS SANTOS - SANTANDER                                             3
 ACTION:UPD 12-10-22 14:19 OP:ep   STATUS:               ID:20120917085209 L   I
 2012-09-17-0850-00M.COL___227                                                 6
 STAT SP IPHASW D HRMM SECON CODA AMPLIT PERI AZIMU VELO AIN AR TRES W  DIS CAZ7
 BAR2 SZ EP   1    852 29.02                             171    0.04 7 21.6 185 
 BAR2 SZ ES   1    852 44.02                             171   -0.19 7 21.6 185 
 BAR2 SZ I         852 44.89        34.0 0.36                          21.6 185 
 GIR2 SZ EP   1    852 28.96                             167   -0.13 7 32.4 354 
 BRR  HZ EP        852 30.67                             153    0.1910 70.1 300 
 BRR  HN ES   1    852 47.62                             153    0.74 7 70.1 300 
 BRR  HZ I         852 50.76        14.5 0.46                          70.1 300 
 PAM  SZ EP   1    852 31.83                             150    0.08 7 79.8  40 
 PAM  SN ES   1    852 48.66                             150   -0.48 7 79.8  40 
 PAM  SZ I         852 50.95        17.1 0.52                          79.8  40 
 RUS  HZ EP   1    852 33.28                             144    0.23 7 99.3 175 
 RUS  HN ES   1    852 51.57                             144    0.11 7 99.3 175 
 RUS  HZ I         852 53.24         6.2 0.36                          99.3 175 
 PTB  HZ EP   1    852 35.88                             132   -0.29 7  145 259 
 PTB  HN ES   1    852 56.44                             132   -0.56 7  145 259 
 PTB  HZ I         852 59.57         3.9 0.30                           145 259 
                                                                                
