 2015  317 0141 43.4 L   6.773 -73.142145.1  RSN  6 0.4 1.4LRSN                1
 GAP=138        1.04       4.9     5.3  7.2 -0.6390E+01  0.6040E+01  0.3623E+01E
 Epicentro: LOS SANTOS - SANTANDER                                             3
 ACTION:UPD 15-04-30 16:26 OP:nd   STATUS:               ID:20150317014143 L   I
 OLDACT:DUP 15-03-17 15:30 OP:stll STATUS:               ID:20150317013736d    3
 2015-03-17-0137-35M.COL___269                                                 6
 STAT SP IPHASW D HRMM SECON CODA AMPLIT PERI AZIMU VELO AIN AR TRES W  DIS CAZ7
 BAR2 EZ ES        142 17.69                             172   -0.3710 20.5 192 
 BAR2 EZ I         142 20.32         9.3 0.86            169           20.5 192 
 BRR  HZ EP        142  4.57                             152    0.0410 73.0 300 
 BRR  HN ES        142 21.95                             152    0.9010 73.0 300 
 PAM  SZ EP        142  5.63                             150    0.0110 79.4  38 
 PAM  SZ I         142  5.81         6.0 0.24            153           79.4  38 
 PAM  SE ES        142 22.67                             150   -0.3210 79.4  38 
 RUS  HZ EP        142  7.15                             144    0.3210 97.6 176 
 RUS  HE ES        142 25.17                             144    0.0310 97.6 176 
 RUS  HZ I         142 28.07         1.8 0.60            144           97.6 176 
 PTB  HZ EP        142  9.95                             132   -0.30 9  148 260 
 PTB  HN ES        142 30.57                             132   -0.66 9  148 260 
 PTB  HZ I         142 33.09         2.1 0.20            133            148 260 
 SPBC HZ EP        142 11.70                             129    0.09 9  161 220 
 SPBC HN ES        142 33.83                             129    0.18 9  161 220 
 SPBC HZ I         142 36.76         3.6 0.42            130            161 220 
                                                                                
