 2012  817 0853 53.8 L   6.803 -73.134156.3  RSN  5 0.1 1.7LRSN                1
 GAP=205        0.37       6.6     3.6  7.5  0.3567E+01 -0.9064E+01  0.3907E+01E
 Epicentro: LOS SANTOS - SANTANDER                                             3
 ACTION:UPD 12-09-10 11:56 OP:ep   STATUS:               ID:20120817085353 L   I
 2012-08-17-0850-00M.COL___217                                                 6
 STAT SP IPHASW D HRMM SECON CODA AMPLIT PERI AZIMU VELO AIN AR TRES W  DIS CAZ7
 BAR2 SZ EP   1    854 14.65                             171   -0.07 7 23.9 193 
 BAR2 SZ I         854 15.17         9.2 0.14                          23.9 193 
 GIR2 SZ EP   1    854 14.61                             168   -0.13 7 31.2 348 
 BRR  HZ EP   1    854 16.40                             154    0.24 7 72.1 298 
 BRR  HZ I         854 16.65         8.7 0.11                          72.1 298 
 BRR  HN ES   1    854 33.62                             154    0.03 7 72.1 298 
 PTB  HN ES   1    854 43.58                             134    0.01 7  149 259 
 ZAR  HN ES   1    854 52.89                             124   -0.12 6  205 292 
                                                                                
