 2013  217 0731  4.1 L   6.871 -72.819153.5  RSN  5 0.3 1.7LRSN                1
 GAP=228        0.60       3.6     5.7  8.1  0.1057E+02 -0.1541E+02 -0.1554E+02E
 Epicentro: GUACA - SANTANDER                                                  3
 ACTION:UPD 13-03-12 09:33 OP:ep   STATUS:               ID:20130217073104 L   I
 2013-02-17-0730-00M.COL___241                                                 6
 STAT SP IPHASW D HRMM SECON CODA AMPLIT PERI AZIMU VELO AIN AR TRES W  DIS CAZ7
 RUS  HZ EP   1    731 29.16                             142   -0.32 7  112 195 
 RUS  HN ES        731 49.41                             142    0.1610  112 195 
 PTB  HN ES        731 59.22                             127   -0.18 9  185 259 
 PTB  HN I         731 59.26         4.8 0.50            131            185 259 
 ZAR  HN ES   1    732  8.99                             120    0.39 6  236 287 
 SML  HZ EP        731 42.70                             118    0.36 8  254 327 
 SML  HN ES        732 11.80                             118   -0.34 8  254 327 
 SML  HN I         732 18.40         2.9 0.10            119            254 327 
 CHI  HZ EP        731 44.31                             117   -0.01 8  268 202 
                                                                                
