 2015  517 0546 53.9 L   6.798 -73.108148.0  RSN 12 0.3 1.9LRSN                1
 GAP=187        0.71       2.4     3.7  4.7 -0.7881E+00  0.3645E+01  0.3975E+00E
 Epicentro: LOS SANTOS - SANTANDER                                             3
 ACTION:UPD 15-09-10 22:04 OP:cam  STATUS:               ID:20150517054653 L   I
 OLDACT:REG 15-05-17 12:53 OP:spq  STATUS:               ID:20150517053749     3
 2015-05-17-0537-49M.COL___273                                                 6
 STAT SP IPHASW D HRMM SECON CODA AMPLIT PERI AZIMU VELO AIN AR TRES W  DIS CAZ7
 BAR2 EZ EP   1    547 13.76                             170   -0.06 7 24.2 200 
 BAR2 EZ ES   1    547 29.80                             170    0.44 7 24.2 200 
 BAR2 EZ I         547 31.41        13.7 0.16            166           24.2 200 
 BRR  HZ EP        547 15.64                             152    0.1210 75.0 297 
 BRR  HN ES        547 32.97                             152    0.6010 75.0 297 
 BRR  HZ I         547 37.35         8.9 0.14            148           75.0 297 
 RUS  HZ EP        547 17.81                             145   -0.0410  100 178 
 RUS  HE ES   1    547 35.94                             145   -0.58 7  100 178 
 RUS  HZ I         547 37.50         5.4 0.38            146            100 178 
 OCA  HZ EP   1    547 22.48                             130    0.01 7  161 352 
 OCA  HN ES        547 44.51                             130   -0.23 9  161 352 
 OCA  HZ I         547 49.09        16.8 0.14            132            161 352 
 SPBC HZ EP        547 22.71                             129   -0.10 9  166 220 
 SPBC HN ES        547 45.22                             129   -0.14 9  166 220 
 SPBC HZ I         547 51.81        18.4 0.32            129            166 220 
 ZAR  HN ES        547 52.32                             123   -0.33 8  208 292 
 ZAR  HZ I         547 59.27         9.9 0.28            122            208 292 
 NOR  HZ EP   1    547 29.89                             119   -0.23 6  238 235 
 NOR  HN ES        547 58.44                             119    0.08 8  238 235 
 NOR  HZ I         548  1.50         8.5 0.28            119            238 235 
 SML  HZ EP   1    547 31.12                             118    0.24 6  246 334 
 SML  HE ES   1    547 59.01                             118   -0.70 6  246 334 
 SML  HZ I         548  3.40        14.3 0.10            119            246 334 
 ROSC BZ EP   4    547 33.59                             117    1.23 0  255 212 
 ROSC BE ES   4    548  6.09                             117    3.73 0  255 212 
 ROSC BZ I         548 11.65         9.5 0.45            118            255 212 
 HEL  HZ EP   1    547 35.38                             115    0.70 6  276 256 
 HEL  HE ES   1    548  6.15                             115   -0.33 6  276 256 
 HEL  HZ I         548 11.08         2.8 0.42            115            276 256 
 GUY2CHZ EP   1    547 38.18                             113    0.19 5  304 235 
 GUY2CHE ES   4    548 14.22                             113    1.84 0  304 235 
 GUY2CHZ I         548 20.58         5.1 0.51                           304 235 
 CBOC HZ EP   1    547 41.77                             110    0.41 5  338 252 
 CBOC HN ES   1    548 18.24                             110   -0.14 5  338 252 
 CBOC HZ I         548 25.92         1.3 0.52            111            338 252 
                                                                                
