 2010  117 0243 15.2 L   6.816 -73.032149.9  RSN  6 0.2 1.6LRSN                1
 GAP=195        0.37       1.8    12.9  3.4  0.4732E+01 -0.1172E+01 -0.6419E+00E
 Epicentro: LOS SANTOS - SANTANDER                                             3
 ACTION:UP  10-08-24 09:44 OP:vdl  STATUS:               ID:20100117024315 L   I
 2010-01-17-0239-09S.COL___096                                                 6
 STAT SP IPHASW D HRMM SECON CODA AMPLIT PERI AZIMU VELO SNR AR TRES W  DIS CAZ7
 BAR2 SZ EP   1    243 35.41                             168    -0.1 8   30 214 
 BAR2 SZ ES   1    243 51.35                             168     0.0 8   30 214 
 GIR2 SZ EP   2    243 35.49                             167     0.0 5   34 328 
 GIR2 SZ ES   2    243 51.24                             167     0.0 5   34 328 
 RUS  BZ IP        243 39.70                             144     0.210  102 183 
 RUS  BN ES   1    243 58.26                             144    -0.2 7  102 183 
 RUS  BZ I         243 59.16         2.7 0.24                           102 183 
 OCA  SZ IP        243 43.84                             130     0.0 9  160 349 
 OCA  SZ ES   1    244  6.25                             130     0.0 7  160 349 
 OCA  SZ I         244 11.52        12.4 0.32                           160 349 
 CHI  HZ EP   2    243 53.30                             117    -0.4 4  254 198 
 CHI  HZ I         243 55.99         1.6 0.39                           254 198 
 CHI  HN ES   2    244 23.96                             117     0.2 4  254 198 
 PRA  HZ EP   2    244  9.92                             107     0.1 3  400 211 
 PRA  HZ I         244 10.89         1.6 0.18                           400 211 
                                                                                
