 2016  117 0707 21.3 L   6.794 -73.181144.9  RSN  8 0.3 1.3LRSN                1
 GAP=132        0.72       2.8     3.2  5.9 -0.5176E+00  0.5140E+01  0.1093E+01E
 Epicentro: LOS SANTOS - SANTANDER                                             3
 ACTION:UPD 16-03-09 23:26 OP:cam  STATUS:               ID:20160117070721 L   I
 OLDACT:UP  16-01-17 17:35 OP:mh   STATUS:               ID:20160117065745     3
 OLDACT:REG 16-01-17 13:49 OP:mh   STATUS:               ID:20160117065745     3
 2016-01-17-0657-45M.COL___319                                                 6
 STAT SP IPHASW D HRMM SECON CODA AMPLIT PERI AZIMU VELO AIN AR TRES W  DIS CAZ7
 BAR2 EZ EP        7 7 40.96                             171    0.1410 22.3 180 
 BAR2 EZ I         7 7 57.51         3.9 0.06            174           22.3 180 
 PAM  EZ EP        7 7 43.90                             150    0.2710 80.5  41 
 PAM  EN ES        7 8  0.83                             150   -0.2010 80.5  41 
 PAM  EZ I         7 8  2.66         2.5 0.34            150           80.5  41 
 RUS  HZ EP        7 7 44.93                             144   -0.0310  100 174 
 RUS  HN ES        7 8  3.42                             144    0.0210  100 174 
 RUS  HZ I         7 8  5.48         1.3 0.18            147            100 174 
 PTB  HZ EP        7 7 47.60                             133   -0.25 9  144 259 
 PTB  HN ES        7 8  8.11                             133   -0.44 9  144 259 
 PTB  HZ I         7 8 15.94         2.6 0.40            132            144 259 
 SPBC HZ EP   1    7 7 49.62                             129    0.16 7  160 218 
 SPBC HN ES        7 8 11.63                             129    0.21 9  160 218 
 SPBC HZ I         7 8 14.37         3.5 0.24            130            160 218 
 ZAR  HZ EP        7 7 52.90                             123   -0.46 9  201 293 
 ZAR  HE ES        7 8 19.01                             123    0.66 9  201 293 
 ZAR  HZ I         7 8 24.77         2.8 0.46            122            201 293 
 SML  HZ EP   4    7 7 56.88                             117   -0.90 0  243 336 
 SML  HN ES   4    7 8 23.96                             117   -2.27 0  243 336 
 SML  HZ I         7 8 35.29         2.2 0.26            117            243 336 
 CHI  HZ EP        7 7 58.79                             117    0.01 8  247 194 
 CHI  HN ES        7 8 28.00                             117   -0.01 8  247 194 
 CHI  HZ I         7 8 32.61         0.7 0.60            118            247 194 
                                                                                
