 2012  417 0254 20.5 L   6.777 -73.139147.8  RSN  5 0.3 2.0LRSN                1
 GAP=158        0.79       5.3     5.5  9.5 -0.5123E-01  0.1679E+02  0.2970E+02E
 Epicentro: LOS SANTOS - SANTANDER                                             3
 ACTION:UPD 12-07-05 11:53 OP:tino STATUS:               ID:20120417025420 L   I
 2012-04-17-0250-00M.COL___190                                                 6
 STAT SP IPHASW D HRMM SECON CODA AMPLIT PERI AZIMU VELO AIN AR TRES W  DIS CAZ7
 BRR  HZ EP   1    254 42.25                             152     0.3 7   73 300 
 BRR  HZ I         254 42.43        41.9 0.12                            73 300 
 BRR  HN ES   1    254 59.25                             152     0.5 7   73 300 
 PAM  SZ EP   1    254 43.24                             151     0.2 7   79  38 
 PAM  SN ES        255  0.22                             151    -0.410   79  38 
 PAM  SZ I         255  1.62         2.6 0.15                            79  38 
 ZAR  HZ EP   1    254 53.11                             122    -0.1 6  206 293 
 ZAR  HN ES   1    255 18.23                             122    -0.5 6  206 293 
 ZAR  HZ I         255 24.03         7.6 0.12                           206 293 
 CHI  HZ EP   1    254 58.34                             118     0.3 6  246 195 
 CHI  HZ I         254 59.07         3.9 0.16                           246 195 
 CHI  HN ES   1    255 27.06                             118    -0.3 6  246 195 
 PRA  HZ EP   1    255 13.84                             107     0.0 4  390 210 
 PRA  HZ I         255 15.85         9.7 0.12                           390 210 
 PRA  HN ES   1    255 55.42                             107     0.0 4  390 210 
                                                                                
