 2016  117 0407 12.5 L   6.845 -73.103129.3  RSN  4 0.2 1.3LRSN                1
 GAP=188        0.56       2.3     3.2  7.5  0.9521E+00  0.8699E+00 -0.5828E+01E
 Epicentro: LOS SANTOS - SANTANDER                                             3
 ACTION:UP  16-03-09 23:26 OP:cam  STATUS:               ID:20160117040712 L   I
 OLDACT:UPD 16-03-09 21:17 OP:cam  STATUS:               ID:20160117040712 L   3
 OLDACT:UP  16-02-23 20:53 OP:AR   STATUS:               ID:20160117040712 L   3
 OLDACT:UP  16-01-17 17:16 OP:mh   STATUS:               ID:20160117035750d    3
 OLDACT:DUP 16-01-17 17:11 OP:mh   STATUS:               ID:20160117035750d    3
 2016-01-17-0357-49M.COL___322                                                 6
 STAT SP IPHASW D HRMM SECON CODA AMPLIT PERI AZIMU VELO AIN AR TRES W  DIS CAZ7
 RUS  HZ EP        4 7 35.04                             139    0.0110  105 179 
 RUS  HN ES        4 7 52.68                             139    0.0710  105 179 
 RUS  HZ I         4 7 53.87         0.7 0.24            146            105 179 
 PTB  HZ EP        4 7 38.37                             127   -0.34 9  153 257 
 PTB  HN ES        4 7 59.14                             127   -0.02 9  153 257 
 PTB  HZ I         4 8  0.55         2.3 0.22            133            153 257 
 OCA  HZ EP        4 7 39.43                             126    0.28 9  156 351 
 OCA  HN ES        4 7 59.72                             126   -0.22 9  156 351 
 OCA  HZ I         4 8  5.46        20.0 0.50            130            156 351 
 ZAR  HN ES        4 8  9.17                             118    0.25 9  207 290 
 VIL  SZ EP   4    4 8 27.03                             108   31.15 0  309 192 
 VIL  SN ES   4    4 8 53.45                             108   23.73 0  309 192 
                                                                                
