 2012  117 0714 44.7 L   6.783 -73.180149.5  RSN  5 0.4 1.5LRSN                1
 GAP=232        1.16       7.9     9.9  9.5  0.3176E+02  0.8322E+01  0.2415E+02E
 Epicentro: LOS SANTOS - SANTANDER                                             3
 ACTION:UP  12-02-03 08:18 OP:REBC STATUS:               ID:20120117071444 L   I
 2012-01-17-0710-00M.COL___188                                                 6
 STAT SP IPHASW D HRMM SECON CODA AMPLIT PERI AZIMU VELO SNR AR TRES W  DIS CAZ7
 BAR2 SZ EP        715  4.29                             172    -0.510   21 181 
 BAR2 SZ ES   1    715 20.08                             172    -0.3 7   21 181 
 BAR2 SZ I         715 21.12         9.3 0.26                            21 181 
 BRR  HZ EP        715  6.20                             154     0.110   69 301 
 BRR  HZ I         715  6.58        11.5 0.11                            69 301 
 BRR  HN ES        715 23.43                             154     0.610   69 301 
 RUS  HZ EP        715  9.24                             145     0.510   99 174 
 RUS  HE ES   1    715 27.02                             145    -0.4 7   99 174 
 RUS  HZ I         715 28.27         3.0 0.39                            99 174 
 PTB  HZ EP        715 11.28                             134    -0.3 9  144 259 
 PTB  HE ES   1    715 32.16                             134    -0.5 7  144 259 
 CHI  HZ EP        715 22.39                             118     0.1 8  246 194 
 CHI  HZ I         715 23.36         1.0 0.12                           246 194 
 CHI  HN ES   1    715 52.32                             118     0.7 6  246 194 
                                                                                
