 2016  317 0459  0.9 L   6.754 -73.157143.0  RSN  6 0.4 1.6LRSN                1
 GAP=137        0.91       4.4     4.3  9.4 -0.1186E+01  0.1364E+02 -0.4562E+01E
 Epicentro: LOS SANTOS - SANTANDER                                             3
 ACTION:UPD 16-05-13 21:24 OP:cam  STATUS:               ID:20160317045900 L   I
 OLDACT:REG 16-03-17 14:22 OP:dnl  STATUS:               ID:20160317045750     3
 2016-03-17-0457-50M.COL___297                                                 6
 STAT SP IPHASW D HRMM SECON CODA AMPLIT PERI AZIMU VELO AIN AR TRES W  DIS CAZ7
 PAM  EZ EP        459 23.23                             149    0.0810 82.1  38 
 PAM  EE ES        459 40.44                             149   -0.0310 82.1  38 
 PAM  EZ I         459 42.36         6.4 0.66            151           82.1  38 
 RUS  HZ EP        459 24.34                             144    0.2810 95.6 175 
 RUS  HN ES        459 42.18                             144    0.0910 95.6 175 
 RUS  HZ I         459 43.88         4.9 0.26            149           95.6 175 
 PTB  HZ EP        459 27.20                             132   -0.28 9  146 261 
 PTB  HN ES        459 47.58                             132   -0.60 9  146 261 
 PTB  HZ I         459 50.41         3.9 0.16            133            146 261 
 OCA  HZ EP   2    459 28.68                             128   -0.82 5  165 354 
 OCA  HE ES   2    459 51.29                             128   -0.48 5  165 354 
 OCA  HZ I         459 53.88        12.1 0.20            130            165 354 
 ZAR  HZ EP   2    459 33.43                             121    0.15 4  205 294 
 ZAR  HE ES        459 59.32                             121    0.81 9  205 294 
 ZAR  HZ I         5 0  4.59         6.6 0.26            123            205 294 
 GUY2CHZ EP   4    459 45.98                             112    2.01 0  297 235 
 GUY2CHN ES   4    5 0 14.98                             112   -2.55 0  297 235 
 GUY2CHZ I         5 0 25.10         1.3 0.26                           297 235 
                                                                                
