 2016  117 0634 51.5 L   7.437 -73.174133.6  RSN  6 0.4 1.5LRSN                1
 GAP=112        0.97       3.2     5.3  8.5  0.5192E+01  0.2232E+02  0.8527E+01E
 Epicentro: EL PLAYON - SANTANDER                                              3
 ACTION:UPD 16-03-09 23:26 OP:cam  STATUS:               ID:20160117063451 L   I
 OLDACT:UP  16-01-17 17:28 OP:mh   STATUS:               ID:20160117062747     3
 OLDACT:UP  16-01-17 17:27 OP:mh   STATUS:               ID:20160117062747     3
 OLDACT:REG 16-01-17 13:47 OP:mh   STATUS:               ID:20160117062747     3
 2016-01-17-0627-47M.COL___322                                                 6
 STAT SP IPHASW D HRMM SECON CODA AMPLIT PERI AZIMU VELO AIN AR TRES W  DIS CAZ7
 PAM  EZ EP   1    635 11.80                             157    0.75 7 53.5 102 
 PAM  EN ES        635 26.40                             157    0.0610 53.5 102 
 PAM  EZ I         635 27.87         5.7 0.14            163           53.5 102 
 OCA  HZ EP        635 13.09                             144    0.3210 90.1 350 
 OCA  HN ES        635 29.48                             144    0.0810 90.1 350 
 OCA  HZ I         635 31.86         9.0 0.10            149           90.1 350 
 RUS  HZ EP        635 20.27                             125   -0.10 9  171 177 
 RUS  HN ES        635 42.20                             125   -0.72 9  171 177 
 SML  HZ EP        635 20.16                             123   -0.49 9  180 327 
 SML  HN ES        635 42.78                             123   -0.63 9  180 327 
 ZAR  HZ EP        635 21.47                             122    0.23 9  186 272 
 ZAR  HN ES        635 44.81                             122    0.34 9  186 272 
 ZAR  HZ I         635 47.57         3.3 0.32            124            186 272 
 SPBC HZ EP   1    635 25.34                             117    0.28 6  221 207 
 SPBC HN ES        635 51.44                             117    0.17 8  221 207 
 SPBC HZ I         635 59.99         3.3 0.28            119            221 207 
                                                                                
