 2014 1217 0624 24.4 L   6.735 -73.186149.3  RSN  5 0.3 1.1LRSN                1
 GAP=228        0.65       5.5     4.8  5.5  0.1490E+02  0.3440E+01 -0.8012E+00E
 Epicentro: VILLANUEVA - SANTANDER                                             3
 ACTION:UPD 15-02-10 17:04 OP:nd   STATUS:               ID:20141217062424 L   I
 OLDACT:REG 14-12-17 12:46 OP:spq  STATUS:               ID:20141217061744     3
 2014-12-17-0617-44M.COL___293                                                 6
 STAT SP IPHASW D HRMM SECON CODA AMPLIT PERI AZIMU VELO AIN AR TRES W  DIS CAZ7
 BAR2 EZ EP   1    624 44.45                             174    0.08 7 15.8 179 
 BAR2 EZ ES   1    624 59.35                             174   -0.56 7 15.8 179 
 BAR2 EZ I         625  0.36         4.2 0.36            169           15.8 179 
 BRR  HZ EP        624 46.08                             153    0.1110 71.2 305 
 BRR  HN ES        625  3.08                             153    0.3210 71.2 305 
 BRR  HZ I         625  4.33         2.8 0.58            153           71.2 305 
 RUS  HZ EP   1    624 47.95                             146   -0.12 7 93.9 173 
 RUS  HE ES   1    625  6.69                             146    0.19 7 93.9 173 
 RUS  HZ I         625  9.42         1.0 0.24            145           93.9 173 
 PTB  HZ EP        624 51.08                             134   -0.12 9  142 261 
 PTB  HN ES        625 12.20                             134    0.13 9  142 261 
 PTB  HZ I         625 15.88         1.2 0.22            133            142 261 
 ZAR  HZ EP   1    624 57.28                             123    0.29 6  203 294 
 ZAR  HE ES        625 21.93                             123   -0.45 9  203 294 
 ZAR  HZ I         625 24.70         1.7 0.30            124            203 294 
                                                                                
