 2014 1217 0632  5.7 L   6.770 -73.145155.3  RSN  8 0.4 1.5LRSN                1
 GAP=235        0.89       4.8     5.8  6.4  0.7544E+01  0.5822E+01  0.1112E+01E
 Epicentro: LOS SANTOS - SANTANDER                                             3
 ACTION:UPD 15-02-10 17:04 OP:nd   STATUS:               ID:20141217063205 L   I
 OLDACT:DUP 14-12-17 16:26 OP:spq  STATUS:               ID:20141217062751d    3
 2014-12-17-0627-50M.COL___293                                                 6
 STAT SP IPHASW D HRMM SECON CODA AMPLIT PERI AZIMU VELO AIN AR TRES W  DIS CAZ7
 BAR2 EZ ES   1    632 42.24                             172   -0.32 7 20.1 192 
 BAR2 EZ I         632 43.91         4.5 0.44            170           20.1 192 
 BRR  HZ EP        632 28.14                             154    0.1810 72.9 301 
 BRR  HN ES        632 45.83                             154    0.4910 72.9 301 
 BRR  HZ I         632 47.33         4.0 0.14            150           72.9 301 
 RUS  HZ EP   1    632 29.91                             147   -0.25 7 97.3 176 
 RUS  HN ES   1    632 49.03                             147   -0.22 7 97.3 176 
 RUS  HZ I         632 50.36         2.7 0.26            148           97.3 176 
 PTB  HZ EP        632 33.39                             134   -0.01 9  147 260 
 PTB  HN ES        632 54.29                             134   -0.72 9  147 260 
 PTB  HZ I         632 57.40         5.0 0.12            132            147 260 
 SPBC HZ EP        632 35.24                             132    0.54 9  161 220 
 SPBC HN ES        632 57.62                             132    0.29 9  161 220 
 SPBC HZ I         632 59.88         5.2 0.22            131            161 220 
 ZAR  HZ EP        632 38.70                             124   -0.20 8  205 293 
 ZAR  HN ES        633  4.74                             124   -0.07 8  205 293 
 ZAR  HZ I         633 11.22         4.6 0.40            123            205 293 
 NOR  HZ EP   1    632 41.20                             121   -0.59 6  233 235 
 NOR  HE ES   1    633 10.32                             121    0.37 6  233 235 
 NOR  HZ I         633 15.31         3.0 0.22            120            233 235 
 MON  HZ EP   4    632 53.59                             110   -1.73 0  356 309 
 MON  HN ES   4    633 31.08                             110   -2.95 0  356 309 
 MON  HZ I         633 40.81         0.9 0.72            110            356 309 
                                                                                
