 2017  117 0405 26.7 L   6.790 -73.133147.3  RSN  5 0.3 1.1LRSN                1
 GAP=139        0.61       4.4     6.9  5.9  0.1421E+02 -0.1756E+02 -0.8665E+01E
 Epicentro: LOS SANTOS - SANTANDER                                             3
 ACTION:UPD 17-05-22 16:00 OP:jn   STATUS:               ID:20170117040526 L   I
 OLDACT:UP  17-01-17 16:28 OP:dani STATUS:               ID:20170117035739     3
 OLDACT:UP  17-01-17 16:28 OP:dani STATUS:               ID:20170117035739     3
 OLDACT:REG 17-01-17 12:52 OP:dani STATUS:               ID:20170117035739     3
 2017-01-17-0358-00M.COL___329                                                 6
 STAT SP IPHASW D HRMM SECON CODA AMPLIT PERI AZIMU VELO AIN AR TRES W  DIS CAZ7
 BAR2 EZ EP        4 5 46.23                             171   -0.3110 22.5 194 
 BAR2 EZ ES        4 6  1.75                             171   -0.2310 22.5 194 
 BRR  HZ EP        4 5 48.08                             152   -0.0810 72.9 299 
 BRR  HE ES        4 6  5.10                             152    0.2510 72.9 299 
 BRR  HZ I         4 6  7.31         3.0 0.28            151           72.9 299 
 PAM  EZ EP        4 5 49.20                             151    0.0810 77.4  38 
 RUS  HZ IP        4 5 50.84                             144    0.2810 99.4 177 
 RUS  HN ES        4 6  9.22                             144    0.0810 99.4 177 
 RUS  HZ I         4 6 10.58         1.7 0.14            145           99.4 177 
 PTB  HZ EP   4    4 5 57.51                             132    3.57 0  149 259 
 PTB  HN ES   3    4 6 14.10                             132   -1.05 2  149 259 
                                                                                
