 2016  617 0009  2.3 L   6.389 -73.654100.8  RSN 16 0.5 2.1LRSN                1
 GAP= 64        1.07       2.4     2.6  5.3 -0.1508E+01  0.4181E+01  0.1146E+01E
 Epicentro: SANTA HELENA DEL OPON - SANTANDER                                  3
 ACTION:UPD 16-07-21 22:19 OP:rebc STATUS:               ID:20160617000902 L   I
 OLDACT:REG 16-06-17 12:15 OP:dnl  STATUS:               ID:20160617000001     3
 2016-06-17-0000-01M.COL___346                                                 6
 STAT SP IPHASW D HRMM SECON CODA AMPLIT PERI AZIMU VELO AIN AR TRES W  DIS CAZ7
 BAR2 EZ EP        0 9 18.30                             148    0.1710 56.7  67 
 BAR2 EZ ES        0 9 30.75                             148    0.2610 56.7  67 
 BAR2 EZ I         0 9 32.57        94.0 0.44                          56.7  67 
 BRR  HZ EP        0 9 19.36                             138   -0.1010 79.6 355 
 BRR  HN ES        0 9 33.62                             138    0.7610 79.6 355 
 BRR  HZ I         0 9 41.93        24.4 0.16                          79.6 355 
 RUS  HZ EP        0 9 20.28                             137   -0.2010 83.7 131 
 RUS  HN ES        0 9 34.54                             137   -0.1310 83.7 131 
 PTB  HZ EP        0 9 19.40                             134   -0.9910 90.3 281 
 PTB  HN ES        0 9 33.56                             134   -0.9510 90.3 281 
 PTB  HZ I         0 9 36.08        29.8 0.18                          90.3 281 
 SPBC HZ EP        0 9 20.51                             133   -0.2810 93.8 210 
 SPBC HN ES        0 9 35.56                             133    0.3310 93.8 210 
 SPBC HZ I         0 9 37.08        41.0 0.28                          93.8 210 
 PAM  EZ EP        0 9 26.80                             119    0.04 9  149  45 
 PAM  EN ES        0 9 45.50                             119   -0.35 9  149  45 
 PAM  EZ I         0 9 47.09         8.9 0.18                           149  45 
 NOR  HZ EP        0 9 27.81                             116    0.13 9  163 236 
 NOR  HE ES        0 9 47.77                             116    0.27 9  163 236 
 NOR  HZ I         0 9 50.12        30.1 0.14                           163 236 
 ZAR  HZ EP        0 9 29.46                             113   -0.14 9  181 313 
 ZAR  HE ES        0 9 51.22                             113    0.31 9  181 313 
 ZAR  HZ I         0 9 55.55        33.3 0.30                           181 313 
 CHI  HZ EP        0 9 31.31                             112   -0.41 9  195 183 
 CHI  HN ES   2    0 9 55.12                             112    0.43 4  195 183 
 CHI  HZ I         010  0.89         4.1 0.62                           195 183 
 OCA  HZ EP        0 9 33.57                             110    0.69 8  208  10 
 OCA  HN ES        0 9 56.55                             110   -0.20 8  208  10 
 OCA  HZ I         010  2.05        36.0 0.22                           208  10 
 HEL  HZ EP        0 9 33.35                             110    0.10 8  209 264 
 HEL  HN ES        0 9 58.07                             110    0.67 8  209 264 
 HEL  HZ I         010  0.31        14.6 0.44                           209 264 
 GUY2CHZ EP   3    0 9 36.15                             108    0.40 2  229 236 
 GUY2CHN ES   2    010  1.95                             108    0.10 4  229 236 
 GUY2CHZ I         010  6.56        11.2 0.34                           229 236 
 VIL  SZ EP   3    0 9 37.78                             105   -0.19 2  252 181 
 VIL  SE ES   4    010  2.92                             105   -2.89 0  252 181 
 CBOC HZ EP        0 9 40.08                             104    0.22 8  267 258 
 CBOC HN ES        010  8.67                             104   -0.50 8  267 258 
 CBOC HZ I         010 16.07         3.7 0.48                           267 258 
 PRA  HZ EP        0 9 46.05                             100   -0.62 7  326 205 
 PRA  HE ES        010 21.62                             100    0.32 7  326 205 
 ORTC HZ EP        0 9 47.41                             100    0.71 7  326 213 
 ORTC HE ES        010 21.76                             100    0.41 7  326 213 
 PRA  HZ I         010 28.68         5.8 0.42                           326 205 
 ORTC HZ I         010 29.96         5.2 0.30                           326 213 
                                                                                
