 2010 1117 0503 34.8 L   6.808 -73.076143.1  RSN 10 0.4 2.0LRSN                1
 GAP=166        0.86       3.8     7.0  6.2 -0.6595E+01  0.5691E+01  0.1343E+01E
 Epicentro: LOS SANTOS - SANTANDER                                             3
 ACTION:UP  10-12-17 16:53 OP:REBC STATUS:               ID:20101117050334 L   I
 2010-11-17-0459-54S.COL___128                                                 6
 STAT SP IPHASW D HRMM SECON CODA AMPLIT PERI AZIMU VELO SNR AR TRES W  DIS CAZ7
 BTL  SZ EP        5 3 54.22                             170     0.110   25 300 
 BTL  SZ ES   1    5 4  9.91                             170     0.7 7   25 300 
 BAR2 SZ IP        5 3 54.09                             169    -0.110   27 207 
 BAR2 SZ ES   1    5 4  9.43                             169     0.1 7   27 207 
 BAR2 SZ I         5 4 10.73        21.4 0.17                            27 207 
 BRR  HZ IP     C  5 3 55.83                             150    -0.210   78 295 
 BRR  HE ES   1    5 4 12.54                             150    -0.1 7   78 295 
 BRR  HZ I         5 4 16.13        30.1 0.18                            78 295 
 RUS  HZ EP   1    5 3 58.13                             143    -0.2 7  101 180 
 RUS  HZ I         5 3 59.35        11.5 0.09                           101 180 
 RUS  HE ES   1    5 4 16.40                             143    -0.3 7  101 180 
 GRA  SZ EP   1    5 3 59.74                             137     0.2 7  123  14 
 GRA  SZ ES   1    5 4 18.29                             137    -0.6 7  123  14 
 GRA  SZ I         5 4 23.73         8.7 0.25                           123  14 
 OCA  SZ EP   1    5 4  3.06                             129     0.1 7  161 350 
 OCA  SZ ES   1    5 4 25.03                             129     0.2 7  161 350 
 OCA  SZ I         5 4 28.73        18.7 0.53                           161 350 
 NOR  SZ EP   2    5 4 10.30                             117    -0.8 4  242 235 
 NOR  SE ES   2    5 4 38.56                             117    -0.9 4  242 235 
 ROSC BZ EP   1    5 4 14.49                             116     1.2 6  258 212 
 ROSC BZ I         5 4 50.10         5.7 0.50                           258 212 
 HEL  HZ EP   2    5 4 16.01                             114     0.3 4  280 256 
 HEL  HE ES   2    5 4 47.59                             114    -0.1 4  280 256 
 HEL  HZ I         5 4 52.43         8.2 0.43                           280 256 
 PRA  HZ EP   2    5 4 28.76                             106     0.0 3  397 210 
 PRA  HE ES   2    5 5 10.85                             106     0.0 3  397 210 
                                                                                
