 2014  617 0836 51.9 L   6.724 -73.558106.0  RSN 13 0.5 2.0LRSN                1
 GAP=100        1.09       3.3     4.4  8.0 -0.4209E+01  0.1339E+02 -0.5423E+01E
 Epicentro: EL CARMEN DE CHUCURI - SANTANDER                                   3
 ACTION:UPD 14-07-01 22:54 OP:nd   STATUS:               ID:20140617083651 L   I
 OLDACT:UP  14-06-17 18:15 OP:mh   STATUS:               ID:20140617082816d    3
 OLDACT:UP  14-06-17 18:14 OP:mh   STATUS:               ID:20140617082816d    3
 OLDACT:DUP 14-06-17 18:13 OP:mh   STATUS:               ID:20140617082816d    3
 2014-06-17-0828-15M.COL___259                                                 6
 STAT SP IPHASW D HRMM SECON CODA AMPLIT PERI AZIMU VELO AIN AR TRES W  DIS CAZ7
 BAR2 SZ EP        837  8.15                             156    0.5310 44.0 109 
 BAR2 SZ ES   1    837 20.29                             156    0.44 7 44.0 109 
 BAR2 SZ I         837 22.20        51.9 0.11            164           44.0 109 
 PTB  HZ IP     C  837 11.14                             133   -0.3210  101 258 
 PTB  HN ES   1    837 26.09                             133   -0.60 7  101 258 
 RUS  HZ EP        837 12.51                             132    0.0010  106 150 
 RUS  HN ES   1    837 28.31                             132   -0.24 7  106 150 
 RUS  HZ I         837 30.66         9.0 0.10            137            106 150 
 SPBC HZ EP        837 14.36                             125   -0.0710  132 206 
 SPBC HN ES        837 31.62                             125   -0.3610  132 206 
 SPBC HZ I         837 39.15        12.2 0.27            126            132 206 
 ZAR  HZ EP   4    837 19.27                             117    1.24 0  167 301 
 ZAR  HN ES   4    837 41.55                             117    3.17 0  167 301 
 ZAR  HZ I         837 43.57        12.1 0.21            118            167 301 
 OCA  HZ EP        837 17.74                             117   -0.76 9  170   9 
 OCA  HN ES   1    837 39.81                             117    0.58 7  170   9 
 OCA  HZ I         837 45.93        16.1 0.25            119            170   9 
 NOR  HZ EP        837 20.40                             113   -0.65 9  194 229 
 NOR  HN ES   1    837 43.46                             113   -0.29 6  194 229 
 NOR  HZ I         837 49.84         7.8 0.50            115            194 229 
 HEL  HZ EP        837 25.77                             110    0.68 8  226 255 
 HEL  HN ES        837 51.78                             110    0.83 8  226 255 
 HEL  HZ I         837 56.68         7.1 0.08            111            226 255 
 SML  HZ EP        837 25.52                             108   -0.33 8  237 346 
 SML  HN ES   1    837 52.60                             108    0.29 6  237 346 
 SML  HZ I         838  2.92        13.1 0.08            110            237 346 
 GUY2CHZ EP   4    837 30.24                             106    1.07 0  260 230 
 GUY2CHN ES   4    837 59.40                             106    1.19 0  260 230 
 GUY2CHZ I         838  6.52         5.1 0.06                           260 230 
 RREF HZ EP   4    837 32.30                             105    0.25 0  283 225 
 RREF HN ES   4    838  4.41                             105    1.07 0  283 225 
 TOL  SZ EP   4    837 35.83                             103    1.31 0  307 220 
 TOL  SN ES   1    838  8.46                             103    0.73 5  307 220 
 TOL  SZ I         838 19.14         8.8 0.21            105            307 220 
 ORTC HZ EP   1    837 40.32                             100   -0.59 5  363 211 
 ORTC HN ES   4    838 21.82                             100    2.71 0  363 211 
 PRA  HZ EP        837 41.74                             100    0.73 6  364 204 
 PRA  HN ES        838 19.50                             100    0.21 6  364 204 
 PRA  HZ I         838 30.27         2.2 0.47            102            364 204 
                                                                                
