 2010  117 0549 10.4 L   6.805 -73.048147.9  RSN  5 0.2 1.4LRSN                1
 GAP=193        0.40       2.2    15.7  3.6 -0.3594E+01  0.1547E+02 -0.1759E+01E
 Epicentro: LOS SANTOS - SANTANDER                                             3
 ACTION:UP  10-08-24 09:44 OP:vdl  STATUS:               ID:20100117054910 L   I
 2010-01-17-0545-24S.COL___096                                                 6
 STAT SP IPHASW D HRMM SECON CODA AMPLIT PERI AZIMU VELO SNR AR TRES W  DIS CAZ7
 BAR2 SZ EP   1    549 30.42                             169     0.0 7   28 212 
 BAR2 SZ ES   1    549 45.69                             169    -0.3 7   28 212 
 GIR2 SZ IP        549 30.56                             166     0.110   34 332 
 GIR2 SZ ES   2    549 46.40                             166     0.4 5   34 332 
 RUS  BZ EP   1    549 34.38                             144     0.0 7  101 182 
 RUS  BN ES        549 53.14                             144     0.010  101 182 
 RUS  BZ I         549 54.33         4.4 0.36                           101 182 
 OCA  SZ IP        549 38.90                             130    -0.1 9  161 349 
 CHI  HZ IP        549 48.63                             117     0.0 8  252 198 
 CHI  HZ I         549 49.13         1.6 0.20                           252 198 
 CHI  HE ES   2    550 18.52                             117     0.1 4  252 198 
                                                                                
