 2015  517 0310 29.2 L   6.790 -73.161144.0  RSN  5 0.3 1.3LRSN                1
 GAP=235        0.76       5.6     6.5  7.9  0.2005E+02  0.3166E+01 -0.6273E+00E
 Epicentro: LOS SANTOS - SANTANDER                                             3
 ACTION:UPD 15-09-10 22:04 OP:cam  STATUS:               ID:20150517031029 L   I
 OLDACT:REG 15-05-17 12:41 OP:spq  STATUS:               ID:20150517030749     3
 2015-05-17-0307-49M.COL___277                                                 6
 STAT SP IPHASW D HRMM SECON CODA AMPLIT PERI AZIMU VELO AIN AR TRES W  DIS CAZ7
 BAR2 EZ EP        310 48.82                             171    0.2610 22.0 186 
 BAR2 EZ ES   1    311  3.19                             171   -0.49 7 22.0 186 
 BAR2 EZ I         311  4.02         4.3 0.30            169           22.0 186 
 BRR  HZ EP        310 49.81                             153   -0.2610 70.3 300 
 BRR  HN ES        311  6.83                             153    0.4510 70.3 300 
 BRR  HZ I         311 13.16         4.4 0.50            149           70.3 300 
 RUS  HZ EP   1    310 52.82                             144    0.15 7 99.6 175 
 RUS  HE ES   1    311 10.76                             144   -0.25 7 99.6 175 
 RUS  HZ I         311 11.86         1.9 0.32            147           99.6 175 
 SPBC HE ES   1    311 19.57                             129    0.25 7  161 219 
 SPBC HZ I         311 22.28         2.8 0.09            130            161 219 
 ZAR  HE ES        311 26.19                             122   -0.32 9  203 293 
 ZAR  HZ I         311 31.39         3.5 0.34            123            203 293 
                                                                                
