 2010  517 0721  0.4 L   6.796 -73.054143.1  RSN 11 0.5 2.7LRSN                1
 GAP=148        0.98       4.9     8.2  7.0 -0.2295E+02 -0.1132E+02  0.1118E+02E
 Epicentro: LOS SANTOS - SANTANDER                                             3
 ACTION:UP  10-08-24 10:05 OP:vdl  STATUS:               ID:20100517072100 L   I
 2010-05-17-0719-27S.COL___108                                                 6
 STAT SP IPHASW D HRMM SECON CODA AMPLIT PERI AZIMU VELO AIN AR TRES W  DIS CAZ7
 BAR2 SZ IP        721 19.68                             169    -0.110   27 212 
 BAR2 SZ ES   1    721 34.25                             169    -0.6 7   27 212 
 BRR  HZ IP     D  721 22.33                             149     0.510   81 295 
 BRR  HE ES   1    721 39.02                             149     0.5 7   81 295 
 BRR  HZ I         721 43.68       134.7 0.11                            81 295 
 GUE  SZ IP        721 24.70                             139     0.010  115   7 
 GUE  SZ ES   1    721 43.70                             139     0.0 7  115   7 
 GRA  SZ IP        721 25.62                             137     0.410  124  13 
 GRA  SZ ES   1    721 44.89                             137     0.3 7  124  13 
 OCA  SZ EP        721 28.25                             129    -0.4 9  162 350 
 OCA  SZ ES   1    721 49.76                             129    -1.0 7  162 350 
 OCA  SZ I         721 53.35        74.9 0.35                           162 350 
 CHI  HZ EP   2    721 38.19                             116     0.0 4  251 197 
 CHI  HN ES   2    722  7.81                             116     0.1 4  251 197 
 CVER SZ EP   2    721 41.91                             114     0.9 4  276 204 
 HEL  HZ EP   1    721 41.32                             113    -0.2 6  282 256 
 HEL  HZ I         722 20.42        16.1 0.29                           282 256 
 RREF BZ EP   1    721 47.33                             110     0.1 5  329 231 
 RREF BE ES   2    722 24.08                             110     0.3 3  329 231 
 RREF BZ I         722 31.72        20.1 0.31                           329 231 
 SDV  BZ IP        721 49.51                             108     0.1 6  353  49 
 SDV  BZ I         722 29.54        12.5 0.44                           353  49 
 PRA  HZ EP        721 53.63                             106    -0.7 6  397 211 
 PRA  HE ES   2    722 35.71                             106    -0.7 3  397 211 
 PRA  HZ I         722 41.04        17.0 0.62                           397 211 
                                                                                
