 2012  917 0903 27.0 L   6.765 -73.166146.5  RSN  6 0.3 2.0LRSN                1
 GAP=136        0.76       5.1     4.9  6.9 -0.3717E+01  0.2022E+01 -0.2355E+01E
 Epicentro: LOS SANTOS - SANTANDER                                             3
 ACTION:UPD 12-10-22 14:19 OP:ep   STATUS:               ID:20120917090327 L   I
 2012-09-17-0900-00M.COL___227                                                 6
 STAT SP IPHASW D HRMM SECON CODA AMPLIT PERI AZIMU VELO AIN AR TRES W  DIS CAZ7
 BAR2 SZ EP        9 3 46.75                             172    0.0810 19.2 185 
 BAR2 SZ ES   1    9 4  2.09                             172    0.11 7 19.2 185 
 BAR2 SZ I         9 4  3.37        56.4 0.16                          19.2 185 
 GIR2 SZ EP        9 3 46.81                             166   -0.0710 34.8 355 
 BRR  HZ EP        9 3 48.60                             153    0.3510 71.2 302 
 BRR  HN ES   1    9 4  5.41                             153    0.60 7 71.2 302 
 BRR  HZ I         9 4  6.65        13.9 0.24                          71.2 302 
 PAM  SZ EP        9 3 49.60                             150    0.0210 81.8  39 
 PAM  SN ES   1    9 4  6.56                             150   -0.62 7 81.8  39 
 PAM  SZ I         9 4  9.03        18.6 0.50                          81.8  39 
 RUS  HZ EP   1    9 3 50.73                             145    0.14 7 96.9 175 
 RUS  HN ES   1    9 4  8.95                             145   -0.02 7 96.9 175 
 RUS  HZ I         9 4 10.98        20.3 0.30                          96.9 175 
 PTB  HZ EP   1    9 3 53.39                             133   -0.40 7  145 260 
 PTB  HN ES   1    9 4 14.06                             133   -0.61 7  145 260 
 PTB  HZ I         9 4 16.79         4.4 0.12                           145 260 
                                                                                
