 2013  817 0448 57.3 L   5.938 -73.665118.3  RSN  5 0.5 1.4LRSN                1
 GAP=141        1.28       6.2     5.6 10.4 -0.1825E+01  0.6001E+01 -0.1455E+02E
 Epicentro: BARBOSA - SANTANDER                                                3
 2013-08-17-0438-46M.COL___216                                                 6
 OLDACT:DUP 13-08-17 13:23 OP:stll STATUS:               ID:20130817043849d    3
 ACTION:UPD 14-01-14 09:03 OP:ep   STATUS:               ID:20130817044857 L   I
 OLDACT:UP  13-08-17 13:25 OP:stll STATUS:               ID:20130817043849d    3
 STAT SP IPHASW D HRMM SECON CODA AMPLIT PERI AZIMU VELO AIN AR TRES W  DIS CAZ7
 SPBC HZ EP        449 14.61                             153   -0.0810 55.1 235 
 SPBC HN ES        449 28.99                             153    0.7310 55.1 235 
 SPBC HZ I         449 30.34         4.8 0.56            156           55.1 235 
 RUS  HZ EP        449 15.76                             150   -0.0610 64.6  94 
 RUS  HN ES        449 29.68                             150   -0.6010 64.6  94 
 RUS  HN I         449 31.07         5.8 0.18            153           64.6  94 
 RUS  HZ I         449 31.36         2.3 0.20                          64.6  94 
 BAR2 SZ EP        449 16.88                             140   -0.3510 89.9  36 
 BAR2 SZ ES        449 33.27                             140    0.4710 89.9  36 
 BAR2 HZ I         449 34.42         9.8 0.22            141           89.9  36 
 PTB  HZ EP        449 18.65                             134    0.0510  110 307 
 PTB  HN ES        449 34.34                             134   -0.8810  110 307 
 PTB  HN I         449 36.94        10.2 0.28            135            110 307 
 PTB  HZ I         449 37.74         4.8 1.14                           110 307 
 BRR  HZ EP        449 20.89                             129    0.5410  129 358 
 BRR  HN ES        449 38.56                             129    0.2110  129 358 
 BRR  HZ I         449 44.03         3.4 0.30            130            129 358 
                                                                                
