 2014  817 0220  5.0 L   6.797 -73.105146.5  RSN 12 0.3 1.5LRSN                1
 GAP=142        0.78       2.7     3.7  5.0 -0.9544E+00  0.3235E+01  0.2669E+00E
 Epicentro: LOS SANTOS - SANTANDER                                             3
 ACTION:UPD 14-09-15 21:50 OP:nd   STATUS:               ID:20140817022005 L   I
 OLDACT:REG 14-08-17 13:04 OP:spq  STATUS:               ID:20140817021819     3
 2014-08-17-0218-19M.COL___266                                                 6
 STAT SP IPHASW D HRMM SECON CODA AMPLIT PERI AZIMU VELO AIN AR TRES W  DIS CAZ7
 BAR2 SZ EP   1    220 24.32                             170   -0.37 7 24.2 201 
 BAR2 SZ ES   1    220 40.09                             170    0.01 7 24.2 201 
 BAR2 SZ I         220 40.65         7.1 0.09            169           24.2 201 
 PAM  SZ EP        220 27.41                             152    0.3110 74.9  37 
 PAM  SE ES   1    220 44.47                             152    0.09 7 74.9  37 
 PAM  SZ I         220 47.14         4.0 0.46            155           74.9  37 
 BRR  HZ EP        220 26.64                             151    0.2210 75.3 297 
 BRR  HE ES        220 43.62                             151    0.4610 75.3 297 
 BRR  HZ I         220 47.27         4.1 0.46            150           75.3 297 
 RUS  HZ EP   1    220 28.59                             144   -0.15 7  100 179 
 RUS  HE ES   1    220 47.01                             144   -0.28 7  100 179 
 RUS  HZ I         220 48.43         2.6 0.34            146            100 179 
 PTB  HZ EP        220 32.27                             131   -0.11 9  152 259 
 PTB  HE ES        220 53.15                             131   -0.62 9  152 259 
 PTB  HZ I         220 56.37         3.6 0.20            131            152 259 
 OCA  HN ES        220 55.23                             130   -0.38 9  161 352 
 OCA  HZ I         220 58.92         3.7 0.42            131            161 352 
 SPBC HZ EP        220 33.57                             129   -0.19 9  166 220 
 SPBC HE ES        220 56.48                             129    0.26 9  166 220 
 SPBC HZ I         221  2.43         5.2 0.26            129            166 220 
 ZAR  HZ EP        220 38.54                             122    0.65 8  208 292 
 ZAR  HE ES        221  3.67                             122    0.09 8  208 292 
 ZAR  HZ I         221  8.70         2.6 0.46            122            208 292 
 SML  HZ EP   1    220 41.35                             117   -0.51 6  246 334 
 SML  HE ES   1    221 10.24                             117   -0.41 6  246 334 
 SML  HZ I         221 12.17         3.2 0.03            118            246 334 
 GUY2CHZ EP   1    220 49.35                             112    0.36 5  305 235 
 GUY2CHE ES   4    221 27.41                             112    4.07 0  305 235 
 GUY2CHZ I         221 31.28         2.3 0.36                           305 235 
 PRA  HZ EP   1    220 58.60                             106   -0.13 4  394 210 
 PRA  HN ES   4    221 42.93                             106    2.26 0  394 210 
 PRA  HZ I         221 47.31         1.9 0.32            108            394 210 
 SJC  HZ EP   4    220 59.06                             106   -1.81 0  412 326 
 SJC  HN ES   4    221 42.22                             106   -2.25 0  412 326 
 SJC  HZ I         221 48.35         1.0 0.44            107            412 326 
                                                                                
