 2014  417 0054 50.5 L   6.806 -73.159145.6  RSN  8 0.5 1.8LRSN                1
 GAP=135        1.20       3.6     5.1  7.6  0.4767E+00  0.6364E+01  0.1093E+01E
 Epicentro: LOS SANTOS - SANTANDER                                             3
 ACTION:UPD 14-05-13 23:09 OP:nd   STATUS:               ID:20140417005450 L   I
 OLDACT:REG 14-04-17 12:49 OP:nd   STATUS:               ID:20140417005040     3
 2014-04-17-0050-40M.COL___254                                                 6
 STAT SP IPHASW D HRMM SECON CODA AMPLIT PERI AZIMU VELO AIN AR TRES W  DIS CAZ7
 BRR  HZ EP        055 11.63                             153    0.0910 69.6 299 
 BRR  HN ES        055 28.65                             153    0.7010 69.6 299 
 BRR  HZ I         055 35.50        15.4 0.32            151           69.6 299 
 PAM  SZ EP        055 12.85                             151    0.1310 77.8  41 
 PAM  SN ES        055 29.84                             151   -0.2110 77.8  41 
 RUS  HZ EP        055 14.02                             144   -0.2710  101 175 
 RUS  HN ES        055 32.70                             144   -0.1510  101 175 
 RUS  HZ I         055 33.62         6.1 0.26            148            101 175 
 PTB  HZ EP        055 16.36                             132   -0.98 9  146 258 
 PTB  HN ES        055 37.62                             132   -0.65 9  146 258 
 PTB  HZ I         055 39.43         7.3 0.13            133            146 258 
 SPBC HZ EP        055 19.09                             129    0.14 9  163 218 
 SPBC HN ES        055 41.55                             129    0.41 9  163 218 
 SPBC HZ I         055 43.55         5.9 0.24            132            163 218 
 ZAR  HZ EP        055 23.83                             123    1.06 9  202 292 
 ZAR  HN ES        055 47.78                             123   -0.16 9  202 292 
 ZAR  HZ I         055 53.14         7.6 0.44            123            202 292 
 SML  HZ EP        055 27.30                             118    0.32 8  242 336 
 SML  HN ES        055 54.91                             118   -0.53 8  242 336 
 SML  HZ I         056  6.53        10.2 0.10            119            242 336 
 CHI  HZ EP        055 28.21                             117   -0.01 8  249 195 
 CHI  HN ES        055 57.85                             117    0.21 8  249 195 
 CHI  HZ I         055 59.81         4.3 0.32            120            249 195 
                                                                                
