 2010  817 0511 44.1 L   6.867 -73.301118.7  RSN 13 0.4 2.4LRSN                1
 GAP=104        1.03       3.1     5.8  6.3 -0.6910E+01  0.1130E+02 -0.4925E+00E
 Epicentro: BETULIA - SANTANDER                                                3
 ACTION:UP  10-09-07 10:55 OP:vdl  STATUS:               ID:20100817051144 L   I
 2010-08-17-0508-24S.COL___111                                                 6
 STAT SP IPHASW D HRMM SECON CODA AMPLIT PERI AZIMU VELO SNR AR TRES W  DIS CAZ7
 GIR2 SZ EP        511 59.61                             167    -0.810   26  27 
 GIR2 SZ ES   1    512 12.78                             167    -0.3 7   26  27 
 BAR2 SZ IP        512  1.03                             164     0.310   33 157 
 BAR2 SZ ES   1    512 14.15                             164     0.4 7   33 157 
 BAR2 SZ I         512 15.77       292.1 0.55                            33 157 
 BRR  HZ IP     C  512  1.45                             154     0.210   53 300 
 BRR  HE ES   2    512 15.07                                     0.4 5   53 300 
 BRR  HZ I         512 16.71        81.5 0.18                            53 300 
 RUS  HZ EP        512  5.81                             135    -0.310  110 167 
 RUS  HN ES        512 23.42                             135     0.110  110 167 
 RUS  HZ I         512 24.76        23.2 0.33                           110 167 
 GUE  SZ IP        512  5.99                             134    -0.210  114  21 
 GUE  SZ I         512  6.46        49.4 0.18                           114  21 
 GRA  SZ IP        512  7.23                             131     0.210  125  26 
 GRA  SZ I         512  8.08        41.6 0.11                           125  26 
 GRA  SZ ES   1    512 25.33                             131     0.5 7  125  26 
 OCA  SZ EP        512  9.38                             125    -0.2 9  152 359 
 OCA  SZ ES   1    512 29.58                             125     0.1 7  152 359 
 OCA  SZ I         512 30.52        92.6 0.43                           152 359 
 ROSC BN ES        512 48.66                             111    -0.5 8  251 207 
 ROSC BZ I         512 56.69         8.3 1.06                           251 207 
 CHI  HZ EP        512 20.98                             111     0.2 8  252 191 
 CHI  HZ I         512 22.11        11.6 0.64                           252 191 
 CHI  HN ES   3    512 50.50                             111     1.0 2  252 191 
 HEL  HZ EP   1    512 22.30                             110     0.9 6  257 253 
 HEL  HN ES   1    512 49.89                             110    -0.6 6  257 253 
 HEL  HZ I         512 56.14         8.9 0.12                           257 253 
 RREF HZ EP   1    512 29.06                             106     0.8 5  314 226 
 RREF HN ES   2    513  2.63                             106    -0.1 3  314 226 
 RREF HZ I         513  8.72         6.2 0.05                           314 226 
 SDV  BZ EP   1    512 34.00                                    -0.3 5  369  53 
 SDV  BZ I         513 15.59         7.9 0.12                           369  53 
 PRA  HZ EP   1    512 36.83                             102     0.2 4  390 207 
 PRA  HN ES   1    513 17.85                             102     0.3 4  390 207 
 PRA  HZ I         513 23.08         9.3 0.73                           390 207 
                                                                                
