 2017 1017 0422 11.9 L   6.816 -73.173143.0  RSN 10 0.6 2.0LRSN                1
 GAP=109        1.40       5.3     5.4  7.8  0.7407E+00  0.8278E+01  0.9472E+01E
 Epicentro: LOS SANTOS - SANTANDER                                             3
 ACTION:UPD 17-11-07 19:32 OP:rebc STATUS:               ID:20171017042211 L   I
 OLDACT:UP  17-10-17 15:04 OP:dani STATUS:               ID:20171017041740     3
 OLDACT:REG 17-10-17 12:29 OP:dani STATUS:               ID:20171017041740     3
 2017-10-17-0418-00M.COL___434                                                 6
 STAT SP IPHASW D HRMM SECON CODA AMPLIT PERI AZIMU VELO AIN AR TRES W  DIS CAZ7
 BAR2 EZ EP        422 31.05                             170   -0.1410 24.8 182 
 BAR2 EZ ES        422 45.91                             170   -0.3610 24.8 182 
 BAR2 EZ I         422 46.77        36.6 0.26            169           24.8 182 
 BRR  HZ EP     C  422 32.98                             153    0.4710 67.7 298 
 BRR  HN ES        422 49.93                             153    1.3110 67.7 298 
 BRR  HZ I         422 54.01        26.1 0.12            152           67.7 298 
 PAM  EZ EP        422 34.15                             150    0.3310 78.0  42 
 PAM  EN ES        422 50.99                             150    0.0410 78.0  42 
 PAM  EZ I         422 53.37        15.2 0.23            153           78.0  42 
 RUS  HZ EP        422 35.51                             143    0.0210  103 174 
 RUS  HN ES        422 53.26                             143   -0.6610  103 174 
 RUS  HZ I         422 54.32        14.9 0.22            144            103 174 
 PTB  HZ EP        422 37.98                             132   -0.38 9  145 258 
 PTB  HN ES        422 57.76                             132   -1.27 9  145 258 
 PTB  HZ I         423  2.28         8.0 0.46            132            145 258 
 YPLC HZ EP     D  422 41.47                             126   -0.28 9  180 151 
 YPLC HN ES        423  5.22                             126    0.15 9  180 151 
 YPLC HZ I         423  7.96         9.1 0.30            127            180 151 
 NOR  HZ EP        422 47.52                             118    0.25 8  233 234 
 NOR  HN ES        423 15.43                             118    0.53 8  233 234 
 NOR  HZ I         423 20.10         5.9 0.40            119            233 234 
 GUY2CHZ EP   3    422 57.06                             112    1.89 2  300 234 
 GUY2CHN ES   4    423 32.85                             112    3.89 0  300 234 
 GUY2CHZ I         423 36.33         3.9 0.26                           300 234 
 PRA  HZ EP        423  5.66                             106    0.37 6  392 209 
 PRA  HN ES        423 47.48                             106    0.52 6  392 209 
 PRA  HZ I         423 52.90         2.4 0.42            107            392 209 
 SJC  HZ EP        423  6.00                             105   -0.96 6  406 327 
 SJC  HN ES   3    423 48.53                             105   -1.41 1  406 327 
 SJC  HZ I         423 51.36         2.2 0.42            106            406 327 
                                                                                
