 2013  717 0442 30.6 L   6.192 -73.688109.8  RSN  4 0.4 1.5LRSN                1
 GAP=164        0.98       4.7     5.2  9.3 -0.8511E+01  0.9957E+00 -0.1555E+01E
 Epicentro: LANDAZURI - SANTANDER                                              3
 ACTION:UPD 13-08-12 10:38 OP:ep   STATUS:               ID:20130717044230 L   I
 OLDACT:REG 13-07-17 07:19 OP:nd.  STATUS:               ID:20130717043959     3
 2013-07-17-0439-59M.COL___267                                                 6
 STAT SP IPHASW D HRMM SECON CODA AMPLIT PERI AZIMU VELO AIN AR TRES W  DIS CAZ7
 BAR2 SZ EP        442 48.20                             145   -0.1210 71.3  52 
 BAR2 SZ ES        443  1.87                             145   -0.2910 71.3  52 
 BAR2 SZ I         443  3.70        15.4 0.12            146           71.3  52 
 SPBC HZ EP        442 48.03                             144   -0.2310 73.3 215 
 SPBC HN ES        443  2.46                             144    0.4210 73.3 215 
 PTB  HZ EP        442 50.00                             136    0.2910 93.2 294 
 PTB  HN ES        443  4.04                             136   -0.6010 93.2 294 
 PTB  HZ I         443  6.94         5.1 0.12            138           93.2 294 
 BRR  HZ IP     C  442 50.35                             134   -0.0210  101 359 
 BRR  HN ES        443  6.37                             134    0.5610  101 359 
 BRR  HZ I         443  8.42         4.8 0.12            135            101 359 
                                                                                
