 2016  717 0214  0.7 L   6.768 -73.476111.8  RSN  5 0.5 1.5LRSN                1
 GAP=156        1.36       9.3     7.7 10.4  0.3928E+02  0.2681E+02  0.2127E+02E
 Epicentro: EL CARMEN - SANTANDER                                              3
 ACTION:UPD 17-03-29 16:52 OP:lp   STATUS:               ID:20160717021400 L   I
 OLDACT:UP  16-07-17 14:40 OP:lv   STATUS:               ID:20160717020759     3
 OLDACT:REG 16-07-17 12:32 OP:lv   STATUS:               ID:20160717020759     3
 2016-07-17-0207-59S.COL___323                                                 6
 STAT SP IPHASW D HRMM SECON CODA AMPLIT PERI AZIMU VELO AIN AR TRES W  DIS CAZ7
 BAR2 EZ IP     D  214 16.42                             160   -0.3710 37.9 121 
 BAR2 EZ ES        214 28.59                             160   -0.7310 37.9 121 
 BAR2 EZ I         214 30.78        10.0 0.13            164           37.9 121 
 BRR  HE ES        214 29.91                             156    0.5910 45.6 325 
 BRR  HZ I         214 30.65         8.5 0.13            156           45.6 325 
 RUS  HZ EP        214 21.77                             134   -0.0310  106 156 
 RUS  HN ES        214 39.08                             134    0.8410  106 156 
 RUS  HZ I         214 40.02         4.7 0.26            136            106 156 
 PTB  HZ EP        214 21.12                             132   -0.5010  111 257 
 PTB  HN ES        214 37.71                             132   -0.2010  111 257 
 PTB  HZ I         214 43.93         4.8 0.14            130            111 257 
 ZAR  HZ EP        214 28.23                             118    0.49 9  172 298 
 ZAR  HN ES   4    214 50.38                             118    1.57 0  172 298 
 ZAR  HZ I         214 51.83         4.9 0.10            120            172 298 
 SJC  HZ EP   4    214 50.58                             100   -2.93 0  394 332 
 SJC  HN ES   4    215 30.19                             100   -4.48 0  394 332 
                                                                                
