 2014  917 0856 39.8 L   7.081 -73.358116.4  RSN  8 0.5 1.6LRSN                1
 GAP=158        1.26       3.3     5.3  7.8  0.2199E+01  0.4687E+01 -0.3626E+01E
 Epicentro: LEBRIJA - SANTANDER                                                3
 ACTION:UPD 14-10-03 23:05 OP:nd   STATUS:               ID:20140917085639 L   I
 OLDACT:DUP 14-09-17 18:18 OP:carl STATUS:               ID:20140917084807d    3
 2014-09-17-0848-06M.COL___287                                                 6
 STAT SP IPHASW D HRMM SECON CODA AMPLIT PERI AZIMU VELO AIN AR TRES W  DIS CAZ7
 BRR  HZ IP     D  856 56.23                             160    0.1710 39.2 274 
 BRR  HN ES        857  9.02                             160    0.2610 39.2 274 
 BRR  HZ I         857 10.33        14.7 0.12            159           39.2 274 
 BAR2 SZ EP        856 57.74                             152    0.4210 57.4 160 
 BAR2 SZ ES        857 11.21                             152    0.2110 57.4 160 
 BAR2 SZ I         857 12.60        29.2 0.46            152           57.4 160 
 OCA  HZ EP        857  2.94                             129    0.1610  128   2 
 OCA  HN ES        857 20.80                             129    0.0810  128   2 
 OCA  HZ I         857 22.10        15.2 0.24            131            128   2 
 RUS  HZ EP        857  3.77                             128   -0.1110  135 167 
 RUS  HN ES        857 21.95                             128   -0.7410  135 167 
 RUS  HZ I         857 27.59         1.9 0.38            128            135 167 
 PTB  HZ EP        857  2.93                             127   -0.37 9  135 244 
 PTB  HN ES        857 20.74                             127   -0.90 9  135 244 
 PTB  HZ I         857 23.27         4.9 0.16            127            135 244 
 ZAR  HZ EP        857  7.54                             120    0.54 9  172 285 
 ZAR  HN ES        857 28.97                             120    0.74 9  172 285 
 ZAR  HZ I         857 32.85         4.8 0.60            120            172 285 
 SPBC HZ EP        857  8.19                             119    0.56 9  177 207 
 SPBC HE ES        857 29.45                             119    0.10 9  177 207 
 SPBC HZ I         857 36.17         3.2 0.38            119            177 207 
 SML  HZ EP        857 10.41                             115   -0.26 8  206 338 
 SML  HN ES        857 33.75                             115   -1.02 8  206 338 
 SML  HZ I         857 38.10         5.5 0.34            116            206 338 
                                                                                
