 2012  117 0446 45.1 L   6.788 -73.130138.0  RSN 11 0.4 2.1LRSN                1
 GAP=139        0.95       3.4     4.0  5.6 -0.1803E+01  0.4744E+01  0.4343E+01E
 Epicentro: LOS SANTOS - SANTANDER                                             3
 ACTION:UP  12-02-03 08:18 OP:REBC STATUS:               ID:20120117044645 L   I
 2012-01-17-0440-00M.COL___188                                                 6
 STAT SP IPHASW D HRMM SECON CODA AMPLIT PERI AZIMU VELO SNR AR TRES W  DIS CAZ7
 BAR2 SZ EP   1    447  3.36                             170    -0.4 7   22 195 
 BAR2 SZ ES        447 18.84                             170     0.510   22 195 
 BAR2 SZ I         447 20.54        27.4 0.24                            22 195 
 BRR  HZ EP        447  5.24                             151    -0.310   73 299 
 BRR  HE ES        447 22.01                             151     0.510   73 299 
 BRR  HZ I         447 26.43        35.4 0.19                            73 299 
 PAM  SZ EP        447  6.21                             150    -0.310   77  38 
 PAM  SE ES        447 22.94                             150    -0.210   77  38 
 RUS  HZ EP        447  7.79                             143    -0.210   99 177 
 RUS  HN ES   1    447 25.81                             143     0.0 7   99 177 
 PTB  HN ES        447 31.43                             130    -0.8 9  149 259 
 OCA  SZ EP   1    447 13.64                             128     0.7 7  162 353 
 OCA  SZ ES   1    447 34.89                             128     0.2 7  162 353 
 OCA  SZ I         447 41.56        16.4 0.27                           162 353 
 ZAR  HZ EP   1    447 17.34                             121     0.1 6  206 292 
 ZAR  HE ES   1    447 41.89                             121    -0.5 6  206 292 
 ZAR  HZ I         447 48.48        20.1 0.26                           206 292 
 NOR  SZ EP   1    447 20.80                             117     0.4 6  235 235 
 NOR  SE ES   1    447 48.52                             117     0.5 6  235 235 
 CHI  HZ EP        447 22.24                             116     0.0 8  248 196 
 CHI  HZ I         447 23.79         4.3 0.21                           248 196 
 CHI  HN ES   1    447 51.48                             116     0.2 6  248 196 
 HEL  HZ EP   1    447 25.30                             113     0.2 6  273 256 
 HEL  HN ES   1    447 56.50                             113     0.3 6  273 256 
 HEL  HZ I         448  2.42         7.6 0.46                           273 256 
 PRA  HZ EP   1    447 38.15                             105    -0.2 4  392 210 
 PRA  HN ES   1    448 19.79                             105     0.0 4  392 210 
                                                                                
