 2014  617 0821  2.3 L   6.815 -73.152144.6  RSN  7 0.4 1.7LRSN                1
 GAP=212        0.89       4.4     5.8  7.7 -0.9307E+00  0.7358E+01 -0.5840E+01E
 Epicentro: LOS SANTOS - SANTANDER                                             3
 ACTION:UPD 14-07-01 22:54 OP:nd   STATUS:               ID:20140617082102 L   I
 OLDACT:REG 14-06-17 15:50 OP:mh   STATUS:               ID:20140617081809     3
 2014-06-17-0818-09M.COL___259                                                 6
 STAT SP IPHASW D HRMM SECON CODA AMPLIT PERI AZIMU VELO AIN AR TRES W  DIS CAZ7
 BAR2 SZ EP        821 21.96                             170    0.1010 24.8 188 
 BAR2 SZ ES   1    821 37.29                             170    0.20 7 24.8 188 
 PTB  HZ EP        821 28.34                             132   -0.83 9  147 258 
 PTB  HN ES   1    821 49.82                             132   -0.28 7  147 258 
 SPBC HZ EP        821 30.78                             129   -0.04 9  164 218 
 SPBC HN ES   1    821 53.07                             129    0.03 7  164 218 
 SPBC HZ I         821 55.94         7.2 0.54            128            164 218 
 ZAR  HZ EP        821 35.47                             122    0.90 9  203 292 
 ZAR  HN ES   1    821 59.91                             122    0.20 6  203 292 
 ZAR  HZ I         822 10.02         3.3 0.30            120            203 292 
 SML  HZ EP        821 38.41                             117   -0.29 8  242 335 
 SML  HE ES   1    822  6.94                             117   -0.12 6  242 335 
 SML  HZ I         822 16.59        10.0 0.09            116            242 335 
 HEL  HZ EP   4    821 44.26                             115    1.81 0  272 255 
 HEL  HN ES        822 13.90                             115    0.15 8  272 255 
 HEL  HZ I         822 20.75         1.7 0.11            113            272 255 
 GUY2CHZ EP   4    821 48.07                             112    2.14 0  302 234 
 GUY2CHN ES   4    822 21.77                             112    1.84 0  302 234 
 PRA  HZ EP        821 56.07                             106    0.13 6  393 209 
 PRA  HN ES   2    822 38.01                             106    0.26 3  393 209 
 PRA  HZ I         822 45.59         1.5 0.32            107            393 209 
                                                                                
