 2016  317 0857 22.3 L   6.796 -73.144142.2  RSN 23 0.4 2.6LRSN                1
 GAP= 71        0.83       2.6     2.3  4.3 -0.1673E+01  0.1945E+01  0.1436E+01E
 Epicentro: LOS SANTOS - SANTANDER                                             3
 2016-03-17-0837-48M.COL___297                                                 6
 OLDACT:REG 16-03-17 12:19 OP:dnl  STATUS:               ID:20160317083748     3
 ACTION:UPD 16-05-13 21:25 OP:cam  STATUS:               ID:20160317085722 L   I
 OLDACT:UP  16-03-28 15:35 OP:Mher STATUS:               ID:20160317085722 L   3
 OLDACT:UP  16-03-17 15:35 OP:dnl  STATUS:               ID:20160317083749d    3
 OLDACT:DUP 16-03-17 14:46 OP:dnl  STATUS:               ID:20160317083749d    3
 STAT SP IPHASW D HRMM SECON CODA AMPLIT PERI AZIMU VELO AIN AR TRES W  DIS CAZ7
 BAR2 EZ EP        857 41.76                             170    0.3010 22.9 191 
 BAR2 EZ ES        857 56.63                             170    0.2010 22.9 191 
 BAR2 EZ I         857 58.02       104.6 0.20            156           22.9 191 
 PAM  EZ IP     D  857 44.58                             150    0.4610 77.6  39 
 PAM  EN ES        858  0.93                             150   -0.2410 77.6  39 
 PAM  EZ I         858  3.90        32.8 0.21            139           77.6  39 
 RUS  HZ IP     C  857 45.62                             143   -0.0210  100 176 
 RUS  HZ I         858  4.91        43.5 0.44            127            100 176 
 PTB  HZ EP        857 48.42                             131   -0.53 9  148 259 
 PTB  HE ES        858  9.77                             131    0.00 9  148 259 
 PTB  HZ I         858 12.25        40.2 0.17            123            148 259 
 TAM  HZ IP     C  857 49.97                             130    0.33 9  155 105 
 TAM  HZ I         858 10.80        21.5 0.24            115            155 105 
 TAM  HE ES        858 11.01                             130    0.02 9  155 105 
 OCA  HZ EP        857 49.94                             129   -0.41 9  161 353 
 OCA  HE ES        858 11.93                             129   -0.32 9  161 353 
 OCA  HZ I         858 16.64       122.9 0.28            121            161 353 
 SPBC HZ EP        857 50.70                             128    0.23 9  163 219 
 SPBC HE ES        858 12.08                             128   -0.39 9  163 219 
 SPBC HZ I         858 19.53        57.0 0.09            117            163 219 
 ZAR  HZ EP        857 54.70                             122    0.18 9  204 292 
 ZAR  HE ES        858 20.20                             122    0.53 9  204 292 
 ZAR  HZ I         858 25.38        46.0 0.17            115            204 292 
 NOR  HZ EP   2    857 56.89                             118   -0.89 4  235 235 
 NOR  HN ES        858 25.30                             118   -0.17 8  235 235 
 NOR  HZ I         858 30.78        39.1 0.18            108            235 235 
 CHI  HZ EP        857 59.84                             116    0.11 8  248 195 
 CHI  HN ES   2    858 28.43                             116   -0.52 4  248 195 
 CHI  HZ I         858 35.14        24.6 0.26            106            248 195 
 ROSC BZ EP   9    858  1.46                             116    1.30 0  252 211 
 ROSC BE ES        858 31.11                             116    0.09 8  252 211 
 ROSC BZ I         858 37.71        36.5 0.45            106            252 211 
 HEL  HZ EP   4    858  3.31                             114    1.00 0  272 256 
 HEL  HN ES        858 33.53                             114   -0.00 8  272 256 
 HEL  HZ I         858 42.39        13.8 0.23            106            272 256 
 URE  HZ EP   4    858  2.02                             113   -1.18 0  284 292 
 URE  HN ES   4    858 32.96                             113   -2.17 0  284 292 
 URE  HZ I         858 35.85        32.1 0.12            106            284 292 
 GUY2CHZ EP        858  6.14                             112    0.44 7  301 235 
 GUY2CHN ES   4    858 38.40                             112   -1.17 0  301 235 
 GUY2CHZ I         858 48.38        23.6 0.56                           301 235 
 PTGC HZ IP   4 C  858  4.64                             111   -1.27 0  308 159 
 PTGC HZ I         859  4.05        18.6 0.38            101            308 159 
 ELA  HZ EP   2    858  9.14                             110    0.19 3  329 230 
 ELA  HN ES        858 45.13                             110   -0.23 7  329 230 
 ELA  HZ I         858 54.31        14.8 0.56            101            329 230 
 CBOC HZ EP        858  9.79                             109    0.75 7  334 252 
 CBOC HN ES   4    858 43.50                             109   -2.02 0  334 252 
 CBOC HZ I         858 48.89         7.7 0.20            101            334 252 
 MON  HZ EP   4    858  9.24                             108   -1.94 0  354 308 
 MON  HN ES   4    858 46.28                             108   -3.05 0  354 308 
 MON  HZ I         859  3.13        15.2 0.50            101            354 308 
 ANIL HZ EP   2    858 12.61                             108    0.70 3  357 225 
 ANIL HE ES   4    858 53.93                             108    3.30 0  357 225 
 ANIL HZ I         858 56.75        40.6 0.30             99            357 225 
 SDV  BZ EP     D  858 11.21                             108   -0.99 6  361  50 
 SDV  BN ES   4    858 46.34                             108   -4.80 0  361  50 
 SDV  BZ I         858 50.76         5.2 0.42             99            361  50 
 ORTC HZ EP        858 15.97                             106   -0.07 6  395 216 
 ORTC HE ES   4    858 59.35                             106    1.38 0  395 216 
 ORTC HZ I         859  5.81        14.8 0.26             97            395 216 
 PAL  HZ EP        858 17.66                             105    0.36 6  406 239 
 PAL  HE ES        858 59.32                             105   -0.90 6  406 239 
 PAL  HZ I         859  4.77        10.6 0.18             97            406 239 
 SJC  HZ EP   4    858 15.81                             105   -1.96 0  410 327 
 SJC  HN ES   4    858 57.66                             105   -3.40 0  410 327 
 SJC  HZ I         859  1.90        15.9 0.52             98            410 327 
                                                                                
