 2010 1217 0721 15.0 L   6.771 -73.092143.5  RSN  5 0.4 1.5LRSN                1
 GAP=229        0.89       8.5    19.0 11.7  0.6309E+02  0.2240E+01  0.2335E+02E
 Epicentro: LOS SANTOS - SANTANDER                                             3
 ACTION:UP  11-01-14 15:25 OP:pat  STATUS:               ID:20101217072115 L   I
 2010-12-17-0717-02S.COL___136                                                 6
 STAT SP IPHASW D HRMM SECON CODA AMPLIT PERI AZIMU VELO SNR AR TRES W  DIS CAZ7
 BAR2 SZ EP   1    721 34.10                             171    -0.2 7   22 207 
 BAR2 SZ ES   2    721 49.09                             171    -0.3 5   22 207 
 BAR2 SZ I         721 50.89        11.3 0.49                            22 207 
 BTL  SZ EP   1    721 35.23                             170     0.9 7   25 310 
 BRR  HZ EP   1    721 35.72                             150    -0.6 7   78 299 
 BRR  HE ES   2    721 53.11                             150     0.2 5   78 299 
 BRR  HZ I         721 56.91         7.4 0.13                            78 299 
 RUS  HZ EP   1    721 38.10                             144    -0.1 7   97 179 
 RUS  HN ES   2    721 56.43                             144     0.0 5   97 179 
 RUS  HZ I         721 57.86         3.8 0.30                            97 179 
 CHI  HZ EP   1    721 52.37                             117     0.0 6  247 197 
 CHI  HZ I         721 53.10         2.0 0.28                           247 197 
 CHI  HE ES   2    722 21.87                             117     0.3 4  247 197 
                                                                                
