 2016  817 0751 49.4 L   6.805 -73.093151.8  RSN 11 0.5 1.8LRSN                1
 GAP=243        1.14       5.3     5.4  7.1  0.4683E+01  0.1108E+02  0.9260E+01E
 Epicentro: LOS SANTOS - SANTANDER                                             3
 ACTION:UPD 16-10-29 15:36 OP:rebc STATUS:               ID:20160817075149 L   I
 OLDACT:REG 16-08-17 12:48 OP:ak   STATUS:               ID:20160817074759     3
 2016-08-17-0747-59S.COL___343                                                 6
 STAT SP IPHASW D HRMM SECON CODA AMPLIT PERI AZIMU VELO AIN AR TRES W  DIS CAZ7
 BAR2 EZ EP        752  9.92                             170    0.1410 25.5 203 
 BAR2 EZ ES        752 26.04                             170    0.3510 25.5 203 
 BAR2 EZ I         752 26.63        10.1 0.50                          25.5 203 
 BRR  HZ EP        752 11.93                             152    0.4810 76.1 296 
 BRR  HN ES        752 29.04                             152    0.3710 76.1 296 
 BRR  HZ I         752 32.30        10.4 0.23                          76.1 296 
 RUS  HZ EP        752 13.42                             145   -0.3310  101 179 
 RUS  HN ES        752 32.35                             145   -0.4110  101 179 
 RUS  HZ I         752 35.80         2.8 0.18                           101 179 
 PTB  HZ EP        752 16.40                             132   -0.96 9  154 259 
 PTB  HN ES        752 38.29                             132   -0.90 9  154 259 
 PTB  HZ I         752 45.23        10.3 0.40                           154 259 
 SPBC HZ EP        752 18.93                             130    0.20 9  167 220 
 SPBC HN ES        752 41.69                             130    0.07 9  167 220 
 SPBC HZ I         752 48.67         7.2 0.16                           167 220 
 ZAR  HN ES        752 48.41                             123   -0.36 8  209 291 
 NOR  HZ EP        752 26.32                             119    0.32 8  240 235 
 NOR  HE ES        752 54.95                             119    0.39 8  240 235 
 NOR  HZ I         752 59.69         4.4 0.21                           240 235 
 HEL  HZ EP   2    752 31.06                             115    0.53 4  278 256 
 HEL  HE ES        753  2.81                             115    0.18 7  278 256 
 HEL  HZ I         753  9.21         3.7 0.56                           278 256 
 URE  HZ EP   4    752 29.92                             114   -1.40 0  289 291 
 URE  HN ES   4    753  1.03                             114   -3.00 0  289 291 
 URE  HZ I         753  3.80         5.9 0.27                           289 291 
 GUY2CHZ EP   4    752 35.18                             113    1.35 0  306 235 
 GUY2CHN ES        753  9.40                             113    0.89 7  306 235 
 GUY2CHZ I         753 15.38         2.7 0.32                           306 235 
 PRA  HZ EP        752 43.84                             107    0.34 6  395 210 
 PRA  HN ES        753 25.21                             107   -0.51 6  395 210 
 PRA  HZ I         753 32.39         2.5 0.22                           395 210 
                                                                                
