 2013  117 0500 40.2 L   6.724 -73.210146.0  RSN  5 0.4 1.4LRSN                1
 GAP=221        0.76       7.3     6.8  7.9  0.2922E+02  0.6505E+01 -0.2443E+01E
 Epicentro: VILLANUEVA - SANTANDER                                             3
 ACTION:UPD 13-02-15 09:14 OP:ep   STATUS:               ID:20130117050040 L   I
 2013-01-17-0500-00M.COL___241                                                 6
 STAT SP IPHASW D HRMM SECON CODA AMPLIT PERI AZIMU VELO AIN AR TRES W  DIS CAZ7
 BAR2 SZ EP   1    5 0 59.58                             174   -0.17 7 14.8 168 
 BAR2 SZ ES   1    5 1 14.55                             174   -0.42 7 14.8 168 
 BAR2 SZ I         5 1 15.47         9.7 0.32            170           14.8 168 
 BRR  HZ EP     D  5 1  1.25                             153   -0.0810 69.8 307 
 BRR  HE ES   1    5 1 18.45                             153    0.66 7 69.8 307 
 BRR  HZ I         5 1 20.51         5.0 0.40            151           69.8 307 
 RUS  HZ EP   1    5 1  4.05                             146    0.58 7 93.0 171 
 RUS  HE ES   1    5 1 21.43                             146   -0.17 7 93.0 171 
 RUS  HZ I         5 1 23.28         2.2 0.62            146           93.0 171 
 PTB  HZ EP   1    5 1  6.30                             134   -0.17 7  139 262 
 PTB  HN ES   1    5 1 27.10                             134    0.17 7  139 262 
 PTB  HZ I         5 1 31.93         2.9 0.44            132            139 262 
 ZAR  HE ES   1    5 1 36.99                             123   -0.45 6  201 295 
                                                                                
