 2017 1017 0825 22.8 L;  6.723 -73.147149.1  RSN  4 0.1 1.0LRSN                1
 GAP=251        0.30       3.6     2.3  2.8  0.3130E+01  0.1467E+01  0.4464E+00E
 Epicentro: JORDAN - SANTANDER                                                 3
 ACTION:UPD 17-11-07 19:32 OP:rebc STATUS:               ID:20171017082522 L   I
 OLDACT:REG 17-10-17 12:48 OP:dani STATUS:               ID:20171017081737     3
 2017-10-17-0818-00M.COL___410                                                 6
 STAT SP IPHASW D HRMM SECON CODA AMPLIT PERI AZIMU VELO AIN AR TRES W  DIS CAZ7
 BAR2 EZ EP        825 42.62                             174   -0.0810 15.0 195 
 BAR2 EZ ES        825 58.28                             174    0.0610 15.0 195 
 BAR2 EZ I         825 58.76         2.7 0.62            169           15.0 195 
 BRR  HZ EP        825 44.55                             152   -0.0110 75.5 304 
 BRR  HN ES        826  1.52                             152   -0.0110 75.5 304 
 BRR  HZ I         826  4.03         1.9 0.15            151           75.5 304 
 PTB  HZ EP        825 50.00                             133    0.09 9  146 262 
 PTB  HN ES        826 10.99                             133   -0.06 9  146 262 
 PTB  HZ I         826 16.03         1.0 0.12            132            146 262 
 ZAR  HN ES        826 21.55                             123    0.02 8  207 294 
                                                                                
