 2013  217 0933 15.5 L   6.769 -73.128150.7  RSN  7 0.4 1.5LRSN                1
 GAP=140        1.06       5.4     5.1  8.4  0.9455E+00  0.4346E+01  0.1235E+02E
 Epicentro: LOS SANTOS - SANTANDER                                             3
 ACTION:UPD 13-03-12 09:33 OP:ep   STATUS:               ID:20130217093315 L   I
 2013-02-17-0930-00M.COL___241                                                 6
 STAT SP IPHASW D HRMM SECON CODA AMPLIT PERI AZIMU VELO AIN AR TRES W  DIS CAZ7
 BAR2 SZ EP        933 35.45                             172   -0.2110 20.4 197 
 BRR  HZ EP        933 37.28                             152   -0.0910 74.6 300 
 BRR  HN ES        933 54.99                             152    0.5610 74.6 300 
 BRR  HN I         933 55.93         5.7 0.48            150           74.6 300 
 PAM  SZ EP        933 38.32                             151    0.0010 78.9  37 
 PAM  SN ES        933 55.85                             151   -0.2810 78.9  37 
 PAM  SN I         933 56.87         4.6 0.44            154           78.9  37 
 RUS  HZ EP        933 39.84                             146    0.3610 97.0 177 
 RUS  HN ES        933 58.25                             146    0.0510 97.0 177 
 RUS  HN I         933 59.52         5.3 0.42            147           97.0 177 
 PTB  HZ EP        933 42.47                             133   -0.51 9  149 260 
 PTB  HN ES        934  3.72                             133   -0.71 9  149 260 
 PTB  HN I         934  8.50         4.7 0.36            132            149 260 
 ZAR  HN ES   1    934 15.27                             123    0.88 6  207 293 
 ZAR  HN I         934 20.10         2.9 0.24            123            207 293 
 CHI  HZ EP        933 53.68                             118    0.51 8  246 196 
                                                                                
