 2013  817 0540 26.5 L   6.825 -73.099146.5  RSN  6 0.5 1.4LRSN                1
 GAP=141        1.24       6.3     6.8  9.0 -0.4585E+01  0.1479E+02  0.1207E+02E
 Epicentro: LOS SANTOS - SANTANDER                                             3
 2013-08-17-0538-49M.COL___204                                                 6
 OLDACT:DUP 13-08-17 13:36 OP:stll STATUS:               ID:20130817053850d    3
 ACTION:UPD 14-01-14 09:03 OP:ep   STATUS:               ID:20130817054026 L   I
 OLDACT:UP  13-08-17 13:43 OP:stll STATUS:               ID:20130817053850d    3
 STAT SP IPHASW D HRMM SECON CODA AMPLIT PERI AZIMU VELO AIN AR TRES W  DIS CAZ7
 BAR2 SZ EP        540 46.65                             169    0.3010 27.3 200 
 BAR2 SZ ES        541  1.94                             169    0.1510 27.3 200 
 BAR2 SZ I         541  8.77         6.9 3.80            146           27.3 200 
 PAM  SN ES        541  4.81                             153   -0.8710 72.1  38 
 BRR  HZ EP        540 48.49                             151    0.5310 74.5 295 
 BRR  HE ES        541  5.42                             151    0.7510 74.5 295 
 BRR  SZ I         541 35.01         3.9 0.46            132           74.5 295 
 RUS  HZ EP        540 50.76                             143    0.2110  103 179 
 RUS  HN ES        541  9.42                             143    0.1510  103 179 
 RUS  SZ I         541 16.22         4.8 3.08            144            103 179 
 PTB  HZ EP        540 53.75                             131   -0.33 9  153 258 
 PTB  HN ES        541 14.89                             131   -0.66 9  153 258 
 PTB  SZ I         541 53.86         4.3 0.44            123            153 258 
 SPBC HZ EP        540 55.48                             128   -0.13 9  169 220 
 SPBC HN ES        541 17.92                             128   -0.35 9  169 220 
 SPBC SZ I         541 19.52         2.4 0.96            126            169 220 
                                                                                
