 2011  617 0419 35.5 L   6.788 -73.083146.6  RSN  9 0.2 1.6LRSN                1
 GAP=163        0.50       2.8     4.7  4.9 -0.5055E+01 -0.6188E+00 -0.8106E+00E
 Epicentro: LOS SANTOS - SANTANDER                                             3
 ACTION:UP  11-07-14 19:05 OP:ep   STATUS:               ID:20110617041935 L   I
 2011-06-17-0416-07S.COL___135                                                 6
 STAT SP IPHASW D HRMM SECON CODA AMPLIT PERI AZIMU VELO SNR AR TRES W  DIS CAZ7
 BAR2 SZ ES   1    420 10.66                             170     0.1 7   24 207 
 BAR2 SZ I         420 12.89        10.3 0.49                            24 207 
 BTL  SZ EP   1    419 55.40                             170     0.2 7   25 305 
 GIR2 SZ EP   1    419 55.35                             166     0.0 7   34 339 
 BRR  HZ EP   1    419 56.93                             150    -0.2 7   78 297 
 BRR  HE ES   1    420 14.04                             150     0.1 7   78 297 
 BRR  HZ I         420 15.13         7.7 0.36                            78 297 
 RUS  HZ EP   1    419 59.46                             144     0.3 7   99 180 
 RUS  HE ES   1    420 17.44                             144    -0.2 7   99 180 
 RUS  HZ I         420 18.95         3.5 0.38                            99 180 
 BRI  SZ EP   1    419 59.08                             142    -0.3 7  107  17 
 BRI  SZ ES   2    420 18.38                             142     0.4 5  107  17 
 BRI  SZ I         420 23.35         4.9 0.46                           107  17 
 GRA  SZ EP   1    420  0.77                             137     0.0 7  125  14 
 GRA  SZ ES   1    420 20.27                             137    -0.2 7  125  14 
 GRA  SZ I         420 22.02         4.7 0.31                           125  14 
 NOR  SN ES   2    420 39.61                             118    -0.5 4  240 236 
 RREF HN ES   2    420 59.01                             111     0.5 3  326 230 
 RREF HZ I         421  4.92         2.0 0.22                           326 230 
                                                                                
