 2012  917 0310 21.7 L   6.740 -73.212144.3  RSN  4 0.2 1.3LRSN                1
 GAP=222        0.41       4.3     4.0  4.5  0.8514E+01  0.2229E+01  0.9915E+00E
 Epicentro: VILLANUEVA - SANTANDER                                             3
 ACTION:UPD 12-10-22 14:19 OP:ep   STATUS:               ID:20120917031021 L   I
 2012-09-17-0310-00M.COL___227                                                 6
 STAT SP IPHASW D HRMM SECON CODA AMPLIT PERI AZIMU VELO AIN AR TRES W  DIS CAZ7
 BAR2 SZ EP   1    310 40.92                             173   -0.13 7 16.7 168 
 BAR2 SZ ES   1    310 55.90                             173   -0.23 7 16.7 168 
 BAR2 SZ I         310 56.93         6.3 0.36                          16.7 168 
 BRR  HZ EP   1    310 42.53                             153   -0.02 7 68.5 306 
 BRR  HN ES   1    310 59.06                             153    0.25 7 68.5 306 
 BRR  HZ I         311  0.40         3.3 0.14                          68.5 306 
 RUS  HZ EP   1    310 45.16                             145    0.25 7 94.8 171 
 RUS  HN ES   1    311  3.05                             145    0.05 7 94.8 171 
 PTB  HZ EP   1    310 47.63                             133   -0.17 7  139 261 
 PTB  HN ES   1    311  8.13                             133   -0.02 7  139 261 
                                                                                
