 2012  117 0845 50.3 L   6.885 -73.272119.2  RSN  6 0.3 1.7LRSN                1
 GAP=112        0.50       5.1     4.2  5.5 -0.3267E+01  0.1023E+01 -0.9985E+00E
 Epicentro: BETULIA - SANTANDER                                                3
 ACTION:UP  12-02-03 08:18 OP:REBC STATUS:               ID:20120117084550 L   I
 2012-01-17-0840-00M.COL___188                                                 6
 STAT SP IPHASW D HRMM SECON CODA AMPLIT PERI AZIMU VELO SNR AR TRES W  DIS CAZ7
 BAR2 SZ EP        846  7.14                             163     0.110   34 163 
 BAR2 SZ ES   1    846 20.26                             163     0.1 7   34 163 
 BAR2 SZ I         846 21.51        18.2 0.35                            34 163 
 BRR  HZ EP        846  7.50                             154    -0.110   55 297 
 BRR  HN ES   1    846 21.22                             154     0.1 7   55 297 
 BRR  HZ I         846 22.92        10.7 0.44                            55 297 
 PAM  SZ EP   1    846 10.08                             144     0.1 7   81  51 
 PAM  SE ES   1    846 25.07                             144    -0.3 7   81  51 
 PTB  HZ EP   3    846 14.01                             127    -0.1 2  136 254 
 OCA  SZ EP   3    846 17.11                             125     1.5 2  150 358 
 CHI  HZ EP   3    846 27.30                             110     0.0 2  255 192 
                                                                                
