 2014  817 0037  3.5 L   6.766 -73.109149.5  RSN 10 0.3 1.5LRSN                1
 GAP=143        0.73       3.0     3.3  5.1 -0.8883E+00  0.2070E+01  0.6245E+00E
 Epicentro: LOS SANTOS - SANTANDER                                             3
 ACTION:UPD 14-09-15 21:50 OP:nd   STATUS:               ID:20140817003703 L   I
 OLDACT:UP  14-08-17 14:24 OP:spq  STATUS:               ID:20140817002815     3
 OLDACT:REG 14-08-17 12:56 OP:spq  STATUS:               ID:20140817002815     3
 2014-08-17-0028-15M.COL___263                                                 6
 STAT SP IPHASW D HRMM SECON CODA AMPLIT PERI AZIMU VELO AIN AR TRES W  DIS CAZ7
 BAR2 SZ EP   1    037 23.38                             172   -0.13 7 20.8 203 
 BAR2 SZ ES   1    037 38.78                             172   -0.36 7 20.8 203 
 BAR2 SZ I         037 39.66         6.5 0.20            169           20.8 203 
 BRR  HZ IP     C  037 25.43                             151    0.0910 76.6 300 
 BRR  HE ES        037 42.83                             151    0.4410 76.6 300 
 BRR  HZ I         037 44.56         7.0 0.14            149           76.6 300 
 PAM  SZ EP        037 26.42                             151    0.2910 77.9  35 
 PAM  SN ES   1    037 43.64                             151   -0.15 7 77.9  35 
 PAM  SZ I         037 45.60         3.2 0.23            155           77.9  35 
 RUS  HZ EP        037 27.76                             146    0.4410 96.6 178 
 RUS  HE ES   1    037 45.58                             146   -0.34 7 96.6 178 
 RUS  HZ I         037 47.00         2.1 0.36            146           96.6 178 
 PTB  HZ EP   1    037 30.44                             132   -0.62 7  151 261 
 PTB  HE ES        037 52.41                             132   -0.15 9  151 261 
 PTB  HZ I         037 57.44         4.8 0.18            131            151 261 
 SPBC HZ EP        037 31.86                             130   -0.38 9  163 221 
 SPBC HN ES   1    037 54.63                             130   -0.04 7  163 221 
 SPBC HZ I         038  4.12         5.5 0.20            130            163 221 
 ZAR  HN ES        038  2.58                             122   -0.04 8  209 293 
 ZAR  HZ I         038  8.34         1.9 0.21            122            209 293 
 NOR  HN ES        038  7.98                             119    0.29 8  236 236 
 NOR  HZ I         038 11.36         4.2 0.28            119            236 236 
 SML  HZ EP   1    037 40.47                             118   -0.41 6  249 335 
 SML  HE ES   1    038  9.77                             118   -0.27 6  249 335 
 SML  HZ I         038 13.53         5.0 0.10            119            249 335 
 GUY2CHZ EP   1    037 47.89                             113    0.49 5  302 236 
 GUY2CHE ES   4    038 25.98                             113    4.33 0  302 236 
 GUY2CHZ I         038 30.53         1.7 0.40                           302 236 
                                                                                
