 2015  317 0339 32.8 L   6.800 -73.154138.1  RSN 18 0.7 2.2LRSN                1
 GAP= 65        1.51       3.7     4.0  6.9 -0.2360E+01  0.8091E+01  0.3149E+01E
 Epicentro: LOS SANTOS - SANTANDER                                             3
 ACTION:UPD 15-04-30 16:26 OP:nd   STATUS:               ID:20150317033932 L   I
 OLDACT:REG 15-03-17 12:46 OP:stll STATUS:               ID:20150317033750     3
 2015-03-17-0337-50M.COL___269                                                 6
 STAT SP IPHASW D HRMM SECON CODA AMPLIT PERI AZIMU VELO AIN AR TRES W  DIS CAZ7
 BAR2 EZ IP     C  339 51.71                             170    0.2310 23.2 188 
 BAR2 EZ ES        340  6.35                             170    0.2810 23.2 188 
 BAR2 EZ I         340  7.55        32.7 0.42            169           23.2 188 
 BRR  HZ IP     C  339 53.60                             151    0.5410 70.4 299 
 BRR  HN ES        340  9.93                             151    1.0610 70.4 299 
 BRR  HZ I         340 15.60        33.1 0.12            151           70.4 299 
 PAM  SZ IP     C  339 54.48                             149    0.2710 77.9  40 
 PAM  SZ I         339 54.83        75.3 0.24            153           77.9  40 
 PAM  SN ES        340 11.25                             149    0.3210 77.9  40 
 RUS  HZ EP        339 55.78                             142   -0.0110  101 176 
 RUS  HN ES        340 13.21                             142   -0.5310  101 176 
 RUS  HZ I         340 15.14        19.3 0.34            144            101 176 
 PTB  HZ EP        339 58.33                             130   -0.72 9  147 259 
 PTB  HN ES        340 19.05                             130   -0.49 9  147 259 
 PTB  HZ I         340 22.70        21.4 0.46            131            147 259 
 TAM  HZ IP     C  340  0.01                             129    0.07 9  156 105 
 TAM  HZ I         340  0.06        41.9 0.20            132            156 105 
 TAM  HN ES        340 20.87                             129   -0.25 9  156 105 
 OCA  HZ EP        339 59.77                             128   -0.72 9  160 353 
 OCA  HN ES        340 21.27                             128   -0.83 9  160 353 
 OCA  HZ I         340 26.18        21.5 0.32            130            160 353 
 SPBC HZ EP        340  0.82                             127    0.17 9  163 219 
 SPBC HE ES        340 22.15                             127   -0.24 9  163 219 
 SPBC HZ I         340 29.77        18.7 0.14            129            163 219 
 ZAR  HE ES        340 30.34                             121    0.83 9  203 292 
 NOR  HZ EP        340  7.44                             117   -0.56 8  234 234 
 NOR  HE ES        340 35.13                             117   -0.34 8  234 234 
 NOR  HZ I         340 38.20         9.3 0.46            118            234 234 
 SML  HZ EP        340  8.03                             116   -0.91 8  243 335 
 SML  HE ES        340 36.78                             116   -0.37 8  243 335 
 HEL  HZ EP        340 13.68                             113    1.16 8  271 256 
 HEL  HE ES        340 42.87                             113   -0.64 8  271 256 
 HEL  HZ I         340 48.75         4.2 0.20            115            271 256 
 GUY2CHZ EP        340 16.59                             111    0.63 7  300 235 
 GUY2CHN ES        340 48.84                             111   -0.81 7  300 235 
 GUY2CHZ I         340 58.12         4.9 0.54                           300 235 
 PTGC HZ EP   9    340 14.98                             110   -1.36 0  309 159 
 PTGC HN ES        340 47.42                                   -1.54 7  309 159 
 CBOC HZ EP        340 19.88                             108    0.59 7  333 252 
 CBOC HZ I         340 22.13         4.1 0.36            110            333 252 
 CBOC HE ES        340 54.47                             108   -1.10 7  333 252 
 TOL  SZ EP        340 21.50                             108    0.83 7  343 225 
 TOL  SN ES        340 58.54                             108    0.52 7  343 225 
 PRA  HZ EP        340 25.71                             105   -0.29 6  392 209 
 PRA  HN ES        341  7.22                             105   -0.29 6  392 209 
 PRA  HZ I         341 12.33         6.4 0.28            107            392 209 
 ORTC HZ EP        340 28.13                             105    1.74 6  395 216 
 ORTC HE ES        341  8.98                             105    0.78 6  395 216 
 ORTC HZ I         341 14.84         3.3 0.18            107            395 216 
                                                                                
