 2013  217 0542 54.9 L   6.775 -73.128150.4  RSN  8 0.4 1.5LRSN                1
 GAP=140        0.88       3.0     4.0  5.4  0.1470E+01  0.4065E+01  0.1045E+01E
 Epicentro: LOS SANTOS - SANTANDER                                             3
 ACTION:UPD 13-03-12 09:33 OP:ep   STATUS:               ID:20130217054254 L   I
 2013-02-17-0540-00M.COL___241                                                 6
 STAT SP IPHASW D HRMM SECON CODA AMPLIT PERI AZIMU VELO AIN AR TRES W  DIS CAZ7
 BAR2 SZ EP        543 14.77                             172   -0.2710 21.1 196 
 BAR2 SZ ES        543 30.90                             172    0.1510 21.1 196 
 BAR2 SZ I         543 33.55         7.0 0.48            170           21.1 196 
 BRR  HZ EP        543 16.77                             152    0.0610 74.2 300 
 BRR  HN ES        543 34.23                             152    0.5010 74.2 300 
 BRR  HN I         543 34.57        13.5 0.32            152           74.2 300 
 PAM  SZ EP        543 17.75                             151    0.0910 78.3  37 
 PAM  SN ES        543 35.35                             151   -0.0610 78.3  37 
 PAM  SN I         543 36.42         3.5 0.32            154           78.3  37 
 RUS  HZ EP        543 18.86                             146   -0.0410 97.7 177 
 RUS  HN ES        543 37.28                             146   -0.3510 97.7 177 
 RUS  HN I         543 37.71         2.4 0.30            146           97.7 177 
 PTB  HZ EP        543 22.69                             133    0.32 9  149 260 
 PTB  HN ES        543 43.07                             133   -0.72 9  149 260 
 PTB  HN I         543 48.34         8.1 0.32            133            149 260 
 ZAR  HE ES        543 53.81                             123    0.11 8  207 293 
 SML  HZ EP   1    543 31.17                             118   -0.97 6  247 335 
 SML  HN ES        544  1.28                             118    0.10 8  247 335 
 CHI  HZ EP        543 32.97                             118    0.35 8  247 196 
 CHI  HN ES        544  2.43                             118    0.38 8  247 196 
 CHI  HN I         544  5.57         2.4 0.26            119            247 196 
                                                                                
