 2013  117 0818 54.0 L   6.777 -73.141146.5  RSN  9 0.4 1.6LRSN                1
 GAP= 98        0.84       4.4     4.0  6.5  0.1099E+01  0.3797E+01  0.4798E+01E
 Epicentro: LOS SANTOS - SANTANDER                                             3
 ACTION:UPD 13-02-15 09:14 OP:ep   STATUS:               ID:20130117081854 L   I
 2013-01-17-0817-51M.COL___180                                                 6
 STAT SP IPHASW D HRMM SECON CODA AMPLIT PERI AZIMU VELO AIN AR TRES W  DIS CAZ7
 BAR2 SZ EP   1    819 13.72                             172    0.05 7 20.9 193 
 BAR2 SZ ES   1    819 28.42                             172   -0.59 7 20.9 193 
 BAR2 SZ I         819 31.64        14.7 0.36            169           20.9 193 
 BRR  HZ EP   1    819 15.65                             152    0.33 7 72.9 300 
 BRR  HN ES   1    819 32.83                             152    0.88 7 72.9 300 
 PAM  SZ EP   1    819 16.51                             150    0.12 7 79.0  38 
 PAM  SN ES   1    819 33.61                             150   -0.25 7 79.0  38 
 PAM  SZ I         819 35.94         3.8 0.52            154           79.0  38 
 RUS  HZ EP   1    819 17.81                             145    0.17 7 98.0 176 
 RUS  HN ES   1    819 36.23                             145    0.15 7 98.0 176 
 RUS  HZ I         819 37.30         4.9 0.24            145           98.0 176 
 PTB  HZ EP   1    819 20.50                             132   -0.53 7  148 260 
 PTB  HN ES   1    819 41.54                             132   -0.57 7  148 260 
 PTB  HZ I         819 43.77         7.7 0.34            131            148 260 
 TAM  HZ EP   1    819 21.80                             131    0.17 7  154 104 
 ZAR  HZ EP   1    819 25.84                             122   -0.80 6  206 293 
 ZAR  HE ES   1    819 52.21                             122    0.11 6  206 293 
 ZAR  HZ I         819 58.53         6.4 0.40            122            206 293 
 CHI  HZ EP   1    819 31.80                             117    0.31 6  246 195 
 CHI  HN ES   1    820  0.62                             117   -0.11 6  246 195 
 CHI  HZ I         820  6.19         2.1 0.62            118            246 195 
 HEL  HN ES   1    820  6.22                             115    0.60 6  272 256 
 HEL  HZ I         820 13.35         2.8 0.24            115            272 256 
                                                                                
