 2015  617 0704 30.3 L   6.766 -73.107136.0  RSN  4 0.3 1.2LRSN                1
 GAP=239        0.81       8.7    10.1  6.4  0.7321E+02  0.3983E+01 -0.4977E+01E
 Epicentro: LOS SANTOS - SANTANDER                                             3
 ACTION:UPD 15-09-10 22:13 OP:cam  STATUS:               ID:20150617070430 L   I
 OLDACT:REG 15-06-17 12:50 OP:drio STATUS:               ID:20150617065748     3
 2015-06-17-0657-48M.COL___315                                                 6
 STAT SP IPHASW D HRMM SECON CODA AMPLIT PERI AZIMU VELO AIN AR TRES W  DIS CAZ7
 BAR2 EZ EP        7 4 48.76                             171    0.0310 20.9 203 
 BAR2 EZ ES        7 5  2.52                             171   -0.5610 20.9 203 
 BAR2 EZ I         7 5  4.92         4.3 0.22            166           20.9 203 
 BRR  HZ EP        7 4 50.85                             149    0.0910 76.8 299 
 BRR  HE ES        7 5  7.23                             149    0.5210 76.8 299 
 BRR  HZ I         7 5  8.71         2.7 0.16            148           76.8 299 
 RUS  HZ EP        7 4 52.87                             143    0.0410 96.6 178 
 RUS  HN ES        7 5 10.58                             143    0.2010 96.6 178 
 RUS  HZ I         7 5 13.48         1.7 0.68            142           96.6 178 
 ZAR  HZ EP        7 5  2.56                             119   -0.16 8  209 293 
 ZAR  HE ES        7 5 27.69                             119   -0.30 8  209 293 
 ZAR  HZ I         7 5 29.54         2.0 0.14            120            209 293 
                                                                                
