 2013  517 0427  3.7 L   6.738 -73.169139.9  RSN  8 0.5 1.5LRSN                1
 GAP=136        1.21       5.2     5.6  8.0  0.2132E+00  0.1100E+02 -0.9017E+00E
 Epicentro: VILLANUEVA - SANTANDER                                             3
 ACTION:UPD 13-06-20 09:51 OP:ep   STATUS:               ID:20130517042703 L   I
 2013-05-17-0420-00M.COL___253                                                 6
 STAT SP IPHASW D HRMM SECON CODA AMPLIT PERI AZIMU VELO AIN AR TRES W  DIS CAZ7
 BAR2 SZ EP        427 22.93                             173    0.3910 16.2 185 
 BAR2 SZ ES        427 38.01                             173    0.8110 16.2 185 
 BAR2 SZ I         427 39.33         5.6 0.24            173           16.2 185 
 GIR2 SZ EP        427 22.98                             164    0.0610 37.8 356 
 GIR2 SZ ES        427 37.63                             164   -0.2410 37.8 356 
 GIR2 SZ I         427 41.31         7.4 0.36            165           37.8 356 
 BRR  HZ EP        427 24.73                             151    0.3910 72.6 304 
 BRR  HN ES   1    427 40.99                             151    0.58 7 72.6 304 
 BRR  HZ I         427 44.76         6.8 0.22            152           72.6 304 
 PAM  SZ EP        427 25.87                             147    0.0910 84.4  38 
 PAM  SN ES        427 42.23                             147   -0.7410 84.4  38 
 PAM  SZ I         427 43.50         5.2 0.20            152           84.4  38 
 RUS  HZ EP        427 26.83                             144    0.3910 93.9 174 
 RUS  HN ES        427 43.40                             144   -0.7410 93.9 174 
 RUS  HZ I         427 46.50         4.0 0.32            147           93.9 174 
 PTB  HZ EP        427 29.41                             131   -0.48 9  144 261 
 PTB  HN ES        427 50.09                             131   -0.20 9  144 261 
 PTB  HZ I         427 52.98         6.3 0.23            133            144 261 
 ZAR  HN ES   1    428  0.45                             121   -0.44 6  204 294 
 SML  HE ES   1    428  9.49                             116    0.11 6  249 336 
                                                                                
