 2012  817 0015 16.6 L   6.804 -73.113140.0  RSN  9 0.5 2.0LRSN                1
 GAP=140        0.87       4.0     4.3  7.6 -0.3220E+00  0.1180E+02  0.1086E+02E
 Epicentro: LOS SANTOS - SANTANDER                                             3
 ACTION:UPD 12-09-10 11:56 OP:ep   STATUS:               ID:20120817001516 L   I
 2012-08-17-0010-00M.COL___216                                                 6
 STAT SP IPHASW D HRMM SECON CODA AMPLIT PERI AZIMU VELO AIN AR TRES W  DIS CAZ7
 GIR2 SZ EP   1    015 35.23                             167   -0.40 7 31.7 344 
 GIR2 SZ ES   1    015 50.72                             167    0.27 7 31.7 344 
 BRR  HZ EP   1    015 37.12                             151   -0.22 7 74.2 297 
 BRR  HE ES   1    015 54.02                             151    0.53 7 74.2 297 
 BRR  HZ I         015 58.35        38.9 0.11                          74.2 297 
 PAM  SZ EP        015 38.16                             151    0.0810 74.8  38 
 PAM  SZ I         015 38.38        33.1 0.20                          74.8  38 
 PAM  SN ES        015 54.96                             151    0.1510 74.8  38 
 RUS  HZ EP   1    015 39.58                             143   -0.26 7  101 178 
 RUS  HN ES   1    015 57.37                             143   -0.57 7  101 178 
 RUS  HZ I         015 59.10         6.2 0.26                           101 178 
 PTB  HE ES   2    016  3.56                             130   -0.84 5  151 259 
 ZAR  HN ES        016 13.84                             121   -0.48 8  207 292 
 ZAR  HZ I         016 19.70        13.2 0.19                           207 292 
 NOR  SZ EP   1    015 52.00                             117   -0.38 6  238 235 
 NOR  SN ES   2    016 20.07                             117   -0.19 4  238 235 
 NOR  SZ I         016 23.50         6.6 0.18                           238 235 
 CHI  HN ES        016 23.93                             116    0.49 8  250 196 
 HEL  HZ EP   1    015 57.79                             113    0.83 6  276 256 
 HEL  HN ES   1    016 29.23                             113    0.82 6  276 256 
 HEL  HZ I         016 33.98         4.6 0.38                           276 256 
                                                                                
