 2016  617 0944 34.1 L   6.773 -73.153143.6  RSN  6 0.3 1.7LRSN                1
 GAP=137        0.81       5.1     3.9  5.6 -0.1904E+01  0.4231E+01  0.2905E+01E
 Epicentro: LOS SANTOS - SANTANDER                                             3
 ACTION:UPD 16-07-21 22:19 OP:rebc STATUS:               ID:20160617094434 L   I
 OLDACT:REG 16-06-17 12:54 OP:dnl  STATUS:               ID:20160617093746     3
 2016-06-17-0937-46M.COL___335                                                 6
 STAT SP IPHASW D HRMM SECON CODA AMPLIT PERI AZIMU VELO AIN AR TRES W  DIS CAZ7
 BAR2 EZ EP        944 53.56                             172    0.1410 20.2 189 
 BAR2 EZ ES        945  8.26                             172   -0.2310 20.2 189 
 BAR2 EZ I         945  9.94         7.6 0.26                          20.2 189 
 BRR  HZ EP   2    944 55.47                             152    0.40 5 72.0 301 
 BRR  HN ES        945 12.09                             152    0.6710 72.0 301 
 BRR  HZ I         945 12.84        11.3 0.24                          72.0 301 
 PAM  EZ EP        944 56.39                             149    0.1210 80.2  39 
 PAM  EN ES        945 13.14                             149   -0.4210 80.2  39 
 PAM  EZ I         945 14.09         6.8 0.20                          80.2  39 
 RUS  HZ EP        944 57.62                             144    0.1810 97.6 175 
 RUS  HN ES   2    945 16.00                             144    0.37 5 97.6 175 
 RUS  HZ I         945 18.08         3.5 0.26                          97.6 175 
 PTB  HZ EP        945  0.45                             132   -0.33 9  146 260 
 PTB  HN ES        945 21.20                             132   -0.38 9  146 260 
 PTB  HZ I         945 27.13         8.6 0.74                           146 260 
 ZAR  HZ EP        945  6.45                             122   -0.01 9  204 293 
 ZAR  HN ES   2    945 31.54                             122   -0.15 4  204 293 
 ZAR  HZ I         945 37.47         8.8 0.48                           204 293 
                                                                                
