 2017  717 0023 17.3 L   6.798 -73.132148.0  RSN 16 0.4 2.1LRSN                1
 GAP=113        0.89       3.2     2.7  4.9  0.2954E+00  0.4130E+01  0.3892E+01E
 Epicentro: LOS SANTOS - SANTANDER                                             3
 ACTION:UPD 17-08-30 15:34 OP:rebc STATUS:               ID:20170717002317 L   I
 OLDACT:UP  17-07-17 13:41 OP:dnl  STATUS:               ID:20170717001740     3
 OLDACT:REG 17-07-17 12:45 OP:dnl  STATUS:               ID:20170717001740     3
 2017-07-17-0018-00M.COL___392                                                 6
 STAT SP IPHASW D HRMM SECON CODA AMPLIT PERI AZIMU VELO AIN AR TRES W  DIS CAZ7
 BAR2 EZ EP        023 36.99                             171   -0.1610 23.4 194 
 BAR2 EZ ES        023 52.72                             171    0.0510 23.4 194 
 BAR2 EZ I         023 54.85        27.1 0.48            168           23.4 194 
 BRR  HZ EP        023 38.83                             153    0.1110 72.6 298 
 BRR  HN ES        023 56.16                             153    0.6910 72.6 298 
 BRR  HZ I         024  1.22        18.9 0.14            152           72.6 298 
 PAM  EZ IP     C  023 39.72                             152    0.0610 76.7  39 
 PAM  EN ES        023 57.17                             152    0.0310 76.7  39 
 PAM  EZ I         023 58.83         9.5 0.56            156           76.7  39 
 RUS  HZ EP        023 41.09                             144   -0.1110  100 177 
 RUS  HN ES        023 59.71                             144   -0.1610  100 177 
 RUS  HZ I         024  0.53        15.4 0.28            145            100 177 
 PTB  HZ EP        023 43.89                             132   -0.64 9  149 259 
 PTB  HN ES        024  4.99                             132   -0.82 9  149 259 
 PTB  HZ I         024  7.11        16.0 0.12            133            149 259 
 SPBC HZ EP        023 45.87                             130   -0.12 9  164 219 
 SPBC HE ES        024  8.45                             130    0.04 9  164 219 
 SPBC HZ I         024 10.45        24.4 0.46            130            164 219 
 YPLC HZ EP        023 47.18                             127    0.06 9  176 152 
 YPLC HN ES        024 10.64                             127    0.23 9  176 152 
 YPLC HZ I         024 15.39        13.4 0.30            129            176 152 
 ZAR  HZ EP   2    023 49.02                             123   -0.98 4  206 292 
 ZAR  HE ES        024 15.39                             123   -0.15 8  206 292 
 ZAR  HZ I         024 20.62        19.9 0.36            124            206 292 
 TABC EZ EP   2    023 53.94                             120    0.75 4  230 211 
 TABC EZ ES   4    024 23.15                             120    1.93 0  230 211 
 TABC EZ I         024 27.51        15.1 0.48            121            230 211 
 NOR  HZ EP        023 52.77                             119   -0.46 8  236 235 
 NOR  HE ES        024 21.33                             119    0.05 8  236 235 
 NOR  HZ I         024 26.65        10.1 0.36            120            236 235 
 ROSC BZ EP   2    023 56.49                             117    0.94 4  253 211 
 ROSC BN ES   4    024 29.32                             117    3.89 0  253 211 
 ROSC BZ I         024 30.18        11.4 0.30            118            253 211 
 HEL  HZ EP   4    023 59.21                             115    1.48 0  273 256 
 HEL  HE ES        024 30.05                             115    0.74 8  273 256 
 HEL  HZ I         024 36.66         7.8 0.58            116            273 256 
 GUY2CHZ EP   4    024  2.98                             113    1.90 0  302 235 
 GUY2CHE ES        024 35.45                             113    0.18 7  302 235 
 GUY2CHZ I         024 45.68         9.7 0.54                           302 235 
 CBOC HZ EP   2    024  5.57                             110    1.16 3  335 252 
 CBOC HN ES        024 41.85                             110    0.65 7  335 252 
 CBOC HZ I         024 47.44         5.1 0.10            111            335 252 
 DBB  EZ EP   2    024  4.97                             110   -0.02 3  341 274 
 DBB  EN ES   4    024 39.84                             110   -2.39 0  341 274 
 DBB  EZ I         024 43.95         5.7 0.54            111            341 274 
 PAL  HZ EP   2    024 12.75                             106    0.13 3  407 239 
 PAL  HE ES        024 55.66                             106   -0.15 6  407 239 
 PAL  HZ I         024 57.29         2.3 0.18            107            407 239 
                                                                                
