 2014  417 0509 28.3 L   6.765 -73.189154.0  RSN  5 0.1 1.3LRSN                1
 GAP=196        0.42       2.1     2.9  4.9  0.2560E+01 -0.3503E+01 -0.5612E+01E
 Epicentro: VILLANUEVA - SANTANDER                                             3
 ACTION:UPD 14-05-13 23:09 OP:nd   STATUS:               ID:20140417050928 L   I
 OLDACT:REG 14-04-17 15:57 OP:nd   STATUS:               ID:20140417050835     3
 2014-04-17-0508-35M.COL___248                                                 6
 STAT SP IPHASW D HRMM SECON CODA AMPLIT PERI AZIMU VELO AIN AR TRES W  DIS CAZ7
 RUS  HZ EP        5 9 52.41                             146   -0.2210 97.1 173 
 RUS  HN ES        510 11.78                             146    0.1710 97.1 173 
 RUS  HZ I         510 14.09         1.6 0.38            150           97.1 173 
 PTB  HZ EP        5 9 55.55                             135    0.07 9  142 260 
 PTB  HN ES        510 16.73                             135    0.05 9  142 260 
 PTB  HZ I         510 22.47         2.2 0.24            137            142 260 
 SPBC HZ EP        5 9 56.86                             132   -0.03 9  157 219 
 SPBC HN ES        510 19.11                             132   -0.08 9  157 219 
 SPBC HZ I         510 23.37         2.8 0.62            135            157 219 
 ZAR  HN ES        510 26.51                             125   -0.01 9  201 294 
 SML  HZ EP        510  5.85                             119    0.28 8  245 337 
 SML  HN ES        510 34.46                             119   -0.19 8  245 337 
 SML  HZ I         510 36.55         3.2 0.30            122            245 337 
                                                                                
