 2010 1117 0006 47.6 L   6.848 -73.027146.6  RSN  5 0.2 1.8LRSN                1
 GAP=195        0.44       2.4     6.6  4.2  0.4389E+01 -0.3803E+01 -0.1075E+01E
 Epicentro: CEPITA - SANTANDER                                                 3
 ACTION:UP  10-12-17 16:53 OP:REBC STATUS:               ID:20101117000647 L   I
 2010-11-17-0004-06S.COL___129                                                 6
 STAT SP IPHASW D HRMM SECON CODA AMPLIT PERI AZIMU VELO SNR AR TRES W  DIS CAZ7
 BAR2 SZ EP   1    0 7  7.42                             166    -0.2 7   33 211 
 BAR2 SZ ES   1    0 7 23.12                             166     0.0 7   33 211 
 BAR2 SZ I         0 7 24.54         9.0 0.18                            33 211 
 BRR  HZ EP        0 7  9.40                             149     0.010   81 291 
 BRR  HZ I         0 7  9.91        18.2 0.27                            81 291 
 BRR  HE ES   1    0 7 26.60                             149     0.2 7   81 291 
 RUS  HZ EP   1    0 7 11.84                             142     0.0 7  106 183 
 RUS  HN ES   1    0 7 30.78                             142     0.1 7  106 183 
 RUS  HZ I         0 7 32.73         3.2 0.15                           106 183 
 OCA  SZ EP   1    0 7 16.03                             130     0.3 7  157 348 
 OCA  SZ ES   1    0 7 37.28                             130    -0.3 7  157 348 
 OCA  SZ I         0 7 47.73         6.7 0.26                           157 348 
 PRA  HZ EP   1    0 7 42.37                             106    -0.1 4  403 211 
 PRA  HE ES   2    0 8 25.17                             106    -0.1 3  403 211 
 PRA  HZ I         0 8 28.52         6.4 0.20                           403 211 
                                                                                
