 2011  717 0527 14.8 L   6.760 -73.105148.2  RSN 11 0.3 2.0LRSN                1
 GAP=144        0.55       2.4     4.3  3.8 -0.4192E+01  0.1822E+01  0.8697E+00E
 Epicentro: LOS SANTOS - SANTANDER                                             3
 ACTION:UPD 12-07-25 14:01 OP:epov STATUS:               ID:20110717052714 L   I
 2011-07-17-0526-57S.COL___143                                                 6
 STAT SP IPHASW D HRMM SECON CODA AMPLIT PERI AZIMU VELO AIN AR TRES W  DIS CAZ7
 BAR2 SZ EP   1    527 34.53                             172   -0.12 7 20.5 205 
 BAR2 SZ ES   1    527 50.29                             172    0.14 7 20.5 205 
 BAR2 SZ I         527 51.09        21.1 0.19                          20.5 205 
 BTL  SZ EP   1    527 34.69                             170   -0.05 7 25.1 314 
 GIR2 SZ EP   1    527 34.66                             165   -0.23 7 36.6 344 
 GIR2 SZ ES   1    527 50.51                             165   -0.07 7 36.6 344 
 BRR  HZ EP   1    527 36.45                             151   -0.09 7 77.3 300 
 BRR  HE ES   1    527 53.66                             151    0.14 7 77.3 300 
 BRR  HZ I         527 56.60        18.3 0.10                          77.3 300 
 PAM  SN ES   2    527 54.45                             151   -0.42 5 78.2  35 
 RUS  HZ EP   1    527 38.44                             146   -0.01 7 96.0 179 
 RUS  HN ES   1    527 57.21                             146    0.30 7 96.0 179 
 RUS  HZ I         527 58.68        14.5 0.36                          96.0 179 
 BRI  SZ EP   1    527 39.11                             141    0.01 7  111  18 
 BRI  SZ ES   1    527 58.10                             141    0.02 7  111  18 
 BRI  SZ I         527 59.61        10.9 0.21                           111  18 
 GRA  SZ EP   1    527 40.33                             137   -0.16 7  129  15 
 GRA  SZ ES   1    528  0.17                             137   -0.37 7  129  15 
 GRA  SZ I         528  2.84        17.1 0.32                           129  15 
 OCA  SZ EP   1    527 43.81                             129    0.07 7  165 352 
 OCA  SZ ES   1    528  7.09                             129    0.75 7  165 352 
 OCA  SZ I         528  9.08        18.3 0.21                           165 352 
 NOR  SZ EP   1    527 50.90                             119    0.12 6  236 236 
 NOR  SN ES   1    528 18.29                             119   -0.57 6  236 236 
 CHI  HZ EP   1    527 52.70                             118    0.41 6  246 196 
 CHI  HZ I         528 31.69         5.6 0.40                           246 196 
                                                                                
