 2017  517 0242 58.1 L   6.830 -73.133156.7  RSN  9 0.5 1.9LRSN                1
 GAP=112        1.07       4.1     4.3  7.9  0.1725E+01  0.3352E+01  0.1185E+02E
 Epicentro: LOS SANTOS - SANTANDER                                             3
 ACTION:UPD 17-06-16 13:36 OP:jn   STATUS:               ID:20170517024258 L   I
 OLDACT:UP  17-05-17 14:41 OP:dnl  STATUS:               ID:20170517023740     3
 OLDACT:REG 17-05-17 13:29 OP:dnl  STATUS:               ID:20170517023740     3
 2017-05-17-0238-00M.COL___356                                                 6
 STAT SP IPHASW D HRMM SECON CODA AMPLIT PERI AZIMU VELO AIN AR TRES W  DIS CAZ7
 BRR  HZ EP        243 20.73                             154    0.3010 70.9 296 
 BRR  HN ES        243 37.79                             154   -0.0510 70.9 296 
 BRR  HZ I         243 41.70        10.0 0.26            146           70.9 296 
 PAM  EZ EP        243 21.63                             154    0.3210 74.0  40 
 PAM  EE ES        243 39.06                             154   -0.3410 74.0  40 
 PAM  EN ES        243 39.13                             154           74.0  40 
 PAM  EZ I         243 41.04        13.3 0.48            147           74.0  40 
 PTB  HZ EP        243 25.12                             134   -1.04 9  150 258 
 PTB  HZ I         243 49.19         5.7 0.18            123            150 258 
 SPBC HZ EP        243 28.07                             131    0.29 9  167 219 
 SPBC HE ES        243 50.85                             131   -0.08 9  167 219 
 SPBC HZ I         243 57.59        13.3 0.34            120            167 219 
 YPLC HZ EP        243 29.31                             129    0.38 9  179 152 
 YPLC HN ES        243 53.33                             129    0.35 9  179 152 
 YPLC HZ I         243 54.24        12.8 0.26            118            179 152 
 ZAR  HZ EP        243 31.41                             125    0.12 9  204 291 
 ZAR  HN ES        243 57.29                             125    0.12 9  204 291 
 ZAR  HZ I         244  2.04         5.2 0.24            115            204 291 
 NOR  HZ EP   4    243 38.49                             120    3.68 0  238 234 
 NOR  HN ES        244  4.10                             120    0.66 8  238 234 
 NOR  HN IS        244  4.10                             120            238 234 
 NOR  HZ I         244 10.74         6.5 0.12            111            238 234 
 CHI  HZ EP   2    243 37.11                             119    0.30 4  252 195 
 CHI  HN ES        244  6.34                             119   -0.67 8  252 195 
 CHI  HZ I         244 16.31         3.9 0.36            110            252 195 
 PTGC HZ EP        243 42.11                             113   -0.66 7  311 159 
 PTGC HZ I         244 15.38         6.7 0.40            105            311 159 
 PTGC HN ES   4 C  244 15.66                             113   -1.94 0  311 159 
                                                                                
