 2016  317 0012 57.4 L   6.778 -73.147140.0  RSN  8 0.4 1.8LRSN                1
 GAP=137        0.82       2.8     3.7  7.0 -0.1540E+01  0.9314E+01  0.4275E+00E
 Epicentro: LOS SANTOS - SANTANDER                                             3
 ACTION:UPD 16-05-13 21:24 OP:cam  STATUS:               ID:20160317001257 L   I
 OLDACT:REG 16-03-17 13:51 OP:dnl  STATUS:               ID:20160317000746     3
 2016-03-17-0007-46M.COL___307                                                 6
 STAT SP IPHASW D HRMM SECON CODA AMPLIT PERI AZIMU VELO AIN AR TRES W  DIS CAZ7
 PAM  EZ EP        013 19.28                             149    0.1810 79.4  39 
 PAM  EE ES        013 36.43                             149    0.3810 79.4  39 
 PAM  EZ I         013 38.65         4.5 0.18            156           79.4  39 
 RUS  HZ EP        013 20.50                             143    0.1210 98.1 176 
 RUS  HE ES        013 37.62                             143   -0.7010 98.1 176 
 RUS  HZ I         013 40.39         4.3 0.36            148           98.1 176 
 PTB  HZ EP        013 23.40                             131   -0.42 9  147 260 
 PTB  HE ES        013 44.67                             131    0.23 9  147 260 
 PTB  HZ I         013 51.85         5.4 0.25            133            147 260 
 SPBC HZ EP        013 25.53                             128    0.29 9  161 219 
 SPBC HN ES        013 47.36                             128    0.39 9  161 219 
 SPBC HZ I         013 54.87        13.6 0.17            131            161 219 
 OCA  HZ EP   3    013 25.93                             128    0.45 2  163 353 
 OCA  HN ES        013 47.22                             128   -0.17 9  163 353 
 OCA  HZ I         013 52.44        16.2 0.21            133            163 353 
 ZAR  HZ EP        013 29.19                             121   -0.34 9  205 293 
 ZAR  HN ES        013 54.37                             121   -0.24 9  205 293 
 ZAR  HZ I         014  0.25         5.2 0.17            124            205 293 
 CHI  HN EP   2    013 34.44                             116   -0.05 4  246 195 
 CHI  HE ES   2    014  3.28                             116   -0.16 4  246 195 
 CHI  HN I         014  8.43         6.3 0.56            120            246 195 
 GUY2CHZ EP   2    013 41.03                             111    0.49 4  300 235 
 GUY2CHE ES   2    014 15.28                             111    1.07 4  300 235 
 GUY2CHZ I         014 23.88         4.5 0.28                           300 235 
                                                                                
