 2017  817 0114 42.3 L   6.736 -73.134148.3  RSN  5 0.2 1.4LRSN                1
 GAP=141        0.54       2.3     2.8  4.7 -0.3429E+00  0.2094E+01  0.1498E+01E
 Epicentro: LOS SANTOS - SANTANDER                                             3
 ACTION:UPD 17-09-04 20:21 OP:rebc STATUS:               ID:20170817011442 L   I
 OLDACT:REG 17-08-17 12:23 OP:lv   STATUS:               ID:20170817010738     3
 2017-08-17-0108-00M.COL___413                                                 6
 STAT SP IPHASW D HRMM SECON CODA AMPLIT PERI AZIMU VELO AIN AR TRES W  DIS CAZ7
 BRR  HZ EP        115  4.13                             151    0.1510 76.0 303 
 BRR  HN ES        115 20.97                             151    0.0710 76.0 303 
 BRR  HZ I         115 22.42         8.9 0.40            153           76.0 303 
 PAM  EZ EP        115  5.11                             150    0.0510 82.2  36 
 PAM  EE ES        115 22.57                             150   -0.2510 82.2  36 
 PAM  EZ I         115 24.72         4.2 0.45            152           82.2  36 
 RUS  HZ EP        115  5.67                             146   -0.1110 93.4 177 
 RUS  HN ES        115 24.43                             146    0.3210 93.4 177 
 RUS  HZ I         115 25.78         2.0 0.32            148           93.4 177 
 SPBC HZ EP        115 10.56                             130    0.01 9  159 221 
 SPBC HN ES        115 32.25                             130   -0.34 9  159 221 
 SPBC HZ I         115 33.93         3.6 0.10            132            159 221 
 ZAR  HE ES        115 41.12                             122    0.06 8  208 294 
                                                                                
