 2014  817 0251 34.9 L   6.800 -73.127148.0  RSN 22 0.4 2.0LRSN                1
 GAP=139        0.81       2.2     3.0  3.9 -0.1073E+01  0.3384E+01  0.1291E+01E
 Epicentro: LOS SANTOS - SANTANDER                                             3
 ACTION:UPD 14-09-15 21:50 OP:nd   STATUS:               ID:20140817025134 L   I
 OLDACT:REG 14-08-17 13:06 OP:spq  STATUS:               ID:20140817024815     3
 2014-08-17-0248-15M.COL___272                                                 6
 STAT SP IPHASW D HRMM SECON CODA AMPLIT PERI AZIMU VELO AIN AR TRES W  DIS CAZ7
 BAR2 SZ EP        251 54.68                             170   -0.1410 23.8 195 
 BAR2 SZ ES   1    252  9.65                             170   -0.69 7 23.8 195 
 BAR2 SZ I         252 11.01        35.4 0.24            167           23.8 195 
 BRR  HZ IP     C  251 56.55                             152    0.1510 73.0 298 
 BRR  HN ES        252 13.94                             152    0.7810 73.0 298 
 BRR  HZ I         252 16.26        13.0 0.36            151           73.0 298 
 PAM  SZ EP        251 57.77                             152    0.4910 76.0  38 
 PAM  SN ES        252 14.56                             152   -0.1710 76.0  38 
 PAM  SZ I         252 16.97        12.3 0.50            156           76.0  38 
 RUS  HZ EP        251 59.06                             144    0.1910  101 177 
 RUS  HN ES        252 17.76                             144    0.1910  101 177 
 RUS  HZ I         252 19.06        16.3 0.26            144            101 177 
 PTB  HZ IP     C  252  1.59                             132   -0.65 9  150 259 
 PTB  HE ES        252 23.46                             132   -0.10 9  150 259 
 PTB  HZ I         252 24.49        15.2 0.14            132            150 259 
 OCA  HZ EP   1    252  3.55                             130    0.14 7  160 352 
 OCA  HN ES        252 25.09                             130   -0.55 9  160 352 
 OCA  HZ I         252 28.12         8.8 0.20            132            160 352 
 SPBC HZ EP        252  3.42                             129   -0.28 9  165 220 
 SPBC HN ES        252 25.96                             129   -0.21 9  165 220 
 SPBC HZ I         252 31.89        16.2 0.30            129            165 220 
 ZAR  HZ EP        252  7.55                             123   -0.14 8  206 292 
 ZAR  HN ES        252 33.18                             123   -0.08 8  206 292 
 ZAR  HZ I         252 37.96         9.9 0.36            123            206 292 
 NOR  HZ EP        252 10.47                             119   -0.48 8  236 235 
 NOR  HE ES        252 39.41                             119    0.35 8  236 235 
 NOR  HZ I         252 44.71         6.6 0.16            119            236 235 
 SML  HZ EP        252 11.74                             118   -0.01 8  245 335 
 SML  HN ES   1    252 41.12                             118    0.64 6  245 335 
 SML  HZ I         252 42.32         9.3 0.10            119            245 335 
 CHI  HZ EP   1    252 12.85                             118    0.06 6  249 196 
 CHI  HN ES   1    252 42.31                             118   -0.04 6  249 196 
 CHI  HZ I         252 44.56         5.3 0.30            118            249 196 
 ROSC BN ES   4    252 45.70                             117    2.51 0  254 211 
 ROSC BZ I         252 49.12        12.7 0.40            118            254 211 
 HEL  HZ EP   1    252 15.79                             115    0.33 6  274 256 
 HEL  HN ES   1    252 47.06                             115   -0.02 6  274 256 
 HEL  HZ I         252 52.70         6.4 0.28            115            274 256 
 GUY2CHZ EP        252 19.25                             113    0.44 7  303 235 
 GUY2CHE ES   4    252 57.50                             113    4.44 0  303 235 
 GUY2CHZ I         253  2.18         4.4 0.36                           303 235 
 RREF HZ EP   1    252 20.91                             111   -0.42 5  323 230 
 RREF HN ES   4    252 58.99                             111    1.45 0  323 230 
 RREF HZ I         253  4.98         9.3 0.32            112            323 230 
 CBOC HZ EP        252 22.31                             110    0.17 7  336 252 
 CBOC HE ES        252 58.92                             110   -0.06 7  336 252 
 CBOC HZ I         252 59.73         1.1 0.25            111            336 252 
 TOL  SZ IP        252 23.30                             110   -0.12 7  345 225 
 TOL  SZ EP        252 23.48                                            345 225 
 TOL  SN ES   4    253  3.86                             110    2.59 0  345 225 
 TOL  SZ I         253  8.60        12.6 0.51            110            345 225 
 MON  HZ EP   4    252 21.33                             109   -2.85 0  355 308 
 MON  HE ES   4    252 59.96                             109   -2.65 0  355 308 
 MON  HZ I         253  2.56         2.1 0.34            110            355 308 
 ANIL HE ES   4    253  7.05                             109    3.03 0  359 225 
 ANIL HZ I         253  8.49         1.4 0.32            109            359 225 
 PRA  HZ EP        252 28.97                             107    0.34 6  393 210 
 PRA  HE ES        253 10.94                             107    0.41 6  393 210 
 PRA  HZ I         253 14.70         5.1 0.72            108            393 210 
 ORTC HZ EP        252 28.79                             107   -0.26 6  397 216 
 ORTC HN ES   4    253 12.41                             107    1.13 0  397 216 
 ORTC HZ I         253 18.24         2.7 0.44            107            397 216 
 SJC  HZ EP   4    252 28.87                             106   -1.80 0  410 327 
 SJC  HN ES   4    253 12.04                             106   -2.12 0  410 327 
 SJC  HZ I         253 14.17         2.0 0.52            107            410 327 
                                                                                
