 2012  917 0151 23.3 L   6.772 -73.146140.5  RSN  5 0.3 1.5LRSN                1
 GAP=185        0.62      10.1     7.4 12.5  0.9165E+01 -0.2103E+02  0.6863E+02E
 Epicentro: LOS SANTOS - SANTANDER                                             3
 ACTION:UPD 12-10-22 14:19 OP:ep   STATUS:               ID:20120917015123 L   I
 2012-09-17-0150-00M.COL___227                                                 6
 STAT SP IPHASW D HRMM SECON CODA AMPLIT PERI AZIMU VELO AIN AR TRES W  DIS CAZ7
 BAR2 SZ EP   1    151 41.85                             171   -0.43 7 20.3 191 
 GIR2 SZ EP   1    151 42.26                             166   -0.21 7 34.3 351 
 BRR  HZ EP   1    151 44.04                             151    0.03 7 72.6 301 
 BRR  HZ I         151 45.00        10.7 0.12                          72.6 301 
 BRR  HN ES   1    152  0.40                             151    0.28 7 72.6 301 
 RUS  HZ EP   1    151 46.73                             143    0.38 7 97.5 176 
 PTB  HZ EP   1    151 50.03                             131    0.20 7  147 260 
 PTB  HZ I         151 51.26         2.4 0.18                           147 260 
 PTB  HN ES   2    152  9.91                             131   -0.57 5  147 260 
                                                                                
