 2014  317 0454 11.9 L   6.809 -73.162146.5  RSN  8 0.4 1.8LRSN                1
 GAP=125        0.95       3.3     3.8  7.4 -0.1985E+01  0.6664E+01 -0.4317E+01E
 Epicentro: LOS SANTOS - SANTANDER                                             3
 ACTION:UPD 14-04-09 23:18 OP:nd   STATUS:               ID:20140317045411 L   I
 OLDACT:REG 14-03-17 09:04 OP:mh   STATUS:               ID:20140317044807     3
 2014-03-17-0448-07M.COL___245                                                 6
 STAT SP IPHASW D HRMM SECON CODA AMPLIT PERI AZIMU VELO AIN AR TRES W  DIS CAZ7
 PAM  SZ EP        454 34.80                             151    0.5810 77.8  41 
 PAM  SN ES        454 51.56                             151   -0.0610 77.8  41 
 PAM  SZ I         454 54.29        13.3 0.32            154           77.8  41 
 RUS  HZ EP        454 35.85                             144    0.0510  102 175 
 RUS  HN ES        454 54.38                             144   -0.0610  102 175 
 RUS  HZ I         454 56.41         3.9 0.40            147            102 175 
 PTB  HZ EP        454 38.04                             132   -0.75 9  146 258 
 PTB  HN ES        454 59.32                             132   -0.44 9  146 258 
 PTB  HZ I         455  1.74        35.1 0.04            133            146 258 
 OCA  HN ES        455  2.31                             130    0.11 9  159 354 
 OCA  HZ I         455  7.46         4.9 0.16            132            159 354 
 ZAR  HZ EP        454 44.78                             123    0.59 9  202 292 
 ZAR  HN ES        455  9.48                             123    0.11 9  202 292 
 ZAR  HZ I         455 16.13         4.2 0.19            124            202 292 
 NOR  HN ES        455 15.90                             119    0.50 8  234 234 
 NOR  HZ I         455 23.93         4.1 0.18            121            234 234 
 SML  HZ EP        454 48.30                             118   -0.09 8  242 336 
 SML  HN ES        455 16.65                             118   -0.21 8  242 336 
 SML  HZ I         455 21.17        10.1 0.16            119            242 336 
 GUY2CHZ EP   4    454 57.56                             112    2.12 0  300 234 
 GUY2CHN ES   4    455 32.88                             112    3.48 0  300 234 
 SDV  BZ EP        455  1.52                             108   -0.53 6  361  50 
 SJC  HZ EP   4    455  6.19                             106   -1.09 0  407 327 
                                                                                
