 2017  317 0517 15.6 L   6.790 -73.149145.8  RSN  4 0.2 1.1LRSN                1
 GAP=137        0.59       3.4     3.1  5.5 -0.1446E+01  0.8632E+00  0.3805E+01E
 Epicentro: LOS SANTOS - SANTANDER                                             3
 ACTION:UPD 17-05-25 18:41 OP:jn   STATUS:               ID:20170317051715 L   I
 OLDACT:REG 17-03-17 13:26 OP:cog  STATUS:               ID:20170317050739     3
 2017-03-17-0508-00M.COL___408                                                 6
 STAT SP IPHASW D HRMM SECON CODA AMPLIT PERI AZIMU VELO AIN AR TRES W  DIS CAZ7
 BRR  HN ES        517 53.62                             152    0.3210 71.4 299 
 PAM  EZ EP        517 37.75                             150   -0.1610 78.4  39 
 PAM  EE ES        517 55.19                             150   -0.1010 78.4  39 
 PAM  EZ I         517 57.02         3.3 0.62            151           78.4  39 
 RUS  HZ EP        517 39.49                             144    0.1810 99.5 176 
 RUS  HE ES        517 57.73                             144   -0.0510 99.5 176 
 RUS  HZ I         517 58.46         1.4 0.20            145           99.5 176 
 PTB  HZ EP        517 42.67                             132    0.13 9  147 259 
 PTB  HN ES        518  3.18                             132   -0.36 9  147 259 
 PTB  HZ I         518  5.53         1.4 0.12            133            147 259 
                                                                                
