 2017  317 0451 30.2 L   6.809 -73.129144.1  RSN  6 0.4 1.1LRSN                1
 GAP=138        1.09       5.5     4.9  8.0  0.2267E+01  0.7821E+01  0.9675E+00E
 Epicentro: LOS SANTOS - SANTANDER                                             3
 ACTION:UPD 17-05-25 18:41 OP:jn   STATUS:               ID:20170317045130 L   I
 OLDACT:REG 17-03-17 13:25 OP:cog  STATUS:               ID:20170317044743     3
 2017-03-17-0448-00M.COL___409                                                 6
 STAT SP IPHASW D HRMM SECON CODA AMPLIT PERI AZIMU VELO AIN AR TRES W  DIS CAZ7
 BAR2 EZ EP        451 49.42                             170   -0.1910 24.7 194 
 BAR2 EZ ES        452  4.00                             170   -0.7810 24.7 194 
 BAR2 EZ I         452  5.22         5.5 0.42            169           24.7 194 
 BRR  HZ EP        451 51.21                             152    0.0210 72.3 297 
 BRR  HN ES        452  7.86                             152    0.2710 72.3 297 
 PAM  EZ EP        451 52.35                             151    0.2810 75.5  39 
 PAM  EN ES        452  9.16                             151   -0.0110 75.5  39 
 PAM  EZ I         452 10.60         2.8 0.40            154           75.5  39 
 RUS  HZ EP        451 53.87                             143    0.0710  101 177 
 RUS  HN ES        452 12.91                             143    0.6610  101 177 
 RUS  HZ I         452 14.26         0.9 0.26            144            101 177 
 PTB  HZ EP        451 56.45                             131   -0.72 9  150 259 
 PTB  HN ES        452 18.22                             131   -0.01 9  150 259 
 PTB  HZ I         452 22.32         2.0 0.24            132            150 259 
 ZAR  HN ES        452 28.38                             122    0.43 8  205 292 
                                                                                
