 2014 1017 0140 35.3 L   6.770 -73.130144.9  RSN  9 0.4 1.8LRSN                1
 GAP=140        0.90       3.2     4.5  6.1 -0.5240E-01  0.5721E+01 -0.4271E+00E
 Epicentro: LOS SANTOS - SANTANDER                                             3
 ACTION:UPD 14-11-29 23:50 OP:nd   STATUS:               ID:20141017014035 L   I
 OLDACT:UP  14-10-17 16:16 OP:mh   STATUS:               ID:20141017013744     3
 OLDACT:REG 14-10-17 13:53 OP:mh   STATUS:               ID:20141017013744     3
 2014-10-17-0137-44M.COL___280                                                 6
 STAT SP IPHASW D HRMM SECON CODA AMPLIT PERI AZIMU VELO AIN AR TRES W  DIS CAZ7
 BAR2 SZ EP        140 54.78                             172    0.0110 20.5 196 
 BAR2 SZ ES   1    141  9.17                             172   -0.78 7 20.5 196 
 BAR2 SZ I         141 12.86        16.6 0.56            169           20.5 196 
 BRR  HZ EP   1    140 56.87                             151    0.34 7 74.3 300 
 BRR  HN ES   1    141 13.70                             151    0.61 7 74.3 300 
 BRR  HZ I         141 25.75         6.3 0.26            150           74.3 300 
 PAM  SZ EP   1    140 57.69                             150    0.18 7 78.9  37 
 PAM  SN ES   1    141 14.93                             150    0.09 7 78.9  37 
 PAM  SZ I         141 16.91         7.2 0.22            156           78.9  37 
 RUS  HZ EP        140 58.89                             145    0.1710 97.2 177 
 RUS  HN ES        141 16.79                             145   -0.2010 97.2 177 
 RUS  HZ I         141 18.75         3.7 0.40            150           97.2 177 
 PTB  HZ EP        141  1.90                             132   -0.39 9  149 260 
 PTB  HN ES        141 22.82                             132   -0.52 9  149 260 
 PTB  HZ I         141 28.57         7.7 0.16            133            149 260 
 SPBC HZ EP        141  3.87                             129    0.28 9  162 220 
 SPBC HN ES        141 26.41                             129    0.75 9  162 220 
 SPBC HZ I         141 30.82        10.0 0.42            132            162 220 
 ZAR  HN ES   1    141 33.39                             122   -0.08 6  207 293 
 SML  HZ EP   1    141 11.75                             117   -0.52 6  247 335 
 SML  HN ES        141 41.29                             117    0.18 8  247 335 
 SML  HZ I         141 45.28        10.0 0.10            120            247 335 
 PRA  HZ EP        141 28.00                             106   -0.55 6  390 210 
 PRA  HN ES   1    142 10.00                             106   -0.09 4  390 210 
 PRA  HZ I         142 16.84         2.6 0.50            110            390 210 
                                                                                
