 2012 1217 0523 38.6 L   6.706 -73.215150.8  RSN  4 0.2 1.3LRSN                1
 GAP=132        0.58       4.6     4.3  6.3  0.3406E+01 -0.5401E+01 -0.9260E+00E
 Epicentro: VILLANUEVA - SANTANDER                                             3
 ACTION:UPD 13-01-04 14:28 OP:ep   STATUS:               ID:20121217052338 L   I
 2012-12-17-0520-00M.COL___238                                                 6
 STAT SP IPHASW D HRMM SECON CODA AMPLIT PERI AZIMU VELO AIN AR TRES W  DIS CAZ7
 BRR  HZ EP        524  0.61                             154    0.3510 70.6 309 
 BRR  HN ES        524 17.21                             154    0.0610 70.6 309 
 BRR  HZ I         524 18.58         3.1 0.25                          70.6 309 
 PAM  SZ EP   1    524  1.71                             148   -0.43 7 90.2  39 
 RUS  HZ EP   1    524  2.32                             147    0.11 7 91.2 171 
 RUS  HE ES   1    524 20.64                             147    0.02 7 91.2 171 
 RUS  HE I         524 21.80         5.9 0.25                          91.2 171 
 PTB  HZ EP        524  5.14                             135   -0.03 9  139 262 
 PTB  HN ES        524 25.66                             135   -0.24 9  139 262 
 PTB  HZ I         524 30.24         1.9 0.18                           139 262 
                                                                                
