 2011 1017 0356 17.9 L   6.800 -73.104140.0  RSN 10 0.4 2.7LRSN                1
 GAP=142        0.76       3.4     4.5  5.7 -0.1684E+01  0.1039E+02  0.1567E+01E
 Epicentro: LOS SANTOS - SANTANDER                                             3
 ACTION:UPD 12-07-13 16:04 OP:ep   STATUS:               ID:20111017035617 L   I
 2011-10-17-0353-19S.COL___168                                                 6
 STAT SP IPHASW D HRMM SECON CODA AMPLIT PERI AZIMU VELO AIN AR TRES W  DIS CAZ7
 BAR2 SZ EP        356 37.03                             170    0.1810 24.6 201 
 BAR2 SZ ES   1    356 51.26                             170   -0.38 7 24.6 201 
 BAR2 SZ I         356 52.98       120.7 0.14                          24.6 201 
 PAM  SZ IP        356 39.89                             151    0.5710 74.5  37 
 PAM  SN ES        356 55.71                             151   -0.3210 74.5  37 
 BRR  HZ IP     C  356 38.97                             150    0.3110 75.3 297 
 BRR  HN ES   1    356 55.21                             150    0.35 7 75.3 297 
 BRR  HZ I         356 56.96       167.0 0.12                          75.3 297 
 RUS  HZ EP   1    356 40.99                             143   -0.07 7  100 179 
 RUS  HN ES   1    356 59.10                             143   -0.04 7  100 179 
 RUS  HZ I         357  0.55        39.3 0.19                           100 179 
 OCA  SZ EP   1    356 45.77                             128   -0.04 7  161 352 
 OCA  SZ ES   1    357  7.21                             128   -0.38 7  161 352 
 OCA  SZ I         357 11.22        49.7 0.20                           161 352 
 ZAR  HZ EP   1    356 49.81                             120   -0.60 6  208 292 
 ZAR  HN ES   1    357 15.97                             120    0.19 6  208 292 
 ZAR  HZ I         357 21.55        38.5 0.14                           208 292 
 NOR  SZ EP   1    356 53.11                             117   -0.59 6  238 235 
 HEL  HZ EP   1    356 57.88                             113   -0.44 6  277 256 
 HEL  HZ I         357 36.26        29.6 0.23                           277 256 
 RREF HN ES   1    357 40.77                             109    0.46 5  325 230 
 PRA  HZ EP   1    357 11.15                             105   -0.34 4  394 210 
                                                                                
