 2014 1217 0927 26.5 L   6.800 -73.139151.4  RSN 17 0.4 2.0LRSN                1
 GAP=137        0.94       2.8     3.8  5.3 -0.1669E+01  0.4798E+01  0.1126E+01E
 Epicentro: LOS SANTOS - SANTANDER                                             3
 ACTION:UPD 15-02-10 17:04 OP:nd   STATUS:               ID:20141217092726 L   I
 OLDACT:REG 14-12-17 13:02 OP:spq  STATUS:               ID:20141217091736     3
 2014-12-17-0917-36M.COL___290                                                 6
 STAT SP IPHASW D HRMM SECON CODA AMPLIT PERI AZIMU VELO AIN AR TRES W  DIS CAZ7
 BAR2 EZ EP        927 46.79                             171   -0.0110 23.5 192 
 BAR2 EZ ES   1    928  2.61                             171   -0.04 7 23.5 192 
 BAR2 EZ I         928  3.56        22.0 0.22            169           23.5 192 
 BRR  HZ EP     C  927 48.71                             153    0.4210 71.9 298 
 BRR  HN ES        928  6.21                             153    0.9210 71.9 298 
 BRR  HZ I         928  8.43        15.0 0.23            149           71.9 298 
 PAM  SZ EP        927 49.56                             152    0.2810 76.9  39 
 PAM  SN ES        928  6.94                             152   -0.1210 76.9  39 
 PAM  SZ I         928  8.86        11.6 0.52            154           76.9  39 
 RUS  HZ EP        927 50.70                             145   -0.1010  101 177 
 RUS  HN ES        928  9.59                             145   -0.1710  101 177 
 RUS  HZ I         928 10.46        10.6 0.34            146            101 177 
 PTB  HZ EP        927 53.44                             133   -0.55 9  149 259 
 PTB  HN ES        928 14.89                             133   -0.55 9  149 259 
 PTB  HZ I         928 17.29        10.9 0.20            131            149 259 
 OCA  HZ EP   1    927 55.23                             131   -0.02 7  160 353 
 OCA  HE ES   1    928 17.22                             131   -0.47 7  160 353 
 OCA  HZ I         928 20.17         8.4 0.20            131            160 353 
 SPBC HZ EP        927 55.77                             130    0.30 9  164 219 
 SPBC HN ES        928 17.50                             130   -0.58 9  164 219 
 SPBC HZ I         928 20.62        20.0 0.26            130            164 219 
 ZAR  HZ EP   1    927 59.08                             123   -0.30 6  205 292 
 ZAR  HE ES        928 25.09                             123    0.05 9  205 292 
 ZAR  HZ I         928 31.89        19.3 0.32            122            205 292 
 NOR  HZ EP        928  2.80                             120    0.18 8  235 235 
 NOR  HN ES        928 30.94                             120    0.14 8  235 235 
 NOR  HZ I         928 36.47         7.8 0.16            119            235 235 
 SML  HZ EP   1    928  2.90                             119   -0.57 6  244 335 
 SML  HE ES   1    928 31.98                             119   -0.34 6  244 335 
 SML  HZ I         928 39.40        14.8 0.10            118            244 335 
 CHI  HZ EP   1    928  4.82                             118    0.29 6  249 195 
 CHI  HE ES   1    928 33.88                             118   -0.32 6  249 195 
 CHI  HZ I         928 40.03         4.2 0.22            119            249 195 
 HEL  HZ EP   1    928  7.41                             116    0.33 6  273 256 
 HEL  HE ES   4    928 37.22                             116   -1.52 0  273 256 
 HEL  HZ I         928 44.15         4.6 0.30            115            273 256 
 URE  HZ EP   4    928 11.24                             115    3.32 0  285 292 
 URE  HE ES   4    928 37.77                             115   -2.46 0  285 292 
 URE  HZ I         928 50.33         9.7 0.20            114            285 292 
 PTGC HZ EP   4    928  9.68                             113   -0.89 0  308 159 
 PTGC HN ES   4    928 42.72                             113   -2.23 0  308 159 
 PTGC HZ I         928 44.56         9.3 0.74            114            308 159 
 MON  HZ EP   4    928 13.98                             109   -1.80 0  354 308 
 MON  HE ES   4    928 52.47                             109   -1.77 0  354 308 
 MON  HZ I         928 55.30         2.2 0.38            109            354 308 
 ORTC HZ EP   4    928 21.75                             107    1.09 0  396 216 
 ORTC HN ES        929  3.87                             107    0.96 6  396 216 
 ORTC HZ I         929  8.07         1.8 0.28            107            396 216 
 SJC  HZ EP   4    928 20.85                             107   -1.44 0  410 327 
 SJC  HN ES   4    929  4.62                             107   -1.20 0  410 327 
 SJC  HZ I         929  6.58         1.5 0.64            107            410 327 
                                                                                
