 2017 1117 0555  5.7 L   6.775 -73.162132.0  RSN 13 0.4 1.6LRSN                1
 GAP=119        1.02       2.9     4.0  6.8 -0.2026E+01  0.8438E+01  0.4468E+00E
 Epicentro: LOS SANTOS - SANTANDER                                             3
 ACTION:UPD 17-12-12 19:56 OP:rebc STATUS:               ID:20171117055505 L   I
 OLDACT:UP  17-11-17 16:58 OP:lv   STATUS:               ID:20171117054741     3
 OLDACT:REG 17-11-17 13:59 OP:lv   STATUS:               ID:20171117054741     3
 2017-11-17-0548-00M.COL___462                                                 6
 STAT SP IPHASW D HRMM SECON CODA AMPLIT PERI AZIMU VELO AIN AR TRES W  DIS CAZ7
 PAM  EZ IP     D  555 26.35                             147   -0.3110 80.7  39 
 PAM  EN ES        555 43.13                             147    0.1010 80.7  39 
 PAM  EZ I         555 45.39        12.7 0.46            153           80.7  39 
 RUS  HZ EP        555 27.75                             142   -0.1510 98.0 175 
 RUS  HN ES        555 45.59                             142    0.3510 98.0 175 
 RUS  HZ I         555 47.36         2.4 0.44            144           98.0 175 
 PTB  HZ EP        555 30.70                             129   -0.64 9  145 260 
 PTB  HN ES        555 50.82                             129   -0.53 9  145 260 
 PTB  HZ I         555 53.50         5.1 0.20            130            145 260 
 SPBC HZ EP        555 32.79                             127   -0.04 9  160 219 
 SPBC HN ES        555 54.07                             127    0.06 9  160 219 
 SPBC HZ I         555 59.97         5.5 0.16            128            160 219 
 ZAR  HZ EP        555 36.98                             120   -0.21 9  203 293 
 ZAR  HN ES        556  2.35                             120    0.58 9  203 293 
 ZAR  HZ I         556 10.35         7.3 0.46            121            203 293 
 NOR  HZ EP        555 39.97                             116   -0.33 8  232 235 
 NOR  HN ES        556  7.42                             116    0.10 8  232 235 
 NOR  HZ I         556 13.32         2.6 0.20            118            232 235 
 CHI  HZ EP        555 42.99                             115    0.69 8  246 195 
 CHI  HN ES        556 10.85                             115   -0.02 8  246 195 
 CHI  HZ I         556 17.61         1.6 0.30            117            246 195 
 DRL03HZ EP   4    555 44.49                             110   -2.46 0  291 353 
 DRL03HN ES        556 19.72                             110    0.58 7  291 353 
 GUY2CHZ EP   9    555 49.61                             110    1.28 0  298 235 
 GUY2CHN ES        556 24.01                                    1.13 7  298 235 
 GUY2CHZ I         556 31.13         2.0 0.60                           298 235 
 PTGC HZ EP   9    555 46.06                             109   -2.68 0  307 158 
 PTGC HN ES        556 20.15                                    0.50 7  307 158 
 PTGC HZ I         556 22.37         2.4 0.32            112            307 158 
 LL6C HZ EP   9    555 48.59                             108   -2.55 0  328 358 
 LL6C HN ES        556 24.09                                    0.04 7  328 358 
 CBOC HZ EP        555 52.58                             108    0.83 7  331 252 
 CBOC HN ES   4    556 26.20                             108   -1.49 0  331 252 
 PRA  HZ EP        555 58.33                             104   -0.03 6  389 210 
 PRA  HE ES        556 38.91                             104   -0.55 6  389 210 
 PRA  HZ I         556 44.24         1.7 0.68            106            389 210 
                                                                                
