 2016  417 0134 37.7 L   6.860 -73.273120.8  RSN 10 0.4 1.9LRSN                1
 GAP=111        0.96       2.8     3.4  6.1 -0.2879E+01  0.1024E+02 -0.1749E+01E
 Epicentro: BETULIA - SANTANDER                                                3
 ACTION:UPD 16-05-05 14:22 OP:rebc STATUS:               ID:20160417013437 L   I
 OLDACT:REG 16-04-17 13:46 OP:ak   STATUS:               ID:20160417012746     3
 2016-04-17-0127-46M.COL___307                                                 6
 STAT SP IPHASW D HRMM SECON CODA AMPLIT PERI AZIMU VELO AIN AR TRES W  DIS CAZ7
 BAR2 EZ IP     D  134 54.69                             165    0.1510 31.3 161 
 BAR2 EZ ES        135  7.81                             165    0.1110 31.3 161 
 BAR2 EZ I         135  9.12        72.7 0.28            167           31.3 161 
 PAM  EZ EP        134 57.98                             144    0.3010 82.6  50 
 PAM  EN ES        135 13.92                             144    0.6510 82.6  50 
 PAM  EZ I         135 16.67         9.7 0.42            147           82.6  50 
 RUS  HZ EP        134 59.25                             135   -0.5310  109 169 
 RUS  HE ES        135 16.76                             135   -0.2510  109 169 
 RUS  HZ I         135 19.24         5.2 0.16            139            109 169 
 PTB  HZ EP   4    134 59.78                             128   -1.77 0  136 255 
 PTB  HN ES        135 20.07                             128   -0.10 9  136 255 
 PTB  HZ I         135 22.14        13.1 0.20            130            136 255 
 OCA  HZ EP        135  3.26                             125   -0.14 9  153 358 
 OCA  HN ES        135 22.73                             125   -0.73 9  153 358 
 OCA  HZ I         135 23.97        39.9 0.16            127            153 358 
 SPBC HZ EP        135  4.35                             123    0.26 9  160 214 
 SPBC HN ES        135 24.10                             123   -0.59 9  160 214 
 SPBC HZ I         135 25.91        16.6 0.16            126            160 214 
 ZAR  HZ EP        135  6.57                             118   -0.38 9  189 292 
 ZAR  HN ES        135 29.97                             118    0.18 9  189 292 
 ZAR  HZ I         135 33.02        10.7 0.12            120            189 292 
 NOR  HZ EP        135 11.10                             113   -0.19 8  228 231 
 NOR  HE ES        135 37.92                             113    0.42 8  228 231 
 NOR  HZ I         135 38.33         6.2 0.16            116            228 231 
 HEL  HZ EP        135 16.08                             110    0.69 8  260 254 
 HEL  HN ES        135 44.82                             110    0.01 8  260 254 
 HEL  HZ I         135 50.02         4.0 0.18            112            260 254 
 GUY2CHZ EP        135 19.63                             108    0.23 7  294 232 
 GUY2CHN ES        135 52.20                             108    0.25 7  294 232 
 GUY2CHZ I         135 58.65         3.4 0.48                           294 232 
                                                                                
