 2017  217 0332 12.9 L   6.793 -73.169148.5  RSN  8 0.4 1.6LRSN                1
 GAP=134        0.96       4.1     3.9  5.7  0.7656E-01  0.6184E+01  0.3872E+01E
 Epicentro: LOS SANTOS - SANTANDER                                             3
 ACTION:UPD 17-05-24 15:37 OP:jn   STATUS:               ID:20170217033212 L   I
 OLDACT:REG 17-02-17 13:07 OP:cog  STATUS:               ID:20170217032742     3
 2017-02-17-0328-00M.COL___355                                                 6
 STAT SP IPHASW D HRMM SECON CODA AMPLIT PERI AZIMU VELO AIN AR TRES W  DIS CAZ7
 BAR2 EZ EP        332 32.73                             171   -0.1510 22.3 184 
 BAR2 EZ ES        332 48.38                             171   -0.0610 22.3 184 
 BAR2 EZ I         332 50.74         9.0 0.34            171           22.3 184 
 BRR  HZ EP        332 34.92                             154    0.6410 69.3 300 
 BRR  HN ES        332 51.42                             154    0.4910 69.3 300 
 BRR  HZ I         332 55.32         6.7 0.46            154           69.3 300 
 PAM  EZ EP        332 35.70                             151    0.1210 79.6  41 
 PAM  EE ES        332 52.67                             151   -0.5710 79.6  41 
 PAM  EZ I         332 55.21         7.8 0.66            154           79.6  41 
 RUS  HZ EP        332 36.44                             145   -0.4910  100 175 
 RUS  HN ES        332 56.07                             145    0.4310  100 175 
 RUS  HZ I         332 57.12         4.3 0.38            147            100 175 
 PTB  HZ EP        332 39.53                             133   -0.36 9  145 259 
 PTB  HN ES        333  0.90                             133   -0.02 9  145 259 
 PTB  HZ I         333  3.08         4.6 0.14            135            145 259 
 ZAR  HZ EP        332 45.55                             123    0.20 9  202 293 
 ZAR  HE ES        333 10.37                             123   -0.26 9  202 293 
 NOR  HZ EP     D  332 48.53                             119   -0.03 8  232 234 
 NOR  HN ES        333 15.88                             119   -0.46 8  232 234 
 NOR  HZ I         333 20.50         3.9 0.28            121            232 234 
 CHI  HZ EP        332 51.15                             118    0.51 8  247 195 
 CHI  HE ES   3    333 19.38                             118   -0.67 2  247 195 
                                                                                
