 2016  717 0121 40.2 L   6.671 -73.254155.8  RSN  4 0.4 1.3LRSN                1
 GAP=214        0.96       7.9     7.8  8.4  0.4086E+02 -0.7636E+00 -0.9355E+01E
 Epicentro: BARICHARA - SANTANDER                                              3
 ACTION:UPD 17-03-29 16:52 OP:lp   STATUS:               ID:20160717012140 L   I
 OLDACT:REG 16-07-17 12:30 OP:lv   STATUS:               ID:20160717011659     3
 2016-07-17-0116-59S.COL___325                                                 6
 STAT SP IPHASW D HRMM SECON CODA AMPLIT PERI AZIMU VELO AIN AR TRES W  DIS CAZ7
 BRR  HZ EP        122  2.09                             155   -0.2810 69.9 314 
 BRR  HE ES        122 19.56                             155   -0.1110 69.9 314 
 BRR  HZ I         122 32.28         3.9 0.47            153           69.9 314 
 RUS  HZ EP        122  4.44                             149    0.3010 88.2 168 
 RUS  HN ES        122 22.90                             149    0.0910 88.2 168 
 RUS  HZ I         122 23.39         1.6 0.23            162           88.2 168 
 PTB  HZ EP        122  6.84                             137    0.0310  134 264 
 PTB  HE ES        122 27.14                             137   -0.4310  134 264 
 PTB  HZ I         122 28.76         1.8 0.15            147            134 264 
 ZAR  HZ EP        122 12.45                             125   -0.38 9  199 297 
 ZAR  HE ES        122 39.15                             125    0.87 9  199 297 
 ZAR  HZ I         122 40.16         3.0 0.08            131            199 297 
                                                                                
