 2013  917 0143  3.9 L   6.815 -73.100152.7  RSN  6 0.5 1.3LRSN                1
 GAP=205        1.17       4.7     8.8 11.6  0.1051E+02 -0.1757E+02 -0.1885E+02E
 Epicentro: LOS SANTOS - SANTANDER                                             3
 ACTION:UPD 13-10-22 09:23 OP:ep   STATUS:               ID:20130917013960dL   I
 OLDACT:DUP 13-09-17 09:28 OP:carl STATUS:               ID:20130917013960dL   3
 2013-09-17-0139-59M.COL___269                                                 6
 STAT SP IPHASW D HRMM SECON CODA AMPLIT PERI AZIMU VELO AIN AR TRES W  DIS CAZ7
 BRR  HZ EP        143 26.50                             152    0.4510 75.0 296 
 BRR  HN ES   1    143 44.07                             152    0.77 7 75.0 296 
 BRR  HZ I         143 51.83         4.5 0.44            155           75.0 296 
 RUS  HZ EP        143 27.98                             145   -0.5010  102 179 
 RUS  HN ES        143 47.36                             145   -0.2610  102 179 
 RUS  HZ I         143 48.55         2.5 0.26            153            102 179 
 PTB  HZ EP        143 31.77                             132   -0.19 9  153 259 
 PTB  HE ES        143 53.43                             132   -0.38 9  153 259 
 PTB  HZ I         143 56.28         2.6 0.32            138            153 259 
 SPBC HN ES        143 56.01                             130   -0.37 9  168 220 
 SML  HZ EP        143 41.15                             119    0.11 8  244 334 
 SML  HN ES        144  9.82                             119   -0.16 8  244 334 
 CHI  HE ES        144 13.43                             118    1.12 8  252 196 
                                                                                
