 2012  717 0710 37.0 L   6.811 -73.152140.2  RSN 10 0.4 2.1LRSN                1
 GAP=135        0.79       3.9     5.0  6.9 -0.3909E+01  0.1392E+02  0.6152E+00E
 Epicentro: LOS SANTOS - SANTANDER                                             3
 ACTION:UPD 12-08-14 11:45 OP:ep   STATUS:               ID:20120717071037 L   I
 2012-07-17-0710-00M.COL___197                                                 6
 STAT SP IPHASW D HRMM SECON CODA AMPLIT PERI AZIMU VELO AIN AR TRES W  DIS CAZ7
 BAR2 SZ EP        710 55.90                             169    -0.110   24 188 
 BAR2 SZ ES   1    711 10.29                             169    -0.5 7   24 188 
 BAR2 SZ I         711 12.32        23.7 0.21            171             24 188 
 BRR  HZ IP     D  710 57.79                             152     0.310   70 298 
 BRR  HZ I         710 58.18        41.3 0.16            149             70 298 
 BRR  HN ES   2    711 14.26                             152     0.8 5   70 298 
 PAM  SZ EP   1    710 58.90                             150     0.3 7   77  40 
 PAM  SN ES   1    711 15.91                             150     0.5 7   77  40 
 RUS  HZ EP   1    711  0.48                             142     0.2 7  102 176 
 RUS  HN ES   2    711 18.31                             142    -0.2 5  102 176 
 PTB  HZ EP   1    711  3.12                             131    -0.4 7  147 258 
 PTB  HE ES   2    711 23.43                             131    -0.7 5  147 258 
 PTB  HZ I         711 28.86         9.4 0.22            131            147 258 
 OCA  HZ EP   1    711  4.24                             128    -0.5 7  159 353 
 OCA  HE ES   1    711 25.75                             128    -0.7 7  159 353 
 OCA  HZ I         711 31.04        21.2 0.26            130            159 353 
 ZAR  HZ EP   2    711  9.14                             121     0.2 4  203 292 
 ZAR  HN ES   2    711 34.60                             121     0.7 4  203 292 
 NOR  SZ EP   1    711 12.75                             117     0.3 6  235 234 
 NOR  SN ES   2    711 39.95                             117    -0.1 4  235 234 
 CHI  HN ES   2    711 43.86                             116     0.1 4  250 195 
 HEL  HZ EP   1    711 16.80                             114    -0.1 6  272 256 
 HEL  HN ES   2    711 48.55                             114     0.5 4  272 256 
