 2010  317 0423 23.6 L   6.841 -73.017141.6  RSN  5 0.2 1.5LRSN                1
 GAP=253        0.36       6.1    10.4  5.4  0.4566E+02 -0.1270E+02 -0.3823E+01E
 Epicentro: CEPITA - SANTANDER                                                 3
 ACTION:UP  10-08-24 09:54 OP:vdl  STATUS:               ID:20100317042323 L   I
 2010-03-17-0420-00S.COL___097                                                 6
 STAT SP IPHASW D HRMM SECON CODA AMPLIT PERI AZIMU VELO SNR AR TRES W  DIS CAZ7
 BAR2 SZ EP        423 43.08                             166     0.110   33 214 
 BAR2 SZ ES   2    423 57.84                             166    -0.3 5   33 214 
 BRR  HZ EP   1    423 45.03                             148     0.0 7   82 291 
 BRR  HE ES   2    424  1.69                             148     0.0 5   82 291 
 BRR  HZ I         424  4.92         6.4 0.16                            82 291 
 RUS  HZ EP   1    423 47.16                             142    -0.1 7  105 184 
 RUS  HE ES   2    424  6.01                             142     0.2 5  105 184 
 RUS  HZ I         424  7.64         2.7 0.28                           105 184 
 CHI  HZ EP   3    424  2.29                             115     0.3 2  257 198 
 PRA  HZ EP   2    424 18.05                             105    -0.3 3  403 211 
 PRA  HZ I         425  2.79         1.5 0.22                           403 211 
                                                                                
