 2014  217 0902 46.0 L   6.776 -73.173148.8  RSN  6 0.3 1.7LRSN                1
 GAP=134        0.69       2.7     3.8  5.2 -0.1060E+01  0.6042E+01 -0.4440E+01E
 Epicentro: LOS SANTOS - SANTANDER                                             3
 ACTION:UPD 14-03-10 08:10 OP:ep   STATUS:               ID:20140217090246 L   I
 OLDACT:UP  14-02-17 11:30 OP:cam  STATUS:               ID:20140217090000     3
 OLDACT:REG 14-02-17 10:21 OP:fm   STATUS:               ID:20140217090000     3
 2014-02-17-0900-00M.COL___212                                                 6
 STAT SP IPHASW D HRMM SECON CODA AMPLIT PERI AZIMU VELO AIN AR TRES W  DIS CAZ7
 BAR2 SZ EP        9 3  5.77                             172   -0.1310 20.4 183 
 BAR2 SZ ES        9 3 21.77                             172    0.3210 20.4 183 
 BAR2 SZ I         9 3 23.53        18.3 0.24            172           20.4 183 
 PAM  SZ EP        9 3  9.12                             150    0.3910 81.3  40 
 PAM  SN ES        9 3 26.04                             150   -0.4510 81.3  40 
 PAM  SZ I         9 3 27.98         6.1 0.54            153           81.3  40 
 RUS  HZ EP        9 3  9.64                             145   -0.2010 98.2 174 
 RUS  HN ES        9 3 28.65                             145    0.1810 98.2 174 
 RUS  HZ I         9 3 29.59         2.7 0.22            149           98.2 174 
 PTB  HZ EP        9 3 12.84                             133   -0.03 9  144 260 
 PTB  HN ES        9 3 33.62                             133   -0.24 9  144 260 
 PTB  HZ I         9 3 39.54         7.8 0.34            134            144 260 
 OCA  HZ EP   1    9 3 14.69                             130   -0.03 7  163 354 
 OCA  HE ES   1    9 3 36.96                             130   -0.19 7  163 354 
 OCA  HZ I         9 3 40.66         4.5 0.16            131            163 354 
 SML  HZ EP        9 3 22.81                             118   -0.07 8  245 336 
 SML  HN ES        9 3 52.11                             118    0.43 8  245 336 
 SML  HZ I         9 3 56.13         5.2 0.22            119            245 336 
 PRA  HZ EP   4    9 3 40.58                             107    1.44 0  388 209 
                                                                                
