 2015  817 0700 22.1 L   6.796 -73.111150.7  RSN  9 0.4 1.9LRSN                1
 GAP=186        0.81       3.1     5.3  6.0  0.2224E+01  0.1084E+02 -0.6065E+00E
 Epicentro: LOS SANTOS - SANTANDER                                             3
 ACTION:UPD 15-09-15 23:02 OP:cam  STATUS:               ID:20150817070022 L   I
 OLDACT:REG 15-08-17 13:35 OP:ar   STATUS:               ID:20150817065749     3
 2015-08-17-0657-49M.COL___328                                                 6
 STAT SP IPHASW D HRMM SECON CODA AMPLIT PERI AZIMU VELO AIN AR TRES W  DIS CAZ7
 BAR2 EZ EP        7 0 42.50                             171    0.1910 23.8 199 
 BAR2 EZ ES        7 0 57.72                             171   -0.3710 23.8 199 
 BAR2 EZ I         7 0 58.93        18.8 0.26            167           23.8 199 
 BRR  HZ IP     C  7 0 44.40                             152    0.4410 74.9 297 
 BRR  HN ES        7 1  1.69                             152    0.6510 74.9 297 
 BRR  HZ I         7 1  2.56        33.7 0.98            147           74.9 297 
 RUS  HZ EP   2    7 0 46.10                             145   -0.16 5 99.9 178 
 RUS  HN ES        7 1  4.78                             145   -0.3510 99.9 178 
 RUS  HZ I         7 1  5.59         5.3 0.46            146           99.9 178 
 OCA  HN ES        7 1 13.11                             130   -0.21 9  161 352 
 OCA  HZ I         7 1 15.81        16.1 0.18            130            161 352 
 SPBC HZ EP        7 0 51.41                             130    0.26 9  165 220 
 SPBC HE ES        7 1 13.81                             130   -0.02 9  165 220 
 SPBC HZ I         7 1 17.12         9.6 0.12            128            165 220 
 ZAR  HZ EP        7 0 55.09                             123   -0.14 8  208 292 
 ZAR  HE ES        7 1 20.71                             123   -0.38 8  208 292 
 ZAR  HZ I         7 1 27.76         5.9 0.50            121            208 292 
 SML  HN ES   2    7 1 27.33                             118   -0.84 4  246 335 
 SML  HZ I         7 1 30.78         9.8 0.10            118            246 335 
 HEL  HZ EP   4    7 1  4.42                             115    1.48 0  276 256 
 HEL  HN ES   2    7 1 34.37                             115   -0.45 4  276 256 
 HEL  HZ I         7 1 40.68         2.6 0.28            114            276 256 
 GUY2CHZ EP   2    7 1  6.05                             113   -0.19 4  304 235 
 GUY2CHN ES   2    7 1 41.05                             113    0.37 4  304 235 
 GUY2CHZ I         7 1 49.01         2.2 0.62                           304 235 
                                                                                
