 2011  317 0352 54.7 L   6.808 -73.101144.5  RSN  8 0.3 1.8LRSN                1
 GAP=163        0.58       3.1     6.4  4.9 -0.1070E+02  0.8312E+01 -0.2687E+01E
 Epicentro: LOS SANTOS - SANTANDER                                             3
 ACTION:UP  11-06-16 14:34 OP:jfem STATUS:               ID:20110317035254 L   I
 2011-03-17-0350-02S.COL___138                                                 6
 STAT SP IPHASW D HRMM SECON CODA AMPLIT PERI AZIMU VELO SNR AR TRES W  DIS CAZ7
 BTL  SZ EP        353 14.30                             171     0.110   22 304 
 BTL  SZ ES   2    353 29.91                             171     0.6 5   22 304 
 BAR2 SZ EP   1    353 14.17                             170    -0.1 7   26 201 
 BAR2 SZ ES   1    353 29.26                             170    -0.2 7   26 201 
 BAR2 SZ I         353 30.34        22.8 0.34                            26 201 
 GIR2 SZ EP        353 14.24                             167     0.010   32 341 
 GIR2 SZ ES   3    353 28.37                             167    -1.1 2   32 341 
 RUS  HZ EP   1    353 18.22                             143    -0.2 7  101 179 
 RUS  HE ES   1    353 37.01                             143     0.1 7  101 179 
 RUS  HZ I         353 37.75        10.4 0.19                           101 179 
 GRA  SZ EP        353 19.93                             137     0.310  124  15 
 GRA  SZ ES   2    353 38.66                             137    -0.5 5  124  15 
 GRA  SZ I         353 42.54         7.4 0.31                           124  15 
 OCA  SZ EP   1    353 22.94                             129     0.0 7  160 351 
 OCA  SZ I         353 52.81         8.9 0.43                           160 351 
 NOR  SZ EP   1    353 30.40                             118    -0.5 6  239 235 
 NOR  SN ES   1    353 59.35                             118     0.3 6  239 235 
 CHI  HZ EP   1    353 32.40                             117    -0.2 6  251 196 
 CHI  HE ES   1    354  2.18                             117     0.1 6  251 196 
 CHI  HZ I         354  4.07         4.3 0.31                           251 196 
                                                                                
