 2011 1017 0431  4.7 L   6.754 -73.108145.6  RSN  4 0.1 1.5LRSN                1
 GAP=144        0.29       2.2     4.0  4.3 -0.1897E+01  0.8836E+00  0.7529E+00E
 Epicentro: LOS SANTOS - SANTANDER                                             3
 ACTION:UPD 12-07-13 16:04 OP:ep   STATUS:               ID:20111017043104 L   I
 2011-10-17-0428-36S.COL___168                                                 6
 STAT SP IPHASW D HRMM SECON CODA AMPLIT PERI AZIMU VELO AIN AR TRES W  DIS CAZ7
 BAR2 SZ EP   2    431 24.21                             172    0.02 5 19.7 205 
 BAR2 SZ I         431 40.08        11.0 0.24                          19.7 205 
 BRR  HZ EP   2    431 26.11                             150   -0.03 5 77.3 300 
 BRR  HN ES   2    431 42.91                             150    0.01 5 77.3 300 
 BRR  HZ I         431 44.45         7.9 0.15                          77.3 300 
 PAM  SZ EP   1    431 27.03                             150    0.09 7 78.9  35 
 PAM  SN ES   1    431 44.27                             150   -0.05 7 78.9  35 
 PAM  SZ I         431 46.36         3.7 0.37                          78.9  35 
 RUS  HZ EP   1    431 27.93                             145   -0.08 7 95.3 178 
 RUS  HN ES   1    431 46.27                             145    0.04 7 95.3 178 
 RUS  HZ I         431 48.42         3.2 0.29                          95.3 178 
                                                                                
