 2012  517 0243 10.0 L   6.458 -73.470114.3  RSN  4 0.3 1.4LRSN                1
 GAP=129        0.73       7.6     5.4  9.4  0.1494E+02  0.1587E+02 -0.4831E+01E
 Epicentro: SIMACOTA - SANTANDER                                               3
 ACTION:UP  12-07-05 12:05 OP:pat  STATUS:               ID:20120517024310 L   I
 2012-05-17-0240-00M.COL___197                                                 6
 STAT SP IPHASW D HRMM SECON CODA AMPLIT PERI AZIMU VELO SNR AR TRES W  DIS CAZ7
 BAR2 SZ EP   1    243 26.20                             162     0.0 7   35  65 
 BAR2 SZ ES   1    243 38.56                             162    -0.3 7   35  65 
 BAR2 SZ I         243 41.06         8.1 0.21                            35  65 
 RUS  HZ EP   1    243 28.61                             144    -0.2 7   76 146 
 RUS  HN ES   1    243 43.87                             144     0.3 7   76 146 
 RUS  HZ I         243 44.10         3.3 0.24                            76 146 
 BRR  HZ EP   1    243 28.66                             144     0.5 7   77 340 
 BRR  HZ I         243 28.78        10.9 0.13                            77 340 
 PTB  HZ EP   1    243 30.58                             133    -0.3 7  109 275 
 PTB  HN ES   1    243 47.30                             133     0.1 7  109 275 
 PTB  HZ I         243 51.99         3.3 0.09                           109 275 
                                                                                
