 2015  417 0633 42.4 L   6.734 -73.238151.2  RSN  5 0.2 1.1LRSN                1
 GAP=180        0.63       4.6     4.9  6.1  0.7744E+01 -0.4088E+01 -0.1172E+02E
 Epicentro: ZAPATOCA - SANTANDER                                               3
 ACTION:UPD 15-06-03 16:55 OP:cam  STATUS:               ID:20150417063342 L   I
 OLDACT:DUP 15-04-17 16:53 OP:stll STATUS:               ID:20150417062750d    3
 OLDACT:REG 15-04-17 13:10 OP:spq  STATUS:               ID:20150417062749     3
 2015-04-17-0627-49M.COL___275                                                 6
 STAT SP IPHASW D HRMM SECON CODA AMPLIT PERI AZIMU VELO AIN AR TRES W  DIS CAZ7
 BAR2 EZ EP        634  2.51                             173   -0.1210 16.8 159 
 BRR  HZ EP        634  4.14                             155    0.1910 66.7 308 
 BRR  HZ I         634  4.25         1.9 0.16            155           66.7 308 
 BRR  HN ES        634 20.87                             155    0.1510 66.7 308 
 RUS  HN ES        634 24.89                             147   -0.0710 94.6 170 
 RUS  HZ I         634 26.35         1.8 0.28            146           94.6 170 
 PTB  HZ EP        634  9.24                             136    0.36 9  136 261 
 PTB  HN ES        634 29.20                             136   -0.30 9  136 261 
 PTB  HZ I         634 31.89         1.9 0.64            134            136 261 
 SML  HZ EP        634 19.33                             118   -0.34 8  246 338 
                                                                                
