 2017  217 0218 11.3 L   6.718 -73.187147.0  RSN  4 0.1 1.1LRSN                1
 GAP=226        0.32       2.6     2.6  3.2  0.4586E+01 -0.1952E-01 -0.5626E+00E
 Epicentro: VILLANUEVA - SANTANDER                                             3
 ACTION:UPD 17-05-24 15:37 OP:jn   STATUS:               ID:20170217021811 L   I
 OLDACT:REG 17-02-17 13:01 OP:cog  STATUS:               ID:20170217020750     3
 2017-02-17-0208-00M.COL___355                                                 6
 STAT SP IPHASW D HRMM SECON CODA AMPLIT PERI AZIMU VELO AIN AR TRES W  DIS CAZ7
 BRR  HZ EP        218 32.55                             152   -0.0710 72.3 307 
 BRR  HN ES        218 49.26                             152   -0.0110 72.3 307 
 BRR  HZ I         218 51.62         2.9 0.31            152           72.3 307 
 RUS  HZ EP        218 34.52                             147   -0.0310 91.9 173 
 RUS  HE ES        218 52.76                             147    0.0610 91.9 173 
 RUS  HZ I         218 53.90         1.6 0.38            147           91.9 173 
 PTB  HZ EP        218 37.86                             134    0.05 9  142 262 
 PTB  HN ES        218 58.40                             134   -0.10 9  142 262 
 PTB  HZ I         219  3.08         1.4 0.22            133            142 262 
 ZAR  HN ES        219  9.19                             123    0.12 9  204 295 
                                                                                
