 2013  317 0455  0.7 L   6.817 -73.162147.1  RSN 15 0.5 2.4LRSN                1
 GAP= 70        0.88       3.0     3.2  5.6 -0.4865E+00  0.3590E+01  0.6542E+00E
 Epicentro: LOS SANTOS - SANTANDER                                             3
 ACTION:UPD 13-04-09 14:03 OP:ep   STATUS:               ID:20130317045500 L   I
 2013-03-17-0450-00M.COL___244                                                 6
 STAT SP IPHASW D HRMM SECON CODA AMPLIT PERI AZIMU VELO AIN AR TRES W  DIS CAZ7
 BAR2 SZ EP        455 20.52                             170   -0.0110 24.9 185 
 BAR2 SZ ES   1    455 35.43                             170   -0.56 7 24.9 185 
 BAR2 SZ I         455 38.30        80.3 0.24            167           24.9 185 
 BRR  HZ IP     C  455 22.37                             154    0.5110 68.7 298 
 BRR  HN ES   1    455 39.40                             154    1.04 7 68.7 298 
 BRR  HZ I         455 42.87        50.6 0.12            152           68.7 298 
 PAM  SZ IP     D  455 23.20                             151    0.1510 77.2  41 
 PAM  SN ES   1    455 40.49                             151    0.01 7 77.2  41 
 PAM  SZ I         455 42.52        48.8 0.56            158           77.2  41 
 RUS  HZ EP        455 24.53                             144   -0.2010  103 175 
 RUS  HN ES   1    455 43.45                             144   -0.02 7  103 175 
 RUS  HZ I         455 44.93        24.0 0.44            145            103 175 
 PTB  HZ EP     C  455 27.12                             133   -0.53 9  146 258 
 PTB  HN ES   1    455 48.28                             133   -0.39 7  146 258 
 PTB  HZ I         455 54.04        26.3 0.16            132            146 258 
 TAM  HZ IP     D  455 28.73                             130    0.03 9  157 105 
 OCA  HZ EP   1    455 28.61                             130   -0.32 7  158 354 
 OCA  HN ES   1    455 50.37                             130   -0.57 7  158 354 
 OCA  HZ I         455 55.36        28.2 0.48            134            158 354 
 ZAR  HZ EP        455 33.18                             123    0.19 9  202 292 
 ZAR  HN ES   1    455 58.88                             123    0.71 6  202 292 
 ZAR  HZ I         456  4.81        35.9 0.36            124            202 292 
 NOR  HZ EP   1    455 36.56                             119    0.09 6  234 234 
 NOR  HN ES   1    456  3.97                             119   -0.39 6  234 234 
 NOR  HZ I         456  9.93        21.5 0.40            120            234 234 
 SML  HN ES   2    456  5.45                             118   -0.11 4  241 336 
 ROSC BZ EP   2    455 39.37                             117    0.40 4  253 210 
 ROSC BN ES   1    456  8.98                             117    0.17 6  253 210 
 ROSC BZ I         456 18.67        18.6 0.30            118            253 210 
 HEL  HZ EP   1    455 41.12                             115    0.28 6  271 255 
 HEL  HN ES   1    456 12.73                             115    0.59 6  271 255 
 HEL  HZ I         456 19.96        15.7 0.26            116            271 255 
 URE  HZ EP   2    455 41.25                             114   -0.32 4  281 292 
 URE  HN ES        456 12.39                             114   -1.06 7  281 292 
 COD  HZ EP   2    455 48.92                             109    0.02 3  346 355 
 COD  HN ES   1    456 27.06                             109    0.56 5  346 355 
 PRA  HZ EP   1    455 54.63                             107    0.27 4  393 209 
 PRA  HN ES   1    456 36.68                             107    0.48 4  393 209 
 PRA  HZ I         456 44.90         8.4 0.42            108            393 209 
 SJC  HN ES   4    456 34.81                             106   -4.34 0  407 327 
                                                                                
