 2014 1217 0222 39.7 L   6.818 -73.161145.0  RSN 13 0.4 1.9LRSN                1
 GAP= 70        0.86       2.5     2.8  4.9 -0.4183E+00  0.1301E+01  0.9342E+00E
 Epicentro: LOS SANTOS - SANTANDER                                             3
 ACTION:UPD 15-02-10 17:04 OP:nd   STATUS:               ID:20141217022239 L   I
 OLDACT:REG 14-12-17 12:22 OP:spq  STATUS:               ID:20141217021745     3
 2014-12-17-0217-45M.COL___293                                                 6
 STAT SP IPHASW D HRMM SECON CODA AMPLIT PERI AZIMU VELO AIN AR TRES W  DIS CAZ7
 BAR2 EZ EP        222 59.31                             170    0.0310 25.1 185 
 BAR2 EZ ES   1    223 13.78                             170   -0.77 7 25.1 185 
 BAR2 EZ I         223 15.35        30.9 0.28            170           25.1 185 
 BRR  HZ EP        223  1.10                             153    0.4710 68.8 298 
 BRR  HN ES        223 17.47                             153    0.5110 68.8 298 
 BRR  HZ I         223 21.22        24.6 0.46            152           68.8 298 
 PAM  SZ EP        223  2.28                             151    0.4710 77.0  41 
 PAM  SE ES        223 19.04                             151   -0.0210 77.0  41 
 PAM  SZ I         223 21.37        27.9 0.52            153           77.0  41 
 RUS  HZ EP        223  3.32                             143   -0.2110  103 175 
 RUS  HN ES   1    223 22.26                             143    0.14 7  103 175 
 RUS  HZ I         223 23.13         7.2 0.24            145            103 175 
 PTB  HZ EP        223  6.09                             132   -0.41 9  147 258 
 PTB  HN ES        223 26.97                             132   -0.42 9  147 258 
 PTB  HZ I         223 32.62         8.9 0.30            132            147 258 
 TAM  HZ EP     C  223  7.71                             130    0.19 9  157 106 
 TAM  HN ES   1    223 28.87                             130   -0.34 7  157 106 
 TAM  HZ I         223 34.00         4.7 0.37            133            157 106 
 OCA  HZ EP        223  7.31                             130   -0.44 9  158 354 
 OCA  HN ES        223 29.66                             130    0.03 9  158 354 
 OCA  HZ I         223 33.84         8.7 0.22            131            158 354 
 SPBC HZ EP        223  8.60                             129    0.41 9  164 218 
 SPBC HN ES        223 30.65                             129    0.24 9  164 218 
 SPBC HZ I         223 34.19         7.7 0.10            130            164 218 
 ZAR  HZ EP        223 12.31                             122    0.45 9  202 292 
 ZAR  HE ES        223 36.82                             122   -0.13 9  202 292 
 ZAR  HZ I         223 46.23         8.0 0.12            123            202 292 
 NOR  HZ EP   1    223 15.23                             118   -0.14 6  235 234 
 NOR  HE ES   1    223 43.38                             118    0.20 6  235 234 
 NOR  HZ I         223 50.74         4.0 0.38            119            235 234 
 SML  HZ EP   1    223 15.44                             118   -0.57 6  241 335 
 SML  HE ES   1    223 43.81                             118   -0.53 6  241 335 
 SML  HZ I         223 48.99        11.8 0.22            119            241 335 
 CHI  HZ EP   1    223 17.32                             117   -0.20 6  250 195 
 CHI  HN ES   1    223 46.55                             117   -0.47 6  250 195 
 CHI  HZ I         223 50.71         5.2 0.40            118            250 195 
 SJC  HZ EP   4    223 33.58                             106   -1.36 0  407 327 
 SJC  HN ES   4    224 14.72                             106   -3.30 0  407 327 
 SJC  HZ I         224 21.63         2.0 0.62            107            407 327 
                                                                                
