 2012 1217 0252 37.6 L   6.755 -73.145149.9  RSN  7 0.3 2.0LRSN                1
 GAP= 95        0.78       4.6     3.2  6.9  0.6411E+00 -0.5439E+00  0.6992E+01E
 Epicentro: LOS SANTOS - SANTANDER                                             3
 ACTION:UPD 13-01-04 14:28 OP:ep   STATUS:               ID:20121217025237 L   I
 2012-12-17-0250-00M.COL___238                                                 6
 STAT SP IPHASW D HRMM SECON CODA AMPLIT PERI AZIMU VELO AIN AR TRES W  DIS CAZ7
 BAR2 SZ EP        252 57.64                             173    0.0310 18.5 193 
 BAR2 SZ I         252 57.81        25.7 0.17                          18.5 193 
 BRR  HZ IP     C  252 59.51                             152    0.2010 73.8 302 
 BRR  HZ I         252 59.78        14.9 0.16                          73.8 302 
 BRR  HE ES   1    253 16.97                             152    0.70 7 73.8 302 
 PAM  SZ EP        253  0.41                             150   -0.0410 81.2  37 
 PAM  SZ I         253  0.66        17.7 0.17                          81.2  37 
 PAM  SE ES        253 17.87                             150   -0.4310 81.2  37 
 RUS  HZ EP        253  1.49                             146    0.1110 95.6 176 
 RUS  HN ES   1    253 19.94                             146   -0.02 7 95.6 176 
 RUS  HN I         253 20.82        12.2 0.28                          95.6 176 
 PTB  HZ EP        253  4.28                             133   -0.53 9  147 261 
 PTB  HN ES        253 25.90                             133   -0.16 9  147 261 
 PTB  HZ I         253 27.80        11.1 0.16                           147 261 
 TAM  HZ EP        253  5.79                             132    0.34 9  154 103 
 ZAR  HE ES        253 36.25                             123    0.08 8  206 293 
 ZAR  HZ I         253 42.70        13.2 0.32                           206 293 
                                                                                
