 2010 1117 0453 14.8 L   6.784 -73.104145.3  RSN  9 0.4 2.0LRSN                1
 GAP=163        0.80       3.6     6.4  6.6 -0.5931E+01  0.8198E+01 -0.4847E+00E
 Epicentro: LOS SANTOS - SANTANDER                                             3
 ACTION:UP  10-12-17 16:53 OP:REBC STATUS:               ID:20101117045314 L   I
 2010-11-17-0449-30S.COL___128                                                 6
 STAT SP IPHASW D HRMM SECON CODA AMPLIT PERI AZIMU VELO SNR AR TRES W  DIS CAZ7
 BAR2 SZ IP        453 34.41                             171     0.010   23 202 
 BAR2 SZ I         453 34.67        18.5 0.19                            23 202 
 BAR2 SZ ES   1    453 50.02                             171     0.4 7   23 202 
 BRR  HZ IP     D  453 36.43                             151     0.210   76 298 
 BRR  HZ I         453 36.85        27.6 0.16                            76 298 
 BRR  HN ES   1    453 53.08                             151     0.2 7   76 298 
 RUS  HZ EP   1    453 38.13                             144    -0.3 7   99 179 
 RUS  HZ I         453 39.07         5.9 0.23                            99 179 
 RUS  HN ES   1    453 56.41                             144    -0.3 7   99 179 
 GRA  SZ EP   1    453 40.48                             137     0.4 7  126  15 
 GRA  SZ ES   1    453 59.58                             137    -0.2 7  126  15 
 GRA  SZ I         454  1.15        14.3 0.37                           126  15 
 OCA  SZ EP   1    453 43.44                             129     0.1 7  163 352 
 OCA  SZ ES   1    454  4.86                             129    -0.7 7  163 352 
 OCA  SZ I         454  8.73        10.4 0.49                           163 352 
 NOR  SZ EP   2    453 50.21                             118    -0.6 4  238 236 
 NOR  SE ES   2    454 18.14                             118    -0.8 4  238 236 
 HEL  HZ EP   2    453 54.67                             114    -0.8 4  276 256 
 HEL  HN ES   2    454 27.52                             114     0.4 4  276 256 
 HEL  HZ I         454 33.16         6.2 0.42                           276 256 
 RREF HZ EP   2    454  1.89                             111     0.7 3  324 230 
 RREF HZ I         454 45.66         4.1 0.48                           324 230 
 PRA  HZ EP   2    454  8.56                             106     0.1 3  393 210 
 PRA  HE ES   2    454 50.99                             106     0.8 3  393 210 
 PRA  HZ I         454 55.90         7.8 0.32                           393 210 
                                                                                
