 2014  617 0248  7.8 L   7.514 -73.160147.4  RSN  8 0.4 1.8LRSN                1
 GAP=190        0.77       3.7     6.7  7.1 -0.1593E+01 -0.1195E+02  0.7692E+01E
 Epicentro: EL PLAYON - SANTANDER                                              3
 ACTION:UPD 14-07-01 22:54 OP:nd   STATUS:               ID:20140617024807 L   I
 OLDACT:REG 14-06-17 13:12 OP:mh   STATUS:               ID:20140617023816     3
 2014-06-17-0238-16M.COL___259                                                 6
 STAT SP IPHASW D HRMM SECON CODA AMPLIT PERI AZIMU VELO AIN AR TRES W  DIS CAZ7
 BRR  HZ EP        248 29.73                             151    0.3310 75.8 234 
 BRR  HN ES        248 46.03                             151   -0.2110 75.8 234 
 BRR  HZ I         248 49.23         6.9 0.15            148           75.8 234 
 OCA  HN ES   1    248 47.68                             149    0.37 7 82.0 348 
 SML  HZ EP   1    248 37.58                             127    0.21 7  174 325 
 SML  HN ES   1    248 59.95                             127   -0.46 7  174 325 
 PTB  HZ EP        248 37.73                             127   -0.16 9  179 233 
 PTB  HN ES   1    249  1.06                             127   -0.28 7  179 233 
 PTB  HZ I         249  4.03         6.4 0.27            125            179 233 
 RUS  HZ EP        248 38.02                             127   -0.53 9  180 177 
 RUS  HN ES   4    248 59.38                             127   -3.13 0  180 177 
 ZAR  HN ES   1    249  2.85                             125    0.09 7  187 269 
 SPBC HZ EP   1    248 43.48                             119    0.37 6  229 206 
 SPBC HN ES   1    249 11.35                             119    0.71 6  229 206 
 SPBC HZ I         249 18.39         5.2 0.19            118            229 206 
 NOR  HN ES   4    249 25.19                             114    3.45 0  287 221 
 PRA  HZ EP   4    249 11.02                             104    1.42 0  462 205 
 PRA  HN ES   4    250  0.22                             104    2.44 0  462 205 
 PRA  HZ I         250  7.19         2.4 0.34            104            462 205 
                                                                                
