 2010  317 0811 21.9 L   6.838 -73.007138.0  RSN 10 0.5 2.1LRSN                1
 GAP=135        0.90       3.9     7.6  7.0 -0.3856E+01 -0.8210E+01  0.1407E+01E
 Epicentro: CEPITA - SANTANDER                                                 3
 ACTION:UP  10-08-24 09:54 OP:vdl  STATUS:               ID:20100317081121 L   I
 2010-03-17-0809-27S.COL___098                                                 6
 STAT SP IPHASW D HRMM SECON CODA AMPLIT PERI AZIMU VELO SNR AR TRES W  DIS CAZ7
 BAR2 SZ EP        811 40.99                             166     0.210   34 216 
 BAR2 SZ ES   2    811 54.88                             166    -0.7 5   34 216 
 BRR  HZ EP        811 42.76                             147    -0.210   83 291 
 BRR  HE ES   1    811 59.84                             147     0.5 7   83 291 
 BRR  HZ I         812  2.88        25.4 0.15                            83 291 
 RUS  HZ EP   1    811 45.08                             141    -0.1 7  105 185 
 RUS  HE ES   1    812  3.87                             141     0.5 7  105 185 
 RUS  HZ I         812  5.31         7.5 0.26                           105 185 
 OCA  SZ EP        811 49.20                             128    -0.2 9  159 347 
 OCA  SZ ES   1    812 10.63                             128    -0.3 7  159 347 
 CHI  HZ EP   1    811 59.60                             115    -0.5 6  257 198 
 CHI  HE ES   2    812 28.97                             115    -0.9 4  257 198 
 CHI  HZ I         812 36.37         4.6 0.53                           257 198 
 HEL  HZ EP   1    812  4.29                             112     0.8 5  288 256 
 HEL  HZ I         812 40.53         6.6 0.61                           288 256 
 RREF BZ EP   1    812  9.52                             109     0.2 5  336 231 
 RREF BZ I         812 53.71         5.8 0.45                           336 231 
 SDV  BZ EP        812 10.46                             108     0.5 6  346  49 
 TOL  SZ EP   1    812 11.33                             107    -0.1 5  357 226 
 PRA  HZ EP   1    812 15.52                             105    -0.9 4  403 211 
 PRA  HE ES   2    812 59.77                             105     0.7 3  403 211 
 PRA  HZ I         813  3.85         7.7 0.36                           403 211 
                                                                                
