 2012  517 0324  8.0 L   6.791 -73.083145.3  RSN 10 0.4 2.1LRSN                1
 GAP=145        0.92       4.6     6.4  7.4  0.1686E+01  0.1428E+02  0.1714E+01E
 Epicentro: LOS SANTOS - SANTANDER                                             3
 ACTION:UP  12-07-05 12:05 OP:pat  STATUS:               ID:20120517032408 L   I
 2012-05-17-0320-00M.COL___197                                                 6
 STAT SP IPHASW D HRMM SECON CODA AMPLIT PERI AZIMU VELO SNR AR TRES W  DIS CAZ7
 BAR2 SZ EP   1    324 27.67                             170     0.1 7   25 207 
 BAR2 SZ ES   1    324 42.57                             170    -0.3 7   25 207 
 BAR2 SZ I         324 43.91        28.6 0.29                            25 207 
 PAM  SZ EP   1    324 30.55                             152     0.6 7   74  35 
 PAM  SZ I         324 30.80        35.2 0.15                            74  35 
 PAM  SN ES   1    324 47.40                             152     0.3 7   74  35 
 BRR  HZ EP        324 29.59                             150     0.110   78 297 
 BRR  HE ES   1    324 46.41                             150     0.2 7   78 297 
 BRR  HZ I         324 51.09        55.5 0.16                            78 297 
 RUS  HZ EP   1    324 31.39                             144    -0.2 7   99 180 
 RUS  HN ES   1    324 50.03                             144     0.0 7   99 180 
 RUS  HZ I         324 51.21        11.7 0.38                            99 180 
 PTB  HZ EP   1    324 34.76                             131    -0.8 7  154 260 
 PTB  HZ I         324 58.27        10.6 0.10                           154 260 
 OCA  HZ EP   1    324 36.21                             129    -0.2 7  162 351 
 OCA  HE ES   1    324 57.92                             129    -0.7 7  162 351 
 ZAR  HN ES   1    325  7.47                             121     0.5 6  211 292 
 ZAR  HZ I         325 12.20        15.4 0.31                           211 292 
 CHI  HZ EP   3    324 46.09                             117     0.3 2  250 197 
 CHI  HZ I         325 25.34         3.4 0.35                           250 197 
 HEL  HZ EP   1    324 49.40                             114     0.5 6  279 256 
 HEL  HZ I         325 28.40         5.0 0.25                           279 256 
 PRA  HZ EP   1    325  1.83                             106     0.0 4  395 211 
                                                                                
