 2017 1217 0218 42.2 L   6.797 -73.178131.8  RSN  9 0.5 1.7LRSN                1
 GAP=140        1.18       4.3     5.5  7.7 -0.8846E+01  0.1772E+02 -0.2806E+01E
 Epicentro: LOS SANTOS - SANTANDER                                             3
 ACTION:UPD 18-01-04 13:21 OP:rebc STATUS:               ID:20171217021842 L   I
 OLDACT:UP  17-12-17 14:41 OP:edw  STATUS:               ID:20171217021737d    3
 OLDACT:UP  17-12-17 14:41 OP:edw  STATUS:               ID:20171217021737d    3
 OLDACT:DUP 17-12-17 14:33 OP:edw  STATUS:               ID:20171217021737d    3
 OLDACT:UP  17-12-17 14:31 OP:edw  STATUS:               ID:20171217021736d    3
 OLDACT:DUP 17-12-17 14:21 OP:edw  STATUS:               ID:20171217021736d    3
 2017-12-17-0218-00M.COL___467                                                 6
 STAT SP IPHASW D HRMM SECON CODA AMPLIT PERI AZIMU VELO AIN AR TRES W  DIS CAZ7
 BAR2 HZ EP        219  0.15                             170    0.0410 22.7 181 
 BAR2 HZ ES        219 14.84                             170    0.7410 22.7 181 
 BAR2 HZ I         219 17.94        13.6 0.30            168           22.7 181 
 PAM  EZ EP        219  3.18                             147    0.0910 79.9  41 
 PAM  EE ES        219 18.95                             147   -0.4410 79.9  41 
 PAM  EZ I         219 22.51         9.1 0.24            154           79.9  41 
 PTB  HZ EP        219  7.05                             129   -0.65 9  144 259 
 PTB  HN ES        219 27.46                             129   -0.15 9  144 259 
 PTB  HZ I         219 32.51         3.5 0.40            130            144 259 
 OCA  HZ EP        219  9.83                             126    0.40 9  160 354 
 OCA  HN ES        219 30.21                             126   -0.47 9  160 354 
 SPBC HZ EP        219  9.23                             126   -0.17 9  161 218 
 SPBC HN ES        219 30.15                             126   -0.48 9  161 218 
 SPBC HZ I         219 38.32        14.5 0.24            128            161 218 
 ZAR  HZ EP        219 14.19                             119    0.78 9  201 293 
 ZAR  HE ES        219 38.09                             119    0.32 9  201 293 
 URE  HZ EP        219 21.66                             111   -0.58 7  281 292 
 URE  HN ES   4    219 57.09                             111    3.60 0  281 292 
 URE  HZ I         220  3.79         2.7 0.42            113            281 292 
 GUY2CHZ EP        219 25.72                             110    0.90 7  298 234 
 GUY2CHE ES   4    219 59.85                             110    1.76 0  298 234 
 GUY2CHZ I         220  7.63         2.6 0.38                           298 234 
 PRA  HZ EP   4    219 33.52                             104   -1.49 0  390 209 
 PRA  HN ES        220 15.97                             104   -0.25 6  390 209 
 PRA  HZ I         220 22.18         2.6 0.36            107            390 209 
                                                                                
