 2010  417 0855  6.1 L   6.784 -72.962145.5  RSN  4 0.3 2.1LRSN                1
 GAP=279        0.56       6.0     7.1  8.2 -0.8483E+01 -0.9026E+01  0.2803E+02E
 Epicentro: CEPITA - SANTANDER                                                 3
 ACTION:UPD 10-08-24 09:59 OP:vdl  STATUS:               ID:20100417085519 L   I
 2010-04-17-0850-46S.COL___100                                                 6
 STAT SP IPHASW D HRMM SECON CODA AMPLIT PERI AZIMU VELO AIN AR TRES W  DIS CAZ7
 BAR2 SZ EP        855 26.06                             167     0.110   32 229 
 BAR2 SZ ES   2    855 41.54                             167     0.1 5   32 229 
 BRR  HZ IP     C  855 28.40                             146     0.010   90 293 
 BRR  HZ I         855 28.66        27.0 0.15                            90 293 
 BRR  HN ES        855 45.77                             146    -0.110   90 293 
 RREF BN ES   1    856 31.69                             110     0.5 5  336 232 
 RREF BZ I         856 37.72         3.5 0.83                           336 232 
 PRA  HE ES   1    856 42.62                             106    -0.6 4  401 212 
 PRA  HZ I         856 47.99         2.8 0.99                           401 212 
                                                                                
