 2016  317 0653 33.3 L   6.845 -73.162143.7  RSN  8 0.5 1.3LRSN                1
 GAP=132        1.13       3.7     5.1  7.5 -0.3069E+01  0.1294E+02 -0.2053E+01E
 Epicentro: LOS SANTOS - SANTANDER                                             3
 ACTION:UPD 16-05-13 21:24 OP:cam  STATUS:               ID:20160317065333 L   I
 OLDACT:UP  16-03-17 18:23 OP:mh   STATUS:               ID:20160317064750d    3
 OLDACT:UP  16-03-17 18:22 OP:mh   STATUS:               ID:20160317064750d    3
 OLDACT:UP  16-03-17 18:22 OP:mh   STATUS:               ID:20160317064750d    3
 OLDACT:DUP 16-03-17 17:59 OP:mh   STATUS:               ID:20160317064750d    3
 2016-03-17-0647-49M.COL___297                                                 6
 STAT SP IPHASW D HRMM SECON CODA AMPLIT PERI AZIMU VELO AIN AR TRES W  DIS CAZ7
 BAR2 EZ ES        654  7.73                             168   -0.2110 28.0 185 
 BAR2 EZ I         654 11.16         5.7 0.39            169           28.0 185 
 PAM  EZ EP        653 55.51                             151    0.4110 74.9  43 
 PAM  EN ES        654 12.41                             151    0.2710 74.9  43 
 PAM  EZ I         654 14.68         4.0 0.42            155           74.9  43 
 RUS  HZ EP   1    653 56.90                             142   -0.28 7  106 175 
 RUS  HE ES     C  654 15.71                             142   -0.1310  106 175 
 RUS  HZ I         654 17.51         1.2 0.30            145            106 175 
 PTB  HZ EP        653 59.66                             132   -0.33 9  147 257 
 PTB  HN ES        654 20.16                             132   -0.67 9  147 257 
 PTB  HZ I         654 24.54         2.6 0.30            133            147 257 
 OCA  HZ EP        654  0.07                             130   -0.85 9  155 354 
 OCA  HN ES   1    654 22.64                             130    0.14 7  155 354 
 OCA  HZ I         654 26.01         5.9 0.14            132            155 354 
 SPBC HZ EP        654  1.75                             128   -0.11 9  166 217 
 SPBC HN ES        654 24.44                             128    0.27 9  166 217 
 SPBC HZ I         654 26.44         2.3 0.36            130            166 217 
 ZAR  HZ EP        654  6.03                             122    0.83 9  201 291 
 ZAR  HN ES        654 30.57                             122    0.45 9  201 291 
 ZAR  HZ I         654 35.92         2.3 0.42            124            201 291 
 CHI  HZ EP   1    654 10.80                             116   -0.51 6  253 194 
 CHI  HN ES        654 41.70                             116    0.71 8  253 194 
 CHI  HZ I         654 46.91         0.9 0.46            118            253 194 
                                                                                
