 2017  517 0324  2.7 L   6.711 -73.107145.1  RSN  5 0.2 1.6LRSN                1
 GAP=204        0.53       4.9     3.1  5.9 -0.6462E+01  0.1157E+01  0.1395E+02E
 Epicentro: JORDAN - SANTANDER                                                 3
 ACTION:UPD 17-06-16 13:36 OP:jn   STATUS:               ID:20170517032402 L   I
 OLDACT:UP  17-05-17 14:57 OP:dnl  STATUS:               ID:20170517031743     3
 OLDACT:REG 17-05-17 13:30 OP:dnl  STATUS:               ID:20170517031743     3
 2017-05-17-0318-00M.COL___350                                                 6
 STAT SP IPHASW D HRMM SECON CODA AMPLIT PERI AZIMU VELO AIN AR TRES W  DIS CAZ7
 BRR  HZ EP        324 24.32                             150    0.0810 79.9 303 
 BRR  HN ES        324 41.34                             150    0.2510 79.9 303 
 BRR  HZ I         324 46.55        13.1 0.32            148           79.9 303 
 PAM  EZ EP        324 25.41                             149    0.2810 82.9  33 
 PAM  EN ES        324 42.36                             149   -0.3110 82.9  33 
 PAM  EZ I         324 44.86         5.0 0.66            151           82.9  33 
 PTB  HZ EP        324 29.60                             131   -0.20 9  150 263 
 PTB  HN ES   4    324 49.27                             131   -1.71 0  150 263 
 PTB  HZ I         324 51.76         3.3 0.46            133            150 263 
 ZAR  HZ EP   2    324 35.68                             121   -0.18 4  212 294 
 ZAR  HN ES        325  1.65                             121   -0.12 8  212 294 
 ZAR  HZ I         325  6.80         4.8 0.30            123            212 294 
 NOR  HZ EP   2    324 38.24                             119    0.12 4  233 237 
 NOR  HE ES        325  5.74                             119   -0.05 8  233 237 
 NOR  HZ I         325  8.13         2.6 0.14            121            233 237 
                                                                                
