 2015  717 0749 36.2 L   7.428 -73.209128.9  RSN  4 0.1 1.3LRSN                1
 GAP=108        0.37       1.7     2.0  3.5  0.5742E+00  0.3528E+01  0.2826E+00E
 Epicentro: EL PLAYON - SANTANDER                                              3
 ACTION:UPD 15-09-08 21:49 OP:cam  STATUS:               ID:20150717074936 L   I
 OLDACT:REG 15-07-17 15:11 OP:ak   STATUS:               ID:20150717074749     3
 2015-07-17-0747-49M.COL___337                                                 6
 STAT SP IPHASW D HRMM SECON CODA AMPLIT PERI AZIMU VELO AIN AR TRES W  DIS CAZ7
 PAM  EZ EP        749 55.57                             155    0.1110 57.1 100 
 PAM  EE ES        750 10.29                             155   -0.1810 57.1 100 
 PAM  EZ I         750 12.94         3.3 0.20            159           57.1 100 
 OCA  HZ EP        749 57.12                             143    0.0310 90.4 352 
 OCA  HN ES        750 13.44                             143    0.0610 90.4 352 
 OCA  HZ I         750 16.01         5.1 0.06            145           90.4 352 
 BAR2 EZ EP        749 57.36                             142    0.0010 92.5 178 
 BAR2 EZ ES        750 13.95                             142    0.0910 92.5 178 
 BAR2 EZ I         750 14.94         3.2 0.12            146           92.5 178 
 ZAR  HZ EP        750  5.12                             122   -0.17 9  182 272 
 ZAR  HE ES        750 27.99                             122    0.02 9  182 272 
 ZAR  HZ I         750 30.06         2.5 0.28            124            182 272 
                                                                                
