 2013  817 0548 54.8 L   6.798 -73.162146.4  RSN  8 0.5 1.7LRSN                1
 GAP=135        1.36       5.7     5.4  8.6 -0.4184E+01  0.6190E+01 -0.8212E+01E
 Epicentro: LOS SANTOS - SANTANDER                                             3
 2013-08-17-0538-49M.COL___204                                                 6
 OLDACT:DUP 13-08-17 13:46 OP:stll STATUS:               ID:20130817053852d    3
 ACTION:UPD 14-01-14 09:03 OP:ep   STATUS:               ID:20130817054854 L   I
 OLDACT:UP  13-08-17 13:51 OP:stll STATUS:               ID:20130817053852d    3
 STAT SP IPHASW D HRMM SECON CODA AMPLIT PERI AZIMU VELO AIN AR TRES W  DIS CAZ7
 BAR2 SZ EP        549 14.43                             171   -0.0710 22.9 186 
 BAR2 SZ ES        549 29.21                             171   -0.6510 22.9 186 
 BAR2 SZ I         549 31.00         8.0 0.22            172           22.9 186 
 BRR  HZ EP        549 16.27                             153    0.3310 69.7 299 
 BRR  HN ES        549 33.75                             153    1.3310 69.7 299 
 BRR  SZ I         549 37.68         8.5 0.14            151           69.7 299 
 PAM  SZ EP        549 17.23                             150    0.0710 78.6  40 
 PAM  SN ES        549 34.29                             150   -0.3110 78.6  40 
 PAM  SZ I         549 36.43         8.9 0.62            153           78.6  40 
 RUS  HZ EP        549 18.89                             144    0.2810  101 175 
 RUS  HN ES        549 37.18                             144   -0.0010  101 175 
 RUS  SZ I         549 38.52         5.2 0.44            148            101 175 
 PTB  HZ EP        549 21.27                             132   -0.39 9  146 259 
 PTB  HN ES        549 42.16                             132   -0.45 9  146 259 
 PTB  SZ I         549 47.65         6.1 0.48            133            146 259 
 CAPV BZ EP        549 22.22                             132   -0.14 9  151  38 
 SPBC HN ES        549 45.66                             129    0.26 9  162 219 
 ZAR  HZ EP        549 27.53                             123    0.41 9  202 292 
 ZAR  HN ES        549 51.45                             123   -0.89 9  202 292 
 ZAR  SZ I         549 57.73         7.7 0.48            124            202 292 
                                                                                
