 2015 1217 0616 14.3 L   6.795 -73.118147.1  RSN 14 0.3 2.2LRSN                1
 GAP=140        0.86       2.7     3.4  4.5 -0.2522E+01  0.5181E+01 -0.6318E+00E
 Epicentro: LOS SANTOS - SANTANDER                                             3
 ACTION:UPD 16-02-04 15:05 OP:cam  STATUS:               ID:20151217061614 L   I
 OLDACT:REG 15-12-17 13:40 OP:cara STATUS:               ID:20151217060750     3
 2015-12-17-0607-50M.COL___334                                                 6
 STAT SP IPHASW D HRMM SECON CODA AMPLIT PERI AZIMU VELO AIN AR TRES W  DIS CAZ7
 BAR2 EZ IP        616 34.01                             170   -0.0910 23.5 198 
 BAR2 EZ ES        616 49.01                             170   -0.5210 23.5 198 
 BAR2 EZ I         616 51.92        27.6 0.36            168           23.5 198 
 BRR  HZ IP     C  616 36.10                             152    0.3410 74.2 298 
 BRR  HE ES        616 53.27                             152    0.7710 74.2 298 
 BRR  HZ I         616 57.77        16.2 0.24            149           74.2 298 
 PAM  EZ IP     D  616 36.92                             152    0.3510 75.9  37 
 PAM  EN ES        616 53.92                             152   -0.0210 75.9  37 
 PAM  EZ I         616 58.72        15.2 0.34            156           75.9  37 
 RUS  HZ EP        616 38.04                             144   -0.0910 99.9 178 
 RUS  HN ES        616 56.86                             144    0.1410 99.9 178 
 RUS  HZ I         616 59.49        12.4 0.40            148           99.9 178 
 PTB  HZ EP        616 40.93                             132   -0.71 9  151 259 
 PTB  HE ES        617  2.64                             132   -0.33 9  151 259 
 PTB  HZ I         617  9.41        25.6 0.50            132            151 259 
 OCA  HZ EP        616 43.05                             130    0.25 9  161 352 
 OCA  HN ES        617  4.51                             130   -0.52 9  161 352 
 OCA  HZ I         617  9.48        33.2 0.48            132            161 352 
 SPBC HZ IP     C  616 43.15                             129    0.10 9  165 220 
 SPBC HE ES        617  5.71                             129    0.24 9  165 220 
 SPBC HZ I         617 11.51        28.7 0.24            130            165 220 
 ZAR  HZ EP        616 46.86                             122   -0.29 8  207 292 
 ZAR  HE ES        617 12.81                             122    0.04 8  207 292 
 ZAR  HZ I         617 18.44        12.9 0.32            123            207 292 
 NOR  HZ EP        616 50.05                             118   -0.29 8  237 235 
 NOR  HN ES        617 18.35                             118   -0.11 8  237 235 
 NOR  HZ I         617 21.80        13.2 0.26            120            237 235 
 SML  HZ EP        616 51.26                             118    0.06 8  246 335 
 SML  HN ES   4    617 18.62                             118   -1.35 0  246 335 
 SML  HZ I         617 26.75        15.0 0.26            119            246 335 
 GUY2CHZ EP   4    616 59.26                             112    1.04 0  303 235 
 GUY2CHN ES   4    617 33.86                             112    1.38 0  303 235 
 GUY2CHZ I         617 40.65         9.2 0.58                           303 235 
 ELA  HZ EP   4    617  3.05                             110    1.61 0  331 230 
 ELA  HN ES   4    617 42.41                             110    4.21 0  331 230 
 ELA  HZ I         617 53.83         7.7 0.50            112            331 230 
 CBOC HZ EP        617  2.04                             110    0.45 7  336 252 
 CBOC HE ES        617 38.73                             110    0.26 7  336 252 
 CBOC HZ I         617 46.39         2.8 0.36            111            336 252 
 PAL  HZ EP        617  9.80                             106    0.02 6  408 239 
 PAL  HN ES        617 53.18                             106    0.12 6  408 239 
 PAL  HZ I         617 58.72         3.1 0.40            108            408 239 
                                                                                
