 2012  517 0235 35.9 L   7.518 -73.542103.6  RSN  5 0.4 1.3LRSN                1
 GAP=250        0.81      11.6     6.5  9.5  0.3161E+02 -0.8069E+01 -0.2164E+02E
 Epicentro: SABANA DE TORRES - SANTANDER                                       3
 ACTION:UP  12-07-05 12:05 OP:pat  STATUS:               ID:20120517023535 L   I
 2012-05-17-0230-00M.COL___197                                                 6
 STAT SP IPHASW D HRMM SECON CODA AMPLIT PERI AZIMU VELO SNR AR TRES W  DIS CAZ7
 BRR  HZ EP   1    235 50.99                             153    -0.2 7   49 203 
 BRR  HN ES   1    236  3.53                             153     0.3 7   49 203 
 BAR2 SZ EP   1    235 56.44                             130     0.2 7  110 159 
 BAR2 SZ ES   1    236 11.69                             130    -0.5 7  110 159 
 BAR2 SZ I         236 14.16        11.3 0.26                           110 159 
 ZAR  HN ES   2    236 17.88                             121    -0.1 5  145 269 
 PTB  HZ EP   1    235 59.38                             120    -0.4 7  148 223 
 PTB  HN ES   1    236 18.64                             120     0.1 7  148 223 
 PTB  HZ I         236 24.20         1.7 0.21                           148 223 
 RUS  HZ EP   1    236  5.26                             114     0.6 7  187 164 
 RUS  HZ I         236 34.82         1.2 0.28                           187 164 
                                                                                
