 2013  517 0126 24.6 L   6.832 -73.149141.7  RSN 14 0.5 2.2LRSN                1
 GAP= 70        1.22       3.7     3.9  5.9 -0.7631E+00  0.5687E+01  0.4168E+01E
 Epicentro: LOS SANTOS - SANTANDER                                             3
 ACTION:UPD 13-06-20 09:51 OP:ep   STATUS:               ID:20130517012624 L   I
 2013-05-17-0120-00M.COL___253                                                 6
 STAT SP IPHASW D HRMM SECON CODA AMPLIT PERI AZIMU VELO AIN AR TRES W  DIS CAZ7
 BAR2 SZ EP        126 43.83                             169    0.0510 26.7 188 
 BAR2 SZ ES        126 58.93                             169    0.1610 26.7 188 
 BAR2 SZ I         127  3.68        21.7 0.20            168           26.7 188 
 GIR2 SZ EP        126 43.75                             168    0.0910 27.8 350 
 GIR2 SZ ES        126 57.49                             168   -1.0710 27.8 350 
 GIR2 SZ I         127  0.42        28.3 0.50            168           27.8 350 
 BRR  HZ IP     C  126 45.57                             152    0.4110 69.3 296 
 BRR  HE ES        127  2.12                             152    0.8910 69.3 296 
 BRR  HZ I         127  4.51        34.6 0.12            151           69.3 296 
 PAM  SZ EP        126 46.56                             151    0.3610 74.9  41 
 PAM  SN ES        127  3.57                             151    0.4910 74.9  41 
 PAM  SZ I         127  5.66        65.8 0.50            155           74.9  41 
 RUS  HZ EP     C  126 47.89                             142   -0.2910  104 176 
 RUS  HN ES        127  6.07                             142   -0.5310  104 176 
 RUS  HZ I         127  8.21        13.5 0.27            144            104 176 
 PTB  HZ EP        126 50.48                             131   -0.75 9  148 257 
 PTB  HN ES   1    127 11.88                             131   -0.16 7  148 257 
 PTB  HZ I         127 14.29        21.7 0.16            131            148 257 
 TAM  HZ EP        126 52.14                             129    0.10 9  156 106 
 TAM  HE ES   1    127 14.05                             129    0.57 7  156 106 
 OCA  HN ES   1    127 13.14                             129   -0.66 7  157 353 
 OCA  HZ I         127 17.86        15.5 0.22            131            157 353 
 ZAR  HN ES        127 21.66                             122    0.11 9  202 291 
 ZAR  HZ I         127 27.42        32.1 0.34            122            202 291 
 NOR  HZ EP        127  0.30                             117    0.05 8  236 234 
 NOR  HN ES        127 27.76                             117   -0.32 8  236 234 
 NOR  HZ I         127 36.10        10.9 0.18            118            236 234 
 SML  HZ EP        127  0.00                             117   -0.60 8  240 335 
 SML  HN ES   1    127 28.06                             117   -0.65 6  240 335 
 ROSC BZ EP        127  2.62                             115   -0.15 8  256 211 
 ROSC BN ES        127 32.79                             115    0.21 8  256 211 
 HEL  HZ EP        127  5.46                             114    0.83 8  273 255 
 HEL  HN ES   1    127 37.09                             114    1.21 6  273 255 
 HEL  HZ I         127 43.82         7.7 0.32            115            273 255 
 PRA  HZ EP   1    127 17.95                             106   -0.33 4  395 209 
 PRA  HN ES   1    128  0.11                             106   -0.07 4  395 209 
 PRA  HZ I         128  7.41        10.7 0.28            107            395 209 
 SJC  HZ EP   4    127 18.00                             105   -1.62 0  406 327 
                                                                                
