 2013  417 0939 30.2 L   6.830 -73.056150.7  RSN 10 0.5 2.1LRSN                1
 GAP=192        0.96       3.9     7.5  8.2  0.2043E+01  0.1534E+02 -0.3585E+00E
 Epicentro: LOS SANTOS - SANTANDER                                             3
 ACTION:UPD 13-05-22 14:39 OP:EP   STATUS:               ID:20130417093930 L   I
 2013-04-17-0937-43M.COL___208                                                 6
 STAT SP IPHASW D HRMM SECON CODA AMPLIT PERI AZIMU VELO AIN AR TRES W  DIS CAZ7
 BAR2 SZ EP        939 50.76                             168    0.1510 29.8 208 
 BAR2 SZ I         940  6.71        55.8 0.30            172           29.8 208 
 BRR  HZ IP     D  939 52.52                             151    0.1610 78.7 293 
 BRR  HN ES   1    940  9.81                             151    0.21 7 78.7 293 
 BRR  HZ I         940 12.64        20.1 0.36            153           78.7 293 
 RUS  HZ EP        939 54.96                             144    0.2510  104 182 
 RUS  HN ES   1    940 13.35                             144   -0.44 7  104 182 
 RUS  HZ I         940 14.33         9.6 0.24            143            104 182 
 PTB  HZ EP   2    939 57.29                             131   -1.27 5  158 258 
 PTB  HN ES   4    940 18.27                             131   -2.38 0  158 258 
 PTB  HZ I         940 22.21        10.7 0.22            133            158 258 
 OCA  HZ EP        939 59.01                             131    0.24 9  158 349 
 OCA  HN ES   1    940 20.56                             131   -0.47 7  158 349 
 OCA  HZ I         940 23.81        15.1 0.16            126            158 349 
 SML  HZ EP        940  7.40                             118    0.11 8  245 333 
 SML  HE ES   1    940 35.97                             118   -0.22 6  245 333 
 SML  HZ I         940 41.66        14.5 0.10            115            245 333 
 HEL  HZ EP        940 12.70                             115    0.83 7  283 256 
 HEL  HN ES   1    940 44.86                             115    0.53 6  283 256 
 HEL  HZ I         940 49.27         5.4 0.28            114            283 256 
 URE  HZ EP        940 11.49                             114   -0.96 7  292 291 
 URE  HN ES   4    940 42.08                             114   -3.30 0  292 291 
 URE  HZ I         940 44.74         5.4 0.21            112            292 291 
 PRA  HZ EP        940 24.57                             107   -0.29 6  400 211 
 PRA  HN ES   1    941  6.62                             107   -0.84 4  400 211 
 PRA  HZ I         941 11.88         3.5 0.46            105            400 211 
 SJC  HZ EP   4    940 25.16                             106   -1.13 0  412 326 
 SJC  HN ES   4    941  6.25                             106   -3.76 0  412 326 
 SJC  HZ I         941 15.83         1.8 0.64            104            412 326 
                                                                                
