 2011  917 0709 55.1 L   6.748 -73.161149.5  RSN  6 0.3 1.7LRSN                1
 GAP=180        0.70       7.2    10.2  7.7  0.5036E+02 -0.2164E+02 -0.1596E+02E
 Epicentro: LOS SANTOS - SANTANDER                                             3
 ACTION:UPD 12-07-13 15:57 OP:ep   STATUS:               ID:20110917070955 L   I
 2011-09-17-0700-00M.COL___173                                                 6
 STAT SP IPHASW D HRMM SECON CODA AMPLIT PERI AZIMU VELO AIN AR TRES W  DIS CAZ7
 BAR2 SZ EP        710 14.79                             172   -0.2410 17.4 188 
 BAR2 SZ ES   1    710 30.20                             172   -0.41 7 17.4 188 
 BAR2 SZ I         710 31.36        12.7 0.12                          17.4 188 
 BTL  SZ EP        710 15.12                             171    0.0110 22.2 328 
 GIR2 SZ EP        710 15.21                             166   -0.1210 36.8 354 
 BRR  HZ EP        710 16.73                             152    0.0410 72.7 303 
 BRR  HZ I         710 16.90        14.1 0.14                          72.7 303 
 BRR  HN ES   1    710 34.09                             152    0.53 7 72.7 303 
 RUS  HZ EP        710 19.20                             145    0.4210 95.0 175 
 RUS  HN ES   1    710 37.18                             145   -0.11 7 95.0 175 
 RUS  HZ I         710 38.57         4.1 0.40                          95.0 175 
 ZAR  HE ES   2    710 52.74                             122   -0.63 4  205 294 
                                                                                
