 2015 1117 0423  1.6 L   6.803 -73.216127.1  RSN  5 0.3 1.2LRSN                1
 GAP=175        0.76       3.5     5.2  6.2  0.7821E+01 -0.7852E+00 -0.7126E+01E
 Epicentro: ZAPATOCA - SANTANDER                                               3
 ACTION:UPD 15-12-28 16:11 OP:cam  STATUS:               ID:20151117042301 L   I
 OLDACT:UP  15-11-17 14:53 OP:ak   STATUS:               ID:20151117041750     3
 OLDACT:REG 15-11-17 12:52 OP:ak   STATUS:               ID:20151117041750     3
 2015-11-17-0417-50M.COL___313                                                 6
 STAT SP IPHASW D HRMM SECON CODA AMPLIT PERI AZIMU VELO AIN AR TRES W  DIS CAZ7
 BAR2 EZ EP        423 19.21                             169    0.1810 23.6 171 
 BAR2 EZ ES        423 32.85                             169    0.2610 23.6 171 
 BAR2 EZ I         423 33.80         4.8 0.08            168           23.6 171 
 BRR  HZ EP        423 20.69                             152    0.3110 64.3 302 
 BRR  HN ES        423 35.21                             152    0.2210 64.3 302 
 BRR  HZ I         423 36.57         5.5 0.12            149           64.3 302 
 RUS  HZ EP   1    423 23.65                             139   -0.04 7  102 172 
 RUS  HN ES        423 40.41                             139   -0.4810  102 172 
 RUS  HZ I         423 41.32         2.0 0.20            140            102 172 
 OCA  HZ EP        423 28.54                             125    0.08 9  159 356 
 OCA  HE ES        423 48.96                             125   -0.42 9  159 356 
 ZAR  HZ EP   2    423 32.62                             119    0.47 4  197 293 
 ZAR  HN ES        423 55.58                             119   -0.37 9  197 293 
 ZAR  HZ I         423 59.66         2.0 0.20            119            197 293 
                                                                                
