 2011  917 0706 43.6 L   6.764 -73.165151.5  RSN  6 0.4 1.5LRSN                1
 GAP=180        0.71       8.4    11.6  7.8  0.7342E+02 -0.2288E+02 -0.1679E+02E
 Epicentro: LOS SANTOS - SANTANDER                                             3
 ACTION:UPD 12-07-13 15:57 OP:ep   STATUS:               ID:20110917070643 L   I
 2011-09-17-0700-00M.COL___173                                                 6
 STAT SP IPHASW D HRMM SECON CODA AMPLIT PERI AZIMU VELO AIN AR TRES W  DIS CAZ7
 BAR2 SZ EP        7 7  3.71                             172   -0.1610 19.0 186 
 BAR2 SZ ES   1    7 7 19.14                             172   -0.52 7 19.0 186 
 BAR2 SZ I         7 7 20.28         7.5 0.14                          19.0 186 
 BTL  SZ EP        7 7  4.01                             172    0.1110 20.5 326 
 GIR2 SZ EP   2    7 7  3.56                             166   -0.52 5 35.0 355 
 BRR  HZ EP        7 7  5.60                             153    0.1910 71.4 302 
 BRR  HZ I         7 7  5.76         9.2 0.14                          71.4 302 
 BRR  HN ES   1    7 7 22.88                             153    0.48 7 71.4 302 
 RUS  HZ EP        7 7  7.76                             146    0.0810 96.7 175 
 RUS  HN ES   1    7 7 26.61                             146    0.17 7 96.7 175 
 RUS  HZ I         7 7 27.60         2.2 0.38                          96.7 175 
 ZAR  HN ES   2    7 7 41.07                             123   -0.91 4  204 293 
 ZAR  HZ I         7 7 49.01         2.5 0.50                           204 293 
                                                                                
