 2011  217 0924 57.2 L   6.421 -73.628103.8  RSN  6 0.5 1.0LRSN                1
 GAP=154        1.00       5.7    11.1 15.2 -0.3195E+02  0.8825E+02 -0.2312E+02E
 Epicentro: SANTA HELENA DEL OPON - SANTANDER                                  3
 ACTION:UP  11-03-28 15:09 OP:jfem STATUS:               ID:20110217092457 L   I
 2011-02-17-0923-46S.COL___137                                                 6
 STAT SP IPHASW D HRMM SECON CODA AMPLIT PERI AZIMU VELO SNR AR TRES W  DIS CAZ7
 BAR2 SZ EP   1    925 13.10                             152     0.0 7   53  69 
 BAR2 SZ I         925 20.97         5.9 0.47                            53  69 
 BAR2 SZ ES   1    925 25.81                             152     0.3 7   53  69 
 BTL  SZ EP   1    925 14.95                             145     0.8 7   68  36 
 RUS  HZ EP   1    925 15.87                             139     0.2 7   84 134 
 RUS  HE ES   1    925 29.62                             139    -0.5 7   84 134 
 RUS  HZ I         925 33.07         1.6 0.27                            84 134 
 NOR  SE ES   2    925 43.27                             117    -0.3 5  167 236 
 GRA  SZ EP   3    925 25.32                             114    -0.1 2  186  29 
 GRA  SZ ES   1    925 46.68                             114    -0.8 7  186  29 
 GRA  SZ I         925 52.81         1.9 0.30                           186  29 
 CHI  HE ES   1    925 50.56                             113     0.0 6  198 183 
 CHI  HZ I         926  8.80         0.9 0.69                           198 183 
                                                                                
