 2010 1217 0525 35.1 L   6.780 -73.139141.0  RSN  9 0.4 2.1LRSN                1
 GAP=160        0.86       4.0     6.6  8.1 -0.8131E+01  0.5960E+01  0.6452E+01E
 Epicentro: LOS SANTOS - SANTANDER                                             3
 ACTION:UP  11-01-14 15:25 OP:pat  STATUS:               ID:20101217052535 L   I
 2010-12-17-0520-00M.COL___137                                                 6
 STAT SP IPHASW D HRMM SECON CODA AMPLIT PERI AZIMU VELO SNR AR TRES W  DIS CAZ7
 BAR2 SZ EP        525 53.81                             171    -0.310   21 193 
 BAR2 SZ I         526 10.20        26.0 0.36                            21 193 
 BRR  HZ EP        525 55.52                             151    -0.310   73 300 
 BRR  HN ES   1    526 12.41                             151     0.4 7   73 300 
 BRR  HZ I         526 16.55        34.4 0.11                            73 300 
 RUS  HZ EP   1    525 57.97                             143    -0.3 7   98 176 
 RUS  HE ES   1    526 16.45                             143     0.2 7   98 176 
 RUS  HZ I         526 18.34        12.7 0.36                            98 176 
 GRA  SZ EP        526  0.44                             135     0.310  128  17 
 GRA  SZ ES   1    526 19.87                             135     0.3 7  128  17 
 GRA  SZ I         526 21.19        25.7 0.35                           128  17 
 OCA  SZ ES   2    526 24.29                             128    -1.0 5  163 353 
 OCA  SZ I         526 27.84        17.8 0.19                           163 353 
 NOR  SZ EP   1    526 10.43                             117    -0.1 6  234 235 
 NOR  SN ES   1    526 37.96                             117    -0.2 6  234 235 
 CHI  HZ EP   1    526 12.49                             116     0.1 6  247 195 
 CHI  HE ES   2    526 41.84                             116     0.5 4  247 195 
 CHI  HZ I         526 48.66         6.4 0.27                           247 195 
 HEL  HZ EP   1    526 15.84                             114     0.7 6  272 256 
 HEL  HZ I         526 52.95         4.9 0.35                           272 256 
 PRA  HZ EP   1    526 28.39                             106     0.1 4  390 210 
                                                                                
