 2016 1117 0632  0.6 L   6.758 -73.133142.7  RSN  5 0.2 1.3LRSN                1
 GAP=160        0.63       5.2     3.0  5.1 -0.3607E+01  0.3521E+01  0.4248E+00E
 Epicentro: LOS SANTOS - SANTANDER                                             3
 ACTION:UPD 17-10-26 21:09 OP:lp   STATUS:               ID:20161117063200 L   I
 OLDACT:DUP 16-11-17 17:13 OP:and  STATUS:               ID:20161117062746d    3
 OLDACT:UP  16-11-17 17:09 OP:and  STATUS:               ID:20161117062744     3
 OLDACT:REG 16-11-17 12:48 OP:and  STATUS:               ID:20161117062744     3
 2016-11-17-0628-00M.COL___343                                                 6
 STAT SP IPHASW D HRMM SECON CODA AMPLIT PERI AZIMU VELO AIN AR TRES W  DIS CAZ7
 BAR2 EZ EP        632 19.87                             172    0.0810 19.1 197 
 BAR2 EZ ES        632 34.73                             172   -0.0210 19.1 197 
 BAR2 EZ I         632 35.73         4.9 0.18            173           19.1 197 
 BRR  HZ EP        632 22.07                             151    0.4410 74.7 301 
 BRR  HN ES        632 38.20                             151    0.1710 74.7 301 
 PAM  EZ IP     D  632 22.73                             149    0.0610 80.2  37 
 PAM  EN ES        632 39.59                             149   -0.2810 80.2  37 
 PAM  EZ I         632 41.86         3.1 0.48            149           80.2  37 
 PTB  HZ EP        632 26.99                             131   -0.39 9  148 261 
 PTB  HN ES        632 48.22                             131   -0.04 9  148 261 
 ZAR  HN ES        632 58.45                             121   -0.13 8  207 293 
                                                                                
