 2012 1217 0720 23.3 L   6.756 -73.124144.9  RSN  4 0.1 1.0LRSN                1
 GAP=141        0.34       2.8     3.6  4.7  0.2200E+01 -0.3813E+01 -0.2811E+01E
 Epicentro: LOS SANTOS - SANTANDER                                             3
 ACTION:UPD 13-01-04 14:28 OP:ep   STATUS:               ID:20121217072023 L   I
 2012-12-17-0720-00M.COL___238                                                 6
 STAT SP IPHASW D HRMM SECON CODA AMPLIT PERI AZIMU VELO AIN AR TRES W  DIS CAZ7
 BRR  HZ EP   1    720 44.63                             151    0.02 7 75.6 301 
 BRR  HE ES   1    721  1.29                             151    0.05 7 75.6 301 
 BRR  HZ I         721  5.15         2.2 0.55                          75.6 301 
 PAM  SZ EP        720 45.52                             150   -0.0510 79.8  36 
 RUS  HZ EP   1    720 46.79                             145    0.18 7 95.6 177 
 RUS  HN ES   1    721  4.71                             145   -0.09 7 95.6 177 
 RUS  HN I         721  5.66         1.5 0.28                          95.6 177 
 PTB  HZ EP   1    720 50.23                             131   -0.10 7  149 261 
 PTB  HZ I         721 13.42         1.5 0.17                           149 261 
                                                                                
