 2015  217 0821 30.6 L   5.835 -73.717113.7  RSN  5 0.5 1.6LRSN                1
 GAP=158        1.29       6.8     6.2 10.1 -0.2430E+02  0.2284E+02 -0.1658E+02E
 Epicentro: PUENTE NACIONAL - SANTANDER                                        3
 ACTION:UPD 15-04-30 21:27 OP:nd   STATUS:               ID:20150217082130 L   I
 OLDACT:REG 15-02-17 15:05 OP:mh   STATUS:               ID:20150217081742     3
 2015-02-17-0817-42M.COL___293                                                 6
 STAT SP IPHASW D HRMM SECON CODA AMPLIT PERI AZIMU VELO AIN AR TRES W  DIS CAZ7
 SPBC HZ EP        821 46.83                             157   -0.1310 44.2 243 
 SPBC HN ES        821 59.14                             157   -0.5610 44.2 243 
 SPBC HZ I         822  0.28        14.4 0.36            159           44.2 243 
 RUS  HZ EP        821 49.43                             146    0.3710 70.5  85 
 RUS  HN ES        822  3.77                             146    0.3210 70.5  85 
 RUS  HZ I         822  4.94         3.6 0.28            147           70.5  85 
 BAR2 EZ EP        821 51.38                             135    0.1810  103  35 
 BAR2 EZ ES        822  6.92                             135   -0.3210  103  35 
 BAR2 EZ I         822  8.70        19.3 0.45            136            103  35 
 BRR  HZ EP        821 53.63                             125   -0.82 9  141   0 
 BRR  HN ES        822 13.68                             125    0.64 9  141   0 
 BRR  HZ I         822 15.11         6.6 0.09            126            141   0 
 GUY2CHZ EP        822  0.32                             116   -0.44 9  195 250 
 GUY2CHN ES        822 25.12                             116    0.85 9  195 250 
                                                                                
