 2013 1117 0138 43.4 L   6.714 -73.116139.8  RSN  5 0.6 1.5LRSN                1
 GAP=144        1.44       6.7     9.4 12.8 -0.2066E+02  0.3367E+01  0.1615E+02E
 Epicentro: JORDAN - SANTANDER                                                 3
 ACTION:UPD 14-01-09 16:28 OP:ep   STATUS:               ID:20131117013843 L   I
 OLDACT:REG 13-11-17 08:56 OP:stll STATUS:               ID:20131117013805     3
 2013-11-17-0138-05M.COL___220                                                 6
 STAT SP IPHASW D HRMM SECON CODA AMPLIT PERI AZIMU VELO AIN AR TRES W  DIS CAZ7
 BAR2 SZ EP        139  2.16                             173    0.0110 15.3 209 
 BAR2 SZ I         139  2.53        11.5 0.34            172           15.3 209 
 BRR  HZ EP        139  4.23                             149   -0.1310 78.9 303 
 BRR  HN ES        139 21.40                             149    0.6810 78.9 303 
 BRR  HZ I         139 25.24         5.9 0.44            150           78.9 303 
 PAM  SZ EP        139  5.15                             148   -0.1810 83.1  34 
 PAM  SN ES        139 21.89                             148   -0.5610 83.1  34 
 PAM  SZ I         139 24.35         8.3 0.54            152           83.1  34 
 RUS  HZ EP        139  6.17                             145    0.3210 90.9 178 
 RUS  HN ES        139 23.85                             145    0.4710 90.9 178 
 RUS  HZ I         139 25.87         2.1 0.18            149           90.9 178 
 SPBC HZ EP        139 11.45                             129    0.52 9  158 222 
 SPBC HN ES        139 31.18                             129   -1.25 9  158 222 
 SPBC HZ I         139 35.82         4.3 0.24            131            158 222 
                                                                                
