 2014  617 0949 39.3 L   7.281 -73.126146.0  RSN 11 0.4 2.1LRSN                1
 GAP= 96        0.88       3.0     4.0  6.6 -0.3556E+00  0.1228E+02 -0.9048E+00E
 Epicentro: RIONEGRO - SANTANDER                                               3
 ACTION:UPD 14-07-01 22:54 OP:nd   STATUS:               ID:20140617094939 L   I
 OLDACT:UP  14-06-17 18:58 OP:mh   STATUS:               ID:20140617094818     3
 OLDACT:UP  14-06-17 18:56 OP:mh   STATUS:               ID:20140617094818     3
 OLDACT:REG 14-06-17 15:53 OP:mh   STATUS:               ID:20140617094818     3
 2014-06-17-0948-18M.COL___259                                                 6
 STAT SP IPHASW D HRMM SECON CODA AMPLIT PERI AZIMU VELO AIN AR TRES W  DIS CAZ7
 PAM  SZ EP        949 59.71                             161   -0.3810 47.5  82 
 PAM  SN ES        950 16.42                             161    0.1410 47.5  82 
 PAM  SZ I         950 17.71        34.8 0.18            171           47.5  82 
 BAR2 SZ EP        950  1.39                             151    0.2410 76.4 185 
 BAR2 SZ ES   1    950 18.47                             151    0.30 7 76.4 185 
 BAR2 SZ I         950 22.26        17.7 0.14            152           76.4 185 
 OCA  HZ EP        950  3.15                             142   -0.0410  108 349 
 OCA  HN ES   1    950 22.28                             142    0.49 7  108 349 
 OCA  HZ I         950 26.35         9.7 0.26            144            108 349 
 RUS  HN ES        950 29.02                             131   -0.44 9  154 178 
 RUS  HZ I         950 30.70         5.8 0.12            134            154 178 
 PTB  HZ EP        950  8.09                             128   -0.15 9  168 241 
 PTB  HN ES        950 30.96                             128    0.17 9  168 241 
 PTB  HZ I         950 33.71         9.3 0.14            128            168 241 
 ZAR  HZ EP        950 11.18                             124    0.55 9  193 277 
 ZAR  HN ES        950 35.16                             124    0.12 9  193 277 
 ZAR  HZ I         950 43.27        10.1 0.13            124            193 277 
 SML  HZ EP        950 11.04                             123   -0.10 9  198 328 
 SML  HN ES        950 35.35                             123   -0.59 9  198 328 
 SML  HZ I         950 41.51        17.3 0.08            125            198 328 
 HEL  HZ EP   1    950 22.24                             113    0.49 5  292 246 
 HEL  HN ES        950 54.23                             113   -0.60 7  292 246 
 HEL  HZ I         951  3.86         5.1 0.35            114            292 246 
 RREF HZ EP   4    950 30.89                             108    1.00 0  360 223 
 RREF HN ES   4    951 14.32                             108    4.99 0  360 223 
 RREF HZ I         951 20.48         5.2 0.26            110            360 223 
 SJC  HZ EP   4    950 28.27                             108   -1.72 0  367 322 
 SJC  HN ES   4    951  6.32                             108   -3.18 0  367 322 
 TOL  SZ EP   4    950 34.08                             107    1.73 0  385 219 
 TOL  SN ES   4    951 16.59                             107    2.88 0  385 219 
 TOL  SZ I         951 20.78         8.7 0.74            109            385 219 
 PRA  HZ EP   1    950 39.96                             104    1.46 4  440 206 
 PRA  HN ES   1    951 24.13                             104   -0.52 4  440 206 
 PRA  HZ I         951 29.70         2.9 0.09            106            440 206 
                                                                                
