 2015  117 0503 31.6 L   6.783 -73.158149.1  RSN  6 0.4 1.5LRSN                1
 GAP=136        0.92       4.4     4.7  6.3 -0.5234E+01  0.3761E+01  0.2856E+01E
 Epicentro: LOS SANTOS - SANTANDER                                             3
 ACTION:UPD 15-03-02 15:40 OP:nd   STATUS:               ID:20150117050331 L   I
 OLDACT:REG 15-01-17 14:06 OP:carl STATUS:               ID:20150117045741     3
 2015-01-17-0457-41M.COL___265                                                 6
 STAT SP IPHASW D HRMM SECON CODA AMPLIT PERI AZIMU VELO AIN AR TRES W  DIS CAZ7
 BAR2 EZ EP        5 3 51.42                             172   -0.2010 21.2 187 
 BAR2 EZ ES        5 4  6.81                             172   -0.4010 21.2 187 
 BAR2 EZ I         5 4  7.66        14.2 0.24            171           21.2 187 
 BRR  HZ EP        5 3 53.23                             153    0.1010 70.9 300 
 BRR  HN ES        5 4 10.59                             153    0.7010 70.9 300 
 BRR  HZ I         5 4 13.61         2.9 0.28            150           70.9 300 
 PAM  SZ EP        5 3 54.20                             151   -0.1410 79.7  39 
 PAM  SN ES        5 4 12.07                             151    0.0210 79.7  39 
 PAM  SZ I         5 4 13.04         2.5 0.36            153           79.7  39 
 RUS  HZ EP        5 3 55.84                             145    0.2510 98.8 175 
 RUS  HN ES        5 4 14.21                             145   -0.0610 98.8 175 
 RUS  HZ I         5 4 15.16         4.2 0.44            148           98.8 175 
 PTB  HZ EP        5 3 58.33                             133   -0.39 9  146 259 
 PTB  HN ES        5 4 19.29                             133   -0.56 9  146 259 
 PTB  HZ I         5 4 26.42         3.7 0.42            132            146 259 
 SPBC HZ EP        5 4  0.51                             130    0.34 9  161 219 
 SPBC HN ES        5 4 22.76                             130    0.34 9  161 219 
 SPBC HZ I         5 4 23.82         7.1 0.22            131            161 219 
                                                                                
