 2012  817 0518 27.9 L   6.752 -73.143144.4  RSN  9 0.5 2.6LRSN                1
 GAP=139        1.02       4.6     5.1  7.0  0.2012E+01  0.2557E+01  0.1975E+01E
 Epicentro: LOS SANTOS - SANTANDER                                             3
 ACTION:UPD 12-09-10 11:56 OP:ep   STATUS:               ID:20120817051827 L   I
 2012-08-17-0517-39M.COL___203                                                 6
 STAT SP IPHASW D HRMM SECON CODA AMPLIT PERI AZIMU VELO AIN AR TRES W  DIS CAZ7
 BAR2 SZ IP        518 47.39                             172    0.0910 18.2 194 
 BAR2 SZ ES   1    519  2.31                             172   -0.10 7 18.2 194 
 BAR2 SZ I         519  3.61       233.1 0.18                          18.2 194 
 GIR2 SZ EP   1    518 47.53                             165   -0.06 7 36.5 351 
 GIR2 SZ ES   1    519  2.64                             165   -0.28 7 36.5 351 
 BRR  HZ EP        518 49.31                             151    0.2210 74.1 302 
 BRR  HN ES        519  6.18                             151    0.5810 74.1 302 
 BRR  HZ I         519  9.57        77.8 0.09                          74.1 302 
 PAM  SZ EP   1    518 50.41                             149    0.18 7 81.3  37 
 PAM  SZ I         518 50.61        98.6 0.24                          81.3  37 
 PAM  SN ES   1    519  7.30                             149   -0.34 7 81.3  37 
 RUS  HZ EP        518 51.27                             145    0.1110 95.3 176 
 RUS  HZ I         518 52.49        30.6 0.07                          95.3 176 
 RUS  HN ES        519  9.44                             145    0.1510 95.3 176 
 PTB  HZ EP   1    518 54.22                             132   -0.50 7  147 261 
 PTB  HN ES        519 14.70                             132   -0.92 9  147 261 
 PTB  HZ I         519 20.98        25.3 0.16                           147 261 
 OCA  HZ EP   1    518 55.75                             128   -0.88 7  166 353 
 OCA  HE ES   2    519 19.41                             128    0.39 5  166 353 
 OCA  HZ I         519 22.46       120.9 0.29                           166 353 
 ZAR  HN ES   1    519 26.81                             122    0.87 6  206 293 
 CHI  HZ EP   1    519  5.60                             117    0.60 6  244 196 
 CHI  HZ I         519 41.39        17.1 0.29                           244 196 
                                                                                
