 2016  917 0801 59.2 L   7.216 -73.336121.2  RSN  5 0.1 1.5LRSN                1
 GAP=107        0.41       1.8     2.2  3.3 -0.1339E+01  0.2396E+01 -0.1017E+01E
 Epicentro: LEBRIJA - SANTANDER                                                3
 ACTION:UPD 17-08-17 21:13 OP:lp   STATUS:               ID:20160917080159 L   I
 OLDACT:REG 16-09-17 14:28 OP:and  STATUS:               ID:20160917075734     3
 2016-09-17-0758-00M.COL___354                                                 6
 STAT SP IPHASW D HRMM SECON CODA AMPLIT PERI AZIMU VELO AIN AR TRES W  DIS CAZ7
 BRR  HZ EP        8 2 16.21                             159    0.0210 43.2 254 
 BRR  HE ES        8 2 29.62                             159    0.1710 43.2 254 
 BRR  HZ I         8 2 29.81         5.9 0.14            157           43.2 254 
 BAR2 EZ EP        8 2 18.13                             148    0.0710 71.0 166 
 BAR2 EZ ES        8 2 32.54                             148   -0.2510 71.0 166 
 PAM  EE ES        8 2 33.64                             148    0.1510 71.6  79 
 OCA  HZ EP        8 2 21.21                             134    0.0110  113   1 
 OCA  HE ES        8 2 38.21                             134   -0.1710  113   1 
 OCA  HZ I         8 2 40.56        16.2 0.46            134            113   1 
 PTB  HZ EP        8 2 23.98                             126    0.02 9  145 239 
 PTB  HE ES        8 2 43.26                             126   -0.03 9  145 239 
 PTB  HZ I         8 2 45.88         3.2 0.10            126            145 239 
                                                                                
