 2014  417 0120 23.7 L   6.815 -73.126144.5  RSN 11 0.6 2.2LRSN                1
 GAP= 72        1.18       3.9     3.8  7.1  0.1531E+01  0.5664E+01  0.6192E+01E
 Epicentro: LOS SANTOS - SANTANDER                                             3
 ACTION:UPD 14-05-13 23:09 OP:nd   STATUS:               ID:20140417012023 L   I
 OLDACT:REG 14-04-17 14:52 OP:nd   STATUS:               ID:20140417011744     3
 2014-04-17-0117-44M.COL___254                                                 6
 STAT SP IPHASW D HRMM SECON CODA AMPLIT PERI AZIMU VELO AIN AR TRES W  DIS CAZ7
 BRR  HZ EP        120 45.01                             152    0.2710 72.4 297 
 BRR  HN ES        121  1.97                             152    0.7910 72.4 297 
 BRR  HZ I         121  5.25        34.3 0.32            150           72.4 297 
 PAM  SZ EP        120 46.04                             151    0.4610 74.7  39 
 PAM  SN ES        121  2.86                             151    0.1810 74.7  39 
 PAM  SZ I         121  5.19        42.6 0.52            154           74.7  39 
 RUS  HZ EP        120 47.21                             143   -0.1810  102 177 
 RUS  HN ES        121  5.81                             143   -0.0910  102 177 
 RUS  HZ I         121  6.92        17.8 0.32            145            102 177 
 PTB  HZ EP        120 50.28                             131   -0.47 9  150 258 
 PTB  HN ES        121 11.04                             131   -0.84 9  150 258 
 PTB  HZ I         121 13.45        16.7 0.14            131            150 258 
 TAM  HZ IP     D  120 51.53                             131    0.46 9  153 106 
 TAM  HN ES        121 11.64                             131   -0.82 9  153 106 
 TAM  HZ I         121 12.47        12.4 0.42            134            153 106 
 ZAR  HZ EP        120 56.73                             122    0.56 8  206 291 
 ZAR  HN ES        121 21.54                             122    0.01 8  206 291 
 ZAR  HZ I         121 27.83        28.8 0.32            122            206 291 
 SML  HZ EP   1    120 59.42                             117   -0.73 6  243 335 
 SML  HN ES   1    121 27.76                             117   -0.86 6  243 335 
 SML  HZ I         121 33.15        23.3 0.10            118            243 335 
 CHI  HZ EP        121  1.42                             117   -0.10 8  251 196 
 CHI  HN ES        121 31.17                             117    0.12 8  251 196 
 RREF HZ EP        121 10.92                             110    0.86 7  325 229 
 RREF HN ES   2    121 46.19                             110   -0.06 3  325 229 
 RREF HZ I         121 55.16         7.0 0.36            111            325 229 
 PRA  HZ EP        121 17.71                             106    0.28 6  395 210 
 PRA  HN ES        121 58.63                             106   -0.73 6  395 210 
 PRA  HZ I         122  5.79         5.8 0.40            107            395 210 
 SJC  HZ EP   2    121 17.80                             105   -1.36 3  409 327 
 SJC  HN ES   4    121 59.05                             105   -3.40 0  409 327 
 SJC  HZ I         122  2.69         3.2 0.58            106            409 327 
                                                                                
