 2017  717 0355 32.4 L   6.745 -73.111143.6  RSN 12 0.3 2.0LRSN                1
 GAP=117        0.81       2.9     2.7  4.5  0.2773E+00  0.1604E+01  0.2069E+01E
 Epicentro: LOS SANTOS - SANTANDER                                             3
 ACTION:UPD 17-08-30 15:34 OP:rebc STATUS:               ID:20170717035532 L   I
 OLDACT:UP  17-07-17 15:53 OP:dnl  STATUS:               ID:20170717034742     3
 OLDACT:UP  17-07-17 15:53 OP:dnl  STATUS:               ID:20170717034742     3
 OLDACT:REG 17-07-17 12:52 OP:dnl  STATUS:               ID:20170717034742     3
 2017-07-17-0348-00M.COL___386                                                 6
 STAT SP IPHASW D HRMM SECON CODA AMPLIT PERI AZIMU VELO AIN AR TRES W  DIS CAZ7
 BAR2 EZ IP     D  355 51.57                             172   -0.1210 18.7 205 
 BAR2 EZ ES        356  6.62                             172   -0.1110 18.7 205 
 BAR2 EZ I         356  7.49        22.0 0.20            169           18.7 205 
 BRR  HZ IP     D  355 53.61                             150   -0.0910 77.5 301 
 BRR  HE ES        356 10.81                             150    0.5110 77.5 301 
 BRR  HZ I         356 15.32        21.5 0.36            148           77.5 301 
 PAM  EZ IP     D  355 54.63                             150    0.0810 79.9  35 
 PAM  EN ES        356 11.68                             150   -0.1410 79.9  35 
 PAM  EZ I         356 13.93        16.9 0.50            152           79.9  35 
 RUS  HZ EP        355 55.47                             145   -0.0310 94.3 178 
 RUS  HN ES        356 13.57                             145    0.0510 94.3 178 
 RUS  HZ I         356 14.94        18.1 0.28            145           94.3 178 
 PTB  HZ EP   9    355 58.35                             131   -1.10 0  150 261 
 PTB  HN ES        356 19.28                             130   -0.16 9  150 261 
 PTB  HZ I         356 21.73         7.3 0.12            129            150 261 
 SPBC HZ EP        356  0.47                             129   -0.06 9  161 221 
 SPBC HE ES        356 22.60                             129    0.13 9  161 221 
 SPBC HZ I         356 25.44        18.9 0.22            128            161 221 
 YPLC HZ EP        356  1.70                             127    0.35 9  170 151 
 YPLC HN ES        356 23.85                             127   -0.07 9  170 151 
 YPLC HZ I         356 26.73         8.4 0.22            129            170 151 
 ZAR  HZ EP   2    356  4.85                             121   -0.47 4  210 293 
 ZAR  HE ES        356 30.56                             121   -0.43 8  210 293 
 ZAR  HZ I         356 38.97        15.7 0.18            120            210 293 
 NOR  HZ EP        356  7.78                             118   -0.20 8  234 236 
 NOR  HE ES        356 35.10                             118   -0.62 8  234 236 
 NOR  HZ I         356 40.46         8.2 0.22            117            234 236 
 ROSC BZ EP   4    356 11.68                             117    1.62 0  250 212 
 ROSC BN ES   4    356 42.54                             117    3.10 0  250 212 
 ROSC BZ I         356 47.18         6.2 0.30            116            250 212 
 HEL  HZ EP   2    356 13.92                             114    1.16 4  274 257 
 HEL  HE ES        356 44.82                             114    0.58 8  274 257 
 HEL  HZ I         356 52.29         3.9 0.22            114            274 257 
 GUY2CHZ EP   9    356 18.05                             112    2.17 0  301 236 
 GUY2CHN ES        356 52.86                             112    0.90 7  301 236 
 GUY2CHZ I         356 56.69         5.1 0.44                           301 236 
                                                                                
