 2012  117 0405 59.6 L   6.729 -73.114135.2  RSN  6 0.3 1.6LRSN                1
 GAP=144        0.69       3.9     4.4  6.6 -0.2710E+01  0.2385E+01 -0.3421E+01E
 Epicentro: JORDAN - SANTANDER                                                 3
 ACTION:UP  12-02-03 08:18 OP:REBC STATUS:               ID:20120117040559 L   I
 2012-01-17-0400-00M.COL___188                                                 6
 STAT SP IPHASW D HRMM SECON CODA AMPLIT PERI AZIMU VELO SNR AR TRES W  DIS CAZ7
 BAR2 SZ EP   2    4 6 17.58                             172    -0.2 5   17 207 
 BAR2 SZ ES   2    4 6 32.03                             172     0.0 5   17 207 
 BAR2 SZ I         4 6 33.99        11.8 0.26                            17 207 
 BRR  HZ EP        4 6 19.88                             148    -0.110   78 302 
 BRR  HZ I         4 6 20.30         9.9 0.10                            78 302 
 BRR  HE ES   1    4 6 36.33                             148     0.4 7   78 302 
 PAM  SZ EP        4 6 20.71                             147    -0.210   82  34 
 PAM  SE ES   1    4 6 37.40                             147    -0.2 7   82  34 
 RUS  HZ EP   1    4 6 22.01                             144     0.3 7   93 178 
 RUS  HE ES   1    4 6 39.03                             144     0.1 7   93 178 
 RUS  HZ I         4 6 41.26         2.9 0.16                            93 178 
 PTB  HZ EP   1    4 6 25.58                             129    -0.3 7  150 262 
 PTB  HE ES   1    4 6 46.22                             129    -0.2 7  150 262 
 OCA  SZ EP   1    4 6 28.60                             126     0.7 7  168 352 
 OCA  SZ ES   2    4 6 49.77                             126    -0.2 5  168 352 
 OCA  SZ I         4 6 58.19         7.3 0.24                           168 352 
                                                                                
