 2017  517 0056 43.6 L   6.596 -74.013 70.0  RSN  4 0.3 1.5LRSN                1
 GAP=189        0.74       3.2     3.9  6.7 -0.6064E+01  0.3957E+01  0.1046E+00E
 Epicentro: PUERTO PARRA - SANTANDER                                           3
 ACTION:UPD 17-06-16 13:36 OP:jn   STATUS:               ID:20170517005643 L   I
 OLDACT:REG 17-05-17 13:22 OP:dnl  STATUS:               ID:20170517004739     3
 2017-05-17-0048-00M.COL___350                                                 6
 STAT SP IPHASW D HRMM SECON CODA AMPLIT PERI AZIMU VELO AIN AR TRES W  DIS CAZ7
 PTB  HZ IP     C  056 55.16                             142   -0.3310 49.4 263 
 PTB  HN ES        057  4.79                             142    0.0210 49.4 263 
 BRR  HE EP        056 56.54                             133   -0.3010 65.6  30 
 BRR  HN ES        057  7.52                             133    0.3510 65.6  30 
 ZAR  HZ EP        057  4.14                             111   -0.25 9  136 317 
 ZAR  HE ES        057 20.80                             111    0.20 9  136 317 
 ZAR  HZ I         057 22.15         6.4 0.40            106            136 317 
 NOR  HZ EP   2    057  6.70                             109    0.83 5  148 220 
 NOR  HN ES        057 23.38                             109    0.14 9  148 220 
 NOR  HZ I         057 31.20         6.5 0.40            103            148 220 
                                                                                
