 2014  817 0450 19.2 L   6.736 -73.145150.9  RSN  5 0.3 1.2LRSN                1
 GAP=233        0.77       4.8     5.1  6.3  0.3251E+01 -0.5413E+00  0.3915E+01E
 Epicentro: LOS SANTOS - SANTANDER                                             3
 ACTION:UPD 14-09-15 21:50 OP:nd   STATUS:               ID:20140817045019 L   I
 OLDACT:UP  14-08-17 17:12 OP:spq  STATUS:               ID:20140817044812     3
 OLDACT:UP  14-08-17 17:12 OP:spq  STATUS:               ID:20140817044812     3
 OLDACT:REG 14-08-17 13:15 OP:spq  STATUS:               ID:20140817044812     3
 2014-08-17-0448-12M.COL___263                                                 6
 STAT SP IPHASW D HRMM SECON CODA AMPLIT PERI AZIMU VELO AIN AR TRES W  DIS CAZ7
 BAR2 SZ EP        450 39.12                             173   -0.2110 16.5 194 
 BAR2 SZ ES   1    450 54.63                             173   -0.40 7 16.5 194 
 BAR2 SZ I         450 56.00         3.6 0.21            172           16.5 194 
 BRR  HZ EP        450 41.29                             152    0.1910 74.9 303 
 BRR  HE ES        450 58.58                             152    0.3810 74.9 303 
 BRR  HZ I         450 59.22         3.4 0.15            154           74.9 303 
 RUS  HZ EP        450 43.15                             147    0.1810 93.6 176 
 RUS  HN ES   1    451  1.45                             147   -0.07 7 93.6 176 
 RUS  HZ I         451  3.02         1.6 0.26            147           93.6 176 
 PTB  HZ EP        450 45.94                             133   -0.54 9  147 262 
 PTB  HE ES        451  7.50                             133   -0.27 9  147 262 
 PTB  HZ I         451  7.92         2.1 0.17            134            147 262 
 SPBC HZ EP        450 47.83                             131    0.24 9  158 221 
 SPBC HN ES        451 10.01                             131    0.26 9  158 221 
 SPBC HZ I         451 12.31         2.4 0.14            132            158 221 
                                                                                
