 2017  817 0132 52.8 L   6.761 -73.123142.5  RSN  6 0.3 1.6LRSN                1
 GAP=141        0.85       4.3     5.0  7.2  0.5250E+01 -0.2452E+01 -0.5981E+01E
 Epicentro: LOS SANTOS - SANTANDER                                             3
 ACTION:UPD 17-09-04 20:21 OP:rebc STATUS:               ID:20170817013252 L   I
 OLDACT:REG 17-08-17 12:23 OP:lv   STATUS:               ID:20170817012744     3
 2017-08-17-0128-00M.COL___413                                                 6
 STAT SP IPHASW D HRMM SECON CODA AMPLIT PERI AZIMU VELO AIN AR TRES W  DIS CAZ7
 BAR2 EZ EP        133 12.00                             172   -0.0010 19.8 199 
 BAR2 EZ ES        133 26.35                             172   -0.6110 19.8 199 
 BAR2 EZ I         133 28.01         6.6 0.19            173           19.8 199 
 BRR  HZ EP        133 14.01                             150    0.1310 75.5 300 
 BRR  HN ES        133 30.74                             150    0.4410 75.5 300 
 BRR  HZ I         133 35.15         7.4 0.13            147           75.5 300 
 PAM  EZ EP        133 14.91                             150    0.1010 79.2  36 
 PAM  EZ I         133 34.45         6.8 0.28            135           79.2  36 
 RUS  HZ EP        133 15.69                             144   -0.2510 96.2 177 
 RUS  HN ES        133 34.36                             144    0.3910 96.2 177 
 RUS  HZ I         133 35.30         5.3 0.28            142           96.2 177 
 SPBC HN ES        133 42.85                             129    0.03 9  161 221 
 SPBC HZ I         133 45.78         7.0 0.20            127            161 221 
 ZAR  HN ES        133 50.62                             121   -0.32 8  208 293 
                                                                                
