 2012  817 0223 21.8 L   6.775 -73.158147.7  RSN  5 0.3 1.6LRSN                1
 GAP=234        0.69       7.9     8.2  7.7  0.4811E+02  0.1810E+01  0.1020E+01E
 Epicentro: LOS SANTOS - SANTANDER                                             3
 ACTION:UPD 12-09-10 11:56 OP:ep   STATUS:               ID:20120817022321 L   I
 2012-08-17-0220-00M.COL___216                                                 6
 STAT SP IPHASW D HRMM SECON CODA AMPLIT PERI AZIMU VELO AIN AR TRES W  DIS CAZ7
 BAR2 SZ EP   1    223 41.15                             172   -0.49 7 20.4 188 
 BAR2 SZ ES   1    223 56.63                             172   -0.46 7 20.4 188 
 BAR2 SZ I         223 57.73         9.9 0.25                          20.4 188 
 BRR  HZ EP   1    223 43.45                             153    0.24 7 71.4 301 
 BRR  HZ I         223 44.65         8.8 0.14                          71.4 301 
 BRR  HN ES        224  0.13                             153    0.2610 71.4 301 
 RUS  HZ EP   1    223 45.75                             145    0.16 7 97.9 175 
 RUS  HE ES   1    224  4.46                             145    0.35 7 97.9 175 
 RUS  HZ I         224  5.68         3.9 0.44                          97.9 175 
 PTB  HN ES   2    224  9.35                             133   -0.48 5  146 260 
 ZAR  HN ES   1    224 19.69                             123   -0.09 6  204 293 
                                                                                
