 2014  417 0919 27.1 L   6.857 -73.152142.5  RSN  9 0.5 2.3LRSN                1
 GAP=133        1.10       3.5     4.8  8.5 -0.1924E+01  0.1682E+02 -0.1958E+01E
 Epicentro: LOS SANTOS - SANTANDER                                             3
 ACTION:UPD 14-05-13 23:09 OP:nd   STATUS:               ID:20140417091927 L   I
 OLDACT:REG 14-04-17 14:52 OP:nd   STATUS:               ID:20140417091835     3
 2014-04-17-0918-35M.COL___244                                                 6
 STAT SP IPHASW D HRMM SECON CODA AMPLIT PERI AZIMU VELO AIN AR TRES W  DIS CAZ7
 PAM  SZ EP        919 49.34                             152    0.6710 73.1  43 
 PAM  SN ES        920  5.63                             152    0.1010 73.1  43 
 RUS  HZ EP        919 51.45                             141    0.4910  107 176 
 RUS  HN ES        920  9.23                             141   -0.3710  107 176 
 PTB  HZ EP        919 53.28                             131   -0.53 9  148 256 
 PTB  HN ES        920 14.49                             131   -0.19 9  148 256 
 PTB  HZ I         920 17.03        23.4 0.20            130            148 256 
 OCA  HZ EP        919 53.95                             130   -0.56 9  154 353 
 OCA  HN ES        920 15.68                             130   -0.25 9  154 353 
 OCA  HZ I         920 20.13        22.5 0.30            130            154 353 
 ZAR  HZ EP        919 59.18                             122    0.21 9  201 291 
 ZAR  HN ES        920 24.80                             122    0.93 9  201 291 
 ZAR  HZ I         920 30.36        22.1 0.18            121            201 291 
 SML  HZ EP        920  2.40                             117   -0.44 8  238 335 
 SML  HN ES        920 30.54                             117   -0.21 8  238 335 
 SML  HZ I         920 37.99        21.3 0.28            117            238 335 
 URE  HZ EP   2    920  7.17                             113   -0.46 4  281 291 
 URE  HN ES   2    920 39.65                             113    0.37 4  281 291 
 URE  HZ I         920 47.67        13.1 0.36            113            281 291 
 RREF HZ EP        920 14.08                             110    0.62 7  325 228 
 RREF HN ES        920 49.10                             110   -0.57 7  325 228 
 RREF HZ I         920 58.72         6.3 0.30            111            325 228 
 SJC  HZ EP   4    920 20.07                             105   -1.77 0  404 327 
 SJC  HN ES   4    921  1.77                             105   -2.80 0  404 327 
 SJC  HZ I         921  5.58         3.7 0.56            106            404 327 
                                                                                
