 2014  917 0725 59.3 L   6.826 -73.187139.1  RSN  9 0.3 1.9LRSN                1
 GAP=130        0.73       2.2     3.5  4.8 -0.2583E+01  0.7209E+01 -0.2383E+01E
 Epicentro: ZAPATOCA - SANTANDER                                               3
 ACTION:UPD 14-10-03 23:05 OP:nd   STATUS:               ID:20140917072559 L   I
 OLDACT:REG 14-09-17 13:05 OP:carl STATUS:               ID:20140917071818     3
 2014-09-17-0718-18M.COL___287                                                 6
 STAT SP IPHASW D HRMM SECON CODA AMPLIT PERI AZIMU VELO AIN AR TRES W  DIS CAZ7
 BAR2 SZ EP        726 18.22                             169   -0.0110 25.8 179 
 BAR2 SZ ES        726 32.92                             169   -0.0410 25.8 179 
 BAR2 SZ I         726 34.28        21.3 0.52            171           25.8 179 
 BRR  HZ EP        726 20.06                             153    0.5910 65.9 298 
 PAM  SZ EP        726 21.18                             149    0.2810 78.2  43 
 PAM  SN ES        726 38.03                             149    0.3110 78.2  43 
 RUS  HZ EP        726 22.31                             141   -0.3810  104 174 
 RUS  HN ES        726 40.56                             141   -0.3410  104 174 
 PTB  HZ EP        726 25.42                             131   -0.00 9  144 257 
 PTB  HN ES        726 45.76                             131   -0.00 9  144 257 
 PTB  HZ I         726 48.10         8.5 0.10            131            144 257 
 OCA  HZ EP        726 26.99                             129    0.17 9  157 355 
 OCA  HN ES        726 47.96                             129   -0.30 9  157 355 
 OCA  HZ I         726 51.47         9.6 0.48            129            157 355 
 SPBC HZ EP        726 27.23                             128   -0.06 9  163 217 
 SPBC HN ES        726 49.04                             128   -0.04 9  163 217 
 SPBC HZ I         726 53.70         8.0 0.24            129            163 217 
 SML  HZ EP        726 34.77                             116   -0.34 8  239 336 
 SML  HN ES        727  2.58                             116   -0.43 8  239 336 
 SML  HZ I         727 12.02         8.6 0.26            117            239 336 
 GUY2CHZ EP        726 42.59                             111    0.17 7  299 234 
 GUY2CHN ES        727 16.40                             111    0.37 7  299 234 
 GUY2CHZ I         727 23.61         2.5 0.38                           299 234 
                                                                                
