 2010  917 0031 14.3 L   6.765 -73.088148.0  RSN  6 0.4 1.8LRSN                1
 GAP=165        0.94       4.8    10.9 10.7 -0.1485E+01 -0.3789E+02 -0.1089E+02E
 Epicentro: LOS SANTOS - SANTANDER                                             3
 ACTION:UP  11-02-18 11:03 OP:tino STATUS:               ID:20100917003114 L   I
 2010-09-17-0028-15S.COL___118                                                 6
 STAT SP IPHASW D HRMM SECON CODA AMPLIT PERI AZIMU VELO SNR AR TRES W  DIS CAZ7
 BTL  SZ EP        031 34.65                             170     0.410   26 311 
 BRR  HZ EP        031 36.07                             150     0.010   79 299 
 BRR  HE ES   1    031 52.86                             150    -0.3 7   79 299 
 BRR  HZ I         031 57.09        17.2 0.16                            79 299 
 RUS  HZ EP   1    031 38.15                             145     0.2 7   96 180 
 RUS  HE ES   1    031 56.27                             145    -0.2 7   96 180 
 RUS  HZ I         031 57.72         5.6 0.22                            96 180 
 GUE  SZ EP        031 39.13                             139    -0.310  119   9 
 GRA  SZ EP        031 40.10                             137     0.210  128  14 
 GRA  SZ I         031 41.48        10.6 0.24                           128  14 
 GRA  SZ ES   1    031 59.56                             137    -0.3 7  128  14 
 OCA  SZ EP        031 42.77                             129    -0.4 9  165 351 
 OCA  SZ ES   1    032  6.57                             129     0.8 7  165 351 
 OCA  SZ I         032  9.34         8.8 0.34                           165 351 
                                                                                
