 2011  117 0135  8.7 L   6.821 -73.196147.4  RSN  7 0.3 1.7LRSN                1
 GAP=153        0.76       3.4     9.7  7.8 -0.1327E+02  0.2907E+02 -0.3346E+01E
 Epicentro: ZAPATOCA - SANTANDER                                               3
 ACTION:UP  11-02-08 08:41 OP:pat  STATUS:               ID:20110117013508 L   I
 2011-01-17-0130-38S.COL___136                                                 6
 STAT SP IPHASW D HRMM SECON CODA AMPLIT PERI AZIMU VELO SNR AR TRES W  DIS CAZ7
 BAR2 SZ EP   1    135 28.59                             170     0.1 7   25 177 
 BAR2 SZ I         135 29.00        14.1 0.15                            25 177 
 BAR2 SZ ES   1    135 44.06                             170     0.0 7   25 177 
 RUS  HZ EP   1    135 32.38                             143    -0.4 7  103 173 
 RUS  HE ES   1    135 51.71                             143     0.1 7  103 173 
 RUS  HZ I         135 54.18         5.0 0.44                           103 173 
 GRA  SZ EP   1    135 34.35                             137     0.3 7  125  20 
 GRA  SZ ES   1    135 54.09                             137     0.3 7  125  20 
 GRA  SZ I         135 55.28        11.5 0.49                           125  20 
 OCA  SZ EP   1    135 37.13                             130     0.3 7  157 355 
 OCA  SZ ES   1    135 57.97                             130    -0.8 7  157 355 
 OCA  SZ I         136  3.80        10.6 0.37                           157 355 
 NOR  SE ES   2    136 12.14                             119     0.3 4  232 233 
 CHI  HZ EP   1    135 46.42                             117    -0.1 6  249 194 
 CHI  HZ I         135 49.18         2.2 0.24                           249 194 
 CHI  HE ES   1    136 15.93                             117    -0.2 6  249 194 
 HEL  HZ EP   2    135 48.68                             116     0.3 4  267 255 
 HEL  HZ I         136 26.71         3.0 0.23                           267 255 
                                                                                
