 2016  117 0254  7.3 L   6.827 -73.158143.8  RSN 13 0.4 2.0LRSN                1
 GAP=134        1.00       2.5     4.0  5.6 -0.1713E+01  0.7314E+01  0.3099E-01E
 Epicentro: LOS SANTOS - SANTANDER                                             3
 ACTION:UPD 16-03-09 23:26 OP:cam  STATUS:               ID:20160117025407 L   I
 OLDACT:UP  16-01-17 16:28 OP:mh   STATUS:               ID:20160117024749     3
 OLDACT:REG 16-01-17 13:40 OP:mh   STATUS:               ID:20160117024749     3
 2016-01-17-0247-49M.COL___322                                                 6
 STAT SP IPHASW D HRMM SECON CODA AMPLIT PERI AZIMU VELO AIN AR TRES W  DIS CAZ7
 BAR2 EZ IP     C  254 26.88                             169    0.1310 26.1 186 
 BAR2 EZ ES        254 41.87                             169   -0.0510 26.1 186 
 BAR2 EZ I         254 43.29        15.2 0.10            167           26.1 186 
 PAM  EZ EP        254 29.71                             151    0.4910 76.0  42 
 PAM  EN ES        254 46.42                             151    0.1010 76.0  42 
 PAM  EZ I         254 48.52        27.9 0.48            157           76.0  42 
 RUS  HZ EP        254 30.92                             142   -0.1610  104 175 
 RUS  HN ES        254 49.43                             142   -0.1910  104 175 
 RUS  HZ I         254 50.89         7.1 0.26            145            104 175 
 PTB  HZ EP        254 33.44                             132   -0.60 9  147 258 
 PTB  HN ES        254 54.25                             132   -0.64 9  147 258 
 PTB  HZ I         255  1.53        12.4 0.46            130            147 258 
 OCA  HZ EP        254 34.65                             130   -0.52 9  157 354 
 OCA  HN ES        254 57.48                             130    0.58 9  157 354 
 OCA  HZ I         255  1.05        19.1 0.36            132            157 354 
 SPBC HZ EP        254 35.82                             128    0.03 9  165 218 
 SPBC HN ES        254 57.96                             128   -0.04 9  165 218 
 SPBC HZ I         255  4.87        11.9 0.24            129            165 218 
 ZAR  HZ EP   1    254 39.44                             122    0.07 6  202 292 
 ZAR  HE ES        255  5.33                             122    0.94 9  202 292 
 ZAR  HZ I         255 11.16        15.7 0.46            122            202 292 
 NOR  HZ EP        254 43.37                             118    0.39 8  235 234 
 NOR  HE ES        255 10.97                             118    0.16 8  235 234 
 NOR  HZ I         255 17.49         5.1 0.16            119            235 234 
 SML  HZ EP        254 42.99                             117   -0.47 8  240 335 
 SML  HN ES        255 11.03                             117   -0.64 8  240 335 
 SML  HZ I         255 16.07        14.7 0.26            119            240 335 
 CHI  HZ EP        254 45.36                             116    0.20 8  251 195 
 CHI  HN ES        255 14.54                             116   -0.15 8  251 195 
 CHI  HZ I         255 21.21         2.9 0.30            118            251 195 
 HEL  HZ EP   4    254 48.78                             114    1.43 0  271 255 
 HEL  HN ES   4    255 20.72                             114    2.14 0  271 255 
 HEL  HZ I         255 26.40         4.2 0.36            115            271 255 
 GUY2CHZ EP   4    254 52.35                             112    1.47 0  302 234 
 GUY2CHN ES   4    255 29.21                             112    4.33 0  302 234 
 GUY2CHZ I         255 34.37         3.9 0.70                           302 234 
 PRA  HZ EP        255  1.25                             106    0.28 6  394 209 
 PRA  HN ES        255 43.50                             106    0.66 6  394 209 
 PRA  HZ I         255 49.87         4.8 0.48            107            394 209 
 SJC  HZ EP   4    255  0.91                             105   -1.51 0  406 327 
 SJC  HN ES   4    255 41.93                             105   -3.48 0  406 327 
                                                                                
