 2010 1017 0320 23.1 L   6.792 -73.077143.5  RSN  5 0.5 1.3LRSN                1
 GAP=166        1.06       7.8    15.3 13.7  0.3924E+02 -0.1002E+03 -0.4037E+02E
 Epicentro: LOS SANTOS - SANTANDER                                             3
 ACTION:DUP 11-02-18 11:10 OP:tino STATUS:               ID:20101017032024dL   I
 2010-10-17-0318-13S.COL___125                                                 6
 STAT SP IPHASW D HRMM SECON CODA AMPLIT PERI AZIMU VELO SNR AR TRES W  DIS CAZ7
 BAR2 SZ EP   2    320 40.82                             170    -1.6 5   25 208 
 BAR2 SZ ES   2    320 57.52                             170    -0.1 5   25 208 
 BAR2 SZ I         321  0.08         5.4 0.29                            25 208 
 BRR  HZ EP        320 44.31                             150    -0.110   78 296 
 BRR  HN ES   1    321  1.18                             150     0.2 7   78 296 
 BRR  HZ I         321  3.67         4.6 0.17                            78 296 
 RUS  HZ EP   1    320 46.87                             144     0.4 7   99 180 
 RUS  HN ES   1    321  4.86                             144     0.1 7   99 180 
 RUS  HZ I         321  6.56         2.4 0.45                            99 180 
 GRA  SZ EP        320 48.18                             137     0.210  125  14 
 GRA  SZ I         321  9.95         2.4 0.36                           125  14 
 CHI  HZ EP   2    321  0.80                             117     0.0 4  250 197 
 CHI  HZ I         321 34.92         1.1 0.24                           250 197 
                                                                                
