 2011 1017 0944 38.2 L   6.793 -73.130145.1  RSN 10 0.4 2.1LRSN                1
 GAP=139        0.80       3.6     4.4  6.2 -0.2718E+01  0.1054E+02  0.1278E+01E
 Epicentro: LOS SANTOS - SANTANDER                                             3
 ACTION:UPD 12-07-13 16:04 OP:ep   STATUS:               ID:20111017094438 L   I
 2011-10-17-0942-00S.COL___168                                                 6
 STAT SP IPHASW D HRMM SECON CODA AMPLIT PERI AZIMU VELO AIN AR TRES W  DIS CAZ7
 BAR2 SZ EP        944 57.73                             171    0.0010 22.9 195 
 BAR2 SZ ES   1    945 12.71                             171   -0.26 7 22.9 195 
 BAR2 SZ I         945 15.83        22.2 0.18                          22.9 195 
 BRR  HZ EP   1    944 59.63                             152    0.26 7 73.1 298 
 BRR  HN ES   1    945 16.78                             152    0.89 7 73.1 298 
 BRR  HZ I         945 19.41        31.7 0.09                          73.1 298 
 PAM  SZ EP   1    945  0.69                             151    0.39 7 76.9  38 
 PAM  SN ES   1    945 17.47                             151   -0.08 7 76.9  38 
 RUS  HZ EP   1    945  1.61                             144   -0.20 7 99.7 177 
 RUS  HN ES   1    945 19.98                             144   -0.25 7 99.7 177 
 RUS  HZ I         945 21.70         7.8 0.24                          99.7 177 
 OCA  SZ EP   1    945  6.71                             129    0.18 7  161 353 
 OCA  SZ ES   1    945 28.24                             129   -0.41 7  161 353 
 OCA  SZ I         945 34.44        13.9 0.19                           161 353 
 ZAR  HZ EP   1    945 10.31                             122   -0.47 6  206 292 
 ZAR  HE ES   1    945 35.38                             122   -0.83 6  206 292 
 ZAR  HZ I         945 42.22        19.6 0.25                           206 292 
 NOR  SZ EP   1    945 13.96                             118   -0.02 6  236 235 
 NOR  SN ES   1    945 41.53                             118   -0.37 6  236 235 
 HEL  HZ EP   1    945 19.15                             114    0.62 6  274 256 
 HEL  HN ES   1    945 50.05                             114    0.05 6  274 256 
 HEL  HZ I         945 55.05         6.0 0.30                           274 256 
 RREF HN ES   1    946  1.25                             111    0.82 5  323 230 
 RREF HZ I         946  7.48         8.3 0.12                           323 230 
 PRA  HZ EP   1    945 31.25                             106   -0.45 4  392 210 
                                                                                
