 2013  117 0727 57.3 L   6.785 -73.128139.3  RSN  6 0.4 1.2LRSN                1
 GAP=139        0.84       6.7     6.6  7.9  0.8169E+01 -0.2576E+01  0.5067E+01E
 Epicentro: LOS SANTOS - SANTANDER                                             3
 ACTION:UPD 13-02-15 09:14 OP:ep   STATUS:               ID:20130117072757 L   I
 2013-01-17-0726-36M.COL___184                                                 6
 STAT SP IPHASW D HRMM SECON CODA AMPLIT PERI AZIMU VELO AIN AR TRES W  DIS CAZ7
 BAR2 SZ EP   1    728 16.22                             171    0.04 7 22.2 196 
 BAR2 SZ ES   1    728 30.16                             171   -0.71 7 22.2 196 
 BRR  HN ES   1    728 34.72                             150    0.70 7 73.7 299 
 BRR  HZ I         728 36.68         3.6 0.36            152           73.7 299 
 PAM  SZ EP   1    728 18.82                             150   -0.06 7 77.4  38 
 RUS  HZ EP   1    728 20.57                             143    0.23 7 98.8 177 
 RUS  HN ES   1    728 38.52                             143    0.25 7 98.8 177 
 RUS  HZ I         728 40.65         1.8 0.32            145           98.8 177 
 PTB  HZ EP   1    728 23.30                             130   -0.64 7  149 260 
 PTB  HE ES   1    728 44.60                             130   -0.09 7  149 260 
 PTB  HZ I         728 46.41         3.1 0.48            132            149 260 
 CHI  HZ EP   1    728 34.86                             116    0.28 6  248 196 
                                                                                
