 2010  517 0259 30.3 L   6.706 -72.983132.0  RSN  4 0.2 1.6LRSN                1
 GAP=230        0.45       5.5     6.9  8.3 -0.1630E+02 -0.1961E+02  0.6234E-01E
 Epicentro: ARATOCA - SANTANDER                                                3
 ACTION:UP  10-08-24 10:05 OP:vdl  STATUS:               ID:20100517025930 L   I
 2010-05-17-0256-16S.COL___108                                                 6
 STAT SP IPHASW D HRMM SECON CODA AMPLIT PERI AZIMU VELO AIN AR TRES W  DIS CAZ7
 BAR2 SZ EP        259 48.47                             169     0.110   26 240 
 BAR2 SZ ES   3    3 0  1.63                             169    -0.8 2   26 240 
 BRR  HZ EP        259 51.29                             144    -0.110   92 299 
 BRR  HZ I         259 51.56         8.1 0.17                            92 299 
 BRR  HN ES   2    3 0  8.02                             144     0.2 5   92 299 
 BRI  SZ EP        259 53.23                             137    -0.110  114  10 
 BRI  SZ ES   2    3 0 11.69                             137     0.4 5  114  10 
 GUE  SZ EP        259 54.39                             135    -0.110  125   3 
                                                                                
