 2012  817 0929 54.9 L   6.816 -73.355128.9  RSN  5 0.2 2.0LRSN                1
 GAP=111        0.49       5.0     6.5  5.3  0.2045E+02  0.6606E+01  0.3781E+01E
 Epicentro: ZAPATOCA - SANTANDER                                               3
 ACTION:UPD 12-09-10 11:56 OP:ep   STATUS:               ID:20120817092954 L   I
 2012-08-17-0927-48M.COL___203                                                 6
 STAT SP IPHASW D HRMM SECON CODA AMPLIT PERI AZIMU VELO AIN AR TRES W  DIS CAZ7
 BAR2 SZ EP   1    930 12.85                             166    0.11 7 31.2 142 
 BAR2 SZ ES   1    930 26.39                             166   -0.25 7 31.2 142 
 BAR2 SZ I         930 27.31        25.0 0.27                          31.2 142 
 GIR2 SZ EP   1    930 12.48                             164   -0.21 7 34.2  32 
 BRR  HZ EP   1    930 13.48                             157    0.32 7 50.9 309 
 BRR  HN ES        930 27.44                             157    0.0610 50.9 309 
 RUS  HN ES   1    930 35.30                             138    0.15 7  106 164 
 PTB  HZ EP   1    930 18.24                             133   -0.26 7  126 256 
                                                                                
