 2013 1217 0654 10.4 L   6.822 -73.062143.2  RSN  7 0.4 1.7LRSN                1
 GAP=208        1.04       5.0     7.6  6.8  0.1889E+02  0.3947E+01 -0.7076E+01E
 Epicentro: LOS SANTOS - SANTANDER                                             3
 ACTION:UPD 14-01-13 10:18 OP:ep   STATUS:               ID:20131217065410 L   I
 OLDACT:REG 13-12-17 06:38 OP:nd   STATUS:               ID:20131217065000     3
 2013-12-17-0650-00M.COL___285                                                 6
 STAT SP IPHASW D HRMM SECON CODA AMPLIT PERI AZIMU VELO AIN AR TRES W  DIS CAZ7
 BAR2 SZ EP        654 30.30                             168    0.4710 28.7 208 
 BAR2 SZ ES        654 44.71                             168   -0.2810 28.7 208 
 BAR2 SZ I         654 46.37        20.9 0.16            165           28.7 208 
 BRR  HZ EP        654 32.22                             150    0.5310 78.4 294 
 BRR  HN ES        654 48.47                             150    0.1710 78.4 294 
 BRR  HZ I         654 49.55         6.8 0.12            147           78.4 294 
 RUS  HZ EP        654 34.32                             143    0.2710  103 181 
 RUS  HN ES        654 52.30                             143   -0.2110  103 181 
 RUS  HZ I         654 54.79         2.4 0.28            142            103 181 
 PTB  HZ EP        654 37.09                             130   -0.94 9  157 259 
 PTB  HN ES   2    654 59.43                             130   -0.17 5  157 259 
 PTB  HZ I         655  0.69         6.3 0.48            128            157 259 
 SPBC HZ EP        654 39.23                             127   -0.22 9  171 221 
 SPBC HN ES   2    655  2.14                             127    0.03 4  171 221 
 SPBC HZ I         655  6.21         5.0 0.32            126            171 221 
 ZAR  HZ EP        654 43.83                             121    0.36 8  212 291 
 ZAR  HN ES        655  9.72                             121    0.44 8  212 291 
 ZAR  HZ I         655 15.23         4.3 0.22            120            212 291 
 SML  HZ EP        654 46.94                             117   -0.13 8  246 333 
 SML  HN ES        655 14.99                             117   -0.69 8  246 333 
 SML  HZ I         655 18.64         4.9 0.26            117            246 333 
                                                                                
