 2016  117 0021 30.5 L   6.822 -73.154143.3  RSN 17 0.4 2.2LRSN                1
 GAP=134        0.89       2.2     3.1  4.8 -0.1030E+01  0.5603E+01  0.7064E+00E
 Epicentro: LOS SANTOS - SANTANDER                                             3
 ACTION:UPD 16-03-09 23:26 OP:cam  STATUS:               ID:20160117002130 L   I
 OLDACT:REG 16-01-17 13:35 OP:mh   STATUS:               ID:20160117001737     3
 2016-01-17-0017-37M.COL___322                                                 6
 STAT SP IPHASW D HRMM SECON CODA AMPLIT PERI AZIMU VELO AIN AR TRES W  DIS CAZ7
 BAR2 EZ IP     C  021 50.02                             169    0.1510 25.6 187 
 BAR2 EZ ES        022  5.09                             169    0.1010 25.6 187 
 BAR2 EZ I         022 10.36        15.6 0.26            168           25.6 187 
 PAM  EZ EP        021 52.76                             151    0.3910 76.1  41 
 PAM  EN ES        022  9.71                             151    0.2710 76.1  41 
 PAM  EZ I         022 12.10        18.6 0.42            155           76.1  41 
 RUS  HZ EP        021 53.93                             143   -0.2510  103 176 
 RUS  HN ES        022 12.66                             143   -0.0010  103 176 
 RUS  HZ I         022 12.98        14.3 0.44            144            103 176 
 PTB  HZ EP   1    021 56.38                             132   -0.84 7  147 258 
 PTB  HN ES        022 17.71                             132   -0.36 9  147 258 
 PTB  HZ I         022 22.30        17.2 0.16            130            147 258 
 OCA  HZ EP   1    021 58.75                             129    0.38 7  158 353 
 OCA  HN ES        022 19.72                             129   -0.40 9  158 353 
 OCA  HZ I         022 26.60        31.1 0.24            131            158 353 
 SPBC HZ EP   1    021 58.81                             128   -0.11 7  164 218 
 SPBC HN ES        022 20.77                             128   -0.34 9  164 218 
 SPBC HZ I         022 25.33        27.1 0.10            128            164 218 
 ZAR  HZ EP   1    022  2.31                             122   -0.28 6  202 292 
 ZAR  HN ES        022 28.29                             122    0.66 9  202 292 
 ZAR  HZ I         022 33.82        32.8 0.36            122            202 292 
 NOR  HZ EP   1    022  5.97                             118   -0.18 6  235 234 
 NOR  HE ES        022 34.06                             118    0.10 8  235 234 
 NOR  HZ I         022 42.12         9.3 0.20            118            235 234 
 SML  HZ EP        022  6.47                             117   -0.23 8  241 335 
 SML  HN ES        022 34.69                             117   -0.25 8  241 335 
 SML  HZ I         022 45.43        20.0 0.22            118            241 335 
 CHI  HZ EP        022  8.07                             116   -0.21 8  251 195 
 CHI  HN ES        022 37.20                             116   -0.56 8  251 195 
 CHI  HZ I         022 47.23         4.0 0.34            118            251 195 
 ROSC BZ EP        022  9.27                             116    0.62 8  254 211 
 ROSC BN ES   4    022 41.36                             116    2.94 0  254 211 
 ROSC BZ I         022 47.23        14.2 0.35            117            254 211 
 HEL  HZ EP   4    022 11.82                             114    1.28 0  272 255 
 HEL  HN ES        022 41.89                             114    0.10 8  272 255 
 HEL  HZ I         022 49.57         6.5 0.32            114            272 255 
 GUY2CHZ EP   4    022 15.69                             112    1.63 0  302 234 
 GUY2CHN ES        022 49.00                             112    0.96 7  302 234 
 GUY2CHZ I         022 58.32         8.4 0.56                           302 234 
 PTGC HZ EP   4    022 12.80                             111   -1.73 0  311 159 
 PTGC HN ES   4    022 45.31                             111   -3.57 0  311 159 
 PTGC HZ I         022 52.97        20.8 0.40            113            311 159 
 DBB  SZ EP        022 18.39                             109    0.65 7  338 274 
 DBB  SZ ES        022 53.89                             109   -0.70 7  338 274 
 DBB  SZ I         023 13.21        18.9 0.73            109            338 274 
 ANIL HN ES   4    023  0.86                             108    1.67 0  358 224 
 PRA  HZ EP        022 23.75                             106   -0.37 6  394 209 
 PRA  HN ES        023  5.98                             106    0.03 6  394 209 
 PRA  HZ I         023  9.26         5.5 0.46            107            394 209 
 ORTC HZ EP        022 24.46                             106   -0.03 6  397 216 
 ORTC HN ES        023  7.21                             106    0.60 6  397 216 
 ORTC HZ I         023 19.50         3.4 0.46            107            397 216 
                                                                                
