 2014  717 0339 38.1 L   6.819 -73.130140.8  RSN 19 0.4 1.9LRSN                1
 GAP=185        0.85       2.1     3.7  5.2 -0.3939E+00  0.4300E+01  0.8534E+00E
 Epicentro: LOS SANTOS - SANTANDER                                             3
 ACTION:UPD 15-03-16 20:44 OP:nd   STATUS:               ID:20140717033938 L   I
 OLDACT:REG 14-07-17 12:43 OP:fm   STATUS:               ID:20140717033817     3
 2014-07-17-0338-17M.COL___260                                                 6
 STAT SP IPHASW D HRMM SECON CODA AMPLIT PERI AZIMU VELO AIN AR TRES W  DIS CAZ7
 BAR2 SZ EP        339 57.67                             169    0.5110 25.7 193 
 BAR2 SZ ES   1    340 12.51                             169    0.47 7 25.7 193 
 BAR2 SZ I         340 14.06        25.1 0.24            167           25.7 193 
 RUS  HN ES   1    340 19.25                             142   -0.49 7  103 177 
 RUS  HZ I         340 21.71        11.5 0.30            144            103 177 
 PTB  HZ EP        340  4.83                             130   -0.00 9  150 258 
 PTB  HE ES        340 26.00                             130    0.30 9  150 258 
 PTB  HZ I         340 28.86         6.3 0.10            130            150 258 
 OCA  HN ES        340 26.85                             129   -0.62 9  158 352 
 OCA  HZ I         340 32.90         6.7 0.35            130            158 352 
 SPBC HZ EP        340  6.65                             127    0.20 9  166 219 
 SPBC HN ES        340 28.49                             127   -0.10 9  166 219 
 SPBC HZ I         340 31.29        16.1 0.28            128            166 219 
 ZAR  HZ EP        340 10.24                             121   -0.04 9  205 291 
 ZAR  HN ES        340 34.93                             121   -0.47 9  205 291 
 ZAR  HZ I         340 38.06         5.2 0.11            121            205 291 
 NOR  HZ EP        340 14.06                             117    0.26 8  237 234 
 NOR  HN ES        340 41.74                             117    0.08 8  237 234 
 NOR  HZ I         340 44.39         5.2 0.18            118            237 234 
 SML  HZ EP        340 14.15                             117   -0.15 8  243 335 
 SML  HN ES        340 43.36                             117    0.81 8  243 335 
 SML  HZ I         340 46.25         9.7 0.09            118            243 335 
 CHI  HZ EP        340 16.01                             116    0.24 8  251 195 
 CHI  HE ES   1    340 44.38                             116   -0.79 6  251 195 
 CHI  HZ I         340 48.84         5.1 0.48            117            251 195 
 ROSC BZ EP   4    340 18.07                             115    1.85 0  255 211 
 ROSC BN ES        340 45.73                             115   -0.24 8  255 211 
 ROSC BZ I         340 51.69         8.0 0.40            116            255 211 
 HEL  HN ES        340 49.89                             114    0.25 8  274 255 
 HEL  HZ I         340 56.83         4.0 0.46            114            274 255 
 URE  HZ EP        340 18.45                             112   -0.55 7  285 291 
 URE  HN ES        340 50.35                             112   -0.57 7  285 291 
 URE  HZ I         341  0.55         4.9 0.16            113            285 291 
 GUY2CHZ EP   1    340 22.26                             111    0.51 5  304 235 
 GUY2CHN ES   1    340 55.19                             111   -0.63 5  304 235 
 GUY2CHZ I         341  4.01         3.8 0.30                           304 235 
 RREF HZ EP   4    340 26.11                             110    1.80 0  324 229 
 RREF HN ES   1    341  0.41                             110    0.04 5  324 229 
 RREF HZ I         341 10.06         4.5 0.44            110            324 229 
 CBOC HZ EP   1    340 25.08                             109    0.03 5  336 252 
 CBOC HN ES        341  2.44                             109    0.76 7  336 252 
 CBOC HZ I         341  8.07         1.1 0.44            109            336 252 
 TOL  SZ EP        340 26.72                             108    0.28 6  346 225 
 TOL  SN ES   1    341  3.92                             108   -0.25 5  346 225 
 TOL  SZ I         341 11.56         7.6 0.28            109            346 225 
 PRA  HZ EP        340 31.84                             106    0.10 6  395 210 
 PRA  HE ES        341 13.11                             106   -0.48 6  395 210 
 PRA  HZ I         341 19.71         2.7 0.22            106            395 210 
 ORTC HZ EP        340 31.63                             105   -0.51 6  398 216 
 ORTC HE ES        341 14.54                             105    0.23 6  398 216 
 ORTC HZ I         341 19.18         2.6 0.34            106            398 216 
 SJC  HZ EP   4    340 32.04                             105   -1.34 0  408 327 
 SJC  HN ES   4    341 12.61                             105   -3.91 0  408 327 
 SJC  HZ I         341 18.46         1.3 0.39            106            408 327 
                                                                                
