 2011  217 0317  3.0 L   7.168 -73.072150.6  RSN  4 0.3 1.8LRSN                1
 GAP=160        0.74       3.6    16.0  8.5 -0.9964E+01 -0.2595E+01 -0.4343E-01E
 Epicentro: BUCARAMANGA - SANTANDER                                            3
 ACTION:UP  11-03-28 15:09 OP:jfem STATUS:               ID:20110217031703 L   I
 2011-02-17-0313-24S.COL___137                                                 6
 STAT SP IPHASW D HRMM SECON CODA AMPLIT PERI AZIMU VELO SNR AR TRES W  DIS CAZ7
 BAR2 SZ EP   1    317 24.74                             156     0.1 7   65 191 
 BAR2 SZ ES   1    317 42.06                             156     0.5 7   65 191 
 BAR2 SZ I         317 46.74        10.3 0.45                            65 191 
 GRA  SZ EP        317 25.68                             149     0.010   85  21 
 GRA  SZ ES   1    317 43.38                             149     0.0 7   85  21 
 GRA  SZ I         317 44.43        17.0 0.31                            85  21 
 OCA  SZ EP   1    317 28.70                             139     0.4 7  122 347 
 OCA  SZ ES   1    317 47.62                             139    -0.5 7  122 347 
 OCA  SZ I         317 49.72         4.7 0.17                           122 347 
 RUS  HZ EP   1    317 30.23                             135    -0.2 7  141 180 
 RUS  HN ES   1    317 51.36                             135    -0.4 7  141 180 
                                                                                
