 2010 1017 0610 28.6 L   6.811 -73.120141.6  RSN 12 0.4 2.0LRSN                1
 GAP=161        0.71       2.9     5.3  4.8 -0.5360E+01  0.3218E+01  0.1440E+01E
 Epicentro: LOS SANTOS - SANTANDER                                             3
 ACTION:UP  11-02-18 11:10 OP:tino STATUS:               ID:20101017061028 L   I
 2010-10-17-0608-54S.COL___125                                                 6
 STAT SP IPHASW D HRMM SECON CODA AMPLIT PERI AZIMU VELO SNR AR TRES W  DIS CAZ7
 BTL  SZ IP        610 47.73                             171     0.110   20 306 
 BTL  SZ ES   1    611  2.41                             171    -0.1 7   20 306 
 BAR2 SZ IP        610 47.58                             170    -0.210   25 196 
 BAR2 SZ ES   2    611  2.22                             170    -0.5 5   25 196 
 BAR2 SZ I         611  3.59        24.4 0.19                            25 196 
 GIR2 SZ EP   1    610 47.75                             167     0.0 7   31 345 
 BRR  HZ IP     D  610 49.50                             151     0.110   73 297 
 BRR  HN ES   1    611  6.17                             151     0.6 7   73 297 
 BRR  HZ I         611  8.83        30.9 0.21                            73 297 
 RUS  HZ EP   1    610 52.02                             143     0.0 7  102 178 
 RUS  HN ES   1    611  9.99                             143    -0.3 7  102 178 
 RUS  HZ I         611 13.26         4.7 0.36                           102 178 
 GRA  SZ IP        610 53.54                             136     0.310  124  16 
 GRA  SZ ES   1    611 12.47                             136    -0.1 7  124  16 
 GRA  SZ I         611 14.03        19.6 0.33                           124  16 
 OCA  SZ EP        610 56.43                             129     0.0 9  159 352 
 OCA  SZ ES   2    611 17.48                             129    -0.8 5  159 352 
 OCA  SZ I         611 21.69        18.8 0.87                           159 352 
 NOR  SZ EP        611  4.07                             117    -0.3 8  238 235 
 NOR  SN ES   2    611 31.55                             117    -0.8 4  238 235 
 CHI  HZ EP   1    611  6.01                             116    -0.2 6  251 196 
 CHI  HN ES   2    611 35.73                             116     0.1 4  251 196 
 CHI  HZ I         611 42.73         3.4 0.22                           251 196 
 ROSC BZ EP   2    611  7.66                             115     0.9 4  255 211 
 ROSC BN ES   2    611 37.46                             115     0.9 4  255 211 
 ROSC BZ I         611 43.52         7.3 0.39                           255 211 
 HEL  HZ EP   2    611  9.16                             113     0.3 4  275 256 
 HEL  HE ES   2    611 40.01                             113    -0.4 4  275 256 
 HEL  HZ I         611 46.07         5.5 0.44                           275 256 
 PRA  HZ EP   1    611 22.21                             106     0.0 4  394 210 
 PRA  HZ I         612 10.51        12.9 0.46                           394 210 
                                                                                
