 2017  917 0610 12.4 L   6.802 -73.148147.0  RSN 18 0.4 2.3LRSN                1
 GAP=112        0.98       2.7     4.3  4.7 -0.1324E+01  0.2897E+01  0.5364E+00E
 Epicentro: LOS SANTOS - SANTANDER                                             3
 ACTION:UPD 17-10-05 19:13 OP:rebc STATUS:               ID:20170917061012 L   I
 OLDACT:REG 17-09-17 12:29 OP:lv   STATUS:               ID:20170917060738     3
 2017-09-17-0608-00M.COL___402                                                 6
 STAT SP IPHASW D HRMM SECON CODA AMPLIT PERI AZIMU VELO AIN AR TRES W  DIS CAZ7
 BAR2 EZ EP        610 32.15                             171   -0.0710 23.5 189 
 BAR2 EZ ES        610 47.42                             171   -0.2410 23.5 189 
 BAR2 EZ I         610 49.98        65.3 0.32            167           23.5 189 
 BRR  HZ IP     D  610 33.95                             153    0.2410 70.9 298 
 BRR  HN ES        610 51.30                             153    1.0010 70.9 298 
 BRR  HZ I         610 55.15        29.1 0.16            142           70.9 298 
 PAM  EZ EP        610 35.11                             151    0.3210 77.4  40 
 PAM  EN ES        610 51.97                             151   -0.2510 77.4  40 
 PAM  EZ I         610 54.33        25.3 0.54            147           77.4  40 
 RUS  HZ EP        610 36.24                             144   -0.0910  101 176 
 RUS  HN ES        610 54.89                             144   -0.0710  101 176 
 RUS  HZ I         610 56.21        31.6 0.28            139            101 176 
 SPBC HZ EP        610 41.32                             129    0.29 9  163 219 
 SPBC HN ES        611  2.61                             129   -0.73 9  163 219 
 SPBC HZ I         611  4.92        22.7 0.20            121            163 219 
 YPLC HZ EP        610 42.58                             127    0.23 9  177 151 
 ZAR  HN ES        611  9.84                             123   -0.45 9  204 292 
 TABC EZ EP   4    610 49.98                             120    1.71 0  230 211 
 TABC EZ I         611 21.08        18.5 0.34            113            230 211 
 CHI  HZ EP        610 50.56                             117    0.34 8  249 195 
 CHI  HN ES        611 19.18                             117   -0.51 8  249 195 
 CHI  HZ I         611 25.88         9.1 0.30            111            249 195 
 ROSC BZ EP   9    610 52.47                             117    1.84 0  253 211 
 ROSC BN ES        611 21.85                                   -0.41 8  253 211 
 ROSC BZ I         611 26.83        26.6 0.40            110            253 211 
 GUY2CHZ EP   4    610 57.57                             113    1.47 0  301 235 
 GUY2CHN ES   4    611 29.68                             113   -0.47 0  301 235 
 GUY2CHZ I         611 38.38         9.1 0.30                           301 235 
 PTGC HZ EP   4    610 55.24                             112   -1.14 0  309 159 
 PTGC HN ES   4    611 28.27                             112   -2.38 0  309 159 
 PTGC HZ I         611 30.59         8.7 0.30            107            309 159 
 LL6C HZ EP        610 57.30                             111   -0.87 7  325 358 
 LL6C HE ES   4    611 32.07                             111   -1.78 0  325 358 
 ARGC HZ EP        611  2.24                             108    0.12 6  359 340 
 ARGC HN ES        611 40.97                             108    0.11 6  359 340 
 PRA  HZ EP        611  6.14                             107    0.13 6  392 210 
 PRA  HN ES        611 47.64                             107   -0.15 6  392 210 
 PRA  HZ I         611 54.41        13.0 0.38            101            392 210 
 ORTC HZ EP        611  6.94                             107    0.54 6  395 216 
 ORTC HN ES        611 48.69                             107    0.20 6  395 216 
 ORTC HZ I         611 56.07         6.4 0.36            101            395 216 
 SJC  HZ EP   4    611  6.39                             106   -1.62 0  409 327 
 SJC  HZ I         611 51.97         2.9 0.28            100            409 327 
 SMAR HZ EP        611 17.51                             102   -0.81 4  497 346 
 SMAR HN ES   4    612  5.42                             102   -4.28 0  497 346 
                                                                                
