 2013  717 0710 41.5 L   6.781 -73.159148.7  RSN  4 0.5 1.3LRSN                1
 GAP=211        1.13       7.4     9.0  9.2  0.3366E+01  0.5896E+01 -0.2446E+02E
 Epicentro: LOS SANTOS - SANTANDER                                             3
 ACTION:UPD 13-08-12 10:38 OP:ep   STATUS:               ID:20130717071041 L   I
 OLDACT:REG 13-07-17 07:25 OP:nd.  STATUS:               ID:20130717070959     3
 2013-07-17-0709-59M.COL___267                                                 6
 STAT SP IPHASW D HRMM SECON CODA AMPLIT PERI AZIMU VELO AIN AR TRES W  DIS CAZ7
 BAR2 SZ EP        711  1.56                             172    0.1110 21.0 187 
 BAR2 SZ ES        711 16.42                             172   -0.5910 21.0 187 
 BAR2 SZ I         711 17.72         3.4 0.28            172           21.0 187 
 BRR  HZ EP        711  3.58                             153    0.6110 71.0 301 
 BRR  HN ES        711 20.34                             153    0.6310 71.0 301 
 BRR  HZ I         711 21.03         4.1 0.14            146           71.0 301 
 PTB  HZ EP        711  8.66                             133    0.10 9  146 260 
 PTB  HN ES        711 29.26                             133   -0.40 9  146 260 
 PTB  HZ I         711 34.95         1.9 0.30            131            146 260 
 SML  HZ EP        711 18.06                             118   -0.39 8  245 336 
 SML  HN ES        711 46.87                             118   -0.39 8  245 336 
 SML  HZ I         711 58.41         2.1 0.10            116            245 336 
                                                                                
