 2011  917 0434 16.1 L   6.795 -73.081140.0  RSN  4 0.1 1.0LRSN                1
 GAP=202        0.31       4.8     7.9  6.9  0.2605E+02 -0.3476E+02 -0.1526E+02E
 Epicentro: LOS SANTOS - SANTANDER                                             3
 ACTION:UPD 12-07-13 15:57 OP:ep   STATUS:               ID:20110917043416 L   I
 2011-09-17-0433-06S.COL___170                                                 6
 STAT SP IPHASW D HRMM SECON CODA AMPLIT PERI AZIMU VELO AIN AR TRES W  DIS CAZ7
 BTL  SZ EP   2    434 35.04                             170   -0.05 5 24.7 303 
 GIR2 SZ EP        434 35.21                             166    0.0310 33.7 338 
 BRR  HN EP        434 36.98                             150   -0.0710 77.8 296 
 BRR  HE ES   1    434 53.44                             150    0.07 7 77.8 296 
 RUS  HZ EP   2    434 39.37                             143    0.11 5 99.8 180 
 RUS  HN ES   2    434 57.25                             143   -0.05 5 99.8 180 
 RUS  HZ I         434 59.33         1.7 0.26                          99.8 180 
                                                                                
