 2017  817 0413 33.7 L   6.785 -73.147145.8  RSN  6 0.3 1.4LRSN                1
 GAP=137        0.89       3.8     4.5  6.4 -0.5753E+00  0.5320E+01  0.2417E+01E
 Epicentro: LOS SANTOS - SANTANDER                                             3
 ACTION:UPD 17-09-04 20:21 OP:rebc STATUS:               ID:20170817041333 L   I
 OLDACT:REG 17-08-17 12:31 OP:lv   STATUS:               ID:20170817040743     3
 2017-08-17-0408-00M.COL___413                                                 6
 STAT SP IPHASW D HRMM SECON CODA AMPLIT PERI AZIMU VELO AIN AR TRES W  DIS CAZ7
 BAR2 EZ EP        413 53.12                             171   -0.1510 21.6 190 
 BAR2 EZ ES        414  8.01                             171   -0.5410 21.6 190 
 BAR2 EZ I         414 10.83         6.9 0.32            171           21.6 190 
 BRR  HZ EP        413 54.87                             152    0.0110 71.9 300 
 BRR  HN ES        414 11.95                             152    0.5610 71.9 300 
 BRR  HZ I         414 16.05         7.5 0.52            150           71.9 300 
 PAM  EZ EP        413 55.97                             150   -0.0010 78.8  39 
 PAM  EE ES        414 13.26                             150   -0.1110 78.8  39 
 PAM  EZ I         414 15.21         2.8 0.50            154           78.8  39 
 RUS  HZ EP        413 57.23                             144   -0.0710 98.9 176 
 RUS  HN ES        414 16.29                             144    0.5610 98.9 176 
 RUS  HZ I         414 17.07         3.7 0.35            148           98.9 176 
 SPBC HZ EP        414  2.29                             129    0.25 9  162 219 
 SPBC HN ES        414 23.74                             129   -0.42 9  162 219 
 SPBC HZ I         414 27.32         3.9 0.15            131            162 219 
 ZAR  HN ES        414 31.39                             122   -0.13 9  205 293 
 ZAR  HZ I         414 37.10         2.5 0.21            123            205 293 
                                                                                
