 2015  117 0401  1.3 L   6.502 -73.316129.1  RSN 16 0.5 2.3LRSN                1
 GAP= 67        1.14       2.6     3.0  5.4 -0.1787E+01  0.5343E+01  0.6216E-01E
 Epicentro: HATO - SANTANDER                                                   3
 ACTION:UPD 15-03-02 15:40 OP:nd   STATUS:               ID:20150117040101 L   I
 OLDACT:REG 15-01-17 14:05 OP:carl STATUS:               ID:20150117035743     3
 2015-01-17-0357-43M.COL___265                                                 6
 STAT SP IPHASW D HRMM SECON CODA AMPLIT PERI AZIMU VELO AIN AR TRES W  DIS CAZ7
 BAR2 EZ EP        4 1 18.73                             172   -0.0610 17.8  56 
 BAR2 EZ ES        4 1 32.27                             172   -0.1810 17.8  56 
 BAR2 EZ I         4 1 38.72        34.7 0.24            176           17.8  56 
 RUS  HZ IP     D  4 1 21.23                             149   -0.1810 72.2 159 
 RUS  HN ES        4 1 37.20                             149    0.0810 72.2 159 
 RUS  HZ I         4 1 38.93        21.5 0.16            150           72.2 159 
 BRR  HZ IP     D  4 1 21.18                             146   -0.0310 79.9 327 
 BRR  HN ES        4 1 37.56                             146    0.7910 79.9 327 
 BRR  HZ I         4 1 41.41        34.6 0.40            146           79.9 327 
 PAM  SZ EP        4 1 24.93                             136    0.3410  115  36 
 PAM  SN ES        4 1 43.02                             136    0.2410  115  36 
 PAM  SZ I         4 1 45.50        21.2 0.26            138            115  36 
 SPBC HZ EP        4 1 24.64                             133   -0.3610  126 222 
 SPBC HN ES        4 1 42.73                             133   -0.7810  126 222 
 SPBC HZ I         4 1 49.70        40.8 0.10            131            126 222 
 PTB  HZ IP   4 D  4 1 23.46                             133   -1.47 0  126 272 
 PTB  HN ES   4    4 1 41.12                             133   -2.26 0  126 272 
 PTB  HZ I         4 1 46.05        40.4 0.14            131            126 272 
 TAM  HZ EP        4 1 29.38                             124    0.33 9  169  92 
 TAM  HN ES        4 1 51.02                             124    0.31 9  169  92 
 TAM  HZ I         4 1 52.27        17.7 0.20            126            169  92 
 OCA  HZ EP        4 1 30.87                             120   -0.73 9  192 360 
 OCA  HN ES        4 1 55.13                             120   -0.12 9  192 360 
 OCA  HZ I         4 1 58.83        26.4 0.32            121            192 360 
 NOR  HZ EP        4 1 31.80                             119   -0.60 9  201 239 
 NOR  HN ES        4 1 56.24                             119   -0.45 9  201 239 
 NOR  HZ I         4 2  2.13        33.6 0.14            118            201 239 
 ZAR  HZ EP        4 1 31.76                             119   -0.76 9  203 303 
 ZAR  HN ES        4 1 57.08                             119    0.18 9  203 303 
 ZAR  HZ I         4 2  4.65        29.5 0.28            118            203 303 
 CHI  HZ EP        4 1 34.36                             118    0.28 8  212 193 
 CHI  HN ES        4 1 59.23                             118   -0.44 8  212 193 
 CHI  HZ I         4 2  8.13         5.3 0.32            117            212 193 
 HEL  HZ EP        4 1 38.30                             114    0.41 8  247 262 
 HEL  HN ES        4 2  7.34                             114    0.89 8  247 262 
 HEL  HZ I         4 2 11.87        13.4 0.28            113            247 262 
 SML  HZ EP        4 1 39.66                             111   -0.04 8  268 342 
 SML  HN ES        4 2  8.71                             111   -0.97 8  268 342 
 SML  HZ I         4 2 14.74        35.7 0.24            112            268 342 
 RREF HZ EP        4 1 43.07                             110    0.42 7  286 232 
 RREF HN ES        4 2 15.31                             110    0.38 7  286 232 
 RREF HZ I         4 2 21.64        12.9 0.50            110            286 232 
 TOL  SZ EP        4 1 45.11                             108    0.46 7  307 226 
 TOL  SN ES        4 2 18.74                             108    0.24 7  307 226 
 TOL  SZ I         4 2 24.57        28.3 0.48            108            307 226 
 CBOC HZ EP        4 1 45.40                             108    0.99 7  307 257 
 CBOC HN ES        4 2 18.08                             108    0.02 7  307 257 
 CBOC HZ I         4 2 20.83         5.2 0.20            108            307 257 
                                                                                
