 2016  617 0802 28.2 L   6.796 -73.173142.0  RSN 11 0.5 1.8LRSN                1
 GAP=133        1.01       3.8     4.5  6.1 -0.2513E+01  0.8368E+01  0.1674E+01E
 Epicentro: LOS SANTOS - SANTANDER                                             3
 ACTION:UPD 16-07-21 22:19 OP:rebc STATUS:               ID:20160617080228 L   I
 OLDACT:REG 16-06-17 12:47 OP:dnl  STATUS:               ID:20160617075748     3
 2016-06-17-0757-48M.COL___337                                                 6
 STAT SP IPHASW D HRMM SECON CODA AMPLIT PERI AZIMU VELO AIN AR TRES W  DIS CAZ7
 BAR2 EZ EP        8 2 46.97                             171   -0.3910 22.5 183 
 BAR2 EZ ES        8 3  2.30                             171   -0.0010 22.5 183 
 BAR2 EZ I         8 3  3.32        19.9 0.22                          22.5 183 
 BRR  HZ IP     C  8 2 48.89                             153    0.0910 68.8 300 
 BRR  HN ES        8 3  5.54                             153    0.6610 68.8 300 
 BRR  HZ I         8 3  8.53        10.5 0.26                          68.8 300 
 PAM  EZ EP        8 2 50.08                             150   -0.0710 79.7  41 
 PAM  EN ES        8 3  7.31                             150    0.0310 79.7  41 
 PAM  EZ I         8 3  9.28         8.6 0.46                          79.7  41 
 RUS  HZ EP        8 2 51.38                             143   -0.1810  100 174 
 RUS  HN ES        8 3 10.09                             143    0.3010  100 174 
 RUS  HZ I         8 3 10.88        10.1 0.28                           100 174 
 PTB  HZ EP        8 2 53.65                             132   -0.93 9  145 259 
 PTB  HN ES        8 3 14.80                             132   -0.36 9  145 259 
 PTB  HZ I         8 3 16.73         9.2 0.60                           145 259 
 OCA  HZ EP   2    8 2 56.26                             129    0.03 5  160 354 
 OCA  HN ES        8 3 18.15                             129    0.05 9  160 354 
 OCA  HZ I         8 3 20.34        10.3 0.36                           160 354 
 SPBC HZ EP        8 2 56.06                             129   -0.13 9  161 218 
 SPBC HE ES   2    8 3 18.72                             129    0.69 5  161 218 
 SPBC HZ I         8 3 22.50        12.0 0.22                           161 218 
 ZAR  HZ EP   2    8 2 59.52                             122   -0.61 4  201 293 
 ZAR  HN ES   2    8 3 24.56                             122   -0.48 4  201 293 
 ZAR  HZ I         8 3 30.49         7.4 0.38                           201 293 
 HEL  HZ EP        8 3  9.04                             115    1.16 8  269 256 
 HEL  HE ES   2    8 3 38.30                             115   -0.54 4  269 256 
 HEL  HZ I         8 3 46.76         3.2 0.32                           269 256 
 GUY2CHZ EP   2    8 3 12.15                             112    0.83 4  298 235 
 GUY2CHE ES   2    8 3 45.15                             112    0.19 4  298 235 
 GUY2CHZ I         8 3 53.41         2.8 0.38                           298 235 
 CBOC HZ EP   2    8 3 15.47                             110    0.86 3  331 252 
 CBOC HN ES   4    8 3 49.50                             110   -1.32 0  331 252 
 CBOC HZ I         8 3 55.51         0.9 0.36                           331 252 
                                                                                
