 2012 1117 0335 36.3 L   6.778 -73.141137.9  RSN 10 0.3 1.7LRSN                1
 GAP=138        0.66       2.8     3.4  4.8  0.9991E-02  0.5617E+01  0.2858E+00E
 Epicentro: LOS SANTOS - SANTANDER                                             3
 ACTION:UPD 12-12-05 15:33 OP:}ep  STATUS:               ID:20121117033536 L   I
 2012-11-17-0330-00M.COL___233                                                 6
 STAT SP IPHASW D HRMM SECON CODA AMPLIT PERI AZIMU VELO AIN AR TRES W  DIS CAZ7
 BAR2 SZ EP   1    335 54.89                             171   -0.01 7 21.1 192 
 BAR2 SZ ES   1    336  9.18                             171   -0.25 7 21.1 192 
 BAR2 SZ I         336 11.15        16.9 0.22                          21.1 192 
 GIR2 SZ EP   1    335 54.95                             166   -0.12 7 33.7 350 
 GIR2 SZ ES   1    336  9.49                             166   -0.24 7 33.7 350 
 BRR  HZ EP   1    335 56.79                             151    0.13 7 72.8 300 
 BRR  HN ES   1    336 13.37                             151    0.81 7 72.8 300 
 BRR  HZ I         336 14.31         7.6 0.12                          72.8 300 
 PAM  SZ EP   1    335 57.82                             149    0.08 7 78.9  38 
 PAM  SN ES   1    336 14.46                             149   -0.03 7 78.9  38 
 RUS  HZ EP   1    335 59.08                             143    0.02 7 98.2 176 
 RUS  HN ES   1    336 17.09                             143    0.24 7 98.2 176 
 RUS  HZ I         336 19.27         7.3 0.28                          98.2 176 
 PTB  HZ EP   1    336  1.90                             130   -0.70 7  148 260 
 PTB  HN ES   1    336 22.77                             130   -0.37 7  148 260 
 PTB  HZ I         336 25.45         5.9 0.16                           148 260 
 ZAR  HN ES   1    336 33.24                             120   -0.13 6  205 293 
 CHI  HN ES   1    336 42.19                             116    0.01 6  246 195 
 SML  HZ EP   1    336 12.63                             116   -0.09 6  246 335 
 SML  HE ES   1    336 41.14                             116   -0.01 6  246 335 
 HEL  HZ EP   1    336 16.83                             113    0.76 6  272 256 
 HEL  HN ES   1    336 47.17                             113    0.05 6  272 256 
 HEL  HZ I         336 53.49         3.3 0.34                           272 256 
                                                                                
