 2015  417 0156 51.3 L   6.792 -73.160146.0  RSN  7 0.4 1.4LRSN                1
 GAP=135        0.96       4.9     4.4  7.3 -0.2103E+01  0.6416E+01  0.2801E+01E
 Epicentro: LOS SANTOS - SANTANDER                                             3
 ACTION:UPD 15-06-03 16:55 OP:cam  STATUS:               ID:20150417015651 L   I
 OLDACT:REG 15-04-17 12:30 OP:spq  STATUS:               ID:20150417014748     3
 2015-04-17-0147-48M.COL___278                                                 6
 STAT SP IPHASW D HRMM SECON CODA AMPLIT PERI AZIMU VELO AIN AR TRES W  DIS CAZ7
 BAR2 EZ EP        157 10.62                             171   -0.3310 22.2 186 
 BAR2 EZ ES   1    157 25.64                             171   -0.62 7 22.2 186 
 BAR2 EZ I         157 26.90         5.0 0.32            171           22.2 186 
 BRR  HZ EP   1    157 12.49                             153    0.06 7 70.2 300 
 BRR  HN ES        157 29.58                             153    0.6810 70.2 300 
 BRR  HZ I         157 31.66         7.9 0.42            150           70.2 300 
 PAM  SZ EP        157 13.58                             151   -0.0710 79.1  40 
 PAM  SN ES   1    157 31.14                             151    0.06 7 79.1  40 
 PAM  SZ I         157 32.22         2.1 0.18            152           79.1  40 
 RUS  HZ EP   1    157 15.29                             144    0.26 7 99.8 175 
 RUS  HN ES        157 33.82                             144    0.2910 99.8 175 
 RUS  HZ I         157 35.18         3.3 0.40            147           99.8 175 
 PTB  HZ EP        157 17.67                             133   -0.47 9  146 259 
 PTB  HN ES        157 38.49                             133   -0.58 9  146 259 
 PTB  HZ I         157 42.10         3.6 0.36            132            146 259 
 ZAR  HN ES   1    157 49.10                             123    0.22 6  203 293 
 ZAR  HZ I         157 57.08         2.8 0.24            122            203 293 
 NOR  HZ EP   1    157 27.49                             119    0.63 6  233 234 
 NOR  HN ES        157 54.84                             119    0.25 8  233 234 
 NOR  HZ I         157 57.76         1.9 0.22            119            233 234 
                                                                                
