 2015  217 0437 47.8 L   6.805 -73.145155.0  RSN  9 0.5 1.8LRSN                1
 GAP=136        1.15       3.7     5.7  7.0 -0.3229E+01  0.7097E+01 -0.3479E+01E
 Epicentro: LOS SANTOS - SANTANDER                                             3
 ACTION:UPD 15-04-30 21:26 OP:nd   STATUS:               ID:20150217043747 L   I
 OLDACT:REG 15-02-17 14:53 OP:mh   STATUS:               ID:20150217042737     3
 2015-02-17-0427-37M.COL___293                                                 6
 STAT SP IPHASW D HRMM SECON CODA AMPLIT PERI AZIMU VELO AIN AR TRES W  DIS CAZ7
 BAR2 EZ EP        438  8.63                             171    0.1310 23.9 190 
 BAR2 EZ ES        438 24.43                             171   -0.2610 23.9 190 
 BAR2 EZ I         438 25.42        11.4 0.38            172           23.9 190 
 BRR  HZ EP        438 10.76                             154    0.8610 71.0 298 
 BRR  HZ I         438 10.86        12.4 0.24            153           71.0 298 
 BRR  HN ES        438 27.90                             154    0.7310 71.0 298 
 PAM  SZ EP        438 10.81                             152   -0.1210 76.9  40 
 PAM  SN ES        438 28.43                             152   -0.5810 76.9  40 
 PAM  SZ I         438 31.34         8.3 0.60            154           76.9  40 
 RUS  HZ EP        438 12.62                             145    0.1610  101 176 
 RUS  HN ES        438 31.65                             145   -0.0810  101 176 
 RUS  HZ I         438 32.35         5.5 0.26            148            101 176 
 PTB  HZ EP        438 15.27                             134   -0.23 9  148 259 
 PTB  HN ES        438 36.49                             134   -0.66 9  148 259 
 PTB  HZ I         438 39.27         6.2 0.22            134            148 259 
 OCA  HZ EP   1    438 16.59                             132   -0.16 7  160 353 
 OCA  HN ES        438 39.95                             132    0.59 9  160 353 
 OCA  HZ I         438 45.15         4.8 0.22            132            160 353 
 SPBC HZ EP        438 17.29                             131    0.27 9  164 219 
 SPBC HN ES        438 39.75                             131   -0.09 9  164 219 
 SPBC HZ I         438 46.08         7.3 0.10            132            164 219 
 SML  HZ EP        438 24.43                             119   -0.43 8  243 335 
 SML  HN ES        438 53.23                             119   -0.58 8  243 335 
 SML  HZ I         438 56.76        11.5 0.10            120            243 335 
 GUY2CHZ EP   4    438 34.37                             114    2.53 0  302 235 
 GUY2CHN ES   4    439  8.21                             114    1.98 0  302 235 
 GUY2CHZ I         439 17.38         2.2 0.58                           302 235 
                                                                                
