 2017 1117 0023 24.1 L   6.770 -73.151138.9  RSN  9 0.4 1.6LRSN                1
 GAP=138        0.98       4.3     4.6  5.9 -0.8458E+01  0.8489E+01  0.3877E+01E
 Epicentro: LOS SANTOS - SANTANDER                                             3
 ACTION:UPD 17-12-12 19:56 OP:rebc STATUS:               ID:20171117002324 L   I
 OLDACT:REG 17-11-17 13:12 OP:lv   STATUS:               ID:20171117001737     3
 2017-11-17-0018-00M.COL___477                                                 6
 STAT SP IPHASW D HRMM SECON CODA AMPLIT PERI AZIMU VELO AIN AR TRES W  DIS CAZ7
 BAR2 EZ EP        023 42.97                             171    0.1010 19.9 190 
 BAR2 EZ ES        023 57.56                             171    0.0710 19.9 190 
 BAR2 EZ I         023 59.62        17.3 0.18            170           19.9 190 
 PAM  EZ IP     D  023 45.97                             148    0.1610 80.3  38 
 PAM  EN ES        024  2.58                             148   -0.1410 80.3  38 
 PAM  EZ I         024  5.55         5.9 0.64            152           80.3  38 
 RUS  HZ EP        023 47.07                             143    0.1010 97.3 176 
 RUS  HN ES        024  4.96                             143    0.1710 97.3 176 
 RUS  HZ I         024  6.93         7.4 0.22            144           97.3 176 
 PTB  HZ EP        023 50.05                             131   -0.39 9  147 260 
 PTB  HN ES        024 10.35                             131   -0.61 9  147 260 
 PTB  HZ I         024 13.85         2.4 0.34            132            147 260 
 SPBC HZ EP        023 52.26                             128    0.43 9  160 220 
 SPBC HN ES        024 13.78                             128    0.35 9  160 220 
 SPBC HZ I         024 15.32         7.4 0.28            129            160 220 
 NOR  HZ EP        023 59.36                             117    0.15 8  232 235 
 NOR  HN ES        024 26.38                             117   -0.20 8  232 235 
 NOR  HZ I         024 31.36         2.6 0.42            119            232 235 
 CHI  HZ EP        024  0.45                             116   -0.64 8  245 195 
 CHI  HN ES        024 29.34                             116   -0.57 8  245 195 
 CHI  HZ I         024 36.09         2.0 0.38            117            245 195 
 GUY2CHZ EP        024  7.68                             111    0.52 7  299 235 
 GUY2CHN ES        024 41.82                             111    1.10 7  299 235 
 GUY2CHZ I         024 49.21         1.1 0.28                           299 235 
 PRA  HZ EP        024 17.06                             105    0.01 6  389 210 
 PRA  HN ES        024 57.53                             105   -0.79 6  389 210 
 PRA  HZ I         025  4.18         1.7 0.24            107            389 210 
 ORTC HN ES   4    025  0.44                             105    1.37 0  392 216 
 SJC  HZ EP   4    024 17.21                             104   -2.57 0  412 327 
 SJC  HN ES   4    024 58.40                             104   -4.77 0  412 327 
                                                                                
