 2016 1017 0300 36.5 L   6.810 -73.068136.6  RSN  6 0.4 1.3LRSN                1
 GAP=246        0.71       4.0     4.8  5.8  0.2007E+01  0.6097E+01  0.3552E+01E
 Epicentro: LOS SANTOS - SANTANDER                                             3
 ACTION:UPD 16-11-09 19:20 OP:rebc STATUS:               ID:20161017030036 L   I
 OLDACT:UP  16-10-17 16:07 OP:and  STATUS:               ID:20161017025730     3
 OLDACT:REG 16-10-17 11:39 OP:and  STATUS:               ID:20161017025730     3
 2016-10-17-0258-00M.COL___353                                                 6
 STAT SP IPHASW D HRMM SECON CODA AMPLIT PERI AZIMU VELO AIN AR TRES W  DIS CAZ7
 BAR2 EZ EP        3 0 54.82                             168   -0.2710 27.2 208 
 BAR2 EZ ES        3 1  9.61                             168   -0.0010 27.2 208 
 BAR2 EZ I         3 1 10.69         5.9 0.27            166           27.2 208 
 BRR  HZ EP        3 0 56.86                             148   -0.2110 78.3 295 
 BRR  HN ES        3 1 13.53                             148    0.3810 78.3 295 
 RUS  HZ EP        3 0 59.27                             142   -0.1210  101 181 
 RUS  HN ES        3 1 17.52                             142    0.2410  101 181 
 RUS  HZ I         3 1 18.90         2.4 0.42            141            101 181 
 PTB  HZ EP   2    3 1  3.73                             128    0.21 5  156 259 
 PTB  HN ES   2    3 1 23.72                             128   -0.90 5  156 259 
 PTB  HZ I         3 1 25.53         2.0 0.28            129            156 259 
 SPBC HE ES        3 1 26.95                             126   -0.13 9  169 221 
 SPBC HZ I         3 1 28.98         2.9 0.24            126            169 221 
 GUY2CHZ EP   2    3 1 21.70                             110    1.16 4  309 236 
 GUY2CHN ES        3 1 55.09                             110    0.17 7  309 236 
 GUY2CHZ I         3 2  3.24         1.0 0.62                           309 236 
                                                                                
