 2012 1017 0707 36.7 L   6.973 -73.013166.4  RSN 13 0.3 3.1LRSN 3.3WRSN        1
 SPEC AVERAGE  MO 14.0 ST 16.2 OM  2.8 f0 4.97 R0.3025 AL 4.45 WI 10.9 MW  3.3 3
 SPEC SD       MO  0.1 ST  4.8 OM  0.7 f00.704 R0.0474 AL      WI      MW  0.1 3
 GAP=100        0.64       3.1     2.7  4.2  0.1300E+01  0.1747E+01  0.2376E+01E
 Epicentro: PIEDECUESTA - SANTANDER                                            3
 SPEC RUS HH E MO 13.8 ST 15.3 OM  2.1 f0 5.56 R0.2644 AL 6.58 WI  5.5 MW  3.1 3
 SPEC RUS HH E T 7 824 K 0.000 GD  205 VS 4.20 DE 3.20 Q0230.0 QA 0.60 VS 4.20 3
 SPEC HEL HH N MO 14.0 ST 22.5 OM  2.1 f0 5.37 R0.2737 AL 3.91 WI 13.2 MW  3.3 3
 SPEC HEL HH N T 7 853 K 0.000 GD  335 VS 4.20 DE 3.20 Q0230.0 QA 0.60 VS 4.20 3
 SPEC CHI HH N MO 14.1 ST 10.9 OM  2.2 f0 3.98 R0.3693 AL 2.86 WI 14.1 MW  3.3 3
 SPEC CHI HH N T 7 849 K 0.000 GD  318 VS 4.20 DE 3.20 Q0230.0 QA 0.60 VS 4.20 3
 ACTION:UPD 12-11-22 17:04 OP:ep   STATUS:               ID:20121017070736 L   I
 2012-10-17-0706-59S.COL___230                                                 6
 STAT SP IPHASW D HRMM SECON CODA AMPLIT PERI AZIMU VELO AIN AR TRES W  DIS CAZ7
 GIR2 SZ EP        7 7 58.79                             172    0.0810 23.0 300 
 GIR2 SZ ES   1    7 8 15.48                             172   -0.36 7 23.0 300 
 BAR2 SZ EP   1    7 7 59.40       204.9 0.18            164   -0.05 7 46.1 204 
 BAR2 SZ ES   1    7 8 17.42                             164    0.26 7 46.1 204 
 BAR2 SZ I         7 8 17.88       204.9 0.18                          46.1 204 
 PAM  SZ EP        7 8  0.02                             162   -0.0610 53.3  41 
 PAM  SZ I         7 8  0.41       123.0 0.20                          53.3  41 
 PAM  SN ES   1    7 8 17.67                             162   -0.61 7 53.3  41 
 PAM  SN I         7 8 18.53       310.2 0.22                          53.3  41 
 BRR  HZ EP   1    7 8  0.83                             153    0.29 7 78.6 281 
 BRR  HZ I         7 8  1.95       343.2 0.14                          78.6 281 
 BRR  HN ES   1    7 8 19.84                             153    0.74 7 78.6 281 
 RUS  HZ EP   1    7 8  4.09                             143    0.18 7  120 184 
 RUS  HE ES   1    7 8 24.94                             143   -0.16 7  120 184 
 RUS  HE I         7 8 25.80       159.4 0.46                           120 184 
 TAM  HZ EP        7 8  5.56                             136    0.07 9  148 114 
 TAM  HZ I         7 8  5.74       309.2 0.14                           148 114 
 TAM  HN ES   1    7 8 27.85                             136   -0.06 7  148 114 
 YOP  SZ EP   1    7 8  9.79                             129    0.33 7  191 160 
 YOP  SZ I         7 8 10.14        85.5 0.38                           191 160 
 YOP  SN ES   1    7 8 35.17                             129    0.19 7  191 160 
 YOP  SN I         7 8 38.81       326.9 0.66                           191 160 
 ZAR  HZ EP        7 8 11.03                             125   -0.33 8  212 286 
 ZAR  HZ I         7 8 14.68        54.5 0.10                           212 286 
 ZAR  HN ES   1    7 8 38.59                             125    0.23 6  212 286 
 NOR  SN ES   1    7 8 46.08                             120   -0.83 6  258 233 
 CHI  HZ EP   1    7 8 17.93                             119   -0.12 6  271 197 
 CHI  HN ES   1    7 8 50.20                             119   -0.06 6  271 197 
 CHI  HN I         7 8 54.73        73.3 0.50                           271 197 
 ROSC BZ EP   9    7 8 19.86                             118    1.24 0  277 212 
 ROSC BN ES   9    7 8 53.86                                    1.34 0  277 212 
 ROSC BZ I         7 8 59.10        41.3 0.30                           277 212 
 HEL  HZ EP   1    7 8 20.49                             117    0.32 5  291 253 
 HEL  HN ES   1    7 8 53.96                             117   -0.07 5  291 253 
 HEL  HN I         7 8 56.05        53.2 0.18                           291 253 
 HEL  HZ I         7 9  2.90        52.7 0.28                           291 253 
 POP2 HZ EP   1    7 8 59.56                             101   -0.54 2  637 220 
                                                                                
