 2013  817 0216 28.4 L   6.759 -73.141141.9  RSN  5 0.2 1.4LRSN                1
 GAP=139        0.52       2.7     2.4  5.5  0.4573E+00  0.1167E+01  0.1427E+01E
 Epicentro: LOS SANTOS - SANTANDER                                             3
 2013-08-17-0208-49M.COL___213                                                 6
 OLDACT:REG 13-08-17 08:18 OP:stll STATUS:               ID:20130817020849     3
 ACTION:UPD 14-01-14 09:03 OP:ep   STATUS:               ID:20130817021628 L   I
 OLDACT:UP  13-08-17 11:21 OP:stll STATUS:               ID:20130817020849     3
 STAT SP IPHASW D HRMM SECON CODA AMPLIT PERI AZIMU VELO AIN AR TRES W  DIS CAZ7
 BRR  HN ES        217  5.80                             151    0.2310 73.9 301 
 PAM  SZ EP        216 50.34                             149   -0.0610 80.6  37 
 PAM  SN ES        217  7.42                             149   -0.1410 80.6  37 
 RUS  HZ EP        216 51.54                             144    0.1010 96.1 176 
 RUS  HN ES        217  9.48                             144    0.0710 96.1 176 
 RUS  SZ I         217 12.07         4.2 2.24            144           96.1 176 
 PTB  HN ES        217 15.43                             131   -0.35 9  147 261 
 ZAR  HN ES        217 26.26                             121    0.15 8  206 293 
                                                                                
