 2014  517 0928 16.0 L   6.861 -73.179143.1  RSN  9 0.5 1.9LRSN                1
 GAP= 70        1.12       4.0     4.3  6.9 -0.3157E+01  0.4389E+01  0.3508E+01E
 Epicentro: ZAPATOCA - SANTANDER                                               3
 ACTION:UPD 15-03-16 16:58 OP:nd   STATUS:               ID:20140517092816 L   I
 OLDACT:REG 14-05-17 12:40 OP:stll STATUS:               ID:20140517091812     3
 2014-05-17-0918-12M.COL___242                                                 6
 STAT SP IPHASW D HRMM SECON CODA AMPLIT PERI AZIMU VELO AIN AR TRES W  DIS CAZ7
 BRR  HZ EP        928 37.19                             154    0.7210 64.9 295 
 BRR  HZ I         928 37.38        12.0 0.28            154           64.9 295 
 BRR  HN ES        928 52.95                             154    0.4810 64.9 295 
 PAM  SZ IP     C  928 38.19                             151    0.4510 74.8  45 
 PAM  SN ES        928 54.93                             151    0.2010 74.8  45 
 PAM  SZ I         928 57.09        20.2 0.54            153           74.8  45 
 RUS  HZ EP        928 39.57                             141   -0.4110  108 174 
 RUS  HN ES        928 58.24                             141   -0.4710  108 174 
 RUS  HZ I         928 59.88        11.7 0.30            143            108 174 
 PTB  HZ EP        928 42.35                             132   -0.17 9  146 256 
 PTB  HN ES        929  2.87                             132   -0.37 9  146 256 
 PTB  HZ I         929  6.28         8.0 0.24            133            146 256 
 TAM  HZ EP        928 43.77                             129   -0.17 9  160 107 
 TAM  HZ I         928 44.18        17.0 0.34            131            160 107 
 SPBC HZ EP        928 44.33                             128   -0.22 9  166 217 
 NOR  HZ EP        928 51.77                             118    0.12 8  236 233 
 NOR  HN ES        929 19.30                             118   -0.19 8  236 233 
 NOR  HZ I         929 24.78         5.1 0.28            119            236 233 
 SML  HZ EP        928 51.67                             118    0.06 8  236 335 
 SML  HN ES        929 18.30                             118   -1.11 8  236 335 
 SML  HZ I         929 22.00         9.5 0.32            119            236 335 
 GUY2CHZ EP        929  0.16                             112    0.60 7  302 233 
 GUY2CHE ES        929 34.02                             112    0.45 7  302 233 
                                                                                
