 2010  417 0743 46.5 L   6.790 -73.144146.0  RSN 10 0.7 2.2LRSN                1
 GAP=198        1.60       7.5    11.1 11.3 -0.1507E+02  0.2425E+02  0.2540E+02E
 Epicentro: LOS SANTOS - SANTANDER                                             3
 ACTION:UPD 10-08-24 09:59 OP:vdl  STATUS:               ID:20100417074353 L   I
 2010-04-17-0738-36S.COL___100                                                 6
 STAT SP IPHASW D HRMM SECON CODA AMPLIT PERI AZIMU VELO AIN AR TRES W  DIS CAZ7
 BAR2 SZ EP        744  5.40                             171    -0.810   22 191 
 BAR2 SZ ES   1    744 21.18                             171    -0.3 7   22 191 
 BRR  HZ IP     C  744  7.92                             152     0.210   72 299 
 BRR  HZ I         744  8.36        38.2 0.27                            72 299 
 BRR  HN ES        744 25.16                             152     0.910   72 299 
 OCA  SZ EP        744 14.87                             130    -0.1 9  161 353 
 OCA  SZ ES   2    744 36.60                             130    -0.5 5  161 353 
 OCA  SZ I         744 41.63        28.5 0.07                           161 353 
 CHI  HN ES   1    744 53.43                             117     0.0 6  248 195 
 CHI  HZ I         744 55.80         6.2 0.65                           248 195 
 ROSC BZ EP        744 24.80                             117     0.2 8  252 211 
 ROSC BZ I         745  1.41         9.8 0.78                           252 211 
 HEL  HN ES   1    744 57.55                             115    -0.6 6  272 256 
 HEL  HZ I         745  4.47         8.1 0.14                           272 256 
 RREF BZ EP        744 34.53                             111     1.9 7  321 230 
 RREF BE ES   1    745  7.51                             111    -1.1 5  321 230 
 RREF BZ I         745 14.94        10.0 0.25                           321 230 
 DBB  SZ EP        744 34.09                             110     0.0 7  340 274 
 DBB  SZ ES   1    745  9.63                             110    -1.5 5  340 274 
 TOL  SZ EP   2    744 35.21                             109     0.5 3  343 225 
 TOL  SZ ES   2    745 11.72                             109    -0.6 3  343 225 
 PRA  HZ EP        744 39.91                             107    -0.1 6  391 210 
 PRA  HZ I         744 40.28         2.7 0.50                           391 210 
 PRA  HE ES   1    745 21.68                             107     0.0 4  391 210 
                                                                                
