 2017 1217 0253 23.0 L   6.797 -73.176142.0  RSN 11 0.5 1.8LRSN                1
 GAP=109        1.12       4.2     4.6  7.5 -0.5244E+01  0.1546E+02 -0.3149E+01E
 Epicentro: LOS SANTOS - SANTANDER                                             3
 ACTION:UPD 18-01-04 13:21 OP:rebc STATUS:               ID:20171217025323 L   I
 OLDACT:UP  17-12-17 15:25 OP:edw  STATUS:               ID:20171217024737     3
 OLDACT:UP  17-12-17 15:25 OP:edw  STATUS:               ID:20171217024737     3
 OLDACT:UP  17-12-17 15:23 OP:edw  STATUS:               ID:20171217024737     3
 OLDACT:REG 17-12-17 12:51 OP:edw  STATUS:               ID:20171217024737     3
 2017-12-17-0248-00M.COL___467                                                 6
 STAT SP IPHASW D HRMM SECON CODA AMPLIT PERI AZIMU VELO AIN AR TRES W  DIS CAZ7
 BAR2 EZ EP        253 42.20                             170    0.0810 22.6 182 
 BAR2 EZ ES        253 56.39                             170   -0.6810 22.6 182 
 BAR2 EZ I         253 58.74        23.0 0.22            169           22.6 182 
 PAM  EZ EP        253 45.38                             149    0.4610 79.8  41 
 PAM  EN ES        254  2.45                             149    0.3910 79.8  41 
 PAM  EZ I         254  4.32        16.5 0.78            156           79.8  41 
 PTB  HZ EP        253 49.04                             132   -0.27 9  144 259 
 PTB  HN ES        254  9.64                             132   -0.23 9  144 259 
 PTB  HZ I         254 18.84         4.8 0.10            133            144 259 
 OCA  HN ES        254 12.31                             129   -0.52 9  160 354 
 SPBC HZ EP        253 51.11                             129    0.17 9  161 218 
 SPBC HE ES        254 12.96                             129    0.19 9  161 218 
 SPBC HZ I         254 18.85         7.8 0.34            131            161 218 
 YPLC HZ EP   2    253 51.84                             125   -0.78 4  178 150 
 YPLC HE ES   4    254 14.87                             125   -0.88 0  178 150 
 YPLC HZ I         254 16.68         5.6 0.28            130            178 150 
 ZAR  HZ EP        253 55.80                             122    0.95 9  201 293 
 ZAR  HE ES        254 20.43                             122    0.71 9  201 293 
 ZAR  HZ I         254 24.23         7.1 0.42            124            201 293 
 URE  HZ EP        254  2.82                             113   -0.69 7  281 292 
 URE  HN ES        254 34.82                             113   -0.32 7  281 292 
 URE  HZ I         254 36.77         4.8 0.12            116            281 292 
 GUY2CHZ EP   4    254  8.04                             112    1.98 0  298 234 
 GUY2CHE ES        254 39.68                             112    0.00 7  298 234 
 GUY2CHZ I         254 47.38         2.9 0.30                           298 234 
 CBOC HZ EP   2    254 10.18                             109    0.84 3  330 252 
 CBOC HN ES   2    254 45.51                             109    0.00 3  330 252 
 SJC  HZ EP        254 17.33                             105   -0.89 6  408 327 
 SJC  HE ES   4    254 58.96                             105   -2.36 0  408 327 
                                                                                
