 2012  517 0634 59.8 L   6.753 -73.375113.8  RSN  9 0.4 1.8LRSN                1
 GAP= 81        0.81       3.7     4.5  6.4  0.2034E+01  0.1012E+02  0.2871E+01E
 Epicentro: ZAPATOCA - SANTANDER                                               3
 ACTION:UP  12-07-05 12:05 OP:pat  STATUS:               ID:20120517063459 L   I
 2012-05-17-0630-00M.COL___197                                                 6
 STAT SP IPHASW D HRMM SECON CODA AMPLIT PERI AZIMU VELO SNR AR TRES W  DIS CAZ7
 BAR2 SZ EP        635 15.98                             165     0.310   28 130 
 BAR2 SZ ES   1    635 27.72                             165    -0.4 7   28 130 
 BRR  HZ EP        635 16.35                             153    -0.110   54 316 
 BRR  HN ES   1    635 29.61                             153     0.1 7   54 316 
 PAM  SZ EP   1    635 20.95                             136     0.6 7   99  49 
 PAM  SN ES   1    635 36.72                             136     0.3 7   99  49 
 RUS  HZ EP   1    635 20.44                             136    -0.1 7  101 161 
 RUS  HZ I         635 22.52         9.0 0.21                           101 161 
 RUS  HN ES   2    635 36.48                             136    -0.2 5  101 161 
 OCA  HZ EP   1    635 25.72                             120    -0.5 7  164   2 
 OCA  HN ES   1    635 46.44                             120    -0.4 7  164   2 
 ZAR  HZ EP   1    635 27.87                             117    -0.2 7  183 297 
 ZAR  HN ES   1    635 50.34                             117     0.3 7  183 297 
 ZAR  HZ I         635 53.19        18.1 0.17                           183 297 
 CHI  HZ EP   1    635 34.05                             111    -0.6 6  238 190 
 CHI  HZ I         636  8.44         4.4 0.30                           238 190 
 HEL  HZ EP   1    635 35.79                             110     0.2 6  246 255 
 HEL  HZ I         636  8.52         4.7 0.37                           246 255 
 RREF HZ EP   2    635 43.06                             106     1.0 4  299 227 
 RREF HZ I         636 21.17         3.6 0.89                           299 227 
                                                                                
