 2017  917 0642 47.8 L   6.705 -73.055144.2  RSN  4 0.4 1.2LRSN                1
 GAP=240        1.01       6.0     9.1  8.1  0.1071E+02  0.4352E+01  0.5097E+01E
 Epicentro: ARATOCA - SANTANDER                                                3
 ACTION:UPD 17-10-05 19:13 OP:rebc STATUS:               ID:20170917064247 L   I
 OLDACT:REG 17-09-17 12:36 OP:lv   STATUS:               ID:20170917063742     3
 2017-09-17-0638-00M.COL___402                                                 6
 STAT SP IPHASW D HRMM SECON CODA AMPLIT PERI AZIMU VELO AIN AR TRES W  DIS CAZ7
 BAR2 EZ EP        643  7.19                             172    0.0610 18.8 228 
 BAR2 EZ ES        643 22.37                             172    0.1410 18.8 228 
 BAR2 EZ I         643 23.41         4.7 0.19            166           18.8 228 
 BRR  HZ EP        643  9.26                             148   -0.3510 85.1 302 
 BRR  HN ES        643 26.72                             148    0.0910 85.1 302 
 BRR  HZ I         643 30.33         3.2 0.12            148           85.1 302 
 RUS  HZ EP        643 11.32                             147    0.7010 89.9 182 
 RUS  HN ES        643 27.91                             147   -0.5310 89.9 182 
 RUS  HZ I         643 33.88         1.3 0.22            146           89.9 182 
 SPBC HZ EP        643 15.61                             129   -0.43 9  162 224 
 SPBC HN ES        643 38.38                             129    0.30 9  162 224 
 SPBC HZ I         643 43.28         3.4 0.10            129            162 224 
                                                                                
