 2014  717 0422  8.0 L   6.829 -73.152141.2  RSN 19 0.4 2.0LRSN                1
 GAP=183        0.80       2.0     3.5  4.8 -0.9546E+00  0.4028E+01  0.1015E+01E
 Epicentro: LOS SANTOS - SANTANDER                                             3
 ACTION:UPD 15-03-16 20:44 OP:nd   STATUS:               ID:20140717042208 L   I
 OLDACT:REG 14-07-17 12:46 OP:fm   STATUS:               ID:20140717041814     3
 2014-07-17-0418-14M.COL___260                                                 6
 STAT SP IPHASW D HRMM SECON CODA AMPLIT PERI AZIMU VELO AIN AR TRES W  DIS CAZ7
 BAR2 SZ EP        422 27.48                             169    0.3310 26.4 187 
 BAR2 SZ ES   1    422 41.98                             169   -0.11 7 26.4 187 
 BAR2 SZ I         422 43.62        31.5 0.24            167           26.4 187 
 RUS  HZ EP   1    422 31.46                             142   -0.09 7  104 176 
 RUS  HN ES   1    422 50.18                             142    0.26 7  104 176 
 RUS  HZ I         422 51.32         7.8 0.24            144            104 176 
 PTB  HZ EP        422 34.04                             131   -0.56 9  148 258 
 PTB  HE ES        422 55.38                             131    0.04 9  148 258 
 PTB  HZ I         422 58.78         8.3 0.15            129            148 258 
 OCA  HN ES        422 57.14                             129   -0.07 9  157 353 
 OCA  HZ I         423  2.41        11.8 0.15            130            157 353 
 SPBC HZ EP        422 36.39                             128    0.03 9  165 218 
 SPBC HN ES        422 58.10                             128   -0.37 9  165 218 
 SPBC HZ I         422 59.85        15.3 0.18            127            165 218 
 ZAR  HZ EP        422 39.79                             122   -0.17 9  202 291 
 ZAR  HN ES        423  5.00                             122    0.12 9  202 291 
 ZAR  HZ I         423  9.36         7.9 0.09            121            202 291 
 NOR  HZ EP        422 43.61                             117   -0.01 8  236 234 
 NOR  HN ES        423 11.42                             117    0.03 8  236 234 
 NOR  HZ I         423 15.30         7.5 0.11            117            236 234 
 SML  HZ EP        422 43.88                             117   -0.14 8  240 335 
 SML  HN ES        423 12.50                             117    0.39 8  240 335 
 SML  HZ I         423 17.24        12.6 0.26            117            240 335 
 CHI  HZ EP   1    422 45.20                             116   -0.58 6  252 195 
 CHI  HN ES   1    423 14.48                             116   -0.76 6  252 195 
 CHI  HZ I         423 17.18         1.6 0.18            117            252 195 
 ROSC BZ EP   1    422 46.82                             115    0.67 6  255 211 
 ROSC BN ES        423 16.51                             115    0.62 8  255 211 
 ROSC BZ I         423 25.50         7.7 0.40            116            255 211 
 HEL  HZ EP   1    422 47.28                             114   -0.72 6  272 255 
 HEL  HN ES   1    423 18.64                             114   -0.56 6  272 255 
 HEL  HZ I         423 26.86         5.8 0.24            114            272 255 
 URE  HZ EP   4    422 51.30                             113    2.66 0  282 291 
 URE  HN ES   4    423 18.17                             113   -2.17 0  282 291 
 URE  HZ I         423 25.70         6.7 0.16            113            282 291 
 GUY2CHZ EP   1    422 51.41                             111   -0.14 5  302 234 
 GUY2CHE ES        423 25.55                             111    0.03 7  302 234 
 GUY2CHZ I         423 35.32         4.0 0.24                           302 234 
 RREF HZ EP        422 53.72                             110   -0.41 7  323 229 
 RREF HN ES        423 30.64                             110    0.53 7  323 229 
 RREF HZ I         423 39.35         6.5 0.28            110            323 229 
 CBOC HZ EP        422 55.53                             109    0.76 7  334 252 
 CBOC HN ES        423 30.96                             109   -0.29 7  334 252 
 CBOC HZ I         423 42.43         1.5 0.37            109            334 252 
 TOL  SZ EP        422 57.12                             108    0.83 7  345 224 
 TOL  SN ES        423 34.04                             108    0.09 7  345 224 
 TOL  SZ I         423 39.23        10.4 0.42            109            345 224 
 PRA  HZ EP        423  1.20                             106   -0.46 6  394 209 
 PRA  HE ES        423 43.28                             106   -0.23 6  394 209 
 PRA  HZ I         423 48.28         2.3 0.42            106            394 209 
 ORTC HE ES        423 44.69                             105    0.52 6  398 216 
 ORTC HZ I         423 49.87         2.0 0.22            106            398 216 
 SJC  HZ EP   4    423  1.34                             105   -1.71 0  406 327 
 SJC  HZ E         423  1.34                                            406 327 
 SJC  HN ES   4    423 41.99                             105   -4.00 0  406 327 
 SJC  HZ I         423 50.32         1.7 0.32            106            406 327 
                                                                                
