 2017 1017 0234  7.5 L   6.784 -73.136151.3  RSN  4 0.3 1.4LRSN                1
 GAP=237        0.88       7.2     6.9  7.1  0.2442E+02  0.2614E+01 -0.6960E+00E
 Epicentro: LOS SANTOS - SANTANDER                                             3
 ACTION:UPD 17-11-07 19:32 OP:rebc STATUS:               ID:20171017023407 L   I
 OLDACT:DUP 17-10-17 13:55 OP:dani STATUS:               ID:20171017022512d    3
 OLDACT:REG 17-10-17 12:23 OP:dani STATUS:               ID:20171017022510     3
 2017-10-17-0228-00M.COL___432                                                 6
 STAT SP IPHASW D HRMM SECON CODA AMPLIT PERI AZIMU VELO AIN AR TRES W  DIS CAZ7
 BAR2 EZ EP        234 27.55                             171   -0.2610 21.8 193 
 BAR2 EZ ES        234 43.09                             171   -0.5310 21.8 193 
 BAR2 EZ I         234 44.00         4.8 0.42            175           21.8 193 
 BRR  HZ EP        234 29.63                             153    0.2410 73.0 299 
 BRR  HE ES        234 46.82                             153    0.3910 73.0 299 
 BRR  HZ I         234 49.99         9.6 0.19            152           73.0 299 
 RUS  HZ EP        234 31.98                             145    0.2710 98.7 177 
 RUS  HN ES        234 50.85                             145    0.2810 98.7 177 
 PTB  HZ EP        234 34.62                             133   -0.41 9  148 260 
 PTB  HE ES        234 56.42                             133   -0.05 9  148 260 
 PTB  HZ I         234 56.58         2.0 0.18            135            148 260 
                                                                                
