 2015  517 0407 58.0 L   6.907 -73.039146.1  RSN  7 0.3 1.5LRSN                1
 GAP=194        0.63       2.4     6.2  4.9  0.2261E+01 -0.3470E+01 -0.7634E+00E
 Epicentro: PIEDECUESTA - SANTANDER                                            3
 ACTION:UPD 15-09-10 22:04 OP:cam  STATUS:               ID:20150517040758 L   I
 OLDACT:REG 15-05-17 12:45 OP:spq  STATUS:               ID:20150517035740     3
 2015-05-17-0357-40M.COL___277                                                 6
 STAT SP IPHASW D HRMM SECON CODA AMPLIT PERI AZIMU VELO AIN AR TRES W  DIS CAZ7
 BAR2 EZ EP   1    4 8 18.03                             165   -0.07 7 38.2 205 
 BAR2 EZ ES   1    4 8 33.51                             165   -0.24 7 38.2 205 
 BAR2 EZ I         4 8 34.93         4.2 0.27            157           38.2 205 
 BRR  HZ EP        4 8 19.79                             150    0.2010 77.6 287 
 BRR  HN ES        4 8 36.79                             150    0.3810 77.6 287 
 BRR  HZ I         4 8 41.45         5.8 0.26            142           77.6 287 
 RUS  HZ EP        4 8 22.96                             141    0.2710  112 183 
 RUS  HN ES   1    4 8 41.51                             141   -0.41 7  112 183 
 RUS  HZ I         4 8 42.82         2.1 0.37            140            112 183 
 OCA  HZ EP   1    4 8 25.74                             132    0.27 7  151 348 
 OCA  HN ES        4 8 46.76                             132   -0.11 9  151 348 
 OCA  HZ I         4 8 50.06         5.0 0.22            130            151 348 
 SPBC HZ EP   1    4 8 28.23                             126    0.07 7  180 220 
 SPBC HE ES   1    4 8 51.31                             126   -0.36 7  180 220 
 SPBC HZ I         4 8 58.81         4.9 0.09            124            180 220 
 SML  HZ EP   1    4 8 33.78                             118   -0.33 6  238 332 
 SML  HE ES   1    4 9  1.68                             118   -0.57 6  238 332 
 SML  HZ I         4 9  8.43         3.5 0.10            117            238 332 
 GUY2CHZ EP   1    4 8 43.45                             111   -0.07 5  318 234 
 GUY2CHN ES   4    4 9 21.23                             111    2.22 0  318 234 
 GUY2CHZ I         4 9 26.49         2.4 0.26                           318 234 
                                                                                
