 2016  517 0305 36.2 L   6.772 -73.058150.8  RSN  7 0.4 1.5LRSN                1
 GAP=244        0.94       4.6     6.1  7.3  0.5833E+01  0.1482E+02  0.7323E+01E
 Epicentro: LOS SANTOS - SANTANDER                                             3
 ACTION:UPD 16-08-18 17:46 OP:cam  STATUS:               ID:20160517030536 L   I
 OLDACT:UP  16-05-17 17:16 OP:mh   STATUS:               ID:20160517025753d    3
 OLDACT:UP  16-05-17 17:16 OP:mh   STATUS:               ID:20160517025753d    3
 OLDACT:DUP 16-05-17 17:13 OP:mh   STATUS:               ID:20160517025753d    3
 OLDACT:REG 16-05-17 13:51 OP:mh   STATUS:               ID:20160517025752     3
 2016-05-17-0258-00M.COL___435                                                 6
 STAT SP IPHASW D HRMM SECON CODA AMPLIT PERI AZIMU VELO AIN AR TRES W  DIS CAZ7
 BAR2 EZ EP        3 5 56.41                             171   -0.0210 24.2 215 
 BAR2 EZ ES        3 6 12.70                             171    0.4710 24.2 215 
 BAR2 EZ I         3 6 13.38         8.1 0.26            170           24.2 215 
 BRR  HZ EP        3 5 58.46                             150    0.0110 81.2 297 
 BRR  HZ I         3 6  5.15         4.6 0.40            148           81.2 297 
 BRR  HE ES        3 6 15.13                             150   -0.7010 81.2 297 
 RUS  HZ EP   1    3 5 59.81                             146   -0.38 7 97.3 182 
 RUS  HN ES        3 6 19.16                             146    0.2310 97.3 182 
 RUS  HZ I         3 6 21.09         2.5 0.07            146           97.3 182 
 SPBC HN ES        3 6 27.96                             129   -0.30 9  167 222 
 SPBC HZ I         3 6 34.24        10.7 0.48            128            167 222 
 ZAR  HN ES        3 6 37.10                             122    0.72 8  214 292 
 ZAR  HZ I         3 6 41.05         2.8 0.32            121            214 292 
 NOR  HZ EP   1    3 6 12.95                             119    0.09 6  241 236 
 NOR  HE ES        3 6 41.14                             119   -0.34 8  241 236 
 NOR  HZ I         3 6 42.28         1.8 0.14            118            241 236 
 PRA  HZ EP   1    3 6 30.07                             107   -0.06 4  394 211 
 PRA  HN ES        3 7 12.67                             107    0.46 6  394 211 
                                                                                
