 2011  817 0550 59.7 L   6.769 -73.103148.9  RSN  7 0.4 2.3LRSN                1
 GAP=187        0.69       3.2     6.7  5.7 -0.1247E+01  0.4827E+01  0.2123E+01E
 Epicentro: LOS SANTOS - SANTANDER                                             3
 ACTION:UPD 12-07-13 15:52 OP:ep   STATUS:               ID:20110817055059 L   I
 2011-08-17-0549-05S.COL___150                                                 6
 STAT SP IPHASW D HRMM SECON CODA AMPLIT PERI AZIMU VELO AIN AR TRES W  DIS CAZ7
 BAR2 SZ EP   1    551 19.63                             171   -0.06 7 21.4 204 
 BAR2 SZ ES   1    551 34.67                             171   -0.59 7 21.4 204 
 BAR2 SZ I         551 37.33        25.0 0.25                          21.4 204 
 BRR  HZ IP     C  551 21.61                             151    0.0810 77.0 299 
 BRR  HZ I         551 21.92        71.4 0.19                          77.0 299 
 BRR  HN ES   1    551 39.23                             151    0.68 7 77.0 299 
 RUS  HZ EP   1    551 23.64                             145    0.12 7 96.9 179 
 RUS  HN ES   1    551 42.22                             145    0.14 7 96.9 179 
 RUS  HZ I         551 44.02        10.4 0.17                          96.9 179 
 OCA  SZ EP   1    551 28.40                             130   -0.25 7  164 352 
 OCA  SZ ES   1    551 51.18                             130   -0.04 7  164 352 
 OCA  SZ I         551 56.16        31.6 0.26                           164 352 
 NOR  SZ EP   2    551 35.54                             119   -0.29 4  237 236 
 NOR  SN ES   1    552  3.27                             119   -0.72 6  237 236 
 CHI  HZ EP   1    551 37.33                             118   -0.04 6  247 196 
 CHI  HZ I         551 39.81         4.7 0.15                           247 196 
 CHI  HN ES   2    552  7.51                             118    0.78 4  247 196 
 PRA  HZ EP   1    551 53.64                             107    0.37 4  391 210 
 PRA  HZ I         551 55.39        25.3 0.13                           391 210 
 PRA  HN ES   2    552 35.36                             107    0.32 3  391 210 
                                                                                
