 2013 1117 0724  2.4 L   6.792 -73.159149.0  RSN 10 0.6 2.0LRSN                1
 GAP=135        1.55       4.6     7.5  9.1 -0.6501E+01  0.7821E+01  0.3132E+01E
 Epicentro: LOS SANTOS - SANTANDER                                             3
 ACTION:UPD 14-01-09 16:29 OP:ep   STATUS:               ID:20131117072402 L   I
 OLDACT:UP  13-12-04 16:35 OP:ep   STATUS:               ID:20131117072402 L   3
 OLDACT:UP  13-12-03 19:21 OP:ep   STATUS:               ID:20131117072402 L   3
 OLDACT:REG 13-11-17 09:06 OP:stll STATUS:               ID:20131117071809     3
 2013-11-17-0718-09M.COL___219                                                 6
 STAT SP IPHASW D HRMM SECON CODA AMPLIT PERI AZIMU VELO AIN AR TRES W  DIS CAZ7
 BAR2 SZ EP        724 22.87                             171    0.4310 22.3 187 
 BAR2 SZ I         724 23.02        21.1 0.42            172           22.3 187 
 BAR2 SZ ES        724 37.88                             171   -0.1510 22.3 187 
 BRR  HZ EP        724 24.76                             153    0.8710 70.3 300 
 BRR  HN ES        724 41.39                             153    0.7710 70.3 300 
 BRR  HZ I         724 45.32         8.6 0.26            152           70.3 300 
 PAM  SZ EP        724 25.74                             151    0.6410 79.0  40 
 PAM  SN ES        724 42.60                             151   -0.1710 79.0  40 
 PAM  SZ I         724 45.00        21.7 0.56            152           79.0  40 
 RUS  HZ EP        724 26.89                             145    0.4310 99.8 175 
 RUS  HN ES        724 44.69                             145   -0.5010 99.8 175 
 PTB  HZ EP        724 29.66                             133    0.13 9  146 259 
 PTB  HN ES        724 50.01                             133   -0.65 9  146 259 
 PTB  HZ I         724 53.16         9.3 0.16            133            146 259 
 OCA  HZ EP        724 30.23                             130   -0.84 9  161 354 
 OCA  HE ES        724 52.42                             130   -0.98 9  161 354 
 OCA  HZ I         724 57.77        10.8 0.28            131            161 354 
 SPBC HZ EP        724 31.72                             130    0.68 9  162 219 
 SPBC HN ES        724 53.61                             130    0.27 9  162 219 
 SML  HN ES   1    725  7.79                             118   -0.20 6  244 336 
 SML  HZ I         725 10.88        18.8 0.08            119            244 336 
 CHI  HZ EP        724 39.39                             118   -0.80 8  247 195 
 CHI  HN ES        725  8.72                             118   -0.91 8  247 195 
 CHI  HZ I         725 15.66         2.9 0.32            119            247 195 
 GUY2CHZ EP   4    724 47.16                             113    1.15 0  299 235 
 GUY2CHN ES   4    725 18.62                             113   -1.37 0  299 235 
 GUY2CHZ I         725 30.81         4.3 0.38                           299 235 
                                                                                
