 2011  917 0124 15.6 L   6.777 -73.121140.3  RSN  9 0.3 2.0LRSN                1
 GAP=141        0.65       3.1     4.4  5.6  0.1977E+01  0.2385E+00 -0.2982E+01E
 Epicentro: LOS SANTOS - SANTANDER                                             3
 ACTION:UPD 12-07-13 15:57 OP:ep   STATUS:               ID:20110917012415 L   I
 2011-09-17-0120-00M.COL___173                                                 6
 STAT SP IPHASW D HRMM SECON CODA AMPLIT PERI AZIMU VELO AIN AR TRES W  DIS CAZ7
 BAR2 SZ EP        124 34.60                             171    0.0310 21.5 198 
 BAR2 SZ ES   1    124 48.91                             171   -0.44 7 21.5 198 
 BAR2 SZ I         124 50.62        24.3 0.24                          21.5 198 
 BTL  SZ EP        124 34.96                             170    0.3610 22.5 314 
 GIR2 SZ EP        124 34.72                             166   -0.0310 34.3 346 
 BRR  HZ EP        124 36.56                             150    0.1510 74.8 299 
 BRR  HE ES   1    124 53.14                             150    0.52 7 74.8 299 
 BRR  HZ I         124 57.96        22.5 0.16                          74.8 299 
 PAM  SZ EP        124 37.49                             150    0.2010 77.7  37 
 PAM  SN ES   1    124 54.33                             150    0.15 7 77.7  37 
 RUS  HZ EP        124 38.53                             143   -0.1310 97.9 178 
 RUS  HN ES   1    124 56.39                             143   -0.22 7 97.9 178 
 RUS  HZ I         124 57.63         8.7 0.26                          97.9 178 
 BRI  SZ EP   3    124 39.22                             140    0.10 2  110  19 
 OCA  SZ EP        124 43.53                             128   -0.27 9  163 352 
 OCA  SZ ES   1    125  5.20                             128   -0.57 7  163 352 
 OCA  SZ I         125 10.10        16.5 0.23                           163 352 
 ZAR  HN ES   1    125 13.17                             121   -0.25 6  208 293 
 ZAR  HZ I         125 18.58        13.0 0.48                           208 293 
                                                                                
