 2010  717 0242  5.5 L   6.795 -73.085144.4  RSN  6 0.2 1.7LRSN                1
 GAP=165        0.66       3.7     7.3  6.9  0.5183E+01 -0.2538E+02 -0.1013E+02E
 Epicentro: LOS SANTOS - SANTANDER                                             3
 ACTION:UPD 10-12-01 15:18 OP:pat  STATUS:               ID:20100717024205 L   I
 2010-07-17-0238-49S.COL___120                                                 6
 STAT SP IPHASW D HRMM SECON CODA AMPLIT PERI AZIMU VELO AIN AR TRES W  DIS CAZ7
 BAR2 SZ EP   1    242 24.96                             170    -0.1 7   25 206 
 BAR2 SZ ES   1    242 39.74                             170    -0.5 7   25 206 
 BAR2 SZ I         242 43.56        20.8 0.59                            25 206 
 BRR  HZ IP     D  242 26.80                             150    -0.110   78 297 
 BRR  HN ES        242 43.77                             150     0.210   78 297 
 BRR  HZ I         242 46.72        18.6 0.16                            78 297 
 RUS  HZ EP   1    242 29.34                             144     0.2 7  100 180 
 RUS  HN ES   1    242 47.68                             144     0.2 7  100 180 
 RUS  HZ I         242 48.91         7.3 0.29                           100 180 
 GUE  SZ IP        242 29.92                             139    -0.210  116   9 
 GUE  SZ I         242 50.03         3.2 0.13                           116   9 
 GRA  SZ IP        242 30.77                             137     0.210  124  14 
 GRA  SZ ES   2    242 50.31                             137     0.2 5  124  14 
 GRA  SZ I         242 51.19         6.6 0.42                           124  14 
 OCA  SZ EP   1    242 33.57                             129    -0.3 7  162 351 
 OCA  SZ ES   2    242 56.23                             129     0.2 5  162 351 
 OCA  SZ I         242 58.96         6.6 0.22                           162 351 
                                                                                
