 2013  217 0316  2.2 L   6.820 -73.112147.6  RSN  7 0.3 1.5LRSN                1
 GAP=140        0.85       3.6     4.6  6.1  0.2160E+01  0.7352E+01  0.4272E+01E
 Epicentro: LOS SANTOS - SANTANDER                                             3
 ACTION:UPD 13-03-12 09:33 OP:ep   STATUS:               ID:20130217031602 L   I
 2013-02-17-0310-00M.COL___241                                                 6
 STAT SP IPHASW D HRMM SECON CODA AMPLIT PERI AZIMU VELO AIN AR TRES W  DIS CAZ7
 BAR2 SZ EP        316 21.82                             169   -0.3110 26.4 197 
 BAR2 SZ ES        316 37.34                             169   -0.3310 26.4 197 
 BAR2 SZ I         316 37.46         8.1 0.18            166           26.4 197 
 PAM  SZ EP        316 24.89                             152    0.5010 73.3  38 
 PAM  SN ES        316 41.77                             152    0.0810 73.3  38 
 PAM  SN I         316 43.79         7.8 0.72            149           73.3  38 
 BRR  HZ EP        316 23.69                             152    0.0010 73.4 296 
 BRR  HN ES        316 40.70                             152    0.2610 73.4 296 
 BRR  HN I         316 43.83         8.2 0.16            142           73.4 296 
 RUS  HZ EP        316 25.84                             144   -0.4610  103 178 
 RUS  HN ES        316 45.09                             144    0.0110  103 178 
 RUS  HN I         316 45.49         2.4 0.18            139            103 178 
 PTB  HZ EP        316 29.49                             132   -0.22 9  152 258 
 PTB  HN I         316 51.32         4.8 0.22            123            152 258 
 ZAR  HE ES        317  0.61                             122   -0.05 8  207 291 
 CHI  HZ EP   2    316 40.30                             117   -0.06 4  252 196 
 CHI  HN ES     D  317 10.91                             117    0.80 8  252 196 
                                                                                
