 2017  317 0056 48.5 L   6.738 -73.152142.0  RSN 10 0.6 1.9LRSN                1
 GAP=138        1.31       5.9     5.6  8.2  0.1303E+00  0.1022E+02  0.6696E+01E
 Epicentro: LOS SANTOS - SANTANDER                                             3
 ACTION:UPD 17-05-25 18:41 OP:jn   STATUS:               ID:20170317005648 L   I
 OLDACT:REG 17-03-17 13:03 OP:cog  STATUS:               ID:20170317004720     3
 2017-03-17-0048-00M.COL___409                                                 6
 STAT SP IPHASW D HRMM SECON CODA AMPLIT PERI AZIMU VELO AIN AR TRES W  DIS CAZ7
 BAR2 EZ EP        057  7.53                             173    0.0010 16.4 192 
 BAR2 EZ ES        057 22.31                             173   -0.0810 16.4 192 
 BRR  HZ EP        057  9.40                             151    0.0110 74.2 303 
 BRR  HE ES        057 26.50                             151    0.8010 74.2 303 
 BRR  HZ I         057 29.40        16.6 0.18            152           74.2 303 
 PAM  HZ EP        057 10.45                             148   -0.2010 83.2  37 
 PAM  EN ES        057 27.46                             148   -0.4910 83.2  37 
 PAM  HZ I         057 30.21        13.9 0.24            151           83.2  37 
 RUS  HZ EP        057 11.48                             145    0.1210 93.7 175 
 RUS  HN ES        057 29.71                             145    0.4910 93.7 175 
 RUS  HZ I         057 32.02         7.8 0.30            147           93.7 175 
 PTB  HZ EP        057 14.23                             132   -0.73 9  146 261 
 PTB  HN ES        057 34.50                             132   -1.13 9  146 261 
 PTB  HZ I         057 37.56        12.3 0.18            134            146 261 
 SPBC HZ EP        057 16.59                             129    0.45 9  157 220 
 SPBC HN ES   3    057 36.11                             129   -1.60 2  157 220 
 ZAR  HZ EP   3    057 22.30                             121    1.41 2  206 294 
 ZAR  HE ES        057 47.08                             121    0.90 8  206 294 
 NOR  HZ EP        057 23.33                             118   -0.17 8  230 236 
 CHI  HZ EP   3    057 27.08                             117    1.86 2  242 195 
 GUY2CHZ EP   9    057 33.35                             112    1.95 0  297 236 
 GUY2CHN ES        058  6.47                                   -0.36 7  297 236 
                                                                                
