 2010 1117 0621 11.4 L   6.750 -73.073143.4  RSN  5 0.3 1.7LRSN                1
 GAP=167        0.77       4.5    10.1  8.5  0.8542E+01 -0.2280E+02 -0.1535E+02E
 Epicentro: LOS SANTOS - SANTANDER                                             3
 ACTION:UP  10-12-17 16:53 OP:REBC STATUS:               ID:20101117062111 L   I
 2010-11-17-0620-06S.COL___128                                                 6
 STAT SP IPHASW D HRMM SECON CODA AMPLIT PERI AZIMU VELO SNR AR TRES W  DIS CAZ7
 BAR2 SZ EP   1    621 30.76                             171     0.1 7   21 215 
 BAR2 SZ ES   1    621 45.26                             171    -0.5 7   21 215 
 BAR2 SZ I         621 46.83        12.5 0.38                            21 215 
 BRR  HZ IP     D  621 32.75                             149    -0.110   81 299 
 BRR  HZ I         621 32.91        10.3 0.23                            81 299 
 BRR  HE ES   1    621 49.72                             149     0.1 7   81 299 
 RUS  HZ EP   2    621 34.58                             145     0.1 5   95 181 
 RUS  HN ES   1    621 52.92                             145     0.4 7   95 181 
 RUS  HZ I         621 54.07         5.6 0.35                            95 181 
 GRA  SZ EP   1    621 36.82                             136     0.1 7  129  13 
 GRA  SZ I         621 38.11         6.7 0.08                           129  13 
 GRA  SZ ES   2    621 56.25                             136    -0.2 5  129  13 
 OCA  SZ EP   1    621 39.70                             128    -0.5 7  167 351 
 OCA  SZ ES   1    622  3.18                             128     0.6 7  167 351 
 OCA  SZ I         622  5.85         6.8 0.23                           167 351 
                                                                                
