 2016 1217 0103  2.5 L   6.491 -73.612113.7  RSN  5 0.2 1.2LRSN                1
 GAP=135        0.61       3.3     2.7  4.7  0.2485E+01  0.3599E+00  0.2393E+00E
 Epicentro: SANTA HELENA DEL OPON - SANTANDER                                  3
 ACTION:UPD 17-01-11 20:15 OP:rebc STATUS:               ID:20161217010302 L   I
 OLDACT:UP  16-12-17 13:44 OP:e    STATUS:               ID:20161217005743     3
 OLDACT:UP  16-12-17 13:43 OP:e    STATUS:               ID:20161217005743     3
 OLDACT:REG 16-12-17 12:40 OP:and  STATUS:               ID:20161217005743     3
 2016-12-17-0058-00M.COL___381                                                 6
 STAT SP IPHASW D HRMM SECON CODA AMPLIT PERI AZIMU VELO AIN AR TRES W  DIS CAZ7
 BAR2 EZ EP        1 3 19.29                             155    0.0110 48.8  77 
 BAR2 EZ ES        1 3 32.28                             155   -0.0910 48.8  77 
 BAR2 EZ I         1 3 33.61        10.4 0.26            157           48.8  77 
 BRR  HZ EP        1 3 20.10                             146   -0.0410 69.0 351 
 BRR  HE ES        1 3 34.19                             146    0.3010 69.0 351 
 RUS  HZ EP        1 3 22.65                             140    0.4010 88.4 138 
 RUS  HN ES        1 3 37.53                             140   -0.1310 88.4 138 
 RUS  HZ I         1 3 44.59         1.3 0.32            138           88.4 138 
 PTB  HZ EP        1 3 22.06                             138    0.0610 93.5 273 
 PTB  HN ES        1 3 37.01                             138   -0.2110 93.5 273 
 PTB  HZ I         1 3 38.44         3.0 0.18            141           93.5 273 
 PAM  EZ EP        1 3 26.36                             126   -0.33 9  138  47 
 PAM  EE ES   4    1 3 42.66                             126   -2.89 0  138  47 
 PAM  EZ I         1 3 44.39         3.0 0.46            131            138  47 
                                                                                
