 2013 1117 0500 55.1 L   6.709 -73.110145.5  RSN  5 0.5 1.1LRSN                1
 GAP=145        1.20       6.3     6.3  8.8 -0.3688E+01  0.6952E+01  0.1316E+01E
 Epicentro: JORDAN - SANTANDER                                                 3
 ACTION:UPD 14-01-09 16:28 OP:ep   STATUS:               ID:20131117050055 L   I
 OLDACT:REG 13-11-17 09:03 OP:stll STATUS:               ID:20131117045810     3
 2013-11-17-0458-10M.COL___220                                                 6
 STAT SP IPHASW D HRMM SECON CODA AMPLIT PERI AZIMU VELO AIN AR TRES W  DIS CAZ7
 BAR2 SZ EP        5 1 15.01                             174    0.4610 15.2 212 
 BAR2 SZ ES        5 1 29.77                             174    0.0410 15.2 212 
 BRR  HZ EP        5 1 17.04                             150    0.3310 79.8 304 
 BRR  HN ES        5 1 34.35                             150    0.7710 79.8 304 
 PAM  SZ EP        5 1 17.60                             149   -0.0310 83.1  33 
 PAM  SN ES        5 1 34.51                             149   -0.7010 83.1  33 
 PAM  SZ I         5 1 37.18         4.7 0.58            154           83.1  33 
 RUS  HZ EP        5 1 18.25                             147    0.1510 90.4 178 
 RUS  HN ES        5 1 35.97                             147   -0.0810 90.4 178 
 RUS  HZ I         5 1 40.33         1.2 0.48            147           90.4 178 
 PTB  HZ EP        5 1 21.89                             131   -0.35 9  150 263 
 PTB  HN ES        5 1 42.68                             131   -0.74 9  150 263 
 PTB  HZ I         5 1 50.45         1.6 0.32            132            150 263 
                                                                                
