 2017  817 0534 27.3 L   6.714 -73.242138.5  RSN  5 0.2 1.1LRSN                1
 GAP=204        0.67       3.7     4.6  6.0  0.7838E+01  0.5235E+01  0.8806E+00E
 Epicentro: VILLANUEVA - SANTANDER                                             3
 ACTION:UPD 17-09-04 20:21 OP:rebc STATUS:               ID:20170817053427 L   I
 OLDACT:REG 17-08-17 12:35 OP:lv   STATUS:               ID:20170817052735     3
 2017-08-17-0528-00M.COL___407                                                 6
 STAT SP IPHASW D HRMM SECON CODA AMPLIT PERI AZIMU VELO AIN AR TRES W  DIS CAZ7
 BAR2 EZ EP        534 45.60                             174   -0.2810 14.9 154 
 BAR2 EZ ES        535  0.05                             174   -0.3510 14.9 154 
 BAR2 EZ I         535  1.57         2.8 0.16            172           14.9 154 
 BRR  HZ EP        534 47.47                             152    0.0310 67.8 310 
 BRR  HE ES        535  3.56                             152    0.3910 67.8 310 
 BRR  HZ I         535  6.20         3.1 0.34            153           67.8 310 
 RUS  HZ EP        534 49.95                             145    0.2210 92.5 169 
 RUS  HE ES        535  7.44                             145    0.2010 92.5 169 
 RUS  HZ I         535  8.79         1.3 0.30            146           92.5 169 
 SPBC HN ES        535 14.52                             130   -0.12 9  149 218 
 SPBC HZ I         535 18.30         1.4 0.08            131            149 218 
 ZAR  HN ES        535 22.97                             121   -0.15 9  198 296 
 ZAR  HZ I         535 23.84         2.6 0.38            123            198 296 
                                                                                
