 2011  717 0937 45.1 L   6.807 -73.004139.7  RSN  7 0.2 1.9LRSN                1
 GAP=172        0.54       2.6     6.4  5.0  0.2550E+00 -0.9130E+01 -0.1912E+01E
 Epicentro: CEPITA - SANTANDER                                                 3
 ACTION:UPD 12-07-25 14:01 OP:epov STATUS:               ID:20110717093745 L   I
 2011-07-17-0935-37S.COL___143                                                 6
 STAT SP IPHASW D HRMM SECON CODA AMPLIT PERI AZIMU VELO AIN AR TRES W  DIS CAZ7
 BAR2 SZ EP   1    938  4.10                             167   -0.12 7 30.9 220 
 BAR2 SZ I         938  4.42        30.6 0.10                          30.9 220 
 BAR2 SZ ES   1    938 19.26                             167    0.16 7 30.9 220 
 GIR2 SZ EP        938  4.36                             165    0.1110 36.6 325 
 GIR2 SZ ES   1    938 19.17                             165    0.02 7 36.6 325 
 BRR  HZ EP   1    938  5.99                             147   -0.51 7 85.0 293 
 BRR  HZ I         938  6.33        29.8 0.11                          85.0 293 
 BRR  HN ES   1    938 23.32                             147    0.16 7 85.0 293 
 RUS  HZ EP   1    938  8.53                             142    0.16 7  102 185 
 RUS  HN ES   1    938 26.30                             142   -0.18 7  102 185 
 RUS  HZ I         938 28.01         8.8 0.36                           102 185 
 BRI  SZ EP   1    938  8.46                             141    0.42 7  103  13 
 BRI  SZ I         938 30.45         8.2 0.30                           103  13 
 GRA  SZ ES   1    938 28.03                             137   -0.40 7  121  10 
 OCA  SZ EP   1    938 13.14                             128   -0.02 7  162 348 
 OCA  SZ ES   1    938 35.13                             128    0.12 7  162 348 
 OCA  SZ I         938 39.44        10.0 0.18                           162 348 
                                                                                
