 2017  517 0143 46.1 L   6.798 -73.152147.2  RSN  9 0.3 2.1LRSN                1
 GAP=155        0.80       3.8     3.8  7.6 -0.4749E+01 -0.9417E+00  0.1347E+02E
 Epicentro: LOS SANTOS - SANTANDER                                             3
 ACTION:UPD 17-06-16 13:36 OP:jn   STATUS:               ID:20170517014346 L   I
 OLDACT:UP  17-05-17 14:31 OP:dnl  STATUS:               ID:20170517013735     3
 OLDACT:UP  17-05-17 14:31 OP:dnl  STATUS:               ID:20170517013735     3
 OLDACT:REG 17-05-17 13:25 OP:dnl  STATUS:               ID:20170517013735     3
 2017-05-17-0138-00M.COL___356                                                 6
 STAT SP IPHASW D HRMM SECON CODA AMPLIT PERI AZIMU VELO AIN AR TRES W  DIS CAZ7
 BRR  HZ IP     C  144  7.47                             153    0.0510 70.7 299 
 BRR  HN ES        144 24.46                             153    0.4510 70.7 299 
 BRR  HZ I         144 28.52        21.6 0.30            152           70.7 299 
 PAM  EZ IP     C  144  8.66                             151    0.1110 78.0  40 
 PAM  EN ES        144 25.79                             151   -0.2310 78.0  40 
 PAM  EZ I         144 27.82        39.3 0.52            157           78.0  40 
 PTB  HZ EP   2    144 12.86                             132   -0.30 5  147 259 
 PTB  HN ES        144 33.45                             132   -0.78 9  147 259 
 PTB  HZ I         144 40.64        10.2 0.42            132            147 259 
 SPBC HZ EP        144 14.71                             129    0.02 9  163 219 
 SPBC HE ES        144 37.33                             129    0.37 9  163 219 
 SPBC HZ I         144 39.83        19.7 0.12            130            163 219 
 ZAR  HZ EP   4    144 20.08                             123    1.46 0  203 292 
 ZAR  HN ES        144 43.98                             123    0.02 9  203 292 
 ZAR  HZ I         144 49.71        13.2 0.26            124            203 292 
 NOR  HZ EP   4    144 18.47                             119   -3.41 0  234 234 
 NOR  HE ES        144 50.05                             119    0.30 8  234 234 
 NOR  HZ I         144 57.09         7.8 0.32            120            234 234 
 CHI  HZ EP   2    144 24.02                             117    0.15 4  248 195 
 CHI  HE ES        144 52.96                             117   -0.34 8  248 195 
 CHI  HZ I         144 56.66         7.9 0.40            119            248 195 
 ROSC BZ EP   4    144 26.05                             117    1.77 0  252 211 
 ROSC BN ES   4    144 56.75                             117    2.73 0  252 211 
 ROSC BZ I         144 59.24        14.7 0.35            118            252 211 
 ORTC HZ EP   2    144 40.39                             107    0.35 3  395 216 
 ORTC HN ES   4    145 23.49                             107    1.41 0  395 216 
 ORTC HZ I         145 26.82         3.5 0.56            108            395 216 
                                                                                
