 2014  317 0131 16.7 L   6.041 -73.689117.7  RSN 10 0.6 1.8LRSN                1
 GAP= 78        1.49       4.6     4.1  8.8 -0.2483E+01  0.9654E+01 -0.5475E+01E
 Epicentro: BOLIVAR - SANTANDER                                                3
 ACTION:UPD 14-04-09 23:18 OP:nd   STATUS:               ID:20140317013116 L   I
 OLDACT:REG 14-03-17 08:57 OP:mh   STATUS:               ID:20140317012808     3
 2014-03-17-0128-08M.COL___248                                                 6
 STAT SP IPHASW D HRMM SECON CODA AMPLIT PERI AZIMU VELO AIN AR TRES W  DIS CAZ7
 SPBC HZ IPg       131 34.63                             151    0.2810 60.4 225 
 SPBC HN ESg       131 48.52                             151    0.4010 60.4 225 
 SPBC HZ I         131 53.86        20.5 0.24            151           60.4 225 
 RUS  HZ IPg    C  131 35.71                             148    0.2510 69.0 104 
 RUS  HN ES        131 49.76                             148   -0.3310 69.0 104 
 RUS  HN ESg       131 50.04                             148   -0.0510 69.0 104 
 RUS  HZ I         131 51.39        11.9 0.21            151           69.0 104 
 BAR2 SZ EP        131 36.66                             142    0.6010 82.8  43 
 BAR2 SZ ES   1    131 51.44                             142    0.28 7 82.8  43 
 BAR2 SZ I         131 52.52        42.8 0.11            147           82.8  43 
 PTB  HZ EP        131 35.75                             136   -1.4710  101 303 
 PTB  HN ES        131 52.34                             136   -0.8810  101 303 
 PTB  HZ I         131 55.89         8.9 0.13            138            101 303 
 NOR  HZ EP        131 41.05                             126    0.12 9  141 248 
 NOR  HN ES        132  0.38                             126    0.56 9  141 248 
 NOR  HZ I         132  3.77        16.3 0.13            127            141 248 
 CHI  HZ EP   1    131 42.43                             123   -0.49 7  156 182 
 CHI  HN ES        132  3.37                             123    0.01 9  156 182 
 CHI  HZ I         132  9.17         6.0 0.39            125            156 182 
 PAM  SZ EP        131 45.89                             119    0.33 9  181  37 
 PAM  SN ES        132  8.11                             119    0.04 9  181  37 
 PAM  SZ I         132 11.42         6.8 0.36            122            181  37 
 HEL  HZ EP   1    131 49.43                             116    1.44 6  204 275 
 HEL  HN ES        132 12.62                             116    0.22 9  204 275 
 HEL  HZ I         132 19.13         3.7 0.30            117            204 275 
 ZAR  HN ES        132 12.13                             115    0.22 8  206 321 
 ORTC HZ EP        131 56.58                             107   -1.01 7  292 216 
 ORTC HZ I         131 59.81         4.2 0.13            108            292 216 
 ORTC HN ES   4    132 30.94                             107    1.47 0  292 216 
                                                                                
