 2011  517 0050 31.5 L   6.770 -73.098150.6  RSN  4 0.1 1.4LRSN                1
 GAP=228        0.32       7.3    14.0  8.7  0.8753E+02 -0.7930E+02 -0.3633E+02E
 Epicentro: LOS SANTOS - SANTANDER                                             3
 ACTION:UP  11-06-29 08:53 OP:tino STATUS:               ID:20110517005031 L   I
 2011-05-17-0046-24S.COL___140                                                 6
 STAT SP IPHASW D HRMM SECON CODA AMPLIT PERI AZIMU VELO SNR AR TRES W  DIS CAZ7
 BAR2 SZ EP   1    050 51.61                             171    -0.1 7   22 205 
 BTL  SZ EP   1    050 51.85                             170     0.1 7   25 311 
 BRR  HZ EP   1    050 53.51                             151     0.0 7   77 299 
 BRR  HZ I         050 55.30        10.1 0.38                            77 299 
 BRR  HN ES   2    051 10.77                             151     0.0 5   77 299 
 RUS  HZ EP   1    050 55.57                             146     0.1 7   97 179 
 RUS  HN ES   2    051 14.19                             146     0.0 5   97 179 
 RUS  HZ I         051 15.21         2.0 0.25                            97 179 
                                                                                
