 2013  517 0256 33.4 L   6.761 -73.223152.8  RSN  8 0.5 1.3LRSN                1
 GAP=161        1.06       4.5     7.5  7.9  0.1023E+02  0.1159E+02 -0.8259E-01E
 Epicentro: ZAPATOCA - SANTANDER                                               3
 ACTION:UPD 13-06-20 09:51 OP:ep   STATUS:               ID:20130517025633 L   I
 2013-05-17-0250-00M.COL___253                                                 6
 STAT SP IPHASW D HRMM SECON CODA AMPLIT PERI AZIMU VELO AIN AR TRES W  DIS CAZ7
 BAR2 SZ EP        256 53.55                             173   -0.2710 19.2 166 
 BAR2 SZ ES        257  9.50                             173   -0.2310 19.2 166 
 BAR2 SZ I         257  9.77         6.4 0.26            172           19.2 166 
 GIR2 SZ ES   1    257  9.69                             167   -0.42 7 35.3   5 
 BRR  HZ EP        256 55.47                             155    0.4010 66.2 305 
 BRR  HN ES        257 12.54                             155    0.5910 66.2 305 
 BRR  HZ I         257 13.62         4.9 0.72            154           66.2 305 
 RUS  HZ EP        256 57.61                             146   -0.0210 97.2 171 
 RUS  HN ES        257 16.27                             146   -0.2510 97.2 171 
 RUS  HZ I         257 17.49         1.9 0.28            146           97.2 171 
 PTB  HZ EP        257  0.51                             135    0.35 9  139 260 
 PTB  HN ES   1    257 21.35                             135    0.33 7  139 260 
 PTB  HZ I         257 23.60         3.1 0.36            134            139 260 
 OCA  HN ES        257 25.61                             131    0.23 9  164 356 
 ZAR  HN ES   2    257 29.60                             124   -1.29 4  198 294 
 SML  HN ES   1    257 38.23                             119   -1.20 6  244 338 
                                                                                
