 2014 1117 0833 43.2 L   6.807 -73.145142.4  RSN  7 0.5 1.9LRSN                1
 GAP=136        1.19       4.2     5.8  7.5 -0.6344E+01  0.6171E+01 -0.1023E+01E
 Epicentro: LOS SANTOS - SANTANDER                                             3
 ACTION:UPD 14-12-19 15:43 OP:nd   STATUS:               ID:20141117083343 L   I
 OLDACT:ARG 14-11-17 13:51 OP:stll STATUS:               ID:20141117082746     3
 2014-11-17-0827-46M.COL___274                                                 6
 STAT SP IPHASW D HRMM SECON CODA AMPLIT PERI AZIMU VELO AIN AR TRES W  DIS CAZ7
 BAR2 SZ EP        834  2.86                             170    0.4110 24.1 190 
 BAR2 SZ ES        834 17.37                             170   -0.0910 24.1 190 
 BAR2 SZ I         834 18.75        18.5 0.24            170           24.1 190 
 BRR  HZ EP        834  4.43                             152    0.4510 70.9 298 
 BRR  HE ES        834 20.91                             152    0.7410 70.9 298 
 BRR  HZ I         834 24.58        10.1 0.36            151           70.9 298 
 PAM  SZ EP        834  5.56                             150    0.5310 76.7  40 
 PAM  SE ES        834 21.78                             150   -0.2610 76.7  40 
 PAM  SZ I         834 24.70        33.7 0.70            154           76.7  40 
 RUS  HZ EP        834  7.01                             143    0.3210  101 176 
 RUS  HN ES        834 24.35                             143   -0.6510  101 176 
 RUS  HZ I         834 27.41         5.6 0.36            146            101 176 
 PTB  HZ EP        834  9.49                             131   -0.44 9  148 259 
 PTB  HN ES        834 30.33                             131   -0.43 9  148 259 
 PTB  HZ I         834 34.82         8.9 0.20            132            148 259 
 OCA  HZ EP        834 10.44                             129   -0.75 9  159 353 
 OCA  HN ES        834 32.68                             129   -0.32 9  159 353 
 OCA  HZ I         834 36.74         9.5 0.22            131            159 353 
 SPBC HZ EP        834 11.66                             128    0.14 9  164 219 
 SPBC HE ES        834 33.68                             128    0.09 9  164 219 
 SPBC HZ I         834 38.98        11.0 0.24            130            164 219 
                                                                                
