 2013  617 0507 32.6 L   6.805 -73.152143.6  RSN 11 0.5 2.0LRSN                1
 GAP=182        0.92       3.0     5.1  6.0  0.1255E+01  0.7097E+01  0.2334E+01E
 Epicentro: LOS SANTOS - SANTANDER                                             3
 ACTION:UPD 14-01-08 09:55 OP:ep   STATUS:               ID:20130617050732 L   I
 OLDACT:DUP 13-06-17 08:55 OP:carl STATUS:               ID:20130617045960d    3
 2013-06-17-0459-59M.COL___261                                                 6
 STAT SP IPHASW D HRMM SECON CODA AMPLIT PERI AZIMU VELO AIN AR TRES W  DIS CAZ7
 BAR2 SZ EP   1    5 7 52.03                             170    0.01 7 23.8 188 
 BAR2 SZ ES   1    5 8  6.60                             170   -0.54 7 23.8 188 
 BAR2 SZ I         5 8  7.83        36.9 0.34            167           23.8 188 
 GIR2 SZ EP   1    5 7 51.84                             167   -0.20 7 30.6 351 
 GIR2 SZ ES   1    5 8  7.20                             167    0.03 7 30.6 351 
 GIR2 SZ I         5 8  8.16         8.6 0.10            165           30.6 351 
 BRR  HZ IP     D  5 7 53.76                             152    0.2510 70.3 298 
 BRR  HN ES   1    5 8 10.86                             152    1.07 7 70.3 298 
 BRR  HZ I         5 8 11.52        17.2 0.18            147           70.3 298 
 RUS  HZ EP        5 7 56.29                             143    0.0710  101 176 
 RUS  HN ES   1    5 8 14.55                             143   -0.07 7  101 176 
 RUS  HZ I         5 8 15.51        14.0 0.24            143            101 176 
 PTB  HZ EP   1    5 7 58.56                             132   -0.82 7  147 259 
 PTB  HN ES   1    5 8 19.58                             132   -0.66 7  147 259 
 PTB  HZ I         5 8 22.99        12.2 0.12            128            147 259 
 OCA  HZ EP   1    5 8  1.22                             129    0.50 7  160 353 
 OCA  HN ES   1    5 8 22.45                             129   -0.18 7  160 353 
 OCA  HZ I         5 8 25.68        12.6 0.16            128            160 353 
 ZAR  HZ EP   1    5 8  5.68                             122    0.82 6  203 292 
 ZAR  HN ES        5 8 30.10                             122    0.11 9  203 292 
 ZAR  HZ I         5 8 37.17        11.9 0.18            120            203 292 
 NOR  HZ EP   1    5 8  7.96                             118   -0.26 6  234 234 
 NOR  HN ES   1    5 8 36.10                             118    0.12 6  234 234 
 NOR  HZ I         5 8 42.63         6.5 0.20            116            234 234 
 SML  HZ EP   1    5 8  8.46                             117   -0.60 6  243 335 
 SML  HN ES   1    5 8 36.76                             117   -0.71 6  243 335 
 SML  HZ I         5 8 43.78        11.7 0.24            116            243 335 
 CHI  HE ES        5 8 39.77                             117    0.17 8  249 195 
 CHI  HZ I         5 8 44.25         3.0 0.30            116            249 195 
 PRA  HZ EP        5 8 26.62                             106    0.52 6  392 209 
 PRA  HN ES        5 9  7.56                             106   -0.25 6  392 209 
 PRA  HZ I         5 9 14.16         4.3 0.34            106            392 209 
                                                                                
