 2015  817 0941  5.0 L   6.819 -73.132147.0  RSN 18 0.5 2.6LRSN                1
 GAP=112        1.02       2.3     3.0  5.0 -0.8735E+00  0.3184E+01  0.6208E+00E
 Epicentro: LOS SANTOS - SANTANDER                                             3
 ACTION:UPD 15-09-15 23:02 OP:cam  STATUS:               ID:20150817094105 L   I
 OLDACT:REG 15-08-17 13:48 OP:ar   STATUS:               ID:20150817093747     3
 2015-08-17-0937-47M.COL___301                                                 6
 STAT SP IPHASW D HRMM SECON CODA AMPLIT PERI AZIMU VELO AIN AR TRES W  DIS CAZ7
 BAR2 EZ IP     D  941 24.52                             170   -0.2710 25.7 193 
 BAR2 EZ ES        941 39.49                             170   -0.7710 25.7 193 
 BAR2 EZ I         941 42.31        68.0 0.46            169           25.7 193 
 BRR  HZ EP        941 26.45                             153    0.1910 71.6 296 
 BRR  HN ES        941 43.87                             153    0.9910 71.6 296 
 BRR  HZ I         941 45.83        39.7 0.16            154           71.6 296 
 RUS  HZ EP   2    941 28.47                             144   -0.51 5  103 177 
 RUS  HE ES   2    941 47.34                             144   -0.37 5  103 177 
 RUS  HZ I         941 48.18        23.1 0.28            142            103 177 
 TAM  HZ EP        941 32.66                             131    0.01 9  154 106 
 TAM  HZ I         941 53.55        31.6 0.28            128            154 106 
 TAM  HN ES        941 54.42                             131    0.17 9  154 106 
 OCA  HZ EP        941 33.03                             130   -0.16 9  158 353 
 OCA  HN ES        941 55.29                             130    0.09 9  158 353 
 OCA  HZ I         942  0.04        77.4 0.46            129            158 353 
 SPBC HZ EP        941 33.42                             129   -0.38 9  166 219 
 SPBC HE ES        941 56.35                             129    0.05 9  166 219 
 SPBC HZ I         942  1.33        90.0 0.14            128            166 219 
 ZAR  HZ EP        941 36.91                             123   -0.64 9  205 291 
 ZAR  HN ES        942  2.78                             123   -0.19 9  205 291 
 ZAR  HZ I         942  9.26        42.6 0.50            122            205 291 
 NOR  HZ EP        941 40.43                             118   -0.60 8  237 234 
 NOR  HN ES        942  9.01                             118   -0.15 8  237 234 
 NOR  HZ I         942 12.08        48.6 0.18            118            237 234 
 SML  HZ EP        941 40.88                             118   -0.64 8  242 335 
 SML  HE ES        942 10.18                             118    0.15 8  242 335 
 SML  HZ I         942 13.81        46.0 0.10            117            242 335 
 CHI  HZ EP        941 42.70                             117   -0.29 8  251 195 
 CHI  HE ES        942 13.63                             117    0.97 8  251 195 
 CHI  HZ I         942 19.66        13.6 0.36            116            251 195 
 ROSC BZ EP        941 44.11                             117    0.68 8  255 211 
 ROSC BE ES        942 13.42                             117   -0.02 8  255 211 
 ROSC BZ I         942 22.05        42.7 0.40            116            255 211 
 HEL  HZ EP        941 45.76                             115    0.30 8  274 255 
 HEL  HN ES        942 17.41                             115    0.37 8  274 255 
 HEL  HZ I         942 22.62        14.4 0.26            114            274 255 
 URE  HZ EP   4    941 44.55                             114   -1.61 0  284 291 
 URE  HN ES   4    942 16.82                             114   -1.47 0  284 291 
 URE  HZ I         942 20.26        17.7 0.14            113            284 291 
 GUY2CHZ EP        941 49.31                             112    0.41 7  304 235 
 GUY2CHE ES        942 23.25                             112    0.07 7  304 235 
 GUY2CHZ I         942 31.19        24.6 0.28                           304 235 
 LL2C HZ EP        941 48.55                             112    0.17 7  304 354 
 LL2C HN ES        942 22.86                             112    0.62 7  304 354 
 LL2C HZ I         942 31.26        40.7 0.42            111            304 354 
 PTGC HZ IP   4 D  941 47.39                             112   -1.64 0  310 159 
 PTGC HN ES   4    942 20.80                             112   -2.61 0  310 159 
 DBB  SZ EP        941 52.72                             110    0.08 7  341 274 
 DBB  SZ ES        942 28.93                             110   -0.91 7  341 274 
 DBB  SZ I         942 30.99        49.4 0.50            109            341 274 
 TOL  SZ EP        941 53.98                             109    0.42 6  346 225 
 TOL  SN ES        942 31.05                             109   -0.42 6  346 225 
 TOL  SZ I         942 35.94        14.9 0.48            109            346 225 
 ORTC HZ EP        941 59.47                             106    0.24 6  398 216 
 ORTC HN ES        942 41.82                             106    0.26 6  398 216 
 ORTC HZ I         942 47.38        13.3 0.48            106            398 216 
                                                                                
