 2017  317 0018 15.4 L   6.826 -73.135146.9  RSN 11 0.4 2.0LRSN                1
 GAP=137        0.79       2.9     3.9  4.6 -0.6563E+00  0.4989E+01  0.4473E+01E
 Epicentro: LOS SANTOS - SANTANDER                                             3
 ACTION:UPD 17-05-25 18:41 OP:jn   STATUS:               ID:20170317001815 L   I
 OLDACT:UP  17-03-17 13:56 OP:cog  STATUS:               ID:20170317001722     3
 OLDACT:REG 17-03-17 13:01 OP:cog  STATUS:               ID:20170317001722     3
 2017-03-17-0018-00M.COL___409                                                 6
 STAT SP IPHASW D HRMM SECON CODA AMPLIT PERI AZIMU VELO AIN AR TRES W  DIS CAZ7
 BAR2 EZ EP        018 34.96                             169   -0.2910 26.4 191 
 BAR2 EZ ES        018 50.62                             169   -0.0910 26.4 191 
 BAR2 EZ I         018 53.32        24.7 0.34            167           26.4 191 
 BRR  HZ IP     D  018 36.89                             153    0.2210 70.9 296 
 BRR  HN ES        018 53.03                             153   -0.2210 70.9 296 
 BRR  HZ I         018 58.75        19.3 0.22            150           70.9 296 
 PAM  EZ EP        018 37.82                             152    0.2410 74.4  40 
 PAM  EN ES        018 55.17                             152    0.3010 74.4  40 
 PAM  EZ I         018 55.91        18.3 0.35            158           74.4  40 
 RUS  HZ EP        018 39.34                             143   -0.1410  103 177 
 RUS  HN ES        018 57.84                             143   -0.4110  103 177 
 RUS  HZ I         018 59.64         8.7 0.24            145            103 177 
 PTB  HZ EP   9    018 41.74                             132   -0.89 0  149 258 
 PTB  HN ES   4    019  2.54                             131   -0.42 0  149 258 
 PTB  HZ I         019 13.43         9.4 0.20            132            149 258 
 SPBC HZ EP        018 44.03                             129   -0.25 9  166 219 
 SPBC HN ES        019  7.43                             129    0.63 9  166 219 
 SPBC HZ I         019  8.32        24.8 0.10            130            166 219 
 ZAR  HZ EP   4    018 49.07                             122    1.13 0  204 291 
 ZAR  HN ES        019 13.19                             122   -0.11 9  204 291 
 NOR  HZ EP        018 51.18                             118   -0.31 8  237 234 
 NOR  HN ES   3    019 18.22                             118   -1.41 2  237 234 
 NOR  HZ I         019 22.23        10.6 0.26            120            237 234 
 CHI  HZ EP        018 53.20                             117   -0.31 8  252 195 
 CHI  HE ES        019 23.66                             117    0.44 8  252 195 
 CHI  HZ I         019 28.37         3.4 0.38            119            252 195 
 GUY2CHZ EP        018 59.89                             112    0.52 7  304 234 
 GUY2CHN ES   4    019 36.97                             112    3.31 0  304 234 
 GUY2CHZ  IAML     019 41.68         6.3 0.58                           304 234 
 PRA  HZ EP        019  9.08                             106   -0.26 6  395 210 
 PRA  HE ES        019 51.86                             106    0.47 6  395 210 
 PRA  HZ I         019 56.98         3.9 0.26            108            395 210 
                                                                                
