 2012  217 0940 17.3 L   6.763 -73.131150.4  RSN  6 0.3 1.5LRSN                1
 GAP=188        0.52       6.2     4.5  8.3  0.7279E+01  0.1518E+01  0.7095E+01E
 ACTION:UP  12-03-07 16:31 OP:epov STATUS:               ID:20120217094017 L   I
 2012-02-17-0940-00M.COL___188                                                 6
 STAT SP IPHASW D HRMM SECON CODA AMPLIT PERI AZIMU VELO AIN AR TRES W  DIS CAZ7
 BAR2 SZ EP   1    940 37.33                             172   -0.07 8 19.7 197 
 BAR2 SZ I         940 37.59         4.6 0.10                          19.7 197 
 GIR2 SZ ES   2    940 53.34                             166   -0.15 5 35.6 349 
 BRR  HZ EP   2    940 39.05                             152   -0.06 5 74.6 301 
 BRR  HZ I         940 39.20         7.4 0.14                          74.6 301 
 BRR  HE ES   2    940 56.25                             152    0.10 5 74.6 301 
 RUS  HZ EP   2    940 41.71                             146    0.52 5 96.4 177 
 RUS  HN ES   2    941  0.01                             146    0.16 5 96.4 177 
 RUS  HZ I         941  1.33         3.1 0.29                          96.4 177 
 PTB  HZ EP   2    940 44.07                             133   -0.63 5  149 260 
 PTB  HE ES        941  5.97                             133   -0.1210  149 260 
 ZAR  HN ES   2    941 16.86                             123    0.74 5  207 293 
 ZAR  HZ I         941 21.60         3.6 0.31                           207 293 
                                                                                
