 2016  817 0800 39.1 L   5.846 -73.879111.3  RSN  4 0.4 1.0LRSN                1
 GAP=138        0.99       5.7     5.2  9.4  0.4395E+01 -0.2723E+01 -0.2422E+02E
 Epicentro: LA BELLEZA - SANTANDER                                             3
 ACTION:UPD 16-10-29 15:36 OP:rebc STATUS:               ID:20160817080039 L   I
 OLDACT:REG 16-08-17 13:35 OP:ak   STATUS:               ID:20160817075631     3
 2016-08-17-0757-00M.COL___374                                                 6
 STAT SP IPHASW D HRMM SECON CODA AMPLIT PERI AZIMU VELO AIN AR TRES W  DIS CAZ7
 SPBC HZ EP        8 0 54.97                             163    0.3610 30.3 225 
 SPBC HN ES        8 1  6.95                             163    0.2510 30.3 225 
 SPBC HZ I         8 1  8.12         8.2 0.22                          30.3 225 
 RUS  HZ EP   2    8 0 57.88                             139   -0.76 5 88.2  87 
 RUS  HE ES        8 1 13.56                             139   -0.3010 88.2  87 
 RUS  HZ I         8 1 15.26         1.0 0.13                          88.2  87 
 PTB  HZ EP        8 0 58.49                             135   -0.4610 99.9 320 
 PTB  HE ES        8 1 14.03                             135   -0.3910 99.9 320 
 PTB  HZ I         8 1 16.34         2.3 0.22                          99.9 320 
 BRR  HZ EP        8 1  3.28                             124    0.50 9  141   8 
 BRR  HE ES        8 1 21.56                             124    0.32 9  141   8 
                                                                                
