 2013  717 0858  4.1 L   6.799 -73.170154.4  RSN  4 0.4 1.6LRSN                1
 GAP=263        0.98       7.2     8.3  7.6 -0.1775E+02  0.6650E+01 -0.8160E+01E
 Epicentro: LOS SANTOS - SANTANDER                                             3
 ACTION:UPD 13-08-12 10:38 OP:ep   STATUS:               ID:20130717085804 L   I
 OLDACT:REG 13-07-17 07:29 OP:nd.  STATUS:               ID:20130717084959     3
 2013-07-17-0849-59M.COL___267                                                 6
 STAT SP IPHASW D HRMM SECON CODA AMPLIT PERI AZIMU VELO AIN AR TRES W  DIS CAZ7
 GIR2 SZ EP        858 24.41                             168   -0.3410 31.0 355 
 GIR2 SZ ES        858 40.63                             168   -0.2610 31.0 355 
 GIR2 SZ I         858 47.36         5.8 0.30            165           31.0 355 
 BRR  HZ EP        858 26.35                             155    0.3310 68.9 300 
 BRR  HN ES        858 43.84                             155    0.6910 68.9 300 
 BRR  HZ I         858 57.34         6.9 0.26            156           68.9 300 
 PTB  HZ EP        858 31.55                             134    0.05 9  145 259 
 PTB  HN ES        858 52.48                             134   -0.44 9  145 259 
 PTB  HZ I         858 53.46         3.7 0.10            142            145 259 
 SML  HZ EP        858 41.34                             119    0.27 8  243 336 
 SML  HN ES        859  9.54                             119   -0.40 8  243 336 
 SML  HZ I         859 14.22         7.6 0.24            125            243 336 
                                                                                
