 2013  817 0546 14.9 L   6.757 -73.183147.5  RSN  4 0.3 1.2LRSN                1
 GAP=230        0.73       7.3     5.5  9.9  0.1464E+02 -0.8572E+01 -0.3740E+02E
 Epicentro: VILLANUEVA - SANTANDER                                             3
 2013-08-17-0538-49M.COL___204                                                 6
 OLDACT:DUP 13-08-17 13:42 OP:stll STATUS:               ID:20130817053851d    3
 ACTION:UPD 14-01-14 09:03 OP:ep   STATUS:               ID:20130817054614 L   I
 OLDACT:UP  13-08-17 13:47 OP:stll STATUS:               ID:20130817053851d    3
 STAT SP IPHASW D HRMM SECON CODA AMPLIT PERI AZIMU VELO AIN AR TRES W  DIS CAZ7
 BRR  HZ EP   1    546 36.70                             153    0.58 7 70.1 304 
 RUS  HZ EP        546 38.19                             145   -0.2810 96.3 173 
 RUS  HN ES        546 56.86                             145   -0.0310 96.3 173 
 PTB  HZ EP        546 41.28                             133   -0.24 9  143 260 
 PTB  HN ES        547  2.04                             133   -0.28 9  143 260 
 PTB  HZ I         547  5.24         1.6 0.34            129            143 260 
 SPBC HZ EP        546 43.11                             130    0.21 9  157 219 
 SPBC HN ES        547  5.07                             130    0.30 9  157 219 
 SPBC HZ I         547 11.34         2.7 0.26            126            157 219 
                                                                                
