 2012  817 0910  3.2 L   6.676 -73.164152.7  RSN  4 0.1 1.5LRSN                1
 GAP=244        0.41       5.8     4.6  5.1  0.9970E+01  0.1030E+02  0.3878E+01E
 Epicentro: VILLANUEVA - SANTANDER                                             3
 ACTION:UPD 12-09-10 11:56 OP:ep   STATUS:               ID:20120817091003 L   I
 2012-08-17-0906-37M.COL___200                                                 6
 STAT SP IPHASW D HRMM SECON CODA AMPLIT PERI AZIMU VELO AIN AR TRES W  DIS CAZ7
 BAR2 SZ ES   1    910 39.13                             176   -0.19 7 9.49 192 
 BAR2 SZ I         910 40.68         6.5 0.17                          9.49 192 
 BRR  HZ EP   1    910 25.42                             152   -0.03 7 77.1 308 
 BRR  HE ES        910 42.96                             152    0.1610 77.1 308 
 BRR  HZ I         910 45.83         4.7 0.28                          77.1 308 
 PTB  HZ EP   1    910 30.55                             134    0.14 7  144 264 
 PTB  HN ES   1    910 51.65                             134    0.04 7  144 264 
 ZAR  HN ES        911  2.29                             123   -0.18 8  208 296 
                                                                                
