 2012  117 0525 50.3 L   6.778 -73.103143.7  RSN  5 0.3 1.3LRSN                1
 GAP=240        0.61       4.3     5.9  6.3  0.9995E+01  0.9924E+00  0.4630E+01E
 Epicentro: LOS SANTOS - SANTANDER                                             3
 ACTION:UP  12-02-03 08:18 OP:REBC STATUS:               ID:20120117052550 L   I
 2012-01-17-0520-00M.COL___188                                                 6
 STAT SP IPHASW D HRMM SECON CODA AMPLIT PERI AZIMU VELO SNR AR TRES W  DIS CAZ7
 BAR2 SZ EP   1    526  9.28                             171    -0.3 7   22 203 
 BAR2 SZ ES   2    526 24.76                             171     0.0 5   22 203 
 BAR2 SZ I         526 26.55         7.8 0.27                            22 203 
 BRR  HZ EP        526 11.67                             150     0.210   77 298 
 BRR  HE ES   1    526 28.38                             150     0.3 7   77 298 
 BRR  HZ I         526 31.21         4.3 0.23                            77 298 
 RUS  HZ EP   1    526 13.64                             144     0.0 7   98 179 
 RUS  HE ES   1    526 31.59                             144    -0.2 7   98 179 
 RUS  HZ I         526 33.88         2.1 0.38                            98 179 
 PTB  HZ EP   1    526 17.10                             131    -0.3 7  152 260 
 PTB  HE ES   1    526 38.41                             131    -0.2 7  152 260 
 CHI  HZ EP   1    526 28.02                             117     0.3 6  248 196 
 CHI  HE ES   1    526 57.25                             117     0.3 6  248 196 
 CHI  HZ I         527  3.57         1.2 0.47                           248 196 
                                                                                
