 2013  517 0817 16.8 L   6.662 -74.103 79.1  RSN  4 0.1 1.3LRSN                1
 GAP=150        0.36       2.8     2.4  5.4 -0.1414E+01 -0.6782E+01  0.4494E+01E
 Epicentro: PUERTO PARRA - SANTANDER                                           3
 ACTION:UPD 13-06-20 09:51 OP:ep   STATUS:               ID:20130517081716 L   I
 2013-05-17-0810-00M.COL___253                                                 6
 STAT SP IPHASW D HRMM SECON CODA AMPLIT PERI AZIMU VELO AIN AR TRES W  DIS CAZ7
 PTB  HZ EP        817 29.12                             150    0.0810 41.4 251 
 PTB  HN ES   1    817 38.54                             150   -0.07 7 41.4 251 
 PTB  HZ I         817 40.13         8.5 0.14            110           41.4 251 
 BRR  HZ EP   1    817 30.60                             137   -0.21 7 65.5  41 
 BRR  HE ES   1    817 41.83                             137    0.08 7 65.5  41 
 BRR  HZ I         817 42.12        15.3 0.46            100           65.5  41 
 BAR2 SZ EP   1    817 34.71                             123    0.10 7  102  94 
 BAR2 SZ I         817 50.12         5.7 0.28             61            102  94 
 RUS  HN ES   1    817 56.65                             114   -0.05 7  141 127 
 RUS  HZ I         817 59.90         1.8 0.18             61            141 127 
                                                                                
