 2011  817 0211 32.7 L   6.788 -73.041143.2  RSN  6 0.2 2.3LRSN                1
 GAP=194        0.43       2.0     5.8  3.9  0.5759E+00  0.3195E+00  0.6412E+00E
 Epicentro: LOS SANTOS - SANTANDER                                             3
 ACTION:UPD 12-07-13 15:52 OP:ep   STATUS:               ID:20110817021132 L   I
 2011-08-17-0210-00S.COL___149                                                 6
 STAT SP IPHASW D HRMM SECON CODA AMPLIT PERI AZIMU VELO AIN AR TRES W  DIS CAZ7
 BAR2 SZ EP   1    211 52.16                             169    0.06 7 26.7 216 
 BAR2 SZ ES   1    212  6.98                             169   -0.24 7 26.7 216 
 BAR2 SZ I         212  9.48        27.2 0.31                          26.7 216 
 BRR  HZ EP   1    211 54.08                             148   -0.16 7 82.1 296 
 BRR  HN ES   1    212 11.21                             148    0.18 7 82.1 296 
 BRR  HZ I         212 12.34        53.9 0.19                          82.1 296 
 RUS  HZ EP   1    211 56.15                             144    0.05 7 99.1 183 
 RUS  HN ES   1    212 14.64                             144    0.30 7 99.1 183 
 RUS  HZ I         212 16.34         9.8 0.39                          99.1 183 
 OCA  SZ EP   1    212  1.09                             128   -0.03 7  163 349 
 OCA  SZ ES   1    212 23.25                             128   -0.02 7  163 349 
 OCA  SZ I         212 26.11        26.0 0.27                           163 349 
 CHI  HN ES   1    212 39.46                             116   -0.48 6  251 198 
 PRA  HZ EP   1    212 26.96                             106    0.27 4  397 211 
 PRA  HN ES   1    213  8.95                             106    0.16 4  397 211 
 PRA  HZ I         213 12.72        12.6 0.21                           397 211 
                                                                                
