 2015  417 0024 40.1 L   6.783 -73.134152.4  RSN  5 0.4 1.4LRSN                1
 GAP=139        0.84       4.6     5.3  7.7 -0.3046E+01  0.1082E+02 -0.2445E+01E
 Epicentro: LOS SANTOS - SANTANDER                                             3
 ACTION:UPD 15-06-03 16:55 OP:cam  STATUS:               ID:20150417002440 L   I
 OLDACT:REG 15-04-17 12:22 OP:spq  STATUS:               ID:20150417001748     3
 2015-04-17-0017-48M.COL___278                                                 6
 STAT SP IPHASW D HRMM SECON CODA AMPLIT PERI AZIMU VELO AIN AR TRES W  DIS CAZ7
 BRR  HZ EP   1    025  2.68                             153    0.58 7 73.2 299 
 BRR  HE ES   1    025 19.97                             153    0.72 7 73.2 299 
 BRR  HZ I         025 23.21        11.3 0.32            151           73.2 299 
 PAM  SZ EP        025  3.12                             152    0.0410 78.1  38 
 PAM  SN ES        025 20.61                             152   -0.3910 78.1  38 
 PAM  SZ I         025 21.70         2.4 0.18            157           78.1  38 
 RUS  HZ EP   1    025  4.63                             146    0.24 7 98.6 177 
 RUS  HE ES   1    025 23.40                             146    0.08 7 98.6 177 
 RUS  HZ I         025 24.16         2.0 0.32            148           98.6 177 
 PTB  HZ EP        025  7.36                             133   -0.36 9  149 260 
 PTB  HN ES   1    025 28.68                             133   -0.56 7  149 260 
 PTB  HZ I         025 35.89         4.3 0.50            133            149 260 
 SML  HZ EP   1    025 17.52                             119    0.15 6  246 335 
 SML  HE ES   1    025 46.36                             119   -0.06 6  246 335 
                                                                                
