 2017  417 0539 49.8 L   6.661 -73.101136.0  RSN  6 0.4 1.3LRSN                1
 GAP=232        0.95       6.6     7.3  7.7  0.2356E+02  0.1833E+02  0.5349E+01E
 Epicentro: CURITI - SANTANDER                                                 3
 ACTION:UPD 17-05-30 21:13 OP:jn   STATUS:               ID:20170417053949 L   I
 OLDACT:UP  17-05-10 15:19 OP:jn   STATUS:               ID:20170417053949 L   3
 OLDACT:UP  17-05-10 14:48 OP:nlst STATUS:               ID:20170417053949 L   3
 OLDACT:UP  17-04-17 17:09 OP:dani STATUS:               ID:20170417053746     3
 OLDACT:REG 17-04-17 13:26 OP:dani STATUS:               ID:20170417053746     3
 2017-04-17-0538-00M.COL___362                                                 6
 STAT SP IPHASW D HRMM SECON CODA AMPLIT PERI AZIMU VELO AIN AR TRES W  DIS CAZ7
 BAR2 EZ EP        540  8.40                             175    0.3210 11.8 230 
 BAR2 HN ES        540 22.24                             175   -0.0910 11.8 230 
 BAR2 EZ I         540 26.01         4.1 0.16            165           11.8 230 
 BRR  HZ EP        540 10.27                             146   -0.4310 83.6 306 
 BRR  HN ES        540 27.29                             146    0.2910 83.6 306 
 BRR  HZ I         540 31.21         4.5 0.28            147           83.6 306 
 RUS  HN ES        540 28.20                             146   -0.2210 85.0 179 
 PTB  HZ EP   1    540 15.43                             129   -0.83 7  150 265 
 PTB  HN ES        540 36.80                             129   -0.09 9  150 265 
 PTB  HZ I         540 40.26         2.6 0.27            129            150 265 
 SPBC HZ EP        540 17.42                             128    0.64 9  155 224 
 SPBC HE ES   4    540 40.86                             128    3.04 0  155 224 
 SPBC HZ I         540 45.65         2.3 0.10            128            155 224 
 ZAR  HE ES   1    540 48.64                             119    0.15 6  215 295 
                                                                                
