 2012 1217 0110 56.0 L   6.846 -72.966139.8  RSN  5 0.1 2.5LRSN                1
 GAP=159        0.36       2.0     5.0  4.6  0.4727E+01 -0.1425E+02 -0.3111E+01E
 Epicentro: CEPITA - SANTANDER                                                 3
 ACTION:UPD 13-01-04 14:28 OP:ep   STATUS:               ID:20121217011056 L   I
 2012-12-17-0110-00M.COL___238                                                 6
 STAT SP IPHASW D HRMM SECON CODA AMPLIT PERI AZIMU VELO AIN AR TRES W  DIS CAZ7
 BAR2 SZ EP        111 15.39                             164    0.0710 36.8 220 
 BAR2 SZ ES        111 30.35                             164    0.0010 36.8 220 
 BAR2 SZ I         111 31.47        55.6 0.34                          36.8 220 
 PAM  SZ EP   1    111 16.92                             155    0.17 7 62.0  28 
 BRR  HE ES        111 34.42                             146    0.0710 87.3 289 
 BRR  HE I         111 38.16        92.6 0.20                          87.3 289 
 RUS  HZ EP        111 19.57                             141   -0.0610  106 187 
 RUS  HN ES        111 37.97                             141   -0.0710  106 187 
 RUS  HN I         111 40.03        43.9 0.42                           106 187 
 OCA  HN ES   1    111 45.15                             128   -0.23 7  159 346 
                                                                                
