 2013  817 0019 52.3 L   6.814 -73.428113.4  RSN  9 0.6 1.7LRSN 2.3WRSN        1
 SPEC AVERAGE  MO 12.6 ST 23.6 OM  1.4 f0 12.5 R0.2778 AL 0.00 WI 20.0 MW  2.3 3
 SPEC SD       MO  0.3 ST 38.0 OM  0.6 f0 11.0 R0.1822 AL      WI      MW  0.2 3
 GAP= 78        1.56       4.1     5.2  9.3 -0.7136E+00  0.1247E+02 -0.5655E+01E
 Epicentro: SAN VICENTE DE CHUCURI - SANTANDER                                 3
 SPEC BAR2SH Z MO 12.8 ST0.371 OM  1.3 f0 3.77 R0.4122 AL-0.00 WI 20.0 MW  2.5 3
 SPEC BAR2SH Z T 02019 K 0.000 GD  119 VS 4.20 DE 3.20 Q0300.0 QA 0.60 VS 4.20 3
 SPEC RUS HH Z MO 12.3 ST0.197 OM  0.7 f0 4.41 R0.3524 AL-0.00 WI 20.0 MW  2.1 3
 SPEC RUS HH Z T 02028 K 0.000 GD  157 VS 4.20 DE 3.20 Q0300.0 QA 0.60 VS 4.20 3
 SPEC PTB HH Z MO 12.2 ST 18.8 OM  0.6 f0 21.5 R0.0723 AL-0.00 WI 20.0 MW  2.1 3
 SPEC PTB HH Z T 02027 K 0.000 GD  163 VS 4.20 DE 3.20 Q0300.0 QA 0.60 VS 4.20 3
 SPEC ZAR HH Z MO 13.1 ST0.459 OM  1.4 f0 3.11 R0.4997 AL-0.00 WI 20.0 MW  2.7 3
 SPEC ZAR HH Z T 02040 K 0.000 GD  208 VS 4.20 DE 3.20 Q0300.0 QA 0.60 VS 4.20 3
 SPEC SML HH Z MO 12.5 ST 98.4 OM  0.7 f0 29.7 R0.0523 AL-0.00 WI 20.0 MW  2.3 3
 SPEC SML HH Z T 02049 K 0.000 GD  257 VS 4.20 DE 3.20 Q0300.0 QA 0.60 VS 4.20 3
 2013-08-17-0018-50M.COL___213                                                 6
 OLDACT:REG 13-08-17 08:13 OP:stll STATUS:               ID:20130817001850     3
 ACTION:UPD 14-01-14 09:03 OP:ep   STATUS:               ID:20130817001952 L   I
 OLDACT:UP  13-08-17 09:51 OP:stll STATUS:               ID:20130817001850     3
 STAT SP IPHASW D HRMM SECON CODA AMPLIT PERI AZIMU VELO AIN AR TRES W  DIS CAZ7
 BAR2 SZ EP        020  8.79                             161    0.3410 36.6 132 
 BAR2 SZ ES        020 21.34                             161    0.2710 36.6 132 
 BAR2 SZ I         020 23.07        30.0 0.34            163           36.6 132 
 BRR  HZ EP        020  8.89                             157    0.4210 45.1 316 
 BRR  HN ES        020 21.63                             157    0.5210 45.1 316 
 BRR  HZ I         020 22.55        11.0 0.28            155           45.1 316 
 PAM  SZ EP        020 12.85                             136   -0.0210 99.3  54 
 PAM  SZ I         020 14.59         6.4 0.48            138           99.3  54 
 PAM  SN ES        020 28.72                             136   -0.2310 99.3  54 
 RUS  HZ EP        020 13.92                             133    0.2210  109 159 
 RUS  HN ES        020 30.47                             133    0.0410  109 159 
 RUS  HZ I         020 32.74         4.8 0.34            135            109 159 
 PTB  HZ EP        020 13.47                             130   -0.3910  118 255 
 PTB  HN ES        020 29.26                             130   -1.4510  118 255 
 PTB  HZ I         020 35.37        10.6 0.22            130            118 255 
 SPBC HZ EP        020 16.74                             124   -0.08 9  147 209 
 SPBC HN ES        020 35.67                             124   -0.30 9  147 209 
 SPBC HZ I         020 42.02         5.2 0.14            124            147 209 
 OCA  HN ES        020 37.44                             121   -0.71 9  158   4 
 ZAR  HZ EP        020 20.37                             118    0.74 9  175 295 
 ZAR  HN ES        020 42.31                             118    1.33 9  175 295 
 ZAR  HZ I         020 43.68         6.3 0.30            118            175 295 
 SML  HZ EP        020 25.80                             111   -0.03 8  231 342 
 SML  HN ES        020 51.27                             111   -0.75 8  231 342 
 SML  HZ I         021  1.06        13.6 0.06            112            231 342 
                                                                                
