 2012 1217 0513  2.3 L   6.801 -73.168136.0  RSN  4 0.3 1.4LRSN                1
 GAP=134        0.81       5.1     4.8  8.6 -0.4651E+01  0.4513E+01  0.1038E+02E
 Epicentro: LOS SANTOS - SANTANDER                                             3
 ACTION:UPD 13-01-04 14:28 OP:ep   STATUS:               ID:20121217051302 L   I
 2012-12-17-0510-00M.COL___238                                                 6
 STAT SP IPHASW D HRMM SECON CODA AMPLIT PERI AZIMU VELO AIN AR TRES W  DIS CAZ7
 BRR  HZ EP        513 22.87                             151    0.5710 69.0 299 
 BRR  HN ES   1    513 37.63                             151   -0.24 7 69.0 299 
 BRR  HZ I         513 43.58         3.9 0.09                          69.0 299 
 PAM  SZ EP        513 23.74                             148    0.1310 78.9  41 
 PAM  SZ I         513 24.11         6.1 0.22                          78.9  41 
 PAM  SN ES        513 40.00                             148   -0.2110 78.9  41 
 RUS  HZ EP        513 25.01                             141   -0.1410  101 175 
 RUS  HE ES   1    513 43.13                             141    0.18 7  101 175 
 RUS  HE I         513 44.23         4.8 0.17                           101 175 
 PTB  HZ EP   1    513 27.57                             130   -0.72 7  145 259 
 PTB  HN ES   1    513 48.61                             130    0.07 7  145 259 
 PTB  HZ I         513 51.64         3.2 0.30                           145 259 
                                                                                
