 2016 1117 0644  5.3 L   6.707 -73.159152.0  RSN  4 0.2 1.2LRSN                1
 GAP=156        0.53       6.5     3.6  4.5 -0.5427E+01 -0.1036E+01 -0.1604E+01E
 Epicentro: VILLANUEVA - SANTANDER                                             3
 ACTION:UPD 17-10-26 21:09 OP:lp   STATUS:               ID:20161117064405 L   I
 OLDACT:REG 16-11-17 12:48 OP:and  STATUS:               ID:20161117063748     3
 2016-11-17-0638-00M.COL___343                                                 6
 STAT SP IPHASW D HRMM SECON CODA AMPLIT PERI AZIMU VELO AIN AR TRES W  DIS CAZ7
 BAR2 EZ EP        644 25.75                             175    0.2010 12.9 192 
 BAR2 EZ ES        644 41.27                             175   -0.0510 12.9 192 
 BRR  HZ EP        644 27.37                             152   -0.0210 75.5 306 
 BRR  HN ES        644 44.78                             152    0.1810 75.5 306 
 PAM  EZ EP        644 28.51                             149   -0.2410 86.4  36 
 PTB  HE EP        644 32.71                             134    0.17 9  145 263 
 PTB  HZ ES        644 53.49                             134   -0.27 9  145 263 
 PTB  HE I         644 58.76         1.9 0.25            131            145 263 
                                                                                
