 2011  517 0700 15.0 L   6.767 -73.096147.4  RSN  8 0.2 1.9LRSN                1
 GAP=144        0.54       2.8     5.1  4.9 -0.2939E+01  0.1053E+01 -0.1430E+01E
 Epicentro: LOS SANTOS - SANTANDER                                             3
 ACTION:UP  11-06-29 08:54 OP:tino STATUS:               ID:20110517070000 L   I
 2011-05-17-0700-00M.COL___142                                                 6
 STAT SP IPHASW D HRMM SECON CODA AMPLIT PERI AZIMU VELO SNR AR TRES W  DIS CAZ7
 BAR2 SZ EP   1    7 0 34.66                             171    -0.1 8   22 206 
 BAR2 SZ ES   2    7 0 49.69                             171    -0.5 5   22 206 
 BAR2 SZ I         7 0 52.67        20.8 0.19                            22 206 
 GIR2 SZ EP   2    7 0 34.93                             166     0.0 5   36 343 
 PAM  SZ EP   1    7 0 37.49                             151     0.2 8   77  35 
 PAM  SE ES   1    7 0 54.92                             151     0.2 8   77  35 
 BRR  HZ EP   1    7 0 36.65                             151     0.0 8   78 299 
 BRR  HE ES   1    7 0 53.70                             151     0.1 8   78 299 
 BRR  HZ I         7 0 56.99        18.1 0.16                            78 299 
 RUS  HZ EP   1    7 0 38.55                             145     0.0 8   97 179 
 RUS  HE ES   1    7 0 57.22                             145     0.2 8   97 179 
 RUS  HZ I         7 0 59.17         6.6 0.32                            97 179 
 GRA  SZ EP        7 0 40.61                             137     0.110  128  15 
 GRA  SZ ES   1    7 0 59.94                             137    -0.5 7  128  15 
 GRA  SZ I         7 1  1.57         8.1 0.37                           128  15 
 OCA  SZ EP   1    7 0 43.63                             129    -0.2 7  165 351 
 OCA  SZ ES   2    7 1  6.82                             129     0.5 5  165 351 
 OCA  SZ I         7 1 11.95        11.8 0.42                           165 351 
 HEL  HZ EP   2    7 0 55.42                             115    -0.3 4  277 257 
 HEL  HZ I         7 1 32.96         3.9 0.25                           277 257 
                                                                                
