 2017  217 0640 17.2 L   6.771 -73.145142.8  RSN  7 0.5 1.5LRSN                1
 GAP=138        1.18       4.6     5.2  7.4  0.2825E+01  0.9583E+01  0.5786E+01E
 Epicentro: LOS SANTOS - SANTANDER                                             3
 ACTION:UPD 17-05-24 15:37 OP:jn   STATUS:               ID:20170217064017 L   I
 OLDACT:REG 17-02-17 13:20 OP:cog  STATUS:               ID:20170217063741     3
 2017-02-17-0638-00M.COL___336                                                 6
 STAT SP IPHASW D HRMM SECON CODA AMPLIT PERI AZIMU VELO AIN AR TRES W  DIS CAZ7
 BAR2 HZ EP        640 36.26                             172   -0.1510 20.1 192 
 BAR2 HZ ES        640 51.66                             172    0.2610 20.1 192 
 BAR2 HZ I         640 51.89        13.2 0.28            170           20.1 192 
 BRR  HZ EP        640 38.18                             151    0.0610 72.8 301 
 BRR  HE ES        640 55.23                             151    0.7910 72.8 301 
 BRR  HZ I         640 59.20         8.5 0.12            151           72.8 301 
 PAM  EZ EP        640 39.29                             149    0.0410 79.9  38 
 PAM  EN ES        640 55.99                             149   -0.4610 79.9  38 
 PAM  EZ I         640 56.70         5.0 0.36            153           79.9  38 
 RUS  HZ EP        640 40.72                             144    0.3010 97.3 176 
 RUS  HN ES        640 58.24                             144   -0.3010 97.3 176 
 RUS  HZ I         640 59.50         5.0 0.24            145           97.3 176 
 PTB  HZ EP        640 43.04                             131   -0.83 9  147 260 
 PTB  HN ES        641  3.90                             131   -0.78 9  147 260 
 PTB  HZ I         641  7.07         3.8 0.16            132            147 260 
 ZAR  HZ EP        640 49.69                             121    0.11 8  205 293 
 ZAR  HN ES        641 15.19                             121    0.34 8  205 293 
 CHI  HZ EP        640 55.10                             117    0.71 8  246 195 
 CHI  HE ES        641 23.58                             117    0.18 8  246 195 
 CHI  HZ I         641 27.96         0.9 0.24            118            246 195 
                                                                                
