 2017 1017 0855 51.7 L   6.667 -73.172142.1  RSN  4 0.4 1.3LRSN                1
 GAP=238        0.85      10.0     6.2  7.3  0.2284E+02  0.9440E+01 -0.9978E+01E
 Epicentro: VILLANUEVA - SANTANDER                                             3
 ACTION:UPD 17-11-07 19:32 OP:rebc STATUS:               ID:20171017085551 L   I
 OLDACT:UP  17-10-17 16:08 OP:dani STATUS:               ID:20171017084744     3
 OLDACT:UP  17-10-17 16:08 OP:dani STATUS:               ID:20171017084744     3
 OLDACT:UP  17-10-17 16:08 OP:dani STATUS:               ID:20171017084744     3
 OLDACT:UP  17-10-17 16:08 OP:dani STATUS:               ID:20171017084744     3
 OLDACT:UP  17-10-17 16:07 OP:dani STATUS:               ID:20171017084744     3
 OLDACT:REG 17-10-17 12:50 OP:dani STATUS:               ID:20171017084744     3
 2017-10-17-0848-00M.COL___404                                                 6
 STAT SP IPHASW D HRMM SECON CODA AMPLIT PERI AZIMU VELO AIN AR TRES W  DIS CAZ7
 BAR2 EZ EP        856 10.47                             177   -0.1610 8.38 188 
 BAR2 EZ ES        856 25.52                             177    0.0910 8.38 188 
 BAR2 EZ I         856 27.13         4.2 0.26            177           8.38 188 
 BRR  HZ EP        856 12.26                             150   -0.4810 77.0 309 
 BRR  HE ES        856 29.52                             150    0.3210 77.0 309 
 BRR  HZ I         856 31.48         3.6 0.48            148           77.0 309 
 PTB  HZ EP   2    856 18.67                             132    0.81 5  143 264 
 PTB  HN ES        856 38.18                             132   -0.12 9  143 264 
 ZAR  HZ EP        856 24.73                             121    0.53 8  207 296 
 ZAR  HE ES        856 49.28                             121   -0.32 8  207 296 
 ZAR  HZ I         856 54.30         2.5 0.25            122            207 296 
                                                                                
