 2016 1017 0555 12.1 L   6.767 -73.095144.3  RSN  5 0.1 1.3LRSN                1
 GAP=145        0.34       2.6     2.5  4.0 -0.3758E+01 -0.3391E+01  0.6399E+01E
 Epicentro: LOS SANTOS - SANTANDER                                             3
 ACTION:UPD 16-11-09 19:20 OP:rebc STATUS:               ID:20161017055512 L   I
 OLDACT:REG 16-10-17 11:50 OP:and  STATUS:               ID:20161017054730     3
 2016-10-17-0548-00M.COL___359                                                 6
 STAT SP IPHASW D HRMM SECON CODA AMPLIT PERI AZIMU VELO AIN AR TRES W  DIS CAZ7
 PAM  EZ EP        555 34.25                             151    0.1210 76.9  35 
 PAM  EN ES        555 51.22                             151   -0.0910 76.9  35 
 PAM  EZ I         555 53.31         5.5 0.56            156           76.9  35 
 BRR  HZ EP        555 33.51                             150    0.0310 77.8 299 
 BRR  HN ES        555 50.22                             150    0.0610 77.8 299 
 BRR  HZ I         555 59.59         5.3 0.26            160           77.8 299 
 RUS  HZ EP        555 35.41                             145   -0.0210 96.7 179 
 RUS  HZ I         555 56.54         1.4 0.34            139           96.7 179 
 PTB  HZ ES   2    556  0.41                             131   -0.27 5  153 261 
 SPBC HZ IP     C  555 40.45                             128   -0.12 9  164 221 
 SPBC HN ES        556  2.84                             128    0.07 9  164 221 
                                                                                
