 2016  817 0344 39.8 L   6.796 -73.144146.0  RSN 10 0.5 1.6LRSN                1
 GAP=237        1.06       4.5     5.4  6.7  0.6529E+01  0.7761E+01  0.8031E+01E
 Epicentro: LOS SANTOS - SANTANDER                                             3
 ACTION:UPD 16-10-29 15:36 OP:rebc STATUS:               ID:20160817034439 L   I
 OLDACT:REG 16-08-17 12:34 OP:ak   STATUS:               ID:20160817033759     3
 2016-08-17-0337-59S.COL___343                                                 6
 STAT SP IPHASW D HRMM SECON CODA AMPLIT PERI AZIMU VELO AIN AR TRES W  DIS CAZ7
 BAR2 EZ EP        344 59.27                             171   -0.1410 23.0 191 
 BAR2 EZ ES        345 14.70                             171   -0.0410 23.0 191 
 BAR2 EZ I         345 15.86        10.2 0.27                          23.0 191 
 BRR  HZ EP        345  1.19                             152    0.2410 71.5 299 
 BRR  HN ES        345 18.12                             152    0.6410 71.5 299 
 BRR  HZ I         345 22.26         6.1 0.26                          71.5 299 
 RUS  HZ EP        345  3.10                             144   -0.4010  100 176 
 RUS  HN ES        345 22.03                             144    0.0110  100 176 
 RUS  HZ I         345 22.94         2.3 0.25                           100 176 
 PTB  HZ EP        345  5.97                             132   -0.79 9  148 259 
 PTB  HN ES        345 26.94                             132   -0.87 9  148 259 
 PTB  HZ I         345 29.76         3.6 0.19                           148 259 
 SPBC HZ EP        345  8.37                             129    0.11 9  163 219 
 SPBC HN ES        345 30.70                             129    0.22 9  163 219 
 SPBC HZ I         345 35.07         6.8 0.41                           163 219 
 ZAR  HZ EP   2    345 13.31                             122    1.06 4  204 292 
 ZAR  HN ES        345 37.46                             122   -0.14 9  204 292 
 ZAR  HZ I         345 44.42         3.3 0.38                           204 292 
 NOR  HZ EP   2    345 15.10                             119   -0.39 4  235 235 
 NOR  HE ES        345 44.07                             119    0.71 8  235 235 
 NOR  HZ I         345 48.94         2.4 0.22                           235 235 
 CHI  HZ EP        345 17.99                             117    0.56 8  248 195 
 CHI  HN ES        345 46.64                             117   -0.18 8  248 195 
 CHI  HZ I         345 50.57         2.2 0.31                           248 195 
 GUY2CHZ EP   2    345 24.52                             112    1.15 4  301 235 
 GUY2CHE ES   4    346  0.93                             112    3.55 0  301 235 
 GUY2CHZ I         346  5.50         2.5 0.36                           301 235 
 PRA  HZ EP   2    345 32.92                             107   -0.34 3  392 210 
 PRA  HN ES        346 15.07                             107    0.09 6  392 210 
 PRA  HZ I         346 19.53         2.2 0.50                           392 210 
                                                                                
