 2011  517 0419 19.1 L   6.775 -73.117146.6  RSN 10 0.2 1.9LRSN                1
 GAP=141        0.48       2.5     4.3  4.3 -0.2192E+01  0.1441E+01 -0.9817E+00E
 Epicentro: LOS SANTOS - SANTANDER                                             3
 ACTION:UP  11-06-29 08:54 OP:tino STATUS:               ID:20110517041919 L   I
 2011-05-17-0413-50S.COL___141                                                 6
 STAT SP IPHASW D HRMM SECON CODA AMPLIT PERI AZIMU VELO SNR AR TRES W  DIS CAZ7
 BAR2 SZ EP        419 38.72                             171    -0.110   21 200 
 BAR2 SZ ES   2    419 54.15                             171     0.0 5   21 200 
 BAR2 SZ I         419 55.51        35.9 0.22                            21 200 
 BTL  SZ EP        419 39.22                             171     0.410   23 314 
 GIR2 SZ EP   1    419 38.98                             166     0.0 7   35 346 
 BRR  HZ EP        419 40.70                             151     0.110   75 299 
 BRR  HN ES   1    419 57.26                             151    -0.1 7   75 299 
 BRR  HZ I         419 59.95        17.4 0.20                            75 299 
 PAM  SZ EP   1    419 41.65                             151     0.2 7   78  36 
 PAM  SN ES   1    419 58.91                             151     0.0 7   78  36 
 RUS  HZ EP   1    419 42.65                             145    -0.1 7   98 178 
 RUS  HN ES   1    420  1.05                             145    -0.1 7   98 178 
 RUS  HZ I         420  2.61         8.6 0.28                            98 178 
 BRI  SZ EP   1    419 43.35                             141     0.1 7  110  19 
 GRA  SZ EP   1    419 44.44                             137    -0.2 7  128  16 
 GRA  SZ ES   1    420  4.51                             137     0.0 7  128  16 
 GRA  SZ I         420  5.40        11.0 0.48                           128  16 
 OCA  SZ EP   1    419 47.37                             129    -0.4 7  163 352 
 OCA  SZ ES   2    420 10.05                             129    -0.1 5  163 352 
 OCA  SZ I         420 16.06        11.6 0.32                           163 352 
 HEL  HZ EP   2    419 59.87                             115     0.2 4  274 257 
 HEL  HZ I         420 37.14         4.1 0.46                           274 257 
                                                                                
