 2013  617 0307 29.3 L   6.821 -73.134149.1  RSN 10 0.5 1.9LRSN                1
 GAP=184        1.02       3.7     6.4  6.0  0.4099E+01  0.4901E+01  0.2577E+01E
 Epicentro: LOS SANTOS - SANTANDER                                             3
 ACTION:UPD 14-01-08 09:55 OP:ep   STATUS:               ID:20130617030729 L   I
 OLDACT:REG 13-06-17 07:05 OP:carl STATUS:               ID:20130617025959     3
 2013-06-17-0259-59M.COL___261                                                 6
 STAT SP IPHASW D HRMM SECON CODA AMPLIT PERI AZIMU VELO AIN AR TRES W  DIS CAZ7
 BAR2 SZ EP        3 7 49.50                             170    0.1010 25.9 192 
 BAR2 SZ ES        3 8  4.77                             170   -0.3010 25.9 192 
 BAR2 SZ I         3 8  5.72        15.7 0.20            167           25.9 192 
 GIR2 SZ EP        3 7 49.47                             168    0.1410 29.2 347 
 GIR2 SZ ES        3 8  4.68                             168   -0.2710 29.2 347 
 GIR2 SZ I         3 8  6.25         7.0 0.18            165           29.2 347 
 BRR  HZ EP        3 7 51.39                             153    0.5610 71.3 296 
 BRR  HE ES        3 8  8.64                             153    1.0310 71.3 296 
 BRR  HZ I         3 8  8.98        15.6 0.12            148           71.3 296 
 RUS  HZ EP        3 7 53.74                             144    0.1910  103 177 
 RUS  HN ES   1    3 8 12.18                             144   -0.29 7  103 177 
 RUS  HZ I         3 8 13.39        10.9 0.30            144            103 177 
 PTB  HZ EP   1    3 7 56.26                             132   -0.45 7  150 258 
 PTB  HN ES   1    3 8 17.14                             132   -0.95 7  150 258 
 PTB  HZ I         3 8 22.95         5.9 0.30            129            150 258 
 OCA  HZ EP   1    3 7 57.20                             131   -0.48 7  158 353 
 OCA  HN ES   1    3 8 19.14                             131   -0.67 7  158 353 
 OCA  HZ I         3 8 24.30         7.8 0.52            130            158 353 
 ZAR  HN ES   1    3 8 27.56                             123    0.04 6  204 291 
 ZAR  HZ I         3 8 33.67         6.5 0.28            121            204 291 
 SML  HZ EP   1    3 8  5.96                             118    0.01 6  242 335 
 SML  HN ES   1    3 8 34.17                             118   -0.37 6  242 335 
 SML  HZ I         3 8 37.81        15.3 0.10            117            242 335 
 CHI  HZ EP   1    3 8  7.81                             117    0.33 6  251 195 
 CHI  HN ES   1    3 8 37.13                             117   -0.12 6  251 195 
 CHI  HZ I         3 8 40.52         4.8 0.48            117            251 195 
 PRA  HZ EP   1    3 8 23.50                             107    0.24 4  395 210 
 PRA  HN ES   1    3 9  4.94                             107   -0.41 4  395 210 
 PRA  HZ I         3 9 11.60         2.8 0.28            106            395 210 
                                                                                
