 2012  417 0211 58.0 L   6.773 -73.089150.1  RSN  8 0.3 2.2LRSN                1
 GAP=145        0.58       2.9     3.8  4.9  0.7206E+00  0.2907E+01  0.3830E+01E
 Epicentro: LOS SANTOS - SANTANDER                                             3
 ACTION:UP  12-07-05 11:53 OP:tino STATUS:               ID:20120417021159dL   I
 2012-04-17-0210-00M.COL___190                                                 6
 STAT SP IPHASW D HRMM SECON CODA AMPLIT PERI AZIMU VELO AIN AR TRES W  DIS CAZ7
 PAM  SZ EP   1    212 20.82                             152     0.2 7   76  34 
 PAM  SN ES   1    212 38.04                             152    -0.2 7   76  34 
 PAM  SZ I         212 40.21         8.7 0.41                            76  34 
 BRR  HZ EP        212 19.95                             151    -0.110   78 298 
 BRR  HZ I         212 20.24        58.1 0.16                            78 298 
 BRR  HN ES        212 37.52                             151     0.310   78 298 
 RUS  HZ EP   1    212 21.90                             146    -0.1 7   97 180 
 RUS  HN ES   1    212 40.43                             146    -0.2 7   97 180 
 RUS  HZ I         212 41.93         7.2 0.23                            97 180 
 OCA  SZ EP   1    212 26.91                             130    -0.1 7  164 351 
 ZAR  HN ES   1    212 57.31                             122    -0.2 6  211 292 
 ZAR  HZ I         213  2.52        10.3 0.18                           211 292 
 CHI  HZ EP   1    212 35.93                             118     0.1 6  248 197 
 CHI  HN ES   1    213  5.40                             118     0.1 6  248 197 
 HEL  HZ EP   1    212 39.29                             115     0.2 6  277 257 
 HEL  HN ES   2    213 10.15                             115    -0.9 4  277 257 
 HEL  HZ I         213 17.76         8.6 0.41                           277 257 
 PRA  HZ EP   1    212 52.11                             107     0.4 4  393 211 
 PRA  HZ I         212 53.70        17.0 0.16                           393 211 
                                                                                
