 2016 1117 0440  9.2 L   6.776 -73.131148.3  RSN  5 0.2 1.0LRSN                1
 GAP=158        0.62       5.2     3.0  4.9 -0.3415E+01  0.3164E+01  0.6454E+00E
 Epicentro: LOS SANTOS - SANTANDER                                             3
 *BAR2-BRR-PTB-ZAR                                                             3
 ACTION:UPD 17-10-26 21:09 OP:lp   STATUS:               ID:20161117044009 L   I
 OLDACT:REG 16-11-17 16:15 OP:and  STATUS:               ID:20161117043745     3
 2016-11-17-0438-00M.COL___343                                                 6
 STAT SP IPHASW D HRMM SECON CODA AMPLIT PERI AZIMU VELO AIN AR TRES W  DIS CAZ7
 BAR2 EZ EP        440 29.30                             172    0.2210 21.1 196 
 BAR2 EZ ES        440 44.47                             172   -0.1310 21.1 196 
 BRR  HZ EP        440 30.57                             152   -0.2010 73.9 300 
 BRR  HN ES        440 48.04                             152    0.4510 73.9 300 
 PAM  EZ EP        440 31.89                             151    0.1510 78.5  37 
 PAM  EN ES        440 49.07                             151   -0.2610 78.5  37 
 PAM  EZ I         441  6.17         1.7 0.26            145           78.5  37 
 PTB  HZ EP        440 36.48                             132    0.02 9  149 260 
 PTB  HN ES        440 57.57                             132   -0.16 9  149 260 
 PTB  HZ I         440 59.41         1.1 0.13            140            149 260 
 ZAR  HN ES        441  7.56                             123   -0.13 8  207 293 
                                                                                
