 2013  617 0623 46.8 L   6.802 -73.175151.9  RSN  8 0.4 1.5LRSN                1
 GAP=178        0.86       4.2     6.2  7.8  0.1164E+02  0.3733E+01 -0.1878E+00E
 Epicentro: LOS SANTOS - SANTANDER                                             3
 ACTION:UPD 14-01-08 09:55 OP:ep   STATUS:               ID:20130617062346 L   I
 OLDACT:REG 13-06-17 07:12 OP:carl STATUS:               ID:20130617061959     3
 2013-06-17-0619-59M.COL___261                                                 6
 STAT SP IPHASW D HRMM SECON CODA AMPLIT PERI AZIMU VELO AIN AR TRES W  DIS CAZ7
 BAR2 SZ EP   1    624  7.25                             171    0.06 9 23.2 182 
 BAR2 SZ ES   1    624 22.54                             171   -0.53 9 23.2 182 
 BAR2 SZ I         624 23.87         8.1 0.16            166           23.2 182 
 GIR2 SZ EP   1    624  7.24                             168    0.03 9 30.7 356 
 BRR  HZ EP   1    624  9.22                             154    0.74 9 68.3 300 
 BRR  HN ES   1    624 26.17                             154    0.80 9 68.3 300 
 BRR  HZ I         624 26.69         6.1 0.10            151           68.3 300 
 RUS  HZ EP   1    624 11.52                             145    0.30 9  101 174 
 RUS  HN ES   1    624 29.98                             145   -0.26 9  101 174 
 RUS  HZ I         624 31.53         3.3 0.42            143            101 174 
 PTB  HZ EP   1    624 14.10                             134    0.08 8  145 258 
 PTB  HN ES   1    624 34.83                             134   -0.40 8  145 258 
 PTB  HZ I         624 41.30         3.6 0.78            131            145 258 
 ZAR  HE ES        624 44.79                             124    0.0510  201 292 
 SML  HN ES        624 51.74                             119   -0.61 9  242 336 
 CHI  HZ EP   1    624 24.40                             118   -0.40 7  248 194 
 CHI  HN ES   1    624 54.49                             118    0.06 7  248 194 
 CHI  HZ I         624 58.19         3.2 0.46            118            248 194 
                                                                                
