 2012 1017 0512 38.0 L   7.116 -73.150138.2  RSN  6 0.1 1.6LRSN                1
 GAP=141        0.35       2.5     2.4  3.2  0.1171E+01  0.1014E+01  0.8581E+00E
 Epicentro: BUCARAMANGA - SANTANDER                                            3
 ACTION:UPD 12-11-22 17:04 OP:ep   STATUS:               ID:20121017051238 L   I
 2012-10-17-0510-00M.COL___231                                                 6
 STAT SP IPHASW D HRMM SECON CODA AMPLIT PERI AZIMU VELO AIN AR TRES W  DIS CAZ7
 GIR2 SZ EP   1    512 56.30                             177   -0.08 7 6.30 230 
 GIR2 SZ ES   1    513 10.37                             177   -0.32 7 6.30 230 
 PAM  SZ EP   1    512 58.26                             157    0.01 7 55.6  64 
 PAM  SZ I         512 58.53         5.6 0.42                          55.6  64 
 PAM  SN ES   1    513 14.20                             157    0.18 7 55.6  64 
 PAM  SN I         513 14.79         7.4 0.38                          55.6  64 
 BAR2 SZ EP   1    512 58.10                             156    0.10 7 58.0 184 
 BAR2 SZ ES   1    513 13.63                             156    0.05 7 58.0 184 
 BRR  HZ EP   1    512 57.85                             154   -0.01 7 62.1 269 
 BRR  HZ I         512 58.10         8.4 0.12                          62.1 269 
 BRR  HN ES   1    513 13.39                             154    0.06 7 62.1 269 
 RUS  HZ EP   1    513  3.76                             133   -0.16 7  135 177 
 RUS  HE ES   1    513 24.22                             133    0.11 7  135 177 
 RUS  HE I         513 25.91         6.2 0.25                           135 177 
 ZAR  HN ES   1    513 32.99                             122    0.08 7  193 283 
 ZAR  HN I         513 33.69         6.4 0.16                           193 283 
                                                                                
