 2011  517 0017 30.7 L   6.792 -73.147139.8  RSN 14 0.3 2.5LRSN                1
 GAP=137        0.75       3.0     4.6  5.5 -0.6063E+01  0.1034E+02 -0.6943E+00E
 Epicentro: LOS SANTOS - SANTANDER                                             3
 ACTION:UP  11-06-29 08:53 OP:tino STATUS:               ID:20110517001730 L   I
 2011-05-17-0000-00M.COL___141                                                 6
 STAT SP IPHASW D HRMM SECON CODA AMPLIT PERI AZIMU VELO SNR AR TRES W  DIS CAZ7
 BTL  SZ EP        017 50.28                             172     0.710   19 316 
 BAR2 SZ EP        017 49.63                             170     0.010   22 190 
 BAR2 SZ I         017 49.95        89.2 0.08                            22 190 
 BAR2 SZ ES   1    018  4.06                             170    -0.3 7   22 190 
 GIR2 SZ EP   1    017 49.71                             166     0.0 7   32 351 
 BRR  HZ IP     C  017 51.42                             151     0.210   72 299 
 BRR  HZ I         017 51.89       113.3 0.09                            72 299 
 BRR  HN ES   2    018  7.50                             151     0.2 5   72 299 
 PAM  SZ EP   1    017 52.44                             149     0.1 7   78  39 
 PAM  SN ES   1    018  9.07                             149    -0.2 7   78  39 
 RUS  HZ EP        017 53.56                             143    -0.310  100 176 
 RUS  HE ES   1    018 12.10                             143     0.2 7  100 176 
 RUS  HZ I         018 14.15        45.6 0.24                           100 176 
 BRI  SZ EP   1    017 54.11                             140     0.0 7  109  21 
 GRA  SZ EP        017 55.38                             135    -0.210  127  17 
 GRA  SZ ES   1    018 14.45                             135    -0.4 7  127  17 
 GRA  SZ I         018 16.94        56.7 0.22                           127  17 
 OCA  SZ EP   1    017 59.22                             128     0.5 7  161 353 
 OCA  SZ ES   1    018 20.31                             128    -0.2 7  161 353 
 OCA  SZ I         018 25.27        37.3 0.28                           161 353 
 NOR  SZ EP   1    018  5.65                             117    -0.4 6  234 235 
 NOR  SE ES   1    018 33.48                             117    -0.1 6  234 235 
 HEL  HZ EP   1    018 10.12                             114    -0.5 6  272 256 
 HEL  HN ES   1    018 41.79                             114     0.1 6  272 256 
 HEL  HZ I         018 49.18        15.6 0.29                           272 256 
 DBB  SZ EP   1    018 17.49                             108    -0.5 5  339 274 
 TOL  SZ EP   1    018 19.45                             108     0.8 5  343 225 
 PRA  HZ EP   1    018 23.80                             105    -0.2 4  391 210 
 PRA  HN ES   1    019  5.28                             105    -0.2 4  391 210 
                                                                                
