 2010  817 0525 27.6 L   6.870 -73.276118.5  RSN 14 0.3 2.6LRSN                1
 GAP=109        0.76       2.1     3.6  4.1 -0.1974E+01  0.2494E+01  0.7830E+00E
 Epicentro: BETULIA - SANTANDER                                                3
 ACTION:UP  10-09-07 10:55 OP:vdl  STATUS:               ID:20100817052527 L   I
 2010-08-17-0521-29S.COL___111                                                 6
 STAT SP IPHASW D HRMM SECON CODA AMPLIT PERI AZIMU VELO SNR AR TRES W  DIS CAZ7
 GIR2 SZ EP        525 43.99                             167     0.110   25  21 
 BAR2 SZ IP        525 44.43                             164     0.210   32 162 
 BAR2 SZ ES   1    525 57.21                             164     0.0 7   32 162 
 BAR2 SZ I         525 58.85       488.6 0.19                            32 162 
 BRR  HZ IP        525 44.80                             153    -0.110   55 299 
 BRR  HN ES        525 58.19                             153    -0.210   55 299 
 BRR  HZ I         525 59.63       195.1 0.10                            55 299 
 RUS  HZ EP        525 49.29                             134    -0.310  110 169 
 RUS  HN ES        526  6.66                             134    -0.110  110 169 
 RUS  HZ I         526  8.72        36.2 0.78                           110 169 
 GUE  SZ IP        525 49.38                             133    -0.210  113  20 
 GUE  SZ I         526  7.35        65.8 0.21                           113  20 
 GRA  SZ IP        525 50.64                             130     0.310  124  25 
 GRA  SZ ES   1    526  8.66                             130     0.6 7  124  25 
 GRA  SZ I         526 11.66        93.2 0.23                           124  25 
 OCA  SZ EP        525 52.84                             124    -0.2 9  151 358 
 OCA  SZ ES        526 12.85                             124     0.0 9  151 358 
 OCA  SZ I         526 13.94       173.6 0.22                           151 358 
 CHI  HZ EP        526  4.36                             110    -0.1 8  253 192 
 CHI  HN ES   1    526 32.92                             110    -0.2 6  253 192 
 CHI  HZ I         526 36.84        10.8 0.20                           253 192 
 HEL  HZ EP        526  5.72                             110     0.5 8  260 253 
 HEL  HN ES   2    526 33.74                             110    -0.8 4  260 253 
 HEL  HZ I         526 39.63        21.7 0.20                           260 253 
 CVER SZ EP   2    526  7.42                             109     0.4 4  274 199 
 CVER SZ I         526 40.61        14.5 0.44                           274 199 
 RREF HZ EP        526 12.33                             106     0.3 7  316 227 
 RREF HN ES   1    526 47.27                             106     0.5 5  316 227 
 RREF HZ I         526 54.24        12.1 0.39                           316 227 
 DBB  SZ EP        526 11.96                             105    -0.4 7  325 273 
 DBB  SZ I         526 51.67         4.8 0.57                           325 273 
 SDV  BZ EP        526 17.05                             103    -0.4 6  367  53 
 SDV  BZ I         526 57.33        12.6 0.49                           367  53 
 PRA  HZ EP        526 20.40                             101     0.1 6  392 207 
 PRA  HN ES   1    527  1.63                             101     0.2 4  392 207 
 PRA  HZ I         527  6.49        16.2 0.41                           392 207 
                                                                                
