 2012  817 0445  0.6 L   6.824 -73.066148.7  RSN  8 0.4 1.9LRSN                1
 GAP=191        0.79       6.5     5.4 10.1 -0.8948E+01 -0.6901E+01  0.1913E+02E
 Epicentro: LOS SANTOS - SANTANDER                                             3
 ACTION:UPD 12-09-10 11:56 OP:ep   STATUS:               ID:20120817044500 L   I
 2012-08-17-0440-00M.COL___217                                                 6
 STAT SP IPHASW D HRMM SECON CODA AMPLIT PERI AZIMU VELO AIN AR TRES W  DIS CAZ7
 BAR2 SZ EP   1    445 20.66                             169   -0.0610 28.7 207 
 BAR2 SZ I         445 37.41        27.0 0.28                          28.7 207 
 GIR2 SZ EP   1    445 20.71                             167    0.0610 31.5 333 
 BRR  HZ EP   1    445 22.55                             151    0.0810 77.9 294 
 BRR  HN ES   1    445 40.07                             151    0.5510 77.9 294 
 RUS  HZ EP   1    445 24.83                             144   -0.0110  103 181 
 PTB  HZ EP   1    445 27.95                             131   -0.71 9  157 258 
 PTB  HE ES   1    445 49.79                             131   -0.75 9  157 258 
 PTB  HZ I         445 50.38         6.3 0.20                           157 258 
 OCA  HZ EP   1    445 29.15                             130    0.12 9  159 350 
 OCA  HN ES   2    445 50.69                             130   -0.50 6  159 350 
 OCA  HZ I         445 56.62        16.9 0.29                           159 350 
 ZAR  HN ES   2    445 59.99                             122   -0.05 6  211 291 
 HEL  HZ EP   1    445 42.76                             114    0.76 7  281 256 
 HEL  HN ES        446 14.60                             114    0.3210  281 256 
 HEL  HZ I         446 18.05         3.1 0.33                           281 256 
                                                                                
