 2012  717 0155 26.8 L   6.696 -73.194154.4  RSN  4 0.2 1.6LRSN                1
 GAP=224        0.47       4.8     4.7  4.9  0.1048E+02  0.1578E+01 -0.1320E+01E
 Epicentro: VILLANUEVA - SANTANDER                                             3
 ACTION:UPD 12-08-14 11:45 OP:ep   STATUS:               ID:20120717015526 L   I
 2012-07-17-0150-00M.COL___197                                                 6
 STAT SP IPHASW D HRMM SECON CODA AMPLIT PERI AZIMU VELO AIN AR TRES W  DIS CAZ7
 BAR2 SZ EP   1    155 47.22                             176    -0.1 7   12 174 
 BAR2 SZ ES   1    156  2.96                             176    -0.3 7   12 174 
 BAR2 SZ I         156  5.39        10.0 0.51            172             12 174 
 BRR  HZ EP        155 49.05                             153     0.110   73 308 
 BRR  HZ I         155 49.35         9.7 0.18            154             73 308 
 BRR  HE ES   1    156  6.50                             153     0.2 7   73 308 
 RUS  HZ EP   1    155 50.69                             149     0.0 7   90 172 
 RUS  HN ES   1    156  9.52                             149     0.2 7   90 172 
 RUS  HZ I         156 11.46         3.6 0.39            148             90 172 
 PTB  HZ EP   1    155 53.73                             135    -0.1 7  141 263 
 PTB  HN ES   1    156 14.91                             135    -0.1 7  141 263 
 PTB  HZ I         156 18.54         4.3 0.20            135            141 263 
