 2014  417 0650 43.3 L   6.828 -73.144143.5  RSN 17 0.5 2.3LRSN                1
 GAP=135        1.14       2.7     4.1  6.7 -0.2409E+01  0.9013E+01  0.1769E+01E
 Epicentro: LOS SANTOS - SANTANDER                                             3
 ACTION:UPD 14-05-13 23:09 OP:nd   STATUS:               ID:20140417065043 L   I
 OLDACT:REG 14-04-17 13:51 OP:nd   STATUS:               ID:20140417065040     3
 2014-04-17-0650-40M.COL___241                                                 6
 STAT SP IPHASW D HRMM SECON CODA AMPLIT PERI AZIMU VELO AIN AR TRES W  DIS CAZ7
 PAM  SZ EP        651  5.41                             151    0.3310 74.9  41 
 PAM  SN ES        651 22.63                             151    0.5310 74.9  41 
 RUS  HZ EP        651  6.72                             142   -0.2910  104 176 
 RUS  HN ES        651 25.30                             142   -0.2310  104 176 
 RUS  HZ I         651 27.89        21.3 0.50            148            104 176 
 PTB  HZ EP        651  9.15                             131   -0.96 9  149 258 
 PTB  HN ES        651 30.61                             131   -0.45 9  149 258 
 PTB  HZ I         651 35.25        26.9 0.28            133            149 258 
 OCA  HZ EP        651 11.17                             130    0.07 9  157 353 
 OCA  HN ES        651 33.01                             130    0.19 9  157 353 
 OCA  HZ I         651 43.38        13.1 0.32            132            157 353 
 SPBC HZ EP        651 11.39                             128   -0.43 9  166 218 
 SPBC HN ES        651 33.93                             128   -0.18 9  166 218 
 SPBC HZ I         651 39.16        22.6 0.14            131            166 218 
 ZAR  HZ EP   2    651 15.00                             122   -0.45 4  203 291 
 ZAR  HN ES        651 40.62                             122    0.05 9  203 291 
 ZAR  HZ I         651 46.71        25.2 0.38            124            203 291 
 NOR  HZ EP        651 18.70                             118   -0.36 8  237 234 
 NOR  HN ES        651 46.86                             118   -0.14 8  237 234 
 NOR  HZ I         651 50.92        21.3 0.20            121            237 234 
 SML  HZ EP        651 19.03                             117   -0.43 8  241 335 
 SML  HN ES        651 47.48                             117   -0.22 8  241 335 
 SML  HZ I         651 55.46        22.5 0.10            120            241 335 
 CHI  HZ EP        651 20.66                             116   -0.50 8  252 195 
 CHI  HN ES        651 50.27                             116   -0.45 8  252 195 
 CHI  HZ I         651 55.92         8.7 0.26            120            252 195 
 ROSC BZ EP        651 22.29                             116    0.74 8  256 211 
 ROSC BN ES        651 52.44                             116    1.02 8  256 211 
 ROSC BZ I         651 56.07        17.2 0.40            119            256 211 
 HEL  HZ EP        651 24.31                             114    0.85 8  273 255 
 HEL  HN ES        651 54.86                             114    0.04 8  273 255 
 HEL  HZ I         652  1.84         8.7 0.36            117            273 255 
 URE  HZ EP   1    651 23.31                             113   -0.80 6  283 291 
 URE  HN ES   4    651 53.55                             113   -2.42 0  283 291 
 URE  HZ I         652  6.74        14.7 0.30            115            283 291 
 GUY2CHZ EP        651 27.84                             112    0.86 7  303 234 
 GUY2CHN ES   4    652  3.54                             112    2.45 0  303 234 
 GUY2CHZ I         652  8.48         9.4 0.50                           303 234 
 RREF HZ EP        651 30.02                             110    0.47 7  324 229 
 RREF HN ES        652  6.78                             110    1.12 7  324 229 
 RREF HZ I         652 13.32        10.4 0.26            113            324 229 
 CBOC HZ EP        651 30.56                             109    0.35 7  335 252 
 CBOC HN ES        652  7.12                             109    0.29 7  335 252 
 PRA  HZ EP        651 36.92                             106   -0.10 6  395 209 
 PRA  HN ES        652 18.33                             106   -0.63 6  395 209 
 PRA  HZ I         652 21.90         8.1 0.26            109            395 209 
 SJC  HZ EP   4    651 36.32                             105   -2.13 0  407 327 
 SJC  HN ES   4    652 19.20                             105   -2.30 0  407 327 
 SJC  HZ I         652 22.30         2.5 0.50            108            407 327 
                                                                                
