 2016  317 0159 18.2 L   6.811 -73.166141.1  RSN 12 0.3 1.9LRSN                1
 GAP=133        0.61       1.9     2.5  4.6 -0.4010E+00  0.2886E+01  0.1346E+01E
 Epicentro: LOS SANTOS - SANTANDER                                             3
 ACTION:UPD 16-05-13 21:24 OP:cam  STATUS:               ID:20160317015918 L   I
 OLDACT:UP  16-03-28 15:34 OP:Mher STATUS:               ID:20160317015918 L   3
 OLDACT:REG 16-03-17 13:57 OP:dnl  STATUS:               ID:20160317015752     3
 2016-03-17-0157-52M.COL___310                                                 6
 STAT SP IPHASW D HRMM SECON CODA AMPLIT PERI AZIMU VELO AIN AR TRES W  DIS CAZ7
 BAR2 EZ EP        159 37.45                             170    0.1910 24.3 184 
 PAM  EZ EP        159 40.12                             150    0.2010 77.9  41 
 PAM  EN ES        159 56.76                             150   -0.1310 77.9  41 
 PAM  EZ I         159 58.80         6.1 0.22            151           77.9  41 
 RUS  HZ EP        159 41.67                             142    0.1010  102 175 
 RUS  HN ES        159 59.83                             142    0.0110  102 175 
 RUS  HZ I         2 0  1.06         6.8 0.32            145            102 175 
 PTB  HZ EP        159 44.11                             131   -0.47 9  146 258 
 PTB  HE ES        2 0  5.13                             131   -0.05 9  146 258 
 PTB  HZ I         2 0  7.17         9.3 0.15            129            146 258 
 OCA  HZ EP   2    159 45.93                             129   -0.05 5  159 354 
 OCA  HN ES        2 0  7.43                             129   -0.24 9  159 354 
 OCA  HZ I         2 0 13.39        25.5 0.20            128            159 354 
 SPBC HZ EP        159 46.06                             128   -0.21 9  163 218 
 SPBC HN ES        2 0  8.14                             128   -0.05 9  163 218 
 SPBC HZ I         2 0 11.38        13.0 0.13            128            163 218 
 ZAR  HZ EP        159 50.29                             122    0.24 9  202 292 
 ZAR  HE ES        2 0 15.40                             122    0.48 9  202 292 
 ZAR  HZ I         2 0 22.56        13.2 0.36            120            202 292 
 NOR  HZ EP   2    159 53.34                             117   -0.17 4  234 234 
 NOR  HE ES   4    2 0 19.94                             117   -1.14 0  234 234 
 NOR  HZ I         2 0 26.78         4.9 0.20            117            234 234 
 CHI  HZ EP        159 55.44                             116   -0.24 8  249 195 
 CHI  HE ES        2 0 25.26                             116    0.32 8  249 195 
 CHI  HZ I         2 0 30.68         2.8 0.32            117            249 195 
 URE  HZ EP   9    2 0  2.07                             113    3.34 0  281 292 
 URE  HN ES        2 0 33.44                             113   -0.27 7  281 292 
 GUY2CHZ EP   2    2 0  2.08                             111    0.64 4  300 234 
 GUY2CHE ES   2    2 0 34.32                             111   -0.87 4  300 234 
 GUY2CHZ I         2 0 46.20         3.0 0.34                           300 234 
 MON  HZ EP   4    2 0  4.69                             108   -2.01 0  351 308 
 MON  HN ES   4    2 0 41.51                             108   -3.05 0  351 308 
 MON  HZ I         2 0 58.82         3.6 0.46            107            351 308 
 SJC  HZ EP   4    2 0 11.70                             105   -1.62 0  407 327 
 SJC  HE ES   4    2 0 52.88                             105   -3.45 0  407 327 
                                                                                
