 2011  617 0359 51.4 L   6.802 -73.069145.7  RSN  8 0.3 1.4LRSN                1
 GAP=164        0.59       3.1     7.1  5.9 -0.3905E+01 -0.5302E+01  0.1763E+00E
 Epicentro: LOS SANTOS - SANTANDER                                             3
 ACTION:UP  11-07-14 19:05 OP:ep   STATUS:               ID:20110617035951 L   I
 2011-06-17-0357-20S.COL___135                                                 6
 STAT SP IPHASW D HRMM SECON CODA AMPLIT PERI AZIMU VELO SNR AR TRES W  DIS CAZ7
 BTL  SZ EP   1    4 0 11.39                             170     0.4 7   25 300 
 BAR2 SZ ES   2    4 0 25.79                             169    -0.6 5   26 208 
 BAR2 SZ I         4 0 27.58         5.0 0.27                            26 208 
 GIR2 SZ EP   2    4 0 10.64                             166    -0.4 5   34 336 
 GIR2 SZ ES   2    4 0 26.23                             166    -0.2 5   34 336 
 BRR  HZ EP        4 0 12.84                             150    -0.110   79 295 
 BRR  HN ES   2    4 0 30.21                             150     0.4 5   79 295 
 BRR  HZ I         4 0 33.57         5.3 0.15                            79 295 
 RUS  HZ EP   1    4 0 15.22                             144     0.1 7  101 181 
 RUS  HN ES   2    4 0 33.87                             144     0.2 5  101 181 
 RUS  HZ I         4 0 34.76         2.5 0.24                           101 181 
 BRI  SZ EP   1    4 0 15.09                             142     0.1 7  105  17 
 BRI  SZ ES   2    4 0 34.06                             142     0.6 5  105  17 
 BRI  SZ I         4 0 36.53         3.9 0.39                           105  17 
 GRA  SZ IP        4 0 16.33                             138    -0.110  123  14 
 GRA  SZ ES   1    4 0 35.79                             138    -0.1 7  123  14 
 GRA  SZ I         4 0 36.96         6.0 0.38                           123  14 
 OCA  SZ EP   1    4 0 19.56                             129    -0.2 7  161 350 
 OCA  SZ ES        4 0 41.91                             129     0.0 9  161 350 
 OCA  SZ I         4 0 45.82         5.7 0.23                           161 350 
                                                                                
