 2010  617 0718 46.5 L   6.794 -73.051145.7  RSN  9 0.3 1.9LRSN                1
 GAP=169        0.68       2.9     5.8  5.5 -0.3242E+01  0.2004E+01 -0.1706E+01E
 Epicentro: LOS SANTOS - SANTANDER                                             3
 ACTION:UP  10-08-24 10:11 OP:vdl  STATUS:               ID:20100617071846 L   I
 2010-06-17-0717-27S.COL___114                                                 6
 STAT SP IPHASW D HRMM SECON CODA AMPLIT PERI AZIMU VELO SNR AR TRES W  DIS CAZ7
 BAR2 SZ IP        719  6.10                             169    -0.110   27 213 
 BAR2 SZ ES   1    719 21.61                             169     0.0 7   27 213 
 GIR2 SZ EP   2    719  6.26                             166    -0.1 5   35 333 
 BRR  HZ IP        719  7.98                             149    -0.310   81 295 
 BRR  HE ES   1    719 25.30                             149     0.1 7   81 295 
 BRR  HZ I         719 28.32        22.8 0.24                            81 295 
 RUS  HZ EP   1    719 10.22                             144     0.0 7  100 182 
 RUS  HE ES   1    719 28.83                             144     0.1 7  100 182 
 RUS  HZ I         719 30.00         8.5 0.43                           100 182 
 GUE  SZ EP   1    719 11.15                             140     0.0 7  115   7 
 GRA  SZ EP   1    719 11.97                             137     0.4 7  124  13 
 GRA  SZ ES   1    719 31.54                             137     0.4 7  124  13 
 OCA  SZ EP        719 15.13                             129     0.1 9  162 349 
 OCA  SZ ES   1    719 36.62                             129    -0.7 7  162 349 
 OCA  SZ I         719 46.42        10.6 0.10                           162 349 
 CHI  HZ EP   2    719 24.94                             117     0.5 4  251 198 
 CHI  HE ES   2    719 53.28                             117    -0.8 4  251 198 
 CHI  HZ I         719 59.50         4.5 0.70                           251 198 
 HEL  HZ EP   1    719 28.14                             114     0.3 6  282 256 
 HEL  HN ES   2    720  0.85                             114     0.8 4  282 256 
 HEL  HZ I         720  3.49         3.7 0.14                           282 256 
                                                                                
