 2017 1017 0556 33.6 L   6.650 -73.132147.8  RSN  5 0.4 1.3LRSN                1
 GAP=189        0.94       9.7     5.3  7.9  0.4595E+01  0.6630E+00 -0.8767E+01E
 Epicentro: VILLANUEVA - SANTANDER                                             3
 ACTION:UPD 17-11-07 19:32 OP:rebc STATUS:               ID:20171017055633 L   I
 OLDACT:UP  17-10-17 15:24 OP:dani STATUS:               ID:20171017054741     3
 OLDACT:UP  17-10-17 15:24 OP:dani STATUS:               ID:20171017054741     3
 OLDACT:UP  17-10-17 15:24 OP:dani STATUS:               ID:20171017054741     3
 OLDACT:UP  17-10-17 15:23 OP:dani STATUS:               ID:20171017054741     3
 OLDACT:REG 17-10-17 12:35 OP:dani STATUS:               ID:20171017054741     3
 2017-10-17-0548-00M.COL___422                                                 6
 STAT SP IPHASW D HRMM SECON CODA AMPLIT PERI AZIMU VELO AIN AR TRES W  DIS CAZ7
 BAR2 EZ EP        556 52.43                             177   -0.8010 8.55 221 
 BAR2 EZ ES        557  8.76                             177    0.1910 8.55 221 
 BAR2 EZ I         557 10.41         5.6 0.19            173           8.55 221 
 BRR  HZ EP     C  556 55.83                             149    0.2910 81.6 308 
 BRR  HN ES        557 12.65                             149   -0.0310 81.6 308 
 BRR  HZ I         557 16.88         3.1 0.12            146           81.6 308 
 PAM  EZ EP        556 56.98                             147    0.2110 89.9  32 
 PTB  HZ EP        557  0.97                             133    0.35 9  147 265 
 PTB  HN ES        557 21.81                             133    0.08 9  147 265 
 PTB  HZ I         557 23.60         1.3 0.18            133            147 265 
 ZAR  HZ EP   4    557  4.14                             122   -2.84 0  212 296 
 ZAR  HN ES        557 32.70                             122   -0.35 8  212 296 
 ZAR  HZ I         557 39.25         2.7 0.39            122            212 296 
                                                                                
