 2017 1017 0237  4.7 L   6.795 -73.143145.1  RSN 11 0.5 1.8LRSN                1
 GAP=112        1.14       4.1     4.0  6.1  0.2940E+01  0.4763E+01  0.2775E+01E
 Epicentro: LOS SANTOS - SANTANDER                                             3
 ACTION:UPD 17-11-07 19:32 OP:rebc STATUS:               ID:20171017023704 L   I
 OLDACT:UP  17-10-17 14:02 OP:dani STATUS:               ID:20171017022513d    3
 OLDACT:DUP 17-10-17 13:58 OP:dani STATUS:               ID:20171017022513d    3
 OLDACT:DUP 17-10-17 13:55 OP:dani STATUS:               ID:20171017022512d    3
 OLDACT:REG 17-10-17 12:23 OP:dani STATUS:               ID:20171017022510     3
 2017-10-17-0228-00M.COL___432                                                 6
 STAT SP IPHASW D HRMM SECON CODA AMPLIT PERI AZIMU VELO AIN AR TRES W  DIS CAZ7
 BAR2 EZ EP        237 24.03                             171   -0.1910 22.8 191 
 BAR2 EZ ES        237 38.82                             171   -0.6410 22.8 191 
 BAR2 EZ I         237 39.86        14.6 0.16            170           22.8 191 
 BRR  HZ EP        237 26.02                             152    0.2410 71.7 299 
 BRR  HE ES        237 43.21                             152    0.9610 71.7 299 
 BRR  HZ I         237 47.38        14.0 0.44            152           71.7 299 
 PAM  EZ EP        237 27.01                             150    0.1710 77.7  39 
 PAM  EN ES        237 44.08                             150   -0.0410 77.7  39 
 PAM  EZ I         237 46.21        13.1 0.44            152           77.7  39 
 RUS  HZ EP        237 28.53                             144    0.2110100.0 176 
 RUS  HN ES        237 46.39                             144   -0.3710100.0 176 
 RUS  HZ I         237 47.44         9.7 0.33            145          100.0 176 
 PTB  HZ EP        237 31.05                             132   -0.55 9  148 259 
 PTB  HN ES        237 51.70                             132   -0.91 9  148 259 
 PTB  HZ I         237 53.63         3.9 0.17            132            148 259 
 YPLC HZ EP     D  237 34.60                             126    0.24 9  176 151 
 YPLC HE ES        237 57.98                             126    0.47 9  176 151 
 YPLC HZ I         238  1.73         8.2 0.43            128            176 151 
 ZAR  HZ EP        237 37.04                             122   -0.09 9  205 292 
 ZAR  HN ES        238  3.03                             122    0.59 9  205 292 
 ZAR  HZ I         238  8.99         5.8 0.37            123            205 292 
 NOR  HZ EP        237 40.36                             118    0.01 8  235 235 
 NOR  HE ES        238  8.28                             118    0.10 8  235 235 
 NOR  HZ I         238 10.99         4.9 0.12            119            235 235 
 GUY2CHZ EP   9    237 50.33                             112    2.09 0  301 235 
 GUY2CHN ES        238 24.68                             112    0.37 7  301 235 
 GUY2CHZ I         238 29.72         2.7 0.49                           301 235 
 PRA  HZ EP        237 58.34                             106    0.21 6  392 210 
 PRA  HN ES   3    238 42.11                             106    2.29 1  392 210 
 PRA  HZ I         238 45.75         1.8 0.15            107            392 210 
 SJC  HZ EP        237 59.61                             105   -0.68 6  410 327 
 SJC  HN ES   4    238 40.82                             105   -2.85 0  410 327 
 SJC  HZ I         238 44.71         1.1 0.30            106            410 327 
                                                                                
