 2015  117 0933 20.0 L   6.814 -73.139148.3  RSN 13 0.5 2.2LRSN                1
 GAP=137        1.22       3.1     4.6  6.1 -0.2184E+01  0.8238E+01  0.1148E+01E
 Epicentro: LOS SANTOS - SANTANDER                                             3
 ACTION:UPD 15-03-02 15:40 OP:nd   STATUS:               ID:20150117093320 L   I
 OLDACT:REG 15-01-17 14:27 OP:carl STATUS:               ID:20150117092744     3
 2015-01-17-0927-44M.COL___256                                                 6
 STAT SP IPHASW D HRMM SECON CODA AMPLIT PERI AZIMU VELO AIN AR TRES W  DIS CAZ7
 BAR2 EZ EP        933 39.97                             170   -0.0410 24.9 191 
 BAR2 EZ ES        933 55.80                             170    0.2210 24.9 191 
 BAR2 EZ I         933 56.50        68.5 0.16            168           24.9 191 
 BRR  HZ EP        933 41.78                             153    0.3210 71.1 297 
 BRR  HN ES        933 59.04                             153    0.8810 71.1 297 
 BRR  HZ I         933 59.76        18.7 0.22            151           71.1 297 
 PAM  SZ IP     C  933 42.73                             152    0.3010 75.8  40 
 PAM  SN ES        934  0.02                             152    0.1310 75.8  40 
 PAM  SZ I         934  2.36         9.8 0.30            156           75.8  40 
 RUS  HZ EP        933 43.84                             144   -0.3010  102 177 
 RUS  HE ES        934  2.56                             144   -0.3810  102 177 
 RUS  HZ I         934  3.78        20.7 0.20            145            102 177 
 PTB  HZ EP        933 46.73                             132   -0.57 9  149 258 
 PTB  HN ES        934  7.66                             132   -0.90 9  149 258 
 PTB  HZ I         934 12.75        11.2 0.22            131            149 258 
 OCA  HZ EP        933 47.84                             130   -0.58 9  159 353 
 OCA  HN ES        934 10.66                             130    0.11 9  159 353 
 OCA  HZ I         934 13.25        12.7 0.20            132            159 353 
 SPBC HZ EP        933 48.90                             129    0.02 9  165 219 
 SPBC HE ES        934 11.24                             129   -0.14 9  165 219 
 SPBC HZ I         934 18.87        23.5 0.26            129            165 219 
 ZAR  HZ EP        933 53.61                             123    0.95 9  204 292 
 ZAR  HE ES        934 17.90                             123   -0.20 9  204 292 
 ZAR  HZ I         934 23.82        12.1 0.24            123            204 292 
 SML  HZ EP        933 56.36                             118   -0.33 8  243 335 
 SML  HN ES        934 24.41                             118   -0.87 8  243 335 
 SML  HZ I         934 32.14        19.2 0.24            119            243 335 
 CHI  HZ EP        933 58.01                             117   -0.05 8  250 195 
 CHI  HN ES        934 27.36                             117   -0.35 8  250 195 
 CHI  HZ I         934 35.96         6.4 0.32            118            250 195 
 HEL  HZ EP        934  1.60                             115    1.10 8  273 256 
 HEL  HE ES        934 31.77                             115   -0.28 8  273 256 
 HEL  HZ I         934 38.07         5.2 0.26            115            273 256 
 RREF HZ EP        934  6.23                             111   -0.23 7  323 229 
 RREF HN ES        934 42.85                             111    0.18 7  323 229 
 RREF HZ I         934 46.92         6.9 0.32            112            323 229 
 TOL  SZ EP        934  9.33                             110    0.75 7  345 225 
 TOL  SN ES        934 47.24                             110    0.81 7  345 225 
 TOL  SZ I         934 54.55        14.2 0.36            110            345 225 
                                                                                
