 2011 1117 0443  9.2 L   6.763 -73.127144.3  RSN  6 0.2 1.9LRSN                1
 GAP=141        0.49       2.9     4.3  4.4  0.4365E+00  0.2738E+01 -0.1878E+01E
 Epicentro: LOS SANTOS - SANTANDER                                             3
 ACTION:UPD 12-07-13 16:10 OP:ep   STATUS:               ID:20111117044309 L   I
 2011-11-17-0441-35S.COL___179                                                 6
 STAT SP IPHASW D HRMM SECON CODA AMPLIT PERI AZIMU VELO AIN AR TRES W  DIS CAZ7
 BAR2 SZ EP        443 28.51                             172   -0.0310 19.9 198 
 BAR2 SZ ES   1    443 43.31                             172   -0.36 7 19.9 198 
 BAR2 SZ I         443 44.96        22.1 0.30                          19.9 198 
 BRR  HZ EP        443 30.38                             151    0.0210 75.0 301 
 BRR  HZ I         443 30.74        20.3 0.11                          75.0 301 
 BRR  HE ES   1    443 47.30                             151    0.39 7 75.0 301 
 PAM  SZ EP        443 31.48                             150    0.1510 79.3  37 
 PAM  SZ I         443 31.62        14.1 0.19                          79.3  37 
 PAM  SE ES   1    443 48.56                             150   -0.07 7 79.3  37 
 RUS  HZ EP   1    443 32.71                             145    0.25 7 96.4 177 
 RUS  HN ES   1    443 50.58                             145   -0.06 7 96.4 177 
 RUS  HZ I         443 52.26         6.4 0.41                          96.4 177 
 OCA  SZ EP   2    443 37.35                             128   -0.41 5  165 353 
 OCA  SZ ES   2    444  0.11                             128    0.04 5  165 353 
 OCA  SZ I         444  3.70         9.6 0.25                           165 353 
 ZAR  HZ EP   1    443 41.51                             121   -0.35 6  208 293 
 ZAR  HZ I         444 12.83        10.0 0.44                           208 293 
                                                                                
