 2012  317 0050 38.6 L   7.410 -73.174132.0  RSN 11 0.4 2.4LRSN                1
 GAP= 78        0.78       4.5     3.9  5.9 -0.1245E+01  0.4323E+01 -0.4050E+01E
 ACTION:UP  12-03-31 23:20 OP:EP   STATUS:               ID:20120317005038 L   I
 2012-03-17-0050-00M.COL___202                                                 6
 STAT SP IPHASW D HRMM SECON CODA AMPLIT PERI AZIMU VELO SNR AR TRES W  DIS CAZ7
 PAM  SZ EP   1    050 58.33                             157     0.4 7   53  98 
 PAM  SN ES   1    051 13.07                             157     0.0 7   53  98 
 BRR  HZ IP     C  050 58.05                             151     0.010   68 241 
 BRR  HN ES   1    051 13.48                             151     0.2 7   68 241 
 BRR  HZ I         051 14.32        67.2 0.13                            68 241 
 BAR2 SZ EP        051  0.05                             144     0.210   90 181 
 BAR2 SZ ES   1    051 16.65                             144     0.2 7   90 181 
 BAR2 SZ I         051 18.44        49.2 0.25                            90 181 
 OCA  SZ EP   1    050 59.74                             143    -0.2 7   93 350 
 RUS  HZ EP   1    051  6.33                             125    -0.7 7  168 177 
 RUS  HN ES   1    051 29.05                             125    -0.2 7  168 177 
 PTB  HZ EP   1    051  6.27                             124    -0.5 7  171 236 
 PTB  HN ES   1    051 28.39                             124    -0.3 7  171 236 
 ZAR  HZ EP   1    051  7.99                             122    -0.3 7  186 273 
 ZAR  HN ES   1    051 31.42                             122     0.0 7  186 273 
 ZAR  HZ I         051 34.12        24.2 0.35                           186 273 
 NOR  SZ EP   1    051 18.52                             111     0.2 6  277 223 
 HEL  HZ EP   1    051 21.49                             110     1.0 5  293 243 
 HEL  HZ I         052  4.53        11.6 0.23                           293 243 
 SDV  BZ EP   1    051 23.61                             108    -0.3 5  324  60 
 SDV  BZ I         051 57.96         9.3 0.49                           324  60 
 PRA  HZ EP   1    051 39.42                             102     0.8 4  451 205 
                                                                                
