 2017  317 0355 59.9 L   6.794 -73.155142.8  RSN  4 0.4 1.1LRSN                1
 GAP=136        0.96       5.5     5.4  9.4  0.1484E+01  0.1285E+02  0.1415E+02E
 Epicentro: LOS SANTOS - SANTANDER                                             3
 ACTION:UPD 17-05-25 18:41 OP:jn   STATUS:               ID:20170317035559 L   I
 OLDACT:REG 17-03-17 13:18 OP:cog  STATUS:               ID:20170317034744     3
 2017-03-17-0348-00M.COL___409                                                 6
 STAT SP IPHASW D HRMM SECON CODA AMPLIT PERI AZIMU VELO AIN AR TRES W  DIS CAZ7
 BRR  HZ EP        356 20.72                             152    0.0210 70.6 299 
 BRR  HZ I         356 35.63         3.4 0.42            143           70.6 299 
 BRR  HN ES        356 37.55                             152    0.6310 70.6 299 
 PAM  EE ES        356 38.62                             150   -0.3910 78.5  40 
 RUS  HZ EP        356 23.67                             143    0.3410  100 175 
 RUS  HN ES        356 41.53                             143   -0.0610  100 175 
 RUS  HZ I         356 43.06         1.2 0.22            139            100 175 
 PTB  HZ EP        356 26.45                             131   -0.08 9  147 259 
 PTB  HE ES        356 46.77                             131   -0.53 9  147 259 
 PTB  HZ I         356 51.46         1.7 0.32            124            147 259 
                                                                                
