 2016  117 0925 10.8 L   6.804 -73.135144.2  RSN  8 0.4 1.4LRSN                1
 GAP=138        0.82       2.7     3.7  5.3 -0.6039E+00  0.5409E+01 -0.6900E+00E
 Epicentro: LOS SANTOS - SANTANDER                                             3
 ACTION:UPD 16-03-09 23:26 OP:cam  STATUS:               ID:20160117092510 L   I
 OLDACT:UP  16-01-17 18:43 OP:mh   STATUS:               ID:20160117091745     3
 OLDACT:UP  16-01-17 18:43 OP:mh   STATUS:               ID:20160117091745     3
 OLDACT:UP  16-01-17 18:43 OP:mh   STATUS:               ID:20160117091745     3
 OLDACT:REG 16-01-17 14:06 OP:mh   STATUS:               ID:20160117091745     3
 2016-01-17-0917-45M.COL___316                                                 6
 STAT SP IPHASW D HRMM SECON CODA AMPLIT PERI AZIMU VELO AIN AR TRES W  DIS CAZ7
 BAR2 EZ EP   1    925 30.66                             170    0.36 7 24.0 192 
 BAR2 EZ ES        925 45.58                             170    0.1010 24.0 192 
 BAR2 EZ I         925 48.33         5.6 0.26            169           24.0 192 
 PAM  EZ EP        925 33.12                             151    0.2910 76.3  39 
 PAM  EN ES        925 49.99                             151    0.0110 76.3  39 
 PAM  EZ I         925 52.76         3.6 0.18            155           76.3  39 
 RUS  HZ EP        925 34.14                             143   -0.3310  101 177 
 RUS  HN ES   1    925 52.51                             143   -0.40 7  101 177 
 RUS  HZ I         925 54.06         2.3 0.42            146            101 177 
 PTB  HZ EP   1    925 37.82                             131    0.02 7  149 259 
 PTB  HN ES        925 58.83                             131    0.01 9  149 259 
 PTB  HZ I         926  4.59         3.5 0.54            131            149 259 
 SPBC HZ EP        925 39.92                             128    0.59 9  164 219 
 SPBC HN ES        926  1.57                             128    0.02 9  164 219 
 SPBC HZ I         926  8.65         5.4 0.28            129            164 219 
 ZAR  HZ EP   1    925 43.16                             122   -0.12 6  205 292 
 ZAR  HN ES        926  8.74                             122    0.16 9  205 292 
 ZAR  HZ I         926 13.92         3.6 0.46            122            205 292 
 SML  HZ EP        925 47.78                             117    0.39 8  244 335 
 SML  HN ES        926 15.07                             117   -0.82 8  244 335 
 SML  HZ I         926 24.24         4.5 0.10            119            244 335 
 CHI  HZ EP        925 47.98                             117   -0.56 8  249 195 
 CHI  HN ES   1    926 17.87                             117   -0.07 6  249 195 
 CHI  HZ I         926 23.51         1.0 0.28            119            249 195 
                                                                                
