 2012 1217 0724 41.6 L   6.768 -73.142149.2  RSN  5 0.3 1.7LRSN                1
 GAP=138        0.72       4.7     4.2  6.7 -0.2843E+01  0.1495E+01  0.8881E+01E
 Epicentro: LOS SANTOS - SANTANDER                                             3
 ACTION:UPD 13-01-04 14:28 OP:ep   STATUS:               ID:20121217072441 L   I
 2012-12-17-0720-00M.COL___238                                                 6
 STAT SP IPHASW D HRMM SECON CODA AMPLIT PERI AZIMU VELO AIN AR TRES W  DIS CAZ7
 BAR2 SZ EP   1    725  1.48                             172   -0.10 7 19.9 193 
 BAR2 SZ I         725 18.33        13.2 0.34                          19.9 193 
 BRR  HZ EP        725  3.46                             152    0.2210 73.3 301 
 BRR  HZ I         725  3.80        13.2 0.21                          73.3 301 
 BRR  HN ES        725 20.42                             152    0.3110 73.3 301 
 PAM  SZ EP        725  4.46                             151    0.1310 79.9  38 
 PAM  SZ I         725  4.64         6.9 0.18                          79.9  38 
 PAM  SN ES        725 21.73                             151   -0.3310 79.9  38 
 RUS  HZ EP        725  5.75                             145    0.3110 97.0 176 
 RUS  HN ES   1    725 23.92                             145   -0.11 7 97.0 176 
 RUS  HN I         725 26.00         6.2 0.17                          97.0 176 
 PTB  HZ EP        725  8.33                             133   -0.50 9  148 260 
 PTB  HE ES   1    725 29.87                             133   -0.19 7  148 260 
 PTB  HZ I         725 36.89         7.0 0.33                           148 260 
                                                                                
