 2016  417 0131 55.3 L   6.351 -73.645110.4  RSN  4 0.3 1.2LRSN                1
 GAP=149        0.73       4.1     3.5  8.1 -0.1044E+01  0.8750E+01 -0.9806E+01E
 Epicentro: SANTA HELENA DEL OPON - SANTANDER                                  3
 ACTION:UPD 16-05-05 14:22 OP:rebc STATUS:               ID:20160417013155 L   I
 OLDACT:DUP 16-04-17 18:00 OP:ak   STATUS:               ID:20160417012747d    3
 OLDACT:REG 16-04-17 13:46 OP:ak   STATUS:               ID:20160417012746     3
 2016-04-17-0127-46M.COL___307                                                 6
 STAT SP IPHASW D HRMM SECON CODA AMPLIT PERI AZIMU VELO AIN AR TRES W  DIS CAZ7
 BAR2 EZ EP        132 12.17                             150    0.0010 57.7  62 
 BAR2 EZ ES        132 25.37                             150    0.0110 57.7  62 
 BAR2 EZ I         132 26.76         6.8 0.34            154           57.7  62 
 SPBC HZ EP   2    132 14.31                             137   -0.02 5 90.6 212 
 SPBC HE ES        132 29.52                             137    0.3110 90.6 212 
 SPBC HZ I         132 30.62         4.5 0.12            140           90.6 212 
 PTB  HZ EP        132 14.03                             137   -0.3210 92.1 283 
 PTB  HE ES        132 28.86                             137   -0.3910 92.1 283 
 PTB  HZ I         132 31.57         2.5 0.09            139           92.1 283 
 ZAR  HZ EP   2    132 23.42                             116   -0.04 4  184 313 
 ZAR  HN ES        132 45.99                             116    0.52 9  184 313 
                                                                                
