 2011  717 0556 53.8 L   6.743 -73.096146.3  RSN  6 0.2 1.3LRSN                1
 GAP=162        0.48       3.1     6.1  4.6 -0.2869E+01 -0.9594E+01 -0.9146E-01E
 Epicentro: JORDAN - SANTANDER                                                 3
 ACTION:UPD 12-07-25 14:01 OP:epov STATUS:               ID:20110717055653 L   I
 2011-07-17-0554-37S.COL___143                                                 6
 STAT SP IPHASW D HRMM SECON CODA AMPLIT PERI AZIMU VELO AIN AR TRES W  DIS CAZ7
 BAR2 SZ EP   1    557 13.42                             172   -0.04 7 19.2 210 
 BAR2 SZ ES   1    557 28.44                             172   -0.32 7 19.2 210 
 BAR2 SZ I         557 30.00         6.4 0.14                          19.2 210 
 GIR2 SZ EP   1    557 13.59                             164   -0.21 7 38.6 344 
 GIR2 SZ ES   1    557 29.53                             164    0.17 7 38.6 344 
 BRR  HZ EP   1    557 15.33                             150   -0.18 7 79.0 301 
 BRR  HE ES   1    557 32.59                             150    0.18 7 79.0 301 
 BRR  HZ I         557 35.19         4.7 0.13                          79.0 301 
 RUS  HZ EP   1    557 17.40                             146    0.21 7 94.1 179 
 RUS  HE ES   2    557 35.54                             146    0.14 5 94.1 179 
 RUS  HZ I         557 36.56         1.8 0.37                          94.1 179 
 BRI  SZ EP   1    557 18.49                             140    0.38 7  113  17 
 GRA  SZ EP   1    557 19.25                             136   -0.27 7  130  14 
 GRA  SZ ES   1    557 39.53                             136   -0.01 7  130  14 
                                                                                
