 2017  817 0628  4.4 L   6.795 -73.136138.4  RSN 21 0.5 2.2LRSN                1
 GAP=113        1.09       3.2     3.5  5.3 -0.4566E+00  0.5371E+01  0.3150E+01E
 Epicentro: LOS SANTOS - SANTANDER                                             3
 ACTION:UPD 17-09-04 20:21 OP:rebc STATUS:               ID:20170817062804 L   I
 OLDACT:REG 17-08-17 12:37 OP:lv   STATUS:               ID:20170817061739     3
 2017-08-17-0618-00M.COL___407                                                 6
 STAT SP IPHASW D HRMM SECON CODA AMPLIT PERI AZIMU VELO AIN AR TRES W  DIS CAZ7
 BAR2 EZ EP        628 22.95                             170   -0.2310 23.0 193 
 BAR2 EZ ES        628 37.18                             170   -0.6210 23.0 193 
 BAR2 EZ I         628 39.35        40.7 0.24            165           23.0 193 
 BRR  HZ IP     D  628 24.79                             151   -0.0810 72.4 299 
 BRR  HE ES        628 41.76                             151    0.9610 72.4 299 
 BRR  HZ I         628 42.69        22.0 0.14            151           72.4 299 
 PAM  EZ IP     D  628 25.89                             150    0.0210 77.2  39 
 PAM  EN ES        628 42.80                             150    0.2210 77.2  39 
 PAM  EZ I         628 44.78        28.9 0.46            154           77.2  39 
 RUS  HZ EP        628 27.15                             143   -0.2810 99.9 177 
 RUS  HN ES        628 45.26                             143   -0.1010 99.9 177 
 RUS  HZ I         628 47.31        29.5 0.32            140           99.9 177 
 SPBC HZ EP        628 32.03                             128   -0.37 9  163 219 
 SPBC HN ES        628 53.91                             128   -0.31 9  163 219 
 SPBC HZ I         628 58.47        23.5 0.20            126            163 219 
 YPLC HZ EP        628 33.55                             125   -0.06 9  176 152 
 YPLC HN ES        628 57.29                             125    0.93 9  176 152 
 YPLC HZ I         629  0.14        27.5 0.28            124            176 152 
 ZAR  HZ EP        628 36.21                             121   -0.33 8  205 292 
 ZAR  HE ES        629  1.22                             121   -0.36 8  205 292 
 TABC EZ EP   9    628 41.00                             118    1.23 0  230 211 
 TABC EZ ES        629  9.60                                    1.05 8  230 211 
 TABC EZ I         629 12.84        18.2 0.36            117            230 211 
 NOR  HZ EP        628 39.23                             117   -0.58 8  235 235 
 NOR  HN ES        629  7.27                             117   -0.13 8  235 235 
 NOR  HZ I         629  8.89         8.6 0.68            116            235 235 
 CHI  HZ EP   3    628 41.82                             116    0.11 2  248 195 
 CHI  HN ES        629 10.12                             116   -0.66 8  248 195 
 CHI  HZ I         629 15.26         5.2 0.26            115            248 195 
 ROSC BZ EP   9    628 43.96                             115    1.79 0  253 211 
 ROSC BN ES        629 13.87                                    0.48 8  253 211 
 ROSC BZ I         629 18.51        10.9 0.35            114            253 211 
 HEL  HZ EP        628 45.04                             113    0.65 8  273 256 
 HEL  HN ES        629 16.00                             113    0.46 8  273 256 
 HEL  HZ I         629 21.53         8.7 0.42            113            273 256 
 URE  HN ES   4    629 14.59                             112   -2.57 0  285 292 
 URE  HZ I         629 18.47         9.5 0.25            113            285 292 
 GUY2CHZ EP        628 47.86                             111    0.08 7  302 235 
 GUY2CHN ES        629 22.22                             111    0.64 7  302 235 
 GUY2CHZ I         629 28.17         5.6 0.32                           302 235 
 PTGC HZ IP   4 D  628 46.42                             110   -1.45 0  308 159 
 PTGC HN ES   4    629 19.96                             110   -1.79 0  308 159 
 PTGC HZ I         629 28.28         8.3 0.20            110            308 159 
 ELA  HZ EP   4    628 52.71                             109    1.67 0  330 230 
 ELA  HN ES   4    629 31.51                             109    4.13 0  330 230 
 ELA  HZ I         629 36.85         6.6 0.36            109            330 230 
 DBB  EZ EP   3    628 51.65                             108   -0.10 2  341 274 
 DBB  EN ES   4    629 26.93                             108   -1.73 0  341 274 
 DBB  EE ES   3    629 27.72                             108   -0.94 2  341 274 
 DBB  EZ I         629 29.72         6.6 0.16            108            341 274 
 ANIL HZ EP   9    628 55.97                             107    1.96 0  358 225 
 ANIL HN ES        629 34.62                                   -0.01 6  358 225 
 ANIL HZ I         629 43.17        18.0 0.38            107            358 225 
 PRA  HZ EP        628 57.77                             105    0.05 6  392 210 
 PRA  HN ES        629 40.09                             105    0.82 6  392 210 
 PRA  HZ I         629 45.92         7.8 0.28            105            392 210 
 ORTC HZ EP        628 58.56                             105    0.43 6  396 216 
 ORTC HN ES        629 39.78                             105   -0.23 6  396 216 
 ORTC HZ I         629 48.30         5.1 0.42            105            396 216 
 SJC  HZ EP   4    628 57.61                             105   -2.28 0  410 327 
 SJC  HN ES   4    629 38.96                             105   -4.19 0  410 327 
 SJC  HZ I         629 42.86         3.3 0.48            105            410 327 
                                                                                
