 2013  317 0445 24.5 L   6.723 -73.190153.5  RSN  4 0.2 1.3LRSN                1
 GAP=226        0.44       4.7     4.4  4.7  0.1007E+02  0.1937E+01  0.4542E+00E
 Epicentro: VILLANUEVA - SANTANDER                                             3
 ACTION:UPD 13-04-09 14:03 OP:ep   STATUS:               ID:20130317044524 L   I
 2013-03-17-0440-00M.COL___244                                                 6
 STAT SP IPHASW D HRMM SECON CODA AMPLIT PERI AZIMU VELO AIN AR TRES W  DIS CAZ7
 BAR2 SZ EP   1    445 44.91                             174   -0.03 7 14.5 177 
 BAR2 SZ ES   1    446  0.70                             174   -0.17 7 14.5 177 
 BAR2 SZ I         446  1.32        10.0 0.38            165           14.5 177 
 BRR  HZ EP   1    445 46.57                             154    0.04 7 71.6 306 
 BRR  HN ES   1    446  3.81                             154    0.11 7 71.6 306 
 BRR  HZ I         446  4.19         5.8 0.30            149           71.6 306 
 RUS  HZ EP   1    445 48.79                             148    0.29 7 92.6 173 
 RUS  HN ES   1    446  7.15                             148   -0.05 7 92.6 173 
 RUS  HZ I         446  8.64         0.9 0.20            143           92.6 173 
 PTB  HZ EP   1    445 51.21                             135   -0.37 7  141 262 
 PTB  HN ES   1    446 12.82                             135    0.14 7  141 262 
 PTB  HZ I         446 18.82         1.9 0.28            130            141 262 
                                                                                
