 2017 1217 0732  8.6 L   6.813 -73.267140.4  RSN  7 0.5 1.3LRSN                1
 GAP=191        1.16       5.6     7.4  9.5  0.7136E+01  0.2236E+02 -0.6024E+01E
 Epicentro: ZAPATOCA - SANTANDER                                               3
 ACTION:UPD 18-01-04 13:21 OP:rebc STATUS:               ID:20171217073208 L   I
 OLDACT:UP  17-12-17 17:41 OP:edw  STATUS:               ID:20171217072745     3
 OLDACT:UP  17-12-17 17:32 OP:edw  STATUS:               ID:20171217072745     3
 OLDACT:REG 17-12-17 13:23 OP:edw  STATUS:               ID:20171217072745     3
 2017-12-17-0728-00M.COL___457                                                 6
 STAT SP IPHASW D HRMM SECON CODA AMPLIT PERI AZIMU VELO AIN AR TRES W  DIS CAZ7
 BAR2 EZ EP        732 27.08                             169   -0.5710 26.2 159 
 BAR2 EZ ES        732 42.81                             169    0.2910 26.2 159 
 BAR2 EZ I         732 43.85         3.7 0.44            170           26.2 159 
 PTB  HZ EP        732 34.17                             133    0.1910  135 257 
 PTB  HN ES        732 52.81                             133   -0.9610  135 257 
 PTB  HZ I         732 58.26         2.1 0.14            133            135 257 
 SPBC HZ EP        732 36.36                             129    0.32 9  156 215 
 SPBC HN ES        732 57.93                             129    0.49 9  156 215 
 SPBC HZ I         733  1.34         4.2 0.12            130            156 215 
 ZAR  HZ EP        732 39.20                             123   -0.16 9  191 293 
 ZAR  HN ES        733  3.96                             123    0.60 9  191 293 
 ZAR  HZ I         733  8.25         1.9 0.10            124            191 293 
 GUY2CHZ EP   4    732 53.25                             112    2.41 0  291 233 
 GUY2CHN ES   4    733 27.92                             112    4.14 0  291 233 
 GUY2CHZ I         733 33.58         1.2 0.74                           291 233 
 PRA  HN ES        733 42.26                             106   -0.22 6  387 208 
 SJC  HZ EP   4    733  1.92                             105   -1.08 0  401 328 
 SJC  HN ES        733 45.54                             105    0.11 6  401 328 
                                                                                
