 2017  417 0803 13.0 L   6.695 -73.440114.0  RSN  5 0.5 1.3LRSN                1
 GAP=149        1.14       8.5     5.0  9.3  0.1303E+01  0.1296E+02  0.5989E+00E
 Epicentro: EL CARMEN - SANTANDER                                              3
 ACTION:UPD 17-05-30 21:13 OP:jn   STATUS:               ID:20170417080313 L   I
 OLDACT:UP  17-04-17 18:18 OP:dani STATUS:               ID:20170417075743     3
 OLDACT:REG 17-04-17 13:43 OP:dani STATUS:               ID:20170417075743     3
 2017-04-17-0758-00M.COL___362                                                 6
 STAT SP IPHASW D HRMM SECON CODA AMPLIT PERI AZIMU VELO AIN AR TRES W  DIS CAZ7
 BAR2 EZ EP        8 3 29.48                             164    0.4510 30.6 112 
 BAR2 EZ ES        8 3 41.89                             164    0.3410 30.6 112 
 BAR2 EZ I         8 3 42.88        10.2 0.33            164           30.6 112 
 BRR  HZ EP        8 3 29.89                             153    0.1210 54.6 327 
 BRR  HN ES        8 3 42.66                             153   -0.1910 54.6 327 
 BRR  HZ I         8 3 43.88         6.1 0.15            154           54.6 327 
 PAM  EZ EP        8 3 34.47                             134    0.0210  108  49 
 PAM  EE ES        8 3 50.60                             134   -0.5910  108  49 
 PAM  EZ I         8 3 51.81         3.0 0.20            135            108  49 
 PTB  HZ EP        8 3 33.65                             132   -0.6310  114 261 
 PTB  HN ES   3    8 3 49.12                             132   -1.77 2  114 261 
 PTB  HZ I         8 3 50.06         3.3 0.18            134            114 261 
 ZAR  HN ES        8 4  3.41                             118    0.69 9  180 299 
                                                                                
