 2014 1117 0347 52.6 L   6.287 -73.666115.4  RSN  4 0.1 1.1LRSN                1
 GAP=164        0.45       3.0     2.3  4.7  0.2102E+01  0.3214E+01  0.1003E+00E
 Epicentro: SANTA HELENA DEL OPON - SANTANDER                                  3
 ACTION:UPD 14-12-19 15:43 OP:nd   STATUS:               ID:20141117034752 L   I
 OLDACT:ARG 14-11-17 13:51 OP:stll STATUS:               ID:20141117033748     3
 2014-11-17-0337-48M.COL___280                                                 6
 STAT SP IPHASW D HRMM SECON CODA AMPLIT PERI AZIMU VELO AIN AR TRES W  DIS CAZ7
 BAR2 SZ EP        348 10.23                             149   -0.1510 63.3  58 
 BAR2 SZ I         348 10.69         4.2 0.20            149           63.3  58 
 BAR2 SZ ES        348 24.38                             149    0.1210 63.3  58 
 RUS  HE ES        348 26.63                             144   -0.0210 77.9 124 
 BRR  HZ EP        348 11.91                             139   -0.1110 90.8 357 
 BRR  HE ES        348 27.20                             139    0.0310 90.8 357 
 BRR  HE I         348 34.34         4.1 0.30            137           90.8 357 
 PTB  HZ EP        348 12.38                             139    0.2710 91.7 288 
 PTB  HN ES        348 27.20                             139   -0.1410 91.7 288 
 PTB  HZ I         348 29.86         2.0 0.10            140           91.7 288 
                                                                                
