 2014  717 0305 19.0 L   6.811 -73.139145.0  RSN 11 0.4 1.6LRSN                1
 GAP=198        0.83       2.7     4.9  6.3 -0.3471E+01  0.3365E+01  0.1065E+01E
 Epicentro: LOS SANTOS - SANTANDER                                             3
 ACTION:UPD 15-03-16 20:44 OP:nd   STATUS:               ID:20140717030519 L   I
 OLDACT:REG 14-07-17 12:42 OP:fm   STATUS:               ID:20140717025819     3
 2014-07-17-0258-19M.COL___260                                                 6
 STAT SP IPHASW D HRMM SECON CODA AMPLIT PERI AZIMU VELO AIN AR TRES W  DIS CAZ7
 BAR2 SZ EP        3 5 38.46                             170   -0.0910 24.6 191 
 BAR2 SZ ES   1    3 5 53.83                             170    0.03 7 24.6 191 
 BAR2 SZ I         3 5 55.25         5.1 0.21            168           24.6 191 
 PTB  HZ EP        3 5 45.41                             132   -0.56 9  149 258 
 PTB  HN ES        3 6  6.41                             132   -0.61 9  149 258 
 PTB  HZ I         3 6 12.39         3.2 0.20            131            149 258 
 OCA  HN ES   1    3 6  9.26                             130    0.18 7  159 353 
 OCA  HZ I         3 6 16.93         4.7 0.24            131            159 353 
 SPBC HZ EP        3 5 47.38                             129   -0.17 9  165 219 
 SPBC HN ES        3 6 10.23                             129    0.39 9  165 219 
 SPBC HZ I         3 6 14.52         4.9 0.40            129            165 219 
 ZAR  HZ EP   1    3 5 51.60                             122    0.20 6  204 292 
 ZAR  HE ES        3 6 16.54                             122   -0.15 9  204 292 
 ZAR  HZ I         3 6 22.92         2.5 0.10            122            204 292 
 NOR  HZ EP        3 5 54.93                             118    0.13 8  236 234 
 NOR  HE ES        3 6 23.30                             118    0.56 8  236 234 
 NOR  HZ I         3 6 29.53         2.5 0.18            119            236 234 
 SML  HZ EP        3 5 55.18                             117   -0.30 8  243 335 
 SML  HN ES        3 6 24.71                             117    0.76 8  243 335 
 SML  HZ I         3 6 27.01         5.1 0.07            118            243 335 
 GUY2CHE ES   1    3 6 36.35                             112   -0.45 5  302 235 
 GUY2CHZ I         3 6 45.70         1.7 0.30                           302 235 
 RREF HN ES   2    3 6 41.72                             111    0.40 3  323 229 
 RREF HZ I         3 6 49.52         1.9 0.16            112            323 229 
 TOL  SN ES        3 6 45.45                             109    0.35 7  345 225 
 TOL  SZ I         3 6 52.49         3.2 0.23            110            345 225 
 PRA  HZ EP        3 6 12.46                             106   -0.18 6  393 210 
 PRA  HN ES        3 6 54.80                             106    0.31 6  393 210 
 PRA  HZ I         3 7  1.78         1.3 0.64            108            393 210 
                                                                                
