 2015  717 0816  6.0 L   6.797 -73.159142.0  RSN  8 0.3 1.8LRSN                1
 GAP=135        0.74       2.3     3.5  5.1 -0.1701E+01  0.9387E+01 -0.2156E+01E
 Epicentro: LOS SANTOS - SANTANDER                                             3
 ACTION:UPD 15-09-08 21:49 OP:cam  STATUS:               ID:20150717081606 L   I
 OLDACT:UP  15-07-17 16:43 OP:ak   STATUS:               ID:20150717080741     3
 OLDACT:REG 15-07-17 15:14 OP:ak   STATUS:               ID:20150717080741     3
 2015-07-17-0807-41M.COL___337                                                 6
 STAT SP IPHASW D HRMM SECON CODA AMPLIT PERI AZIMU VELO AIN AR TRES W  DIS CAZ7
 BAR2 EZ EP        816 25.41                             170    0.2610 22.8 187 
 BAR2 EZ ES        816 40.20                             170    0.1010 22.8 187 
 BAR2 EZ I         816 42.52        10.6 0.16            171           22.8 187 
 PAM  EZ EP        816 28.21                             150    0.3410 78.6  40 
 PAM  EN ES        816 44.97                             150    0.0310 78.6  40 
 PAM  EZ I         816 49.81         5.5 0.36            155           78.6  40 
 RUS  HZ EP        816 29.04                             143   -0.3110  100 175 
 RUS  HN ES        816 47.42                             143   -0.1510  100 175 
 RUS  HZ I         816 49.07         5.9 0.30            149            100 175 
 OCA  HZ EP        816 33.90                             129   -0.12 9  160 354 
 OCA  HN ES        816 55.65                             129   -0.24 9  160 354 
 OCA  HZ I         817  1.41        15.2 0.20            132            160 354 
 ZAR  HZ EP        816 38.45                             122    0.39 9  203 292 
 ZAR  HE ES        817  3.31                             122    0.23 9  203 292 
 ZAR  HZ I         817 10.55        11.3 0.32            124            203 292 
 NOR  HZ EP   1    816 42.20                             118    0.85 6  233 234 
 NOR  HN ES        817  8.53                             118   -0.40 8  233 234 
 NOR  HZ I         817 17.45         4.3 0.25            121            233 234 
 SML  HZ EP        816 41.79                             117   -0.58 8  243 336 
 SML  HN ES        817 10.65                             117   -0.10 8  243 336 
 SML  HZ I         817 13.35        11.1 0.10            120            243 336 
 GUY2CHZ EP        816 49.33                             112    0.06 7  300 235 
 GUY2CHE ES        817 22.89                             112   -0.13 7  300 235 
 GUY2CHZ I         817 34.45         2.2 0.56                           300 235 
 SJC  HZ EP   4    816 59.70                             105   -1.67 0  409 327 
 SJC  HN ES   4    817 42.88                             105   -1.68 0  409 327 
                                                                                
