 2012 1117 0754 33.5 L   5.925 -73.752113.2  RSN 10 0.4 1.4LRSN                1
 GAP= 99        0.76       2.9     3.2  7.0 -0.3179E+00  0.5679E+01 -0.1800E+01E
 Epicentro: GUAVATA - SANTANDER                                                3
 ACTION:UPD 12-12-05 15:33 OP:}ep  STATUS:               ID:20121117075433 L   I
 2012-11-17-0750-00M.COL___233                                                 6
 STAT SP IPHASW D HRMM SECON CODA AMPLIT PERI AZIMU VELO AIN AR TRES W  DIS CAZ7
 RUS  HZ EP   1    754 52.41                             145    0.28 7 74.1  93 
 RUS  HN ES   1    755  6.36                             145   -0.31 7 74.1  93 
 RUS  HZ I         755  7.42         2.7 0.32                          74.1  93 
 BAR2 SZ EP   1    754 54.04                             136    0.49 7 97.0  40 
 BAR2 SZ ES   1    755  9.23                             136    0.03 7 97.0  40 
 PTB  HZ EP   1    754 53.37                             134   -0.43 7  103 311 
 PTB  HN ES   1    755  9.59                             134   -0.04 7  103 311 
 PTB  HZ I         755 10.03         6.6 0.14                           103 311 
 BRR  HZ EP   1    754 56.37                             127    0.06 7  131   2 
 BRR  HN ES   1    755 14.36                             127    0.25 7  131   2 
 BRR  HZ I         755 17.77         5.9 0.18                           131   2 
 GIR2 SZ EP   1    754 58.11                             124    0.53 7  142  26 
 CHI  HZ EP   1    754 58.25                             124    0.15 7  143 179 
 CHI  HN ES   1    755 16.77                             124   -0.52 7  143 179 
 CHI  HZ I         755 18.65         1.9 0.38                           143 179 
 PAM  SZ EP   1    755  3.58                             115   -0.08 6  195  37 
 PAM  SN ES   1    755 27.02                             115   -0.16 6  195  37 
 PAM  SZ I         755 31.81         2.1 0.18                           195  37 
 HEL  HZ EP   1    755  4.17                             115    0.23 6  199 279 
 HEL  HE ES   1    755 28.40                             115    0.71 6  199 279 
 HEL  HZ I         755 32.17         5.3 0.28                           199 279 
 ZAR  HN ES   2    755 28.26                             113   -1.23 4  212 325 
 SML  HZ EP   1    755 16.71                             104   -0.73 5  320 354 
 SML  HN ES   1    755 51.24                             104   -0.47 5  320 354 
 MON  HN ES   4    756  2.03                             101   -2.35 0  380 326 
                                                                                
