 2016  917 0941 40.3 L   6.696 -73.048139.8  RSN  5 0.3 1.7LRSN                1
 GAP=196        0.88       5.5     6.4  6.4 -0.1791E+02  0.7060E+01  0.2704E+01E
 Epicentro: ARATOCA - SANTANDER                                                3
 ACTION:UPD 17-08-17 21:13 OP:lp   STATUS:               ID:20160917094140 L   I
 OLDACT:UP  16-09-17 18:32 OP:ar   STATUS:               ID:20160917093735     3
 OLDACT:REG 16-09-17 14:45 OP:and  STATUS:               ID:20160917093735     3
 2016-09-17-0938-00M.COL___354                                                 6
 STAT SP IPHASW D HRMM SECON CODA AMPLIT PERI AZIMU VELO AIN AR TRES W  DIS CAZ7
 BAR2 EZ EP        941 59.18                             172    0.0910 18.7 232 
 BAR2 EZ ES        942 13.82                             172    0.0410 18.7 232 
 BAR2 EZ I         942 16.91        11.7 0.32            170           18.7 232 
 PAM  EZ EP        942  2.06                             148   -0.0110 80.9  28 
 PAM  EE ES        942 19.25                             148    0.1710 80.9  28 
 PAM  EZ I         942 21.28         5.4 0.40            151           80.9  28 
 BRR  HZ EP        942  0.96                             146   -0.7710 86.3 302 
 BRR  HE ES        942 18.43                             146   -0.0410 86.3 302 
 BRR  HZ I         942 22.16        14.6 0.28            146           86.3 302 
 SPBC HZ EP        942  8.15                             128   -0.02 9  162 225 
 SPBC HN ES        942 30.01                             128    0.06 9  162 225 
 SPBC HZ I         942 31.77         7.5 0.50            130            162 225 
 OCA  HN ES   4    942 29.40                             126   -2.70 0  173 350 
 ZAR  HZ EP        942 14.55                             119    0.70 8  219 294 
 ZAR  HN ES   4    942 37.39                             119   -2.66 0  219 294 
 ZAR  HZ I         942 42.35         4.2 0.26            121            219 294 
                                                                                
